##########################################################
# Query made at 12/24/2012 14:12:13 UTC
# Time interval: from 06/01/2011 00:00  to 07/01/2011 23:59  UTC
##########################################################

##########################################################
# EGLL, London / Heathrow Airport (United Kingdom)
# WMO index: 03772
# Latitude 51-29N. Longitude 000-27W. Altitude 24 m.
##########################################################

###################################
#  METAR/SPECI from EGLL
###################################
201107012350 METAR COR EGLL 012350Z 03004KT 360V060 CAVOK 16/07 Q1023
                        NOSIG=
201107012320 METAR COR EGLL 012320Z VRB03KT CAVOK 16/07 Q1023 NOSIG=
201107012250 METAR COR EGLL 012250Z 36004KT CAVOK 16/08 Q1023 NOSIG=
201107012220 METAR COR EGLL 012220Z 36003KT CAVOK 16/07 Q1023 NOSIG=
201107012150 METAR COR EGLL 012150Z 35002KT CAVOK 17/07 Q1023 NOSIG=
201107012120 METAR COR EGLL 012120Z VRB03KT CAVOK 17/07 Q1024 NOSIG=
201107012050 METAR COR EGLL 012050Z 36003KT CAVOK 17/06 Q1024 NOSIG=
201107012020 METAR COR EGLL 012020Z 36003KT CAVOK 17/06 Q1024 NOSIG=
201107011950 METAR COR EGLL 011950Z VRB03KT CAVOK 18/06 Q1024 NOSIG=
201107011920 METAR COR EGLL 011920Z VRB03KT CAVOK 19/06 Q1024 NOSIG=
201107011850 METAR COR EGLL 011850Z 36004KT CAVOK 19/05 Q1024 NOSIG=
201107011820 METAR COR EGLL 011820Z VRB03KT CAVOK 19/05 Q1024 NOSIG=
201107011750 METAR COR EGLL 011750Z 35005KT 310V020 CAVOK 19/05 Q1024
                        NOSIG=
201107011720 METAR COR EGLL 011720Z 29007KT CAVOK 18/05 Q1024 NOSIG=
201107011650 METAR COR EGLL 011650Z 29004KT 240V320 CAVOK 19/05 Q1024
                        NOSIG=
201107011620 METAR COR EGLL 011620Z 32005KT 280V020 CAVOK 19/05 Q1025
                        NOSIG=
201107011550 METAR COR EGLL 011550Z 35006KT 300V020 CAVOK 19/06 Q1025
                        NOSIG=
201107011520 METAR COR EGLL 011520Z 35005KT 290V040 CAVOK 20/05 Q1025
                        NOSIG=
201107011450 METAR COR EGLL 011450Z 32007KT 300V360 CAVOK 19/06 Q1026
                        NOSIG=
201107011420 METAR COR EGLL 011420Z 32006KT 260V350 CAVOK 19/05 Q1026
                        NOSIG=
201107011350 METAR COR EGLL 011350Z 28006KT 250V330 CAVOK 19/06 Q1026
                        NOSIG=
201107011320 METAR COR EGLL 011320Z 32007KT 220V360 CAVOK 18/06 Q1026
                        NOSIG=
201107011250 METAR COR EGLL 011250Z 34006KT 280V030 CAVOK 18/05 Q1026
                        NOSIG=
201107011220 METAR EGLL 011220Z 35005KT 270V050 CAVOK 18/06 Q1026=
201107011150 METAR EGLL 011150Z 33008KT 300V020 CAVOK 18/05 Q1027 NOSIG=
201107011120 METAR COR EGLL 011120Z 32006KT 260V360 CAVOK 17/05 Q1027
                        NOSIG=
201107011050 METAR COR EGLL 011050Z 33007KT 260V020 9999 SCT047 18/06
                        Q1027 NOSIG=
201107011020 METAR COR EGLL 011020Z 02006KT 290V070 9999 SCT043 18/06
                        Q1027 NOSIG=
201107010950 METAR COR EGLL 010950Z 35007KT 290V030 9999 SCT043 17/06
                        Q1027 NOSIG=
201107010920 METAR COR EGLL 010920Z 34008KT 300V010 9999 FEW042 17/05
                        Q1027 NOSIG=
201107010850 METAR COR EGLL 010850Z 34007KT 300V030 9999 FEW036 16/06
                        Q1027 NOSIG=
201107010820 METAR COR EGLL 010820Z 33007KT 300V030 9999 FEW032 16/07
                        Q1027 NOSIG=
201107010750 METAR COR EGLL 010750Z 34007KT 300V030 9999 FEW024 15/07
                        Q1027 NOSIG=
201107010720 METAR COR EGLL 010720Z 34007KT 310V020 9999 FEW024 15/08
                        Q1027 NOSIG=
201107010650 METAR COR EGLL 010650Z 35006KT 310V020 CAVOK 14/08 Q1027
                        NOSIG=
201107010620 METAR COR EGLL 010620Z 33005KT 290V010 CAVOK 13/08 Q1027
                        NOSIG=
201107010550 METAR COR EGLL 010550Z VRB03KT CAVOK 12/08 Q1027 NOSIG=
201107010520 METAR COR EGLL 010520Z 30004KT CAVOK 11/07 Q1027 NOSIG=
201107010450 METAR COR EGLL 010450Z 28002KT CAVOK 10/07 Q1027 NOSIG=
201107010420 METAR COR EGLL 010420Z 29002KT CAVOK 10/07 Q1026 NOSIG=
201107010350 METAR COR EGLL 010350Z 30002KT CAVOK 10/07 Q1026 NOSIG=
201107010320 METAR COR EGLL 010320Z 32004KT 290V350 CAVOK 11/07 Q1026
                        NOSIG=
201107010250 METAR COR EGLL 010250Z 33004KT 300V020 CAVOK 11/07 Q1026
                        NOSIG=
201107010220 METAR COR EGLL 010220Z VRB03KT CAVOK 11/07 Q1026 NOSIG=
201107010150 METAR COR EGLL 010150Z 31004KT CAVOK 11/07 Q1026 NOSIG=
201107010120 METAR EGLL 010120Z AUTO VRB03KT 9999NDV NCD 12/06 Q1026=
201107010050 METAR EGLL 010050Z AUTO 33004KT 300V360 9999NDV NCD 13/06
                        Q1026=
201107010020 METAR EGLL 010020Z AUTO 33005KT 310V010 9999NDV NCD 13/06
                        Q1026=
201106302350 METAR COR EGLL 302350Z 34007KT 310V020 CAVOK 14/06 Q1026
                        NOSIG=
201106302320 METAR COR EGLL 302320Z 35008KT 300V010 CAVOK 15/06 Q1026
                        NOSIG=
201106302250 METAR COR EGLL 302250Z 34005KT 310V010 CAVOK 15/07 Q1026
                        NOSIG=
201106302220 METAR COR EGLL 302220Z 33005KT 300V360 CAVOK 15/07 Q1026
                        NOSIG=
201106302150 METAR COR EGLL 302150Z 35005KT 290V010 CAVOK 16/07 Q1026
                        NOSIG=
201106302120 METAR COR EGLL 302120Z 33004KT CAVOK 16/07 Q1026 NOSIG=
201106302050 METAR COR EGLL 302050Z 31004KT CAVOK 17/08 Q1025 NOSIG=
201106302020 METAR COR EGLL 302020Z 31004KT CAVOK 17/08 Q1025 NOSIG=
201106301950 METAR COR EGLL 301950Z 31005KT CAVOK 17/07 Q1025 NOSIG=
201106301920 METAR COR EGLL 301920Z 31005KT CAVOK 18/07 Q1025 NOSIG=
201106301850 METAR EGLL 301850Z 29006KT CAVOK 18/07 Q1025=
201106301820 METAR COR EGLL 301820Z 30007KT CAVOK 18/07 Q1025 NOSIG=
201106301750 METAR COR EGLL 301750Z 32008KT 290V010 CAVOK 18/06 Q1024
                        NOSIG=
201106301720 METAR COR EGLL 301720Z 31007KT 280V340 CAVOK 19/07 Q1024
                        NOSIG=
201106301650 METAR COR EGLL 301650Z 32008KT 260V010 CAVOK 19/06 Q1024
                        NOSIG=
201106301620 METAR COR EGLL 301620Z 31008KT 9999 SCT046 20/07 Q1025 NOSIG=
201106301550 METAR COR EGLL 301550Z 31008KT 9999 SCT042 18/07 Q1025 NOSIG=
201106301520 METAR COR EGLL 301520Z 35007KT 300V060 9999 BKN048 19/08
                        Q1025 NOSIG=
201106301450 METAR COR EGLL 301450Z 31007KT 280V350 9999 VCSH SCT047CB
                        18/07 Q1025 NOSIG=
201106301420 METAR COR EGLL 301420Z 27009KT 230V310 CAVOK 19/08 Q1025
                        NOSIG=
201106301350 METAR COR EGLL 301350Z 28009KT 9999 FEW045 18/08 Q1025 NOSIG=
201106301320 METAR COR EGLL 301320Z 30007KT 260V330 9999 FEW046 19/08
                        Q1025 NOSIG=
201106301250 METAR COR EGLL 301250Z 30006KT 280V350 9999 SCT048 17/07
                        Q1025 NOSIG=
201106301220 METAR COR EGLL 301220Z 32006KT 280V360 9999 SCT046 18/07
                        Q1025 NOSIG=
201106301150 METAR COR EGLL 301150Z 32006KT 290V350 9999 BKN046 17/07
                        Q1025 NOSIG=
201106301120 METAR COR EGLL 301120Z 31005KT 240V360 9999 SCT045 19/07
                        Q1026 NOSIG=
201106301050 METAR COR EGLL 301050Z 28007KT 230V350 9999 SCT042 18/08
                        Q1026 NOSIG=
201106301020 METAR COR EGLL 301020Z 26007KT 220V300 9999 SCT044 17/07
                        Q1026 NOSIG=
201106300950 METAR COR EGLL 300950Z 27007KT 220V300 9999 SCT034 17/07
                        Q1026 NOSIG=
201106300920 METAR COR EGLL 300920Z 29004KT 250V020 9999 FEW030 SCT035
                        17/08 Q1026 NOSIG=
201106300850 METAR EGLL 300850Z 28005KT 230V350 9999 FEW027 16/08 Q1026=
201106300820 METAR COR EGLL 300820Z 30004KT 270V360 9999 FEW028 16/09
                        Q1026 NOSIG=
201106300750 METAR COR EGLL 300750Z 28005KT 230V330 CAVOK 15/09 Q1025
                        NOSIG=
201106300720 METAR COR EGLL 300720Z VRB03KT CAVOK 14/09 Q1025 NOSIG=
201106300650 METAR COR EGLL 300650Z VRB03KT CAVOK 13/08 Q1025 NOSIG=
201106300620 METAR COR EGLL 300620Z 30005KT 270V330 CAVOK 12/08 Q1025
                        NOSIG=
201106300550 METAR COR EGLL 300550Z VRB03KT CAVOK 12/08 Q1025 NOSIG=
201106300520 METAR COR EGLL 300520Z 28003KT CAVOK 11/08 Q1025 NOSIG=
201106300450 METAR COR EGLL 300450Z 31003KT CAVOK 10/08 Q1025 NOSIG=
201106300420 METAR COR EGLL 300420Z 30004KT CAVOK 10/07 Q1025 NOSIG=
201106300350 METAR COR EGLL 300350Z 29004KT CAVOK 10/07 Q1025 NOSIG=
201106300320 METAR COR EGLL 300320Z 27005KT CAVOK 10/07 Q1025 NOSIG=
201106300250 METAR COR EGLL 300250Z 28004KT CAVOK 10/07 Q1025 NOSIG=
201106300220 METAR COR EGLL 300220Z 30004KT CAVOK 11/08 Q1025 NOSIG=
201106300150 METAR COR EGLL 300150Z 30006KT CAVOK 11/08 Q1025 NOSIG=
201106300120 METAR EGLL 300120Z AUTO 28008KT 9999NDV NCD 11/08 Q1025=
201106300050 METAR EGLL 300050Z AUTO 29007KT 9999NDV NCD 11/08 Q1025=
201106300020 METAR EGLL 300020Z AUTO 28007KT 9999NDV NCD 11/08 Q1025=
201106292350 METAR COR EGLL 292350Z 29006KT CAVOK 11/08 Q1025 NOSIG=
201106292320 METAR COR EGLL 292320Z 28005KT CAVOK 11/08 Q1025 NOSIG=
201106292250 METAR COR EGLL 292250Z 29007KT CAVOK 12/08 Q1025 NOSIG=
201106292220 METAR COR EGLL 292220Z 29007KT CAVOK 13/08 Q1025 NOSIG=
201106292150 METAR COR EGLL 292150Z 29009KT CAVOK 14/07 Q1024 NOSIG=
201106292120 METAR COR EGLL 292120Z 28008KT CAVOK 14/08 Q1024 NOSIG=
201106292050 METAR COR EGLL 292050Z 29005KT CAVOK 14/08 Q1024 NOSIG=
201106292020 METAR COR EGLL 292020Z 29006KT CAVOK 15/08 Q1024 NOSIG=
201106291950 METAR COR EGLL 291950Z 28007KT CAVOK 17/08 Q1023 NOSIG=
201106291920 METAR COR EGLL 291920Z 29009KT 9999 FEW050CB 17/08 Q1023
                        NOSIG=
201106291850 METAR COR EGLL 291850Z 30008KT 9999 FEW050CB 18/06 Q1023
                        NOSIG=
201106291820 METAR COR EGLL 291820Z 31005KT 260V350 9999 FEW050CB 18/07
                        Q1023 NOSIG=
201106291750 METAR COR EGLL 291750Z 28009KT 260V320 9999 FEW060CB 18/06
                        Q1023 NOSIG=
201106291720 METAR COR EGLL 291720Z 27009KT 9999 FEW050CB 19/06 Q1023
                        NOSIG=
201106291650 METAR COR EGLL 291650Z 30008KT 240V340 9999 FEW048CB 19/07
                        Q1023 NOSIG=
201106291620 METAR COR EGLL 291620Z 31006KT 280V350 9999 FEW050CB 19/07
                        Q1023 NOSIG=
201106291550 METAR COR EGLL 291550Z 30010KT 280V360 9999 FEW050TCU 19/07
                        Q1023 NOSIG=
201106291520 METAR COR EGLL 291520Z 28010KT 9999 FEW050CB 20/07 Q1023
                        NOSIG=
201106291450 METAR COR EGLL 291450Z 28011KT 240V310 CAVOK 19/05 Q1023
                        NOSIG=
201106291420 METAR COR EGLL 291420Z 27011KT 9999 FEW044 18/08 Q1023 NOSIG=
201106291350 METAR COR EGLL 291350Z 30008KT 250V340 CAVOK 19/05 Q1023
                        NOSIG=
201106291320 METAR COR EGLL 291320Z 29010KT 9999 FEW049 19/07 Q1023 NOSIG=
201106291250 METAR COR EGLL 291250Z 26011KT 9999 FEW048 18/07 Q1023 NOSIG=
201106291220 METAR COR EGLL 291220Z 29009KT 260V340 9999 SCT048 19/07
                        Q1023 NOSIG=
201106291150 METAR COR EGLL 291150Z 31008KT 270V350 9999 BKN048 19/07
                        Q1023 NOSIG=
201106291120 METAR COR EGLL 291120Z 31008KT 270V330 9999 BKN045 19/08
                        Q1023 NOSIG=
201106291050 METAR COR EGLL 291050Z 30008KT 260V350 9999 SCT044 18/08
                        Q1022 NOSIG=
201106291020 METAR COR EGLL 291020Z 29011KT 9999 FEW045 18/08 Q1022 NOSIG=
201106290950 METAR COR EGLL 290950Z 31009KT 270V350 9999 SCT042 18/08
                        Q1022 NOSIG=
201106290920 METAR COR EGLL 290920Z 29010KT 250V350 9999 FEW036 17/07
                        Q1022 NOSIG=
201106290850 METAR COR EGLL 290850Z 29010KT CAVOK 17/08 Q1022 NOSIG=
201106290820 METAR COR EGLL 290820Z 27009KT CAVOK 16/09 Q1022 NOSIG=
201106290750 METAR COR EGLL 290750Z 28007KT 250V310 CAVOK 15/09 Q1022
                        NOSIG=
201106290720 METAR EGLL 290720Z 28006KT 250V310 CAVOK 14/08 Q1022=
201106290650 METAR COR EGLL 290650Z 28008KT CAVOK 13/08 Q1022 NOSIG=
201106290620 METAR COR EGLL 290620Z 28007KT CAVOK 13/07 Q1022 NOSIG=
201106290550 METAR COR EGLL 290550Z 29005KT 270V330 CAVOK 12/07 Q1021
                        NOSIG=
201106290520 METAR COR EGLL 290520Z 29006KT CAVOK 11/06 Q1021 NOSIG=
201106290450 METAR COR EGLL 290450Z 29005KT CAVOK 11/06 Q1021 NOSIG=
201106290420 METAR COR EGLL 290420Z 29004KT CAVOK 11/05 Q1021 NOSIG=
201106290350 METAR COR EGLL 290350Z 29004KT CAVOK 10/06 Q1020 NOSIG=
201106290320 METAR COR EGLL 290320Z 31004KT CAVOK 11/06 Q1020 NOSIG=
201106290250 METAR COR EGLL 290250Z 30004KT CAVOK 11/06 Q1020 NOSIG=
201106290220 METAR COR EGLL 290220Z 31006KT CAVOK 12/06 Q1020 NOSIG=
201106290150 METAR COR EGLL 290150Z 29006KT CAVOK 12/06 Q1020 NOSIG=
201106290120 METAR EGLL 290120Z AUTO 31005KT 9999NDV NCD 12/07 Q1020=
201106290050 METAR EGLL 290050Z AUTO 30004KT 9999NDV NCD 13/08 Q1020=
201106290020 METAR EGLL 290020Z AUTO 31004KT 9999NDV NCD 13/08 Q1019=
201106282350 METAR COR EGLL 282350Z 31005KT CAVOK 14/08 Q1019 NOSIG=
201106282320 METAR COR EGLL 282320Z 31005KT 280V360 CAVOK 14/08 Q1018
                        NOSIG=
201106282250 METAR COR EGLL 282250Z 32005KT 9999 FEW034 15/09 Q1018 NOSIG=
201106282220 METAR COR EGLL 282220Z 31006KT 280V340 9999 BKN035 15/10
                        Q1018 NOSIG=
201106282150 METAR COR EGLL 282150Z 29005KT 9999 BKN035 16/10 Q1018 NOSIG=
201106282120 METAR COR EGLL 282120Z 31005KT 9999 BKN030 15/11 Q1017 NOSIG=
201106282050 METAR COR EGLL 282050Z 32005KT 280V350 9999 BKN025 15/11
                        Q1017 NOSIG=
201106282020 METAR COR EGLL 282020Z 33006KT 9999 BKN021 16/12 Q1017 NOSIG=
201106281950 METAR COR EGLL 281950Z 34006KT 280V020 9999 BKN020 16/12
                        Q1017 NOSIG=
201106281920 METAR COR EGLL 281920Z 34006KT 290V030 9999 SCT015 BKN019
                        16/13 Q1016 NOSIG=
201106281850 METAR COR EGLL 281850Z 34008KT 300V020 7000 SCT007 BKN013
                        16/14 Q1016 BECMG SCT015=
201106281820 METAR COR EGLL 281820Z 33007KT 290V010 9999 SCT010 BKN013
                        17/15 Q1016 BECMG SCT015=
201106281750 METAR COR EGLL 281750Z 34007KT 310V020 8000 FEW008 BKN010
                        17/15 Q1016 BECMG SCT012=
201106281720 METAR COR EGLL 281720Z 33008KT 280V010 7000 BKN010 17/15
                        Q1016 BECMG SCT012=
201106281650 METAR COR EGLL 281650Z 32008KT 9999 SCT010 BKN014 17/15 Q1016
                        BECMG SCT014=
201106281620 METAR COR EGLL 281620Z 31006KT 270V340 9999 SCT010 BKN015
                        18/15 Q1016 NOSIG=
201106281550 METAR COR EGLL 281550Z 33005KT 280V010 9999 FEW010 BKN014
                        18/15 Q1015 BECMG SCT016=
201106281520 METAR COR EGLL 281520Z 33005KT 300V010 9999 FEW008CB BKN013
                        18/16 Q1015 NOSIG=
201106281450 METAR COR EGLL 281450Z 33004KT 280V020 7000 SCT007CB BKN010
                        18/16 Q1015 NOSIG=
201106281420 METAR COR EGLL 281420Z 03007KT 360V070 5000 -SHRA VCTS SCT008CB
                        17/16 Q1014 RETS NOSIG=
201106281350 METAR COR EGLL 281350Z 01004KT 340V050 5000 -SHRA FEW008
                        SCT017 17/15 Q1015 TEMPO 4000 TSRA
                        BKN012=
201106281320 METAR COR EGLL 281320Z 04004KT 330V100 5000 -SHRA FEW015
                        BKN017 17/16 Q1015 RESHRA TEMPO TSRA=
201106281250 METAR COR EGLL 281250Z 29005KT 260V330 5000 -RA BKN013CB
                        17/16 Q1016 TEMPO TSRA=
201106281220 METAR COR EGLL 281220Z 31004KT 290V350 5000 VCTS -RA BKN014CB
                        17/15 Q1015 RERA RETS NOSIG=
201106281150 METAR COR EGLL 281150Z 32007KT 270V040 4000 TSRA SCT013 BKN020
                        17/15 Q1015 TEMPO BKN012=
201106281120 METAR COR EGLL 281120Z 35008KT 310V030 7000 -RA SCT014 BKN021
                        18/15 Q1014 RERA TEMPO BKN014 TSRA=
201106281050 METAR EGLL 281050Z 32008KT 300V010 8000 SCT011 BKN016 19/15
                        Q1015 TEMPO TSRA=
201106281020 METAR COR EGLL 281020Z 32008KT 8000 OVC016CB 19/15 Q1014
                        NOSIG=
201106280950 METAR COR EGLL 280950Z 35006KT 300V020 9000 FEW012 OVC015
                        19/15 Q1014 NOSIG=
201106280920 METAR COR EGLL 280920Z 35005KT 320V020 8000 OVC013 19/15
                        Q1014 BECMG SCT015=
201106280850 METAR COR EGLL 280850Z 35005KT 300V030 9000 BKN015 19/15
                        Q1015 NOSIG=
201106280820 METAR COR EGLL 280820Z 36007KT 300V020 8000 BKN013 19/15
                        Q1014 BECMG SCT015=
201106280750 METAR COR EGLL 280750Z 35006KT 310V020 9000 BKN011 19/15
                        Q1014 BECMG SCT015=
201106280720 METAR COR EGLL 280720Z 01006KT 340V050 9000 BKN011 19/15
                        Q1014 BECMG SCT015=
201106280650 METAR COR EGLL 280650Z 01007KT 340V060 9000 BKN011 18/15
                        Q1014 BECMG SCT015=
201106280620 METAR COR EGLL 280620Z 34004KT 280V040 9999 SCT011 18/15
                        Q1015 TEMPO BKN011=
201106280550 METAR COR EGLL 280550Z 02006KT 340V060 9000 FEW010 18/15
                        Q1014 TEMPO BKN010=
201106280520 METAR COR EGLL 280520Z 35005KT 310V030 9000 NSC 18/16 Q1015
                        NOSIG=
201106280450 METAR COR EGLL 280450Z 36004KT 320V040 CAVOK 18/16 Q1014
                        NOSIG=
201106280420 METAR COR EGLL 280420Z 35004KT 310V020 CAVOK 18/16 Q1014
                        NOSIG=
201106280350 METAR COR EGLL 280350Z 36004KT 330V040 CAVOK 18/16 Q1014
                        NOSIG=
201106280320 METAR COR EGLL 280320Z VRB03KT CAVOK 18/16 Q1014 NOSIG=
201106280250 METAR COR EGLL 280250Z 31004KT 270V340 CAVOK 18/16 Q1014
                        NOSIG=
201106280220 METAR COR EGLL 280220Z 30006KT CAVOK 18/16 Q1014 NOSIG=
201106280150 METAR COR EGLL 280150Z 30004KT CAVOK 18/16 Q1014 NOSIG=
201106280120 METAR EGLL 280120Z AUTO 31002KT 9999NDV NCD 19/16 Q1014=
201106280050 METAR EGLL 280050Z AUTO 00000KT 9999NDV NCD 19/16 Q1013=
201106280020 METAR EGLL 280020Z AUTO 32002KT 9999NDV NCD 20/16 Q1013=
201106272350 METAR COR EGLL 272350Z 29005KT CAVOK 20/16 Q1014 NOSIG=
201106272320 METAR COR EGLL 272320Z 29005KT CAVOK 19/16 Q1013 NOSIG=
201106272250 METAR COR EGLL 272250Z 32003KT CAVOK 21/16 Q1014 NOSIG=
201106272220 METAR COR EGLL 272220Z 29003KT CAVOK 21/16 Q1014 NOSIG=
201106272150 METAR COR EGLL 272150Z 28005KT CAVOK 22/16 Q1013 NOSIG=
201106272120 METAR COR EGLL 272120Z 24005KT 210V280 CAVOK 21/16 Q1013
                        NOSIG=
201106272050 METAR COR EGLL 272050Z 28005KT CAVOK 23/17 Q1013 NOSIG=
201106272020 METAR COR EGLL 272020Z 23006KT 190V260 CAVOK 23/17 Q1013
                        NOSIG=
201106271950 METAR EGLL 271950Z 21006KT 150V240 CAVOK 24/17 Q1013=
201106271920 METAR COR EGLL 271920Z 21007KT 170V240 CAVOK 25/17 Q1013
                        NOSIG=
201106271850 METAR COR EGLL 271850Z 21007KT 180V260 CAVOK 26/16 Q1013
                        NOSIG=
201106271820 METAR COR EGLL 271820Z 22008KT 190V250 CAVOK 26/17 Q1013
                        NOSIG=
201106271750 METAR COR EGLL 271750Z 17009G21KT 130V200 CAVOK 26/16 Q1012
                        NOSIG=
201106271720 METAR COR EGLL 271720Z 17007KT 130V260 CAVOK 27/15 Q1012
                        NOSIG=
201106271650 METAR COR EGLL 271650Z 21008KT 180V240 CAVOK 27/16 Q1013
                        NOSIG=
201106271620 METAR COR EGLL 271620Z 16005KT 110V190 CAVOK 27/15 Q1013
                        NOSIG=
201106271550 METAR COR EGLL 271550Z 23005KT 180V270 CAVOK 27/15 Q1013
                        NOSIG=
201106271520 METAR COR EGLL 271520Z 25008KT CAVOK 28/15 Q1013 NOSIG=
201106271450 METAR COR EGLL 271450Z 25010KT CAVOK 28/15 Q1013 NOSIG=
201106271420 METAR COR EGLL 271420Z 30006KT 270V330 CAVOK 28/14 Q1012
                        NOSIG=
201106271350 METAR COR EGLL 271350Z 27008KT CAVOK 29/14 Q1013 NOSIG=
201106271320 METAR COR EGLL 271320Z 26011KT 220V290 CAVOK 30/13 Q1013
                        NOSIG=
201106271250 METAR COR EGLL 271250Z 22007KT 160V270 CAVOK 30/15 Q1012
                        NOSIG=
201106271220 METAR COR EGLL 271220Z 22007KT 190V310 CAVOK 30/16 Q1012
                        NOSIG=
201106271150 METAR COR EGLL 271150Z 23010KT 180V260 CAVOK 29/16 Q1013
                        NOSIG=
201106271120 METAR COR EGLL 271120Z 20009KT 160V260 CAVOK 29/17 Q1013
                        NOSIG=
201106271050 METAR COR EGLL 271050Z 21012KT CAVOK 29/17 Q1013 NOSIG=
201106271020 METAR COR EGLL 271020Z 19010KT 160V240 CAVOK 28/17 Q1012
                        NOSIG=
201106270950 METAR COR EGLL 270950Z 17008KT 130V250 CAVOK 28/17 Q1013
                        NOSIG=
201106270920 METAR COR EGLL 270920Z 18010KT 120V220 CAVOK 27/17 Q1013
                        NOSIG=
201106270850 METAR COR EGLL 270850Z 17009KT 140V230 CAVOK 27/17 Q1012
                        NOSIG=
201106270820 METAR COR EGLL 270820Z 16010KT 120V230 CAVOK 26/16 Q1012
                        NOSIG=
201106270750 METAR COR EGLL 270750Z 15009KT 120V220 CAVOK 25/16 Q1013
                        NOSIG=
201106270720 METAR COR EGLL 270720Z 17008KT 130V230 CAVOK 25/17 Q1013
                        NOSIG=
201106270650 METAR COR EGLL 270650Z 16005KT 110V210 CAVOK 24/16 Q1013
                        NOSIG=
201106270620 METAR COR EGLL 270620Z 15005KT 110V210 CAVOK 23/16 Q1013
                        NOSIG=
201106270550 METAR COR EGLL 270550Z 12005KT 070V190 CAVOK 22/16 Q1014
                        NOSIG=
201106270520 METAR COR EGLL 270520Z 12006KT 100V170 CAVOK 21/16 Q1014
                        NOSIG=
201106270450 METAR COR EGLL 270450Z 11006KT CAVOK 21/16 Q1014 NOSIG=
201106270420 METAR COR EGLL 270420Z 10006KT CAVOK 19/16 Q1014 NOSIG=
201106270350 METAR EGLL 270350Z 08004KT CAVOK 19/16 Q1014=
201106270320 METAR COR EGLL 270320Z 07003KT CAVOK 19/16 Q1015 NOSIG=
201106270250 METAR COR EGLL 270250Z 11005KT CAVOK 21/17 Q1015 NOSIG=
201106270220 METAR EGLL 270220Z 11006KT CAVOK 20/17 Q1015=
201106270150 METAR COR EGLL 270150Z 12007KT CAVOK 21/17 Q1015 NOSIG=
201106270120 METAR EGLL 270120Z AUTO 13006KT 9999NDV NCD 21/17 Q1016=
201106270050 METAR EGLL 270050Z AUTO 13006KT 9999NDV NCD 22/17 Q1016=
201106270020 METAR COR EGLL 270020Z 10005KT CAVOK 22/17 Q1016 NOSIG=
201106262350 METAR COR EGLL 262350Z 08003KT CAVOK 21/17 Q1016 NOSIG=
201106262320 METAR EGLL 262320Z 09004KT CAVOK 21/17 Q1017=
201106262250 METAR COR EGLL 262250Z 11006KT CAVOK 22/17 Q1017 NOSIG=
201106262220 METAR COR EGLL 262220Z 11007KT CAVOK 22/17 Q1017 NOSIG=
201106262150 METAR COR EGLL 262150Z 11007KT 070V170 CAVOK 23/16 Q1017
                        NOSIG=
201106262120 METAR COR EGLL 262120Z 13005KT 070V240 CAVOK 24/15 Q1017
                        NOSIG=
201106262050 METAR COR EGLL 262050Z 12006KT 090V200 CAVOK 24/15 Q1018
                        NOSIG=
201106262020 METAR COR EGLL 262020Z 14007KT 110V200 CAVOK 24/16 Q1018=
201106261950 METAR COR EGLL 261950Z 15006KT 110V260 CAVOK 25/15 Q1018
                        NOSIG=
201106261920 METAR COR EGLL 261920Z 16008KT 120V230 CAVOK 26/14 Q1018
                        NOSIG=
201106261850 METAR COR EGLL 261850Z 17010KT 140V240 CAVOK 26/14 Q1018
                        NOSIG=
201106261820 METAR COR EGLL 261820Z 16010KT 130V220 CAVOK 27/14 Q1018
                        NOSIG=
201106261750 METAR COR EGLL 261750Z 17010KT 130V220 CAVOK 28/15 Q1018
                        NOSIG=
201106261720 METAR COR EGLL 261720Z 18009KT 150V220 CAVOK 28/14 Q1018
                        NOSIG=
201106261650 METAR COR EGLL 261650Z 15009KT 110V240 9999 FEW048 28/16
                        Q1018 NOSIG=
201106261620 METAR EGLL 261620Z 17009KT 130V220 CAVOK 28/15 Q1018=
201106261550 METAR COR EGLL 261550Z 17009KT 120V250 9999 FEW048 28/16
                        Q1019 NOSIG=
201106261520 METAR COR EGLL 261520Z 20009KT 160V250 9999 FEW048 28/16
                        Q1019 NOSIG=
201106261450 METAR COR EGLL 261450Z 17008KT 110V240 9999 FEW038 28/16
                        Q1020 NOSIG=
201106261420 METAR COR EGLL 261420Z 18009KT 120V260 9999 FEW038 28/16
                        Q1020 NOSIG=
201106261350 METAR COR EGLL 261350Z 19008G19KT 120V230 9999 FEW038 28/16
                        Q1020 NOSIG=
201106261320 METAR COR EGLL 261320Z 19006KT 130V270 9999 FEW038 27/16
                        Q1021 NOSIG=
201106261250 METAR COR EGLL 261250Z 23008KT 170V260 CAVOK 27/16 Q1021
                        NOSIG=
201106261220 METAR COR EGLL 261220Z 24006KT 160V280 CAVOK 26/17 Q1021
                        NOSIG=
201106261150 METAR COR EGLL 261150Z 23006KT 190V270 CAVOK 26/17 Q1021
                        NOSIG=
201106261120 METAR COR EGLL 261120Z 17006KT 090V240 CAVOK 25/17 Q1021
                        NOSIG=
201106261050 METAR EGLL 261050Z 18004KT 110V280 CAVOK 24/16 Q1022=
201106261020 METAR EGLL 261020Z VRB05KT CAVOK 22/16 Q1022=
201106260950 METAR EGLL 260950Z 19005KT 130V250 CAVOK 21/16 Q1022=
201106260920 METAR COR EGLL 260920Z 20004KT 100V250 CAVOK 20/15 Q1023
                        NOSIG=
201106260850 METAR COR EGLL 260850Z VRB03KT 9999 FEW008 19/16 Q1023 TEMPO
                        BKN010=
201106260820 METAR COR EGLL 260820Z VRB03KT 9999 FEW006 BKN008 17/15 Q1023
                        BECMG SCT010=
201106260750 METAR COR EGLL 260750Z VRB03KT 9999 BKN005 17/15 Q1023 TEMPO
                        SCT006=
201106260720 METAR COR EGLL 260720Z 18004KT 150V220 8000 BKN004 16/15
                        Q1023 BECMG BKN006=
201106260650 METAR COR EGLL 260650Z 23004KT 170V270 8000 BKN004 16/14
                        Q1023 BECMG BKN006=
201106260620 METAR COR EGLL 260620Z 20006KT 9999 BKN004 16/14 Q1023 BECMG
                        BKN006=
201106260550 METAR COR EGLL 260550Z 22006KT 190V250 9999 BKN004 16/14
                        Q1023 BECMG BKN006=
201106260520 METAR COR EGLL 260520Z 21006KT 190V260 9999 BKN006 15/14
                        Q1023 NOSIG=
201106260450 METAR COR EGLL 260450Z 24006KT 9999 BKN007 16/14 Q1023 NOSIG=
201106260420 METAR COR EGLL 260420Z 23005KT 9999 BKN007 16/14 Q1023 NOSIG=
201106260350 METAR COR EGLL 260350Z 25004KT 9999 BKN008 16/14 Q1023 NOSIG=
201106260320 METAR COR EGLL 260320Z 28004KT 9999 BKN008 16/14 Q1022 TEMPO
                        4000 BR=
201106260250 METAR COR EGLL 260250Z 29005KT 9999 BKN008 16/14 Q1023 BECMG
                        4000 BR=
201106260220 METAR COR EGLL 260220Z 26007KT 9999 BKN008 16/14 Q1023 NOSIG=
201106260150 METAR COR EGLL 260150Z 27007KT 9999 BKN009 16/14 Q1023 NOSIG=
201106260120 METAR COR EGLL 260120Z AUTO 26008KT 9999NDV BKN010/// 16/14
                        Q1023=
201106260050 METAR COR EGLL 260050Z AUTO 25006KT 9999NDV BKN010/// 16/14
                        Q1023=
201106260020 METAR COR EGLL 260020Z AUTO 26009KT 9999NDV BKN011/// 16/14
                        Q1023=
201106252350 METAR COR EGLL 252350Z 27009KT 9999 SCT011 16/14 Q1023 BECMG
                        BKN012=
201106252320 METAR COR EGLL 252320Z 27011KT 9999 SCT011 16/14 Q1023 TEMPO
                        BKN012=
201106252250 METAR COR EGLL 252250Z 27008KT CAVOK 15/14 Q1023 TEMPO BKN014=
201106252220 METAR COR EGLL 252220Z 28008KT CAVOK 16/14 Q1023 NOSIG=
201106252150 METAR COR EGLL 252150Z 28010KT CAVOK 17/15 Q1023 NOSIG=
201106252120 METAR COR EGLL 252120Z 28009KT CAVOK 17/15 Q1023 NOSIG=
201106252050 METAR COR EGLL 252050Z 29007KT CAVOK 18/15 Q1023 NOSIG=
201106252020 METAR COR EGLL 252020Z 28010KT CAVOK 19/15 Q1022 NOSIG=
201106251950 METAR COR EGLL 251950Z 29009KT 9999 FEW027 19/15 Q1022 NOSIG=
201106251920 METAR COR EGLL 251920Z 29012KT 9999 FEW027 20/15 Q1022 NOSIG=
201106251850 METAR COR EGLL 251850Z 27013KT 9999 FEW031 22/16 Q1022 NOSIG=
201106251820 METAR COR EGLL 251820Z 27014KT 9999 FEW031 22/15 Q1022 NOSIG=
201106251750 METAR COR EGLL 251750Z 27012KT 9999 FEW030 23/16 Q1021 NOSIG=
201106251720 METAR COR EGLL 251720Z 29012KT 9999 FEW033 23/16 Q1021 NOSIG=
201106251650 METAR COR EGLL 251650Z 27014KT 9999 FEW032 23/15 Q1021 NOSIG=
201106251620 METAR COR EGLL 251620Z 27014KT 240V300 9999 FEW028 23/16
                        Q1021 NOSIG=
201106251550 METAR COR EGLL 251550Z 27016KT 9999 FEW031 23/16 Q1021 NOSIG=
201106251520 METAR COR EGLL 251520Z 26016KT 220V280 9999 SCT024 SCT029
                        23/15 Q1021 NOSIG=
201106251450 METAR COR EGLL 251450Z 25016KT 9999 SCT023 SCT031 23/16 Q1021
                        NOSIG=
201106251420 METAR COR EGLL 251420Z 28018KT 9999 FEW025 BKN030 22/16 Q1021
                        NOSIG=
201106251350 METAR COR EGLL 251350Z 26014KT 9999 BKN025 21/16 Q1021 NOSIG=
201106251320 METAR EGLL 251320Z 26016KT 9999 FEW019 BKN022 21/16 Q1021=
201106251250 METAR COR EGLL 251250Z 24014KT 9999 BKN020 20/16 Q1021 NOSIG=
201106251220 METAR COR EGLL 251220Z 26014KT 9999 FEW016 BKN021 20/16 Q1021
                        NOSIG=
201106251150 METAR COR EGLL 251150Z 25015KT 9999 BKN015 19/16 Q1021 NOSIG=
201106251120 METAR COR EGLL 251120Z 25016KT 9999 BKN015 19/16 Q1021 NOSIG=
201106251050 METAR COR EGLL 251050Z 26015KT 9999 FEW013 BKN015 19/16 Q1021
                        NOSIG=
201106251020 METAR COR EGLL 251020Z 25014G24KT 9999 BKN014 18/15 Q1021
                        BECMG BKN016=
201106250950 METAR COR EGLL 250950Z 26016KT 9999 BKN012 18/15 Q1020 NOSIG=
201106250920 METAR COR EGLL 250920Z 25014KT 9999 BKN012 18/15 Q1020 NOSIG=
201106250850 METAR COR EGLL 250850Z 25013KT 9999 BKN012 17/15 Q1020 NOSIG=
201106250820 METAR COR EGLL 250820Z 24014KT 9999 FEW009 BKN012 16/15 Q1020
                        NOSIG=
201106250750 METAR COR EGLL 250750Z 25013KT 9999 SCT008 BKN011 16/15 Q1020
                        TEMPO BKN009=
201106250720 METAR COR EGLL 250720Z 24011KT 9999 BKN008 16/14 Q1020 BECMG
                        BKN010=
201106250650 METAR COR EGLL 250650Z 23009KT 9999 OVC009 15/14 Q1020 BECMG
                        BKN012=
201106250620 METAR COR EGLL 250620Z 22009KT 9999 BKN009 BKN015 15/14 Q1019
                        NOSIG=
201106250550 METAR COR EGLL 250550Z 22009KT 9999 FEW005 BKN008 14/13 Q1019
                        NOSIG=
201106250520 METAR COR EGLL 250520Z 22008KT 190V260 8000 FEW006 BKN010
                        14/13 Q1019 TEMPO BKN006=
201106250450 METAR COR EGLL 250450Z 22008KT 8000 BKN006 14/12 Q1019 NOSIG=
201106250420 METAR COR EGLL 250420Z 22009KT 9999 BKN009 13/12 Q1019 BECMG
                        BKN011=
201106250350 METAR COR EGLL 250350Z 21009KT 9999 BKN010 13/12 Q1019 TEMPO
                        BKN008=
201106250320 METAR COR EGLL 250320Z 22009KT 9999 -RA BKN008 13/12 Q1020
                        RERA NOSIG=
201106250250 METAR COR EGLL 250250Z 21009KT 9999 FEW008 BKN012 13/12 Q1020
                        TEMPO BKN008=
201106250220 METAR COR EGLL 250220Z 20008KT 6000 -RA BKN007 12/11 Q1020
                        TEMPO 4000 RA=
201106250150 METAR COR EGLL 250150Z 20008KT 5000 -RA SCT007 BKN011 12/11
                        Q1021 NOSIG=
201106250120 METAR COR EGLL 250120Z AUTO 19008KT 4900NDV +DZ FEW008///
                        BKN012/// 12/11 Q1021=
201106250050 METAR COR EGLL 250050Z AUTO 18009KT 7000NDV -RA FEW009///
                        OVC017/// 12/11 Q1021 RERA=
201106250020 METAR EGLL 250020Z AUTO 16008KT 7000NDV RA FEW009/// SCT022///
                        BKN026/// 12/11 Q1022=
201106242350 METAR COR EGLL 242350Z 15005KT 7000 -RA FEW010 BKN034 12/10
                        Q1022 RERA BECMG BKN012=
201106242320 METAR COR EGLL 242320Z 21007KT 7000 RA FEW018 BKN025 12/10
                        Q1023 BECMG -RA BKN012=
201106242250 METAR COR EGLL 242250Z 22007KT 8000 RA FEW015 SCT042 12/10
                        Q1023 BECMG BKN012=
201106242220 METAR COR EGLL 242220Z 21007KT 9999 -RA NSC 13/11 Q1023 NOSIG=
201106242150 METAR COR EGLL 242150Z 22009KT 170V260 9999 -RA FEW015 13/11
                        Q1023 NOSIG=
201106242120 METAR COR EGLL 242120Z 22007G18KT 160V260 9999 -RA FEW012
                        13/11 Q1024 NOSIG=
201106242050 METAR COR EGLL 242050Z 23009KT 200V270 9999 -RA FEW020 13/11
                        Q1024 NOSIG=
201106242020 METAR COR EGLL 242020Z 25009KT 9999 -RA FEW032 13/11 Q1023
                        NOSIG=
201106241950 METAR COR EGLL 241950Z 27007KT 240V300 9999 -RA FEW032 13/11
                        Q1023 NOSIG=
201106241920 METAR COR EGLL 241920Z 27008KT 9999 -RA FEW032 13/11 Q1023
                        NOSIG=
201106241850 METAR COR EGLL 241850Z 27010KT 9999 -RA FEW042 14/11 Q1023
                        NOSIG=
201106241820 METAR COR EGLL 241820Z 27010KT 9999 -SHRA FEW047 14/11 Q1023
                        NOSIG=
201106241750 METAR EGLL 241750Z 27015KT 9999 -SHRA FEW034 15/10 Q1023=
201106241720 METAR COR EGLL 241720Z 26011KT 9999 FEW040 17/09 Q1022 NOSIG=
201106241650 METAR COR EGLL 241650Z 25012KT 9999 FEW040 17/08 Q1022 NOSIG=
201106241620 METAR COR EGLL 241620Z 25014KT 9999 SCT039 17/09 Q1022 NOSIG=
201106241550 METAR COR EGLL 241550Z 24013KT 9999 FEW040 18/09 Q1022 NOSIG=
201106241520 METAR COR EGLL 241520Z 23014KT 9999 FEW037 18/09 Q1022 NOSIG=
201106241450 METAR COR EGLL 241450Z 27013KT CAVOK 19/07 Q1022 NOSIG=
201106241420 METAR COR EGLL 241420Z 26010KT 240V300 CAVOK 19/07 Q1022
                        NOSIG=
201106241350 METAR COR EGLL 241350Z 25012KT CAVOK 19/07 Q1022 NOSIG=
201106241320 METAR COR EGLL 241320Z 25010KT 220V290 CAVOK 19/07 Q1022
                        NOSIG=
201106241250 METAR COR EGLL 241250Z 27010KT 230V300 CAVOK 19/06 Q1022
                        NOSIG=
201106241220 METAR COR EGLL 241220Z 26010KT 210V310 9999 FEW048 19/07
                        Q1022 NOSIG=
201106241150 METAR COR EGLL 241150Z 25009KT 9999 FEW048 18/06 Q1022 NOSIG=
201106241120 METAR COR EGLL 241120Z 25010KT 9999 FEW048 18/07 Q1023 NOSIG=
201106241050 METAR COR EGLL 241050Z 28006KT 230V320 9999 SCT043 17/07
                        Q1023 NOSIG=
201106241020 METAR COR EGLL 241020Z 27007KT 240V320 9999 FEW026 17/08
                        Q1023 NOSIG=
201106240950 METAR COR EGLL 240950Z 23008KT 210V270 9999 SCT032 16/08
                        Q1023 NOSIG=
201106240920 METAR COR EGLL 240920Z 24006KT 190V290 9999 SCT029 16/09
                        Q1023 NOSIG=
201106240850 METAR COR EGLL 240850Z 24006KT 190V330 9999 FEW027 16/09
                        Q1023 NOSIG=
201106240820 METAR COR EGLL 240820Z 29006KT 260V340 9999 FEW026 15/09
                        Q1023 NOSIG=
201106240750 METAR COR EGLL 240750Z 26007KT 230V290 9999 FEW020 14/09
                        Q1023 NOSIG=
201106240720 METAR EGLL 240720Z 26006KT 9999 FEW018 13/09 Q1022=
201106240650 METAR COR EGLL 240650Z 27006KT 230V300 CAVOK 13/09 Q1022
                        NOSIG=
201106240620 METAR COR EGLL 240620Z 28007KT 240V300 CAVOK 12/09 Q1022
                        NOSIG=
201106240550 METAR COR EGLL 240550Z 26008KT CAVOK 11/08 Q1022 NOSIG=
201106240520 METAR COR EGLL 240520Z 25008KT CAVOK 10/08 Q1022 NOSIG=
201106240450 METAR COR EGLL 240450Z 26006KT CAVOK 09/08 Q1022 NOSIG=
201106240420 METAR COR EGLL 240420Z 25006KT CAVOK 09/07 Q1021 NOSIG=
201106240350 METAR COR EGLL 240350Z 26006KT CAVOK 09/07 Q1021 NOSIG=
201106240320 METAR COR EGLL 240320Z 26008KT CAVOK 09/07 Q1021 NOSIG=
201106240250 METAR COR EGLL 240250Z 27007KT CAVOK 09/08 Q1021 NOSIG=
201106240220 METAR COR EGLL 240220Z 27007KT CAVOK 10/08 Q1021 NOSIG=
201106240150 METAR COR EGLL 240150Z 27008KT CAVOK 10/08 Q1021 NOSIG=
201106240120 METAR EGLL 240120Z AUTO 27008KT 9999NDV NCD 11/08 Q1021=
201106240050 METAR EGLL 240050Z AUTO 28010KT 9999NDV NCD 11/08 Q1020=
201106240020 METAR EGLL 240020Z AUTO 27010KT 9999NDV NCD 12/08 Q1020=
201106232350 METAR COR EGLL 232350Z 28011KT CAVOK 13/08 Q1020 NOSIG=
201106232320 METAR COR EGLL 232320Z 28009KT CAVOK 13/08 Q1020 NOSIG=
201106232250 METAR COR EGLL 232250Z 29010KT CAVOK 13/08 Q1020 NOSIG=
201106232220 METAR COR EGLL 232220Z 28009KT 9999 FEW045 13/08 Q1019 NOSIG=
201106232150 METAR COR EGLL 232150Z 28011KT 9999 FEW045 14/08 Q1019 NOSIG=
201106232120 METAR COR EGLL 232120Z 28013KT 9999 FEW045 14/08 Q1019 NOSIG=
201106232050 METAR COR EGLL 232050Z 28011KT 9999 FEW045 14/08 Q1019 NOSIG=
201106232020 METAR COR EGLL 232020Z 28011KT 9999 FEW045 15/08 Q1019 NOSIG=
201106231950 METAR COR EGLL 231950Z 27011KT 9999 FEW045 15/08 Q1018 NOSIG=
201106231920 METAR COR EGLL 231920Z 27011KT 9999 SCT045 15/09 Q1018 NOSIG=
201106231850 METAR COR EGLL 231850Z 27011KT 9999 SCT045 15/09 Q1018 NOSIG=
201106231820 METAR COR EGLL 231820Z 28009KT 9999 SCT035TCU 16/08 Q1018
                        NOSIG=
201106231750 METAR COR EGLL 231750Z 29012KT 9999 -SHRA FEW020 SCT032CB
                        15/07 Q1017 NOSIG=
201106231720 METAR COR EGLL 231720Z 29011KT 9999 FEW025 SCT048CB 16/09
                        Q1017 NOSIG=
201106231650 METAR COR EGLL 231650Z 28014KT 9999 FEW024 SCT038CB 16/09
                        Q1017 NOSIG=
201106231620 METAR COR EGLL 231620Z 28008KT 9999 FEW039 SCT042CB 16/10
                        Q1017 RESHRA NOSIG=
201106231550 METAR COR EGLL 231550Z 29011KT 9999 4000NW SHRA FEW030 SCT042CB
                        17/08 Q1016 BECMG NSW=
201106231520 METAR COR EGLL 231520Z 28014KT 9999 SCT040CB 18/10 Q1016
                        NOSIG=
201106231450 METAR COR EGLL 231450Z 28012KT 9999 SCT026CB 17/10 Q1016
                        NOSIG=
201106231420 METAR COR EGLL 231420Z 27016G27KT 7000 -SHRA SCT022 BKN032CB
                        14/09 Q1016 RESHRA NOSIG=
201106231350 METAR COR EGLL 231350Z 28016KT 9999 FEW043TCU 18/08 Q1016
                        NOSIG=
201106231320 METAR COR EGLL 231320Z 28015KT 250V320 9999 SCT038TCU 17/08
                        Q1016 TEMPO SHRA=
201106231250 METAR COR EGLL 231250Z 28014KT 9999 FEW015CB SCT038 17/09
                        Q1015 TEMPO SHRA=
201106231220 METAR COR EGLL 231220Z 29014KT 9999 SCT025CB 18/08 Q1015
                        TEMPO SHRA=
201106231150 METAR COR EGLL 231150Z 30009KT 9999 SCT025CB SCT045 16/09
                        Q1015 TEMPO SHRA=
201106231120 METAR COR EGLL 231120Z 28015KT 9999 FEW025CB SCT042 18/08
                        Q1015 TEMPO SHRA=
201106231050 METAR COR EGLL 231050Z 26015KT 9999 FEW028CB SCT039 18/09
                        Q1015 TEMPO SHRA=
201106231020 METAR COR EGLL 231020Z 25014KT 9999 FEW028CB SCT039 18/09
                        Q1015 TEMPO SHRA=
201106230950 METAR COR EGLL 230950Z 27014KT 9999 FEW028CB SCT032 17/09
                        Q1014 NOSIG=
201106230920 METAR COR EGLL 230920Z 27012KT 9999 FEW028CB SCT033 17/09
                        Q1014 NOSIG=
201106230850 METAR COR EGLL 230850Z 27014KT 9999 FEW028 17/09 Q1014 NOSIG=
201106230820 METAR COR EGLL 230820Z 26012KT 9999 FEW022 16/11 Q1014 NOSIG=
201106230750 METAR EGLL 230750Z 27012KT 9999 FEW018 14/10 Q1014=
201106230720 METAR COR EGLL 230720Z 26014KT 9999 FEW015 14/10 Q1014 NOSIG=
201106230650 METAR EGLL 230650Z 26012KT 9999 FEW014 14/10 Q1014 NOSIG=
201106230620 METAR COR EGLL 230620Z 26011KT CAVOK 13/10 Q1013 NOSIG=
201106230550 METAR COR EGLL 230550Z 26012KT CAVOK 13/10 Q1013 NOSIG=
201106230520 METAR COR EGLL 230520Z 25011KT 9999 FEW010 12/10 Q1013 NOSIG=
201106230450 METAR COR EGLL 230450Z 25009KT 9999 FEW030 12/10 Q1013 NOSIG=
201106230420 METAR COR EGLL 230420Z 24009KT 9999 FEW040 12/10 Q1013 NOSIG=
201106230350 METAR COR EGLL 230350Z 25008KT 9999 FEW040 11/10 Q1012 NOSIG=
201106230320 METAR COR EGLL 230320Z 24007KT 9999 FEW040 12/10 Q1012 NOSIG=
201106230250 METAR COR EGLL 230250Z 25007KT 9999 FEW040 11/10 Q1012 NOSIG=
201106230220 METAR COR EGLL 230220Z 24009KT 9999 SCT040 11/09 Q1012 NOSIG=
201106230150 METAR COR EGLL 230150Z 25006KT CAVOK 11/10 Q1012 NOSIG=
201106230120 METAR EGLL 230120Z AUTO 24009KT 9999NDV NCD 12/09 Q1012=
201106230050 METAR EGLL 230050Z AUTO 24010KT 9999NDV NCD 12/09 Q1012=
201106230020 METAR EGLL 230020Z AUTO 25009KT 9999NDV NCD 12/09 Q1012=
201106222350 METAR COR EGLL 222350Z 25009KT CAVOK 12/10 Q1012 NOSIG=
201106222320 METAR COR EGLL 222320Z 26011KT CAVOK 12/10 Q1012 NOSIG=
201106222250 METAR COR EGLL 222250Z 25011KT CAVOK 13/10 Q1012 NOSIG=
201106222220 METAR COR EGLL 222220Z 26011KT CAVOK 13/10 Q1012 NOSIG=
201106222150 METAR COR EGLL 222150Z 25014KT CAVOK 14/10 Q1011 NOSIG=
201106222120 METAR COR EGLL 222120Z 26011KT 9999 FEW030 15/10 Q1011 NOSIG=
201106222050 METAR COR EGLL 222050Z 27013KT 9999 FEW040 15/09 Q1011 NOSIG=
201106222020 METAR COR EGLL 222020Z 26015KT 9999 FEW040 16/09 Q1010 NOSIG=
201106221950 METAR COR EGLL 221950Z 26014KT 9999 FEW043 17/09 Q1010 NOSIG=
201106221920 METAR COR EGLL 221920Z 25013KT 9999 SCT041 17/10 Q1010 NOSIG=
201106221850 METAR COR EGLL 221850Z 23011KT 9999 FEW031 SCT041 18/10 Q1009
                        NOSIG=
201106221820 METAR COR EGLL 221820Z 24011KT 210V270 9999 FEW031 SCT038
                        19/12 Q1009 NOSIG=
201106221750 METAR COR EGLL 221750Z 23011KT 9999 SCT024 19/13 Q1009 NOSIG=
201106221720 METAR COR EGLL 221720Z 22011KT 9999 FEW026 18/13 Q1009 NOSIG=
201106221650 METAR COR EGLL 221650Z 23014KT 9999 SCT018 19/12 Q1008 NOSIG=
201106221620 METAR COR EGLL 221620Z 23014KT 9999 FEW018 18/12 Q1008 NOSIG=
201106221550 METAR COR EGLL 221550Z 23016KT 9999 SCT015 18/13 Q1008 NOSIG=
201106221520 METAR COR EGLL 221520Z 23015KT 9999 SCT015 18/13 Q1008 NOSIG=
201106221450 METAR COR EGLL 221450Z 23015KT 9999 SCT015 SCT021 17/13 Q1008
                        NOSIG=
201106221420 METAR COR EGLL 221420Z 23015KT 9999 SCT017 BKN021 17/13 Q1008
                        TEMPO SHRA=
201106221350 METAR COR EGLL 221350Z 23013KT 9999 FEW010CB SCT016 16/13
                        Q1008 TEMPO SHRA=
201106221320 METAR COR EGLL 221320Z 23015KT 9999 FEW009 SCT012 15/13 Q1008
                        TEMPO SHRA=
201106221250 METAR COR EGLL 221250Z 23015KT 9999 4000E -SHRA FEW009 BKN014
                        BKN021 14/13 Q1008 TEMPO SHRA=
201106221220 METAR COR EGLL 221220Z 22009KT 170V230 9999 -SHRA FEW010
                        SCT018 14/13 Q1008 TEMPO SHRA=
201106221150 METAR COR EGLL 221150Z 22011KT 6000 -SHRA SCT010CB BKN017
                        14/13 Q1008 TEMPO SHRA=
201106221120 METAR COR EGLL 221120Z 21013KT 9999 -SHRA FEW015CB BKN019
                        BKN021 15/13 Q1008 TEMPO SHRA=
201106221050 METAR COR EGLL 221050Z 21013KT 180V250 9999 VCSH FEW015CB
                        SCT025 BKN035 16/12 Q1007 TEMPO SHRA=
201106221020 METAR COR EGLL 221020Z 21013KT 9999 VCSH FEW015CB SCT020
                        BKN045 16/11 Q1007 TEMPO SHRA=
201106220950 METAR COR EGLL 220950Z 22011KT 170V240 9999 FEW028 BKN043
                        16/10 Q1007 TEMPO SHRA=
201106220920 METAR COR EGLL 220920Z 21013KT 9999 FEW028 BKN043 16/10 Q1007
                        NOSIG=
201106220850 METAR COR EGLL 220850Z 23013KT 9999 FEW015 SCT035 17/10 Q1007
                        NOSIG=
201106220820 METAR COR EGLL 220820Z 23014KT 9999 FEW016 BKN024 16/10 Q1007
                        NOSIG=
201106220750 METAR COR EGLL 220750Z 23013KT 9999 FEW024 BKN026 16/10 Q1007
                        NOSIG=
201106220720 METAR COR EGLL 220720Z 23013KT 9999 SCT021 16/11 Q1007 NOSIG=
201106220650 METAR EGLL 220650Z 22009KT 9999 FEW019 15/11 Q1008=
201106220620 METAR COR EGLL 220620Z 22010KT 9999 FEW020 15/11 Q1008 NOSIG=
201106220550 METAR COR EGLL 220550Z 21007KT 9999 FEW020 14/11 Q1008 NOSIG=
201106220520 METAR COR EGLL 220520Z 21008KT 9999 FEW043 14/11 Q1008 NOSIG=
201106220450 METAR COR EGLL 220450Z 20005KT 9999 FEW022 SCT043 13/11 Q1009
                        NOSIG=
201106220420 METAR COR EGLL 220420Z 20006KT 9999 FEW022 SCT027 BKN031
                        13/11 Q1009 NOSIG=
201106220350 METAR COR EGLL 220350Z 19007KT 9999 BKN035 12/10 Q1009 NOSIG=
201106220320 METAR COR EGLL 220320Z 20007KT 9999 FEW028 12/10 Q1009 TEMPO
                        BKN014=
201106220250 METAR COR EGLL 220250Z 20006KT CAVOK 12/10 Q1009 TEMPO BKN014=
201106220220 METAR COR EGLL 220220Z 20007KT CAVOK 12/10 Q1010 TEMPO BKN014=
201106220150 METAR COR EGLL 220150Z 21007KT CAVOK 12/10 Q1010 TEMPO BKN014=
201106220120 METAR EGLL 220120Z AUTO 22008KT 9999NDV NCD 13/10 Q1010=
201106220050 METAR EGLL 220050Z AUTO 22009KT 9999NDV NCD 13/10 Q1010=
201106220020 METAR EGLL 220020Z AUTO 24012KT 9999NDV NCD 13/10 Q1010=
201106212350 METAR COR EGLL 212350Z 21009KT CAVOK 13/09 Q1010 NOSIG=
201106212320 METAR COR EGLL 212320Z 21007KT CAVOK 13/09 Q1010 NOSIG=
201106212250 METAR COR EGLL 212250Z 22008KT CAVOK 13/09 Q1010 NOSIG=
201106212220 METAR COR EGLL 212220Z 23009KT CAVOK 14/09 Q1011 NOSIG=
201106212150 METAR COR EGLL 212150Z 23012KT 190V260 CAVOK 14/09 Q1011
                        NOSIG=
201106212120 METAR COR EGLL 212120Z 23012G24KT CAVOK 14/08 Q1011 NOSIG=
201106212050 METAR COR EGLL 212050Z 23013KT CAVOK 15/07 Q1011 NOSIG=
201106212020 METAR COR EGLL 212020Z 23015KT CAVOK 16/07 Q1010 NOSIG=
201106211950 METAR COR EGLL 211950Z 24015KT 9999 FEW040 16/07 Q1010 NOSIG=
201106211920 METAR COR EGLL 211920Z 22014G25KT 9999 FEW037 17/08 Q1010
                        BECMG 21010KT=
201106211850 METAR COR EGLL 211850Z 23013KT 9999 FEW038 17/08 Q1010 NOSIG=
201106211820 METAR COR EGLL 211820Z 23017KT 9999 FEW043 18/08 Q1010 NOSIG=
201106211750 METAR COR EGLL 211750Z 23017KT 9999 FEW048 19/08 Q1010 NOSIG=
201106211720 METAR COR EGLL 211720Z 22015G27KT 9999 FEW043 19/09 Q1010
                        NOSIG=
201106211650 METAR COR EGLL 211650Z 22017KT 180V250 9999 FEW039 SCT043
                        19/09 Q1010 NOSIG=
201106211620 METAR COR EGLL 211620Z 22017KT 9999 SCT044 19/09 Q1010 NOSIG=
201106211550 METAR COR EGLL 211550Z 22018G29KT 9999 FEW037 SCT043 20/10
                        Q1010 NOSIG=
201106211520 METAR COR EGLL 211520Z 22017KT 9999 SCT034 SCT045 20/11 Q1010
                        NOSIG=
201106211450 METAR COR EGLL 211450Z 23017KT 9999 SCT038 20/11 Q1010 NOSIG=
201106211420 METAR COR EGLL 211420Z 22017KT 9999 SCT037 21/11 Q1010 NOSIG=
201106211350 METAR COR EGLL 211350Z 22016KT 9999 BKN034 20/12 Q1010 NOSIG=
201106211320 METAR COR EGLL 211320Z 22016KT 9999 BKN029 20/12 Q1011 NOSIG=
201106211250 METAR COR EGLL 211250Z 22016KT 9999 SCT030 20/12 Q1011 NOSIG=
201106211220 METAR COR EGLL 211220Z 23014KT 9999 SCT030 19/12 Q1011 NOSIG=
201106211150 METAR COR EGLL 211150Z 22014KT 9999 SCT030 20/12 Q1011 NOSIG=
201106211120 METAR COR EGLL 211120Z 24015KT 9999 SCT030 20/12 Q1010 NOSIG=
201106211050 METAR COR EGLL 211050Z 23015KT 9999 SCT030 19/12 Q1010 NOSIG=
201106211020 METAR COR EGLL 211020Z 24014KT 9999 SCT031 20/13 Q1010 NOSIG=
201106210950 METAR COR EGLL 210950Z 24014KT 9999 SCT032 19/13 Q1010 NOSIG=
201106210920 METAR COR EGLL 210920Z 24014KT 9999 FEW024 SCT036 18/13 Q1010
                        NOSIG=
201106210850 METAR COR EGLL 210850Z 23018KT 9999 FEW025 BKN040 17/12 Q1010
                        NOSIG=
201106210820 METAR COR EGLL 210820Z 22013KT 9999 FEW020 SCT030 18/13 Q1010
                        NOSIG=
201106210750 METAR COR EGLL 210750Z 23011KT 200V260 9999 SCT017 18/13
                        Q1010 NOSIG=
201106210720 METAR COR EGLL 210720Z 22009KT 9999 SCT016 16/13 Q1010 TEMPO
                        BKN012=
201106210650 METAR COR EGLL 210650Z 21009KT 9999 SCT016 SCT020 16/13 Q1010
                        TEMPO BKN012=
201106210620 METAR COR EGLL 210620Z 22009KT 9999 FEW012 SCT020 15/13 Q1009
                        TEMPO BKN012=
201106210550 METAR COR EGLL 210550Z 22008KT 190V260 9999 FEW015 15/13
                        Q1009 TEMPO BKN012=
201106210520 METAR COR EGLL 210520Z 23009KT 9999 FEW015 15/13 Q1009 TEMPO
                        BKN012=
201106210450 METAR COR EGLL 210450Z 23008KT 9999 FEW015 15/13 Q1009 TEMPO
                        BKN012=
201106210420 METAR COR EGLL 210420Z 23008KT 9999 FEW015 14/13 Q1009 TEMPO
                        BKN012=
201106210350 METAR COR EGLL 210350Z 23008KT 9999 FEW030 14/13 Q1009 NOSIG=
201106210320 METAR COR EGLL 210320Z 23008KT 9999 BKN013 14/13 Q1009 TEMPO
                        BKN008=
201106210250 METAR COR EGLL 210250Z 22007KT 9999 FEW018 BKN049 14/13 Q1009
                        TEMPO BKN010=
201106210220 METAR COR EGLL 210220Z 23009KT 9999 SCT014 SCT034 15/13 Q1009
                        TEMPO BKN012=
201106210150 METAR COR EGLL 210150Z 23011KT 9999 SCT016 BKN021 15/13 Q1009
                        TEMPO BKN012=
201106210120 METAR EGLL 210120Z AUTO 23009KT 9000NDV -RA FEW017/// SCT032///
                        15/13 Q1009=
201106210050 METAR EGLL 210050Z AUTO 21009KT 9999NDV SCT017/// 15/14 Q1009=
201106210020 METAR EGLL 210020Z AUTO 23011KT 9999NDV SCT009/// BKN018///
                        15/14 Q1009=
201106202350 METAR COR EGLL 202350Z 22011KT 9999 SCT008 BKN013 16/14 Q1009
                        TEMPO BKN007=
201106202320 METAR COR EGLL 202320Z 21009KT 9999 FEW007 SCT009 BKN012
                        16/14 Q1009 TEMPO BKN007=
201106202250 METAR COR EGLL 202250Z 21010KT 9999 FEW007 BKN010 BKN016
                        16/14 Q1009 TEMPO 4500 -DZ BKN007=
201106202220 METAR COR EGLL 202220Z 21010KT 9999 FEW009 SCT012 BKN015
                        16/14 Q1009 TEMPO SCT006 BKN012=
201106202150 METAR COR EGLL 202150Z 21010KT 180V260 6000 -DZ FEW008 BKN011
                        15/14 Q1010 TEMPO 4500 BKN006=
201106202120 METAR COR EGLL 202120Z 21009KT 9999 FEW006 BKN011 15/14 Q1010
                        TEMPO 4500 -DZ BKN007=
201106202050 METAR COR EGLL 202050Z 19007KT 150V240 9999 SCT006 BKN010
                        15/14 Q1010 TEMPO 4000 RADZ BKN006=
201106202020 METAR COR EGLL 202020Z 18008KT 160V230 9999 -RA SCT006 BKN011
                        15/14 Q1010 TEMPO 4000 RADZ BKN006=
201106201950 METAR COR EGLL 201950Z 19008KT 170V250 9999 SCT006 BKN011
                        15/14 Q1010 TEMPO BKN006=
201106201920 METAR COR EGLL 201920Z 20011KT 9999 FEW008 SCT011 BKN045
                        15/14 Q1010 RERA BECMG SCT006 BKN011=
201106201850 METAR COR EGLL 201850Z 20008KT 160V240 9999 -RA FEW005 SCT015
                        BKN025 15/14 Q1011 RERA BECMG RADZ
                        SCT005 BKN012=
201106201820 METAR COR EGLL 201820Z 20011KT 170V240 4000 RA SCT004 BKN009
                        15/14 Q1011 NOSIG=
201106201750 METAR COR EGLL 201750Z 21009KT 180V250 9999 -RA SCT009 SCT042
                        16/15 Q1011 BECMG BKN011=
201106201720 METAR COR EGLL 201720Z 20011KT 170V250 9999 -RA SCT009 SCT047
                        16/15 Q1011 BECMG BKN010=
201106201650 METAR COR EGLL 201650Z 19011KT 160V230 9999 -RA SCT011 17/15
                        Q1010 BECMG BKN011=
201106201620 METAR COR EGLL 201620Z 20010KT 170V230 9999 -RA FEW027 18/14
                        Q1011 NOSIG=
201106201550 METAR COR EGLL 201550Z 21010KT 160V250 9999 SCT030 20/12
                        Q1011 NOSIG=
201106201520 METAR COR EGLL 201520Z 22009KT 170V250 9999 SCT028 20/12
                        Q1011 NOSIG=
201106201450 METAR COR EGLL 201450Z 20007KT 140V250 9999 FEW033 SCT038
                        20/12 Q1011 NOSIG=
201106201420 METAR COR EGLL 201420Z 22007KT 180V250 9999 FEW034 BKN047
                        20/11 Q1011 NOSIG=
201106201350 METAR COR EGLL 201350Z VRB06KT 9999 BKN033 21/11 Q1011 NOSIG=
201106201320 METAR COR EGLL 201320Z 17006KT 120V250 9999 BKN032 20/11
                        Q1011 NOSIG=
201106201250 METAR COR EGLL 201250Z 15007KT 110V180 9999 SCT034 BKN049
                        20/11 Q1011 NOSIG=
201106201220 METAR COR EGLL 201220Z 18006KT 130V240 9999 SCT033 BKN042
                        20/11 Q1012 NOSIG=
201106201150 METAR COR EGLL 201150Z 16004KT 100V230 9999 FEW033 BKN043
                        20/11 Q1011 NOSIG=
201106201120 METAR COR EGLL 201120Z 18005KT 120V290 9999 FEW035 18/10
                        Q1012 NOSIG=
201106201050 METAR COR EGLL 201050Z VRB04KT 9999 FEW030 19/10 Q1012 NOSIG=
201106201020 METAR COR EGLL 201020Z VRB03KT 9999 SCT032 18/10 Q1012 NOSIG=
201106200950 METAR COR EGLL 200950Z VRB03KT 9999 SCT028 18/10 Q1012 NOSIG=
201106200920 METAR COR EGLL 200920Z VRB03KT 9999 FEW028 17/09 Q1012 NOSIG=
201106200850 METAR COR EGLL 200850Z VRB03KT 9999 FEW030 SCT040 16/09 Q1012
                        NOSIG=
201106200820 METAR COR EGLL 200820Z VRB03KT 9999 FEW030 SCT040 16/10 Q1012
                        NOSIG=
201106200750 METAR COR EGLL 200750Z VRB03KT 9999 BKN030 14/10 Q1012 NOSIG=
201106200720 METAR COR EGLL 200720Z 09003KT 9999 BKN033 14/10 Q1012 NOSIG=
201106200650 METAR COR EGLL 200650Z 07004KT 030V090 9999 BKN030 13/10
                        Q1012 NOSIG=
201106200620 METAR COR EGLL 200620Z VRB02KT 9999 BKN030 13/10 Q1012 NOSIG=
201106200550 METAR EGLL 200550Z VRB03KT 9999 BKN035 12/10 Q1012 NOSIG=
201106200520 METAR COR EGLL 200520Z VRB03KT 9999 -RA BKN037 12/10 Q1012
                        NOSIG=
201106200450 METAR COR EGLL 200450Z 04003KT 9999 BKN043 11/09 Q1012 NOSIG=
201106200420 METAR EGLL 200420Z 06003KT 9999 SCT044 11/09 Q1012=
201106200350 METAR COR EGLL 200350Z VRB03KT CAVOK 11/09 Q1012 NOSIG=
201106200320 METAR COR EGLL 200320Z 10003KT 9999 FEW022 10/09 Q1012 NOSIG=
201106200250 METAR COR EGLL 200250Z 06002KT 9999 SCT022 10/09 Q1012 NOSIG=
201106200220 METAR COR EGLL 200220Z 00000KT 9999 FEW019 10/09 Q1013 NOSIG=
201106200150 METAR COR EGLL 200150Z 00000KT CAVOK 10/09 Q1013 NOSIG=
201106200120 METAR EGLL 200120Z AUTO 00000KT 9999NDV NCD 10/09 Q1013=
201106200050 METAR EGLL 200050Z AUTO VRB03KT 9999NDV NCD 10/09 Q1013=
201106200020 METAR EGLL 200020Z AUTO 21004KT 9999NDV NCD 11/09 Q1014=
201106192350 METAR COR EGLL 192350Z 21005KT CAVOK 11/09 Q1014 NOSIG=
201106192320 METAR COR EGLL 192320Z 21004KT CAVOK 11/09 Q1014 NOSIG=
201106192250 METAR COR EGLL 192250Z 22004KT 180V260 CAVOK 12/09 Q1014
                        NOSIG=
201106192220 METAR COR EGLL 192220Z 21006KT CAVOK 13/10 Q1014 NOSIG=
201106192150 METAR COR EGLL 192150Z 22008KT CAVOK 13/10 Q1014 NOSIG=
201106192120 METAR EGLL 192120Z 22008KT CAVOK 14/10 Q1014=
201106192050 METAR COR EGLL 192050Z 22009KT 180V240 CAVOK 14/09 Q1014
                        NOSIG=
201106192020 METAR COR EGLL 192020Z 21008KT CAVOK 15/09 Q1014 NOSIG=
201106191950 METAR COR EGLL 191950Z 22009KT 9999 FEW043 16/09 Q1014 NOSIG=
201106191920 METAR COR EGLL 191920Z 23010KT 9999 FEW043 16/09 Q1013 NOSIG=
201106191850 METAR COR EGLL 191850Z 24009KT 9999 FEW044 17/08 Q1013 NOSIG=
201106191820 METAR COR EGLL 191820Z 25009KT 9999 FEW040 17/08 Q1013 NOSIG=
201106191750 METAR COR EGLL 191750Z 24010KT 9999 FEW043CB 17/08 Q1013
                        NOSIG=
201106191720 METAR COR EGLL 191720Z 25012KT 9999 FEW043CB 17/08 Q1013
                        NOSIG=
201106191650 METAR COR EGLL 191650Z 27012KT 9999 FEW043CB 18/08 Q1013
                        NOSIG=
201106191620 METAR COR EGLL 191620Z 27012KT 9999 FEW049 18/08 Q1013 NOSIG=
201106191550 METAR COR EGLL 191550Z 29013KT 9999 FEW040 17/08 Q1013 NOSIG=
201106191520 METAR COR EGLL 191520Z 26012KT 9999 FEW042 18/09 Q1013 NOSIG=
201106191450 METAR COR EGLL 191450Z 30007KT 270V340 9999 FEW038 17/09
                        Q1013 NOSIG=
201106191420 METAR COR EGLL 191420Z 26014KT 9999 FEW042 SCT049 17/08 Q1013
                        NOSIG=
201106191350 METAR COR EGLL 191350Z 29013KT 9999 FEW035 17/08 Q1013 NOSIG=
201106191320 METAR COR EGLL 191320Z 26014KT 9999 FEW042 17/09 Q1013 NOSIG=
201106191250 METAR COR EGLL 191250Z 27013KT 9999 FEW039 16/10 Q1013 NOSIG=
201106191220 METAR COR EGLL 191220Z 30009KT 9999 SCT039 SCT049 16/08 Q1012
                        NOSIG=
201106191150 METAR COR EGLL 191150Z 27015KT 9999 FEW038 18/08 Q1012 NOSIG=
201106191120 METAR COR EGLL 191120Z 28012KT 9999 FEW037 16/09 Q1012 NOSIG=
201106191050 METAR COR EGLL 191050Z 27014KT 9999 FEW032 17/09 Q1012 NOSIG=
201106191020 METAR COR EGLL 191020Z 27015KT 9999 FEW032 16/09 Q1012 NOSIG=
201106190950 METAR COR EGLL 190950Z 27016KT 9999 FEW028 SCT035 17/10 Q1011
                        NOSIG=
201106190920 METAR COR EGLL 190920Z 28013KT 9999 FEW027 SCT038 16/09 Q1011
                        NOSIG=
201106190850 METAR COR EGLL 190850Z 28013KT 9999 FEW026 SCT035 16/10 Q1011
                        NOSIG=
201106190820 METAR COR EGLL 190820Z 27015KT 9999 SCT023 SCT031 16/10 Q1011
                        NOSIG=
201106190750 METAR COR EGLL 190750Z 27014KT 9999 FEW021 SCT026 15/10 Q1010
                        NOSIG=
201106190720 METAR COR EGLL 190720Z 27015KT 9999 FEW020 SCT022 15/10 Q1010
                        NOSIG=
201106190650 METAR COR EGLL 190650Z 27013KT 9999 FEW018 14/10 Q1010 NOSIG=
201106190620 METAR COR EGLL 190620Z 27013KT 9999 FEW019 13/10 Q1009 NOSIG=
201106190550 METAR COR EGLL 190550Z 26012KT 9999 FEW020 12/10 Q1009 NOSIG=
201106190520 METAR COR EGLL 190520Z 27013KT CAVOK 12/10 Q1009 NOSIG=
201106190450 METAR COR EGLL 190450Z 27012KT CAVOK 12/10 Q1008 NOSIG=
201106190420 METAR COR EGLL 190420Z 27012KT CAVOK 12/10 Q1008 NOSIG=
201106190350 METAR COR EGLL 190350Z 27011KT CAVOK 11/09 Q1008 NOSIG=
201106190320 METAR COR EGLL 190320Z 27009KT CAVOK 11/09 Q1007 NOSIG=
201106190250 METAR COR EGLL 190250Z 27010KT CAVOK 11/09 Q1007 NOSIG=
201106190220 METAR COR EGLL 190220Z 27009KT CAVOK 11/09 Q1007 NOSIG=
201106190150 METAR COR EGLL 190150Z 27010KT 9999 FEW025 11/09 Q1006 NOSIG=
201106190120 METAR EGLL 190120Z AUTO 27012KT 9999NDV NCD 12/09 Q1006=
201106190050 METAR EGLL 190050Z AUTO 27013KT 9999NDV NCD 12/10 Q1006=
201106190020 METAR EGLL 190020Z AUTO 26012KT 9999NDV NCD 12/10 Q1005=
201106182350 METAR COR EGLL 182350Z 25011KT 9999 FEW022 13/10 Q1005 NOSIG=
201106182320 METAR COR EGLL 182320Z 25013KT 9999 FEW041 13/10 Q1005 NOSIG=
201106182250 METAR COR EGLL 182250Z 25013KT 9999 FEW043 13/10 Q1005 NOSIG=
201106182220 METAR COR EGLL 182220Z 25014KT 9999 FEW023 13/09 Q1005 NOSIG=
201106182150 METAR COR EGLL 182150Z 25013KT 9999 FEW027 13/09 Q1005 NOSIG=
201106182120 METAR COR EGLL 182120Z 25014KT 9999 FEW044 14/08 Q1004 NOSIG=
201106182050 METAR COR EGLL 182050Z 26016KT 9999 FEW044 14/08 Q1004 TEMPO
                        SHRA=
201106182020 METAR COR EGLL 182020Z 26016KT 9999 FEW034 14/08 Q1004 TEMPO
                        SHRA=
201106181950 METAR COR EGLL 181950Z 27017KT 9999 FEW040 SCT048 15/07 Q1004
                        TEMPO SHRA=
201106181920 METAR COR EGLL 181920Z 27013KT 9999 FEW037 SCT045 15/08 Q1003
                        TEMPO SHRA=
201106181850 METAR COR EGLL 181850Z 27015KT 9999 FEW028 SCT042 15/08 Q1003
                        TEMPO SHRA=
201106181820 METAR COR EGLL 181820Z 28016KT 9999 FEW028CB SCT040 16/08
                        Q1003 TEMPO SHRA=
201106181750 METAR COR EGLL 181750Z 27018KT 9999 FEW025CB SCT038 16/08
                        Q1002 TEMPO SHRA=
201106181720 METAR COR EGLL 181720Z 25016KT 9999 FEW025CB SCT036 16/10
                        Q1002 TEMPO SHRA=
201106181650 METAR COR EGLL 181650Z 27014KT 9999 FEW025CB SCT038 17/10
                        Q1002 TEMPO SHRA=
201106181620 METAR COR EGLL 181620Z 29007KT 260V340 9999 VCSH FEW025CB
                        SCT034 15/10 Q1002 TEMPO SHRA=
201106181550 METAR COR EGLL 181550Z 25018G28KT 9999 -SHRA FEW029CB SCT034
                        16/10 Q1002 TEMPO SHRA=
201106181520 METAR COR EGLL 181520Z 24015KT 9999 FEW029CB 18/10 Q1002
                        TEMPO SHRA=
201106181450 METAR COR EGLL 181450Z 26016KT 9999 FEW030CB 15/11 Q1002
                        TEMPO SHRA=
201106181420 METAR COR EGLL 181420Z 25018KT 9999 FEW030CB 18/10 Q1001
                        TEMPO SHRA=
201106181350 METAR COR EGLL 181350Z 24017KT 220V280 9999 FEW026 17/10
                        Q1001 TEMPO SHRA=
201106181320 METAR COR EGLL 181320Z 25019KT 9999 FEW020 17/11 Q1001 TEMPO
                        SHRA=
201106181250 METAR COR EGLL 181250Z 24015KT 9999 FEW020CB 16/11 Q1001
                        TEMPO SHRA=
201106181220 METAR COR EGLL 181220Z 25013KT 9999 8000SE -SHRA FEW012 FEW020CB
                        13/11 Q1002 TEMPO TSRA=
201106181150 METAR COR EGLL 181150Z 27015KT 9999 VCSH FEW020CB SCT035
                        16/10 Q1001 TEMPO SHRA=
201106181120 METAR COR EGLL 181120Z 25017KT 220V280 9999 FEW025CB SCT035
                        16/08 Q1001 TEMPO SHRA=
201106181050 METAR COR EGLL 181050Z 22014KT 9999 -SHRA FEW020CB SCT033
                        15/09 Q1001 TEMPO SHRA=
201106181020 METAR COR EGLL 181020Z 24016KT 9999 FEW020CB SCT029 16/09
                        Q1001 TEMPO SHRA=
201106180950 METAR COR EGLL 180950Z 26015KT 9999 FEW029 SCT034 16/10 Q1001
                        TEMPO SHRA=
201106180920 METAR COR EGLL 180920Z 25014KT 9999 FEW025 SCT028 15/09 Q1001
                        TEMPO SHRA=
201106180850 METAR COR EGLL 180850Z 25014KT 9999 BKN025 15/10 Q1001 TEMPO
                        7000 SHRA=
201106180820 METAR COR EGLL 180820Z 25014KT 9999 FEW018 SCT024 14/10 Q1001
                        NOSIG=
201106180750 METAR COR EGLL 180750Z 25012KT 9999 FEW016 13/10 Q1001 NOSIG=
201106180720 METAR COR EGLL 180720Z 25013KT 9999 FEW015 12/10 Q1001 NOSIG=
201106180650 METAR COR EGLL 180650Z 25012KT 9999 SCT013 12/10 Q1001 NOSIG=
201106180620 METAR COR EGLL 180620Z 25012KT 9999 SCT013 11/09 Q1001 NOSIG=
201106180550 METAR COR EGLL 180550Z 25013KT 9999 SCT013 11/09 Q1000 TEMPO
                        BKN012=
201106180520 METAR COR EGLL 180520Z 24012KT 9999 SCT010 SCT017 11/09 Q1000
                        NOSIG=
201106180450 METAR COR EGLL 180450Z 25012KT 9999 FEW012 11/09 Q1000 TEMPO
                        BKN014=
201106180420 METAR COR EGLL 180420Z 25013KT 9999 FEW010 11/09 Q1000 NOSIG=
201106180350 METAR COR EGLL 180350Z 25012KT 9999 FEW010 11/09 Q0999 TEMPO
                        BKN012=
201106180320 METAR COR EGLL 180320Z 24011KT 9999 FEW010 SCT020 11/10 Q0999
                        NOSIG=
201106180250 METAR COR EGLL 180250Z 25011KT 9999 FEW020 11/10 Q0999 NOSIG=
201106180220 METAR COR EGLL 180220Z 25012KT 9999 FEW015 12/10 Q0999 NOSIG=
201106180150 METAR COR EGLL 180150Z 26013KT 9999 FEW040 11/10 Q0998 TEMPO
                        BKN010=
201106180120 METAR EGLL 180120Z AUTO 26014KT 9999NDV -DZ SCT008/// BKN013///
                        12/11 Q0998=
201106180050 METAR COR EGLL 180050Z AUTO 27010KT 9999NDV -RA FEW007///
                        BKN020/// 12/11 Q0998=
201106180020 METAR EGLL 180020Z AUTO 27011KT 8000NDV -RA BKN006/// BKN025///
                        13/12 Q0998=
201106172350 METAR COR EGLL 172350Z 27010KT 7000 BKN005 13/12 Q0997 TEMPO
                        BKN012=
201106172320 METAR COR EGLL 172320Z 27007KT 5000 BR FEW004 BKN020 13/12
                        Q0997 TEMPO 4000 BR BKN008=
201106172250 METAR COR EGLL 172250Z 28005KT 7000 FEW005 SCT008 BKN025
                        13/12 Q0996 TEMPO BKN008=
201106172220 METAR COR EGLL 172220Z 29003KT 9999 FEW005 BKN008 BKN015
                        13/12 Q0996 TEMPO BKN012=
201106172150 METAR COR EGLL 172150Z 35002KT 9999 FEW005 SCT008 BKN015
                        13/12 Q0996 TEMPO BKN012=
201106172120 METAR COR EGLL 172120Z 08005KT 9999 FEW007 BKN010 BKN013
                        13/12 Q0996 TEMPO BKN008=
201106172050 METAR COR EGLL 172050Z 09006KT 9999 FEW009 BKN017 13/12 Q0996
                        TEMPO BKN012=
201106172020 METAR COR EGLL 172020Z 09006KT 9999 FEW008 BKN012 13/12 Q0996
                        TEMPO BKN008=
201106171950 METAR COR EGLL 171950Z 09009KT 9999 -RA FEW010 BKN017 13/12
                        Q0996 RERA TEMPO RA BKN010=
201106171920 METAR COR EGLL 171920Z 09008KT 8000 RA FEW014 SCT030 BKN047
                        13/12 Q0997 TEMPO BKN008=
201106171850 METAR COR EGLL 171850Z 09008KT 8000 RA FEW008 SCT012 BKN026
                        13/12 Q0998 TEMPO BKN008=
201106171820 METAR EGLL 171820Z 09007KT 7000 RA FEW006 SCT009 BKN012 13/12
                        Q0998 TEMPO BKN008=
201106171750 METAR COR EGLL 171750Z 10006KT 070V150 7000 RA FEW012 SCT023
                        BKN035 13/12 Q0999 TEMPO -RA BKN010=
201106171720 METAR COR EGLL 171720Z 14007KT 8000 RA SCT012 BKN029 13/12
                        Q1000 TEMPO -RA BKN010=
201106171650 METAR COR EGLL 171650Z 15009KT 110V180 6000 RA SCT009 BKN014
                        13/12 Q1001 TEMPO -RA BKN008=
201106171620 METAR COR EGLL 171620Z 16010KT 9000 -RA SCT013 SCT019 13/11
                        Q1001 TEMPO RA BKN010=
201106171550 METAR COR EGLL 171550Z 17010KT 140V220 9999 -RA FEW012 BKN049
                        14/11 Q1001 BECMG RA BKN010=
201106171520 METAR COR EGLL 171520Z 17011KT 9999 -RA BKN013 14/11 Q1002
                        BECMG RA=
201106171450 METAR COR EGLL 171450Z 14009KT 100V170 9999 -RA FEW010 SCT017
                        14/12 Q1002 BECMG RA BKN012=
201106171420 METAR COR EGLL 171420Z 13008KT 100V170 8000 -RADZ FEW010
                        BKN013 13/12 Q1003 BECMG RA=
201106171350 METAR EGLL 171350Z 15009KT 120V220 5000 -RA BKN018 13/11
                        Q1004 RERA=
201106171320 METAR COR EGLL 171320Z 15010KT 110V230 9999 SCT018 SCT040
                        14/10 Q1005 TEMPO RA BKN013=
201106171250 METAR COR EGLL 171250Z 16010G20KT 100V220 9999 FEW020 SCT032
                        14/11 Q1005 TEMPO BKN014=
201106171220 METAR COR EGLL 171220Z 16010KT 120V250 9999 FEW017 SCT025
                        BKN045 13/11 Q1006 TEMPO RA BKN013=
201106171150 METAR COR EGLL 171150Z 16012KT 140V220 9999 -RA FEW014 SCT020
                        14/11 Q1006 TEMPO RA BKN013=
201106171120 METAR EGLL 171120Z 17009KT 130V230 9999 -RA FEW021 SCT030
                        14/11 Q1007=
201106171050 METAR COR EGLL 171050Z 18012KT 150V220 9999 -RA FEW019 SCT023
                        15/11 Q1007 TEMPO RA BKN013=
201106171020 METAR EGLL 171020Z 16010KT 110V220 9999 -RA SCT018 SCT023
                        15/10 Q1007=
201106170950 METAR COR EGLL 170950Z 16011KT 130V210 9999 FEW018 BKN021
                        15/10 Q1008 TEMPO RA BKN013=
201106170920 METAR COR EGLL 170920Z 16011KT 130V230 9999 FEW017 SCT022
                        15/11 Q1008 TEMPO RA BKN013=
201106170850 METAR COR EGLL 170850Z 17010KT 130V220 9999 SCT015 14/11
                        Q1009 TEMPO RA BKN013=
201106170820 METAR COR EGLL 170820Z 16009KT 130V220 9999 FEW012 13/11
                        Q1009 NOSIG=
201106170750 METAR COR EGLL 170750Z 16008KT 120V230 9999 FEW011 13/11
                        Q1010 NOSIG=
201106170720 METAR COR EGLL 170720Z 16008KT 130V230 CAVOK 13/10 Q1010
                        NOSIG=
201106170650 METAR COR EGLL 170650Z 17008KT 140V230 CAVOK 12/10 Q1010
                        NOSIG=
201106170620 METAR COR EGLL 170620Z 18007KT 160V230 CAVOK 12/10 Q1010
                        NOSIG=
201106170550 METAR COR EGLL 170550Z 17007KT 140V240 CAVOK 12/10 Q1010
                        NOSIG=
201106170520 METAR COR EGLL 170520Z 17007KT 130V210 CAVOK 11/10 Q1011
                        NOSIG=
201106170450 METAR COR EGLL 170450Z 19008KT 160V260 CAVOK 11/10 Q1011
                        NOSIG=
201106170420 METAR EGLL 170420Z 18007KT 130V270 CAVOK 10/09 Q1011=
201106170350 METAR COR EGLL 170350Z 19004KT 160V260 CAVOK 10/09 Q1011
                        NOSIG=
201106170320 METAR COR EGLL 170320Z 20004KT CAVOK 10/08 Q1011 NOSIG=
201106170250 METAR COR EGLL 170250Z 18005KT CAVOK 10/09 Q1012 NOSIG=
201106170220 METAR COR EGLL 170220Z 21006KT CAVOK 10/09 Q1012 NOSIG=
201106170150 METAR COR EGLL 170150Z 21005KT CAVOK 10/09 Q1012 NOSIG=
201106170120 METAR COR EGLL 170120Z 21007KT CAVOK 10/09 Q1012 NOSIG=
201106170050 METAR COR EGLL 170050Z 21007KT CAVOK 10/09 Q1012 NOSIG=
201106170020 METAR COR EGLL 170020Z 22006KT CAVOK 10/09 Q1013 NOSIG=
201106162350 METAR COR EGLL 162350Z 22006KT CAVOK 10/09 Q1013 NOSIG=
201106162320 METAR COR EGLL 162320Z 21005KT CAVOK 10/09 Q1013 NOSIG=
201106162250 METAR COR EGLL 162250Z 21007KT CAVOK 11/09 Q1013 NOSIG=
201106162220 METAR COR EGLL 162220Z 21007KT 9999 FEW049 11/09 Q1013 NOSIG=
201106162150 METAR COR EGLL 162150Z 22007KT 9999 FEW043CB 11/09 Q1013
                        NOSIG=
201106162120 METAR COR EGLL 162120Z 23008KT 9999 SCT025CB SCT043 11/09
                        Q1013 NOSIG=
201106162050 METAR COR EGLL 162050Z 24010KT 9999 SCT025CB SCT043 11/09
                        Q1013 NOSIG=
201106162020 METAR EGLL 162020Z 27006KT 9999 5000E -SHRA SCT025CB SCT043
                        11/09 Q1012 RESHRA=
201106161950 METAR COR EGLL 161950Z 27012KT 7000 3000W SHRA SCT025 BKN032CB
                        12/09 Q1012 TEMPO 27015G25KT 4000
                        +SHRA BKN014CB=
201106161920 METAR COR EGLL 161920Z 22008KT 180V250 9999 VCSH SCT049CB
                        14/10 Q1012 TEMPO SHRA=
201106161850 METAR COR EGLL 161850Z 22009KT 9999 FEW020 SCT055CB 14/09
                        Q1012 NOSIG=
201106161820 METAR COR EGLL 161820Z 23012KT 9999 FEW024 14/08 Q1012 TEMPO
                        SHRA=
201106161750 METAR COR EGLL 161750Z 24013KT 9999 VCSH FEW028CB 14/08 Q1011
                        TEMPO SHRA=
201106161720 METAR COR EGLL 161720Z 24012KT 9999 VCSH FEW028CB SCT047
                        15/07 Q1011 TEMPO SHRA=
201106161650 METAR COR EGLL 161650Z 26017KT 9999 VCSH FEW015CB SCT030
                        14/07 Q1011 TEMPO SHRA=
201106161620 METAR COR EGLL 161620Z 23016KT 9999 VCSH FEW015CB 17/08 Q1011
                        TEMPO SHRA=
201106161550 METAR COR EGLL 161550Z 25016KT 9999 FEW032 16/08 Q1011 TEMPO
                        SHRA=
201106161520 METAR COR EGLL 161520Z 25017KT 9999 FEW040 15/08 Q1011 TEMPO
                        SHRA=
201106161450 METAR COR EGLL 161450Z 22012KT 9999 FEW040 16/11 Q1011 TEMPO
                        SHRA=
201106161420 METAR COR EGLL 161420Z 21012KT 9999 -SHRA FEW028 SCT047 16/11
                        Q1011 TEMPO SHRA=
201106161350 METAR COR EGLL 161350Z 26012KT 9999 VCSH SCT040 16/10 Q1011
                        TEMPO SHRA=
201106161320 METAR COR EGLL 161320Z 25011KT 9999 VCSH FEW043 16/10 Q1010
                        TEMPO SHRA=
201106161250 METAR COR EGLL 161250Z 21007KT 180V240 9999 FEW025 16/10
                        Q1010 TEMPO SHRA=
201106161220 METAR COR EGLL 161220Z 27010KT 9999 FEW020 15/10 Q1010 TEMPO
                        SHRA=
201106161150 METAR COR EGLL 161150Z 26010KT 9999 SCT010 SCT025 14/11 Q1010
                        NOSIG=
201106161120 METAR COR EGLL 161120Z 28008KT 9999 -RA FEW013 SCT037 12/11
                        Q1010 NOSIG=
201106161050 METAR COR EGLL 161050Z 28007KT 9999 -RA FEW021 SCT031 BKN040
                        12/10 Q1010 NOSIG=
201106161020 METAR COR EGLL 161020Z 28007KT 240V310 8000 -RA SCT010 BKN020
                        BKN030 12/10 Q1010 TEMPO SHRA=
201106160950 METAR COR EGLL 160950Z VRB03KT 6000 -RA SCT020 BKN030 BKN040
                        12/10 Q1010 TEMPO SHRA=
201106160920 METAR COR EGLL 160920Z 32005KT 290V010 9999 -RA FEW020 BKN045
                        12/10 Q1010 NOSIG=
201106160850 METAR COR EGLL 160850Z 30006KT 270V350 6000 -RA FEW011 SCT017
                        BKN023 12/10 Q1009 TEMPO 4500 SHRA
                        BKN013=
201106160820 METAR COR EGLL 160820Z 32007KT 6000 -RADZ FEW005 SCT008 BKN015
                        12/11 Q1009 RERA TEMPO 4500 RA BKN009=
201106160750 METAR COR EGLL 160750Z 36004KT 5000 RA SCT007 BKN015 13/12
                        Q1009 TEMPO 4500 BKN008=
201106160720 METAR COR EGLL 160720Z VRB02KT 5000 RA FEW005 SCT008 BKN016
                        13/11 Q1009 TEMPO 4000 BKN008=
201106160650 METAR COR EGLL 160650Z 24006KT 200V280 5000 RA SCT008 BKN019
                        BKN023 13/11 Q1009 TEMPO 4000 BKN008=
201106160620 METAR COR EGLL 160620Z 21005KT 9999 VCSH FEW010 SCT024 14/12
                        Q1009 TEMPO RA=
201106160550 METAR EGLL 160550Z 21006KT 180V250 9999 VCSH FEW010 SCT019
                        14/12 Q1010=
201106160520 METAR EGLL 160520Z 21005KT 170V240 8000 VCSH SCT021 14/12
                        Q1010=
201106160450 METAR COR EGLL 160450Z 21004KT 190V320 9000 FEW010 13/12
                        Q1010 NOSIG=
201106160420 METAR COR EGLL 160420Z VRB05KT 9000 FEW010 13/12 Q1010 NOSIG=
201106160350 METAR COR EGLL 160350Z 20004KT 9000 NSC 13/12 Q1010 NOSIG=
201106160320 METAR COR EGLL 160320Z 22006KT CAVOK 13/12 Q1010 NOSIG=
201106160250 METAR COR EGLL 160250Z 23006KT 190V270 9999 SCT017 BKN041
                        13/12 Q1010 NOSIG=
201106160220 METAR EGLL 160220Z 22006KT 9999 BKN011 14/12 Q1011=
201106160150 METAR COR EGLL 160150Z 21005KT 9999 BKN010 14/12 Q1011 NOSIG=
201106160120 METAR COR EGLL 160120Z AUTO 25005KT 220V290 9999NDV FEW011///
                        BKN017/// 14/12 Q1011=
201106160050 METAR COR EGLL 160050Z AUTO 22004KT 9999NDV BKN018/// 14/12
                        Q1011=
201106160020 METAR COR EGLL 160020Z AUTO 21005KT 9999NDV FEW016/// 14/12
                        Q1011=
201106152350 METAR COR EGLL 152350Z 21006KT CAVOK 14/12 Q1011 NOSIG=
201106152320 METAR COR EGLL 152320Z 21006KT CAVOK 14/12 Q1012 NOSIG=
201106152250 METAR COR EGLL 152250Z 22007KT CAVOK 14/13 Q1012 NOSIG=
201106152220 METAR COR EGLL 152220Z 22008KT CAVOK 15/13 Q1012 NOSIG=
201106152150 METAR COR EGLL 152150Z 22010KT CAVOK 15/13 Q1012 NOSIG=
201106152120 METAR EGLL 152120Z 22008KT 9999 FEW018 15/13 Q1012=
201106152050 METAR COR EGLL 152050Z 22008KT 9999 FEW018 16/13 Q1012 NOSIG=
201106152020 METAR EGLL 152020Z 21009KT 9999 FEW014 SCT018 16/13 Q1012=
201106151950 METAR EGLL 151950Z 22010KT 9999 FEW010 BKN015 17/14 Q1012=
201106151920 METAR COR EGLL 151920Z 22011KT 170V250 9999 BKN010 BKN014
                        17/14 Q1012 NOSIG=
201106151850 METAR COR EGLL 151850Z 22009KT 9999 BKN009 17/15 Q1012 TEMPO
                        BKN012=
201106151820 METAR COR EGLL 151820Z 21010KT 170V230 9999 -RA BKN010 17/15
                        Q1012 TEMPO BKN009=
201106151750 METAR COR EGLL 151750Z 19011KT 9999 SCT010 BKN013 17/15 Q1012
                        NOSIG=
201106151720 METAR COR EGLL 151720Z 19009G19KT 170V240 9999 5000N -RA
                        SCT012 BKN016 BKN019 17/15 Q1013
                        TEMPO BKN012=
201106151650 METAR COR EGLL 151650Z 20011KT 170V240 9000 -RA FEW009 BKN012
                        17/15 Q1013 TEMPO BKN009=
201106151620 METAR COR EGLL 151620Z 20010KT 180V260 9999 BKN011 18/14
                        Q1013 TEMPO BKN009=
201106151550 METAR COR EGLL 151550Z 19010KT 9999 BKN010 17/14 Q1014 TEMPO
                        BKN009=
201106151520 METAR COR EGLL 151520Z 20012KT 9999 BKN011 18/14 Q1014 TEMPO
                        BKN009=
201106151450 METAR COR EGLL 151450Z 20012KT 170V230 9999 BKN014 18/14
                        Q1014 NOSIG=
201106151420 METAR COR EGLL 151420Z 20012KT 9999 BKN015 18/14 Q1014 TEMPO
                        BKN014=
201106151350 METAR EGLL 151350Z 20012G22KT 170V240 9999 BKN016 18/14 Q1014=
201106151320 METAR COR EGLL 151320Z 20012KT 170V240 9999 FEW015 BKN018
                        19/14 Q1014 TEMPO BKN014=
201106151250 METAR COR EGLL 151250Z 22012KT 9999 BKN020 19/14 Q1014 TEMPO
                        BKN014=
201106151220 METAR COR EGLL 151220Z 22013KT 9999 BKN023 20/13 Q1015 NOSIG=
201106151150 METAR COR EGLL 151150Z 23013KT 190V260 9999 BKN027 20/13
                        Q1015 NOSIG=
201106151120 METAR COR EGLL 151120Z 23012KT 9999 SCT024 BKN032 19/13 Q1015
                        NOSIG=
201106151050 METAR COR EGLL 151050Z 22012G22KT 190V260 9999 FEW024 BKN026
                        19/13 Q1015 NOSIG=
201106151020 METAR COR EGLL 151020Z 20011KT 160V240 9999 BKN022 19/13
                        Q1015 NOSIG=
201106150950 METAR COR EGLL 150950Z 22011KT 170V260 9999 BKN024 19/12
                        Q1015 NOSIG=
201106150920 METAR COR EGLL 150920Z 23010KT 190V270 9999 BKN028 18/12
                        Q1015 NOSIG=
201106150850 METAR COR EGLL 150850Z 23013KT 9999 BKN028 18/12 Q1015 NOSIG=
201106150820 METAR COR EGLL 150820Z 22010KT 9999 FEW025 SCT032 18/12 Q1015
                        TEMPO BKN012=
201106150750 METAR COR EGLL 150750Z 22009KT 190V250 9999 FEW019 18/12
                        Q1015 TEMPO BKN012=
201106150720 METAR COR EGLL 150720Z 23010KT 9999 FEW016 17/13 Q1015 TEMPO
                        BKN012=
201106150650 METAR COR EGLL 150650Z 22009KT 190V250 9999 SCT013 17/13
                        Q1015 TEMPO BKN014=
201106150620 METAR COR EGLL 150620Z 23008KT 200V270 9999 FEW012 SCT049
                        16/13 Q1015 NOSIG=
201106150550 METAR COR EGLL 150550Z 22008KT 9999 SCT037 16/13 Q1015 NOSIG=
201106150520 METAR COR EGLL 150520Z 22006KT 190V270 9999 BKN036 15/13
                        Q1015 NOSIG=
201106150450 METAR COR EGLL 150450Z 22006KT 9999 BKN034 15/12 Q1015 NOSIG=
201106150420 METAR EGLL 150420Z 22005KT 170V280 9999 SCT032 BKN047 15/12
                        Q1015=
201106150350 METAR COR EGLL 150350Z 21005KT 9999 FEW033 BKN045 14/12 Q1015
                        NOSIG=
201106150320 METAR COR EGLL 150320Z 20005KT 9999 SCT034 14/11 Q1016 NOSIG=
201106150250 METAR COR EGLL 150250Z 22005KT 9999 SCT017 15/11 Q1016 NOSIG=
201106150220 METAR COR EGLL 150220Z 25005KT 210V280 9999 FEW016 SCT044
                        15/11 Q1016 NOSIG=
201106150150 METAR COR EGLL 150150Z 21005KT 9999 FEW016 BKN047 14/11 Q1016
                        NOSIG=
201106150120 METAR EGLL 150120Z AUTO 21005KT 9999NDV FEW017/// BKN048///
                        15/11 Q1016=
201106150050 METAR EGLL 150050Z AUTO VRB03KT 9999NDV FEW016/// 15/11 Q1017=
201106150020 METAR EGLL 150020Z AUTO 20004KT 180V240 9999NDV NCD 15/11
                        Q1017=
201106142350 METAR COR EGLL 142350Z 20007KT CAVOK 15/11 Q1017 NOSIG=
201106142320 METAR COR EGLL 142320Z 20007KT CAVOK 16/11 Q1017 NOSIG=
201106142250 METAR COR EGLL 142250Z 20005KT CAVOK 16/11 Q1017 NOSIG=
201106142220 METAR COR EGLL 142220Z 20007KT 150V260 CAVOK 16/11 Q1017
                        NOSIG=
201106142150 METAR COR EGLL 142150Z 21007KT 160V240 CAVOK 16/11 Q1017
                        NOSIG=
201106142120 METAR COR EGLL 142120Z 20008KT CAVOK 17/11 Q1017 NOSIG=
201106142050 METAR COR EGLL 142050Z 20009KT CAVOK 17/11 Q1017 NOSIG=
201106142020 METAR COR EGLL 142020Z 19011KT CAVOK 18/11 Q1017 NOSIG=
201106141950 METAR COR EGLL 141950Z 19010KT CAVOK 19/12 Q1017 NOSIG=
201106141920 METAR COR EGLL 141920Z 19010KT CAVOK 19/12 Q1017 NOSIG=
201106141850 METAR COR EGLL 141850Z 20010KT CAVOK 20/11 Q1017 NOSIG=
201106141820 METAR COR EGLL 141820Z 20010KT CAVOK 20/11 Q1017 NOSIG=
201106141750 METAR COR EGLL 141750Z 20010KT 170V230 CAVOK 21/11 Q1017
                        NOSIG=
201106141720 METAR COR EGLL 141720Z 19009KT 160V250 CAVOK 22/11 Q1017
                        NOSIG=
201106141650 METAR EGLL 141650Z 19011KT 150V220 CAVOK 21/10 Q1017=
201106141620 METAR COR EGLL 141620Z 21007KT CAVOK 22/09 Q1017 NOSIG=
201106141550 METAR COR EGLL 141550Z 19008KT 140V240 CAVOK 22/09 Q1017
                        NOSIG=
201106141520 METAR COR EGLL 141520Z 22006KT 170V250 CAVOK 23/09 Q1018
                        NOSIG=
201106141450 METAR COR EGLL 141450Z 24008KT 170V300 CAVOK 23/08 Q1018
                        NOSIG=
201106141420 METAR COR EGLL 141420Z VRB05KT CAVOK 23/07 Q1018 NOSIG=
201106141350 METAR COR EGLL 141350Z 22007KT 140V270 CAVOK 22/08 Q1018
                        NOSIG=
201106141320 METAR EGLL 141320Z VRB05KT CAVOK 22/09 Q1018=
201106141250 METAR COR EGLL 141250Z 21007KT 160V260 9999 FEW049 21/08
                        Q1018 NOSIG=
201106141220 METAR COR EGLL 141220Z VRB05KT 9999 FEW049 21/08 Q1019 NOSIG=
201106141150 METAR EGLL 141150Z VRB06KT 9999 FEW048 20/07 Q1019=
201106141120 METAR COR EGLL 141120Z VRB05KT 9999 SCT048 20/07 Q1019 NOSIG=
201106141050 METAR COR EGLL 141050Z 22006KT 160V270 9999 SCT047 20/08
                        Q1019 NOSIG=
201106141020 METAR COR EGLL 141020Z VRB03KT 9999 SCT042 19/08 Q1019 NOSIG=
201106140950 METAR COR EGLL 140950Z VRB03KT 9999 SCT040 18/08 Q1020 NOSIG=
201106140920 METAR COR EGLL 140920Z VRB02KT 9999 SCT040 18/09 Q1019 NOSIG=
201106140850 METAR COR EGLL 140850Z 15005KT 110V220 CAVOK 18/08 Q1019
                        NOSIG=
201106140820 METAR COR EGLL 140820Z 07004KT CAVOK 17/09 Q1020 NOSIG=
201106140750 METAR COR EGLL 140750Z 08005KT 050V110 CAVOK 16/09 Q1020
                        NOSIG=
201106140720 METAR EGLL 140720Z 06004KT 010V110 CAVOK 15/09 Q1020=
201106140650 METAR COR EGLL 140650Z VRB03KT CAVOK 14/10 Q1020 NOSIG=
201106140620 METAR COR EGLL 140620Z VRB02KT CAVOK 13/09 Q1019 NOSIG=
201106140550 METAR COR EGLL 140550Z 31002KT CAVOK 12/09 Q1019 NOSIG=
201106140520 METAR COR EGLL 140520Z VRB02KT CAVOK 11/10 Q1019 NOSIG=
201106140450 METAR COR EGLL 140450Z 27004KT CAVOK 09/09 Q1019 NOSIG=
201106140420 METAR COR EGLL 140420Z 27003KT CAVOK 09/08 Q1019 NOSIG=
201106140350 METAR COR EGLL 140350Z 28003KT CAVOK 09/08 Q1018 NOSIG=
201106140320 METAR COR EGLL 140320Z 29003KT CAVOK 09/08 Q1018 NOSIG=
201106140250 METAR COR EGLL 140250Z 30003KT CAVOK 09/08 Q1018 NOSIG=
201106140220 METAR COR EGLL 140220Z 32003KT CAVOK 10/09 Q1018 NOSIG=
201106140150 METAR COR EGLL 140150Z 28003KT CAVOK 10/08 Q1018 NOSIG=
201106140120 METAR EGLL 140120Z AUTO 29003KT 9999NDV NCD 10/08 Q1018=
201106140050 METAR EGLL 140050Z AUTO 29003KT 9999NDV NCD 11/09 Q1018=
201106140020 METAR EGLL 140020Z AUTO 30004KT 9999NDV NCD 12/09 Q1017=
201106132350 METAR COR EGLL 132350Z 29005KT CAVOK 12/09 Q1017 NOSIG=
201106132320 METAR COR EGLL 132320Z 28005KT CAVOK 12/09 Q1017 NOSIG=
201106132250 METAR COR EGLL 132250Z 28005KT CAVOK 13/09 Q1017 NOSIG=
201106132220 METAR COR EGLL 132220Z 28006KT CAVOK 13/09 Q1017 NOSIG=
201106132150 METAR COR EGLL 132150Z 28006KT CAVOK 13/09 Q1016 NOSIG=
201106132120 METAR COR EGLL 132120Z 27007KT 9999 FEW036 14/09 Q1016 NOSIG=
201106132050 METAR COR EGLL 132050Z 27007KT CAVOK 14/09 Q1016 NOSIG=
201106132020 METAR COR EGLL 132020Z 28007KT CAVOK 15/09 Q1015 NOSIG=
201106131950 METAR COR EGLL 131950Z 27010KT CAVOK 16/09 Q1015 NOSIG=
201106131920 METAR COR EGLL 131920Z 27012KT CAVOK 17/09 Q1015 NOSIG=
201106131850 METAR COR EGLL 131850Z 29010KT CAVOK 18/10 Q1014 NOSIG=
201106131820 METAR COR EGLL 131820Z 29011KT CAVOK 18/10 Q1014 NOSIG=
201106131750 METAR COR EGLL 131750Z 28012KT CAVOK 18/10 Q1014 NOSIG=
201106131720 METAR EGLL 131720Z 29014KT 9999 FEW040 19/11 Q1013=
201106131650 METAR COR EGLL 131650Z 29013KT 270V330 9999 FEW040 20/11
                        Q1013 NOSIG=
201106131620 METAR EGLL 131620Z 26013KT 9999 FEW040 21/11 Q1013=
201106131550 METAR COR EGLL 131550Z 28011KT 9999 FEW038 21/11 Q1013 NOSIG=
201106131520 METAR COR EGLL 131520Z 27015KT 9999 FEW036 21/11 Q1012 NOSIG=
201106131450 METAR EGLL 131450Z 28014KT 9999 FEW035 20/11 Q1012=
201106131420 METAR COR EGLL 131420Z 28013KT 9999 FEW035 21/12 Q1012 NOSIG=
201106131350 METAR EGLL 131350Z 28012KT 9999 FEW036 21/12 Q1012=
201106131320 METAR EGLL 131320Z 28013KT 9999 FEW035 SCT038 20/12 Q1011=
201106131250 METAR COR EGLL 131250Z 27014KT 9999 FEW030 SCT040 21/12 Q1011
                        NOSIG=
201106131220 METAR COR EGLL 131220Z 27014KT 9999 SCT034 21/13 Q1011 NOSIG=
201106131150 METAR COR EGLL 131150Z 26015G25KT 9999 SCT030 SCT034 20/13
                        Q1010 NOSIG=
201106131120 METAR COR EGLL 131120Z 24016KT 9999 SCT024 SCT032 BKN042
                        21/13 Q1010 NOSIG=
201106131050 METAR COR EGLL 131050Z 24014KT 9999 BKN033 19/14 Q1010 NOSIG=
201106131020 METAR COR EGLL 131020Z 24013KT 210V280 9999 BKN033 18/14
                        Q1010 NOSIG=
201106130950 METAR COR EGLL 130950Z 24014KT 9999 FEW019 BKN027 18/14 Q1010
                        NOSIG=
201106130920 METAR COR EGLL 130920Z 23011KT 200V260 9999 BKN012 BKN017
                        19/14 Q1010 BECMG BKN015=
201106130850 METAR COR EGLL 130850Z 24011KT 9999 BKN010 BKN016 17/14 Q1010
                        TEMPO BKN009=
201106130820 METAR COR EGLL 130820Z 23011KT 9999 BKN011 17/14 Q1010 TEMPO
                        BKN009=
201106130750 METAR COR EGLL 130750Z 22010KT 9999 BKN010 16/14 Q1009 TEMPO
                        BKN009=
201106130720 METAR COR EGLL 130720Z 22011KT 9999 BKN010 16/14 Q1009 TEMPO
                        BKN009=
201106130650 METAR COR EGLL 130650Z 22009KT 9999 BKN009 16/14 Q1009 TEMPO
                        BKN012=
201106130620 METAR COR EGLL 130620Z 22009KT 9999 BKN008 16/14 Q1009 TEMPO
                        SCT007 BKN012=
201106130550 METAR COR EGLL 130550Z 22009KT 9999 BKN008 15/14 Q1008 TEMPO
                        6000 -RADZ SCT007 BKN012=
201106130520 METAR COR EGLL 130520Z 22009KT 9999 BKN008 BKN012 15/14 Q1008
                        TEMPO 6000 -RADZ BKN006=
201106130450 METAR COR EGLL 130450Z 21010KT 9999 FEW005 BKN008 15/14 Q1008
                        TEMPO 4500 -RADZ SCT008 BKN012=
201106130420 METAR COR EGLL 130420Z 21009KT 5000 DZ BKN008 15/14 Q1008
                        TEMPO 4000 SCT007 BKN012=
201106130350 METAR COR EGLL 130350Z 21009KT 9999 BKN008 15/14 Q1008 TEMPO
                        6000 -RADZ SCT006 BKN012=
201106130320 METAR COR EGLL 130320Z 20008KT 9999 FEW007 BKN009 15/14 Q1008
                        TEMPO 4500 -RADZ BKN004=
201106130250 METAR COR EGLL 130250Z 21009KT 9999 BKN009 BKN011 15/14 Q1008
                        TEMPO 4000 DZ BKN004=
201106130220 METAR COR EGLL 130220Z 20009KT 9999 BKN007 BKN011 15/14 Q1008
                        TEMPO 4500 DZ BKN004=
201106130150 METAR COR EGLL 130150Z 20009KT 9999 FEW006 BKN010 15/14 Q1008
                        TEMPO 4000 BKN004=
201106130120 METAR EGLL 130120Z AUTO 20008KT 9999NDV -RA SCT007/// OVC011///
                        15/14 Q1008=
201106130050 METAR EGLL 130050Z AUTO 21009KT 9999NDV SCT007/// OVC011///
                        15/14 Q1008=
201106130020 METAR EGLL 130020Z AUTO 21009KT 9999NDV OVC007/// 15/14 Q1008=
201106122350 METAR COR EGLL 122350Z 21009KT 9999 BKN007 BKN010 15/14 Q1008
                        TEMPO 4000 DZ BKN004=
201106122320 METAR COR EGLL 122320Z 21007KT 9999 BKN009 15/14 Q1008 TEMPO
                        4000 DZ BKN004=
201106122250 METAR EGLL 122250Z 22010KT 9999 BKN008 15/14 Q1008=
201106122220 METAR COR EGLL 122220Z 21011KT 180V250 9999 BKN006 BKN010
                        15/14 Q1008 TEMPO 4000 -RADZ BKN004=
201106122150 METAR COR EGLL 122150Z 20012KT 170V250 9999 BKN009 BKN013
                        15/14 Q1008 TEMPO 4000 -RADZ BKN005=
201106122120 METAR EGLL 122120Z 20012KT 170V250 9999 BKN009 BKN013 15/14
                        Q1008=
201106122050 METAR COR EGLL 122050Z 19012KT 160V250 5000 -RA SCT004 BKN010
                        14/13 Q1008 RERA TEMPO 4000 RADZ
                        BKN005=
201106122020 METAR COR EGLL 122020Z 19012KT 170V240 4000 RA BKN006 BKN015
                        14/13 Q1008 TEMPO 6000 -RADZ=
201106121950 METAR COR EGLL 121950Z 19013KT 170V230 6000 RA FEW006 BKN008
                        14/13 Q1008 TEMPO 4500=
201106121920 METAR COR EGLL 121920Z 18014KT 9999 -RA FEW008 BKN010 14/12
                        Q1008 BECMG BKN008=
201106121850 METAR COR EGLL 121850Z 18015KT 6000 RA BKN009 14/12 Q1008
                        NOSIG=
201106121820 METAR COR EGLL 121820Z 17013KT 9999 FEW008 BKN012 13/12 Q1009
                        RERA TEMPO -RADZ BKN008=
201106121750 METAR COR EGLL 121750Z 17013KT 6000 RA BKN009 13/12 Q1009
                        TEMPO 4000 -RADZ=
201106121720 METAR COR EGLL 121720Z 16014KT 6000 -RA FEW007 BKN009 13/12
                        Q1009 TEMPO 4000 RADZ=
201106121650 METAR COR EGLL 121650Z 16014KT 7000 -RADZ BKN008 12/11 Q1009
                        TEMPO 4000 RADZ=
201106121620 METAR COR EGLL 121620Z 17014KT 9999 RA FEW009 BKN010 12/11
                        Q1010 TEMPO -RA=
201106121550 METAR COR EGLL 121550Z 16013KT 6000 RA FEW009 BKN011 12/11
                        Q1011 NOSIG=
201106121520 METAR EGLL 121520Z 16015KT 7000 RA FEW015 SCT019 BKN024 12/10
                        Q1011 TEMPO -RA BKN014=
201106121450 METAR COR EGLL 121450Z 17015KT 9999 -RA BKN025 13/09 Q1011
                        TEMPO RA=
201106121420 METAR COR EGLL 121420Z 16017KT 9999 SCT025 14/08 Q1012 TEMPO
                        RA=
201106121350 METAR COR EGLL 121350Z 16015KT 9999 -RA FEW023 SCT040 13/09
                        Q1012 TEMPO RA=
201106121320 METAR COR EGLL 121320Z 16014KT 9999 BKN023 13/09 Q1013 RERA
                        TEMPO RA=
201106121250 METAR COR EGLL 121250Z 16015KT 9999 RA FEW024 BKN048 12/09
                        Q1013 TEMPO -RA=
201106121220 METAR COR EGLL 121220Z 16015KT 9999 RA FEW020 BKN045 12/10
                        Q1014 TEMPO -RA=
201106121150 METAR COR EGLL 121150Z 16014KT 9999 RA FEW020 BKN040 12/10
                        Q1014 TEMPO -RA=
201106121120 METAR COR EGLL 121120Z 17014KT 9999 RA SCT020 BKN042 13/10
                        Q1015 TEMPO -RA=
201106121050 METAR COR EGLL 121050Z 17013KT 9999 -RA SCT015 SCT046 13/10
                        Q1015 TEMPO RA BKN014=
201106121020 METAR COR EGLL 121020Z 16012KT 9999 RA FEW016 BKN044 13/10
                        Q1015 TEMPO -RA=
201106120950 METAR COR EGLL 120950Z 16012KT 120V190 9999 RA FEW015 BKN035
                        13/11 Q1015 TEMPO -RA=
201106120920 METAR COR EGLL 120920Z 14008KT 9999 RA FEW044 12/10 Q1016
                        TEMPO -RA=
201106120850 METAR COR EGLL 120850Z 13007KT 9999 RA FEW040 12/10 Q1016
                        TEMPO -RA=
201106120820 METAR COR EGLL 120820Z 16009KT 9999 RA FEW040 BKN046 12/09
                        Q1016 TEMPO -RA=
201106120750 METAR COR EGLL 120750Z 16008KT 9999 -RA BKN045 12/08 Q1017
                        TEMPO RA=
201106120720 METAR COR EGLL 120720Z 16007KT 9999 FEW020 12/08 Q1017 NOSIG=
201106120650 METAR COR EGLL 120650Z 14007KT 9999 FEW020 12/08 Q1017 NOSIG=
201106120620 METAR COR EGLL 120620Z 14005KT 9999 FEW020 11/08 Q1017 NOSIG=
201106120550 METAR COR EGLL 120550Z 15004KT CAVOK 10/08 Q1017 NOSIG=
201106120520 METAR COR EGLL 120520Z VRB03KT CAVOK 10/08 Q1017 NOSIG=
201106120450 METAR COR EGLL 120450Z 15004KT CAVOK 09/07 Q1017 NOSIG=
201106120420 METAR COR EGLL 120420Z 17004KT CAVOK 08/07 Q1017 NOSIG=
201106120350 METAR COR EGLL 120350Z 18004KT CAVOK 08/07 Q1017 NOSIG=
201106120320 METAR COR EGLL 120320Z 20004KT CAVOK 08/06 Q1017 NOSIG=
201106120250 METAR COR EGLL 120250Z 18003KT CAVOK 08/06 Q1017 NOSIG=
201106120220 METAR COR EGLL 120220Z 18003KT CAVOK 08/06 Q1018 NOSIG=
201106120150 METAR COR EGLL 120150Z 20003KT CAVOK 08/06 Q1018 NOSIG=
201106120120 METAR EGLL 120120Z AUTO VRB02KT 9999NDV NCD 09/07 Q1018=
201106120050 METAR EGLL 120050Z AUTO 21006KT 9999NDV NCD 09/07 Q1018=
201106120020 METAR EGLL 120020Z AUTO 21005KT 9999NDV NCD 10/07 Q1018=
201106112350 METAR COR EGLL 112350Z 21005KT CAVOK 10/08 Q1018 NOSIG=
201106112320 METAR COR EGLL 112320Z 18004KT CAVOK 10/08 Q1018 NOSIG=
201106112250 METAR COR EGLL 112250Z 17004KT 150V240 CAVOK 10/07 Q1018
                        NOSIG=
201106112220 METAR COR EGLL 112220Z 22005KT 190V250 CAVOK 12/05 Q1018
                        NOSIG=
201106112150 METAR COR EGLL 112150Z 22006KT 140V280 CAVOK 12/06 Q1018
                        NOSIG=
201106112120 METAR COR EGLL 112120Z 32002KT CAVOK 12/06 Q1018 NOSIG=
201106112050 METAR COR EGLL 112050Z 32005KT 9999 FEW032 12/06 Q1018 NOSIG=
201106112020 METAR COR EGLL 112020Z 23006KT CAVOK 13/06 Q1018 NOSIG=
201106111950 METAR COR EGLL 111950Z 19006KT 160V250 CAVOK 13/05 Q1017
                        NOSIG=
201106111920 METAR COR EGLL 111920Z 23006KT 200V280 9999 FEW035CB 13/06
                        Q1017 TEMPO SHRA=
201106111850 METAR COR EGLL 111850Z 27008KT 9999 FEW032CB 13/06 Q1017
                        TEMPO SHRA=
201106111820 METAR COR EGLL 111820Z 28010KT 9999 VCSH FEW032CB 13/05 Q1017
                        TEMPO SHRA=
201106111750 METAR COR EGLL 111750Z 22008KT 180V260 9999 VCSH FEW030CB
                        14/06 Q1017 TEMPO SHRA=
201106111720 METAR COR EGLL 111720Z 27011KT 220V280 9999 -SHRA FEW030CB
                        15/06 Q1017 TEMPO SHRA=
201106111650 METAR EGLL 111650Z 31009KT 9999 VCSH SCT030CB 15/05 Q1016=
201106111620 METAR COR EGLL 111620Z 31010KT 290V350 9999 FEW044 15/05
                        Q1016 TEMPO SHRA=
201106111550 METAR COR EGLL 111550Z 27010KT 220V300 CAVOK 17/01 Q1016
                        NOSIG=
201106111520 METAR COR EGLL 111520Z 30006KT 230V360 CAVOK 18/01 Q1016
                        NOSIG=
201106111450 METAR COR EGLL 111450Z 27008KT 200V320 CAVOK 18/02 Q1016
                        NOSIG=
201106111420 METAR COR EGLL 111420Z 26009G19KT 200V310 CAVOK 18/01 Q1016
                        NOSIG=
201106111350 METAR COR EGLL 111350Z 27010KT 240V310 CAVOK 17/01 Q1016
                        NOSIG=
201106111320 METAR COR EGLL 111320Z 26011KT 230V290 CAVOK 18/02 Q1016
                        NOSIG=
201106111250 METAR COR EGLL 111250Z 27011KT 220V320 CAVOK 18/02 Q1016
                        NOSIG=
201106111220 METAR COR EGLL 111220Z 25011KT 230V290 9999 SCT048 17/04
                        Q1016 NOSIG=
201106111150 METAR EGLL 111150Z 28010KT 9999 SCT043CB 16/04 Q1016 NOSIG=
201106111120 METAR COR EGLL 111120Z 28007KT 240V330 9999 FEW038 16/05
                        Q1017 NOSIG=
201106111050 METAR COR EGLL 111050Z 29008KT 250V320 9999 SCT033 14/07
                        Q1017 NOSIG=
201106111020 METAR COR EGLL 111020Z 28007KT 250V330 9999 FEW029 BKN038
                        15/07 Q1017 NOSIG=
201106110950 METAR COR EGLL 110950Z 30006KT 250V330 9999 BKN020 13/08
                        Q1016 NOSIG=
201106110920 METAR COR EGLL 110920Z 28007KT 250V310 9999 SCT017 BKN020
                        13/08 Q1016 NOSIG=
201106110850 METAR COR EGLL 110850Z 26007KT 230V300 9999 FEW014 SCT020
                        12/09 Q1016 NOSIG=
201106110820 METAR EGLL 110820Z NIL=
201106110750 METAR COR EGLL 110750Z 26005KT 220V300 9999 BKN010 11/09
                        Q1016 BECMG SCT015=
201106110720 METAR COR EGLL 110720Z 29004KT 230V340 9999 SCT010 11/08
                        Q1016 NOSIG=
201106110650 METAR COR EGLL 110650Z 24004KT 200V280 9999 BKN007 10/08
                        Q1016 BECMG SCT015=
201106110620 METAR COR EGLL 110620Z 32004KT 280V350 8000 BKN007 09/08
                        Q1016 BECMG SCT008=
201106110550 METAR COR EGLL 110550Z 29005KT 7000 BKN006 09/08 Q1015=
201106110520 METAR COR EGLL 110520Z 29004KT 260V330 9999 FEW008 08/07
                        Q1015 NOSIG=
201106110450 METAR COR EGLL 110450Z 29005KT 260V320 9999 FEW008 08/07
                        Q1015 NOSIG=
201106110420 METAR COR EGLL 110420Z 27007KT 9999 FEW010 SCT045 08/07 Q1015
                        NOSIG=
201106110350 METAR COR EGLL 110350Z 25006KT 9999 FEW006 BKN012 08/07 Q1015
                        NOSIG=
201106110320 METAR COR EGLL 110320Z 23006KT 9999 BKN009 BKN047 08/07 Q1014
                        NOSIG=
201106110250 METAR COR EGLL 110250Z 27006KT 9999 SCT009 08/07 Q1014 NOSIG=
201106110220 METAR COR EGLL 110220Z 28005KT 9999 FEW006 07/06 Q1014 NOSIG=
201106110150 METAR COR EGLL 110150Z 28005KT 9999 FEW006 08/06 Q1015 NOSIG=
201106110120 METAR EGLL 110120Z AUTO 27006KT 9999NDV FEW006/// SCT041///
                        08/07 Q1015=
201106110050 METAR EGLL 110050Z AUTO 28004KT 9999NDV NCD 08/07 Q1015=
201106110020 METAR EGLL 110020Z AUTO 28006KT 9999NDV FEW031/// BKN038///
                        BKN046/// 09/07 Q1015=
201106102350 METAR COR EGLL 102350Z 25007KT 9999 -SHRA FEW008 SCT025 BKN036
                        09/07 Q1015 TEMPO SHRA=
201106102320 METAR COR EGLL 102320Z 25007KT 9999 FEW026 SCT035 10/08 Q1015
                        TEMPO SHRA=
201106102250 METAR COR EGLL 102250Z 27007KT 9999 FEW015 10/07 Q1015 TEMPO
                        SHRA=
201106102220 METAR COR EGLL 102220Z 26007KT 210V290 9999 -SHRA FEW019
                        SCT028 BKN045 10/07 Q1015 NOSIG=
201106102150 METAR COR EGLL 102150Z 28006KT 230V310 9999 -SHRA FEW036
                        SCT045 11/07 Q1014 TEMPO SHRA=
201106102120 METAR COR EGLL 102120Z 22007KT 180V260 9999 FEW022 BKN035
                        12/07 Q1014 NOSIG=
201106102050 METAR COR EGLL 102050Z 22005KT 140V310 9999 SCT033 12/06
                        Q1014 NOSIG=
201106102020 METAR COR EGLL 102020Z VRB04KT 9999 FEW026CB 11/07 Q1014
                        TEMPO SHRA=
201106101950 METAR COR EGLL 101950Z VRB03KT 9999 5000E VCSH FEW026CB SCT042
                        11/07 Q1014 TEMPO SHRA=
201106101920 METAR COR EGLL 101920Z 29005KT 180V330 9999 -SHRA FEW028CB
                        12/07 Q1014 TEMPO SHRA=
201106101850 METAR COR EGLL 101850Z 29006KT 9999 VCSH FEW038CB 12/06 Q1014
                        TEMPO SHRA=
201106101820 METAR COR EGLL 101820Z 31004KT 280V340 9999 FEW037 13/07
                        Q1013 TEMPO SHRA=
201106101750 METAR COR EGLL 101750Z 29011KT 9999 FEW037 13/07 Q1013 NOSIG=
201106101720 METAR COR EGLL 101720Z VRB03KT 9999 FEW049 14/06 Q1013 NOSIG=
201106101650 METAR COR EGLL 101650Z VRB03KT 9999 FEW046 14/07 Q1013 TEMPO
                        SHRA=
201106101620 METAR EGLL 101620Z 12005KT 070V240 9999 FEW046 14/06 Q1013=
201106101550 METAR EGLL 101550Z 11004KT 040V180 9999 FEW041 SCT049 14/06
                        Q1014=
201106101520 METAR COR EGLL 101520Z 07004KT 030V120 9999 FEW025 SCT033
                        15/07 Q1014 TEMPO SHRA=
201106101450 METAR COR EGLL 101450Z 06004KT 9999 FEW030CB 13/06 Q1014
                        TEMPO SHRA=
201106101420 METAR COR EGLL 101420Z 13005KT 090V230 9999 FEW030CB 13/06
                        Q1014 TEMPO SHRA=
201106101350 METAR COR EGLL 101350Z 18007KT 120V230 9999 VCSH FEW030CB
                        SCT042 12/06 Q1014 TEMPO SHRA=
201106101320 METAR COR EGLL 101320Z 20009KT 9999 5000SW VCSH FEW035CB
                        BKN042 13/08 Q1014 TEMPO SHRA=
201106101250 METAR COR EGLL 101250Z 16007KT 100V260 9999 VCSH FEW030CB
                        15/06 Q1014 TEMPO SHRA=
201106101220 METAR COR EGLL 101220Z 17007KT 120V220 9999 FEW025CB SCT040
                        16/07 Q1014 TEMPO SHRA=
201106101150 METAR COR EGLL 101150Z 18006KT 130V210 9999 FEW025 SCT041
                        14/07 Q1014 TEMPO SHRA=
201106101120 METAR COR EGLL 101120Z 18008KT 140V200 9999 SHRA VCTS FEW023CB
                        SCT042 13/07 Q1014 BECMG NSW=
201106101050 METAR COR EGLL 101050Z 23008KT 200V270 9999 SHRA VCTS FEW027CB
                        SCT048 13/06 Q1014 TEMPO SHRA=
201106101020 METAR COR EGLL 101020Z 28008KT 9999 VCTS VCSH FEW025CB BKN045
                        13/07 Q1014 TEMPO SHRA=
201106100950 METAR COR EGLL 100950Z 28007KT 240V320 9999 FEW033 13/06
                        Q1014 NOSIG=
201106100920 METAR COR EGLL 100920Z 25004KT 170V310 9999 SCT034 14/06
                        Q1014 NOSIG=
201106100850 METAR COR EGLL 100850Z 22005KT 160V320 9999 SCT040 14/05
                        Q1014 NOSIG=
201106100820 METAR COR EGLL 100820Z 27005KT 210V320 9999 FEW040 14/04
                        Q1014 NOSIG=
201106100750 METAR COR EGLL 100750Z 28005KT 220V310 CAVOK 12/06 Q1014
                        NOSIG=
201106100720 METAR COR EGLL 100720Z 24005KT 200V270 9999 FEW020 11/07
                        Q1015 NOSIG=
201106100650 METAR COR EGLL 100650Z 30004KT CAVOK 10/07 Q1015 NOSIG=
201106100620 METAR COR EGLL 100620Z 25005KT 210V270 CAVOK 10/07 Q1015
                        NOSIG=
201106100550 METAR COR EGLL 100550Z 24006KT 200V270 CAVOK 09/07 Q1015
                        NOSIG=
201106100520 METAR COR EGLL 100520Z 22004KT 180V250 CAVOK 09/07 Q1015
                        NOSIG=
201106100450 METAR COR EGLL 100450Z 20005KT 160V260 CAVOK 08/07 Q1014
                        NOSIG=
201106100420 METAR COR EGLL 100420Z 21004KT 190V260 CAVOK 08/06 Q1014
                        NOSIG=
201106100350 METAR COR EGLL 100350Z 21004KT CAVOK 08/07 Q1014 NOSIG=
201106100320 METAR COR EGLL 100320Z VRB02KT CAVOK 08/06 Q1015 NOSIG=
201106100250 METAR COR EGLL 100250Z 20003KT CAVOK 07/06 Q1015 NOSIG=
201106100220 METAR COR EGLL 100220Z 22004KT CAVOK 08/07 Q1015 NOSIG=
201106100150 METAR COR EGLL 100150Z 19004KT CAVOK 08/06 Q1015 NOSIG=
201106100120 METAR EGLL 100120Z AUTO 21005KT 9999NDV NCD 09/07 Q1015=
201106100050 METAR EGLL 100050Z AUTO 20004KT 9999NDV NCD 09/07 Q1015=
201106100020 METAR EGLL 100020Z AUTO 21005KT 9999NDV NCD 10/07 Q1015=
201106092350 METAR COR EGLL 092350Z 23006KT CAVOK 10/07 Q1015 NOSIG=
201106092320 METAR COR EGLL 092320Z 23007KT CAVOK 10/07 Q1015 NOSIG=
201106092250 METAR COR EGLL 092250Z 22006KT 190V260 CAVOK 10/07 Q1015
                        NOSIG=
201106092220 METAR COR EGLL 092220Z 21006KT CAVOK 11/07 Q1015 NOSIG=
201106092150 METAR COR EGLL 092150Z 21008KT 180V260 CAVOK 12/07 Q1015
                        NOSIG=
201106092120 METAR COR EGLL 092120Z 22010KT 190V250 CAVOK 13/07 Q1015
                        NOSIG=
201106092050 METAR COR EGLL 092050Z 22008KT 9999 FEW049 13/07 Q1015 NOSIG=
201106092020 METAR EGLL 092020Z 22009KT 9999 FEW047 14/07 Q1014 NOSIG=
201106091950 METAR COR EGLL 091950Z 25009KT 9999 FEW035 14/07 Q1014 NOSIG=
201106091920 METAR COR EGLL 091920Z 26011KT 9999 FEW038 14/07 Q1014 NOSIG=
201106091850 METAR COR EGLL 091850Z 26012KT 9999 FEW038 SCT047 15/06 Q1014
                        NOSIG=
201106091820 METAR COR EGLL 091820Z 26013KT 9999 SCT041 SCT047 16/07 Q1014
                        NOSIG=
201106091750 METAR COR EGLL 091750Z 25010KT 9999 SCT047 17/06 Q1014 NOSIG=
201106091720 METAR COR EGLL 091720Z 26012KT 9999 FEW046 17/05 Q1014 NOSIG=
201106091650 METAR COR EGLL 091650Z 24012KT 9999 FEW038 17/06 Q1014 NOSIG=
201106091620 METAR COR EGLL 091620Z 24013KT 9999 FEW038 16/07 Q1014 NOSIG=
201106091550 METAR COR EGLL 091550Z 24012KT 9999 FEW038 17/07 Q1014 NOSIG=
201106091520 METAR COR EGLL 091520Z 20009KT 150V240 9999 FEW042 16/08
                        Q1014 NOSIG=
201106091450 METAR COR EGLL 091450Z 20010KT 160V250 9999 FEW045 15/08
                        Q1014 NOSIG=
201106091420 METAR COR EGLL 091420Z 19011KT 170V240 9999 FEW045 15/09
                        Q1014 NOSIG=
201106091350 METAR COR EGLL 091350Z 19004KT 160V240 9999 FEW045 16/09
                        Q1014 NOSIG=
201106091320 METAR COR EGLL 091320Z 22005KT 160V250 9999 VCSH FEW030CB
                        SCT042 14/08 Q1014 TEMPO SHRA=
201106091250 METAR COR EGLL 091250Z 27010KT 9999 -SHRA FEW030CB 13/09
                        Q1014 TEMPO SHRA=
201106091220 METAR COR EGLL 091220Z 31006KT 280V350 9999 VCSH FEW030CB
                        14/09 Q1014 TEMPO SHRA=
201106091150 METAR COR EGLL 091150Z 28012KT 9999 -SHRA FEW030CB 13/09
                        Q1013 TEMPO SHRA=
201106091120 METAR COR EGLL 091120Z 22009KT 190V270 9999 VCSH FEW030CB
                        16/09 Q1013 TEMPO SHRA=
201106091050 METAR COR EGLL 091050Z 24008KT 9999 SCT030CB 14/09 Q1013
                        TEMPO SHRA=
201106091020 METAR COR EGLL 091020Z 26015KT 9999 VCSH FEW021 SCT033 13/09
                        Q1013 TEMPO SHRA=
201106090950 METAR COR EGLL 090950Z 26008KT 230V300 9999 FEW025CB SCT045
                        16/07 Q1013 TEMPO SHRA=
201106090920 METAR COR EGLL 090920Z 24009KT 210V280 9999 VCSH FEW025CB
                        SCT043 16/08 Q1013 NOSIG=
201106090850 METAR COR EGLL 090850Z 26008KT 210V300 9999 SCT025 16/08
                        Q1013 NOSIG=
201106090820 METAR COR EGLL 090820Z 25007KT 200V290 9999 BKN022 15/08
                        Q1013 NOSIG=
201106090750 METAR COR EGLL 090750Z 27009KT 9999 SCT021 14/08 Q1013 NOSIG=
201106090720 METAR COR EGLL 090720Z 26009KT 9999 SCT020 13/08 Q1012 NOSIG=
201106090650 METAR COR EGLL 090650Z 24008KT 210V270 9999 FEW018 12/08
                        Q1012 NOSIG=
201106090620 METAR COR EGLL 090620Z 22007KT 9999 FEW016 12/08 Q1012 NOSIG=
201106090550 METAR COR EGLL 090550Z 21007KT 180V250 CAVOK 10/07 Q1012
                        NOSIG=
201106090520 METAR COR EGLL 090520Z 22006KT CAVOK 10/07 Q1012 NOSIG=
201106090450 METAR EGLL 090450Z 21005KT 190V250 CAVOK 10/07 Q1011=
201106090420 METAR COR EGLL 090420Z 22006KT CAVOK 10/07 Q1011 NOSIG=
201106090350 METAR COR EGLL 090350Z 23007KT 200V260 CAVOK 10/07 Q1011
                        NOSIG=
201106090320 METAR COR EGLL 090320Z 21005KT CAVOK 10/07 Q1011 NOSIG=
201106090250 METAR COR EGLL 090250Z 21006KT CAVOK 10/07 Q1011 NOSIG=
201106090220 METAR COR EGLL 090220Z 23007KT CAVOK 10/07 Q1011 NOSIG=
201106090150 METAR COR EGLL 090150Z 22005KT CAVOK 10/07 Q1011 NOSIG=
201106090120 METAR EGLL 090120Z AUTO 21005KT 9999NDV NCD 10/07 Q1011=
201106090050 METAR EGLL 090050Z AUTO 21007KT 9999NDV NCD 10/07 Q1011=
201106090020 METAR EGLL 090020Z AUTO 22008KT 9999NDV NCD 10/07 Q1011=
201106082350 METAR COR EGLL 082350Z 22007KT CAVOK 11/07 Q1010 NOSIG=
201106082320 METAR COR EGLL 082320Z 22007KT CAVOK 11/08 Q1010 NOSIG=
201106082250 METAR COR EGLL 082250Z 22006KT CAVOK 11/07 Q1010 NOSIG=
201106082220 METAR COR EGLL 082220Z 23009KT CAVOK 11/07 Q1010 NOSIG=
201106082150 METAR COR EGLL 082150Z 25011KT CAVOK 12/07 Q1010 NOSIG=
201106082120 METAR COR EGLL 082120Z 25012KT 9999 FEW030 12/07 Q1009 NOSIG=
201106082050 METAR COR EGLL 082050Z 25010KT 9999 FEW030 13/07 Q1009 NOSIG=
201106082020 METAR COR EGLL 082020Z 25011KT 9999 FEW024 13/07 Q1009 NOSIG=
201106081950 METAR COR EGLL 081950Z 26014KT 9999 FEW024CB 14/07 Q1008
                        NOSIG=
201106081920 METAR COR EGLL 081920Z 25013KT 9999 FEW025CB 14/07 Q1008
                        NOSIG=
201106081850 METAR COR EGLL 081850Z 25015KT 9999 FEW025CB 15/07 Q1007
                        NOSIG=
201106081820 METAR COR EGLL 081820Z 25014KT 9999 FEW041 15/07 Q1007 NOSIG=
201106081750 METAR COR EGLL 081750Z 25014KT 9999 FEW041 15/08 Q1007 NOSIG=
201106081720 METAR COR EGLL 081720Z 26012KT 9999 SCT040 16/07 Q1007 NOSIG=
201106081650 METAR COR EGLL 081650Z 24010KT 200V270 9999 FEW030CB 16/08
                        Q1006 NOSIG=
201106081620 METAR COR EGLL 081620Z 26013KT 9999 FEW028CB 15/10 Q1006
                        NOSIG=
201106081550 METAR COR EGLL 081550Z 21010KT 170V250 9999 VCSH FEW027CB
                        SCT041 15/10 Q1006 TEMPO SHRA=
201106081520 METAR COR EGLL 081520Z 22011KT 190V250 9999 FEW026CB SCT037
                        14/10 Q1006 TEMPO SHRA=
201106081450 METAR COR EGLL 081450Z 23013KT 190V250 9999 6000S -SHRA FEW026CB
                        SCT030 13/10 Q1006 RESHRA TEMPO SHRA=
201106081420 METAR COR EGLL 081420Z 22015G26KT 9999 FEW028CB 16/09 Q1005
                        TEMPO SHRA=
201106081350 METAR COR EGLL 081350Z 21011KT 9999 FEW025CB 16/11 Q1005
                        TEMPO SHRA=
201106081320 METAR COR EGLL 081320Z 22009KT 9999 FEW027CB SCT036 14/11
                        Q1006 NOSIG=
201106081250 METAR COR EGLL 081250Z 26013KT 9000 -SHRA FEW030CB SCT042
                        13/10 Q1006 RERA TEMPO SHRA=
201106081220 METAR COR EGLL 081220Z 22015KT 9999 -SHRA FEW030CB BKN040
                        16/08 Q1005 TEMPO SHRA=
201106081150 METAR COR EGLL 081150Z 22014KT 9999 FEW035 BKN044 17/07 Q1005
                        NOSIG=
201106081120 METAR EGLL 081120Z 23012KT 190V260 9999 FEW038 BKN043 17/07
                        Q1005=
201106081050 METAR COR EGLL 081050Z 21011KT 9999 SCT038 18/07 Q1005 NOSIG=
201106081020 METAR COR EGLL 081020Z 22011KT 9999 FEW035 17/07 Q1005 NOSIG=
201106080950 METAR COR EGLL 080950Z 22012KT 190V250 9999 FEW035 16/07
                        Q1005 NOSIG=
201106080920 METAR COR EGLL 080920Z 23010KT 9999 FEW028 15/08 Q1005 NOSIG=
201106080850 METAR COR EGLL 080850Z 23010KT 190V260 9999 FEW025 15/09
                        Q1005 NOSIG=
201106080820 METAR COR EGLL 080820Z 22009KT 190V250 9999 FEW016 SCT025
                        15/09 Q1004 NOSIG=
201106080750 METAR COR EGLL 080750Z 21009KT 190V250 9999 FEW018 SCT022
                        14/09 Q1004 NOSIG=
201106080720 METAR COR EGLL 080720Z 21008KT 170V250 9999 FEW017 SCT023
                        13/09 Q1004 NOSIG=
201106080650 METAR COR EGLL 080650Z 22010KT 9999 SCT019 12/09 Q1004 NOSIG=
201106080620 METAR COR EGLL 080620Z 22010KT 9999 FEW022 12/09 Q1004 NOSIG=
201106080550 METAR COR EGLL 080550Z 21008KT 180V260 CAVOK 11/08 Q1004
                        NOSIG=
201106080520 METAR COR EGLL 080520Z 19008KT CAVOK 10/08 Q1004 NOSIG=
201106080450 METAR COR EGLL 080450Z 20007KT 170V240 CAVOK 10/08 Q1004
                        NOSIG=
201106080420 METAR COR EGLL 080420Z 18006KT CAVOK 09/07 Q1004 NOSIG=
201106080350 METAR COR EGLL 080350Z 18005KT CAVOK 09/07 Q1004 NOSIG=
201106080320 METAR COR EGLL 080320Z 16005KT CAVOK 10/07 Q1004 NOSIG=
201106080250 METAR COR EGLL 080250Z 18005KT CAVOK 09/07 Q1004 NOSIG=
201106080220 METAR EGLL 080220Z 20006KT CAVOK 09/07 Q1004=
201106080150 METAR COR EGLL 080150Z 21005KT 9999 FEW049 10/07 Q1004 NOSIG=
201106080120 METAR EGLL 080120Z AUTO 20005KT 9999NDV NCD 10/07 Q1004=
201106080050 METAR EGLL 080050Z AUTO 20005KT 9999NDV NCD 10/07 Q1004=
201106080020 METAR EGLL 080020Z AUTO 21006KT 9999NDV NCD 10/07 Q1004=
201106072350 METAR COR EGLL 072350Z 22007KT CAVOK 10/07 Q1004 NOSIG=
201106072320 METAR COR EGLL 072320Z 22007KT CAVOK 11/07 Q1004 NOSIG=
201106072250 METAR COR EGLL 072250Z 21006KT CAVOK 11/07 Q1004 NOSIG=
201106072220 METAR COR EGLL 072220Z 21008KT CAVOK 11/07 Q1004 NOSIG=
201106072150 METAR COR EGLL 072150Z 22009KT 170V250 CAVOK 12/07 Q1004
                        NOSIG=
201106072120 METAR COR EGLL 072120Z 21009KT 180V250 CAVOK 13/07 Q1004
                        NOSIG=
201106072050 METAR COR EGLL 072050Z 22008KT 190V250 CAVOK 13/07 Q1004
                        NOSIG=
201106072020 METAR COR EGLL 072020Z 22010KT 190V260 CAVOK 14/08 Q1003
                        NOSIG=
201106071950 METAR COR EGLL 071950Z 23011KT CAVOK 14/07 Q1003 NOSIG=
201106071920 METAR COR EGLL 071920Z 23013KT 9999 FEW040 15/07 Q1003 NOSIG=
201106071850 METAR COR EGLL 071850Z 23014KT 9999 FEW038 15/07 Q1003 NOSIG=
201106071820 METAR COR EGLL 071820Z 23012G22KT 9999 FEW047 16/07 Q1003
                        NOSIG=
201106071750 METAR COR EGLL 071750Z 22011KT 9999 FEW047 17/06 Q1002 NOSIG=
201106071720 METAR COR EGLL 071720Z 21013G25KT 180V240 9999 FEW047 17/05
                        Q1002 NOSIG=
201106071650 METAR COR EGLL 071650Z 22013KT 190V250 9999 SCT047 17/05
                        Q1002 NOSIG=
201106071620 METAR COR EGLL 071620Z 23013KT 9999 SCT047 18/06 Q1003 NOSIG=
201106071550 METAR COR EGLL 071550Z 23014KT 9999 FEW047 18/06 Q1003 NOSIG=
201106071520 METAR COR EGLL 071520Z 22014KT 9999 SCT048 18/06 Q1003 NOSIG=
201106071450 METAR COR EGLL 071450Z 24015KT 210V270 9999 SCT048 19/06
                        Q1003 NOSIG=
201106071420 METAR COR EGLL 071420Z 23014KT 9999 SCT047 19/06 Q1003 NOSIG=
201106071350 METAR COR EGLL 071350Z 22015KT 9999 FEW042 SCT048 18/07 Q1003
                        NOSIG=
201106071320 METAR COR EGLL 071320Z 22012KT 9999 FEW036 SCT045 18/08 Q1003
                        NOSIG=
201106071250 METAR COR EGLL 071250Z 22011G21KT 9999 FEW032 SCT041 18/07
                        Q1003 NOSIG=
201106071220 METAR COR EGLL 071220Z 22011KT 180V250 9999 SCT034 SCT047
                        17/09 Q1004 NOSIG=
201106071150 METAR COR EGLL 071150Z 22014KT 9999 SCT029 BKN037 17/08 Q1004
                        NOSIG=
201106071120 METAR COR EGLL 071120Z 21012G22KT 9999 FEW037 SCT040 18/08
                        Q1004 NOSIG=
201106071050 METAR COR EGLL 071050Z 24014KT 9999 FEW034 SCT039 18/08 Q1004
                        NOSIG=
201106071020 METAR COR EGLL 071020Z 22011KT 190V250 9999 SCT037 SCT042
                        17/08 Q1004 NOSIG=
201106070950 METAR COR EGLL 070950Z 23009KT 190V270 9999 SCT036 17/07
                        Q1004 NOSIG=
201106070920 METAR COR EGLL 070920Z 23009KT 190V270 9999 FEW032 16/08
                        Q1004 NOSIG=
201106070850 METAR COR EGLL 070850Z 22009KT 190V250 9999 FEW030 16/08
                        Q1004 NOSIG=
201106070820 METAR COR EGLL 070820Z 19007KT 140V230 9999 FEW023 15/08
                        Q1004 NOSIG=
201106070750 METAR COR EGLL 070750Z 21007KT 170V250 9999 FEW024 14/08
                        Q1004 NOSIG=
201106070720 METAR COR EGLL 070720Z 20006KT 140V250 9999 FEW016 13/08
                        Q1004 NOSIG=
201106070650 METAR COR EGLL 070650Z 21006KT 160V260 9999 FEW009 12/08
                        Q1004 NOSIG=
201106070620 METAR COR EGLL 070620Z 21005KT 170V250 9999 FEW007 12/08
                        Q1004 NOSIG=
201106070550 METAR COR EGLL 070550Z 21005KT 160V260 9999 FEW005 11/09
                        Q1004 NOSIG=
201106070520 METAR COR EGLL 070520Z 21004KT 180V250 9999 FEW015 10/09
                        Q1004 NOSIG=
201106070450 METAR COR EGLL 070450Z 21005KT 180V270 7000 FEW006 SCT020
                        10/09 Q1004 NOSIG=
201106070420 METAR COR EGLL 070420Z 22005KT 8000 FEW040 10/09 Q1004 NOSIG=
201106070350 METAR COR EGLL 070350Z 22004KT 7000 FEW040 SCT048 10/09 Q1004
                        NOSIG=
201106070320 METAR COR EGLL 070320Z 22005KT 7000 NSC 10/09 Q1004 NOSIG=
201106070250 METAR COR EGLL 070250Z 21003KT 8000 FEW049 10/09 Q1005 NOSIG=
201106070220 METAR COR EGLL 070220Z 21005KT 8000 FEW049 10/09 Q1005 NOSIG=
201106070150 METAR COR EGLL 070150Z 21005KT CAVOK 10/09 Q1005 NOSIG=
201106070120 METAR EGLL 070120Z AUTO 22005KT 9999NDV SCT038/// 11/09 Q1005=
201106070050 METAR EGLL 070050Z AUTO 21005KT 9999NDV SCT037/// SCT048///
                        12/09 Q1005=
201106070020 METAR EGLL 070020Z AUTO 21004KT 9999NDV NCD 12/09 Q1005=
201106062350 METAR COR EGLL 062350Z 18005KT CAVOK 12/09 Q1005 NOSIG=
201106062320 METAR COR EGLL 062320Z 19005KT CAVOK 12/09 Q1005 NOSIG=
201106062250 METAR COR EGLL 062250Z 21005KT CAVOK 12/09 Q1006 NOSIG=
201106062220 METAR COR EGLL 062220Z 20006KT 180V250 CAVOK 12/09 Q1006
                        NOSIG=
201106062150 METAR COR EGLL 062150Z 20007KT 170V250 CAVOK 13/09 Q1006
                        NOSIG=
201106062120 METAR COR EGLL 062120Z 20007KT 160V260 CAVOK 13/09 Q1006
                        NOSIG=
201106062050 METAR COR EGLL 062050Z 19008KT 150V240 CAVOK 14/09 Q1006
                        NOSIG=
201106062020 METAR COR EGLL 062020Z 19006KT 120V250 CAVOK 14/09 Q1006
                        NOSIG=
201106061950 METAR COR EGLL 061950Z 18006KT 130V240 CAVOK 14/09 Q1005
                        NOSIG=
201106061920 METAR COR EGLL 061920Z 20005KT 150V250 CAVOK 14/09 Q1005
                        NOSIG=
201106061850 METAR COR EGLL 061850Z 24004KT 190V270 CAVOK 14/09 Q1005
                        NOSIG=
201106061820 METAR COR EGLL 061820Z VRB02KT CAVOK 15/09 Q1005 NOSIG=
201106061750 METAR COR EGLL 061750Z VRB03KT 9999 FEW023 15/09 Q1005 NOSIG=
201106061720 METAR COR EGLL 061720Z 32004KT 280V350 9999 SCT049 15/09
                        Q1006 NOSIG=
201106061650 METAR COR EGLL 061650Z 32004KT 270V340 9999 BKN049 14/09
                        Q1006 NOSIG=
201106061620 METAR COR EGLL 061620Z 29005KT 250V340 9999 FEW033 BKN047
                        14/09 Q1006 NOSIG=
201106061550 METAR COR EGLL 061550Z 30005KT 270V340 9999 FEW026 BKN034
                        13/09 Q1006 NOSIG=
201106061520 METAR COR EGLL 061520Z 28007KT 9999 SCT025 BKN038 13/09 Q1006
                        NOSIG=
201106061450 METAR COR EGLL 061450Z 29006KT 240V320 9999 SCT025 BKN035
                        13/09 Q1006 NOSIG=
201106061420 METAR COR EGLL 061420Z VRB02KT 9999 FEW026 BKN037 14/09 Q1006
                        NOSIG=
201106061350 METAR COR EGLL 061350Z VRB03KT 9999 SCT037 BKN046 14/08 Q1006
                        NOSIG=
201106061320 METAR COR EGLL 061320Z 01004KT 270V060 9999 FEW029 SCT039
                        BKN048 14/08 Q1006 NOSIG=
201106061250 METAR COR EGLL 061250Z 35004KT 310V080 9999 FEW034 SCT041
                        BKN047 14/07 Q1006 NOSIG=
201106061220 METAR COR EGLL 061220Z VRB03KT 9999 BKN049 13/08 Q1006 NOSIG=
201106061150 METAR COR EGLL 061150Z VRB03KT 9999 FEW035 BKN043 12/07 Q1006
                        NOSIG=
201106061120 METAR COR EGLL 061120Z VRB03KT 9999 BKN042 11/06 Q1007 NOSIG=
201106061050 METAR COR EGLL 061050Z 01005KT 320V050 9999 -RA BKN042 10/05
                        Q1007 NOSIG=
201106061020 METAR COR EGLL 061020Z 04004KT 340V080 9999 -RA FEW033 BKN043
                        10/06 Q1007 NOSIG=
201106060950 METAR COR EGLL 060950Z 03005KT 340V060 9999 -RA SCT034 BKN044
                        10/06 Q1007 NOSIG=
201106060920 METAR COR EGLL 060920Z 36005KT 9999 -RA BKN030 09/05 Q1007
                        NOSIG=
201106060850 METAR COR EGLL 060850Z 36005KT 320V030 9999 -RA FEW010 BKN026
                        09/07 Q1007 NOSIG=
201106060820 METAR COR EGLL 060820Z 35006KT 320V030 9999 -RA FEW011 BKN022
                        10/08 Q1006 NOSIG=
201106060750 METAR COR EGLL 060750Z 36004KT 9000 -RA FEW012 SCT022 BKN031
                        10/08 Q1006 RERA NOSIG=
201106060720 METAR COR EGLL 060720Z 36005KT 6000 RA FEW007 SCT024 BKN030
                        10/09 Q1006 BECMG NSW=
201106060650 METAR COR EGLL 060650Z 35004KT 300V010 5000 RA SCT012 SCT020
                        09/09 Q1006 TEMPO NSW BKN012=
201106060620 METAR COR EGLL 060620Z 33005KT 300V010 7000 RA FEW007 SCT015
                        BKN021 09/08 Q1006 TEMPO NSW BKN012=
201106060550 METAR COR EGLL 060550Z 35005KT 310V020 7000 RA FEW009 SCT020
                        BKN028 10/08 Q1006 TEMPO NSW BKN012=
201106060520 METAR COR EGLL 060520Z VRB03KT 9000 RA SCT008 SCT020 BKN028
                        10/09 Q1006 TEMPO NSW BKN010=
201106060450 METAR COR EGLL 060450Z 35005KT 310V030 8000 -RA FEW008 SCT010
                        BKN019 10/09 Q1006 TEMPO BKN010=
201106060420 METAR COR EGLL 060420Z 36005KT 9999 -RA FEW007 BKN017 10/09
                        Q1005 TEMPO RA BKN012=
201106060350 METAR COR EGLL 060350Z 36004KT 330V030 8000 -RA FEW006 SCT010
                        BKN020 10/09 Q1005 RERA TEMPO RA
                        BKN010=
201106060320 METAR COR EGLL 060320Z 36004KT 340V040 7000 RA FEW005 BKN012
                        10/09 Q1005 TEMPO NSW BKN008=
201106060250 METAR COR EGLL 060250Z 36004KT 330V030 9999 -RA BKN007 10/09
                        Q1006 TEMPO RA BKN012=
201106060220 METAR COR EGLL 060220Z 36006KT 320V030 9000 -RA BKN008 11/09
                        Q1006 TEMPO RA BKN012=
201106060150 METAR COR EGLL 060150Z 36005KT 320V030 9999 -RA FEW006 BKN012
                        11/10 Q1006 RERA TEMPO RA BKN006=
201106060120 METAR EGLL 060120Z AUTO 36005KT 320V030 8000NDV -RA OVC006///
                        11/10 Q1006=
201106060050 METAR EGLL 060050Z AUTO 36005KT 330V040 8000NDV -RA BKN006///
                        11/10 Q1007 RERA=
201106060020 METAR EGLL 060020Z AUTO 36006KT 330V030 9000NDV RA BKN007///
                        11/10 Q1007=
201106052350 METAR COR EGLL 052350Z 01006KT 330V040 8000 RA FEW006 BKN010
                        11/10 Q1007 TEMPO BKN008=
201106052320 METAR COR EGLL 052320Z 36006KT 7000 RA SCT009 BKN049 11/10
                        Q1007 TEMPO BKN010=
201106052250 METAR COR EGLL 052250Z 35005KT 310V020 7000 RA SCT008 11/10
                        Q1008 TEMPO BKN010=
201106052220 METAR COR EGLL 052220Z 35005KT 310V020 8000 RA SCT010 12/10
                        Q1008 TEMPO BKN010=
201106052150 METAR COR EGLL 052150Z 01004KT 330V060 9000 RA SCT008 12/10
                        Q1008 TEMPO BKN010=
201106052120 METAR COR EGLL 052120Z 02004KT 340V070 9000 RA FEW007 SCT012
                        BKN045 12/11 Q1008 TEMPO BKN012=
201106052050 METAR COR EGLL 052050Z VRB03KT 7000 RA BKN042CB 12/11 Q1008
                        TEMPO 3000 +RA=
201106052020 METAR COR EGLL 052020Z 36006KT 320V040 7000 RA BKN040 12/11
                        Q1008 TEMPO 4500 RA=
201106051950 METAR COR EGLL 051950Z 36007KT 8000 RA BKN040 12/11 Q1008
                        NOSIG=
201106051920 METAR COR EGLL 051920Z 01006KT 340V040 7000 RA BKN039 13/11
                        Q1008 NOSIG=
201106051850 METAR COR EGLL 051850Z 36006KT 340V040 7000 RA SCT038 BKN046
                        13/11 Q1008 TEMPO NSW=
201106051820 METAR COR EGLL 051820Z 03005KT 340V070 7000 RA SCT027 BKN046
                        14/12 Q1008 TEMPO NSW=
201106051750 METAR COR EGLL 051750Z 03004KT 360V060 4500 RA BKN020 15/13
                        Q1008 TEMPO 9999 NSW BKN014=
201106051720 METAR COR EGLL 051720Z 03005KT 350V080 7000 RA BKN023 14/13
                        Q1008 TEMPO NSW BKN014=
201106051650 METAR COR EGLL 051650Z 01004KT 340V060 4000 RA SCT017 BKN039CB
                        15/13 Q1009 TEMPO 9999 NSW BKN014=
201106051620 METAR COR EGLL 051620Z 04007KT 010V080 6000 -RADZ FEW017
                        SCT031 16/12 Q1009 TEMPO SHRA=
201106051550 METAR COR EGLL 051550Z 03006KT 350V060 9999 -RA FEW030 SCT039
                        16/12 Q1009 TEMPO SHRA=
201106051520 METAR COR EGLL 051520Z 06007KT 9999 -RA BKN037 17/12 Q1009
                        TEMPO SHRA=
201106051450 METAR COR EGLL 051450Z 04006KT 010V090 9999 -RA SCT023 17/12
                        Q1009 TEMPO SHRA=
201106051420 METAR COR EGLL 051420Z 05008KT 9999 -RA SCT035 18/12 Q1009
                        TEMPO SHRA=
201106051350 METAR COR EGLL 051350Z 05008KT 010V080 9999 -RA SCT033 18/11
                        Q1010 TEMPO SHRA=
201106051320 METAR COR EGLL 051320Z 05008KT 010V080 9999 -RA FEW022 SCT033
                        19/11 Q1010 TEMPO SHRA=
201106051250 METAR EGLL 051250Z 06009KT 030V090 9999 FEW020 SCT032 19/10
                        Q1010=
201106051220 METAR COR EGLL 051220Z 06009KT 9999 -SHRA FEW028 SCT033 19/10
                        Q1011 TEMPO SHRA=
201106051150 METAR COR EGLL 051150Z 05008KT 9999 FEW025 SCT040 18/10 Q1011
                        TEMPO SHRA=
201106051120 METAR COR EGLL 051120Z 05009KT CAVOK 18/09 Q1011 TEMPO SHRA=
201106051050 METAR COR EGLL 051050Z 03011KT 010V070 CAVOK 17/09 Q1012
                        TEMPO SHRA=
201106051020 METAR EGLL 051020Z 04009KT 350V070 CAVOK 17/09 Q1012=
201106050950 METAR COR EGLL 050950Z 05011KT 360V080 CAVOK 17/09 Q1012
                        TEMPO SHRA=
201106050920 METAR COR EGLL 050920Z 05009KT 010V080 9999 FEW023 16/09
                        Q1013 NOSIG=
201106050850 METAR COR EGLL 050850Z 04010KT 010V080 9999 FEW025 15/09
                        Q1013 NOSIG=
201106050820 METAR COR EGLL 050820Z 04009KT 350V080 9999 FEW020 15/09
                        Q1013 NOSIG=
201106050750 METAR COR EGLL 050750Z 04010KT 010V070 9999 SCT018 14/09
                        Q1013 NOSIG=
201106050720 METAR COR EGLL 050720Z 02008KT 340V060 9999 SCT018 14/09
                        Q1014 NOSIG=
201106050650 METAR COR EGLL 050650Z 03008KT 340V060 9999 BKN016 14/09
                        Q1014 NOSIG=
201106050620 METAR COR EGLL 050620Z 04008KT 9999 BKN015 14/10 Q1014 NOSIG=
201106050550 METAR EGLL 050550Z 04009KT 9999 BKN015 13/10 Q1014=
201106050520 METAR COR EGLL 050520Z 03007KT 350V080 9999 BKN013 13/10
                        Q1014 BECMG SCT015=
201106050450 METAR COR EGLL 050450Z 04008G18KT 360V070 9999 BKN013 13/10
                        Q1015 NOSIG=
201106050420 METAR COR EGLL 050420Z 04008KT 9999 BKN012 13/10 Q1015 NOSIG=
201106050350 METAR COR EGLL 050350Z 03008KT 350V070 9999 OVC012 13/10
                        Q1015 NOSIG=
201106050320 METAR COR EGLL 050320Z 04009KT 010V070 9999 OVC012 13/10
                        Q1015 NOSIG=
201106050250 METAR COR EGLL 050250Z 04007KT 360V080 9999 OVC013 13/10
                        Q1015 NOSIG=
201106050220 METAR COR EGLL 050220Z 05009KT 010V080 9999 BKN013 13/10
                        Q1016 NOSIG=
201106050150 METAR COR EGLL 050150Z 05010KT 360V070 9999 BKN013 14/10
                        Q1016 NOSIG=
201106050120 METAR EGLL 050120Z AUTO 04009KT 360V070 9999NDV BKN014///
                        14/10 Q1016=
201106050050 METAR COR EGLL 050050Z AUTO 04009KT 360V070 9999NDV OVC014///
                        14/10 Q1016 NOSIG=
201106050020 METAR COR EGLL 050020Z AUTO 04009KT 360V080 9999NDV BKN013///
                        13/10 Q1016 NOSIG=
201106042350 METAR COR EGLL 042350Z 04008KT 360V080 9999 FEW015 14/10
                        Q1017 BECMG BKN012=
201106042320 METAR COR EGLL 042320Z 04009KT 340V070 9999 FEW015 14/11
                        Q1017 BECMG BKN012=
201106042250 METAR COR EGLL 042250Z 04010KT 360V080 9999 FEW015 14/11
                        Q1017 NOSIG=
201106042220 METAR COR EGLL 042220Z 04010KT 360V070 9999 FEW018 14/11
                        Q1018 NOSIG=
201106042150 METAR COR EGLL 042150Z 03009KT 350V060 9999 FEW020 15/11
                        Q1018 NOSIG=
201106042120 METAR COR EGLL 042120Z 02008KT 350V050 9999 FEW020 16/12
                        Q1018 NOSIG=
201106042050 METAR EGLL 042050Z 03008KT 350V060 9999 FEW020 17/11 Q1018=
201106042020 METAR COR EGLL 042020Z 03010KT CAVOK 18/11 Q1018 NOSIG=
201106041950 METAR COR EGLL 041950Z 05010KT CAVOK 20/10 Q1018 NOSIG=
201106041920 METAR COR EGLL 041920Z 05010KT 360V070 CAVOK 21/10 Q1017
                        NOSIG=
201106041850 METAR COR EGLL 041850Z 05011KT 010V080 CAVOK 22/10 Q1017
                        NOSIG=
201106041820 METAR EGLL 041820Z 05012KT CAVOK 22/10 Q1017=
201106041750 METAR COR EGLL 041750Z 05013KT CAVOK 23/11 Q1017 NOSIG=
201106041720 METAR COR EGLL 041720Z 05011KT CAVOK 24/11 Q1017 NOSIG=
201106041650 METAR COR EGLL 041650Z 02011KT 340V070 CAVOK 24/12 Q1018
                        NOSIG=
201106041620 METAR COR EGLL 041620Z 03010KT 340V060 CAVOK 24/12 Q1018
                        NOSIG=
201106041550 METAR COR EGLL 041550Z 05011KT 360V080 CAVOK 25/12 Q1018
                        NOSIG=
201106041520 METAR EGLL 041520Z 04011G21KT 010V080 CAVOK 25/11 Q1019=
201106041450 METAR COR EGLL 041450Z 05011KT 010V080 9999 SCT049 25/12
                        Q1019 NOSIG=
201106041420 METAR COR EGLL 041420Z 04011KT 360V070 9999 SCT049 25/12
                        Q1019 NOSIG=
201106041350 METAR COR EGLL 041350Z 07012KT 9999 SCT048 25/12 Q1019 NOSIG=
201106041320 METAR COR EGLL 041320Z 08012KT 030V100 9999 BKN048 26/12
                        Q1020 NOSIG=
201106041250 METAR COR EGLL 041250Z 07013KT 030V100 9999 SCT046 26/13
                        Q1020 NOSIG=
201106041220 METAR COR EGLL 041220Z 05011KT 300V080 9999 SCT044 26/13
                        Q1020 NOSIG=
201106041150 METAR COR EGLL 041150Z 04011KT 010V080 9999 FEW036 25/13
                        Q1021 NOSIG=
201106041120 METAR COR EGLL 041120Z 06012KT 020V090 9999 FEW038 24/13
                        Q1021 NOSIG=
201106041050 METAR COR EGLL 041050Z 05010KT 350V090 9999 FEW036 23/13
                        Q1022 NOSIG=
201106041020 METAR COR EGLL 041020Z 06010KT 020V090 9999 FEW028 22/13
                        Q1022 NOSIG=
201106040950 METAR COR EGLL 040950Z 04009KT 360V080 CAVOK 21/13 Q1023
                        NOSIG=
201106040920 METAR COR EGLL 040920Z 04008KT 360V080 CAVOK 20/13 Q1023
                        NOSIG=
201106040850 METAR COR EGLL 040850Z 03007KT 350V090 9999 FEW017 18/12
                        Q1023 NOSIG=
201106040820 METAR COR EGLL 040820Z 01006KT 340V050 9999 FEW012 16/12
                        Q1024 NOSIG=
201106040750 METAR COR EGLL 040750Z 03007KT 350V070 9999 BKN012 15/12
                        Q1024 BECMG SCT012=
201106040720 METAR COR EGLL 040720Z 01006KT 340V060 9999 BKN010 15/12
                        Q1024 BECMG SCT010=
201106040650 METAR COR EGLL 040650Z 03006KT 350V100 9999 BKN010 14/11
                        Q1024 BECMG SCT010=
201106040620 METAR COR EGLL 040620Z 04007KT 360V070 9999 BKN010 14/11
                        Q1024 BECMG FEW012 SCT030=
201106040550 METAR COR EGLL 040550Z 03006KT 340V060 9999 BKN010 13/11
                        Q1024 BECMG FEW012 SCT030=
201106040520 METAR COR EGLL 040520Z 03005KT 340V060 9999 BKN010 13/10
                        Q1024 TEMPO BKN008=
201106040450 METAR COR EGLL 040450Z 03005KT 360V070 9999 SCT009 13/10
                        Q1024 TEMPO BKN007=
201106040420 METAR COR EGLL 040420Z 02005KT 340V050 9999 SCT009 12/10
                        Q1025 TEMPO BKN007=
201106040350 METAR COR EGLL 040350Z 02005KT 340V060 9999 SCT010 12/10
                        Q1025 TEMPO BKN008=
201106040320 METAR COR EGLL 040320Z 03005KT 360V070 9999 BKN010 12/10
                        Q1025 TEMPO BKN008=
201106040250 METAR COR EGLL 040250Z 03006KT 300V070 9999 SCT010 12/10
                        Q1025 TEMPO BKN008=
201106040220 METAR COR EGLL 040220Z 03005KT 340V050 9999 FEW010 13/10
                        Q1026 TEMPO BKN009=
201106040150 METAR COR EGLL 040150Z 04007KT 010V080 CAVOK 13/10 Q1026
                        TEMPO BKN009=
201106040120 METAR EGLL 040120Z AUTO 05007KT 020V100 9999NDV NCD 13/10
                        Q1026=
201106040050 METAR EGLL 040050Z AUTO 05007KT 020V080 9999NDV NCD 14/10
                        Q1026=
201106040020 METAR EGLL 040020Z AUTO 05007KT 9999NDV NCD 14/10 Q1026=
201106032350 METAR COR EGLL 032350Z 05007KT 010V070 CAVOK 15/10 Q1027
                        NOSIG=
201106032320 METAR COR EGLL 032320Z 04008KT 010V090 CAVOK 16/10 Q1027
                        NOSIG=
201106032250 METAR COR EGLL 032250Z 04007KT 010V080 CAVOK 16/10 Q1027
                        NOSIG=
201106032220 METAR COR EGLL 032220Z 05008KT 020V090 CAVOK 17/10 Q1027
                        NOSIG=
201106032150 METAR COR EGLL 032150Z 05008KT CAVOK 18/10 Q1027 NOSIG=
201106032120 METAR COR EGLL 032120Z 05007KT 010V090 CAVOK 18/10 Q1027
                        NOSIG=
201106032050 METAR COR EGLL 032050Z 05007KT 010V080 CAVOK 19/10 Q1027
                        NOSIG=
201106032020 METAR COR EGLL 032020Z 06010KT 030V090 CAVOK 19/09 Q1027
                        NOSIG=
201106031950 METAR COR EGLL 031950Z 06010KT CAVOK 20/10 Q1027 NOSIG=
201106031920 METAR COR EGLL 031920Z 06012KT CAVOK 21/10 Q1027 NOSIG=
201106031850 METAR COR EGLL 031850Z 07013KT CAVOK 22/10 Q1027 NOSIG=
201106031820 METAR COR EGLL 031820Z 07012KT CAVOK 23/09 Q1027 NOSIG=
201106031750 METAR COR EGLL 031750Z 05012KT CAVOK 23/09 Q1027 NOSIG=
201106031720 METAR COR EGLL 031720Z 06011KT 020V090 CAVOK 24/09 Q1027
                        NOSIG=
201106031650 METAR COR EGLL 031650Z 07012KT 030V090 CAVOK 25/09 Q1027
                        NOSIG=
201106031620 METAR COR EGLL 031620Z 06011KT 010V100 CAVOK 25/09 Q1027
                        NOSIG=
201106031550 METAR COR EGLL 031550Z 06011KT 010V080 CAVOK 25/09 Q1028
                        NOSIG=
201106031520 METAR COR EGLL 031520Z 06011KT CAVOK 26/10 Q1028 NOSIG=
201106031450 METAR COR EGLL 031450Z 07012KT 020V090 CAVOK 25/10 Q1029
                        NOSIG=
201106031420 METAR COR EGLL 031420Z 06012KT 010V080 CAVOK 25/10 Q1029
                        NOSIG=
201106031350 METAR COR EGLL 031350Z 06013KT 030V100 CAVOK 25/10 Q1029
                        NOSIG=
201106031320 METAR COR EGLL 031320Z 05013G23KT 010V080 9999 FEW048 24/10
                        Q1029 NOSIG=
201106031250 METAR COR EGLL 031250Z 05011KT 010V080 9999 FEW046 25/11
                        Q1030 NOSIG=
201106031220 METAR COR EGLL 031220Z 06012KT 020V080 9999 FEW043 24/11
                        Q1030 NOSIG=
201106031150 METAR COR EGLL 031150Z 07012KT 030V100 CAVOK 24/11 Q1031
                        NOSIG=
201106031120 METAR COR EGLL 031120Z 07012KT 9999 FEW039 24/11 Q1031 NOSIG=
201106031050 METAR COR EGLL 031050Z 06011KT 030V090 9999 FEW038 23/12
                        Q1031 NOSIG=
201106031020 METAR EGLL 031020Z 05010KT 9999 SCT038 22/12 Q1032=
201106030950 METAR COR EGLL 030950Z 05010KT 010V080 9999 SCT032 21/12
                        Q1032 NOSIG=
201106030920 METAR COR EGLL 030920Z 06009KT 040V100 9999 FEW030 21/12
                        Q1032 NOSIG=
201106030850 METAR COR EGLL 030850Z 06008KT 020V110 9999 FEW027 20/12
                        Q1032 NOSIG=
201106030820 METAR COR EGLL 030820Z 06009KT 9999 FEW024 19/12 Q1033 NOSIG=
201106030750 METAR COR EGLL 030750Z 06008KT 020V090 CAVOK 18/12 Q1033
                        NOSIG=
201106030720 METAR COR EGLL 030720Z 06008KT CAVOK 17/12 Q1033 NOSIG=
201106030650 METAR COR EGLL 030650Z 05007KT 010V080 CAVOK 16/12 Q1033
                        NOSIG=
201106030620 METAR COR EGLL 030620Z 06007KT 010V080 CAVOK 15/11 Q1033
                        NOSIG=
201106030550 METAR COR EGLL 030550Z 06007KT 020V080 CAVOK 14/11 Q1033
                        NOSIG=
201106030520 METAR COR EGLL 030520Z 06005KT CAVOK 14/11 Q1033 NOSIG=
201106030450 METAR COR EGLL 030450Z 04004KT 360V080 CAVOK 13/11 Q1033
                        NOSIG=
201106030420 METAR COR EGLL 030420Z 04005KT CAVOK 13/11 Q1033 NOSIG=
201106030350 METAR COR EGLL 030350Z 04005KT 360V070 CAVOK 13/11 Q1033
                        NOSIG=
201106030320 METAR COR EGLL 030320Z 04005KT 010V070 CAVOK 13/11 Q1033
                        NOSIG=
201106030250 METAR COR EGLL 030250Z 04004KT 010V080 CAVOK 13/11 Q1034
                        NOSIG=
201106030220 METAR COR EGLL 030220Z 06006KT 020V100 CAVOK 14/11 Q1034
                        NOSIG=
201106030150 METAR COR EGLL 030150Z 07006KT CAVOK 14/11 Q1034 NOSIG=
201106030120 METAR EGLL 030120Z AUTO 06007KT 9999NDV NCD 15/11 Q1034=
201106030050 METAR EGLL 030050Z AUTO 06007KT 9999NDV NCD 15/11 Q1034=
201106030020 METAR EGLL 030020Z AUTO 06008KT 9999NDV NCD 15/11 Q1034=
201106022350 METAR COR EGLL 022350Z 06008KT CAVOK 16/11 Q1034 NOSIG=
201106022320 METAR COR EGLL 022320Z 05005KT CAVOK 16/11 Q1034 NOSIG=
201106022250 METAR COR EGLL 022250Z 07004KT CAVOK 16/11 Q1034 NOSIG=
201106022220 METAR COR EGLL 022220Z 10004KT CAVOK 16/10 Q1034 NOSIG=
201106022150 METAR COR EGLL 022150Z 08007KT CAVOK 17/11 Q1034 NOSIG=
201106022120 METAR COR EGLL 022120Z 10005KT CAVOK 17/11 Q1033 NOSIG=
201106022050 METAR COR EGLL 022050Z 10006KT CAVOK 17/11 Q1033 NOSIG=
201106022020 METAR COR EGLL 022020Z 09007KT CAVOK 18/11 Q1033 NOSIG=
201106021950 METAR COR EGLL 021950Z 10009KT CAVOK 19/11 Q1033 NOSIG=
201106021920 METAR COR EGLL 021920Z 10011KT CAVOK 20/11 Q1032 NOSIG=
201106021850 METAR COR EGLL 021850Z 10010KT 9999 FEW044 22/11 Q1032 NOSIG=
201106021820 METAR COR EGLL 021820Z 07008KT 9999 FEW044 23/12 Q1033 NOSIG=
201106021750 METAR COR EGLL 021750Z 05006KT 020V100 9999 BKN045 23/11
                        Q1033 NOSIG=
201106021720 METAR COR EGLL 021720Z 05008KT 9999 FEW045 23/11 Q1033 NOSIG=
201106021650 METAR COR EGLL 021650Z 07009KT 030V100 9999 FEW043 23/11
                        Q1033 NOSIG=
201106021620 METAR COR EGLL 021620Z 06009KT 020V090 9999 FEW043 23/11
                        Q1033 NOSIG=
201106021550 METAR COR EGLL 021550Z 04008KT 330V080 9999 FEW044 23/11
                        Q1033 NOSIG=
201106021520 METAR COR EGLL 021520Z 04008KT 330V090 9999 SCT042 24/11
                        Q1033 NOSIG=
201106021450 METAR COR EGLL 021450Z 05008KT 010V110 9999 SCT043 23/11
                        Q1033 NOSIG=
201106021420 METAR COR EGLL 021420Z 07008KT 040V110 9999 BKN042 23/11
                        Q1033 NOSIG=
201106021350 METAR COR EGLL 021350Z 04006KT 010V070 9999 BKN042 22/11
                        Q1033 NOSIG=
201106021320 METAR COR EGLL 021320Z 06007KT 020V100 9999 BKN041 22/11
                        Q1033 NOSIG=
201106021250 METAR COR EGLL 021250Z 06007KT 020V100 9999 BKN041 22/11
                        Q1033 NOSIG=
201106021220 METAR COR EGLL 021220Z 03007KT 350V070 9999 BKN041 22/11
                        Q1034 NOSIG=
201106021150 METAR COR EGLL 021150Z 05006KT 360V080 9999 BKN040 22/11
                        Q1034 NOSIG=
201106021120 METAR COR EGLL 021120Z 06008KT 020V090 9999 BKN039 21/11
                        Q1034 NOSIG=
201106021050 METAR COR EGLL 021050Z 06006KT 020V090 9999 BKN043 21/11
                        Q1034 NOSIG=
201106021020 METAR COR EGLL 021020Z 06005KT 020V100 9999 FEW034 SCT041
                        20/11 Q1034 NOSIG=
201106020950 METAR COR EGLL 020950Z 05005KT 360V120 9999 FEW032 SCT037
                        20/11 Q1034 NOSIG=
201106020920 METAR COR EGLL 020920Z 05005KT 360V120 9999 SCT031 20/11
                        Q1034 NOSIG=
201106020850 METAR COR EGLL 020850Z 07005KT 360V130 9999 FEW028 20/12
                        Q1034 NOSIG=
201106020820 METAR COR EGLL 020820Z 06004KT 350V140 CAVOK 19/12 Q1034
                        NOSIG=
201106020750 METAR COR EGLL 020750Z 04005KT 350V090 CAVOK 17/11 Q1034
                        NOSIG=
201106020720 METAR COR EGLL 020720Z 01004KT 330V060 CAVOK 16/11 Q1034
                        NOSIG=
201106020650 METAR COR EGLL 020650Z 01004KT 330V060 CAVOK 15/11 Q1034
                        NOSIG=
201106020620 METAR COR EGLL 020620Z 01004KT 320V050 CAVOK 14/11 Q1034
                        NOSIG=
201106020550 METAR EGLL 020550Z 00000KT CAVOK 13/11 Q1034=
201106020520 METAR COR EGLL 020520Z 32002KT CAVOK 12/10 Q1033 NOSIG=
201106020450 METAR EGLL 020450Z 31003KT CAVOK 11/10 Q1033=
201106020420 METAR EGLL 020420Z 32003KT 9000 NSC 11/10 Q1033=
201106020350 METAR COR EGLL 020350Z 28003KT CAVOK 11/10 Q1033 NOSIG=
201106020320 METAR COR EGLL 020320Z 27003KT CAVOK 11/10 Q1033 NOSIG=
201106020250 METAR COR EGLL 020250Z 27002KT CAVOK 11/10 Q1033 NOSIG=
201106020220 METAR COR EGLL 020220Z 27004KT CAVOK 11/10 Q1033 NOSIG=
201106020150 METAR COR EGLL 020150Z 29002KT CAVOK 12/10 Q1033 NOSIG=
201106020120 METAR COR EGLL 020120Z 30003KT CAVOK 12/10 Q1033 NOSIG=
201106020050 METAR COR EGLL 020050Z 29003KT CAVOK 12/10 Q1032 NOSIG=
201106020020 METAR COR EGLL 020020Z 30004KT CAVOK 12/10 Q1032 NOSIG=
201106012350 METAR COR EGLL 012350Z 30004KT CAVOK 13/11 Q1032 NOSIG=
201106012320 METAR COR EGLL 012320Z 30004KT CAVOK 13/10 Q1032 NOSIG=
201106012250 METAR COR EGLL 012250Z 30004KT CAVOK 13/10 Q1032 NOSIG=
201106012220 METAR COR EGLL 012220Z 30003KT CAVOK 14/10 Q1032 NOSIG=
201106012150 METAR COR EGLL 012150Z 30004KT CAVOK 14/10 Q1032 NOSIG=
201106012120 METAR COR EGLL 012120Z 30005KT CAVOK 14/10 Q1031 NOSIG=
201106012050 METAR COR EGLL 012050Z 32003KT CAVOK 16/09 Q1031 NOSIG=
201106012020 METAR COR EGLL 012020Z 32002KT CAVOK 17/09 Q1031 NOSIG=
201106011950 METAR COR EGLL 011950Z 32003KT CAVOK 17/09 Q1031 NOSIG=
201106011920 METAR COR EGLL 011920Z 28005KT CAVOK 18/09 Q1031 NOSIG=
201106011850 METAR COR EGLL 011850Z VRB03KT CAVOK 18/09 Q1031 NOSIG=
201106011820 METAR COR EGLL 011820Z 31004KT 270V350 CAVOK 18/09 Q1031
                        NOSIG=
201106011750 METAR COR EGLL 011750Z 30005KT 270V350 CAVOK 18/09 Q1030
                        NOSIG=
201106011720 METAR COR EGLL 011720Z 32007KT CAVOK 18/09 Q1030 NOSIG=
201106011650 METAR COR EGLL 011650Z 32007KT 290V350 CAVOK 18/09 Q1030
                        NOSIG=
201106011620 METAR COR EGLL 011620Z 30009KT CAVOK 18/09 Q1030 NOSIG=
201106011550 METAR COR EGLL 011550Z 29010KT CAVOK 18/09 Q1030 NOSIG=
201106011520 METAR COR EGLL 011520Z 30012KT 9999 FEW048 19/09 Q1030 NOSIG=
201106011450 METAR COR EGLL 011450Z 29011KT 9999 SCT045 20/08 Q1030 NOSIG=
201106011420 METAR COR EGLL 011420Z 24008KT 200V320 CAVOK 21/07 Q1030
                        NOSIG=
201106011350 METAR COR EGLL 011350Z 27009KT 240V320 CAVOK 19/06 Q1030
                        NOSIG=
201106011320 METAR COR EGLL 011320Z 25010KT 210V280 CAVOK 20/06 Q1030
                        NOSIG=
201106011250 METAR COR EGLL 011250Z 26010KT CAVOK 20/05 Q1030 NOSIG=
201106011220 METAR COR EGLL 011220Z 26009KT 220V340 CAVOK 20/04 Q1030
                        NOSIG=
201106011150 METAR COR EGLL 011150Z 26008KT 220V310 CAVOK 19/05 Q1030
                        NOSIG=
201106011120 METAR COR EGLL 011120Z 27009KT 240V040 CAVOK 18/05 Q1030
                        NOSIG=
201106011050 METAR COR EGLL 011050Z 26008KT 200V310 CAVOK 18/04 Q1030
                        NOSIG=
201106011020 METAR COR EGLL 011020Z 27010KT 210V030 9999 FEW048 17/05
                        Q1030 NOSIG=
201106010950 METAR COR EGLL 010950Z 26009KT 220V300 9999 FEW044 17/06
                        Q1030 NOSIG=
201106010920 METAR COR EGLL 010920Z 27009KT 230V290 9999 FEW036 17/06
                        Q1031 NOSIG=
201106010850 METAR COR EGLL 010850Z 28006KT 240V320 CAVOK 16/07 Q1031
                        NOSIG=
201106010820 METAR COR EGLL 010820Z 27005KT 230V300 CAVOK 15/07 Q1031
                        NOSIG=
201106010750 METAR COR EGLL 010750Z 27006KT 250V320 CAVOK 14/07 Q1031
                        NOSIG=
201106010720 METAR COR EGLL 010720Z 28004KT CAVOK 13/07 Q1031 NOSIG=
201106010650 METAR COR EGLL 010650Z VRB03KT CAVOK 12/08 Q1031 NOSIG=
201106010620 METAR COR EGLL 010620Z 27005KT 230V320 CAVOK 10/08 Q1031
                        NOSIG=
201106010550 METAR COR EGLL 010550Z VRB03KT CAVOK 10/07 Q1031 NOSIG=
201106010520 METAR COR EGLL 010520Z VRB02KT CAVOK 10/07 Q1030 NOSIG=
201106010450 METAR COR EGLL 010450Z 00000KT CAVOK 08/07 Q1030 NOSIG=
201106010420 METAR COR EGLL 010420Z 27004KT CAVOK 08/06 Q1030 NOSIG=
201106010350 METAR COR EGLL 010350Z 27003KT CAVOK 07/06 Q1029 NOSIG=
201106010320 METAR COR EGLL 010320Z 26002KT CAVOK 07/05 Q1029 NOSIG=
201106010250 METAR COR EGLL 010250Z 26003KT CAVOK 08/06 Q1029 NOSIG=
201106010220 METAR COR EGLL 010220Z 29004KT CAVOK 08/05 Q1029 NOSIG=
201106010150 METAR COR EGLL 010150Z 29004KT CAVOK 08/06 Q1029 NOSIG=
201106010120 METAR COR EGLL 010120Z 29003KT CAVOK 08/06 Q1029 NOSIG=
201106010050 METAR COR EGLL 010050Z 30004KT CAVOK 09/06 Q1029 NOSIG=
201106010020 METAR COR EGLL 010020Z 28007KT CAVOK 08/06 Q1028 NOSIG=

# No short TAF reports from EGLL in databse.

###################################
#  large TAF from EGLL
###################################
201107012258 TAF EGLL 012258Z 0200/0306 VRB05KT 9999 SCT045=
201107011658 TAF EGLL 011658Z 0118/0224 30005KT 9999 SCT045=
201107011059 TAF EGLL 011059Z 0112/0218 36005KT 9999 SCT045=
201107010500 TAF EGLL 010500Z 0106/0212 35007KT 9999 SCT045=
201106302258 TAF EGLL 302258Z 0100/0206 33007KT 9999 SCT040
                      PROB30 0203/0206 8000=
201106301658 TAF EGLL 301658Z 3018/0124 31008KT 9999 SCT045=
201106301101 TAF EGLL 301101Z 3012/0118 31008KT 9999 SCT045
                      PROB30 TEMPO 3012/3020 8000 SHRA=
201106300500 TAF EGLL 300500Z 3006/0112 31007KT 9999 SCT045
                      PROB30 TEMPO 3012/3020 8000 SHRA=
201106292259 TAF EGLL 292259Z 3000/0106 30008KT 9999 SCT040
                      PROB30 TEMPO 3012/3020 8000 -SHRA=
201106291702 TAF EGLL 291702Z 2918/3024 29008KT 9999 SCT045
                      PROB30 TEMPO 2918/2920 8000 -SHRA
                      PROB30 TEMPO 3014/3019 8000 -SHRA=
201106291057 TAF EGLL 291057Z 2912/3018 29009KT 9999 SCT045
                      PROB40 TEMPO 2914/2920 8000 -SHRA
                      PROB30 TEMPO 3013/3018 7000 -SHRA=
201106290458 TAF EGLL 290458Z 2906/3012 30008KT 9999 SCT045
                      PROB30 TEMPO 2913/2920 8000 -SHRA=
201106282258 TAF EGLL 282258Z 2900/3006 30006KT 9999 SCT035
                      PROB30 TEMPO 2913/2920 8000 -SHRA=
201106281703 TAF EGLL 281703Z 2818/2924 33010KT 9999 SCT035
                      PROB40 TEMPO 2818/2821 8000 -SHRA BKN012
                       PROB30
                      TEMPO 2911/2920 9000 -SHRA=
201106281102 TAF EGLL 281102Z 2812/2918 33010KT 9999 SCT045
                      TEMPO 2812/2822 8000 SHRA BKN012
                      PROB30 TEMPO 2812/2816 4000 TSRA
                      PROB30 TEMPO 2911/2918 8000 SHRA=
201106281034 TAF AMD EGLL 281034Z 2810/2912 34008KT 9999 FEW045
                      TEMPO 2810/2822 7000 SHRA BKN012
                      PROB30 TEMPO 2810/2816 4000 TSRA=
201106280927 TAF AMD EGLL 280927Z 2809/2912 34008KT 9999 FEW045
                      TEMPO 2809/2822 7000 SHRA BKN012=
201106280457 TAF EGLL 280457Z 2806/2912 34008KT 9999 FEW045
                      PROB30 TEMPO 2806/2809 7000 -TSRA BKN012
                       TEMPO 2809/2821 8000 SHRA
                      PROB30 TEMPO 2817/2904 BKN014=
201106272302 TAF EGLL 272302Z 2800/2906 33007KT 9999 SCT045
                      PROB30 TEMPO 2800/2810 -TSRA
                      PROB30 2802/2808 5000 BR BKN010
                      TEMPO 2808/2821 8000 SHRA
                      PROB30 TEMPO 2817/2904 BKN014=
201106271701 TAF EGLL 271701Z 2718/2824 VRB05KT 9999 SCT045
                      PROB30 TEMPO 2718/2803 VRB18G28KT 5000 TSRA
                       PROB30 2803/2808 8000 BKN008
                      BECMG 2805/2808 35010KT
                      PROB30 TEMPO 2808/2821 9000 -SHRA=
201106271101 TAF EGLL 271101Z 2712/2818 20010KT 9999 SCT040
                      BECMG 2715/2718 VRB05KT
                      PROB30 TEMPO 2716/2803 VRB15G25KT 6000 TSRA
                       PROB30 2803/2806 7000 BKN012
                      BECMG 2804/2807 36010KT=
201106270457 TAF EGLL 270457Z 2706/2812 12005KT CAVOK
                      PROB30 2706/2707 9000
                      BECMG 2708/2711 23010KT
                      BECMG 2712/2715 VRB05KT
                      PROB30 TEMPO 2716/2724 8000 TSRA
                      PROB40 2800/2806 7000
                      PROB30 TEMPO 2803/2806 BKN010=
201106262303 TAF EGLL 262303Z 2700/2806 14005KT CAVOK
                      PROB30 2700/2706 9000
                      BECMG 2708/2711 23010KT
                      BECMG 2712/2715 VRB05KT
                      PROB30 TEMPO 2715/2718 -TSRA
                      PROB30 TEMPO 2718/2724 4000 TSRA
                      PROB40 2721/2806 7000
                      PROB30 TEMPO 2803/2806 BKN010=
201106261703 TAF EGLL 261703Z 2618/2724 16008KT CAVOK
                      PROB30 2623/2706 9000
                      BECMG 2708/2711 23010KT
                      BECMG 2712/2715 VRB05KT
                      PROB30 TEMPO 2715/2724 -TSRA=
201106261101 TAF EGLL 261101Z 2612/2718 17010KT 9999 FEW030
                      PROB30 2623/2706 9000
                      BECMG 2708/2711 23010KT
                      BECMG 2711/2713 VRB05KT=
201106260558 TAF AMD EGLL 260558Z 2606/2712 VRB04KT 9999 BKN008
                      PROB40 2606/2608 4000 BR BKN004
                      BECMG 2607/2610 FEW015
                      BECMG 2610/2613 17010KT=
201106260503 TAF EGLL 260503Z 2606/2712 25005KT 9999 BKN008
                      PROB40 2606/2608 4000 BR
                      BECMG 2607/2610 FEW015
                      BECMG 2610/2613 17010KT=
201106260255 TAF AMD EGLL 260255Z 2602/2706 26006KT 9999 BKN010
                      TEMPO 2602/2603 BKN007
                      PROB40 2603/2608 4000 BR BKN005
                      BECMG 2606/2609 SCT010
                      BECMG 2610/2613 17010KT=
201106252300 TAF AMD EGLL 260255Z 2602/2706 26006KT 9999 BKN010
                      TEMPO 2602/2603 BKN007
                      PROB40 2603/2608 4000 BR BKN005
                      BECMG 2606/2609 SCT010
                      BECMG 2610/2613 17010KT=
201106252258 TAF EGLL 252258Z 2600/2706 26006KT 9999 SCT025
                      BECMG 2600/2603 7000
                      PROB30 2600/2603 BKN007
                      PROB40 2603/2608 4000 BR BKN005
                      BECMG 2610/2613 17010KT 9999=
201106251704 TAF EGLL 251704Z 2518/2624 25010KT 9999 SCT025
                      BECMG 2601/2604 VRB03KT 7000
                      PROB30 2603/2608 4000 BR BKN008
                      BECMG 2609/2613 17010KT 9999=
201106251100 TAF EGLL 251100Z 2512/2618 24013G23KT 9999 BKN020
                      BECMG 2519/2523 23003KT
                      BECMG 2601/2604 7000
                      PROB30 2603/2609 BKN010
                      BECMG 2608/2610 9999=
201106250502 TAF EGLL 250502Z 2506/2612 23012KT 9999 BKN010
                      TEMPO 2506/2508 7000 -RADZ BKN006
                      BECMG 2509/2512 SCT025
                      BECMG 2600/2603 VRB03KT
                      PROB30 2602/2608 7000=
201106250254 TAF AMD EGLL 250254Z 2502/2606 19009KT 9999 -RA BKN011
                      TEMPO 2502/2504 4000 RADZ
                      PROB40 2502/2508 BKN006
                      BECMG 2505/2508 25012KT
                      BECMG 2509/2512 NSW SCT025
                      BECMG 2600/2603 VRB03KT
                      PROB30 2602/2606 7000=
201106250226 TAF AMD EGLL 250226Z 2502/2606 19009KT 7000 -RA BKN011
                      TEMPO 2502/2504 4000 RADZ
                      PROB40 2502/2508 BKN006
                      BECMG 2505/2508 25012KT
                      BECMG 2509/2512 9999 NSW SCT025
                      BECMG 2600/2603 VRB03KT
                      PROB30 2602/2606 7000=
201106242300 TAF AMD EGLL 250254Z 2502/2606 19009KT 9999 -RA BKN011
                      TEMPO 2502/2504 4000 RADZ
                      PROB40 2502/2508 BKN006
                      BECMG 2505/2508 25012KT
                      BECMG 2509/2512 NSW SCT025
                      BECMG 2600/2603 VRB03KT
                      PROB30 2602/2606 7000=
201106242259 TAF EGLL 242259Z 2500/2606 19009KT 9999 -RA FEW012 SCT030
                      BECMG 2500/2503 BKN012
                      PROB40 TEMPO 2500/2504 4000 RADZ
                      PROB40 2504/2508 BKN006
                      BECMG 2505/2508 25012KT
                      BECMG 2509/2512 NSW SCT025
                      BECMG 2600/2603 VRB03KT
                      PROB30 2602/2606 7000=
201106242227 TAF AMD EGLL 242227Z 2422/2524 21008KT 9999 -RA FEW035
                      PROB40 TEMPO 2423/2504 4000 RADZ
                      BECMG 2500/2503 BKN012
                      PROB30 2502/2509 BKN007
                      BECMG 2503/2506 27014KT
                      BECMG 2509/2512 NSW BKN020=
201106241656 TAF EGLL 241656Z 2418/2524 27008KT 9999 SCT035
                      BECMG 2418/2421 19012KT 8000 -RADZ
                      BECMG 2423/2502 BKN012
                      PROB40 TEMPO 2423/2504 4000 RADZ
                      PROB30 2502/2509 BKN007
                      BECMG 2503/2506 25014KT
                      BECMG 2509/2512 9999 NSW BKN020=
201106241054 TAF EGLL 241054Z 2412/2518 27008KT 9999 SCT035
                      BECMG 2418/2421 19012KT 8000 -RADZ
                      BECMG 2423/2502 BKN012
                      PROB40 TEMPO 2423/2504 4000 RADZ
                      PROB30 2502/2509 BKN007
                      BECMG 2503/2506 25014KT
                      BECMG 2509/2512 9999 NSW BKN020=
201106240500 TAF EGLL 240500Z 2406/2512 26008KT 9999 SCT035
                      BECMG 2418/2421 19012KT 8000 -RADZ
                      BECMG 2423/2502 BKN012
                      PROB40 TEMPO 2423/2504 4000 RADZ
                      PROB30 2502/2509 BKN007
                      BECMG 2503/2506 25014KT
                      BECMG 2509/2512 9999 NSW BKN020=
201106232300 TAF EGLL 232300Z 2400/2506 27007KT 9999 SCT035
                      BECMG 2418/2421 18012KT 8000 -RADZ
                      BECMG 2423/2502 BKN012
                      PROB40 TEMPO 2423/2503 4000 RADZ
                      PROB30 2502/2506 BKN007
                      BECMG 2503/2506 24014KT=
201106231710 TAF EGLL 231710Z 2318/2424 26009KT 9999 SCT035
                      PROB30 TEMPO 2318/2320 7000 -SHRA
                      BECMG 2420/2423 18012KT
                      PROB40 TEMPO 2421/2424 7000 -RADZ=
201106231103 TAF EGLL 231103Z 2312/2418 26011KT 9999 SCT035
                      TEMPO 2312/2319 25015G25KT 8000 SHRA
                      PROB30 TEMPO 2312/2317 3000 +SHRA +TSRA=
201106230458 TAF EGLL 230458Z 2306/2412 24011KT 9999 SCT035
                      TEMPO 2308/2319 8000 SHRA
                      PROB30 TEMPO 2310/2317 25015G25KT 4000 +SHRA
                       +TSRA=
201106222258 TAF EGLL 222258Z 2300/2406 24010KT 9999 SCT035
                      PROB30 2301/2307 7000 BKN012
                      TEMPO 2308/2319 8000 SHRA
                      PROB30 TEMPO 2311/2316 4000 +SHRA +TSRA=
201106221655 TAF EGLL 221655Z 2218/2324 23012KT 9999 FEW022 SCT045
                      PROB30 2301/2307 6000 BKN010
                      PROB30 TEMPO 2310/2318 8000 SHRA=
201106221103 TAF EGLL 221103Z 2212/2318 22012KT 9999 FEW022 SCT045
                      TEMPO 2212/2220 24018G28KT 7000 SHRA
                      PROB30 TEMPO 2212/2216 3000 +SHRA TSGR
                      PROB30 2301/2307 6000 BKN010
                      PROB30 TEMPO 2310/2318 8000 SHRA=
201106220456 TAF EGLL 220456Z 2206/2312 22012KT 9999 FEW022 SCT045
                      PROB30 TEMPO 2206/2208 BKN012
                      TEMPO 2208/2220 24018G28KT 7000 SHRA
                      PROB30 TEMPO 2209/2216 3000 +SHRA TSGR
                      PROB30 2301/2307 6000 BKN010
                      PROB30 TEMPO 2310/2312 8000 SHRA=
201106212257 TAF EGLL 212257Z 2200/2306 23011KT 9999 FEW022 SCT045
                      PROB30 TEMPO 2201/2208 6000 -RADZ BKN012
                       TEMPO 2208/2220 24018G28KT 7000 SHRA
                      PROB30 TEMPO 2209/2216 3000 +SHRA TSGR
                      PROB30 2301/2306 6000 BKN010=
201106211704 TAF EGLL 211704Z 2118/2224 22012KT 9999 SCT022
                      TEMPO 2118/2120 24015G25KT
                      PROB30 TEMPO 2202/2208 7000 -RADZ BKN012
                       TEMPO 2209/2219 23017G27KT 7000 SHRA=
201106211103 TAF EGLL 211103Z 2112/2218 23015KT 9999 SCT022
                      TEMPO 2112/2120 24017G27KT
                      PROB40 TEMPO 2200/2208 7000 -RADZ BKN012
                       TEMPO 2208/2218 23017G27KT 8000 SHRA=
201106210457 TAF EGLL 210457Z 2106/2212 23011KT 9999 FEW022 SCT035
                      PROB30 2106/2108 8000 BKN011
                      TEMPO 2110/2120 24015G27KT
                      PROB40 TEMPO 2123/2208 7000 -RADZ BKN012
                       TEMPO 2208/2212 23016G27KT 8000 SHRA=
201106210130 TAF AMD EGLL 210130Z 2101/2206 21011KT 9999 FEW012 SCT022
                      TEMPO 2101/2105 6000 -RADZ BKN007
                      PROB30 TEMPO 2101/2105 4500 -DZ BKN004
                      TEMPO 2110/2119 24015G27KT
                      PROB40 TEMPO 2123/2206 8000 -RADZ BKN012=
201106202300 TAF AMD EGLL 210130Z 2101/2206 21011KT 9999 FEW012 SCT022
                      TEMPO 2101/2105 6000 -RADZ BKN007
                      PROB30 TEMPO 2101/2105 4500 -DZ BKN004
                      TEMPO 2110/2119 24015G27KT
                      PROB40 TEMPO 2123/2206 8000 -RADZ BKN012=
201106202257 TAF EGLL 202257Z 2100/2206 21011KT 9999 SCT007 BKN012
                      TEMPO 2100/2105 6000 -RADZ BKN007
                      PROB30 TEMPO 2100/2105 4500 -DZ BKN004
                      BECMG 2105/2108 FEW014 SCT025
                      TEMPO 2110/2119 24015G27KT
                      PROB40 TEMPO 2123/2206 8000 -RADZ BKN012=
201106201924 TAF AMD EGLL 201924Z 2019/2124 21010KT 9999 SCT007 BKN015
                      TEMPO 2019/2104 4000 RA BR SCT003 BKN006
                       BECMG 2107/2110 SCT018
                      PROB40 TEMPO 2113/2119 22016G26KT=
201106201842 TAF AMD EGLL 201842Z 2018/2124 21010KT 8000 -RADZ SCT007 BKN012
                       TEMPO 2018/2104 4000 RA RADZ SCT003 BKN006
                       BECMG 2107/2110 9999 NSW SCT018
                      PROB40 TEMPO 2113/2119 22016G26KT=
201106201659 TAF EGLL 201659Z 2018/2124 21010KT 9999 SCT030
                      BECMG 2018/2021 8000 -RA BKN010
                      PROB40 TEMPO 2018/2020 4000 RA
                      TEMPO 2020/2104 4000 RADZ BKN006
                      BECMG 2107/2110 9999 NSW SCT018
                      PROB40 TEMPO 2113/2119 22016G26KT=
201106201656 TAF AMD EGLL 201656Z 2016/2118 20010KT 9999 SCT011
                      PROB40 TEMPO 2016/2018 BKN011
                      BECMG 2018/2021 8000 -RA BKN011
                      TEMPO 2020/2105 4000 RADZ BKN006
                      BECMG 2107/2110 9999 NSW BKN018
                      PROB40 TEMPO 2115/2118 22016G26KT=
201106201102 TAF EGLL 201102Z 2012/2118 VRB02KT 9999 SCT030
                      BECMG 2014/2017 21010KT
                      BECMG 2018/2021 8000 -RA BKN011
                      TEMPO 2020/2105 4000 RADZ BKN006
                      BECMG 2107/2110 9999 NSW BKN018
                      PROB40 TEMPO 2115/2118 22016G26KT=
201106200505 TAF EGLL 200505Z 2006/2112 04004KT 8000 SCT030
                      BECMG 2006/2008 9999
                      BECMG 2012/2016 20010KT
                      BECMG 2017/2020 8000 -RA BKN011
                      TEMPO 2020/2105 4000 RADZ BKN006
                      BECMG 2107/2110 9999 NSW BKN018=
201106192257 TAF EGLL 192257Z 2000/2106 14004KT 9999 FEW018 SCT045
                      PROB30 2004/2007 7000
                      BECMG 2017/2020 21010KT 8000 -RA BKN012
                      TEMPO 2020/2106 4000 RADZ BKN007=
201106191656 TAF EGLL 191656Z 1918/2024 26010KT 9999 SCT040
                      BECMG 2002/2006 VRB03KT
                      PROB30 2004/2007 3000 BR
                      TEMPO 2016/2019 9000 -RA
                      BECMG 2019/2022 BKN012
                      TEMPO 2019/2024 5000 RA BR BKN006=
201106191054 TAF EGLL 191054Z 1912/2018 26013KT 9999 SCT035
                      PROB40 TEMPO 1912/1919 7000 SHRA
                      BECMG 2004/2008 17004KT
                      PROB30 2004/2007 2000 BR BKN003
                      TEMPO 2013/2018 9000 -RA BKN014=
201106190503 TAF EGLL 190503Z 1906/2012 26013KT 9999 FEW020 SCT035
                      PROB40 TEMPO 1909/1919 7000 SHRA
                      BECMG 2000/2004 17004KT
                      BECMG 2004/2008 7000 -RA BKN010
                      TEMPO 2009/2012 4000 RADZ BKN006=
201106182254 TAF EGLL 182254Z 1900/2006 25012KT 9999 SCT030
                      PROB30 TEMPO 1910/1918 8000 SHRA
                      BECMG 2000/2004 18004KT
                      PROB30 2003/2006 8000 -RA BKN008=
201106181658 TAF EGLL 181658Z 1818/1924 26012KT 9999 SCT025
                      TEMPO 1818/1822 25015G25KT 9000 SHRA
                      PROB30 TEMPO 1818/1820 4000 +SHRA=
201106181053 TAF EGLL 181053Z 1812/1918 25013KT 9999 SCT025
                      TEMPO 1812/1822 25016G27KT 9000 SHRA
                      PROB30 TEMPO 1812/1820 4000 TSRA=
201106180455 TAF EGLL 180455Z 1806/1912 25013KT 9999 SCT025
                      PROB30 TEMPO 1806/1809 BKN012
                      TEMPO 1809/1822 25016G27KT 9000 SHRA
                      PROB30 TEMPO 1812/1820 TSRA=
201106172257 TAF EGLL 172257Z 1800/1906 VRB05KT 9999 SCT007 BKN025
                      BECMG 1800/1803 25013KT
                      TEMPO 1800/1805 BKN012
                      PROB30 TEMPO 1800/1805 5000 RA BKN009
                      TEMPO 1809/1822 25016G27KT 9000 SHRA
                      PROB30 TEMPO 1812/1820 +TSRAGR=
201106171701 TAF EGLL 171701Z 1718/1824 14012KT 6000 RA BKN007
                      TEMPO 1718/1723 9999 -RA SCT010 BKN030
                      PROB30 TEMPO 1718/1724 4000 +RA
                      BECMG 1719/1722 VRB05KT
                      BECMG 1723/1802 25013KT 9999 NSW SCT025
                      TEMPO 1809/1823 25016G27KT 6000 SHRA
                      PROB30 TEMPO 1812/1821 3000 +TSRAGR=
201106171102 TAF EGLL 171102Z 1712/1818 14014KT 9999 -RA SCT015 BKN035
                      TEMPO 1712/1715 7000 RA BKN013
                      BECMG 1715/1718 6000 RA BKN010
                      TEMPO 1718/1723 3500 +RA BKN006
                      BECMG 1722/1801 24014KT 9999 NSW SCT020
                      TEMPO 1723/1818 24018G30KT
                      TEMPO 1809/1818 6000 SHRA
                      PROB30 TEMPO 1812/1818 3500 +TSRA=
201106170629 TAF AMD EGLL 170629Z 1706/1812 18012KT 9999 SCT035
                      TEMPO 1710/1715 7000 RA BKN012
                      PROB30 TEMPO 1714/1721 17017G27KT
                      BECMG 1715/1718 7000 RA BKN012
                      PROB40 TEMPO 1716/1723 4000 RADZ BKN008
                      PROB30 TEMPO 1721/1723 17017G27KT +RA
                      BECMG 1721/1724 24012KT 9999 NSW SCT025
                      PROB30 TEMPO 1809/1812 5000 SHRA=
201106170509 TAF EGLL 170509Z 1706/1812 18012KT 9999 SCT035
                      TEMPO 1710/1716 7000 RA BKN012
                      PROB30 TEMPO 1714/1721 17017G27KT
                      BECMG 1715/1718 7000 RA BKN012
                      PROB40 TEMPO 1716/1723 4000 RADZ BKN008
                      PROB30 TEMPO 1721/1723 17017G27KT +RA
                      BECMG 1721/1724 24012KT 9999 NSW SCT025
                      PROB30 TEMPO 1809/1812 5000 SHRA=
201106162307 TAF EGLL 162307Z 1700/1806 24008KT 9999 SCT025
                      BECMG 1703/1706 18011KT
                      PROB30 TEMPO 1707/1710 9000 -SHRA
                      TEMPO 1710/1715 7000 RA BKN012
                      PROB30 TEMPO 1713/1718 17017G27KT
                      BECMG 1715/1718 7000 RA BKN012
                      TEMPO 1716/1723 4500 RADZ BKN008
                      BECMG 1721/1724 24012KT 9999 NSW SCT025=
201106162001 TAF AMD EGLL 162001Z 1620/1724 26012KT 9999 SCT025
                      TEMPO 1620/1621 27015G25KT 4000 +SHRA BKN014CB
                       TEMPO 1702/1710 8000 -SHRA BKN012
                      BECMG 1703/1706 18010KT
                      TEMPO 1710/1715 7000 RA BKN012
                      BECMG 1715/1719 4500 RADZ BKN008=
201106161703 TAF EGLL 161703Z 1618/1724 24012KT 9999 SCT025
                      TEMPO 1618/1621 7000 SHRA
                      TEMPO 1702/1710 8000 -SHRA BKN012
                      BECMG 1703/1706 18010KT
                      TEMPO 1710/1715 7000 RA BKN012
                      BECMG 1715/1719 4500 RADZ BKN008=
201106161103 TAF EGLL 161103Z 1612/1718 25013KT 9999 SCT030
                      TEMPO 1612/1620 7000 SHRA
                      BECMG 1702/1706 19010KT
                      PROB30 1702/1708 7000 BKN010
                      TEMPO 1710/1718 7000 RA BKN014
                      PROB30 1713/1718 16017G27KT=
201106160457 TAF EGLL 160457Z 1606/1712 20008KT 9999 SCT025
                      TEMPO 1606/1612 9000 -RA BKN012
                      PROB40 TEMPO 1606/1609 4500 RADZ BKN007
                      BECMG 1606/1609 26012KT
                      PROB40 TEMPO 1609/1611 4500 +SHRA BKN014
                       PROB30
                      TEMPO 1613/1620 7000 SHRA
                      PROB30 TEMPO 1710/1712 6000 SHRA=
201106152259 TAF EGLL 152259Z 1600/1706 20008KT 9999 SCT025
                      TEMPO 1600/1612 9000 -RA BKN012
                      PROB40 TEMPO 1605/1608 4500 RADZ BKN007
                      BECMG 1606/1609 26012KT
                      PROB40 TEMPO 1607/1611 4500 +SHRA BKN014
                       PROB30
                      TEMPO 1613/1620 7000 SHRA=
201106151658 TAF EGLL 151658Z 1518/1624 20008KT 9999 SCT025
                      TEMPO 1518/1612 9000 -RA BKN014
                      PROB30 TEMPO 1518/1519 RADZ BKN009
                      PROB40 TEMPO 1605/1608 4500 RADZ BKN007
                      BECMG 1608/1611 26012KT
                      PROB30 TEMPO 1608/1612 4500 +SHRA BKN014
                       PROB30
                      TEMPO 1613/1618 9000 SHRA=
201106151055 TAF EGLL 151055Z 1512/1618 22008KT 9999 SCT025
                      TEMPO 1514/1612 9000 -RA BKN014
                      PROB30 TEMPO 1515/1519 RADZ BKN008
                      PROB40 TEMPO 1600/1609 RADZ BKN007
                      PROB30 TEMPO 1610/1613 4500 +SHRA BKN014
                       PROB30
                      TEMPO 1613/1618 9000 SHRA=
201106150507 TAF EGLL 150507Z 1506/1612 22008KT 9999 SCT025
                      PROB30 TEMPO 1506/1509 BKN014
                      TEMPO 1513/1609 9000 -RA BKN014
                      PROB30 TEMPO 1515/1519 RADZ BKN008
                      PROB40 TEMPO 1600/1609 RADZ BKN007=
201106142258 TAF EGLL 142258Z 1500/1606 20008KT 9999 FEW025
                      TEMPO 1512/1606 8000 -RA BKN014
                      PROB40 TEMPO 1514/1519 RADZ BKN008
                      PROB40 TEMPO 1600/1606 RADZ BKN006=
201106141701 TAF EGLL 141701Z 1418/1524 20010KT 9999 FEW035
                      PROB40 TEMPO 1500/1505 8000 -RA BKN014
                      BECMG 1505/1508 BKN008
                      TEMPO 1505/1515 7000 -RADZ
                      BECMG 1517/1520 BKN018=
201106141054 TAF EGLL 141054Z 1412/1518 20010KT 9999 FEW035
                      PROB40 TEMPO 1500/1505 8000 -RA BKN014
                      BECMG 1505/1508 BKN008
                      TEMPO 1505/1515 7000 -RADZ
                      BECMG 1515/1518 BKN015=
201106140458 TAF EGLL 140458Z 1406/1512 VRB05KT 9999 FEW035
                      BECMG 1412/1415 22010KT
                      PROB40 TEMPO 1500/1512 8000 -RA BKN014=
201106132259 TAF EGLL 132259Z 1400/1506 VRB05KT 9999 FEW035
                      PROB30 1402/1406 7000
                      BECMG 1412/1415 22010KT
                      PROB40 TEMPO 1500/1506 9000 -RA BKN014=
201106131658 TAF EGLL 131658Z 1318/1424 27010KT 9999 SCT025
                      BECMG 1323/1403 VRB03KT
                      PROB30 1403/1406 6000
                      BECMG 1410/1413 22010KT=
201106131059 TAF EGLL 131059Z 1312/1418 25012KT 9999 SCT025
                      BECMG 1323/1403 VRB03KT
                      PROB30 1403/1406 6000
                      BECMG 1410/1413 22010KT=
201106130506 TAF EGLL 130506Z 1306/1412 24012KT 9999 SCT007 BKN012
                      TEMPO 1306/1309 6000 -RADZ BKN006
                      PROB30 TEMPO 1306/1308 4500 BR BKN004
                      BECMG 1309/1312 SCT025
                      BECMG 1400/1404 VRB03KT
                      PROB30 1403/1407 6000=
201106122259 TAF EGLL 122259Z 1300/1406 20011KT 9999 SCT006 BKN012
                      TEMPO 1300/1307 3500 DZ BR OVC004
                      TEMPO 1307/1309 BKN008
                      BECMG 1309/1312 26010KT SCT025
                      BECMG 1400/1404 VRB03KT
                      PROB30 1403/1406 7000=
201106121703 TAF EGLL 121703Z 1218/1324 17014KT 7000 -RADZ SCT006 BKN010
                      TEMPO 1218/1308 3500 RADZ BKN006
                      PROB40 TEMPO 1223/1307 BKN004
                      BECMG 1300/1303 23011KT
                      BECMG 1308/1311 9999 NSW SCT020=
201106121702 TAF AMD EGLL 121702Z 1217/1318 17014KT 8000 -RA SCT006 BKN010
                      TEMPO 1217/1308 4000 RADZ BKN006
                      BECMG 1223/1303 23011KT
                      PROB30 TEMPO 1223/1307 BKN004
                      BECMG 1308/1311 9999 NSW SCT020=
201106121056 TAF EGLL 121056Z 1212/1318 17016KT 9999 SCT014 BKN025
                      TEMPO 1212/1219 7000 RA BKN012
                      BECMG 1217/1220 8000 -RADZ BKN012
                      TEMPO 1219/1308 4000 RADZ BKN006
                      BECMG 1300/1303 23011KT
                      PROB30 TEMPO 1300/1307 BKN004
                      BECMG 1308/1311 9999 NSW SCT020=
201106120458 TAF EGLL 120458Z 1206/1312 18005KT 9999 SCT030
                      TEMPO 1207/1219 7000 RA
                      BECMG 1209/1212 16015KT
                      BECMG 1217/1220 8000 -RA BKN012
                      TEMPO 1219/1308 4500 RADZ BKN007
                      BECMG 1300/1303 23010KT
                      PROB30 TEMPO 1300/1307 BKN004
                      BECMG 1307/1310 9999 NSW SCT025=
201106112257 TAF EGLL 112257Z 1200/1306 22005KT 9999 SCT030
                      PROB30 1202/1207 6000
                      TEMPO 1207/1214 7000 -RA
                      BECMG 1208/1211 16016KT
                      BECMG 1214/1217 8000 -RA BKN012
                      TEMPO 1218/1306 4000 RADZ BKN008
                      BECMG 1300/1303 22012KT
                      PROB30 TEMPO 1302/1306 BKN004=
201106111659 TAF EGLL 111659Z 1118/1224 23009KT 9999 SCT040
                      PROB40 TEMPO 1118/1122 6000 SHRA
                      PROB30 1202/1207 6000
                      BECMG 1204/1207 17012KT
                      TEMPO 1211/1224 8000 -RA
                      PROB30 TEMPO 1220/1224 4500 RADZ BKN012=
201106111100 TAF EGLL 111100Z 1112/1218 27009KT 9999 SCT035
                      PROB40 TEMPO 1112/1122 6000 SHRA
                      PROB30 1202/1207 6000
                      BECMG 1208/1211 18010KT
                      PROB30 TEMPO 1215/1218 9000 -RA=
201106110501 TAF EGLL 110501Z 1106/1212 25007KT 9999 SCT025
                      PROB30 TEMPO 1106/1108 8000 BKN008
                      PROB40 TEMPO 1108/1119 6000 SHRA
                      PROB30 1202/1206 7000
                      BECMG 1208/1211 17010KT=
201106110231 TAF AMD EGLL 110231Z 1102/1206 23007KT 9999 SCT035
                      TEMPO 1102/1120 6000 SHRA
                      PROB30 TEMPO 1102/1107 4500 BR BKN006=
201106102300 TAF AMD EGLL 110231Z 1102/1206 23007KT 9999 SCT035
                      TEMPO 1102/1120 6000 SHRA
                      PROB30 TEMPO 1102/1107 4500 BR BKN006=
201106102258 TAF EGLL 102258Z 1100/1206 23007KT 9999 SCT035
                      TEMPO 1100/1120 6000 SHRA
                      PROB30 TEMPO 1100/1102 4500 +RA BKN012=
201106101659 TAF EGLL 101659Z 1018/1124 24007KT 9999 SCT030
                      TEMPO 1018/1118 6000 SHRA=
201106101103 TAF EGLL 101103Z 1012/1118 25008KT 9999 SCT035
                      TEMPO 1012/1022 5000 SHRA
                      PROB30 TEMPO 1012/1020 +TSRA
                      PROB30 1103/1107 7000
                      TEMPO 1110/1118 7000 SHRA=
201106101036 TAF AMD EGLL 101036Z 1010/1112 24008KT 9999 SCT035
                      TEMPO 1010/1022 5000 SHRA
                      PROB30 TEMPO 1010/1020 +TSRA
                      PROB30 1103/1107 7000=
201106100500 TAF EGLL 100500Z 1006/1112 24006KT 9999 SCT040
                      TEMPO 1009/1022 6000 SHRA
                      PROB30 TEMPO 1014/1020 4000 +SHRA +TSRA
                      PROB30 1104/1107 7000=
201106092302 TAF EGLL 092302Z 1000/1106 21007KT 9999 SCT040
                      PROB30 1003/1007 8000
                      TEMPO 1008/1022 6000 SHRA=
201106091701 TAF EGLL 091701Z 0918/1024 24010KT 9999 SCT035
                      PROB30 TEMPO 0918/0920 7000 SHRA
                      PROB40 TEMPO 1008/1022 6000 SHRA=
201106091100 TAF EGLL 091100Z 0912/1018 24010KT 9999 SCT030
                      TEMPO 0912/0920 6000 SHRA
                      PROB40 TEMPO 1008/1018 5000 SHRA=
201106090505 TAF EGLL 090505Z 0906/1012 22010KT 9999 SCT030
                      PROB30 TEMPO 0910/0920 8000 SHRA
                      TEMPO 1005/1012 8000 SHRA=
201106082256 TAF EGLL 082256Z 0900/1006 23010KT 9999 SCT030
                      PROB30 TEMPO 0910/0920 8000 SHRA
                      TEMPO 1004/1006 8000 SHRA BKN014=
201106081702 TAF EGLL 081702Z 0818/0924 24010KT 9999 SCT030
                      PROB40 TEMPO 0818/0820 24015G25KT 6000 SHRA
                       PROB30
                      TEMPO 0910/0920 8000 SHRA=
201106081103 TAF EGLL 081103Z 0812/0918 24012KT 9999 SCT035
                      TEMPO 0812/0819 23015G25KT 6000 SHRA
                      PROB30 TEMPO 0910/0918 8000 SHRA=
201106080459 TAF EGLL 080459Z 0806/0912 23009KT 9999 FEW030
                      PROB40 TEMPO 0809/0818 24015G25KT 7000 SHRA
                       PROB30
                      TEMPO 0909/0912 8000 SHRA=
201106072300 TAF EGLL 072300Z 0800/0906 22009KT 9999 FEW025
                      PROB40 TEMPO 0809/0818 24015G25KT 7000 SHRA=
201106071657 TAF EGLL 071657Z 0718/0824 23012KT 9999 SCT030
                      TEMPO 0808/0818 22015G25KT 7000 SHRA=
201106071107 TAF EGLL 071107Z 0712/0818 22012KT 9999 SCT030
                      PROB30 TEMPO 0712/0720 7000 SHRA
                      TEMPO 0808/0818 22015G25KT 7000 SHRA=
201106070457 TAF EGLL 070457Z 0706/0812 VRB05KT 8000 FEW025 SCT040
                      BECMG 0706/0708 9999
                      BECMG 0708/0711 22012KT
                      PROB30 TEMPO 0806/0812 23015G25KT 8000 SHRA=
201106062256 TAF EGLL 062256Z 0700/0806 VRB05KT CAVOK
                      PROB30 0703/0707 8000
                      BECMG 0708/0711 22012KT BKN035
                      BECMG 0720/0723 VRB04KT CAVOK
                      BECMG 0803/0806 20010KT=
201106061657 TAF EGLL 061657Z 0618/0724 VRB05KT 9999 SCT035
                      BECMG 0708/0711 21012KT=
201106061059 TAF EGLL 061059Z 0612/0718 33005KT 9999 SCT035
                      TEMPO 0612/0614 8000 -RA
                      BECMG 0708/0711 21012KT=
201106060502 TAF EGLL 060502Z 0606/0712 35005KT 8000 -RA SCT010 BKN020
                      BECMG 0606/0609 9999 NSW
                      PROB40 TEMPO 0606/0608 4000 RA BKN007
                      BECMG 0708/0711 21010KT=
201106060355 TAF AMD EGLL 060355Z 0603/0706 35007KT 9999 SCT010 BKN020
                      TEMPO 0603/0611 6000 RA BKN007
                      BECMG 0609/0612 BKN025=
201106060301 TAF AMD EGLL 060301Z 0603/0706 35007KT 9999 BKN012
                      TEMPO 0603/0611 6000 RA BKN007
                      BECMG 0609/0612 BKN025=
201106052301 TAF EGLL 052301Z 0600/0706 35007KT 9999 SCT012 BKN025
                      TEMPO 0600/0610 6000 RA SCT007 BKN012
                      PROB40 TEMPO 0600/0608 4000 RADZ BKN007=
201106052300 TAF AMD EGLL 060355Z 0603/0706 35007KT 9999 SCT010 BKN020
                      TEMPO 0603/0611 6000 RA BKN007
                      BECMG 0609/0612 BKN025=
201106051700 TAF EGLL 051700Z 0518/0624 04010KT 9999 SCT012 BKN025
                      TEMPO 0518/0612 6000 RA SHRA SCT006 BKN012
                       PROB40
                      TEMPO 0518/0608 3500 +RA RADZ BKN006
                      BECMG 0521/0524 VRB05KT
                      BECMG 0606/0609 32010KT
                      BECMG 0615/0618 VRB05KT=
201106051658 TAF AMD EGLL 051658Z 0517/0618 04010KT 9999 SCT015 BKN025
                      TEMPO 0517/0612 6000 RA SHRA SCT006 BKN010
                       PROB40
                      TEMPO 0518/0608 3500 +RA RADZ BKN006
                      BECMG 0521/0524 VRB05KT
                      BECMG 0606/0609 32010KT=
201106051100 TAF EGLL 051100Z 0512/0618 04012KT 9999 SCT035
                      PROB40 TEMPO 0512/0519 7000 SHRA
                      TEMPO 0519/0609 6000 RA SHRA BKN010
                      BECMG 0521/0524 VRB05KT
                      PROB30 TEMPO 0522/0606 4500 +RA RADZ BKN008
                       BECMG 0606/0609 32010KT=
201106050500 TAF EGLL 050500Z 0506/0612 03010KT 9999 BKN012
                      BECMG 0506/0509 SCT030
                      TEMPO 0519/0606 6000 RA SHRA BKN010
                      BECMG 0521/0524 VRB05KT
                      BECMG 0606/0609 32010KT=
201106042301 TAF EGLL 042301Z 0500/0606 03010KT CAVOK
                      BECMG 0500/0503 BKN012
                      PROB40 0501/0507 6000 BKN007
                      BECMG 0507/0509 SCT035
                      BECMG 0521/0524 VRB05KT=
201106041656 TAF EGLL 041656Z 0418/0524 05012KT 9999 SCT030
                      TEMPO 0501/0519 7000 SHRA
                      PROB30 TEMPO 0503/0509 05015G25KT BKN008=
201106041104 TAF EGLL 041104Z 0412/0518 05012KT 9999 SCT030
                      PROB30 TEMPO 0412/0419 05015G25KT
                      TEMPO 0500/0518 7000 SHRA
                      PROB30 TEMPO 0500/0509 05015G25KT BKN008=
201106040756 TAF AMD EGLL 040756Z 0408/0512 04011KT 9999 BKN012
                      BECMG 0408/0410 SCT030
                      BECMG 0500/0503 6000 BKN008
                      PROB30 TEMPO 0502/0509 SHRA
                      BECMG 0506/0509 9999 SCT030
                      PROB30 TEMPO 0508/0512 6000 SHRA=
201106040459 TAF EGLL 040459Z 0406/0512 04011KT 9999 SCT035
                      PROB30 0406/0408 6000 BKN007
                      BECMG 0500/0503 6000 BKN008
                      PROB30 TEMPO 0502/0509 SHRA
                      BECMG 0506/0509 9999 SCT030
                      PROB30 TEMPO 0508/0512 6000 SHRA=
201106032257 TAF EGLL 032257Z 0400/0506 04009KT CAVOK
                      PROB30 0402/0407 7000 BKN009
                      TEMPO 0412/0420 BKN045
                      PROB40 0500/0506 8000 BKN008
                      PROB30 TEMPO 0500/0506 SHRA=
201106031700 TAF EGLL 031700Z 0318/0424 05010KT CAVOK
                      PROB30 TEMPO 0405/0408 9000 BKN010
                      PROB40 TEMPO 0410/0419 BKN040=
201106031100 TAF EGLL 031100Z 0312/0418 06012KT 9999 FEW040=
201106030501 TAF EGLL 030501Z 0306/0412 07012KT CAVOK
                      PROB30 TEMPO 0403/0407 7000 BKN010=
201106022307 TAF EGLL 022307Z 0300/0406 07010KT CAVOK
                      PROB30 TEMPO 0403/0406 7000 BKN010=
201106021700 TAF EGLL 021700Z 0218/0324 06008KT CAVOK=
201106021100 TAF EGLL 021100Z 0212/0318 05008KT 9999 FEW025
                      PROB30 0306/0308 9000 BKN010
                      PROB30 TEMPO 0311/0318 06015G25KT=
201106020501 TAF EGLL 020501Z 0206/0312 VRB05KT 9999 FEW025
                      BECMG 0208/0212 04010KT
                      PROB30 0306/0308 9000 BKN012=
201106012303 TAF EGLL 012303Z 0200/0306 VRB05KT 9999 FEW025
                      BECMG 0208/0212 04010KT=
201106011659 TAF EGLL 011659Z 0118/0224 29010KT 9999 SCT045
                      BECMG 0120/0123 VRB05KT
                      BECMG 0208/0211 04010KT=
201106011057 TAF EGLL 011057Z 0112/0218 26010KT 9999 SCT045
                      BECMG 0123/0202 VRB05KT
                      BECMG 0208/0211 04010KT=
201106010459 TAF EGLL 010459Z 0106/0212 28004KT CAVOK
                      TEMPO 0111/0120 BKN040
                      BECMG 0208/0211 06010KT=
