##########################################################
# Query made at 12/27/2012 09:40:49 UTC
# Time interval: from 06/01/2010 00:00  to 07/01/2010 23:59  UTC
##########################################################

##########################################################
# EGLL, London / Heathrow Airport (United Kingdom)
# WMO index: 03772
# Latitude 51-29N. Longitude 000-27W. Altitude 24 m.
##########################################################

###################################
#  METAR/SPECI from EGLL
###################################
201007012350 METAR COR EGLL 012350Z 17007KT CAVOK 20/13 Q1010 NOSIG=
201007012320 METAR COR EGLL 012320Z 16008KT CAVOK 20/13 Q1010 NOSIG=
201007012250 METAR COR EGLL 012250Z 16007KT CAVOK 20/13 Q1010 NOSIG=
201007012220 METAR COR EGLL 012220Z 16006KT CAVOK 20/13 Q1010 NOSIG=
201007012150 METAR COR EGLL 012150Z 14005KT CAVOK 21/13 Q1010 NOSIG=
201007012120 METAR COR EGLL 012120Z 14004KT 110V180 CAVOK 21/13 Q1010
                        NOSIG=
201007012050 METAR COR EGLL 012050Z 14007KT CAVOK 21/12 Q1010 NOSIG=
201007012020 METAR COR EGLL 012020Z 17008KT 140V210 CAVOK 22/12 Q1010
                        NOSIG=
201007011950 METAR COR EGLL 011950Z 18009KT 150V210 CAVOK 22/13 Q1010
                        NOSIG=
201007011920 METAR COR EGLL 011920Z 18007KT 130V220 CAVOK 22/13 Q1011
                        NOSIG=
201007011850 METAR COR EGLL 011850Z 19009KT 170V230 CAVOK 22/12 Q1011
                        NOSIG=
201007011820 METAR COR EGLL 011820Z 19010KT 150V220 CAVOK 23/13 Q1011
                        NOSIG=
201007011750 METAR COR EGLL 011750Z 19009KT 160V240 CAVOK 23/13 Q1011
                        NOSIG=
201007011720 METAR COR EGLL 011720Z 21012KT 190V260 CAVOK 24/10 Q1011
                        NOSIG=
201007011650 METAR COR EGLL 011650Z 20011KT CAVOK 24/11 Q1012 NOSIG=
201007011620 METAR COR EGLL 011620Z 21012KT CAVOK 25/11 Q1012 NOSIG=
201007011550 METAR COR EGLL 011550Z 20012G22KT CAVOK 25/12 Q1012 NOSIG=
201007011520 METAR COR EGLL 011520Z 19013G23KT CAVOK 25/12 Q1012 NOSIG=
201007011450 METAR COR EGLL 011450Z 21014KT CAVOK 25/10 Q1012 NOSIG=
201007011420 METAR COR EGLL 011420Z 19014KT 160V230 CAVOK 26/10 Q1012
                        NOSIG=
201007011350 METAR COR EGLL 011350Z 21012KT 170V250 CAVOK 26/11 Q1012
                        NOSIG=
201007011320 METAR COR EGLL 011320Z 21012G22KT CAVOK 25/12 Q1012 NOSIG=
201007011250 METAR COR EGLL 011250Z 21011KT 140V240 CAVOK 26/12 Q1013
                        NOSIG=
201007011220 METAR COR EGLL 011220Z 21012KT 180V250 9999 FEW035 25/13
                        Q1013 NOSIG=
201007011150 METAR COR EGLL 011150Z 21013KT 180V250 9999 FEW034 24/13
                        Q1013 NOSIG=
201007011120 METAR COR EGLL 011120Z 22013KT 170V250 9999 SCT034 24/13
                        Q1013 NOSIG=
201007011050 METAR COR EGLL 011050Z 22012G22KT 190V260 9999 SCT032 23/13
                        Q1013 NOSIG=
201007011020 METAR COR EGLL 011020Z 22012KT 170V250 9999 SCT030 23/13
                        Q1013 NOSIG=
201007010950 METAR COR EGLL 010950Z 22011KT 180V250 9999 FEW030 22/14
                        Q1014 NOSIG=
201007010920 METAR COR EGLL 010920Z 22011G21KT 180V260 9999 FEW024 21/13
                        Q1014 NOSIG=
201007010850 METAR COR EGLL 010850Z 20010KT 170V250 9999 FEW022 20/13
                        Q1014 NOSIG=
201007010820 METAR COR EGLL 010820Z 20012KT 170V240 9999 FEW030 20/13
                        Q1014 NOSIG=
201007010750 METAR COR EGLL 010750Z 20011KT 170V230 9999 FEW028 19/12
                        Q1014 NOSIG=
201007010720 METAR COR EGLL 010720Z 21008KT 180V240 9999 SCT033 17/11
                        Q1015 NOSIG=
201007010650 METAR EGLL 010650Z 21007KT 170V250 9999 FEW009 BKN034 16/11
                        Q1015=
201007010620 METAR COR EGLL 010620Z 22008KT 9999 FEW009 BKN034 15/11 Q1015
                        NOSIG=
201007010550 METAR COR EGLL 010550Z 23010KT 190V260 9999 FEW006 SCT035
                        15/11 Q1015 NOSIG=
201007010520 METAR COR EGLL 010520Z 22007KT 180V250 9999 FEW030 15/11
                        Q1015 NOSIG=
201007010450 METAR COR EGLL 010450Z 20005KT 170V230 CAVOK 14/11 Q1015
                        NOSIG=
201007010420 METAR COR EGLL 010420Z 18003KT CAVOK 14/11 Q1015 NOSIG=
201007010350 METAR COR EGLL 010350Z 22006KT CAVOK 14/11 Q1015 NOSIG=
201007010320 METAR COR EGLL 010320Z 21005KT CAVOK 14/11 Q1015 NOSIG=
201007010250 METAR COR EGLL 010250Z 20006KT CAVOK 15/12 Q1015 NOSIG=
201007010220 METAR COR EGLL 010220Z 20005KT CAVOK 15/12 Q1015 NOSIG=
201007010150 METAR COR EGLL 010150Z 21004KT CAVOK 15/12 Q1016 NOSIG=
201007010120 METAR COR EGLL 010120Z 22006KT CAVOK 15/11 Q1016 NOSIG=
201007010050 METAR COR EGLL 010050Z 23008KT CAVOK 16/11 Q1016 NOSIG=
201007010020 METAR COR EGLL 010020Z 21006KT CAVOK 16/11 Q1016 NOSIG=
201006302350 METAR COR EGLL 302350Z 21006KT CAVOK 16/11 Q1016 NOSIG=
201006302320 METAR COR EGLL 302320Z 21006KT CAVOK 17/11 Q1016 NOSIG=
201006302250 METAR COR EGLL 302250Z 20006KT CAVOK 17/11 Q1016 NOSIG=
201006302220 METAR COR EGLL 302220Z 21006KT CAVOK 18/12 Q1017 NOSIG=
201006302150 METAR COR EGLL 302150Z 21007KT CAVOK 18/11 Q1017 NOSIG=
201006302120 METAR COR EGLL 302120Z 21009KT CAVOK 19/12 Q1017 NOSIG=
201006302050 METAR COR EGLL 302050Z 22009KT CAVOK 20/12 Q1017 NOSIG=
201006302020 METAR COR EGLL 302020Z 21010KT CAVOK 21/12 Q1017 NOSIG=
201006301950 METAR COR EGLL 301950Z 21010KT CAVOK 21/12 Q1017 NOSIG=
201006301920 METAR COR EGLL 301920Z 21011KT CAVOK 22/12 Q1017 NOSIG=
201006301850 METAR COR EGLL 301850Z 22012KT CAVOK 23/11 Q1017 NOSIG=
201006301820 METAR COR EGLL 301820Z 22011KT CAVOK 24/11 Q1016 NOSIG=
201006301750 METAR COR EGLL 301750Z 24009KT CAVOK 25/09 Q1016 NOSIG=
201006301720 METAR COR EGLL 301720Z 22009KT CAVOK 25/09 Q1017 NOSIG=
201006301650 METAR COR EGLL 301650Z 22008KT 160V270 CAVOK 25/09 Q1017
                        NOSIG=
201006301620 METAR COR EGLL 301620Z 20008KT CAVOK 25/10 Q1017 NOSIG=
201006301550 METAR COR EGLL 301550Z 22008KT 170V260 CAVOK 25/09 Q1017
                        NOSIG=
201006301520 METAR COR EGLL 301520Z 24009KT CAVOK 25/10 Q1017 NOSIG=
201006301450 METAR COR EGLL 301450Z 24006KT 170V320 CAVOK 25/09 Q1018
                        NOSIG=
201006301420 METAR COR EGLL 301420Z 26007KT 180V320 9999 SCT049 25/10
                        Q1018 NOSIG=
201006301350 METAR COR EGLL 301350Z 25008KT 190V290 9999 SCT046 25/11
                        Q1018 NOSIG=
201006301320 METAR COR EGLL 301320Z 23010KT 190V270 9999 SCT039 24/11
                        Q1018 NOSIG=
201006301250 METAR COR EGLL 301250Z 26008G20KT 220V310 9999 SCT039 24/12
                        Q1018 NOSIG=
201006301220 METAR COR EGLL 301220Z 22008KT 140V260 9999 FEW038 SCT044
                        23/14 Q1019 NOSIG=
201006301150 METAR COR EGLL 301150Z 27006KT 200V340 9999 BKN030 22/16
                        Q1019 NOSIG=
201006301120 METAR COR EGLL 301120Z 24008KT 190V300 9999 FEW030 SCT040
                        22/15 Q1019 NOSIG=
201006301050 METAR COR EGLL 301050Z 27008KT 220V300 9999 FEW030 BKN041
                        21/14 Q1019 NOSIG=
201006301020 METAR COR EGLL 301020Z 24009KT 200V290 9999 FEW026 BKN034
                        21/14 Q1019 NOSIG=
201006300950 METAR COR EGLL 300950Z 23008KT 160V270 9999 FEW020 BKN036
                        21/14 Q1019 NOSIG=
201006300920 METAR COR EGLL 300920Z 25011KT 210V270 9999 FEW016 BKN036
                        19/15 Q1020 NOSIG=
201006300850 METAR COR EGLL 300850Z 23010KT 9999 FEW016 SCT026 BKN038
                        19/15 Q1020 NOSIG=
201006300820 METAR COR EGLL 300820Z 22008KT 180V250 9999 SCT016 SCT021
                        BKN033 19/15 Q1020 NOSIG=
201006300750 METAR COR EGLL 300750Z 19007KT 150V250 9999 SCT019 BKN036
                        19/14 Q1019 NOSIG=
201006300720 METAR COR EGLL 300720Z 21006KT 170V250 9999 SCT013 BKN037
                        19/14 Q1020 NOSIG=
201006300650 METAR COR EGLL 300650Z 25008KT 9999 SCT013 BKN036 18/14 Q1020
                        NOSIG=
201006300620 METAR COR EGLL 300620Z 26008KT 9999 BKN037 18/14 Q1019 NOSIG=
201006300550 METAR COR EGLL 300550Z 23006KT 200V270 9999 FEW026 BKN038
                        17/14 Q1020 NOSIG=
201006300520 METAR COR EGLL 300520Z 23006KT 200V260 9999 FEW029 SCT041
                        17/14 Q1020 NOSIG=
201006300450 METAR COR EGLL 300450Z 25006KT 9999 FEW029 SCT041 18/14 Q1020
                        NOSIG=
201006300420 METAR COR EGLL 300420Z 25006KT 9999 FEW032 SCT040 18/13 Q1020
                        NOSIG=
201006300350 METAR COR EGLL 300350Z 27006KT 9999 FEW034 SCT046 17/13 Q1019
                        NOSIG=
201006300320 METAR COR EGLL 300320Z 27006KT 9999 SCT046 17/14 Q1019 NOSIG=
201006300250 METAR COR EGLL 300250Z 27005KT 9999 SCT043 17/14 Q1019 NOSIG=
201006300220 METAR COR EGLL 300220Z 28006KT 9999 FEW048 18/13 Q1019 NOSIG=
201006300150 METAR COR EGLL 300150Z 27005KT 9999 FEW036 18/13 Q1019 NOSIG=
201006300120 METAR COR EGLL 300120Z 27005KT 9999 FEW045 17/12 Q1020 NOSIG=
201006300050 METAR COR EGLL 300050Z VRB03KT CAVOK 18/12 Q1020 NOSIG=
201006300020 METAR COR EGLL 300020Z 31003KT CAVOK 18/13 Q1020 NOSIG=
201006292350 METAR COR EGLL 292350Z 27007KT CAVOK 19/14 Q1020 NOSIG=
201006292320 METAR COR EGLL 292320Z 27006KT CAVOK 19/14 Q1020 NOSIG=
201006292250 METAR COR EGLL 292250Z 27007KT CAVOK 20/15 Q1020 NOSIG=
201006292220 METAR COR EGLL 292220Z 27007KT CAVOK 21/14 Q1020 NOSIG=
201006292150 METAR COR EGLL 292150Z 27007KT CAVOK 21/12 Q1020 NOSIG=
201006292120 METAR COR EGLL 292120Z 27007KT CAVOK 22/12 Q1020 NOSIG=
201006292050 METAR COR EGLL 292050Z 29007KT CAVOK 22/12 Q1019 NOSIG=
201006292020 METAR COR EGLL 292020Z 28008KT CAVOK 23/12 Q1019 NOSIG=
201006291950 METAR COR EGLL 291950Z 27010KT CAVOK 23/12 Q1019 NOSIG=
201006291920 METAR COR EGLL 291920Z 27012KT 9999 FEW046 24/13 Q1019 NOSIG=
201006291850 METAR COR EGLL 291850Z 26011KT CAVOK 24/16 Q1019 NOSIG=
201006291820 METAR COR EGLL 291820Z 24011KT CAVOK 25/16 Q1018 NOSIG=
201006291750 METAR COR EGLL 291750Z 27013KT 9999 SCT042 26/15 Q1018 NOSIG=
201006291720 METAR COR EGLL 291720Z 27013KT 9999 SCT042 27/12 Q1018 NOSIG=
201006291650 METAR COR EGLL 291650Z 26015KT 9999 SCT042 27/10 Q1018 NOSIG=
201006291620 METAR COR EGLL 291620Z 27014KT CAVOK 27/11 Q1018 NOSIG=
201006291550 METAR COR EGLL 291550Z 26014KT CAVOK 27/10 Q1018 NOSIG=
201006291520 METAR COR EGLL 291520Z 26014KT CAVOK 28/11 Q1018 NOSIG=
201006291450 METAR COR EGLL 291450Z 24013KT 9999 SCT042 27/14 Q1018 NOSIG=
201006291420 METAR COR EGLL 291420Z 24013KT 190V270 9999 SCT037 27/14
                        Q1019 NOSIG=
201006291350 METAR COR EGLL 291350Z 23011KT 190V260 9999 SCT034 26/15
                        Q1019 NOSIG=
201006291320 METAR COR EGLL 291320Z 23010G21KT 190V290 9999 BKN029 25/15
                        Q1019 NOSIG=
201006291250 METAR COR EGLL 291250Z 23011KT 200V260 9999 FEW029 SCT034
                        25/15 Q1019 NOSIG=
201006291220 METAR COR EGLL 291220Z 25011KT 220V280 9999 FEW028 SCT038
                        25/15 Q1019 NOSIG=
201006291150 METAR EGLL 291150Z 25014KT 210V280 9999 FEW026 BKN035 24/15
                        Q1019=
201006291120 METAR EGLL 291120Z 25013KT 9999 FEW028 BKN034 23/16 Q1019=
201006291050 METAR COR EGLL 291050Z 23009KT 190V270 9999 FEW023 BKN029
                        22/16 Q1019 NOSIG=
201006291020 METAR COR EGLL 291020Z 23009KT 180V270 9999 SCT015 SCT025
                        22/16 Q1019 NOSIG=
201006290950 METAR COR EGLL 290950Z 24009KT 180V270 9999 BKN014 20/16
                        Q1019 BECMG SCT018=
201006290920 METAR COR EGLL 290920Z 26009KT 190V300 9999 BKN011 20/15
                        Q1019 BECMG BKN020=
201006290850 METAR COR EGLL 290850Z 23009KT 9999 FEW009 BKN012 18/15 Q1019
                        BECMG BKN020=
201006290820 METAR COR EGLL 290820Z 21008KT 180V250 CAVOK 17/14 Q1019
                        NOSIG=
201006290750 METAR COR EGLL 290750Z 21007KT 170V240 9999 FEW017 16/12
                        Q1020 NOSIG=
201006290720 METAR COR EGLL 290720Z 21007KT 180V250 9999 BKN020 16/12
                        Q1020 TEMPO SHRA BKN014=
201006290650 METAR COR EGLL 290650Z 25009KT 210V270 9999 -SHRA FEW025
                        16/12 Q1019 TEMPO SHRA=
201006290620 METAR COR EGLL 290620Z 24010KT 9999 -SHRA FEW021 18/11 Q1019
                        TEMPO SHRA BKN012=
201006290550 METAR COR EGLL 290550Z 24009KT 9999 FEW024 19/09 Q1019 NOSIG=
201006290520 METAR COR EGLL 290520Z 24008KT 200V270 CAVOK 18/08 Q1019
                        NOSIG=
201006290450 METAR COR EGLL 290450Z 24007KT CAVOK 18/10 Q1019 NOSIG=
201006290420 METAR EGLL 290420Z 23006KT CAVOK 18/10 Q1019=
201006290350 METAR COR EGLL 290350Z 22005KT 200V270 CAVOK 18/10 Q1019
                        NOSIG=
201006290320 METAR EGLL 290320Z 22006KT CAVOK 18/09 Q1019=
201006290250 METAR COR EGLL 290250Z 22008KT CAVOK 18/09 Q1019 NOSIG=
201006290220 METAR COR EGLL 290220Z 20005KT CAVOK 18/10 Q1019 NOSIG=
201006290150 METAR COR EGLL 290150Z 22005KT CAVOK 19/09 Q1019 NOSIG=
201006290120 METAR COR EGLL 290120Z 23005KT CAVOK 19/09 Q1019 NOSIG=
201006290050 METAR EGLL 290050Z NIL=
201006290020 METAR COR EGLL 290020Z 24005KT CAVOK 20/09 Q1020 NOSIG=
201006282350 METAR COR EGLL 282350Z 27006KT CAVOK 20/09 Q1020 NOSIG=
201006282320 METAR COR EGLL 282320Z 27007KT CAVOK 20/09 Q1020 NOSIG=
201006282250 METAR COR EGLL 282250Z 27007KT CAVOK 21/08 Q1020 NOSIG=
201006282220 METAR COR EGLL 282220Z 27007KT CAVOK 21/08 Q1020 NOSIG=
201006282150 METAR COR EGLL 282150Z 28008KT CAVOK 21/07 Q1020 NOSIG=
201006282120 METAR COR EGLL 282120Z 28010KT CAVOK 22/07 Q1020 NOSIG=
201006282050 METAR COR EGLL 282050Z 28009KT CAVOK 22/07 Q1020 NOSIG=
201006282020 METAR COR EGLL 282020Z 25010KT 210V280 CAVOK 24/07 Q1019
                        NOSIG=
201006281950 METAR COR EGLL 281950Z 25009KT CAVOK 26/06 Q1019 NOSIG=
201006281920 METAR COR EGLL 281920Z 25009KT CAVOK 25/06 Q1019 NOSIG=
201006281850 METAR COR EGLL 281850Z 27010KT CAVOK 26/05 Q1019 NOSIG=
201006281820 METAR COR EGLL 281820Z 25011KT CAVOK 27/05 Q1019 NOSIG=
201006281750 METAR COR EGLL 281750Z 27007KT 220V300 CAVOK 27/06 Q1019
                        NOSIG=
201006281720 METAR COR EGLL 281720Z 23009KT CAVOK 28/04 Q1019 NOSIG=
201006281650 METAR COR EGLL 281650Z 27008KT 230V300 CAVOK 28/05 Q1019
                        NOSIG=
201006281620 METAR COR EGLL 281620Z 23008KT 180V280 CAVOK 28/05 Q1019
                        NOSIG=
201006281550 METAR COR EGLL 281550Z 27008KT CAVOK 28/05 Q1019 NOSIG=
201006281520 METAR COR EGLL 281520Z 25009KT 190V310 CAVOK 28/05 Q1020
                        NOSIG=
201006281450 METAR COR EGLL 281450Z 23009KT 190V270 CAVOK 28/05 Q1020
                        NOSIG=
201006281420 METAR COR EGLL 281420Z 30007KT 260V050 CAVOK 28/04 Q1020
                        NOSIG=
201006281350 METAR COR EGLL 281350Z 27007KT 210V030 CAVOK 28/05 Q1020
                        NOSIG=
201006281320 METAR COR EGLL 281320Z 26007KT 210V340 CAVOK 27/04 Q1020
                        NOSIG=
201006281250 METAR COR EGLL 281250Z 30006KT 220V010 CAVOK 27/05 Q1021
                        NOSIG=
201006281220 METAR COR EGLL 281220Z 24009KT 190V270 CAVOK 26/07 Q1021
                        NOSIG=
201006281150 METAR COR EGLL 281150Z 24007KT 200V360 CAVOK 26/08 Q1021
                        NOSIG=
201006281120 METAR COR EGLL 281120Z 25008KT 210V290 CAVOK 25/08 Q1021
                        NOSIG=
201006281050 METAR COR EGLL 281050Z 26007KT 220V300 CAVOK 25/09 Q1021
                        NOSIG=
201006281020 METAR COR EGLL 281020Z 29007KT 250V340 CAVOK 24/10 Q1021
                        NOSIG=
201006280950 METAR COR EGLL 280950Z VRB03KT CAVOK 23/12 Q1021 NOSIG=
201006280920 METAR COR EGLL 280920Z 28005KT 210V340 CAVOK 22/12 Q1021
                        NOSIG=
201006280850 METAR COR EGLL 280850Z VRB04KT CAVOK 22/12 Q1021 NOSIG=
201006280820 METAR COR EGLL 280820Z VRB03KT CAVOK 21/12 Q1021 NOSIG=
201006280750 METAR COR EGLL 280750Z VRB02KT CAVOK 20/12 Q1021 NOSIG=
201006280720 METAR COR EGLL 280720Z VRB03KT CAVOK 19/12 Q1021 NOSIG=
201006280650 METAR COR EGLL 280650Z VRB03KT CAVOK 18/12 Q1021 NOSIG=
201006280620 METAR COR EGLL 280620Z VRB03KT CAVOK 17/12 Q1021 NOSIG=
201006280550 METAR COR EGLL 280550Z 30004KT CAVOK 16/11 Q1021 NOSIG=
201006280520 METAR COR EGLL 280520Z 30004KT CAVOK 16/11 Q1021 NOSIG=
201006280450 METAR COR EGLL 280450Z 32004KT CAVOK 15/11 Q1021 NOSIG=
201006280420 METAR COR EGLL 280420Z 29005KT CAVOK 16/11 Q1021 NOSIG=
201006280350 METAR COR EGLL 280350Z 30004KT CAVOK 15/11 Q1021 NOSIG=
201006280320 METAR COR EGLL 280320Z 28005KT CAVOK 15/11 Q1020 NOSIG=
201006280250 METAR COR EGLL 280250Z 27005KT CAVOK 16/11 Q1020 NOSIG=
201006280220 METAR COR EGLL 280220Z 28004KT CAVOK 16/11 Q1020 NOSIG=
201006280150 METAR COR EGLL 280150Z 27006KT CAVOK 17/11 Q1020 NOSIG=
201006280120 METAR COR EGLL 280120Z 27006KT CAVOK 17/11 Q1020 NOSIG=
201006280050 METAR COR EGLL 280050Z 28006KT CAVOK 17/11 Q1020 NOSIG=
201006280020 METAR COR EGLL 280020Z 28007KT CAVOK 18/11 Q1020 NOSIG=
201006272350 METAR COR EGLL 272350Z 28008KT CAVOK 19/11 Q1020 NOSIG=
201006272320 METAR COR EGLL 272320Z 28008KT CAVOK 19/11 Q1020 NOSIG=
201006272250 METAR COR EGLL 272250Z 27009KT CAVOK 20/12 Q1020 NOSIG=
201006272220 METAR COR EGLL 272220Z 28008KT CAVOK 21/12 Q1019 NOSIG=
201006272150 METAR EGLL 272150Z 29007KT CAVOK 22/12 Q1019=
201006272120 METAR COR EGLL 272120Z 30008KT CAVOK 23/12 Q1019 NOSIG=
201006272050 METAR COR EGLL 272050Z 29007KT CAVOK 24/13 Q1019 NOSIG=
201006272020 METAR COR EGLL 272020Z 27009KT CAVOK 25/12 Q1018 NOSIG=
201006271950 METAR COR EGLL 271950Z 27010KT CAVOK 26/10 Q1018 NOSIG=
201006271920 METAR COR EGLL 271920Z 27008KT CAVOK 27/09 Q1018 NOSIG=
201006271850 METAR COR EGLL 271850Z 28009KT CAVOK 27/09 Q1017 NOSIG=
201006271820 METAR COR EGLL 271820Z 28009KT 240V310 CAVOK 28/09 Q1017
                        NOSIG=
201006271750 METAR COR EGLL 271750Z 27010KT CAVOK 28/09 Q1017 NOSIG=
201006271720 METAR COR EGLL 271720Z 28010KT 250V320 CAVOK 29/10 Q1017
                        NOSIG=
201006271650 METAR COR EGLL 271650Z 26010KT 200V300 CAVOK 29/08 Q1017
                        NOSIG=
201006271620 METAR COR EGLL 271620Z 27008KT 230V300 CAVOK 29/09 Q1017
                        NOSIG=
201006271550 METAR COR EGLL 271550Z 27010KT 240V310 CAVOK 30/08 Q1017
                        NOSIG=
201006271520 METAR COR EGLL 271520Z 27007KT 200V360 CAVOK 30/08 Q1017
                        NOSIG=
201006271450 METAR COR EGLL 271450Z 27009KT 220V320 CAVOK 30/08 Q1017
                        NOSIG=
201006271420 METAR COR EGLL 271420Z VRB08KT CAVOK 29/09 Q1018 NOSIG=
201006271350 METAR COR EGLL 271350Z 22007KT 170V270 CAVOK 29/09 Q1018
                        NOSIG=
201006271320 METAR COR EGLL 271320Z VRB04KT CAVOK 29/09 Q1018 NOSIG=
201006271250 METAR COR EGLL 271250Z 21006KT 140V290 CAVOK 28/10 Q1018
                        NOSIG=
201006271220 METAR COR EGLL 271220Z VRB06KT CAVOK 28/10 Q1018 NOSIG=
201006271150 METAR COR EGLL 271150Z 25005KT 200V320 CAVOK 27/11 Q1018
                        NOSIG=
201006271120 METAR EGLL 271120Z 24006KT 150V300 CAVOK 27/11 Q1018=
201006271050 METAR COR EGLL 271050Z 25007KT 200V300 CAVOK 26/11 Q1018
                        NOSIG=
201006271020 METAR COR EGLL 271020Z VRB05KT CAVOK 25/11 Q1018 NOSIG=
201006270950 METAR COR EGLL 270950Z 30004KT 180V360 CAVOK 25/11 Q1018
                        NOSIG=
201006270920 METAR COR EGLL 270920Z 25005KT 180V330 CAVOK 24/10 Q1018
                        NOSIG=
201006270850 METAR COR EGLL 270850Z VRB04KT CAVOK 23/10 Q1018 NOSIG=
201006270820 METAR COR EGLL 270820Z 24005KT 180V340 CAVOK 22/10 Q1018
                        NOSIG=
201006270750 METAR COR EGLL 270750Z 18004KT 140V250 CAVOK 21/11 Q1018
                        NOSIG=
201006270720 METAR COR EGLL 270720Z 18005KT 120V250 CAVOK 20/12 Q1018
                        NOSIG=
201006270650 METAR COR EGLL 270650Z 20004KT 150V260 CAVOK 19/11 Q1018
                        NOSIG=
201006270620 METAR COR EGLL 270620Z VRB03KT CAVOK 18/12 Q1018 NOSIG=
201006270550 METAR COR EGLL 270550Z VRB03KT 9999 7000E NSC 17/13 Q1018
                        NOSIG=
201006270520 METAR COR EGLL 270520Z VRB02KT 9999 7000E NSC 16/13 Q1018
                        NOSIG=
201006270450 METAR COR EGLL 270450Z 17003KT 9999 7000E VCFG NSC 15/13
                        Q1018 NOSIG=
201006270420 METAR COR EGLL 270420Z 16003KT 9999 7000E VCFG NSC 14/12
                        Q1017 NOSIG=
201006270350 METAR COR EGLL 270350Z 17003KT CAVOK 15/13 Q1017 NOSIG=
201006270320 METAR COR EGLL 270320Z 18002KT CAVOK 15/12 Q1017 NOSIG=
201006270250 METAR COR EGLL 270250Z 17003KT CAVOK 16/13 Q1017 NOSIG=
201006270220 METAR COR EGLL 270220Z 00000KT CAVOK 16/13 Q1017 NOSIG=
201006270150 METAR COR EGLL 270150Z 00000KT CAVOK 15/13 Q1017 NOSIG=
201006270120 METAR COR EGLL 270120Z 00000KT CAVOK 17/12 Q1018 NOSIG=
201006270050 METAR COR EGLL 270050Z 22003KT CAVOK 16/13 Q1018 NOSIG=
201006270020 METAR COR EGLL 270020Z 18002KT CAVOK 17/13 Q1018 NOSIG=
201006262350 METAR COR EGLL 262350Z 17003KT CAVOK 17/13 Q1018 NOSIG=
201006262320 METAR COR EGLL 262320Z 08002KT CAVOK 17/13 Q1018 NOSIG=
201006262250 METAR COR EGLL 262250Z 15003KT CAVOK 17/13 Q1018 NOSIG=
201006262220 METAR COR EGLL 262220Z 17004KT CAVOK 20/13 Q1017 NOSIG=
201006262150 METAR COR EGLL 262150Z 17005KT CAVOK 20/13 Q1017 NOSIG=
201006262120 METAR COR EGLL 262120Z 16004KT 130V190 CAVOK 20/13 Q1017
                        NOSIG=
201006262050 METAR COR EGLL 262050Z 15005KT CAVOK 21/13 Q1017 NOSIG=
201006262020 METAR COR EGLL 262020Z 17006KT CAVOK 22/13 Q1016 NOSIG=
201006261950 METAR COR EGLL 261950Z 17007KT 130V190 CAVOK 23/12 Q1016
                        NOSIG=
201006261920 METAR COR EGLL 261920Z 16008KT CAVOK 24/12 Q1016 NOSIG=
201006261850 METAR COR EGLL 261850Z 17008KT CAVOK 25/12 Q1016 NOSIG=
201006261820 METAR COR EGLL 261820Z 16009KT 120V190 9999 FEW049 25/12
                        Q1016 NOSIG=
201006261750 METAR COR EGLL 261750Z 12009KT 090V160 9999 FEW048 26/13
                        Q1016 NOSIG=
201006261720 METAR COR EGLL 261720Z 10008KT 9999 FEW048 25/14 Q1016 NOSIG=
201006261650 METAR COR EGLL 261650Z 11010KT CAVOK 26/14 Q1016 NOSIG=
201006261620 METAR COR EGLL 261620Z 10010KT CAVOK 26/14 Q1016 NOSIG=
201006261550 METAR COR EGLL 261550Z 09011KT 060V120 CAVOK 27/13 Q1016
                        NOSIG=
201006261520 METAR COR EGLL 261520Z 08012KT CAVOK 26/14 Q1016 NOSIG=
201006261450 METAR COR EGLL 261450Z 12012KT CAVOK 26/14 Q1016 NOSIG=
201006261420 METAR COR EGLL 261420Z 10010KT 9999 SCT046 25/14 Q1016 NOSIG=
201006261350 METAR COR EGLL 261350Z 11009KT 070V140 9999 SCT048 26/14
                        Q1016 NOSIG=
201006261320 METAR COR EGLL 261320Z 10011KT 9999 SCT046 26/14 Q1016 NOSIG=
201006261250 METAR COR EGLL 261250Z 12010KT 9999 SCT048 26/14 Q1016 NOSIG=
201006261220 METAR COR EGLL 261220Z 10008KT 060V140 9999 SCT045 26/13
                        Q1016 NOSIG=
201006261150 METAR COR EGLL 261150Z 09009KT 040V130 9999 SCT045 26/13
                        Q1016 NOSIG=
201006261120 METAR COR EGLL 261120Z 13007KT 090V170 9999 SCT043 25/13
                        Q1017 NOSIG=
201006261050 METAR COR EGLL 261050Z 09009KT 030V150 9999 SCT048 25/13
                        Q1017 NOSIG=
201006261020 METAR COR EGLL 261020Z 12010KT 9999 FEW048 25/13 Q1017 NOSIG=
201006260950 METAR COR EGLL 260950Z 10008KT CAVOK 24/13 Q1017 NOSIG=
201006260920 METAR COR EGLL 260920Z 10008KT 030V150 CAVOK 24/13 Q1017
                        NOSIG=
201006260850 METAR COR EGLL 260850Z 08006KT 9999 FEW048 22/12 Q1017 NOSIG=
201006260820 METAR COR EGLL 260820Z 08005KT 040V110 9999 FEW044 21/12
                        Q1017 NOSIG=
201006260750 METAR COR EGLL 260750Z 07005KT 030V110 9999 SCT047 21/12
                        Q1017 NOSIG=
201006260720 METAR COR EGLL 260720Z 07004KT 010V110 9999 SCT047 20/13
                        Q1017 NOSIG=
201006260650 METAR COR EGLL 260650Z 08005KT 9999 FEW040 SCT045 19/13 Q1017
                        NOSIG=
201006260620 METAR COR EGLL 260620Z 09005KT CAVOK 18/13 Q1017 NOSIG=
201006260550 METAR COR EGLL 260550Z 07005KT 8000 NSC 17/13 Q1017 NOSIG=
201006260520 METAR COR EGLL 260520Z 09005KT 7000 NSC 16/13 Q1017 NOSIG=
201006260450 METAR COR EGLL 260450Z 10005KT 6000 NSC 15/13 Q1017 NOSIG=
201006260420 METAR COR EGLL 260420Z 09006KT 7000 NSC 14/12 Q1017 NOSIG=
201006260350 METAR COR EGLL 260350Z 09005KT 8000 NSC 15/12 Q1017 NOSIG=
201006260320 METAR COR EGLL 260320Z 10006KT CAVOK 15/12 Q1017 NOSIG=
201006260250 METAR COR EGLL 260250Z 10007KT CAVOK 16/13 Q1017 NOSIG=
201006260220 METAR COR EGLL 260220Z 10007KT CAVOK 16/13 Q1017 NOSIG=
201006260150 METAR COR EGLL 260150Z 09009KT CAVOK 16/13 Q1017 NOSIG=
201006260120 METAR COR EGLL 260120Z 10009KT CAVOK 17/14 Q1017 NOSIG=
201006260050 METAR COR EGLL 260050Z 09009KT CAVOK 17/14 Q1017 NOSIG=
201006260020 METAR COR EGLL 260020Z 10010KT CAVOK 18/14 Q1017 NOSIG=
201006252350 METAR COR EGLL 252350Z 09011KT CAVOK 18/13 Q1017 NOSIG=
201006252320 METAR COR EGLL 252320Z 09009KT CAVOK 19/13 Q1017 NOSIG=
201006252250 METAR COR EGLL 252250Z 09010KT CAVOK 20/12 Q1017 NOSIG=
201006252220 METAR COR EGLL 252220Z 09009KT CAVOK 21/13 Q1017 NOSIG=
201006252150 METAR COR EGLL 252150Z VRB06KT CAVOK 22/12 Q1017 NOSIG=
201006252120 METAR COR EGLL 252120Z 12008KT 090V210 CAVOK 22/12 Q1016
                        NOSIG=
201006252050 METAR COR EGLL 252050Z 14006KT 090V220 CAVOK 22/12 Q1016
                        NOSIG=
201006252020 METAR COR EGLL 252020Z 14008KT 100V210 CAVOK 23/12 Q1016
                        NOSIG=
201006251950 METAR COR EGLL 251950Z 14008KT 9999 FEW048 23/12 Q1016 NOSIG=
201006251920 METAR COR EGLL 251920Z 12006KT 080V180 9999 FEW046 24/13
                        Q1015 NOSIG=
201006251850 METAR COR EGLL 251850Z VRB06KT CAVOK 24/13 Q1015 NOSIG=
201006251820 METAR COR EGLL 251820Z VRB05KT CAVOK 25/12 Q1015 NOSIG=
201006251750 METAR COR EGLL 251750Z 06005KT 020V160 CAVOK 25/12 Q1015
                        NOSIG=
201006251720 METAR COR EGLL 251720Z 08008KT CAVOK 26/11 Q1015 NOSIG=
201006251650 METAR COR EGLL 251650Z VRB04KT CAVOK 27/10 Q1016 NOSIG=
201006251620 METAR COR EGLL 251620Z VRB03KT CAVOK 26/10 Q1016 NOSIG=
201006251550 METAR COR EGLL 251550Z 05004KT 360V130 CAVOK 25/10 Q1016
                        NOSIG=
201006251520 METAR COR EGLL 251520Z 05006KT 020V080 CAVOK 27/10 Q1016
                        NOSIG=
201006251450 METAR COR EGLL 251450Z VRB04KT CAVOK 26/09 Q1016 NOSIG=
201006251420 METAR COR EGLL 251420Z VRB03KT CAVOK 24/10 Q1017 NOSIG=
201006251350 METAR COR EGLL 251350Z 09004KT 040V170 CAVOK 25/10 Q1017
                        NOSIG=
201006251320 METAR COR EGLL 251320Z VRB04KT CAVOK 24/10 Q1017 NOSIG=
201006251250 METAR COR EGLL 251250Z 10004KT 050V220 CAVOK 24/10 Q1017
                        NOSIG=
201006251220 METAR COR EGLL 251220Z 11005KT 060V210 9999 FEW048 24/10
                        Q1017 NOSIG=
201006251150 METAR COR EGLL 251150Z VRB03KT 9999 FEW048 26/10 Q1017 NOSIG=
201006251120 METAR COR EGLL 251120Z VRB03KT 9999 FEW045 24/10 Q1017 NOSIG=
201006251050 METAR COR EGLL 251050Z VRB05KT 9999 FEW044 24/10 Q1017 NOSIG=
201006251020 METAR COR EGLL 251020Z 05004KT 350V120 CAVOK 23/10 Q1018
                        NOSIG=
201006250950 METAR COR EGLL 250950Z 32004KT 200V350 CAVOK 23/10 Q1018
                        NOSIG=
201006250920 METAR COR EGLL 250920Z VRB04KT CAVOK 22/10 Q1018 NOSIG=
201006250850 METAR COR EGLL 250850Z VRB03KT CAVOK 21/10 Q1018 NOSIG=
201006250820 METAR COR EGLL 250820Z 04004KT 330V090 CAVOK 20/10 Q1018
                        NOSIG=
201006250750 METAR COR EGLL 250750Z 04005KT 320V080 CAVOK 20/10 Q1018
                        NOSIG=
201006250720 METAR COR EGLL 250720Z 36004KT 300V090 CAVOK 19/10 Q1018
                        NOSIG=
201006250650 METAR COR EGLL 250650Z VRB03KT CAVOK 18/09 Q1018 NOSIG=
201006250620 METAR COR EGLL 250620Z 35004KT 310V020 CAVOK 17/09 Q1018
                        NOSIG=
201006250550 METAR COR EGLL 250550Z VRB03KT CAVOK 16/10 Q1018 NOSIG=
201006250520 METAR COR EGLL 250520Z VRB03KT CAVOK 15/10 Q1018 NOSIG=
201006250450 METAR COR EGLL 250450Z VRB03KT CAVOK 15/10 Q1018 NOSIG=
201006250420 METAR COR EGLL 250420Z VRB03KT CAVOK 15/10 Q1018 NOSIG=
201006250350 METAR COR EGLL 250350Z VRB02KT CAVOK 15/10 Q1018 NOSIG=
201006250320 METAR COR EGLL 250320Z 34002KT CAVOK 16/10 Q1018 NOSIG=
201006250250 METAR COR EGLL 250250Z 35003KT CAVOK 16/11 Q1018 NOSIG=
201006250220 METAR COR EGLL 250220Z 31002KT CAVOK 16/11 Q1018 NOSIG=
201006250150 METAR COR EGLL 250150Z 31004KT CAVOK 16/12 Q1018 NOSIG=
201006250120 METAR COR EGLL 250120Z 30004KT CAVOK 16/11 Q1018 NOSIG=
201006250050 METAR COR EGLL 250050Z 29004KT CAVOK 16/11 Q1018 NOSIG=
201006250020 METAR COR EGLL 250020Z 29005KT CAVOK 17/11 Q1018 NOSIG=
201006242350 METAR COR EGLL 242350Z 29007KT CAVOK 18/11 Q1018 NOSIG=
201006242320 METAR COR EGLL 242320Z 27007KT CAVOK 18/12 Q1019 NOSIG=
201006242250 METAR COR EGLL 242250Z 27006KT CAVOK 18/12 Q1019 NOSIG=
201006242220 METAR COR EGLL 242220Z 30005KT CAVOK 19/12 Q1019 NOSIG=
201006242150 METAR COR EGLL 242150Z 30006KT CAVOK 21/11 Q1019 NOSIG=
201006242120 METAR COR EGLL 242120Z 28007KT CAVOK 21/12 Q1018 NOSIG=
201006242050 METAR COR EGLL 242050Z 30004KT CAVOK 21/12 Q1018 NOSIG=
201006242020 METAR COR EGLL 242020Z 31005KT 9999 FEW048 23/12 Q1018 NOSIG=
201006241950 METAR COR EGLL 241950Z 31005KT 9999 FEW049 23/12 Q1018 NOSIG=
201006241920 METAR COR EGLL 241920Z 30005KT CAVOK 23/11 Q1018 NOSIG=
201006241850 METAR COR EGLL 241850Z 31006KT 280V350 9999 FEW048 23/11
                        Q1018 NOSIG=
201006241820 METAR COR EGLL 241820Z 29008KT 260V340 9999 FEW049 24/11
                        Q1018 NOSIG=
201006241750 METAR COR EGLL 241750Z 30006KT CAVOK 24/11 Q1018 NOSIG=
201006241720 METAR COR EGLL 241720Z 31006KT 280V340 CAVOK 24/11 Q1018
                        NOSIG=
201006241650 METAR COR EGLL 241650Z 32007KT 290V360 9999 FEW049 24/11
                        Q1018 NOSIG=
201006241620 METAR COR EGLL 241620Z 28006KT 230V320 9999 FEW049 24/11
                        Q1018 NOSIG=
201006241550 METAR COR EGLL 241550Z 27008KT 240V310 CAVOK 25/11 Q1018
                        NOSIG=
201006241520 METAR COR EGLL 241520Z 26011KT 230V290 CAVOK 25/11 Q1018
                        NOSIG=
201006241450 METAR COR EGLL 241450Z 26009KT 220V290 CAVOK 25/10 Q1018
                        NOSIG=
201006241420 METAR COR EGLL 241420Z 28008KT 250V310 CAVOK 26/10 Q1019
                        NOSIG=
201006241350 METAR COR EGLL 241350Z 26008KT 220V300 CAVOK 25/10 Q1019
                        NOSIG=
201006241320 METAR COR EGLL 241320Z 28007KT 230V330 9999 FEW049 25/10
                        Q1019 NOSIG=
201006241250 METAR COR EGLL 241250Z 26008KT 230V310 9999 FEW048 25/10
                        Q1019 NOSIG=
201006241220 METAR COR EGLL 241220Z 26009KT 190V290 9999 SCT048 25/10
                        Q1019 NOSIG=
201006241150 METAR COR EGLL 241150Z 27009KT 220V320 9999 SCT044 25/11
                        Q1019 NOSIG=
201006241120 METAR COR EGLL 241120Z 29007KT 230V350 9999 SCT040 24/11
                        Q1019 NOSIG=
201006241050 METAR COR EGLL 241050Z 27009KT 9999 BKN044 23/11 Q1020 NOSIG=
201006241020 METAR COR EGLL 241020Z 27008KT 210V320 9999 SCT040 23/12
                        Q1020 NOSIG=
201006240950 METAR COR EGLL 240950Z 27006KT 200V340 9999 FEW036 22/12
                        Q1020 NOSIG=
201006240920 METAR COR EGLL 240920Z 27006KT 200V330 9999 FEW040 21/12
                        Q1020 NOSIG=
201006240850 METAR COR EGLL 240850Z VRB03KT 9999 FEW032 20/12 Q1020 NOSIG=
201006240820 METAR COR EGLL 240820Z VRB04KT CAVOK 20/12 Q1020 NOSIG=
201006240750 METAR COR EGLL 240750Z 28005KT 250V340 CAVOK 19/12 Q1020
                        NOSIG=
201006240720 METAR COR EGLL 240720Z 35004KT 280V020 CAVOK 19/12 Q1020
                        NOSIG=
201006240650 METAR COR EGLL 240650Z 30005KT 260V350 CAVOK 18/11 Q1020
                        NOSIG=
201006240620 METAR COR EGLL 240620Z 29006KT CAVOK 17/11 Q1020 NOSIG=
201006240550 METAR COR EGLL 240550Z 26005KT 220V290 CAVOK 16/10 Q1020
                        NOSIG=
201006240520 METAR COR EGLL 240520Z 26005KT CAVOK 15/10 Q1020 NOSIG=
201006240450 METAR COR EGLL 240450Z 27005KT CAVOK 15/10 Q1020 NOSIG=
201006240420 METAR COR EGLL 240420Z 27005KT CAVOK 14/09 Q1020 NOSIG=
201006240350 METAR COR EGLL 240350Z 26005KT CAVOK 14/08 Q1020 NOSIG=
201006240320 METAR COR EGLL 240320Z 27007KT CAVOK 14/08 Q1020 NOSIG=
201006240250 METAR COR EGLL 240250Z 27005KT CAVOK 15/08 Q1020 NOSIG=
201006240220 METAR COR EGLL 240220Z 26006KT CAVOK 15/08 Q1020 NOSIG=
201006240150 METAR COR EGLL 240150Z 27006KT CAVOK 15/07 Q1020 NOSIG=
201006240120 METAR COR EGLL 240120Z 27007KT CAVOK 16/07 Q1020 NOSIG=
201006240050 METAR COR EGLL 240050Z 27005KT CAVOK 16/08 Q1020 NOSIG=
201006240020 METAR COR EGLL 240020Z 29005KT CAVOK 16/09 Q1020 NOSIG=
201006232350 METAR COR EGLL 232350Z 29006KT CAVOK 17/10 Q1021 NOSIG=
201006232320 METAR COR EGLL 232320Z 29004KT CAVOK 18/10 Q1021 NOSIG=
201006232250 METAR COR EGLL 232250Z 30006KT CAVOK 19/10 Q1020 NOSIG=
201006232220 METAR COR EGLL 232220Z 30004KT 280V340 CAVOK 19/10 Q1020
                        NOSIG=
201006232150 METAR COR EGLL 232150Z 28005KT CAVOK 20/11 Q1020 NOSIG=
201006232120 METAR COR EGLL 232120Z 25009KT CAVOK 21/11 Q1020 NOSIG=
201006232050 METAR COR EGLL 232050Z 24011KT CAVOK 22/11 Q1020 NOSIG=
201006232020 METAR COR EGLL 232020Z 24010KT CAVOK 22/11 Q1020 NOSIG=
201006231950 METAR COR EGLL 231950Z 24011KT CAVOK 23/11 Q1020 NOSIG=
201006231920 METAR COR EGLL 231920Z 24012KT CAVOK 24/11 Q1020 NOSIG=
201006231850 METAR COR EGLL 231850Z 25011G21KT CAVOK 25/11 Q1020 NOSIG=
201006231820 METAR COR EGLL 231820Z 25011KT CAVOK 25/10 Q1020 NOSIG=
201006231750 METAR COR EGLL 231750Z 27008KT 230V310 CAVOK 26/09 Q1020
                        NOSIG=
201006231720 METAR COR EGLL 231720Z 28009KT 250V310 CAVOK 26/09 Q1020
                        NOSIG=
201006231650 METAR COR EGLL 231650Z 24008KT 140V300 CAVOK 26/09 Q1020
                        NOSIG=
201006231620 METAR COR EGLL 231620Z 28010KT 220V320 CAVOK 26/08 Q1020
                        NOSIG=
201006231550 METAR COR EGLL 231550Z 27009KT 220V300 CAVOK 27/09 Q1020
                        NOSIG=
201006231520 METAR COR EGLL 231520Z 27009KT 230V330 CAVOK 27/08 Q1021
                        NOSIG=
201006231450 METAR COR EGLL 231450Z 26006KT 170V310 CAVOK 26/09 Q1021
                        NOSIG=
201006231420 METAR COR EGLL 231420Z 26009KT 220V320 CAVOK 26/08 Q1021
                        NOSIG=
201006231350 METAR COR EGLL 231350Z 26007KT 200V310 CAVOK 26/09 Q1021
                        NOSIG=
201006231320 METAR COR EGLL 231320Z 19005KT 140V230 CAVOK 26/08 Q1021
                        NOSIG=
201006231250 METAR COR EGLL 231250Z VRB05KT CAVOK 26/09 Q1022 NOSIG=
201006231220 METAR COR EGLL 231220Z 24006KT 180V290 CAVOK 25/09 Q1022
                        NOSIG=
201006231150 METAR COR EGLL 231150Z 22006KT 140V320 CAVOK 24/10 Q1022
                        NOSIG=
201006231120 METAR COR EGLL 231120Z 25009KT 210V310 CAVOK 24/10 Q1022
                        NOSIG=
201006231050 METAR COR EGLL 231050Z 25007KT 190V300 CAVOK 23/10 Q1022
                        NOSIG=
201006231020 METAR COR EGLL 231020Z VRB06KT CAVOK 23/10 Q1022 NOSIG=
201006230950 METAR COR EGLL 230950Z 26006KT 210V340 9999 FEW042 23/10
                        Q1023 NOSIG=
201006230920 METAR COR EGLL 230920Z 27006KT 190V310 CAVOK 22/10 Q1023
                        NOSIG=
201006230850 METAR COR EGLL 230850Z VRB05KT CAVOK 22/10 Q1023 NOSIG=
201006230820 METAR COR EGLL 230820Z VRB04KT CAVOK 21/10 Q1023 NOSIG=
201006230750 METAR COR EGLL 230750Z VRB03KT CAVOK 20/10 Q1023 NOSIG=
201006230720 METAR COR EGLL 230720Z VRB03KT CAVOK 19/10 Q1023 NOSIG=
201006230650 METAR COR EGLL 230650Z VRB03KT CAVOK 18/10 Q1023 NOSIG=
201006230620 METAR COR EGLL 230620Z VRB03KT CAVOK 17/10 Q1023 NOSIG=
201006230550 METAR COR EGLL 230550Z VRB03KT CAVOK 16/10 Q1023 NOSIG=
201006230520 METAR COR EGLL 230520Z VRB03KT CAVOK 15/09 Q1023 NOSIG=
201006230450 METAR COR EGLL 230450Z 27003KT CAVOK 15/10 Q1023 NOSIG=
201006230420 METAR COR EGLL 230420Z 27004KT CAVOK 14/09 Q1023 NOSIG=
201006230350 METAR COR EGLL 230350Z 27002KT CAVOK 14/09 Q1023 NOSIG=
201006230320 METAR EGLL 230320Z 27002KT CAVOK 14/09 Q1023=
201006230250 METAR COR EGLL 230250Z 26003KT CAVOK 15/08 Q1023 NOSIG=
201006230220 METAR COR EGLL 230220Z 26004KT CAVOK 15/08 Q1023 NOSIG=
201006230150 METAR COR EGLL 230150Z 26004KT CAVOK 15/09 Q1023 NOSIG=
201006230120 METAR COR EGLL 230120Z 28005KT CAVOK 15/09 Q1023 NOSIG=
201006230050 METAR COR EGLL 230050Z 27007KT CAVOK 16/09 Q1023 NOSIG=
201006230020 METAR COR EGLL 230020Z 27005KT CAVOK 16/09 Q1023 NOSIG=
201006222350 METAR COR EGLL 222350Z 27006KT CAVOK 16/09 Q1023 NOSIG=
201006222320 METAR COR EGLL 222320Z 27006KT CAVOK 17/08 Q1023 NOSIG=
201006222250 METAR COR EGLL 222250Z 27007KT CAVOK 18/08 Q1023 NOSIG=
201006222220 METAR COR EGLL 222220Z 27007KT CAVOK 19/07 Q1023 NOSIG=
201006222150 METAR COR EGLL 222150Z 28006KT CAVOK 19/07 Q1023 NOSIG=
201006222120 METAR COR EGLL 222120Z 27008KT CAVOK 20/07 Q1023 NOSIG=
201006222050 METAR COR EGLL 222050Z 28009KT CAVOK 21/06 Q1023 NOSIG=
201006222020 METAR COR EGLL 222020Z 29006KT CAVOK 22/05 Q1023 NOSIG=
201006221950 METAR COR EGLL 221950Z 29006KT CAVOK 23/06 Q1022 NOSIG=
201006221920 METAR COR EGLL 221920Z 27007KT CAVOK 24/08 Q1022 NOSIG=
201006221850 METAR COR EGLL 221850Z 27008KT CAVOK 24/08 Q1022 NOSIG=
201006221820 METAR COR EGLL 221820Z 27008KT CAVOK 25/08 Q1022 NOSIG=
201006221750 METAR COR EGLL 221750Z 27010KT CAVOK 24/08 Q1022 NOSIG=
201006221720 METAR COR EGLL 221720Z 28012KT CAVOK 25/08 Q1022 NOSIG=
201006221650 METAR COR EGLL 221650Z 26011KT 230V290 CAVOK 26/08 Q1022
                        NOSIG=
201006221620 METAR COR EGLL 221620Z 24011KT CAVOK 27/08 Q1022 NOSIG=
201006221550 METAR COR EGLL 221550Z 26010KT 220V330 CAVOK 27/07 Q1022
                        NOSIG=
201006221520 METAR COR EGLL 221520Z 26008KT 180V340 CAVOK 27/06 Q1022
                        NOSIG=
201006221450 METAR COR EGLL 221450Z 24010KT 200V270 CAVOK 27/07 Q1023
                        NOSIG=
201006221420 METAR COR EGLL 221420Z 25008KT 190V320 CAVOK 27/07 Q1023
                        NOSIG=
201006221350 METAR COR EGLL 221350Z 25009KT 210V310 CAVOK 27/07 Q1023
                        NOSIG=
201006221320 METAR COR EGLL 221320Z 22008KT 180V280 CAVOK 26/07 Q1023
                        NOSIG=
201006221250 METAR COR EGLL 221250Z 25008G19KT 210V290 CAVOK 26/07 Q1023
                        NOSIG=
201006221220 METAR COR EGLL 221220Z 26008KT 230V300 CAVOK 26/07 Q1023
                        NOSIG=
201006221150 METAR COR EGLL 221150Z VRB06KT CAVOK 26/07 Q1023 NOSIG=
201006221120 METAR COR EGLL 221120Z 23008KT 160V290 CAVOK 25/07 Q1023
                        NOSIG=
201006221050 METAR COR EGLL 221050Z 26009KT 210V290 CAVOK 25/08 Q1023
                        NOSIG=
201006221020 METAR COR EGLL 221020Z 24007KT 190V340 CAVOK 25/08 Q1024
                        NOSIG=
201006220950 METAR COR EGLL 220950Z 29008KT 260V320 CAVOK 24/09 Q1024
                        NOSIG=
201006220920 METAR COR EGLL 220920Z 25008KT 220V300 CAVOK 23/10 Q1024
                        NOSIG=
201006220850 METAR COR EGLL 220850Z 26006KT 230V290 CAVOK 22/10 Q1024
                        NOSIG=
201006220820 METAR COR EGLL 220820Z 24005KT 140V300 CAVOK 21/10 Q1024
                        NOSIG=
201006220750 METAR COR EGLL 220750Z 22004KT 150V260 CAVOK 20/10 Q1024
                        NOSIG=
201006220720 METAR COR EGLL 220720Z 21005KT 180V260 CAVOK 18/10 Q1024
                        NOSIG=
201006220650 METAR COR EGLL 220650Z 25004KT 210V290 CAVOK 17/10 Q1024
                        NOSIG=
201006220620 METAR COR EGLL 220620Z 23005KT 200V270 CAVOK 16/09 Q1024
                        NOSIG=
201006220550 METAR COR EGLL 220550Z 25005KT 190V270 CAVOK 15/09 Q1024
                        NOSIG=
201006220520 METAR COR EGLL 220520Z 23005KT 190V260 CAVOK 14/09 Q1024
                        NOSIG=
201006220450 METAR COR EGLL 220450Z VRB03KT CAVOK 14/09 Q1024 NOSIG=
201006220420 METAR COR EGLL 220420Z 26002KT CAVOK 13/09 Q1023 NOSIG=
201006220350 METAR COR EGLL 220350Z 24003KT CAVOK 14/09 Q1023 NOSIG=
201006220320 METAR COR EGLL 220320Z 20004KT CAVOK 14/09 Q1023 NOSIG=
201006220250 METAR COR EGLL 220250Z 22002KT CAVOK 14/09 Q1023 NOSIG=
201006220220 METAR COR EGLL 220220Z 22004KT CAVOK 15/09 Q1023 NOSIG=
201006220150 METAR COR EGLL 220150Z 22005KT CAVOK 15/09 Q1023 NOSIG=
201006220120 METAR EGLL 220120Z AUTO 21003KT 9999NDV NCD 15/10 Q1023=
201006220050 METAR EGLL 220050Z AUTO 20004KT 9999NDV NCD 16/10 Q1023=
201006220020 METAR EGLL 220020Z AUTO 21004KT 9999NDV NCD 16/10 Q1023=
201006212350 METAR EGLL 212350Z 17005KT CAVOK 16/10 Q1023=
201006212320 METAR COR EGLL 212320Z 15005KT CAVOK 16/10 Q1023 NOSIG=
201006212250 METAR COR EGLL 212250Z 14005KT CAVOK 16/10 Q1023 NOSIG=
201006212220 METAR COR EGLL 212220Z 14007KT CAVOK 17/10 Q1023 NOSIG=
201006212150 METAR COR EGLL 212150Z 13008KT CAVOK 18/10 Q1023 NOSIG=
201006212120 METAR COR EGLL 212120Z 11006KT CAVOK 18/11 Q1023 NOSIG=
201006212050 METAR COR EGLL 212050Z 11008KT CAVOK 19/11 Q1023 NOSIG=
201006212020 METAR COR EGLL 212020Z 11008KT CAVOK 20/11 Q1023 NOSIG=
201006211950 METAR COR EGLL 211950Z 10007KT CAVOK 21/11 Q1022 NOSIG=
201006211920 METAR COR EGLL 211920Z VRB04KT CAVOK 23/09 Q1022 NOSIG=
201006211850 METAR COR EGLL 211850Z 33004KT 260V360 CAVOK 23/09 Q1022
                        NOSIG=
201006211820 METAR COR EGLL 211820Z 32004KT 290V010 CAVOK 23/09 Q1022
                        NOSIG=
201006211750 METAR COR EGLL 211750Z 32004KT CAVOK 23/09 Q1022 NOSIG=
201006211720 METAR COR EGLL 211720Z 01004KT 330V060 CAVOK 24/09 Q1022
                        NOSIG=
201006211650 METAR COR EGLL 211650Z 27006KT 170V320 CAVOK 24/08 Q1022
                        NOSIG=
201006211620 METAR EGLL 211620Z 02005KT 320V060 CAVOK 24/09 Q1022=
201006211550 METAR EGLL 211550Z 36006KT 280V060 CAVOK 24/09 Q1022=
201006211520 METAR EGLL 211520Z VRB05KT CAVOK 24/08 Q1022=
201006211450 METAR EGLL 211450Z VRB03KT CAVOK 23/08 Q1023=
201006211420 METAR EGLL 211420Z 02004KT 330V090 CAVOK 23/08 Q1023=
201006211350 METAR COR EGLL 211350Z 30004KT 260V050 CAVOK 23/08 Q1023
                        NOSIG=
201006211320 METAR COR EGLL 211320Z 31004KT 260V030 CAVOK 23/08 Q1023
                        NOSIG=
201006211250 METAR COR EGLL 211250Z 26006KT 190V290 CAVOK 22/08 Q1023
                        NOSIG=
201006211220 METAR COR EGLL 211220Z VRB04KT CAVOK 23/08 Q1023 NOSIG=
201006211150 METAR COR EGLL 211150Z 01005KT 330V070 CAVOK 23/08 Q1023
                        NOSIG=
201006211120 METAR COR EGLL 211120Z VRB04KT CAVOK 24/07 Q1023 NOSIG=
201006211050 METAR COR EGLL 211050Z 33006KT 260V050 CAVOK 23/07 Q1023
                        NOSIG=
201006211020 METAR COR EGLL 211020Z 02006KT 320V080 CAVOK 23/07 Q1023
                        NOSIG=
201006210950 METAR COR EGLL 210950Z 29006KT 220V010 CAVOK 22/08 Q1023
                        NOSIG=
201006210920 METAR COR EGLL 210920Z VRB04KT CAVOK 21/07 Q1023 NOSIG=
201006210850 METAR COR EGLL 210850Z VRB04KT CAVOK 20/07 Q1023 NOSIG=
201006210820 METAR COR EGLL 210820Z 31004KT 260V020 CAVOK 19/07 Q1023
                        NOSIG=
201006210750 METAR COR EGLL 210750Z VRB03KT CAVOK 18/08 Q1023 NOSIG=
201006210720 METAR COR EGLL 210720Z VRB03KT CAVOK 16/09 Q1023 NOSIG=
201006210650 METAR COR EGLL 210650Z VRB03KT CAVOK 16/09 Q1023 NOSIG=
201006210620 METAR COR EGLL 210620Z VRB02KT CAVOK 15/09 Q1023 NOSIG=
201006210550 METAR COR EGLL 210550Z VRB03KT CAVOK 14/09 Q1023 NOSIG=
201006210520 METAR COR EGLL 210520Z VRB03KT CAVOK 14/09 Q1023 NOSIG=
201006210450 METAR COR EGLL 210450Z 00000KT CAVOK 13/08 Q1023 NOSIG=
201006210420 METAR COR EGLL 210420Z VRB03KT CAVOK 13/08 Q1023 NOSIG=
201006210350 METAR COR EGLL 210350Z 27002KT CAVOK 13/08 Q1023 NOSIG=
201006210320 METAR COR EGLL 210320Z VRB02KT CAVOK 14/07 Q1023 NOSIG=
201006210250 METAR COR EGLL 210250Z VRB02KT CAVOK 14/07 Q1023 NOSIG=
201006210220 METAR COR EGLL 210220Z 26004KT CAVOK 13/06 Q1023 NOSIG=
201006210150 METAR COR EGLL 210150Z VRB03KT CAVOK 14/06 Q1023 NOSIG=
201006210120 METAR COR EGLL 210120Z 20004KT CAVOK 14/07 Q1023 NOSIG=
201006210050 METAR COR EGLL 210050Z 20003KT CAVOK 14/07 Q1023 NOSIG=
201006210020 METAR COR EGLL 210020Z 16004KT CAVOK 15/07 Q1023 NOSIG=
201006202350 METAR COR EGLL 202350Z 15004KT CAVOK 15/06 Q1023 NOSIG=
201006202320 METAR COR EGLL 202320Z 09003KT CAVOK 15/07 Q1023 NOSIG=
201006202250 METAR COR EGLL 202250Z 07004KT CAVOK 15/06 Q1023 NOSIG=
201006202220 METAR COR EGLL 202220Z 08004KT CAVOK 16/06 Q1023 NOSIG=
201006202150 METAR COR EGLL 202150Z 06004KT CAVOK 17/06 Q1023 NOSIG=
201006202120 METAR COR EGLL 202120Z VRB03KT CAVOK 16/05 Q1023 NOSIG=
201006202050 METAR COR EGLL 202050Z VRB03KT CAVOK 16/05 Q1022 NOSIG=
201006202020 METAR COR EGLL 202020Z VRB03KT CAVOK 17/05 Q1022 NOSIG=
201006201950 METAR COR EGLL 201950Z VRB03KT CAVOK 18/05 Q1022 NOSIG=
201006201920 METAR COR EGLL 201920Z 33004KT 280V010 CAVOK 18/05 Q1022
                        NOSIG=
201006201850 METAR COR EGLL 201850Z 35004KT 300V030 CAVOK 18/05 Q1022
                        NOSIG=
201006201820 METAR COR EGLL 201820Z 04005KT 360V080 CAVOK 18/05 Q1022
                        NOSIG=
201006201750 METAR COR EGLL 201750Z 33006KT 280V010 CAVOK 18/05 Q1022
                        NOSIG=
201006201720 METAR COR EGLL 201720Z 34007KT 270V050 CAVOK 19/04 Q1021
                        NOSIG=
201006201650 METAR COR EGLL 201650Z 34008KT 280V040 CAVOK 19/04 Q1021
                        NOSIG=
201006201620 METAR COR EGLL 201620Z 33006KT 290V030 CAVOK 18/04 Q1021
                        NOSIG=
201006201550 METAR COR EGLL 201550Z 01006KT 320V070 CAVOK 18/04 Q1021
                        NOSIG=
201006201520 METAR COR EGLL 201520Z 04006KT 340V100 9999 FEW048 18/04
                        Q1021 NOSIG=
201006201450 METAR COR EGLL 201450Z 36006KT 300V030 9999 FEW048 18/04
                        Q1022 NOSIG=
201006201420 METAR COR EGLL 201420Z 02005KT 290V090 9999 SCT047 17/04
                        Q1022 NOSIG=
201006201350 METAR COR EGLL 201350Z 02006KT 330V070 9999 SCT047 17/04
                        Q1022 NOSIG=
201006201320 METAR COR EGLL 201320Z 02006KT 320V070 9999 SCT042 SCT048
                        16/04 Q1022 NOSIG=
201006201250 METAR COR EGLL 201250Z 34006KT 290V020 9999 SCT042 SCT048
                        16/04 Q1022 NOSIG=
201006201220 METAR COR EGLL 201220Z 36007KT 310V060 9999 SCT037 SCT045
                        15/04 Q1022 NOSIG=
201006201150 METAR COR EGLL 201150Z 02007KT 330V070 9999 SCT038 SCT043
                        14/04 Q1022 NOSIG=
201006201120 METAR COR EGLL 201120Z 01007KT 320V060 9999 SCT036 BKN042
                        14/04 Q1022 NOSIG=
201006201050 METAR COR EGLL 201050Z 36007KT 320V030 9999 SCT038 BKN043
                        14/04 Q1022 NOSIG=
201006201020 METAR COR EGLL 201020Z 36007KT 330V050 9999 FEW032 BKN045
                        14/03 Q1021 NOSIG=
201006200950 METAR COR EGLL 200950Z 01006KT 310V050 9999 FEW034 BKN045
                        13/05 Q1021 NOSIG=
201006200920 METAR COR EGLL 200920Z 35007KT 310V040 9999 FEW031 BKN045
                        13/05 Q1021 NOSIG=
201006200850 METAR COR EGLL 200850Z 35007KT 9999 FEW036 BKN042 13/04 Q1021
                        NOSIG=
201006200820 METAR COR EGLL 200820Z 35007KT 300V020 9999 BKN043 12/04
                        Q1021 NOSIG=
201006200750 METAR COR EGLL 200750Z 35007KT 310V010 9999 BKN044 12/03
                        Q1021 NOSIG=
201006200720 METAR COR EGLL 200720Z 33007KT 300V010 9999 BKN044 11/03
                        Q1020 NOSIG=
201006200650 METAR COR EGLL 200650Z 34007KT 300V010 9999 SCT040 10/03
                        Q1020 NOSIG=
201006200620 METAR COR EGLL 200620Z 33007KT 290V010 9999 FEW040 10/03
                        Q1020 NOSIG=
201006200550 METAR COR EGLL 200550Z 34005KT 290V050 9999 FEW044 10/03
                        Q1020 NOSIG=
201006200520 METAR COR EGLL 200520Z 32005KT 290V350 9999 SCT043 09/04
                        Q1020 NOSIG=
201006200450 METAR COR EGLL 200450Z 31004KT CAVOK 08/04 Q1019 NOSIG=
201006200420 METAR COR EGLL 200420Z 31005KT CAVOK 08/04 Q1019 NOSIG=
201006200350 METAR COR EGLL 200350Z 32005KT CAVOK 09/03 Q1019 NOSIG=
201006200320 METAR COR EGLL 200320Z 34004KT 270V030 9999 FEW039 09/03
                        Q1019 NOSIG=
201006200250 METAR COR EGLL 200250Z 35005KT 310V030 9999 FEW037 08/03
                        Q1019 NOSIG=
201006200220 METAR COR EGLL 200220Z 32005KT 290V360 9999 SCT037 08/03
                        Q1019 NOSIG=
201006200150 METAR COR EGLL 200150Z 31004KT 9999 FEW037 08/03 Q1019 NOSIG=
201006200120 METAR COR EGLL 200120Z 32005KT CAVOK 08/02 Q1019 NOSIG=
201006200050 METAR COR EGLL 200050Z 31004KT CAVOK 09/02 Q1019 NOSIG=
201006200020 METAR COR EGLL 200020Z 31004KT 9999 FEW040 09/02 Q1019 NOSIG=
201006192350 METAR COR EGLL 192350Z 34004KT 300V010 CAVOK 10/02 Q1019
                        NOSIG=
201006192320 METAR COR EGLL 192320Z 35005KT 330V030 CAVOK 10/03 Q1019
                        NOSIG=
201006192250 METAR COR EGLL 192250Z 35006KT 310V030 9999 SCT042 11/02
                        Q1019 NOSIG=
201006192220 METAR COR EGLL 192220Z 01006KT 330V040 9999 SCT046 12/02
                        Q1019 NOSIG=
201006192150 METAR COR EGLL 192150Z 35005KT 320V020 CAVOK 13/03 Q1019
                        NOSIG=
201006192120 METAR COR EGLL 192120Z 35007KT 310V020 CAVOK 12/02 Q1019
                        NOSIG=
201006192050 METAR COR EGLL 192050Z 36010KT 330V030 CAVOK 13/03 Q1018
                        NOSIG=
201006192020 METAR COR EGLL 192020Z 35007KT 310V020 CAVOK 13/03 Q1018
                        NOSIG=
201006191950 METAR COR EGLL 191950Z 35007KT 300V020 9999 FEW040 13/04
                        Q1018 NOSIG=
201006191920 METAR COR EGLL 191920Z 34008KT 310V010 9999 FEW040 13/04
                        Q1018 NOSIG=
201006191850 METAR COR EGLL 191850Z 36008KT 320V040 9999 SCT040 14/04
                        Q1018 NOSIG=
201006191820 METAR COR EGLL 191820Z 01008KT 320V040 9999 SCT040 14/03
                        Q1018 NOSIG=
201006191750 METAR COR EGLL 191750Z 36009KT 320V040 9999 FEW040 SCT045
                        15/04 Q1017 NOSIG=
201006191720 METAR COR EGLL 191720Z 36008KT 330V050 9999 FEW040 SCT046
                        15/04 Q1017 NOSIG=
201006191650 METAR COR EGLL 191650Z 34009KT 310V020 9999 SCT046 15/04
                        Q1017 NOSIG=
201006191620 METAR COR EGLL 191620Z 36009KT 340V050 9999 SCT041 15/04
                        Q1017 NOSIG=
201006191550 METAR COR EGLL 191550Z 35009KT 310V030 9999 FEW041 15/04
                        Q1017 NOSIG=
201006191520 METAR COR EGLL 191520Z 34009KT 290V030 9999 FEW044 15/04
                        Q1017 NOSIG=
201006191450 METAR COR EGLL 191450Z 36010KT 320V030 9999 FEW044 16/03
                        Q1017 NOSIG=
201006191420 METAR COR EGLL 191420Z 01009KT 330V050 9999 FEW044 16/03
                        Q1017 NOSIG=
201006191350 METAR COR EGLL 191350Z 36008KT 310V040 9999 SCT044 16/04
                        Q1017 NOSIG=
201006191320 METAR COR EGLL 191320Z 36009KT 330V040 9999 FEW045 15/03
                        Q1017 NOSIG=
201006191250 METAR COR EGLL 191250Z 36008KT 310V050 9999 FEW042 SCT047
                        15/03 Q1017 NOSIG=
201006191220 METAR COR EGLL 191220Z 33008KT 290V010 9999 SCT040 15/03
                        Q1017 NOSIG=
201006191150 METAR COR EGLL 191150Z 36008KT 320V050 9999 SCT038 15/04
                        Q1017 NOSIG=
201006191120 METAR COR EGLL 191120Z 36010KT 320V040 9999 SCT037 15/04
                        Q1017 NOSIG=
201006191050 METAR COR EGLL 191050Z 36011KT 330V040 9999 SCT034 14/05
                        Q1017 NOSIG=
201006191020 METAR COR EGLL 191020Z 34008KT 290V020 9999 SCT035 SCT041
                        14/05 Q1017 NOSIG=
201006190950 METAR COR EGLL 190950Z 01010KT 330V050 9999 SCT036 SCT040
                        BKN048 14/04 Q1017 NOSIG=
201006190920 METAR COR EGLL 190920Z 36007KT 330V030 9999 SCT035 BKN040
                        13/04 Q1017 NOSIG=
201006190850 METAR COR EGLL 190850Z 36008KT 310V040 9999 FEW031 SCT037
                        13/04 Q1017 NOSIG=
201006190820 METAR COR EGLL 190820Z 36009KT 320V060 9999 FEW031 SCT042
                        13/05 Q1017 NOSIG=
201006190750 METAR COR EGLL 190750Z 35008KT 320V070 9999 SCT030 13/05
                        Q1017 NOSIG=
201006190720 METAR COR EGLL 190720Z 35010KT 310V030 9999 FEW022 12/05
                        Q1017 NOSIG=
201006190650 METAR COR EGLL 190650Z 35009KT 320V020 9999 FEW022 11/06
                        Q1017 NOSIG=
201006190620 METAR COR EGLL 190620Z 36007KT 310V040 9999 FEW020 11/06
                        Q1017 NOSIG=
201006190550 METAR COR EGLL 190550Z 34005KT 280V030 9999 FEW036 10/06
                        Q1017 NOSIG=
201006190520 METAR COR EGLL 190520Z 32004KT 290V360 CAVOK 09/04 Q1017
                        NOSIG=
201006190450 METAR COR EGLL 190450Z 31004KT 9999 FEW036 09/05 Q1017 NOSIG=
201006190420 METAR COR EGLL 190420Z 30004KT 9999 SCT038 09/05 Q1017 NOSIG=
201006190350 METAR COR EGLL 190350Z 31003KT CAVOK 08/05 Q1017 NOSIG=
201006190320 METAR COR EGLL 190320Z 31003KT CAVOK 08/04 Q1018 NOSIG=
201006190250 METAR COR EGLL 190250Z VRB03KT CAVOK 09/04 Q1018 NOSIG=
201006190220 METAR COR EGLL 190220Z VRB03KT CAVOK 09/05 Q1018 NOSIG=
201006190150 METAR COR EGLL 190150Z 02005KT 320V050 CAVOK 09/06 Q1018
                        NOSIG=
201006190120 METAR COR EGLL 190120Z 01005KT 310V060 CAVOK 10/06 Q1018
                        NOSIG=
201006190050 METAR EGLL 190050Z NIL=
201006190020 METAR COR EGLL 190020Z 02005KT 330V060 9999 FEW030 11/08
                        Q1019 NOSIG=
201006182350 METAR COR EGLL 182350Z 03006KT 9999 FEW030 12/08 Q1019 NOSIG=
201006182320 METAR COR EGLL 182320Z 02005KT 330V050 CAVOK 12/09 Q1019
                        NOSIG=
201006182250 METAR COR EGLL 182250Z 02004KT 310V050 9999 -RA NSC 12/09
                        Q1019 NOSIG=
201006182220 METAR COR EGLL 182220Z 04005KT 360V070 9999 -RA NSC 12/09
                        Q1019 NOSIG=
201006182150 METAR COR EGLL 182150Z 04004KT 360V070 9000 -DZ BKN034 12/09
                        Q1019 NOSIG=
201006182120 METAR COR EGLL 182120Z 04006KT 010V080 5000 -RA FEW013 BKN025
                        12/10 Q1019 NOSIG=
201006182050 METAR COR EGLL 182050Z 05005KT 010V080 7000 -DZ FEW018 BKN030
                        12/10 Q1019 NOSIG=
201006182020 METAR COR EGLL 182020Z 04006KT 010V080 9999 BKN030 13/10
                        Q1019 NOSIG=
201006181950 METAR COR EGLL 181950Z 04004KT 360V060 9000 -RA SCT026 BKN032
                        13/10 Q1019 NOSIG=
201006181920 METAR COR EGLL 181920Z 05008KT 7000 -RA SCT015 BKN022 13/10
                        Q1019 NOSIG=
201006181850 METAR COR EGLL 181850Z 05007KT 9999 RA FEW012 SCT016 BKN020
                        14/11 Q1019 BECMG NSW=
201006181820 METAR COR EGLL 181820Z 03007KT 9999 -RA SCT009 BKN014 14/11
                        Q1019 TEMPO SCT014 BKN018=
201006181750 METAR COR EGLL 181750Z 02005KT 330V050 9999 -RA FEW010 SCT033
                        15/13 Q1019 TEMPO BKN014=
201006181720 METAR COR EGLL 181720Z 02006KT 350V060 9999 -RA FEW021 BKN024
                        16/12 Q1019 TEMPO RA BKN014=
201006181650 METAR COR EGLL 181650Z 01006KT 340V070 9999 -RA SCT023 BKN029
                        17/11 Q1019 TEMPO RA BKN014=
201006181620 METAR COR EGLL 181620Z 02008KT 360V060 9999 BKN031 18/12
                        Q1019 TEMPO SHRA BKN014=
201006181550 METAR COR EGLL 181550Z 02007KT 9999 BKN030 18/11 Q1019 TEMPO
                        SHRA BKN014=
201006181520 METAR COR EGLL 181520Z 02005KT 330V070 9999 FEW027 BKN031
                        19/11 Q1019 NOSIG=
201006181450 METAR COR EGLL 181450Z 03006KT 360V070 9999 BKN027 19/11
                        Q1019 NOSIG=
201006181420 METAR COR EGLL 181420Z 03007KT 330V070 9999 BKN030 19/11
                        Q1020 NOSIG=
201006181350 METAR COR EGLL 181350Z 05006KT 010V080 9999 BKN035 19/11
                        Q1020 NOSIG=
201006181320 METAR COR EGLL 181320Z 03006KT 320V080 9999 BKN033 20/11
                        Q1020 NOSIG=
201006181250 METAR COR EGLL 181250Z 05006KT 360V090 9999 BKN033 20/10
                        Q1020 NOSIG=
201006181220 METAR COR EGLL 181220Z 07005KT 350V130 9999 SCT033 20/10
                        Q1020 NOSIG=
201006181150 METAR COR EGLL 181150Z 07006KT 350V120 9999 FEW032 19/10
                        Q1020 NOSIG=
201006181120 METAR COR EGLL 181120Z 08005KT 340V130 9999 FEW021 18/10
                        Q1020 NOSIG=
201006181050 METAR COR EGLL 181050Z 06006KT 350V100 9999 FEW021 19/10
                        Q1020 NOSIG=
201006181020 METAR COR EGLL 181020Z 03006KT 310V080 9999 SCT018 17/10
                        Q1021 NOSIG=
201006180950 METAR COR EGLL 180950Z 04007KT 360V090 9999 BKN018 16/10
                        Q1021 NOSIG=
201006180920 METAR COR EGLL 180920Z 04005KT 340V090 9999 SCT015 BKN016
                        15/10 Q1020 NOSIG=
201006180850 METAR COR EGLL 180850Z 03005KT 330V080 9999 BKN014 14/10
                        Q1021 BECMG SCT015 BKN016=
201006180820 METAR COR EGLL 180820Z 04006KT 360V070 9999 BKN013 14/10
                        Q1021 BECMG SCT013 BKN015=
201006180750 METAR COR EGLL 180750Z 03006KT 360V080 9999 BKN011 13/09
                        Q1021 BECMG SCT011 BKN015=
201006180720 METAR COR EGLL 180720Z 05006KT 340V090 9999 SCT009 BKN012
                        13/09 Q1021 BECMG SCT012 BKN015=
201006180650 METAR COR EGLL 180650Z 05005KT 360V080 9999 FEW008 BKN009
                        13/09 Q1021 BECMG SCT009 BKN012=
201006180620 METAR COR EGLL 180620Z 06005KT 010V090 9999 FEW008 BKN010
                        12/08 Q1021 NOSIG=
201006180550 METAR COR EGLL 180550Z 02004KT 340V070 9999 BKN010 12/08
                        Q1020 NOSIG=
201006180520 METAR COR EGLL 180520Z 06004KT 010V090 9000 BKN009 12/08
                        Q1020 BECMG BKN012=
201006180450 METAR COR EGLL 180450Z 06005KT 9000 BKN010 12/08 Q1020 NOSIG=
201006180420 METAR COR EGLL 180420Z 04004KT 360V070 9999 BKN012 12/08
                        Q1020 NOSIG=
201006180350 METAR COR EGLL 180350Z 05005KT 010V070 9999 BKN013 12/08
                        Q1020 NOSIG=
201006180320 METAR COR EGLL 180320Z 05005KT 010V070 9999 BKN013 12/07
                        Q1020 NOSIG=
201006180250 METAR COR EGLL 180250Z 04006KT 9999 OVC013 12/07 Q1021 NOSIG=
201006180220 METAR COR EGLL 180220Z 04005KT 010V070 9999 SCT013 11/07
                        Q1021 BECMG BKN013=
201006180150 METAR COR EGLL 180150Z 04006KT 010V070 CAVOK 11/07 Q1021
                        BECMG BKN014=
201006180120 METAR COR EGLL 180120Z 04007KT CAVOK 12/07 Q1021 BECMG BKN014=
201006180050 METAR COR EGLL 180050Z 03005KT 340V060 CAVOK 12/08 Q1021
                        NOSIG=
201006180020 METAR COR EGLL 180020Z 36005KT 330V050 CAVOK 13/08 Q1021
                        NOSIG=
201006172350 METAR COR EGLL 172350Z 03005KT 340V060 CAVOK 14/08 Q1021
                        NOSIG=
201006172320 METAR COR EGLL 172320Z 04005KT 010V070 CAVOK 14/09 Q1021
                        NOSIG=
201006172250 METAR COR EGLL 172250Z 04005KT 360V060 CAVOK 15/09 Q1021
                        NOSIG=
201006172220 METAR COR EGLL 172220Z 02005KT 340V050 CAVOK 15/10 Q1021
                        NOSIG=
201006172150 METAR COR EGLL 172150Z 02005KT 330V060 9999 FEW040 16/10
                        Q1021 NOSIG=
201006172120 METAR COR EGLL 172120Z 02007KT 310V060 9999 FEW040 17/10
                        Q1021 NOSIG=
201006172050 METAR COR EGLL 172050Z 03008KT 350V070 9999 BKN042 18/10
                        Q1021 NOSIG=
201006172020 METAR COR EGLL 172020Z 01007KT 330V040 9999 BKN043 19/10
                        Q1021 NOSIG=
201006171950 METAR COR EGLL 171950Z 01008KT 340V050 9999 BKN044 20/10
                        Q1020 NOSIG=
201006171920 METAR COR EGLL 171920Z 03009KT 360V060 9999 BKN045 20/10
                        Q1020 NOSIG=
201006171850 METAR COR EGLL 171850Z 02009KT 330V050 9999 BKN044 21/10
                        Q1020 NOSIG=
201006171820 METAR COR EGLL 171820Z 02009KT 330V070 9999 SCT045 21/10
                        Q1020 NOSIG=
201006171750 METAR COR EGLL 171750Z 03009KT 350V080 9999 FEW049 22/09
                        Q1020 NOSIG=
201006171720 METAR COR EGLL 171720Z 02009KT 310V050 CAVOK 23/07 Q1020
                        NOSIG=
201006171650 METAR COR EGLL 171650Z 02008KT 340V070 9999 FEW010 23/06
                        Q1020 NOSIG=
201006171620 METAR COR EGLL 171620Z 04008KT 350V100 CAVOK 23/06 Q1020
                        NOSIG=
201006171550 METAR COR EGLL 171550Z 03008KT 340V070 CAVOK 23/07 Q1020
                        NOSIG=
201006171520 METAR COR EGLL 171520Z 03008KT 340V090 CAVOK 23/07 Q1020
                        NOSIG=
201006171450 METAR COR EGLL 171450Z 03008KT 340V070 CAVOK 23/07 Q1020
                        NOSIG=
201006171420 METAR COR EGLL 171420Z 02008KT 330V080 CAVOK 22/08 Q1020
                        NOSIG=
201006171350 METAR COR EGLL 171350Z 04008KT 340V080 9999 SCT048 22/08
                        Q1021 NOSIG=
201006171320 METAR COR EGLL 171320Z 04008KT 010V090 9999 SCT046 22/08
                        Q1021 NOSIG=
201006171250 METAR COR EGLL 171250Z 02008KT 330V070 9999 SCT044 22/08
                        Q1021 NOSIG=
201006171220 METAR COR EGLL 171220Z 04009KT 360V080 9999 FEW042 21/09
                        Q1021 NOSIG=
201006171150 METAR COR EGLL 171150Z 03009KT 350V070 CAVOK 21/08 Q1022
                        NOSIG=
201006171120 METAR COR EGLL 171120Z 02009KT 330V080 CAVOK 21/08 Q1022
                        NOSIG=
201006171050 METAR COR EGLL 171050Z 03008KT 350V070 CAVOK 20/08 Q1022
                        NOSIG=
201006171020 METAR COR EGLL 171020Z 04008KT 350V080 CAVOK 20/08 Q1022
                        NOSIG=
201006170950 METAR COR EGLL 170950Z 04009KT 360V080 CAVOK 19/08 Q1022
                        NOSIG=
201006170920 METAR COR EGLL 170920Z 36008KT 330V050 CAVOK 18/08 Q1023
                        NOSIG=
201006170850 METAR COR EGLL 170850Z 02007KT 320V050 CAVOK 17/08 Q1023
                        NOSIG=
201006170820 METAR COR EGLL 170820Z 03007KT 340V070 CAVOK 16/08 Q1023
                        NOSIG=
201006170750 METAR COR EGLL 170750Z 03007KT 350V080 CAVOK 14/08 Q1023
                        NOSIG=
201006170720 METAR COR EGLL 170720Z 04007KT 360V070 CAVOK 13/08 Q1023
                        NOSIG=
201006170650 METAR COR EGLL 170650Z 05007KT 020V080 CAVOK 12/08 Q1023
                        NOSIG=
201006170620 METAR EGLL 170620Z 05008KT CAVOK 11/08 Q1023=
201006170550 METAR COR EGLL 170550Z 03008KT 360V070 9999 FEW024 11/05
                        Q1023=
201006170520 METAR EGLL 170520Z 05007KT CAVOK 10/04 Q1023=
201006170450 METAR COR EGLL 170450Z 05006KT CAVOK 09/05 Q1023 NOSIG=
201006170420 METAR COR EGLL 170420Z 03005KT 360V070 CAVOK 09/07 Q1023
                        NOSIG=
201006170350 METAR COR EGLL 170350Z 01004KT 330V070 CAVOK 09/07 Q1023
                        NOSIG=
201006170320 METAR COR EGLL 170320Z 04005KT 360V070 CAVOK 09/07 Q1023
                        NOSIG=
201006170250 METAR COR EGLL 170250Z 04005KT CAVOK 09/07 Q1023 NOSIG=
201006170220 METAR COR EGLL 170220Z 03004KT 350V070 CAVOK 09/07 Q1023
                        NOSIG=
201006170150 METAR COR EGLL 170150Z 03005KT 350V060 CAVOK 09/06 Q1023
                        NOSIG=
201006170120 METAR COR EGLL 170120Z 02005KT 340V050 CAVOK 10/07 Q1023
                        NOSIG=
201006170050 METAR COR EGLL 170050Z 03005KT 360V070 CAVOK 10/06 Q1023
                        NOSIG=
201006170020 METAR COR EGLL 170020Z 05006KT CAVOK 11/06 Q1024 NOSIG=
201006162350 METAR COR EGLL 162350Z 05005KT 010V080 CAVOK 11/06 Q1024
                        NOSIG=
201006162320 METAR COR EGLL 162320Z 07006KT CAVOK 11/06 Q1024 NOSIG=
201006162250 METAR EGLL 162250Z 06009KT CAVOK 12/06 Q1024=
201006162220 METAR EGLL 162220Z 07008KT CAVOK 13/06 Q1024=
201006162150 METAR COR EGLL 162150Z 05008KT CAVOK 14/06 Q1024 NOSIG=
201006162120 METAR COR EGLL 162120Z 06008KT 020V090 CAVOK 14/06 Q1023
                        NOSIG=
201006162050 METAR COR EGLL 162050Z 06010KT CAVOK 15/06 Q1023 NOSIG=
201006162020 METAR COR EGLL 162020Z 04008KT 360V070 CAVOK 16/06 Q1023
                        NOSIG=
201006161950 METAR COR EGLL 161950Z 05009KT CAVOK 17/06 Q1023 NOSIG=
201006161920 METAR COR EGLL 161920Z 05009KT CAVOK 17/05 Q1022 NOSIG=
201006161850 METAR COR EGLL 161850Z 06010KT CAVOK 18/05 Q1022 NOSIG=
201006161820 METAR COR EGLL 161820Z 04010KT 360V070 CAVOK 19/05 Q1022
                        NOSIG=
201006161750 METAR COR EGLL 161750Z 05009KT 010V090 CAVOK 19/03 Q1023
                        NOSIG=
201006161720 METAR COR EGLL 161720Z 05010KT 010V070 CAVOK 20/04 Q1023
                        NOSIG=
201006161650 METAR COR EGLL 161650Z 05010KT 010V080 CAVOK 20/03 Q1023
                        NOSIG=
201006161620 METAR COR EGLL 161620Z 06011KT 010V080 CAVOK 20/03 Q1023
                        NOSIG=
201006161550 METAR COR EGLL 161550Z 06010KT 310V120 CAVOK 20/04 Q1023
                        NOSIG=
201006161520 METAR COR EGLL 161520Z 07013KT CAVOK 20/03 Q1023 NOSIG=
201006161450 METAR COR EGLL 161450Z 02009KT 330V070 CAVOK 20/05 Q1023
                        NOSIG=
201006161420 METAR COR EGLL 161420Z 05010KT 350V090 CAVOK 20/05 Q1024
                        NOSIG=
201006161350 METAR COR EGLL 161350Z 06011KT 030V090 CAVOK 20/05 Q1024
                        NOSIG=
201006161320 METAR COR EGLL 161320Z 05010G20KT 350V090 CAVOK 20/05 Q1024
                        NOSIG=
201006161250 METAR COR EGLL 161250Z 04009KT 360V080 CAVOK 19/05 Q1024
                        NOSIG=
201006161220 METAR COR EGLL 161220Z 05010KT 340V090 CAVOK 18/05 Q1025
                        NOSIG=
201006161150 METAR EGLL 161150Z 06010KT 010V120 CAVOK 17/05 Q1025=
201006161120 METAR COR EGLL 161120Z 07012KT 9999 FEW035 17/05 Q1025 NOSIG=
201006161050 METAR COR EGLL 161050Z 06012KT 020V090 9999 SCT036 16/05
                        Q1026 NOSIG=
201006161020 METAR COR EGLL 161020Z 05012KT 010V080 9999 SCT034 15/05
                        Q1026 NOSIG=
201006160950 METAR COR EGLL 160950Z 05011KT 360V080 9999 BKN034 16/05
                        Q1026 NOSIG=
201006160920 METAR COR EGLL 160920Z 04009KT 360V080 9999 BKN032 15/05
                        Q1026 NOSIG=
201006160850 METAR COR EGLL 160850Z 05010KT 010V090 9999 BKN031 14/05
                        Q1027 NOSIG=
201006160820 METAR COR EGLL 160820Z 06010KT 9999 SCT030 13/05 Q1027 NOSIG=
201006160750 METAR COR EGLL 160750Z 06010KT 010V080 9999 BKN029 13/05
                        Q1027 NOSIG=
201006160720 METAR COR EGLL 160720Z 06012KT 9999 BKN030 12/04 Q1027 NOSIG=
201006160650 METAR COR EGLL 160650Z 03006KT 350V070 9999 FEW025 BKN031
                        12/05 Q1027 NOSIG=
201006160620 METAR COR EGLL 160620Z 02006KT 330V060 9999 BKN032 11/06
                        Q1027 NOSIG=
201006160550 METAR COR EGLL 160550Z 02005KT 350V050 9999 FEW030 10/05
                        Q1027 NOSIG=
201006160520 METAR COR EGLL 160520Z 03007KT 340V060 CAVOK 10/05 Q1027
                        NOSIG=
201006160450 METAR COR EGLL 160450Z 02005KT 350V060 CAVOK 10/06 Q1027
                        NOSIG=
201006160420 METAR EGLL 160420Z 02006KT 330V050 CAVOK 09/06 Q1027=
201006160350 METAR EGLL 160350Z 02005KT 350V050 CAVOK 09/07 Q1027=
201006160320 METAR EGLL 160320Z 02007KT 360V060 CAVOK 09/07 Q1027=
201006160250 METAR EGLL 160250Z 02006KT 350V050 CAVOK 10/07 Q1027=
201006160220 METAR EGLL 160220Z 02006KT 350V060 CAVOK 10/06 Q1028=
201006160150 METAR EGLL 160150Z NIL=
201006160120 METAR COR EGLL 160120Z 01004KT 340V050 CAVOK 10/06 Q1028
                        NOSIG=
201006160050 METAR COR EGLL 160050Z 03005KT 350V070 CAVOK 10/06 Q1028
                        NOSIG=
201006160020 METAR COR EGLL 160020Z 03005KT CAVOK 10/05 Q1028 NOSIG=
201006152350 METAR COR EGLL 152350Z 04006KT CAVOK 11/05 Q1028 NOSIG=
201006152320 METAR COR EGLL 152320Z 04005KT CAVOK 11/05 Q1028 NOSIG=
201006152250 METAR COR EGLL 152250Z 04005KT CAVOK 11/05 Q1028 NOSIG=
201006152220 METAR COR EGLL 152220Z 05006KT CAVOK 12/05 Q1028 NOSIG=
201006152150 METAR COR EGLL 152150Z 04007KT CAVOK 12/04 Q1028 NOSIG=
201006152120 METAR COR EGLL 152120Z 04007KT CAVOK 13/04 Q1028 NOSIG=
201006152050 METAR COR EGLL 152050Z 03006KT 330V060 CAVOK 14/04 Q1028
                        NOSIG=
201006152020 METAR COR EGLL 152020Z 02009KT 350V060 CAVOK 14/03 Q1028
                        NOSIG=
201006151950 METAR COR EGLL 151950Z 03009KT 360V060 CAVOK 15/04 Q1028
                        NOSIG=
201006151920 METAR COR EGLL 151920Z 02008KT 350V060 9999 FEW046 15/04
                        Q1027 NOSIG=
201006151850 METAR COR EGLL 151850Z 01009KT 340V050 CAVOK 16/04 Q1027
                        NOSIG=
201006151820 METAR COR EGLL 151820Z 01009KT 340V050 CAVOK 17/04 Q1027
                        NOSIG=
201006151750 METAR COR EGLL 151750Z 04009KT 350V090 CAVOK 17/04 Q1027
                        NOSIG=
201006151720 METAR COR EGLL 151720Z 03010KT 360V070 CAVOK 17/04 Q1027
                        NOSIG=
201006151650 METAR COR EGLL 151650Z 03009KT 330V070 9999 FEW049 18/04
                        Q1027 NOSIG=
201006151620 METAR COR EGLL 151620Z 03010KT 340V070 CAVOK 18/04 Q1027
                        NOSIG=
201006151550 METAR COR EGLL 151550Z 05012KT 360V090 CAVOK 18/04 Q1027
                        NOSIG=
201006151520 METAR COR EGLL 151520Z 05010KT 350V080 CAVOK 18/04 Q1027
                        NOSIG=
201006151450 METAR COR EGLL 151450Z 03009KT 340V070 CAVOK 18/04 Q1027
                        NOSIG=
201006151420 METAR COR EGLL 151420Z 04009KT 350V080 CAVOK 18/04 Q1027
                        NOSIG=
201006151350 METAR COR EGLL 151350Z 04010KT 350V070 9999 FEW049 19/04
                        Q1027 NOSIG=
201006151320 METAR COR EGLL 151320Z 05011KT 010V070 9999 SCT048 18/04
                        Q1027 NOSIG=
201006151250 METAR COR EGLL 151250Z 06012KT 010V080 9999 SCT046 18/05
                        Q1027 NOSIG=
201006151220 METAR COR EGLL 151220Z 05011KT 010V070 9999 BKN041 17/05
                        Q1027 NOSIG=
201006151150 METAR COR EGLL 151150Z 06010KT 010V090 9999 BKN042 17/04
                        Q1027 NOSIG=
201006151120 METAR COR EGLL 151120Z 05009KT 360V080 9999 BKN042 16/04
                        Q1027 NOSIG=
201006151050 METAR COR EGLL 151050Z 03008KT 360V070 9999 BKN037 15/05
                        Q1028 NOSIG=
201006151020 METAR COR EGLL 151020Z 05009KT 010V080 9999 BKN038 15/05
                        Q1028 NOSIG=
201006150950 METAR COR EGLL 150950Z 04010KT 360V070 9999 FEW030 BKN038
                        15/05 Q1028 NOSIG=
201006150920 METAR COR EGLL 150920Z 03009KT 350V070 9999 BKN039 15/06
                        Q1028 NOSIG=
201006150850 METAR COR EGLL 150850Z 04009KT 350V090 9999 SCT036 15/06
                        Q1028 NOSIG=
201006150820 METAR COR EGLL 150820Z 04009KT 010V080 9999 BKN028 14/06
                        Q1027 NOSIG=
201006150750 METAR COR EGLL 150750Z 04010KT 010V080 9999 FEW020 SCT030
                        14/07 Q1027 NOSIG=
201006150720 METAR COR EGLL 150720Z 03009KT 350V060 9999 FEW019 SCT025
                        13/07 Q1027 NOSIG=
201006150650 METAR COR EGLL 150650Z 03009KT 360V070 9999 FEW015 12/07
                        Q1027 NOSIG=
201006150620 METAR COR EGLL 150620Z 04008KT 350V060 9999 FEW013 12/07
                        Q1027 NOSIG=
201006150550 METAR COR EGLL 150550Z 03007KT 350V060 9999 FEW011 11/06
                        Q1026 NOSIG=
201006150520 METAR COR EGLL 150520Z 03007KT 9999 FEW010 10/07 Q1026 NOSIG=
201006150450 METAR COR EGLL 150450Z 02006KT 340V050 9999 FEW010 10/06
                        Q1026 NOSIG=
201006150420 METAR COR EGLL 150420Z 02005KT 340V060 CAVOK 09/06 Q1026
                        NOSIG=
201006150350 METAR COR EGLL 150350Z 02006KT 330V050 CAVOK 09/06 Q1026
                        NOSIG=
201006150320 METAR COR EGLL 150320Z 02006KT 330V050 CAVOK 09/05 Q1026
                        NOSIG=
201006150250 METAR COR EGLL 150250Z 36005KT 330V040 CAVOK 09/06 Q1026
                        NOSIG=
201006150220 METAR COR EGLL 150220Z 36005KT 330V030 CAVOK 09/07 Q1026
                        NOSIG=
201006150150 METAR COR EGLL 150150Z 03005KT CAVOK 10/07 Q1026 NOSIG=
201006150120 METAR COR EGLL 150120Z 04005KT 360V070 CAVOK 10/06 Q1026
                        NOSIG=
201006150050 METAR COR EGLL 150050Z 02007KT 340V060 CAVOK 10/06 Q1025
                        NOSIG=
201006150020 METAR COR EGLL 150020Z 04007KT 010V080 CAVOK 11/06 Q1025
                        NOSIG=
201006142350 METAR COR EGLL 142350Z 04007KT CAVOK 11/07 Q1025 NOSIG=
201006142320 METAR COR EGLL 142320Z 04007KT 010V070 CAVOK 12/05 Q1025
                        NOSIG=
201006142250 METAR COR EGLL 142250Z 03008KT 360V060 9999 FEW033 12/08
                        Q1025 NOSIG=
201006142220 METAR COR EGLL 142220Z 03009KT 350V060 9999 SCT032 BKN036
                        13/08 Q1024 NOSIG=
201006142150 METAR COR EGLL 142150Z 03008KT 9999 OVC038 14/08 Q1024 NOSIG=
201006142120 METAR COR EGLL 142120Z 02009KT 330V070 9999 FEW030 OVC038
                        14/08 Q1023 NOSIG=
201006142050 METAR COR EGLL 142050Z 03008KT 350V060 9999 FEW030 BKN040
                        14/09 Q1023 NOSIG=
201006142020 METAR COR EGLL 142020Z 03009KT 340V070 9999 FEW024 BKN039
                        14/09 Q1023 NOSIG=
201006141950 METAR COR EGLL 141950Z 03007KT 330V060 9999 SCT026 BKN033
                        14/09 Q1022 NOSIG=
201006141920 METAR COR EGLL 141920Z 03009KT 350V060 9999 BKN026 15/10
                        Q1022 NOSIG=
201006141850 METAR COR EGLL 141850Z 04007KT 9999 BKN020 15/11 Q1021 NOSIG=
201006141820 METAR COR EGLL 141820Z 04008KT 010V070 9999 BKN021 15/11
                        Q1021 NOSIG=
201006141750 METAR COR EGLL 141750Z 03008KT 330V070 9999 SCT025 BKN031
                        15/11 Q1021 NOSIG=
201006141720 METAR COR EGLL 141720Z 02007KT 350V050 9999 SCT025 BKN030
                        15/11 Q1020 NOSIG=
201006141650 METAR COR EGLL 141650Z 05005KT 010V080 8000 FEW029 SCT034
                        BKN040 14/11 Q1020 TEMPO SHRA=
201006141620 METAR COR EGLL 141620Z 07007KT 6000 -SHRA SCT020 SCT024 14/13
                        Q1020 RESHRA TEMPO SHRA=
201006141550 METAR COR EGLL 141550Z 07008KT 5000 SHRA SCT022CB SCT030
                        14/12 Q1019 BECMG NSW=
201006141520 METAR COR EGLL 141520Z 04011KT 360V070 9999 7000NE -SHRA
                        SCT025 SCT031 17/12 Q1019 TEMPO SHRA=
201006141450 METAR COR EGLL 141450Z 04009KT 360V060 9999 VCSH SCT030 18/11
                        Q1018 TEMPO SHRA=
201006141420 METAR COR EGLL 141420Z 02009KT 340V060 9999 SCT029 SCT033
                        19/11 Q1018 NOSIG=
201006141350 METAR COR EGLL 141350Z 02008KT 340V050 9999 FEW030 BKN040
                        18/11 Q1018 NOSIG=
201006141320 METAR COR EGLL 141320Z 03009KT 340V070 9999 -RA FEW035 BKN042
                        18/10 Q1018 NOSIG=
201006141250 METAR COR EGLL 141250Z 04008KT 9999 BKN043 19/08 Q1017 NOSIG=
201006141220 METAR COR EGLL 141220Z 03008KT 350V070 9999 SCT047 19/07
                        Q1017 NOSIG=
201006141150 METAR COR EGLL 141150Z 03008KT 340V070 9999 SCT046 21/08
                        Q1017 NOSIG=
201006141120 METAR COR EGLL 141120Z 03008KT 330V070 9999 SCT044 20/10
                        Q1017 NOSIG=
201006141050 METAR COR EGLL 141050Z 04008KT 340V080 9999 SCT044 21/08
                        Q1016 NOSIG=
201006141020 METAR COR EGLL 141020Z 04008KT 360V080 9999 SCT046 19/08
                        Q1016 NOSIG=
201006140950 METAR COR EGLL 140950Z 03007KT 340V090 9999 FEW039 19/08
                        Q1016 NOSIG=
201006140920 METAR COR EGLL 140920Z 04006KT 350V090 9999 FEW035 19/08
                        Q1016 NOSIG=
201006140850 METAR COR EGLL 140850Z 06007KT 010V090 9999 FEW014 18/09
                        Q1016 NOSIG=
201006140820 METAR COR EGLL 140820Z 05006KT 010V090 9999 FEW014 17/10
                        Q1016 NOSIG=
201006140750 METAR COR EGLL 140750Z 02005KT 340V070 9999 SCT010 16/10
                        Q1015 NOSIG=
201006140720 METAR COR EGLL 140720Z 04007KT 360V070 9999 BKN012 14/10
                        Q1015 BECMG SCT015=
201006140650 METAR COR EGLL 140650Z 04006KT 350V070 9999 SCT009 SCT018
                        14/10 Q1015 NOSIG=
201006140620 METAR COR EGLL 140620Z 05007KT 360V080 9000 SCT010 SCT020
                        13/11 Q1014 NOSIG=
201006140550 METAR COR EGLL 140550Z 04006KT 010V070 9000 BKN010 13/11
                        Q1013 NOSIG=
201006140520 METAR COR EGLL 140520Z 07005KT 030V110 9000 FEW008 BKN019
                        13/11 Q1013 NOSIG=
201006140450 METAR COR EGLL 140450Z VRB03KT 9999 FEW013 12/11 Q1013 NOSIG=
201006140420 METAR COR EGLL 140420Z VRB02KT 9999 FEW012 13/11 Q1012 NOSIG=
201006140350 METAR COR EGLL 140350Z VRB03KT 9999 FEW009 13/11 Q1012 NOSIG=
201006140320 METAR COR EGLL 140320Z 00000KT 9000 SCT010 SCT025 13/11 Q1012
                        NOSIG=
201006140250 METAR COR EGLL 140250Z 00000KT 9999 FEW009 SCT027 13/11 Q1011
                        NOSIG=
201006140220 METAR COR EGLL 140220Z 17004KT 9000 FEW009 SCT022 BKN045
                        13/11 Q1011 NOSIG=
201006140150 METAR COR EGLL 140150Z 14006KT 9000 FEW007 BKN045 13/11 Q1011
                        TEMPO BKN010=
201006140120 METAR COR EGLL 140120Z VRB03KT 9999 SCT007 BKN013 13/11 Q1011
                        NOSIG=
201006140050 METAR COR EGLL 140050Z VRB03KT 9999 BKN013 14/11 Q1011 TEMPO
                        SCT015=
201006140020 METAR COR EGLL 140020Z 00000KT 9999 SCT015 BKN044 14/10 Q1011
                        NOSIG=
201006132350 METAR COR EGLL 132350Z VRB02KT 9999 FEW016 BKN036 14/10 Q1011
                        NOSIG=
201006132320 METAR COR EGLL 132320Z VRB02KT 9999 BKN035 14/10 Q1011 NOSIG=
201006132250 METAR COR EGLL 132250Z 01004KT 340V050 9999 BKN040 14/10
                        Q1011 NOSIG=
201006132220 METAR COR EGLL 132220Z 36004KT 300V030 9999 FEW010 14/10
                        Q1011 NOSIG=
201006132150 METAR COR EGLL 132150Z 31006KT 280V350 9999 SCT024 SCT032
                        14/10 Q1011 TEMPO SHRA=
201006132120 METAR COR EGLL 132120Z 29007KT 9999 BKN025 14/09 Q1011 TEMPO
                        SHRA=
201006132050 METAR COR EGLL 132050Z 23010KT 190V280 9999 SCT029 SCT037
                        16/09 Q1011 TEMPO SHRA=
201006132020 METAR COR EGLL 132020Z 19009KT 160V230 9999 SCT040CB 16/09
                        Q1010 TEMPO SHRA=
201006131950 METAR COR EGLL 131950Z 19009KT 160V250 CAVOK 17/08 Q1010
                        TEMPO SHRA=
201006131920 METAR COR EGLL 131920Z 23010KT CAVOK 18/07 Q1010 NOSIG=
201006131850 METAR COR EGLL 131850Z 23012KT 200V260 CAVOK 18/06 Q1010
                        NOSIG=
201006131820 METAR COR EGLL 131820Z 22011KT 190V260 CAVOK 19/06 Q1011
                        NOSIG=
201006131750 METAR COR EGLL 131750Z 21012KT CAVOK 19/05 Q1011 NOSIG=
201006131720 METAR COR EGLL 131720Z 22013KT CAVOK 21/05 Q1011 NOSIG=
201006131650 METAR COR EGLL 131650Z 21014KT CAVOK 20/06 Q1011 NOSIG=
201006131620 METAR COR EGLL 131620Z 21013KT 180V240 CAVOK 21/06 Q1011
                        NOSIG=
201006131550 METAR COR EGLL 131550Z 23015KT CAVOK 21/06 Q1012 NOSIG=
201006131520 METAR COR EGLL 131520Z 24016KT 9999 SCT049 21/07 Q1012 NOSIG=
201006131450 METAR COR EGLL 131450Z 19014KT 150V230 9999 SCT047 21/09
                        Q1013 NOSIG=
201006131420 METAR COR EGLL 131420Z 19013KT 150V240 9999 SCT039 21/10
                        Q1013 NOSIG=
201006131350 METAR COR EGLL 131350Z 18014KT 9999 SCT038 21/10 Q1013 NOSIG=
201006131320 METAR COR EGLL 131320Z 19011KT 150V220 9999 SCT040 19/10
                        Q1014 NOSIG=
201006131250 METAR COR EGLL 131250Z 19011KT 9999 FEW042 20/09 Q1014 NOSIG=
201006131220 METAR COR EGLL 131220Z 18011KT 9999 FEW041 21/09 Q1014 NOSIG=
201006131150 METAR COR EGLL 131150Z 21008KT 170V240 9999 FEW040 SCT045
                        19/09 Q1015 NOSIG=
201006131120 METAR COR EGLL 131120Z 21008KT 180V270 9999 SCT040 20/08
                        Q1016 NOSIG=
201006131050 METAR COR EGLL 131050Z 20007KT 110V270 9999 SCT037 19/09
                        Q1016 NOSIG=
201006131020 METAR COR EGLL 131020Z 21007KT 160V260 9999 FEW035 19/09
                        Q1016 NOSIG=
201006130950 METAR COR EGLL 130950Z 23007KT 190V260 CAVOK 19/09 Q1017
                        NOSIG=
201006130920 METAR COR EGLL 130920Z 21006KT 180V270 CAVOK 17/09 Q1017
                        NOSIG=
201006130850 METAR COR EGLL 130850Z 20008KT 170V240 CAVOK 16/08 Q1017
                        NOSIG=
201006130820 METAR COR EGLL 130820Z 22008KT 190V250 CAVOK 15/08 Q1017
                        NOSIG=
201006130750 METAR COR EGLL 130750Z 20007KT 170V240 9999 FEW029 15/08
                        Q1018 NOSIG=
201006130720 METAR COR EGLL 130720Z 18008KT 140V220 9999 FEW029 13/08
                        Q1018 NOSIG=
201006130650 METAR COR EGLL 130650Z 20004KT 160V240 CAVOK 13/09 Q1018
                        NOSIG=
201006130620 METAR COR EGLL 130620Z 18006KT 100V240 CAVOK 12/08 Q1018
                        NOSIG=
201006130550 METAR COR EGLL 130550Z 18005KT 140V270 CAVOK 12/08 Q1018
                        NOSIG=
201006130520 METAR COR EGLL 130520Z 21005KT 180V250 CAVOK 12/08 Q1019
                        NOSIG=
201006130450 METAR COR EGLL 130450Z 21005KT CAVOK 11/08 Q1018 NOSIG=
201006130420 METAR COR EGLL 130420Z 22004KT 180V260 CAVOK 11/08 Q1018
                        NOSIG=
201006130350 METAR COR EGLL 130350Z 24004KT CAVOK 11/08 Q1018 NOSIG=
201006130320 METAR COR EGLL 130320Z 27005KT CAVOK 11/08 Q1019 NOSIG=
201006130250 METAR COR EGLL 130250Z 24005KT CAVOK 12/08 Q1019 NOSIG=
201006130220 METAR COR EGLL 130220Z 27004KT CAVOK 11/08 Q1019 NOSIG=
201006130150 METAR COR EGLL 130150Z 22004KT 180V250 CAVOK 11/07 Q1019
                        NOSIG=
201006130120 METAR COR EGLL 130120Z 00000KT CAVOK 11/07 Q1019 NOSIG=
201006130050 METAR COR EGLL 130050Z 17004KT CAVOK 12/07 Q1019 NOSIG=
201006130020 METAR COR EGLL 130020Z 17004KT CAVOK 12/07 Q1019 NOSIG=
201006122350 METAR COR EGLL 122350Z 18004KT CAVOK 12/07 Q1019 NOSIG=
201006122320 METAR COR EGLL 122320Z 17005KT CAVOK 13/08 Q1019 NOSIG=
201006122250 METAR COR EGLL 122250Z 18005KT CAVOK 13/08 Q1019 NOSIG=
201006122220 METAR COR EGLL 122220Z VRB07KT CAVOK 14/09 Q1019 NOSIG=
201006122150 METAR COR EGLL 122150Z 20006KT CAVOK 14/10 Q1019 NOSIG=
201006122120 METAR COR EGLL 122120Z 18007KT CAVOK 14/10 Q1019 NOSIG=
201006122050 METAR COR EGLL 122050Z 10004KT 060V130 CAVOK 15/07 Q1018
                        NOSIG=
201006122020 METAR COR EGLL 122020Z 08003KT CAVOK 17/06 Q1018 NOSIG=
201006121950 METAR COR EGLL 121950Z 05003KT CAVOK 17/06 Q1018 NOSIG=
201006121920 METAR COR EGLL 121920Z VRB03KT CAVOK 18/05 Q1018 NOSIG=
201006121850 METAR COR EGLL 121850Z 06005KT 020V080 9999 FEW046 18/06
                        Q1018 NOSIG=
201006121820 METAR COR EGLL 121820Z 02004KT 340V070 CAVOK 19/06 Q1018
                        NOSIG=
201006121750 METAR COR EGLL 121750Z 36005KT 310V050 CAVOK 18/06 Q1017
                        NOSIG=
201006121720 METAR COR EGLL 121720Z 05006KT 360V080 CAVOK 19/06 Q1017
                        NOSIG=
201006121650 METAR COR EGLL 121650Z 01006KT 340V060 9999 FEW048 19/06
                        Q1017 NOSIG=
201006121620 METAR COR EGLL 121620Z 34005KT 300V020 9999 FEW048 19/06
                        Q1017 NOSIG=
201006121550 METAR COR EGLL 121550Z 02005KT 310V120 9999 FEW048 19/06
                        Q1017 NOSIG=
201006121520 METAR COR EGLL 121520Z 03007KT 330V070 9999 SCT046 19/06
                        Q1017 NOSIG=
201006121450 METAR COR EGLL 121450Z 04008KT 350V080 9999 SCT046 20/07
                        Q1017 NOSIG=
201006121420 METAR COR EGLL 121420Z 03006KT 310V090 9999 FEW042 19/07
                        Q1017 NOSIG=
201006121350 METAR COR EGLL 121350Z 35007KT 300V080 9999 BKN043 19/07
                        Q1016 NOSIG=
201006121320 METAR COR EGLL 121320Z 35005KT 290V060 9999 FEW042 SCT046
                        19/07 Q1016 NOSIG=
201006121250 METAR COR EGLL 121250Z 03006KT 340V080 9999 FEW040 SCT049
                        19/07 Q1016 NOSIG=
201006121220 METAR COR EGLL 121220Z 36006KT 310V060 9999 FEW040 SCT046
                        19/07 Q1016 NOSIG=
201006121150 METAR COR EGLL 121150Z 04008KT 350V080 9999 FEW038 BKN048
                        19/07 Q1016 NOSIG=
201006121120 METAR COR EGLL 121120Z 02005KT 320V070 9999 FEW033 BKN042
                        17/08 Q1016 NOSIG=
201006121050 METAR COR EGLL 121050Z 36007KT 310V040 9999 FEW032 BKN048
                        17/08 Q1015 NOSIG=
201006121020 METAR COR EGLL 121020Z 36009KT 9999 FEW031 BKN046 18/08 Q1015
                        NOSIG=
201006120950 METAR COR EGLL 120950Z 01007KT 330V060 9999 FEW030 BKN045
                        16/08 Q1015 NOSIG=
201006120920 METAR COR EGLL 120920Z 34007KT 300V010 9999 SCT027 BKN043
                        16/08 Q1015 NOSIG=
201006120850 METAR COR EGLL 120850Z 34006KT 300V040 9999 FEW026 BKN044
                        16/08 Q1014 NOSIG=
201006120820 METAR COR EGLL 120820Z 33007KT 300V010 9999 FEW022 BKN041
                        15/08 Q1014 NOSIG=
201006120750 METAR COR EGLL 120750Z 34008KT 290V020 9999 FEW022 BKN040
                        15/08 Q1014 NOSIG=
201006120720 METAR COR EGLL 120720Z 33006KT 300V010 9999 BKN037 14/08
                        Q1014 NOSIG=
201006120650 METAR COR EGLL 120650Z 32007KT 280V360 9999 BKN036 13/08
                        Q1014 NOSIG=
201006120620 METAR COR EGLL 120620Z 31006KT 9999 BKN036 13/08 Q1013 NOSIG=
201006120550 METAR COR EGLL 120550Z 29007KT 9999 BKN036 13/08 Q1013 NOSIG=
201006120520 METAR COR EGLL 120520Z 30005KT 9999 BKN035 12/08 Q1013 NOSIG=
201006120450 METAR COR EGLL 120450Z 27006KT 9999 FEW032 SCT035 11/08 Q1013
                        NOSIG=
201006120420 METAR COR EGLL 120420Z 27006KT 9999 FEW032 10/07 Q1013 NOSIG=
201006120350 METAR COR EGLL 120350Z 27005KT 9999 FEW027 10/07 Q1013 NOSIG=
201006120320 METAR COR EGLL 120320Z 29004KT 9999 FEW044 11/07 Q1013 NOSIG=
201006120250 METAR COR EGLL 120250Z 28005KT 9999 FEW041 11/08 Q1012 NOSIG=
201006120220 METAR COR EGLL 120220Z 30004KT CAVOK 12/08 Q1012 NOSIG=
201006120150 METAR EGLL 120150Z VRB03KT CAVOK 12/08 Q1012=
201006120120 METAR COR EGLL 120120Z 29005KT 9999 FEW041 12/08 Q1012 NOSIG=
201006120050 METAR COR EGLL 120050Z 27003KT 9999 FEW041 12/07 Q1012 NOSIG=
201006120020 METAR COR EGLL 120020Z 30004KT 260V340 CAVOK 13/08 Q1012
                        NOSIG=
201006112350 METAR COR EGLL 112350Z 32004KT 300V360 CAVOK 13/08 Q1012
                        NOSIG=
201006112320 METAR COR EGLL 112320Z 32005KT 300V010 CAVOK 14/08 Q1012
                        NOSIG=
201006112250 METAR COR EGLL 112250Z 34005KT 300V020 CAVOK 14/09 Q1012
                        NOSIG=
201006112220 METAR COR EGLL 112220Z 32004KT 290V010 CAVOK 15/10 Q1012
                        NOSIG=
201006112150 METAR COR EGLL 112150Z VRB03KT CAVOK 16/10 Q1012 NOSIG=
201006112120 METAR COR EGLL 112120Z 35004KT CAVOK 17/10 Q1012 NOSIG=
201006112050 METAR COR EGLL 112050Z VRB03KT 9999 FEW043 17/10 Q1012 NOSIG=
201006112020 METAR COR EGLL 112020Z 31003KT CAVOK 18/09 Q1011 NOSIG=
201006111950 METAR COR EGLL 111950Z 31004KT CAVOK 18/09 Q1011 NOSIG=
201006111920 METAR COR EGLL 111920Z 30004KT CAVOK 19/08 Q1010 NOSIG=
201006111850 METAR COR EGLL 111850Z VRB03KT CAVOK 19/08 Q1010 NOSIG=
201006111820 METAR COR EGLL 111820Z 30004KT 260V340 CAVOK 20/08 Q1010
                        NOSIG=
201006111750 METAR COR EGLL 111750Z 29006KT CAVOK 19/09 Q1010 NOSIG=
201006111720 METAR EGLL 111720Z 01004KT 260V070 9999 FEW044 20/08 Q1010
                        NOSIG=
201006111650 METAR COR EGLL 111650Z 35005KT 300V020 9999 FEW040 20/09
                        Q1010 NOSIG=
201006111620 METAR COR EGLL 111620Z 29005KT 260V350 9999 SCT034 18/09
                        Q1010 NOSIG=
201006111550 METAR COR EGLL 111550Z VRB03KT 9999 SCT036 20/10 Q1010 NOSIG=
201006111520 METAR COR EGLL 111520Z 36005KT 290V080 9999 SCT025 19/11
                        Q1010 NOSIG=
201006111450 METAR COR EGLL 111450Z VRB04KT 9999 SCT022 BKN040 19/11 Q1010
                        NOSIG=
201006111420 METAR COR EGLL 111420Z VRB03KT 9999 FEW021 BKN039 18/11 Q1010
                        NOSIG=
201006111350 METAR COR EGLL 111350Z VRB03KT 9999 BKN024 16/11 Q1010 NOSIG=
201006111320 METAR COR EGLL 111320Z 13005KT 100V180 9999 BKN019 15/11
                        Q1010 NOSIG=
201006111250 METAR COR EGLL 111250Z 12004KT 080V170 9999 BKN021 15/11
                        Q1010 NOSIG=
201006111220 METAR COR EGLL 111220Z 13005KT 100V170 9999 OVC019 15/11
                        Q1010 NOSIG=
201006111150 METAR COR EGLL 111150Z 09005KT 040V140 9999 BKN018 15/11
                        Q1010 NOSIG=
201006111120 METAR COR EGLL 111120Z 07006KT 030V130 9999 BKN016 15/11
                        Q1010 NOSIG=
201006111050 METAR COR EGLL 111050Z 07005KT 020V100 9999 BKN017 15/11
                        Q1009 TEMPO BKN012=
201006111020 METAR COR EGLL 111020Z 35007KT 9999 BKN012 15/11 Q1009 BECMG
                        BKN020=
201006110950 METAR COR EGLL 110950Z 35007KT 310V020 9999 BKN012 15/11
                        Q1009 BECMG BKN020=
201006110920 METAR COR EGLL 110920Z 36006KT 320V050 9999 FEW011 BKN015
                        14/11 Q1009 TEMPO BKN011=
201006110850 METAR COR EGLL 110850Z 35006KT 300V020 9999 SCT007 BKN010
                        14/11 Q1009 NOSIG=
201006110820 METAR COR EGLL 110820Z 34005KT 300V020 9000 SCT008 OVC010
                        13/11 Q1009 NOSIG=
201006110750 METAR COR EGLL 110750Z 32006KT 9999 FEW008 BKN010 13/11 Q1009
                        NOSIG=
201006110720 METAR COR EGLL 110720Z 35006KT 300V030 9999 FEW008 BKN010
                        13/11 Q1009 NOSIG=
201006110650 METAR COR EGLL 110650Z 34006KT 220V030 9999 FEW008 BKN010
                        13/11 Q1008 NOSIG=
201006110620 METAR COR EGLL 110620Z 35006KT 310V020 9999 BKN010 13/11
                        Q1008 NOSIG=
201006110550 METAR COR EGLL 110550Z 36007KT 330V040 9999 BKN008 13/11
                        Q1007 NOSIG=
201006110520 METAR COR EGLL 110520Z 36007KT 330V040 9999 BKN008 13/11
                        Q1007 NOSIG=
201006110450 METAR COR EGLL 110450Z 36007KT 9999 OVC005 13/11 Q1007 TEMPO
                        BKN007=
201006110420 METAR COR EGLL 110420Z 01007KT 340V040 8000 OVC005 13/11
                        Q1007 BECMG BKN007=
201006110350 METAR EGLL 110350Z NIL=
201006110320 METAR COR EGLL 110320Z 36007KT 330V040 9999 OVC005 13/11
                        Q1006 BECMG BKN007=
201006110250 METAR COR EGLL 110250Z 02007KT 340V080 9000 OVC005 13/11
                        Q1006 TEMPO BKN007=
201006110220 METAR COR EGLL 110220Z 01009KT 340V050 9000 OVC005 13/11
                        Q1006 BECMG BKN007=
201006110150 METAR COR EGLL 110150Z 01009KT 340V040 9000 OVC005 13/11
                        Q1006 BECMG BKN007=
201006110120 METAR COR EGLL 110120Z 02009KT 330V040 9999 FEW005 BKN007
                        13/11 Q1006 NOSIG=
201006110050 METAR COR EGLL 110050Z 01009KT 330V040 9999 FEW005 BKN007
                        13/11 Q1006 NOSIG=
201006110020 METAR COR EGLL 110020Z 03008KT 360V070 8000 SCT006 BKN008
                        13/11 Q1007 NOSIG=
201006102350 METAR COR EGLL 102350Z 03010KT 350V050 9999 FEW006 BKN008
                        13/11 Q1007 NOSIG=
201006102320 METAR COR EGLL 102320Z 02008KT 340V060 9999 BKN008 14/11
                        Q1007 NOSIG=
201006102250 METAR COR EGLL 102250Z 03010KT 360V060 9999 BKN009 14/11
                        Q1007 NOSIG=
201006102220 METAR COR EGLL 102220Z 02010KT 320V060 9999 BKN009 14/11
                        Q1007 NOSIG=
201006102150 METAR COR EGLL 102150Z 02009G19KT 350V070 9999 BKN010 14/11
                        Q1007 BECMG BKN008=
201006102120 METAR COR EGLL 102120Z 02009KT 350V060 9999 OVC010 14/11
                        Q1007 BECMG BKN008=
201006102050 METAR COR EGLL 102050Z 03010KT 360V070 9999 BKN010 14/12
                        Q1007 BECMG BKN008=
201006102020 METAR COR EGLL 102020Z 02009KT 340V060 9999 BKN010 15/12
                        Q1007 BECMG BKN008=
201006101950 METAR COR EGLL 101950Z 02009KT 340V050 9999 FEW009 BKN011
                        15/12 Q1007 BECMG BKN008=
201006101920 METAR COR EGLL 101920Z 03011KT 350V060 9999 BKN015 15/12
                        Q1007 BECMG BKN008=
201006101850 METAR COR EGLL 101850Z 04011KT 360V070 9999 BKN011 15/12
                        Q1007 BECMG BKN008=
201006101820 METAR COR EGLL 101820Z 03011KT 360V070 9999 BKN015 15/12
                        Q1007 BECMG BKN010=
201006101750 METAR COR EGLL 101750Z 04010KT 360V070 9999 BKN010 16/12
                        Q1007 NOSIG=
201006101720 METAR COR EGLL 101720Z 05010KT 9999 BKN010 16/12 Q1007 BECMG
                        BKN008=
201006101650 METAR COR EGLL 101650Z 02011KT 350V050 9999 BKN010 16/13
                        Q1006 BECMG BKN008=
201006101620 METAR COR EGLL 101620Z 02011KT 340V050 9999 SCT012 SCT017
                        BKN020 16/13 Q1007 NOSIG=
201006101550 METAR COR EGLL 101550Z 03009KT 350V060 9999 -RA FEW019 SCT022
                        BKN034 17/13 Q1007 NOSIG=
201006101520 METAR COR EGLL 101520Z 02008KT 330V050 9999 -RA FEW021 OVC037
                        17/13 Q1007 NOSIG=
201006101450 METAR COR EGLL 101450Z 02010KT 350V050 9999 -DZ SCT023 SCT035
                        BKN041 18/13 Q1007 NOSIG=
201006101420 METAR COR EGLL 101420Z 03009KT 360V070 9999 SCT026 BKN036
                        18/13 Q1007 NOSIG=
201006101350 METAR COR EGLL 101350Z 02008KT 340V050 9999 BKN026 19/13
                        Q1007 NOSIG=
201006101320 METAR COR EGLL 101320Z 02007KT 330V060 9999 FEW024 BKN029
                        19/13 Q1007 NOSIG=
201006101250 METAR COR EGLL 101250Z 04010KT 360V080 9999 SCT020 BKN033
                        20/13 Q1007 NOSIG=
201006101220 METAR COR EGLL 101220Z 03010KT 360V070 9999 BKN017 18/13
                        Q1007 NOSIG=
201006101150 METAR COR EGLL 101150Z 03009KT 360V060 9999 -RA BKN012 17/13
                        Q1007 NOSIG=
201006101120 METAR COR EGLL 101120Z 04010KT 010V080 9999 BKN012 16/13
                        Q1007 NOSIG=
201006101050 METAR COR EGLL 101050Z 03010KT 5000 HZ OVC009 16/13 Q1008
                        BECMG BKN010=
201006101020 METAR COR EGLL 101020Z 04009KT 9000 OVC009 16/12 Q1008 BECMG
                        BKN012=
201006100950 METAR COR EGLL 100950Z 03008KT 350V060 8000 OVC009 16/12
                        Q1007 BECMG BKN012=
201006100920 METAR COR EGLL 100920Z 04008KT 360V080 8000 OVC009 16/13
                        Q1007 BECMG BKN012=
201006100850 METAR COR EGLL 100850Z 04009KT 360V080 8000 OVC009 15/13
                        Q1007 BECMG BKN012=
201006100820 METAR COR EGLL 100820Z 04008KT 360V080 8000 OVC010 16/12
                        Q1007 NOSIG=
201006100750 METAR COR EGLL 100750Z 03008KT 350V070 8000 OVC010 16/12
                        Q1007 NOSIG=
201006100720 METAR COR EGLL 100720Z 03009KT 340V060 6000 SCT007 BKN010
                        15/12 Q1007 TEMPO BKN007=
201006100650 METAR COR EGLL 100650Z 02007KT 330V060 7000 SCT008 BKN010
                        16/12 Q1007 TEMPO BKN008=
201006100620 METAR COR EGLL 100620Z 04007KT 350V080 8000 FEW008 BKN010
                        15/12 Q1007 BECMG BKN020=
201006100550 METAR COR EGLL 100550Z 03007KT 360V060 8000 SCT010 BKN016
                        16/12 Q1007 TEMPO BKN010=
201006100520 METAR COR EGLL 100520Z 04007KT 360V070 8000 FEW008 BKN011
                        15/12 Q1007 TEMPO BKN008=
201006100450 METAR COR EGLL 100450Z 03007KT 010V070 5000 HZ FEW007 BKN010
                        15/12 Q1007 TEMPO BKN008=
201006100420 METAR COR EGLL 100420Z 04008KT 010V070 5000 HZ FEW008 BKN010
                        15/12 Q1007 TEMPO BKN008=
201006100350 METAR COR EGLL 100350Z 04008KT 010V070 6000 BKN010 15/12
                        Q1007 TEMPO BKN008=
201006100320 METAR COR EGLL 100320Z 03006KT 360V070 7000 BKN011 15/12
                        Q1007 TEMPO BKN008=
201006100250 METAR COR EGLL 100250Z 03006KT 350V090 7000 FEW010 BKN012
                        15/12 Q1007 TEMPO BKN008=
201006100220 METAR COR EGLL 100220Z 05008KT 010V080 7000 BKN008 15/12
                        Q1007 NOSIG=
201006100150 METAR COR EGLL 100150Z 04006KT 010V080 7000 BKN008 15/12
                        Q1007 BECMG 9999 BKN010=
201006100120 METAR COR EGLL 100120Z 01004KT 330V040 9999 SCT010 14/11
                        Q1007 BECMG BKN010=
201006100050 METAR COR EGLL 100050Z 36004KT 340V040 9999 FEW016 15/11
                        Q1007 BECMG BKN010=
201006100020 METAR COR EGLL 100020Z 04004KT 360V070 CAVOK 15/12 Q1007
                        BECMG BKN010=
201006092350 METAR COR EGLL 092350Z 04005KT CAVOK 15/12 Q1007 BECMG BKN010=
201006092320 METAR COR EGLL 092320Z 04005KT 020V080 9999 FEW016 16/12
                        Q1007 BECMG BKN010=
201006092250 METAR COR EGLL 092250Z 06006KT CAVOK 16/12 Q1007 BECMG BKN010=
201006092220 METAR COR EGLL 092220Z 06007KT 9999 FEW016 17/13 Q1006 BECMG
                        BKN010=
201006092150 METAR COR EGLL 092150Z 06007KT 9999 FEW020 17/13 Q1006 NOSIG=
201006092120 METAR COR EGLL 092120Z 06008KT 9999 FEW020 17/13 Q1006 NOSIG=
201006092050 METAR COR EGLL 092050Z 07006KT 9999 FEW040 17/13 Q1006 NOSIG=
201006092020 METAR COR EGLL 092020Z 08006KT CAVOK 18/12 Q1006 NOSIG=
201006091950 METAR COR EGLL 091950Z 09006KT CAVOK 18/12 Q1005 NOSIG=
201006091920 METAR COR EGLL 091920Z 10008KT CAVOK 18/12 Q1005 NOSIG=
201006091850 METAR COR EGLL 091850Z 10008KT CAVOK 19/12 Q1005 NOSIG=
201006091820 METAR COR EGLL 091820Z 10008KT CAVOK 19/12 Q1005 NOSIG=
201006091750 METAR COR EGLL 091750Z 11008KT 080V140 9999 FEW039 19/12
                        Q1004 NOSIG=
201006091720 METAR COR EGLL 091720Z 12009KT 9999 FEW040 19/12 Q1004 NOSIG=
201006091650 METAR COR EGLL 091650Z 09009KT 060V120 CAVOK 21/12 Q1004
                        NOSIG=
201006091620 METAR COR EGLL 091620Z 08011KT 9999 SCT039 20/12 Q1004 NOSIG=
201006091550 METAR COR EGLL 091550Z 10011KT 9999 SCT031 SCT039 20/12 Q1004
                        NOSIG=
201006091520 METAR COR EGLL 091520Z 10006KT 060V150 9999 SCT038 21/10
                        Q1004 NOSIG=
201006091450 METAR COR EGLL 091450Z 11005KT 070V160 9999 SCT032 SCT042
                        21/11 Q1004 NOSIG=
201006091420 METAR COR EGLL 091420Z 08004KT 020V170 CAVOK 20/12 Q1004
                        NOSIG=
201006091350 METAR COR EGLL 091350Z VRB04KT CAVOK 21/12 Q1004 NOSIG=
201006091320 METAR COR EGLL 091320Z 13006KT 9999 SCT033 19/12 Q1004 NOSIG=
201006091250 METAR COR EGLL 091250Z VRB06KT 9999 -RA SCT033 19/11 Q1004
                        NOSIG=
201006091220 METAR COR EGLL 091220Z 12005KT 080V210 9999 SCT033 19/11
                        Q1004 NOSIG=
201006091150 METAR COR EGLL 091150Z 14005KT 100V210 9999 BKN033 19/11
                        Q1004 NOSIG=
201006091120 METAR COR EGLL 091120Z 12004KT 060V190 9999 SCT032 20/11
                        Q1004 NOSIG=
201006091050 METAR COR EGLL 091050Z 12005KT 050V160 9999 SCT035 20/11
                        Q1004 NOSIG=
201006091020 METAR COR EGLL 091020Z VRB03KT 9999 FEW033 20/11 Q1004 NOSIG=
201006090950 METAR COR EGLL 090950Z 16004KT 080V220 9999 SCT028 19/11
                        Q1004 NOSIG=
201006090920 METAR COR EGLL 090920Z VRB04KT 9999 FEW020 19/11 Q1004 NOSIG=
201006090850 METAR COR EGLL 090850Z VRB02KT 9999 FEW025 18/12 Q1004 NOSIG=
201006090820 METAR COR EGLL 090820Z 11004KT 050V160 9999 FEW032 16/13
                        Q1004 NOSIG=
201006090750 METAR COR EGLL 090750Z VRB03KT 9999 VCSH FEW025 15/13 Q1004
                        NOSIG=
201006090720 METAR EGLL 090720Z VRB03KT 9999 -SHRA FEW030 14/12 Q1004=
201006090650 METAR COR EGLL 090650Z 21004KT 170V240 9999 FEW033 14/12
                        Q1004 NOSIG=
201006090620 METAR COR EGLL 090620Z VRB03KT 9000 FEW040 13/12 Q1004 NOSIG=
201006090550 METAR COR EGLL 090550Z 15004KT 110V190 9000 NSC 13/11 Q1003
                        NOSIG=
201006090520 METAR EGLL 090520Z VRB03KT 8000 FEW006 13/11 Q1003=
201006090450 METAR COR EGLL 090450Z VRB03KT 8000 FEW010 12/11 Q1003 NOSIG=
201006090420 METAR COR EGLL 090420Z 20004KT 170V270 7000 FEW009 13/11
                        Q1003 NOSIG=
201006090350 METAR COR EGLL 090350Z 18004KT 8000 FEW010 12/11 Q1003 NOSIG=
201006090320 METAR COR EGLL 090320Z 21004KT 8000 FEW006 12/11 Q1002 NOSIG=
201006090250 METAR COR EGLL 090250Z 23004KT 7000 FEW006 12/11 Q1002 NOSIG=
201006090220 METAR COR EGLL 090220Z VRB03KT 9999 FEW008 13/11 Q1003 NOSIG=
201006090150 METAR COR EGLL 090150Z 18004KT 9999 FEW008 13/11 Q1003 NOSIG=
201006090120 METAR COR EGLL 090120Z 18005KT 9999 FEW008 13/11 Q1003 NOSIG=
201006090050 METAR COR EGLL 090050Z 19005KT CAVOK 13/11 Q1003 NOSIG=
201006090020 METAR COR EGLL 090020Z 18007KT CAVOK 14/11 Q1003 NOSIG=
201006082350 METAR COR EGLL 082350Z 17006KT CAVOK 14/12 Q1003 NOSIG=
201006082320 METAR COR EGLL 082320Z 21005KT CAVOK 14/11 Q1002 NOSIG=
201006082250 METAR COR EGLL 082250Z 20007KT CAVOK 14/11 Q1002 NOSIG=
201006082220 METAR COR EGLL 082220Z 19008KT CAVOK 14/11 Q1002 NOSIG=
201006082150 METAR COR EGLL 082150Z 20009KT 160V240 CAVOK 15/11 Q1002
                        NOSIG=
201006082120 METAR COR EGLL 082120Z 19010KT 150V250 CAVOK 15/11 Q1002
                        NOSIG=
201006082050 METAR COR EGLL 082050Z 19009KT 160V240 CAVOK 16/11 Q1002
                        NOSIG=
201006082020 METAR COR EGLL 082020Z 20009KT 170V240 CAVOK 16/12 Q1002
                        NOSIG=
201006081950 METAR COR EGLL 081950Z 21009KT 170V240 CAVOK 17/11 Q1001
                        NOSIG=
201006081920 METAR COR EGLL 081920Z 21009KT 180V240 9999 FEW033 18/11
                        Q1001 NOSIG=
201006081850 METAR COR EGLL 081850Z 21011KT 9999 FEW033 18/11 Q1001 NOSIG=
201006081820 METAR COR EGLL 081820Z 23012KT 9999 FEW033 19/10 Q1001 NOSIG=
201006081750 METAR COR EGLL 081750Z 22013KT 9999 FEW036 19/10 Q1001 NOSIG=
201006081720 METAR COR EGLL 081720Z 24014KT 9999 SCT033 20/10 Q1000 NOSIG=
201006081650 METAR COR EGLL 081650Z 22011KT 180V260 9999 SCT035 20/11
                        Q1000 NOSIG=
201006081620 METAR COR EGLL 081620Z 23012KT 9999 FEW030 19/11 Q1000 NOSIG=
201006081550 METAR COR EGLL 081550Z 21012KT 9999 FEW018 SCT032 20/11 Q1000
                        NOSIG=
201006081520 METAR COR EGLL 081520Z 23014KT 180V260 9999 FEW020 SCT023
                        19/12 Q1001 NOSIG=
201006081450 METAR COR EGLL 081450Z 20011KT 160V250 9999 FEW020 18/13
                        Q1001 TEMPO SHRA=
201006081420 METAR COR EGLL 081420Z 20011KT 180V240 9999 7000E FEW014
                        SCT048 17/13 Q1001 TEMPO SHRA=
201006081350 METAR COR EGLL 081350Z 22014KT 9999 4500NW -SHRA FEW025 SCT032
                        17/12 Q1001 TEMPO SHRA=
201006081320 METAR COR EGLL 081320Z 22011KT 170V260 9999 SCT025 19/11
                        Q1001 TEMPO SHRA=
201006081250 METAR COR EGLL 081250Z 20013KT 9999 SCT030 19/11 Q1000 TEMPO
                        SHRA=
201006081220 METAR COR EGLL 081220Z 20014KT 9999 FEW020 19/11 Q1000 TEMPO
                        SHRA=
201006081150 METAR COR EGLL 081150Z 20011KT 180V240 9999 FEW023 BKN037
                        18/12 Q1001 TEMPO SHRA=
201006081120 METAR COR EGLL 081120Z 18011KT 160V220 9999 VCSH BKN015 18/13
                        Q1001 RESHRA TEMPO SHRA=
201006081050 METAR COR EGLL 081050Z 20008KT 170V230 9999 FEW014 SCT020
                        17/13 Q1001 TEMPO SHRA=
201006081020 METAR COR EGLL 081020Z 20009KT 9999 SCT015 SCT030 17/13 Q1001
                        TEMPO SHRA=
201006080950 METAR COR EGLL 080950Z 18009KT 9999 FEW007 SCT011 BKN018
                        16/13 Q1001 TEMPO SHRA=
201006080920 METAR COR EGLL 080920Z 17009KT 9999 FEW007 SCT011 BKN020
                        15/13 Q1001 NOSIG=
201006080850 METAR COR EGLL 080850Z 16009KT 5000 -RA SCT006 BKN010 15/13
                        Q1001 BECMG SCT020=
201006080820 METAR COR EGLL 080820Z 12008KT 8000 SCT006 BKN009 14/13 Q1001
                        TEMPO RA=
201006080750 METAR COR EGLL 080750Z 11007KT 6000 FEW005 SCT007 BKN009
                        14/13 Q1001 TEMPO RA=
201006080720 METAR COR EGLL 080720Z 11007KT 7000 -RA FEW009 SCT027 BKN035
                        14/12 Q1001 BECMG BKN010=
201006080650 METAR COR EGLL 080650Z 10006KT 9000 FEW010 SCT029 BKN034
                        13/12 Q1002 TEMPO RA BKN010=
201006080620 METAR COR EGLL 080620Z 10005KT 9999 FEW010 SCT031 BKN040
                        13/12 Q1002 RERA TEMPO RA=
201006080550 METAR COR EGLL 080550Z 10006KT 9000 RA SCT040 13/11 Q1002
                        BECMG -RA BKN012=
201006080520 METAR COR EGLL 080520Z 09006KT 9999 FEW046 12/11 Q1002 TEMPO
                        RA=
201006080450 METAR COR EGLL 080450Z 09006KT 9999 FEW035 SCT046 12/11 Q1003
                        TEMPO RA=
201006080420 METAR COR EGLL 080420Z 10006KT 9999 -RA FEW030 SCT046 12/10
                        Q1003 TEMPO RA=
201006080350 METAR COR EGLL 080350Z 10006KT 9999 -RA BKN031 12/10 Q1003
                        NOSIG=
201006080320 METAR COR EGLL 080320Z 09008KT 9999 FEW028 SCT045 12/10 Q1003
                        NOSIG=
201006080250 METAR COR EGLL 080250Z 09008KT 9999 SCT030 SCT045 12/10 Q1004
                        NOSIG=
201006080220 METAR COR EGLL 080220Z 09007KT 9999 BKN030 12/10 Q1004 NOSIG=
201006080150 METAR COR EGLL 080150Z 10006KT 9999 -RA FEW005 BKN030 12/10
                        Q1005 NOSIG=
201006080120 METAR COR EGLL 080120Z 10006KT 9999 -RA FEW005 BKN031 12/11
                        Q1005 NOSIG=
201006080050 METAR COR EGLL 080050Z 09008KT 9999 -RA FEW005 SCT020 12/11
                        Q1005 RERA NOSIG=
201006080020 METAR COR EGLL 080020Z VRB03KT 9999 RA FEW005 SCT019 12/11
                        Q1006 NOSIG=
201006072350 METAR COR EGLL 072350Z 12008KT 7000 RA FEW005 SCT029 12/11
                        Q1006 NOSIG=
201006072320 METAR COR EGLL 072320Z 10006KT 8000 RA FEW005 SCT041 12/11
                        Q1007 NOSIG=
201006072250 METAR COR EGLL 072250Z 10006KT 9999 RA FEW006 12/11 Q1007
                        BECMG - RA=
201006072220 METAR COR EGLL 072220Z 12005KT 090V260 9999 RA NSC 12/11
                        Q1008 BECMG -RA=
201006072150 METAR COR EGLL 072150Z VRB04KT 9999 RA NSC 12/11 Q1008 NOSIG=
201006072120 METAR COR EGLL 072120Z 11005KT 070V190 9999 -RA NSC 12/11
                        Q1008 TEMPO RA=
201006072050 METAR COR EGLL 072050Z VRB04KT 9999 -RA NSC 12/11 Q1008 RERA
                        NOSIG=
201006072020 METAR COR EGLL 072020Z 19004KT 130V260 9999 RA FEW049 13/11
                        Q1009 NOSIG=
201006071950 METAR COR EGLL 071950Z 20008KT 170V240 8000 RA FEW040 BKN046
                        13/11 Q1009 NOSIG=
201006071920 METAR COR EGLL 071920Z 22007KT 190V250 9999 -RA NSC 14/11
                        Q1009 RERA NOSIG=
201006071850 METAR COR EGLL 071850Z 21007KT 9999 -RA NSC 14/10 Q1009 NOSIG=
201006071820 METAR COR EGLL 071820Z 20010KT 9999 -RA NSC 15/10 Q1009 NOSIG=
201006071750 METAR COR EGLL 071750Z 20010KT 9999 -RA NSC 16/09 Q1009 NOSIG=
201006071720 METAR COR EGLL 071720Z 19010KT 170V240 9999 FEW040 17/09
                        Q1009 NOSIG=
201006071650 METAR COR EGLL 071650Z 20012KT 9999 FEW040 18/09 Q1009 NOSIG=
201006071620 METAR COR EGLL 071620Z 19013KT 160V230 9999 FEW038 18/10
                        Q1009 NOSIG=
201006071550 METAR COR EGLL 071550Z 21011KT 180V250 9999 FEW044 20/09
                        Q1010 NOSIG=
201006071520 METAR COR EGLL 071520Z 19008KT 160V240 9999 FEW040 20/09
                        Q1010 NOSIG=
201006071450 METAR COR EGLL 071450Z 21007KT 170V280 9999 FEW040 20/08
                        Q1010 NOSIG=
201006071420 METAR COR EGLL 071420Z 24010KT 200V270 9999 SCT044 20/09
                        Q1010 NOSIG=
201006071350 METAR COR EGLL 071350Z 23010KT 9999 SCT048 21/08 Q1011 NOSIG=
201006071320 METAR COR EGLL 071320Z 26009KT 210V290 9999 FEW040 21/08
                        Q1011 NOSIG=
201006071250 METAR COR EGLL 071250Z 24008KT 200V270 9999 FEW040 21/08
                        Q1011 NOSIG=
201006071220 METAR COR EGLL 071220Z 22006KT 170V290 9999 FEW038 19/08
                        Q1011 NOSIG=
201006071150 METAR COR EGLL 071150Z 25007KT 180V300 9999 FEW033 SCT047
                        20/09 Q1011 NOSIG=
201006071120 METAR COR EGLL 071120Z 25007KT 220V280 9999 FEW033 SCT047
                        18/09 Q1012 NOSIG=
201006071050 METAR COR EGLL 071050Z 24008KT 210V280 9999 FEW030 SCT044
                        18/09 Q1012 NOSIG=
201006071020 METAR COR EGLL 071020Z 23007KT 190V270 9999 FEW030 SCT039
                        18/09 Q1012 NOSIG=
201006070950 METAR COR EGLL 070950Z 23007KT 180V270 9999 FEW028 SCT040
                        17/10 Q1012 NOSIG=
201006070920 METAR COR EGLL 070920Z 25008KT 210V280 9999 FEW040 SCT045
                        17/10 Q1012 NOSIG=
201006070850 METAR COR EGLL 070850Z 21006KT 140V300 9999 FEW021 SCT048
                        17/10 Q1012 NOSIG=
201006070820 METAR COR EGLL 070820Z 25005KT 210V320 9999 FEW020 SCT044
                        15/10 Q1013 NOSIG=
201006070750 METAR COR EGLL 070750Z 26006KT 220V290 9999 SCT038 15/10
                        Q1013 NOSIG=
201006070720 METAR COR EGLL 070720Z 26007KT 9999 SCT039 15/10 Q1013 NOSIG=
201006070650 METAR COR EGLL 070650Z 26007KT 9999 FEW032 14/10 Q1013 NOSIG=
201006070620 METAR COR EGLL 070620Z 28005KT 230V340 CAVOK 14/10 Q1012
                        NOSIG=
201006070550 METAR COR EGLL 070550Z 28006KT CAVOK 13/10 Q1012 NOSIG=
201006070520 METAR COR EGLL 070520Z 28006KT CAVOK 13/10 Q1012 NOSIG=
201006070450 METAR COR EGLL 070450Z 27006KT CAVOK 12/10 Q1012 NOSIG=
201006070420 METAR COR EGLL 070420Z 26008KT 9999 FEW049 12/10 Q1012 NOSIG=
201006070350 METAR EGLL 070350Z NIL=
201006070320 METAR COR EGLL 070320Z 26008KT CAVOK 12/10 Q1012 NOSIG=
201006070250 METAR COR EGLL 070250Z 27007KT CAVOK 13/10 Q1012 NOSIG=
201006070220 METAR COR EGLL 070220Z 28007KT CAVOK 13/10 Q1012 NOSIG=
201006070150 METAR COR EGLL 070150Z 28008KT CAVOK 14/10 Q1012 NOSIG=
201006070120 METAR COR EGLL 070120Z 28008KT CAVOK 14/10 Q1012 NOSIG=
201006070050 METAR COR EGLL 070050Z 28006KT 9999 FEW013 15/12 Q1012 NOSIG=
201006070020 METAR COR EGLL 070020Z 29006KT 9999 SCT013 SCT020 15/12 Q1012
                        NOSIG=
201006062350 METAR COR EGLL 062350Z 29006KT 9999 FEW018 BKN030 15/12 Q1012
                        NOSIG=
201006062320 METAR COR EGLL 062320Z 27006KT 9999 FEW029 16/12 Q1012 NOSIG=
201006062250 METAR COR EGLL 062250Z 27006KT CAVOK 16/13 Q1012 NOSIG=
201006062220 METAR COR EGLL 062220Z 27006KT CAVOK 16/13 Q1012 NOSIG=
201006062150 METAR COR EGLL 062150Z 27007KT CAVOK 16/13 Q1012=
201006062120 METAR COR EGLL 062120Z 27006KT CAVOK 17/12 Q1012 NOSIG=
201006062050 METAR COR EGLL 062050Z 28007KT CAVOK 17/12 Q1012 NOSIG=
201006062020 METAR COR EGLL 062020Z 28008KT CAVOK 17/12 Q1012 NOSIG=
201006061950 METAR COR EGLL 061950Z 27008KT CAVOK 17/12 Q1011 NOSIG=
201006061920 METAR COR EGLL 061920Z 27005KT CAVOK 18/11 Q1011 NOSIG=
201006061850 METAR COR EGLL 061850Z 30006KT 9999 FEW044 17/12 Q1011 TEMPO
                        SHRA=
201006061820 METAR COR EGLL 061820Z 32011KT 9999 FEW044 20/11 Q1011 TEMPO
                        SHRA=
201006061750 METAR COR EGLL 061750Z 31008KT 280V350 9999 FEW042 20/12
                        Q1010 TEMPO SHRA=
201006061720 METAR COR EGLL 061720Z 31009KT 280V340 9999 FEW038 22/10
                        Q1010 TEMPO SHRA=
201006061650 METAR COR EGLL 061650Z 28011KT 250V310 9999 FEW043 22/09
                        Q1010 NOSIG=
201006061620 METAR COR EGLL 061620Z 28014KT 9999 FEW043 22/12 Q1010 NOSIG=
201006061550 METAR COR EGLL 061550Z 28012KT 9999 FEW045 23/10 Q1010 NOSIG=
201006061520 METAR COR EGLL 061520Z 27012KT 9999 FEW040 23/11 Q1010 NOSIG=
201006061450 METAR COR EGLL 061450Z 28012KT 250V320 9999 FEW038 24/12
                        Q1010 NOSIG=
201006061420 METAR COR EGLL 061420Z 27010KT 9999 SCT035 23/13 Q1010 NOSIG=
201006061350 METAR COR EGLL 061350Z 29010KT 210V330 9999 SCT030 23/13
                        Q1010 NOSIG=
201006061320 METAR COR EGLL 061320Z 29007KT 230V330 9999 BKN026 22/14
                        Q1011 NOSIG=
201006061250 METAR COR EGLL 061250Z 27010KT 240V320 8000 SCT021 BKN028
                        21/14 Q1011 NOSIG=
201006061220 METAR COR EGLL 061220Z 27010KT 8000 BKN018 BKN022 20/14 Q1011
                        NOSIG=
201006061150 METAR COR EGLL 061150Z 27011KT 9000 BKN017 20/14 Q1011 NOSIG=
201006061120 METAR COR EGLL 061120Z 26012KT 9000 BKN016 19/14 Q1011 NOSIG=
201006061050 METAR COR EGLL 061050Z 27010KT 9000 BKN016 19/14 Q1011 NOSIG=
201006061020 METAR COR EGLL 061020Z 27011KT 9999 BKN018 20/14 Q1011 NOSIG=
201006060950 METAR EGLL 060950Z 27010KT 9999 SCT017 19/14 Q1011=
201006060920 METAR COR EGLL 060920Z 26009KT 9999 FEW014 SCT047 19/14 Q1011
                        NOSIG=
201006060850 METAR COR EGLL 060850Z 27008KT 9999 FEW018 BKN042 18/14 Q1011
                        NOSIG=
201006060820 METAR COR EGLL 060820Z 27007KT 9999 FEW020 BKN040 18/14 Q1012
                        NOSIG=
201006060750 METAR COR EGLL 060750Z 27005KT 9999 SCT036 17/14 Q1011 NOSIG=
201006060720 METAR COR EGLL 060720Z 26008KT 9000 NSC 17/14 Q1011 NOSIG=
201006060650 METAR COR EGLL 060650Z 27007KT 9000 NSC 16/14 Q1011 NOSIG=
201006060620 METAR COR EGLL 060620Z 27005KT 7000 NSC 16/14 Q1011 NOSIG=
201006060550 METAR COR EGLL 060550Z 28004KT 6000 NSC 16/14 Q1011 NOSIG=
201006060520 METAR COR EGLL 060520Z 23004KT 210V270 5000 HZ NSC 15/13
                        Q1011 NOSIG=
201006060450 METAR COR EGLL 060450Z 27003KT 6000 NSC 15/13 Q1012 NOSIG=
201006060420 METAR COR EGLL 060420Z 25003KT 7000 NSC 15/13 Q1012 NOSIG=
201006060350 METAR COR EGLL 060350Z 28005KT 7000 NSC 16/13 Q1012 NOSIG=
201006060320 METAR COR EGLL 060320Z 27006KT 7000 NSC 17/14 Q1012 NOSIG=
201006060250 METAR COR EGLL 060250Z 18003KT 9999 FEW042 16/14 Q1012 NOSIG=
201006060220 METAR COR EGLL 060220Z VRB03KT 9999 FEW042 17/14 Q1013 NOSIG=
201006060150 METAR COR EGLL 060150Z 16004KT 9999 FEW042 17/14 Q1013 NOSIG=
201006060120 METAR COR EGLL 060120Z 14005KT CAVOK 18/15 Q1013 NOSIG=
201006060050 METAR COR EGLL 060050Z 15005KT 9999 FEW048 18/15 Q1013 NOSIG=
201006060020 METAR COR EGLL 060020Z 18005KT 9999 FEW049 19/16 Q1014 NOSIG=
201006052350 METAR COR EGLL 052350Z 16005KT CAVOK 19/15 Q1014 NOSIG=
201006052320 METAR COR EGLL 052320Z 21004KT CAVOK 19/14 Q1015 NOSIG=
201006052250 METAR COR EGLL 052250Z 19008KT CAVOK 19/15 Q1015 TEMPO SHRA=
201006052220 METAR COR EGLL 052220Z 16005KT 130V190 CAVOK 22/14 Q1014
                        TEMPO SHRA=
201006052150 METAR COR EGLL 052150Z 16004KT CAVOK 23/14 Q1014 TEMPO SHRA=
201006052120 METAR COR EGLL 052120Z 18006KT CAVOK 23/13 Q1014 NOSIG=
201006052050 METAR COR EGLL 052050Z 18008KT CAVOK 23/13 Q1014 NOSIG=
201006052020 METAR COR EGLL 052020Z 18007KT CAVOK 24/13 Q1014 NOSIG=
201006051950 METAR COR EGLL 051950Z 18007KT 150V250 CAVOK 24/13 Q1014
                        NOSIG=
201006051920 METAR COR EGLL 051920Z 18008KT 140V220 CAVOK 25/12 Q1015
                        NOSIG=
201006051850 METAR COR EGLL 051850Z 19008KT 160V220 CAVOK 25/13 Q1015
                        NOSIG=
201006051820 METAR COR EGLL 051820Z 19008KT 170V240 CAVOK 26/13 Q1015
                        NOSIG=
201006051750 METAR EGLL 051750Z AUTO 19009KT 170V240 9999NDV NCD 26/12
                        Q1015=
201006051720 METAR COR EGLL 051720Z 19011KT CAVOK 27/12 Q1015 NOSIG=
201006051650 METAR COR EGLL 051650Z 19011KT 150V240 CAVOK 27/12 Q1015
                        NOSIG=
201006051620 METAR COR EGLL 051620Z 19010KT 150V220 CAVOK 27/12 Q1015
                        NOSIG=
201006051550 METAR COR EGLL 051550Z 20010KT CAVOK 27/12 Q1016 NOSIG=
201006051520 METAR EGLL 051520Z AUTO 19009KT 140V220 9999NDV NCD 28/12
                        Q1016=
201006051450 METAR COR EGLL 051450Z 21006KT 150V250 CAVOK 27/12 Q1016
                        NOSIG=
201006051420 METAR COR EGLL 051420Z 17006KT 130V220 CAVOK 26/12 Q1016
                        NOSIG=
201006051350 METAR COR EGLL 051350Z 18007KT 100V240 CAVOK 27/11 Q1017
                        NOSIG=
201006051320 METAR EGLL 051320Z 19009KT 130V240 CAVOK 26/11 Q1017 NOSIG=
201006051250 METAR COR EGLL 051250Z 17007KT 090V260 CAVOK 27/10 Q1017
                        NOSIG=
201006051220 METAR COR EGLL 051220Z VRB04KT CAVOK 27/10 Q1017 NOSIG=
201006051150 METAR EGLL 051150Z 21007KT 110V280 CAVOK 26/09 Q1018=
201006051120 METAR COR EGLL 051120Z VRB03KT CAVOK 26/09 Q1018 NOSIG=
201006051050 METAR COR EGLL 051050Z 17005KT 100V280 CAVOK 25/08 Q1018
                        NOSIG=
201006051020 METAR COR EGLL 051020Z VRB03KT CAVOK 25/08 Q1018 NOSIG=
201006050950 METAR COR EGLL 050950Z VRB04KT CAVOK 24/09 Q1018 NOSIG=
201006050920 METAR COR EGLL 050920Z 08004KT 030V160 CAVOK 24/10 Q1019
                        NOSIG=
201006050850 METAR COR EGLL 050850Z 08004KT 020V140 CAVOK 22/11 Q1019
                        NOSIG=
201006050820 METAR COR EGLL 050820Z 05004KT 010V090 CAVOK 21/11 Q1019
                        NOSIG=
201006050750 METAR COR EGLL 050750Z 08004KT 020V120 CAVOK 20/11 Q1019
                        NOSIG=
201006050720 METAR COR EGLL 050720Z VRB03KT CAVOK 19/11 Q1019 NOSIG=
201006050650 METAR COR EGLL 050650Z VRB02KT CAVOK 18/11 Q1019 NOSIG=
201006050620 METAR COR EGLL 050620Z VRB03KT CAVOK 17/11 Q1019 NOSIG=
201006050550 METAR COR EGLL 050550Z VRB02KT CAVOK 16/12 Q1020 NOSIG=
201006050520 METAR COR EGLL 050520Z 08003KT CAVOK 16/11 Q1020 NOSIG=
201006050450 METAR COR EGLL 050450Z 06002KT CAVOK 14/11 Q1020 NOSIG=
201006050420 METAR COR EGLL 050420Z 07003KT CAVOK 14/11 Q1020 NOSIG=
201006050350 METAR COR EGLL 050350Z 07003KT CAVOK 13/10 Q1020 NOSIG=
201006050320 METAR COR EGLL 050320Z 04003KT CAVOK 14/09 Q1020 NOSIG=
201006050250 METAR COR EGLL 050250Z 34002KT CAVOK 14/09 Q1020 NOSIG=
201006050220 METAR COR EGLL 050220Z 34002KT CAVOK 14/09 Q1020 NOSIG=
201006050150 METAR COR EGLL 050150Z 00000KT CAVOK 14/09 Q1020 NOSIG=
201006050120 METAR COR EGLL 050120Z 18002KT CAVOK 15/10 Q1020 NOSIG=
201006050050 METAR COR EGLL 050050Z 12002KT CAVOK 15/10 Q1020 NOSIG=
201006050020 METAR COR EGLL 050020Z 12002KT CAVOK 15/10 Q1020 NOSIG=
201006042350 METAR COR EGLL 042350Z 14003KT CAVOK 15/10 Q1020 NOSIG=
201006042320 METAR COR EGLL 042320Z 17002KT CAVOK 17/10 Q1020 NOSIG=
201006042250 METAR COR EGLL 042250Z 16004KT CAVOK 18/10 Q1020 NOSIG=
201006042220 METAR COR EGLL 042220Z 14004KT CAVOK 17/09 Q1020 NOSIG=
201006042150 METAR EGLL 042150Z 14005KT 100V200 CAVOK 20/09 Q1020=
201006042120 METAR COR EGLL 042120Z 17005KT 120V230 CAVOK 20/09 Q1020
                        NOSIG=
201006042050 METAR COR EGLL 042050Z 18007KT 150V260 CAVOK 21/09 Q1020
                        NOSIG=
201006042020 METAR COR EGLL 042020Z 18007KT 140V220 CAVOK 21/08 Q1020
                        NOSIG=
201006041950 METAR COR EGLL 041950Z 19009KT 160V230 CAVOK 22/09 Q1020
                        NOSIG=
201006041920 METAR COR EGLL 041920Z 18009KT 150V220 CAVOK 23/09 Q1019
                        NOSIG=
201006041850 METAR COR EGLL 041850Z 19009KT 130V240 CAVOK 24/09 Q1019
                        NOSIG=
201006041820 METAR COR EGLL 041820Z 20010KT CAVOK 25/09 Q1019 NOSIG=
201006041750 METAR COR EGLL 041750Z 14009KT 100V190 CAVOK 26/09 Q1019
                        NOSIG=
201006041720 METAR COR EGLL 041720Z 10008KT CAVOK 25/11 Q1019 NOSIG=
201006041650 METAR COR EGLL 041650Z 11008KT 080V170 CAVOK 26/09 Q1019
                        NOSIG=
201006041620 METAR COR EGLL 041620Z 17005KT 120V240 CAVOK 27/08 Q1019
                        NOSIG=
201006041550 METAR COR EGLL 041550Z 13006KT 040V200 CAVOK 27/09 Q1019
                        NOSIG=
201006041520 METAR COR EGLL 041520Z 14007KT 090V180 CAVOK 28/08 Q1019
                        NOSIG=
201006041450 METAR COR EGLL 041450Z 14006KT 080V230 CAVOK 27/08 Q1019
                        NOSIG=
201006041420 METAR COR EGLL 041420Z 17005KT 090V250 CAVOK 27/07 Q1019
                        NOSIG=
201006041350 METAR COR EGLL 041350Z 17007KT 120V220 CAVOK 27/07 Q1019
                        NOSIG=
201006041320 METAR COR EGLL 041320Z 16005KT 080V250 CAVOK 26/08 Q1019
                        NOSIG=
201006041250 METAR COR EGLL 041250Z 21005KT 150V280 CAVOK 26/09 Q1020
                        NOSIG=
201006041220 METAR COR EGLL 041220Z 22005KT 140V280 CAVOK 26/08 Q1020
                        NOSIG=
201006041150 METAR COR EGLL 041150Z 13004KT 010V180 CAVOK 25/08 Q1020
                        NOSIG=
201006041120 METAR COR EGLL 041120Z VRB05KT CAVOK 25/08 Q1020 NOSIG=
201006041050 METAR COR EGLL 041050Z 10005KT 010V160 CAVOK 24/12 Q1020
                        NOSIG=
201006041020 METAR COR EGLL 041020Z VRB03KT CAVOK 23/11 Q1020 NOSIG=
201006040950 METAR COR EGLL 040950Z 09005KT 010V170 CAVOK 22/11 Q1020
                        NOSIG=
201006040920 METAR COR EGLL 040920Z VRB04KT CAVOK 21/11 Q1021 NOSIG=
201006040850 METAR COR EGLL 040850Z 11004KT 070V160 CAVOK 20/11 Q1021
                        NOSIG=
201006040820 METAR COR EGLL 040820Z VRB03KT CAVOK 19/11 Q1021 NOSIG=
201006040750 METAR COR EGLL 040750Z 08005KT CAVOK 17/11 Q1021 NOSIG=
201006040720 METAR COR EGLL 040720Z 10004KT 060V140 CAVOK 16/11 Q1021
                        NOSIG=
201006040650 METAR COR EGLL 040650Z 09005KT CAVOK 15/11 Q1021 NOSIG=
201006040620 METAR COR EGLL 040620Z 07005KT CAVOK 14/10 Q1021 NOSIG=
201006040550 METAR COR EGLL 040550Z 06004KT 030V100 CAVOK 13/09 Q1021
                        NOSIG=
201006040520 METAR COR EGLL 040520Z VRB03KT CAVOK 12/08 Q1021 NOSIG=
201006040450 METAR COR EGLL 040450Z 04004KT CAVOK 11/08 Q1021 NOSIG=
201006040420 METAR COR EGLL 040420Z 03003KT CAVOK 11/08 Q1021 NOSIG=
201006040350 METAR COR EGLL 040350Z 03002KT CAVOK 11/08 Q1020 NOSIG=
201006040320 METAR COR EGLL 040320Z VRB03KT CAVOK 11/08 Q1020 NOSIG=
201006040250 METAR COR EGLL 040250Z 07003KT CAVOK 10/08 Q1021 NOSIG=
201006040220 METAR COR EGLL 040220Z VRB03KT CAVOK 11/08 Q1021 NOSIG=
201006040150 METAR COR EGLL 040150Z 09006KT CAVOK 11/08 Q1021 NOSIG=
201006040120 METAR COR EGLL 040120Z 09005KT CAVOK 11/08 Q1021 NOSIG=
201006040050 METAR COR EGLL 040050Z 09009KT CAVOK 12/08 Q1021 NOSIG=
201006040020 METAR COR EGLL 040020Z 09009KT 060V130 CAVOK 11/08 Q1021
                        NOSIG=
201006032350 METAR COR EGLL 032350Z 08008KT CAVOK 13/07 Q1021 NOSIG=
201006032320 METAR COR EGLL 032320Z 08008KT CAVOK 12/07 Q1021 NOSIG=
201006032250 METAR COR EGLL 032250Z 09004KT CAVOK 12/06 Q1021 NOSIG=
201006032220 METAR COR EGLL 032220Z 07005KT CAVOK 14/06 Q1021 NOSIG=
201006032150 METAR COR EGLL 032150Z 08008KT CAVOK 15/06 Q1021 NOSIG=
201006032120 METAR COR EGLL 032120Z 09005KT CAVOK 14/05 Q1021 NOSIG=
201006032050 METAR COR EGLL 032050Z 08007KT CAVOK 14/03 Q1021 NOSIG=
201006032020 METAR COR EGLL 032020Z 09010KT CAVOK 16/02 Q1021 NOSIG=
201006031950 METAR COR EGLL 031950Z 09009KT CAVOK 17/04 Q1021 NOSIG=
201006031920 METAR COR EGLL 031920Z 10010KT CAVOK 18/04 Q1021 NOSIG=
201006031850 METAR COR EGLL 031850Z 09011KT CAVOK 18/04 Q1021 NOSIG=
201006031820 METAR COR EGLL 031820Z 09012KT CAVOK 19/03 Q1021 NOSIG=
201006031750 METAR COR EGLL 031750Z 10013KT CAVOK 20/03 Q1021 NOSIG=
201006031720 METAR COR EGLL 031720Z 10011KT 060V130 CAVOK 21/02 Q1021
                        NOSIG=
201006031650 METAR COR EGLL 031650Z 08013KT CAVOK 21/01 Q1021 NOSIG=
201006031620 METAR COR EGLL 031620Z 08013KT 9999 5000SE FU NSC 22/02 Q1021
                        NOSIG=
201006031550 METAR EGLL 031550Z NIL=
201006031520 METAR COR EGLL 031520Z 09012KT 070V130 CAVOK 22/03 Q1022
                        NOSIG=
201006031450 METAR EGLL 031450Z 09012KT 050V130 CAVOK 22/03 Q1022=
201006031420 METAR COR EGLL 031420Z 09013KT 060V140 CAVOK 23/04 Q1022
                        NOSIG=
201006031350 METAR COR EGLL 031350Z 08011KT CAVOK 23/05 Q1022 NOSIG=
201006031320 METAR COR EGLL 031320Z 07011KT 040V110 CAVOK 23/05 Q1022
                        NOSIG=
201006031250 METAR COR EGLL 031250Z 11012KT 070V140 CAVOK 23/05 Q1022
                        NOSIG=
201006031220 METAR COR EGLL 031220Z 11009KT 080V150 CAVOK 23/05 Q1022
                        NOSIG=
201006031150 METAR COR EGLL 031150Z 10009KT 070V140 CAVOK 23/05 Q1022
                        NOSIG=
201006031120 METAR COR EGLL 031120Z 11009KT 060V150 CAVOK 22/05 Q1023
                        NOSIG=
201006031050 METAR COR EGLL 031050Z 09008KT 020V140 CAVOK 21/04 Q1023
                        NOSIG=
201006031020 METAR COR EGLL 031020Z 06007KT 360V130 CAVOK 20/04 Q1023
                        NOSIG=
201006030950 METAR COR EGLL 030950Z 06008KT 040V110 CAVOK 20/05 Q1023
                        NOSIG=
201006030920 METAR COR EGLL 030920Z 08008KT 050V110 CAVOK 19/05 Q1024
                        NOSIG=
201006030850 METAR COR EGLL 030850Z 11008KT CAVOK 19/06 Q1024 NOSIG=
201006030820 METAR COR EGLL 030820Z 09006KT 040V150 CAVOK 18/07 Q1024
                        NOSIG=
201006030750 METAR COR EGLL 030750Z 08004KT 040V150 CAVOK 17/07 Q1024
                        NOSIG=
201006030720 METAR COR EGLL 030720Z 10004KT 070V160 CAVOK 16/07 Q1024
                        NOSIG=
201006030650 METAR COR EGLL 030650Z 06005KT 010V110 CAVOK 15/07 Q1024
                        NOSIG=
201006030620 METAR COR EGLL 030620Z 08006KT CAVOK 14/07 Q1024 NOSIG=
201006030550 METAR COR EGLL 030550Z 08005KT CAVOK 13/08 Q1024 NOSIG=
201006030520 METAR COR EGLL 030520Z 07003KT 9000 NSC 12/08 Q1024 NOSIG=
201006030450 METAR COR EGLL 030450Z VRB02KT CAVOK 11/08 Q1024 NOSIG=
201006030420 METAR COR EGLL 030420Z 00000KT CAVOK 11/08 Q1023 NOSIG=
201006030350 METAR COR EGLL 030350Z 00000KT CAVOK 11/08 Q1023 NOSIG=
201006030320 METAR COR EGLL 030320Z 36002KT CAVOK 11/08 Q1023 NOSIG=
201006030250 METAR COR EGLL 030250Z 00000KT CAVOK 11/07 Q1023 NOSIG=
201006030220 METAR COR EGLL 030220Z 00000KT CAVOK 12/07 Q1023 NOSIG=
201006030150 METAR COR EGLL 030150Z 03002KT CAVOK 12/07 Q1023 NOSIG=
201006030120 METAR COR EGLL 030120Z 07002KT CAVOK 13/06 Q1023 NOSIG=
201006030050 METAR COR EGLL 030050Z 06003KT CAVOK 13/06 Q1024 NOSIG=
201006030020 METAR COR EGLL 030020Z 07004KT CAVOK 12/06 Q1024 NOSIG=
201006022350 METAR EGLL 022350Z NIL=
201006022320 METAR COR EGLL 022320Z 10005KT CAVOK 13/07 Q1024 NOSIG=
201006022250 METAR COR EGLL 022250Z 09007KT CAVOK 14/08 Q1024 NOSIG=
201006022220 METAR COR EGLL 022220Z 09007KT CAVOK 14/09 Q1024 NOSIG=
201006022150 METAR COR EGLL 022150Z 09008KT CAVOK 15/10 Q1023 NOSIG=
201006022120 METAR COR EGLL 022120Z 09009KT CAVOK 16/10 Q1023 NOSIG=
201006022050 METAR COR EGLL 022050Z 09007KT CAVOK 17/10 Q1023 NOSIG=
201006022020 METAR COR EGLL 022020Z 05005KT CAVOK 18/08 Q1023 NOSIG=
201006021950 METAR COR EGLL 021950Z 05005KT CAVOK 19/08 Q1022 NOSIG=
201006021920 METAR COR EGLL 021920Z 05004KT 010V080 CAVOK 20/08 Q1022
                        NOSIG=
201006021850 METAR COR EGLL 021850Z 06005KT CAVOK 21/08 Q1022 NOSIG=
201006021820 METAR COR EGLL 021820Z 04004KT 010V080 CAVOK 21/08 Q1022
                        NOSIG=
201006021750 METAR COR EGLL 021750Z VRB04KT CAVOK 21/07 Q1022 NOSIG=
201006021720 METAR COR EGLL 021720Z 35005KT 280V050 CAVOK 21/08 Q1022
                        NOSIG=
201006021650 METAR COR EGLL 021650Z 31005KT 270V020 CAVOK 21/07 Q1022
                        NOSIG=
201006021620 METAR COR EGLL 021620Z VRB03KT CAVOK 21/08 Q1022 NOSIG=
201006021550 METAR COR EGLL 021550Z 03005KT 330V090 CAVOK 21/08 Q1022
                        NOSIG=
201006021520 METAR COR EGLL 021520Z 06004KT 360V100 CAVOK 23/07 Q1022
                        NOSIG=
201006021450 METAR COR EGLL 021450Z 08005KT 350V140 CAVOK 22/06 Q1022
                        NOSIG=
201006021420 METAR COR EGLL 021420Z VRB04KT CAVOK 22/06 Q1022 NOSIG=
201006021350 METAR COR EGLL 021350Z VRB05KT CAVOK 21/06 Q1022 NOSIG=
201006021320 METAR COR EGLL 021320Z 07004KT 340V140 CAVOK 21/07 Q1022
                        NOSIG=
201006021250 METAR COR EGLL 021250Z VRB04KT CAVOK 21/08 Q1022 NOSIG=
201006021220 METAR COR EGLL 021220Z 33005KT 260V020 CAVOK 20/07 Q1023
                        NOSIG=
201006021150 METAR COR EGLL 021150Z 01004KT 300V090 9999 FEW049 20/07
                        Q1023 NOSIG=
201006021120 METAR COR EGLL 021120Z VRB05KT 9999 FEW048 19/07 Q1023 NOSIG=
201006021050 METAR COR EGLL 021050Z 02006KT 320V070 9999 FEW044 18/07
                        Q1023 NOSIG=
201006021020 METAR COR EGLL 021020Z 01005KT 290V080 9999 FEW040 18/08
                        Q1022 NOSIG=
201006020950 METAR COR EGLL 020950Z 36005KT 320V050 9999 FEW036 17/08
                        Q1022 NOSIG=
201006020920 METAR COR EGLL 020920Z 06006KT 020V100 9999 FEW028 16/08
                        Q1022 NOSIG=
201006020850 METAR COR EGLL 020850Z 02004KT 280V080 9999 FEW028 15/08
                        Q1022 NOSIG=
201006020820 METAR COR EGLL 020820Z 03006KT 350V070 9999 FEW024 15/09
                        Q1022 NOSIG=
201006020750 METAR COR EGLL 020750Z 02006KT 340V060 9999 FEW020 14/08
                        Q1022 NOSIG=
201006020720 METAR COR EGLL 020720Z 35005KT 300V030 9999 FEW013 14/09
                        Q1022 NOSIG=
201006020650 METAR COR EGLL 020650Z 02004KT 320V050 8000 FEW016 13/09
                        Q1021 NOSIG=
201006020620 METAR COR EGLL 020620Z 36004KT 320V020 6000 FEW016 12/10
                        Q1021 NOSIG=
201006020550 METAR COR EGLL 020550Z 34003KT 4000 HZ NSC 12/10 Q1021 BECMG
                        7000 NSW=
201006020520 METAR COR EGLL 020520Z 35003KT 3300 HZ FEW010 11/10 Q1021
                        BECMG 6000 NSW=
201006020450 METAR COR EGLL 020450Z 35002KT 3400 R09R/1300 HZ NSC 11/10
                        Q1020 BECMG 6000 NSW=
201006020420 METAR COR EGLL 020420Z VRB02KT 3000 HZ FEW004 10/09 Q1020
                        TEMPO BKN004=
201006020350 METAR COR EGLL 020350Z VRB03KT 3500 HZ SCT004 11/10 Q1020
                        TEMPO BKN004=
201006020320 METAR COR EGLL 020320Z VRB03KT 3400 BR SCT004 SCT023 11/10
                        Q1020 TEMPO BKN004=
201006020250 METAR COR EGLL 020250Z 35004KT 310V010 2300 HZ SCT003 SCT007
                        11/10 Q1020 TEMPO BKN003=
201006020220 METAR COR EGLL 020220Z 32003KT 2900 HZ BKN004 11/10 Q1020
                        TEMPO SCT004=
201006020150 METAR COR EGLL 020150Z 31004KT 2500 HZ SCT006 11/10 Q1019
                        TEMPO BKN005=
201006020120 METAR COR EGLL 020120Z 01002KT 2800 HZ SCT020 11/10 Q1019
                        TEMPO BKN008=
201006020050 METAR COR EGLL 020050Z 00000KT 2700 HZ SCT010 BKN020 12/11
                        Q1019 TEMPO BKN004=
201006020020 METAR COR EGLL 020020Z VRB03KT 3100 HZ SCT004 BKN010 11/10
                        Q1019 TEMPO 2500 BKN003=
201006012350 METAR COR EGLL 012350Z VRB03KT 3000 HZ FEW004 SCT009 BKN036
                        12/11 Q1019 TEMPO BKN003=
201006012320 METAR COR EGLL 012320Z VRB03KT 3700 HZ FEW004 BKN025 BKN042
                        12/11 Q1019 TEMPO BKN003=
201006012250 METAR COR EGLL 012250Z VRB02KT 3700 HZ SCT003 SCT007 BKN021
                        12/11 Q1019 TEMPO SCT003=
201006012220 METAR COR EGLL 012220Z VRB03KT 3000 -RA SCT003 BKN014 12/11
                        Q1019 TEMPO BKN003=
201006012150 METAR COR EGLL 012150Z 09003KT 4000 -RA FEW004 SCT007 BKN012
                        12/11 Q1019 TEMPO BKN007=
201006012120 METAR COR EGLL 012120Z 09004KT 7000 -RA SCT007 SCT012 BKN020
                        12/11 Q1018 TEMPO BKN007=
201006012050 METAR COR EGLL 012050Z 10004KT 9999 SCT007 SCT013 BKN018
                        13/11 Q1018 TEMPO BKN007=
201006012020 METAR COR EGLL 012020Z 09003KT 9999 SCT009 SCT020 BKN030
                        13/11 Q1017 TEMPO BKN008=
201006011950 METAR COR EGLL 011950Z 08004KT 040V110 8000 SCT008 BKN021
                        13/11 Q1017 TEMPO BKN008=
201006011920 METAR COR EGLL 011920Z 10002KT 8000 SCT013 SCT040 13/11 Q1017
                        TEMPO BKN012=
201006011850 METAR COR EGLL 011850Z 10004KT 7000 FEW007 SCT014 BKN040
                        13/11 Q1017 TEMPO BKN014=
201006011820 METAR COR EGLL 011820Z 06005KT 040V100 8000 FEW007 SCT014
                        BKN034 13/11 Q1016 BECMG BKN014=
201006011750 METAR COR EGLL 011750Z 04005KT 9000 FEW008 BKN042 13/11 Q1016
                        BECMG BKN012=
201006011720 METAR COR EGLL 011720Z 04004KT 360V080 9000 FEW010 BKN045
                        13/11 Q1016 BECMG BKN012=
201006011650 METAR COR EGLL 011650Z 07005KT 9999 FEW012 OVC044 13/11 Q1016
                        TEMPO BKN012=
201006011620 METAR COR EGLL 011620Z 10006KT 9999 FEW012 BKN049 14/11 Q1015
                        TEMPO BKN012=
201006011550 METAR COR EGLL 011550Z 09005KT 9999 FEW012 SCT032 13/11 Q1015
                        TEMPO BKN012=
201006011520 METAR COR EGLL 011520Z 10004KT 9999 BKN021 14/11 Q1015 TEMPO
                        BKN012=
201006011450 METAR COR EGLL 011450Z VRB03KT 9999 SCT012 BKN030 14/10 Q1015
                        TEMPO BKN012=
201006011420 METAR COR EGLL 011420Z 15005KT 120V180 9000 -RA SCT018 SCT041
                        14/10 Q1015 TEMPO BKN012=
201006011350 METAR COR EGLL 011350Z 15005KT 120V190 7000 -RADZ SCT018
                        SCT024 14/10 Q1015 TEMPO BKN012=
201006011320 METAR COR EGLL 011320Z 09005KT 9999 BKN012 14/11 Q1015 TEMPO
                        SCT012=
201006011250 METAR COR EGLL 011250Z 12006KT 080V150 9999 SCT012 14/11
                        Q1015 TEMPO BKN012=
201006011220 METAR COR EGLL 011220Z 13007KT 070V210 9999 SCT013 14/11
                        Q1015 BECMG BKN012=
201006011150 METAR COR EGLL 011150Z VRB05KT 9999 FEW008 SCT012 13/11 Q1015
                        BECMG BKN012=
201006011120 METAR COR EGLL 011120Z 13006KT 030V210 9999 -RA SCT010 13/11
                        Q1015 BECMG BKN010=
201006011050 METAR COR EGLL 011050Z 15007KT 110V210 9000 -RA FEW025 SCT040
                        13/11 Q1015 BECMG BKN012=
201006011020 METAR COR EGLL 011020Z 17006KT 140V240 9999 -RA FEW029 SCT037
                        13/11 Q1016 BECMG RA BKN012=
201006010950 METAR COR EGLL 010950Z 18007KT 140V260 9999 -RA FEW039 BKN047
                        13/11 Q1016 BECMG RA BKN012=
201006010920 METAR COR EGLL 010920Z 17005KT 120V220 9999 -RA FEW037 13/10
                        Q1016 BECMG RA BKN012=
201006010850 METAR COR EGLL 010850Z 18005KT 140V240 9999 -RA FEW043 13/10
                        Q1016 BECMG RA BKN014=
201006010820 METAR COR EGLL 010820Z 17005KT 9999 SCT040 13/09 Q1016 NOSIG=
201006010750 METAR COR EGLL 010750Z 17005KT 9999 SCT039 13/10 Q1016 NOSIG=
201006010720 METAR COR EGLL 010720Z 16005KT 9999 SCT037 13/10 Q1016 NOSIG=
201006010650 METAR COR EGLL 010650Z 17005KT 9999 SCT038 13/10 Q1016 NOSIG=
201006010620 METAR COR EGLL 010620Z 16005KT 9999 BKN039 13/10 Q1016 NOSIG=
201006010550 METAR COR EGLL 010550Z 17004KT 9999 SCT040 12/10 Q1017 NOSIG=
201006010520 METAR COR EGLL 010520Z 15004KT 9000 FEW040 12/10 Q1017 NOSIG=
201006010450 METAR EGLL 010450Z 15004KT 9000 NSC 12/09 Q1017=
201006010420 METAR COR EGLL 010420Z 14004KT 9000 NSC 12/09 Q1017 NOSIG=
201006010350 METAR COR EGLL 010350Z 12005KT 9000 NSC 12/09 Q1017 NOSIG=
201006010320 METAR COR EGLL 010320Z 12004KT CAVOK 12/10 Q1018 NOSIG=
201006010250 METAR COR EGLL 010250Z 12005KT 9999 SCT039 12/10 Q1018 NOSIG=
201006010220 METAR COR EGLL 010220Z 13004KT 9999 FEW027 SCT041 13/10 Q1019
                        NOSIG=
201006010150 METAR COR EGLL 010150Z 11004KT 9999 FEW028 SCT042 13/10 Q1019
                        NOSIG=
201006010120 METAR COR EGLL 010120Z 11006KT 9999 FEW030 SCT040 13/10 Q1018
                        NOSIG=
201006010050 METAR COR EGLL 010050Z 11005KT 9999 BKN030 BKN040 14/10 Q1019
                        NOSIG=
201006010020 METAR COR EGLL 010020Z 12005KT 9999 SCT026 14/10 Q1019 NOSIG=

# No short TAF reports from EGLL in databse.

###################################
#  large TAF from EGLL
###################################
201007012300 TAF EGLL 012300Z 0200/0306 16008KT 9999 SCT040
                      BECMG 0206/0209 22010KT
                      PROB30 TEMPO 0209/0213 8000 SHRA
                      BECMG 0300/0303 29005KT=
201007011700 TAF EGLL 011700Z 0118/0224 21012KT 9999 FEW045
                      BECMG 0118/0121 15006KT
                      PROB30 0202/0206 7000
                      BECMG 0207/0210 22010KT=
201007011100 TAF EGLL 011100Z 0112/0218 21012KT 9999 FEW045
                      BECMG 0118/0121 15006KT
                      PROB30 0202/0206 7000
                      BECMG 0207/0210 22012KT=
201007010502 TAF EGLL 010502Z 0106/0212 18007KT 9999 FEW045
                      PROB30 0200/0206 7000=
201006302303 TAF EGLL 302303Z 0100/0206 19007KT 9999 FEW045
                      PROB30 TEMPO 0116/0121 7000 -SHRA
                      PROB40 0121/0206 6000=
201006301702 TAF EGLL 301702Z 3018/0124 23010KT 9999 SCT045
                      PROB30 0103/0107 8000
                      BECMG 0118/0121 16007KT=
201006301057 TAF EGLL 301057Z 3012/0118 24010KT 9999 SCT035
                      PROB30 0103/0107 8000
                      BECMG 0106/0109 16007KT
                      BECMG 0110/0113 25012KT=
201006300459 TAF EGLL 300459Z 3006/0112 25007KT 9999 SCT040
                      PROB30 3006/3007 9000
                      PROB40 0100/0106 8000 BKN009
                      BECMG 0106/0109 18010KT=
201006292301 TAF EGLL 292301Z 3000/0106 26007KT 9999 FEW040
                      PROB30 3000/3007 9000
                      PROB40 0100/0106 8000
                      BECMG 0103/0106 18010KT=
201006291701 TAF EGLL 291701Z 2918/3024 25007KT 9999 FEW040
                      PROB30 3000/3007 9000=
201006291058 TAF EGLL 291058Z 2912/3018 26010KT 9999 SCT035
                      PROB40 TEMPO 2912/2918 6000 SHRA
                      PROB30 3000/3007 8000=
201006290955 TAF AMD EGLL 290955Z 2909/3012 24007KT 9999 BKN014
                      BECMG 2909/2911 SCT025
                      PROB40 TEMPO 2912/2918 7000 SHRA
                      PROB30 3000/3007 8000=
201006290502 TAF EGLL 290502Z 2906/3012 24007KT 9999 FEW045
                      PROB30 TEMPO 2906/2909 6000 SHRA BKN012
                      PROB30 TEMPO 2912/2918 7000 -SHRA
                      PROB30 3000/3007 8000=
201006282259 TAF EGLL 282259Z 2900/3006 27008KT 9999 FEW045
                      TEMPO 2906/2910 5000 SHRA BKN012
                      PROB30 3000/3006 8000=
201006281700 TAF EGLL 281700Z 2818/2924 26008KT 9999 FEW045=
201006281102 TAF EGLL 281102Z 2812/2918 26008KT 9999 FEW045=
201006280500 TAF EGLL 280500Z 2806/2912 27008KT CAVOK
                      TEMPO 2902/2910 BKN040
                      PROB30 TEMPO 2910/2912 7000 SHRA BKN020=
201006272300 TAF EGLL 272300Z 2800/2906 27008KT CAVOK
                      BECMG 2902/2905 BKN040=
201006271659 TAF EGLL 271659Z 2718/2824 27008KT 9999 FEW045=
201006271101 TAF EGLL 271101Z 2712/2818 22006KT 9999 FEW045
                      BECMG 2721/2724 30010KT=
201006270458 TAF EGLL 270458Z 2706/2812 VRB04KT 7000 FEW045
                      BECMG 2706/2708 9999
                      BECMG 2709/2712 22010KT
                      BECMG 2718/2721 30008KT=
201006262257 TAF EGLL 262257Z 2700/2806 13007KT 9999 FEW045
                      PROB40 2700/2708 6000
                      BECMG 2709/2712 22010KT
                      BECMG 2718/2721 30008KT=
201006261701 TAF EGLL 261701Z 2618/2724 11010KT 9999 FEW045
                      TEMPO 2700/2708 6000
                      BECMG 2709/2712 22008KT
                      BECMG 2718/2721 30010KT=
201006261059 TAF EGLL 261059Z 2612/2718 11010KT 9999 FEW045
                      BECMG 2700/2703 VRB04KT
                      TEMPO 2700/2708 6000
                      BECMG 2710/2713 23010KT=
201006260459 TAF EGLL 260459Z 2606/2712 10007KT 6000 FEW045
                      BECMG 2606/2608 9999
                      TEMPO 2700/2708 6000=
201006260207 TAF AMD EGLL 260207Z 2602/2706 10007KT 9999 FEW045
                      TEMPO 2602/2607 7000=
201006252300 TAF AMD EGLL 260207Z 2602/2706 10007KT 9999 FEW045
                      TEMPO 2602/2607 7000=
201006252258 TAF EGLL 252258Z 2600/2706 10007KT 9999 FEW045=
201006251722 TAF EGLL 251722Z 2518/2624 VRB05KT 9999 FEW045=
201006251700 TAF EGLL 251700Z NIL=
201006251055 TAF EGLL 251055Z 2512/2618 VRB05KT 9999 FEW045=
201006250502 TAF EGLL 250502Z 2506/2612 34005KT 9999 FEW045
                      PROB30 2603/2607 8000=
201006242301 TAF EGLL 242301Z 2500/2606 30005KT 9999 FEW045
                      PROB30 2603/2606 8000=
201006241653 TAF EGLL 241653Z 2418/2524 VRB05KT 9999 FEW045=
201006241053 TAF EGLL 241053Z 2412/2518 30005KT 9999 SCT045=
201006240503 TAF EGLL 240503Z 2406/2512 28007KT 9999 SCT045=
201006232302 TAF EGLL 232302Z 2400/2506 29007KT 9999 FEW045=
201006231659 TAF EGLL 231659Z 2318/2424 28007KT 9999 FEW045=
201006231058 TAF EGLL 231058Z 2312/2418 27006KT 9999 FEW045=
201006230501 TAF EGLL 230501Z 2306/2412 27006KT 9999 FEW045=
201006222257 TAF EGLL 222257Z 2300/2406 28007KT 9999 FEW045=
201006221700 TAF EGLL 221700Z 2218/2324 28007KT 9999 FEW045
                      PROB30 2304/2307 8000=
201006221100 TAF EGLL 221100Z 2212/2318 25008KT 9999 FEW045
                      PROB30 2304/2307 8000=
201006220501 TAF EGLL 220501Z 2206/2312 25004KT 9999 FEW045
                      PROB30 2206/2207 8000
                      PROB30 2302/2308 7000=
201006212259 TAF EGLL 212259Z 2200/2306 14006KT 9999 FEW045
                      PROB30 2203/2207 8000
                      BECMG 2204/2207 23010KT
                      PROB30 2302/2306 7000=
201006211700 TAF EGLL 211700Z 2118/2224 VRB05KT 9999 SCT045
                      PROB30 2203/2207 8000=
201006211101 TAF EGLL 211101Z 2112/2218 VRB05KT 9999 FEW045
                      PROB30 2203/2207 8000=
201006210456 TAF EGLL 210456Z 2106/2212 VRB05KT 9999 FEW045
                      PROB40 2202/2207 7000=
201006202257 TAF EGLL 202257Z 2100/2206 VRB05KT 9999 FEW045
                      PROB40 2202/2206 7000=
201006201656 TAF EGLL 201656Z 2018/2124 34005KT 9999 FEW045=
201006201057 TAF EGLL 201057Z 2012/2118 35007KT 9999 SCT045=
201006200456 TAF EGLL 200456Z 2006/2112 33008KT 9999 SCT045=
201006192256 TAF EGLL 192256Z 2000/2106 35010KT 9999 SCT045
                      BECMG 2018/2021 VRB04KT=
201006191657 TAF EGLL 191657Z 1918/2024 36010KT 9999 SCT040
                      BECMG 2018/2021 VRB04KT=
201006191057 TAF EGLL 191057Z 1912/2018 36012KT 9999 SCT030
                      PROB30 TEMPO 1912/1918 36015G25KT 8000 SHRA=
201006190501 TAF EGLL 190501Z 1906/2012 30005KT 9999 SCT030
                      BECMG 1906/1909 36012KT
                      TEMPO 1909/1919 36015G25KT
                      PROB30 TEMPO 1910/1919 8000 SHRA=
201006182303 TAF EGLL 182303Z 1900/2006 04005KT 9999 SCT030
                      BECMG 1901/1904 34010KT
                      TEMPO 1909/1919 36015G25KT
                      PROB30 TEMPO 1910/1919 8000 SHRA=
201006181659 TAF EGLL 181659Z 1818/1924 04010KT 9999 FEW020 SCT030
                      TEMPO 1818/1822 7000 SHRA BKN012
                      BECMG 1901/1904 34012KT
                      TEMPO 1909/1918 36015G25KT=
201006181057 TAF EGLL 181057Z 1812/1918 02010KT 9999 SCT022
                      TEMPO 1817/1823 7000 SHRA BKN014
                      TEMPO 1909/1918 36015G25KT=
201006180656 TAF AMD EGLL 180656Z 1806/1912 02008KT 9999 BKN009
                      BECMG 1807/1810 SCT025
                      PROB30 TEMPO 1817/1821 7000 RA SHRA
                      PROB40 TEMPO 1909/1912 01015G25KT=
201006180502 TAF EGLL 180502Z 1806/1912 02008KT 9000 BKN012
                      BECMG 1806/1807 9999
                      BECMG 1807/1810 SCT025
                      PROB30 TEMPO 1817/1821 7000 RA SHRA
                      PROB40 TEMPO 1909/1912 01015G25KT=
201006172301 TAF EGLL 172301Z 1800/1906 02008KT CAVOK
                      BECMG 1801/1803 BKN012
                      PROB30 TEMPO 1803/1807 7000 BKN008
                      BECMG 1807/1810 SCT025
                      PROB30 TEMPO 1816/1820 7000 RA SHRA=
201006172218 TAF AMD EGLL 172218Z 1722/1824 04008KT CAVOK
                      TEMPO 1802/1809 BKN012
                      TEMPO 1809/1824 BKN030=
201006171708 TAF EGLL 171708Z 1718/1824 04008KT CAVOK
                      PROB40 1805/1809 BKN012
                      TEMPO 1809/1824 BKN030=
201006171052 TAF EGLL 171052Z 1712/1818 04008KT CAVOK
                      PROB30 1804/1808 BKN010=
201006170504 TAF EGLL 170504Z 1706/1812 03009KT 9999 FEW035
                      PROB30 1802/1807 9000 BKN009=
201006162258 TAF EGLL 162258Z 1700/1806 04008KT 9999 FEW040
                      PROB30 TEMPO 1703/1707 BKN012
                      PROB30 1802/1806 BKN011=
201006161703 TAF EGLL 161703Z 1618/1724 04008KT 9999 FEW045
                      PROB30 TEMPO 1702/1707 BKN012=
201006161058 TAF EGLL 161058Z 1612/1718 04010KT 9999 FEW045
                      PROB30 TEMPO 1612/1618 04015G25KT
                      PROB30 TEMPO 1702/1707 BKN010=
201006160455 TAF EGLL 160455Z 1606/1712 03009KT 9999 SCT035
                      PROB30 TEMPO 1610/1618 05015G25KT=
201006152256 TAF EGLL 152256Z 1600/1706 04008KT 9999 SCT035
                      PROB30 TEMPO 1610/1618 05015G25KT=
201006151656 TAF EGLL 151656Z 1518/1624 04008KT 9999 SCT040
                      PROB30 TEMPO 1611/1618 05015G25KT=
201006151052 TAF EGLL 151052Z 1512/1618 04010KT 9999 SCT040
                      PROB30 TEMPO 1512/1519 05015G25KT
                      PROB30 TEMPO 1611/1618 05015G25KT=
201006150457 TAF EGLL 150457Z 1506/1612 02009KT 9999 SCT035
                      PROB30 TEMPO 1508/1519 05015G25KT=
201006142256 TAF EGLL 142256Z 1500/1606 03009KT 9999 SCT035
                      PROB40 1503/1506 BKN010
                      PROB30 TEMPO 1508/1519 05015G25KT=
201006141659 TAF EGLL 141659Z 1418/1524 05009KT 9999 SCT035
                      PROB30 TEMPO 1418/1420 8000 SHRA=
201006141057 TAF EGLL 141057Z 1412/1518 06013KT 9999 SCT040
                      PROB30 TEMPO 1412/1418 7000 SHRA=
201006140724 TAF AMD EGLL 140724Z 1407/1512 VRB05KT 9999 SCT035
                      TEMPO 1407/1409 BKN012
                      BECMG 1409/1412 07014KT
                      PROB30 TEMPO 1412/1418 7000 SHRA=
201006140456 TAF EGLL 140456Z 1406/1512 VRB04KT 9999 SCT035
                      PROB30 TEMPO 1406/1407 BKN010
                      BECMG 1409/1412 07014KT
                      PROB30 TEMPO 1412/1418 7000 SHRA=
201006132305 TAF EGLL 132305Z 1400/1506 VRB05KT 9999 SCT035
                      PROB40 TEMPO 1400/1403 5000 SHRA
                      PROB30 1400/1407 BKN010
                      BECMG 1408/1411 07012KT
                      PROB30 TEMPO 1412/1418 06015G25KT 7000 SHRA=
201006131707 TAF EGLL 131707Z 1318/1424 18010KT 9999 SCT040
                      PROB40 TEMPO 1320/1406 5000 SHRA BKN010 BKN020CB
                       BECMG 1405/1408 04010KT
                      TEMPO 1412/1419 04015G25KT=
201006131108 TAF EGLL 131108Z 1312/1418 20010KT 9999 SCT040
                      TEMPO 1319/1413 7000 SHRA BKN014
                      PROB40 TEMPO 1320/1407 2000 +SHRA +TSGR BKN007
                       BKN020CB
                      BECMG 1405/1408 04010KT
                      TEMPO 1412/1418 04015G25KT=
201006130457 TAF EGLL 130457Z 1306/1412 20007KT 9999 FEW045
                      TEMPO 1317/1412 7000 SHRA BKN014
                      PROB40 TEMPO 1320/1409 3000 +SHRA +TSRA BKN007CB
                       BECMG 1404/1407 04010KT=
201006122300 TAF EGLL 122300Z 1300/1406 20007KT 9999 FEW045
                      TEMPO 1318/1406 7000 SHRA BKN014
                      PROB40 TEMPO 1320/1406 3000 +SHRA +TSRA BKN008CB=
201006121658 TAF EGLL 121658Z 1218/1324 02010KT 9999 SCT040
                      BECMG 1218/1221 VRB03KT
                      BECMG 1309/1312 22010KT
                      TEMPO 1318/1324 7000 SHRA
                      PROB30 TEMPO 1320/1324 3000 +SHRA +TSRA=
201006121057 TAF EGLL 121057Z 1212/1318 36010KT 9999 SCT035
                      BECMG 1218/1221 VRB03KT
                      BECMG 1309/1312 22010KT
                      PROB30 TEMPO 1316/1318 7000 SHRA=
201006120500 TAF EGLL 120500Z 1206/1312 27005KT 9999 SCT035
                      BECMG 1206/1209 35010KT
                      BECMG 1218/1221 VRB03KT
                      BECMG 1309/1312 22010KT=
201006112300 TAF EGLL 112300Z 1200/1306 33007KT 9999 SCT030
                      PROB30 TEMPO 1205/1207 BKN014=
201006111701 TAF EGLL 111701Z 1118/1224 VRB04KT 9999 SCT025
                      BECMG 1118/1121 34010KT
                      BECMG 1218/1221 VRB03KT=
201006111057 TAF EGLL 111057Z 1112/1218 02005KT 9999 BKN012
                      BECMG 1112/1114 SCT020
                      BECMG 1115/1118 30010KT
                      BECMG 1206/1209 01012KT=
201006110701 TAF AMD EGLL 110701Z 1107/1212 01006KT 9999 BKN010
                      PROB40 TEMPO 1107/1109 6000 RA BKN008
                      BECMG 1109/1111 SCT020
                      BECMG 1115/1118 31006KT
                      PROB30 1203/1206 BKN012=
201006110508 TAF EGLL 110508Z 1106/1212 01010KT 9999 BKN005
                      TEMPO 1106/1109 6000 RA
                      BECMG 1109/1111 SCT020
                      BECMG 1115/1118 31006KT
                      PROB30 1203/1206 BKN012=
201006110158 TAF AMD EGLL 110158Z 1102/1206 03010KT 8000 FEW005 BKN008
                      TEMPO 1102/1110 RA BKN005
                      PROB30 TEMPO 1104/1107 3000 +RA BKN004
                      BECMG 1110/1113 9999 SCT020
                      BECMG 1115/1118 33006KT=
201006102303 TAF EGLL 102303Z 1100/1206 03012KT 9999 BKN008
                      BECMG 1101/1103 8000 -RA
                      TEMPO 1103/1110 RA
                      PROB30 TEMPO 1104/1107 3000 +RA BKN004
                      BECMG 1110/1113 9999 NSW SCT020
                      BECMG 1115/1118 33006KT=
201006102300 TAF AMD EGLL 110158Z 1102/1206 03010KT 8000 FEW005 BKN008
                      TEMPO 1102/1110 RA BKN005
                      PROB30 TEMPO 1104/1107 3000 +RA BKN004
                      BECMG 1110/1113 9999 SCT020
                      BECMG 1115/1118 33006KT=
201006101822 TAF AMD EGLL 101822Z 1018/1124 03012KT 9999 BKN015
                      TEMPO 1018/1001 8000 -RA
                      BECMG 1019/1022 BKN008
                      BECMG 1101/1103 6000 RA
                      PROB40 TEMPO 1104/1111 3000 +RA BKN004
                      BECMG 1111/1114 9999 NSW SCT018
                      BECMG 1115/1118 33006KT=
201006101702 TAF EGLL 101702Z 1018/1124 03012KT 9999 BKN012
                      TEMPO 1018/1001 8000 -RA
                      BECMG 1019/1022 BKN008
                      BECMG 1101/1103 6000 RA
                      PROB40 TEMPO 1104/1111 3000 +RA BKN004
                      BECMG 1111/1114 9999 NSW SCT018
                      BECMG 1115/1118 33006KT=
201006101240 TAF AMD EGLL 101240Z 1012/1118 03012KT 9999 BKN015
                      BECMG 1019/1022 7000 -RA BKN008
                      PROB30 TEMPO 1104/1110 3000 +RA BKN004
                      BECMG 1110/1113 9999 NSW SCT018=
201006101101 TAF EGLL 101101Z 1012/1118 03012KT 6000 BKN009
                      BECMG 1012/1015 9999 BKN012
                      TEMPO 1014/1018 BKN015
                      BECMG 1019/1022 7000 -RA BKN008
                      PROB30 TEMPO 1104/1110 3000 +RA BKN004
                      BECMG 1110/1113 9999 NSW SCT018=
201006100908 TAF AMD EGLL 100908Z 1006/1112 02011KT 8000 BKN007
                      BECMG 1009/1011 9999 BKN012
                      BECMG 1011/1013 BKN015
                      BECMG 1020/1023 6000 -RA BKN010
                      PROB30 TEMPO 1104/1110 3000 +RA BKN008=
201006100555 TAF AMD EGLL 100555Z 1006/1112 02011KT 9999 BKN020
                      TEMPO 1006/1010 6000 BKN010
                      BECMG 1020/1023 6000 -RA BKN010
                      PROB30 TEMPO 1104/1107 3000 +RA BKN008
                      BECMG 1108/1111 9999 NSW SCT020=
201006100502 TAF EGLL 100502Z 1006/1112 02011KT 6000 FEW008 BKN010
                      PROB40 TEMPO 1006/1008 BKN007
                      BECMG 1007/1010 9999 SCT020
                      BECMG 1020/1023 6000 -RA BKN010
                      PROB30 TEMPO 1104/1107 3000 +RA BKN008
                      BECMG 1108/1111 9999 NSW SCT020=
201006100023 TAF AMD EGLL 100023Z 1000/1106 02010KT 9999 FEW040
                      BECMG 1000/1002 BKN010
                      PROB40 TEMPO 1002/1009 6000 -RA BKN007
                      BECMG 1008/1011 SCT020
                      TEMPO 1015/1106 6000 -RA
                      BECMG 1021/1024 BKN012=
201006092304 TAF EGLL 092304Z 1000/1106 02010KT 9999 BKN010
                      PROB40 TEMPO 1002/1009 6000 -RA BKN007
                      BECMG 1008/1011 SCT020
                      TEMPO 1015/1106 6000 -RA
                      BECMG 1021/1024 BKN012=
201006092300 TAF AMD EGLL 100023Z 1000/1106 02010KT 9999 FEW040
                      BECMG 1000/1002 BKN010
                      PROB40 TEMPO 1002/1009 6000 -RA BKN007
                      BECMG 1008/1011 SCT020
                      TEMPO 1015/1106 6000 -RA
                      BECMG 1021/1024 BKN012=
201006091701 TAF EGLL 091701Z 0918/1024 10008KT 9999 SCT030
                      BECMG 0923/1002 02012KT BKN010
                      PROB40 TEMPO 1002/1009 6000 -RA BKN007
                      BECMG 1008/1011 SCT020
                      TEMPO 1015/1024 6000 -RA
                      BECMG 1021/1024 BKN012=
201006091104 TAF EGLL 091104Z 0912/1018 15006KT 9999 SCT030
                      TEMPO 0912/0918 6000 SHRA
                      BECMG 0922/1001 02012KT BKN012
                      PROB40 1002/1010 6000 -RA BKN007
                      BECMG 1010/1012 SCT020=
201006090500 TAF EGLL 090500Z 0906/1012 19010KT 7000 SCT028
                      BECMG 0906/0908 11006KT 9999
                      TEMPO 0910/0918 6000 SHRA
                      BECMG 0923/1002 02012KT BKN012
                      TEMPO 1003/1010 6000 -RADZ
                      BECMG 1010/1012 SCT018=
201006082305 TAF EGLL 082305Z 0900/1006 19010KT 9999 FEW020
                      PROB30 0902/0906 6000 BKN007
                      BECMG 0906/0908 11006KT
                      TEMPO 0910/0915 6000 SHRA
                      BECMG 0923/1002 03012KT BKN012=
201006081658 TAF EGLL 081658Z 0818/0924 21010KT 9999 SCT020
                      BECMG 0823/0902 7000
                      PROB30 0902/0907 BKN006
                      BECMG 0906/0908 14006KT 9999
                      TEMPO 0910/0918 6000 SHRA
                      BECMG 0921/0924 02010KT 8000 -RA BKN014=
201006081059 TAF EGLL 081059Z 0812/0918 20010KT 9999 SCT020
                      TEMPO 0812/0818 6000 SHRA
                      BECMG 0823/0902 7000
                      PROB30 0902/0907 BKN006
                      BECMG 0906/0908 14006KT 9999
                      TEMPO 0910/0918 6000 SHRA=
201006080617 TAF AMD EGLL 080617Z 0806/0912 10006KT 9999 BKN030
                      BECMG 0806/0808 20010KT BKN012
                      TEMPO 0806/0810 6000 RA BKN007
                      BECMG 0810/0812 SCT020
                      PROB30 TEMPO 0812/0816 4000 TSRA
                      BECMG 0823/0902 7000
                      PROB30 0902/0907 BKN006
                      BECMG 0906/0908 9999=
201006080501 TAF EGLL 080501Z 0806/0912 10006KT 9999 BKN030
                      BECMG 0806/0808 20010KT BKN012
                      TEMPO 0807/0810 6000 -RADZ BKN007
                      BECMG 0810/0812 SCT020
                      PROB30 TEMPO 0812/0816 4000 TSRA
                      BECMG 0823/0902 7000
                      PROB30 0902/0907 BKN006
                      BECMG 0906/0908 9999=
201006072306 TAF EGLL 072306Z 0800/0906 13010KT 9999 BKN035
                      TEMPO 0800/0806 7000 RA
                      BECMG 0806/0808 21008KT BKN012
                      TEMPO 0807/0810 6000 -RADZ BKN008
                      BECMG 0810/0812 SCT020
                      PROB30 TEMPO 0812/0815 4000 TSRA
                      BECMG 0823/0902 7000=
201006072300 TAF EGLL 072300Z NIL=
201006072043 TAF AMD EGLL 072043Z 0720/0824 13007KT 9999 FEW045
                      TEMPO 0720/0808 RA BKN008
                      PROB30 TEMPO 0800/0807 4500 +RA
                      BECMG 0807/0809 21010KT BKN012
                      TEMPO 0807/0810 6000 -RA BKN006
                      BECMG 0810/0812 SCT025
                      PROB30 TEMPO 0812/0816 3000 +SHRA TSRA BKN014CB=
201006071701 TAF EGLL 071701Z 0718/0824 23010KT 9999 FEW045
                      BECMG 0718/0720 15007KT 8000 -RA BKN014
                      TEMPO 0719/0808 RA BKN008
                      PROB30 TEMPO 0800/0807 4500 +RA
                      BECMG 0807/0809 21010KT 9999 NSW
                      PROB30 TEMPO 0810/0816 3000 +SHRA TSRA BKN014CB=
201006071102 TAF EGLL 071102Z 0712/0818 23010KT 9999 FEW045
                      BECMG 0717/0720 15007KT 8000 -RA
                      TEMPO 0719/0809 RA BKN012
                      PROB30 TEMPO 0800/0807 4500 +RA BKN008
                      BECMG 0807/0810 21012KT 9999 NSW
                      PROB30 TEMPO 0810/0818 6000 SHRA=
201006070459 TAF EGLL 070459Z 0706/0812 27008KT 9999 FEW045
                      BECMG 0712/0715 21010KT
                      BECMG 0717/0720 15007KT 8000 -RA
                      TEMPO 0719/0809 RA BKN012
                      PROB30 TEMPO 0800/0807 4500 +RA BKN008
                      BECMG 0807/0810 21012KT 9999 NSW
                      PROB30 TEMPO 0810/0812 6000 SHRA=
201006062301 TAF EGLL 062301Z 0700/0806 27007KT 9999 FEW030
                      BECMG 0712/0715 21010KT
                      BECMG 0717/0720 15007KT 8000 -RA
                      TEMPO 0720/0806 RA BKN012
                      PROB30 TEMPO 0803/0806 4500 +RA BKN008=
201006061705 TAF EGLL 061705Z 0618/0724 27012KT 9999 FEW030
                      TEMPO 0618/0622 6000 SHRA
                      PROB30 TEMPO 0618/0621 4000 TSRA
                      BECMG 0715/0718 17007KT 7000 -RA
                      TEMPO 0718/0724 RA=
201006061101 TAF EGLL 061101Z 0612/0718 27010KT 9999 SCT022
                      TEMPO 0612/0620 6000 SHRA
                      BECMG 0715/0718 19006KT 7000 -RA=
201006060459 TAF EGLL 060459Z 0606/0712 28008KT 8000 NSC
                      BECMG 0606/0609 CAVOK
                      TEMPO 0609/0620 6000 SHRA BKN040
                      PROB30 TEMPO 0614/0619 4000 TSRA=
201006052256 TAF EGLL 052256Z 0600/0706 18005KT CAVOK
                      TEMPO 0600/0610 6000 SHRA
                      PROB30 TEMPO 0600/0606 3500 +TSRA BKN040CB
                       BECMG 0605/0608 28010KT
                      PROB30 0607/0610 BKN010
                      TEMPO 0612/0620 6000 SHRA BKN035=
201006052200 TAF AMD EGLL 052200Z 0522/0624 18004KT CAVOK
                      TEMPO 0523/0608 6000 SHRA BKN040CB
                      PROB30 TEMPO 0600/0605 3500 TSRA
                      BECMG 0605/0608 28010KT BKN014
                      TEMPO 0608/0610 6000 -RA BKN009
                      BECMG 0610/0613 SCT025
                      TEMPO 0612/0620 6000 SHRA=
201006051700 TAF EGLL 051700Z 0518/0624 18004KT CAVOK
                      PROB30 TEMPO 0601/0605 3500 TSRA BKN040CB
                       BECMG 0605/0608 28010KT BKN014
                      TEMPO 0608/0610 6000 -RA BKN009
                      BECMG 0610/0613 SCT025
                      TEMPO 0612/0620 6000 SHRA=
201006051100 TAF EGLL 051100Z 0512/0618 VRB05KT CAVOK
                      PROB30 TEMPO 0601/0606 3500 TSRA BKN040CB
                       TEMPO 0605/0609 BKN009
                      BECMG 0609/0612 28010KT=
201006050500 TAF EGLL 050500Z 0506/0612 VRB05KT CAVOK
                      TEMPO 0603/0612 6000 SHRA
                      PROB30 TEMPO 0606/0612 3500 TSRA BKN012 BKN040CB
                       BECMG 0609/0612 28010KT=
201006042300 TAF EGLL 042300Z 0500/0606 14005KT CAVOK
                      PROB40 0503/0507 8000
                      PROB30 TEMPO 0603/0606 6000 SHRA BKN040=
201006041823 TAF AMD EGLL 041823Z 0418/0524 19008KT CAVOK
                      PROB40 0501/0508 8000=
201006041701 TAF EGLL 041701Z 0418/0524 VRB05KT CAVOK
                      PROB40 0501/0508 8000=
201006041057 TAF EGLL 041057Z 0412/0518 VRB05KT CAVOK
                      PROB40 0501/0508 8000=
201006040500 TAF EGLL 040500Z 0406/0512 12005KT CAVOK
                      BECMG 0500/0503 8000
                      BECMG 0505/0508 CAVOK=
201006032301 TAF EGLL 032301Z 0400/0506 07005KT CAVOK
                      PROB30 0503/0506 8000=
201006031658 TAF EGLL 031658Z 0318/0424 08010KT CAVOK
                      BECMG 0406/0409 VRB05KT=
201006031056 TAF EGLL 031056Z 0312/0418 08008KT CAVOK=
201006030459 TAF EGLL 030459Z 0306/0412 VRB02KT CAVOK
                      BECMG 0307/0310 09010KT=
201006022304 TAF EGLL 022304Z 0300/0406 09008KT CAVOK
                      PROB40 0302/0306 6000=
201006021705 TAF EGLL 021705Z 0218/0324 VRB03KT CAVOK
                      PROB40 0302/0306 6000
                      BECMG 0307/0310 10012KT=
201006021105 TAF EGLL 021105Z 0212/0318 03005KT CAVOK
                      PROB40 0302/0306 6000
                      BECMG 0307/0310 10012KT=
201006020458 TAF EGLL 020458Z 0206/0312 03004KT 4000 BR SCT030
                      BECMG 0206/0208 9999 NSW
                      PROB30 TEMPO 0206/0207 BKN006
                      PROB40 0300/0306 7000=
201006020401 TAF AMD EGLL 020401Z 0204/0306 03004KT 4000 BR SCT020
                      TEMPO 0204/0206 BKN003
                      BECMG 0205/0208 9999 NSW=
201006012303 TAF EGLL 012303Z 0200/0306 03004KT 4000 BR SCT007 BKN018
                      BECMG 0200/0202 6000 NSW BKN012
                      TEMPO 0200/0206 3000 -DZ BR BKN003
                      BECMG 0205/0208 9999 SCT030=
201006012300 TAF AMD EGLL 020401Z 0204/0306 03004KT 4000 BR SCT020
                      TEMPO 0204/0206 BKN003
                      BECMG 0205/0208 9999 NSW=
201006012211 TAF AMD EGLL 012211Z 0122/0224 03004KT 6000 BKN012
                      TEMPO 0122/0207 3000 -RADZ BR BKN004
                      BECMG 0206/0209 9999 SCT030=
201006011700 TAF EGLL 011700Z 0118/0224 03004KT 9999 FEW012 BKN035
                      BECMG 0118/0120 BKN012
                      TEMPO 0118/0124 7000 -RADZ BKN006
                      BECMG 0205/0208 SCT030=
201006011515 TAF AMD EGLL 011515Z 0114/0218 VRB05KT 9999 SCT020
                      TEMPO 0114/0116 7000 -RA BKN012
                      PROB40 TEMPO 0114/0116 4000 RADZ BR BKN006
                       BECMG 0116/0119 BKN012
                      TEMPO 0119/0124 SCT012
                      BECMG 0205/0208 SCT030=
201006011105 TAF EGLL 011105Z 0112/0218 VRB05KT 9999 SCT020
                      BECMG 0112/0114 7000 -RA BKN012
                      PROB40 TEMPO 0112/0116 4000 RADZ BR BKN006
                       BECMG 0116/0119 9999 NSW
                      TEMPO 0119/0124 SCT012
                      BECMG 0205/0208 SCT030=
201006010505 TAF EGLL 010505Z 0106/0212 VRB05KT 9000 SCT025
                      TEMPO 0106/0110 9999
                      BECMG 0110/0113 -RA BKN012
                      TEMPO 0111/0118 4500 RADZ BKN008
                      BECMG 0117/0120 9999 NSW
                      TEMPO 0118/0206 7000 -DZ BKN006
                      BECMG 0206/0208 SCT025=
