##########################################################
# Query made at 12/31/2014 10:10:42 UTC
# Time interval: from 01/01/2013 00:00  to 01/31/2013 23:59  UTC
##########################################################

##########################################################
# EGLL, London / Heathrow Airport (United Kingdom)
# WMO index: 03772
# Latitude 51-29N. Longitude 000-27W. Altitude 24 m.
##########################################################

###################################
#  METAR/SPECI from EGLL
###################################
201301312350 METAR COR EGLL 312350Z 24015KT 9999 FEW047 08/04 Q1011 NOSIG=
201301312320 METAR COR EGLL 312320Z 24014KT CAVOK 08/04 Q1011 NOSIG=
201301312250 METAR COR EGLL 312250Z 24013KT CAVOK 08/04 Q1012 NOSIG=
201301312220 METAR COR EGLL 312220Z 24014KT CAVOK 08/04 Q1012 NOSIG=
201301312150 METAR COR EGLL 312150Z 24011KT 9999 FEW035 08/04 Q1013 NOSIG=
201301312120 METAR COR EGLL 312120Z 24013KT 9999 FEW035 08/04 Q1013 NOSIG=
201301312050 METAR COR EGLL 312050Z 24012KT 9999 SCT031 SCT036 09/03 Q1013
                        NOSIG=
201301312020 METAR COR EGLL 312020Z 24015KT 9999 FEW035 09/03 Q1013 NOSIG=
201301311950 METAR COR EGLL 311950Z 25012KT 9999 FEW035 09/03 Q1013 NOSIG=
201301311920 METAR COR EGLL 311920Z 24012KT 9999 FEW035 09/03 Q1013 NOSIG=
201301311850 METAR COR EGLL 311850Z 26018KT 9999 FEW040 09/03 Q1013 TEMPO
                        26020G30KT=
201301311820 METAR COR EGLL 311820Z 26017KT 9999 FEW038 09/02 Q1013 TEMPO
                        26020G30KT=
201301311750 METAR COR EGLL 311750Z 26018KT 9999 FEW042 09/02 Q1013 TEMPO
                        26020G30KT=
201301311720 METAR COR EGLL 311720Z 27019KT 9999 SCT040 09/02 Q1013 TEMPO
                        27022G32KT=
201301311650 METAR COR EGLL 311650Z 26020KT 9999 FEW040 09/03 Q1012 TEMPO
                        26022G32KT=
201301311620 METAR COR EGLL 311620Z 26020KT 9999 VCSH SCT042 10/03 Q1012
                        TEMPO 26022G32KT=
201301311550 METAR COR EGLL 311550Z 27018KT 9999 FEW044 10/02 Q1012 TEMPO
                        27020G30KT=
201301311520 METAR COR EGLL 311520Z 27021KT 9999 SCT047 10/02 Q1012 TEMPO
                        27022G32KT=
201301311450 METAR COR EGLL 311450Z 27020KT 9999 FEW040 10/03 Q1012 TEMPO
                        27022G32KT=
201301311420 METAR COR EGLL 311420Z 27018KT 9999 FEW037 10/04 Q1012 TEMPO
                        27022G32KT=
201301311350 METAR COR EGLL 311350Z 27021KT 9999 SCT036 09/04 Q1012 NOSIG=
201301311320 METAR COR EGLL 311320Z 28016KT 9999 FEW038 SCT043 10/04 Q1012
                        TEMPO 25020G30KT=
201301311250 METAR COR EGLL 311250Z 27017KT 9999 SCT026 09/05 Q1012 TEMPO
                        25020G30KT=
201301311220 METAR COR EGLL 311220Z 29019KT 9999 6000E -RA FEW019 BKN034
                        09/05 Q1011 TEMPO 29022G32KT=
201301311150 METAR COR EGLL 311150Z 26022KT 9999 FEW030 10/05 Q1011 TEMPO
                        26025G35KT=
201301311120 METAR COR EGLL 311120Z 26025G35KT 9999 FEW038 09/05 Q1011
                        NOSIG=
201301311050 METAR COR EGLL 311050Z 26022KT 9999 SCT038 09/04 Q1011 BECMG
                        26022G32KT=
201301311020 METAR COR EGLL 311020Z 30012KT 7000 -SHRA FEW023 BKN033 10/05
                        Q1010 BECMG 25020G30KT=
201301310950 METAR COR EGLL 310950Z 25021KT 9999 SCT035 10/05 Q1009 BECMG
                        26022G32KT=
201301310920 METAR COR EGLL 310920Z 26017KT 9999 FEW035 10/05 Q1009 BECMG
                        26020G30KT=
201301310850 METAR COR EGLL 310850Z 25018KT 9999 FEW035 09/05 Q1009 BECMG
                        25020G30KT=
201301310820 METAR COR EGLL 310820Z 25017KT 9999 FEW032 09/06 Q1009 BECMG
                        25020G30KT=
201301310750 METAR COR EGLL 310750Z 24016KT 9999 FEW032 09/06 Q1009 BECMG
                        24020G30KT=
201301310720 METAR COR EGLL 310720Z 24015KT 9999 FEW027 09/07 Q1009 TEMPO
                        RA=
201301310650 METAR COR EGLL 310650Z 24024G38KT 8000 -SHRA SCT024 SCT029
                        09/07 Q1009 RERA TEMPO 24020KT RA=
201301310620 METAR COR EGLL 310620Z 23023KT 9999 -SHRA FEW020 SCT046 10/07
                        Q1009 TEMPO 23025G35KT SHRA=
201301310550 METAR COR EGLL 310550Z 23018G29KT 9999 -SHRA SCT027 BKN034
                        10/06 Q1010 TEMPO SHRA=
201301310520 METAR COR EGLL 310520Z 23018KT 9999 SCT025 SCT036 10/05 Q1010
                        TEMPO 23022G32KT SHRA=
201301310450 METAR COR EGLL 310450Z 22017KT 9999 FEW027 SCT037 09/05 Q1011
                        TEMPO 22020G30KT SHRA=
201301310420 METAR COR EGLL 310420Z 22014KT 9999 SCT024 09/05 Q1012 TEMPO
                        22020G30KT SHRA=
201301310350 METAR COR EGLL 310350Z 19011KT 9999 FEW028 08/05 Q1012 NOSIG=
201301310320 METAR COR EGLL 310320Z 21009KT 9999 FEW034 07/05 Q1014 NOSIG=
201301310250 METAR COR EGLL 310250Z 22008KT CAVOK 07/04 Q1015 NOSIG=
201301310220 METAR EGLL 310220Z AUTO 22010KT 9999 NCD 07/04 Q1016=
201301310150 METAR EGLL 310150Z AUTO 23011KT 9999 NCD 07/04 Q1016=
201301310120 METAR EGLL 310120Z AUTO 22011KT 9999 NCD 07/03 Q1017=
201301310050 METAR COR EGLL 310050Z 23012KT CAVOK 07/03 Q1017 NOSIG=
201301310020 METAR COR EGLL 310020Z 24012KT CAVOK 08/03 Q1018 NOSIG=
201301302350 METAR COR EGLL 302350Z 25013KT CAVOK 07/03 Q1017 NOSIG=
201301302320 METAR COR EGLL 302320Z 25017KT CAVOK 08/03 Q1017 NOSIG=
201301302250 METAR COR EGLL 302250Z 25016KT CAVOK 08/03 Q1016 NOSIG=
201301302220 METAR COR EGLL 302220Z 25017KT CAVOK 08/03 Q1016 NOSIG=
201301302150 METAR COR EGLL 302150Z 25019G29KT CAVOK 08/03 Q1016 BECMG
                        25014KT=
201301302120 METAR COR EGLL 302120Z 25017G27KT CAVOK 08/03 Q1015 BECMG
                        25014KT=
201301302050 METAR COR EGLL 302050Z 26018KT CAVOK 09/03 Q1015 NOSIG=
201301302020 METAR COR EGLL 302020Z 26021KT CAVOK 09/03 Q1014 NOSIG=
201301301950 METAR COR EGLL 301950Z 26022KT 9999 FEW049 09/03 Q1014 BECMG
                        25012KT=
201301301920 METAR COR EGLL 301920Z 26023KT CAVOK 10/03 Q1014 BECMG 25013KT=
201301301850 METAR COR EGLL 301850Z 26025KT 9999 FEW040 09/02 Q1013 BECMG
                        25015KT=
201301301820 METAR COR EGLL 301820Z 26023KT 9999 FEW040 09/03 Q1012 NOSIG=
201301301750 METAR COR EGLL 301750Z 26024G34KT 9999 FEW043 09/02 Q1012
                        NOSIG=
201301301720 METAR COR EGLL 301720Z 26025KT 9999 FEW048 10/02 Q1011 NOSIG=
201301301650 METAR COR EGLL 301650Z 26024KT 9999 FEW044 10/02 Q1010 NOSIG=
201301301620 METAR COR EGLL 301620Z 26024KT 9999 FEW045 10/02 Q1010 TEMPO
                        25024G34KT=
201301301550 METAR COR EGLL 301550Z 27026G39KT 9999 FEW044 10/02 Q1010
                        NOSIG=
201301301520 METAR COR EGLL 301520Z 26031G41KT 9999 FEW045 11/02 Q1009
                        NOSIG=
201301301450 METAR COR EGLL 301450Z 26023KT 9999 SCT047 11/02 Q1009 TEMPO
                        25025G35KT=
201301301420 METAR COR EGLL 301420Z 26021KT 9999 SCT047 11/02 Q1009 NOSIG=
201301301350 METAR COR EGLL 301350Z 27026G38KT 9999 SCT045 12/03 Q1008=
201301301320 METAR COR EGLL 301320Z 26024KT 9999 SCT043 11/03 Q1008 NOSIG=
201301301250 METAR EGLL 301250Z 26020KT 9999 SCT037 11/04 Q1007=
201301301220 METAR COR EGLL 301220Z 26023KT 9999 SCT037 11/05 Q1007 NOSIG=
201301301150 METAR COR EGLL 301150Z 26019KT 9999 SCT032 11/05 Q1007 TEMPO
                        25020G30KT=
201301301120 METAR COR EGLL 301120Z 26021KT 9999 FEW029 11/05 Q1006 TEMPO
                        25022G32KT=
201301301050 METAR COR EGLL 301050Z 26018G30KT 9999 FEW033 11/06 Q1006
                        NOSIG=
201301301020 METAR COR EGLL 301020Z 25018KT 9999 FEW013 SCT019 10/07 Q1005
                        NOSIG=
201301300950 METAR COR EGLL 300950Z 25016KT 9999 VCSH SCT024 11/07 Q1005
                        TEMPO SHRA=
201301300920 METAR COR EGLL 300920Z 24014KT 9999 FEW027 10/07 Q1004 NOSIG=
201301300850 METAR COR EGLL 300850Z 24012KT 9999 FEW027 10/07 Q1004 NOSIG=
201301300820 METAR COR EGLL 300820Z 25012KT 9999 SCT027 09/07 Q1004 NOSIG=
201301300750 METAR COR EGLL 300750Z 25013KT 9999 FEW024 SCT027 09/07 Q1003
                        NOSIG=
201301300720 METAR COR EGLL 300720Z 25012KT 9999 FEW024 09/07 Q1003 NOSIG=
201301300650 METAR COR EGLL 300650Z 24009KT 9999 FEW025 09/07 Q1002 NOSIG=
201301300620 METAR COR EGLL 300620Z 23011KT CAVOK 09/08 Q1002 NOSIG=
201301300550 METAR COR EGLL 300550Z 24006KT 9999 -RA NSC 09/08 Q1001 NOSIG=
201301300520 METAR COR EGLL 300520Z 23008KT 9999 -RA FEW047 09/08 Q1001
                        NOSIG=
201301300450 METAR EGLL 300450Z 26007KT 9999 -RA FEW037 BKN044 09/08 Q1001=
201301300420 METAR COR EGLL 300420Z 27009KT 9999 -RA BKN034 09/08 Q1001
                        TEMPO RA=
201301300350 METAR COR EGLL 300350Z 29009KT 9999 -RA SCT009 SCT028 10/08
                        Q1001 RERA TEMPO RA BKN010=
201301300320 METAR COR EGLL 300320Z 27020KT 2900 +RA FEW005 BKN009 BKN019
                        12/11 Q1000 BECMG 7000 -RA SCT008
                        BKN014=
201301300250 METAR COR EGLL 300250Z 23017KT 9999 -RA SCT011 BKN017 12/11
                        Q1000 TEMPO 4000 +RA BKN010=
201301300220 METAR EGLL 300220Z AUTO 23017KT 8000 -RA BKN011/// 12/11
                        Q1000 RERA=
201301300150 METAR EGLL 300150Z AUTO 22017KT 9999 -RA FEW009/// BKN013///
                        12/11 Q1000=
201301300120 METAR EGLL 300120Z AUTO 22014KT 5000 -RA BKN007/// BKN014///
                        12/11 Q1000=
201301300050 METAR COR EGLL 300050Z 22014KT 5000 -RA HZ SCT008 BKN010
                        12/11 Q1000 BECMG 4000 BKN008=
201301300020 METAR COR EGLL 300020Z 22017KT 5000 -RA HZ SCT008 BKN010
                        12/11 Q1000 BECMG 4000 BKN008=
201301292350 METAR COR EGLL 292350Z 22013KT 9999 FEW009 BKN010 BKN015
                        12/11 Q1001 NOSIG=
201301292320 METAR COR EGLL 292320Z 22013KT 9999 -RA BKN011 BKN014 12/11
                        Q1001 NOSIG=
201301292250 METAR COR EGLL 292250Z 22013KT 8000 -RA FEW008 BKN011 BKN017
                        12/11 Q1001 NOSIG=
201301292220 METAR COR EGLL 292220Z 22015G26KT 4700 -RA BR SCT007 BKN009
                        BKN015 12/11 Q1001 TEMPO 7000 BKN010=
201301292150 METAR COR EGLL 292150Z 22018G28KT 6000 -RA FEW009 BKN013
                        12/11 Q1002 RERA TEMPO 4000 RADZ=
201301292120 METAR COR EGLL 292120Z 22019KT 6000 -RA SCT010 BKN014 12/11
                        Q1002 TEMPO RA=
201301292050 METAR COR EGLL 292050Z 22016G26KT 9000 -RA FEW008 BKN012
                        12/11 Q1002 NOSIG=
201301292020 METAR COR EGLL 292020Z 22016KT 7000 -RA FEW008 BKN012 12/11
                        Q1002 NOSIG=
201301291950 METAR COR EGLL 291950Z 22017KT 6000 -RA FEW008 BKN012 12/11
                        Q1002 NOSIG=
201301291920 METAR COR EGLL 291920Z 22017KT 9000 -RA FEW009 SCT012 BKN015
                        12/11 Q1002 RERA TEMPO BKN012=
201301291850 METAR COR EGLL 291850Z 22015KT 7000 RA FEW008 SCT010 BKN013
                        12/11 Q1002 TEMPO BKN009=
201301291820 METAR COR EGLL 291820Z 21012KT 9000 -RA FEW009 BKN013 12/11
                        Q1002 TEMPO 22017G27KT=
201301291750 METAR EGLL 291750Z 23017KT 9999 BKN013 BKN018 13/11 Q1003=
201301291720 METAR EGLL 291720Z 23020G32KT 9999 BKN016 13/11 Q1003=
201301291650 METAR COR EGLL 291650Z 23017KT 9999 BKN014 13/11 Q1003 NOSIG=
201301291620 METAR COR EGLL 291620Z 23018KT 9999 BKN014 13/11 Q1002 NOSIG=
201301291550 METAR COR EGLL 291550Z 24021KT 9999 BKN014 14/11 Q1002 TEMPO
                        23021G31KT=
201301291520 METAR COR EGLL 291520Z 24019KT 9999 BKN015 14/11 Q1003 NOSIG=
201301291450 METAR COR EGLL 291450Z 24018KT 9999 FEW013 BKN016 14/11 Q1003
                        TEMPO 23020G30KT=
201301291420 METAR COR EGLL 291420Z 24018G29KT 9999 SCT013 BKN016 14/11
                        Q1003 TEMPO BKN012=
201301291350 METAR COR EGLL 291350Z 23017KT 9999 BKN012 14/11 Q1003 NOSIG=
201301291320 METAR COR EGLL 291320Z 23016KT 9999 FEW009 BKN012 13/11 Q1003
                        NOSIG=
201301291250 METAR COR EGLL 291250Z 23014KT 9999 BKN012 13/11 Q1003 NOSIG=
201301291220 METAR COR EGLL 291220Z 22013KT 9999 FEW009 BKN011 13/11 Q1003
                        TEMPO BKN008=
201301291150 METAR COR EGLL 291150Z 23015KT 9999 VCSH BKN010 13/11 Q1004
                        TEMPO BKN008=
201301291120 METAR COR EGLL 291120Z 23016KT 9999 BKN011 13/11 Q1004 NOSIG=
201301291050 METAR COR EGLL 291050Z 23014KT 9999 SCT010 BKN012 13/11 Q1004
                        NOSIG=
201301291020 METAR COR EGLL 291020Z 23015KT 9999 SCT009 BKN014 13/11 Q1003
                        NOSIG=
201301290950 METAR COR EGLL 290950Z 23015KT 9999 BKN013 13/11 Q1003 NOSIG=
201301290920 METAR COR EGLL 290920Z 22010KT 9999 BKN012 BKN016 12/10 Q1003
                        NOSIG=
201301290850 METAR COR EGLL 290850Z 22009KT 9999 FEW008 BKN011 12/10 Q1003
                        TEMPO BKN008=
201301290820 METAR COR EGLL 290820Z 24009KT 9999 BKN008 11/10 Q1003 NOSIG=
201301290750 METAR COR EGLL 290750Z 24009KT 9999 SCT006 BKN010 10/09 Q1003
                        NOSIG=
201301290720 METAR COR EGLL 290720Z 23009KT 7000 FEW005 SCT006 BKN009
                        10/09 Q1003 TEMPO BKN006=
201301290650 METAR COR EGLL 290650Z 23008KT 8000 SCT006 BKN009 10/08 Q1003
                        TEMPO 4000 RA=
201301290620 METAR COR EGLL 290620Z 23009KT 210V270 9999 BKN010 09/08
                        Q1003 TEMPO 4000 RA BKN007=
201301290550 METAR COR EGLL 290550Z 23011KT 9999 FEW010 BKN030 09/08 Q1003
                        BECMG BKN010=
201301290520 METAR COR EGLL 290520Z 23011KT 9999 SCT010 BKN038 09/08 Q1003
                        BECMG BKN010=
201301290450 METAR COR EGLL 290450Z 22013KT 9000 -RA FEW020 SCT045 10/08
                        Q1003 NOSIG=
201301290420 METAR COR EGLL 290420Z 22013KT 9000 -RA SCT042 10/08 Q1004
                        NOSIG=
201301290350 METAR COR EGLL 290350Z 23012KT 9000 -RA FEW046 10/08 Q1004
                        NOSIG=
201301290320 METAR COR EGLL 290320Z 23012KT 9000 NSC 10/08 Q1004 NOSIG=
201301290250 METAR COR EGLL 290250Z 23013KT 9999 -RA FEW040 11/08 Q1004
                        NOSIG=
201301290220 METAR EGLL 290220Z AUTO 24014KT 8000 NCD 11/07 Q1004=
201301290150 METAR EGLL 290150Z AUTO 24016KT 9999 NCD 11/07 Q1004=
201301290120 METAR EGLL 290120Z AUTO 24017KT 9999 NCD 11/07 Q1003=
201301290050 METAR COR EGLL 290050Z 24015KT 9999 SCT034 11/07 Q1004 NOSIG=
201301290020 METAR COR EGLL 290020Z 24015KT 9999 FEW030 SCT037 11/07 Q1003
                        NOSIG=
201301282350 METAR COR EGLL 282350Z 24013KT 9999 FEW030 11/07 Q1003 NOSIG=
201301282320 METAR COR EGLL 282320Z 24017KT 9999 FEW030 11/07 Q1002 NOSIG=
201301282250 METAR COR EGLL 282250Z 23014KT 9999 FEW030 11/07 Q1002 NOSIG=
201301282220 METAR COR EGLL 282220Z 22011KT 9999 FEW024 11/08 Q1001 NOSIG=
201301282150 METAR COR EGLL 282150Z 23016KT 9999 FEW024 11/08 Q1001 NOSIG=
201301282120 METAR COR EGLL 282120Z 23013KT 9999 FEW020 10/08 Q1001 NOSIG=
201301282050 METAR COR EGLL 282050Z 25015KT 9999 FEW040 11/07 Q1001 NOSIG=
201301282020 METAR COR EGLL 282020Z 25018G29KT CAVOK 11/07 Q1001 NOSIG=
201301281950 METAR COR EGLL 281950Z 24020G33KT 9999 FEW013 11/08 Q1000
                        BECMG 24015KT=
201301281920 METAR COR EGLL 281920Z 23020KT 9999 FEW013 SCT017 10/08 Q1000
                        NOSIG=
201301281850 METAR COR EGLL 281850Z 22018G32KT 9000 -RA FEW008 BKN010
                        10/08 Q1000 RERA BECMG FEW012 BKN025=
201301281820 METAR COR EGLL 281820Z 22016G26KT 190V250 6000 RA BKN009
                        09/08 Q1000 BECMG -RA BKN012=
201301281750 METAR COR EGLL 281750Z 21018G28KT 6000 -RA FEW008 BKN012
                        09/07 Q1000 TEMPO 4000 RA=
201301281720 METAR COR EGLL 281720Z 20019G29KT 6000 -RA FEW007 BKN012
                        08/07 Q1000 TEMPO 22022G34KT=
201301281650 METAR COR EGLL 281650Z 20020KT 4500 -RA BKN012 BKN018 08/07
                        Q1001 TEMPO 21022G34KT RA=
201301281620 METAR COR EGLL 281620Z 20019G31KT 7000 -RA BKN016 08/06 Q1002
                        TEMPO 4000 RA BKN014=
201301281550 METAR COR EGLL 281550Z 19017KT 9999 -RA SCT019 BKN025 09/06
                        Q1003 TEMPO 20018G30KT RA=
201301281520 METAR COR EGLL 281520Z 20017KT 9999 FEW016 SCT025 BKN030
                        09/06 Q1004 TEMPO 20018G30KT RA=
201301281450 METAR COR EGLL 281450Z 20015G28KT 9999 -RA FEW018 SCT021
                        BKN028 08/06 Q1005 TEMPO RA=
201301281420 METAR COR EGLL 281420Z 20013KT 9999 -RA FEW022 SCT028 BKN032
                        08/05 Q1006 NOSIG=
201301281350 METAR COR EGLL 281350Z 21012KT 9999 -RA FEW023 SCT030 09/05
                        Q1007 NOSIG=
201301281320 METAR EGLL 281320Z 21012KT 9999 FEW033 08/04 Q1008=
201301281250 METAR COR EGLL 281250Z 19011KT 9999 FEW028 08/04 Q1008 NOSIG=
201301281220 METAR COR EGLL 281220Z 21010KT 9999 FEW028 07/04 Q1009 NOSIG=
201301281150 METAR COR EGLL 281150Z 20010KT 9999 FEW016 07/03 Q1009 NOSIG=
201301281120 METAR COR EGLL 281120Z 21010KT CAVOK 07/03 Q1009 NOSIG=
201301281050 METAR COR EGLL 281050Z 22009KT CAVOK 06/02 Q1010 NOSIG=
201301281020 METAR COR EGLL 281020Z 22010KT CAVOK 06/02 Q1010 NOSIG=
201301280950 METAR COR EGLL 280950Z 22008KT 180V260 CAVOK 05/02 Q1010
                        NOSIG=
201301280920 METAR COR EGLL 280920Z 22008KT CAVOK 04/01 Q1010 NOSIG=
201301280850 METAR COR EGLL 280850Z 22008KT CAVOK 03/01 Q1009 NOSIG=
201301280820 METAR COR EGLL 280820Z 22008KT CAVOK 03/01 Q1009 NOSIG=
201301280750 METAR COR EGLL 280750Z 22008KT CAVOK 03/01 Q1009 NOSIG=
201301280720 METAR COR EGLL 280720Z 21006KT 170V270 CAVOK 02/01 Q1009
                        NOSIG=
201301280650 METAR COR EGLL 280650Z 22007KT 180V250 9999 FEW026 03/01
                        Q1008 NOSIG=
201301280620 METAR COR EGLL 280620Z 23009KT 200V270 CAVOK 03/01 Q1008
                        NOSIG=
201301280550 METAR COR EGLL 280550Z 23009KT CAVOK 03/01 Q1008 NOSIG=
201301280520 METAR COR EGLL 280520Z 25009KT CAVOK 04/01 Q1007 NOSIG=
201301280450 METAR COR EGLL 280450Z 25011KT CAVOK 04/01 Q1007 NOSIG=
201301280420 METAR COR EGLL 280420Z 25008KT CAVOK 03/01 Q1007 NOSIG=
201301280350 METAR COR EGLL 280350Z 23007KT CAVOK 03/01 Q1006 NOSIG=
201301280320 METAR COR EGLL 280320Z 23006KT CAVOK 04/01 Q1006 NOSIG=
201301280250 METAR COR EGLL 280250Z 22008KT CAVOK 04/02 Q1005 NOSIG=
201301280220 METAR EGLL 280220Z AUTO 22009KT 9999 SCT040/// 04/02 Q1004=
201301280150 METAR EGLL 280150Z AUTO 24011KT 9999 NCD 05/02 Q1005=
201301280120 METAR EGLL 280120Z AUTO 24007KT 9999 SCT023/// SCT027///
                        BKN037/// 05/02 Q1004=
201301280050 METAR COR EGLL 280050Z 26006KT 9999 FEW023 SCT025 05/02 Q1004
                        NOSIG=
201301280020 METAR COR EGLL 280020Z 23008KT 9999 FEW025 04/01 Q1004 NOSIG=
201301272350 METAR COR EGLL 272350Z 21005KT CAVOK 04/01 Q1003 NOSIG=
201301272320 METAR COR EGLL 272320Z 21005KT CAVOK 04/01 Q1003 NOSIG=
201301272250 METAR EGLL 272250Z 22007KT CAVOK 04/01 Q1003=
201301272220 METAR COR EGLL 272220Z 23010KT CAVOK 05/01 Q1003 NOSIG=
201301272150 METAR COR EGLL 272150Z 25012KT CAVOK 06/01 Q1002 NOSIG=
201301272120 METAR COR EGLL 272120Z 24014KT CAVOK 06/02 Q1002 NOSIG=
201301272050 METAR COR EGLL 272050Z 24012KT CAVOK 06/01 Q1002 NOSIG=
201301272020 METAR COR EGLL 272020Z 23013KT CAVOK 05/01 Q1002 NOSIG=
201301271950 METAR COR EGLL 271950Z 24012KT CAVOK 06/01 Q1001 NOSIG=
201301271920 METAR COR EGLL 271920Z 24015KT 9999 FEW040 06/02 Q1001 NOSIG=
201301271850 METAR COR EGLL 271850Z 22009KT CAVOK 05/02 Q1001 NOSIG=
201301271820 METAR COR EGLL 271820Z 23011KT 9999 FEW045 06/02 Q1001 NOSIG=
201301271750 METAR COR EGLL 271750Z 25013KT 9999 FEW025CB FEW048 06/02
                        Q1000 NOSIG=
201301271720 METAR COR EGLL 271720Z 24013G26KT 9999 VCSH FEW025CB FEW040
                        06/02 Q1000 NOSIG=
201301271650 METAR COR EGLL 271650Z 25012KT 9999 FEW048 06/01 Q1000 NOSIG=
201301271620 METAR COR EGLL 271620Z 25016KT 9999 VCSH FEW025CB FEW040
                        SCT048 07/01 Q0999 NOSIG=
201301271550 METAR COR EGLL 271550Z 23016KT 9999 VCSH FEW019 SCT044 09/01
                        Q0999 TEMPO SHRA=
201301271520 METAR COR EGLL 271520Z 24015KT 9999 FEW040 SCT045 09/01 Q0999
                        TEMPO SHRA=
201301271450 METAR COR EGLL 271450Z 25019KT 9999 SCT042 09/00 Q0999 TEMPO
                        SHRA=
201301271420 METAR COR EGLL 271420Z 26019KT 9999 FEW045 09/01 Q0998 NOSIG=
201301271350 METAR COR EGLL 271350Z 26018KT 9999 VCSH FEW041 09/02 Q0998
                        NOSIG=
201301271320 METAR COR EGLL 271320Z 26021G31KT 9999 FEW044 10/01 Q0998
                        NOSIG=
201301271250 METAR COR EGLL 271250Z 26022KT 9999 FEW046 10/01 Q0998 NOSIG=
201301271220 METAR COR EGLL 271220Z 27021KT 9999 FEW040 09/02 Q0997 NOSIG=
201301271150 METAR COR EGLL 271150Z 27015KT 9999 FEW038 09/02 Q0997 NOSIG=
201301271120 METAR COR EGLL 271120Z 26021G31KT 9999 FEW041 09/02 Q0997
                        NOSIG=
201301271050 METAR COR EGLL 271050Z 26022KT 9999 FEW035 09/02 Q0996 NOSIG=
201301271020 METAR COR EGLL 271020Z 26020G30KT 9999 FEW035 09/03 Q0996
                        NOSIG=
201301270950 METAR EGLL 270950Z 26019KT CAVOK 09/03 Q0995=
201301270920 METAR COR EGLL 270920Z 26019KT 9999 FEW043 09/04 Q0994 NOSIG=
201301270850 METAR COR EGLL 270850Z 27018KT 9999 FEW018 09/05 Q0994 RESHRA
                        NOSIG=
201301270820 METAR COR EGLL 270820Z 24015G26KT 220V280 7000 SHRA SCT018
                        SCT030 10/08 Q0993 BECMG NSW=
201301270750 METAR COR EGLL 270750Z 23013KT 9999 FEW017 SCT023 10/08 Q0992
                        TEMPO 25015G25KT SHRA=
201301270720 METAR COR EGLL 270720Z 24014KT 9999 -RA SCT018 SCT029 10/09
                        Q0992 TEMPO 26015G25KT SHRA=
201301270650 METAR COR EGLL 270650Z 22015KT 9999 SCT014 SCT027 10/09 Q0991
                        NOSIG=
201301270620 METAR COR EGLL 270620Z 22015KT 9999 -RA SCT014 10/09 Q0992
                        RERA BECMG 26016G28KT=
201301270550 METAR COR EGLL 270550Z 21013KT 9000 RA SCT011 BKN017 10/09
                        Q0992 BECMG 26016G28KT NSW SCT015=
201301270520 METAR COR EGLL 270520Z 20015KT 7000 RA BKN010 10/08 Q0992
                        TEMPO 4500 BKN008=
201301270450 METAR COR EGLL 270450Z 20016KT 7000 RA FEW009 BKN013 10/08
                        Q0993 TEMPO 4500 BKN008=
201301270420 METAR COR EGLL 270420Z 19014KT 8000 RA SCT008 BKN010 09/08
                        Q0993 TEMPO 4500 SCT006 BKN008=
201301270350 METAR COR EGLL 270350Z 19015KT 8000 RA SCT006 BKN009 09/08
                        Q0994 TEMPO 4500 SCT008 BKN010=
201301270320 METAR COR EGLL 270320Z 20015KT 6000 RA FEW006 SCT008 BKN010
                        08/07 Q0995 TEMPO 4500 SCT005 BKN008=
201301270250 METAR EGLL 270250Z AUTO 20014KT 7000 -RA BKN007/// BKN016///
                        08/07 Q0996 RERA=
201301270220 METAR EGLL 270220Z AUTO 19016KT 9999 BKN008/// OVC019///
                        08/06 Q0997=
201301270150 METAR EGLL 270150Z AUTO 19018KT 9999 BKN010/// BKN014///
                        OVC026/// 08/06 Q0998=
201301270120 METAR EGLL 270120Z 19016KT 9999 -RA BKN010 08/06 Q0998 RERA=
201301270050 METAR COR EGLL 270050Z 19017KT 7000 RA BKN011 07/06 Q0999
                        TEMPO 4500 BKN009=
201301270020 METAR COR EGLL 270020Z 19016KT 9999 -RA BKN016 08/05 Q1000
                        BECMG BKN012=
201301262350 METAR COR EGLL 262350Z 20015KT 9999 SCT016 BKN023 08/05 Q1001
                        TEMPO BKN014=
201301262320 METAR COR EGLL 262320Z 20013G23KT 9999 SCT020 BKN029 08/05
                        Q1002 TEMPO BKN014=
201301262250 METAR COR EGLL 262250Z 20009KT 9999 -RA FEW020 BKN033 07/05
                        Q1003 TEMPO BKN014=
201301262220 METAR COR EGLL 262220Z 20013KT 9999 -RA FEW046 07/05 Q1003
                        TEMPO BKN014=
201301262150 METAR COR EGLL 262150Z 20013KT 9999 -RA FEW030 08/05 Q1004
                        TEMPO BKN012=
201301262120 METAR EGLL 262120Z 20014KT 9999 -RA FEW030 08/06 Q1005 RERA=
201301262050 METAR COR EGLL 262050Z 19012KT 9999 -RA FEW018 08/06 Q1005
                        TEMPO BKN012=
201301262020 METAR COR EGLL 262020Z 21010KT 9000 -RA NSC 08/05 Q1006 TEMPO
                        BKN014=
201301261950 METAR COR EGLL 261950Z 21011KT 9999 -RA FEW018 07/05 Q1006
                        NOSIG=
201301261920 METAR COR EGLL 261920Z 20010KT 180V260 9999 FEW018 07/04
                        Q1007 NOSIG=
201301261850 METAR COR EGLL 261850Z 19010KT 170V230 CAVOK 07/04 Q1007
                        NOSIG=
201301261820 METAR COR EGLL 261820Z 19010KT CAVOK 06/04 Q1008 NOSIG=
201301261750 METAR COR EGLL 261750Z 18008KT 140V210 9999 FEW023 06/03
                        Q1008 NOSIG=
201301261720 METAR COR EGLL 261720Z 16007KT 120V200 CAVOK 06/02 Q1009
                        NOSIG=
201301261650 METAR COR EGLL 261650Z 20008KT 180V240 9999 FEW040 07/03
                        Q1009 NOSIG=
201301261620 METAR COR EGLL 261620Z 21008KT 9999 FEW044 07/03 Q1009 NOSIG=
201301261550 METAR COR EGLL 261550Z 21009KT 9999 BKN047 08/03 Q1010 NOSIG=
201301261520 METAR COR EGLL 261520Z 22008KT 9999 BKN045 08/03 Q1010 NOSIG=
201301261450 METAR COR EGLL 261450Z 25013KT CAVOK 08/03 Q1010 NOSIG=
201301261420 METAR COR EGLL 261420Z 25011KT CAVOK 08/03 Q1010 NOSIG=
201301261350 METAR COR EGLL 261350Z 25011KT CAVOK 08/03 Q1010 NOSIG=
201301261320 METAR COR EGLL 261320Z 25012KT CAVOK 07/02 Q1010 NOSIG=
201301261250 METAR COR EGLL 261250Z 26011KT CAVOK 08/03 Q1010 NOSIG=
201301261220 METAR COR EGLL 261220Z 27012KT CAVOK 07/03 Q1010 NOSIG=
201301261150 METAR COR EGLL 261150Z 27012KT CAVOK 07/03 Q1010 NOSIG=
201301261120 METAR COR EGLL 261120Z 27013KT CAVOK 06/03 Q1010 NOSIG=
201301261050 METAR COR EGLL 261050Z 27012KT CAVOK 06/03 Q1010 NOSIG=
201301261020 METAR COR EGLL 261020Z 27011KT CAVOK 05/03 Q1010 NOSIG=
201301260950 METAR COR EGLL 260950Z 26013KT CAVOK 05/03 Q1009 NOSIG=
201301260920 METAR COR EGLL 260920Z 28009KT 9999 FEW034 04/03 Q1008 NOSIG=
201301260850 METAR COR EGLL 260850Z 29006KT 9999 FEW034 04/02 Q1008 NOSIG=
201301260820 METAR COR EGLL 260820Z 29005KT 9999 FEW034 03/02 Q1007 NOSIG=
201301260750 METAR COR EGLL 260750Z 29008KT CAVOK 03/02 Q1007 NOSIG=
201301260720 METAR COR EGLL 260720Z 29009KT 9000 NSC 03/02 Q1006 NOSIG=
201301260650 METAR COR EGLL 260650Z 28008KT 8000 FEW004 02/02 Q1005 NOSIG=
201301260620 METAR COR EGLL 260620Z 28007KT 7000 SCT003 SCT008 03/02 Q1005
                        TEMPO BKN012=
201301260550 METAR COR EGLL 260550Z 24006KT 7000 SCT003 BKN008 03/03 Q1004
                        RERA BECMG SCT008 BKN014=
201301260520 METAR COR EGLL 260520Z 28004KT 210V330 4500 RA FEW002 BKN006
                        03/03 Q1004 REDZ BECMG 8000 NSW FEW008
                        BKN014=
201301260450 METAR COR EGLL 260450Z 27005KT 3300 RADZ FEW004 BKN009 03/03
                        Q1004 BECMG 6000 -RA SCT008 BKN012=
201301260420 METAR COR EGLL 260420Z 00000KT 4500 -RA BR SCT004 BKN008
                        03/02 Q1003 BECMG 7000 SCT008 BKN012=
201301260350 METAR COR EGLL 260350Z 17004KT 3500 -RADZ FEW004 BKN008 03/02
                        Q1002 BECMG 6000 SCT008 BKN012=
201301260320 METAR COR EGLL 260320Z 17007KT 5000 -RA FEW008 BKN010 03/01
                        Q1002 TEMPO 3500 -DZ BKN007=
201301260250 METAR EGLL 260250Z AUTO 15007KT 9999 -DZ OVC009/// 03/01
                        Q1001=
201301260220 METAR EGLL 260220Z AUTO 15008KT 6000 BKN008/// 02/01 Q1001=
201301260150 METAR EGLL 260150Z AUTO 17010KT 8000 -RA OVC009/// 03/01
                        Q1001 RERA=
201301260120 METAR EGLL 260120Z 17014KT 6000 RA FEW007 BKN009 03/02 Q1001=
201301260050 METAR COR EGLL 260050Z 16011KT 6000 RA SCT008 BKN010 03/02
                        Q1001 TEMPO 4000 BKN008=
201301260020 METAR COR EGLL 260020Z 16012KT 6000 -RA FEW009 BKN010 03/01
                        Q1001 TEMPO 4000 RA BKN009=
201301252350 METAR COR EGLL 252350Z 16014KT 6000 -RA FEW009 BKN010 03/01
                        Q1001 RERA TEMPO 4000 RA BKN009=
201301252320 METAR COR EGLL 252320Z 16014KT 5000 RA FEW009 BKN010 03/02
                        Q1002 TEMPO 3500 BKN008=
201301252250 METAR COR EGLL 252250Z 16013KT 6000 -RA BKN012 03/01 Q1002
                        TEMPO 4500 -RASN BKN009=
201301252220 METAR COR EGLL 252220Z 16014KT 7000 -RA BKN016 03/01 Q1002
                        BECMG 4500 -RASN BKN010=
201301252150 METAR COR EGLL 252150Z 16014KT 7000 -RASN BKN014 03/01 Q1003
                        TEMPO 4000 BKN008=
201301252120 METAR COR EGLL 252120Z 16013KT 6000 BKN012 03/01 Q1003 TEMPO
                        4000 -RASN BKN009=
201301252050 METAR COR EGLL 252050Z 16014KT 6000 BKN012 03/01 Q1004 TEMPO
                        4000 -RASN BKN009=
201301252020 METAR COR EGLL 252020Z 15013KT 6000 FEW011 SCT013 OVC017
                        02/00 Q1005 TEMPO 4000 -RASN BKN009=
201301251950 METAR COR EGLL 251950Z 15013KT 6000 BKN011 02/M00 Q1006 TEMPO
                        4500 -RASN=
201301251920 METAR COR EGLL 251920Z 15010KT 8000 BKN013 02/M01 Q1007 TEMPO
                        4500 -RASN=
201301251850 METAR EGLL 251850Z 15009KT 8000 BKN013 01/M01 Q1007=
201301251820 METAR COR EGLL 251820Z 15010KT 8000 OVC016 01/M02 Q1008 NOSIG=
201301251750 METAR COR EGLL 251750Z 15011KT 9999 FEW018 SCT019 01/M02
                        Q1009 NOSIG=
201301251720 METAR COR EGLL 251720Z 15011KT 9999 SCT016 SCT019 01/M02
                        Q1010 NOSIG=
201301251650 METAR EGLL 251650Z 15011KT 9999 BKN018 01/M02 Q1010=
201301251620 METAR COR EGLL 251620Z 15012KT 9999 FEW018 BKN020 01/M02
                        Q1011 NOSIG=
201301251550 METAR COR EGLL 251550Z 16012KT 9999 SCT020 BKN024 02/M03
                        Q1011 NOSIG=
201301251520 METAR COR EGLL 251520Z 16011KT 9999 SCT022 BKN027 02/M02
                        Q1012 NOSIG=
201301251450 METAR COR EGLL 251450Z 16013KT 9999 SCT021 BKN026 02/M02
                        Q1012 NOSIG=
201301251420 METAR COR EGLL 251420Z 15011KT 9999 SCT021 BKN030 02/M02
                        Q1013 NOSIG=
201301251350 METAR COR EGLL 251350Z 16011KT 9999 FEW019 BKN025 02/M02
                        Q1014 NOSIG=
201301251320 METAR EGLL 251320Z 16010KT 9999 FEW019 BKN031 02/M02 Q1015=
201301251250 METAR COR EGLL 251250Z 16009KT 9999 BKN030 02/M02 Q1015 NOSIG=
201301251220 METAR COR EGLL 251220Z 15009KT 9999 BKN030 02/M02 Q1016 NOSIG=
201301251150 METAR COR EGLL 251150Z 16008KT 9999 BKN029 02/M02 Q1016 NOSIG=
201301251120 METAR COR EGLL 251120Z 15008KT 9999 FEW020 BKN029 02/M02
                        Q1017 NOSIG=
201301251050 METAR EGLL 251050Z 16008KT 9999 FEW023 BKN030 01/M02 Q1017=
201301251020 METAR COR EGLL 251020Z 16009KT 9999 BKN029 01/M02 Q1017 NOSIG=
201301250950 METAR EGLL 250950Z 16008KT 9999 BKN028 01/M02 Q1018=
201301250920 METAR COR EGLL 250920Z 16007KT 9999 BKN027 01/M03 Q1018 NOSIG=
201301250850 METAR COR EGLL 250850Z 16005KT 9999 BKN033 01/M03 Q1018 NOSIG=
201301250820 METAR COR EGLL 250820Z 17006KT 9999 BKN032 01/M03 Q1018 NOSIG=
201301250750 METAR COR EGLL 250750Z 17004KT 9999 BKN033 01/M03 Q1018 NOSIG=
201301250720 METAR COR EGLL 250720Z 15005KT 9999 BKN034 01/M03 Q1018 NOSIG=
201301250650 METAR COR EGLL 250650Z 14006KT 9999 BKN036 01/M03 Q1018 NOSIG=
201301250620 METAR COR EGLL 250620Z 14005KT 9999 BKN036 01/M03 Q1019 NOSIG=
201301250550 METAR COR EGLL 250550Z 14006KT 9999 BKN037 01/M03 Q1019 NOSIG=
201301250520 METAR COR EGLL 250520Z 13007KT 9999 BKN037 01/M03 Q1019 NOSIG=
201301250450 METAR COR EGLL 250450Z 12008KT 9999 BKN037 00/M02 Q1019 NOSIG=
201301250420 METAR COR EGLL 250420Z 12005KT 9999 BKN035 00/M02 Q1019 NOSIG=
201301250350 METAR EGLL 250350Z AUTO VRB03KT 9999 BKN032/// 01/M02 Q1020=
201301250320 METAR EGLL 250320Z AUTO 18002KT 9999 OVC033/// 01/M02 Q1020=
201301250250 METAR EGLL 250250Z AUTO 16002KT 9999 OVC032/// 00/M02 Q1019=
201301250220 METAR COR EGLL 250220Z VRB03KT 9999 BKN034 00/M02 Q1020 NOSIG=
201301250150 METAR EGLL 250150Z 11003KT 9999 BKN037 M00/M03 Q1020=
201301250120 METAR COR EGLL 250120Z 21002KT 9999 SCT039 00/M03 Q1020 NOSIG=
201301250050 METAR COR EGLL 250050Z 27003KT 9999 FEW035 00/M04 Q1020 NOSIG=
201301250020 METAR COR EGLL 250020Z 26002KT 9999 BKN035 01/M03 Q1020 NOSIG=
201301242350 METAR COR EGLL 242350Z 00000KT 9999 BKN035 01/M03 Q1020 NOSIG=
201301242320 METAR COR EGLL 242320Z 18002KT 9999 BKN038 01/M03 Q1020 NOSIG=
201301242250 METAR COR EGLL 242250Z VRB03KT 9999 OVC039 01/M03 Q1021 NOSIG=
201301242220 METAR COR EGLL 242220Z 27003KT 9999 FEW033 BKN037 01/M03
                        Q1021 NOSIG=
201301242150 METAR COR EGLL 242150Z VRB03KT 9999 BKN035 02/M03 Q1021 NOSIG=
201301242120 METAR COR EGLL 242120Z VRB02KT 9999 BKN036 02/M03 Q1021 NOSIG=
201301242050 METAR COR EGLL 242050Z 29004KT 9999 FEW029 BKN035 02/M03
                        Q1021 NOSIG=
201301242020 METAR COR EGLL 242020Z 15002KT 9999 BKN032 02/M03 Q1021 NOSIG=
201301241950 METAR EGLL 241950Z 00000KT 9999 BKN032 02/M03 Q1020=
201301241920 METAR COR EGLL 241920Z 14002KT 9999 SCT030 SCT036 02/M03
                        Q1020 NOSIG=
201301241850 METAR COR EGLL 241850Z 08003KT 9999 BKN033 02/M04 Q1020 NOSIG=
201301241820 METAR COR EGLL 241820Z 36003KT 9999 BKN034 02/M04 Q1020 NOSIG=
201301241750 METAR COR EGLL 241750Z 07003KT 9999 OVC034 02/M04 Q1020 NOSIG=
201301241720 METAR COR EGLL 241720Z VRB02KT 9999 BKN033 02/M04 Q1020 NOSIG=
201301241650 METAR COR EGLL 241650Z 01004KT 330V050 9999 BKN038 02/M04
                        Q1020 NOSIG=
201301241620 METAR COR EGLL 241620Z 07004KT 9999 BKN034 02/M04 Q1019 NOSIG=
201301241550 METAR COR EGLL 241550Z 06005KT 9999 FEW025 BKN031 02/M04
                        Q1019 NOSIG=
201301241520 METAR COR EGLL 241520Z 07005KT 9999 BKN035 02/M03 Q1018 NOSIG=
201301241450 METAR COR EGLL 241450Z 07006KT 9999 FEW024 BKN038 02/M03
                        Q1018 NOSIG=
201301241420 METAR COR EGLL 241420Z 07006KT 9999 FEW025 BKN038 02/M03
                        Q1018 NOSIG=
201301241350 METAR COR EGLL 241350Z 06005KT 9999 VCSH FEW022 OVC035 02/M02
                        Q1018 NOSIG=
201301241320 METAR COR EGLL 241320Z 06006KT 9999 FEW021 BKN035 02/M02
                        Q1018 NOSIG=
201301241250 METAR COR EGLL 241250Z 06008KT 9999 FEW020 BKN035 02/M02
                        Q1018 NOSIG=
201301241220 METAR COR EGLL 241220Z 07007KT 9999 SCT027 BKN035 02/M02
                        Q1017 NOSIG=
201301241150 METAR EGLL 241150Z 06007KT 9999 FEW020 BKN038 02/M02 Q1017=
201301241120 METAR COR EGLL 241120Z 06007KT 9999 FEW018 BKN039 02/M01
                        Q1017 NOSIG=
201301241050 METAR COR EGLL 241050Z 05005KT 010V080 9000 BKN038 02/M01
                        Q1017 NOSIG=
201301241020 METAR COR EGLL 241020Z 05005KT 8000 OVC038 02/M01 Q1017 NOSIG=
201301240950 METAR COR EGLL 240950Z 04006KT 010V070 9000 FEW020 BKN041
                        02/M01 Q1016 NOSIG=
201301240920 METAR COR EGLL 240920Z 05005KT 010V090 8000 BKN043 02/M01
                        Q1016 NOSIG=
201301240850 METAR COR EGLL 240850Z 05004KT 010V090 8000 BKN041 01/M01
                        Q1015 NOSIG=
201301240820 METAR COR EGLL 240820Z 05005KT 010V080 8000 FEW032 BKN038
                        01/M01 Q1015 NOSIG=
201301240750 METAR COR EGLL 240750Z 05006KT 010V080 8000 BKN036 01/M01
                        Q1015 NOSIG=
201301240720 METAR COR EGLL 240720Z 05006KT 010V080 9999 BKN039 01/M01
                        Q1014 NOSIG=
201301240650 METAR COR EGLL 240650Z 05004KT 9999 BKN042 01/M01 Q1014 NOSIG=
201301240620 METAR COR EGLL 240620Z 05006KT 020V080 9999 BKN040 01/M01
                        Q1013 NOSIG=
201301240550 METAR COR EGLL 240550Z 06004KT 020V080 9999 OVC040 01/M01
                        Q1013 NOSIG=
201301240520 METAR COR EGLL 240520Z 07005KT 9999 OVC036 01/M01 Q1013 NOSIG=
201301240450 METAR COR EGLL 240450Z 05004KT 020V090 9000 BKN036 01/M01
                        Q1013 NOSIG=
201301240420 METAR COR EGLL 240420Z 05005KT 010V080 9000 BKN030 01/M01
                        Q1012 TEMPO -SN=
201301240350 METAR COR EGLL 240350Z 05004KT 9000 FEW016 BKN030 01/M01
                        Q1012 TEMPO -SN=
201301240320 METAR EGLL 240320Z AUTO 05005KT 020V080 9000 SCT011/// BKN018///
                        01/M01 Q1011=
201301240250 METAR EGLL 240250Z AUTO 05005KT 8000 BKN012/// BKN016///
                        01/M01 Q1011=
201301240220 METAR EGLL 240220Z AUTO 06005KT 7000 -SN FEW013/// BKN029///
                        01/M01 Q1011=
201301240150 METAR COR EGLL 240150Z 08007KT 7000 -SN FEW018 SCT030 01/M01
                        Q1011 NOSIG=
201301240120 METAR COR EGLL 240120Z 08008KT 7000 FEW020 BKN044 01/M01
                        Q1010 TEMPO -SN=
201301240050 METAR COR EGLL 240050Z 09010KT 8000 BKN035 01/M01 Q1010 TEMPO
                        -SN=
201301240020 METAR COR EGLL 240020Z 09009KT 8000 FEW035 02/M02 Q1010 NOSIG=
201301232350 METAR COR EGLL 232350Z 10011KT 7000 FEW019 BKN032 BKN037
                        02/M01 Q1010 NOSIG=
201301232320 METAR COR EGLL 232320Z 09010KT 6000 FEW020 SCT030 02/M01
                        Q1009 NOSIG=
201301232250 METAR COR EGLL 232250Z 09011KT 6000 BKN029 02/M01 Q1009 NOSIG=
201301232220 METAR COR EGLL 232220Z 09010KT 6000 BKN027 OVC039 02/M01
                        Q1009 NOSIG=
201301232150 METAR COR EGLL 232150Z 09011KT 7000 SCT028 SCT033 02/M01
                        Q1009 NOSIG=
201301232120 METAR COR EGLL 232120Z 09011KT 7000 BKN030 02/M01 Q1009 NOSIG=
201301232050 METAR COR EGLL 232050Z 09011KT 8000 BKN030 02/M01 Q1008 NOSIG=
201301232020 METAR COR EGLL 232020Z 09010KT 9000 BKN030 02/M02 Q1008 NOSIG=
201301231950 METAR COR EGLL 231950Z 09009KT 8000 FEW020 BKN030 02/M01
                        Q1008 NOSIG=
201301231920 METAR COR EGLL 231920Z 08010KT 8000 BKN027 02/M01 Q1008 NOSIG=
201301231850 METAR COR EGLL 231850Z 08008KT 7000 BKN027 02/M01 Q1008 NOSIG=
201301231820 METAR COR EGLL 231820Z 09009KT 6000 -RASN BKN027 02/M01 Q1008
                        NOSIG=
201301231750 METAR COR EGLL 231750Z 09010KT 6000 BKN022 BKN027 02/M01
                        Q1008 NOSIG=
201301231720 METAR COR EGLL 231720Z 09009KT 5000 -RA BKN023 02/M01 Q1008
                        NOSIG=
201301231650 METAR COR EGLL 231650Z 10009KT 4500 -RASN FEW017 BKN024 01/M01
                        Q1008 BECMG 7000=
201301231620 METAR COR EGLL 231620Z 09012KT 5000 -RA FEW021 BKN025 02/M01
                        Q1007 NOSIG=
201301231550 METAR COR EGLL 231550Z 09012KT 7000 -RA FEW016 BKN025 02/M00
                        Q1007 NOSIG=
201301231520 METAR COR EGLL 231520Z 09010KT 5000 -RASN SCT015 BKN025 02/M00
                        Q1008 NOSIG=
201301231450 METAR COR EGLL 231450Z 06006KT 5000 BR SCT015 BKN027 02/M00
                        Q1007 TEMPO 4500 -DZ=
201301231420 METAR COR EGLL 231420Z 07006KT 5000 BR FEW014 SCT027 BKN037
                        02/M00 Q1007 NOSIG=
201301231350 METAR COR EGLL 231350Z 07006KT 4500 BR FEW012 SCT015 BKN025
                        02/00 Q1008 BECMG 7000=
201301231320 METAR EGLL 231320Z 07008KT 5000 BR BKN016 BKN027 02/M00 Q1008=
201301231250 METAR COR EGLL 231250Z 07008KT 3800 -SN SCT009 BKN016 02/M00
                        Q1008 RESN BECMG 7000=
201301231220 METAR COR EGLL 231220Z 06007KT 6000 -SG SCT016 OVC032 02/M01
                        Q1008 TEMPO 4500=
201301231150 METAR COR EGLL 231150Z 07008KT 7000 BKN017 BKN033 02/M01
                        Q1008 NOSIG=
201301231120 METAR COR EGLL 231120Z 06008KT 7000 BKN017 BKN034 02/M01
                        Q1009 NOSIG=
201301231050 METAR EGLL 231050Z 07008KT 7000 SCT017 OVC034 02/M01 Q1008=
201301231020 METAR COR EGLL 231020Z 06007KT 7000 BKN016 BKN045 02/M01
                        Q1008 NOSIG=
201301230950 METAR COR EGLL 230950Z 06006KT 8000 BKN016 02/M01 Q1008 NOSIG=
201301230920 METAR EGLL 230920Z 06006KT 8000 BKN015 01/M01 Q1008=
201301230850 METAR COR EGLL 230850Z 06007KT 5000 -SN HZ BKN015 01/M01
                        Q1008 NOSIG=
201301230820 METAR COR EGLL 230820Z 06006KT 8000 BKN016 01/M01 Q1008 NOSIG=
201301230750 METAR COR EGLL 230750Z 07007KT 7000 -SN BKN016 01/M01 Q1007
                        NOSIG=
201301230720 METAR COR EGLL 230720Z 07007KT 9000 BKN016 02/M01 Q1007 NOSIG=
201301230650 METAR COR EGLL 230650Z 06007KT 8000 BKN017 02/M01 Q1007 NOSIG=
201301230620 METAR COR EGLL 230620Z 05005KT 7000 BKN019 02/M01 Q1007 NOSIG=
201301230550 METAR COR EGLL 230550Z 06007KT 7000 FEW015 BKN017 02/M01
                        Q1006 NOSIG=
201301230520 METAR COR EGLL 230520Z 06007KT 7000 FEW015 BKN017 02/M01
                        Q1006 NOSIG=
201301230450 METAR COR EGLL 230450Z 06006KT 7000 BKN018 02/M01 Q1006 NOSIG=
201301230420 METAR COR EGLL 230420Z 06008KT 7000 FEW015 BKN017 BKN040
                        02/M01 Q1006 NOSIG=
201301230350 METAR COR EGLL 230350Z 06009KT 7000 BKN018 02/M01 Q1006 NOSIG=
201301230320 METAR COR EGLL 230320Z 07009KT 7000 BKN017 02/M01 Q1006 NOSIG=
201301230250 METAR COR EGLL 230250Z 07009KT 7000 BKN018 02/M01 Q1006 NOSIG=
201301230220 METAR EGLL 230220Z AUTO 06008KT 6000 -RA BKN018/// 02/M01
                        Q1006=
201301230150 METAR EGLL 230150Z AUTO 06009KT 6000 -DZ BKN019/// OVC042///
                        02/M01 Q1006=
201301230120 METAR EGLL 230120Z AUTO 06009KT 6000 SCT019/// BKN041///
                        02/M00 Q1006=
201301230050 METAR COR EGLL 230050Z 06009KT 6000 -RASN FEW018 BKN021 02/M00
                        Q1005 NOSIG=
201301230020 METAR COR EGLL 230020Z 07008KT 7000 -RASN SCT018 BKN023 03/M01
                        Q1005 NOSIG=
201301222350 METAR COR EGLL 222350Z 07009KT 7000 -RASN SCT022 BKN028 03/M01
                        Q1005 NOSIG=
201301222320 METAR COR EGLL 222320Z 08010KT 7000 SCT030 BKN044 03/M01
                        Q1005 TEMPO -RASN=
201301222250 METAR COR EGLL 222250Z 09015KT 7000 -RASN BKN039 03/M01 Q1005
                        NOSIG=
201301222220 METAR COR EGLL 222220Z 09016KT 6000 -RASN FEW023 BKN038 02/M01
                        Q1004 NOSIG=
201301222150 METAR COR EGLL 222150Z 09016KT 6000 -RASN FEW013 SCT019 BKN037
                        02/M01 Q1004 NOSIG=
201301222120 METAR COR EGLL 222120Z 08014KT 6000 -RASN FEW020 SCT031 BKN041
                        02/M02 Q1004 NOSIG=
201301222050 METAR COR EGLL 222050Z 09018KT 6000 -RASN FEW020 SCT031 BKN043
                        02/M01 Q1004 NOSIG=
201301222020 METAR COR EGLL 222020Z 09012KT 5000 -RASN HZ FEW023 BKN043
                        02/M01 Q1004 TEMPO BKN012=
201301221950 METAR COR EGLL 221950Z 09014KT 6000 -RASN FEW011 SCT014 BKN041
                        02/M01 Q1004 TEMPO 4000 -SN BKN012=
201301221920 METAR COR EGLL 221920Z 10015KT 5000 -RASN HZ FEW007 SCT012
                        BKN019 02/M01 Q1003 TEMPO 4000 -SN
                        BKN008=
201301221850 METAR COR EGLL 221850Z 09013KT 9999 6000S -SN FEW007 SCT013
                        BKN020 02/M02 Q1003 TEMPO 4000 BKN008=
201301221820 METAR COR EGLL 221820Z 09011KT 9999 6000S -SN FEW013 SCT024
                        02/M02 Q1003 TEMPO 4000 BKN014=
201301221750 METAR COR EGLL 221750Z 09011KT 9999 SCT032 SCT044 03/M02
                        Q1002 TEMPO 4000 -RASN BKN014=
201301221720 METAR COR EGLL 221720Z 08011KT 9999 SCT043 03/M02 Q1002 TEMPO
                        4000 -RASN BKN012=
201301221650 METAR COR EGLL 221650Z 07009KT 9000 SCT049 03/M02 Q1001 TEMPO
                        -SN BKN014=
201301221620 METAR COR EGLL 221620Z 08010KT 9999 FEW037 SCT042 02/M02
                        Q1001 NOSIG=
201301221550 METAR COR EGLL 221550Z 08008KT 9999 FEW044 02/M01 Q1001 NOSIG=
201301221520 METAR COR EGLL 221520Z 07008KT 9999 FEW017 03/M00 Q1001 BECMG
                        BKN012=
201301221450 METAR COR EGLL 221450Z 07009KT 9000 FEW015 SCT020 02/00 Q1001
                        TEMPO BKN012=
201301221420 METAR COR EGLL 221420Z 08010KT 9000 SCT013 02/00 Q1001 TEMPO
                        BKN012=
201301221350 METAR COR EGLL 221350Z 09010KT 9999 FEW011 BKN014 02/00 Q1001
                        TEMPO 8000=
201301221320 METAR COR EGLL 221320Z 08009KT 7000 BKN012 02/00 Q1000 NOSIG=
201301221250 METAR COR EGLL 221250Z 07008KT 6000 SCT010 SCT015 02/00 Q1001
                        TEMPO 4000 BKN012=
201301221220 METAR COR EGLL 221220Z 08009KT 6000 FEW009 BKN012 02/00 Q1001
                        TEMPO 4000 BKN009=
201301221150 METAR COR EGLL 221150Z 07006KT 050V110 5000 HZ FEW008 BKN012
                        02/00 Q1001 TEMPO 4000 BKN008=
201301221120 METAR COR EGLL 221120Z 06006KT 3900 BR FEW006 BKN012 01/00
                        Q1001 NOSIG=
201301221050 METAR COR EGLL 221050Z 07006KT 2700 BR FEW004 SCT006 BKN012
                        01/M00 Q1001 BECMG 4000=
201301221020 METAR COR EGLL 221020Z 08008KT 2700 BR FEW004 BKN006 BKN011
                        00/M00 Q1001 BECMG 4000 FEW005 BKN012=
201301220950 METAR COR EGLL 220950Z 09008KT 2300 BR SCT002 BKN003 M00/M00
                        Q1001 BECMG 4000 BKN005=
201301220920 METAR COR EGLL 220920Z 07007KT 1700 BR BKN002 BKN003 M00/M01
                        Q1001 BECMG 3000 BKN004=
201301220850 METAR COR EGLL 220850Z 07007KT 1900 BR PRFG BKN002 BKN003
                        M01/M01 Q1001 TEMPO 1200=
201301220820 METAR EGLL 220820Z 07007KT 1900 PRFG BR BKN002 M01/M01 Q1000=
201301220750 METAR COR EGLL 220750Z 07007KT 1300 R09L/P1500 R09R/P1500
                        PRFG BR SCT001 BKN002 M01/M02 Q1000
                        TEMPO 0800 FZFG BKN001=
201301220720 METAR COR EGLL 220720Z 07005KT 0900 R09L/P1500 R09R/0900
                        FZFG BKN001 M02/M02 Q1000 TEMPO 0500=
201301220650 METAR COR EGLL 220650Z 08005KT 1900 R09L/1200 PRFG BR BKN002
                        M03/M03 Q1000 BECMG 0600 FZFG BKN001=
201301220620 METAR COR EGLL 220620Z 04005KT 4700 BR VCFG NSC M04/M05 Q1000
                        BECMG 0600 FZFG BKN001=
201301220550 METAR COR EGLL 220550Z 04003KT 5000 BR NSC M04/M04 Q1000
                        BECMG 2000 BKN002=
201301220520 METAR COR EGLL 220520Z 06006KT 6000 NSC M04/M04 Q1000 BECMG
                        2000 BR BKN002=
201301220450 METAR COR EGLL 220450Z VRB03KT 7000 NSC M04/M04 Q1000 BECMG
                        2000 BR BKN002=
201301220420 METAR COR EGLL 220420Z 05003KT 8000 NSC M05/M05 Q1000 BECMG
                        4000 BR=
201301220350 METAR COR EGLL 220350Z 00000KT 9000 NSC M04/M05 Q1000 TEMPO
                        4000 MIFG=
201301220320 METAR COR EGLL 220320Z 07002KT 9000 NSC M04/M05 Q0999 NOSIG=
201301220250 METAR COR EGLL 220250Z 07003KT 9000 NSC M04/M05 Q1000 NOSIG=
201301220220 METAR EGLL 220220Z AUTO 04003KT 2600 BR NCD M04/M05 Q1000=
201301220150 METAR EGLL 220150Z AUTO 07003KT 3200 BR NCD M04/M04 Q1000=
201301220120 METAR EGLL 220120Z AUTO 13004KT 4700 HZ NCD M03/M04 Q1000=
201301220050 METAR EGLL 220050Z 00000KT 8000 NSC M03/M04 Q1000=
201301220020 METAR COR EGLL 220020Z 18002KT 9000 NSC M02/M04 Q0999 TEMPO
                        4000 MIFG=
201301212350 METAR COR EGLL 212350Z 20004KT 150V250 9000 NSC M02/M04 Q0999
                        NOSIG=
201301212320 METAR COR EGLL 212320Z VRB03KT CAVOK M03/M04 Q0999 NOSIG=
201301212250 METAR COR EGLL 212250Z 14005KT CAVOK M02/M03 Q0998 NOSIG=
201301212220 METAR COR EGLL 212220Z 14005KT 100V220 9000 NSC M02/M03 Q0999
                        BECMG 4000 BR=
201301212150 METAR COR EGLL 212150Z 15005KT 110V170 CAVOK M00/M02 Q0999
                        BECMG 4000 BR=
201301212120 METAR COR EGLL 212120Z 15005KT 100V180 9000 BKN048 M00/M02
                        Q0999 BECMG 4000 BR=
201301212050 METAR COR EGLL 212050Z 19004KT 160V250 9999 BKN047 00/M02
                        Q0999 NOSIG=
201301212020 METAR COR EGLL 212020Z 18003KT 9999 BKN047 00/M02 Q0998 NOSIG=
201301211950 METAR COR EGLL 211950Z 19004KT 140V240 9999 BKN045 00/M02
                        Q0998 NOSIG=
201301211920 METAR COR EGLL 211920Z 17005KT 130V210 9000 BKN046 M00/M02
                        Q0998 NOSIG=
201301211850 METAR COR EGLL 211850Z 20006KT 170V250 9000 BKN047 00/M02
                        Q0998 NOSIG=
201301211820 METAR COR EGLL 211820Z 19005KT 160V260 9999 BKN046 00/M02
                        Q0997 NOSIG=
201301211750 METAR COR EGLL 211750Z 20005KT 180V240 9999 BKN046 00/M02
                        Q0997 NOSIG=
201301211720 METAR COR EGLL 211720Z 20005KT 9999 SCT046 00/M02 Q0997 NOSIG=
201301211650 METAR COR EGLL 211650Z 20005KT 170V260 9999 FEW041 01/M02
                        Q0996 NOSIG=
201301211620 METAR EGLL 211620Z 20005KT 170V250 9999 SCT041 02/M02 Q0996=
201301211550 METAR EGLL 211550Z 19006KT 160V240 9999 BKN041 01/M02 Q0996=
201301211520 METAR COR EGLL 211520Z 19005KT 150V240 9999 FEW016 SCT042
                        01/M02 Q0995 NOSIG=
201301211450 METAR COR EGLL 211450Z 20005KT 160V260 9999 FEW016 SCT040
                        02/M02 Q0995 NOSIG=
201301211420 METAR COR EGLL 211420Z 25005KT 210V290 9999 SCT015 SCT018
                        01/M02 Q0995 NOSIG=
201301211350 METAR COR EGLL 211350Z 27006KT 230V320 9999 SCT015 SCT026
                        01/M01 Q0995 NOSIG=
201301211320 METAR COR EGLL 211320Z 22006KT 150V270 9999 SCT015 SCT044
                        01/M01 Q0995 NOSIG=
201301211250 METAR COR EGLL 211250Z 23005KT 190V270 9999 FEW011 SCT035
                        BKN048 01/M01 Q0994 NOSIG=
201301211220 METAR COR EGLL 211220Z 21005KT 150V270 9000 SCT010 BKN027
                        01/M01 Q0994 NOSIG=
201301211150 METAR COR EGLL 211150Z 21006KT 150V250 9000 SCT011 BKN026
                        00/M01 Q0994 NOSIG=
201301211120 METAR COR EGLL 211120Z 23006KT 180V270 9000 SCT023 BKN034
                        00/M01 Q0994 NOSIG=
201301211050 METAR COR EGLL 211050Z 20005KT 150V240 9000 FEW014 SCT021
                        BKN026 M00/M01 Q0994 NOSIG=
201301211020 METAR COR EGLL 211020Z 21006KT 170V260 8000 FEW014 SCT022
                        BKN027 M00/M01 Q0994 NOSIG=
201301210950 METAR COR EGLL 210950Z 23006KT 190V260 7000 OVC026 M00/M01
                        Q0993 NOSIG=
201301210920 METAR EGLL 210920Z 22005KT 7000 FEW008 SCT018 BKN025 M00/M01
                        Q0993=
201301210850 METAR COR EGLL 210850Z 21005KT 170V240 8000 FEW009 BKN025
                        M00/M01 Q0993 TEMPO BKN008=
201301210820 METAR COR EGLL 210820Z 20004KT 170V240 6000 SCT008 OVC025
                        M01/M01 Q0993 TEMPO BKN008=
201301210750 METAR COR EGLL 210750Z 21005KT 170V240 6000 FEW006 BKN023
                        BKN026 M01/M01 Q0992 TEMPO BKN008=
201301210720 METAR COR EGLL 210720Z 21004KT 6000 SCT006 OVC023 M01/M01
                        Q0992 TEMPO BKN008=
201301210650 METAR COR EGLL 210650Z 19005KT 160V240 7000 FEW007 OVC021
                        M01/M01 Q0992 TEMPO BKN008=
201301210620 METAR COR EGLL 210620Z 19004KT 140V220 7000 SCT006 SCT011
                        BKN022 M01/M01 Q0991 R/CLRD// TEMPO
                        BKN008=
201301210550 METAR COR EGLL 210550Z VRB03KT 7000 SCT006 BKN021 M01/M01
                        Q0991 R27L/2100// R27R/2100// TEMPO
                        BKN006=
201301210520 METAR COR EGLL 210520Z 20004KT 130V260 6000 FEW006 SCT007
                        BKN020 M01/M01 Q0991 R27R/2100//
                        TEMPO BKN008=
201301210450 METAR COR EGLL 210450Z 21004KT 6000 FEW006 BKN011 BKN021
                        M01/M01 Q0991 R27R/2100// TEMPO BKN008=
201301210420 METAR EGLL 210420Z 21004KT 6000 SCT005 SCT010 BKN020 M01/M01
                        Q0991 R27R/2100//=
201301210350 METAR COR EGLL 210350Z 20004KT 6000 SCT006 BKN008 M01/M01
                        Q0991 NOSIG=
201301210320 METAR COR EGLL 210320Z 23003KT 7000 SCT005 BKN010 M01/M01
                        Q0991 TEMPO BKN007=
201301210250 METAR COR EGLL 210250Z 27004KT 7000 SCT006 BKN016 M01/M01
                        Q0991 TEMPO BKN006=
201301210220 METAR EGLL 210220Z AUTO 28003KT 7000 FEW010/// OVC017///
                        M01/M01 Q0991=
201301210150 METAR EGLL 210150Z AUTO 27005KT 7000 BKN009/// M01/M01 Q0991=
201301210120 METAR EGLL 210120Z AUTO 28004KT 6000 OVC007/// M01/M01 Q0991=
201301210050 METAR EGLL 210050Z 28004KT 7000 SCT004 BKN008 M01/M01 Q0992
                        R09R/2500//=
201301210020 METAR COR EGLL 210020Z 28004KT 8000 SCT006 BKN012 M01/M01
                        Q0992 R09R/2500// TEMPO BKN006=
201301202350 METAR COR EGLL 202350Z 29004KT 9000 SCT006 BKN011 M01/M01
                        Q0992 R09R/2500// NOSIG=
201301202320 METAR COR EGLL 202320Z 30004KT 9000 SCT005 BKN011 M01/M01
                        Q0992 R09L/5903// R09R/2200// NOSIG=
201301202250 METAR COR EGLL 202250Z 29004KT 5000 -SN BR SCT004 BKN009
                        BKN016 M01/M01 Q0992 R09L/2500//
                        R09R/2200// BECMG NSW=
201301202220 METAR COR EGLL 202220Z 29003KT 4500 -SN BR FEW006 BKN010
                        BKN027 M01/M01 Q0992 R09L/2500//
                        R09R/2200// BECMG 6000 NSW=
201301202150 METAR COR EGLL 202150Z 31003KT 3700 -SN BR FEW005 BKN009
                        BKN025 M01/M01 Q0992 BECMG 6000 NSW
                        BKN020=
201301202120 METAR COR EGLL 202120Z VRB02KT 3900 -SN BR FEW005 SCT009
                        BKN011 M01/M01 Q0992 R09L/2500//
                        R09R/2200// BECMG 6000 NSW BKN020=
201301202050 METAR COR EGLL 202050Z 35003KT 4600 -SN BR FEW005 SCT008
                        M01/M01 Q0992 R09L/2500// R09R/2100//
                        BECMG 6000 NSW=
201301202020 METAR COR EGLL 202020Z 35004KT 330V030 4600 -SN BR FEW006
                        SCT008 BKN011 M01/M01 Q0992 R09L/2900//
                        R09R/6501// BECMG 6000 NSW BKN020=
201301201950 METAR COR EGLL 201950Z 36004KT 320V040 5000 -SN BR SCT006
                        BKN011 M01/M01 Q0992 R09L/2900//
                        R09R/6500// BECMG BKN020=
201301201920 METAR EGLL 201920Z 36003KT 6000 -SN SCT007 BKN011 M01/M01
                        Q0992 R09L/2900// R09R/6501//=
201301201850 METAR COR EGLL 201850Z 35004KT 310V020 6000 -SN FEW007 SCT009
                        BKN011 M00/M01 Q0992 R09L/2900//
                        R09R/6501// BECMG NSW=
201301201820 METAR COR EGLL 201820Z VRB03KT 4000 -SN BR FEW005 SCT006
                        BKN008 M00/M01 Q0993 R09L/2900//
                        R09R/6501// BECMG 6000 NSW BKN012=
201301201750 METAR COR EGLL 201750Z 35004KT 3000 -SN FEW004 SCT006 BKN007
                        M00/M01 Q0993 R09L/2900// R09R/6501//
                        NOSIG=
201301201720 METAR COR EGLL 201720Z 35004KT 310V010 2600 -SN BR FEW004
                        SCT005 BKN007 M00/M01 Q0993 R09L/2900//
                        R09R/2900// NOSIG=
201301201650 METAR COR EGLL 201650Z VRB03KT 2500 -SN BR FEW004 SCT005
                        BKN006 M00/M01 Q0993 R09L/2900//
                        R09R/2900// NOSIG=
201301201620 METAR COR EGLL 201620Z VRB03KT 2600 -SN BR FEW004 SCT005
                        BKN006 M00/M01 Q0993 R09L/2900//
                        R09R/2900// TEMPO 1400 BKN004=
201301201550 METAR COR EGLL 201550Z 35004KT 310V020 2600 -SN BR FEW004
                        SCT005 BKN006 M00/M01 Q0993 R09L/2900//
                        R09R/2900// TEMPO 1400 SN BKN004=
201301201520 METAR COR EGLL 201520Z 36004KT 310V020 1800 -SN BR FEW004
                        SCT005 BKN006 M00/M01 Q0993 R09L/2900//
                        R09R/2900// TEMPO 1400 SN BKN004=
201301201450 METAR COR EGLL 201450Z 35004KT 320V030 2100 R09R/1400 -SN
                        BR FEW004 SCT005 BKN006 M00/M01 Q0994
                        R09L/2900// R09R/2900// TEMPO 1400
                        SN BKN004=
201301201420 METAR COR EGLL 201420Z 36004KT 330V040 2200 -SN SCT005 BKN006
                        M00/M01 Q0994 RESN R09L/2900// R09R/2900//
                        TEMPO 1400 SN=
201301201350 METAR COR EGLL 201350Z 01004KT 340V040 1700 R09R/1400 SN
                        FEW005 SCT006 BKN007 M01/M01 Q0994
                        TEMPO 1200=
201301201320 METAR COR EGLL 201320Z 36005KT 1400 R09L/P1500 R09R/1400
                        SN SCT005 BKN007 M01/M01 Q0994 NOSIG=
201301201250 METAR COR EGLL 201250Z 01004KT 340V050 1400 R09L/P1500 R09R/1400
                        SN FEW005 SCT006 BKN007 M01/M01 Q0994
                        NOSIG=
201301201220 METAR COR EGLL 201220Z 01005KT 330V050 1400 R09L/P1500 R09R/1400
                        SN FEW005 SCT006 BKN007 M01/M01 Q0994
                        NOSIG=
201301201150 METAR COR EGLL 201150Z 02005KT 320V060 2100 -SN BKN007 BKN008
                        M01/M02 Q0995 TEMPO 1400 SN=
201301201120 METAR COR EGLL 201120Z 02005KT 340V050 2100 -SN SCT006 OVC008
                        M01/M02 Q0995 NOSIG=
201301201050 METAR COR EGLL 201050Z 01005KT 330V040 2100 R09R/1400 -SN
                        FEW005 SCT006 BKN008 M01/M02 Q0996
                        NOSIG=
201301201020 METAR COR EGLL 201020Z 01005KT 330V040 2000 -SN SCT006 BKN008
                        M01/M02 Q0996 NOSIG=
201301200950 METAR COR EGLL 200950Z 36005KT 2400 -SN BKN008 M02/M02 Q0996
                        NOSIG=
201301200920 METAR COR EGLL 200920Z 36005KT 330V040 2500 -SN OVC009 M02/M02
                        Q0996 NOSIG=
201301200850 METAR COR EGLL 200850Z 03006KT 3500 -SN OVC009 M01/M03 Q0996
                        NOSIG=
201301200820 METAR EGLL 200820Z 03007KT 010V080 7000 OVC008 M01/M03 Q0996
                        TEMPO -SN=
201301200750 METAR COR EGLL 200750Z 04007KT 010V080 8000 OVC009 M01/M03
                        Q0996 TEMPO -SN=
201301200720 METAR COR EGLL 200720Z 05007KT 010V080 8000 OVC010 M01/M03
                        Q0996 TEMPO BKN008=
201301200650 METAR EGLL 200650Z 04007KT 010V070 8000 OVC011 M01/M03 Q0996=
201301200620 METAR COR EGLL 200620Z 05009KT 360V080 9000 BKN012 M01/M03
                        Q0996 TEMPO -SN BKN009=
201301200550 METAR COR EGLL 200550Z 04007KT 010V070 9000 BKN014 M01/M03
                        Q0996 NOSIG=
201301200520 METAR COR EGLL 200520Z 03008KT 9000 BKN014 M01/M03 Q0996
                        NOSIG=
201301200450 METAR COR EGLL 200450Z 04007KT 010V070 9000 FEW013 BKN016
                        M01/M03 Q0997 NOSIG=
201301200420 METAR COR EGLL 200420Z 03008KT 350V060 9999 BKN015 M01/M04
                        Q0997 R09L/2900// R09R/2900// NOSIG=
201301200350 METAR COR EGLL 200350Z 04010KT 020V080 9999 BKN017 M01/M04
                        Q0997 R09L/2900// R09R/2900// NOSIG=
201301200320 METAR COR EGLL 200320Z 04008KT 010V080 9999 BKN020 M01/M04
                        Q0997 R09L/2900// R09R/2900// NOSIG=
201301200250 METAR COR EGLL 200250Z 04008KT 360V070 9999 SCT014 BKN019
                        M01/M04 Q0997 NOSIG=
201301200220 METAR EGLL 200220Z AUTO 04008KT 010V080 7000 BKN013/// M01/M03
                        Q0997=
201301200150 METAR EGLL 200150Z AUTO 03008KT 360V060 8000 OVC016/// M01/M04
                        Q0997=
201301200120 METAR EGLL 200120Z AUTO 03007KT 360V070 9999 OVC020/// M01/M04
                        Q0998=
201301200050 METAR COR EGLL 200050Z 03008KT 360V070 9999 BKN023 M00/M04
                        Q0998 NOSIG=
201301200020 METAR COR EGLL 200020Z 03008KT 360V070 9999 BKN020 M00/M04
                        Q0998 NOSIG=
201301192350 METAR COR EGLL 192350Z 04007KT 010V070 9999 FEW018 BKN021
                        M00/M04 Q0998 NOSIG=
201301192320 METAR COR EGLL 192320Z 04008KT 9999 BKN020 M00/M03 Q0999
                        NOSIG=
201301192250 METAR COR EGLL 192250Z 04008KT 010V070 9999 FEW018 BKN020
                        M00/M04 Q0999 NOSIG=
201301192220 METAR COR EGLL 192220Z 05007KT 9999 BKN020 M00/M04 Q0999
                        NOSIG=
201301192150 METAR COR EGLL 192150Z 04008KT 010V080 9999 BKN018 M00/M04
                        Q0999 NOSIG=
201301192120 METAR COR EGLL 192120Z 05008KT 010V070 9999 BKN020 M00/M04
                        Q0999 NOSIG=
201301192050 METAR COR EGLL 192050Z 05009KT 010V070 9999 BKN021 M00/M04
                        Q0999 NOSIG=
201301192020 METAR COR EGLL 192020Z 05009KT 020V080 9999 BKN023 M00/M04
                        Q0999 NOSIG=
201301191950 METAR COR EGLL 191950Z 05009KT 9999 FEW018 BKN023 M00/M03
                        Q0999 NOSIG=
201301191920 METAR COR EGLL 191920Z 04009KT 9000 BKN021 M00/M03 Q0999
                        NOSIG=
201301191850 METAR COR EGLL 191850Z 05009KT 010V080 9000 FEW016 SCT019
                        BKN021 00/M03 Q0998 NOSIG=
201301191820 METAR COR EGLL 191820Z 05009KT 020V080 8000 FEW013 BKN014
                        00/M03 Q0998 NOSIG=
201301191750 METAR COR EGLL 191750Z 04008KT 010V070 9000 BKN015 00/M02
                        Q0998 TEMPO BKN014=
201301191720 METAR COR EGLL 191720Z 06010KT 9999 FEW017 BKN021 00/M03
                        Q0998 NOSIG=
201301191650 METAR COR EGLL 191650Z 05009KT 9999 SCT017 BKN021 00/M02
                        Q0998 NOSIG=
201301191620 METAR COR EGLL 191620Z 06009KT 020V090 8000 SCT017 BKN023
                        00/M02 Q0998 NOSIG=
201301191550 METAR COR EGLL 191550Z 06009KT 8000 SCT014 BKN019 00/M02
                        Q0998 NOSIG=
201301191520 METAR COR EGLL 191520Z 06009KT 8000 SCT015 BKN022 01/M02
                        Q0997 NOSIG=
201301191450 METAR COR EGLL 191450Z 06009KT 8000 SCT014 BKN018 01/M02
                        Q0997 NOSIG=
201301191420 METAR COR EGLL 191420Z 06009KT 9000 SCT012 BKN022 01/M02
                        Q0997 TEMPO BKN012=
201301191350 METAR COR EGLL 191350Z 06009KT 7000 SCT010 OVC012 01/M01
                        Q0997 NOSIG=
201301191320 METAR COR EGLL 191320Z 06009KT 7000 OVC011 01/M01 Q0997 NOSIG=
201301191250 METAR COR EGLL 191250Z 06008KT 7000 FEW009 OVC010 01/M01
                        Q0997 NOSIG=
201301191220 METAR COR EGLL 191220Z 06008KT 7000 OVC010 01/M01 Q0996 NOSIG=
201301191150 METAR COR EGLL 191150Z 05009KT 7000 OVC010 01/M01 Q0997 NOSIG=
201301191120 METAR COR EGLL 191120Z 05007KT 7000 BKN010 OVC014 01/M01
                        Q0997 NOSIG=
201301191050 METAR COR EGLL 191050Z 05007KT 010V070 6000 FEW010 SCT014
                        OVC017 01/M01 Q0997 TEMPO BKN014=
201301191020 METAR COR EGLL 191020Z 05006KT 020V080 6000 FEW007 SCT008
                        OVC010 01/M01 Q0998 NOSIG=
201301190950 METAR COR EGLL 190950Z 06006KT 010V080 5000 -SN OVC007 01/M01
                        Q0998 TEMPO NSW SCT008 OVC010=
201301190920 METAR COR EGLL 190920Z 05005KT 010V080 4000 -SN BKN010 01/M01
                        Q0997 TEMPO 5000 HZ=
201301190850 METAR COR EGLL 190850Z 04005KT 020V080 7000 OVC010 01/M01
                        Q0997 TEMPO -SN=
201301190820 METAR COR EGLL 190820Z 05004KT 7000 BKN012 01/M01 Q0997 TEMPO
                        -SN=
201301190750 METAR COR EGLL 190750Z 06005KT 7000 BKN012 BKN020 00/M02
                        Q0996 R09L/2900// R09R/2900// TEMPO
                        -SN=
201301190720 METAR COR EGLL 190720Z 09008KT 7000 -SN OVC013 00/M02 Q0996
                        R09L/2900// R09R/2900// TEMPO 4000=
201301190650 METAR COR EGLL 190650Z 09006KT 6000 OVC013 00/M02 Q0996 R09L/2900//
                        R09R/2900// NOSIG=
201301190620 METAR COR EGLL 190620Z 09006KT 8000 BKN013 00/M02 Q0996 R09L/2900//
                        R09R/2900// NOSIG=
201301190550 METAR COR EGLL 190550Z 09007KT 7000 BKN012 00/M02 Q0996 R09L/2900//
                        R09R/2900// NOSIG=
201301190520 METAR COR EGLL 190520Z 10008KT 7000 BKN013 00/M02 Q0996 R09L/2900//
                        R09R/2900// NOSIG=
201301190450 METAR COR EGLL 190450Z 09009KT 7000 BKN014 00/M02 Q0996 R09L/2900//
                        R09R/2900// TEMPO 4000 -SN=
201301190420 METAR COR EGLL 190420Z 08006KT 7000 -SN FEW013 BKN020 00/M02
                        Q0996 R09L/2900// R09R/2900// TEMPO
                        4000 BKN014=
201301190350 METAR COR EGLL 190350Z 06005KT 6000 -SN FEW015 BKN026 M00/M02
                        Q0996 R09L/2900// R09R/2900// TEMPO
                        4000=
201301190320 METAR COR EGLL 190320Z 07007KT 6000 -SN FEW025 BKN028 M00/M02
                        Q0996 R09L/2900// R09R/2900// TEMPO
                        4000=
201301190250 METAR COR EGLL 190250Z 08007KT 6000 -SN BKN028 M00/M02 Q0996
                        R09L/2500// R09R/2500// TEMPO 4000=
201301190220 METAR EGLL 190220Z AUTO 08008KT 5000 BKN029/// BKN033///
                        M00/M02 Q0996=
201301190150 METAR EGLL 190150Z AUTO 08008KT 5000 SCT019/// BKN031///
                        OVC036/// M00/M02 Q0996=
201301190120 METAR EGLL 190120Z AUTO 08008KT 3800 -RASN FEW019/// OVC037///
                        M01/M02 Q0996=
201301190050 METAR COR EGLL 190050Z 08008KT 4100 -SN HZ FEW011 BKN026
                        M01/M02 Q0996 R09R/2500// R09L/6502//
                        NOSIG=
201301190020 METAR COR EGLL 190020Z 08009KT 4500 -SN HZ FEW013 BKN025
                        M01/M02 Q0997 R09R/2500// R09L/6502//
                        NOSIG=
201301182350 METAR COR EGLL 182350Z 08008KT 3400 -SN HZ FEW009 BKN028
                        M01/M02 Q0997 R09R/2500// R09L/6502//
                        TEMPO -SN BKN010=
201301182320 METAR COR EGLL 182320Z 09010KT 3500 -SN HZ FEW010 BKN025
                        M01/M02 Q0997 TEMPO BKN010=
201301182250 METAR COR EGLL 182250Z 09011KT 5000 -SN SCT013 BKN025 M01/M03
                        Q0997 R09L/2500// R09R/6502// TEMPO
                        4000 -SN BKN012=
201301182220 METAR COR EGLL 182220Z 09011KT 6000 -SN BKN013 BKN024 M01/M03
                        Q0997 R09L/2500// R09R/6502// TEMPO
                        NSW SCT013=
201301182150 METAR COR EGLL 182150Z 09012KT 6000 -SN BKN015 BKN022 M01/M03
                        Q0997 R09R/2500// R09L/6502// TEMPO
                        BKN014=
201301182120 METAR COR EGLL 182120Z 09011KT 6000 -SN BKN015 BKN020 M01/M03
                        Q0997 R09R/2500// R09L/6502// TEMPO
                        BKN014=
201301182050 METAR COR EGLL 182050Z 09013KT 6000 -SN BKN013 BKN018 M01/M03
                        Q0997 R09R/2500// R09L/5902// TEMPO
                        NSW SCT013=
201301182020 METAR COR EGLL 182020Z 09011KT 6000 BKN014 BKN018 M01/M03
                        Q0998 R09L/5501// R09R/5201// TEMPO
                        SCT014=
201301181950 METAR COR EGLL 181950Z 09012KT 6000 -SN BKN015 M01/M03 Q0998
                        R09L/5501// R09R/5905// TEMPO 4000
                        BKN014=
201301181920 METAR COR EGLL 181920Z 09012KT 5000 -SN HZ BKN013 BKN015
                        M01/M02 Q0998 R09L/5501// R09R/5905//
                        NOSIG=
201301181850 METAR EGLL 181850Z 09010KT 6000 -SN BKN012 BKN016 M01/M02
                        Q0998 R09L/5505// R09R/5905//=
201301181820 METAR COR EGLL 181820Z 09010KT 5000 -SN HZ FEW011 OVC013
                        M01/M02 Q0998 R09L/5505// R09R/5905//
                        NOSIG=
201301181750 METAR COR EGLL 181750Z 10011KT 4100 -SN HZ OVC013 M01/M02
                        Q0998 R09L/5903// R09R/2900// TEMPO
                        6000=
201301181720 METAR COR EGLL 181720Z 10011KT 3300 -SN HZ SCT011 BKN013
                        M01/M03 Q0999 R09L/5903// R09R/2900//
                        TEMPO 6000=
201301181650 METAR COR EGLL 181650Z 10012KT 5000 -SN HZ SCT011 BKN013
                        M01/M03 Q0999 NOSIG=
201301181620 METAR COR EGLL 181620Z 10013KT 5000 -SN HZ BKN011 M01/M03
                        Q0999 R09L/6908// R09R/2900// TEMPO
                        BKN008=
201301181550 METAR COR EGLL 181550Z 10011KT 5000 -SN HZ BKN010 M01/M02
                        Q0999 R09L/6908// R09R/2900// TEMPO
                        BKN008=
201301181520 METAR COR EGLL 181520Z 10012KT 2500 -SN FEW008 SCT009 OVC013
                        M01/M02 Q0999 R09L/6908// R09R/2900//
                        TEMPO BKN006=
201301181450 METAR COR EGLL 181450Z 09012KT 1900 -SN FEW006 BKN008 M02/M02
                        Q0999 R09L/6904// R09R/2900// NOSIG=
201301181420 METAR EGLL 181420Z 10012KT 1700 -SN SCT005 BKN007 M02/M02
                        Q1000 R09L/6904// R09R/2900//=
201301181350 METAR COR EGLL 181350Z 10012KT 1200 R09L/1100 R09R/1100 -SN
                        SCT004 BKN006 M02/M03 Q1000 R09L/6904//
                        R09R/2900//TEMPO 0700 SN BKN001=
201301181320 METAR COR EGLL 181320Z 10012KT 1100 R09L/1000 -SN SCT004
                        BKN006 M02/M03 Q1001 RESN TEMPO 0700
                        SN BKN001=
201301181250 METAR COR EGLL 181250Z 10010KT 0900 R09L/0650 SN BKN003 M02/M02
                        Q1002 R09L/6901// R09R/////// TEMPO
                        0700 BKN001=
201301181220 METAR COR EGLL 181220Z 11011KT 0900 R09L/1000 SN BKN003 M02/M03
                        Q1002 R09L/6901// R09R/5908// TEMPO
                        0700 BKN001=
201301181150 METAR COR EGLL 181150Z 11012KT 1100 R09L/1100 R09R/1100 -SN
                        BKN004 M02/M03 Q1003 R09R/5908//
                        R09L/2900// TEMPO 0700 SN BKN001=
201301181120 METAR COR EGLL 181120Z 10012KT 1100 R09R/1000 -SN BKN004
                        M02/M03 Q1003 TEMPO 0700 SN BKN001=
201301181050 METAR COR EGLL 181050Z 10012KT 1000 R09R/0900 -SN BKN004
                        M02/M03 Q1004 R09L/////// R09R/5903//
                        TEMPO 0700 SN BKN001=
201301181020 METAR COR EGLL 181020Z 10012KT 1100 R09L/1100 R09R/1000 -SN
                        BKN004 M02/M03 Q1004 R09L/2900//
                        R09R/2900// TEMPO 0700 SN BKN001=
201301180950 METAR COR EGLL 180950Z 10012KT 1100 R09L/1100 R09R/0900 -SN
                        FEW005 BKN007 M02/M03 Q1005 BECMG
                        0700 SN BKN001=
201301180920 METAR COR EGLL 180920Z 10011KT 1600 R09L/1300 R09R/1400 -SN
                        BKN007 M02/M03 Q1005 NOSIG=
201301180850 METAR COR EGLL 180850Z 10013KT 2100 R09R/1200 -SN BKN011
                        BKN022 M02/M03 Q1006 BECMG BKN005=
201301180820 METAR COR EGLL 180820Z 11013KT 6000 BKN013 M01/M04 Q1006
                        BECMG 4000 -SN=
201301180750 METAR COR EGLL 180750Z 11014KT 7000 BKN016 M01/M04 Q1006
                        BECMG 4000 -SN BKN010=
201301180720 METAR COR EGLL 180720Z 11013KT 7000 BKN016 M01/M04 Q1006
                        BECMG 4000 -SN BKN010=
201301180650 METAR COR EGLL 180650Z 12012KT 8000 SCT016 M00/M03 Q1007
                        BECMG -SN BKN014=
201301180620 METAR COR EGLL 180620Z 12011KT 9000 FEW020 M00/M03 Q1007
                        BECMG -SN BKN014=
201301180550 METAR COR EGLL 180550Z 12011KT 9000 NSC 00/M03 Q1008 NOSIG=
201301180520 METAR COR EGLL 180520Z 13011KT 9000 NSC 01/M03 Q1008 NOSIG=
201301180450 METAR COR EGLL 180450Z 13011KT CAVOK 01/M03 Q1009 NOSIG=
201301180420 METAR COR EGLL 180420Z 13010KT 9999 -SN NSC 01/M03 Q1009
                        NOSIG=
201301180350 METAR COR EGLL 180350Z 13011KT CAVOK 01/M03 Q1010 NOSIG=
201301180320 METAR COR EGLL 180320Z 12010KT CAVOK 01/M03 Q1010 NOSIG=
201301180250 METAR COR EGLL 180250Z 13010KT CAVOK 01/M03 Q1010 NOSIG=
201301180220 METAR EGLL 180220Z AUTO 12010KT 9999 NCD 01/M03 Q1010=
201301180150 METAR EGLL 180150Z AUTO 12009KT 9999 NCD 01/M03 Q1011=
201301180120 METAR EGLL 180120Z AUTO 13009KT 9999 NCD 02/M03 Q1011=
201301180050 METAR COR EGLL 180050Z 13009KT CAVOK 02/M03 Q1011 NOSIG=
201301180020 METAR COR EGLL 180020Z 13008KT CAVOK 02/M03 Q1012 NOSIG=
201301172350 METAR COR EGLL 172350Z 11008KT CAVOK 01/M03 Q1012 NOSIG=
201301172320 METAR COR EGLL 172320Z 13007KT 9999 FEW049 01/M03 Q1013 NOSIG=
201301172250 METAR COR EGLL 172250Z 13006KT 9999 FEW049 01/M03 Q1013 NOSIG=
201301172220 METAR COR EGLL 172220Z 13008KT 9999 FEW049 02/M03 Q1014 NOSIG=
201301172150 METAR COR EGLL 172150Z 13007KT 9999 FEW049 01/M02 Q1014 NOSIG=
201301172120 METAR COR EGLL 172120Z 12007KT 090V150 CAVOK 01/M02 Q1015
                        NOSIG=
201301172050 METAR COR EGLL 172050Z 11008KT CAVOK 01/M02 Q1015 NOSIG=
201301172020 METAR COR EGLL 172020Z 10007KT CAVOK 01/M02 Q1015 NOSIG=
201301171950 METAR EGLL 171950Z 10008KT CAVOK 01/M02 Q1015=
201301171920 METAR COR EGLL 171920Z 10007KT CAVOK 01/M02 Q1015 NOSIG=
201301171850 METAR COR EGLL 171850Z 10005KT CAVOK 02/M02 Q1016 NOSIG=
201301171820 METAR COR EGLL 171820Z 10006KT 9999 FEW045 02/M02 Q1016 NOSIG=
201301171750 METAR COR EGLL 171750Z 10005KT 9999 SCT048 02/M02 Q1016 NOSIG=
201301171720 METAR COR EGLL 171720Z 10006KT 9999 SCT046 02/M03 Q1016 NOSIG=
201301171650 METAR COR EGLL 171650Z 10006KT 9999 FEW025 SCT045 02/M02
                        Q1016 NOSIG=
201301171620 METAR COR EGLL 171620Z 09005KT 9999 SCT040 BKN046 02/M02
                        Q1016 NOSIG=
201301171550 METAR COR EGLL 171550Z 09003KT 9999 SCT039 BKN044 02/M02
                        Q1017 NOSIG=
201301171520 METAR COR EGLL 171520Z VRB03KT 9000 SCT039 BKN043 02/M01
                        Q1017 NOSIG=
201301171450 METAR COR EGLL 171450Z 00000KT 9999 FEW025 SCT039 BKN045
                        02/M01 Q1017 NOSIG=
201301171420 METAR COR EGLL 171420Z 13002KT 9999 FEW025 BKN039 02/M01
                        Q1017 NOSIG=
201301171350 METAR COR EGLL 171350Z 17003KT 9000 SCT039 BKN043 02/M01
                        Q1018 NOSIG=
201301171320 METAR COR EGLL 171320Z VRB02KT 9000 SCT043 02/M02 Q1018 NOSIG=
201301171250 METAR COR EGLL 171250Z 20003KT 9000 FEW043 02/M02 Q1018 NOSIG=
201301171220 METAR COR EGLL 171220Z VRB03KT 9000 FEW043 02/M01 Q1018 NOSIG=
201301171150 METAR EGLL 171150Z VRB02KT 9000 FEW042 02/M01 Q1018=
201301171120 METAR COR EGLL 171120Z 09003KT 7000 FEW041 01/M01 Q1018 NOSIG=
201301171050 METAR COR EGLL 171050Z 00000KT 7000 NSC 00/M02 Q1019 NOSIG=
201301171020 METAR COR EGLL 171020Z 09002KT 6000 NSC M00/M02 Q1019 NOSIG=
201301170950 METAR COR EGLL 170950Z 10003KT 6000 NSC M01/M02 Q1019 NOSIG=
201301170920 METAR COR EGLL 170920Z 00000KT 5000 HZ NSC M01/M02 Q1019
                        NOSIG=
201301170850 METAR COR EGLL 170850Z 09002KT 5000 HZ NSC M02/M03 Q1019
                        BECMG BKN045=
201301170820 METAR COR EGLL 170820Z 09002KT 4800 BR FEW045 M02/M03 Q1019
                        BECMG 6000 NSW=
201301170750 METAR COR EGLL 170750Z 08002KT 4300 BR FEW045 M03/M04 Q1018
                        BECMG 6000 NSW=
201301170720 METAR COR EGLL 170720Z 08004KT 4500 HZ FEW045 M03/M04 Q1018
                        BECMG 6000 NSW=
201301170650 METAR COR EGLL 170650Z VRB02KT 4500 HZ FEW048 M04/M05 Q1018
                        BECMG 6000=
201301170620 METAR COR EGLL 170620Z VRB02KT 4000 HZ FEW048 M04/M05 Q1018
                        NOSIG=
201301170550 METAR COR EGLL 170550Z VRB02KT 4000 HZ FEW048 M04/M05 Q1018
                        NOSIG=
201301170520 METAR COR EGLL 170520Z 00000KT 4000 HZ NSC M04/M05 Q1018
                        NOSIG=
201301170450 METAR COR EGLL 170450Z 00000KT 4000 HZ NSC M04/M05 Q1018
                        NOSIG=
201301170420 METAR COR EGLL 170420Z 00000KT 4400 HZ NSC M03/M05 Q1018
                        NOSIG=
201301170350 METAR COR EGLL 170350Z 00000KT 6000 NSC M03/M04 Q1018 BECMG
                        3500 MIFG=
201301170320 METAR EGLL 170320Z AUTO 00000KT 4900 HZ NCD M03/M04 Q1018=
201301170250 METAR EGLL 170250Z AUTO 00000KT 4100 HZ NCD M03/M04 Q1018=
201301170220 METAR EGLL 170220Z AUTO 00000KT 4200 HZ NCD M03/M04 Q1018=
201301170150 METAR COR EGLL 170150Z VRB03KT 4300 HZ NSC M03/M04 Q1018
                        NOSIG=
201301170120 METAR EGLL 170120Z 28002KT 6000 NSC M02/M04 Q1018=
201301170050 METAR COR EGLL 170050Z 31003KT 5000 HZ NSC M02/M04 Q1017
                        BECMG 4000 BR=
201301170020 METAR COR EGLL 170020Z 00000KT 6000 NSC M02/M04 Q1017 BECMG
                        4000 BR=
201301162350 METAR COR EGLL 162350Z 36003KT 6000 NSC M02/M04 Q1017 BECMG
                        4000 BR=
201301162320 METAR COR EGLL 162320Z 33002KT 6000 NSC M01/M04 Q1017 BECMG
                        4000 BR=
201301162250 METAR COR EGLL 162250Z 00000KT 6000 NSC M02/M04 Q1017 BECMG
                        4000 BR=
201301162220 METAR COR EGLL 162220Z VRB02KT 6000 NSC M02/M04 Q1017 BECMG
                        4500 BR=
201301162150 METAR COR EGLL 162150Z 29003KT 7000 NSC M02/M04 Q1017 TEMPO
                        4500 BR=
201301162120 METAR COR EGLL 162120Z VRB02KT 8000 NSC M01/M04 Q1016 TEMPO
                        4500 BR=
201301162050 METAR COR EGLL 162050Z 04002KT 8000 NSC M02/M04 Q1016 TEMPO
                        4500 BR=
201301162020 METAR COR EGLL 162020Z VRB02KT 9000 NSC M02/M04 Q1016 TEMPO
                        4500 BR=
201301161950 METAR COR EGLL 161950Z VRB02KT 8000 NSC M02/M04 Q1016 TEMPO
                        4500 BR=
201301161920 METAR COR EGLL 161920Z VRB02KT 5000 BR NSC M02/M03 Q1016
                        BECMG 4000=
201301161850 METAR COR EGLL 161850Z VRB02KT 5000 BR NSC M01/M03 Q1016
                        BECMG 4000 BR=
201301161820 METAR COR EGLL 161820Z 35003KT 5000 BR NSC M02/M03 Q1015
                        BECMG 4000 BR=
201301161750 METAR COR EGLL 161750Z 35004KT 6000 NSC M02/M03 Q1015 BECMG
                        4000 BR=
201301161720 METAR COR EGLL 161720Z 04004KT 4500 HZ NSC M01/M03 Q1015
                        NOSIG=
201301161650 METAR EGLL 161650Z VRB03KT 4500 BR NSC M01/M03 Q1015=
201301161620 METAR EGLL 161620Z 35004KT 320V020 4500 BR NSC M01/M02 Q1014=
201301161550 METAR COR EGLL 161550Z 01004KT 330V040 6000 FEW007 M01/M02
                        Q1014 TEMPO 4000 BR=
201301161520 METAR COR EGLL 161520Z 35004KT 6000 FEW007 M00/M02 Q1014
                        TEMPO 4000 HZ=
201301161450 METAR COR EGLL 161450Z 01004KT 330V050 6000 FEW007 M00/M02
                        Q1014 TEMPO 4000 HZ=
201301161420 METAR COR EGLL 161420Z 03004KT 340V070 6000 FEW006 SCT008
                        00/M02 Q1014 TEMPO 4000 HZ=
201301161350 METAR COR EGLL 161350Z 36005KT 6000 SCT007 00/M02 Q1013 NOSIG=
201301161320 METAR COR EGLL 161320Z 01004KT 320V060 6000 SCT008 00/M02
                        Q1013 NOSIG=
201301161250 METAR COR EGLL 161250Z VRB03KT 6000 FEW007 SCT008 M00/M02
                        Q1013 NOSIG=
201301161220 METAR COR EGLL 161220Z VRB03KT 5000 HZ SCT006 SCT008 M01/M02
                        Q1013 NOSIG=
201301161150 METAR COR EGLL 161150Z 03004KT 350V060 4800 HZ SCT007 BKN008
                        M01/M02 Q1013 TEMPO 5000 SCT008=
201301161120 METAR COR EGLL 161120Z VRB03KT 5000 HZ BKN007 M01/M02 Q1013
                        TEMPO SCT008=
201301161050 METAR COR EGLL 161050Z 05004KT 020V080 5000 HZ FEW005 BKN006
                        M01/M02 Q1013 TEMPO SCT008=
201301161020 METAR COR EGLL 161020Z 04004KT 360V070 5000 HZ FEW005 BKN006
                        M01/M02 Q1013 TEMPO SCT008=
201301160950 METAR COR EGLL 160950Z 05004KT 010V080 5000 HZ BKN006 M01/M02
                        Q1012 TEMPO 4000=
201301160920 METAR EGLL 160920Z 06005KT 020V080 5000 HZ BKN006 M01/M02
                        Q1012=
201301160850 METAR COR EGLL 160850Z VRB03KT 4600 HZ BKN005 M01/M02 Q1012
                        TEMPO BKN004=
201301160820 METAR COR EGLL 160820Z 06004KT 360V090 4000 BR BKN005 M02/M03
                        Q1012 TEMPO BKN004=
201301160750 METAR COR EGLL 160750Z 05005KT 3600 HZ BKN004 M02/M03 Q1011
                        TEMPO BKN005=
201301160720 METAR COR EGLL 160720Z VRB03KT 4200 BR BKN005 M02/M03 Q1011
                        TEMPO BKN003=
201301160650 METAR COR EGLL 160650Z VRB03KT 4200 BR SCT004 BKN006 M02/M03
                        Q1011 TEMPO BKN003=
201301160620 METAR EGLL 160620Z 10004KT 3500 BR SCT003 BKN004 M02/M02
                        Q1011=
201301160550 METAR COR EGLL 160550Z 06005KT 3500 BR SCT003 BKN004 M02/M02
                        Q1011 TEMPO 1400 BKN002=
201301160520 METAR COR EGLL 160520Z 08004KT 040V120 3200 BR BKN002 BKN004
                        M02/M02 Q1011 TEMPO 1400 BKN001=
201301160450 METAR EGLL 160450Z 06004KT 2900 BR BKN002 BKN003 M01/M02
                        Q1011=
201301160420 METAR COR EGLL 160420Z 07005KT 1700 BR BKN001 BKN002 M02/M02
                        Q1011 TEMPO 0800 FZFG=
201301160350 METAR COR EGLL 160350Z VRB02KT 1100 R09L/1400 BR BKN001 M02/M02
                        Q1011 TEMPO 0700 FZFG=
201301160320 METAR COR EGLL 160320Z 06004KT 020V080 0400 R09L/1100 FZFG
                        BKN001 M02/M03 Q1011 TEMPO 1000 BCFG=
201301160250 METAR COR EGLL 160250Z 05004KT 010V080 1000 R09L/1400 BR
                        BKN001 M02/M03 Q1011 NOSIG=
201301160220 METAR EGLL 160220Z AUTO 05006KT 3900 HZ FEW002/// M02/M03
                        Q1011=
201301160150 METAR EGLL 160150Z AUTO 05003KT 5000 NCD M02/M03 Q1011=
201301160120 METAR EGLL 160120Z AUTO 02003KT 4300 HZ NCD M03/M04 Q1011=
201301160050 METAR COR EGLL 160050Z 04003KT 5000 HZ NSC M02/M04 Q1011
                        BECMG 4000 BR=
201301160020 METAR COR EGLL 160020Z VRB02KT 6000 NSC M02/M03 Q1011 BEMG
                        4500 BR=
201301152350 METAR COR EGLL 152350Z 36004KT 7000 NSC M02/M04 Q1011 BECMG
                        4800 BR=
201301152320 METAR COR EGLL 152320Z 34003KT 8000 NSC M01/M03 Q1011 NOSIG=
201301152250 METAR EGLL 152250Z 34003KT 9000 FEW016 M00/M03 Q1011=
201301152220 METAR COR EGLL 152220Z 30003KT 9999 SCT016 M00/M02 Q1011
                        NOSIG=
201301152150 METAR COR EGLL 152150Z VRB02KT 9999 SCT017 00/M02 Q1011 TEMPO
                        BKN014=
201301152120 METAR COR EGLL 152120Z 05003KT 9999 FEW015 00/M02 Q1011 TEMPO
                        BKN012=
201301152050 METAR COR EGLL 152050Z 05002KT 9999 SCT014 01/M02 Q1011 TEMPO
                        BKN012=
201301152020 METAR COR EGLL 152020Z 06003KT 9999 FEW014 00/M02 Q1011 NOSIG=
201301151950 METAR COR EGLL 151950Z VRB02KT 9999 FEW015 01/M02 Q1011 NOSIG=
201301151920 METAR COR EGLL 151920Z 01002KT CAVOK 01/M02 Q1012 NOSIG=
201301151850 METAR COR EGLL 151850Z 30003KT CAVOK 01/M02 Q1012 NOSIG=
201301151820 METAR COR EGLL 151820Z 00000KT CAVOK 01/M02 Q1012 NOSIG=
201301151750 METAR COR EGLL 151750Z 31003KT 9999 FEW020 01/M02 Q1012 NOSIG=
201301151720 METAR COR EGLL 151720Z VRB03KT 9999 FEW020 02/M02 Q1012 NOSIG=
201301151650 METAR COR EGLL 151650Z VRB03KT 9999 SCT020 02/M02 Q1012 NOSIG=
201301151620 METAR COR EGLL 151620Z 34004KT 290V020 9999 SCT022 02/M02
                        Q1011 NOSIG=
201301151550 METAR COR EGLL 151550Z 36004KT 320V030 9999 FEW023 02/M01
                        Q1011 NOSIG=
201301151520 METAR COR EGLL 151520Z 32005KT 290V360 9999 FEW018 02/M01
                        Q1011 NOSIG=
201301151450 METAR COR EGLL 151450Z VRB03KT 9999 FEW015 SCT018 02/M01
                        Q1011 NOSIG=
201301151420 METAR COR EGLL 151420Z 33005KT 290V010 9999 FEW013 SCT016
                        02/M01 Q1011 NOSIG=
201301151350 METAR COR EGLL 151350Z 32005KT 290V350 9999 SCT013 02/M01
                        Q1011 NOSIG=
201301151320 METAR COR EGLL 151320Z 33005KT 290V030 9999 BKN013 02/M01
                        Q1011 TEMPO SCT015=
201301151250 METAR COR EGLL 151250Z 33005KT 280V020 9999 BKN012 02/M01
                        Q1011 TEMPO SCT012=
201301151220 METAR COR EGLL 151220Z 35005KT 300V030 9999 BKN012 02/M01
                        Q1011 TEMPO SCT012=
201301151150 METAR COR EGLL 151150Z 36005KT 320V030 9999 BKN011 02/M01
                        Q1011 TEMPO SCT016=
201301151120 METAR COR EGLL 151120Z 33006KT 290V360 9999 BKN011 02/M01
                        Q1011 TEMPO SCT016=
201301151050 METAR COR EGLL 151050Z 33007KT 9999 BKN015 02/M01 Q1011 TEMPO
                        BKN014=
201301151020 METAR COR EGLL 151020Z 33004KT 290V020 9999 BKN014 02/M01
                        Q1011 TEMPO SCT016=
201301150950 METAR COR EGLL 150950Z 32007KT 290V360 9999 BKN013 02/M01
                        Q1010 NOSIG=
201301150920 METAR COR EGLL 150920Z 32006KT 290V360 9999 BKN015 02/M01
                        Q1010 NOSIG=
201301150850 METAR COR EGLL 150850Z 33006KT 290V010 9999 BKN012 02/M01
                        Q1009 NOSIG=
201301150820 METAR COR EGLL 150820Z 35005KT 320V030 9999 BKN011 02/M01
                        Q1009 NOSIG=
201301150750 METAR COR EGLL 150750Z 36005KT 320V040 9999 BKN011 02/M00
                        Q1008 NOSIG=
201301150720 METAR COR EGLL 150720Z 36006KT 320V040 9999 BKN012 02/M01
                        Q1008 TEMPO SCT012=
201301150650 METAR COR EGLL 150650Z 36005KT 330V030 9999 FEW011 SCT026
                        02/M01 Q1008 TEMPO BKN014=
201301150620 METAR COR EGLL 150620Z 36006KT 330V040 9999 SCT013 02/M01
                        Q1007 TEMPO BKN014=
201301150550 METAR COR EGLL 150550Z 36006KT 330V030 9999 SCT015 01/M01
                        Q1007 TEMPO BKN012=
201301150520 METAR COR EGLL 150520Z 36008KT 320V030 9999 BKN016 02/M01
                        Q1007 TEMPO BKN012=
201301150450 METAR COR EGLL 150450Z 35009KT 9999 BKN013 02/M01 Q1006 TEMPO
                        FEW015=
201301150420 METAR COR EGLL 150420Z 36008KT 320V030 9999 BKN014 02/M01
                        Q1006 TEMPO FEW014=
201301150350 METAR COR EGLL 150350Z 35010KT 310V020 9999 BKN014 02/M01
                        Q1005 TEMPO FEW014=
201301150320 METAR COR EGLL 150320Z 33008KT 9999 BKN017 02/M01 Q1005 NOSIG=
201301150250 METAR COR EGLL 150250Z 34010KT 310V010 9999 BKN017 02/M01
                        Q1004 NOSIG=
201301150220 METAR EGLL 150220Z AUTO 33010KT 9999 OVC017/// 02/M01 Q1004=
201301150150 METAR EGLL 150150Z AUTO 31010KT 9999 OVC017/// 02/M01 Q1004=
201301150120 METAR EGLL 150120Z AUTO 30009KT 270V330 9999 SCT019/// 02/M01
                        Q1004=
201301150050 METAR COR EGLL 150050Z 30008KT 9999 FEW019 BKN037 02/M00
                        Q1004 NOSIG=
201301150020 METAR EGLL 150020Z 30009KT 9999 FEW015 SCT038 02/M00 Q1004=
201301142350 METAR COR EGLL 142350Z 29010KT 9999 SCT035 02/M00 Q1004 TEMPO
                        BKN012=
201301142320 METAR COR EGLL 142320Z 29009KT 9999 FEW015 SCT037 02/M00
                        Q1004 TEMPO BKN012=
201301142250 METAR COR EGLL 142250Z 30008KT 9999 FEW015 02/M00 Q1004 TEMPO
                        BKN012=
201301142220 METAR COR EGLL 142220Z 29010KT 9999 FEW024 SCT033 02/M00
                        Q1004 NOSIG=
201301142150 METAR COR EGLL 142150Z 30008KT 9999 FEW013 SCT033 02/00 Q1004
                        NOSIG=
201301142120 METAR COR EGLL 142120Z 30009KT 9999 SCT013 SCT018 02/01 Q1004
                        TEMPO BKN012=
201301142050 METAR COR EGLL 142050Z 32007KT 290V350 9999 -RA SCT013 SCT018
                        03/01 Q1004 TEMPO BKN012=
201301142020 METAR COR EGLL 142020Z 30008KT 9999 BKN011 03/01 Q1004 TEMPO
                        BKN020=
201301141950 METAR COR EGLL 141950Z 30009KT 9999 FEW012 SCT020 03/01 Q1004
                        TEMPO SHRA BKN012=
201301141920 METAR COR EGLL 141920Z 30010KT 9999 FEW020 03/01 Q1004 NOSIG=
201301141850 METAR COR EGLL 141850Z 29010KT 9999 FEW043 04/01 Q1005 TEMPO
                        SHRA BKN014=
201301141820 METAR COR EGLL 141820Z 29011KT 9999 FEW048 03/02 Q1005 NOSIG=
201301141750 METAR COR EGLL 141750Z 27008KT 9999 FEW034 02/01 Q1005 NOSIG=
201301141720 METAR COR EGLL 141720Z 27010KT 9000 SCT032 02/01 Q1005 NOSIG=
201301141650 METAR COR EGLL 141650Z 27011KT 8000 NSC 02/01 Q1006 NOSIG=
201301141620 METAR COR EGLL 141620Z 27011KT 9999 FEW030 02/01 Q1006 NOSIG=
201301141550 METAR EGLL 141550Z 26008KT 9000 FEW006 02/01 Q1006=
201301141520 METAR COR EGLL 141520Z 25008KT 7000 -RA BKN005 02/01 Q1007
                        BECMG FEW007 BKN020=
201301141450 METAR COR EGLL 141450Z 21006KT 180V260 6000 -RASN SCT004
                        BKN014 02/01 Q1007 TEMPO BKN008=
201301141420 METAR COR EGLL 141420Z 21007KT 3000 -SN BKN003 BKN012 01/00
                        Q1007 BECMG 7000 -RA SCT004 BKN012=
201301141350 METAR COR EGLL 141350Z 21007KT 3500 -SN BKN004 BKN010 02/01
                        Q1008 BECMG 7000 -RA SCT006 BKN014=
201301141320 METAR COR EGLL 141320Z 20007KT 080V250 4500 -SN BKN004 02/01
                        Q1009 BECMG 7000 -RA SCT006 BKN013=
201301141250 METAR COR EGLL 141250Z 19007KT 140V230 4000 -SN BKN004 01/00
                        Q1009 BECMG 7000 -RA SCT006 BKN013=
201301141220 METAR COR EGLL 141220Z 20006KT 3500 -SN SCT004 BKN005 01/00
                        Q1010 RESN BECMG 7000 RA SCT005 BKN008=
201301141150 METAR COR EGLL 141150Z 20007KT 180V240 4300 -RASN BKN006
                        BKN013 01/M00 Q1011 BECMG 7000 -RA=
201301141120 METAR COR EGLL 141120Z 21008KT 180V270 7000 -SN BKN007 BKN013
                        01/M00 Q1012 TEMPO 4500 RASN=
201301141050 METAR COR EGLL 141050Z 21007KT 180V240 9999 BKN007 BKN011
                        01/M01 Q1013 TEMPO 4500 -RASN=
201301141020 METAR COR EGLL 141020Z 20007KT 170V240 9999 BKN008 OVC012
                        01/M01 Q1013 NOSIG=
201301140950 METAR COR EGLL 140950Z 19007KT 170V250 9999 FEW008 BKN015
                        00/M01 Q1014 TEMPO BKN012=
201301140920 METAR COR EGLL 140920Z 19008KT 9999 FEW010 BKN016 00/M01
                        Q1014 NOSIG=
201301140850 METAR COR EGLL 140850Z 18007KT 160V220 9999 SCT008 BKN020
                        M00/M01 Q1015 TEMPO BKN012=
201301140820 METAR EGLL 140820Z 18005KT 120V220 8000 SCT007 BKN020 M00/M01
                        Q1015 TEMPO BKN012=
201301140750 METAR COR EGLL 140750Z 18007KT 140V220 4800 -SN SCT005 BKN008
                        M00/M01 Q1015 BECMG 7000 NSW SCT008
                        BKN025=
201301140720 METAR COR EGLL 140720Z 21006KT 180V240 8000 -SN FEW004 SCT008
                        M00/M01 Q1015 TEMPO BKN008=
201301140650 METAR EGLL 140650Z 21006KT 180V260 8000 SCT006 BKN034 M00/M01
                        Q1016=
201301140620 METAR COR EGLL 140620Z 20006KT 180V250 7000 SCT006 BKN037
                        M00/M01 Q1016 TEMPO BKN006=
201301140550 METAR COR EGLL 140550Z 19005KT 5000 -SN FEW009 SCT013 BKN042
                        M00/M01 Q1016 TEMPO 4000 BKN012=
201301140520 METAR COR EGLL 140520Z 21004KT 4500 -SN BR FEW009 SCT016
                        BKN022 M00/M02 Q1017 TEMPO BKN012=
201301140450 METAR COR EGLL 140450Z 20004KT 4500 -SN HZ FEW020 SCT026
                        BKN049 00/M02 Q1017 TEMPO BKN012=
201301140420 METAR COR EGLL 140420Z 26002KT 6000 -SN SCT030 00/M02 Q1017
                        TEMPO BKN012=
201301140350 METAR EGLL 140350Z 28002KT 7000 -SN SCT016 01/M02 Q1018=
201301140320 METAR COR EGLL 140320Z 27003KT 9999 SCT032 BKN039 01/M02
                        Q1018 BECMG BKN012=
201301140250 METAR COR EGLL 140250Z 00000KT CAVOK 00/M03 Q1018 NOSIG=
201301140220 METAR EGLL 140220Z AUTO 00000KT 9999 NCD 01/M03 Q1019=
201301140150 METAR EGLL 140150Z AUTO 28002KT 9999 NCD 01/M03 Q1019=
201301140120 METAR EGLL 140120Z AUTO 27004KT 9999 NCD 00/M03 Q1019=
201301140050 METAR COR EGLL 140050Z 00000KT CAVOK 01/M03 Q1019 NOSIG=
201301140020 METAR COR EGLL 140020Z VRB02KT CAVOK 01/M03 Q1019 NOSIG=
201301132350 METAR COR EGLL 132350Z 36003KT CAVOK 01/M03 Q1020 NOSIG=
201301132320 METAR COR EGLL 132320Z VRB03KT CAVOK 01/M02 Q1020 NOSIG=
201301132250 METAR COR EGLL 132250Z VRB03KT CAVOK 01/M03 Q1020 NOSIG=
201301132220 METAR COR EGLL 132220Z VRB02KT CAVOK 01/M03 Q1020 NOSIG=
201301132150 METAR COR EGLL 132150Z VRB02KT CAVOK 01/M03 Q1020 NOSIG=
201301132120 METAR COR EGLL 132120Z 35003KT CAVOK 01/M03 Q1021 NOSIG=
201301132050 METAR COR EGLL 132050Z 36004KT 330V040 CAVOK 01/M03 Q1021
                        NOSIG=
201301132020 METAR COR EGLL 132020Z 36004KT 9999 FEW045 01/M03 Q1021 NOSIG=
201301131950 METAR COR EGLL 131950Z 36003KT 9999 FEW045 01/M02 Q1021 NOSIG=
201301131920 METAR COR EGLL 131920Z 35004KT 9999 FEW046 01/M02 Q1021 NOSIG=
201301131850 METAR COR EGLL 131850Z 36003KT CAVOK 01/M02 Q1021 NOSIG=
201301131820 METAR COR EGLL 131820Z VRB03KT 9999 FEW047 01/M02 Q1021 NOSIG=
201301131750 METAR COR EGLL 131750Z 34004KT 300V010 9999 BKN047 02/M02
                        Q1021 NOSIG=
201301131720 METAR COR EGLL 131720Z 35004KT 310V030 9999 BKN048 02/M02
                        Q1021 NOSIG=
201301131650 METAR COR EGLL 131650Z 36005KT 330V030 9999 BKN049 02/M02
                        Q1021 NOSIG=
201301131620 METAR COR EGLL 131620Z 36006KT 9999 BKN048 02/M02 Q1021 NOSIG=
201301131550 METAR COR EGLL 131550Z 36006KT 320V040 9999 OVC046 02/M02
                        Q1020 NOSIG=
201301131520 METAR COR EGLL 131520Z 01005KT 330V050 9999 SCT044 02/M02
                        Q1020 NOSIG=
201301131450 METAR EGLL 131450Z 36006KT 9999 BKN047 03/M02 Q1020=
201301131420 METAR COR EGLL 131420Z 36007KT 9999 SCT048 02/M02 Q1020 NOSIG=
201301131350 METAR COR EGLL 131350Z 36007KT 330V030 9999 SCT048 03/M01
                        Q1020 NOSIG=
201301131320 METAR COR EGLL 131320Z 01006KT 330V050 9999 FEW020 03/M02
                        Q1020 NOSIG=
201301131250 METAR COR EGLL 131250Z 01005KT 340V040 9999 FEW020 03/M02
                        Q1020 NOSIG=
201301131220 METAR COR EGLL 131220Z 01006KT 340V050 9999 FEW020 03/M02
                        Q1020 NOSIG=
201301131150 METAR COR EGLL 131150Z 02007KT 330V050 9999 FEW030 03/M02
                        Q1020 NOSIG=
201301131120 METAR COR EGLL 131120Z 02007KT 340V050 CAVOK 03/M02 Q1020
                        NOSIG=
201301131050 METAR EGLL 131050Z 02006KT 340V050 CAVOK 02/M02 Q1020=
201301131020 METAR COR EGLL 131020Z 03005KT 330V060 9999 FEW048 01/M02
                        Q1020 NOSIG=
201301130950 METAR COR EGLL 130950Z 01005KT 340V050 9999 SCT046 M00/M03
                        Q1020 NOSIG=
201301130920 METAR COR EGLL 130920Z 36005KT 9999 FEW048 M00/M03 Q1019
                        NOSIG=
201301130850 METAR COR EGLL 130850Z 01005KT 350V060 9999 FEW048 M00/M03
                        Q1019 NOSIG=
201301130820 METAR COR EGLL 130820Z 01006KT 9999 FEW046 M00/M03 Q1019
                        NOSIG=
201301130750 METAR EGLL 130750Z 01005KT 330V050 9999 FEW046 00/M03 Q1019=
201301130720 METAR COR EGLL 130720Z 35005KT 9999 FEW040 02/M03 Q1018 NOSIG=
201301130650 METAR COR EGLL 130650Z 03005KT 340V070 9999 FEW035 BKN044
                        02/M03 Q1018 NOSIG=
201301130620 METAR COR EGLL 130620Z 04006KT 010V070 9999 SCT031 BKN043
                        02/M03 Q1018 NOSIG=
201301130550 METAR COR EGLL 130550Z 05007KT 010V090 9999 FEW026 SCT045
                        02/M02 Q1017 NOSIG=
201301130520 METAR COR EGLL 130520Z 05007KT 020V080 9999 FEW024 BKN048
                        02/M02 Q1017 NOSIG=
201301130450 METAR COR EGLL 130450Z 05007KT 9999 FEW024 BKN042 03/M02
                        Q1016 NOSIG=
201301130420 METAR COR EGLL 130420Z 06009KT 9999 BKN023 03/M01 Q1016 NOSIG=
201301130350 METAR COR EGLL 130350Z 06008KT 9999 BKN022 03/M01 Q1016 NOSIG=
201301130320 METAR COR EGLL 130320Z 06009KT 9999 BKN022 03/M01 Q1016 NOSIG=
201301130250 METAR COR EGLL 130250Z 05007KT 9999 BKN020 03/M01 Q1016 NOSIG=
201301130220 METAR COR EGLL 130220Z 05008KT 9999 BKN021 03/M00 Q1016 NOSIG=
201301130150 METAR COR EGLL 130150Z 05007KT 010V090 9999 BKN020 03/00
                        Q1015 NOSIG=
201301130020 METAR COR EGLL 130020Z 05006KT 010V080 9999 BKN019 04/01
                        Q1015 NOSIG=
201301122350 METAR COR EGLL 122350Z 07010KT 9999 BKN018 04/01 Q1015 NOSIG=
201301122250 METAR COR EGLL 122250Z 07010KT 9000 FEW012 BKN016 04/01 Q1014
                        NOSIG=
201301122220 METAR COR EGLL 122220Z 07010KT 8000 -RA FEW011 BKN014 04/02
                        Q1014 TEMPO SCT014 BKN025=
201301122150 METAR COR EGLL 122150Z 07008KT 8000 -RA BKN014 04/02 Q1014
                        TEMPO SCT015=
201301122120 METAR COR EGLL 122120Z 07008KT 9999 SCT013 SCT017 04/02 Q1014
                        NOSIG=
201301122050 METAR COR EGLL 122050Z 08010KT 9999 FEW011 BKN014 04/02 Q1014
                        TEMPO SCT014=
201301122020 METAR COR EGLL 122020Z 08009KT 9000 FEW012 SCT015 BKN018
                        03/02 Q1013 TEMPO BKN014=
201301121950 METAR COR EGLL 121950Z 09010KT 8000 FEW013 SCT017 BKN022
                        03/02 Q1013 TEMPO -RA BKN012=
201301121920 METAR COR EGLL 121920Z 10009KT 7000 -RA FEW012 BKN018 03/01
                        Q1013 TEMPO BKN012=
201301121850 METAR COR EGLL 121850Z 10009KT 7000 -RA BKN022 03/01 Q1013
                        TEMPO BKN012=
201301121820 METAR COR EGLL 121820Z 10011KT 8000 -RA BKN017 03/01 Q1013
                        TEMPO BKN014=
201301121750 METAR COR EGLL 121750Z 09010KT 9999 SCT018 SCT021 04/01 Q1012
                        NOSIG=
201301121720 METAR COR EGLL 121720Z 09012KT 9999 FEW022 04/00 Q1012 NOSIG=
201301121650 METAR COR EGLL 121650Z 08012KT 9999 FEW045 04/M00 Q1012 NOSIG=
201301121620 METAR COR EGLL 121620Z 09015KT 9999 SCT045 04/M00 Q1012 NOSIG=
201301121550 METAR COR EGLL 121550Z 09012KT 9999 BKN045 04/M01 Q1012 NOSIG=
201301121520 METAR COR EGLL 121520Z 09013KT 9999 FEW037 BKN045 04/M02
                        Q1011 NOSIG=
201301121450 METAR COR EGLL 121450Z 09015KT 9999 BKN047 04/M02 Q1011 NOSIG=
201301121420 METAR COR EGLL 121420Z 09015KT 9999 SCT037 SCT046 05/M02
                        Q1011 NOSIG=
201301121350 METAR COR EGLL 121350Z 10014KT 9999 BKN037 05/M03 Q1011 NOSIG=
201301121320 METAR COR EGLL 121320Z 09015KT 9999 BKN035 05/M03 Q1011 NOSIG=
201301121250 METAR COR EGLL 121250Z 09011KT 9999 BKN038 04/M02 Q1011 NOSIG=
201301121220 METAR COR EGLL 121220Z 09014KT 9999 BKN038 04/M02 Q1011 NOSIG=
201301121150 METAR COR EGLL 121150Z 09014KT 9999 BKN040 05/M02 Q1011 NOSIG=
201301121120 METAR COR EGLL 121120Z 09011KT 9999 BKN040 04/M02 Q1011 NOSIG=
201301121050 METAR COR EGLL 121050Z 10012KT 9999 BKN039 04/M02 Q1012 NOSIG=
201301121020 METAR COR EGLL 121020Z 09010KT 9999 BKN043 04/M01 Q1012 NOSIG=
201301120950 METAR COR EGLL 120950Z 09010KT 9999 BKN040 04/M00 Q1012 NOSIG=
201301120920 METAR EGLL 120920Z 09011KT 9999 BKN039 04/00 Q1011 NOSIG=
201301120850 METAR COR EGLL 120850Z 09012KT 9999 SCT035 BKN039 04/M00
                        Q1011 NOSIG=
201301120820 METAR EGLL 120820Z 10010KT 9999 BKN030 04/01 Q1011 NOSIG=
201301120750 METAR COR EGLL 120750Z 09010KT 9999 BKN033 03/02 Q1011 NOSIG=
201301120720 METAR COR EGLL 120720Z 09012KT 9999 BKN035 03/02 Q1012 NOSIG=
201301120650 METAR COR EGLL 120650Z 10014KT 5000 -RA BKN025 03/02 Q1012
                        NOSIG=
201301120620 METAR COR EGLL 120620Z 10015KT 9000 -RA FEW010 SCT027 BKN034
                        03/02 Q1012 NOSIG=
201301120550 METAR COR EGLL 120550Z 12011KT 5000 -RA FEW011 SCT027 BKN036
                        03/02 Q1012 TEMPO BKN010=
201301120520 METAR COR EGLL 120520Z 12012KT 5000 -RA SCT011 BKN027 04/03
                        Q1012 TEMPO BKN010=
201301120450 METAR COR EGLL 120450Z 09006KT 5000 -RA SCT009 BKN019 03/02
                        Q1012 TEMPO BKN008=
201301120420 METAR COR EGLL 120420Z 10006KT 5000 -RA SCT009 BKN010 03/02
                        Q1013 TEMPO BKN008=
201301120350 METAR EGLL 120350Z 09007KT 5000 BR SCT013 03/02 Q1013=
201301120320 METAR COR EGLL 120320Z 09007KT 6000 NSC 03/02 Q1013 TEMPO
                        -RA BKN010=
201301120250 METAR COR EGLL 120250Z 09007KT 6000 NSC 02/01 Q1013 NOSIG=
201301120220 METAR EGLL 120220Z AUTO 09005KT 4900 HZ NCD 02/01 Q1014=
201301120150 METAR EGLL 120150Z AUTO 09006KT 4500 HZ NCD 02/01 Q1014=
201301120120 METAR EGLL 120120Z AUTO 09005KT 4300 BR NCD 02/01 Q1014=
201301120050 METAR COR EGLL 120050Z 09005KT 5000 BR NSC 01/01 Q1015 NOSIG=
201301120020 METAR COR EGLL 120020Z 09005KT 4800 BR NSC 01/00 Q1015 TEMPO
                        5000=
201301112350 METAR COR EGLL 112350Z 08005KT 5000 BR NSC 01/00 Q1015 NOSIG=
201301112320 METAR COR EGLL 112320Z 09006KT 5000 BR NSC 01/00 Q1016 NOSIG=
201301112250 METAR COR EGLL 112250Z 08006KT 5000 BR NSC M00/M01 Q1016
                        NOSIG=
201301112220 METAR COR EGLL 112220Z 08005KT 5000 BR NSC 00/M00 Q1016 NOSIG=
201301112150 METAR COR EGLL 112150Z 09004KT 5000 BR NSC 00/M00 Q1016 NOSIG=
201301112120 METAR COR EGLL 112120Z 14004KT 5000 BR NSC 01/00 Q1017 NOSIG=
201301112050 METAR COR EGLL 112050Z 11005KT 5000 BR NSC 01/00 Q1017 NOSIG=
201301112020 METAR COR EGLL 112020Z 13006KT 5000 BR NSC 02/01 Q1017 NOSIG=
201301111950 METAR COR EGLL 111950Z 09005KT 5000 BR NSC 02/01 Q1017 NOSIG=
201301111920 METAR COR EGLL 111920Z 09005KT 6000 NSC 02/01 Q1017 NOSIG=
201301111850 METAR COR EGLL 111850Z 09006KT 6000 NSC 02/01 Q1017 NOSIG=
201301111820 METAR COR EGLL 111820Z 09005KT 6000 BKN016 03/02 Q1017 NOSIG=
201301111750 METAR COR EGLL 111750Z 10007KT 7000 FEW015 BKN019 05/02 Q1017
                        NOSIG=
201301111720 METAR EGLL 111720Z 08004KT 060V120 9999 FEW015 BKN022 06/03
                        Q1017=
201301111650 METAR COR EGLL 111650Z VRB03KT 9999 BKN022 06/03 Q1017 NOSIG=
201301111620 METAR COR EGLL 111620Z 36003KT 9999 FEW016 BKN023 06/03 Q1018
                        NOSIG=
201301111550 METAR COR EGLL 111550Z 32004KT 9999 FEW018 BKN021 06/04 Q1018
                        NOSIG=
201301111520 METAR COR EGLL 111520Z 32004KT 9999 FEW019 BKN026 06/04 Q1018
                        NOSIG=
201301111450 METAR COR EGLL 111450Z 28005KT 9999 SCT027 07/03 Q1018 NOSIG=
201301111420 METAR COR EGLL 111420Z 29004KT 9999 SCT028 07/04 Q1018 NOSIG=
201301111350 METAR COR EGLL 111350Z 26005KT 200V310 9999 SCT028 07/03
                        Q1018 NOSIG=
201301111320 METAR COR EGLL 111320Z VRB02KT 9000 FEW014 SCT028 07/03 Q1018
                        NOSIG=
201301111250 METAR COR EGLL 111250Z VRB02KT 9999 FEW014 BKN028 06/02 Q1018
                        NOSIG=
201301111220 METAR COR EGLL 111220Z VRB03KT 8000 FEW012 SCT028 06/03 Q1018
                        NOSIG=
201301111150 METAR COR EGLL 111150Z VRB02KT 7000 FEW014 SCT030 06/03 Q1018
                        NOSIG=
201301111120 METAR COR EGLL 111120Z VRB03KT 7000 FEW030 06/03 Q1018 NOSIG=
201301111050 METAR COR EGLL 111050Z VRB02KT 7000 FEW010 SCT028 05/03 Q1019
                        NOSIG=
201301111020 METAR COR EGLL 111020Z 28003KT 5000 HZ FEW032 04/02 Q1019
                        NOSIG=
201301110950 METAR COR EGLL 110950Z 00000KT 5000 BR FEW049 04/02 Q1019
                        NOSIG=
201301110920 METAR COR EGLL 110920Z VRB03KT 6000 NSC 04/02 Q1019 NOSIG=
201301110850 METAR COR EGLL 110850Z VRB02KT 6000 NSC 03/02 Q1019 NOSIG=
201301110820 METAR COR EGLL 110820Z 36002KT 4500 BR NSC 03/02 Q1019 TEMPO
                        6000=
201301110750 METAR COR EGLL 110750Z 01003KT 6000 NSC 03/02 Q1018 TEMPO
                        4000 BR=
201301110720 METAR COR EGLL 110720Z VRB02KT 6000 NSC 03/01 Q1018 TEMPO
                        4000 BR=
201301110650 METAR COR EGLL 110650Z 30002KT 5000 BR FEW047 03/01 Q1018
                        TEMPO 4000=
201301110620 METAR COR EGLL 110620Z 00000KT 5000 BR FEW047 02/01 Q1018
                        TEMPO 4000 BR=
201301110550 METAR COR EGLL 110550Z VRB02KT 4400 BR FEW047 02/01 Q1017
                        NOSIG=
201301110520 METAR COR EGLL 110520Z VRB03KT 5000 BR FEW047 02/01 Q1017
                        TEMPO 4000 BR=
201301110450 METAR COR EGLL 110450Z 27004KT 4800 BR NSC 01/00 Q1017 NOSIG=
201301110420 METAR COR EGLL 110420Z 28004KT 4800 BR NSC 01/01 Q1017 NOSIG=
201301110350 METAR COR EGLL 110350Z 27005KT 4800 BR NSC 01/01 Q1017 NOSIG=
201301110320 METAR COR EGLL 110320Z 27004KT 4800 BR NSC 01/M00 Q1017 NOSIG=
201301110250 METAR COR EGLL 110250Z 29003KT 6000 FEW036 01/M00 Q1017 TEMPO
                        4000 BR=
201301110220 METAR EGLL 110220Z AUTO 30003KT 4200 HZ FEW036/// 02/01 Q1017=
201301110150 METAR EGLL 110150Z AUTO 29003KT 4300 HZ SCT036/// 02/01 Q1017=
201301110120 METAR EGLL 110120Z AUTO VRB03KT 4800 HZ BKN037/// 02/01 Q1017=
201301110050 METAR COR EGLL 110050Z 32003KT 4500 BR SCT038 02/01 Q1017
                        NOSIG=
201301110020 METAR COR EGLL 110020Z 32003KT 4500 BR FEW007 02/01 Q1016
                        NOSIG=
201301102350 METAR COR EGLL 102350Z 31003KT 5000 BR FEW007 02/01 Q1016
                        TEMPO 3000 BR BKN007=
201301102320 METAR COR EGLL 102320Z 32004KT 6000 FEW007 02/01 Q1016 TEMPO
                        4000 BR BKN008=
201301102250 METAR COR EGLL 102250Z 31004KT 6000 FEW007 SCT008 03/01 Q1016
                        TEMPO 4000 BR BKN008=
201301102220 METAR COR EGLL 102220Z 31005KT 270V340 6000 BKN008 03/01
                        Q1015 TEMPO 4000 BR=
201301102150 METAR COR EGLL 102150Z 31004KT 6000 SCT008 BKN009 03/01 Q1015
                        BECMG 4000 BR=
201301102120 METAR EGLL 102120Z 34005KT 300V010 6000 SCT008 BKN009 03/01
                        Q1015 BECMG 4000 BR=
201301102050 METAR COR EGLL 102050Z 36004KT 6000 SCT008 BKN009 03/01 Q1015
                        BECMG 4000 BR=
201301102020 METAR COR EGLL 102020Z 36004KT 300V030 6000 SCT008 BKN009
                        03/01 Q1014 BECMG 4000 BR=
201301101950 METAR COR EGLL 101950Z 36004KT 320V040 6000 SCT008 BKN009
                        03/01 Q1014 NOSIG=
201301101920 METAR COR EGLL 101920Z 36004KT 7000 SCT009 BKN014 03/01 Q1014
                        TEMPO BKN009=
201301101850 METAR COR EGLL 101850Z 36005KT 320V020 7000 SCT007 BKN010
                        BKN016 04/01 Q1014 TEMPO BKN009=
201301101820 METAR COR EGLL 101820Z VRB03KT 8000 SCT006 BKN009 BKN022
                        04/01 Q1014 NOSIG=
201301101750 METAR COR EGLL 101750Z VRB03KT 8000 BKN009 BKN010 04/01 Q1014
                        NOSIG=
201301101720 METAR COR EGLL 101720Z VRB03KT 8000 BKN009 BKN011 04/02 Q1014
                        NOSIG=
201301101650 METAR COR EGLL 101650Z VRB03KT 8000 BKN008 BKN010 04/02 Q1014
                        NOSIG=
201301101620 METAR COR EGLL 101620Z VRB02KT 8000 BKN008 BKN010 04/01 Q1014
                        NOSIG=
201301101550 METAR COR EGLL 101550Z 31004KT 260V350 8000 BKN009 BKN010
                        03/01 Q1014 NOSIG=
201301101520 METAR COR EGLL 101520Z 31004KT 280V350 8000 BKN007 BKN010
                        03/02 Q1014 NOSIG=
201301101450 METAR COR EGLL 101450Z 30005KT 7000 BKN007 BKN008 03/02 Q1014
                        NOSIG=
201301101420 METAR COR EGLL 101420Z VRB02KT 6000 BKN006 BKN008 03/02 Q1014
                        NOSIG=
201301101350 METAR COR EGLL 101350Z 33004KT 290V010 6000 BKN006 BKN008
                        04/02 Q1014 NOSIG=
201301101320 METAR EGLL 101320Z 32004KT 6000 BKN006 BKN008 03/02 Q1014=
201301101250 METAR EGLL 101250Z 31004KT 7000 FEW005 BKN006 BKN008 04/02
                        Q1015=
201301101220 METAR COR EGLL 101220Z VRB03KT 6000 SCT005 BKN006 03/02 Q1015
                        NOSIG=
201301101150 METAR EGLL 101150Z 31004KT 270V360 7000 FEW005 BKN006 BKN008
                        03/02 Q1015=
201301101120 METAR COR EGLL 101120Z 31005KT 280V350 7000 FEW005 SCT006
                        BKN007 03/02 Q1016 NOSIG=
201301101050 METAR COR EGLL 101050Z 28006KT 7000 FEW005 BKN006 03/02 Q1016
                        NOSIG=
201301101020 METAR COR EGLL 101020Z 30005KT 270V330 7000 FEW005 BKN006
                        03/01 Q1016 NOSIG=
201301100950 METAR COR EGLL 100950Z 32004KT 290V350 7000 FEW005 BKN006
                        03/01 Q1016 NOSIG=
201301100920 METAR COR EGLL 100920Z VRB02KT 7000 FEW005 SCT007 BKN008
                        03/02 Q1016 NOSIG=
201301100850 METAR COR EGLL 100850Z 36002KT 8000 SCT006 SCT008 03/01 Q1016
                        TEMPO 4500 HZ BKN004=
201301100820 METAR COR EGLL 100820Z VRB02KT 8000 SCT007 BKN008 02/01 Q1016
                        TEMPO 4500 BR BKN004=
201301100750 METAR COR EGLL 100750Z 36003KT 9000 BKN014 02/01 Q1016 TEMPO
                        4000 BR BKN005=
201301100720 METAR COR EGLL 100720Z VRB03KT 9999 BKN017 02/00 Q1016 TEMPO
                        4000 BR BKN005=
201301100650 METAR COR EGLL 100650Z VRB02KT 9999 FEW021 BKN030 01/01 Q1016
                        TEMPO 4000 BR=
201301100620 METAR COR EGLL 100620Z VRB03KT 9999 BKN020 BKN035 01/00 Q1016
                        TEMPO 4000 BR=
201301100550 METAR COR EGLL 100550Z VRB02KT 9999 SCT020 SCT030 01/00 Q1017
                        TEMPO 3000 BR=
201301100520 METAR COR EGLL 100520Z 27004KT 9000 SCT020 00/M00 Q1017 TEMPO
                        0400 FG VV///=
201301100450 METAR COR EGLL 100450Z 07002KT 9000 FEW003 SCT025 M00/M01
                        Q1017 TEMPO 0400 FG VV///=
201301100420 METAR COR EGLL 100420Z 01004KT 340V050 5000 BR FEW001 M00/M01
                        Q1017 TEMPO 0400 FG VV///=
201301100350 METAR EGLL 100350Z AUTO 27003KT 0450 R27L/1000 FG SCT001///
                        BKN017/// M00/M01 Q1017=
201301100320 METAR EGLL 100320Z AUTO 32004KT 270V350 7000 FEW002/// OVC017///
                        00/M00 Q1018=
201301100250 METAR EGLL 100250Z AUTO 30003KT 3900 BR FEW002/// M00/M01
                        Q1018=
201301100220 METAR COR EGLL 100220Z 00000KT 5000 BR FEW002 00/M01 Q1018
                        BECMG 3000=
201301100150 METAR COR EGLL 100150Z 26003KT 7000 FEW002 BKN018 00/M00
                        Q1018 BECMG 4000 BR=
201301100120 METAR COR EGLL 100120Z 00000KT 6000 FEW002 01/M00 Q1018 BECMG
                        4000 BR=
201301100050 METAR COR EGLL 100050Z VRB02KT 8000 NSC 01/00 Q1018 NOSIG=
201301100020 METAR COR EGLL 100020Z 30002KT 6000 NSC 01/M00 Q1018 NOSIG=
201301092350 METAR COR EGLL 092350Z VRB03KT 7000 NSC 01/00 Q1019 NOSIG=
201301092320 METAR COR EGLL 092320Z 30002KT 9000 NSC 02/01 Q1019 NOSIG=
201301092250 METAR COR EGLL 092250Z 31002KT 9000 NSC 03/02 Q1019 NOSIG=
201301092220 METAR COR EGLL 092220Z VRB02KT CAVOK 04/02 Q1020 NOSIG=
201301092150 METAR COR EGLL 092150Z 30002KT 9999 FEW010 05/02 Q1020 NOSIG=
201301092120 METAR COR EGLL 092120Z 00000KT CAVOK 05/02 Q1020 NOSIG=
201301092050 METAR COR EGLL 092050Z 35004KT CAVOK 06/03 Q1020 NOSIG=
201301092020 METAR COR EGLL 092020Z 35003KT CAVOK 06/03 Q1020 NOSIG=
201301091950 METAR COR EGLL 091950Z 00000KT CAVOK 05/02 Q1020 NOSIG=
201301091920 METAR COR EGLL 091920Z VRB02KT CAVOK 06/03 Q1021 NOSIG=
201301091850 METAR COR EGLL 091850Z 03003KT CAVOK 06/03 Q1021 NOSIG=
201301091820 METAR EGLL 091820Z VRB02KT CAVOK 07/03 Q1021 NOSIG=
201301091750 METAR COR EGLL 091750Z VRB02KT CAVOK 06/03 Q1021 NOSIG=
201301091720 METAR COR EGLL 091720Z VRB02KT CAVOK 06/02 Q1021 NOSIG=
201301091650 METAR COR EGLL 091650Z VRB02KT CAVOK 07/03 Q1021 NOSIG=
201301091620 METAR COR EGLL 091620Z VRB03KT CAVOK 07/03 Q1021 NOSIG=
201301091550 METAR EGLL 091550Z 04004KT CAVOK 08/03 Q1021=
201301091520 METAR COR EGLL 091520Z 01004KT 340V070 CAVOK 08/03 Q1021
                        NOSIG=
201301091450 METAR COR EGLL 091450Z 36004KT 330V050 9999 FEW026 08/03
                        Q1021 NOSIG=
201301091420 METAR COR EGLL 091420Z 02004KT 320V060 9999 FEW026 09/03
                        Q1021 NOSIG=
201301091350 METAR EGLL 091350Z 01005KT 310V050 9999 FEW026 09/03 Q1021=
201301091320 METAR COR EGLL 091320Z 02004KT 340V060 9999 FEW030 09/04
                        Q1021 NOSIG=
201301091250 METAR EGLL 091250Z VRB02KT 9999 FEW030 08/05 Q1021=
201301091220 METAR COR EGLL 091220Z 02004KT 340V060 9999 BKN032 08/04
                        Q1021 NOSIG=
201301091150 METAR COR EGLL 091150Z 02005KT 340V060 9999 FEW014 BKN033
                        08/05 Q1022 NOSIG=
201301091120 METAR COR EGLL 091120Z 03004KT 340V060 9999 FEW014 BKN032
                        08/05 Q1022 NOSIG=
201301091050 METAR COR EGLL 091050Z 03006KT 350V060 9999 SCT014 BKN033
                        08/05 Q1022 NOSIG=
201301091020 METAR COR EGLL 091020Z 01004KT 330V050 9999 FEW011 SCT018
                        BKN035 08/06 Q1022 NOSIG=
201301090950 METAR EGLL 090950Z 02005KT 330V050 9999 FEW009 SCT012 BKN018
                        08/06 Q1022=
201301090920 METAR COR EGLL 090920Z 01006KT 340V060 9999 FEW006 SCT007
                        BKN010 08/06 Q1022 BECMG BKN015=
201301090850 METAR COR EGLL 090850Z 36005KT 9999 FEW006 SCT008 BKN010
                        08/07 Q1022 NOSIG=
201301090820 METAR COR EGLL 090820Z 01005KT 340V050 6000 FEW005 BKN006
                        08/07 Q1022 BECMG BKN010=
201301090750 METAR COR EGLL 090750Z 02005KT 350V050 9000 FEW005 BKN006
                        08/07 Q1022 NOSIG=
201301090720 METAR COR EGLL 090720Z 01005KT 340V060 9999 SCT005 BKN007
                        08/07 Q1021 BECMG BKN010=
201301090650 METAR COR EGLL 090650Z 36005KT 330V040 9999 SCT007 BKN008
                        09/08 Q1021 BECMG BKN011=
201301090620 METAR EGLL 090620Z 36005KT 320V030 9999 BKN005 09/08 Q1021
                        BECMG SCT006 BKN011=
201301090550 METAR COR EGLL 090550Z VRB03KT 9999 BKN005 BKN010 09/09 Q1020
                        NOSIG=
201301090520 METAR COR EGLL 090520Z VRB03KT 8000 FEW004 SCT008 09/09 Q1021
                        NOSIG=
201301090450 METAR COR EGLL 090450Z VRB03KT 3300 -RADZ FEW003 BKN005 09/09
                        Q1021 TEMPO BKN003=
201301090420 METAR COR EGLL 090420Z 27003KT 2300 DZ BKN003 BKN005 09/09
                        Q1021 TEMPO SCT003 BKN005=
201301090350 METAR EGLL 090350Z 00000KT 2000 -RADZ FEW002 BKN003 09/09
                        Q1021=
201301090320 METAR COR EGLL 090320Z 23003KT 2400 -RA OVC003 09/09 Q1021
                        NOSIG=
201301090250 METAR EGLL 090250Z AUTO 21003KT 4900 -RA BKN003/// 09/09
                        Q1021 RERA=
201301090220 METAR EGLL 090220Z AUTO 20003KT 5000 -RA BKN004/// 09/09
                        Q1021 RERA=
201301090150 METAR EGLL 090150Z AUTO 21003KT 5000 -DZ BKN003/// 09/08
                        Q1022=
201301090120 METAR COR EGLL 090120Z 20004KT 6000 -RA BKN004 09/08 Q1022
                        NOSIG=
201301090050 METAR COR EGLL 090050Z 20004KT 6000 -RA BKN004 09/08 Q1022
                        TEMPO 4000=
201301090020 METAR COR EGLL 090020Z 19005KT 6000 -RA OVC003 09/08 Q1022
                        TEMPO 4000=
201301082350 METAR COR EGLL 082350Z 19006KT 4800 -RA OVC004 09/08 Q1022
                        NOSIG=
201301082320 METAR COR EGLL 082320Z 20006KT 4800 -RA OVC004 09/08 Q1023
                        NOSIG=
201301082250 METAR COR EGLL 082250Z 19006KT 4500 -RA FEW003 OVC004 09/08
                        Q1023 NOSIG=
201301082220 METAR COR EGLL 082220Z 19007KT 3800 -RA OVC004 09/08 Q1023
                        NOSIG=
201301082150 METAR COR EGLL 082150Z 20008KT 4000 -DZ OVC004 09/09 Q1023
                        TEMPO 5000 BKN006=
201301082120 METAR COR EGLL 082120Z 21008KT 4500 -DZ OVC005 10/09 Q1023
                        TEMPO 5000=
201301082050 METAR COR EGLL 082050Z 21007KT 8000 -DZ FEW005 BKN006 10/09
                        Q1023 NOSIG=
201301082020 METAR COR EGLL 082020Z 21008KT 9000 -DZ BKN006 OVC008 10/09
                        Q1023 NOSIG=
201301081950 METAR COR EGLL 081950Z 22009KT 9000 BKN007 10/09 Q1023 NOSIG=
201301081920 METAR COR EGLL 081920Z 21008G18KT 9999 OVC008 10/09 Q1023
                        NOSIG=
201301081850 METAR COR EGLL 081850Z 22008KT 9000 FEW007 BKN008 10/09 Q1023
                        NOSIG=
201301081820 METAR COR EGLL 081820Z 23009KT 9999 BKN009 11/09 Q1023 TEMPO
                        BKN012=
201301081750 METAR COR EGLL 081750Z 22008KT 9999 BKN011 11/08 Q1023 NOSIG=
201301081720 METAR COR EGLL 081720Z 21007KT 170V240 9999 BKN012 11/08
                        Q1023 NOSIG=
201301081650 METAR COR EGLL 081650Z 20007KT 9999 BKN015 11/08 Q1024 BECMG
                        BKN012=
201301081620 METAR COR EGLL 081620Z 21007KT 9999 BKN016 11/08 Q1024 BECMG
                        BKN012=
201301081550 METAR COR EGLL 081550Z 22006KT 9999 BKN017 11/08 Q1024 BECMG
                        BKN012=
201301081520 METAR COR EGLL 081520Z 22008KT 9999 BKN017 11/08 Q1024 TEMPO
                        BKN014=
201301081450 METAR COR EGLL 081450Z 23010KT 9999 BKN015 11/08 Q1024 TEMPO
                        BKN012=
201301081420 METAR COR EGLL 081420Z 24011KT 9999 BKN015 11/08 Q1024 TEMPO
                        BKN012=
201301081350 METAR COR EGLL 081350Z 24010KT 9999 BKN016 11/08 Q1024 TEMPO
                        BKN014=
201301081320 METAR EGLL 081320Z 24012KT 9999 BKN017 11/08 Q1024=
201301081250 METAR COR EGLL 081250Z 24014KT 9999 BKN018 11/08 Q1024 TEMPO
                        BKN014=
201301081220 METAR COR EGLL 081220Z 23011KT 9999 SCT016 11/08 Q1024 TEMPO
                        BKN012=
201301081150 METAR COR EGLL 081150Z 23010KT 200V260 9999 FEW018 11/08
                        Q1024 TEMPO BKN014=
201301081120 METAR COR EGLL 081120Z 23010KT 190V260 9999 FEW014 SCT042
                        11/08 Q1025 TEMPO BKN014=
201301081050 METAR COR EGLL 081050Z 22008KT 180V250 9999 BKN014 11/08
                        Q1025 TEMPO BKN016=
201301081020 METAR COR EGLL 081020Z 23009KT 190V280 9999 BKN015 10/08
                        Q1025 TEMPO BKN012=
201301080950 METAR COR EGLL 080950Z 23008KT 9999 BKN013 10/08 Q1025 NOSIG=
201301080920 METAR COR EGLL 080920Z 22006KT 180V260 9999 BKN013 09/07
                        Q1025 TEMPO BKN015=
201301080850 METAR COR EGLL 080850Z 22006KT 9999 BKN013 09/07 Q1025 TEMPO
                        BKN015=
201301080820 METAR COR EGLL 080820Z 22007KT 9999 BKN014 09/07 Q1024 NOSIG=
201301080750 METAR COR EGLL 080750Z 21007KT 9999 SCT018 SCT039 08/07 Q1024
                        NOSIG=
201301080720 METAR COR EGLL 080720Z 22007KT 9999 FEW031 09/07 Q1024 NOSIG=
201301080650 METAR COR EGLL 080650Z 22007KT 180V280 9999 SCT032 10/07
                        Q1024 NOSIG=
201301080620 METAR COR EGLL 080620Z 21006KT 9999 BKN031 09/07 Q1024 NOSIG=
201301080550 METAR COR EGLL 080550Z 20007KT 9999 BKN027 10/07 Q1024 NOSIG=
201301080520 METAR COR EGLL 080520Z 20008KT 9999 BKN031 10/07 Q1024 NOSIG=
201301080450 METAR COR EGLL 080450Z 22009KT 9999 BKN025 10/07 Q1024 NOSIG=
201301080420 METAR COR EGLL 080420Z 22009KT 9999 BKN033 10/07 Q1024 NOSIG=
201301080350 METAR COR EGLL 080350Z 22006KT 9999 BKN031 10/07 Q1024 NOSIG=
201301080320 METAR COR EGLL 080320Z 22007KT 9999 BKN029 10/07 Q1024 NOSIG=
201301080250 METAR COR EGLL 080250Z 21007KT 9999 BKN020 BKN024 09/07 Q1024
                        NOSIG=
201301080220 METAR EGLL 080220Z AUTO 21006KT 9999 SCT015/// BKN022///
                        09/07 Q1024=
201301080150 METAR EGLL 080150Z AUTO 22006KT 9999 FEW016/// 09/07 Q1024=
201301080120 METAR EGLL 080120Z AUTO 21006KT 9999 OVC016/// 09/07 Q1024=
201301080050 METAR COR EGLL 080050Z 20006KT 9999 BKN022 09/07 Q1024 NOSIG=
201301080020 METAR COR EGLL 080020Z 21005KT 9999 BKN024 09/07 Q1024 NOSIG=
201301072350 METAR COR EGLL 072350Z 21005KT 9999 BKN028 09/07 Q1024 NOSIG=
201301072320 METAR COR EGLL 072320Z 21006KT 9999 BKN024 09/07 Q1024 NOSIG=
201301072250 METAR COR EGLL 072250Z 20006KT 9999 BKN027 09/07 Q1025 NOSIG=
201301072220 METAR COR EGLL 072220Z 20007KT 9999 FEW020 BKN026 09/07 Q1025
                        NOSIG=
201301072150 METAR COR EGLL 072150Z 20008KT 9999 BKN028 09/07 Q1025 NOSIG=
201301072120 METAR COR EGLL 072120Z 20009KT 9999 BKN028 09/07 Q1025 NOSIG=
201301072050 METAR COR EGLL 072050Z 21008KT 9999 BKN025 09/07 Q1025 NOSIG=
201301072020 METAR COR EGLL 072020Z 20008KT 9999 BKN023 09/07 Q1025 NOSIG=
201301071950 METAR COR EGLL 071950Z 20009G19KT 170V240 9000 BKN027 09/07
                        Q1025 TEMPO BKN012=
201301071920 METAR COR EGLL 071920Z 20008KT 9000 BKN027 09/07 Q1025 TEMPO
                        BKN012=
201301071850 METAR COR EGLL 071850Z 21009KT 180V250 9000 BKN029 08/07
                        Q1025 TEMPO BKN012=
201301071820 METAR COR EGLL 071820Z 20007KT 170V240 9999 FEW007 SCT008
                        BKN029 08/07 Q1025 TEMPO BKN012=
201301071750 METAR COR EGLL 071750Z 20008KT 110V240 9999 FEW007 BKN008
                        08/07 Q1025 TEMPO BKN012=
201301071720 METAR COR EGLL 071720Z 20008KT 9999 BKN008 BKN029 08/07 Q1025
                        TEMPO BKN010=
201301071650 METAR COR EGLL 071650Z 20009KT 9999 FEW008 SCT012 BKN028
                        08/07 Q1025 TEMPO BKN008=
201301071620 METAR EGLL 071620Z 21009KT 9999 SCT010 BKN027 08/07 Q1025=
201301071550 METAR COR EGLL 071550Z 20010KT 160V230 9999 SCT011 BKN032
                        09/07 Q1025 TEMPO BKN012=
201301071520 METAR COR EGLL 071520Z 20009KT 9999 FEW009 SCT010 BKN032
                        09/07 Q1025 TEMPO BKN010=
201301071450 METAR COR EGLL 071450Z 21009KT 180V250 9999 FEW009 SCT010
                        BKN033 09/07 Q1025 TEMPO BKN010=
201301071420 METAR COR EGLL 071420Z 21009KT 170V250 9999 FEW012 SCT015
                        OVC027 09/07 Q1025 TEMPO BKN012=
201301071350 METAR COR EGLL 071350Z 20009KT 9999 FEW008 SCT010 OVC027
                        09/07 Q1026 TEMPO BKN010=
201301071320 METAR COR EGLL 071320Z 21010KT 170V250 9999 FEW008 BKN009
                        BKN027 09/07 Q1026 TEMPO BKN012=
201301071250 METAR COR EGLL 071250Z 20011KT 170V250 9999 FEW008 BKN024
                        08/07 Q1026 NOSIG=
201301071220 METAR COR EGLL 071220Z 21009KT 170V240 9999 FEW005 BKN024
                        08/07 Q1026 TEMPO BKN012=
201301071150 METAR COR EGLL 071150Z 20010KT 170V240 9999 FEW005 BKN024
                        08/07 Q1027 TEMPO BKN012=
201301071120 METAR COR EGLL 071120Z 19010KT 150V240 9999 FEW005 BKN024
                        08/07 Q1027 TEMPO BKN012=
201301071050 METAR COR EGLL 071050Z 20008KT 170V250 9999 FEW005 BKN021
                        08/07 Q1027 TEMPO BKN012=
201301071020 METAR COR EGLL 071020Z 19008KT 160V220 9999 FEW005 OVC020
                        08/06 Q1027 TEMPO BKN012=
201301070950 METAR COR EGLL 070950Z 19008KT 170V230 9000 FEW006 BKN020
                        07/06 Q1027 TEMPO BKN012=
201301070920 METAR COR EGLL 070920Z 19009KT 170V240 8000 FEW005 BKN020
                        07/06 Q1027 TEMPO BKN012=
201301070850 METAR COR EGLL 070850Z 20007KT 160V240 8000 FEW005 BKN017
                        07/06 Q1027 TEMPO BKN012=
201301070820 METAR COR EGLL 070820Z 19007KT 160V240 8000 BKN018 07/06
                        Q1027 TEMPO BKN012=
201301070750 METAR COR EGLL 070750Z 20006KT 180V250 7000 FEW005 BKN018
                        07/06 Q1027 TEMPO BKN012=
201301070720 METAR COR EGLL 070720Z 20007KT 7000 FEW005 BKN015 07/06 Q1027
                        TEMPO BKN012=
201301070650 METAR COR EGLL 070650Z 20006KT 180V240 8000 FEW010 BKN016
                        07/06 Q1027 TEMPO BKN010=
201301070620 METAR COR EGLL 070620Z 19007KT 160V250 8000 BKN018 07/06
                        Q1027 TEMPO BKN014=
201301070550 METAR COR EGLL 070550Z 19006KT 9999 BKN017 07/06 Q1027 TEMPO
                        BKN014=
201301070520 METAR COR EGLL 070520Z 20005KT 9999 FEW013 BKN017 07/06 Q1027
                        TENPO BKN012=
201301070450 METAR COR EGLL 070450Z 20005KT 9999 FEW012 BKN016 07/06 Q1027
                        TEMPO BKN012=
201301070420 METAR COR EGLL 070420Z 20006KT 9999 BKN016 07/06 Q1028 TEMPO
                        BKN010=
201301070350 METAR COR EGLL 070350Z 22006KT 9999 BKN016 07/06 Q1028 TEMPO
                        BKN012=
201301070320 METAR COR EGLL 070320Z 25007KT 9999 FEW006 BKN011 07/06 Q1028
                        TEMPO BKN008=
201301070250 METAR COR EGLL 070250Z 26007KT 8000 SCT006 BKN010 07/06 Q1029
                        TEMPO BKN009=
201301070220 METAR EGLL 070220Z AUTO 25007KT 9999 BKN010/// 08/06 Q1029=
201301070150 METAR EGLL 070150Z AUTO 25008KT 9000 OVC009/// 08/06 Q1029=
201301070120 METAR EGLL 070120Z AUTO 24009KT 9999 OVC009/// 08/06 Q1029=
201301070050 METAR COR EGLL 070050Z 24008KT 9999 SCT007 BKN008 08/07 Q1029
                        NOSIG=
201301070020 METAR COR EGLL 070020Z 24009KT 9999 FEW006 BKN008 08/07 Q1029
                        NOSIG=
201301062350 METAR COR EGLL 062350Z 21007KT 9999 FEW008 BKN009 08/07 Q1029
                        TEMPO SCT009 BKN010=
201301062320 METAR COR EGLL 062320Z 24008KT 9999 SCT008 BKN010 08/07 Q1030
                        TEMPO BKN009=
201301062250 METAR COR EGLL 062250Z 25010KT 9999 SCT008 BKN010 09/07 Q1030
                        TEMPO BKN009=
201301062220 METAR COR EGLL 062220Z 24010KT 200V270 9999 FEW008 BKN010
                        09/07 Q1030 TEMPO BKN009=
201301062150 METAR COR EGLL 062150Z 22009KT 180V250 9999 FEW007 SCT008
                        BKN009 09/07 Q1030 NOSIG=
201301062120 METAR COR EGLL 062120Z 22007KT 150V250 6000 FEW007 SCT008
                        BKN009 08/07 Q1030 NOSIG=
201301062050 METAR COR EGLL 062050Z 23007KT 200V260 6000 FEW008 BKN009
                        08/07 Q1030 TEMPO SCT009 BKN010=
201301062020 METAR COR EGLL 062020Z 22006KT 160V250 6000 BKN009 08/07
                        Q1030 TEMPO BKN010=
201301061950 METAR COR EGLL 061950Z 20007KT 170V250 6000 BKN010 08/07
                        Q1030 TEMPO BKN009=
201301061920 METAR COR EGLL 061920Z 22006KT 170V270 6000 BKN010 08/07
                        Q1030 TEMPO BKN009=
201301061850 METAR COR EGLL 061850Z 21006KT 170V250 6000 BKN012 08/07
                        Q1030 TEMPO BKN009=
201301061820 METAR COR EGLL 061820Z 22005KT 170V260 6000 BKN013 08/07
                        Q1030 TEMPO BKN009=
201301061750 METAR COR EGLL 061750Z 19005KT 140V240 5000 BR FEW007 BKN012
                        07/07 Q1030 NOSIG=
201301061720 METAR COR EGLL 061720Z 20005KT 170V250 5000 BR FEW004 OVC013
                        07/07 Q1030 NOSIG=
201301061650 METAR COR EGLL 061650Z 20005KT 150V250 6000 FEW004 BKN016
                        07/07 Q1031 TEMPO BKN007=
201301061620 METAR COR EGLL 061620Z 20005KT 130V250 8000 SCT005 BKN006
                        BKN018 07/07 Q1031 TEMPO SCT006=
201301061550 METAR COR EGLL 061550Z 20006KT 160V260 7000 FEW003 BKN005
                        07/07 Q1031 NOSIG=
201301061520 METAR COR EGLL 061520Z 19007KT 160V250 4900 BR SCT003 BKN005
                        08/07 Q1031 TEMPO 6000 NSW=
201301061450 METAR EGLL 061450Z 19007KT 150V210 6000 FEW003 BKN006 07/07
                        Q1031=
201301061420 METAR COR EGLL 061420Z 21005KT 170V230 6000 BKN003 08/07
                        Q1032 BECMG SCT006 BKN010=
201301061350 METAR COR EGLL 061350Z 20006KT 5000 BR BKN003 08/07 Q1032
                        BECMG BKN006=
201301061320 METAR COR EGLL 061320Z 21006KT 6000 BKN003 08/07 Q1032 BECMG
                        BKN006=
201301061250 METAR COR EGLL 061250Z 22006KT 5000 BR FEW002 SCT003 BKN004
                        08/07 Q1032 BECMG BKN008=
201301061220 METAR COR EGLL 061220Z 22007KT 3000 -DZ BR FEW001 SCT002
                        BKN003 08/07 Q1032 BECMG 5000 BR
                        BKN005=
201301061150 METAR COR EGLL 061150Z 21006KT 170V260 1500 -DZ BR FEW001
                        SCT002 BKN003 07/07 Q1033 BECMG 6000
                        NSW BKN004=
201301061120 METAR COR EGLL 061120Z 21006KT 1500 R27L/1400 -DZ BR SCT001
                        BKN002 07/07 Q1033 TEMPO 1400=
201301061050 METAR EGLL 061050Z 20005KT 160V250 1400 R27R/P1500 R27L/1200
                        -DZ BR SCT001 BKN002 07/07 Q1033=
201301061020 METAR COR EGLL 061020Z 21006KT 180V250 1300 R27R/1400 R27L/1400
                        -DZ BR BKN001 07/07 Q1033 TEMPO 1600
                        SCT002 BKN003=
201301060950 METAR COR EGLL 060950Z 21004KT 190V260 1500 R27L/1200 -DZ
                        BR FEW001 SCT002 BKN003 07/07 Q1033
                        TEMPO 1400=
201301060920 METAR COR EGLL 060920Z 23004KT 180V260 1400 R27R/P1500 R27L/1300
                        BR FEW001 SCT002 BKN003 08/07 Q1033
                        BECMG 2500 BR SCT003 BKN006=
201301060850 METAR EGLL 060850Z 22004KT 160V280 1300 R27R/P1500 R27L/P1500
                        BR FEW001 SCT002 BKN003 08/07 Q1033
                        BECMG 1600 BR SCT003 BKN006=
201301060820 METAR COR EGLL 060820Z VRB03KT 1700 BR FEW001 SCT002 BKN003
                        07/07 Q1033 BECMG SCT003 BKN006=
201301060750 METAR COR EGLL 060750Z 21005KT 160V240 1700 BR FEW001 SCT002
                        BKN003 07/06 Q1033 BECMG SCT003 BKN006=
201301060720 METAR COR EGLL 060720Z 22005KT 1400 R27R/P1500 R27L/P1500
                        BR FEW001 BKN002 07/06 Q1033 BECMG
                        1600 SCT002 BKN005=
201301060650 METAR COR EGLL 060650Z 21004KT 170V250 1100 R27R/P1500 R27L/1200
                        BR SCT001 BKN002 07/06 Q1033 TEMPO
                        1500=
201301060620 METAR COR EGLL 060620Z 21004KT 150V270 0800 R27R/1100 R27L/1000
                        FG BKN001 06/06 Q1033 TEMPO 1500
                        BR BKN002=
201301060550 METAR COR EGLL 060550Z 22004KT 1100 R27R/1300 R27L/1200 BR
                        BKN001 06/06 Q1033 TEMPO 2000 BKN002=
201301060520 METAR COR EGLL 060520Z 24004KT 160V260 1100 R27L/P1500 BR
                        BKN001 06/06 Q1033 BECMG 3000 BKN002=
201301060450 METAR COR EGLL 060450Z 26005KT 1100 R27L/0750 BR BKN001 06/06
                        Q1033 BECMG 3000 BKN002=
201301060420 METAR COR EGLL 060420Z 27006KT 0250 R27L/0500 FG BKN000 06/06
                        Q1034 TEMPO 0500=
201301060350 METAR COR EGLL 060350Z 30005KT 270V330 0300 R27L/0600 FG
                        BKN001 06/06 Q1034 TEMPO 0500=
201301060320 METAR COR EGLL 060320Z 30004KT 4000 MIFG BR FEW002 05/04
                        Q1034 TEMPO 0500 FG BKN001=
201301060250 METAR COR EGLL 060250Z VRB03KT 8000 MIFG NSC 06/06 Q1033
                        TEMPO 4000=
201301060050 METAR COR EGLL 060050Z 23005KT 200V260 CAVOK 07/06 Q1033
                        NOSIG=
201301060020 METAR COR EGLL 060020Z 23005KT CAVOK 07/06 Q1034 NOSIG=
201301052350 METAR COR EGLL 052350Z 22006KT CAVOK 07/06 Q1034 NOSIG=
201301052320 METAR COR EGLL 052320Z 22004KT 200V260 CAVOK 07/06 Q1034
                        NOSIG=
201301052250 METAR COR EGLL 052250Z 22007KT 180V260 CAVOK 08/06 Q1034
                        NOSIG=
201301052220 METAR COR EGLL 052220Z 23008KT 190V260 CAVOK 08/07 Q1034
                        NOSIG=
201301052150 METAR COR EGLL 052150Z 23007KT CAVOK 09/07 Q1034 NOSIG=
201301052120 METAR COR EGLL 052120Z 24008KT CAVOK 09/07 Q1034 NOSIG=
201301052050 METAR COR EGLL 052050Z 24008KT CAVOK 10/07 Q1034 NOSIG=
201301052020 METAR COR EGLL 052020Z 26009KT 9999 FEW016 10/07 Q1034 NOSIG=
201301051950 METAR COR EGLL 051950Z 27009KT 9999 FEW015 BKN016 10/08 Q1034
                        NOSIG=
201301051920 METAR COR EGLL 051920Z 27010KT 9999 SCT014 SCT016 10/08 Q1034
                        NOSIG=
201301051850 METAR COR EGLL 051850Z 27010KT 9999 SCT014 BKN015 10/08 Q1034
                        TEMPO BKN013=
201301051820 METAR COR EGLL 051820Z 28010KT 9999 BKN014 10/08 Q1034 TEMPO
                        SCT014 BKN016=
201301051750 METAR COR EGLL 051750Z 27010KT 9999 BKN011 10/08 Q1034 NOSIG=
201301051720 METAR COR EGLL 051720Z 27012KT 9999 BKN010 10/08 Q1034 NOSIG=
201301051650 METAR COR EGLL 051650Z 27011KT 9999 BKN011 10/08 Q1034 NOSIG=
201301051620 METAR COR EGLL 051620Z 27010KT 9999 BKN011 10/08 Q1034 NOSIG=
201301051550 METAR COR EGLL 051550Z 26012KT 9999 BKN012 10/08 Q1034 NOSIG=
201301051520 METAR COR EGLL 051520Z 26010KT 9999 BKN013 11/08 Q1034 NOSIG=
201301051450 METAR COR EGLL 051450Z 27011KT 9999 BKN013 11/08 Q1034 TEMPO
                        BKN015=
201301051420 METAR COR EGLL 051420Z 26011KT 9999 BKN013 11/08 Q1034 TEMPO
                        BKN015=
201301051350 METAR COR EGLL 051350Z 26010KT 9999 BKN013 11/08 Q1035 TEMPO
                        BKN015=
201301051320 METAR COR EGLL 051320Z 25010KT 9999 BKN013 11/08 Q1035 TEMPO
                        BKN015=
201301051250 METAR COR EGLL 051250Z 25010KT 9999 BKN014 11/08 Q1035 TEMPO
                        BKN015=
201301051220 METAR COR EGLL 051220Z 25010KT 9999 BKN014 11/08 Q1035 TEMPO
                        BKN015=
201301051150 METAR COR EGLL 051150Z AUTO 25009KT 9999 BKN014/// 11/09
                        Q1036 TEMPO BKN015=
201301051120 METAR COR EGLL 051120Z 23007KT 9999 BKN014 10/09 Q1036 BECMG
                        BKN015=
201301051050 METAR COR EGLL 051050Z 22006KT 190V260 9999 BKN015 10/09
                        Q1036 TEMPO BKN014=
201301051020 METAR COR EGLL 051020Z 22006KT 9999 BKN015 10/09 Q1036 TEMPO
                        BKN013=
201301050950 METAR COR EGLL 050950Z 22007KT 200V260 9999 BKN015 09/09
                        Q1036 TEMPO BKN013=
201301050920 METAR COR EGLL 050920Z 22006KT 8000 BKN014 09/09 Q1036 BECMG
                        SCT014 BKN016=
201301050850 METAR COR EGLL 050850Z 22006KT 190V260 7000 BKN015 09/08
                        Q1036 TEMPO BKN012=
201301050820 METAR COR EGLL 050820Z 21005KT 180V260 5000 BR SCT007 BKN014
                        09/08 Q1036 NOSIG=
201301050750 METAR COR EGLL 050750Z 19005KT 160V300 3200 BR FEW004 BKN007
                        BKN012 09/08 Q1036 BECMG 6000 SCT008
                        BKN012=
201301050720 METAR COR EGLL 050720Z 20005KT 170V250 5000 BR FEW004 BKN009
                        08/08 Q1035 BECMG BKN012=
201301050650 METAR COR EGLL 050650Z 24005KT 190V260 5000 BR FEW004 BKN012
                        08/08 Q1035 NOSIG=
201301050620 METAR COR EGLL 050620Z 24006KT 4500 -DZ FEW004 SCT006 BKN011
                        08/08 Q1035 TEMPO 6000=
201301050550 METAR COR EGLL 050550Z 22004KT 190V280 3500 -DZ FEW003 SCT005
                        BKN012 08/08 Q1035 TEMPO 6000 BKN008=
201301050520 METAR COR EGLL 050520Z 23004KT 3900 -DZ FEW004 BKN005 08/07
                        Q1035 TEMPO 5000=
201301050450 METAR COR EGLL 050450Z 24004KT 4100 -DZ FEW004 BKN006 08/07
                        Q1035 TEMPO 6000=
201301050420 METAR COR EGLL 050420Z 25004KT 4800 -DZ FEW004 BKN006 08/07
                        Q1035 TEMPO 6000=
201301050350 METAR COR EGLL 050350Z 27005KT 5000 BR BKN006 08/07 Q1036
                        NOSIG=
201301050320 METAR COR EGLL 050320Z 27007KT 6000 BKN005 08/07 Q1036 NOSIG=
201301050250 METAR COR EGLL 050250Z 26009KT 7000 BKN005 08/07 Q1036 NOSIG=
201301050220 METAR EGLL 050220Z AUTO 26009KT 7000 OVC005/// 08/07 Q1036=
201301050150 METAR EGLL 050150Z AUTO 26010KT 9000 OVC005/// 08/07 Q1036=
201301050120 METAR EGLL 050120Z AUTO 26008KT 9000 BKN006/// 08/07 Q1036=
201301050050 METAR COR EGLL 050050Z 27008KT 9000 BKN006 08/07 Q1036 NOSIG=
201301050020 METAR COR EGLL 050020Z 27008KT 9000 BKN007 08/07 Q1036 NOSIG=
201301042350 METAR COR EGLL 042350Z 27007KT 9999 BKN007 08/07 Q1036 NOSIG=
201301042320 METAR COR EGLL 042320Z 27010KT 9000 BKN007 08/07 Q1036 NOSIG=
201301042250 METAR COR EGLL 042250Z 27012KT 8000 BKN007 08/07 Q1036 NOSIG=
201301042220 METAR COR EGLL 042220Z 27010KT 8000 BKN007 08/07 Q1037 NOSIG=
201301042150 METAR COR EGLL 042150Z 27012KT 8000 SCT007 BKN008 08/07 Q1037
                        NOSIG=
201301042120 METAR COR EGLL 042120Z 27011KT 8000 SCT007 BKN008 09/07 Q1037
                        NOSIG=
201301042050 METAR COR EGLL 042050Z 25012KT 8000 BKN006 09/07 Q1037 NOSIG=
201301042020 METAR COR EGLL 042020Z 28008KT 8000 FEW006 BKN007 09/08 Q1037
                        TEMPO FEW007 BKN010=
201301041950 METAR COR EGLL 041950Z 28008KT 9000 FEW006 BKN007 09/07 Q1037
                        TEMPO FEW007 BKN010=
201301041920 METAR COR EGLL 041920Z 27012KT 9999 BKN007 09/08 Q1037 NOSIG=
201301041850 METAR COR EGLL 041850Z 27008KT 240V310 9999 BKN007 09/08
                        Q1037 NOSIG=
201301041820 METAR COR EGLL 041820Z 27010KT 9999 BKN009 09/08 Q1037 TEMPO
                        BKN011=
201301041750 METAR COR EGLL 041750Z 27010KT 9999 BKN009 10/08 Q1037 TEMPO
                        BKN011=
201301041720 METAR COR EGLL 041720Z 27010KT 9999 BKN010 10/08 Q1037 BECMG
                        BKN009=
201301041650 METAR COR EGLL 041650Z 27011KT 9999 BKN011 10/08 Q1037 NOSIG=
201301041620 METAR COR EGLL 041620Z 27012KT 9999 BKN011 10/08 Q1037 NOSIG=
201301041550 METAR COR EGLL 041550Z 28011KT 9999 BKN012 10/08 Q1037 NOSIG=
201301041520 METAR COR EGLL 041520Z 28009KT 9999 BKN012 10/08 Q1037 NOSIG=
201301041450 METAR COR EGLL 041450Z 29010KT 9999 BKN013 10/08 Q1037 TEMPO
                        BKN015=
201301041420 METAR COR EGLL 041420Z 28012KT 9999 BKN013 10/08 Q1037 TEMPO
                        BKN015=
201301041350 METAR COR EGLL 041350Z 28011KT 9999 BKN013 10/07 Q1037 TEMPO
                        BKN016=
201301041320 METAR COR EGLL 041320Z 28009KT 9999 BKN014 10/07 Q1037 TEMPO
                        BKN016=
201301041250 METAR COR EGLL 041250Z 28011KT 9999 BKN014 10/07 Q1037 TEMPO
                        BKN016=
201301041220 METAR COR EGLL 041220Z 28013KT 9999 BKN014 10/07 Q1038 BECMG
                        BKN018=
201301041150 METAR COR EGLL 041150Z 27011KT 9999 BKN016 10/06 Q1038 NOSIG=
201301041120 METAR COR EGLL 041120Z 27012KT 9999 BKN018 10/06 Q1038 NOSIG=
201301041050 METAR COR EGLL 041050Z 27011KT 9999 BKN020 10/06 Q1038 NOSIG=
201301041020 METAR COR EGLL 041020Z 28009KT 9999 BKN022 10/06 Q1038 NOSIG=
201301040950 METAR COR EGLL 040950Z 27008KT 9999 BKN023 10/06 Q1038 NOSIG=
201301040920 METAR COR EGLL 040920Z 27008KT 9999 BKN022 09/06 Q1038 NOSIG=
201301040850 METAR COR EGLL 040850Z 27009KT 9999 BKN023 09/06 Q1038 NOSIG=
201301040820 METAR COR EGLL 040820Z 27009KT 9999 BKN022 09/06 Q1038 NOSIG=
201301040750 METAR COR EGLL 040750Z 27009KT 9999 BKN021 09/06 Q1038 NOSIG=
201301040720 METAR COR EGLL 040720Z 28009KT 9999 BKN021 09/06 Q1037 NOSIG=
201301040650 METAR COR EGLL 040650Z 27012KT 9999 BKN019 10/06 Q1037 NOSIG=
201301040620 METAR COR EGLL 040620Z 27010KT 9999 BKN019 09/06 Q1037 NOSIG=
201301040550 METAR COR EGLL 040550Z 27013KT 9999 BKN017 10/07 Q1037 NOSIG=
201301040520 METAR COR EGLL 040520Z 26011KT 9999 BKN018 10/07 Q1037 NOSIG=
201301040450 METAR EGLL 040450Z 26010KT 9999 BKN017 10/07 Q1037=
201301040420 METAR COR EGLL 040420Z 27008KT 9999 BKN016 09/07 Q1037 TEMPO
                        BKN014=
201301040350 METAR COR EGLL 040350Z 26011KT 9999 BKN015 10/07 Q1037 TEMPO
                        BKN014=
201301040320 METAR COR EGLL 040320Z 27006KT 9999 BKN015 10/07 Q1037 TEMPO
                        BKN014=
201301040250 METAR COR EGLL 040250Z 27010KT 9999 BKN014 10/07 Q1037 NOSIG=
201301040220 METAR EGLL 040220Z AUTO 27009KT 9999 OVC014/// 10/07 Q1037=
201301040150 METAR EGLL 040150Z AUTO 27009KT 9999 OVC014/// 10/07 Q1037=
201301040120 METAR EGLL 040120Z AUTO 26009KT 9999 OVC013/// 10/08 Q1037=
201301040050 METAR EGLL 040050Z 27009KT 9999 BKN013 10/08 Q1037=
201301040020 METAR COR EGLL 040020Z 27008KT 9999 BKN013 10/08 Q1037 NOSIG=
201301032350 METAR COR EGLL 032350Z 27011KT 9999 BKN012 10/08 Q1037 NOSIG=
201301032320 METAR COR EGLL 032320Z 26013KT 9999 BKN012 11/08 Q1037 NOSIG=
201301032250 METAR COR EGLL 032250Z 26012KT 9999 BKN011 11/09 Q1037 TEMPO
                        BKN009=
201301032220 METAR COR EGLL 032220Z 27012KT 9999 BKN010 11/09 Q1037 TEMPO
                        BKN009=
201301032150 METAR COR EGLL 032150Z 27013KT 9999 BKN012 11/09 Q1037 TEMPO
                        BKN009=
201301032120 METAR COR EGLL 032120Z 27013KT 9999 BKN012 11/09 Q1036 NOSIG=
201301032050 METAR COR EGLL 032050Z 27013KT 9999 BKN011 11/09 Q1036 NOSIG=
201301032020 METAR COR EGLL 032020Z 26012KT 9999 BKN012 11/09 Q1036 NOSIG=
201301031950 METAR COR EGLL 031950Z 26011KT 9999 BKN012 11/09 Q1036 NOSIG=
201301031920 METAR COR EGLL 031920Z 26012KT 9999 BKN012 11/09 Q1036 NOSIG=
201301031850 METAR COR EGLL 031850Z 26010KT 9999 BKN012 11/09 Q1036 NOSIG=
201301031820 METAR COR EGLL 031820Z 26010KT 9999 BKN012 11/09 Q1036 TEMPO
                        BKN008=
201301031750 METAR COR EGLL 031750Z 26010KT 9999 BKN011 11/09 Q1036 TEMPO
                        BKN008=
201301031720 METAR COR EGLL 031720Z 26009KT 9999 BKN010 11/09 Q1035 TEMPO
                        BKN008=
201301031650 METAR COR EGLL 031650Z 25010KT 9999 BKN012 11/09 Q1035 NOSIG=
201301031620 METAR EGLL 031620Z 25011KT 9999 BKN012 11/09 Q1035=
201301031550 METAR COR EGLL 031550Z 26009KT 9999 BKN013 11/09 Q1035 NOSIG=
201301031520 METAR COR EGLL 031520Z 27011KT 9999 BKN013 12/09 Q1034 NOSIG=
201301031450 METAR COR EGLL 031450Z 27010KT 9999 BKN013 11/09 Q1034 NOSIG=
201301031420 METAR COR EGLL 031420Z 28009KT 9999 BKN011 11/09 Q1034 TEMPO
                        BKN008=
201301031350 METAR COR EGLL 031350Z 28011KT 9999 FEW009 BKN011 11/09 Q1034
                        TEMPO BKN008=
201301031320 METAR COR EGLL 031320Z 26011KT 9999 FEW008 BKN009 11/09 Q1034
                        TEMPO BKN012=
201301031250 METAR COR EGLL 031250Z 26011KT 9999 SCT009 BKN011 11/09 Q1034
                        TEMPO BKN009=
201301031220 METAR COR EGLL 031220Z 27010KT 9999 BKN010 11/09 Q1034 TEMPO
                        BKN008=
201301031150 METAR COR EGLL 031150Z 27008KT 9999 BKN010 11/09 Q1034 TEMPO
                        BKN008=
201301031120 METAR COR EGLL 031120Z 26010KT 9999 SCT009 BKN010 11/09 Q1033
                        TEMPO BKN008=
201301031050 METAR COR EGLL 031050Z 26010KT 230V290 9999 FEW008 BKN009
                        11/09 Q1033 TEMPO BKN012=
201301031020 METAR COR EGLL 031020Z 26011KT 9999 FEW009 BKN010 10/09 Q1033
                        TEMPO BKN008=
201301030950 METAR COR EGLL 030950Z 26011KT 9999 FEW008 BKN009 11/09 Q1033
                        BECMG BKN012=
201301030920 METAR COR EGLL 030920Z 26011KT 9999 OVC009 10/09 Q1032 NOSIG=
201301030850 METAR COR EGLL 030850Z 26011KT 9999 SCT008 BKN009 10/09 Q1032
                        NOSIG=
201301030820 METAR COR EGLL 030820Z 26012KT 9999 SCT007 BKN008 BKN010
                        10/09 Q1032 NOSIG=
201301030750 METAR COR EGLL 030750Z 26011KT 9999 SCT006 BKN008 10/09 Q1031
                        NOSIG=
201301030720 METAR COR EGLL 030720Z 25012KT 9999 FEW005 BKN006 BKN008
                        10/09 Q1031 NOSIG=
201301030650 METAR COR EGLL 030650Z 25010KT 9999 FEW005 BKN006 BKN008
                        10/09 Q1030 NOSIG=
201301030620 METAR COR EGLL 030620Z 25010KT 9999 FEW005 BKN006 10/09 Q1030
                        NOSIG=
201301030550 METAR COR EGLL 030550Z 25010KT 9999 BKN006 10/09 Q1030 NOSIG=
201301030520 METAR COR EGLL 030520Z 27007KT 9999 SCT006 BKN007 09/09 Q1030
                        NOSIG=
201301030450 METAR COR EGLL 030450Z 27007KT 9000 BKN007 09/08 Q1029 NOSIG=
201301030420 METAR COR EGLL 030420Z 26005KT 9999 FEW007 09/08 Q1029 BECMG
                        BKN007=
201301030350 METAR COR EGLL 030350Z 26010KT 9999 BKN007 10/09 Q1029 TEMPO
                        BKN010=
201301030320 METAR COR EGLL 030320Z 27008KT 9999 BKN008 10/09 Q1029 TEMPO
                        BKN010=
201301030250 METAR COR EGLL 030250Z 25010KT 9999 FEW007 BKN008 11/09 Q1029
                        TEMPO BKN010=
201301030220 METAR EGLL 030220Z AUTO 25008KT 9999 OVC007/// 11/09 Q1028=
201301030150 METAR EGLL 030150Z AUTO 26007KT 9999 BKN008/// 11/09 Q1028=
201301030120 METAR EGLL 030120Z AUTO 25008KT 9999 BKN009/// 10/09 Q1028=
201301030050 METAR COR EGLL 030050Z 27009KT 9999 BKN009 10/09 Q1028 TEMPO
                        BKN011=
201301030020 METAR COR EGLL 030020Z 27010KT 9999 FEW008 BKN009 11/09 Q1027
                        TEMPO BKN011=
201301022350 METAR COR EGLL 022350Z 27012KT 9999 FEW008 BKN009 11/09 Q1027
                        TEMPO BKN010=
201301022320 METAR COR EGLL 022320Z 27009KT 9999 BKN009 11/09 Q1027 TEMPO
                        BKN010=
201301022250 METAR COR EGLL 022250Z 27010KT 9999 FEW009 BKN010 11/09 Q1026
                        TEMPO BKN009=
201301022220 METAR COR EGLL 022220Z 27013KT 9999 BKN009 11/09 Q1026 TEMPO
                        BKN010=
201301022150 METAR COR EGLL 022150Z 27012KT 9999 BKN010 11/09 Q1026 TEMPO
                        BKN009=
201301022120 METAR COR EGLL 022120Z 27015KT 9999 BKN009 11/09 Q1026 TEMPO
                        BKN011=
201301022050 METAR COR EGLL 022050Z 27012KT 9999 BKN008 11/09 Q1025 NOSIG=
201301022020 METAR COR EGLL 022020Z 25012KT 9999 BKN008 11/09 Q1025 NOSIG=
201301021950 METAR COR EGLL 021950Z 24010KT 9999 BKN008 11/09 Q1025 NOSIG=
201301021920 METAR COR EGLL 021920Z 25012KT 9999 BKN007 11/10 Q1025 NOSIG=
201301021850 METAR EGLL 021850Z 27012KT 9999 BKN006 10/09 Q1024=
201301021820 METAR COR EGLL 021820Z 26012KT 9999 BKN007 10/09 Q1024 NOSIG=
201301021750 METAR COR EGLL 021750Z 25012KT 9999 BKN007 10/09 Q1024 NOSIG=
201301021720 METAR COR EGLL 021720Z 25012KT 9999 BKN008 10/09 Q1024 NOSIG=
201301021650 METAR COR EGLL 021650Z 24012KT 9999 BKN009 10/08 Q1024 NOSIG=
201301021620 METAR COR EGLL 021620Z 24010KT 210V270 9999 BKN008 09/08
                        Q1024 TEMPO RADZ=
201301021550 METAR COR EGLL 021550Z 22008KT 9999 BKN008 08/07 Q1024 TEMPO
                        RADZ=
201301021520 METAR COR EGLL 021520Z 22007KT 9999 BKN009 08/07 Q1024 NOSIG=
201301021450 METAR COR EGLL 021450Z 22008KT 6000 -RADZ BKN010 08/07 Q1024
                        BECMG BKN008=
201301021420 METAR COR EGLL 021420Z 22010KT 200V260 9999 BKN010 08/07
                        Q1024 BECMG BKN008=
201301021350 METAR COR EGLL 021350Z 22009KT 9999 -RA BKN010 08/07 Q1024
                        BECMG BKN008=
201301021320 METAR EGLL 021320Z 21008KT 6000 RADZ BKN017 08/06 Q1024 BECMG
                        BKN010=
201301021250 METAR COR EGLL 021250Z 23009KT 9999 SCT023 BKN029 08/06 Q1024
                        BECMG BKN014=
201301021220 METAR COR EGLL 021220Z 22008KT 9999 SCT022 SCT025 08/05 Q1024
                        BECMG BKN014=
201301021150 METAR COR EGLL 021150Z 22007KT 9999 FEW037 BKN044 08/05 Q1024
                        BECMG BKN014=
201301021120 METAR COR EGLL 021120Z 21006KT 9999 FEW044 BKN049 07/04 Q1025
                        BECMG BKN014=
201301021050 METAR COR EGLL 021050Z 23006KT 190V260 9999 FEW047 07/04
                        Q1024 BECMG BKN014=
201301021020 METAR COR EGLL 021020Z 24009KT 9999 FEW048 07/04 Q1024 BECMG
                        BKN014=
201301020950 METAR COR EGLL 020950Z 24007KT 210V270 CAVOK 07/04 Q1024
                        BECMG BKN020=
201301020920 METAR COR EGLL 020920Z 26006KT CAVOK 06/04 Q1024 BECMG BKN020=
201301020850 METAR EGLL 020850Z 27008KT CAVOK 06/04 Q1024=
201301020820 METAR COR EGLL 020820Z 25008KT CAVOK 06/03 Q1023 NOSIG=
201301020750 METAR COR EGLL 020750Z 25008KT CAVOK 05/03 Q1023 NOSIG=
201301020720 METAR COR EGLL 020720Z 25008KT CAVOK 05/03 Q1023 NOSIG=
201301020650 METAR COR EGLL 020650Z 22004KT 190V270 CAVOK 04/03 Q1022
                        NOSIG=
201301020620 METAR COR EGLL 020620Z 25007KT CAVOK 04/03 Q1022 NOSIG=
201301020550 METAR COR EGLL 020550Z VRB03KT CAVOK 03/02 Q1022 NOSIG=
201301020520 METAR COR EGLL 020520Z VRB02KT CAVOK 02/01 Q1022 NOSIG=
201301020450 METAR COR EGLL 020450Z 18003KT CAVOK 03/01 Q1021 NOSIG=
201301020420 METAR COR EGLL 020420Z 19004KT CAVOK 03/01 Q1021 NOSIG=
201301020350 METAR COR EGLL 020350Z 20005KT CAVOK 03/02 Q1020 NOSIG=
201301020320 METAR COR EGLL 020320Z 20004KT CAVOK 03/02 Q1020 NOSIG=
201301020250 METAR EGLL 020250Z AUTO 20004KT 9999 NCD 03/01 Q1020=
201301020220 METAR EGLL 020220Z AUTO 19004KT 9999 NCD 03/01 Q1020=
201301020150 METAR EGLL 020150Z AUTO 25003KT 9999 NCD 03/01 Q1019=
201301020120 METAR EGLL 020120Z 22005KT CAVOK 03/02 Q1019=
201301020050 METAR COR EGLL 020050Z 25008KT CAVOK 04/02 Q1018 NOSIG=
201301020020 METAR COR EGLL 020020Z 25007KT CAVOK 04/02 Q1018 NOSIG=
201301012350 METAR COR EGLL 012350Z 27007KT CAVOK 04/02 Q1018 NOSIG=
201301012320 METAR COR EGLL 012320Z 27006KT CAVOK 04/01 Q1017 NOSIG=
201301012250 METAR COR EGLL 012250Z 26010KT CAVOK 04/02 Q1017 NOSIG=
201301012220 METAR COR EGLL 012220Z 26013KT CAVOK 05/02 Q1016 NOSIG=
201301012150 METAR COR EGLL 012150Z 27012KT 9999 FEW045 05/02 Q1016 NOSIG=
201301012120 METAR COR EGLL 012120Z 27012KT 9999 FEW044 05/02 Q1016 NOSIG=
201301012050 METAR COR EGLL 012050Z 26012KT 9999 FEW045 05/02 Q1015 NOSIG=
201301012020 METAR COR EGLL 012020Z 27011KT 9999 SCT045 05/02 Q1015 NOSIG=
201301011950 METAR COR EGLL 011950Z 27013KT 9999 BKN043 05/02 Q1014 NOSIG=
201301011920 METAR COR EGLL 011920Z 28011KT 9999 SCT043 05/02 Q1014 NOSIG=
201301011850 METAR EGLL 011850Z 27015KT 9999 FEW039 06/02 Q1013=
201301011820 METAR COR EGLL 011820Z 27012KT 9999 SCT041 05/02 Q1013 NOSIG=
201301011750 METAR COR EGLL 011750Z 24008KT 200V260 9999 FEW042 06/02
                        Q1012 NOSIG=
201301011720 METAR COR EGLL 011720Z 25010KT 9999 BKN042 06/02 Q1012 NOSIG=
201301011650 METAR COR EGLL 011650Z 26010KT 9999 SCT045 06/02 Q1012 NOSIG=
201301011620 METAR COR EGLL 011620Z 27009KT 9999 FEW038 06/02 Q1011 NOSIG=
201301011550 METAR COR EGLL 011550Z 27010KT 9999 SCT034 07/02 Q1011 NOSIG=
201301011520 METAR COR EGLL 011520Z 27011KT 9999 FEW032 07/02 Q1010 NOSIG=
201301011450 METAR COR EGLL 011450Z 27010KT 9999 SCT037 07/02 Q1010 NOSIG=
201301011420 METAR COR EGLL 011420Z 28013KT 9999 FEW032 07/02 Q1010 NOSIG=
201301011350 METAR COR EGLL 011350Z 28012KT 9999 FEW030 07/02 Q1009 NOSIG=
201301011320 METAR COR EGLL 011320Z 28015KT 9999 FEW025 08/02 Q1009 NOSIG=
201301011250 METAR COR EGLL 011250Z 28013KT 9999 FEW020 07/03 Q1009 NOSIG=
201301011220 METAR COR EGLL 011220Z 27012KT 9999 FEW020 07/03 Q1008 NOSIG=
201301011150 METAR COR EGLL 011150Z 27011KT 9999 FEW020 07/03 Q1008 NOSIG=
201301011120 METAR COR EGLL 011120Z 27012KT 9999 FEW020 06/03 Q1008 NOSIG=
201301011050 METAR COR EGLL 011050Z 27010KT 9999 FEW020 06/03 Q1008 NOSIG=
201301011020 METAR COR EGLL 011020Z 27011KT CAVOK 06/03 Q1008 NOSIG=
201301010950 METAR COR EGLL 010950Z 27008KT CAVOK 05/02 Q1007 NOSIG=
201301010920 METAR COR EGLL 010920Z 27007KT CAVOK 05/02 Q1006 NOSIG=
201301010850 METAR COR EGLL 010850Z 27006KT CAVOK 04/02 Q1006 NOSIG=
201301010820 METAR COR EGLL 010820Z 25008KT CAVOK 04/02 Q1005 NOSIG=
201301010750 METAR COR EGLL 010750Z 28009KT CAVOK 04/02 Q1005 NOSIG=
201301010720 METAR COR EGLL 010720Z 28009KT CAVOK 04/02 Q1004 NOSIG=
201301010650 METAR COR EGLL 010650Z 28009KT CAVOK 04/02 Q1004 NOSIG=
201301010620 METAR COR EGLL 010620Z 27009KT CAVOK 04/03 Q1003 NOSIG=
201301010550 METAR COR EGLL 010550Z 27008KT CAVOK 05/03 Q1003 NOSIG=
201301010520 METAR COR EGLL 010520Z 29009KT CAVOK 06/03 Q1003 NOSIG=
201301010450 METAR COR EGLL 010450Z 29008KT CAVOK 06/04 Q1002 NOSIG=
201301010420 METAR COR EGLL 010420Z 28010KT 9999 FEW036 06/04 Q1002 NOSIG=
201301010350 METAR COR EGLL 010350Z 29009KT 9999 FEW036 07/05 Q1001 NOSIG=
201301010320 METAR COR EGLL 010320Z 27007KT 9999 SCT040 07/05 Q1001 NOSIG=
201301010250 METAR COR EGLL 010250Z 29007KT 9999 BKN034 08/05 Q1001 NOSIG=
201301010220 METAR EGLL 010220Z AUTO 29010KT 7000 -RA FEW023/// SCT027///
                        08/07 Q1001 RERA=
201301010150 METAR EGLL 010150Z AUTO 28011KT 6000 -RA FEW013/// BKN030///
                        08/07 Q1000=
201301010120 METAR EGLL 010120Z AUTO 25009KT 8000 -RA FEW013/// BKN038///
                        09/07 Q1000=
201301010050 METAR COR EGLL 010050Z 25009KT 9999 -RA FEW014 BKN034 BKN048
                        09/07 Q0999 TEMPO BKN012=
201301010020 METAR COR EGLL 010020Z 24009KT 9999 SCT021 BKN048 09/07 Q0999
                        NOSIG=
