##########################################################
# Query made at 01/13/2020 11:40:59 UTC
# Time interval: from 03/01/2015 00:00  to 03/31/2015 23:59  UTC
##########################################################

##########################################################
# EGLL, London / Heathrow Airport (United Kingdom)
# WMO index: 03772
# Latitude 51-29N. Longitude 000-27W. Altitude 24 m.
##########################################################

###################################
#  METAR/SPECI from EGLL
###################################
201503312350 METAR EGLL 312350Z 28016KT CAVOK 05/00 Q1019 NOSIG=
201503312320 METAR COR EGLL 312320Z 28014KT CAVOK 06/01 Q1019 NOSIG=
201503312250 METAR EGLL 312250Z 27013KT CAVOK 06/M00 Q1019 NOSIG=
201503312220 METAR COR EGLL 312220Z 28013KT 9999 FEW036 07/M01 Q1018 NOSIG=
201503312150 METAR COR EGLL 312150Z 29012KT CAVOK 07/M01 Q1018 NOSIG=
201503312120 METAR COR EGLL 312120Z 29014KT CAVOK 07/M01 Q1018 NOSIG=
201503312050 METAR EGLL 312050Z 28015KT CAVOK 07/M00 Q1017 NOSIG=
201503312020 METAR COR EGLL 312020Z 28015KT 9999 FEW045 07/00 Q1017 NOSIG=
201503311950 METAR EGLL 311950Z 29015G25KT CAVOK 08/M00 Q1016 NOSIG=
201503311920 METAR COR EGLL 311920Z 29017KT CAVOK 09/M00 Q1016 TEMPO SHRA=
201503311850 METAR COR EGLL 311850Z 30012KT 270V330 9999 FEW044 09/00
                        Q1016 TEMPO SHRA=
201503311820 METAR COR EGLL 311820Z 29020KT 9999 FEW045 09/01 Q1015 TEMPO
                        SHRA=
201503311750 METAR COR EGLL 311750Z 29019G32KT 9999 FEW045 10/01 Q1014
                        NOSIG=
201503311720 METAR COR EGLL 311720Z 29018G29KT 9999 FEW045 10/00 Q1014
                        NOSIG=
201503311650 METAR COR EGLL 311650Z 28023G34KT 9999 FEW045TCU 11/M00 Q1013
                        NOSIG=
201503311620 METAR COR EGLL 311620Z 28020KT 9999 VCSH FEW048TCU 10/02
                        Q1013 NOSIG=
201503311550 METAR COR EGLL 311550Z 28023G36KT 9999 VCSH SCT045TCU 13/M01
                        Q1012 TEMPO SHRA=
201503311520 METAR COR EGLL 311520Z 29024G34KT 9999 FEW045 13/M02 Q1012
                        NOSIG=
201503311450 METAR COR EGLL 311450Z 28025G37KT 9999 FEW045 12/00 Q1012
                        TEMPO SHRA=
201503311420 METAR COR EGLL 311420Z 29022G34KT 260V320 9999 VCSH FEW048
                        13/01 Q1012 TEMPO SHRA=
201503311350 METAR COR EGLL 311350Z 28023KT CAVOK 13/00 Q1011 NOSIG=
201503311320 METAR COR EGLL 311320Z 28022G32KT CAVOK 13/M01 Q1011 NOSIG=
201503311250 METAR EGLL 311250Z 29024G34KT CAVOK 13/M01 Q1011 NOSIG=
201503311220 METAR COR EGLL 311220Z 29018KT 9999 FEW048 13/00 Q1011 NOSIG=
201503311150 METAR COR EGLL 311150Z 29020KT 9999 FEW048 13/00 Q1010 NOSIG=
201503311120 METAR COR EGLL 311120Z 29022G38KT 9999 FEW048 13/M00 Q1010
                        NOSIG=
201503311050 METAR EGLL 311050Z 29021G31KT 9999 FEW048 12/00 Q1009 NOSIG=
201503311020 METAR COR EGLL 311020Z 29021G33KT 9999 FEW047 12/00 Q1009
                        NOSIG=
201503310950 METAR EGLL 310950Z 29020G31KT 9999 FEW047 12/02 Q1008 NOSIG=
201503310920 METAR COR EGLL 310920Z 29022G32KT 9999 FEW044 12/02 Q1007
                        NOSIG=
201503310850 METAR COR EGLL 310850Z 29018G36KT 9999 FEW040 SCT046 11/03
                        Q1006 NOSIG=
201503310820 METAR COR EGLL 310820Z 29016G30KT 9999 FEW038 SCT048 11/04
                        Q1005 NOSIG=
201503310750 METAR COR EGLL 310750Z 28021KT 9999 -SHRA FEW036 SCT048 10/04
                        Q1004 NOSIG=
201503310720 METAR COR EGLL 310720Z 28021G32KT 9999 FEW038 BKN045 10/03
                        Q1003 NOSIG=
201503310650 METAR COR EGLL 310650Z 27021KT 9999 SCT045 SCT048 10/03 Q1002
                        NOSIG=
201503310620 METAR COR EGLL 310620Z 28019G32KT 9999 FEW044 SCT046 10/03
                        Q1002 NOSIG=
201503310550 METAR EGLL 310550Z 28020KT 9999 FEW042 SCT049 10/04 Q1001
                        NOSIG=
201503310520 METAR COR EGLL 310520Z 28015KT 9999 -SHRA FEW030 BKN041 10/05
                        Q1000 NOSIG=
201503310450 METAR EGLL 310450Z 29017G28KT 9999 SCT041 10/04 Q0999 NOSIG=
201503310420 METAR COR EGLL 310420Z 27023G33KT 9999 FEW030 SCT042 10/06
                        Q0998 NOSIG=
201503310350 METAR EGLL 310350Z 27023KT 9999 FEW029 10/07 Q0998 NOSIG=
201503310320 METAR COR EGLL 310320Z 28022G34KT 8000 -RA FEW020 BKN029
                        11/08 Q0998 TEMPO SHRA=
201503310250 METAR EGLL 310250Z 27027G38KT 9000 -RADZ FEW019 BKN030 11/08
                        Q0997 TEMPO SHRA=
201503310220 METAR COR EGLL 310220Z 27024KT 9999 FEW013 SCT018 11/09 Q0997
                        NOSIG=
201503310150 METAR COR EGLL 310150Z 26030G42KT 9999 SCT031 12/08 Q0996
                        NOSIG=
201503310120 METAR EGLL 310120Z AUTO 27027G37KT 8000 DZ FEW015 SCT025
                        12/09 Q0997 RERA=
201503310050 METAR EGLL 310050Z AUTO 26025KT 3900 -RA OVC013 12/10 Q0997
                        RERA REDZ=
201503310020 METAR EGLL 310020Z AUTO 25022G34KT 9999 -RA BKN017 13/10
                        Q0997=
201503302350 METAR COR EGLL 302350Z 24022G32KT 9999 BKN019 13/09 Q0997
                        NOSIG=
201503302320 METAR COR EGLL 302320Z 25024KT 9999 BKN018 12/10 Q0998 TEMPO
                        BKN012=
201503302250 METAR EGLL 302250Z 25020KT 9999 FEW016 BKN018 12/10 Q0999
                        TEMPO BKN012=
201503302220 METAR COR EGLL 302220Z 25020KT 9999 FEW015 BKN018 12/10 Q1000
                        TEMPO BKN012=
201503302150 METAR EGLL 302150Z 25019KT 9999 FEW010 BKN013 12/10 Q1000
                        TEMPO 4800 RADZ BKN008=
201503302120 METAR COR EGLL 302120Z 24018KT 9999 -DZ FEW008 BKN011 11/10
                        Q1001 TEMPO 4800 RADZ BKN008=
201503302050 METAR COR EGLL 302050Z 24018KT 7000 FEW006 BKN008 11/10 Q1001
                        TEMPO 4800 RADZ=
201503302020 METAR COR EGLL 302020Z 23015KT 7000 -DZ BKN007 10/09 Q1002
                        TEMPO 4800 -RADZ=
201503301950 METAR EGLL 301950Z 23016KT 8000 OVC007 10/09 Q1002 TEMPO
                        4800 -RADZ=
201503301920 METAR COR EGLL 301920Z 22014KT 9999 BKN008 09/08 Q1003 TEMPO
                        4800 -RADZ BKN010=
201503301850 METAR COR EGLL 301850Z 22014KT 9999 BKN011 09/07 Q1004 TEMPO
                        4800 -RADZ BKN008=
201503301820 METAR COR EGLL 301820Z 22010KT 9999 SCT016 BKN020 09/07 Q1006
                        TEMPO 4800 RADZ SCT007 BKN010=
201503301750 METAR EGLL 301750Z 22011KT 9999 -RA BKN025 09/06 Q1007 TEMPO
                        RA BKN012=
201503301720 METAR COR EGLL 301720Z 21010KT 9999 -RA SCT030 SCT034 09/06
                        Q1008 TEMPO RA BKN014=
201503301650 METAR COR EGLL 301650Z 21011KT 9999 -RA FEW035 BKN042 09/05
                        Q1008 TEMPO RA BKN014=
201503301620 METAR COR EGLL 301620Z 22012KT 190V250 9999 -RA FEW036 BKN038
                        10/03 Q1009 NOSIG=
201503301550 METAR EGLL 301550Z 23015KT 9999 -RA BKN041 10/02 Q1010 NOSIG=
201503301520 METAR COR EGLL 301520Z 24015KT 9999 BKN047 11/00 Q1010 NOSIG=
201503301450 METAR COR EGLL 301450Z 25013KT 9999 FEW047 11/00 Q1011 NOSIG=
201503301420 METAR COR EGLL 301420Z 25017KT 9999 FEW045 11/M01 Q1011 NOSIG=
201503301350 METAR EGLL 301350Z 24016KT 9999 FEW048 11/00 Q1011 NOSIG=
201503301320 METAR COR EGLL 301320Z 26014KT CAVOK 11/M01 Q1011 NOSIG=
201503301250 METAR EGLL 301250Z 26011KT CAVOK 11/M03 Q1012 NOSIG=
201503301220 METAR COR EGLL 301220Z 27013KT CAVOK 10/M02 Q1012 NOSIG=
201503301150 METAR EGLL 301150Z 27013KT 9999 FEW048 10/M02 Q1012 NOSIG=
201503301120 METAR COR EGLL 301120Z 27013KT 9999 FEW041 10/M02 Q1012 NOSIG=
201503301050 METAR COR EGLL 301050Z 27016KT 9999 FEW041 09/M00 Q1012 NOSIG=
201503301020 METAR COR EGLL 301020Z 28012KT 9999 FEW043 09/M00 Q1012 NOSIG=
201503300950 METAR EGLL 300950Z 29013KT 9999 FEW043 09/M00 Q1011 NOSIG=
201503300920 METAR COR EGLL 300920Z 30012KT 270V330 9999 FEW040 09/00
                        Q1011 NOSIG=
201503300850 METAR EGLL 300850Z 30010G20KT 9999 FEW035 08/01 Q1010 NOSIG=
201503300820 METAR COR EGLL 300820Z 29011KT 9999 FEW033 08/02 Q1010 NOSIG=
201503300750 METAR EGLL 300750Z 27013KT CAVOK 07/02 Q1010 NOSIG=
201503300720 METAR COR EGLL 300720Z 27013KT CAVOK 07/02 Q1009 NOSIG=
201503300650 METAR EGLL 300650Z 28011KT CAVOK 06/01 Q1009 NOSIG=
201503300620 METAR COR EGLL 300620Z 27011KT CAVOK 06/02 Q1008 NOSIG=
201503300550 METAR EGLL 300550Z 27010KT CAVOK 05/02 Q1007 NOSIG=
201503300520 METAR COR EGLL 300520Z 27010KT CAVOK 06/02 Q1006 NOSIG=
201503300450 METAR EGLL 300450Z 28009KT CAVOK 05/02 Q1006 NOSIG=
201503300420 METAR COR EGLL 300420Z 28011KT CAVOK 06/02 Q1005 NOSIG=
201503300350 METAR COR EGLL 300350Z 29013KT CAVOK 06/02 Q1005 NOSIG=
201503300320 METAR COR EGLL 300320Z 28011KT CAVOK 06/02 Q1004 NOSIG=
201503300250 METAR EGLL 300250Z 28015KT CAVOK 06/02 Q1004 NOSIG=
201503300220 METAR COR EGLL 300220Z 28015KT CAVOK 07/03 Q1003 NOSIG=
201503300150 METAR EGLL 300150Z 27013KT 9999 FEW042 07/04 Q1003 NOSIG=
201503300120 METAR COR EGLL 300120Z 27012KT CAVOK 07/04 Q1003 NOSIG=
201503300050 METAR EGLL 300050Z 27011KT 9999 FEW035 08/05 Q1002 NOSIG=
201503300020 METAR COR EGLL 300020Z 26010KT CAVOK 08/04 Q1002 NOSIG=
201503292350 METAR COR EGLL 292350Z 27011KT CAVOK 08/04 Q1002 NOSIG=
201503292320 METAR COR EGLL 292320Z 27012KT CAVOK 08/05 Q1001 NOSIG=
201503292250 METAR COR EGLL 292250Z 26010KT CAVOK 09/05 Q1001 NOSIG=
201503292220 METAR COR EGLL 292220Z 27015KT CAVOK 09/05 Q1000 NOSIG=
201503292150 METAR EGLL 292150Z 27013KT CAVOK 09/06 Q1000 NOSIG=
201503292120 METAR COR EGLL 292120Z 27013KT CAVOK 09/06 Q1000 NOSIG=
201503292050 METAR EGLL 292050Z 27013KT CAVOK 09/06 Q1000 NOSIG=
201503292020 METAR COR EGLL 292020Z 28012KT 9999 FEW030 09/06 Q1000 NOSIG=
201503291950 METAR EGLL 291950Z 27016KT 9999 FEW030 09/06 Q1000 NOSIG=
201503291920 METAR COR EGLL 291920Z 28011KT 9999 -SHRA FEW020 SCT030 09/07
                        Q0999 RESHRA NOSIG=
201503291850 METAR EGLL 291850Z 28011KT 9999 VCSH FEW028 SCT033 10/07
                        Q0999 RESHRA NOSIG=
201503291820 METAR COR EGLL 291820Z 27018KT 8000 -SHRA SCT029 SCT036 11/06
                        Q0999 NOSIG=
201503291750 METAR COR EGLL 291750Z 27016KT 9999 VCSH SCT032CB 11/07 Q0998
                        NOSIG=
201503291720 METAR COR EGLL 291720Z 27015KT 9999 5000SE -SHRA SCT030CB
                        11/06 Q0998 NOSIG=
201503291650 METAR COR EGLL 291650Z 28014KT 9999 VCSH FEW020 SCT043CB
                        11/07 Q0997 NOSIG=
201503291620 METAR COR EGLL 291620Z 28016G26KT 9999 -SHRA SCT030CB 11/07
                        Q0997 NOSIG=
201503291550 METAR COR EGLL 291550Z 27017KT 9999 7000SE VCSH FEW028CB
                        SCT035 11/08 Q0996 BECMG 9999 NSW=
201503291520 METAR COR EGLL 291520Z 29018KT 9999 5000SW -SHRA FEW027CB
                        SCT032 10/08 Q0996 RESHRA BECMG 9999
                        NSW=
201503291450 METAR COR EGLL 291450Z 26030G42KT 9999 SCT035CB 14/07 Q0994
                        TEMPO 5000 SHRA=
201503291420 METAR COR EGLL 291420Z 26031G42KT 9999 SCT032 14/08 Q0994
                        TEMPO 4000 SHRA=
201503291350 METAR COR EGLL 291350Z 26027G43KT 9999 VCSH SCT028 BKN038
                        14/09 Q0994 TEMPO SHRA=
201503291320 METAR COR EGLL 291320Z 26028G38KT 9999 -SHRA SCT023 BKN030
                        13/09 Q0994 TEMPO SHRA=
201503291250 METAR EGLL 291250Z 26025G35KT 9999 SCT016 BKN026 13/10 Q0995
                        NOSIG=
201503291220 METAR COR EGLL 291220Z 25024G36KT 6000 -RA BKN010 12/10 Q0995
                        TEMPO 4000 -RADZ=
201503291150 METAR COR EGLL 291150Z 25021KT 4000 -RA FEW012 BKN016 12/11
                        Q0995 TEMPO BKN012=
201503291120 METAR COR EGLL 291120Z 24023KT 6000 -RA BKN016 13/10 Q0995
                        TEMPO 4000 -RADZ BKN012=
201503291050 METAR EGLL 291050Z 24023KT 9000 -RA SCT018 BKN024 13/10 Q0996
                        TEMPO 4000 -RADZ BKN014=
201503291020 METAR COR EGLL 291020Z 24020G31KT 9999 SCT016 BKN022 13/10
                        Q0996 TEMPO RA BKN014=
201503290950 METAR EGLL 290950Z 24018KT 9999 SCT013 BKN018 12/10 Q0997
                        TEMPO BKN013=
201503290920 METAR COR EGLL 290920Z 24016KT 5000 -RA FEW014 BKN017 12/10
                        Q0998 TEMPO 4000 -RADZ BKN012=
201503290850 METAR COR EGLL 290850Z 23017KT 9999 -RA FEW016 SCT022 BKN028
                        12/10 Q0999 TEMPO 4000 -RADZ BKN012=
201503290820 METAR COR EGLL 290820Z 23016KT 7000 -RA FEW007 BKN018 11/10
                        Q0999 TEMPO 4000 -RADZ BKN008=
201503290750 METAR COR EGLL 290750Z 22009KT 7000 -RA SCT006 SCT012 BKN016
                        09/09 Q1000 TEMPO 4000 -RADZ BKN006=
201503290720 METAR COR EGLL 290720Z 21009KT 4200 -RA FEW003 SCT006 BKN014
                        09/08 Q1001 TEMPO BKN006=
201503290650 METAR COR EGLL 290650Z 24011KT 9999 -RA FEW014 BKN024 09/08
                        Q1002 TEMPO 4000 -RADZ BKN014=
201503290620 METAR COR EGLL 290620Z 24012KT 9999 -RA FEW016 SCT018 BKN039
                        10/07 Q1002 TEMPO BKN012=
201503290550 METAR EGLL 290550Z 24014KT 9999 -SHRA FEW022 SCT027 BKN033
                        10/07 Q1003=
201503290520 METAR EGLL 290520Z 25017KT 9999 FEW041 SCT048 11/05 Q1003=
201503290450 METAR COR EGLL 290450Z 25016KT 9999 FEW030 11/05 Q1004 TEMPO
                        -RA BKN012=
201503290420 METAR COR EGLL 290420Z 25018KT 9999 FEW030 11/06 Q1004 TEMPO
                        -RA BKN014=
201503290350 METAR COR EGLL 290350Z 24016KT 9999 SCT030 SCT036 10/07 Q1004
                        NOSIG=
201503290320 METAR COR EGLL 290320Z 24016KT 9999 FEW034 10/08 Q1004 NOSIG=
201503290250 METAR EGLL 290250Z 24016KT 9999 SCT037 BKN042 10/08 Q1005
                        NOSIG=
201503290220 METAR COR EGLL 290220Z 24014KT 9999 FEW020 BKN040 10/08 Q1005
                        TEMPO BKN014=
201503290150 METAR COR EGLL 290150Z 23013KT 6000 FEW010 BKN016 09/08 Q1006
                        TEMPO -RA BKN012=
201503290120 METAR COR EGLL 290120Z 24015KT 9999 FEW015 BKN019 10/07 Q1006
                        TEMPO BKN014=
201503290050 METAR COR EGLL 290050Z 24015KT 9999 BKN020 10/06 Q1006 NOSIG=
201503290020 METAR COR EGLL 290020Z 24018KT 9999 BKN022 10/06 Q1006 NOSIG=
201503282350 METAR COR EGLL 282350Z 24017KT 9999 BKN025 10/05 Q1006 NOSIG=
201503282320 METAR COR EGLL 282320Z 24017G27KT 9999 SCT030 10/05 Q1006
                        NOSIG=
201503282250 METAR EGLL 282250Z 24016KT 9999 FEW030 11/05 Q1006 NOSIG=
201503282220 METAR COR EGLL 282220Z 24015KT 9999 FEW026 11/06 Q1007 NOSIG=
201503282150 METAR EGLL 282150Z 26017KT 9999 FEW028 11/06 Q1007 NOSIG=
201503282120 METAR COR EGLL 282120Z 25014KT 9999 FEW028 12/06 Q1007 NOSIG=
201503282050 METAR COR EGLL 282050Z 26021G31KT 9999 SCT028 12/07 Q1007
                        NOSIG=
201503282020 METAR COR EGLL 282020Z 25017KT 9999 SCT030 13/07 Q1007 NOSIG=
201503281950 METAR COR EGLL 281950Z 25021KT 9999 SCT028 SCT040 13/08 Q1007
                        NOSIG=
201503281920 METAR COR EGLL 281920Z 25019G31KT 9999 BKN030 14/08 Q1007
                        NOSIG=
201503281850 METAR COR EGLL 281850Z 25016KT 9999 BKN030 13/08 Q1007 NOSIG=
201503281820 METAR COR EGLL 281820Z 24014G25KT 9999 SCT028 BKN043 13/09
                        Q1007 NOSIG=
201503281750 METAR COR EGLL 281750Z 26014KT 9999 OVC025 14/09 Q1007 NOSIG=
201503281720 METAR COR EGLL 281720Z 24014KT 9999 BKN022 14/09 Q1007 NOSIG=
201503281650 METAR EGLL 281650Z 23018KT 9999 SCT016 SCT023 13/09 Q1007
                        NOSIG=
201503281620 METAR COR EGLL 281620Z 23016KT 9999 FEW013 SCT016 BKN028
                        13/10 Q1007 NOSIG=
201503281550 METAR COR EGLL 281550Z 23018KT 9999 BKN016 13/10 Q1008 NOSIG=
201503281520 METAR COR EGLL 281520Z 23018KT 9999 BKN015 BKN020 13/10 Q1008
                        NOSIG=
201503281450 METAR EGLL 281450Z 23019KT 9999 FEW014 BKN016 13/09 Q1008=
201503281420 METAR COR EGLL 281420Z 23017KT 9999 BKN016 13/09 Q1009 NOSIG=
201503281350 METAR COR EGLL 281350Z 23018KT 9999 BKN014 13/09 Q1009 BECMG
                        SCT012 BKN020=
201503281320 METAR COR EGLL 281320Z 23017KT 9999 OVC013 13/09 Q1010 TEMPO
                        SCT012 BKN016=
201503281250 METAR COR EGLL 281250Z 23019KT 9999 BKN018 13/09 Q1010 TEMPO
                        BKN014=
201503281220 METAR COR EGLL 281220Z 23020KT 9999 BKN022 14/09 Q1010 NOSIG=
201503281150 METAR COR EGLL 281150Z 23018G29KT 9999 SCT023 BKN026 14/09
                        Q1011 NOSIG=
201503281120 METAR COR EGLL 281120Z 23017KT 9999 SCT021 BKN024 14/09 Q1011
                        NOSIG=
201503281050 METAR EGLL 281050Z 23015KT 9999 SCT012 BKN019 13/10 Q1012
                        NOSIG=
201503281020 METAR COR EGLL 281020Z 21013KT 9999 BKN009 OVC010 12/10 Q1012
                        BECMG BKN014=
201503280950 METAR EGLL 280950Z 22013KT 9999 FEW009 BKN012 12/10 Q1013
                        NOSIG=
201503280920 METAR COR EGLL 280920Z 23015KT 9999 FEW009 BKN012 12/10 Q1013
                        NOSIG=
201503280850 METAR COR EGLL 280850Z 22011KT 9999 FEW010 BKN012 12/10 Q1013
                        NOSIG=
201503280820 METAR COR EGLL 280820Z 23010KT 9999 FEW009 BKN012 11/10 Q1013
                        NOSIG=
201503280750 METAR COR EGLL 280750Z 22009KT 9999 FEW007 BKN011 11/10 Q1013
                        NOSIG=
201503280720 METAR COR EGLL 280720Z 22009KT 190V250 8000 SCT007 BKN009
                        10/09 Q1014 BECMG BKN012=
201503280650 METAR EGLL 280650Z 22009KT 6000 FEW005 BKN006 09/09 Q1014
                        NOSIG=
201503280620 METAR COR EGLL 280620Z 21009KT 180V250 6000 FEW004 BKN005
                        09/08 Q1014 NOSIG=
201503280550 METAR EGLL 280550Z 20009KT 6000 FEW004 BKN005 09/08 Q1015
                        NOSIG=
201503280520 METAR COR EGLL 280520Z 20008KT 6000 FEW004 BKN005 09/08 Q1015
                        TEMPO BKN004=
201503280450 METAR COR EGLL 280450Z 20008KT 6000 BKN004 09/08 Q1015 TEMPO
                        BKN005=
201503280420 METAR COR EGLL 280420Z 20008KT 5000 -DZ OVC003 08/08 Q1016
                        TEMPO BKN005=
201503280350 METAR EGLL 280350Z 19007KT 5000 BR OVC004 08/08 Q1016 TEMPO
                        BKN005=
201503280320 METAR COR EGLL 280320Z 17006KT 5000 BR OVC004 08/07 Q1016
                        TEMPO BKN005=
201503280250 METAR EGLL 280250Z AUTO 18006KT 3900 HZ OVC004 08/07 Q1017=
201503280220 METAR EGLL 280220Z AUTO 19007KT 4800 HZ OVC005 08/07 Q1017=
201503280150 METAR EGLL 280150Z AUTO 17006KT 9999 OVC006 08/06 Q1018=
201503280120 METAR COR EGLL 280120Z 16006KT 9999 BKN008 08/06 Q1018 NOSIG=
201503280050 METAR COR EGLL 280050Z 16005KT 9999 SCT011 SCT013 BKN038
                        08/06 Q1019 BECMG BKN009=
201503280020 METAR COR EGLL 280020Z 18006KT 9999 SCT042 BKN047 08/06 Q1019
                        BECMG BKN012=
201503272350 METAR COR EGLL 272350Z 18006KT 9999 SCT030 07/05 Q1019 TEMPO
                        -RA BKN012=
201503272320 METAR COR EGLL 272320Z 17005KT 9999 SCT030 07/05 Q1020 NOSIG=
201503272250 METAR EGLL 272250Z 18007KT 160V240 9999 FEW030 07/05 Q1020
                        NOSIG=
201503272220 METAR COR EGLL 272220Z 18007KT 150V240 CAVOK 07/04 Q1020
                        NOSIG=
201503272150 METAR EGLL 272150Z 21007KT 160V250 CAVOK 07/04 Q1020 NOSIG=
201503272120 METAR COR EGLL 272120Z 20007KT 140V250 CAVOK 07/04 Q1021
                        NOSIG=
201503272050 METAR EGLL 272050Z 20008KT 160V250 CAVOK 08/04 Q1021 NOSIG=
201503272020 METAR COR EGLL 272020Z 22008KT CAVOK 08/03 Q1021 NOSIG=
201503271950 METAR COR EGLL 271950Z 22009KT CAVOK 09/03 Q1021 NOSIG=
201503271920 METAR COR EGLL 271920Z 21010KT 190V250 CAVOK 09/03 Q1021
                        NOSIG=
201503271850 METAR EGLL 271850Z 21008KT CAVOK 10/03 Q1020 NOSIG=
201503271820 METAR COR EGLL 271820Z 22008KT CAVOK 10/03 Q1020 NOSIG=
201503271750 METAR COR EGLL 271750Z 20008KT 170V240 9999 FEW047 11/03
                        Q1020 NOSIG=
201503271720 METAR COR EGLL 271720Z 23008KT CAVOK 12/01 Q1020 NOSIG=
201503271650 METAR COR EGLL 271650Z 29006KT CAVOK 12/01 Q1020 NOSIG=
201503271620 METAR COR EGLL 271620Z 24007KT CAVOK 12/01 Q1020 NOSIG=
201503271550 METAR EGLL 271550Z 26008KT 230V300 CAVOK 13/01 Q1020 NOSIG=
201503271520 METAR COR EGLL 271520Z 25010KT CAVOK 12/01 Q1020 NOSIG=
201503271450 METAR COR EGLL 271450Z 28005KT 230V320 CAVOK 12/00 Q1020
                        NOSIG=
201503271420 METAR COR EGLL 271420Z 25005KT 190V300 CAVOK 12/00 Q1020
                        NOSIG=
201503271350 METAR EGLL 271350Z 26007KT 220V310 CAVOK 11/M00 Q1020 NOSIG=
201503271320 METAR COR EGLL 271320Z 27009KT 220V310 CAVOK 12/M00 Q1021
                        NOSIG=
201503271250 METAR EGLL 271250Z 29007KT 250V330 9999 SCT049 12/00 Q1021
                        NOSIG=
201503271220 METAR COR EGLL 271220Z 29008KT 260V330 9999 SCT049 12/00
                        Q1020 NOSIG=
201503271150 METAR EGLL 271150Z 28010KT 9999 FEW048 11/M00 Q1021 NOSIG=
201503271120 METAR COR EGLL 271120Z 28010KT 230V300 9999 SCT046 10/M01
                        Q1021 NOSIG=
201503271050 METAR EGLL 271050Z 26007KT 230V300 CAVOK 10/M01 Q1021 NOSIG=
201503271020 METAR COR EGLL 271020Z 27006KT 220V330 9999 FEW032 09/M01
                        Q1021 NOSIG=
201503270950 METAR COR EGLL 270950Z 27007KT 230V300 9999 FEW028 09/01
                        Q1021 NOSIG=
201503270920 METAR COR EGLL 270920Z 27007KT 240V300 CAVOK 08/01 Q1021
                        NOSIG=
201503270850 METAR COR EGLL 270850Z 26006KT 220V290 CAVOK 07/02 Q1021
                        NOSIG=
201503270820 METAR COR EGLL 270820Z 25006KT 210V300 CAVOK 06/02 Q1020
                        NOSIG=
201503270750 METAR EGLL 270750Z 25007KT CAVOK 05/02 Q1020 NOSIG=
201503270720 METAR COR EGLL 270720Z 28005KT CAVOK 04/01 Q1020 NOSIG=
201503270650 METAR COR EGLL 270650Z 27006KT CAVOK 04/01 Q1020 NOSIG=
201503270620 METAR COR EGLL 270620Z 28007KT CAVOK 03/01 Q1019 NOSIG=
201503270550 METAR COR EGLL 270550Z 26006KT CAVOK 04/01 Q1019 NOSIG=
201503270520 METAR COR EGLL 270520Z 26005KT CAVOK 04/01 Q1018 NOSIG=
201503270450 METAR EGLL 270450Z 26006KT CAVOK 04/01 Q1018 NOSIG=
201503270420 METAR COR EGLL 270420Z 28004KT CAVOK 02/00 Q1018 NOSIG=
201503270350 METAR EGLL 270350Z AUTO 27005KT 9999 NCD 03/01 Q1017=
201503270320 METAR COR EGLL 270320Z 26006KT CAVOK 03/01 Q1017 NOSIG=
201503270250 METAR EGLL 270250Z 27004KT CAVOK 03/01 Q1017=
201503270220 METAR EGLL 270220Z AUTO 27007KT 9999 NCD 04/01 Q1017=
201503270150 METAR EGLL 270150Z AUTO 27005KT 9999 NCD 04/01 Q1016=
201503270120 METAR EGLL 270120Z AUTO 25006KT 9999 NCD 05/01 Q1016=
201503270050 METAR EGLL 270050Z 27006KT CAVOK 05/01 Q1016 NOSIG=
201503270020 METAR COR EGLL 270020Z 29006KT CAVOK 05/00 Q1016 NOSIG=
201503262350 METAR EGLL 262350Z 29008KT CAVOK 06/01 Q1015 NOSIG=
201503262320 METAR COR EGLL 262320Z 29008KT CAVOK 07/01 Q1015 NOSIG=
201503262250 METAR COR EGLL 262250Z 29010KT CAVOK 07/01 Q1014 NOSIG=
201503262220 METAR COR EGLL 262220Z 29009KT 9999 FEW028 08/01 Q1014 NOSIG=
201503262150 METAR COR EGLL 262150Z 28011KT CAVOK 07/01 Q1013 NOSIG=
201503262120 METAR COR EGLL 262120Z 28009KT CAVOK 08/01 Q1013 NOSIG=
201503262050 METAR COR EGLL 262050Z 29006KT CAVOK 08/01 Q1012 NOSIG=
201503262020 METAR COR EGLL 262020Z 30011KT CAVOK 09/M01 Q1012 NOSIG=
201503261950 METAR EGLL 261950Z 30010KT CAVOK 10/M01 Q1011 NOSIG=
201503261920 METAR COR EGLL 261920Z 31009KT 9999 FEW049 10/00 Q1011 NOSIG=
201503261850 METAR COR EGLL 261850Z 31008KT 280V340 CAVOK 10/00 Q1010
                        NOSIG=
201503261820 METAR COR EGLL 261820Z 31009KT 270V340 CAVOK 11/01 Q1009
                        NOSIG=
201503261750 METAR COR EGLL 261750Z 31009KT 290V350 CAVOK 11/02 Q1008
                        NOSIG=
201503261720 METAR COR EGLL 261720Z 31009KT CAVOK 11/01 Q1008 NOSIG=
201503261650 METAR COR EGLL 261650Z 31010KT 280V340 9999 FEW048 12/02
                        Q1007 NOSIG=
201503261620 METAR COR EGLL 261620Z 30012G23KT 9999 FEW046 12/03 Q1006
                        NOSIG=
201503261550 METAR COR EGLL 261550Z 30012KT 9999 FEW047 11/04 Q1006 NOSIG=
201503261520 METAR COR EGLL 261520Z 31013KT 280V340 9999 SCT045 12/04
                        Q1005 NOSIG=
201503261450 METAR EGLL 261450Z 31015G25KT 9999 SCT042 13/04 Q1005 NOSIG=
201503261420 METAR COR EGLL 261420Z 31012KT 280V340 9999 SCT040 12/05
                        Q1004 NOSIG=
201503261350 METAR COR EGLL 261350Z 31009KT 280V360 9999 FEW020 BKN027
                        12/08 Q1004 NOSIG=
201503261320 METAR COR EGLL 261320Z 29010KT 9999 FEW020CB SCT025 10/07
                        Q1003 RESHRA NOSIG=
201503261250 METAR EGLL 261250Z 31015G31KT 280V010 5000 R27L/1400 SHRA
                        FEW013 SCT018CB SCT040 12/06 Q1003
                        RESHRA BECMG NSW=
201503261220 METAR COR EGLL 261220Z 31006KT 9999 SCT028 12/08 Q1002 TEMPO
                        SHRA=
201503261150 METAR EGLL 261150Z 30011KT 9999 VCSH FEW020 SCT040 11/08
                        Q1002 NOSIG=
201503261120 METAR COR EGLL 261120Z 27011KT 9999 FEW016 BKN037 11/08 Q1001
                        NOSIG=
201503261050 METAR EGLL 261050Z 23007KT 9999 FEW006 SCT008 BKN010 08/07
                        Q1001=
201503261020 METAR COR EGLL 261020Z 23009KT 190V270 9999 FEW005 SCT006
                        BKN008 08/07 Q1001 BECMG FEW008 BKN015=
201503260950 METAR COR EGLL 260950Z 22008KT 9999 FEW006 SCT008 BKN015
                        07/06 Q1001 TEMPO BKN008=
201503260920 METAR COR EGLL 260920Z 22010KT 8000 -DZ FEW007 SCT009 BKN013
                        07/06 Q1001 TEMPO BKN008=
201503260850 METAR EGLL 260850Z 22010KT 190V250 9999 FEW007 SCT008 BKN010
                        06/05 Q1001 TEMPO BKN008=
201503260820 METAR COR EGLL 260820Z 21011KT 9999 FEW008 SCT009 BKN012
                        06/05 Q1001 TEMPO 4000 -RADZ BKN008=
201503260750 METAR EGLL 260750Z 20012KT 8000 -DZ FEW007 SCT009 BKN013
                        05/04 Q1001 TEMPO 4000 -RADZ BKN008=
201503260720 METAR COR EGLL 260720Z 20012KT 9999 -RA FEW007 SCT010 BKN014
                        05/04 Q1001 RERA TEMPO 4000 -RADZ
                        BKN008=
201503260650 METAR COR EGLL 260650Z 19014G24KT 8000 RA FEW009 SCT010 BKN014
                        05/04 Q1002 TEMPO 4000 -RADZ BKN008=
201503260620 METAR COR EGLL 260620Z 19011G21KT 9000 RA BKN013 05/03 Q1002
                        NOSIG=
201503260550 METAR COR EGLL 260550Z 19011KT 9999 -RA BKN012 04/03 Q1002
                        RERA TEMPO RA=
201503260520 METAR COR EGLL 260520Z 19014KT 9999 RA FEW011 BKN015 05/03
                        Q1003 TEMPO BKN012=
201503260450 METAR EGLL 260450Z 20009KT 9999 RA BKN013 05/04 Q1003 TEMPO
                        -RA BKN015=
201503260420 METAR COR EGLL 260420Z 18010KT 9999 -RA FEW013 BKN018 05/04
                        Q1004 TEMPO RA BKN013=
201503260350 METAR EGLL 260350Z 18009KT 9999 -RA FEW014 BKN021 05/04 Q1005
                        TEMPO RA BKN014=
201503260320 METAR COR EGLL 260320Z 18010KT 9999 -RA SCT018 SCT024 05/03
                        Q1005 TEMPO RA=
201503260250 METAR COR EGLL 260250Z 17007KT 9999 SCT042 05/02 Q1006 NOSIG=
201503260220 METAR EGLL 260220Z AUTO 17007KT 9999 NCD 05/02 Q1006=
201503260150 METAR EGLL 260150Z AUTO 18006KT 9999 NCD 04/02 Q1007=
201503260120 METAR EGLL 260120Z AUTO 16005KT 9999 NCD 04/02 Q1008=
201503260050 METAR COR EGLL 260050Z 18005KT CAVOK 04/02 Q1008 NOSIG=
201503260020 METAR COR EGLL 260020Z 19006KT CAVOK 04/01 Q1009 NOSIG=
201503252350 METAR COR EGLL 252350Z 20007KT CAVOK 04/01 Q1009 NOSIG=
201503252320 METAR COR EGLL 252320Z 21007KT CAVOK 04/00 Q1009 NOSIG=
201503252250 METAR EGLL 252250Z 20007KT 190V250 CAVOK 04/M00 Q1010=
201503252220 METAR EGLL 252220Z 20007KT 180V250 CAVOK 04/M00 Q1010=
201503252150 METAR COR EGLL 252150Z 22006KT 180V260 CAVOK 04/M00 Q1010
                        NOSIG=
201503252120 METAR COR EGLL 252120Z 19008KT 150V240 CAVOK 05/M00 Q1010
                        NOSIG=
201503252050 METAR COR EGLL 252050Z 21007KT 180V250 CAVOK 05/M00 Q1011
                        NOSIG=
201503252020 METAR COR EGLL 252020Z 23006KT 180V250 CAVOK 05/M01 Q1011
                        NOSIG=
201503251950 METAR COR EGLL 251950Z 24007KT CAVOK 06/M01 Q1011 NOSIG=
201503251920 METAR COR EGLL 251920Z 29004KT CAVOK 06/M01 Q1011 NOSIG=
201503251850 METAR EGLL 251850Z 26005KT 230V290 CAVOK 07/M01 Q1011 NOSIG=
201503251820 METAR COR EGLL 251820Z 25007KT CAVOK 08/M01 Q1011 NOSIG=
201503251750 METAR EGLL 251750Z 28005KT CAVOK 08/M01 Q1011 NOSIG=
201503251720 METAR COR EGLL 251720Z 29004KT 260V330 CAVOK 09/M02 Q1011
                        NOSIG=
201503251650 METAR COR EGLL 251650Z 28005KT CAVOK 09/M01 Q1011 NOSIG=
201503251620 METAR COR EGLL 251620Z 31004KT 270V020 CAVOK 09/M02 Q1011
                        NOSIG=
201503251550 METAR COR EGLL 251550Z 36005KT 9999 FEW043 09/M01 Q1011 NOSIG=
201503251520 METAR COR EGLL 251520Z 36005KT 320V050 9999 FEW043 09/M01
                        Q1011 NOSIG=
201503251450 METAR EGLL 251450Z 29005KT 220V020 9999 FEW044 10/M02 Q1012
                        NOSIG=
201503251420 METAR COR EGLL 251420Z 36005KT 320V060 9999 FEW044 09/M01
                        Q1012 NOSIG=
201503251350 METAR EGLL 251350Z 35005KT 300V040 9999 FEW035 09/M01 Q1012
                        NOSIG=
201503251320 METAR COR EGLL 251320Z 32005KT 290V010 9999 FEW032 08/00
                        Q1012 NOSIG=
201503251250 METAR EGLL 251250Z 36007KT 320V030 9999 FEW032 SCT042 09/01
                        Q1012 NOSIG=
201503251220 METAR COR EGLL 251220Z 35005KT 310V040 9999 FEW024 SCT045
                        08/02 Q1012 NOSIG=
201503251150 METAR EGLL 251150Z 33006KT 290V030 9999 SCT030 09/03 Q1012
                        NOSIG=
201503251120 METAR COR EGLL 251120Z 36006KT 310V060 9999 FEW021 08/02
                        Q1012 NOSIG=
201503251050 METAR EGLL 251050Z 34006KT 300V040 9000 FEW021 07/02 Q1012
                        NOSIG=
201503251020 METAR COR EGLL 251020Z 34005KT 300V020 9999 SCT019 07/02
                        Q1012 NOSIG=
201503250950 METAR EGLL 250950Z VRB03KT 9999 FEW020 07/02 Q1012 NOSIG=
201503250920 METAR COR EGLL 250920Z 33004KT 280V030 9999 FEW015 06/02
                        Q1012 NOSIG=
201503250850 METAR EGLL 250850Z VRB03KT CAVOK 05/02 Q1012 NOSIG=
201503250820 METAR COR EGLL 250820Z 30005KT 8000 FEW033 04/01 Q1012 NOSIG=
201503250750 METAR EGLL 250750Z 29004KT 8000 FEW033 03/01 Q1012 NOSIG=
201503250720 METAR COR EGLL 250720Z 28003KT 8000 NSC 02/01 Q1012 NOSIG=
201503250650 METAR EGLL 250650Z 00000KT 8000 NSC 02/00 Q1011 NOSIG=
201503250620 METAR COR EGLL 250620Z VRB02KT 8000 NSC 02/00 Q1011 TEMPO
                        BKN012=
201503250550 METAR COR EGLL 250550Z 30003KT 9000 NSC 01/M00 Q1011 TEMPO
                        BKN012=
201503250520 METAR COR EGLL 250520Z 30003KT 9000 NSC 02/00 Q1011 TEMPO
                        BKN012=
201503250450 METAR EGLL 250450Z 28003KT CAVOK 01/M00 Q1011 TEMPO BKN012=
201503250420 METAR COR EGLL 250420Z 30004KT CAVOK 01/M00 Q1011 TEMPO BKN012=
201503250350 METAR EGLL 250350Z VRB02KT CAVOK 02/M00 Q1010 NOSIG=
201503250320 METAR COR EGLL 250320Z 30003KT CAVOK 02/M00 Q1010 NOSIG=
201503250250 METAR EGLL 250250Z 30003KT CAVOK 02/00 Q1010 NOSIG=
201503250220 METAR EGLL 250220Z AUTO 30003KT 9999 NCD 02/00 Q1010=
201503250150 METAR EGLL 250150Z AUTO 29004KT 9999 NCD 02/01 Q1010=
201503250120 METAR EGLL 250120Z AUTO 29004KT 9999 NCD 01/00 Q1010=
201503250050 METAR EGLL 250050Z 29005KT CAVOK 02/00 Q1010 NOSIG=
201503250020 METAR COR EGLL 250020Z 29004KT CAVOK 03/00 Q1010 NOSIG=
201503242350 METAR COR EGLL 242350Z 31003KT CAVOK 03/01 Q1010 NOSIG=
201503242320 METAR COR EGLL 242320Z 30004KT CAVOK 04/01 Q1010 NOSIG=
201503242250 METAR EGLL 242250Z 31004KT 9999 FEW047 05/01 Q1010 NOSIG=
201503242220 METAR COR EGLL 242220Z 31004KT CAVOK 05/00 Q1010 NOSIG=
201503242150 METAR COR EGLL 242150Z 34003KT CAVOK 05/00 Q1010 NOSIG=
201503242120 METAR COR EGLL 242120Z 32004KT 9999 FEW046 06/01 Q1010 NOSIG=
201503242050 METAR COR EGLL 242050Z VRB03KT CAVOK 06/01 Q1010 NOSIG=
201503242020 METAR COR EGLL 242020Z VRB03KT CAVOK 06/01 Q1009 NOSIG=
201503241950 METAR COR EGLL 241950Z 35004KT 9999 FEW060TCU 07/01 Q1009
                        NOSIG=
201503241920 METAR COR EGLL 241920Z VRB03KT 9999 FEW060TCU 07/00 Q1009
                        NOSIG=
201503241850 METAR EGLL 241850Z 35005KT 9999 FEW060TCU 07/00 Q1009 NOSIG=
201503241820 METAR COR EGLL 241820Z 34005KT 310V010 9999 FEW050TCU 08/M01
                        Q1008 NOSIG=
201503241750 METAR COR EGLL 241750Z VRB03KT 9999 FEW036 08/M01 Q1008 NOSIG=
201503241720 METAR COR EGLL 241720Z VRB03KT 9999 FEW047TCU 07/00 Q1008
                        NOSIG=
201503241650 METAR COR EGLL 241650Z VRB03KT 9999 FEW037 FEW047TCU 08/02
                        Q1008 TEMPO SHRA=
201503241620 METAR COR EGLL 241620Z VRB04KT 9999 VCSH FEW021 SCT047TCU
                        08/00 Q1008 RESHGS RESHRA NOSIG=
201503241550 METAR COR EGLL 241550Z 28005KT 9999 -SHGSRA SCT049 10/01
                        Q1008 NOSIG=
201503241520 METAR COR EGLL 241520Z 27010KT 9999 FEW032 SCT049 09/02 Q1008
                        NOSIG=
201503241450 METAR COR EGLL 241450Z 24009KT 9999 FEW047 09/02 Q1008 NOSIG=
201503241420 METAR COR EGLL 241420Z 28009KT 250V310 9999 FEW047 09/01
                        Q1008 NOSIG=
201503241350 METAR COR EGLL 241350Z 31008KT 280V340 9999 FEW046 10/M01
                        Q1009 NOSIG=
201503241320 METAR COR EGLL 241320Z 32007KT 290V350 9999 FEW040 09/M00
                        Q1009 NOSIG=
201503241250 METAR EGLL 241250Z 30010KT 280V350 9999 SCT042 10/M01 Q1009
                        NOSIG=
201503241220 METAR COR EGLL 241220Z 31006KT 260V010 9999 SCT036 09/01
                        Q1009 NOSIG=
201503241150 METAR EGLL 241150Z VRB03KT 9999 SCT036 09/02 Q1009 NOSIG=
201503241120 METAR COR EGLL 241120Z 32004KT 250V060 9999 SCT029 09/03
                        Q1009 NOSIG=
201503241050 METAR EGLL 241050Z VRB03KT 9999 SCT030 SCT037 08/02 Q1010=
201503241020 METAR COR EGLL 241020Z 34004KT 300V030 9999 SCT030 SCT039
                        08/03 Q1010 NOSIG=
201503240950 METAR EGLL 240950Z VRB03KT 9999 SCT024 07/03 Q1010 NOSIG=
201503240920 METAR COR EGLL 240920Z VRB03KT 9999 FEW022 06/03 Q1010 NOSIG=
201503240850 METAR COR EGLL 240850Z 35004KT 310V030 CAVOK 06/03 Q1010
                        NOSIG=
201503240820 METAR COR EGLL 240820Z 33004KT 270V020 CAVOK 05/03 Q1010
                        NOSIG=
201503240750 METAR EGLL 240750Z 34005KT 300V020 CAVOK 05/03 Q1010 NOSIG=
201503240720 METAR COR EGLL 240720Z 32005KT 270V360 9999 FEW042 05/03
                        Q1010 NOSIG=
201503240650 METAR EGLL 240650Z 31004KT 9999 FEW042 05/03 Q1010 NOSIG=
201503240620 METAR COR EGLL 240620Z 30005KT 9999 FEW043 05/03 Q1010 NOSIG=
201503240550 METAR COR EGLL 240550Z 30004KT 9999 FEW034 05/03 Q1010 NOSIG=
201503240520 METAR COR EGLL 240520Z 30005KT 9999 SCT034 05/03 Q1010 NOSIG=
201503240450 METAR EGLL 240450Z 31004KT 290V350 CAVOK 06/03 Q1010 NOSIG=
201503240420 METAR COR EGLL 240420Z 31003KT CAVOK 06/03 Q1010 NOSIG=
201503240350 METAR EGLL 240350Z 30003KT 9999 FEW034 06/04 Q1010 NOSIG=
201503240320 METAR COR EGLL 240320Z 29003KT 9999 FEW034 06/04 Q1011 NOSIG=
201503240250 METAR EGLL 240250Z 32004KT 290V360 9999 -RA FEW022 SCT035
                        06/03 Q1011 REDZ NOSIG=
201503240220 METAR EGLL 240220Z AUTO 32004KT 270V350 7000 -RA SCT014 06/04
                        Q1011 RERA REDZ=
201503240150 METAR EGLL 240150Z AUTO 30007KT 9999 -DZ OVC043 06/04 Q1011
                        RERA REDZ=
201503240120 METAR EGLL 240120Z AUTO 29007KT 5000 DZ OVC039 07/06 Q1011=
201503240050 METAR EGLL 240050Z 30005KT 9000 BKN041 07/05 Q1011 TEMPO
                        BKN012=
201503240020 METAR COR EGLL 240020Z 30003KT 9999 -RA FEW012 SCT033 BKN036
                        07/05 Q1011 TEMPO BKN012=
201503232350 METAR COR EGLL 232350Z 32004KT 290V010 5000 -RA FEW008 SCT012
                        BKN032 07/06 Q1012 TEMPO BKN012=
201503232320 METAR COR EGLL 232320Z 27005KT 5000 -RA FEW008 SCT013 BKN033
                        07/06 Q1012 TEMPO BKN010=
201503232250 METAR EGLL 232250Z 28007KT 6000 SCT013 SCT023 08/06 Q1012
                        TEMPO BKN013=
201503232220 METAR COR EGLL 232220Z 28007KT 7000 -RA SCT011 SCT038 08/06
                        Q1012 TEMPO BKN014=
201503232150 METAR EGLL 232150Z 29006KT 9000 -RA FEW013 SCT030 BKN035
                        08/06 Q1012 TEMPO BKN014=
201503232120 METAR COR EGLL 232120Z 29006KT 9000 -RA FEW017 SCT025 BKN029
                        08/06 Q1013 TEMPO BKN014=
201503232050 METAR COR EGLL 232050Z 30006KT 9999 -RA FEW027 BKN042 08/05
                        Q1013 TEMPO BKN014=
201503232020 METAR COR EGLL 232020Z 29007KT 9999 FEW019 SCT024 09/05 Q1013
                        TEMPO -RA BKN014=
201503231950 METAR COR EGLL 231950Z 29006KT 9999 FEW028 SCT049 09/05 Q1013
                        TEMPO -RA BKN014=
201503231920 METAR COR EGLL 231920Z 27010KT 9999 FEW029 SCT044 09/03 Q1013
                        NOSIG=
201503231850 METAR COR EGLL 231850Z 27008KT 9999 SCT045 09/03 Q1013 NOSIG=
201503231820 METAR COR EGLL 231820Z 27009KT CAVOK 09/02 Q1013 BECMG BKN040=
201503231750 METAR COR EGLL 231750Z 28009KT CAVOK 09/02 Q1013 BECMG BKN040=
201503231720 METAR COR EGLL 231720Z 27008KT 9999 FEW049 10/01 Q1013 NOSIG=
201503231650 METAR EGLL 231650Z 27008KT CAVOK 10/01 Q1013 NOSIG=
201503231620 METAR COR EGLL 231620Z 24009KT 9999 FEW046 BKN049 10/01 Q1013
                        NOSIG=
201503231550 METAR EGLL 231550Z 26008KT 230V300 9999 BKN047 10/02 Q1013
                        NOSIG=
201503231520 METAR COR EGLL 231520Z 30007KT 9999 BKN044 10/01 Q1014 NOSIG=
201503231450 METAR COR EGLL 231450Z 27007KT 240V310 9999 BKN043 11/01
                        Q1014 NOSIG=
201503231420 METAR COR EGLL 231420Z 27009KT 9999 SCT040 SCT042 11/01 Q1014
                        NOSIG=
201503231350 METAR COR EGLL 231350Z 25007KT 220V280 9999 FEW039 SCT043
                        12/01 Q1014 NOSIG=
201503231320 METAR COR EGLL 231320Z 24008KT 210V290 9999 SCT039 11/01
                        Q1015 NOSIG=
201503231250 METAR EGLL 231250Z 25007KT 200V330 9999 FEW036 11/01 Q1015
                        NOSIG=
201503231220 METAR COR EGLL 231220Z 27009KT 220V290 9999 FEW034 11/02
                        Q1015 NOSIG=
201503231150 METAR COR EGLL 231150Z 27008KT 210V320 9999 FEW032 10/02
                        Q1016 NOSIG=
201503231120 METAR COR EGLL 231120Z 26008KT 210V280 9999 FEW030 10/02
                        Q1016 NOSIG=
201503231050 METAR EGLL 231050Z 26010KT 220V290 9999 SCT033 09/02 Q1016
                        NOSIG=
201503231020 METAR COR EGLL 231020Z 25011KT 9999 FEW029 BKN034 09/02 Q1016
                        NOSIG=
201503230950 METAR COR EGLL 230950Z 26011KT 9999 FEW026 09/02 Q1017 NOSIG=
201503230920 METAR COR EGLL 230920Z 26009KT 9999 FEW030 08/02 Q1017 NOSIG=
201503230850 METAR COR EGLL 230850Z 28009KT 9999 BKN030 07/02 Q1017 NOSIG=
201503230820 METAR COR EGLL 230820Z 25008KT 9999 BKN030 07/02 Q1017 NOSIG=
201503230750 METAR COR EGLL 230750Z 23007KT 9999 BKN032 06/02 Q1018 NOSIG=
201503230720 METAR COR EGLL 230720Z 23007KT 190V260 9999 BKN031 05/01
                        Q1018 NOSIG=
201503230650 METAR COR EGLL 230650Z 21006KT 9999 SCT030 04/01 Q1018 NOSIG=
201503230620 METAR COR EGLL 230620Z 20006KT 180V250 9999 BKN030 04/01
                        Q1018 NOSIG=
201503230550 METAR EGLL 230550Z 22008KT 9999 BKN029 04/01 Q1018 NOSIG=
201503230520 METAR COR EGLL 230520Z 21007KT 9999 BKN026 04/01 Q1018 NOSIG=
201503230450 METAR EGLL 230450Z 21005KT 9999 BKN023 03/01 Q1018 NOSIG=
201503230420 METAR COR EGLL 230420Z 21006KT 180V240 9999 BKN023 03/01
                        Q1018 NOSIG=
201503230350 METAR COR EGLL 230350Z 22006KT 9999 BKN022 03/01 Q1019 NOSIG=
201503230320 METAR COR EGLL 230320Z 20008KT 9999 BKN023 03/01 Q1019 NOSIG=
201503230250 METAR EGLL 230250Z 21006KT 9999 BKN022 02/00 Q1019 NOSIG=
201503230220 METAR EGLL 230220Z AUTO 22006KT 9999 OVC020 02/00 Q1019=
201503230150 METAR EGLL 230150Z AUTO 27004KT 9999 FEW022 02/M00 Q1020=
201503230120 METAR EGLL 230120Z AUTO 26005KT 9999 NCD 01/M00 Q1020=
201503230050 METAR EGLL 230050Z 25004KT CAVOK 02/M00 Q1020 NOSIG=
201503230020 METAR COR EGLL 230020Z 18003KT CAVOK 02/M00 Q1021 NOSIG=
201503222350 METAR COR EGLL 222350Z 18003KT CAVOK 02/M00 Q1021 NOSIG=
201503222320 METAR COR EGLL 222320Z 16004KT CAVOK 03/M00 Q1022 NOSIG=
201503222250 METAR EGLL 222250Z 14004KT CAVOK 03/M00 Q1022 NOSIG=
201503222220 METAR COR EGLL 222220Z 14006KT CAVOK 03/00 Q1022 NOSIG=
201503222150 METAR EGLL 222150Z 14006KT CAVOK 03/M00 Q1022 NOSIG=
201503222120 METAR COR EGLL 222120Z 13006KT CAVOK 04/M00 Q1022 NOSIG=
201503222050 METAR COR EGLL 222050Z 13006KT CAVOK 04/00 Q1022 NOSIG=
201503222020 METAR COR EGLL 222020Z 13006KT CAVOK 04/00 Q1022 NOSIG=
201503221950 METAR EGLL 221950Z 14006KT CAVOK 05/00 Q1022 NOSIG=
201503221920 METAR COR EGLL 221920Z 14006KT CAVOK 05/00 Q1022 NOSIG=
201503221850 METAR EGLL 221850Z 10007KT CAVOK 04/00 Q1023 NOSIG=
201503221820 METAR COR EGLL 221820Z 11006KT CAVOK 05/00 Q1023 NOSIG=
201503221750 METAR EGLL 221750Z 12007KT CAVOK 07/00 Q1023 NOSIG=
201503221720 METAR COR EGLL 221720Z 10008KT 9999 FEW030 08/00 Q1023 NOSIG=
201503221650 METAR COR EGLL 221650Z 09006KT 050V120 9999 FEW035 08/00
                        Q1023 NOSIG=
201503221620 METAR COR EGLL 221620Z 11005KT 080V160 9999 FEW035 09/M00
                        Q1023 NOSIG=
201503221550 METAR EGLL 221550Z 06007KT 320V110 9999 FEW037 09/00 Q1023
                        NOSIG=
201503221520 METAR COR EGLL 221520Z 06007KT 020V110 9999 FEW037 09/00
                        Q1024 NOSIG=
201503221450 METAR COR EGLL 221450Z 06006KT 010V090 9999 FEW036 09/00
                        Q1024 NOSIG=
201503221420 METAR COR EGLL 221420Z 08006KT 010V130 9999 FEW034 09/00
                        Q1024 NOSIG=
201503221350 METAR COR EGLL 221350Z 03006KT 350V110 9999 SCT034 09/00
                        Q1025 NOSIG=
201503221320 METAR COR EGLL 221320Z 06007KT 340V130 9999 SCT034 09/01
                        Q1025 NOSIG=
201503221250 METAR EGLL 221250Z 07007KT 010V120 9999 BKN035 09/01 Q1026
                        NOSIG=
201503221220 METAR COR EGLL 221220Z 11007KT 9999 BKN035 08/M00 Q1026 NOSIG=
201503221150 METAR EGLL 221150Z 07008KT 040V100 9999 BKN033 08/00 Q1026
                        NOSIG=
201503221120 METAR COR EGLL 221120Z 10007KT 060V120 9999 BKN033 07/M00
                        Q1027 NOSIG=
201503221050 METAR EGLL 221050Z 06007KT 020V100 9999 BKN033 08/M00 Q1027
                        NOSIG=
201503221020 METAR COR EGLL 221020Z 06009KT 020V090 9999 SCT034 07/M01
                        Q1027 NOSIG=
201503220950 METAR COR EGLL 220950Z 06007KT 360V090 9999 FEW034 07/M01
                        Q1028 NOSIG=
201503220920 METAR COR EGLL 220920Z 05007KT 010V110 9999 SCT034 06/M01
                        Q1028 NOSIG=
201503220850 METAR COR EGLL 220850Z 04008KT 010V080 9999 SCT032 06/M01
                        Q1028 NOSIG=
201503220820 METAR COR EGLL 220820Z 04007KT 360V070 9999 BKN032 05/M01
                        Q1028 NOSIG=
201503220750 METAR EGLL 220750Z 04006KT 350V080 9999 SCT031 04/M01 Q1028
                        NOSIG=
201503220720 METAR COR EGLL 220720Z 03006KT 360V060 9999 SCT030 04/M01
                        Q1028 NOSIG=
201503220650 METAR EGLL 220650Z 04005KT 9999 FEW028 BKN031 04/M00 Q1028
                        NOSIG=
201503220620 METAR COR EGLL 220620Z 04006KT 360V070 9999 BKN029 04/M01
                        Q1028 NOSIG=
201503220550 METAR COR EGLL 220550Z 04006KT 010V070 9999 BKN030 04/M00
                        Q1028 NOSIG=
201503220520 METAR COR EGLL 220520Z 04005KT 360V080 9999 BKN025 04/M01
                        Q1028 NOSIG=
201503220450 METAR COR EGLL 220450Z 05006KT 020V080 9999 BKN024 05/M00
                        Q1028 NOSIG=
201503220420 METAR COR EGLL 220420Z 06005KT 020V090 9999 BKN025 04/M00
                        Q1028 NOSIG=
201503220350 METAR COR EGLL 220350Z 06007KT 9999 BKN025 05/M00 Q1028 NOSIG=
201503220320 METAR COR EGLL 220320Z 04008KT 9999 BKN023 05/00 Q1028 NOSIG=
201503220250 METAR EGLL 220250Z 04006KT 360V080 9999 BKN022 05/01 Q1028
                        NOSIG=
201503220220 METAR EGLL 220220Z AUTO 06005KT 9999 BKN025 05/00 Q1028=
201503220150 METAR EGLL 220150Z AUTO 05010KT 9999 BKN025 05/00 Q1029=
201503220120 METAR EGLL 220120Z AUTO 04008KT 9999 SCT023 BKN026 05/01
                        Q1029=
201503220050 METAR COR EGLL 220050Z 05007KT 9999 BKN026 05/01 Q1029 NOSIG=
201503220020 METAR COR EGLL 220020Z 04006KT 360V070 9999 BKN022 05/02
                        Q1029 NOSIG=
201503212350 METAR COR EGLL 212350Z 04005KT 360V080 9999 BKN023 05/03
                        Q1029 NOSIG=
201503212320 METAR COR EGLL 212320Z 03004KT 350V060 9999 FEW016 SCT027
                        05/03 Q1029 NOSIG=
201503212250 METAR EGLL 212250Z 03005KT 350V060 9999 FEW026 05/02 Q1028
                        NOSIG=
201503212220 METAR COR EGLL 212220Z 03006KT 340V060 9999 FEW025 05/02
                        Q1028 NOSIG=
201503212150 METAR EGLL 212150Z 02005KT 340V050 9999 FEW017 BKN031 06/03
                        Q1028 NOSIG=
201503212120 METAR COR EGLL 212120Z 02007KT 340V050 9999 FEW017 SCT022
                        BKN034 06/03 Q1028 NOSIG=
201503212050 METAR EGLL 212050Z 03008KT 340V060 9999 BKN029 06/03 Q1028
                        NOSIG=
201503212020 METAR COR EGLL 212020Z 02009KT 330V060 9999 BKN020 07/03
                        Q1028 NOSIG=
201503211950 METAR COR EGLL 211950Z 02007KT 340V050 9999 SCT022 BKN031
                        07/02 Q1028 NOSIG=
201503211920 METAR COR EGLL 211920Z 01006KT 330V040 9999 SCT026 BKN033
                        07/02 Q1028 NOSIG=
201503211850 METAR EGLL 211850Z 02008KT 350V060 9999 BKN027 07/02 Q1027
                        NOSIG=
201503211820 METAR COR EGLL 211820Z 02007KT 9999 BKN028 07/02 Q1027 NOSIG=
201503211750 METAR COR EGLL 211750Z 01009KT 9999 BKN030 07/01 Q1027 NOSIG=
201503211720 METAR COR EGLL 211720Z 01009KT 340V050 9999 BKN030 07/01
                        Q1027 NOSIG=
201503211650 METAR COR EGLL 211650Z 36011KT 330V030 9999 SCT027 BKN030
                        07/01 Q1027 NOSIG=
201503211620 METAR COR EGLL 211620Z 01010KT 350V050 9999 BKN031 07/01
                        Q1026 NOSIG=
201503211550 METAR EGLL 211550Z 01009KT 340V060 9999 BKN031 07/01 Q1026
                        NOSIG=
201503211520 METAR EGLL 211520Z 02010KT 350V060 9999 BKN033 08/01 Q1026=
201503211450 METAR EGLL 211450Z 01010KT 330V040 9999 BKN033 08/01 Q1026=
201503211420 METAR COR EGLL 211420Z 02009KT 340V050 9999 BKN034 08/00
                        Q1026 NOSIG=
201503211350 METAR EGLL 211350Z 36009KT 330V040 9999 FEW034 BKN039 08/00
                        Q1026 NOSIG=
201503211320 METAR COR EGLL 211320Z 02008KT 350V060 9999 SCT033 BKN039
                        08/01 Q1026 NOSIG=
201503211250 METAR COR EGLL 211250Z 02010KT 340V060 9999 BKN033 08/01
                        Q1026 NOSIG=
201503211220 METAR COR EGLL 211220Z 01010KT 340V040 9999 FEW030 BKN036
                        08/01 Q1026 NOSIG=
201503211150 METAR COR EGLL 211150Z 01009KT 330V040 9999 BKN033 08/01
                        Q1026 NOSIG=
201503211120 METAR COR EGLL 211120Z 01009KT 340V050 9999 FEW026 BKN036
                        08/01 Q1026 NOSIG=
201503211050 METAR EGLL 211050Z 02011KT 340V060 9999 FEW025 BKN039 08/02
                        Q1026 NOSIG=
201503211020 METAR COR EGLL 211020Z 03011KT 9999 FEW025 BKN038 08/03 Q1026
                        NOSIG=
201503210950 METAR EGLL 210950Z 01009KT 340V040 9999 SCT025 BKN032 08/03
                        Q1026 NOSIG=
201503210920 METAR COR EGLL 210920Z 36008KT 320V030 9999 FEW026 BKN035
                        08/03 Q1025 NOSIG=
201503210850 METAR COR EGLL 210850Z 35007KT 310V010 9999 BKN038 08/03
                        Q1025 NOSIG=
201503210820 METAR COR EGLL 210820Z VRB03KT 9999 BKN035 07/04 Q1025 NOSIG=
201503210750 METAR COR EGLL 210750Z 33004KT 300V360 9999 BKN038 07/04
                        Q1025 NOSIG=
201503210720 METAR COR EGLL 210720Z VRB03KT 9999 SCT038 06/04 Q1025 NOSIG=
201503210650 METAR COR EGLL 210650Z 33004KT 9999 FEW039 06/04 Q1024 NOSIG=
201503210620 METAR COR EGLL 210620Z 33003KT CAVOK 06/04 Q1024 NOSIG=
201503210550 METAR COR EGLL 210550Z VRB02KT CAVOK 06/04 Q1024 BECMG 36012KT=
201503210520 METAR COR EGLL 210520Z 35003KT CAVOK 06/03 Q1023 NOSIG=
201503210450 METAR COR EGLL 210450Z VRB03KT 9999 FEW045 06/03 Q1023 NOSIG=
201503210420 METAR COR EGLL 210420Z 35003KT 9999 FEW045 06/04 Q1023 NOSIG=
201503210350 METAR COR EGLL 210350Z 35004KT 320V020 CAVOK 07/04 Q1023
                        NOSIG=
201503210320 METAR COR EGLL 210320Z 35005KT 9999 FEW040 07/04 Q1023 NOSIG=
201503210250 METAR EGLL 210250Z AUTO 35006KT 310V020 9999 SCT022 SCT041
                        07/04 Q1022=
201503210220 METAR EGLL 210220Z AUTO 34004KT 310V020 9999 FEW029 SCT039
                        07/03 Q1022=
201503210150 METAR EGLL 210150Z AUTO 33005KT 300V360 9999 NCD 08/03 Q1022=
201503210120 METAR COR EGLL 210120Z 34005KT 310V030 9999 SCT043 BKN049
                        08/03 Q1023 NOSIG=
201503210050 METAR COR EGLL 210050Z 33005KT 300V010 9999 SCT040 08/03
                        Q1023 NOSIG=
201503210020 METAR COR EGLL 210020Z 33005KT 290V020 9999 FEW040 08/03
                        Q1023 NOSIG=
201503202350 METAR COR EGLL 202350Z 33005KT 280V360 CAVOK 09/04 Q1023
                        NOSIG=
201503202320 METAR COR EGLL 202320Z 34008KT 310V020 CAVOK 09/04 Q1023
                        NOSIG=
201503202250 METAR COR EGLL 202250Z 34009KT 310V020 CAVOK 10/04 Q1023
                        NOSIG=
201503202220 METAR COR EGLL 202220Z 31005KT 290V020 7000 NSC 11/04 Q1023
                        NOSIG=
201503202150 METAR COR EGLL 202150Z 32003KT 7000 NSC 11/04 Q1023 NOSIG=
201503202120 METAR COR EGLL 202120Z 30003KT 7000 NSC 10/04 Q1023 NOSIG=
201503202050 METAR EGLL 202050Z 28004KT 8000 NSC 09/04 Q1023 NOSIG=
201503202020 METAR COR EGLL 202020Z 23005KT 8000 FEW049 09/04 Q1023 NOSIG=
201503201950 METAR EGLL 201950Z 23008KT 8000 NSC 09/04 Q1023 NOSIG=
201503201920 METAR COR EGLL 201920Z 22007KT 8000 NSC 09/04 Q1023 NOSIG=
201503201850 METAR EGLL 201850Z 21006KT 9000 NSC 09/04 Q1023 NOSIG=
201503201820 METAR COR EGLL 201820Z 20006KT 150V230 9000 NSC 10/04 Q1023
                        NOSIG=
201503201750 METAR COR EGLL 201750Z 20005KT 160V250 CAVOK 10/04 Q1023
                        NOSIG=
201503201720 METAR COR EGLL 201720Z 22005KT 170V260 CAVOK 11/04 Q1024
                        NOSIG=
201503201650 METAR COR EGLL 201650Z 24004KT 210V360 CAVOK 12/04 Q1024
                        NOSIG=
201503201620 METAR COR EGLL 201620Z 23004KT 190V270 CAVOK 12/04 Q1024
                        NOSIG=
201503201550 METAR EGLL 201550Z 22005KT CAVOK 11/04 Q1024 NOSIG=
201503201520 METAR COR EGLL 201520Z VRB03KT CAVOK 12/04 Q1025 NOSIG=
201503201450 METAR EGLL 201450Z VRB03KT 9000 NSC 11/04 Q1025 NOSIG=
201503201420 METAR COR EGLL 201420Z VRB02KT 9000 NSC 10/04 Q1026 NOSIG=
201503201350 METAR COR EGLL 201350Z VRB02KT 9000 NSC 09/04 Q1026 NOSIG=
201503201320 METAR COR EGLL 201320Z VRB02KT 8000 FEW015 08/04 Q1027 NOSIG=
201503201250 METAR EGLL 201250Z VRB03KT 7000 SCT015 07/04 Q1027 NOSIG=
201503201220 METAR EGLL 201220Z VRB03KT 6000 SCT009 BKN010 06/04 Q1028=
201503201150 METAR COR EGLL 201150Z VRB03KT 5000 HZ SCT008 BKN009 06/04
                        Q1028 BECMG SCT025=
201503201120 METAR COR EGLL 201120Z VRB03KT 5000 HZ SCT007 BKN008 05/03
                        Q1028 BECMG SCT025=
201503201050 METAR COR EGLL 201050Z VRB03KT 5000 HZ OVC008 05/03 Q1029
                        BECMG SCT010 BKN014=
201503201020 METAR COR EGLL 201020Z VRB03KT 5000 HZ OVC008 05/03 Q1029
                        BECMG SCT010 BKN012=
201503200950 METAR EGLL 200950Z 05004KT 340V100 5000 HZ SCT007 BKN008
                        05/03 Q1029 BECMG SCT009 BKN012=
201503200920 METAR COR EGLL 200920Z 35004KT 5000 HZ FEW006 SCT007 BKN008
                        05/03 Q1029 BECMG SCT008 BKN011=
201503200850 METAR EGLL 200850Z 06005KT 010V090 5000 HZ SCT007 BKN008
                        05/03 Q1030 BECMG SCT008 BKN010=
201503200820 METAR COR EGLL 200820Z 03004KT 350V060 5000 HZ SCT006 BKN008
                        05/03 Q1030 BECMG SCT007 BKN010=
201503200750 METAR COR EGLL 200750Z 06004KT 5000 HZ SCT006 BKN007 05/03
                        Q1030 BECMG SCT008 BKN011=
201503200720 METAR COR EGLL 200720Z 36004KT 330V040 5000 HZ BKN006 BKN007
                        05/03 Q1029 BECMG SCT008 BKN011=
201503200650 METAR EGLL 200650Z 01004KT 330V050 5000 HZ FEW007 BKN008
                        05/03 Q1029 TEMPO 4000=
201503200620 METAR COR EGLL 200620Z 05005KT 020V090 6000 FEW007 SCT008
                        BKN009 05/03 Q1029 TEMPO 4000 HZ=
201503200550 METAR COR EGLL 200550Z 03006KT 360V060 6000 SCT008 BKN009
                        05/03 Q1029 TEMPO 4000 HZ=
201503200520 METAR COR EGLL 200520Z 03004KT 350V080 6000 SCT009 BKN010
                        05/03 Q1029 TEMPO BKN009=
201503200450 METAR COR EGLL 200450Z 03005KT 360V080 7000 OVC011 05/03
                        Q1029 TEMPO OVC009=
201503200420 METAR COR EGLL 200420Z 02005KT 330V060 7000 OVC010 05/03
                        Q1030 TEMPO OVC009=
201503200350 METAR COR EGLL 200350Z 01006KT 340V060 7000 OVC011 05/03
                        Q1030 TEMPO OVC009=
201503200320 METAR COR EGLL 200320Z 03005KT 350V050 7000 OVC011 05/03
                        Q1030 TEMPO OVC009=
201503200250 METAR COR EGLL 200250Z 04004KT 350V060 7000 OVC011 05/03
                        Q1030 TEMPO OVC009=
201503200220 METAR COR EGLL 200220Z 04005KT 350V080 8000 OVC011 05/03
                        Q1030 TEMPO OVC009=
201503200150 METAR EGLL 200150Z 01006KT 350V050 8000 OVC011 06/03 Q1031
                        TEMPO OVC009=
201503200120 METAR COR EGLL 200120Z 03006KT 8000 OVC011 06/03 Q1031 TEMPO
                        BKN009=
201503200050 METAR EGLL 200050Z 04005KT 360V070 8000 OVC013 06/03 Q1031
                        TEMPO BKN009=
201503200020 METAR COR EGLL 200020Z 01006KT 340V050 8000 BKN012 06/03
                        Q1031 TEMPO 4000 BKN009=
201503192350 METAR EGLL 192350Z 04006KT 010V080 8000 OVC012 06/04 Q1031
                        TEMPO 4000 BKN009=
201503192320 METAR COR EGLL 192320Z 05005KT 360V080 9000 OVC014 06/03
                        Q1031 TEMPO OVC015=
201503192250 METAR EGLL 192250Z 03006KT 350V060 9000 OVC013 06/03 Q1032
                        TEMPO BKN015=
201503192220 METAR COR EGLL 192220Z 03006KT 360V060 9000 OVC015 06/04
                        Q1032 TEMPO BKN014=
201503192150 METAR EGLL 192150Z 05007KT 9999 SCT014 BKN018 07/03 Q1032
                        TEMPO BKN014=
201503192120 METAR COR EGLL 192120Z 03007KT 360V070 9999 SCT014 BKN018
                        07/04 Q1032 TEMPO BKN014=
201503192050 METAR COR EGLL 192050Z 02007KT 340V060 9999 FEW014 BKN016
                        07/04 Q1032 TEMPO BKN014=
201503192020 METAR COR EGLL 192020Z 01006KT 340V050 9999 FEW016 BKN018
                        07/04 Q1032 TEMPO BKN014=
201503191950 METAR EGLL 191950Z 04007KT 360V080 9999 FEW016 BKN020 07/04
                        Q1032 TEMPO BKN014=
201503191920 METAR COR EGLL 191920Z 03006KT 360V060 9999 FEW018 BKN021
                        07/04 Q1032 NOSIG=
201503191850 METAR EGLL 191850Z 02005KT 350V050 9999 FEW018 BKN020 07/03
                        Q1032 NOSIG=
201503191820 METAR COR EGLL 191820Z 03005KT 350V080 9999 FEW017 BKN020
                        07/04 Q1032 NOSIG=
201503191750 METAR EGLL 191750Z 03007KT 340V050 9999 BKN018 07/04 Q1031
                        NOSIG=
201503191720 METAR COR EGLL 191720Z 02008KT 350V050 9999 BKN020 07/04
                        Q1031 NOSIG=
201503191650 METAR EGLL 191650Z 01008KT 340V040 9999 FEW018 BKN020 08/04
                        Q1031 NOSIG=
201503191620 METAR COR EGLL 191620Z 02007KT 340V060 9999 FEW018 BKN019
                        08/04 Q1032 NOSIG=
201503191550 METAR EGLL 191550Z 01009KT 340V050 9999 SCT019 BKN024 08/04
                        Q1032 NOSIG=
201503191520 METAR COR EGLL 191520Z 01008KT 9999 SCT018 BKN021 08/04 Q1032
                        NOSIG=
201503191450 METAR COR EGLL 191450Z 01008KT 340V050 9999 SCT016 BKN020
                        08/04 Q1032 NOSIG=
201503191420 METAR COR EGLL 191420Z 02009KT 350V050 9999 BKN015 07/04
                        Q1032 TEMPO BKN014=
201503191350 METAR COR EGLL 191350Z 01006KT 330V060 8000 SCT012 BKN015
                        07/04 Q1033 TEMPO BKN014=
201503191320 METAR COR EGLL 191320Z 01008KT 340V050 7000 BKN014 07/04
                        Q1033 BECMG SCT014 BKN015=
201503191250 METAR EGLL 191250Z 03009KT 6000 BKN013 07/04 Q1033 BECMG
                        SCT014 BKN017=
201503191220 METAR COR EGLL 191220Z 02008KT 340V050 5000 HZ BKN013 07/04
                        Q1033 BECMG SCT013 BKN016=
201503191150 METAR COR EGLL 191150Z 02008KT 340V050 5000 HZ BKN012 07/04
                        Q1033 BECMG SCT014 BKN016=
201503191120 METAR COR EGLL 191120Z 01006KT 330V050 5000 HZ BKN012 07/04
                        Q1034 BECMG SCT014 BKN017=
201503191050 METAR EGLL 191050Z 02007KT 340V050 5000 HZ BKN013 07/04 Q1034
                        BECMG SCT014 BKN017=
201503191020 METAR COR EGLL 191020Z 02008KT 340V060 5000 HZ BKN013 07/04
                        Q1034 BECMG SCT014 BKN017=
201503190950 METAR COR EGLL 190950Z 03007KT 360V060 5000 HZ BKN013 07/04
                        Q1034 BECMG SCT014 BKN017=
201503190920 METAR COR EGLL 190920Z 01008KT 330V060 6000 BKN012 06/04
                        Q1034 NOSIG=
201503190850 METAR COR EGLL 190850Z 02006KT 340V050 5000 HZ BKN012 06/04
                        Q1034 NOSIG=
201503190820 METAR COR EGLL 190820Z 01006KT 330V050 5000 HZ BKN012 06/04
                        Q1034 NOSIG=
201503190750 METAR EGLL 190750Z 02007KT 340V050 5000 HZ BKN011 06/03 Q1034
                        TEMPO BKN009=
201503190720 METAR COR EGLL 190720Z 02007KT 330V040 5000 HZ BKN011 06/03
                        Q1033 TEMPO BKN009=
201503190650 METAR EGLL 190650Z 02007KT 330V050 5000 HZ BKN011 06/03 Q1033
                        TEMPO 4000 BKN008=
201503190620 METAR COR EGLL 190620Z 03008KT 340V050 5000 HZ BKN012 06/03
                        Q1033 TEMPO 4000 BKN008=
201503190550 METAR COR EGLL 190550Z 02007KT 330V050 5000 HZ BKN013 06/03
                        Q1033 TEMPO 4000 BKN015=
201503190520 METAR COR EGLL 190520Z 01006KT 350V050 4800 HZ OVC013 06/03
                        Q1033 TEMPO 5000 BKN015=
201503190450 METAR COR EGLL 190450Z 02006KT 350V050 5000 HZ OVC014 06/04
                        Q1033 NOSIG=
201503190420 METAR COR EGLL 190420Z 03005KT 350V060 5000 HZ BKN014 06/03
                        Q1033 NOSIG=
201503190350 METAR COR EGLL 190350Z 02006KT 340V050 6000 OVC013 06/03
                        Q1033 NOSIG=
201503190320 METAR COR EGLL 190320Z 02007KT 350V050 5000 HZ OVC014 06/04
                        Q1033 TEMPO 4000 BKN015=
201503190250 METAR COR EGLL 190250Z 02005KT 4500 HZ OVC016 06/04 Q1033
                        BECMG BKN012=
201503190220 METAR COR EGLL 190220Z 02006KT 340V060 5000 HZ OVC012 06/03
                        Q1033 TEMPO 4000=
201503190150 METAR COR EGLL 190150Z 04007KT 010V070 5000 HZ OVC015 06/03
                        Q1034 TEMPO 4000 BKN012=
201503190120 METAR COR EGLL 190120Z 04009KT 4700 HZ OVC014 06/04 Q1034
                        NOSIG=
201503190050 METAR COR EGLL 190050Z 03006KT 360V070 5000 HZ OVC014 07/03
                        Q1033 TEMPO 4000=
201503190020 METAR COR EGLL 190020Z 04006KT 360V080 5000 HZ OVC016 07/03
                        Q1033 BECMG 4000 BKN012=
201503182350 METAR COR EGLL 182350Z 03005KT 350V070 5000 HZ OVC018 07/03
                        Q1034 TEMPO 4000 BKN012=
201503182320 METAR COR EGLL 182320Z 04007KT 010V070 5000 HZ BKN020 06/03
                        Q1034 TEMPO 4000 BKN012=
201503182250 METAR COR EGLL 182250Z 03005KT 360V080 5000 HZ SCT018 BKN022
                        06/03 Q1034 TEMPO 4000 BKN012=
201503182220 METAR COR EGLL 182220Z VRB03KT 5000 HZ SCT022 BKN027 06/03
                        Q1034 TEMPO 4000 BKN012=
201503182150 METAR COR EGLL 182150Z 04006KT 360V060 4800 HZ FEW017 BKN028
                        07/03 Q1034 TEMPO BKN012=
201503182120 METAR COR EGLL 182120Z 05008KT 010V080 4300 HZ FEW016 BKN029
                        07/04 Q1033 TEMPO BKN012=
201503182050 METAR EGLL 182050Z 04004KT 350V070 4700 HZ FEW022 BKN034
                        07/03 Q1033 NOSIG=
201503182020 METAR COR EGLL 182020Z 04006KT 340V070 4800 HZ FEW022 BKN031
                        08/04 Q1033 NOSIG=
201503181950 METAR COR EGLL 181950Z 03005KT 340V060 4900 HZ BKN036 08/04
                        Q1033 TEMPO 5000=
201503181920 METAR COR EGLL 181920Z 03006KT 330V060 5000 HZ FEW029 BKN036
                        08/04 Q1033 TEMPO 4000=
201503181850 METAR EGLL 181850Z 03005KT 320V060 4900 HZ FEW029 BKN034
                        08/04 Q1033 TEMPO 5000=
201503181820 METAR COR EGLL 181820Z VRB03KT 5000 HZ FEW025 BKN031 08/03
                        Q1033 TEMPO 4500=
201503181750 METAR EGLL 181750Z 04004KT 360V060 6000 SCT030 07/03 Q1032
                        NOSIG=
201503181720 METAR COR EGLL 181720Z 02006KT 340V050 7000 NSC 08/03 Q1032
                        NOSIG=
201503181650 METAR EGLL 181650Z 02007KT 340V060 7000 FEW022 08/03 Q1032
                        NOSIG=
201503181620 METAR COR EGLL 181620Z 02008KT 340V050 7000 FEW030 08/03
                        Q1032 NOSIG=
201503181550 METAR COR EGLL 181550Z 02009KT 330V070 8000 FEW030 09/03
                        Q1032 NOSIG=
201503181520 METAR COR EGLL 181520Z 02009KT 330V050 8000 FEW030 10/03
                        Q1032 NOSIG=
201503181450 METAR EGLL 181450Z 01008KT 7000 FEW032 11/03 Q1032 NOSIG=
201503181420 METAR COR EGLL 181420Z 04008KT 010V070 7000 FEW032 11/02
                        Q1032 NOSIG=
201503181350 METAR EGLL 181350Z 03009KT 350V080 7000 FEW032 11/03 Q1032
                        NOSIG=
201503181320 METAR COR EGLL 181320Z 02008KT 340V050 7000 FEW030 11/03
                        Q1032 NOSIG=
201503181250 METAR EGLL 181250Z 03008KT 350V070 7000 FEW030 11/04 Q1032
                        NOSIG=
201503181220 METAR COR EGLL 181220Z 05009KT 8000 NSC 11/03 Q1033 NOSIG=
201503181150 METAR EGLL 181150Z 02008KT 350V050 6000 FEW020 10/04 Q1033
                        NOSIG=
201503181120 METAR COR EGLL 181120Z 02007KT 340V050 5000 HZ FEW018 09/04
                        Q1033 NOSIG=
201503181050 METAR EGLL 181050Z 36008KT 4500 HZ FEW018 08/04 Q1033 NOSIG=
201503181020 METAR COR EGLL 181020Z 03006KT 340V070 4200 HZ NSC 07/04
                        Q1033 BECMG 5000=
201503180950 METAR EGLL 180950Z 02007KT 340V060 3800 HZ FEW010 06/03 Q1032
                        NOSIG=
201503180920 METAR COR EGLL 180920Z 36008KT 330V040 3800 HZ FEW010 06/03
                        Q1032 NOSIG=
201503180850 METAR COR EGLL 180850Z 36006KT 330V040 3400 BR FEW008 SCT010
                        06/03 Q1032 NOSIG=
201503180820 METAR COR EGLL 180820Z 02005KT 340V060 3000 BR FEW007 SCT010
                        05/03 Q1032 NOSIG=
201503180750 METAR COR EGLL 180750Z 01004KT 340V050 2600 BR FEW006 SCT008
                        04/03 Q1031 TEMPO BKN006=
201503180720 METAR COR EGLL 180720Z 01006KT 340V050 2700 BR FEW006 SCT008
                        04/03 Q1031 TEMPO BKN006=
201503180650 METAR EGLL 180650Z 01005KT 2700 BR FEW006 SCT008 04/03 Q1031
                        TEMPO BKN006=
201503180620 METAR COR EGLL 180620Z 04004KT 350V070 2800 HZ FEW006 SCT007
                        04/03 Q1030 TEMPO BKN006=
201503180550 METAR COR EGLL 180550Z 03005KT 010V080 2800 HZ FEW006 SCT007
                        04/03 Q1030 TEMPO BKN006=
201503180520 METAR COR EGLL 180520Z 02005KT 340V040 2500 BR SCT004 SCT006
                        04/03 Q1030 TEMPO BKN004=
201503180450 METAR COR EGLL 180450Z 01005KT 330V060 2200 BR FEW003 SCT004
                        BKN005 04/04 Q1030 TEMPO 1400 BKN004=
201503180420 METAR COR EGLL 180420Z 02004KT 340V060 1400 BR FEW002 BKN003
                        04/04 Q1029 TEMPO 1500=
201503180350 METAR EGLL 180350Z 02004KT 330V050 1700 BR SCT004 04/03 Q1029
                        BECMG 1400 BKN004=
201503180320 METAR COR EGLL 180320Z 02005KT 2300 HZ NSC 04/03 Q1029 BECMG
                        BKN004=
201503180250 METAR COR EGLL 180250Z 03004KT 2300 HZ NSC 05/03 Q1029 BECMG
                        BKN004=
201503180220 METAR COR EGLL 180220Z 02004KT 330V060 2300 HZ NSC 05/04
                        Q1029 BECMG BKN005=
201503180150 METAR COR EGLL 180150Z 02004KT 340V060 2300 HZ NSC 05/04
                        Q1029 BECMG BKN005=
201503180050 METAR EGLL 180050Z 36004KT 2500 HZ FEW032 05/04 Q1029 BECMG
                        BKN005=
201503180020 METAR COR EGLL 180020Z 36004KT 2500 HZ SCT032 06/04 Q1029
                        BECMG BKN005=
201503172350 METAR EGLL 172350Z 36004KT 340V040 3000 HZ BKN034 07/05 Q1028
                        BECMG BKN005=
201503172320 METAR COR EGLL 172320Z 05005KT 020V090 3200 HZ BKN034 08/05
                        Q1028 BECMG BKN005=
201503172250 METAR COR EGLL 172250Z 04005KT 020V080 3500 HZ BKN034 08/05
                        Q1028 BECMG BKN005=
201503172220 METAR COR EGLL 172220Z 03005KT 3700 HZ FEW015 BKN034 08/06
                        Q1028 BECMG BKN006=
201503172150 METAR COR EGLL 172150Z 04006KT 010V080 3800 HZ SCT015 BKN035
                        08/06 Q1028 NOSIG=
201503172120 METAR COR EGLL 172120Z 04006KT 3700 HZ FEW030 BKN034 08/06
                        Q1028 NOSIG=
201503172050 METAR EGLL 172050Z 36005KT 340V040 3400 HZ BKN033 09/06 Q1028
                        NOSIG=
201503172020 METAR COR EGLL 172020Z 05005KT 010V080 3600 HZ BKN037 09/06
                        Q1027 NOSIG=
201503171950 METAR EGLL 171950Z 04004KT 360V070 3500 HZ BKN029 08/06 Q1027
                        NOSIG=
201503171920 METAR COR EGLL 171920Z 02004KT 350V060 3600 HZ NSC 08/06
                        Q1027 NOSIG=
201503171850 METAR EGLL 171850Z 01006KT 340V040 3500 HZ NSC 08/06 Q1026
                        NOSIG=
201503171820 METAR COR EGLL 171820Z 01006KT 3600 HZ NSC 09/06 Q1026 NOSIG=
201503171750 METAR COR EGLL 171750Z 01007KT 4500 HZ FEW042 10/06 Q1025
                        TEMPO 5000=
201503171720 METAR COR EGLL 171720Z 05005KT 5000 HZ FEW042 11/05 Q1025
                        NOSIG=
201503171650 METAR EGLL 171650Z 05005KT 5000 HZ FEW032 BKN042 12/05 Q1025
                        NOSIG=
201503171620 METAR COR EGLL 171620Z 07006KT 5000 HZ SCT035 SCT040 12/05
                        Q1025 NOSIG=
201503171550 METAR COR EGLL 171550Z 06006KT 5000 HZ BKN037 12/05 Q1024
                        NOSIG=
201503171520 METAR COR EGLL 171520Z 07005KT 040V120 5000 HZ FEW030 12/06
                        Q1024 NOSIG=
201503171450 METAR EGLL 171450Z 07005KT 5000 HZ SCT029 12/06 Q1024 TEMPO
                        4000=
201503171420 METAR COR EGLL 171420Z 06005KT 360V100 5000 HZ SCT025 12/06
                        Q1024 NOSIG=
201503171350 METAR EGLL 171350Z 06004KT 360V150 7000 FEW023 12/06 Q1024
                        NOSIG=
201503171320 METAR COR EGLL 171320Z 05004KT 310V110 6000 FEW022 11/06
                        Q1025 NOSIG=
201503171250 METAR COR EGLL 171250Z VRB03KT 6000 FEW017 11/06 Q1025 NOSIG=
201503171220 METAR COR EGLL 171220Z 36005KT 330V050 5000 HZ SCT017 10/06
                        Q1025 NOSIG=
201503171150 METAR COR EGLL 171150Z VRB03KT 4200 HZ SCT014 10/06 Q1025
                        BECMG 6000=
201503171120 METAR COR EGLL 171120Z VRB03KT 4200 HZ BKN014 09/06 Q1025
                        BECMG 5000 SCT018=
201503171050 METAR COR EGLL 171050Z 05004KT 360V090 4000 HZ BKN012 08/06
                        Q1025 BECMG 5000 FEW012=
201503171020 METAR COR EGLL 171020Z 06005KT 020V090 4000 HZ BKN011 08/06
                        Q1025 BECMG 5000 FEW012=
201503170950 METAR EGLL 170950Z 07005KT 3600 HZ SCT011 SCT038 08/06 Q1025
                        BECMG 5000=
201503170920 METAR COR EGLL 170920Z 07004KT 040V100 3200 HZ FEW008 BKN036
                        07/06 Q1025 BECMG 5000=
201503170850 METAR COR EGLL 170850Z 07004KT 020V080 2500 HZ FEW006 SCT036
                        07/06 Q1025 BECMG 3500 HZ=
201503170820 METAR COR EGLL 170820Z 06003KT 2100 HZ FEW006 SCT034 06/06
                        Q1024 TEMPO BKN007=
201503170750 METAR EGLL 170750Z 06005KT 1700 HZ FEW006 06/06 Q1024 TEMPO
                        BKN007=
201503170720 METAR COR EGLL 170720Z 06006KT 1700 HZ FEW004 06/05 Q1024
                        TEMPO BKN007=
201503170650 METAR EGLL 170650Z 04004KT 360V070 1800 HZ FEW004 SCT037
                        06/05 Q1024 TEMPO BKN007=
201503170620 METAR COR EGLL 170620Z 06005KT 1600 HZ SCT004 SCT042 06/05
                        Q1023 TEMPO BKN006=
201503170550 METAR COR EGLL 170550Z 06006KT 1900 HZ FEW004 SCT042 06/05
                        Q1023 TEMPO BKN006=
201503170520 METAR COR EGLL 170520Z 07005KT 1700 BR SCT034 SCT038 06/05
                        Q1023 NOSIG=
201503170450 METAR EGLL 170450Z VRB02KT 1700 BR FEW006 BKN037 05/05 Q1023
                        NOSIG=
201503170420 METAR COR EGLL 170420Z 06004KT 1700 BR FEW006 SCT033 BKN042
                        05/05 Q1023 NOSIG=
201503170350 METAR EGLL 170350Z 08004KT 1700 -RA BR BKN032 05/05 Q1023
                        NOSIG=
201503170320 METAR COR EGLL 170320Z 07004KT 2000 -SHRA SCT035 SCT045 05/05
                        Q1023 TEMPO SHRA=
201503170250 METAR COR EGLL 170250Z 07004KT 2000 -SHRA SCT032 SCT046 05/04
                        Q1023 TEMPO SHRA=
201503170220 METAR EGLL 170220Z AUTO 07004KT 1700 -RA BKN032 05/04 Q1023=
201503170150 METAR EGLL 170150Z AUTO 03002KT 2200 -RA SCT034 SCT047 04/04
                        Q1023=
201503170120 METAR EGLL 170120Z AUTO 04003KT 2100 HZ NCD 04/03 Q1023=
201503170050 METAR EGLL 170050Z 05003KT 3000 HZ NSC 04/03 Q1023 NOSIG=
201503170020 METAR COR EGLL 170020Z 04003KT 3000 HZ NSC 04/03 Q1023 NOSIG=
201503162350 METAR COR EGLL 162350Z 00000KT 3000 HZ NSC 04/03 Q1023 NOSIG=
201503162320 METAR COR EGLL 162320Z 05002KT 3000 HZ NSC 04/03 Q1023 NOSIG=
201503162250 METAR EGLL 162250Z 07004KT 3500 HZ NSC 04/03 Q1023 NOSIG=
201503162220 METAR COR EGLL 162220Z 09004KT 3500 HZ NSC 04/03 Q1023 NOSIG=
201503162150 METAR COR EGLL 162150Z 09005KT 2700 HZ NSC 05/03 Q1023 NOSIG=
201503162120 METAR COR EGLL 162120Z 10006KT 3000 HZ NSC 05/04 Q1023 NOSIG=
201503162050 METAR COR EGLL 162050Z 11007KT 3400 HZ NSC 05/04 Q1023 NOSIG=
201503162020 METAR COR EGLL 162020Z 10008KT 4200 HZ NSC 06/03 Q1023 NOSIG=
201503161950 METAR COR EGLL 161950Z 10007KT 5000 HZ FEW020 06/04 Q1023
                        NOSIG=
201503161920 METAR COR EGLL 161920Z 10008KT 6000 BKN049 06/03 Q1023 NOSIG=
201503161850 METAR EGLL 161850Z 10009KT 7000 BKN044 07/03 Q1022 NOSIG=
201503161820 METAR COR EGLL 161820Z 09008KT 8000 BKN048 07/03 Q1022 NOSIG=
201503161750 METAR EGLL 161750Z 10008KT 8000 BKN040 07/03 Q1022 NOSIG=
201503161720 METAR COR EGLL 161720Z 12007KT 7000 FEW034 BKN038 07/03 Q1022
                        NOSIG=
201503161650 METAR EGLL 161650Z 13007KT 7000 SCT037 BKN040 07/03 Q1022
                        NOSIG=
201503161620 METAR COR EGLL 161620Z 14006KT 9000 BKN040 07/03 Q1022 NOSIG=
201503161550 METAR COR EGLL 161550Z 12007KT 9999 FEW042 BKN047 08/03 Q1022
                        NOSIG=
201503161520 METAR COR EGLL 161520Z 10006KT 9999 BKN047 07/03 Q1022 NOSIG=
201503161450 METAR EGLL 161450Z 10006KT 8000 BKN042 07/03 Q1022 NOSIG=
201503161420 METAR COR EGLL 161420Z 12008KT 8000 FEW035 SCT040 BKN045
                        07/03 Q1022 NOSIG=
201503161350 METAR COR EGLL 161350Z 10008KT 9999 FEW027 SCT039 07/04 Q1022
                        NOSIG=
201503161320 METAR COR EGLL 161320Z 09008KT 9999 FEW028 SCT046 08/03 Q1022
                        NOSIG=
201503161250 METAR COR EGLL 161250Z 10007KT 9000 SCT021 SCT035 08/03 Q1022
                        NOSIG=
201503161220 METAR COR EGLL 161220Z 10007KT 060V130 8000 -DZ SCT021 SCT030
                        08/04 Q1023 NOSIG=
201503161150 METAR COR EGLL 161150Z 09009KT 8000 BKN021 08/04 Q1023 NOSIG=
201503161120 METAR COR EGLL 161120Z 07006KT 040V110 8000 -DZ SCT018 BKN024
                        08/04 Q1023 NOSIG=
201503161050 METAR EGLL 161050Z 07006KT 030V090 7000 FEW012 BKN016 08/05
                        Q1023 TEMPO BKN014=
201503161020 METAR COR EGLL 161020Z 06006KT 6000 FEW010 BKN015 07/05 Q1023
                        NOSIG=
201503160950 METAR EGLL 160950Z 06004KT 6000 FEW006 BKN016 06/05 Q1023
                        NOSIG=
201503160920 METAR COR EGLL 160920Z 06005KT 6000 SCT014 06/04 Q1023 TEMPO
                        BKN020=
201503160850 METAR COR EGLL 160850Z 07005KT 6000 -DZ FEW006 BKN012 06/04
                        Q1023 TEMPO BKN020=
201503160820 METAR COR EGLL 160820Z 06007KT 3700 -RADZ HZ FEW006 SCT008
                        BKN010 06/05 Q1023 BECMG 6000 BKN012=
201503160750 METAR COR EGLL 160750Z 06004KT 3900 -RADZ HZ SCT006 BKN009
                        06/05 Q1024 BECMG 6000 BKN012=
201503160720 METAR COR EGLL 160720Z 05004KT 4100 -DZ HZ FEW008 OVC010
                        05/04 Q1024 BECMG 6000 NSW SCT010
                        BKN020=
201503160650 METAR COR EGLL 160650Z 05003KT 4800 -RADZ HZ BKN012 BKN018
                        05/04 Q1024 TEMPO 6000 NSW SCT012=
201503160620 METAR COR EGLL 160620Z 04004KT 010V080 5000 -RADZ BKN013
                        BKN020 05/04 Q1024 TEMPO 4500 RADZ=
201503160550 METAR COR EGLL 160550Z 05004KT 5000 -RADZ SCT013 BKN030 05/04
                        Q1024 TEMPO 4500 RADZ BKN013=
201503160520 METAR COR EGLL 160520Z 06005KT 5000 -RA SCT025 BKN040 04/03
                        Q1024 TEMPO 4500 RADZ BKN014=
201503160450 METAR EGLL 160450Z 06007KT 6000 -DZ SCT012 BKN018 05/04 Q1024
                        TEMPO 4500 -RADZ BKN012=
201503160420 METAR COR EGLL 160420Z 05004KT 7000 -DZ FEW010 BKN014 BKN019
                        05/04 Q1024 TEMPO 4500 -RADZ BKN009=
201503160350 METAR COR EGLL 160350Z 06006KT 7000 -DZ FEW010 BKN020 BKN026
                        05/04 Q1024 TEMPO 4500 -RADZ BKN009=
201503160320 METAR COR EGLL 160320Z 06005KT 4600 -RA BKN009 BKN015 05/04
                        Q1024 TEMPO 6000 NSW SCT009 BKN014=
201503160250 METAR COR EGLL 160250Z 05005KT 6000 SCT013 BKN018 05/03 Q1024
                        TEMPO 4500 -RADZ BKN013=
201503160220 METAR EGLL 160220Z AUTO 05006KT 7000 BKN014 05/03 Q1024=
201503160150 METAR EGLL 160150Z AUTO 05005KT 7000 -DZ FEW013 BKN040 05/03
                        Q1024=
201503160120 METAR EGLL 160120Z AUTO 05005KT 7000 BKN013 06/03 Q1025=
201503160050 METAR COR EGLL 160050Z 04004KT 010V070 8000 SCT014 06/03
                        Q1025 TEMPO BKN014=
201503160020 METAR COR EGLL 160020Z 04005KT 020V080 6000 SCT013 OVC018
                        05/03 Q1025 TEMPO BKN013=
201503152350 METAR EGLL 152350Z 04005KT 8000 BKN014 BKN043 06/03 Q1025
                        TEMPO BKN016=
201503152320 METAR COR EGLL 152320Z 05006KT 010V080 8000 BKN015 06/03
                        Q1025 TEMPO BKN014=
201503152250 METAR COR EGLL 152250Z 05007KT 8000 BKN016 06/03 Q1025 TEMPO
                        BKN014=
201503152220 METAR COR EGLL 152220Z 05006KT 020V080 9000 BKN017 06/03
                        Q1026 TEMPO BKN014=
201503152150 METAR COR EGLL 152150Z 05005KT 9000 BKN016 06/03 Q1026 TEMPO
                        BKN014=
201503152120 METAR COR EGLL 152120Z 05005KT 9999 BKN016 06/03 Q1026 TEMPO
                        BKN014=
201503152050 METAR COR EGLL 152050Z 05006KT 020V080 9999 SCT018 SCT033
                        06/03 Q1026 NOSIG=
201503152020 METAR COR EGLL 152020Z 06006KT 010V070 9999 SCT017 SCT031
                        06/03 Q1026 NOSIG=
201503151950 METAR COR EGLL 151950Z 06010KT 9999 SCT025 SCT033 06/03 Q1026
                        NOSIG=
201503151920 METAR COR EGLL 151920Z 06007KT 9999 FEW019 BKN048 06/03 Q1026
                        NOSIG=
201503151850 METAR EGLL 151850Z 06007KT 9999 SCT016 SCT027 06/03 Q1026
                        NOSIG=
201503151820 METAR COR EGLL 151820Z 05006KT 010V080 9999 SCT022 SCT040
                        06/03 Q1026 NOSIG=
201503151750 METAR EGLL 151750Z 06007KT 9999 FEW018 SCT026 BKN048 06/03
                        Q1026 NOSIG=
201503151720 METAR COR EGLL 151720Z 06009KT 9999 SCT019 BKN041 07/03 Q1026
                        NOSIG=
201503151650 METAR COR EGLL 151650Z 04007KT 340V070 9999 SCT020 SCT023
                        06/03 Q1026 NOSIG=
201503151620 METAR COR EGLL 151620Z 05007KT 020V080 9999 SCT027 SCT035
                        07/04 Q1026 NOSIG=
201503151550 METAR EGLL 151550Z 05006KT 9999 FEW017 BKN040 06/04 Q1026
                        NOSIG=
201503151520 METAR COR EGLL 151520Z 05010KT 020V080 9000 -SHRA FEW017
                        SCT024 BKN029 06/04 Q1026 NOSIG=
201503151450 METAR EGLL 151450Z 04007KT 9999 SCT028 SCT035 07/03 Q1026
                        NOSIG=
201503151420 METAR COR EGLL 151420Z 07007KT 9999 SCT023 SCT028 06/03 Q1027
                        NOSIG=
201503151350 METAR COR EGLL 151350Z 05010KT 020V090 9999 SCT026 BKN031
                        07/02 Q1027 NOSIG=
201503151320 METAR COR EGLL 151320Z 05007KT 9999 FEW026 SCT030 BKN039
                        07/02 Q1027 NOSIG=
201503151250 METAR EGLL 151250Z 06007KT 030V090 9999 SCT032 BKN037 07/02
                        Q1027 NOSIG=
201503151220 METAR COR EGLL 151220Z 06011KT 030V090 9999 FEW024 BKN042
                        07/01 Q1027 NOSIG=
201503151150 METAR EGLL 151150Z 06009KT 9999 SCT023 BKN028 07/02 Q1028
                        NOSIG=
201503151120 METAR COR EGLL 151120Z AUTO 06007KT 9999 SCT021/// BKN033///
                        07/02 Q1028 NOSIG=
201503151050 METAR COR EGLL 151050Z 06010KT 9999 FEW023 BKN031 07/02 Q1028
                        NOSIG=
201503151020 METAR COR EGLL 151020Z 06011KT 9999 FEW021 BKN043 06/03 Q1028
                        NOSIG=
201503150950 METAR EGLL 150950Z 06010KT 9999 SCT021 BKN040 06/03 Q1028
                        NOSIG=
201503150920 METAR COR EGLL 150920Z 05008KT 020V080 9999 SCT018 BKN044
                        06/03 Q1028 NOSIG=
201503150850 METAR EGLL 150850Z 05008KT 9999 FEW020 BKN040 06/03 Q1029
                        NOSIG=
201503150820 METAR COR EGLL 150820Z 06008KT 9999 FEW018 BKN030 06/03 Q1029
                        NOSIG=
201503150750 METAR EGLL 150750Z 06007KT 8000 FEW016 SCT021 BKN035 06/04
                        Q1029 NOSIG=
201503150720 METAR COR EGLL 150720Z 06009KT 9000 SCT017 06/03 Q1029 NOSIG=
201503150650 METAR EGLL 150650Z 05008KT 9000 SCT014 SCT047 06/03 Q1029
                        TEMPO BKN014=
201503150620 METAR COR EGLL 150620Z 05008KT 9000 BKN014 BKN049 06/03 Q1028
                        BECMG BKN016=
201503150550 METAR COR EGLL 150550Z 05008KT 010V080 8000 BKN014 06/03
                        Q1028 BECMG BKN016=
201503150520 METAR COR EGLL 150520Z 05008KT 9000 SCT013 SCT017 06/03 Q1028
                        TEMPO BKN013=
201503150450 METAR COR EGLL 150450Z 05008KT 8000 SCT013 BKN044 05/03 Q1028
                        TEMPO BKN013=
201503150420 METAR COR EGLL 150420Z 05006KT 7000 BKN009 05/04 Q1028 TEMPO
                        BKN010=
201503150350 METAR COR EGLL 150350Z 05006KT 6000 BKN008 05/04 Q1029 TEMPO
                        BKN010=
201503150320 METAR COR EGLL 150320Z 04007KT 010V080 7000 OVC010 05/04
                        Q1029 NOSIG=
201503150250 METAR EGLL 150250Z 04007KT 010V080 8000 -DZ BKN010 05/04
                        Q1029 NOSIG=
201503150220 METAR EGLL 150220Z AUTO 03008KT 6000 OVC010 05/04 Q1029=
201503150150 METAR EGLL 150150Z AUTO 04007KT 360V070 7000 -DZ BKN011 05/03
                        Q1029 REDZ=
201503150120 METAR EGLL 150120Z AUTO 03007KT 350V060 7000 DZ OVC012 05/03
                        Q1029=
201503150050 METAR EGLL 150050Z 03005KT 360V070 9999 BKN016 05/03 Q1029
                        TEMPO BKN014=
201503150020 METAR COR EGLL 150020Z 03006KT 9999 SCT020 BKN025 05/03 Q1030
                        TEMPO BKN014=
201503142350 METAR COR EGLL 142350Z 04008KT 360V060 9000 BKN014 05/03
                        Q1030 TEMPO BKN016=
201503142320 METAR COR EGLL 142320Z 05008KT 9999 BKN015 05/02 Q1030 TEMPO
                        BKN013=
201503142250 METAR EGLL 142250Z 03008KT 350V060 9999 BKN020 06/02 Q1030
                        NOSIG=
201503142220 METAR COR EGLL 142220Z 05009KT 9999 BKN020 06/01 Q1030 NOSIG=
201503142150 METAR EGLL 142150Z 04010KT 020V080 9999 OVC022 06/01 Q1030
                        NOSIG=
201503142120 METAR COR EGLL 142120Z 05010KT 010V080 9999 BKN026 06/00
                        Q1031 NOSIG=
201503142050 METAR EGLL 142050Z 03007KT 350V080 9999 BKN032 06/M00 Q1031
                        NOSIG=
201503142020 METAR COR EGLL 142020Z 04008KT 9999 FEW030 05/M01 Q1031 NOSIG=
201503141950 METAR COR EGLL 141950Z 04008KT 9999 FEW030 06/M01 Q1031 NOSIG=
201503141920 METAR COR EGLL 141920Z AUTO 04009KT 350V060 9999 NCD 06/M01
                        Q1031 NOSIG=
201503141850 METAR COR EGLL 141850Z 04011KT CAVOK 07/M01 Q1031 NOSIG=
201503141820 METAR COR EGLL 141820Z 03009KT 360V070 9999 FEW040 07/M02
                        Q1031 NOSIG=
201503141750 METAR EGLL 141750Z 04010KT 360V060 9999 FEW044 08/M01 Q1030
                        NOSIG=
201503141720 METAR COR EGLL 141720Z 03010KT 360V070 9999 FEW044 08/M01
                        Q1030 NOSIG=
201503141650 METAR EGLL 141650Z 03009KT 360V070 9999 SCT043 08/M01 Q1030
                        NOSIG=
201503141620 METAR COR EGLL 141620Z 05009KT 010V080 9999 SCT041 08/00
                        Q1030 NOSIG=
201503141550 METAR EGLL 141550Z 04007KT 340V070 9999 SCT037 SCT039 08/01
                        Q1030 NOSIG=
201503141520 METAR COR EGLL 141520Z 01007KT 340V050 9999 SCT033 SCT036
                        08/02 Q1030 NOSIG=
201503141450 METAR EGLL 141450Z 05007KT 010V080 9999 BKN033 07/02 Q1030
                        NOSIG=
201503141420 METAR COR EGLL 141420Z 03007KT 340V060 9999 SCT019 SCT036
                        06/03 Q1030 NOSIG=
201503141350 METAR COR EGLL 141350Z 04010KT 360V070 9999 FEW015 BKN016
                        06/03 Q1030 NOSIG=
201503141320 METAR COR EGLL 141320Z 04010KT 010V070 9999 FEW024 BKN028
                        06/02 Q1030 NOSIG=
201503141250 METAR COR EGLL 141250Z 05009KT 010V090 9999 BKN028 07/01
                        Q1030 NOSIG=
201503141220 METAR COR EGLL 141220Z 04009KT 010V080 9999 FEW029 BKN031
                        07/00 Q1030 NOSIG=
201503141150 METAR EGLL 141150Z 06012KT 020V080 9999 BKN036 07/M00 Q1030
                        NOSIG=
201503141120 METAR COR EGLL 141120Z 07010KT 9999 BKN037 07/M00 Q1030 NOSIG=
201503141050 METAR EGLL 141050Z 07010KT 020V090 9999 FEW036 07/M00 Q1030
                        NOSIG=
201503141020 METAR COR EGLL 141020Z 05009KT 020V090 9999 FEW030 08/01
                        Q1031 NOSIG=
201503140950 METAR COR EGLL 140950Z 06009KT 020V100 9999 FEW024 07/01
                        Q1031 NOSIG=
201503140920 METAR COR EGLL 140920Z 06010KT 9999 SCT022 06/01 Q1031 NOSIG=
201503140850 METAR COR EGLL 140850Z 05009KT 9999 SCT023 06/01 Q1031 NOSIG=
201503140820 METAR COR EGLL 140820Z 04008KT 9999 FEW047 05/00 Q1031 NOSIG=
201503140750 METAR EGLL 140750Z 03008KT 9999 FEW047 05/M00 Q1030 NOSIG=
201503140720 METAR COR EGLL 140720Z 04007KT 360V070 9999 FEW045 05/M01
                        Q1030 NOSIG=
201503140650 METAR EGLL 140650Z 02006KT 350V050 9999 BKN044 04/M01 Q1030
                        NOSIG=
201503140620 METAR COR EGLL 140620Z 02005KT 340V060 9999 BKN041 04/M01
                        Q1030 NOSIG=
201503140550 METAR EGLL 140550Z 03006KT 360V060 9999 BKN041 04/M01 Q1029
                        NOSIG=
201503140520 METAR COR EGLL 140520Z 02007KT 340V040 9999 BKN040 04/M01
                        Q1029 NOSIG=
201503140450 METAR COR EGLL 140450Z 01006KT 340V050 9999 BKN041 04/M01
                        Q1029 NOSIG=
201503140420 METAR EGLL 140420Z 36007KT 340V040 9999 BKN042 03/M01 Q1029
                        NOSIG=
201503140350 METAR EGLL 140350Z 36007KT 9999 FEW040 03/M02 Q1029 NOSIG=
201503140320 METAR COR EGLL 140320Z 36008KT CAVOK 03/M02 Q1029 NOSIG=
201503140250 METAR EGLL 140250Z 36007KT 9999 FEW031 03/M02 Q1029 NOSIG=
201503140220 METAR EGLL 140220Z AUTO 36006KT 320V030 9999 NCD 03/M02 Q1029=
201503140150 METAR EGLL 140150Z AUTO 01007KT 9999 BKN030 03/M02 Q1029=
201503140120 METAR EGLL 140120Z AUTO 03008KT 350V070 9999 BKN027 04/M02
                        Q1029=
201503140050 METAR EGLL 140050Z 04010KT 9999 BKN025 04/M01 Q1029 NOSIG=
201503140020 METAR COR EGLL 140020Z 04010KT 020V080 9999 BKN024 04/M01
                        Q1029 NOSIG=
201503132350 METAR COR EGLL 132350Z AUTO 05011KT 9999 BKN020/// 04/M00
                        Q1029 NOSIG=
201503132320 METAR COR EGLL 132320Z 04011KT 9999 BKN018 04/01 Q1028 NOSIG=
201503132250 METAR EGLL 132250Z 05009KT 010V080 9000 SCT015 04/01 Q1028
                        NOSIG=
201503132220 METAR COR EGLL 132220Z 03007KT 360V070 8000 SCT015 05/02
                        Q1028 NOSIG=
201503132150 METAR COR EGLL 132150Z 04008KT 010V080 6000 NSC 05/02 Q1027
                        NOSIG=
201503132120 METAR COR EGLL 132120Z 04008KT 010V070 8000 NSC 06/02 Q1027
                        NOSIG=
201503132050 METAR COR EGLL 132050Z 06006KT 9000 NSC 06/02 Q1027 NOSIG=
201503132020 METAR COR EGLL 132020Z 07009KT CAVOK 07/02 Q1026 NOSIG=
201503131950 METAR COR EGLL 131950Z 08008KT CAVOK 08/03 Q1026 NOSIG=
201503131920 METAR COR EGLL 131920Z 07006KT CAVOK 08/01 Q1025 NOSIG=
201503131850 METAR EGLL 131850Z 05003KT CAVOK 09/00 Q1025 NOSIG=
201503131820 METAR COR EGLL 131820Z VRB03KT CAVOK 09/M00 Q1025 NOSIG=
201503131750 METAR EGLL 131750Z 06006KT CAVOK 09/00 Q1024 NOSIG=
201503131720 METAR COR EGLL 131720Z 07007KT CAVOK 10/M00 Q1024 NOSIG=
201503131650 METAR COR EGLL 131650Z 07010KT CAVOK 10/M01 Q1024 NOSIG=
201503131620 METAR COR EGLL 131620Z 06010KT CAVOK 11/M01 Q1023 NOSIG=
201503131550 METAR EGLL 131550Z 09010KT CAVOK 11/M01 Q1023 NOSIG=
201503131520 METAR COR EGLL 131520Z 08011KT 050V110 CAVOK 11/M02 Q1023
                        NOSIG=
201503131450 METAR COR EGLL 131450Z AUTO 10014KT 9999 NCD 11/M00 Q1023
                        NOSIG=
201503131420 METAR EGLL 131420Z 10015KT CAVOK 11/M02 Q1023=
201503131350 METAR EGLL 131350Z 08012KT 040V110 CAVOK 11/M01 Q1022 NOSIG=
201503131320 METAR COR EGLL 131320Z 09011KT CAVOK 11/M00 Q1022 NOSIG=
201503131250 METAR EGLL 131250Z 08012KT CAVOK 11/M00 Q1022 NOSIG=
201503131220 METAR COR EGLL 131220Z 09013KT CAVOK 11/01 Q1022 NOSIG=
201503131150 METAR EGLL 131150Z 07013KT CAVOK 11/M00 Q1022 NOSIG=
201503131120 METAR COR EGLL 131120Z 10014KT CAVOK 10/M01 Q1022 NOSIG=
201503131050 METAR EGLL 131050Z 07011KT CAVOK 10/M00 Q1022 NOSIG=
201503131020 METAR COR EGLL 131020Z 06008KT CAVOK 10/02 Q1022 NOSIG=
201503130950 METAR EGLL 130950Z 07007KT CAVOK 09/01 Q1022 NOSIG=
201503130920 METAR COR EGLL 130920Z 09009KT CAVOK 09/01 Q1022 NOSIG=
201503130850 METAR COR EGLL 130850Z 08006KT 050V110 CAVOK 08/01 Q1022
                        NOSIG=
201503130820 METAR COR EGLL 130820Z 08007KT CAVOK 08/02 Q1021 NOSIG=
201503130750 METAR EGLL 130750Z 06004KT CAVOK 08/02 Q1021 NOSIG=
201503130720 METAR COR EGLL 130720Z 07004KT CAVOK 07/02 Q1021 NOSIG=
201503130650 METAR COR EGLL 130650Z 07005KT CAVOK 07/02 Q1021 NOSIG=
201503130620 METAR COR EGLL 130620Z 06005KT CAVOK 08/01 Q1021 NOSIG=
201503130550 METAR EGLL 130550Z 09006KT CAVOK 08/01 Q1021 NOSIG=
201503130520 METAR COR EGLL 130520Z 07005KT CAVOK 08/01 Q1020 NOSIG=
201503130450 METAR EGLL 130450Z 10006KT CAVOK 08/01 Q1020 NOSIG=
201503130420 METAR COR EGLL 130420Z 13006KT CAVOK 08/01 Q1020 NOSIG=
201503130350 METAR COR EGLL 130350Z 14005KT CAVOK 09/01 Q1020 NOSIG=
201503130320 METAR COR EGLL 130320Z 12007KT CAVOK 09/01 Q1021 NOSIG=
201503130250 METAR EGLL 130250Z 12005KT CAVOK 09/00 Q1021 NOSIG=
201503130220 METAR EGLL 130220Z AUTO 13005KT 9999 NCD 10/M00 Q1021=
201503130150 METAR EGLL 130150Z AUTO 15006KT 9999 NCD 10/M00 Q1021=
201503130120 METAR EGLL 130120Z AUTO 16005KT 9999 NCD 09/M00 Q1021=
201503130050 METAR EGLL 130050Z 12005KT CAVOK 08/00 Q1021 NOSIG=
201503130020 METAR COR EGLL 130020Z 11005KT CAVOK 09/00 Q1021 NOSIG=
201503122350 METAR COR EGLL 122350Z 09004KT CAVOK 09/M00 Q1021 NOSIG=
201503122320 METAR COR EGLL 122320Z VRB03KT CAVOK 10/M01 Q1021 NOSIG=
201503122250 METAR EGLL 122250Z 11005KT CAVOK 10/M01 Q1021 NOSIG=
201503122220 METAR COR EGLL 122220Z 12005KT 090V150 CAVOK 09/M01 Q1022
                        NOSIG=
201503122150 METAR EGLL 122150Z 13006KT CAVOK 10/M01 Q1022 NOSIG=
201503122120 METAR COR EGLL 122120Z 13007KT CAVOK 10/M01 Q1022 NOSIG=
201503122050 METAR COR EGLL 122050Z 13007KT CAVOK 10/M02 Q1022 NOSIG=
201503122020 METAR COR EGLL 122020Z 11009KT CAVOK 09/M02 Q1022 NOSIG=
201503121950 METAR COR EGLL 121950Z 12007KT CAVOK 09/M02 Q1023 NOSIG=
201503121920 METAR EGLL 121920Z 12007KT CAVOK 09/M01 Q1023=
201503121850 METAR EGLL 121850Z 13007KT CAVOK 10/M02 Q1023 NOSIG=
201503121820 METAR COR EGLL 121820Z 14006KT CAVOK 10/M03 Q1023 NOSIG=
201503121750 METAR EGLL 121750Z 14008KT CAVOK 11/M03 Q1023 NOSIG=
201503121720 METAR COR EGLL 121720Z 15009KT CAVOK 11/M04 Q1023 NOSIG=
201503121650 METAR EGLL 121650Z 17010KT CAVOK 12/M04 Q1023 NOSIG=
201503121620 METAR COR EGLL 121620Z AUTO 15013KT 9999 NCD 12/M04 Q1022
                        NOSIG=
201503121550 METAR EGLL 121550Z 16014KT CAVOK 13/M05 Q1023 NOSIG=
201503121520 METAR COR EGLL 121520Z 15012KT CAVOK 13/M06 Q1023 NOSIG=
201503121450 METAR EGLL 121450Z 17011KT CAVOK 13/M05 Q1023 NOSIG=
201503121420 METAR COR EGLL 121420Z 17012KT CAVOK 14/M05 Q1023 NOSIG=
201503121350 METAR COR EGLL 121350Z 14013KT CAVOK 14/M04 Q1024 NOSIG=
201503121320 METAR COR EGLL 121320Z 18012KT CAVOK 14/M03 Q1024 NOSIG=
201503121250 METAR COR EGLL 121250Z 15013KT CAVOK 14/M03 Q1024 NOSIG=
201503121220 METAR COR EGLL 121220Z 16014KT CAVOK 14/M02 Q1025 NOSIG=
201503121150 METAR EGLL 121150Z 16013KT CAVOK 13/M02 Q1025 NOSIG=
201503121120 METAR COR EGLL 121120Z 16011KT 120V180 CAVOK 13/01 Q1026
                        NOSIG=
201503121050 METAR EGLL 121050Z 15012KT CAVOK 12/01 Q1026 NOSIG=
201503121020 METAR COR EGLL 121020Z 15011KT CAVOK 11/02 Q1026 NOSIG=
201503120950 METAR EGLL 120950Z 16010KT CAVOK 11/02 Q1026 NOSIG=
201503120920 METAR COR EGLL 120920Z 16009KT CAVOK 10/03 Q1026 NOSIG=
201503120850 METAR EGLL 120850Z 14007KT 9000 NSC 09/04 Q1027 NOSIG=
201503120820 METAR COR EGLL 120820Z 13009KT 8000 NSC 08/04 Q1027 NOSIG=
201503120750 METAR COR EGLL 120750Z 12007KT 8000 NSC 07/03 Q1027 NOSIG=
201503120720 METAR COR EGLL 120720Z 12004KT 8000 NSC 06/04 Q1027 NOSIG=
201503120650 METAR EGLL 120650Z 12004KT 100V160 8000 NSC 05/03 Q1027 NOSIG=
201503120620 METAR COR EGLL 120620Z 13004KT 100V180 6000 FEW045 06/03
                        Q1027 NOSIG=
201503120550 METAR EGLL 120550Z 11004KT 6000 FEW045 06/04 Q1027 NOSIG=
201503120520 METAR COR EGLL 120520Z 10006KT 6000 FEW041 06/03 Q1027 NOSIG=
201503120450 METAR EGLL 120450Z 12006KT 7000 BKN040 07/04 Q1027 NOSIG=
201503120420 METAR COR EGLL 120420Z 14005KT 7000 FEW038 08/04 Q1027 NOSIG=
201503120350 METAR COR EGLL 120350Z 11006KT 7000 BKN039 08/04 Q1027 NOSIG=
201503120320 METAR COR EGLL 120320Z 12007KT 7000 SCT030 BKN033 09/05 Q1027
                        NOSIG=
201503120250 METAR EGLL 120250Z 09007KT 6000 SCT020 SCT026 09/05 Q1027
                        NOSIG=
201503120220 METAR COR EGLL 120220Z 10006KT 6000 SCT020 BKN032 09/05 Q1028
                        NOSIG=
201503120150 METAR COR EGLL 120150Z 09003KT 6000 SCT020 BKN025 09/06 Q1028
                        NOSIG=
201503120120 METAR COR EGLL 120120Z 10003KT 6000 SCT015 BKN020 09/06 Q1028
                        NOSIG=
201503120050 METAR EGLL 120050Z 09003KT 6000 BKN016 09/06 Q1028 TEMPO
                        BKN014=
201503120020 METAR COR EGLL 120020Z 09003KT 6000 OVC015 09/06 Q1028 TEMPO
                        BKN014=
201503112350 METAR COR EGLL 112350Z 14005KT 6000 OVC015 09/06 Q1028 TEMPO
                        BKN014=
201503112250 METAR EGLL 112250Z 19004KT 160V240 6000 BKN013 09/06 Q1029
                        TEMPO BKN015=
201503112220 METAR COR EGLL 112220Z 19005KT 150V250 6000 BKN014 10/06
                        Q1028 TEMPO BKN015=
201503112150 METAR EGLL 112150Z VRB04KT 6000 BKN015 10/06 Q1028 TEMPO
                        BKN014=
201503112120 METAR COR EGLL 112120Z 19006KT 150V250 6000 BKN015 10/06
                        Q1028 TEMPO BKN014=
201503112050 METAR COR EGLL 112050Z 21007KT 180V250 6000 BKN014 BKN018
                        10/06 Q1028 TEMPO BKN015=
201503112020 METAR COR EGLL 112020Z 20006KT 180V240 7000 BKN013 BKN020
                        10/06 Q1028 TEMPO SCT015=
201503111950 METAR EGLL 111950Z 19007KT 170V240 7000 SCT014 BKN023 10/06
                        Q1028 TEMPO BKN014=
201503111920 METAR COR EGLL 111920Z 22007KT 7000 SCT015 OVC025 10/06 Q1028
                        NOSIG=
201503111850 METAR COR EGLL 111850Z 22007KT 7000 BKN028 10/06 Q1028 NOSIG=
201503111820 METAR COR EGLL 111820Z 23006KT 200V260 7000 SCT026 11/06
                        Q1027 NOSIG=
201503111750 METAR COR EGLL 111750Z 21009KT 9999 FEW028 11/06 Q1027 NOSIG=
201503111720 METAR COR EGLL 111720Z 21008KT 9000 NSC 11/06 Q1026 NOSIG=
201503111650 METAR EGLL 111650Z 20010KT 170V240 CAVOK 12/06 Q1026=
201503111620 METAR EGLL 111620Z 19010KT 170V230 CAVOK 12/06 Q1027=
201503111550 METAR EGLL 111550Z 22011KT CAVOK 13/05 Q1027 NOSIG=
201503111520 METAR COR EGLL 111520Z 20010KT CAVOK 13/05 Q1026 NOSIG=
201503111450 METAR EGLL 111450Z 17010KT CAVOK 13/05 Q1026 NOSIG=
201503111420 METAR COR EGLL 111420Z 17012KT CAVOK 13/05 Q1027 NOSIG=
201503111350 METAR EGLL 111350Z 18012KT CAVOK 13/04 Q1027 NOSIG=
201503111320 METAR COR EGLL 111320Z 17012KT CAVOK 12/03 Q1027 NOSIG=
201503111250 METAR EGLL 111250Z 16011KT CAVOK 13/04 Q1027 NOSIG=
201503111220 METAR COR EGLL 111220Z 15010KT 130V200 CAVOK 13/03 Q1028
                        NOSIG=
201503111150 METAR EGLL 111150Z 15011KT CAVOK 12/04 Q1028 NOSIG=
201503111120 METAR COR EGLL 111120Z 16013KT CAVOK 12/02 Q1028 NOSIG=
201503111050 METAR EGLL 111050Z 15010KT CAVOK 10/04 Q1028 NOSIG=
201503111020 METAR COR EGLL 111020Z 14010KT CAVOK 10/03 Q1028 NOSIG=
201503110950 METAR EGLL 110950Z 14011KT CAVOK 09/03 Q1028 NOSIG=
201503110920 METAR COR EGLL 110920Z 14010KT CAVOK 08/03 Q1029 NOSIG=
201503110850 METAR EGLL 110850Z 14009KT CAVOK 06/03 Q1029 NOSIG=
201503110820 METAR COR EGLL 110820Z 13009KT CAVOK 05/02 Q1029 NOSIG=
201503110750 METAR EGLL 110750Z 13007KT CAVOK 05/03 Q1029 NOSIG=
201503110720 METAR COR EGLL 110720Z 12005KT CAVOK 04/02 Q1029 NOSIG=
201503110650 METAR EGLL 110650Z 10004KT CAVOK 04/02 Q1029 NOSIG=
201503110620 METAR COR EGLL 110620Z 09005KT CAVOK 03/02 Q1029 NOSIG=
201503110550 METAR EGLL 110550Z 09005KT CAVOK 03/02 Q1029 NOSIG=
201503110520 METAR COR EGLL 110520Z 09006KT CAVOK 03/02 Q1029 NOSIG=
201503110450 METAR EGLL 110450Z 08005KT CAVOK 03/02 Q1029 NOSIG=
201503110420 METAR COR EGLL 110420Z 09004KT CAVOK 03/02 Q1030 NOSIG=
201503110350 METAR COR EGLL 110350Z 10006KT CAVOK 03/01 Q1030 NOSIG=
201503110320 METAR COR EGLL 110320Z 09005KT CAVOK 03/02 Q1030 NOSIG=
201503110250 METAR EGLL 110250Z 09006KT CAVOK 03/02 Q1030 NOSIG=
201503110220 METAR COR EGLL 110220Z 09006KT CAVOK 03/02 Q1030 NOSIG=
201503110150 METAR EGLL 110150Z 10006KT CAVOK 04/02 Q1031 NOSIG=
201503110120 METAR COR EGLL 110120Z 10007KT CAVOK 04/02 Q1031 NOSIG=
201503110050 METAR EGLL 110050Z 10006KT CAVOK 03/01 Q1031 NOSIG=
201503110020 METAR COR EGLL 110020Z 10005KT CAVOK 04/01 Q1031 NOSIG=
201503102350 METAR COR EGLL 102350Z 12005KT CAVOK 04/00 Q1031 NOSIG=
201503102320 METAR COR EGLL 102320Z 12007KT CAVOK 05/M00 Q1031 NOSIG=
201503102250 METAR EGLL 102250Z 12005KT 090V150 CAVOK 05/M00 Q1031 NOSIG=
201503102220 METAR COR EGLL 102220Z 08003KT CAVOK 06/M00 Q1031 NOSIG=
201503102150 METAR COR EGLL 102150Z 10004KT 060V130 CAVOK 06/M00 Q1032
                        NOSIG=
201503102120 METAR COR EGLL 102120Z 11005KT CAVOK 07/M00 Q1032 NOSIG=
201503102050 METAR COR EGLL 102050Z 05004KT CAVOK 07/M00 Q1032 NOSIG=
201503102020 METAR COR EGLL 102020Z 05004KT CAVOK 07/M00 Q1032 NOSIG=
201503101950 METAR EGLL 101950Z 06003KT CAVOK 08/M01 Q1031 NOSIG=
201503101920 METAR COR EGLL 101920Z 06003KT CAVOK 08/M01 Q1031 NOSIG=
201503101850 METAR EGLL 101850Z 04004KT CAVOK 09/M02 Q1031 NOSIG=
201503101820 METAR COR EGLL 101820Z 05004KT CAVOK 09/M02 Q1031 NOSIG=
201503101750 METAR COR EGLL 101750Z 05003KT CAVOK 10/M02 Q1031 NOSIG=
201503101720 METAR COR EGLL 101720Z VRB02KT CAVOK 11/M02 Q1030 NOSIG=
201503101650 METAR EGLL 101650Z VRB02KT CAVOK 11/M02 Q1030 NOSIG=
201503101620 METAR COR EGLL 101620Z 00000KT CAVOK 12/M01 Q1030 NOSIG=
201503101550 METAR EGLL 101550Z VRB02KT CAVOK 11/M02 Q1030 NOSIG=
201503101520 METAR COR EGLL 101520Z VRB02KT CAVOK 11/M02 Q1030 NOSIG=
201503101450 METAR EGLL 101450Z VRB02KT CAVOK 11/M01 Q1031=
201503101420 METAR COR EGLL 101420Z VRB02KT CAVOK 11/M01 Q1031 NOSIG=
201503101350 METAR COR EGLL 101350Z 25004KT 200V320 CAVOK 11/01 Q1031
                        NOSIG=
201503101320 METAR COR EGLL 101320Z 27004KT 210V350 CAVOK 11/01 Q1031
                        NOSIG=
201503101250 METAR EGLL 101250Z VRB02KT CAVOK 11/01 Q1031 NOSIG=
201503101220 METAR COR EGLL 101220Z VRB03KT CAVOK 10/01 Q1031 NOSIG=
201503101150 METAR COR EGLL 101150Z 33004KT 290V360 CAVOK 10/02 Q1031
                        NOSIG=
201503101120 METAR COR EGLL 101120Z 36006KT 320V050 CAVOK 10/02 Q1032
                        NOSIG=
201503101050 METAR COR EGLL 101050Z 01006KT 330V050 CAVOK 10/02 Q1032
                        NOSIG=
201503101020 METAR COR EGLL 101020Z 01007KT 340V040 CAVOK 09/02 Q1031
                        NOSIG=
201503100950 METAR EGLL 100950Z 36007KT 320V030 CAVOK 09/03 Q1031 NOSIG=
201503100920 METAR COR EGLL 100920Z 33006KT 290V020 CAVOK 08/04 Q1031
                        NOSIG=
201503100850 METAR COR EGLL 100850Z 30004KT 270V350 CAVOK 07/04 Q1031
                        NOSIG=
201503100820 METAR COR EGLL 100820Z 31005KT CAVOK 07/04 Q1031 NOSIG=
201503100750 METAR COR EGLL 100750Z 31004KT 9000 NSC 06/04 Q1030 NOSIG=
201503100720 METAR COR EGLL 100720Z 30004KT 9000 NSC 06/04 Q1030 NOSIG=
201503100650 METAR EGLL 100650Z 29005KT 9000 NSC 05/04 Q1029 NOSIG=
201503100620 METAR COR EGLL 100620Z 30005KT 9000 NSC 04/04 Q1029 NOSIG=
201503100550 METAR EGLL 100550Z 29006KT 9000 NSC 03/03 Q1028 NOSIG=
201503100520 METAR COR EGLL 100520Z 28005KT 9000 NSC 04/03 Q1028 NOSIG=
201503100450 METAR COR EGLL 100450Z 30003KT 9000 NSC 04/03 Q1028 NOSIG=
201503100420 METAR COR EGLL 100420Z 27003KT 9000 NSC 04/03 Q1027 NOSIG=
201503100350 METAR COR EGLL 100350Z VRB02KT 9000 NSC 06/05 Q1027 NOSIG=
201503100320 METAR COR EGLL 100320Z 26003KT 9000 NSC 05/05 Q1027 NOSIG=
201503100250 METAR EGLL 100250Z AUTO 27006KT 6000 NCD 05/04 Q1026=
201503100220 METAR EGLL 100220Z AUTO 27006KT 7000 NCD 05/04 Q1026=
201503100150 METAR EGLL 100150Z AUTO 28006KT 7000 NCD 06/05 Q1026=
201503100120 METAR COR EGLL 100120Z 28007KT 8000 NSC 07/06 Q1026 NOSIG=
201503100050 METAR COR EGLL 100050Z 28007KT 8000 NSC 07/06 Q1025 NOSIG=
201503100020 METAR COR EGLL 100020Z 28008KT 9000 NSC 08/06 Q1025 NOSIG=
201503092350 METAR EGLL 092350Z 27009KT CAVOK 09/07 Q1025 NOSIG=
201503092320 METAR COR EGLL 092320Z 27011KT CAVOK 09/07 Q1024 NOSIG=
201503092250 METAR COR EGLL 092250Z 26011KT 9999 FEW028 10/07 Q1024 NOSIG=
201503092220 METAR COR EGLL 092220Z 25012KT 9999 FEW010 BKN027 10/09 Q1024
                        REDZ NOSIG=
201503092150 METAR COR EGLL 092150Z 24012KT 9999 FEW008 SCT009 BKN010
                        10/09 Q1023 BECMG FEW010=
201503092120 METAR COR EGLL 092120Z 23011KT 9999 SCT009 BKN011 10/09 Q1023
                        BECMG FEW011=
201503092050 METAR COR EGLL 092050Z 23011KT 9999 SCT008 BKN010 10/09 Q1023
                        TEMPO BKN008=
201503092020 METAR COR EGLL 092020Z 23011KT 9999 SCT007 BKN008 10/09 Q1022
                        NOSIG=
201503091950 METAR COR EGLL 091950Z 23013KT 9999 SCT008 BKN009 10/09 Q1022
                        NOSIG=
201503091920 METAR COR EGLL 091920Z 23011KT 190V260 9000 SCT008 BKN009
                        09/09 Q1022 NOSIG=
201503091850 METAR EGLL 091850Z 21009KT 6000 SCT007 BKN008 09/08 Q1022
                        TEMPO BKN010=
201503091820 METAR COR EGLL 091820Z 21011KT 6000 FEW004 SCT005 BKN006
                        09/08 Q1022 NOSIG=
201503091750 METAR COR EGLL 091750Z 21012KT 7000 BKN006 09/08 Q1022 TEMPO
                        BKN010=
201503091720 METAR EGLL 091720Z 21013KT 9999 FEW009 BKN010 09/08 Q1021=
201503091650 METAR EGLL 091650Z 22013KT 9999 SCT011 BKN013 10/08 Q1021
                        TEMPO BKN008=
201503091620 METAR COR EGLL 091620Z 21013KT 9999 BKN011 10/07 Q1022 TEMPO
                        BKN008=
201503091550 METAR EGLL 091550Z 21013KT 180V240 9999 BKN009 10/08 Q1022
                        TEMPO BKN010=
201503091520 METAR COR EGLL 091520Z 19013KT 9999 SCT009 BKN010 09/07 Q1022
                        TEMPO BKN008=
201503091450 METAR COR EGLL 091450Z 20011KT 170V230 9999 BKN011 09/07
                        Q1022 TEMPO BKN008=
201503091420 METAR COR EGLL 091420Z 20013KT 9999 BKN010 09/07 Q1023 TEMPO
                        BKN008=
201503091350 METAR EGLL 091350Z 20012KT 9999 BKN008 09/07 Q1023 NOSIG=
201503091320 METAR COR EGLL 091320Z 21012KT 9999 BKN008 09/07 Q1024 NOSIG=
201503091250 METAR EGLL 091250Z 20011KT 160V230 9999 BKN007 09/07 Q1024
                        NOSIG=
201503091220 METAR COR EGLL 091220Z 20011G22KT 170V250 9999 FEW007 BKN008
                        09/07 Q1024 NOSIG=
201503091150 METAR EGLL 091150Z 21011KT 9000 BKN007 09/07 Q1025 NOSIG=
201503091120 METAR COR EGLL 091120Z 19012KT 8000 BKN007 08/07 Q1025 NOSIG=
201503091050 METAR EGLL 091050Z 18013G23KT 9000 BKN008 08/06 Q1025 NOSIG=
201503091020 METAR COR EGLL 091020Z 16013KT 8000 BKN010 08/05 Q1025 TEMPO
                        BKN008=
201503090950 METAR EGLL 090950Z 17013KT 9999 BKN012 08/05 Q1025 NOSIG=
201503090920 METAR COR EGLL 090920Z 16015KT 9999 SCT014 08/05 Q1025 BECMG
                        BKN014=
201503090850 METAR EGLL 090850Z 18006KT 9999 SCT032 06/04 Q1026 BECMG
                        BKN014=
201503090820 METAR COR EGLL 090820Z 15006KT 9999 FEW034 06/03 Q1026 BECMG
                        BKN014=
201503090750 METAR EGLL 090750Z 14004KT CAVOK 04/03 Q1026 NOSIG=
201503090720 METAR COR EGLL 090720Z 08004KT CAVOK 02/01 Q1027 NOSIG=
201503090650 METAR EGLL 090650Z 03002KT 9999 FEW040 03/02 Q1027 NOSIG=
201503090620 METAR COR EGLL 090620Z VRB02KT CAVOK 02/02 Q1027 NOSIG=
201503090550 METAR EGLL 090550Z 14003KT 9999 FEW035 02/01 Q1027 NOSIG=
201503090520 METAR COR EGLL 090520Z 17003KT 9999 FEW035 03/02 Q1028 NOSIG=
201503090450 METAR COR EGLL 090450Z 00000KT CAVOK 03/01 Q1028 NOSIG=
201503090420 METAR COR EGLL 090420Z VRB02KT CAVOK 03/02 Q1028 NOSIG=
201503090350 METAR COR EGLL 090350Z VRB02KT CAVOK 03/01 Q1027 NOSIG=
201503090320 METAR COR EGLL 090320Z 06004KT CAVOK 03/01 Q1027 NOSIG=
201503090250 METAR EGLL 090250Z AUTO 08003KT 9999 NCD 02/01 Q1027=
201503090220 METAR EGLL 090220Z AUTO 04003KT 9999 NCD 03/02 Q1027=
201503090150 METAR EGLL 090150Z AUTO VRB02KT 9999 NCD 04/02 Q1028=
201503090120 METAR COR EGLL 090120Z 06004KT CAVOK 03/01 Q1028 NOSIG=
201503090050 METAR COR EGLL 090050Z 00000KT CAVOK 04/02 Q1029 NOSIG=
201503090020 METAR COR EGLL 090020Z 00000KT CAVOK 06/03 Q1028 NOSIG=
201503082350 METAR EGLL 082350Z 00000KT CAVOK 06/03 Q1028 NOSIG=
201503082320 METAR COR EGLL 082320Z 00000KT CAVOK 06/03 Q1028 NOSIG=
201503082250 METAR COR EGLL 082250Z 30003KT 9999 FEW040 07/04 Q1028 NOSIG=
201503082220 METAR COR EGLL 082220Z 29004KT 260V340 9999 FEW040 08/04
                        Q1028 NOSIG=
201503082150 METAR EGLL 082150Z VRB03KT 9999 FEW042 08/04 Q1027 NOSIG=
201503082120 METAR COR EGLL 082120Z VRB03KT 9999 FEW042 09/04 Q1027 NOSIG=
201503082050 METAR EGLL 082050Z VRB03KT 9999 FEW031 SCT044 09/05 Q1027
                        NOSIG=
201503082020 METAR COR EGLL 082020Z 31004KT 9999 SCT030 BKN046 09/05 Q1026
                        NOSIG=
201503081950 METAR EGLL 081950Z 36005KT 330V040 9999 FEW020 10/06 Q1025
                        NOSIG=
201503081920 METAR COR EGLL 081920Z 35007KT 320V040 9999 FEW019 SCT027
                        11/06 Q1025 NOSIG=
201503081850 METAR EGLL 081850Z 27007KT 9999 FEW027 SCT035 11/07 Q1025
                        NOSIG=
201503081820 METAR COR EGLL 081820Z 27007KT 9999 SCT026 SCT040 11/08 Q1024
                        NOSIG=
201503081750 METAR COR EGLL 081750Z 24007KT 9999 SCT028 12/08 Q1023 NOSIG=
201503081720 METAR COR EGLL 081720Z 24008KT 9999 FEW034 12/08 Q1023 NOSIG=
201503081650 METAR COR EGLL 081650Z 24008KT 9999 SCT015 SCT020 12/08 Q1023
                        NOSIG=
201503081620 METAR COR EGLL 081620Z 25011KT 9999 BKN012 12/09 Q1023 TEMPO
                        FEW012=
201503081550 METAR EGLL 081550Z 23011KT 9999 SCT013 12/09 Q1022 NOSIG=
201503081520 METAR COR EGLL 081520Z 23009KT 9999 SCT014 12/09 Q1022 TEMPO
                        BKN015=
201503081450 METAR COR EGLL 081450Z 25014KT 9999 BKN014 12/08 Q1023 TEMPO
                        BKN015=
201503081420 METAR COR EGLL 081420Z 25013KT 9999 BKN016 12/08 Q1022 TEMPO
                        BKN014=
201503081350 METAR EGLL 081350Z 24015KT 9999 BKN018 12/08 Q1022 TEMPO
                        BKN014=
201503081320 METAR COR EGLL 081320Z 24013KT 9999 BKN020 13/08 Q1022 NOSIG=
201503081250 METAR EGLL 081250Z 25010KT 9999 BKN019 12/08 Q1022 NOSIG=
201503081220 METAR COR EGLL 081220Z 23010KT 9999 BKN019 12/08 Q1022 TEMPO
                        BKN012=
201503081150 METAR EGLL 081150Z 23011KT 9999 BKN018 12/07 Q1022 TEMPO
                        BKN012=
201503081120 METAR COR EGLL 081120Z 23011KT 9999 BKN017 12/07 Q1022 NOSIG=
201503081050 METAR COR EGLL 081050Z 23012KT 9999 FEW018 BKN033 12/07 Q1022
                        NOSIG=
201503081020 METAR COR EGLL 081020Z 24012KT 9999 FEW018 BKN033 11/07 Q1022
                        NOSIG=
201503080950 METAR EGLL 080950Z 24010KT 9999 SCT018 BKN031 10/06 Q1022
                        NOSIG=
201503080920 METAR COR EGLL 080920Z 23010KT 9999 FEW015 10/06 Q1022 NOSIG=
201503080850 METAR EGLL 080850Z 23008KT 9999 FEW015 09/06 Q1022 NOSIG=
201503080820 METAR COR EGLL 080820Z 23008KT 9999 FEW012 08/05 Q1022 NOSIG=
201503080750 METAR EGLL 080750Z 23007KT CAVOK 08/05 Q1022 NOSIG=
201503080720 METAR COR EGLL 080720Z 22006KT 9999 FEW015 07/05 Q1022 NOSIG=
201503080650 METAR EGLL 080650Z 23009KT 9999 SCT016 08/05 Q1022 NOSIG=
201503080620 METAR COR EGLL 080620Z 25012KT 9999 BKN016 08/05 Q1022 TEMPO
                        BKN014=
201503080550 METAR COR EGLL 080550Z 25011KT 9999 BKN013 07/05 Q1022 TEMPO
                        BKN009=
201503080520 METAR COR EGLL 080520Z 26008KT 9999 BKN012 07/06 Q1021 TEMPO
                        BKN009=
201503080450 METAR EGLL 080450Z 23009KT 9999 BKN011 07/06 Q1021 TEMPO
                        BKN009=
201503080420 METAR COR EGLL 080420Z 23008KT 9999 BKN011 07/06 Q1021 TEMPO
                        BKN009=
201503080350 METAR EGLL 080350Z 23004KT 9000 BKN011 07/06 Q1021 TEMPO
                        BKN009=
201503080320 METAR COR EGLL 080320Z 22007KT 9000 BKN011 07/06 Q1021 TEMPO
                        BKN009=
201503080250 METAR COR EGLL 080250Z 21008KT 9000 SCT009 07/06 Q1021 TEMPO
                        BKN014=
201503080220 METAR EGLL 080220Z AUTO 20008KT 8000 NCD 07/06 Q1021=
201503080150 METAR EGLL 080150Z AUTO 20007KT 9000 NCD 07/06 Q1021=
201503080120 METAR EGLL 080120Z AUTO 21007KT 9999 NCD 07/06 Q1021=
201503080050 METAR EGLL 080050Z 21006KT CAVOK 07/06 Q1022=
201503080020 METAR COR EGLL 080020Z 20006KT CAVOK 07/06 Q1022 TEMPO BKN013=
201503072350 METAR EGLL 072350Z 20009KT CAVOK 08/06 Q1022 TEMPO BKN014=
201503072320 METAR COR EGLL 072320Z 22006KT CAVOK 08/06 Q1022 TEMPO BKN014=
201503072250 METAR EGLL 072250Z 21006KT CAVOK 07/06 Q1022 TEMPO BKN014=
201503072220 METAR COR EGLL 072220Z 22008KT CAVOK 07/06 Q1022 TEMPO BKN014=
201503072150 METAR EGLL 072150Z 23006KT CAVOK 08/06 Q1023 TEMPO BKN014=
201503072120 METAR COR EGLL 072120Z 22007KT CAVOK 08/06 Q1023 TEMPO BKN014=
201503072050 METAR COR EGLL 072050Z 23007KT CAVOK 08/06 Q1023 TEMPO BKN014=
201503072020 METAR COR EGLL 072020Z 22008KT 200V260 CAVOK 08/06 Q1023
                        BECMG BKN014=
201503071950 METAR COR EGLL 071950Z 22010KT CAVOK 08/06 Q1024 NOSIG=
201503071920 METAR COR EGLL 071920Z 23009KT CAVOK 08/06 Q1024 NOSIG=
201503071850 METAR EGLL 071850Z 22010KT CAVOK 09/06 Q1024 NOSIG=
201503071820 METAR COR EGLL 071820Z 22009KT 180V250 CAVOK 10/06 Q1024
                        NOSIG=
201503071750 METAR EGLL 071750Z 23011KT CAVOK 11/05 Q1024 NOSIG=
201503071720 METAR COR EGLL 071720Z 23011KT CAVOK 12/05 Q1024 NOSIG=
201503071650 METAR EGLL 071650Z 23012KT CAVOK 13/05 Q1023 NOSIG=
201503071620 METAR COR EGLL 071620Z 23013KT CAVOK 14/05 Q1023 NOSIG=
201503071550 METAR EGLL 071550Z 21011KT CAVOK 15/05 Q1023 NOSIG=
201503071520 METAR COR EGLL 071520Z 20012KT CAVOK 15/05 Q1023 NOSIG=
201503071450 METAR COR EGLL 071450Z 21012KT 180V250 CAVOK 16/05 Q1024
                        NOSIG=
201503071420 METAR COR EGLL 071420Z 21011KT CAVOK 15/05 Q1024 NOSIG=
201503071350 METAR EGLL 071350Z 22010KT 190V260 CAVOK 15/05 Q1024 NOSIG=
201503071320 METAR COR EGLL 071320Z 23013G23KT 190V250 CAVOK 15/05 Q1024
                        NOSIG=
201503071250 METAR EGLL 071250Z 22013G24KT CAVOK 15/05 Q1025 NOSIG=
201503071220 METAR COR EGLL 071220Z 23014KT 200V260 CAVOK 15/05 Q1025
                        NOSIG=
201503071150 METAR EGLL 071150Z 23015KT CAVOK 14/05 Q1025 NOSIG=
201503071120 METAR COR EGLL 071120Z 23014KT CAVOK 13/05 Q1025 NOSIG=
201503071050 METAR EGLL 071050Z 23015KT CAVOK 13/05 Q1025 NOSIG=
201503071020 METAR COR EGLL 071020Z 22014KT CAVOK 12/05 Q1025 NOSIG=
201503070950 METAR EGLL 070950Z 22013KT CAVOK 11/05 Q1025 NOSIG=
201503070920 METAR COR EGLL 070920Z 22015KT CAVOK 10/05 Q1025 NOSIG=
201503070850 METAR EGLL 070850Z 23011KT CAVOK 10/05 Q1026 NOSIG=
201503070820 METAR COR EGLL 070820Z 24010KT CAVOK 09/04 Q1026 NOSIG=
201503070750 METAR EGLL 070750Z 22012KT CAVOK 08/04 Q1025 NOSIG=
201503070720 METAR COR EGLL 070720Z 22013KT CAVOK 08/03 Q1025 NOSIG=
201503070650 METAR COR EGLL 070650Z 22011KT CAVOK 08/03 Q1025 NOSIG=
201503070620 METAR COR EGLL 070620Z 21010KT CAVOK 07/03 Q1026 NOSIG=
201503070550 METAR EGLL 070550Z 21007KT CAVOK 07/03 Q1026 NOSIG=
201503070520 METAR COR EGLL 070520Z 21007KT CAVOK 07/04 Q1025 NOSIG=
201503070450 METAR COR EGLL 070450Z 21008KT CAVOK 07/04 Q1025 NOSIG=
201503070420 METAR COR EGLL 070420Z 21008KT CAVOK 07/04 Q1026 NOSIG=
201503070350 METAR EGLL 070350Z 20009KT CAVOK 07/04 Q1026 NOSIG=
201503070320 METAR COR EGLL 070320Z 20009KT CAVOK 07/04 Q1026 NOSIG=
201503070250 METAR EGLL 070250Z 19009KT CAVOK 07/03 Q1027 NOSIG=
201503070220 METAR EGLL 070220Z AUTO 21007KT 9999 NCD 07/03 Q1027=
201503070150 METAR EGLL 070150Z AUTO 21009KT 9999 NCD 07/03 Q1028=
201503070120 METAR EGLL 070120Z AUTO 21008KT 9999 NCD 07/03 Q1028=
201503070050 METAR EGLL 070050Z 21009KT CAVOK 06/03 Q1028 NOSIG=
201503070020 METAR COR EGLL 070020Z 19010KT CAVOK 06/03 Q1028 NOSIG=
201503062350 METAR EGLL 062350Z 20008KT CAVOK 06/03 Q1029 NOSIG=
201503062320 METAR COR EGLL 062320Z 21006KT CAVOK 06/03 Q1030 NOSIG=
201503062250 METAR EGLL 062250Z 21006KT CAVOK 06/03 Q1030 NOSIG=
201503062220 METAR COR EGLL 062220Z 21006KT CAVOK 06/03 Q1030 NOSIG=
201503062150 METAR EGLL 062150Z 20008KT 170V230 CAVOK 06/03 Q1030 NOSIG=
201503062120 METAR COR EGLL 062120Z 21007KT CAVOK 06/03 Q1030 NOSIG=
201503062050 METAR COR EGLL 062050Z 21009KT CAVOK 06/03 Q1031 NOSIG=
201503062020 METAR COR EGLL 062020Z 22009KT CAVOK 07/03 Q1031 NOSIG=
201503061950 METAR EGLL 061950Z 21009KT CAVOK 07/03 Q1031 NOSIG=
201503061920 METAR COR EGLL 061920Z 21010KT CAVOK 08/03 Q1031 NOSIG=
201503061850 METAR EGLL 061850Z 20010KT CAVOK 08/03 Q1031 NOSIG=
201503061820 METAR COR EGLL 061820Z 21012KT CAVOK 08/03 Q1030 NOSIG=
201503061750 METAR COR EGLL 061750Z 20011KT 170V250 CAVOK 09/03 Q1030
                        NOSIG=
201503061720 METAR COR EGLL 061720Z 20011KT CAVOK 10/03 Q1030 NOSIG=
201503061650 METAR EGLL 061650Z 22011KT CAVOK 11/01 Q1030 NOSIG=
201503061620 METAR COR EGLL 061620Z 21013KT CAVOK 12/02 Q1030 NOSIG=
201503061550 METAR COR EGLL 061550Z 23013KT CAVOK 12/02 Q1031 NOSIG=
201503061520 METAR COR EGLL 061520Z 22014KT CAVOK 12/02 Q1031 NOSIG=
201503061450 METAR COR EGLL 061450Z 24014KT 200V260 CAVOK 13/03 Q1032
                        NOSIG=
201503061420 METAR COR EGLL 061420Z 22012KT CAVOK 13/04 Q1032 NOSIG=
201503061350 METAR EGLL 061350Z 21013KT 190V250 9999 FEW035 12/04 Q1032
                        NOSIG=
201503061320 METAR COR EGLL 061320Z 23013KT 9999 FEW031 12/04 Q1033 NOSIG=
201503061250 METAR EGLL 061250Z 22013KT 9999 FEW031 12/04 Q1033 NOSIG=
201503061220 METAR COR EGLL 061220Z 22013KT 170V250 9999 FEW031 11/04
                        Q1033 NOSIG=
201503061150 METAR COR EGLL 061150Z 22012KT 190V250 9999 FEW028 11/04
                        Q1034 NOSIG=
201503061120 METAR COR EGLL 061120Z 22014KT 9999 FEW028 11/03 Q1034 NOSIG=
201503061050 METAR EGLL 061050Z 22015KT 9999 FEW028 10/03 Q1035 NOSIG=
201503061020 METAR COR EGLL 061020Z 22011KT 9999 SCT028 10/03 Q1035 NOSIG=
201503060950 METAR EGLL 060950Z 23011KT 9999 BKN029 09/03 Q1036 NOSIG=
201503060920 METAR COR EGLL 060920Z 23012KT 9999 BKN028 07/03 Q1036 NOSIG=
201503060850 METAR EGLL 060850Z 23011KT 9999 BKN030 07/02 Q1037 NOSIG=
201503060820 METAR COR EGLL 060820Z 23010KT 9999 BKN030 06/02 Q1037 NOSIG=
201503060750 METAR EGLL 060750Z 23009KT 9999 BKN030 05/02 Q1036 NOSIG=
201503060720 METAR COR EGLL 060720Z 22009KT 9999 SCT030 05/02 Q1036 NOSIG=
201503060650 METAR EGLL 060650Z 21006KT 160V260 9999 FEW031 05/02 Q1036
                        NOSIG=
201503060620 METAR COR EGLL 060620Z 21006KT CAVOK 05/02 Q1036 NOSIG=
201503060550 METAR COR EGLL 060550Z 24007KT 9999 FEW030 06/01 Q1036 NOSIG=
201503060520 METAR COR EGLL 060520Z 22006KT 9999 SCT030 07/02 Q1036 NOSIG=
201503060450 METAR COR EGLL 060450Z 22006KT 9999 OVC031 07/02 Q1036 NOSIG=
201503060420 METAR COR EGLL 060420Z 25007KT 9999 OVC032 07/02 Q1036 NOSIG=
201503060350 METAR COR EGLL 060350Z 24007KT 9999 OVC032 08/02 Q1036 NOSIG=
201503060320 METAR COR EGLL 060320Z 24007KT 9999 OVC031 08/02 Q1036 NOSIG=
201503060250 METAR EGLL 060250Z 26010KT 9999 OVC031 08/02 Q1037 NOSIG=
201503060220 METAR EGLL 060220Z AUTO 26008KT 9999 OVC031 08/02 Q1037=
201503060150 METAR EGLL 060150Z AUTO 25008KT 9999 OVC031 08/02 Q1037=
201503060120 METAR EGLL 060120Z AUTO 26007KT 9999 OVC031 08/02 Q1037=
201503060050 METAR COR EGLL 060050Z 27010KT 9999 BKN030 07/02 Q1037 NOSIG=
201503060020 METAR COR EGLL 060020Z 27008KT 9999 BKN031 08/02 Q1037 NOSIG=
201503052350 METAR COR EGLL 052350Z 27011KT 9999 BKN031 08/02 Q1037 NOSIG=
201503052320 METAR COR EGLL 052320Z 27009KT 9999 BKN031 08/02 Q1037 NOSIG=
201503052250 METAR COR EGLL 052250Z 27009KT 9999 BKN030 08/02 Q1037 NOSIG=
201503052220 METAR COR EGLL 052220Z 27011KT 9999 BKN030 08/02 Q1038 NOSIG=
201503052150 METAR EGLL 052150Z 28011KT 9999 BKN032 08/02 Q1038 NOSIG=
201503052120 METAR COR EGLL 052120Z 27010KT 9999 BKN033 08/02 Q1037 NOSIG=
201503052050 METAR COR EGLL 052050Z 27011KT 9999 BKN033 08/02 Q1037 NOSIG=
201503052020 METAR COR EGLL 052020Z 26010KT 9999 BKN036 09/02 Q1037 NOSIG=
201503051950 METAR EGLL 051950Z 27010KT 9999 BKN036 09/02 Q1038 NOSIG=
201503051920 METAR COR EGLL 051920Z 27009KT 9999 BKN039 08/02 Q1038 NOSIG=
201503051850 METAR EGLL 051850Z 28009KT 9999 BKN041 09/02 Q1038 NOSIG=
201503051820 METAR COR EGLL 051820Z 28008KT 9999 BKN043 09/02 Q1038 NOSIG=
201503051750 METAR EGLL 051750Z 27011KT 9999 BKN041 10/02 Q1037 NOSIG=
201503051720 METAR COR EGLL 051720Z 27010KT 9999 BKN043 10/01 Q1037 NOSIG=
201503051650 METAR COR EGLL 051650Z 27012KT 9999 SCT041 10/02 Q1037 NOSIG=
201503051620 METAR COR EGLL 051620Z 28012KT 9999 SCT043 10/02 Q1038 NOSIG=
201503051550 METAR EGLL 051550Z 28013KT 9999 BKN046 10/03 Q1038 NOSIG=
201503051520 METAR COR EGLL 051520Z 28013KT 9999 BKN040 11/03 Q1038 NOSIG=
201503051450 METAR COR EGLL 051450Z 28012KT 9999 BKN037 11/02 Q1038 NOSIG=
201503051420 METAR COR EGLL 051420Z 27012KT 230V310 9999 SCT039 11/03
                        Q1038 NOSIG=
201503051350 METAR EGLL 051350Z 27010G20KT 240V320 9999 SCT040 12/03 Q1038
                        NOSIG=
201503051320 METAR COR EGLL 051320Z 27010KT 9999 SCT041 10/04 Q1038 NOSIG=
201503051250 METAR COR EGLL 051250Z 27011KT 9999 FEW032 11/04 Q1038 NOSIG=
201503051220 METAR COR EGLL 051220Z 27010KT 9999 FEW024 10/04 Q1039 NOSIG=
201503051150 METAR COR EGLL 051150Z 28010KT 9999 FEW024 10/04 Q1039 NOSIG=
201503051120 METAR COR EGLL 051120Z 28008KT 240V310 9999 FEW020 09/04
                        Q1039 NOSIG=
201503051050 METAR COR EGLL 051050Z 27009KT CAVOK 08/03 Q1040 NOSIG=
201503051020 METAR COR EGLL 051020Z 27009KT CAVOK 07/03 Q1040 NOSIG=
201503050950 METAR EGLL 050950Z 26010KT CAVOK 06/03 Q1040 NOSIG=
201503050920 METAR COR EGLL 050920Z 27007KT CAVOK 05/01 Q1040 NOSIG=
201503050850 METAR COR EGLL 050850Z 27005KT CAVOK 04/00 Q1040 NOSIG=
201503050820 METAR COR EGLL 050820Z 28004KT CAVOK 03/M00 Q1040 NOSIG=
201503050750 METAR COR EGLL 050750Z 28004KT CAVOK 02/M00 Q1040 NOSIG=
201503050720 METAR COR EGLL 050720Z 28004KT CAVOK 01/M01 Q1040 NOSIG=
201503050650 METAR EGLL 050650Z 24004KT 190V280 CAVOK 00/M02 Q1040 NOSIG=
201503050620 METAR COR EGLL 050620Z 20004KT 150V260 CAVOK 00/M01 Q1040
                        NOSIG=
201503050550 METAR EGLL 050550Z 20004KT CAVOK 00/M01 Q1040 NOSIG=
201503050520 METAR COR EGLL 050520Z 20004KT CAVOK 00/M01 Q1040 NOSIG=
201503050450 METAR COR EGLL 050450Z VRB03KT CAVOK 00/M01 Q1040 NOSIG=
201503050420 METAR COR EGLL 050420Z VRB02KT CAVOK 01/M01 Q1040 NOSIG=
201503050350 METAR COR EGLL 050350Z 26003KT CAVOK 01/M01 Q1039 NOSIG=
201503050320 METAR COR EGLL 050320Z 27003KT CAVOK 00/M01 Q1040 NOSIG=
201503050250 METAR EGLL 050250Z 28004KT CAVOK 00/M01 Q1040 NOSIG=
201503050220 METAR EGLL 050220Z AUTO 27004KT 9999 NCD 01/M01 Q1040=
201503050150 METAR EGLL 050150Z AUTO 27005KT 9999 NCD 01/M01 Q1039=
201503050120 METAR EGLL 050120Z AUTO 26004KT 9999 NCD 02/M00 Q1039=
201503050050 METAR EGLL 050050Z VRB02KT CAVOK 02/M01 Q1039 NOSIG=
201503050020 METAR COR EGLL 050020Z 29005KT CAVOK 02/M00 Q1039 NOSIG=
201503042350 METAR COR EGLL 042350Z 27005KT CAVOK 02/M01 Q1039 NOSIG=
201503042320 METAR COR EGLL 042320Z 28006KT CAVOK 02/M00 Q1038 NOSIG=
201503042250 METAR EGLL 042250Z 27005KT CAVOK 04/M00 Q1039 NOSIG=
201503042220 METAR COR EGLL 042220Z 29004KT CAVOK 05/00 Q1038 NOSIG=
201503042150 METAR COR EGLL 042150Z 30004KT CAVOK 06/M00 Q1038 NOSIG=
201503042120 METAR EGLL 042120Z 29003KT CAVOK 06/M00 Q1037=
201503042050 METAR EGLL 042050Z 30003KT CAVOK 07/M00 Q1037 NOSIG=
201503042020 METAR COR EGLL 042020Z 29004KT CAVOK 07/M00 Q1037 NOSIG=
201503041950 METAR EGLL 041950Z 29004KT CAVOK 08/00 Q1037 NOSIG=
201503041920 METAR COR EGLL 041920Z 31004KT 9999 FEW047 08/M00 Q1036 NOSIG=
201503041850 METAR EGLL 041850Z 31005KT 9999 FEW049 09/M00 Q1035 NOSIG=
201503041820 METAR COR EGLL 041820Z 30004KT 9999 FEW049 09/M00 Q1035 NOSIG=
201503041750 METAR EGLL 041750Z 29004KT 9999 FEW049 09/M00 Q1034 NOSIG=
201503041720 METAR COR EGLL 041720Z 31009KT 9999 FEW049 09/M01 Q1034 NOSIG=
201503041650 METAR EGLL 041650Z 31011KT 9999 FEW049 09/M01 Q1033 NOSIG=
201503041620 METAR COR EGLL 041620Z 31011KT 290V350 9999 FEW049 10/M01
                        Q1033 NOSIG=
201503041550 METAR EGLL 041550Z 31011KT 280V350 9999 SCT048 10/M01 Q1032
                        NOSIG=
201503041520 METAR COR EGLL 041520Z 31013KT 9999 SCT044 10/M01 Q1032 NOSIG=
201503041450 METAR COR EGLL 041450Z 31010KT 280V340 9999 SCT043 09/00
                        Q1031 NOSIG=
201503041420 METAR COR EGLL 041420Z 30011KT 270V340 9999 SCT045 10/00
                        Q1031 NOSIG=
201503041350 METAR EGLL 041350Z 32009KT 300V360 9999 FEW041 SCT048 09/M00
                        Q1031 NOSIG=
201503041320 METAR COR EGLL 041320Z 31012KT 280V350 9999 FEW040 SCT048
                        10/00 Q1030 NOSIG=
201503041250 METAR COR EGLL 041250Z 30014KT 280V340 9999 FEW040 SCT047
                        10/00 Q1030 NOSIG=
201503041220 METAR COR EGLL 041220Z 31009KT 280V340 9999 SCT042 09/00
                        Q1030 NOSIG=
201503041150 METAR COR EGLL 041150Z 31009KT 9999 SCT035 SCT043 08/01 Q1030
                        NOSIG=
201503041120 METAR COR EGLL 041120Z 30010KT 9999 FEW033 SCT038 08/01 Q1029
                        NOSIG=
201503041050 METAR COR EGLL 041050Z 29011KT 9999 FEW030 SCT035 08/01 Q1029
                        NOSIG=
201503041020 METAR COR EGLL 041020Z 29013KT 9999 FEW032 07/01 Q1029 NOSIG=
201503040950 METAR COR EGLL 040950Z 30012KT 9999 FEW033 07/00 Q1028 NOSIG=
201503040920 METAR COR EGLL 040920Z 29012KT 9999 FEW020 06/01 Q1028 NOSIG=
201503040850 METAR EGLL 040850Z 28011KT CAVOK 05/01 Q1027 NOSIG=
201503040820 METAR COR EGLL 040820Z 27015KT CAVOK 04/00 Q1027 NOSIG=
201503040750 METAR COR EGLL 040750Z 26013KT CAVOK 03/00 Q1026 NOSIG=
201503040720 METAR COR EGLL 040720Z 26011KT CAVOK 03/00 Q1026 NOSIG=
201503040650 METAR EGLL 040650Z 27011KT CAVOK 03/00 Q1025 NOSIG=
201503040620 METAR COR EGLL 040620Z 27009KT CAVOK 03/01 Q1025 NOSIG=
201503040550 METAR EGLL 040550Z 27010KT CAVOK 03/01 Q1025 NOSIG=
201503040520 METAR COR EGLL 040520Z 26010KT CAVOK 03/01 Q1024 NOSIG=
201503040450 METAR EGLL 040450Z 27007KT CAVOK 03/00 Q1024 NOSIG=
201503040420 METAR COR EGLL 040420Z 26009KT CAVOK 03/00 Q1023 NOSIG=
201503040350 METAR COR EGLL 040350Z 26011KT CAVOK 03/00 Q1023 NOSIG=
201503040320 METAR COR EGLL 040320Z 26013KT CAVOK 03/00 Q1023 NOSIG=
201503040250 METAR EGLL 040250Z 26012KT CAVOK 03/01 Q1022 NOSIG=
201503040220 METAR EGLL 040220Z AUTO 27010KT 9999 NCD 03/01 Q1022=
201503040150 METAR EGLL 040150Z AUTO 25010KT 9999 NCD 03/00 Q1022=
201503040120 METAR EGLL 040120Z AUTO 26010KT 9999 NCD 03/00 Q1022=
201503040050 METAR COR EGLL 040050Z 25011KT CAVOK 03/M00 Q1022 NOSIG=
201503040020 METAR COR EGLL 040020Z 26012KT CAVOK 04/M00 Q1022 NOSIG=
201503032350 METAR COR EGLL 032350Z 25012KT CAVOK 04/M00 Q1021 NOSIG=
201503032320 METAR COR EGLL 032320Z 25010KT CAVOK 04/M01 Q1021 NOSIG=
201503032250 METAR COR EGLL 032250Z 24010KT CAVOK 04/M01 Q1021 NOSIG=
201503032220 METAR COR EGLL 032220Z 25010KT CAVOK 04/M01 Q1021 NOSIG=
201503032150 METAR EGLL 032150Z 24013KT CAVOK 05/M01 Q1021=
201503032120 METAR COR EGLL 032120Z 24013KT CAVOK 05/M01 Q1020 NOSIG=
201503032050 METAR EGLL 032050Z 25012KT CAVOK 05/M01 Q1020 NOSIG=
201503032020 METAR COR EGLL 032020Z 25012KT CAVOK 05/M01 Q1020 NOSIG=
201503031950 METAR EGLL 031950Z 25014KT CAVOK 05/M01 Q1019 NOSIG=
201503031920 METAR COR EGLL 031920Z 25014KT CAVOK 06/M01 Q1019 NOSIG=
201503031850 METAR EGLL 031850Z 25013KT CAVOK 06/M02 Q1019 NOSIG=
201503031820 METAR COR EGLL 031820Z 26013KT CAVOK 06/M02 Q1018 NOSIG=
201503031750 METAR EGLL 031750Z 27014KT CAVOK 06/M02 Q1018 NOSIG=
201503031720 METAR COR EGLL 031720Z 27017KT 9999 FEW044 07/M02 Q1017 NOSIG=
201503031650 METAR EGLL 031650Z 26016KT 9999 FEW044 07/M02 Q1017 NOSIG=
201503031620 METAR COR EGLL 031620Z 27017KT 9999 FEW044 08/M01 Q1017 NOSIG=
201503031550 METAR EGLL 031550Z 27018KT 9999 FEW049 08/M02 Q1016 NOSIG=
201503031520 METAR COR EGLL 031520Z 28018KT 9999 FEW049 09/M02 Q1016 NOSIG=
201503031450 METAR EGLL 031450Z 27018KT 9999 FEW046 09/M02 Q1016 NOSIG=
201503031420 METAR COR EGLL 031420Z 27017KT 9999 FEW046 09/M01 Q1016 NOSIG=
201503031350 METAR COR EGLL 031350Z 27020KT 9999 FEW042 09/M02 Q1015 TEMPO
                        SHRA=
201503031320 METAR COR EGLL 031320Z 27016KT 9999 SCT041 08/M00 Q1015 NOSIG=
201503031250 METAR COR EGLL 031250Z 28013KT 9999 SCT037 SCT046 08/01 Q1015
                        NOSIG=
201503031220 METAR COR EGLL 031220Z 27014KT 9999 SCT038 08/00 Q1015 NOSIG=
201503031150 METAR COR EGLL 031150Z 27014KT 9999 SCT038 09/00 Q1015 NOSIG=
201503031120 METAR COR EGLL 031120Z 27015KT 9999 SCT035 08/M00 Q1015 NOSIG=
201503031050 METAR EGLL 031050Z 28015KT 9999 FEW032 07/00 Q1015 NOSIG=
201503031020 METAR COR EGLL 031020Z 27016KT 9999 FEW024 08/02 Q1014 NOSIG=
201503030950 METAR EGLL 030950Z 26010KT 9999 FEW021 07/03 Q1014 NOSIG=
201503030920 METAR COR EGLL 030920Z 26011KT 9999 FEW012 FEW018TCU 06/03
                        Q1014 NOSIG=
201503030850 METAR COR EGLL 030850Z 29010KT 9999 VCSH FEW011 SCT017 BKN019
                        06/03 Q1014 NOSIG=
201503030820 METAR COR EGLL 030820Z 23008KT 9999 VCSH FEW027 SCT032 05/03
                        Q1013 NOSIG=
201503030750 METAR EGLL 030750Z 22008KT 9999 FEW031 SCT046 05/03 Q1013
                        NOSIG=
201503030720 METAR COR EGLL 030720Z 22009KT 9999 FEW021 SCT046 04/03 Q1013
                        NOSIG=
201503030650 METAR COR EGLL 030650Z 21010KT CAVOK 04/03 Q1012 TEMPO 27013KT
                        SHRA=
201503030620 METAR COR EGLL 030620Z 20009KT 9999 FEW032 04/02 Q1012 TEMPO
                        26012KT SHRA=
201503030550 METAR COR EGLL 030550Z 19007KT 9999 FEW032 04/02 Q1013 TEMPO
                        25012KT SHRA=
201503030520 METAR COR EGLL 030520Z 19007KT CAVOK 04/02 Q1013 TEMPO 25012KT
                        SHRA=
201503030450 METAR EGLL 030450Z AUTO 18008KT 9999 FEW045 04/01 Q1013=
201503030420 METAR COR EGLL 030420Z 18007KT 9999 FEW030 04/01 Q1014 TEMPO
                        SHRA=
201503030350 METAR COR EGLL 030350Z 19007KT 9999 SCT030 04/01 Q1014 TEMPO
                        SHRA=
201503030320 METAR COR EGLL 030320Z 21007KT 9999 FEW040 04/01 Q1014 NOSIG=
201503030250 METAR EGLL 030250Z 21006KT CAVOK 03/01 Q1015 NOSIG=
201503030220 METAR EGLL 030220Z AUTO 20003KT 9999 NCD 03/00 Q1015=
201503030150 METAR EGLL 030150Z AUTO 21005KT 9999 BKN049 03/00 Q1015=
201503030120 METAR EGLL 030120Z AUTO 20005KT 9999 SCT037 03/00 Q1016=
201503030050 METAR COR EGLL 030050Z 23008KT CAVOK 04/00 Q1016 NOSIG=
201503030020 METAR COR EGLL 030020Z 24009KT CAVOK 04/00 Q1016 NOSIG=
201503022350 METAR EGLL 022350Z 23008KT CAVOK 04/M00 Q1016 NOSIG=
201503022320 METAR COR EGLL 022320Z 24011KT CAVOK 04/M00 Q1015 NOSIG=
201503022250 METAR EGLL 022250Z 24012KT CAVOK 05/M00 Q1015 NOSIG=
201503022220 METAR COR EGLL 022220Z 24012KT CAVOK 05/00 Q1015 NOSIG=
201503022150 METAR EGLL 022150Z 24013KT CAVOK 04/M00 Q1015 NOSIG=
201503022120 METAR COR EGLL 022120Z 23012KT CAVOK 05/M00 Q1015 NOSIG=
201503022050 METAR EGLL 022050Z 25013KT CAVOK 05/M00 Q1015 NOSIG=
201503022020 METAR COR EGLL 022020Z 24014KT CAVOK 05/M00 Q1014 NOSIG=
201503021950 METAR EGLL 021950Z 24013KT CAVOK 05/M00 Q1014 NOSIG=
201503021920 METAR COR EGLL 021920Z 24013KT CAVOK 05/M00 Q1014 NOSIG=
201503021850 METAR COR EGLL 021850Z 24012KT CAVOK 05/M01 Q1013 NOSIG=
201503021820 METAR COR EGLL 021820Z 25015KT CAVOK 06/M03 Q1013 NOSIG=
201503021750 METAR EGLL 021750Z 25014KT 9999 FEW048 07/M05 Q1013 NOSIG=
201503021720 METAR COR EGLL 021720Z 25015G28KT 9999 FEW048 07/M06 Q1012
                        NOSIG=
201503021650 METAR EGLL 021650Z 27015KT 9999 FEW048 08/M04 Q1012 NOSIG=
201503021620 METAR COR EGLL 021620Z 27015KT 9999 FEW048 08/M03 Q1012 NOSIG=
201503021550 METAR EGLL 021550Z 27015KT 9999 FEW048 08/M04 Q1011 NOSIG=
201503021520 METAR COR EGLL 021520Z 27019KT 9999 FEW048 07/M05 Q1011 NOSIG=
201503021450 METAR COR EGLL 021450Z 27022KT 9999 FEW048 08/M04 Q1011 NOSIG=
201503021420 METAR COR EGLL 021420Z 27022G32KT 9999 FEW048 08/M04 Q1010
                        NOSIG=
201503021350 METAR COR EGLL 021350Z 27021KT 9999 FEW048 08/M02 Q1010 NOSIG=
201503021320 METAR COR EGLL 021320Z 27022G34KT 9999 FEW048 08/M03 Q1009
                        NOSIG=
201503021250 METAR EGLL 021250Z 28021KT 9999 FEW047 08/M03 Q1009 NOSIG=
201503021220 METAR COR EGLL 021220Z 28023KT 9999 FEW046 08/M02 Q1008 NOSIG=
201503021150 METAR COR EGLL 021150Z 28025G35KT 9999 FEW048 07/M03 Q1008
                        NOSIG=
201503021120 METAR COR EGLL 021120Z 27025G35KT 9999 FEW045 07/M02 Q1007
                        NOSIG=
201503021050 METAR COR EGLL 021050Z 27021G31KT 9999 FEW032 SCT044 07/M00
                        Q1007 NOSIG=
201503021020 METAR COR EGLL 021020Z 26019KT 9999 FEW027 06/00 Q1006 NOSIG=
201503020950 METAR EGLL 020950Z 27021KT 9999 FEW024 06/01 Q1006 NOSIG=
201503020920 METAR COR EGLL 020920Z 27018KT 9999 FEW021 05/01 Q1006 NOSIG=
201503020850 METAR EGLL 020850Z 27017KT 9999 FEW017 05/02 Q1005 NOSIG=
201503020820 METAR COR EGLL 020820Z 26016KT 9999 FEW022 05/01 Q1005 TEMPO
                        SHRAGS BKN013CB=
201503020750 METAR EGLL 020750Z 25013KT 9999 FEW022 05/01 Q1004 TEMPO
                        SHRAGS BKN013CB=
201503020720 METAR COR EGLL 020720Z 25011KT 9999 FEW020 04/01 Q1004 TEMPO
                        SHRAGS BKN013CB=
201503020650 METAR EGLL 020650Z 26012KT CAVOK 04/01 Q1003 TEMPO SHRAGS
                        BKN013CB=
201503020620 METAR COR EGLL 020620Z 24013KT CAVOK 04/01 Q1003 TEMPO SHRA
                        BKN014=
201503020550 METAR COR EGLL 020550Z 25013KT CAVOK 04/01 Q1003 TEMPO SHRAGS
                        BKN014CB=
201503020520 METAR COR EGLL 020520Z 24010KT CAVOK 03/01 Q1003 TEMPO SHRAGS
                        BKN011CB=
201503020450 METAR COR EGLL 020450Z 24011KT CAVOK 03/01 Q1003 NOSIG=
201503020420 METAR COR EGLL 020420Z 24012KT CAVOK 03/01 Q1003 NOSIG=
201503020350 METAR EGLL 020350Z 24012KT CAVOK 03/01 Q1002 NOSIG=
201503020320 METAR COR EGLL 020320Z 24009KT CAVOK 03/01 Q1003 NOSIG=
201503020250 METAR EGLL 020250Z 26010KT CAVOK 03/01 Q1002 NOSIG=
201503020220 METAR COR EGLL 020220Z 25010KT CAVOK 03/01 Q1002 NOSIG=
201503020150 METAR EGLL 020150Z 25012KT CAVOK 04/01 Q1002 NOSIG=
201503020120 METAR COR EGLL 020120Z 25013KT CAVOK 04/01 Q1002 NOSIG=
201503020050 METAR COR EGLL 020050Z 24011KT CAVOK 04/01 Q1002 NOSIG=
201503020020 METAR COR EGLL 020020Z 24009KT CAVOK 04/01 Q1001 NOSIG=
201503012350 METAR COR EGLL 012350Z 26010KT CAVOK 05/01 Q1001 NOSIG=
201503012320 METAR COR EGLL 012320Z 26010KT CAVOK 05/02 Q1001 NOSIG=
201503012250 METAR EGLL 012250Z 27015KT CAVOK 05/02 Q1000 NOSIG=
201503012220 METAR COR EGLL 012220Z 27015KT CAVOK 05/02 Q1000 NOSIG=
201503012150 METAR EGLL 012150Z 27015KT CAVOK 06/02 Q1000 NOSIG=
201503012120 METAR COR EGLL 012120Z 27016KT CAVOK 06/03 Q0999 NOSIG=
201503012050 METAR COR EGLL 012050Z 26016KT 9999 FEW032 07/03 Q0999 NOSIG=
201503012020 METAR COR EGLL 012020Z 26017KT 9999 FEW035 07/03 Q0999 NOSIG=
201503011950 METAR COR EGLL 011950Z 26019KT CAVOK 07/03 Q0998 NOSIG=
201503011920 METAR COR EGLL 011920Z 25017KT CAVOK 06/03 Q0998 NOSIG=
201503011850 METAR EGLL 011850Z 24014KT CAVOK 06/03 Q0997 NOSIG=
201503011820 METAR COR EGLL 011820Z 24013KT 9999 FEW012 06/04 Q0997 NOSIG=
201503011750 METAR COR EGLL 011750Z 23012KT 9999 SCT016 BKN020 07/04 Q0997
                        RERA TEMPO 25020G30KT=
201503011720 METAR COR EGLL 011720Z 26021G36KT 9999 7000E R27L/1100 RA
                        VCTS SCT012CB BKN035 08/05 Q0998
                        BECMG 29018KT NSW=
201503011650 METAR EGLL 011650Z 22015KT 9999 SCT030 SCT035 10/04 Q0997
                        TEMPO 25024G36KT 4000 +SHRAGS=
201503011620 METAR COR EGLL 011620Z 22018KT 9999 FEW042 10/03 Q0998 TEMPO
                        25024G36KT 4000 +SHRAGS=
201503011550 METAR COR EGLL 011550Z 22020KT 9999 FEW037 11/02 Q0999 TEMPO
                        RA=
201503011520 METAR COR EGLL 011520Z 22018KT 9999 FEW036 11/02 Q0999 NOSIG=
201503011450 METAR COR EGLL 011450Z 23015KT 200V260 9999 FEW044 11/01
                        Q1000 NOSIG=
201503011420 METAR COR EGLL 011420Z 25013KT 9999 FEW041 11/01 Q1001 NOSIG=
201503011350 METAR COR EGLL 011350Z 24016KT 9999 FEW040 11/01 Q1001 NOSIG=
201503011320 METAR COR EGLL 011320Z 25015KT 9999 FEW040 11/02 Q1002 NOSIG=
201503011250 METAR COR EGLL 011250Z 26017KT 9999 FEW043 10/02 Q1002 NOSIG=
201503011220 METAR COR EGLL 011220Z 26016KT 9999 FEW035 10/02 Q1003 NOSIG=
201503011150 METAR EGLL 011150Z 26018KT 9999 -SHRA FEW027 SCT037 10/02
                        Q1003 NOSIG=
201503011120 METAR COR EGLL 011120Z 26021KT 9999 FEW036 SCT044 09/01 Q1003
                        NOSIG=
201503011050 METAR COR EGLL 011050Z 26018G28KT 9999 SCT033 SCT040 10/02
                        Q1003 NOSIG=
201503011020 METAR COR EGLL 011020Z 25017KT 9999 FEW032 09/02 Q1002 NOSIG=
201503010950 METAR EGLL 010950Z 25018KT 9999 FEW026 09/03 Q1002 NOSIG=
201503010920 METAR COR EGLL 010920Z 25016KT 9999 FEW028 08/03 Q1002 NOSIG=
201503010850 METAR EGLL 010850Z 25014KT 9999 FEW030 08/03 Q1002 NOSIG=
201503010820 METAR COR EGLL 010820Z 25014KT 9999 FEW015 SCT033 08/03 Q1001
                        NOSIG=
201503010750 METAR EGLL 010750Z 25014G24KT 9999 FEW032 08/03 Q1001 NOSIG=
201503010720 METAR COR EGLL 010720Z 24012KT 9999 FEW031 07/03 Q1001 NOSIG=
201503010650 METAR EGLL 010650Z 25014KT 9999 FEW031 07/03 Q1000 NOSIG=
201503010620 METAR COR EGLL 010620Z 25017KT 9999 FEW033 07/03 Q1000 NOSIG=
201503010550 METAR COR EGLL 010550Z 25016KT 9999 SCT035 08/03 Q1000 NOSIG=
201503010520 METAR COR EGLL 010520Z 26017KT CAVOK 08/03 Q0999 NOSIG=
201503010450 METAR COR EGLL 010450Z 26017KT CAVOK 08/03 Q0999 NOSIG=
201503010420 METAR EGLL 010420Z 27017KT CAVOK 08/03 Q0999=
201503010350 METAR COR EGLL 010350Z 26017KT 9999 FEW029 08/04 Q0998 TEMPO
                        -SHRA BKN014=
201503010320 METAR COR EGLL 010320Z 27020KT 9999 FEW029 09/04 Q0998 TEMPO
                        -SHRA BKN014=
201503010250 METAR COR EGLL 010250Z 25017KT 9999 SCT033 09/05 Q0998 NOSIG=
201503010220 METAR COR EGLL 010220Z 27019KT 9999 FEW030 SCT046 09/05 Q0998
                        NOSIG=
201503010150 METAR COR EGLL 010150Z 26020KT 9999 SCT030 SCT043 10/05 Q0998
                        NOSIG=
201503010120 METAR COR EGLL 010120Z 26016KT 9999 SCT030 BKN037 11/06 Q0997
                        NOSIG=
201503010050 METAR COR EGLL 010050Z 26015KT 9999 SCT030 BKN034 11/07 Q0997
                        NOSIG=
201503010020 METAR COR EGLL 010020Z 25014KT 9999 SCT020 BKN028 11/09 Q0996
                        NOSIG=

</pre>

</body>
</html>
