##########################################################
# Query made at 12/31/2014 10:39:47 UTC
# Time interval: from 03/01/2014 00:00  to 03/31/2014 23:59  UTC
##########################################################

##########################################################
# EGLL, London / Heathrow Airport (United Kingdom)
# WMO index: 03772
# Latitude 51-29N. Longitude 000-27W. Altitude 24 m.
##########################################################

###################################
#  METAR/SPECI from EGLL
###################################
201403312350 METAR COR EGLL 312350Z VRB02KT 9000 -RA SCT035 11/09 Q1012
                        RERA NOSIG=
201403312320 METAR COR EGLL 312320Z 23009KT 6000 RA BKN032 12/09 Q1012
                        BECMG NSW=
201403312250 METAR COR EGLL 312250Z 09002KT CAVOK 12/08 Q1011 NOSIG=
201403312220 METAR COR EGLL 312220Z 11003KT CAVOK 13/08 Q1011 NOSIG=
201403312150 METAR COR EGLL 312150Z 14005KT CAVOK 13/08 Q1012 NOSIG=
201403312120 METAR COR EGLL 312120Z 15006KT 110V190 9999 -RA NSC 13/08
                        Q1012 NOSIG=
201403312050 METAR COR EGLL 312050Z 15004KT 040V190 CAVOK 14/08 Q1012
                        NOSIG=
201403312020 METAR COR EGLL 312020Z 15005KT 110V220 CAVOK 13/08 Q1012
                        NOSIG=
201403311950 METAR COR EGLL 311950Z 15005KT 120V180 CAVOK 14/08 Q1012
                        NOSIG=
201403311920 METAR COR EGLL 311920Z 16004KT 140V220 CAVOK 14/07 Q1012
                        TEMPO SHRA=
201403311850 METAR COR EGLL 311850Z VRB05G15KT CAVOK 15/07 Q1012 TEMPO
                        SHRA=
201403311820 METAR COR EGLL 311820Z VRB05KT CAVOK 15/07 Q1011 TEMPO SHRA=
201403311750 METAR COR EGLL 311750Z 17006KT 110V210 CAVOK 16/07 Q1011
                        NOSIG=
201403311720 METAR COR EGLL 311720Z 15007KT 110V190 CAVOK 16/07 Q1011
                        NOSIG=
201403311650 METAR COR EGLL 311650Z 15007KT 120V210 CAVOK 16/08 Q1011
                        NOSIG=
201403311620 METAR COR EGLL 311620Z 15008KT 120V200 CAVOK 16/07 Q1011
                        NOSIG=
201403311550 METAR COR EGLL 311550Z 15009KT 110V180 CAVOK 17/07 Q1011
                        NOSIG=
201403311520 METAR COR EGLL 311520Z 14008KT 110V180 CAVOK 17/07 Q1012
                        NOSIG=
201403311450 METAR COR EGLL 311450Z 14007KT 110V230 CAVOK 17/08 Q1012
                        NOSIG=
201403311420 METAR COR EGLL 311420Z 17005KT CAVOK 16/08 Q1012 NOSIG=
201403311350 METAR COR EGLL 311350Z 19007KT CAVOK 16/08 Q1012 NOSIG=
201403311320 METAR COR EGLL 311320Z 18008KT CAVOK 16/08 Q1012 NOSIG=
201403311250 METAR COR EGLL 311250Z 17010KT CAVOK 16/08 Q1013 NOSIG=
201403311220 METAR COR EGLL 311220Z 15009KT CAVOK 16/08 Q1013 NOSIG=
201403311150 METAR COR EGLL 311150Z 16011KT CAVOK 17/09 Q1013 NOSIG=
201403311120 METAR COR EGLL 311120Z 17009KT CAVOK 16/09 Q1013 NOSIG=
201403311050 METAR COR EGLL 311050Z 14007KT CAVOK 16/08 Q1014 NOSIG=
201403311020 METAR COR EGLL 311020Z 14007KT CAVOK 15/09 Q1014 NOSIG=
201403310950 METAR COR EGLL 310950Z 13004KT CAVOK 15/09 Q1014 NOSIG=
201403310920 METAR COR EGLL 310920Z 13005KT 090V160 CAVOK 14/08 Q1014
                        NOSIG=
201403310850 METAR COR EGLL 310850Z 15005KT CAVOK 13/08 Q1014 NOSIG=
201403310820 METAR COR EGLL 310820Z 14006KT CAVOK 13/08 Q1013 NOSIG=
201403310750 METAR COR EGLL 310750Z 14005KT CAVOK 12/08 Q1013 NOSIG=
201403310720 METAR COR EGLL 310720Z 10003KT CAVOK 11/08 Q1013 NOSIG=
201403310650 METAR COR EGLL 310650Z 09003KT CAVOK 11/07 Q1013 NOSIG=
201403310620 METAR COR EGLL 310620Z 10004KT CAVOK 10/07 Q1013 NOSIG=
201403310550 METAR COR EGLL 310550Z 12004KT CAVOK 11/07 Q1013 NOSIG=
201403310520 METAR COR EGLL 310520Z 13005KT CAVOK 10/07 Q1013 NOSIG=
201403310450 METAR COR EGLL 310450Z 12004KT CAVOK 11/07 Q1012 NOSIG=
201403310420 METAR COR EGLL 310420Z 15003KT CAVOK 12/07 Q1012 NOSIG=
201403310350 METAR COR EGLL 310350Z 14003KT CAVOK 12/07 Q1012 NOSIG=
201403310320 METAR COR EGLL 310320Z 17003KT CAVOK 12/07 Q1012 NOSIG=
201403310250 METAR COR EGLL 310250Z 14004KT CAVOK 12/07 Q1013 NOSIG=
201403310220 METAR COR EGLL 310220Z 14003KT CAVOK 13/07 Q1013 NOSIG=
201403310150 METAR COR EGLL 310150Z 14006KT CAVOK 13/07 Q1013 NOSIG=
201403310120 METAR EGLL 310120Z AUTO 11006KT 9999 -DZ NCD 12/07 Q1013=
201403310050 METAR EGLL 310050Z AUTO 12005KT 9999 NCD 13/07 Q1013=
201403310020 METAR COR EGLL 310020Z AUTO 13007KT 9999 -DZ NCD 13/07 Q1013
                        NOSIG=
201403302350 METAR COR EGLL 302350Z 13006KT 9999 -RA NSC 14/06 Q1013 NOSIG=
201403302320 METAR COR EGLL 302320Z 14006KT CAVOK 14/06 Q1013 NOSIG=
201403302250 METAR COR EGLL 302250Z 13007KT CAVOK 13/06 Q1013 NOSIG=
201403302220 METAR COR EGLL 302220Z 13007KT CAVOK 14/06 Q1013 NOSIG=
201403302150 METAR COR EGLL 302150Z 13007KT CAVOK 13/06 Q1013 NOSIG=
201403302120 METAR COR EGLL 302120Z 13006KT CAVOK 13/06 Q1013 NOSIG=
201403302050 METAR COR EGLL 302050Z 13006KT CAVOK 13/05 Q1013 NOSIG=
201403302020 METAR COR EGLL 302020Z 14006KT CAVOK 14/05 Q1013 NOSIG=
201403301950 METAR EGLL 301950Z AUTO 12006KT 9999 NCD 15/05 Q1013=
201403301920 METAR COR EGLL 301920Z 11006KT CAVOK 15/05 Q1013 NOSIG=
201403301850 METAR COR EGLL 301850Z 11008KT CAVOK 15/05 Q1013 NOSIG=
201403301820 METAR COR EGLL 301820Z 11008KT CAVOK 16/04 Q1012 NOSIG=
201403301750 METAR COR EGLL 301750Z 12009KT CAVOK 17/03 Q1012 NOSIG=
201403301720 METAR COR EGLL 301720Z 13007KT CAVOK 18/03 Q1012 NOSIG=
201403301650 METAR COR EGLL 301650Z 14006KT CAVOK 18/03 Q1012 NOSIG=
201403301620 METAR COR EGLL 301620Z 14009KT CAVOK 18/02 Q1012 NOSIG=
201403301550 METAR COR EGLL 301550Z 13010KT CAVOK 19/03 Q1012 NOSIG=
201403301520 METAR COR EGLL 301520Z 15008KT CAVOK 18/04 Q1012 NOSIG=
201403301450 METAR COR EGLL 301450Z 16008KT CAVOK 18/04 Q1012 NOSIG=
201403301420 METAR COR EGLL 301420Z 16008KT CAVOK 19/03 Q1012 NOSIG=
201403301350 METAR COR EGLL 301350Z 16010KT CAVOK 19/02 Q1012 NOSIG=
201403301320 METAR COR EGLL 301320Z 17010KT CAVOK 19/03 Q1013 NOSIG=
201403301250 METAR COR EGLL 301250Z 16007KT CAVOK 19/04 Q1013 NOSIG=
201403301220 METAR COR EGLL 301220Z 17008KT CAVOK 19/03 Q1013 NOSIG=
201403301150 METAR COR EGLL 301150Z 17006KT 130V200 CAVOK 19/05 Q1013
                        NOSIG=
201403301120 METAR COR EGLL 301120Z 13007KT CAVOK 19/05 Q1013 NOSIG=
201403301050 METAR COR EGLL 301050Z 12004KT CAVOK 17/07 Q1014 NOSIG=
201403301020 METAR COR EGLL 301020Z 00000KT 9000 NSC 16/07 Q1014 NOSIG=
201403300950 METAR COR EGLL 300950Z VRB02KT 9000 NSC 15/07 Q1014 NOSIG=
201403300920 METAR COR EGLL 300920Z VRB03KT 9000 NSC 14/07 Q1013 NOSIG=
201403300850 METAR COR EGLL 300850Z 06004KT 7000 NSC 13/07 Q1013 NOSIG=
201403300820 METAR COR EGLL 300820Z 06004KT 6000 NSC 12/07 Q1013 NOSIG=
201403300750 METAR COR EGLL 300750Z 07004KT 6000 NSC 11/07 Q1013 NOSIG=
201403300720 METAR COR EGLL 300720Z 07003KT 6000 NSC 09/06 Q1013 NOSIG=
201403300650 METAR COR EGLL 300650Z 00000KT 6000 NSC 09/06 Q1013 NOSIG=
201403300620 METAR COR EGLL 300620Z VRB02KT 6000 NSC 08/05 Q1013 TEMPO
                        4800 HZ=
201403300550 METAR COR EGLL 300550Z 05003KT 6000 NSC 07/05 Q1013 TEMPO
                        4500 HZ=
201403300520 METAR COR EGLL 300520Z 00000KT 6000 NSC 07/05 Q1013 TEMPO
                        4000 HZ=
201403300450 METAR COR EGLL 300450Z 03002KT 6000 NSC 08/05 Q1012 TEMPO
                        4500 HZ=
201403300420 METAR COR EGLL 300420Z 05002KT 6000 NSC 08/05 Q1012 TEMPO
                        4000 HZ=
201403300350 METAR COR EGLL 300350Z 07003KT 6000 NSC 08/05 Q1012 TEMPO
                        4000 HZ=
201403300320 METAR COR EGLL 300320Z 06003KT 6000 NSC 08/05 Q1012 TEMPO
                        4000 HZ=
201403300250 METAR COR EGLL 300250Z 06003KT 6000 NSC 08/06 Q1012 TEMPO
                        4500 HZ=
201403300220 METAR EGLL 300220Z 07003KT 6000 NSC 09/06 Q1012=
201403300050 METAR COR EGLL 300050Z 07004KT 7000 NSC 10/06 Q1013 NOSIG=
201403300020 METAR COR EGLL 300020Z 07004KT 7000 NSC 10/06 Q1013 NOSIG=
201403292350 METAR COR EGLL 292350Z 07004KT 7000 NSC 11/06 Q1013 NOSIG=
201403292320 METAR COR EGLL 292320Z 07004KT 8000 NSC 11/06 Q1013 NOSIG=
201403292250 METAR COR EGLL 292250Z 08005KT 8000 NSC 11/07 Q1013 NOSIG=
201403292220 METAR COR EGLL 292220Z 07005KT 8000 NSC 11/07 Q1013 NOSIG=
201403292150 METAR COR EGLL 292150Z 08005KT 8000 NSC 12/07 Q1013 NOSIG=
201403292120 METAR COR EGLL 292120Z 08007KT 8000 NSC 12/07 Q1013 NOSIG=
201403292050 METAR COR EGLL 292050Z 08006KT 9000 NSC 13/07 Q1013 NOSIG=
201403292020 METAR COR EGLL 292020Z 09006KT 9000 NSC 13/07 Q1013 NOSIG=
201403291950 METAR COR EGLL 291950Z 08006KT CAVOK 14/06 Q1013 NOSIG=
201403291920 METAR COR EGLL 291920Z 10007KT CAVOK 13/04 Q1013 NOSIG=
201403291850 METAR COR EGLL 291850Z 12008KT CAVOK 14/03 Q1013 NOSIG=
201403291820 METAR COR EGLL 291820Z 12011KT CAVOK 16/03 Q1013 NOSIG=
201403291750 METAR COR EGLL 291750Z 13011KT CAVOK 17/02 Q1013 NOSIG=
201403291720 METAR COR EGLL 291720Z 14012KT CAVOK 17/01 Q1012 NOSIG=
201403291650 METAR COR EGLL 291650Z 12015KT CAVOK 17/01 Q1012 NOSIG=
201403291620 METAR COR EGLL 291620Z 14016KT CAVOK 18/01 Q1012 NOSIG=
201403291550 METAR COR EGLL 291550Z 14016KT CAVOK 18/M00 Q1012 NOSIG=
201403291520 METAR COR EGLL 291520Z 14015KT CAVOK 18/M01 Q1012 NOSIG=
201403291450 METAR COR EGLL 291450Z 14017KT CAVOK 18/M01 Q1012 NOSIG=
201403291420 METAR COR EGLL 291420Z 13016KT CAVOK 19/00 Q1012 NOSIG=
201403291350 METAR COR EGLL 291350Z 11018KT CAVOK 19/M00 Q1013 NOSIG=
201403291320 METAR COR EGLL 291320Z 13016KT CAVOK 19/02 Q1013 NOSIG=
201403291250 METAR COR EGLL 291250Z 12016KT CAVOK 19/01 Q1013 NOSIG=
201403291220 METAR COR EGLL 291220Z 10010KT CAVOK 19/01 Q1014 NOSIG=
201403291150 METAR COR EGLL 291150Z 12015KT CAVOK 18/02 Q1014 NOSIG=
201403291120 METAR COR EGLL 291120Z 12015KT CAVOK 18/M00 Q1014 NOSIG=
201403291050 METAR COR EGLL 291050Z 11012KT CAVOK 18/02 Q1015 NOSIG=
201403291020 METAR EGLL 291020Z 11010KT CAVOK 17/03 Q1015=
201403290950 METAR COR EGLL 290950Z 10011KT 8000 NSC 16/05 Q1015 NOSIG=
201403290920 METAR COR EGLL 290920Z 09010KT 7000 NSC 15/06 Q1015 NOSIG=
201403290850 METAR COR EGLL 290850Z 10010KT 7000 NSC 12/06 Q1015 NOSIG=
201403290820 METAR COR EGLL 290820Z 09009KT 6000 NSC 11/06 Q1015 NOSIG=
201403290750 METAR COR EGLL 290750Z 08008KT 5000 HZ NSC 10/06 Q1015 NOSIG=
201403290720 METAR COR EGLL 290720Z 08006KT 5000 HZ NSC 09/06 Q1015 NOSIG=
201403290650 METAR COR EGLL 290650Z 08006KT 4600 HZ NSC 08/06 Q1015 BECMG
                        6000 NSW=
201403290620 METAR COR EGLL 290620Z 08006KT 3400 HZ NSC 08/06 Q1015 NOSIG=
201403290550 METAR COR EGLL 290550Z 08007KT 3300 HZ NSC 08/06 Q1015 NOSIG=
201403290520 METAR COR EGLL 290520Z 09009KT 3300 HZ NSC 09/06 Q1015 NOSIG=
201403290450 METAR COR EGLL 290450Z 09008KT 3100 HZ NSC 09/06 Q1015 NOSIG=
201403290420 METAR COR EGLL 290420Z 09008KT 3100 HZ NSC 09/06 Q1015 NOSIG=
201403290350 METAR COR EGLL 290350Z 09009KT 3100 HZ NSC 09/07 Q1015 NOSIG=
201403290320 METAR COR EGLL 290320Z 09010KT 3000 HZ NSC 08/07 Q1015 NOSIG=
201403290250 METAR COR EGLL 290250Z 09010KT 3000 HZ NSC 08/06 Q1015 NOSIG=
201403290220 METAR EGLL 290220Z AUTO 09010KT 2700 HZ NCD 08/06 Q1015=
201403290150 METAR EGLL 290150Z AUTO 09008KT 2900 HZ NCD 08/06 Q1015=
201403290120 METAR EGLL 290120Z AUTO 08006KT 3400 HZ NCD 08/06 Q1015=
201403290050 METAR COR EGLL 290050Z 08006KT 3900 HZ NSC 08/06 Q1015 NOSIG=
201403290020 METAR COR EGLL 290020Z 07006KT 4200 HZ NSC 08/06 Q1015 NOSIG=
201403282350 METAR COR EGLL 282350Z 07005KT 4200 HZ NSC 08/06 Q1016 NOSIG=
201403282320 METAR COR EGLL 282320Z 09008KT 4200 HZ NSC 08/06 Q1016 NOSIG=
201403282250 METAR COR EGLL 282250Z 09009KT 5000 HZ NSC 09/05 Q1016 BECMG
                        4000 BR=
201403282220 METAR COR EGLL 282220Z 09009KT 6000 NSC 09/05 Q1016 TEMPO
                        4500 HZ=
201403282150 METAR COR EGLL 282150Z 09010KT 7000 NSC 09/05 Q1016 NOSIG=
201403282120 METAR COR EGLL 282120Z 09011KT 8000 NSC 09/05 Q1016 NOSIG=
201403282050 METAR COR EGLL 282050Z 09009KT 8000 NSC 10/05 Q1015 NOSIG=
201403282020 METAR COR EGLL 282020Z 09009KT 8000 NSC 09/04 Q1015 NOSIG=
201403281950 METAR COR EGLL 281950Z 09010KT 9000 NSC 10/04 Q1015 NOSIG=
201403281920 METAR COR EGLL 281920Z 09011KT CAVOK 10/03 Q1015 NOSIG=
201403281850 METAR EGLL 281850Z 10011KT CAVOK 11/02 Q1015=
201403281820 METAR COR EGLL 281820Z 09009KT CAVOK 11/02 Q1015 NOSIG=
201403281750 METAR COR EGLL 281750Z 08007KT CAVOK 11/03 Q1015 NOSIG=
201403281720 METAR COR EGLL 281720Z 11008KT 080V150 CAVOK 12/00 Q1015
                        NOSIG=
201403281650 METAR COR EGLL 281650Z 12010KT 9999 FEW048 12/01 Q1015 NOSIG=
201403281620 METAR COR EGLL 281620Z 11010KT 9999 FEW041 12/00 Q1015 NOSIG=
201403281550 METAR COR EGLL 281550Z 12009KT 9999 FEW047 12/M00 Q1015 NOSIG=
201403281520 METAR COR EGLL 281520Z 12009KT 9999 FEW047 12/M00 Q1014 NOSIG=
201403281450 METAR COR EGLL 281450Z 11013KT CAVOK 13/M00 Q1014 NOSIG=
201403281420 METAR COR EGLL 281420Z 10011KT 9999 FEW047 13/02 Q1014 NOSIG=
201403281350 METAR COR EGLL 281350Z 11012KT 9999 FEW047 14/01 Q1014 NOSIG=
201403281320 METAR COR EGLL 281320Z 13009KT 9999 FEW020 SCT047 12/01 Q1015
                        NOSIG=
201403281250 METAR COR EGLL 281250Z 13013KT 9999 SCT049 12/01 Q1015 NOSIG=
201403281220 METAR COR EGLL 281220Z 12009KT 9999 SCT048 12/02 Q1015 NOSIG=
201403281150 METAR COR EGLL 281150Z 11010KT 070V140 7000 FEW048 12/05
                        Q1015 NOSIG=
201403281120 METAR COR EGLL 281120Z 09008KT 6000 NSC 11/05 Q1015 NOSIG=
201403281050 METAR COR EGLL 281050Z 09009KT 6000 NSC 10/06 Q1015 NOSIG=
201403281020 METAR COR EGLL 281020Z 11010KT 4800 HZ NSC 10/06 Q1015 BECMG
                        6000=
201403280950 METAR COR EGLL 280950Z 07006KT 3400 HZ NSC 08/06 Q1015 BECMG
                        6000=
201403280920 METAR COR EGLL 280920Z 07007KT 2700 HZ NSC 08/06 Q1015 BECMG
                        6000=
201403280850 METAR COR EGLL 280850Z 07007KT 2300 HZ NSC 07/05 Q1015 BECMG
                        5000=
201403280820 METAR COR EGLL 280820Z 06005KT 1700 HZ FEW003 SCT005 06/05
                        Q1014 BECMG 5000=
201403280750 METAR COR EGLL 280750Z 06006KT 1500 HZ SCT003 SCT004 06/05
                        Q1014 BECMG 5000 FEW004 BKN006=
201403280720 METAR EGLL 280720Z 04005KT 010V070 1600 HZ SCT003 SCT004
                        06/04 Q1014=
201403280650 METAR COR EGLL 280650Z 05004KT 1600 HZ FEW002 SCT003 05/04
                        Q1014 BECMG 5000 FEW003 BKN005=
201403280620 METAR COR EGLL 280620Z VRB03KT 1800 HZ FEW002 SCT003 BKN004
                        05/05 Q1014 TEMPO 1200 BR=
201403280550 METAR COR EGLL 280550Z 07004KT 040V110 2100 HZ SCT005 05/03
                        Q1014 TEMPO 1400 BR BKN004=
201403280520 METAR COR EGLL 280520Z 06006KT 2700 HZ FEW006 SCT009 04/03
                        Q1014 TEMPO BKN006=
201403280450 METAR COR EGLL 280450Z 06004KT 2700 HZ SCT009 04/03 Q1014
                        TEMPO BKN009=
201403280420 METAR COR EGLL 280420Z 07004KT 2600 HZ BKN010 04/03 Q1014
                        TEMPO BKN006=
201403280350 METAR COR EGLL 280350Z 06006KT 2500 HZ FEW009 SCT011 04/03
                        Q1013 TEMPO BKN006=
201403280320 METAR COR EGLL 280320Z 05004KT 2500 HZ FEW010 04/03 Q1013
                        TEMPO BKN006=
201403280250 METAR EGLL 280250Z AUTO 04006KT 2600 HZ FEW006 04/02 Q1013=
201403280220 METAR EGLL 280220Z AUTO 04005KT 2800 HZ SCT006 04/03 Q1013=
201403280150 METAR EGLL 280150Z AUTO 04005KT 3300 HZ NCD 04/03 Q1013=
201403280120 METAR EGLL 280120Z AUTO 05005KT 3800 HZ NCD 04/03 Q1013=
201403280050 METAR COR EGLL 280050Z 04005KT 4800 HZ NSC 04/02 Q1013 NOSIG=
201403280020 METAR COR EGLL 280020Z 04005KT 010V070 4800 HZ NSC 04/03
                        Q1013 NOSIG=
201403272350 METAR COR EGLL 272350Z 02004KT 350V050 6000 NSC 04/03 Q1013
                        BECMG 4500 HZ=
201403272320 METAR COR EGLL 272320Z 03004KT 360V060 6000 NSC 05/03 Q1013
                        TEMPO 4500 HZ=
201403272250 METAR COR EGLL 272250Z 04004KT 6000 NSC 05/03 Q1013 TEMPO
                        4500 HZ=
201403272220 METAR COR EGLL 272220Z 03004KT 7000 NSC 05/03 Q1013 NOSIG=
201403272150 METAR COR EGLL 272150Z 03005KT 9000 FEW018 06/03 Q1013 NOSIG=
201403272120 METAR COR EGLL 272120Z 05005KT 9000 SCT018 06/04 Q1013 NOSIG=
201403272050 METAR COR EGLL 272050Z 05004KT 9000 SCT018 SCT022 06/03 Q1013
                        NOSIG=
201403272020 METAR COR EGLL 272020Z 36003KT 9999 BKN018 05/02 Q1013 NOSIG=
201403271950 METAR COR EGLL 271950Z VRB03KT 9999 BKN018 06/02 Q1013 NOSIG=
201403271920 METAR COR EGLL 271920Z 35004KT 9999 FEW025 06/02 Q1013 NOSIG=
201403271850 METAR COR EGLL 271850Z VRB03KT 9999 SCT026 06/02 Q1012 NOSIG=
201403271820 METAR COR EGLL 271820Z 31003KT 9999 FEW035 07/01 Q1012 NOSIG=
201403271750 METAR COR EGLL 271750Z 30003KT 9999 FEW035 07/01 Q1012 NOSIG=
201403271720 METAR COR EGLL 271720Z VRB03KT 9999 FEW047 07/02 Q1012 NOSIG=
201403271650 METAR COR EGLL 271650Z VRB03KT 9999 FEW022 07/02 Q1012 NOSIG=
201403271620 METAR COR EGLL 271620Z 26007KT 9999 FEW045 07/02 Q1011 TEMPO
                        SHRA=
201403271550 METAR COR EGLL 271550Z 22007KT 9999 FEW041CB 08/02 Q1011
                        NOSIG=
201403271520 METAR COR EGLL 271520Z 15007KT 9999 -SHRA FEW023CB SCT031
                        07/02 Q1011 TEMPO SHRA=
201403271450 METAR COR EGLL 271450Z 12015KT 9999 VCSH FEW028 SCT045CB
                        08/01 Q1011 TEMPO 3000 TSGS=
201403271420 METAR COR EGLL 271420Z 13009KT 100V160 9999 VCSH FEW030 SCT045CB
                        10/00 Q1011 TEMPO 3000 TSGS=
201403271350 METAR COR EGLL 271350Z 12006KT 080V160 9999 -SHRA SCT044CB
                        10/01 Q1011 TEMPO 4000 TSRA=
201403271320 METAR COR EGLL 271320Z 11008KT 9999 VCSH SCT044TCU 10/M01
                        Q1011 TEMPO 4500 SHRA=
201403271250 METAR COR EGLL 271250Z 10008KT 9999 SCT034TCU 10/02 Q1012
                        TEMPO 4500 SHRA=
201403271220 METAR COR EGLL 271220Z 10009KT 060V120 9999 SCT033 SCT040
                        11/03 Q1012 NOSIG=
201403271150 METAR COR EGLL 271150Z 11008KT 080V140 9999 SCT030 09/03
                        Q1012 NOSIG=
201403271120 METAR COR EGLL 271120Z 09009KT 9999 SCT025 SCT030 09/03 Q1012
                        NOSIG=
201403271050 METAR COR EGLL 271050Z 09010KT 9999 SCT030 08/03 Q1013 NOSIG=
201403271020 METAR COR EGLL 271020Z 09009KT 040V120 9999 SCT021 SCT027
                        08/04 Q1013 NOSIG=
201403270950 METAR COR EGLL 270950Z 08006KT 040V110 9999 SCT018 SCT022
                        08/04 Q1013 NOSIG=
201403270920 METAR COR EGLL 270920Z 07007KT 9999 SCT015 SCT018 07/04 Q1013
                        NOSIG=
201403270850 METAR EGLL 270850Z 09007KT 050V110 9999 FEW015 06/03 Q1013=
201403270820 METAR COR EGLL 270820Z 06006KT 9999 FEW009 05/03 Q1013 NOSIG=
201403270750 METAR COR EGLL 270750Z 07006KT 9000 FEW007 04/03 Q1013 TEMPO
                        BKN012=
201403270720 METAR COR EGLL 270720Z 08005KT 8000 SCT007 04/03 Q1013 TEMPO
                        BKN010=
201403270650 METAR COR EGLL 270650Z 06005KT 8000 SCT005 04/02 Q1013 TEMPO
                        BKN007=
201403270620 METAR COR EGLL 270620Z 07004KT 7000 BKN005 03/02 Q1013 TEMPO
                        4500 BR=
201403270550 METAR COR EGLL 270550Z 07004KT 7000 FEW005 SCT048 03/02 Q1012
                        TEMPO 4000 BR BKN007=
201403270520 METAR COR EGLL 270520Z 05004KT 7000 BKN048 03/02 Q1012 NOSIG=
201403270450 METAR COR EGLL 270450Z 06004KT 7000 BKN048 03/02 Q1013 TEMPO
                        4000 BR=
201403270420 METAR COR EGLL 270420Z 06004KT 7000 OVC048 03/02 Q1013 TEMPO
                        4000 BR BKN007=
201403270350 METAR COR EGLL 270350Z 06005KT 6000 FEW041 OVC046 03/02 Q1013
                        TEMPO 4000 BR=
201403270320 METAR COR EGLL 270320Z 06005KT 7000 FEW010 SCT020 OVC048
                        03/02 Q1013 TEMPO 4000 BR BKN008=
201403270250 METAR COR EGLL 270250Z 06003KT 6000 BKN010 BKN049 03/02 Q1013
                        TEMPO 4000 BR BKN008=
201403270220 METAR EGLL 270220Z AUTO 08003KT 7000 BKN010 03/02 Q1013=
201403270150 METAR EGLL 270150Z AUTO VRB02KT 7000 BKN010 03/02 Q1013=
201403270120 METAR EGLL 270120Z AUTO 05003KT 9999 BKN027 03/02 Q1014=
201403270050 METAR COR EGLL 270050Z 05004KT 9999 FEW016 OVC025 04/02 Q1014
                        NOSIG=
201403270020 METAR COR EGLL 270020Z 07003KT 9000 BKN020 04/02 Q1014 NOSIG=
201403262350 METAR COR EGLL 262350Z VRB03KT 9000 BKN026 04/02 Q1014 NOSIG=
201403262320 METAR COR EGLL 262320Z 10002KT 9999 BKN024 04/02 Q1014 NOSIG=
201403262250 METAR COR EGLL 262250Z VRB02KT 9999 BKN023 04/02 Q1015 NOSIG=
201403262220 METAR COR EGLL 262220Z VRB02KT 9999 BKN024 04/02 Q1015 NOSIG=
201403262150 METAR COR EGLL 262150Z VRB02KT 9999 FEW030 SCT040 04/02 Q1015
                        NOSIG=
201403262120 METAR COR EGLL 262120Z 30004KT 9999 SCT037 04/02 Q1015 NOSIG=
201403262050 METAR COR EGLL 262050Z 28003KT 9999 SCT030 04/02 Q1015 NOSIG=
201403262020 METAR COR EGLL 262020Z 29003KT 9999 SCT022 04/02 Q1016 NOSIG=
201403261950 METAR COR EGLL 261950Z VRB02KT 9999 FEW012 04/02 Q1016 NOSIG=
201403261920 METAR COR EGLL 261920Z VRB02KT CAVOK 04/01 Q1016 NOSIG=
201403261850 METAR COR EGLL 261850Z 30003KT CAVOK 04/01 Q1016 NOSIG=
201403261820 METAR COR EGLL 261820Z VRB02KT 9999 FEW042 04/01 Q1016 NOSIG=
201403261750 METAR COR EGLL 261750Z 00000KT 9999 FEW014 SCT042 04/02 Q1016
                        NOSIG=
201403261720 METAR COR EGLL 261720Z 08004KT 9999 FEW014 SCT039 04/02 Q1016
                        NOSIG=
201403261650 METAR COR EGLL 261650Z 06006KT 9999 -RA SCT014 BKN030 04/02
                        Q1016 NOSIG=
201403261620 METAR COR EGLL 261620Z 04005KT 360V070 9999 -RA FEW009 SCT011TCU
                        BKN014 04/02 Q1017 TEMPO FEW011 BKN020=
201403261550 METAR COR EGLL 261550Z 05006KT 360V080 7000 -SHRA FEW011
                        SCT013CB BKN015 04/02 Q1017 RESHRA
                        TEMPO SHRA BKN011=
201403261520 METAR COR EGLL 261520Z 04011KT 9999 3000NE SHRA SCT013 FEW014CB
                        FEW024TCU BKN029 05/03 Q1017 TEMPO
                        3000 +SHRA BKN014CB=
201403261450 METAR COR EGLL 261450Z 06014KT 9999 FEW024TCU SCT031 06/02
                        Q1016 TEMPO 4000 SHRA SHGS=
201403261420 METAR COR EGLL 261420Z 34007KT 290V020 9999 FEW024CB FEW040
                        09/00 Q1016 TEMPO 4000 SHRA SHGS=
201403261350 METAR COR EGLL 261350Z 32008KT 300V010 9999 FEW037 SCT041
                        09/01 Q1017 TEMPO 4000 SHRA SHGS=
201403261320 METAR COR EGLL 261320Z 03006KT 330V060 9999 FEW035 SCT041
                        08/01 Q1017 TEMPO SHRA=
201403261250 METAR COR EGLL 261250Z 36005KT 290V060 9999 SCT035 09/M00
                        Q1017 TEMPO SHRA=
201403261220 METAR EGLL 261220Z 36007KT 330V040 9999 FEW029 SCT035 09/01
                        Q1018=
201403261150 METAR COR EGLL 261150Z 03007KT 350V080 9999 FEW022 SCT027
                        09/02 Q1018 TEMPO SHRA=
201403261120 METAR COR EGLL 261120Z 01007KT 330V040 9999 SCT024 08/02
                        Q1019 NOSIG=
201403261050 METAR COR EGLL 261050Z 35007KT 300V020 9999 FEW022 SCT027
                        07/02 Q1019 NOSIG=
201403261020 METAR COR EGLL 261020Z 36007KT 330V040 9999 FEW018 SCT021
                        07/03 Q1019 NOSIG=
201403260950 METAR COR EGLL 260950Z 01007KT 320V040 9999 SCT017 07/03
                        Q1019 NOSIG=
201403260920 METAR COR EGLL 260920Z 36007KT 310V040 9999 SCT015 SCT022
                        07/04 Q1019 NOSIG=
201403260850 METAR COR EGLL 260850Z 36007KT 9999 -SHRA FEW014 SCT020 05/03
                        Q1019 NOSIG=
201403260820 METAR COR EGLL 260820Z 36008KT 9999 FEW011 SCT040 05/03 Q1019
                        NOSIG=
201403260750 METAR COR EGLL 260750Z 35007KT 310V010 9000 FEW010 05/03
                        Q1019 NOSIG=
201403260720 METAR COR EGLL 260720Z 34005KT 310V010 7000 FEW008 04/03
                        Q1019 NOSIG=
201403260650 METAR COR EGLL 260650Z 35006KT 320V020 6000 SCT006 BKN008
                        04/03 Q1019 BECMG SCT012=
201403260620 METAR COR EGLL 260620Z 36005KT 310V030 4000 BR FEW004 SCT005
                        BKN006 04/03 Q1019 BECMG 7000 NSW
                        SCT010=
201403260550 METAR COR EGLL 260550Z 36006KT 330V040 2000 BR FEW001 SCT002
                        BKN003 03/03 Q1018 BECMG 6000 NSW
                        BKN007=
201403260520 METAR COR EGLL 260520Z 36004KT 320V030 1500 BR SCT001 BKN002
                        03/02 Q1018 BECMG BKN005=
201403260450 METAR COR EGLL 260450Z 01005KT 340V060 1000 R09R/1000 BR
                        SCT001 BKN002 03/02 Q1018 TEMPO BKN001=
201403260420 METAR COR EGLL 260420Z 36007KT 4500 BR SCT002 BKN003 02/01
                        Q1018 TEMPO SCT005=
201403260350 METAR COR EGLL 260350Z 35004KT 330V040 4200 BR NSC 02/01
                        Q1018 TEMPO BKN005=
201403260320 METAR COR EGLL 260320Z 35004KT 6000 NSC 03/01 Q1018 TEMPO
                        4500 HZ BKN005=
201403260250 METAR COR EGLL 260250Z 36004KT 7000 NSC 02/01 Q1018 TEMPO
                        4500 HZ BKN005=
201403260220 METAR EGLL 260220Z AUTO 01005KT 4800 HZ NCD 03/01 Q1018=
201403260150 METAR EGLL 260150Z AUTO 01003KT 5000 NCD 02/01 Q1017=
201403260120 METAR EGLL 260120Z AUTO VRB03KT 5000 NCD 03/01 Q1017=
201403260050 METAR COR EGLL 260050Z 36005KT 6000 NSC 03/01 Q1017 NOSIG=
201403260020 METAR COR EGLL 260020Z 36004KT 7000 NSC 03/01 Q1017 NOSIG=
201403252350 METAR COR EGLL 252350Z VRB03KT 7000 NSC 04/01 Q1016 NOSIG=
201403252320 METAR COR EGLL 252320Z 04005KT CAVOK 04/01 Q1016 NOSIG=
201403252250 METAR COR EGLL 252250Z 04005KT CAVOK 05/01 Q1016 NOSIG=
201403252220 METAR COR EGLL 252220Z 03003KT CAVOK 05/01 Q1016 NOSIG=
201403252150 METAR COR EGLL 252150Z 04004KT CAVOK 06/01 Q1015 NOSIG=
201403252120 METAR COR EGLL 252120Z 05004KT CAVOK 07/02 Q1015 NOSIG=
201403252050 METAR COR EGLL 252050Z 04004KT CAVOK 07/02 Q1015 NOSIG=
201403252020 METAR COR EGLL 252020Z 04004KT CAVOK 07/02 Q1014 NOSIG=
201403251950 METAR COR EGLL 251950Z 06006KT CAVOK 07/02 Q1013 NOSIG=
201403251920 METAR COR EGLL 251920Z 05004KT 9999 FEW035 08/03 Q1013 NOSIG=
201403251850 METAR COR EGLL 251850Z 06005KT 9999 FEW033 08/03 Q1012 NOSIG=
201403251820 METAR COR EGLL 251820Z 06005KT 9999 FEW032 08/03 Q1012 NOSIG=
201403251750 METAR COR EGLL 251750Z 08008KT 9999 FEW031 08/03 Q1011 NOSIG=
201403251720 METAR EGLL 251720Z 09007KT 9999 FEW029 08/04 Q1010=
201403251650 METAR COR EGLL 251650Z 09009KT 9999 SCT030 08/04 Q1010 NOSIG=
201403251620 METAR COR EGLL 251620Z 08007KT 9999 FEW030 SCT040 08/03 Q1009
                        NOSIG=
201403251550 METAR COR EGLL 251550Z 09008KT 9999 FEW031 SCT036 08/04 Q1009
                        NOSIG=
201403251520 METAR COR EGLL 251520Z 10008KT 9999 FEW023 BKN041 09/05 Q1008
                        NOSIG=
201403251450 METAR COR EGLL 251450Z 10010KT 9999 FEW022 BKN032 08/04 Q1008
                        NOSIG=
201403251420 METAR COR EGLL 251420Z 09011KT 9999 FEW021 SCT024 BKN030
                        08/04 Q1008 NOSIG=
201403251350 METAR COR EGLL 251350Z 11010KT 9999 FEW023 BKN029 08/05 Q1007
                        NOSIG=
201403251320 METAR COR EGLL 251320Z 09011KT 9999 FEW016 SCT023 BKN027
                        08/05 Q1007 NOSIG=
201403251250 METAR COR EGLL 251250Z 10008KT 9999 FEW013 SCT019 09/06 Q1007
                        NOSIG=
201403251220 METAR COR EGLL 251220Z 09009KT 9999 -RA FEW018 SCT023 07/05
                        Q1007 NOSIG=
201403251150 METAR COR EGLL 251150Z 09011KT 9999 -RA FEW010 BKN020 07/06
                        Q1006 NOSIG=
201403251120 METAR COR EGLL 251120Z 09008KT 9999 -RA FEW010 SCT012 BKN018
                        07/06 Q1006 TEMPO BKN012=
201403251050 METAR COR EGLL 251050Z 10008KT 9999 -RA FEW010 SCT014 BKN019
                        07/06 Q1006 TEMPO BKN014=
201403251020 METAR COR EGLL 251020Z 10009KT 9999 -RA FEW009 SCT013 BKN024
                        08/06 Q1006 TEMPO BKN013=
201403250950 METAR COR EGLL 250950Z 10008KT 9999 -RA FEW008 SCT012 BKN034
                        08/06 Q1006 TEMPO BKN012=
201403250920 METAR COR EGLL 250920Z 10009KT 9999 -RA FEW008 BKN012 BKN033
                        07/06 Q1006 TEMPO SCT012=
201403250850 METAR COR EGLL 250850Z 10008KT 9999 -RA FEW007 SCT012 BKN028
                        07/06 Q1006 TEMPO BKN012=
201403250820 METAR COR EGLL 250820Z 10007KT 9999 -RA SCT012 BKN028 06/06
                        Q1005 TEMPO BKN012=
201403250750 METAR COR EGLL 250750Z 10007KT 9000 -RA BKN013 06/05 Q1005
                        NOSIG=
201403250720 METAR COR EGLL 250720Z 10007KT 9000 -RA FEW007 BKN012 06/05
                        Q1005 TEMPO BKN009=
201403250650 METAR COR EGLL 250650Z 10006KT 9000 -RA BKN010 06/05 Q1005
                        TEMPO BKN009=
201403250620 METAR COR EGLL 250620Z 11007KT 9000 -RA BKN010 06/05 Q1005
                        TEMPO BKN009=
201403250550 METAR COR EGLL 250550Z 12006KT 9000 -RA OVC011 06/05 Q1005
                        RERA TEMPO BKN009=
201403250520 METAR COR EGLL 250520Z 13007KT 9000 RA BKN012 06/04 Q1006
                        TEMPO BKN009=
201403250450 METAR COR EGLL 250450Z 14007KT 9999 -RA BKN014 06/04 Q1006
                        REDZ NOSIG=
201403250420 METAR COR EGLL 250420Z 13008KT 9999 DZ FEW012 SCT019 BKN032
                        06/04 Q1006 BECMG SCT009 BKN014=
201403250350 METAR COR EGLL 250350Z 14009KT 9999 -DZ FEW013 SCT032 OVC037
                        06/04 Q1006 BECMG -RA SCT009 BKN014=
201403250320 METAR COR EGLL 250320Z 14009KT 9999 FEW020 BKN029 OVC036
                        06/04 Q1006 TEMPO -RA BKN014=
201403250250 METAR COR EGLL 250250Z 15011KT 9999 -DZ SCT029 OVC034 06/04
                        Q1006 REDZ TEMPO DZ BKN014=
201403250220 METAR EGLL 250220Z AUTO 15009KT 9999 -RA FEW014 BKN031 06/04
                        Q1007=
201403250150 METAR EGLL 250150Z AUTO 15006KT 9999 -RA FEW015 SCT018 06/05
                        Q1007=
201403250120 METAR EGLL 250120Z AUTO 14005KT 9000 -RA SCT011 SCT018 BKN038
                        06/05 Q1008=
201403250050 METAR COR EGLL 250050Z 14006KT 9999 -RA OVC010 06/05 Q1008
                        REDZ NOSIG=
201403250020 METAR COR EGLL 250020Z 14006KT 9999 DZ OVC013 06/05 Q1008
                        NOSIG=
201403242350 METAR COR EGLL 242350Z 16005KT 9000 DZ SCT017 BKN045 07/04
                        Q1008 TEMPO BKN012=
201403242320 METAR COR EGLL 242320Z 17009KT 9999 -DZ SCT020 BKN027 07/04
                        Q1008 TEMPO BKN014=
201403242250 METAR COR EGLL 242250Z 14008KT 9999 FEW031 BKN035 BKN043
                        08/03 Q1008 TEMPO -RA BKN014=
201403242220 METAR COR EGLL 242220Z 13009KT 9999 SCT035 SCT045 07/02 Q1008
                        TEMPO -RA BKN014=
201403242150 METAR COR EGLL 242150Z 13010KT 9999 FEW049 07/02 Q1009 TEMPO
                        -RA BKN014=
201403242120 METAR COR EGLL 242120Z 13010KT CAVOK 07/02 Q1009 NOSIG=
201403242050 METAR COR EGLL 242050Z 13009KT CAVOK 07/02 Q1009 NOSIG=
201403242020 METAR COR EGLL 242020Z 13010KT CAVOK 06/01 Q1009 NOSIG=
201403241950 METAR COR EGLL 241950Z 13008KT CAVOK 07/02 Q1010 NOSIG=
201403241920 METAR COR EGLL 241920Z 15009KT CAVOK 07/02 Q1010 NOSIG=
201403241850 METAR COR EGLL 241850Z 15008KT CAVOK 07/01 Q1010 NOSIG=
201403241820 METAR COR EGLL 241820Z 15008KT CAVOK 08/01 Q1010 NOSIG=
201403241750 METAR COR EGLL 241750Z 15010KT CAVOK 08/01 Q1010 NOSIG=
201403241720 METAR COR EGLL 241720Z 16012KT 9999 FEW040 08/00 Q1010 NOSIG=
201403241650 METAR COR EGLL 241650Z 17012KT 9999 FEW042 09/M00 Q1010 NOSIG=
201403241620 METAR COR EGLL 241620Z 16013KT 9999 FEW043 09/M01 Q1010 NOSIG=
201403241550 METAR COR EGLL 241550Z 19015KT 9999 SCT043 09/M01 Q1011 NOSIG=
201403241520 METAR COR EGLL 241520Z 17013KT 9999 FEW042 SCT045 10/M01
                        Q1011 NOSIG=
201403241450 METAR COR EGLL 241450Z 18014KT 9999 BKN045 10/M01 Q1011 NOSIG=
201403241420 METAR COR EGLL 241420Z 16011KT 9999 SCT042 11/00 Q1011 NOSIG=
201403241350 METAR COR EGLL 241350Z 17013KT 130V190 9999 SCT042 11/00
                        Q1011 NOSIG=
201403241320 METAR COR EGLL 241320Z 17012KT 9999 FEW040 SCT042 10/M00
                        Q1012 NOSIG=
201403241250 METAR COR EGLL 241250Z 15012KT 120V180 9999 SCT040 10/01
                        Q1012 NOSIG=
201403241220 METAR COR EGLL 241220Z 15012KT 9999 SCT040 09/00 Q1012 NOSIG=
201403241150 METAR COR EGLL 241150Z 14012KT 9999 SCT038 10/01 Q1013 NOSIG=
201403241120 METAR COR EGLL 241120Z 16011KT 9999 FEW032 10/01 Q1013 NOSIG=
201403241050 METAR COR EGLL 241050Z 16009KT 9999 FEW030 09/01 Q1014 NOSIG=
201403241020 METAR COR EGLL 241020Z 16009KT 120V210 9999 FEW030 09/00
                        Q1014 NOSIG=
201403240950 METAR COR EGLL 240950Z 14010KT 110V170 9999 FEW020 08/01
                        Q1014 NOSIG=
201403240920 METAR COR EGLL 240920Z 15009KT CAVOK 07/02 Q1014 NOSIG=
201403240850 METAR COR EGLL 240850Z 13006KT CAVOK 06/02 Q1015 NOSIG=
201403240820 METAR COR EGLL 240820Z 13004KT CAVOK 05/02 Q1015 NOSIG=
201403240750 METAR COR EGLL 240750Z 17004KT 9000 NSC 03/01 Q1015 NOSIG=
201403240720 METAR COR EGLL 240720Z 20003KT 8000 NSC 02/00 Q1015 NOSIG=
201403240650 METAR EGLL 240650Z 18004KT 8000 FEW001 01/M00 Q1015=
201403240620 METAR COR EGLL 240620Z VRB03KT 8000 VCFG NSC 00/M01 Q1015
                        NOSIG=
201403240550 METAR COR EGLL 240550Z 07003KT 8000 VCFG NSC 00/M01 Q1015
                        NOSIG=
201403240520 METAR COR EGLL 240520Z 08002KT CAVOK 00/M01 Q1015 NOSIG=
201403240450 METAR COR EGLL 240450Z VRB02KT CAVOK 01/M01 Q1015 NOSIG=
201403240420 METAR COR EGLL 240420Z 27004KT CAVOK 01/M00 Q1015 NOSIG=
201403240350 METAR COR EGLL 240350Z 27004KT CAVOK 01/M01 Q1015 NOSIG=
201403240320 METAR EGLL 240320Z 29002KT CAVOK 02/M00 Q1014=
201403240250 METAR COR EGLL 240250Z VRB02KT CAVOK 02/00 Q1014 NOSIG=
201403240220 METAR EGLL 240220Z AUTO 29004KT 9999 NCD 01/M00 Q1015=
201403240150 METAR EGLL 240150Z AUTO 27007KT 9999 NCD 02/00 Q1015=
201403240120 METAR EGLL 240120Z AUTO 28003KT 9999 NCD 02/00 Q1015=
201403240050 METAR COR EGLL 240050Z 29003KT CAVOK 03/00 Q1015 NOSIG=
201403240020 METAR COR EGLL 240020Z 28004KT CAVOK 04/00 Q1015 NOSIG=
201403232350 METAR COR EGLL 232350Z 00000KT CAVOK 04/01 Q1015 NOSIG=
201403232320 METAR COR EGLL 232320Z 35003KT CAVOK 05/01 Q1014 NOSIG=
201403232250 METAR EGLL 232250Z VRB02KT CAVOK 05/01 Q1014=
201403232220 METAR COR EGLL 232220Z VRB03KT CAVOK 06/01 Q1014 NOSIG=
201403232150 METAR COR EGLL 232150Z VRB03KT 9999 FEW037 06/01 Q1014 NOSIG=
201403232120 METAR COR EGLL 232120Z 04005KT 020V080 9999 SCT035 07/01
                        Q1014 NOSIG=
201403232050 METAR COR EGLL 232050Z 02004KT 340V050 9999 FEW039 07/01
                        Q1013 NOSIG=
201403232020 METAR COR EGLL 232020Z 31004KT 290V350 9999 FEW048 08/M01
                        Q1013 NOSIG=
201403231950 METAR COR EGLL 231950Z 32004KT 9999 FEW049 08/M02 Q1013 NOSIG=
201403231920 METAR COR EGLL 231920Z 32005KT CAVOK 08/M01 Q1012 NOSIG=
201403231850 METAR COR EGLL 231850Z 31006KT CAVOK 09/M01 Q1011 NOSIG=
201403231820 METAR COR EGLL 231820Z 31007KT 9999 FEW048 09/M02 Q1011 NOSIG=
201403231750 METAR COR EGLL 231750Z 31007KT 9999 FEW048 09/M03 Q1010 NOSIG=
201403231720 METAR COR EGLL 231720Z 33012KT 9999 FEW048 10/M03 Q1010 NOSIG=
201403231650 METAR COR EGLL 231650Z 32011KT 9999 VCSH FEW042CB 10/M00
                        Q1010 NOSIG=
201403231620 METAR COR EGLL 231620Z 29012KT 260V330 9999 SCT045CB 09/01
                        Q1009 NOSIG=
201403231550 METAR COR EGLL 231550Z 32011G21KT 290V360 9999 VCSH FEW048CB
                        11/M02 Q1009 NOSIG=
201403231520 METAR COR EGLL 231520Z 31014KT 280V350 9999 VCSH FEW040CB
                        10/00 Q1009 NOSIG=
201403231450 METAR COR EGLL 231450Z 31013KT 270V350 9999 VCSH FEW025 FEW034CB
                        SCT040 10/00 Q1008 TEMPO SHRA=
201403231420 METAR COR EGLL 231420Z 30015KT 9999 FEW034CB SCT040 10/01
                        Q1008 NOSIG=
201403231350 METAR COR EGLL 231350Z 29011KT 260V320 9999 FEW026 09/02
                        Q1008 NOSIG=
201403231320 METAR COR EGLL 231320Z 30011KT 9999 FEW024 09/03 Q1008 NOSIG=
201403231250 METAR COR EGLL 231250Z 29014KT 9999 VCSH SCT040 08/01 Q1008
                        NOSIG=
201403231220 METAR COR EGLL 231220Z 30017KT 9999 -SHRA FEW034 SCT039CB
                        09/02 Q1007 TEMPO SHRA=
201403231150 METAR COR EGLL 231150Z 31013KT 9999 VCSH FEW030 SCT035CB
                        10/01 Q1007 TEMPO SHRA=
201403231120 METAR COR EGLL 231120Z 30011KT 9999 VCSH FEW030 SCT036 09/02
                        Q1007 TEMPO SHRA=
201403231050 METAR COR EGLL 231050Z 30011KT 270V340 9999 FEW032 SCT036
                        09/02 Q1007 TEMPO SHRA=
201403231020 METAR COR EGLL 231020Z 30011KT 9999 FEW027 SCT031 08/02 Q1006
                        TEMPO SHRA=
201403230950 METAR COR EGLL 230950Z 30011KT 270V340 9999 FEW025 SCT029
                        08/03 Q1006 NOSIG=
201403230920 METAR COR EGLL 230920Z 29011KT 9999 FEW020 07/03 Q1006 NOSIG=
201403230850 METAR COR EGLL 230850Z 29012KT 9999 -SHRA FEW016 06/03 Q1006
                        NOSIG=
201403230820 METAR COR EGLL 230820Z 28012KT 9999 VCSH FEW030 05/02 Q1005
                        TEMPO SHRA=
201403230750 METAR COR EGLL 230750Z 27013KT 9999 FEW031 05/02 Q1005 TEMPO
                        SHRA=
201403230720 METAR COR EGLL 230720Z 26012KT 9999 BKN031 04/02 Q1005 NOSIG=
201403230650 METAR COR EGLL 230650Z 24007KT 9999 FEW045 03/01 Q1005 NOSIG=
201403230620 METAR COR EGLL 230620Z 24008KT 9999 FEW032 02/01 Q1004 NOSIG=
201403230550 METAR COR EGLL 230550Z 21006KT CAVOK 02/00 Q1004 NOSIG=
201403230520 METAR COR EGLL 230520Z 25006KT 210V270 CAVOK 02/00 Q1004
                        NOSIG=
201403230450 METAR COR EGLL 230450Z 28005KT CAVOK 03/01 Q1004 NOSIG=
201403230420 METAR COR EGLL 230420Z 27008KT CAVOK 03/00 Q1003 NOSIG=
201403230350 METAR COR EGLL 230350Z 27008KT CAVOK 03/01 Q1003 NOSIG=
201403230320 METAR COR EGLL 230320Z 27008KT CAVOK 03/01 Q1003 NOSIG=
201403230250 METAR COR EGLL 230250Z 27008KT CAVOK 03/01 Q1003 NOSIG=
201403230220 METAR EGLL 230220Z AUTO 27009KT 9999 NCD 04/01 Q1003=
201403230150 METAR EGLL 230150Z AUTO 27009KT 9999 NCD 04/02 Q1003=
201403230120 METAR EGLL 230120Z AUTO 27008KT 9999 NCD 04/02 Q1003=
201403230050 METAR COR EGLL 230050Z 26008KT CAVOK 04/02 Q1003 NOSIG=
201403230020 METAR COR EGLL 230020Z 25007KT CAVOK 05/02 Q1002 NOSIG=
201403222350 METAR COR EGLL 222350Z 26008KT 9999 FEW045 05/03 Q1002 NOSIG=
201403222320 METAR EGLL 222320Z 25008KT 9999 FEW040 05/02 Q1002=
201403222250 METAR EGLL 222250Z 26009KT 9999 FEW032 05/02 Q1002=
201403222220 METAR EGLL 222220Z 25009KT CAVOK 06/02 Q1002=
201403222150 METAR EGLL 222150Z 25010KT CAVOK 06/02 Q1002=
201403222120 METAR EGLL 222120Z 25010KT CAVOK 07/02 Q1001=
201403222050 METAR EGLL 222050Z 25011KT CAVOK 07/02 Q1001=
201403222020 METAR EGLL 222020Z 25012KT CAVOK 07/02 Q1001=
201403221950 METAR EGLL 221950Z 24012KT CAVOK 07/02 Q1001=
201403221920 METAR COR EGLL 221920Z 23009KT 9999 FEW043 07/03 Q1000 NOSIG=
201403221850 METAR COR EGLL 221850Z 23012KT 9999 FEW043 08/02 Q1000 TEMPO
                        SHRA=
201403221820 METAR COR EGLL 221820Z 23009KT 9999 FEW043 07/02 Q1000 TEMPO
                        SHRA=
201403221750 METAR COR EGLL 221750Z 22010KT 9999 VCSH SCT028CB 08/02 Q1000
                        TEMPO SHRA=
201403221720 METAR COR EGLL 221720Z 23012KT 9999 VCSH SCT040CB 09/02 Q0999
                        TEMPO SHRA=
201403221650 METAR COR EGLL 221650Z 26016KT 9999 VCSH FEW041TCU 10/00
                        Q0999 TEMPO SHRA=
201403221620 METAR COR EGLL 221620Z 25014KT CAVOK 10/M02 Q0999 TEMPO SHRA=
201403221550 METAR COR EGLL 221550Z 24014KT 9999 FEW040 11/M02 Q0998 TEMPO
                        SHRA=
201403221520 METAR COR EGLL 221520Z 24014KT CAVOK 11/M02 Q0998 NOSIG=
201403221450 METAR COR EGLL 221450Z 25016G26KT CAVOK 11/M01 Q0998 TEMPO
                        SHRA=
201403221420 METAR COR EGLL 221420Z 24016KT 9999 SCT049 11/M01 Q0998 TEMPO
                        SHRA=
201403221350 METAR COR EGLL 221350Z 25014KT 9999 SCT049 11/M01 Q0998 NOSIG=
201403221320 METAR COR EGLL 221320Z 25016KT 9999 BKN048 10/M01 Q0998 NOSIG=
201403221250 METAR COR EGLL 221250Z 23017KT 9999 SCT042 10/M01 Q0999 NOSIG=
201403221220 METAR COR EGLL 221220Z 26013KT 9999 FEW035 BKN041 10/00 Q0999
                        NOSIG=
201403221150 METAR COR EGLL 221150Z 23017KT 9999 VCSH SCT035CB 09/01 Q0999
                        NOSIG=
201403221120 METAR COR EGLL 221120Z 25014KT 9999 VCSH FEW035CB SCT041
                        09/00 Q0999 NOSIG=
201403221050 METAR COR EGLL 221050Z 24016KT 9999 VCSH SCT033CB SCT038
                        08/00 Q0999 NOSIG=
201403221020 METAR COR EGLL 221020Z 23013KT 9999 BKN033 08/01 Q0999 NOSIG=
201403220950 METAR COR EGLL 220950Z 25012KT 9999 SCT033 08/01 Q0999 NOSIG=
201403220920 METAR COR EGLL 220920Z 24011KT 210V270 9999 FEW027 08/02
                        Q0999 NOSIG=
201403220850 METAR COR EGLL 220850Z 24011KT 9999 FEW022 07/02 Q0999 NOSIG=
201403220820 METAR COR EGLL 220820Z 23010KT 9999 FEW020 06/02 Q0999 NOSIG=
201403220750 METAR COR EGLL 220750Z 22011KT 9999 FEW020 06/03 Q0999 NOSIG=
201403220720 METAR COR EGLL 220720Z 23011KT CAVOK 05/02 Q0999 NOSIG=
201403220650 METAR COR EGLL 220650Z 22010KT CAVOK 04/02 Q0999 NOSIG=
201403220620 METAR COR EGLL 220620Z 23010KT CAVOK 04/02 Q0999 NOSIG=
201403220550 METAR COR EGLL 220550Z 24009G19KT CAVOK 04/02 Q0998 NOSIG=
201403220520 METAR COR EGLL 220520Z 23010KT 9999 FEW025 05/03 Q0998 NOSIG=
201403220450 METAR COR EGLL 220450Z 23010KT 9999 FEW025 05/03 Q0998 NOSIG=
201403220420 METAR COR EGLL 220420Z 23009KT 9999 FEW025 05/03 Q0998 NOSIG=
201403220350 METAR COR EGLL 220350Z 22008KT CAVOK 05/04 Q0998 NOSIG=
201403220320 METAR COR EGLL 220320Z 21008KT CAVOK 05/04 Q0998 NOSIG=
201403220250 METAR COR EGLL 220250Z 22007KT 9999 FEW046 05/03 Q0998 NOSIG=
201403220220 METAR EGLL 220220Z AUTO 22008KT 9999 FEW046 06/04 Q0998=
201403220150 METAR EGLL 220150Z AUTO 22009KT 9999 FEW034 06/04 Q0998=
201403220120 METAR COR EGLL 220120Z AUTO 23013KT 9999 -DZ FEW032/// BKN037///
                        //////TCU 06/04 Q0999 NOSIG=
201403220050 METAR COR EGLL 220050Z 23015KT 9999 -SHRA SCT024CB SCT037
                        06/04 Q0999 RESHRA TEMPO SHRA=
201403220020 METAR COR EGLL 220020Z 23016KT 5000 SHRA SCT022CB 07/05 Q0999
                        TEMPO 3000 +SHRA=
201403212350 METAR COR EGLL 212350Z 22012KT 170V250 7000 -SHRA SCT022
                        07/06 Q0999 TEMPO 4000 +SHRA=
201403212320 METAR COR EGLL 212320Z 22014KT 9999 -SHRA FEW020 SCT030 07/05
                        Q1000 RESHRA TEMPO SHRA=
201403212250 METAR COR EGLL 212250Z 22014KT 9999 -SHRA FEW015 SCT020CB
                        08/05 Q1000 RESHRA TEMPO 4000 +SHRA=
201403212220 METAR COR EGLL 212220Z 19013KT 9999 -SHRA FEW035 09/04 Q1001
                        TEMPO 4000 +SHRA=
201403212150 METAR COR EGLL 212150Z 19014KT CAVOK 08/04 Q1001 TEMPO 4000
                        +SHRA=
201403212120 METAR COR EGLL 212120Z 18012KT CAVOK 08/04 Q1002 TEMPO SHRA=
201403212050 METAR COR EGLL 212050Z 19011KT CAVOK 08/03 Q1003 TEMPO 4000
                        +SHRA=
201403212020 METAR COR EGLL 212020Z 21011KT 9999 FEW029 08/04 Q1003 TEMPO
                        4000 +SHRA=
201403211950 METAR COR EGLL 211950Z 20009KT 9999 FEW030 08/04 Q1004 TEMPO
                        SHRA=
201403211920 METAR COR EGLL 211920Z 21012KT 9999 FEW033 08/04 Q1004 NOSIG=
201403211850 METAR COR EGLL 211850Z 21007KT 190V260 9999 FEW032 07/04
                        Q1005 NOSIG=
201403211820 METAR COR EGLL 211820Z 22010KT 9999 FEW010 SCT034CB 07/04
                        Q1005 NOSIG=
201403211750 METAR COR EGLL 211750Z 22015G25KT 9999 3000W -SHRA BKN032CB
                        10/02 Q1005 TEMPO SHRA=
201403211720 METAR COR EGLL 211720Z 22016G26KT 9999 VCSH SCT037 10/02
                        Q1005 TEMPO SHRA=
201403211650 METAR COR EGLL 211650Z 22015KT 9999 FEW040 11/02 Q1006 NOSIG=
201403211620 METAR COR EGLL 211620Z 23018KT 9999 VCSH SCT043 11/02 Q1006
                        NOSIG=
201403211550 METAR EGLL 211550Z 22017KT 9999 SCT047 11/01 Q1006=
201403211520 METAR COR EGLL 211520Z 22018KT 9999 FEW042 12/00 Q1006 NOSIG=
201403211450 METAR COR EGLL 211450Z 22016KT 9999 FEW044 13/02 Q1007 NOSIG=
201403211420 METAR COR EGLL 211420Z 22015KT CAVOK 13/00 Q1007 NOSIG=
201403211350 METAR COR EGLL 211350Z 24018KT 9999 BKN049 12/00 Q1007 NOSIG=
201403211320 METAR COR EGLL 211320Z 24016KT 200V270 9999 SCT047 12/01
                        Q1007 NOSIG=
201403211250 METAR COR EGLL 211250Z 23016KT 9999 SCT044 12/01 Q1007 NOSIG=
201403211220 METAR COR EGLL 211220Z 24014KT 9999 SCT044 11/01 Q1008 NOSIG=
201403211150 METAR COR EGLL 211150Z 26016KT 9999 BKN042 11/01 Q1008 NOSIG=
201403211120 METAR COR EGLL 211120Z 26016KT 9999 SCT037 12/02 Q1008 NOSIG=
201403211050 METAR COR EGLL 211050Z 25015KT 9999 SCT035 10/02 Q1008 NOSIG=
201403211020 METAR COR EGLL 211020Z 26012KT 9999 FEW033 10/02 Q1008 NOSIG=
201403210950 METAR COR EGLL 210950Z 27013KT 9999 FEW036 10/02 Q1008 NOSIG=
201403210920 METAR COR EGLL 210920Z 26012KT 9999 FEW030 09/03 Q1008 NOSIG=
201403210850 METAR COR EGLL 210850Z 27013KT CAVOK 09/03 Q1007 NOSIG=
201403210820 METAR COR EGLL 210820Z 26012KT CAVOK 08/04 Q1007 NOSIG=
201403210750 METAR COR EGLL 210750Z 25010KT CAVOK 07/03 Q1007 NOSIG=
201403210720 METAR COR EGLL 210720Z 24009KT 9999 FEW030 07/03 Q1007 NOSIG=
201403210650 METAR COR EGLL 210650Z 26008KT 9999 FEW020 07/03 Q1006 NOSIG=
201403210620 METAR COR EGLL 210620Z 27007KT 9999 FEW020 07/04 Q1006 NOSIG=
201403210550 METAR COR EGLL 210550Z 28007KT 9999 FEW020 07/04 Q1005 NOSIG=
201403210520 METAR COR EGLL 210520Z 28007KT CAVOK 07/05 Q1005 NOSIG=
201403210450 METAR COR EGLL 210450Z 26008KT 9999 FEW032 07/06 Q1005 NOSIG=
201403210420 METAR COR EGLL 210420Z 23007KT 9999 SCT030 07/06 Q1004 NOSIG=
201403210350 METAR COR EGLL 210350Z 23007KT 9999 SCT023 08/06 Q1005 NOSIG=
201403210320 METAR COR EGLL 210320Z 23007KT 9999 FEW036 08/06 Q1005 NOSIG=
201403210250 METAR COR EGLL 210250Z 23008KT 9999 FEW019 SCT023 08/06 Q1005
                        NOSIG=
201403210220 METAR EGLL 210220Z AUTO 22008KT 9999 FEW023 08/06 Q1005=
201403210150 METAR EGLL 210150Z AUTO 22007KT 9999 NCD 08/06 Q1005=
201403210120 METAR EGLL 210120Z AUTO 23009KT 9999 NCD 08/06 Q1005=
201403210050 METAR COR EGLL 210050Z 23008KT 9999 FEW022 08/06 Q1005 NOSIG=
201403210020 METAR COR EGLL 210020Z 23009KT 9999 FEW024 08/06 Q1005 NOSIG=
201403202350 METAR COR EGLL 202350Z 23008KT CAVOK 08/07 Q1005 NOSIG=
201403202320 METAR COR EGLL 202320Z 24010KT 9999 -RA FEW039 BKN049 08/06
                        Q1005 NOSIG=
201403202250 METAR COR EGLL 202250Z 26010KT 9999 -RA FEW035 08/06 Q1005
                        NOSIG=
201403202220 METAR COR EGLL 202220Z 26012KT 9999 -RA SCT038 09/06 Q1005
                        NOSIG=
201403202150 METAR COR EGLL 202150Z 26017KT 9999 -RA FEW017 SCT027 BKN040
                        09/06 Q1005 RERA NOSIG=
201403202120 METAR COR EGLL 202120Z 22013KT 9000 RA FEW010 SCT012 BKN022
                        10/09 Q1004 BECMG 9999 NSW=
201403202050 METAR COR EGLL 202050Z 21013KT 9999 -RA SCT012 SCT018 10/09
                        Q1004 RERA TEMPO RA BKN012=
201403202020 METAR COR EGLL 202020Z 22014KT 8000 RA FEW010 BKN012 10/09
                        Q1005 NOSIG=
201403201950 METAR COR EGLL 201950Z 22018KT 8000 -RA FEW010 BKN012 10/08
                        Q1004 TEMPO RA=
201403201920 METAR COR EGLL 201920Z 22016KT 9999 -RA SCT013 BKN017 11/08
                        Q1004 BECMG BKN012=
201403201850 METAR COR EGLL 201850Z 22017KT 8000 -RA FEW014 SCT016 BKN022
                        11/08 Q1005 TEMPO BKN012=
201403201820 METAR COR EGLL 201820Z 23020KT 8000 -RA BKN018 11/07 Q1005
                        BECMG BKN012=
201403201750 METAR COR EGLL 201750Z 23018G28KT 9999 BKN020 11/07 Q1005
                        BECMG BKN013=
201403201720 METAR COR EGLL 201720Z 22016G26KT 9999 BKN023 11/06 Q1004
                        TEMPO BKN014=
201403201650 METAR COR EGLL 201650Z 22019KT 9999 FEW023 BKN025 11/06 Q1005
                        NOSIG=
201403201620 METAR COR EGLL 201620Z 22020KT 9999 BKN025 12/06 Q1005 NOSIG=
201403201550 METAR COR EGLL 201550Z 22019G29KT 9999 SCT025 BKN029 12/06
                        Q1005 NOSIG=
201403201520 METAR COR EGLL 201520Z 21019KT 9999 SCT024 BKN028 12/06 Q1005
                        NOSIG=
201403201450 METAR COR EGLL 201450Z 23019KT 9999 BKN027 12/06 Q1006 NOSIG=
201403201420 METAR COR EGLL 201420Z 23022G32KT 9999 FEW029 SCT032 13/06
                        Q1006 NOSIG=
201403201350 METAR COR EGLL 201350Z 21020KT 9999 FEW033 13/06 Q1006 NOSIG=
201403201320 METAR COR EGLL 201320Z 22020KT 9999 FEW027 13/05 Q1006 NOSIG=
201403201250 METAR COR EGLL 201250Z 21018KT 180V240 9999 FEW027 14/06
                        Q1007 NOSIG=
201403201220 METAR COR EGLL 201220Z 21016KT 9999 SCT027 13/06 Q1007 NOSIG=
201403201150 METAR COR EGLL 201150Z 21017KT 9999 SCT020 12/07 Q1008 NOSIG=
201403201120 METAR COR EGLL 201120Z 21016KT 180V250 9999 BKN018 12/07
                        Q1009 NOSIG=
201403201050 METAR EGLL 201050Z 21013KT 9999 BKN018 12/07 Q1009=
201403201020 METAR COR EGLL 201020Z 22014KT 9999 BKN021 12/07 Q1010 NOSIG=
201403200950 METAR COR EGLL 200950Z 21013KT 9000 BKN017 12/07 Q1010 NOSIG=
201403200920 METAR COR EGLL 200920Z 22013KT 190V250 9000 BKN016 11/07
                        Q1011 NOSIG=
201403200850 METAR COR EGLL 200850Z 21015KT 8000 BKN015 11/07 Q1011 NOSIG=
201403200820 METAR COR EGLL 200820Z 22013KT 9999 BKN013 11/07 Q1012 BECMG
                        SCT014 BKN016=
201403200750 METAR COR EGLL 200750Z 21012KT 9000 FEW010 BKN012 10/07 Q1012
                        BECMG SCT014 BKN016=
201403200720 METAR COR EGLL 200720Z 21011G23KT 9000 BKN011 10/07 Q1013
                        BECMG SCT014 BKN016=
201403200650 METAR COR EGLL 200650Z 22009KT 8000 BKN012 09/07 Q1013 BECMG
                        BKN015=
201403200620 METAR COR EGLL 200620Z 21010KT 8000 BKN011 09/07 Q1014 NOSIG=
201403200550 METAR COR EGLL 200550Z 22011KT 8000 BKN010 09/07 Q1014 TEMPO
                        BKN009=
201403200520 METAR COR EGLL 200520Z 22011KT 7000 BKN010 09/07 Q1014 TEMPO
                        BKN008=
201403200450 METAR COR EGLL 200450Z 21011KT 190V250 6000 BKN010 09/07
                        Q1015 TEMPO BKN008=
201403200420 METAR COR EGLL 200420Z 21008KT 6000 BKN010 09/07 Q1015 TEMPO
                        BKN008=
201403200350 METAR COR EGLL 200350Z 20011KT 6000 BKN009 09/07 Q1015 TEMPO
                        BKN010=
201403200320 METAR COR EGLL 200320Z 21010KT 6000 BKN011 09/07 Q1016 TEMPO
                        BKN009=
201403200250 METAR COR EGLL 200250Z 22009KT 6000 BKN011 08/07 Q1016 TEMPO
                        BKN009=
201403200220 METAR EGLL 200220Z AUTO 20008KT 7000 OVC010 08/06 Q1016=
201403200150 METAR EGLL 200150Z AUTO 21007KT 8000 BKN010 08/06 Q1017=
201403200120 METAR EGLL 200120Z AUTO 20007KT 8000 BKN010 08/06 Q1017=
201403200050 METAR COR EGLL 200050Z 20008KT 8000 BKN010 08/06 Q1018 TEMPO
                        BKN009=
201403200020 METAR COR EGLL 200020Z 21008KT 9000 BKN009 08/06 Q1018 TEMPO
                        BKN012=
201403192350 METAR COR EGLL 192350Z 21008KT 8000 BKN009 07/06 Q1019 TEMPO
                        BKN012=
201403192320 METAR COR EGLL 192320Z 21009KT 9000 BKN009 07/05 Q1019 TEMPO
                        BKN012=
201403192250 METAR COR EGLL 192250Z 21009KT 180V240 9000 FEW010 07/05
                        Q1019 TEMPO BKN009=
201403192220 METAR COR EGLL 192220Z 20008KT 9000 FEW010 07/05 Q1020 TEMPO
                        BKN010=
201403192150 METAR COR EGLL 192150Z 22009KT 9000 SCT010 07/05 Q1021 TEMPO
                        BKN010=
201403192120 METAR COR EGLL 192120Z 21010KT 9000 FEW010 08/06 Q1021 BECMG
                        BKN010=
201403192050 METAR COR EGLL 192050Z 21009KT 9000 FEW010 08/06 Q1021 BECMG
                        BKN010=
201403192020 METAR COR EGLL 192020Z 21009KT 9000 FEW010 08/06 Q1021 BECMG
                        BKN010=
201403191950 METAR COR EGLL 191950Z 22011KT 9000 FEW012 09/06 Q1021 BECMG
                        BKN012=
201403191920 METAR COR EGLL 191920Z 21011KT CAVOK 09/07 Q1021 BECMG BKN012=
201403191850 METAR COR EGLL 191850Z 22011KT CAVOK 11/07 Q1021 NOSIG=
201403191820 METAR COR EGLL 191820Z 21010KT CAVOK 12/07 Q1021 NOSIG=
201403191750 METAR COR EGLL 191750Z 22012KT CAVOK 14/07 Q1021 NOSIG=
201403191720 METAR EGLL 191720Z 23012KT CAVOK 16/07 Q1021=
201403191650 METAR COR EGLL 191650Z 23011KT CAVOK 16/06 Q1021 NOSIG=
201403191620 METAR COR EGLL 191620Z 23012KT CAVOK 17/06 Q1021 NOSIG=
201403191550 METAR COR EGLL 191550Z 25014KT CAVOK 16/05 Q1021 NOSIG=
201403191520 METAR COR EGLL 191520Z 26012KT CAVOK 16/05 Q1022 NOSIG=
201403191450 METAR COR EGLL 191450Z 25013KT CAVOK 16/04 Q1022 NOSIG=
201403191420 METAR COR EGLL 191420Z 26012KT CAVOK 16/05 Q1022 NOSIG=
201403191350 METAR COR EGLL 191350Z 25010KT CAVOK 16/05 Q1022 NOSIG=
201403191320 METAR EGLL 191320Z 26011KT CAVOK 15/06 Q1023=
201403191250 METAR COR EGLL 191250Z 25012KT CAVOK 14/05 Q1023 NOSIG=
201403191220 METAR COR EGLL 191220Z 27010KT CAVOK 14/04 Q1023 NOSIG=
201403191150 METAR COR EGLL 191150Z 24011KT CAVOK 13/04 Q1023 NOSIG=
201403191120 METAR COR EGLL 191120Z 26010KT 230V290 CAVOK 13/04 Q1023
                        NOSIG=
201403191050 METAR COR EGLL 191050Z 25012KT CAVOK 12/04 Q1023 NOSIG=
201403191020 METAR COR EGLL 191020Z 25010KT CAVOK 11/05 Q1023 NOSIG=
201403190950 METAR COR EGLL 190950Z 24009KT 210V270 CAVOK 11/05 Q1024
                        NOSIG=
201403190920 METAR COR EGLL 190920Z 25009KT CAVOK 10/05 Q1024 NOSIG=
201403190850 METAR COR EGLL 190850Z 25008KT CAVOK 10/05 Q1023 NOSIG=
201403190820 METAR COR EGLL 190820Z 23008KT CAVOK 09/05 Q1023 NOSIG=
201403190750 METAR COR EGLL 190750Z 25008KT 210V280 CAVOK 09/05 Q1023
                        NOSIG=
201403190720 METAR COR EGLL 190720Z 21006KT 180V240 CAVOK 08/05 Q1023
                        NOSIG=
201403190650 METAR COR EGLL 190650Z 24008KT 210V270 CAVOK 08/05 Q1023
                        NOSIG=
201403190620 METAR COR EGLL 190620Z 25009KT CAVOK 08/05 Q1023 NOSIG=
201403190550 METAR COR EGLL 190550Z 25009KT CAVOK 08/05 Q1023 NOSIG=
201403190520 METAR COR EGLL 190520Z 25011KT CAVOK 09/05 Q1023 NOSIG=
201403190450 METAR COR EGLL 190450Z 24008KT CAVOK 09/05 Q1022 NOSIG=
201403190420 METAR COR EGLL 190420Z 25008KT CAVOK 09/05 Q1023 NOSIG=
201403190350 METAR COR EGLL 190350Z 27007KT CAVOK 09/05 Q1023 NOSIG=
201403190320 METAR COR EGLL 190320Z 27008KT CAVOK 09/05 Q1022 NOSIG=
201403190250 METAR COR EGLL 190250Z 27009KT CAVOK 09/05 Q1023 NOSIG=
201403190220 METAR EGLL 190220Z AUTO 27011KT 9999 NCD 09/05 Q1023=
201403190150 METAR EGLL 190150Z AUTO 26011KT 9999 NCD 09/05 Q1022=
201403190120 METAR EGLL 190120Z AUTO 27012KT 9999 NCD 09/05 Q1022=
201403190050 METAR COR EGLL 190050Z 27010KT CAVOK 09/06 Q1022 NOSIG=
201403190020 METAR COR EGLL 190020Z 27009KT CAVOK 09/06 Q1022 NOSIG=
201403182350 METAR COR EGLL 182350Z 27011KT CAVOK 09/06 Q1021 NOSIG=
201403182320 METAR COR EGLL 182320Z 26011KT CAVOK 10/06 Q1021 NOSIG=
201403182250 METAR COR EGLL 182250Z 26011KT CAVOK 10/06 Q1021 NOSIG=
201403182220 METAR COR EGLL 182220Z 25011KT CAVOK 11/06 Q1021 NOSIG=
201403182150 METAR COR EGLL 182150Z 27012KT 9999 FEW040 11/06 Q1020 NOSIG=
201403182120 METAR COR EGLL 182120Z 27013KT 9999 FEW039 11/06 Q1020 NOSIG=
201403182050 METAR COR EGLL 182050Z 26012KT 9999 FEW047 11/06 Q1019 NOSIG=
201403182020 METAR COR EGLL 182020Z 26012KT CAVOK 11/07 Q1019 NOSIG=
201403181950 METAR COR EGLL 181950Z 26010KT CAVOK 11/06 Q1018 NOSIG=
201403181920 METAR COR EGLL 181920Z 25013KT CAVOK 12/06 Q1018 NOSIG=
201403181850 METAR COR EGLL 181850Z 27013KT CAVOK 12/06 Q1017 NOSIG=
201403181820 METAR COR EGLL 181820Z 27014KT CAVOK 12/06 Q1017 NOSIG=
201403181750 METAR COR EGLL 181750Z 28015KT 9999 FEW044 12/05 Q1016 NOSIG=
201403181720 METAR COR EGLL 181720Z 29014KT 9999 FEW042 13/04 Q1016 NOSIG=
201403181650 METAR COR EGLL 181650Z 28016KT 9999 SCT043 13/05 Q1015 NOSIG=
201403181620 METAR COR EGLL 181620Z 27018KT 9999 SCT049 13/06 Q1015 NOSIG=
201403181550 METAR COR EGLL 181550Z 27020KT 9999 FEW034 SCT040 14/06 Q1014
                        NOSIG=
201403181520 METAR COR EGLL 181520Z 27016KT 9999 SCT038 SCT045 13/06 Q1014
                        NOSIG=
201403181450 METAR COR EGLL 181450Z 27020KT 9999 SCT036 SCT043 14/06 Q1014
                        NOSIG=
201403181420 METAR COR EGLL 181420Z 26019KT 9999 FEW020 BKN034 13/07 Q1014
                        NOSIG=
201403181350 METAR COR EGLL 181350Z 24016KT 9999 SCT023 BKN037 12/08 Q1014
                        NOSIG=
201403181320 METAR COR EGLL 181320Z 24017G27KT 9999 FEW022 BKN031 11/08
                        Q1014 NOSIG=
201403181250 METAR COR EGLL 181250Z 25021KT 9999 VCSH SCT028 BKN032 13/06
                        Q1014 NOSIG=
201403181220 METAR COR EGLL 181220Z 24017KT 9999 BKN033 13/06 Q1014 NOSIG=
201403181150 METAR COR EGLL 181150Z 25015KT 9999 BKN033 12/05 Q1015 NOSIG=
201403181120 METAR COR EGLL 181120Z 25014G27KT 210V270 9999 SCT032 12/05
                        Q1015 NOSIG=
201403181050 METAR COR EGLL 181050Z 24015KT 9999 FEW028 12/05 Q1016 NOSIG=
201403181020 METAR COR EGLL 181020Z 25015KT 9999 FEW023 SCT027 12/05 Q1016
                        NOSIG=
201403180950 METAR COR EGLL 180950Z 25013KT 9999 FEW020 SCT027 11/05 Q1016
                        NOSIG=
201403180920 METAR COR EGLL 180920Z 25014KT 9999 SCT020 SCT027 10/05 Q1016
                        NOSIG=
201403180850 METAR COR EGLL 180850Z 26015KT 9999 SCT020 SCT026 10/05 Q1016
                        NOSIG=
201403180820 METAR COR EGLL 180820Z 25012KT 9999 SCT022 SCT041 10/05 Q1016
                        NOSIG=
201403180750 METAR COR EGLL 180750Z 25011KT 9999 SCT036 SCT039 09/06 Q1016
                        NOSIG=
201403180720 METAR COR EGLL 180720Z 24009KT 9999 FEW024 BKN035 09/06 Q1016
                        NOSIG=
201403180650 METAR COR EGLL 180650Z 24010KT 9999 FEW024 BKN035 08/06 Q1016
                        NOSIG=
201403180620 METAR COR EGLL 180620Z 24008KT 9999 FEW015 BKN033 08/05 Q1016
                        TEMPO BKN014=
201403180550 METAR COR EGLL 180550Z 24008KT 9999 BKN033 08/05 Q1017 TEMPO
                        BKN014=
201403180520 METAR COR EGLL 180520Z 26008KT 9999 FEW025 BKN031 08/05 Q1017
                        TEMPO BKN014=
201403180450 METAR COR EGLL 180450Z 27008KT 9999 FEW022 BKN027 08/05 Q1017
                        TEMPO BKN014=
201403180420 METAR COR EGLL 180420Z 27009KT 9999 BKN026 08/05 Q1017 TEMPO
                        BKN014=
201403180350 METAR COR EGLL 180350Z 27008KT 9999 FEW022 BKN027 08/05 Q1017
                        NOSIG=
201403180320 METAR COR EGLL 180320Z 27008KT 9999 FEW022 BKN026 08/05 Q1017
                        NOSIG=
201403180250 METAR COR EGLL 180250Z 26008KT 9999 BKN026 08/05 Q1018 NOSIG=
201403180220 METAR EGLL 180220Z AUTO 26008KT 9000 SCT023 BKN027 08/05
                        Q1018=
201403180150 METAR EGLL 180150Z AUTO 26007KT 9999 NCD 07/05 Q1018=
201403180120 METAR COR EGLL 180120Z AUTO 27007KT 9999 NCD 07/05 Q1018
                        NOSIG=
201403180050 METAR COR EGLL 180050Z 25006KT CAVOK 08/05 Q1018 NOSIG=
201403180020 METAR COR EGLL 180020Z 26009KT CAVOK 08/05 Q1019 NOSIG=
201403172350 METAR COR EGLL 172350Z 27008KT 9999 FEW030 08/05 Q1019 NOSIG=
201403172320 METAR COR EGLL 172320Z 27009KT 9999 FEW021 BKN030 08/05 Q1019
                        NOSIG=
201403172250 METAR COR EGLL 172250Z 26011KT 9999 FEW022 SCT030 08/05 Q1019
                        NOSIG=
201403172220 METAR COR EGLL 172220Z 25009KT CAVOK 09/05 Q1019 NOSIG=
201403172150 METAR COR EGLL 172150Z 24008KT CAVOK 09/06 Q1019 NOSIG=
201403172120 METAR COR EGLL 172120Z 24009KT CAVOK 10/06 Q1019 NOSIG=
201403172050 METAR COR EGLL 172050Z 24008KT CAVOK 10/06 Q1019 NOSIG=
201403172020 METAR COR EGLL 172020Z 24008KT CAVOK 11/06 Q1019 NOSIG=
201403171950 METAR COR EGLL 171950Z 25009KT CAVOK 11/06 Q1020 NOSIG=
201403171920 METAR COR EGLL 171920Z 24008KT CAVOK 11/06 Q1020 NOSIG=
201403171850 METAR COR EGLL 171850Z 25009KT 9000 FEW026 11/06 Q1020 NOSIG=
201403171820 METAR COR EGLL 171820Z 26009KT 9000 FEW026 12/06 Q1020 NOSIG=
201403171750 METAR COR EGLL 171750Z 25011KT 9999 FEW027 12/06 Q1020 NOSIG=
201403171720 METAR COR EGLL 171720Z 25010KT CAVOK 13/06 Q1020 NOSIG=
201403171650 METAR COR EGLL 171650Z 27008KT CAVOK 13/06 Q1019 NOSIG=
201403171620 METAR COR EGLL 171620Z 28008KT CAVOK 13/06 Q1019 NOSIG=
201403171550 METAR COR EGLL 171550Z 28008KT CAVOK 13/06 Q1020 NOSIG=
201403171520 METAR COR EGLL 171520Z 26007KT 220V290 9999 FEW029 13/06
                        Q1020 NOSIG=
201403171450 METAR COR EGLL 171450Z 25008KT 230V300 9999 FEW030 13/06
                        Q1020 NOSIG=
201403171420 METAR COR EGLL 171420Z 25007KT 210V290 9999 FEW030 13/06
                        Q1021 NOSIG=
201403171350 METAR COR EGLL 171350Z 28007KT 9999 SCT030 13/06 Q1021 NOSIG=
201403171320 METAR COR EGLL 171320Z 28008KT 9999 BKN030 13/06 Q1021 NOSIG=
201403171250 METAR COR EGLL 171250Z 29007KT 250V320 9999 BKN033 13/06
                        Q1022 NOSIG=
201403171220 METAR COR EGLL 171220Z 28007KT 230V320 9999 BKN034 13/05
                        Q1022 NOSIG=
201403171150 METAR COR EGLL 171150Z 25009KT 220V300 9999 BKN033 12/05
                        Q1022 NOSIG=
201403171120 METAR COR EGLL 171120Z 26010KT 9999 BKN031 12/05 Q1023 NOSIG=
201403171050 METAR COR EGLL 171050Z 26011KT 9999 SCT030 BKN034 12/05 Q1023
                        NOSIG=
201403171020 METAR COR EGLL 171020Z 27010KT 9999 SCT032 SCT034 11/06 Q1023
                        NOSIG=
201403170950 METAR COR EGLL 170950Z 26011KT 9999 SCT032 SCT034 11/07 Q1023
                        NOSIG=
201403170920 METAR COR EGLL 170920Z 29009KT 9999 FEW032 SCT033 11/07 Q1023
                        NOSIG=
201403170850 METAR COR EGLL 170850Z 29010KT 9999 SCT032 11/07 Q1023 NOSIG=
201403170820 METAR COR EGLL 170820Z 28007KT 9999 FEW033 09/07 Q1023 NOSIG=
201403170750 METAR COR EGLL 170750Z 28007KT CAVOK 09/07 Q1023 NOSIG=
201403170720 METAR COR EGLL 170720Z 28006KT CAVOK 08/06 Q1023 NOSIG=
201403170650 METAR COR EGLL 170650Z 26006KT 9000 NSC 06/05 Q1023 NOSIG=
201403170620 METAR COR EGLL 170620Z 24006KT 200V270 9000 NSC 06/05 Q1023
                        NOSIG=
201403170550 METAR COR EGLL 170550Z 21005KT 170V240 9000 NSC 06/05 Q1022
                        NOSIG=
201403170520 METAR COR EGLL 170520Z 25005KT 9000 NSC 06/05 Q1022 NOSIG=
201403170450 METAR COR EGLL 170450Z 25005KT 210V270 CAVOK 07/06 Q1022
                        NOSIG=
201403170420 METAR COR EGLL 170420Z 28006KT 9000 NSC 06/05 Q1022 NOSIG=
201403170350 METAR COR EGLL 170350Z 27006KT 9000 NSC 06/05 Q1022 NOSIG=
201403170250 METAR COR EGLL 170250Z 28006KT 5000 HZ NSC 07/06 Q1022 NOSIG=
201403170220 METAR EGLL 170220Z AUTO 28007KT 4700 HZ NCD 07/06 Q1023=
201403170150 METAR EGLL 170150Z AUTO 27007KT 3700 HZ NCD 07/06 Q1023=
201403170120 METAR EGLL 170120Z AUTO 27007KT 3600 HZ NCD 07/06 Q1023=
201403170050 METAR COR EGLL 170050Z 27008KT 4500 HZ NSC 07/06 Q1023 TEMPO
                        6000=
201403170020 METAR COR EGLL 170020Z 27009KT 5000 HZ NSC 08/06 Q1023 TEMPO
                        4500 HZ=
201403162350 METAR COR EGLL 162350Z 27009KT 7000 NSC 09/07 Q1023 NOSIG=
201403162320 METAR COR EGLL 162320Z 28008KT 8000 NSC 09/07 Q1023 NOSIG=
201403162250 METAR COR EGLL 162250Z 29008KT 9000 NSC 10/07 Q1023 NOSIG=
201403162220 METAR COR EGLL 162220Z 28010KT CAVOK 10/08 Q1023 NOSIG=
201403162150 METAR COR EGLL 162150Z 27010KT CAVOK 11/08 Q1023 NOSIG=
201403162120 METAR COR EGLL 162120Z 27010KT CAVOK 12/08 Q1023 NOSIG=
201403162050 METAR COR EGLL 162050Z 27012KT CAVOK 12/08 Q1023 NOSIG=
201403162020 METAR COR EGLL 162020Z 27012KT CAVOK 13/07 Q1023 NOSIG=
201403161950 METAR COR EGLL 161950Z 28010KT CAVOK 13/07 Q1023 NOSIG=
201403161920 METAR COR EGLL 161920Z 28009KT CAVOK 14/07 Q1023 NOSIG=
201403161850 METAR COR EGLL 161850Z 27009KT CAVOK 16/06 Q1022 NOSIG=
201403161820 METAR COR EGLL 161820Z 27009KT CAVOK 16/06 Q1022 NOSIG=
201403161750 METAR COR EGLL 161750Z 27009KT CAVOK 16/06 Q1022 NOSIG=
201403161720 METAR COR EGLL 161720Z 27010KT CAVOK 17/06 Q1022 NOSIG=
201403161650 METAR COR EGLL 161650Z 27011KT CAVOK 18/06 Q1022 NOSIG=
201403161620 METAR COR EGLL 161620Z 27012KT CAVOK 18/06 Q1022 NOSIG=
201403161550 METAR COR EGLL 161550Z 27012KT CAVOK 18/06 Q1022 NOSIG=
201403161520 METAR COR EGLL 161520Z 27012KT CAVOK 19/05 Q1022 NOSIG=
201403161450 METAR COR EGLL 161450Z 26010KT CAVOK 19/05 Q1023 NOSIG=
201403161420 METAR COR EGLL 161420Z 28009KT CAVOK 18/05 Q1023 NOSIG=
201403161350 METAR COR EGLL 161350Z 27010KT 240V310 CAVOK 18/05 Q1023
                        NOSIG=
201403161320 METAR EGLL 161320Z 27009KT CAVOK 17/05 Q1023=
201403161250 METAR COR EGLL 161250Z 26012KT CAVOK 17/05 Q1024 NOSIG=
201403161220 METAR COR EGLL 161220Z 27010KT 230V300 CAVOK 16/04 Q1024
                        NOSIG=
201403161150 METAR COR EGLL 161150Z 26010KT CAVOK 16/04 Q1025 NOSIG=
201403161120 METAR COR EGLL 161120Z 26009KT CAVOK 16/04 Q1025 NOSIG=
201403161050 METAR COR EGLL 161050Z 26009KT 230V290 CAVOK 15/04 Q1024
                        NOSIG=
201403161020 METAR COR EGLL 161020Z 29008KT 270V330 CAVOK 15/05 Q1024
                        NOSIG=
201403160950 METAR COR EGLL 160950Z 30007KT CAVOK 14/06 Q1024 NOSIG=
201403160920 METAR COR EGLL 160920Z 27008KT CAVOK 13/07 Q1024 NOSIG=
201403160850 METAR COR EGLL 160850Z 27009KT CAVOK 12/07 Q1024 NOSIG=
201403160820 METAR COR EGLL 160820Z 25008KT CAVOK 11/07 Q1024 NOSIG=
201403160750 METAR COR EGLL 160750Z 23006KT CAVOK 10/07 Q1024 NOSIG=
201403160720 METAR COR EGLL 160720Z 26004KT 210V290 CAVOK 09/07 Q1024
                        NOSIG=
201403160650 METAR COR EGLL 160650Z 27005KT CAVOK 09/06 Q1024 NOSIG=
201403160620 METAR COR EGLL 160620Z 25006KT CAVOK 08/06 Q1024 NOSIG=
201403160550 METAR COR EGLL 160550Z 24005KT CAVOK 08/06 Q1024 NOSIG=
201403160520 METAR COR EGLL 160520Z 24006KT CAVOK 09/06 Q1024 NOSIG=
201403160450 METAR COR EGLL 160450Z 26005KT 220V280 CAVOK 09/06 Q1024
                        NOSIG=
201403160420 METAR COR EGLL 160420Z 26008KT CAVOK 09/06 Q1024 NOSIG=
201403160350 METAR COR EGLL 160350Z 26007KT CAVOK 09/06 Q1024 NOSIG=
201403160320 METAR COR EGLL 160320Z 26009KT CAVOK 09/06 Q1024 NOSIG=
201403160250 METAR COR EGLL 160250Z 25007KT CAVOK 09/06 Q1024 NOSIG=
201403160220 METAR EGLL 160220Z AUTO 27008KT 9999 NCD 09/06 Q1024=
201403160150 METAR EGLL 160150Z AUTO 26008KT 9999 NCD 09/06 Q1025=
201403160120 METAR EGLL 160120Z AUTO 27007KT 9999 NCD 09/05 Q1025=
201403160050 METAR COR EGLL 160050Z 27006KT CAVOK 09/05 Q1025 NOSIG=
201403160020 METAR COR EGLL 160020Z 26008KT CAVOK 10/05 Q1025 NOSIG=
201403152350 METAR COR EGLL 152350Z 27008KT CAVOK 10/05 Q1025 NOSIG=
201403152320 METAR COR EGLL 152320Z 27009KT CAVOK 10/05 Q1026 NOSIG=
201403152250 METAR COR EGLL 152250Z 26012KT CAVOK 10/06 Q1026 NOSIG=
201403152220 METAR COR EGLL 152220Z 28009KT CAVOK 10/06 Q1026 NOSIG=
201403152150 METAR EGLL 152150Z 28011KT CAVOK 10/06 Q1026=
201403152120 METAR COR EGLL 152120Z 28010KT CAVOK 10/06 Q1026 NOSIG=
201403152050 METAR COR EGLL 152050Z 28008KT CAVOK 11/06 Q1026 NOSIG=
201403152020 METAR COR EGLL 152020Z 28009KT CAVOK 12/06 Q1026 NOSIG=
201403151950 METAR COR EGLL 151950Z 26011KT CAVOK 12/06 Q1026 NOSIG=
201403151920 METAR COR EGLL 151920Z 27012KT CAVOK 12/06 Q1026 NOSIG=
201403151850 METAR COR EGLL 151850Z 27008KT CAVOK 13/06 Q1026 NOSIG=
201403151820 METAR COR EGLL 151820Z 29010KT CAVOK 14/06 Q1025 NOSIG=
201403151750 METAR COR EGLL 151750Z 27013KT CAVOK 14/06 Q1025 NOSIG=
201403151720 METAR COR EGLL 151720Z 27012KT CAVOK 15/06 Q1025 NOSIG=
201403151650 METAR COR EGLL 151650Z 29013KT CAVOK 16/04 Q1025 NOSIG=
201403151620 METAR COR EGLL 151620Z 29013KT CAVOK 17/04 Q1025 NOSIG=
201403151550 METAR COR EGLL 151550Z 28013KT 9999 FEW024 16/04 Q1025 NOSIG=
201403151520 METAR COR EGLL 151520Z 27015KT CAVOK 16/04 Q1025 NOSIG=
201403151450 METAR COR EGLL 151450Z 28013KT CAVOK 18/03 Q1025 NOSIG=
201403151420 METAR COR EGLL 151420Z 27014KT CAVOK 18/02 Q1025 NOSIG=
201403151350 METAR COR EGLL 151350Z 28010KT CAVOK 17/04 Q1026 NOSIG=
201403151320 METAR COR EGLL 151320Z 26012KT CAVOK 16/05 Q1026 NOSIG=
201403151250 METAR COR EGLL 151250Z 28009KT 250V310 CAVOK 16/05 Q1027
                        NOSIG=
201403151220 METAR EGLL 151220Z 28009KT CAVOK 15/05 Q1027=
201403151150 METAR COR EGLL 151150Z 28013KT CAVOK 15/05 Q1027 NOSIG=
201403151120 METAR COR EGLL 151120Z 29009KT CAVOK 14/04 Q1028 NOSIG=
201403151050 METAR COR EGLL 151050Z 30009KT 250V330 CAVOK 14/05 Q1028
                        NOSIG=
201403151020 METAR COR EGLL 151020Z 30007KT CAVOK 13/06 Q1028 NOSIG=
201403150950 METAR COR EGLL 150950Z 31005KT 280V340 CAVOK 11/06 Q1028
                        NOSIG=
201403150920 METAR COR EGLL 150920Z 29007KT 270V340 CAVOK 11/06 Q1029
                        NOSIG=
201403150850 METAR COR EGLL 150850Z 27008KT CAVOK 10/06 Q1028 NOSIG=
201403150820 METAR COR EGLL 150820Z 27007KT CAVOK 10/06 Q1028 NOSIG=
201403150750 METAR COR EGLL 150750Z 26006KT CAVOK 09/06 Q1028 NOSIG=
201403150720 METAR COR EGLL 150720Z 28007KT CAVOK 09/06 Q1028 NOSIG=
201403150650 METAR COR EGLL 150650Z 26007KT CAVOK 09/06 Q1027 NOSIG=
201403150620 METAR COR EGLL 150620Z 27007KT CAVOK 09/06 Q1027 NOSIG=
201403150550 METAR COR EGLL 150550Z 28007KT CAVOK 08/06 Q1027 NOSIG=
201403150520 METAR COR EGLL 150520Z 29006KT CAVOK 08/06 Q1026 NOSIG=
201403150450 METAR EGLL 150450Z AUTO 27008KT 9999 NCD 09/06 Q1026=
201403150420 METAR COR EGLL 150420Z 27007KT CAVOK 08/06 Q1026 NOSIG=
201403150350 METAR COR EGLL 150350Z 27007KT CAVOK 08/05 Q1026 NOSIG=
201403150320 METAR COR EGLL 150320Z 28007KT CAVOK 08/05 Q1026 NOSIG=
201403150250 METAR COR EGLL 150250Z 29007KT CAVOK 08/05 Q1026 NOSIG=
201403150220 METAR EGLL 150220Z AUTO 28007KT 9999 NCD 07/05 Q1026=
201403150150 METAR EGLL 150150Z AUTO 28006KT 9999 NCD 07/05 Q1026=
201403150120 METAR EGLL 150120Z AUTO 27009KT 8000 NCD 07/05 Q1026=
201403150050 METAR COR EGLL 150050Z 27007KT 7000 NSC 07/05 Q1026 NOSIG=
201403150020 METAR COR EGLL 150020Z 26009KT 5000 HZ NSC 07/05 Q1026 NOSIG=
201403142350 METAR COR EGLL 142350Z 26009KT 4600 HZ NSC 07/05 Q1026 BECMG
                        7000=
201403142320 METAR COR EGLL 142320Z 28008KT 3500 HZ NSC 07/05 Q1026 BECMG
                        6000=
201403142250 METAR COR EGLL 142250Z 30006KT 3900 HZ NSC 08/06 Q1027 BECMG
                        6000=
201403142220 METAR EGLL 142220Z 29009KT 4000 HZ NSC 09/06 Q1026=
201403142150 METAR COR EGLL 142150Z 27014KT 4100 HZ NSC 09/06 Q1025 NOSIG=
201403142120 METAR COR EGLL 142120Z 27012KT 4000 HZ NSC 09/06 Q1025 NOSIG=
201403142050 METAR COR EGLL 142050Z 26011KT 4200 HZ NSC 10/06 Q1025 BECMG
                        6000=
201403142020 METAR COR EGLL 142020Z 27011KT 4900 HZ NSC 11/07 Q1025 BECMG
                        6000=
201403141950 METAR COR EGLL 141950Z 27011KT 5000 HZ NSC 12/06 Q1025 TEMPO
                        4500=
201403141920 METAR COR EGLL 141920Z 26010KT 6000 NSC 13/05 Q1025 NOSIG=
201403141850 METAR COR EGLL 141850Z 28010KT 7000 NSC 13/04 Q1025 NOSIG=
201403141820 METAR COR EGLL 141820Z 28010KT 8000 NSC 13/04 Q1025 NOSIG=
201403141750 METAR COR EGLL 141750Z 26009KT 8000 NSC 14/03 Q1025 NOSIG=
201403141720 METAR COR EGLL 141720Z 26011KT 7000 NSC 15/04 Q1024 NOSIG=
201403141650 METAR COR EGLL 141650Z 27014KT 7000 NSC 15/05 Q1025 NOSIG=
201403141620 METAR COR EGLL 141620Z 26013KT 7000 NSC 16/04 Q1025 NOSIG=
201403141550 METAR COR EGLL 141550Z 24010KT 7000 NSC 16/06 Q1025 NOSIG=
201403141520 METAR COR EGLL 141520Z 27011KT 7000 NSC 16/06 Q1025 NOSIG=
201403141450 METAR COR EGLL 141450Z 28010KT 7000 NSC 17/06 Q1026 NOSIG=
201403141420 METAR COR EGLL 141420Z 25010KT 6000 NSC 16/05 Q1026 NOSIG=
201403141350 METAR COR EGLL 141350Z 25008KT 220V290 7000 NSC 17/06 Q1026
                        NOSIG=
201403141320 METAR COR EGLL 141320Z 24008KT 210V270 8000 NSC 15/05 Q1027
                        NOSIG=
201403141250 METAR COR EGLL 141250Z 29006KT 250V330 8000 NSC 15/06 Q1027
                        NOSIG=
201403141220 METAR COR EGLL 141220Z 28005KT 240V310 7000 NSC 13/07 Q1028
                        NOSIG=
201403141150 METAR COR EGLL 141150Z 26007KT 220V290 6000 NSC 13/07 Q1028
                        NOSIG=
201403141120 METAR COR EGLL 141120Z 25005KT 220V300 6000 NSC 11/06 Q1028
                        NOSIG=
201403141050 METAR COR EGLL 141050Z 27004KT 230V300 4000 HZ FEW002 09/06
                        Q1029 BECMG 5000 HZ NSC=
201403141020 METAR COR EGLL 141020Z 27004KT 220V310 4100 1500W HZ VCFG
                        SCT001 09/05 Q1029 BECMG 5000 HZ
                        NSC=
201403140950 METAR COR EGLL 140950Z 26004KT 230V290 3500 1200SW R27R/P1500
                        R27L/P1500 BR BCFG FEW001 07/05 Q1029
                        BECMG 5000 HZ=
201403140920 METAR COR EGLL 140920Z VRB03KT 3000 1000SW R27R/P1500 R27L/P1500
                        BR BCFG FEW001 06/04 Q1029 TEMPO
                        1200=
201403140850 METAR COR EGLL 140850Z VRB02KT 3000 0800SW R27R/P1500 R27L/P1500
                        BR BCFG FEW001 06/04 Q1029 TEMPO
                        1200=
201403140820 METAR COR EGLL 140820Z VRB02KT 3000 1300SW R27R/P1500 R27L/P1500
                        BR BCFG NSC 05/03 Q1029 TEMPO 1400=
201403140750 METAR COR EGLL 140750Z 00000KT 2500 1100SW R27R/P1500 R27L/P1500
                        BR BCFG NSC 04/03 Q1029 TEMPO 1200=
201403140720 METAR COR EGLL 140720Z 29002KT 2500 BR BCFG NSC 04/02 Q1029
                        TEMPO 1200 BR=
201403140650 METAR COR EGLL 140650Z VRB02KT 2200 1100SW R27L/P1500 BR
                        BCFG NSC 04/02 Q1029 TEMPO 1200=
201403140620 METAR COR EGLL 140620Z 35002KT 2200 BR NSC 04/03 Q1029 TEMPO
                        0600 FG=
201403140550 METAR COR EGLL 140550Z 36002KT 1900 1400NW R27R/P1500 BR
                        BCFG NSC 04/03 Q1029 TEMPO 0600 FG=
201403140520 METAR COR EGLL 140520Z 35003KT 2000 1400NW R27R/P1500 BR
                        NSC 05/04 Q1029 BECMG 1200=
201403140450 METAR COR EGLL 140450Z VRB02KT 2000 BR NSC 05/04 Q1029 BECMG
                        1200=
201403140420 METAR COR EGLL 140420Z VRB02KT 2200 BR NSC 05/04 Q1029 BECMG
                        1200=
201403140350 METAR COR EGLL 140350Z 00000KT 2000 BR NSC 05/05 Q1029 BECMG
                        1200=
201403140320 METAR COR EGLL 140320Z 00000KT 1800 HZ NSC 05/05 Q1029 BECMG
                        1200 BR=
201403140250 METAR COR EGLL 140250Z 00000KT 2000 HZ NSC 06/04 Q1029 NOSIG=
201403140220 METAR EGLL 140220Z AUTO 00000KT 2200 HZ NCD 07/05 Q1030=
201403140150 METAR EGLL 140150Z AUTO 01002KT 2300 HZ NCD 06/05 Q1030=
201403140120 METAR EGLL 140120Z AUTO 01003KT 2400 HZ NCD 07/05 Q1030=
201403140050 METAR COR EGLL 140050Z 01003KT 2800 HZ NSC 07/05 Q1030 NOSIG=
201403140020 METAR COR EGLL 140020Z 00000KT 2800 HZ NSC 08/06 Q1030 NOSIG=
201403132350 METAR COR EGLL 132350Z VRB02KT 3000 HZ NSC 08/06 Q1030 NOSIG=
201403132320 METAR COR EGLL 132320Z 04003KT 3400 HZ NSC 09/06 Q1030 NOSIG=
201403132250 METAR COR EGLL 132250Z 04004KT 3800 HZ NSC 10/07 Q1030 NOSIG=
201403132220 METAR COR EGLL 132220Z 04004KT 4000 HZ NSC 11/07 Q1030 NOSIG=
201403132150 METAR COR EGLL 132150Z 05003KT 4100 HZ NSC 11/07 Q1030 NOSIG=
201403132120 METAR COR EGLL 132120Z 05004KT 4800 HZ NSC 12/07 Q1030 NOSIG=
201403132050 METAR COR EGLL 132050Z 04004KT 5000 HZ NSC 12/07 Q1030 BECMG
                        4000=
201403132020 METAR COR EGLL 132020Z 04004KT 6000 NSC 12/07 Q1030 NOSIG=
201403131950 METAR COR EGLL 131950Z 05004KT 020V080 6000 NSC 12/07 Q1030
                        NOSIG=
201403131920 METAR COR EGLL 131920Z 04005KT 7000 NSC 13/07 Q1030 NOSIG=
201403131850 METAR COR EGLL 131850Z 02004KT 7000 NSC 14/07 Q1029 NOSIG=
201403131820 METAR COR EGLL 131820Z 03004KT 340V060 8000 NSC 14/07 Q1029
                        NOSIG=
201403131750 METAR COR EGLL 131750Z 02005KT 8000 NSC 15/07 Q1029 NOSIG=
201403131720 METAR COR EGLL 131720Z 01005KT 340V040 CAVOK 16/06 Q1029
                        NOSIG=
201403131650 METAR COR EGLL 131650Z 35005KT 320V020 CAVOK 17/05 Q1028
                        NOSIG=
201403131620 METAR COR EGLL 131620Z VRB03KT CAVOK 18/04 Q1028 NOSIG=
201403131550 METAR COR EGLL 131550Z VRB03KT CAVOK 18/03 Q1028 NOSIG=
201403131520 METAR COR EGLL 131520Z 08004KT 360V120 9000 NSC 18/04 Q1029
                        NOSIG=
201403131450 METAR COR EGLL 131450Z VRB02KT 8000 NSC 18/05 Q1029 NOSIG=
201403131420 METAR COR EGLL 131420Z VRB03KT 8000 NSC 17/06 Q1029 NOSIG=
201403131350 METAR COR EGLL 131350Z VRB03KT 8000 NSC 17/06 Q1029 NOSIG=
201403131320 METAR COR EGLL 131320Z VRB02KT 8000 NSC 16/06 Q1029 NOSIG=
201403131250 METAR COR EGLL 131250Z VRB02KT 6000 NSC 15/06 Q1030 NOSIG=
201403131220 METAR COR EGLL 131220Z 20004KT 170V240 4400 HZ NSC 14/07
                        Q1030 BECMG 8000=
201403131150 METAR COR EGLL 131150Z VRB03KT 5000 HZ NSC 11/06 Q1030 NOSIG=
201403131120 METAR COR EGLL 131120Z 22004KT 190V270 4000 BR NSC 09/06
                        Q1031 BECMG 7000=
201403131050 METAR COR EGLL 131050Z VRB03KT 3000 1000SW R27R/P1500 R27L/P1500
                        BR SCT003 08/06 Q1031 BECMG 5000
                        HZ=
201403131020 METAR COR EGLL 131020Z VRB02KT 1500 BR SCT002 07/06 Q1031
                        BECMG 4000 HZ=
201403130950 METAR COR EGLL 130950Z VRB03KT 0900 R27R/1100 R27L/P1500
                        BCFG SCT001 06/06 Q1031 BECMG 4000
                        HZ=
201403130920 METAR COR EGLL 130920Z VRB03KT 1200 R27R/P1500 R27L/0225
                        BR FEW000 BKN002 05/05 Q1031 BECMG
                        3500 HZ NSC=
201403130850 METAR COR EGLL 130850Z VRB03KT 0300 R27R/1000 R27L/0200 BCFG
                        BKN001 05/04 Q1031 BECMG 2500 BR
                        BKN002=
201403130820 METAR COR EGLL 130820Z VRB02KT 0250 R27R/0400 R27L/0250 FG
                        SCT000 BKN001 04/04 Q1031 BECMG 1800
                        BR BKN002=
201403130750 METAR COR EGLL 130750Z 00000KT 0200 R27R/0325 R27L/0225 FG
                        FEW000 BKN001 03/03 Q1030 BECMG 1000
                        BR BKN002=
201403130720 METAR COR EGLL 130720Z VRB02KT 0200 R27R/0400 R27L/0550 FG
                        BKN001 03/03 Q1030 BECMG 0900 BCFG=
201403130650 METAR COR EGLL 130650Z VRB02KT 0200 R27R/0400 R27L/0250 FG
                        BKN001 02/02 Q1030 BECMG 0600=
201403130620 METAR COR EGLL 130620Z VRB02KT 0200 R27R/0400 R27L/0275 FG
                        BKN001 02/02 Q1030 BECMG 0600=
201403130550 METAR COR EGLL 130550Z VRB02KT 0500 R27R/1200 R27L/0250 FG
                        SCT001 02/02 Q1030 TEMPO 0250=
201403130520 METAR COR EGLL 130520Z 01002KT 0300 R27R/0650 FG SCT001 02/02
                        Q1030 NOSIG=
201403130450 METAR COR EGLL 130450Z VRB02KT 0250 R27R/0550 FG FEW001 02/02
                        Q1030 NOSIG=
201403130420 METAR COR EGLL 130420Z 00000KT 0200 R27R/0400 FG FEW001 03/03
                        Q1030 NOSIG=
201403130350 METAR COR EGLL 130350Z 00000KT 0200 R27R/0400 FG NSC 04/04
                        Q1029 NOSIG=
201403130320 METAR COR EGLL 130320Z 34003KT 2100 1000W R27R/P1500 BR NSC
                        05/04 Q1029 BECMG 0200 FG=
201403130250 METAR COR EGLL 130250Z 01002KT 2900 HZ NSC 05/04 Q1030 NOSIG=
201403130120 METAR EGLL 130120Z AUTO 34002KT 2600 BR NCD 06/04 Q1030=
201403130050 METAR EGLL 130050Z AUTO 00000KT 0900 BCFG NCD 07/05 Q1030=
201403122350 METAR COR EGLL 122350Z VRB02KT 3500 R09L/1200 HZ NSC 07/05
                        Q1030 NOSIG=
201403122320 METAR COR EGLL 122320Z 00000KT 4000 HZ NSC 08/06 Q1030 NOSIG=
201403122250 METAR COR EGLL 122250Z 02002KT 4100 HZ NSC 08/05 Q1030 NOSIG=
201403122220 METAR COR EGLL 122220Z 00000KT 4300 HZ NSC 08/06 Q1031 NOSIG=
201403122150 METAR COR EGLL 122150Z 04002KT 4300 HZ NSC 09/06 Q1031 TEMPO
                        5000=
201403122120 METAR COR EGLL 122120Z 05002KT 5000 HZ NSC 11/07 Q1031 NOSIG=
201403122050 METAR COR EGLL 122050Z 01003KT 5000 HZ NSC 10/07 Q1031 NOSIG=
201403122020 METAR COR EGLL 122020Z 36004KT 6000 NSC 10/05 Q1031 NOSIG=
201403121950 METAR COR EGLL 121950Z 07002KT 6000 NSC 12/05 Q1030 NOSIG=
201403121920 METAR COR EGLL 121920Z 05003KT 6000 NSC 11/05 Q1030 NOSIG=
201403121850 METAR COR EGLL 121850Z VRB02KT 6000 NSC 13/06 Q1030 NOSIG=
201403121820 METAR COR EGLL 121820Z 04003KT 6000 NSC 13/07 Q1030 NOSIG=
201403121750 METAR COR EGLL 121750Z 05004KT 020V080 7000 NSC 12/07 Q1030
                        NOSIG=
201403121720 METAR COR EGLL 121720Z VRB03KT 8000 NSC 14/07 Q1030 NOSIG=
201403121650 METAR COR EGLL 121650Z 06004KT 020V090 8000 NSC 15/06 Q1030
                        NOSIG=
201403121620 METAR COR EGLL 121620Z 06006KT CAVOK 16/07 Q1030 NOSIG=
201403121550 METAR COR EGLL 121550Z 06005KT CAVOK 16/07 Q1030 NOSIG=
201403121520 METAR EGLL 121520Z 06005KT 030V100 9000 NSC 16/08 Q1031=
201403121450 METAR COR EGLL 121450Z 05005KT 010V090 9000 NSC 15/07 Q1031
                        NOSIG=
201403121420 METAR COR EGLL 121420Z 07006KT 020V110 9000 NSC 15/07 Q1031
                        NOSIG=
201403121350 METAR COR EGLL 121350Z 07006KT 040V120 9000 NSC 14/07 Q1031
                        NOSIG=
201403121320 METAR COR EGLL 121320Z 08006KT 050V120 9000 NSC 14/07 Q1032
                        NOSIG=
201403121250 METAR COR EGLL 121250Z 04005KT 320V090 9000 NSC 14/07 Q1032
                        NOSIG=
201403121220 METAR COR EGLL 121220Z VRB04KT 8000 NSC 13/07 Q1033 NOSIG=
201403121150 METAR COR EGLL 121150Z 06005KT 020V100 8000 NSC 12/07 Q1033
                        NOSIG=
201403121120 METAR COR EGLL 121120Z 03004KT 330V080 7000 NSC 11/06 Q1033
                        NOSIG=
201403121050 METAR COR EGLL 121050Z 02004KT 320V080 7000 FEW011 09/06
                        Q1033 NOSIG=
201403121020 METAR COR EGLL 121020Z 02004KT 330V060 6000 SCT007 SCT009
                        08/06 Q1034 NOSIG=
201403120950 METAR COR EGLL 120950Z 02004KT 320V070 6000 2800NW SCT006
                        BKN008 07/05 Q1034 BECMG SCT009=
201403120920 METAR COR EGLL 120920Z 02004KT 350V070 6000 2700NW BKN006
                        06/04 Q1034 BECMG SCT007 BKN010=
201403120850 METAR COR EGLL 120850Z 35004KT 320V030 6000 BKN005 05/04
                        Q1034 BECMG SCT007 BKN010=
201403120820 METAR COR EGLL 120820Z VRB03KT 6000 BKN005 04/03 Q1034 TEMPO
                        4500 BR BKN004=
201403120750 METAR COR EGLL 120750Z 34003KT 7000 FEW007 04/02 Q1034 NOSIG=
201403120720 METAR COR EGLL 120720Z 35003KT 7000 NSC 03/02 Q1033 NOSIG=
201403120650 METAR COR EGLL 120650Z 02003KT 8000 NSC 02/01 Q1033 NOSIG=
201403120620 METAR EGLL 120620Z VRB03KT 8000 NSC 03/02 Q1033=
201403120550 METAR COR EGLL 120550Z VRB03KT 9000 NSC 03/02 Q1033 NOSIG=
201403120520 METAR COR EGLL 120520Z 03005KT 9000 NSC 03/02 Q1033 NOSIG=
201403120450 METAR COR EGLL 120450Z 03004KT CAVOK 03/02 Q1033 NOSIG=
201403120420 METAR COR EGLL 120420Z 03004KT CAVOK 03/02 Q1033 NOSIG=
201403120350 METAR COR EGLL 120350Z 36003KT CAVOK 02/01 Q1033 NOSIG=
201403120320 METAR COR EGLL 120320Z 36004KT CAVOK 03/02 Q1033 NOSIG=
201403120250 METAR COR EGLL 120250Z 35004KT CAVOK 03/02 Q1033 NOSIG=
201403120220 METAR EGLL 120220Z AUTO 36003KT 9999 NCD 03/02 Q1033=
201403120150 METAR EGLL 120150Z AUTO 36003KT 9999 NCD 04/02 Q1033=
201403120120 METAR EGLL 120120Z AUTO VRB03KT 9999 NCD 04/02 Q1033=
201403120050 METAR COR EGLL 120050Z 04005KT CAVOK 05/03 Q1033 NOSIG=
201403120020 METAR COR EGLL 120020Z 04005KT CAVOK 05/03 Q1033 NOSIG=
201403112350 METAR COR EGLL 112350Z 04004KT CAVOK 06/03 Q1033 NOSIG=
201403112320 METAR COR EGLL 112320Z 05004KT CAVOK 06/04 Q1033 NOSIG=
201403112250 METAR COR EGLL 112250Z 06005KT CAVOK 06/04 Q1034 NOSIG=
201403112220 METAR COR EGLL 112220Z 06007KT CAVOK 07/04 Q1034 NOSIG=
201403112150 METAR COR EGLL 112150Z 06008KT CAVOK 07/04 Q1034 NOSIG=
201403112120 METAR COR EGLL 112120Z 06007KT CAVOK 08/05 Q1034 NOSIG=
201403112050 METAR COR EGLL 112050Z 06008KT CAVOK 08/05 Q1033 NOSIG=
201403112020 METAR COR EGLL 112020Z 07006KT 8000 NSC 09/05 Q1033 NOSIG=
201403111950 METAR COR EGLL 111950Z 06009KT 8000 FEW017 09/06 Q1033 NOSIG=
201403111920 METAR COR EGLL 111920Z 06008KT 9000 NSC 10/06 Q1033 NOSIG=
201403111850 METAR COR EGLL 111850Z 06008KT CAVOK 10/06 Q1033 NOSIG=
201403111820 METAR COR EGLL 111820Z 05006KT 9000 NSC 11/06 Q1033 NOSIG=
201403111750 METAR COR EGLL 111750Z 04006KT 9999 FEW023 11/07 Q1033 NOSIG=
201403111720 METAR COR EGLL 111720Z 04006KT 9999 SCT023 11/07 Q1033 NOSIG=
201403111650 METAR COR EGLL 111650Z 04007KT 360V070 8000 BKN023 11/07
                        Q1033 NOSIG=
201403111620 METAR COR EGLL 111620Z 05008KT 020V080 7000 BKN023 12/07
                        Q1033 NOSIG=
201403111550 METAR COR EGLL 111550Z 05008KT 010V070 8000 SCT020 SCT022
                        11/07 Q1033 NOSIG=
201403111520 METAR COR EGLL 111520Z 05007KT 010V090 8000 BKN020 11/07
                        Q1033 NOSIG=
201403111450 METAR COR EGLL 111450Z 05008KT 010V090 7000 BKN019 11/07
                        Q1033 NOSIG=
201403111420 METAR COR EGLL 111420Z 06008KT 7000 BKN019 11/07 Q1033 NOSIG=
201403111350 METAR COR EGLL 111350Z 06008KT 7000 BKN017 10/07 Q1033 NOSIG=
201403111320 METAR COR EGLL 111320Z 06008KT 020V080 7000 BKN016 10/06
                        Q1033 NOSIG=
201403111250 METAR COR EGLL 111250Z 06008KT 7000 BKN016 10/06 Q1033 NOSIG=
201403111220 METAR COR EGLL 111220Z 06009KT 8000 BKN014 09/06 Q1034 BECMG
                        BKN015=
201403111150 METAR COR EGLL 111150Z 05008KT 8000 OVC013 09/06 Q1034 BECMG
                        BKN015=
201403111120 METAR COR EGLL 111120Z 05007KT 020V080 9000 BKN014 09/06
                        Q1034 BECMG BKN015=
201403111050 METAR COR EGLL 111050Z 06009KT 9999 FEW013 BKN014 08/05 Q1034
                        NOSIG=
201403111020 METAR COR EGLL 111020Z 06009KT 9999 BKN013 08/05 Q1034 NOSIG=
201403110950 METAR COR EGLL 110950Z 05008KT 010V080 9999 OVC013 08/05
                        Q1034 NOSIG=
201403110920 METAR COR EGLL 110920Z 06008KT 020V080 9999 OVC012 07/04
                        Q1034 NOSIG=
201403110850 METAR COR EGLL 110850Z 04007KT 010V090 9999 OVC012 07/04
                        Q1034 NOSIG=
201403110820 METAR COR EGLL 110820Z 05006KT 020V080 9999 OVC012 07/04
                        Q1034 NOSIG=
201403110750 METAR COR EGLL 110750Z 06008KT 9999 OVC011 07/04 Q1034 NOSIG=
201403110720 METAR COR EGLL 110720Z 06008KT 9999 FEW009 BKN010 07/04 Q1034
                        NOSIG=
201403110650 METAR COR EGLL 110650Z 06006KT 020V080 9999 FEW008 BKN009
                        06/04 Q1034 BECMG BKN010=
201403110620 METAR COR EGLL 110620Z 06008KT 9999 FEW008 BKN010 06/04 Q1034
                        NOSIG=
201403110550 METAR COR EGLL 110550Z 06009KT 9999 FEW009 BKN011 06/04 Q1033
                        NOSIG=
201403110520 METAR COR EGLL 110520Z 06008KT 9999 BKN011 06/04 Q1033 NOSIG=
201403110450 METAR COR EGLL 110450Z 06009KT 9999 BKN012 06/04 Q1033 NOSIG=
201403110420 METAR COR EGLL 110420Z 06010KT 9999 BKN013 07/04 Q1033 NOSIG=
201403110350 METAR COR EGLL 110350Z 06010KT 9999 BKN014 07/04 Q1033 NOSIG=
201403110320 METAR COR EGLL 110320Z 06011KT 9999 BKN014 07/04 Q1033 NOSIG=
201403110250 METAR COR EGLL 110250Z 05009KT 9999 BKN015 07/04 Q1033 NOSIG=
201403110220 METAR EGLL 110220Z AUTO 05007KT 340V070 9999 OVC015 07/03
                        Q1033=
201403110150 METAR EGLL 110150Z AUTO 05008KT 010V080 9999 OVC015 07/04
                        Q1033=
201403110120 METAR EGLL 110120Z AUTO 04006KT 010V070 9999 OVC016 07/03
                        Q1033=
201403110050 METAR COR EGLL 110050Z 05007KT 9999 BKN017 07/03 Q1032 NOSIG=
201403110020 METAR COR EGLL 110020Z 05008KT 020V080 9999 BKN018 07/03
                        Q1032 NOSIG=
201403102350 METAR COR EGLL 102350Z 06010KT 020V080 9999 BKN018 07/03
                        Q1033 NOSIG=
201403102320 METAR COR EGLL 102320Z 04008KT 010V080 9999 BKN018 07/03
                        Q1033 NOSIG=
201403102250 METAR COR EGLL 102250Z 05009KT 9999 BKN018 07/03 Q1033 NOSIG=
201403102220 METAR COR EGLL 102220Z 05008KT 9999 BKN019 07/03 Q1033 NOSIG=
201403102150 METAR COR EGLL 102150Z 04008KT 010V080 9999 BKN019 07/03
                        Q1033 NOSIG=
201403102120 METAR COR EGLL 102120Z 05007KT 9999 BKN019 07/03 Q1033 NOSIG=
201403102050 METAR COR EGLL 102050Z 05007KT 9999 SCT020 SCT021 07/03 Q1033
                        NOSIG=
201403102020 METAR COR EGLL 102020Z 04008KT 010V070 9999 BKN018 07/04
                        Q1032 NOSIG=
201403101950 METAR COR EGLL 101950Z 04010KT 9999 FEW017 BKN018 08/04 Q1032
                        NOSIG=
201403101920 METAR COR EGLL 101920Z 03007KT 9999 FEW017 BKN018 08/04 Q1032
                        NOSIG=
201403101850 METAR COR EGLL 101850Z 05010KT 9999 FEW018 BKN020 08/04 Q1032
                        NOSIG=
201403101820 METAR COR EGLL 101820Z 03008KT 360V060 9999 BKN020 08/04
                        Q1031 NOSIG=
201403101750 METAR COR EGLL 101750Z 03008KT 340V060 9999 FEW019 BKN020
                        09/05 Q1031 NOSIG=
201403101720 METAR COR EGLL 101720Z 03007KT 350V060 9999 FEW019 BKN020
                        09/05 Q1031 NOSIG=
201403101650 METAR COR EGLL 101650Z 01009KT 340V040 9999 FEW019 BKN021
                        09/05 Q1030 NOSIG=
201403101620 METAR COR EGLL 101620Z 02011KT 340V050 9999 BKN022 10/05
                        Q1030 NOSIG=
201403101550 METAR COR EGLL 101550Z 02008KT 340V050 9999 SCT022 11/06
                        Q1029 NOSIG=
201403101520 METAR COR EGLL 101520Z 04009KT 340V070 9999 SCT023 11/06
                        Q1029 NOSIG=
201403101450 METAR COR EGLL 101450Z 01009KT 340V040 9999 BKN022 11/06
                        Q1029 NOSIG=
201403101420 METAR COR EGLL 101420Z 04010KT 360V070 9999 BKN022 12/07
                        Q1028 NOSIG=
201403101350 METAR COR EGLL 101350Z 06011KT 9999 BKN022 12/07 Q1028 NOSIG=
201403101320 METAR COR EGLL 101320Z 02009KT 340V050 9999 BKN020 12/07
                        Q1028 NOSIG=
201403101250 METAR COR EGLL 101250Z 05009KT 020V090 9999 BKN018 12/07
                        Q1029 NOSIG=
201403101220 METAR COR EGLL 101220Z 02010KT 340V060 9000 BKN015 11/07
                        Q1029 NOSIG=
201403101150 METAR COR EGLL 101150Z 01010KT 7000 BKN016 12/08 Q1029 NOSIG=
201403101120 METAR COR EGLL 101120Z 01010KT 340V050 8000 FEW016 BKN018
                        12/08 Q1028 NOSIG=
201403101050 METAR COR EGLL 101050Z 03008KT 330V060 9999 FEW017 BKN019
                        13/08 Q1028 NOSIG=
201403101020 METAR COR EGLL 101020Z 02008KT 350V060 9000 NSC 13/08 Q1028
                        TEMPO BKN020=
201403100950 METAR COR EGLL 100950Z 03008KT 350V060 8000 NSC 13/08 Q1027
                        NOSIG=
201403100920 METAR COR EGLL 100920Z 05005KT 010V090 7000 NSC 12/08 Q1027
                        NOSIG=
201403100850 METAR COR EGLL 100850Z 03005KT 350V080 8000 NSC 10/07 Q1027
                        NOSIG=
201403100820 METAR COR EGLL 100820Z 00000KT 8000 NSC 08/05 Q1027 NOSIG=
201403100750 METAR COR EGLL 100750Z 00000KT 9000 NSC 08/04 Q1027 NOSIG=
201403100720 METAR COR EGLL 100720Z VRB02KT 9000 NSC 07/04 Q1026 NOSIG=
201403100650 METAR COR EGLL 100650Z 30003KT 9000 NSC 07/03 Q1026 NOSIG=
201403100620 METAR COR EGLL 100620Z 32002KT 9000 NSC 06/03 Q1025 NOSIG=
201403100550 METAR COR EGLL 100550Z 00000KT CAVOK 05/02 Q1025 NOSIG=
201403100520 METAR COR EGLL 100520Z VRB02KT CAVOK 05/03 Q1025 NOSIG=
201403100450 METAR COR EGLL 100450Z 35003KT CAVOK 05/03 Q1024 NOSIG=
201403100420 METAR COR EGLL 100420Z 36002KT CAVOK 05/03 Q1024 NOSIG=
201403100350 METAR EGLL 100350Z 00000KT CAVOK 06/03 Q1024=
201403100320 METAR COR EGLL 100320Z VRB02KT CAVOK 06/03 Q1023 NOSIG=
201403100250 METAR COR EGLL 100250Z VRB02KT CAVOK 06/03 Q1023 NOSIG=
201403100220 METAR EGLL 100220Z AUTO 00000KT 9999 NCD 06/03 Q1023=
201403100150 METAR EGLL 100150Z AUTO 00000KT 9999 NCD 08/04 Q1023=
201403100120 METAR EGLL 100120Z AUTO 00000KT 9999 NCD 07/04 Q1023=
201403100050 METAR COR EGLL 100050Z 36003KT CAVOK 07/03 Q1023 NOSIG=
201403100020 METAR COR EGLL 100020Z 36002KT CAVOK 08/04 Q1023 NOSIG=
201403092350 METAR COR EGLL 092350Z 00000KT CAVOK 09/04 Q1023 NOSIG=
201403092320 METAR COR EGLL 092320Z VRB03KT CAVOK 09/04 Q1023 NOSIG=
201403092250 METAR COR EGLL 092250Z VRB02KT CAVOK 09/04 Q1023 NOSIG=
201403092220 METAR COR EGLL 092220Z VRB03KT CAVOK 10/04 Q1023 NOSIG=
201403092150 METAR EGLL 092150Z 17005KT 140V210 CAVOK 11/04 Q1023=
201403092120 METAR EGLL 092120Z 16007KT CAVOK 11/04 Q1023=
201403092050 METAR COR EGLL 092050Z 18006KT CAVOK 11/04 Q1024 NOSIG=
201403092020 METAR COR EGLL 092020Z 16006KT CAVOK 12/04 Q1024 NOSIG=
201403091950 METAR COR EGLL 091950Z 17008KT 150V210 CAVOK 13/04 Q1023
                        NOSIG=
201403091920 METAR COR EGLL 091920Z 18010KT 160V240 CAVOK 13/04 Q1023
                        NOSIG=
201403091850 METAR COR EGLL 091850Z 18008KT CAVOK 13/04 Q1023 NOSIG=
201403091820 METAR COR EGLL 091820Z 18008KT CAVOK 14/04 Q1023 NOSIG=
201403091750 METAR COR EGLL 091750Z 17008KT CAVOK 15/04 Q1022 NOSIG=
201403091720 METAR COR EGLL 091720Z 19010KT CAVOK 17/03 Q1022 NOSIG=
201403091650 METAR COR EGLL 091650Z 18013KT CAVOK 17/03 Q1022 NOSIG=
201403091620 METAR COR EGLL 091620Z 17011KT CAVOK 18/03 Q1021 NOSIG=
201403091550 METAR COR EGLL 091550Z 17012KT 150V220 CAVOK 18/03 Q1021
                        NOSIG=
201403091520 METAR COR EGLL 091520Z 19010KT CAVOK 19/05 Q1021 NOSIG=
201403091450 METAR COR EGLL 091450Z 19009KT 150V240 CAVOK 19/05 Q1021
                        NOSIG=
201403091420 METAR COR EGLL 091420Z 19011KT 150V240 CAVOK 19/06 Q1022
                        NOSIG=
201403091350 METAR COR EGLL 091350Z 18009KT 120V250 CAVOK 19/06 Q1022
                        NOSIG=
201403091320 METAR COR EGLL 091320Z 19008G18KT 140V260 CAVOK 19/05 Q1022
                        NOSIG=
201403091250 METAR COR EGLL 091250Z 21010KT 180V250 CAVOK 18/06 Q1022
                        NOSIG=
201403091220 METAR COR EGLL 091220Z 20008KT 140V260 CAVOK 18/07 Q1023
                        NOSIG=
201403091150 METAR COR EGLL 091150Z 17006KT 090V230 8000 NSC 17/07 Q1023
                        NOSIG=
201403091120 METAR COR EGLL 091120Z 20007KT 110V250 8000 NSC 16/07 Q1023
                        NOSIG=
201403091050 METAR COR EGLL 091050Z 17006KT 130V240 8000 NSC 15/07 Q1023
                        NOSIG=
201403091020 METAR COR EGLL 091020Z VRB05KT 7000 NSC 14/07 Q1023 NOSIG=
201403090950 METAR COR EGLL 090950Z VRB04KT 6000 NSC 14/06 Q1023 NOSIG=
201403090920 METAR COR EGLL 090920Z VRB03KT 5000 HZ NSC 13/06 Q1023 NOSIG=
201403090850 METAR COR EGLL 090850Z VRB03KT 5000 HZ NSC 11/06 Q1023 NOSIG=
201403090820 METAR COR EGLL 090820Z 16004KT 120V240 5000 HZ NSC 10/06
                        Q1023 NOSIG=
201403090750 METAR COR EGLL 090750Z VRB04KT 5000 HZ NSC 09/05 Q1022 NOSIG=
201403090720 METAR COR EGLL 090720Z 16005KT 130V220 5000 HZ NSC 08/04
                        Q1022 TEMPO 4800=
201403090650 METAR COR EGLL 090650Z 17004KT 110V230 5000 HZ NSC 08/04
                        Q1022 TEMPO 4800=
201403090620 METAR COR EGLL 090620Z 16006G16KT 120V210 5000 HZ NSC 09/04
                        Q1022 TEMPO 4500=
201403090550 METAR COR EGLL 090550Z 17006KT 5000 HZ NSC 08/04 Q1022 TEMPO
                        4500=
201403090520 METAR COR EGLL 090520Z 16006KT 5000 HZ NSC 08/04 Q1021 TEMPO
                        4500=
201403090450 METAR COR EGLL 090450Z 15006KT 5000 HZ NSC 08/05 Q1021 TEMPO
                        4500=
201403090420 METAR EGLL 090420Z 14005KT 6000 NSC 09/05 Q1021=
201403090350 METAR COR EGLL 090350Z 15005KT 6000 NSC 09/05 Q1021 NOSIG=
201403090320 METAR COR EGLL 090320Z 14006KT 6000 NSC 08/05 Q1021 NOSIG=
201403090250 METAR COR EGLL 090250Z 14004KT 6000 NSC 08/04 Q1021 NOSIG=
201403090220 METAR EGLL 090220Z AUTO 16004KT 6000 NCD 08/04 Q1021=
201403090150 METAR EGLL 090150Z AUTO VRB02KT 6000 NCD 08/04 Q1021=
201403090120 METAR EGLL 090120Z AUTO VRB02KT 6000 NCD 08/04 Q1021=
201403090050 METAR COR EGLL 090050Z 13003KT 6000 NSC 08/04 Q1021 NOSIG=
201403090020 METAR COR EGLL 090020Z 14003KT 6000 NSC 08/04 Q1021 NOSIG=
201403082350 METAR COR EGLL 082350Z 17003KT 6000 NSC 09/04 Q1021 NOSIG=
201403082320 METAR COR EGLL 082320Z 16006KT 6000 NSC 10/05 Q1021 NOSIG=
201403082250 METAR EGLL 082250Z 15005KT 6000 NSC 10/04 Q1022=
201403082220 METAR COR EGLL 082220Z 17004KT 140V200 7000 NSC 10/04 Q1022
                        NOSIG=
201403082150 METAR COR EGLL 082150Z 16005KT 140V210 9000 NSC 10/04 Q1022
                        NOSIG=
201403082120 METAR COR EGLL 082120Z 17006KT 9000 NSC 10/04 Q1022 NOSIG=
201403082050 METAR COR EGLL 082050Z 18004KT 9000 NSC 10/04 Q1022 NOSIG=
201403082020 METAR COR EGLL 082020Z VRB04KT 9000 NSC 10/04 Q1022 NOSIG=
201403081950 METAR COR EGLL 081950Z 14004KT CAVOK 11/04 Q1022 NOSIG=
201403081920 METAR COR EGLL 081920Z 15005KT CAVOK 11/04 Q1022 NOSIG=
201403081850 METAR COR EGLL 081850Z 15006KT CAVOK 11/03 Q1022 NOSIG=
201403081820 METAR COR EGLL 081820Z 15006KT CAVOK 12/03 Q1022 NOSIG=
201403081750 METAR COR EGLL 081750Z 17008KT CAVOK 13/02 Q1022 NOSIG=
201403081720 METAR COR EGLL 081720Z 17011KT CAVOK 14/02 Q1022 NOSIG=
201403081650 METAR COR EGLL 081650Z 17010KT CAVOK 14/03 Q1022 NOSIG=
201403081620 METAR COR EGLL 081620Z 16011KT CAVOK 14/04 Q1023 NOSIG=
201403081550 METAR COR EGLL 081550Z 16010KT CAVOK 15/04 Q1023 NOSIG=
201403081520 METAR COR EGLL 081520Z 20012KT CAVOK 15/03 Q1023 NOSIG=
201403081450 METAR COR EGLL 081450Z 20013KT CAVOK 16/03 Q1023 NOSIG=
201403081420 METAR COR EGLL 081420Z 20012KT CAVOK 15/03 Q1024 NOSIG=
201403081350 METAR COR EGLL 081350Z 20013KT CAVOK 15/02 Q1024 NOSIG=
201403081320 METAR COR EGLL 081320Z 19014KT CAVOK 15/03 Q1024 NOSIG=
201403081250 METAR COR EGLL 081250Z 19015KT 9000 NSC 15/04 Q1025 NOSIG=
201403081220 METAR COR EGLL 081220Z 19014KT 9000 NSC 14/05 Q1025 NOSIG=
201403081150 METAR COR EGLL 081150Z 19014KT 9000 NSC 14/05 Q1025 NOSIG=
201403081120 METAR COR EGLL 081120Z 18010KT 9000 NSC 13/07 Q1026 NOSIG=
201403081050 METAR COR EGLL 081050Z 17008KT 9000 NSC 12/07 Q1026 NOSIG=
201403081020 METAR COR EGLL 081020Z 17009KT 9000 NSC 11/07 Q1026 NOSIG=
201403080950 METAR COR EGLL 080950Z 17010KT 9000 FEW017 10/07 Q1027 NOSIG=
201403080920 METAR COR EGLL 080920Z 16009KT 9999 FEW011 BKN014 10/07 Q1027
                        BECMG SCT015=
201403080850 METAR COR EGLL 080850Z 16010KT 9999 SCT007 BKN010 09/07 Q1027
                        BECMG SCT015=
201403080820 METAR COR EGLL 080820Z 16011KT 9000 FEW006 BKN007 09/07 Q1027
                        BECMG BKN012=
201403080750 METAR COR EGLL 080750Z 16010KT 9000 BKN007 09/07 Q1027 BECMG
                        BKN012=
201403080720 METAR COR EGLL 080720Z 15009KT 9999 BKN008 09/07 Q1027 BECMG
                        BKN012=
201403080650 METAR COR EGLL 080650Z 15009KT 9999 BKN008 09/07 Q1027 BECMG
                        BKN012=
201403080620 METAR COR EGLL 080620Z 15009KT 9999 BKN007 09/07 Q1027 BECMG
                        BKN012=
201403080550 METAR COR EGLL 080550Z 15010KT 9999 BKN007 08/07 Q1027 TEMPO
                        BKN010=
201403080520 METAR EGLL 080520Z 14009KT 9999 BKN008 08/06 Q1027=
201403080450 METAR COR EGLL 080450Z 14014KT 9999 BKN009 09/07 Q1027 TEMPO
                        BKN012=
201403080420 METAR COR EGLL 080420Z 12008KT 8000 SCT009 BKN011 08/07 Q1027
                        TEMPO BKN008=
201403080350 METAR COR EGLL 080350Z 11006KT 9000 FEW009 SCT012 08/06 Q1027
                        TEMPO BKN004=
201403080320 METAR COR EGLL 080320Z 10009KT 9000 BKN011 09/07 Q1027 TEMPO
                        BKN004=
201403080250 METAR COR EGLL 080250Z 12009KT 9999 BKN009 08/06 Q1027 TEMPO
                        BKN004=
201403080220 METAR EGLL 080220Z AUTO 10008KT 9999 OVC006 08/06 Q1028=
201403080150 METAR EGLL 080150Z AUTO 10008KT 9999 SCT006 BKN036 07/04
                        Q1028=
201403080120 METAR EGLL 080120Z AUTO 10008KT 9999 BKN038 08/04 Q1029=
201403080050 METAR COR EGLL 080050Z 09008KT 9999 SCT038 08/04 Q1029 TEMPO
                        SCT004 BKN007=
201403080020 METAR COR EGLL 080020Z 09010KT CAVOK 08/04 Q1028 TEMPO SCT004
                        BKN007=
201403072350 METAR COR EGLL 072350Z 07007KT CAVOK 09/05 Q1028 TEMPO SCT004
                        BKN007=
201403072320 METAR COR EGLL 072320Z 07006KT 9999 FEW037 09/05 Q1028 NOSIG=
201403072250 METAR COR EGLL 072250Z 07006KT 9999 FEW037 08/05 Q1028 NOSIG=
201403072220 METAR COR EGLL 072220Z 07005KT 9999 FEW037 10/05 Q1028 NOSIG=
201403072150 METAR COR EGLL 072150Z 07006KT CAVOK 10/05 Q1028 NOSIG=
201403072120 METAR COR EGLL 072120Z 06006KT 9999 FEW040 10/05 Q1028 NOSIG=
201403072050 METAR COR EGLL 072050Z VRB03KT CAVOK 12/05 Q1027 NOSIG=
201403072020 METAR COR EGLL 072020Z VRB02KT CAVOK 13/05 Q1027 NOSIG=
201403071950 METAR COR EGLL 071950Z 36004KT 9999 FEW040 13/06 Q1027 NOSIG=
201403071920 METAR COR EGLL 071920Z 36004KT 9999 SCT035 14/07 Q1027 NOSIG=
201403071850 METAR COR EGLL 071850Z 31004KT 9999 SCT038 13/07 Q1026 NOSIG=
201403071820 METAR COR EGLL 071820Z VRB03KT 9999 SCT038 14/07 Q1026 NOSIG=
201403071750 METAR COR EGLL 071750Z 27005KT 9999 FEW038 14/07 Q1026 NOSIG=
201403071720 METAR COR EGLL 071720Z 27006KT 9999 FEW040 14/07 Q1025 NOSIG=
201403071650 METAR COR EGLL 071650Z 25007KT 9999 FEW040 15/07 Q1025 NOSIG=
201403071620 METAR COR EGLL 071620Z 27008KT 230V290 9999 FEW040 15/07
                        Q1024 NOSIG=
201403071550 METAR COR EGLL 071550Z 28008KT 9999 FEW040 15/07 Q1024 NOSIG=
201403071520 METAR COR EGLL 071520Z 28009KT 9999 FEW035 16/07 Q1024 NOSIG=
201403071450 METAR COR EGLL 071450Z 28010KT 9999 FEW030 SCT035 15/08 Q1024
                        NOSIG=
201403071420 METAR COR EGLL 071420Z 27014KT 9999 FEW030 SCT035 15/09 Q1024
                        NOSIG=
201403071350 METAR COR EGLL 071350Z 20008KT 150V250 9999 SCT028 16/09
                        Q1021 NOSIG=
201403071320 METAR COR EGLL 071320Z 27009KT 9999 SCT024 15/09 Q1023 NOSIG=
201403071250 METAR COR EGLL 071250Z 26009KT 230V290 9999 SCT022 15/09
                        Q1022 NOSIG=
201403071220 METAR COR EGLL 071220Z 25010KT 230V290 9999 FEW018 14/09
                        Q1022 NOSIG=
201403071150 METAR COR EGLL 071150Z 25011KT 9999 SCT018 13/09 Q1022 NOSIG=
201403071120 METAR COR EGLL 071120Z 25013KT 9999 BKN014 12/09 Q1022 BECMG
                        SCT014 BKN025=
201403071050 METAR COR EGLL 071050Z 23011KT 9999 BKN010 11/09 Q1022 BECMG
                        SCT010 BKN016=
201403071020 METAR COR EGLL 071020Z 23012KT 9999 BKN009 11/09 Q1021 BECMG
                        SCT009 BKN012=
201403070950 METAR COR EGLL 070950Z 22011KT 9999 FEW007 BKN009 10/08 Q1021
                        TEMPO 4500 DZ=
201403070920 METAR COR EGLL 070920Z 22011KT 9999 BKN008 10/08 Q1021 TEMPO
                        4500 RADZ=
201403070850 METAR COR EGLL 070850Z 22013KT 9999 BKN009 10/08 Q1021 TEMPO
                        SCT009 BKN011=
201403070820 METAR COR EGLL 070820Z 22014KT 9999 BKN011 10/07 Q1020 TEMPO
                        BKN009=
201403070750 METAR COR EGLL 070750Z 22015KT 9999 BKN013 10/07 Q1020 NOSIG=
201403070720 METAR COR EGLL 070720Z 22012KT 9999 FEW012 BKN014 09/07 Q1020
                        TEMPO SCT014 BKN016=
201403070650 METAR COR EGLL 070650Z 22012KT 9999 BKN015 09/06 Q1019 BECMG
                        BKN012=
201403070620 METAR COR EGLL 070620Z 21010KT 180V250 9999 FEW016 SCT018
                        09/06 Q1020 BECMG BKN012=
201403070550 METAR COR EGLL 070550Z 20008KT CAVOK 09/06 Q1020 BECMG BKN012=
201403070520 METAR COR EGLL 070520Z 21008KT CAVOK 08/06 Q1020 NOSIG=
201403070450 METAR COR EGLL 070450Z 20005KT CAVOK 07/05 Q1020 NOSIG=
201403070420 METAR COR EGLL 070420Z 19004KT CAVOK 07/05 Q1020 NOSIG=
201403070350 METAR COR EGLL 070350Z 19006KT CAVOK 07/05 Q1020 NOSIG=
201403070320 METAR COR EGLL 070320Z 19005KT CAVOK 07/05 Q1020 NOSIG=
201403070250 METAR EGLL 070250Z AUTO 19006KT 9999 NCD 07/05 Q1020=
201403070220 METAR EGLL 070220Z AUTO 20005KT 9999 NCD 07/05 Q1021=
201403070150 METAR EGLL 070150Z AUTO 21005KT 9999 NCD 07/05 Q1021=
201403070120 METAR COR EGLL 070120Z 18005KT CAVOK 07/05 Q1021 NOSIG=
201403070050 METAR COR EGLL 070050Z 20006KT CAVOK 07/05 Q1021 NOSIG=
201403070020 METAR COR EGLL 070020Z 19004KT CAVOK 07/05 Q1022 NOSIG=
201403062350 METAR COR EGLL 062350Z 21005KT CAVOK 08/06 Q1022 NOSIG=
201403062320 METAR COR EGLL 062320Z 21005KT CAVOK 08/06 Q1022 NOSIG=
201403062250 METAR COR EGLL 062250Z 20007KT CAVOK 08/06 Q1022 NOSIG=
201403062220 METAR COR EGLL 062220Z 19009KT CAVOK 08/06 Q1022 NOSIG=
201403062150 METAR COR EGLL 062150Z 19011KT 9999 FEW048 08/06 Q1022 NOSIG=
201403062120 METAR COR EGLL 062120Z 20009KT 170V230 CAVOK 09/06 Q1023
                        NOSIG=
201403062050 METAR EGLL 062050Z 20008KT 160V240 CAVOK 09/06 Q1023=
201403062020 METAR COR EGLL 062020Z 20010KT CAVOK 09/06 Q1023 NOSIG=
201403061950 METAR COR EGLL 061950Z 21010KT CAVOK 09/06 Q1023 NOSIG=
201403061920 METAR COR EGLL 061920Z 21010KT 9999 FEW020 10/06 Q1023 NOSIG=
201403061850 METAR COR EGLL 061850Z 21011KT CAVOK 10/06 Q1023 NOSIG=
201403061820 METAR COR EGLL 061820Z 21011KT CAVOK 10/06 Q1023 NOSIG=
201403061750 METAR COR EGLL 061750Z 21011KT 9999 FEW030 11/06 Q1023 NOSIG=
201403061720 METAR COR EGLL 061720Z 21011KT 9999 FEW030 11/06 Q1023 NOSIG=
201403061650 METAR COR EGLL 061650Z 22012KT 9999 FEW028 11/06 Q1023 NOSIG=
201403061620 METAR COR EGLL 061620Z 22012KT 9999 FEW028 12/06 Q1023 NOSIG=
201403061550 METAR COR EGLL 061550Z 23013KT 9999 FEW030 12/05 Q1023 NOSIG=
201403061520 METAR COR EGLL 061520Z 21014KT 9999 FEW028 13/06 Q1023 NOSIG=
201403061450 METAR COR EGLL 061450Z 23014KT 9999 SCT028 13/06 Q1023 NOSIG=
201403061420 METAR COR EGLL 061420Z 23015KT 9999 SCT026 13/06 Q1024 NOSIG=
201403061350 METAR COR EGLL 061350Z 22014KT 9999 SCT028 13/06 Q1024 NOSIG=
201403061320 METAR COR EGLL 061320Z 23013G23KT 190V260 9999 SCT027 13/07
                        Q1024 NOSIG=
201403061250 METAR COR EGLL 061250Z 22014KT 9999 SCT027 13/06 Q1024 NOSIG=
201403061220 METAR COR EGLL 061220Z 22012KT 190V250 9999 SCT027 13/07
                        Q1025 NOSIG=
201403061150 METAR COR EGLL 061150Z 22014KT 9999 SCT026 12/06 Q1025 NOSIG=
201403061120 METAR COR EGLL 061120Z 22013KT 9999 SCT031 11/06 Q1025 NOSIG=
201403061050 METAR COR EGLL 061050Z 23012KT 9999 FEW017 SCT021 10/06 Q1026
                        NOSIG=
201403061020 METAR COR EGLL 061020Z 24012KT 9999 FEW017 SCT020 10/06 Q1026
                        NOSIG=
201403060950 METAR COR EGLL 060950Z 24012KT 9999 SCT017 10/06 Q1026 NOSIG=
201403060920 METAR COR EGLL 060920Z 21009KT 180V240 CAVOK 09/06 Q1025
                        NOSIG=
201403060850 METAR COR EGLL 060850Z 21006KT 180V250 CAVOK 08/06 Q1025
                        NOSIG=
201403060820 METAR COR EGLL 060820Z 20007KT CAVOK 08/06 Q1025 NOSIG=
201403060750 METAR COR EGLL 060750Z 21006KT 9000 NSC 07/05 Q1025 NOSIG=
201403060720 METAR COR EGLL 060720Z 19006KT 150V230 9000 NSC 06/05 Q1025
                        NOSIG=
201403060650 METAR COR EGLL 060650Z VRB06KT 9000 NSC 05/04 Q1025 NOSIG=
201403060620 METAR COR EGLL 060620Z 18006KT 130V280 7000 NSC 05/04 Q1025
                        NOSIG=
201403060550 METAR COR EGLL 060550Z 18006KT 8000 NSC 05/04 Q1025 NOSIG=
201403060520 METAR COR EGLL 060520Z 20005KT 8000 NSC 05/04 Q1024 NOSIG=
201403060450 METAR COR EGLL 060450Z 20004KT 8000 NSC 05/04 Q1024 NOSIG=
201403060420 METAR COR EGLL 060420Z 19005KT 8000 NSC 05/04 Q1024 NOSIG=
201403060350 METAR EGLL 060350Z 18003KT 8000 NSC 05/04 Q1024=
201403060320 METAR COR EGLL 060320Z 19006KT 9000 NSC 05/04 Q1025 NOSIG=
201403060250 METAR COR EGLL 060250Z 19006KT 9000 NSC 05/04 Q1025 NOSIG=
201403060220 METAR EGLL 060220Z AUTO 18006KT 9999 NCD 05/04 Q1025=
201403060150 METAR EGLL 060150Z AUTO 18006KT 9999 NCD 05/04 Q1025=
201403060120 METAR EGLL 060120Z AUTO 19006KT 9999 NCD 06/04 Q1025=
201403060050 METAR COR EGLL 060050Z 18005KT CAVOK 06/04 Q1025 NOSIG=
201403060020 METAR COR EGLL 060020Z 18005KT CAVOK 06/04 Q1025 NOSIG=
201403052350 METAR COR EGLL 052350Z 20006KT CAVOK 07/04 Q1025 NOSIG=
201403052320 METAR COR EGLL 052320Z 22006KT CAVOK 07/04 Q1025 NOSIG=
201403052250 METAR COR EGLL 052250Z 22007KT CAVOK 07/04 Q1025 NOSIG=
201403052220 METAR COR EGLL 052220Z 21007KT CAVOK 07/04 Q1025 NOSIG=
201403052150 METAR COR EGLL 052150Z 22008KT CAVOK 08/04 Q1025 NOSIG=
201403052120 METAR COR EGLL 052120Z 21008KT CAVOK 08/04 Q1025 NOSIG=
201403052050 METAR COR EGLL 052050Z 21009KT CAVOK 09/04 Q1024 NOSIG=
201403052020 METAR COR EGLL 052020Z 21009KT CAVOK 09/04 Q1024 NOSIG=
201403051950 METAR COR EGLL 051950Z 21007KT 180V250 CAVOK 09/04 Q1024
                        NOSIG=
201403051920 METAR COR EGLL 051920Z 22008KT CAVOK 10/04 Q1024 NOSIG=
201403051850 METAR COR EGLL 051850Z 22006KT CAVOK 10/04 Q1024 NOSIG=
201403051820 METAR COR EGLL 051820Z 22006KT CAVOK 11/04 Q1023 NOSIG=
201403051750 METAR COR EGLL 051750Z 22006KT 190V260 9999 FEW040 11/03
                        Q1023 NOSIG=
201403051720 METAR COR EGLL 051720Z 23007KT 9999 FEW040 11/03 Q1023 NOSIG=
201403051650 METAR COR EGLL 051650Z 25007KT 9999 FEW038 12/04 Q1022 NOSIG=
201403051620 METAR COR EGLL 051620Z 26007KT 9999 FEW036 12/03 Q1022 NOSIG=
201403051550 METAR COR EGLL 051550Z 27009KT 9999 FEW040 12/03 Q1022 NOSIG=
201403051520 METAR COR EGLL 051520Z 26010KT 9999 FEW040 12/03 Q1022 NOSIG=
201403051450 METAR COR EGLL 051450Z 28010KT 9999 FEW040 13/04 Q1022 NOSIG=
201403051420 METAR COR EGLL 051420Z 26008KT 200V300 9999 FEW039 13/03
                        Q1022 NOSIG=
201403051350 METAR COR EGLL 051350Z 26008KT 230V300 9999 FEW036 13/04
                        Q1022 NOSIG=
201403051320 METAR COR EGLL 051320Z 25008KT 200V280 9999 FEW036 12/03
                        Q1022 NOSIG=
201403051250 METAR COR EGLL 051250Z 24009KT 210V270 9999 FEW036 12/03
                        Q1021 NOSIG=
201403051220 METAR COR EGLL 051220Z 22005KT 130V260 9999 FEW032 11/03
                        Q1021 NOSIG=
201403051150 METAR COR EGLL 051150Z VRB04KT 9999 FEW030 11/03 Q1021 NOSIG=
201403051120 METAR COR EGLL 051120Z VRB04KT 9999 FEW030 11/03 Q1021 NOSIG=
201403051050 METAR COR EGLL 051050Z 22005KT 190V260 CAVOK 10/03 Q1021
                        NOSIG=
201403051020 METAR COR EGLL 051020Z 29004KT 250V310 CAVOK 09/03 Q1021
                        NOSIG=
201403050950 METAR COR EGLL 050950Z VRB03KT CAVOK 07/03 Q1021 NOSIG=
201403050920 METAR COR EGLL 050920Z VRB02KT CAVOK 06/03 Q1021 NOSIG=
201403050850 METAR COR EGLL 050850Z VRB02KT CAVOK 05/02 Q1020 NOSIG=
201403050820 METAR COR EGLL 050820Z VRB02KT CAVOK 03/02 Q1020 NOSIG=
201403050750 METAR COR EGLL 050750Z 00000KT CAVOK 02/01 Q1019 NOSIG=
201403050720 METAR COR EGLL 050720Z 00000KT CAVOK 01/00 Q1018 NOSIG=
201403050650 METAR COR EGLL 050650Z VRB02KT CAVOK 01/00 Q1018 NOSIG=
201403050620 METAR COR EGLL 050620Z 29003KT CAVOK 01/00 Q1017 NOSIG=
201403050550 METAR COR EGLL 050550Z 00000KT CAVOK 01/M00 Q1017 NOSIG=
201403050520 METAR COR EGLL 050520Z 32002KT CAVOK 01/01 Q1017 NOSIG=
201403050450 METAR COR EGLL 050450Z 00000KT CAVOK 01/00 Q1016 NOSIG=
201403050420 METAR COR EGLL 050420Z 00000KT 8000 NSC 01/00 Q1015 NOSIG=
201403050350 METAR COR EGLL 050350Z 00000KT 9000 NSC 01/00 Q1015 NOSIG=
201403050320 METAR COR EGLL 050320Z 30003KT CAVOK 02/01 Q1015 NOSIG=
201403050250 METAR COR EGLL 050250Z 29005KT CAVOK 02/01 Q1015 NOSIG=
201403050220 METAR EGLL 050220Z AUTO 29003KT 9999 NCD 02/01 Q1014=
201403050150 METAR COR EGLL 050150Z AUTO 30003KT 9000 NCD 02/01 Q1014
                        NOSIG=
201403050120 METAR EGLL 050120Z AUTO 30002KT 9000 NCD 02/01 Q1013=
201403050050 METAR COR EGLL 050050Z 30003KT 8000 NSC 02/01 Q1013 NOSIG=
201403050020 METAR COR EGLL 050020Z VRB02KT 9000 NSC 03/02 Q1012 NOSIG=
201403042350 METAR COR EGLL 042350Z 27002KT CAVOK 04/02 Q1012 NOSIG=
201403042320 METAR COR EGLL 042320Z 00000KT CAVOK 03/02 Q1011 NOSIG=
201403042250 METAR COR EGLL 042250Z VRB02KT CAVOK 04/02 Q1011 NOSIG=
201403042220 METAR COR EGLL 042220Z 00000KT CAVOK 05/02 Q1010 NOSIG=
201403042150 METAR COR EGLL 042150Z VRB02KT CAVOK 05/03 Q1010 NOSIG=
201403042120 METAR COR EGLL 042120Z VRB02KT CAVOK 06/03 Q1009 NOSIG=
201403042050 METAR COR EGLL 042050Z VRB02KT CAVOK 06/03 Q1009 NOSIG=
201403042020 METAR COR EGLL 042020Z 32002KT 9999 FEW046 08/03 Q1009 NOSIG=
201403041950 METAR COR EGLL 041950Z 28002KT 9999 FEW049 08/03 Q1008 NOSIG=
201403041920 METAR COR EGLL 041920Z 00000KT 9999 FEW040 08/03 Q1007 NOSIG=
201403041850 METAR COR EGLL 041850Z VRB02KT 9999 FEW040 09/03 Q1007 NOSIG=
201403041820 METAR COR EGLL 041820Z VRB02KT 9999 FEW025 08/03 Q1007 NOSIG=
201403041750 METAR COR EGLL 041750Z 24005KT 9999 FEW024 09/04 Q1006 NOSIG=
201403041720 METAR COR EGLL 041720Z 23005KT 9999 FEW024 10/03 Q1006 NOSIG=
201403041650 METAR COR EGLL 041650Z VRB03KT 9999 FEW028 09/03 Q1005 NOSIG=
201403041620 METAR COR EGLL 041620Z 27005KT 9999 FEW028 10/03 Q1005 NOSIG=
201403041550 METAR EGLL 041550Z 27005KT 210V340 9999 SCT032 10/04 Q1004=
201403041520 METAR COR EGLL 041520Z 25005KT 180V290 9999 SCT047 10/03
                        Q1004 NOSIG=
201403041450 METAR COR EGLL 041450Z 27009KT 9999 SCT040 09/04 Q1004 NOSIG=
201403041420 METAR COR EGLL 041420Z 27009KT 9999 SCT030 BKN042 09/04 Q1003
                        NOSIG=
201403041350 METAR EGLL 041350Z 26007KT 220V300 9999 SCT033 BKN046 10/04
                        Q1003=
201403041320 METAR COR EGLL 041320Z 28006KT 9999 SCT033 BKN047 09/04 Q1003
                        NOSIG=
201403041250 METAR COR EGLL 041250Z 28006KT 9999 FEW027 SCT038 BKN045
                        09/03 Q1003 NOSIG=
201403041220 METAR COR EGLL 041220Z 28007KT 240V320 9999 FEW023 SCT048
                        10/05 Q1003 NOSIG=
201403041150 METAR COR EGLL 041150Z 25008KT 220V290 9999 SCT046 09/04
                        Q1003 NOSIG=
201403041120 METAR COR EGLL 041120Z 27005KT 230V300 9999 SCT046 08/04
                        Q1003 NOSIG=
201403041050 METAR COR EGLL 041050Z 28004KT 230V330 9999 BKN045 07/04
                        Q1003 NOSIG=
201403041020 METAR COR EGLL 041020Z 29006KT 9999 BKN047 07/03 Q1003 NOSIG=
201403040950 METAR COR EGLL 040950Z 27008KT 9999 BKN048 06/03 Q1003 NOSIG=
201403040920 METAR COR EGLL 040920Z 27009KT 9999 BKN049 05/03 Q1003 NOSIG=
201403040850 METAR COR EGLL 040850Z 27007KT 9999 SCT049 05/02 Q1003 NOSIG=
201403040820 METAR COR EGLL 040820Z 25006KT 220V290 CAVOK 03/02 Q1002
                        NOSIG=
201403040750 METAR COR EGLL 040750Z 23006KT 9000 NSC 02/01 Q1002 NOSIG=
201403040720 METAR COR EGLL 040720Z 23005KT 170V260 CAVOK 01/01 Q1002
                        NOSIG=
201403040650 METAR COR EGLL 040650Z VRB04KT CAVOK 00/M00 Q1001 NOSIG=
201403040620 METAR COR EGLL 040620Z 25005KT 230V290 9999 VCFG NSC 01/M00
                        Q1001 TEMPO 4000 BR=
201403040550 METAR COR EGLL 040550Z 26005KT CAVOK 02/01 Q1001 TEMPO 4000
                        BR=
201403040520 METAR COR EGLL 040520Z 25004KT 8000 NSC 02/01 Q1000 TEMPO
                        4000 BR=
201403040450 METAR COR EGLL 040450Z 25002KT 8000 NSC 02/01 Q1000 TEMPO
                        4000 BR=
201403040420 METAR COR EGLL 040420Z VRB02KT 8000 NSC 02/02 Q1000 TEMPO
                        4000 BR=
201403040350 METAR COR EGLL 040350Z 26004KT 8000 NSC 02/01 Q0999 TEMPO
                        4000 BR=
201403040320 METAR COR EGLL 040320Z 25004KT 8000 NSC 02/01 Q0999 NOSIG=
201403040250 METAR COR EGLL 040250Z 26003KT 9000 NSC 03/02 Q0999 NOSIG=
201403040220 METAR EGLL 040220Z AUTO 27003KT 7000 NCD 02/01 Q0998=
201403040150 METAR EGLL 040150Z AUTO 28005KT 5000 NCD 02/01 Q0998=
201403040120 METAR EGLL 040120Z AUTO 28004KT 9000 NCD 02/01 Q0998=
201403040050 METAR EGLL 040050Z VRB02KT CAVOK 03/02 Q0997=
201403040020 METAR EGLL 040020Z 30004KT CAVOK 04/02 Q0997=
201403032350 METAR COR EGLL 032350Z 30005KT 9999 FEW045 04/03 Q0996 NOSIG=
201403032320 METAR COR EGLL 032320Z VRB03KT 9999 FEW035 04/03 Q0996 NOSIG=
201403032250 METAR COR EGLL 032250Z VRB02KT 9999 FEW031 05/03 Q0995 NOSIG=
201403032220 METAR COR EGLL 032220Z VRB02KT 9999 SCT031 05/03 Q0995 NOSIG=
201403032150 METAR COR EGLL 032150Z VRB03KT 9999 SCT033 05/03 Q0994 NOSIG=
201403032120 METAR COR EGLL 032120Z VRB03KT 9999 FEW014 BKN031 06/04 Q0994
                        NOSIG=
201403032050 METAR COR EGLL 032050Z VRB03KT 9999 BKN031 06/04 Q0993 NOSIG=
201403032020 METAR COR EGLL 032020Z VRB03KT 9999 SCT029 06/04 Q0992 NOSIG=
201403031950 METAR COR EGLL 031950Z VRB03KT 9999 FEW015 07/04 Q0992 NOSIG=
201403031920 METAR COR EGLL 031920Z 35004KT 300V020 9999 BKN017 07/04
                        Q0991 NOSIG=
201403031850 METAR COR EGLL 031850Z VRB02KT 9999 FEW018 06/03 Q0990 NOSIG=
201403031820 METAR COR EGLL 031820Z VRB03KT 9999 FEW016 SCT026 07/04 Q0990
                        NOSIG=
201403031750 METAR COR EGLL 031750Z VRB03KT 9999 SCT016 SCT026 07/04 Q0989
                        NOSIG=
201403031720 METAR COR EGLL 031720Z VRB03KT 9999 SCT033CB 07/04 Q0988
                        NOSIG=
201403031650 METAR COR EGLL 031650Z 07004KT 9999 FEW028 SCT033 07/04 Q0988
                        NOSIG=
201403031620 METAR COR EGLL 031620Z 06005KT 9999 BKN020 08/04 Q0987 TEMPO
                        SHRA=
201403031550 METAR COR EGLL 031550Z 05004KT 020V080 9999 FEW021 SCT028
                        08/03 Q0986 NOSIG=
201403031520 METAR COR EGLL 031520Z VRB02KT 9999 SCT030TCU 08/04 Q0986
                        NOSIG=
201403031450 METAR COR EGLL 031450Z VRB03KT 9999 FEW022 SCT031 SCT041TCU
                        08/05 Q0985 NOSIG=
201403031420 METAR COR EGLL 031420Z 00000KT 9999 SCT030 SCT037 07/03 Q0985
                        NOSIG=
201403031350 METAR COR EGLL 031350Z VRB02KT 9999 SCT033 07/03 Q0985 TEMPO
                        SHRA=
201403031320 METAR COR EGLL 031320Z 20006KT 9999 -RA BKN022 06/04 Q0985
                        TEMPO SHRA BKN020CB=
201403031250 METAR COR EGLL 031250Z 20009KT 9999 -SHRA BKN020CB 07/03
                        Q0984 TEMPO SHRA=
201403031220 METAR COR EGLL 031220Z 15005KT 9999 FEW027 SCT033 09/04 Q0984
                        TEMPO SHRA=
201403031150 METAR COR EGLL 031150Z 19006KT 9999 FEW020 SCT030 BKN037
                        07/04 Q0984 TEMPO SHRA=
201403031120 METAR COR EGLL 031120Z 18007KT 9999 -SHRA FEW014TCU SCT028
                        07/04 Q0984 TEMPO SHRA=
201403031050 METAR COR EGLL 031050Z 16010KT 9999 SCT014 SCT022 07/05 Q0983
                        TEMPO SHRA=
201403031020 METAR COR EGLL 031020Z 16010KT 9999 -SHRA SCT018CB 08/05
                        Q0983 TEMPO 4000 SHRA=
201403030950 METAR COR EGLL 030950Z 15007KT 9999 FEW030 07/04 Q0983 TEMPO
                        4000 SHRA BKN020CB=
201403030920 METAR COR EGLL 030920Z 16009KT 9999 FEW045 06/03 Q0983 TEMPO
                        SHRA=
201403030850 METAR COR EGLL 030850Z 13007KT 9999 FEW042 06/03 Q0983 TEMPO
                        SHRA=
201403030820 METAR COR EGLL 030820Z 15006KT 110V200 9999 FEW041 04/03
                        Q0983 TEMPO SHRA=
201403030750 METAR COR EGLL 030750Z 16005KT 140V210 9999 FEW030 04/03
                        Q0983 TEMPO SHRA=
201403030720 METAR COR EGLL 030720Z 16005KT 140V210 9999 FEW042 03/02
                        Q0983 NOSIG=
201403030650 METAR COR EGLL 030650Z 18006KT 120V220 CAVOK 03/02 Q0983
                        NOSIG=
201403030620 METAR COR EGLL 030620Z VRB05KT CAVOK 03/02 Q0983 NOSIG=
201403030550 METAR COR EGLL 030550Z 20006KT CAVOK 03/02 Q0983 NOSIG=
201403030520 METAR COR EGLL 030520Z 22007KT CAVOK 04/03 Q0983 NOSIG=
201403030450 METAR COR EGLL 030450Z 24006KT CAVOK 05/03 Q0982 NOSIG=
201403030420 METAR COR EGLL 030420Z 24008KT CAVOK 05/04 Q0982 NOSIG=
201403030350 METAR COR EGLL 030350Z 24006KT CAVOK 05/04 Q0982 NOSIG=
201403030320 METAR COR EGLL 030320Z 23007KT CAVOK 06/04 Q0982 NOSIG=
201403030250 METAR COR EGLL 030250Z 24006KT CAVOK 06/05 Q0982 NOSIG=
201403030220 METAR EGLL 030220Z AUTO 22007KT 9999 BKN023 06/05 Q0982=
201403030150 METAR EGLL 030150Z AUTO 23006KT 9999 BKN029 BKN042 06/05
                        Q0982 REDZ=
201403030120 METAR EGLL 030120Z AUTO 22005KT 9999 DZ SCT008 BKN023 06/05
                        Q0982=
201403030050 METAR COR EGLL 030050Z 20005KT 9999 FEW012 SCT025 06/05 Q0982
                        NOSIG=
201403030020 METAR COR EGLL 030020Z 21006KT 9999 FEW010 SCT028 06/05 Q0982
                        NOSIG=
201403022350 METAR COR EGLL 022350Z 21005KT 9999 FEW013 SCT018 06/05 Q0982
                        NOSIG=
201403022320 METAR COR EGLL 022320Z 22007KT 190V260 9999 -RA SCT021 BKN028
                        06/05 Q0982 NOSIG=
201403022250 METAR COR EGLL 022250Z 22006KT 190V250 9999 -RA FEW007 SCT018
                        06/05 Q0982 NOSIG=
201403022220 METAR COR EGLL 022220Z 20008KT 160V250 9999 -RA FEW008 SCT018
                        BKN023 07/05 Q0982 RERA TEMPO RA
                        BKN010=
201403022150 METAR COR EGLL 022150Z 21009KT 9999 RA FEW013 SCT016 BKN028
                        07/06 Q0983 TEMPO BKN013=
201403022120 METAR COR EGLL 022120Z 19016G26KT 160V230 9999 -RA FEW012
                        SCT018 BKN028 08/06 Q0983 RERA TEMPO
                        RA BKN012=
201403022050 METAR COR EGLL 022050Z 17016KT 150V210 9999 RA FEW012 SCT015
                        BKN018 08/06 Q0983 TEMPO BKN012=
201403022020 METAR COR EGLL 022020Z 17015KT 150V210 9000 RA FEW012 BKN014
                        08/06 Q0983 NOSIG=
201403021950 METAR COR EGLL 021950Z 17017KT 140V220 9999 -RA SCT012 BKN016
                        08/06 Q0984 RERA TEMPO RA BKN012=
201403021920 METAR COR EGLL 021920Z 17017KT 150V220 9999 -RA SCT015 SCT021
                        08/06 Q0984 TEMPO RA BKN014=
201403021850 METAR COR EGLL 021850Z 17017KT 140V220 9999 -RA SCT011 BKN015
                        08/06 Q0985 RERA TEMPO BKN012=
201403021820 METAR COR EGLL 021820Z 17016KT 150V220 8000 RA FEW012 BKN014
                        08/06 Q0986 TEMPO BKN009=
201403021750 METAR COR EGLL 021750Z 17016KT 140V220 8000 -RA FEW011 BKN013
                        08/06 Q0987 TEMPO RA BKN009=
201403021720 METAR COR EGLL 021720Z 17018KT 160V230 9999 -RA BKN013 08/06
                        Q0988 TEMPO RA BKN009=
201403021650 METAR COR EGLL 021650Z 18017KT 160V230 9999 BKN015 09/06
                        Q0988 TEMPO RA BKN014=
201403021620 METAR COR EGLL 021620Z 19017KT 160V220 9999 -RA BKN012 09/06
                        Q0989 TEMPO RA BKN009=
201403021550 METAR COR EGLL 021550Z 18018KT 160V220 9999 SCT009 BKN011
                        08/06 Q0990 TEMPO RA BKN009=
201403021520 METAR COR EGLL 021520Z 18016KT 160V220 9999 FEW011 BKN014
                        08/06 Q0991 TEMPO RA=
201403021450 METAR COR EGLL 021450Z 19018G29KT 9000 -RA SCT015 BKN017
                        09/06 Q0992 TEMPO RA BKN014=
201403021420 METAR COR EGLL 021420Z 18017KT 9999 BKN016 09/05 Q0992 TEMPO
                        RA BKN014=
201403021350 METAR COR EGLL 021350Z 19016KT 9999 BKN016 09/05 Q0993 TEMPO
                        RA BKN014=
201403021320 METAR COR EGLL 021320Z 19017KT 9999 BKN019 09/05 Q0994 TEMPO
                        BKN014=
201403021250 METAR COR EGLL 021250Z 19014KT 9999 BKN020 09/05 Q0995 TEMPO
                        RA BKN014=
201403021220 METAR COR EGLL 021220Z 20017G27KT 9999 BKN020 09/05 Q0996
                        TEMPO BKN014=
201403021150 METAR COR EGLL 021150Z 21014KT 9999 SCT020 SCT025 10/05 Q0997
                        TEMPO RA BKN014=
201403021120 METAR COR EGLL 021120Z 20014KT 9999 SCT022 SCT031 10/05 Q0997
                        NOSIG=
201403021050 METAR COR EGLL 021050Z 19016KT 9999 FEW022 SCT031 10/05 Q0997
                        NOSIG=
201403021020 METAR COR EGLL 021020Z 20013KT 170V240 9999 FEW019 SCT025
                        10/06 Q0997 NOSIG=
201403020950 METAR COR EGLL 020950Z 20014KT 9999 SCT019 10/06 Q0998 NOSIG=
201403020920 METAR COR EGLL 020920Z 19012KT 9999 FEW012 09/06 Q0998 NOSIG=
201403020850 METAR COR EGLL 020850Z 19011KT 9999 FEW011 08/06 Q0999 NOSIG=
201403020820 METAR COR EGLL 020820Z 19012KT 9999 FEW032 08/06 Q0999 NOSIG=
201403020750 METAR COR EGLL 020750Z 19011KT 9999 FEW022 07/05 Q0999 NOSIG=
201403020720 METAR COR EGLL 020720Z 20011KT 180V260 9999 FEW027 06/05
                        Q0999 NOSIG=
201403020650 METAR COR EGLL 020650Z 20011G22KT 9999 FEW023 06/05 Q0999
                        NOSIG=
201403020620 METAR COR EGLL 020620Z 20011KT 9999 FEW024 06/05 Q1000 NOSIG=
201403020550 METAR COR EGLL 020550Z 20009KT 9999 -RA SCT024 SCT041 06/04
                        Q1000 NOSIG=
201403020520 METAR COR EGLL 020520Z 20008KT 9999 -RA FEW027 BKN039 06/04
                        Q1000 NOSIG=
201403020450 METAR COR EGLL 020450Z 19007KT 9999 FEW021 BKN046 05/03 Q1000
                        NOSIG=
201403020420 METAR COR EGLL 020420Z VRB03KT 9999 FEW022 BKN044 05/03 Q1000
                        NOSIG=
201403020350 METAR COR EGLL 020350Z 21005KT CAVOK 04/03 Q1000 NOSIG=
201403020320 METAR COR EGLL 020320Z 20006KT CAVOK 04/02 Q1000 NOSIG=
201403020250 METAR COR EGLL 020250Z 18005KT CAVOK 03/02 Q1001 NOSIG=
201403020220 METAR EGLL 020220Z AUTO 19006KT 9999 NCD 03/01 Q1001=
201403020150 METAR EGLL 020150Z AUTO 18005KT 9999 NCD 02/01 Q1001=
201403020120 METAR EGLL 020120Z AUTO 18003KT 9999 NCD 03/01 Q1001=
201403020050 METAR COR EGLL 020050Z 17004KT CAVOK 03/01 Q1001 NOSIG=
201403020020 METAR COR EGLL 020020Z 21005KT CAVOK 03/01 Q1001 NOSIG=
201403012350 METAR COR EGLL 012350Z 21004KT CAVOK 03/01 Q1001 NOSIG=
201403012320 METAR COR EGLL 012320Z 21005KT CAVOK 03/01 Q1001 NOSIG=
201403012250 METAR COR EGLL 012250Z 22007KT 180V250 CAVOK 04/01 Q1002
                        NOSIG=
201403012220 METAR COR EGLL 012220Z 23008KT 190V260 CAVOK 04/01 Q1002
                        NOSIG=
201403012150 METAR COR EGLL 012150Z 23006KT CAVOK 04/00 Q1002 NOSIG=
201403012120 METAR COR EGLL 012120Z 23007KT 190V280 CAVOK 04/00 Q1002
                        NOSIG=
201403012050 METAR COR EGLL 012050Z 28005KT CAVOK 05/00 Q1002 NOSIG=
201403012020 METAR COR EGLL 012020Z 27007KT 9999 FEW048 06/00 Q1002 NOSIG=
201403011950 METAR COR EGLL 011950Z 24007KT 9999 FEW048 06/00 Q1002 NOSIG=
201403011920 METAR COR EGLL 011920Z 22005KT 9999 FEW048 06/M00 Q1002 NOSIG=
201403011850 METAR COR EGLL 011850Z 24006KT 9999 FEW048 06/M00 Q1002 NOSIG=
201403011820 METAR COR EGLL 011820Z 22006KT 140V260 9999 FEW048 07/M00
                        Q1001 NOSIG=
201403011750 METAR COR EGLL 011750Z 26006KT 9999 FEW048 07/M01 Q1001 NOSIG=
201403011720 METAR COR EGLL 011720Z 28006KT 9999 FEW048 08/M01 Q1001 NOSIG=
201403011650 METAR COR EGLL 011650Z 29005KT 250V330 9999 FEW047 09/M01
                        Q1001 NOSIG=
201403011620 METAR COR EGLL 011620Z VRB03KT 9999 FEW047 09/M00 Q1001 NOSIG=
201403011550 METAR COR EGLL 011550Z VRB03KT 9999 FEW040 09/M01 Q1001 NOSIG=
201403011520 METAR COR EGLL 011520Z 30004KT 260V350 9999 SCT042 09/M02
                        Q1001 NOSIG=
201403011450 METAR COR EGLL 011450Z 35005KT 280V040 9999 SCT045 09/00
                        Q1001 NOSIG=
201403011420 METAR COR EGLL 011420Z 30004KT 200V010 9999 SCT043 09/M00
                        Q1001 NOSIG=
201403011350 METAR COR EGLL 011350Z 26004KT 220V290 9999 SCT026 SCT039
                        08/00 Q1002 NOSIG=
201403011320 METAR COR EGLL 011320Z VRB03KT 9999 SCT024 08/02 Q1002 NOSIG=
201403011250 METAR COR EGLL 011250Z VRB03KT 9999 SCT022 SCT033 08/03 Q1002
                        NOSIG=
201403011220 METAR COR EGLL 011220Z VRB03KT 9999 SCT014 SCT020 08/04 Q1002
                        NOSIG=
201403011150 METAR COR EGLL 011150Z VRB03KT 9000 SCT013 07/04 Q1002 NOSIG=
201403011120 METAR COR EGLL 011120Z VRB03KT 7000 FEW007 SCT013 07/03 Q1002
                        NOSIG=
201403011050 METAR COR EGLL 011050Z VRB02KT 5000 HZ FEW007 05/03 Q1003
                        NOSIG=
201403011020 METAR COR EGLL 011020Z 29005KT 260V340 4100 HZ FEW003 SCT004
                        04/03 Q1003 BECMG 6000 NSW=
201403010950 METAR EGLL 010950Z VRB02KT 3600 1500NW HZ FEW003 SCT004 04/03
                        Q1003=
201403010920 METAR COR EGLL 010920Z VRB02KT 3200 1300N R27R/P1500 R27L/P1500
                        BR FEW003 03/02 Q1003 BECMG 6000
                        NSW=
201403010850 METAR COR EGLL 010850Z VRB02KT 0500 R27R/0800 R27L/P1500
                        FG SCT001 SCT002 02/01 Q1003 BECMG
                        4000 BR BKN005=
201403010820 METAR COR EGLL 010820Z VRB03KT 0700 R27R/0750 R27L/1200 FG
                        SCT001 SCT002 01/01 Q1003 TEMPO BKN003=
201403010750 METAR COR EGLL 010750Z 29006KT 4800 2000N BR VCFG FEW001
                        SCT004 02/01 Q1003 TEMPO 1200 BR
                        BKN004=
201403010720 METAR COR EGLL 010720Z 29004KT 4800 BR FEW029 02/01 Q1003
                        TEMPO BKN006=
201403010650 METAR COR EGLL 010650Z 28005KT 4800 BR FEW029 02/01 Q1003
                        BECMG 7000=
201403010620 METAR COR EGLL 010620Z 29005KT 6000 FEW030 02/01 Q1003 TEMPO
                        4500 BR=
201403010550 METAR COR EGLL 010550Z 30003KT 7000 FEW028 02/01 Q1003 TEMPO
                        3500 BR BKN004=
201403010520 METAR COR EGLL 010520Z 30003KT 7000 FEW028 02/01 Q1003 TEMPO
                        4000 BR BKN004=
201403010450 METAR COR EGLL 010450Z 28006KT 7000 FEW028 03/02 Q1003 TEMPO
                        3500 BR BKN005=
201403010420 METAR COR EGLL 010420Z 30004KT 7000 FEW012 SCT029 03/02 Q1003
                        TEMPO 4500 BR=
201403010350 METAR EGLL 010350Z VRB02KT 7000 BKN032 03/02 Q1003=
201403010320 METAR COR EGLL 010320Z VRB03KT 8000 BKN035 03/02 Q1003 TEMPO
                        4500 BR=
201403010250 METAR EGLL 010250Z VRB02KT 8000 FEW039 03/02 Q1003=
201403010220 METAR EGLL 010220Z AUTO 31003KT 4700 HZ FEW012 03/02 Q1003=
201403010150 METAR EGLL 010150Z AUTO 32004KT 290V010 5000 BKN012 04/03
                        Q1004=
201403010120 METAR EGLL 010120Z AUTO 30004KT 5000 FEW045 04/03 Q1004=
201403010050 METAR COR EGLL 010050Z 31005KT 8000 FEW018 SCT027 04/03 Q1004
                        TEMPO BKN010=
201403010020 METAR COR EGLL 010020Z 30005KT 9000 FEW018 BKN046 05/03 Q1004
                        TEMPO BKN007=

</pre>

</body>
</html>
