##########################################################
# Query made at 12/24/2012 13:52:49 UTC
# Time interval: from 03/01/2012 00:00  to 03/31/2012 23:59  UTC
##########################################################

##########################################################
# EGLL, London / Heathrow Airport (United Kingdom)
# WMO index: 03772
# Latitude 51-29N. Longitude 000-27W. Altitude 24 m.
##########################################################

###################################
#  METAR/SPECI from EGLL
###################################
201203312350 METAR COR EGLL 312350Z 36004KT 330V040 9999 SCT039 04/00
                        Q1023 NOSIG=
201203312320 METAR COR EGLL 312320Z 02004KT 350V050 9999 FEW042 05/00
                        Q1023 NOSIG=
201203312250 METAR COR EGLL 312250Z 03004KT 350V060 9999 FEW044 05/00
                        Q1023 NOSIG=
201203312220 METAR COR EGLL 312220Z 04004KT 360V090 9999 FEW045 05/00
                        Q1023 NOSIG=
201203312150 METAR COR EGLL 312150Z 01005KT 340V050 9999 FEW045 06/M00
                        Q1023 NOSIG=
201203312120 METAR COR EGLL 312120Z 02005KT 340V060 9999 FEW046 06/M01
                        Q1023 NOSIG=
201203312050 METAR COR EGLL 312050Z 05007KT 010V080 9999 FEW045 07/M02
                        Q1023 NOSIG=
201203312020 METAR COR EGLL 312020Z 05005KT 9999 SCT047 07/M01 Q1023 NOSIG=
201203311950 METAR COR EGLL 311950Z 06008KT 9999 BKN046 08/M02 Q1022 NOSIG=
201203311920 METAR COR EGLL 311920Z 05010KT 9999 BKN045 08/M01 Q1022 NOSIG=
201203311850 METAR COR EGLL 311850Z 03008KT 350V060 9999 SCT037 BKN043
                        09/M00 Q1022 NOSIG=
201203311820 METAR COR EGLL 311820Z 05010KT 010V080 9999 FEW037 BKN044
                        09/00 Q1021 NOSIG=
201203311750 METAR COR EGLL 311750Z 04006KT 010V080 9999 BKN042 09/00
                        Q1021 NOSIG=
201203311720 METAR COR EGLL 311720Z 04007KT 010V070 9999 SCT035 BKN039
                        09/01 Q1021 NOSIG=
201203311650 METAR COR EGLL 311650Z 04009KT 350V080 9999 SCT038 BKN042
                        10/01 Q1020 NOSIG=
201203311620 METAR COR EGLL 311620Z 03008KT 350V070 9999 FEW038 BKN043
                        10/02 Q1020 NOSIG=
201203311550 METAR COR EGLL 311550Z 03007KT 360V070 9999 SCT034 BKN042
                        10/02 Q1020 NOSIG=
201203311520 METAR COR EGLL 311520Z 03009KT 360V070 9999 SCT037 BKN048
                        11/02 Q1020 NOSIG=
201203311450 METAR COR EGLL 311450Z 04008KT 360V080 9999 FEW032 BKN041
                        10/02 Q1020 NOSIG=
201203311420 METAR COR EGLL 311420Z 05010KT 020V090 9999 FEW036 SCT040
                        BKN047 11/02 Q1020 NOSIG=
201203311350 METAR COR EGLL 311350Z 04009KT 360V070 9999 FEW032 SCT042
                        BKN049 11/03 Q1020 NOSIG=
201203311320 METAR COR EGLL 311320Z 03009KT 350V070 9999 SCT032 BKN042
                        BKN044 11/04 Q1020 NOSIG=
201203311250 METAR COR EGLL 311250Z 04009KT 9999 SCT028 SCT031 11/04 Q1020
                        NOSIG=
201203311220 METAR COR EGLL 311220Z 05007KT 010V090 9999 FEW026 SCT033
                        BKN044 11/05 Q1020 NOSIG=
201203311150 METAR COR EGLL 311150Z 04007KT 360V080 9999 SCT024 SCT033
                        11/05 Q1020 NOSIG=
201203311120 METAR COR EGLL 311120Z 05007KT 360V080 9999 BKN024 10/05
                        Q1020 NOSIG=
201203311050 METAR COR EGLL 311050Z 05009KT 010V080 9999 SCT025 BKN038
                        10/05 Q1020 NOSIG=
201203311020 METAR COR EGLL 311020Z 06008KT 9999 SCT025 BKN030 10/05 Q1020
                        NOSIG=
201203310950 METAR COR EGLL 310950Z 04006KT 350V080 9999 SCT022 BKN041
                        10/05 Q1020 NOSIG=
201203310920 METAR COR EGLL 310920Z 06009KT 9999 BKN041 10/05 Q1019 NOSIG=
201203310850 METAR COR EGLL 310850Z 05008KT 020V080 9999 BKN040 09/05
                        Q1019 NOSIG=
201203310820 METAR COR EGLL 310820Z 05008KT 010V080 9999 BKN028 09/05
                        Q1019 NOSIG=
201203310750 METAR COR EGLL 310750Z 04007KT 360V080 9000 BKN028 BKN035
                        09/05 Q1019 NOSIG=
201203310720 METAR COR EGLL 310720Z 04005KT 360V090 7000 FEW012 SCT026
                        09/06 Q1018 NOSIG=
201203310650 METAR COR EGLL 310650Z 02005KT 340V050 8000 BKN012 09/06
                        Q1018 BECMG SCT015 BKN030=
201203310620 METAR COR EGLL 310620Z 01005KT 340V040 9000 BKN012 BKN028
                        08/05 Q1018 TEMPO SCT012 BKN030=
201203310550 METAR COR EGLL 310550Z VRB02KT 9000 BKN014 08/05 Q1018 TEMPO
                        SCT012 BKN020=
201203310520 METAR COR EGLL 310520Z 30004KT 9999 BKN015 BKN023 08/05 Q1018
                        TEMPO BKN012=
201203310450 METAR COR EGLL 310450Z 31004KT 9000 NSC 07/04 Q1018 NOSIG=
201203310420 METAR COR EGLL 310420Z 29005KT 9000 FEW014 07/04 Q1018 NOSIG=
201203310350 METAR COR EGLL 310350Z 29004KT 9000 SCT014 07/04 Q1018 NOSIG=
201203310320 METAR COR EGLL 310320Z 32006KT 290V360 9000 BKN013 08/05
                        Q1018 NOSIG=
201203310250 METAR COR EGLL 310250Z 31005KT 260V340 9999 BKN013 08/05
                        Q1018 NOSIG=
201203310220 METAR COR EGLL 310220Z 32007KT 9999 BKN013 08/05 Q1019 NOSIG=
201203310150 METAR COR EGLL 310150Z 31005KT 9999 BKN013 08/05 Q1019 NOSIG=
201203310120 METAR EGLL 310120Z AUTO 29005KT 9999 NCD 08/05 Q1019=
201203310050 METAR EGLL 310050Z AUTO 30004KT 9999 NCD 08/05 Q1019=
201203310020 METAR EGLL 310020Z AUTO 31006KT 9999 NCD 08/05 Q1020=
201203302350 METAR COR EGLL 302350Z VRB02KT CAVOK 09/05 Q1020 NOSIG=
201203302320 METAR COR EGLL 302320Z 32004KT CAVOK 09/05 Q1020 NOSIG=
201203302250 METAR COR EGLL 302250Z 31006KT 8000 NSC 10/06 Q1020 NOSIG=
201203302220 METAR COR EGLL 302220Z 29005KT 7000 NSC 10/06 Q1020 NOSIG=
201203302150 METAR COR EGLL 302150Z 29005KT 7000 NSC 11/06 Q1020 NOSIG=
201203302120 METAR COR EGLL 302120Z 29006KT 6000 NSC 11/07 Q1020 NOSIG=
201203302050 METAR COR EGLL 302050Z 26007KT 230V290 6000 NSC 11/07 Q1021
                        NOSIG=
201203302020 METAR COR EGLL 302020Z 28006KT 220V290 7000 NSC 12/07 Q1021
                        NOSIG=
201203301950 METAR COR EGLL 301950Z 29003KT 7000 NSC 11/06 Q1021 NOSIG=
201203301920 METAR COR EGLL 301920Z 32003KT 7000 NSC 12/07 Q1021 NOSIG=
201203301850 METAR COR EGLL 301850Z 31004KT 7000 NSC 12/07 Q1021 NOSIG=
201203301820 METAR COR EGLL 301820Z 31006KT 6000 NSC 12/07 Q1021 NOSIG=
201203301750 METAR COR EGLL 301750Z 31008KT 6000 NSC 13/07 Q1022 NOSIG=
201203301720 METAR COR EGLL 301720Z 31008KT 6000 NSC 14/07 Q1022 NOSIG=
201203301650 METAR COR EGLL 301650Z 30008KT 7000 NSC 15/08 Q1022 NOSIG=
201203301620 METAR COR EGLL 301620Z 28009KT 7000 NSC 16/08 Q1022 NOSIG=
201203301550 METAR COR EGLL 301550Z 28007KT 250V330 7000 NSC 16/08 Q1022
                        NOSIG=
201203301520 METAR COR EGLL 301520Z 27007KT 250V320 7000 NSC 17/08 Q1023
                        NOSIG=
201203301450 METAR COR EGLL 301450Z 27007KT 240V320 7000 NSC 16/08 Q1023
                        NOSIG=
201203301420 METAR COR EGLL 301420Z 30005KT 260V340 7000 NSC 16/07 Q1023
                        NOSIG=
201203301350 METAR COR EGLL 301350Z 25005KT 160V310 7000 NSC 16/07 Q1024
                        NOSIG=
201203301320 METAR COR EGLL 301320Z 28004KT 220V320 7000 NSC 16/07 Q1024
                        NOSIG=
201203301250 METAR COR EGLL 301250Z 27005KT 200V360 7000 NSC 16/07 Q1024
                        NOSIG=
201203301220 METAR COR EGLL 301220Z VRB03KT 7000 NSC 15/07 Q1025 NOSIG=
201203301150 METAR COR EGLL 301150Z VRB03KT 6000 NSC 15/07 Q1025 NOSIG=
201203301120 METAR COR EGLL 301120Z VRB02KT 6000 NSC 14/07 Q1025 NOSIG=
201203301050 METAR COR EGLL 301050Z VRB02KT 6000 NSC 14/07 Q1025 NOSIG=
201203301020 METAR COR EGLL 301020Z VRB02KT 5000 HZ NSC 12/06 Q1026 NOSIG=
201203300950 METAR COR EGLL 300950Z VRB02KT 5000 HZ FEW018 12/06 Q1026
                        NOSIG=
201203300920 METAR COR EGLL 300920Z VRB03KT 5000 HZ FEW016 11/06 Q1026
                        NOSIG=
201203300850 METAR COR EGLL 300850Z 06005KT 010V090 5000 HZ FEW015 11/06
                        Q1026 TEMPO BKN012=
201203300820 METAR COR EGLL 300820Z 36005KT 320V070 5000 HZ NSC 10/06
                        Q1026 TEMPO BKN008=
201203300750 METAR COR EGLL 300750Z 04004KT 340V070 4600 HZ NSC 09/06
                        Q1026 BECMG 6000 NSW=
201203300720 METAR COR EGLL 300720Z VRB03KT 4200 HZ NSC 08/05 Q1026 BECMG
                        6000 NSW=
201203300650 METAR COR EGLL 300650Z VRB03KT 4000 HZ NSC 08/05 Q1026 BECMG
                        6000 NSW=
201203300620 METAR COR EGLL 300620Z VRB03KT 4000 HZ NSC 08/05 Q1026 BECMG
                        6000 NSW=
201203300550 METAR COR EGLL 300550Z VRB02KT 4000 HZ NSC 08/05 Q1025 BECMG
                        5000=
201203300520 METAR COR EGLL 300520Z VRB02KT 3900 HZ NSC 07/05 Q1025 NOSIG=
201203300450 METAR COR EGLL 300450Z 29004KT 4000 HZ NSC 08/05 Q1025 BECMG
                        6000=
201203300420 METAR COR EGLL 300420Z 33004KT 4300 HZ NSC 08/05 Q1025 TEMPO
                        6000=
201203300350 METAR COR EGLL 300350Z 31004KT 4600 HZ NSC 08/05 Q1025 TEMPO
                        6000=
201203300320 METAR COR EGLL 300320Z 30004KT 5000 BR NSC 08/05 Q1026 TEMPO
                        4500=
201203300250 METAR COR EGLL 300250Z 29004KT 5000 BR NSC 08/05 Q1026 TEMPO
                        4500=
201203300220 METAR COR EGLL 300220Z VRB03KT 7000 NSC 09/04 Q1026 NOSIG=
201203300150 METAR COR EGLL 300150Z 30004KT 8000 NSC 09/04 Q1026 NOSIG=
201203300120 METAR EGLL 300120Z AUTO VRB02KT 8000 NCD 09/04 Q1026=
201203300050 METAR EGLL 300050Z AUTO 31003KT 8000 NCD 10/04 Q1026=
201203300020 METAR EGLL 300020Z AUTO 31004KT 9000 NCD 10/04 Q1026=
201203292350 METAR COR EGLL 292350Z 31005KT CAVOK 11/04 Q1026 NOSIG=
201203292320 METAR COR EGLL 292320Z 33005KT CAVOK 12/04 Q1026 NOSIG=
201203292250 METAR COR EGLL 292250Z 32004KT CAVOK 12/04 Q1026 NOSIG=
201203292220 METAR COR EGLL 292220Z 31004KT CAVOK 13/05 Q1026 NOSIG=
201203292150 METAR COR EGLL 292150Z 31005KT CAVOK 14/05 Q1026 NOSIG=
201203292120 METAR COR EGLL 292120Z 31005KT CAVOK 15/05 Q1026 NOSIG=
201203292050 METAR COR EGLL 292050Z 30005KT CAVOK 15/06 Q1026 NOSIG=
201203292020 METAR COR EGLL 292020Z 30003KT CAVOK 15/06 Q1026 NOSIG=
201203291950 METAR COR EGLL 291950Z 31002KT CAVOK 17/05 Q1026 NOSIG=
201203291920 METAR COR EGLL 291920Z 32004KT CAVOK 17/05 Q1026 NOSIG=
201203291850 METAR COR EGLL 291850Z 31003KT CAVOK 17/05 Q1026 NOSIG=
201203291820 METAR COR EGLL 291820Z 34004KT 310V020 CAVOK 17/05 Q1026
                        NOSIG=
201203291750 METAR COR EGLL 291750Z 33006KT CAVOK 18/05 Q1026 NOSIG=
201203291720 METAR COR EGLL 291720Z 33005KT 300V020 CAVOK 18/05 Q1026
                        NOSIG=
201203291650 METAR COR EGLL 291650Z 01006KT 340V050 CAVOK 19/05 Q1026
                        NOSIG=
201203291620 METAR COR EGLL 291620Z 36007KT 320V030 CAVOK 19/04 Q1026
                        NOSIG=
201203291550 METAR COR EGLL 291550Z 02006KT 330V070 CAVOK 19/04 Q1026
                        NOSIG=
201203291520 METAR COR EGLL 291520Z 33006KT 290V010 CAVOK 19/04 Q1026
                        NOSIG=
201203291450 METAR EGLL 291450Z 34006KT 280V020 CAVOK 19/04 Q1027=
201203291420 METAR COR EGLL 291420Z 35006KT 290V020 CAVOK 19/04 Q1027
                        NOSIG=
201203291350 METAR COR EGLL 291350Z 36006KT 280V060 CAVOK 19/04 Q1027
                        NOSIG=
201203291320 METAR COR EGLL 291320Z 33006KT 290V040 CAVOK 19/04 Q1028
                        NOSIG=
201203291250 METAR COR EGLL 291250Z 01005KT 320V060 CAVOK 18/04 Q1028
                        NOSIG=
201203291220 METAR COR EGLL 291220Z VRB04KT CAVOK 18/04 Q1028 NOSIG=
201203291150 METAR COR EGLL 291150Z 34005KT 290V040 CAVOK 18/05 Q1028
                        NOSIG=
201203291120 METAR COR EGLL 291120Z 36005KT 330V050 CAVOK 17/04 Q1028
                        NOSIG=
201203291050 METAR EGLL 291050Z 01005KT 310V070 CAVOK 16/04 Q1028=
201203291020 METAR COR EGLL 291020Z 35006KT 300V040 CAVOK 16/04 Q1028
                        NOSIG=
201203290950 METAR COR EGLL 290950Z 33004KT 290V010 9000 NSC 15/04 Q1028
                        NOSIG=
201203290920 METAR COR EGLL 290920Z 34004KT 270V020 9000 NSC 14/04 Q1029
                        NOSIG=
201203290850 METAR COR EGLL 290850Z 32004KT 270V350 8000 NSC 12/04 Q1029
                        NOSIG=
201203290820 METAR COR EGLL 290820Z 28004KT 9000 NSC 11/03 Q1029 NOSIG=
201203290750 METAR COR EGLL 290750Z 27005KT 9000 NSC 10/03 Q1029 NOSIG=
201203290720 METAR COR EGLL 290720Z VRB03KT 9000 NSC 10/02 Q1029 NOSIG=
201203290650 METAR COR EGLL 290650Z 30005KT 9000 NSC 09/03 Q1029 NOSIG=
201203290620 METAR COR EGLL 290620Z 32003KT 9000 NSC 07/03 Q1029 NOSIG=
201203290550 METAR COR EGLL 290550Z 27004KT 9000 NSC 07/03 Q1028 NOSIG=
201203290520 METAR COR EGLL 290520Z 28004KT 9000 NSC 07/03 Q1029 NOSIG=
201203290450 METAR COR EGLL 290450Z VRB03KT 8000 NSC 08/03 Q1029 NOSIG=
201203290420 METAR COR EGLL 290420Z 32003KT 9000 NSC 08/03 Q1029 NOSIG=
201203290350 METAR COR EGLL 290350Z 28002KT 9000 NSC 08/03 Q1029 NOSIG=
201203290320 METAR COR EGLL 290320Z 27004KT 9000 NSC 08/03 Q1029 NOSIG=
201203290250 METAR COR EGLL 290250Z 27003KT 9000 NSC 07/03 Q1029 NOSIG=
201203290220 METAR COR EGLL 290220Z 28003KT CAVOK 07/03 Q1029 NOSIG=
201203290150 METAR COR EGLL 290150Z 31003KT CAVOK 07/03 Q1029 NOSIG=
201203290120 METAR EGLL 290120Z AUTO 30003KT 9999 NCD 08/03 Q1029=
201203290050 METAR EGLL 290050Z AUTO 30002KT 9999 NCD 08/03 Q1029=
201203290020 METAR EGLL 290020Z AUTO 28002KT 9999 NCD 09/04 Q1029=
201203282350 METAR COR EGLL 282350Z 29002KT CAVOK 10/03 Q1029 NOSIG=
201203282320 METAR COR EGLL 282320Z 28003KT CAVOK 10/03 Q1029 NOSIG=
201203282250 METAR COR EGLL 282250Z 31002KT CAVOK 12/03 Q1029 NOSIG=
201203282220 METAR COR EGLL 282220Z 34002KT CAVOK 14/03 Q1029 NOSIG=
201203282150 METAR COR EGLL 282150Z 35003KT CAVOK 15/02 Q1029 NOSIG=
201203282120 METAR COR EGLL 282120Z 35004KT CAVOK 16/02 Q1030 NOSIG=
201203282050 METAR COR EGLL 282050Z 35003KT CAVOK 17/02 Q1030 NOSIG=
201203282020 METAR COR EGLL 282020Z 33002KT CAVOK 16/02 Q1030 NOSIG=
201203281950 METAR COR EGLL 281950Z 36003KT CAVOK 17/02 Q1030 NOSIG=
201203281920 METAR COR EGLL 281920Z VRB02KT CAVOK 17/02 Q1030 NOSIG=
201203281850 METAR COR EGLL 281850Z VRB02KT CAVOK 17/02 Q1030 NOSIG=
201203281820 METAR COR EGLL 281820Z 36004KT CAVOK 18/04 Q1030 NOSIG=
201203281750 METAR COR EGLL 281750Z 35005KT CAVOK 19/01 Q1030 NOSIG=
201203281720 METAR COR EGLL 281720Z 34005KT 310V020 CAVOK 20/02 Q1030
                        NOSIG=
201203281650 METAR COR EGLL 281650Z 35006KT 320V030 CAVOK 21/M01 Q1030
                        NOSIG=
201203281620 METAR COR EGLL 281620Z 33005KT 300V020 CAVOK 21/M01 Q1030
                        NOSIG=
201203281550 METAR COR EGLL 281550Z 02005KT 290V070 CAVOK 21/M01 Q1030
                        NOSIG=
201203281520 METAR COR EGLL 281520Z VRB02KT CAVOK 21/M01 Q1030 NOSIG=
201203281450 METAR COR EGLL 281450Z VRB03KT CAVOK 21/M01 Q1031 NOSIG=
201203281420 METAR COR EGLL 281420Z VRB02KT CAVOK 21/M00 Q1031 NOSIG=
201203281350 METAR COR EGLL 281350Z VRB02KT CAVOK 21/M02 Q1031 NOSIG=
201203281320 METAR COR EGLL 281320Z 33004KT 270V060 CAVOK 20/M02 Q1032
                        NOSIG=
201203281250 METAR COR EGLL 281250Z VRB03KT CAVOK 20/M04 Q1032 NOSIG=
201203281220 METAR COR EGLL 281220Z VRB02KT CAVOK 20/M02 Q1032 NOSIG=
201203281150 METAR COR EGLL 281150Z VRB03KT CAVOK 19/M03 Q1033 NOSIG=
201203281120 METAR COR EGLL 281120Z VRB03KT CAVOK 18/M02 Q1033 NOSIG=
201203281050 METAR COR EGLL 281050Z VRB03KT CAVOK 17/M02 Q1033 NOSIG=
201203281020 METAR COR EGLL 281020Z 06004KT 010V120 CAVOK 16/M01 Q1034
                        NOSIG=
201203280950 METAR COR EGLL 280950Z VRB02KT CAVOK 14/M01 Q1034 NOSIG=
201203280920 METAR COR EGLL 280920Z VRB03KT CAVOK 13/M02 Q1034 NOSIG=
201203280850 METAR COR EGLL 280850Z VRB02KT CAVOK 12/M02 Q1034 NOSIG=
201203280820 METAR COR EGLL 280820Z 36002KT CAVOK 10/M00 Q1034 NOSIG=
201203280750 METAR COR EGLL 280750Z VRB03KT CAVOK 09/M00 Q1034 NOSIG=
201203280720 METAR COR EGLL 280720Z 30002KT CAVOK 08/00 Q1034 NOSIG=
201203280650 METAR COR EGLL 280650Z 00000KT CAVOK 06/00 Q1034 NOSIG=
201203280620 METAR COR EGLL 280620Z 00000KT CAVOK 05/M01 Q1034 NOSIG=
201203280550 METAR COR EGLL 280550Z 00000KT CAVOK 05/M01 Q1034 NOSIG=
201203280520 METAR COR EGLL 280520Z 08002KT CAVOK 05/M01 Q1034 NOSIG=
201203280450 METAR COR EGLL 280450Z 00000KT CAVOK 05/M01 Q1034 NOSIG=
201203280420 METAR COR EGLL 280420Z 02003KT CAVOK 06/M00 Q1034 NOSIG=
201203280350 METAR COR EGLL 280350Z 36003KT CAVOK 05/00 Q1034 NOSIG=
201203280320 METAR COR EGLL 280320Z 36004KT CAVOK 05/01 Q1034 NOSIG=
201203280250 METAR COR EGLL 280250Z 36005KT CAVOK 06/00 Q1034 NOSIG=
201203280220 METAR COR EGLL 280220Z 35002KT CAVOK 06/M00 Q1034 NOSIG=
201203280150 METAR COR EGLL 280150Z VRB02KT CAVOK 05/M01 Q1034 NOSIG=
201203280120 METAR COR EGLL 280120Z AUTO 01002KT 9999 NCD 07/M02 Q1035
                        NOSIG=
201203280050 METAR COR EGLL 280050Z AUTO 07003KT 9999 NCD 08/M02 Q1035
                        NOSIG=
201203280020 METAR EGLL 280020Z AUTO 08003KT 9999 NCD 08/M02 Q1035=
201203272350 METAR COR EGLL 272350Z 04003KT CAVOK 09/M03 Q1035 NOSIG=
201203272320 METAR COR EGLL 272320Z 04003KT CAVOK 08/M03 Q1035 NOSIG=
201203272250 METAR COR EGLL 272250Z 00000KT CAVOK 09/M03 Q1035 NOSIG=
201203272220 METAR COR EGLL 272220Z 08002KT CAVOK 10/M03 Q1035 NOSIG=
201203272150 METAR COR EGLL 272150Z 07003KT CAVOK 09/M03 Q1035 NOSIG=
201203272120 METAR COR EGLL 272120Z 09003KT CAVOK 10/M03 Q1035 NOSIG=
201203272050 METAR COR EGLL 272050Z 08005KT CAVOK 10/M03 Q1035 NOSIG=
201203272020 METAR COR EGLL 272020Z 10006KT CAVOK 10/M01 Q1035 NOSIG=
201203271950 METAR COR EGLL 271950Z 10004KT CAVOK 12/M00 Q1035 NOSIG=
201203271920 METAR COR EGLL 271920Z 10005KT CAVOK 12/M01 Q1035 NOSIG=
201203271850 METAR COR EGLL 271850Z 10005KT CAVOK 13/M00 Q1035 NOSIG=
201203271820 METAR COR EGLL 271820Z 10007KT CAVOK 13/01 Q1035 NOSIG=
201203271750 METAR COR EGLL 271750Z 10006KT CAVOK 15/01 Q1035 NOSIG=
201203271720 METAR COR EGLL 271720Z 10010KT CAVOK 16/00 Q1035 NOSIG=
201203271650 METAR COR EGLL 271650Z 11009KT CAVOK 17/00 Q1035 NOSIG=
201203271620 METAR COR EGLL 271620Z 11009KT CAVOK 18/M00 Q1035 NOSIG=
201203271550 METAR COR EGLL 271550Z 10009KT CAVOK 18/01 Q1035 NOSIG=
201203271520 METAR COR EGLL 271520Z 10008KT CAVOK 18/01 Q1035 NOSIG=
201203271450 METAR COR EGLL 271450Z 09007KT 050V130 CAVOK 18/01 Q1035
                        NOSIG=
201203271420 METAR COR EGLL 271420Z 11008KT 080V150 CAVOK 19/01 Q1036
                        NOSIG=
201203271350 METAR COR EGLL 271350Z 11008KT 070V140 CAVOK 18/01 Q1036
                        NOSIG=
201203271320 METAR COR EGLL 271320Z 10009KT 060V130 CAVOK 18/01 Q1036
                        NOSIG=
201203271250 METAR COR EGLL 271250Z 11008KT CAVOK 18/01 Q1036 NOSIG=
201203271220 METAR COR EGLL 271220Z 10010KT 070V140 CAVOK 17/02 Q1037
                        NOSIG=
201203271150 METAR COR EGLL 271150Z 10007KT 060V140 CAVOK 17/02 Q1037
                        NOSIG=
201203271120 METAR COR EGLL 271120Z 10006KT 050V140 CAVOK 16/01 Q1037
                        NOSIG=
201203271050 METAR COR EGLL 271050Z 09006KT 050V130 CAVOK 15/01 Q1037
                        NOSIG=
201203271020 METAR COR EGLL 271020Z 08007KT 050V110 CAVOK 14/02 Q1037
                        NOSIG=
201203270950 METAR COR EGLL 270950Z 09006KT 050V110 CAVOK 13/02 Q1037
                        NOSIG=
201203270920 METAR COR EGLL 270920Z 07006KT 040V110 CAVOK 12/02 Q1037
                        NOSIG=
201203270850 METAR COR EGLL 270850Z 06005KT CAVOK 11/02 Q1037 NOSIG=
201203270820 METAR EGLL 270820Z 04004KT 010V100 CAVOK 09/01 Q1037=
201203270750 METAR COR EGLL 270750Z 06005KT CAVOK 08/02 Q1037 NOSIG=
201203270720 METAR COR EGLL 270720Z 04004KT CAVOK 07/01 Q1037 NOSIG=
201203270650 METAR COR EGLL 270650Z 00000KT CAVOK 06/00 Q1037 NOSIG=
201203270620 METAR COR EGLL 270620Z 04003KT CAVOK 05/00 Q1037 NOSIG=
201203270550 METAR COR EGLL 270550Z 36003KT CAVOK 05/M00 Q1037 NOSIG=
201203270520 METAR COR EGLL 270520Z VRB02KT CAVOK 05/00 Q1037 NOSIG=
201203270450 METAR COR EGLL 270450Z 01003KT CAVOK 05/01 Q1037 NOSIG=
201203270420 METAR COR EGLL 270420Z 02003KT CAVOK 06/01 Q1036 NOSIG=
201203270350 METAR COR EGLL 270350Z 36003KT CAVOK 06/02 Q1036 NOSIG=
201203270320 METAR COR EGLL 270320Z 04004KT CAVOK 06/02 Q1036 NOSIG=
201203270250 METAR COR EGLL 270250Z 04005KT CAVOK 06/02 Q1036 NOSIG=
201203270220 METAR EGLL 270220Z AUTO 03005KT 8000 NCD 07/03 Q1036=
201203270150 METAR EGLL 270150Z AUTO 01004KT 9999 NCD 07/03 Q1037=
201203270120 METAR EGLL 270120Z AUTO 02002KT 9999 NCD 07/02 Q1037=
201203270050 METAR COR EGLL 270050Z 36002KT CAVOK 08/03 Q1037 NOSIG=
201203270020 METAR COR EGLL 270020Z 09003KT 7000 NSC 08/04 Q1037 NOSIG=
201203262350 METAR COR EGLL 262350Z 00000KT 6000 NSC 08/05 Q1037 NOSIG=
201203262320 METAR COR EGLL 262320Z 06004KT 5000 HZ NSC 09/05 Q1037 NOSIG=
201203262250 METAR COR EGLL 262250Z 08004KT 4800 HZ NSC 09/05 Q1037 BECMG
                        CAVOK=
201203262220 METAR COR EGLL 262220Z 07004KT 4600 HZ NSC 09/05 Q1036 BECMG
                        CAVOK=
201203262150 METAR COR EGLL 262150Z 07004KT 4800 HZ NSC 10/06 Q1036 BECMG
                        8000 NSW=
201203262120 METAR COR EGLL 262120Z 07004KT 5000 HZ NSC 10/05 Q1036 NOSIG=
201203262050 METAR COR EGLL 262050Z 09004KT 5000 HZ NSC 09/05 Q1036 NOSIG=
201203262020 METAR COR EGLL 262020Z 11005KT 6000 NSC 10/06 Q1036 NOSIG=
201203261950 METAR COR EGLL 261950Z 11007KT 7000 NSC 10/05 Q1036 NOSIG=
201203261920 METAR COR EGLL 261920Z 10006KT 7000 NSC 12/05 Q1036 NOSIG=
201203261850 METAR COR EGLL 261850Z 10008KT 8000 NSC 12/04 Q1036 NOSIG=
201203261820 METAR COR EGLL 261820Z 10009KT CAVOK 13/03 Q1036 NOSIG=
201203261750 METAR COR EGLL 261750Z 09008KT CAVOK 14/02 Q1036 NOSIG=
201203261720 METAR COR EGLL 261720Z 10009KT CAVOK 16/01 Q1035 NOSIG=
201203261650 METAR COR EGLL 261650Z 10010KT CAVOK 16/00 Q1035 NOSIG=
201203261620 METAR COR EGLL 261620Z 10011KT CAVOK 17/01 Q1035 NOSIG=
201203261550 METAR COR EGLL 261550Z 10012KT CAVOK 18/00 Q1035 NOSIG=
201203261520 METAR COR EGLL 261520Z 11010KT CAVOK 18/00 Q1035 NOSIG=
201203261450 METAR COR EGLL 261450Z 10012KT CAVOK 18/M01 Q1036 NOSIG=
201203261420 METAR COR EGLL 261420Z 09010KT CAVOK 18/M01 Q1036 NOSIG=
201203261350 METAR COR EGLL 261350Z 09014KT CAVOK 18/00 Q1036 NOSIG=
201203261320 METAR COR EGLL 261320Z 09013KT CAVOK 18/01 Q1036 NOSIG=
201203261250 METAR COR EGLL 261250Z 09012KT CAVOK 17/02 Q1036 NOSIG=
201203261220 METAR EGLL 261220Z 10011KT CAVOK 17/05 Q1036=
201203261150 METAR EGLL 261150Z 09009KT CAVOK 16/05 Q1036=
201203261120 METAR EGLL 261120Z 09008KT 060V120 CAVOK 16/05 Q1037=
201203261050 METAR EGLL 261050Z 07007KT CAVOK 15/05 Q1037=
201203261020 METAR EGLL 261020Z 07006KT 040V110 CAVOK 14/06 Q1037=
201203260950 METAR EGLL 260950Z 08005KT 010V130 9000 NSC 12/06 Q1037=
201203260920 METAR EGLL 260920Z 06005KT 030V090 9000 NSC 11/06 Q1037=
201203260850 METAR EGLL 260850Z 06005KT 020V090 7000 NSC 09/05 Q1037=
201203260820 METAR EGLL 260820Z VRB02KT 7000 NSC 08/04 Q1036=
201203260750 METAR EGLL 260750Z 06004KT 6000 NSC 07/04 Q1037=
201203260720 METAR EGLL 260720Z 05004KT 5000 HZ NSC 05/03 Q1036=
201203260650 METAR EGLL 260650Z VRB02KT 5000 HZ NSC 05/03 Q1036=
201203260620 METAR COR EGLL 260620Z 05003KT 5000 HZ NSC 04/02 Q1036 NOSIG=
201203260550 METAR COR EGLL 260550Z 04004KT 5000 HZ SCT005 04/02 Q1036
                        TEMPO 1200 BR SCT002 BKN004=
201203260520 METAR COR EGLL 260520Z 04004KT 4100 HZ SCT004 BKN006 04/03
                        Q1036 TEMPO 1200 SCT002 BKN004=
201203260450 METAR COR EGLL 260450Z 06004KT 1900 BR SCT003 BKN004 05/04
                        Q1035 TEMPO 0400 FG BKN000=
201203260420 METAR COR EGLL 260420Z 07006KT 1500 BR SCT003 BKN004 05/04
                        Q1036 TEMPO 0400 FG BKN000=
201203260350 METAR COR EGLL 260350Z 07005KT 3000 1400SE BR SCT004 04/03
                        Q1036 BECMG 1200 VCFG SCT000 BKN002=
201203260320 METAR COR EGLL 260320Z 06005KT 4000 HZ NSC 04/02 Q1036 TEMPO
                        1200 VCFG BKN002=
201203260250 METAR COR EGLL 260250Z 06004KT 4500 HZ NSC 04/02 Q1036 TEMPO
                        1200 VCFG BKN002=
201203260220 METAR COR EGLL 260220Z 06004KT 4500 BR NSC 04/02 Q1036 TEMPO
                        1200 VCFG BKN002=
201203260150 METAR COR EGLL 260150Z 07004KT 4900 HZ NSC 04/02 Q1036 TEMPO
                        1200 VCFG BR BKN002=
201203260120 METAR EGLL 260120Z AUTO VRB03KT 6000 NCD 05/03 Q1036=
201203260050 METAR EGLL 260050Z AUTO 08005KT 7000 NCD 04/03 Q1036=
201203260020 METAR EGLL 260020Z AUTO 08005KT 7000 NCD 04/02 Q1036=
201203252350 METAR COR EGLL 252350Z 07006KT 7000 NSC 05/03 Q1036 TEMPO
                        4500 BR BKN004=
201203252320 METAR COR EGLL 252320Z 07005KT 9000 NSC 06/03 Q1036 TEMPO
                        4500 BR BKN006=
201203252250 METAR COR EGLL 252250Z 08006KT 8000 NSC 06/03 Q1035 TEMPO
                        BKN006=
201203252220 METAR COR EGLL 252220Z 07007KT 7000 NSC 07/04 Q1035 TEMPO
                        BKN006=
201203252150 METAR COR EGLL 252150Z 08007KT 7000 NSC 08/05 Q1035 TEMPO
                        BKN006=
201203252120 METAR COR EGLL 252120Z 08006KT 8000 NSC 08/05 Q1035 TEMPO
                        BKN006=
201203252050 METAR COR EGLL 252050Z 08005KT 9000 NSC 08/05 Q1035 TEMPO
                        BKN006=
201203252020 METAR COR EGLL 252020Z 08006KT 9000 NSC 09/06 Q1035 TEMPO
                        BKN006=
201203251950 METAR COR EGLL 251950Z 09006KT CAVOK 09/05 Q1035 TEMPO BKN006=
201203251920 METAR COR EGLL 251920Z 10006KT CAVOK 10/05 Q1034 NOSIG=
201203251850 METAR COR EGLL 251850Z 11005KT CAVOK 10/05 Q1034 NOSIG=
201203251820 METAR COR EGLL 251820Z 07006KT CAVOK 12/05 Q1034 NOSIG=
201203251750 METAR COR EGLL 251750Z 06006KT CAVOK 12/05 Q1034 NOSIG=
201203251720 METAR COR EGLL 251720Z 07007KT CAVOK 13/05 Q1034 NOSIG=
201203251650 METAR COR EGLL 251650Z 08008KT CAVOK 14/04 Q1033 NOSIG=
201203251620 METAR COR EGLL 251620Z 08008KT CAVOK 14/04 Q1033 NOSIG=
201203251550 METAR EGLL 251550Z 07007KT CAVOK 15/04 Q1033=
201203251520 METAR COR EGLL 251520Z 09009KT CAVOK 15/04 Q1033 NOSIG=
201203251450 METAR COR EGLL 251450Z 07008KT 020V100 CAVOK 15/04 Q1034
                        NOSIG=
201203251420 METAR COR EGLL 251420Z 05007KT 020V080 CAVOK 15/04 Q1034
                        NOSIG=
201203251350 METAR COR EGLL 251350Z 06007KT 020V090 CAVOK 14/04 Q1034
                        NOSIG=
201203251320 METAR COR EGLL 251320Z 06006KT 020V110 CAVOK 14/04 Q1034
                        NOSIG=
201203251250 METAR COR EGLL 251250Z 08006KT 040V100 CAVOK 14/04 Q1034
                        NOSIG=
201203251220 METAR COR EGLL 251220Z 09006KT 050V110 CAVOK 13/04 Q1034
                        NOSIG=
201203251150 METAR COR EGLL 251150Z 05005KT 010V100 CAVOK 13/03 Q1034
                        NOSIG=
201203251120 METAR COR EGLL 251120Z 06005KT 020V080 CAVOK 12/04 Q1034
                        NOSIG=
201203251050 METAR COR EGLL 251050Z 07005KT 010V100 CAVOK 11/03 Q1034
                        NOSIG=
201203251020 METAR COR EGLL 251020Z 08006KT 030V120 CAVOK 11/04 Q1034
                        NOSIG=
201203250950 METAR COR EGLL 250950Z 08005KT 040V110 8000 VCFG NSC 10/04
                        Q1034 NOSIG=
201203250920 METAR COR EGLL 250920Z 07004KT 030V110 8000 VCFG NSC 09/04
                        Q1034 NOSIG=
201203250850 METAR COR EGLL 250850Z 07005KT 8000 VCFG NSC 08/04 Q1034
                        NOSIG=
201203250820 METAR COR EGLL 250820Z 06005KT 020V090 8000 VCFG NSC 07/04
                        Q1033 NOSIG=
201203250750 METAR EGLL 250750Z 06004KT 020V090 7000 VCFG NSC 07/04 Q1033=
201203250720 METAR COR EGLL 250720Z 07003KT 6000 VCFG NSC 05/04 Q1033
                        TEMPO 4000 BR=
201203250650 METAR COR EGLL 250650Z 06003KT 7000 NSC 05/03 Q1033 TEMPO
                        4000 HZ=
201203250620 METAR COR EGLL 250620Z 05004KT 8000 NSC 05/03 Q1032 TEMPO
                        4000 HZ=
201203250550 METAR COR EGLL 250550Z 05004KT 8000 NSC 05/03 Q1032 NOSIG=
201203250520 METAR COR EGLL 250520Z 04004KT 8000 NSC 06/03 Q1032 NOSIG=
201203250450 METAR COR EGLL 250450Z 04004KT 8000 NSC 06/03 Q1032 TEMPO
                        4000 HZ=
201203250420 METAR COR EGLL 250420Z 04004KT 8000 NSC 06/03 Q1032 TEMPO
                        4000 HZ=
201203250350 METAR COR EGLL 250350Z 04004KT CAVOK 06/03 Q1031 NOSIG=
201203250320 METAR COR EGLL 250320Z 03003KT CAVOK 07/03 Q1031 NOSIG=
201203250250 METAR COR EGLL 250250Z 04004KT 9000 NSC 07/03 Q1031 NOSIG=
201203250220 METAR EGLL 250220Z AUTO 04002KT 9000 NCD 06/03 Q1031=
201203250150 METAR EGLL 250150Z AUTO 04003KT 9000 NCD 06/03 Q1031=
201203250120 METAR EGLL 250120Z AUTO 02002KT 8000 NCD 07/04 Q1031=
201203250050 METAR COR EGLL 250050Z 07002KT 9000 NSC 07/04 Q1031 NOSIG=
201203250020 METAR COR EGLL 250020Z 00000KT 8000 NSC 08/04 Q1031 NOSIG=
201203242350 METAR COR EGLL 242350Z 08003KT 8000 NSC 08/04 Q1031 NOSIG=
201203242320 METAR COR EGLL 242320Z 08003KT 8000 NSC 09/04 Q1031 NOSIG=
201203242250 METAR COR EGLL 242250Z 10005KT 5000 HZ NSC 08/04 Q1031 BECMG
                        3000=
201203242220 METAR COR EGLL 242220Z 09005KT 5000 HZ NSC 09/05 Q1031 BECMG
                        3000=
201203242150 METAR COR EGLL 242150Z 10005KT 5000 HZ NSC 09/06 Q1030 BECMG
                        3000=
201203242120 METAR COR EGLL 242120Z 10007KT 6000 NSC 10/06 Q1030 BECMG
                        4000 HZ=
201203242050 METAR COR EGLL 242050Z 10006KT 7000 NSC 09/06 Q1030 NOSIG=
201203242020 METAR COR EGLL 242020Z 10009KT 7000 NSC 10/07 Q1030 NOSIG=
201203241950 METAR COR EGLL 241950Z 10008KT 8000 NSC 12/07 Q1030 NOSIG=
201203241920 METAR COR EGLL 241920Z 10008KT 9000 NSC 12/06 Q1029 NOSIG=
201203241850 METAR COR EGLL 241850Z 11009KT CAVOK 12/05 Q1029 NOSIG=
201203241820 METAR COR EGLL 241820Z 10009KT CAVOK 14/05 Q1029 NOSIG=
201203241750 METAR COR EGLL 241750Z 10008KT CAVOK 15/05 Q1028 NOSIG=
201203241720 METAR COR EGLL 241720Z 09009KT CAVOK 16/06 Q1028 NOSIG=
201203241650 METAR COR EGLL 241650Z 10010KT CAVOK 18/06 Q1027 NOSIG=
201203241620 METAR COR EGLL 241620Z 10008KT CAVOK 18/05 Q1027 NOSIG=
201203241550 METAR COR EGLL 241550Z 09009KT 060V120 CAVOK 19/06 Q1027
                        NOSIG=
201203241520 METAR COR EGLL 241520Z 09007KT 050V140 CAVOK 19/06 Q1028
                        NOSIG=
201203241450 METAR COR EGLL 241450Z 12006KT CAVOK 19/06 Q1028 NOSIG=
201203241420 METAR COR EGLL 241420Z 10008KT 050V140 CAVOK 19/05 Q1028
                        NOSIG=
201203241350 METAR COR EGLL 241350Z 09008KT 060V130 CAVOK 19/04 Q1028
                        NOSIG=
201203241320 METAR COR EGLL 241320Z 09008KT CAVOK 19/05 Q1028 NOSIG=
201203241250 METAR COR EGLL 241250Z 09007KT 9000 NSC 19/05 Q1029 NOSIG=
201203241220 METAR COR EGLL 241220Z 08006KT 8000 NSC 19/06 Q1029 NOSIG=
201203241150 METAR COR EGLL 241150Z 08007KT 8000 NSC 17/06 Q1029 NOSIG=
201203241120 METAR COR EGLL 241120Z 11008KT 7000 NSC 17/07 Q1029 NOSIG=
201203241050 METAR COR EGLL 241050Z 11007KT 6000 NSC 16/08 Q1029 NOSIG=
201203241020 METAR COR EGLL 241020Z 09006KT 050V110 5000 HZ NSC 15/08
                        Q1029 NOSIG=
201203240950 METAR COR EGLL 240950Z 08005KT 5000 HZ NSC 14/08 Q1029 NOSIG=
201203240920 METAR COR EGLL 240920Z VRB03KT 4000 HZ NSC 12/08 Q1029 BECMG
                        6000 NSW=
201203240850 METAR COR EGLL 240850Z VRB03KT 3500 HZ NSC 11/07 Q1029 BECMG
                        5000=
201203240820 METAR COR EGLL 240820Z VRB03KT 3200 HZ NSC 10/07 Q1029 BECMG
                        5000=
201203240750 METAR COR EGLL 240750Z VRB03KT 3000 HZ NSC 09/06 Q1029 TEMPO
                        1200 VCFG=
201203240720 METAR COR EGLL 240720Z 05003KT 3000 HZ NSC 08/06 Q1028 NOSIG=
201203240650 METAR COR EGLL 240650Z 05003KT 3200 HZ NSC 08/06 Q1028 NOSIG=
201203240620 METAR COR EGLL 240620Z 08002KT 3000 HZ NSC 07/06 Q1028 TEMPO
                        1200 BR=
201203240550 METAR COR EGLL 240550Z 36002KT 3000 HZ NSC 06/05 Q1028 NOSIG=
201203240520 METAR EGLL 240520Z 07002KT 4500 HZ NSC 07/05 Q1027=
201203240450 METAR COR EGLL 240450Z 00000KT 4500 HZ NSC 07/05 Q1027 TEMPO
                        2500 BR=
201203240420 METAR COR EGLL 240420Z 04002KT 5000 HZ NSC 07/06 Q1027 TEMPO
                        3000=
201203240350 METAR COR EGLL 240350Z 04003KT 5000 HZ NSC 07/05 Q1027 TEMPO
                        4000=
201203240320 METAR COR EGLL 240320Z 04003KT 6000 NSC 08/06 Q1027 NOSIG=
201203240250 METAR COR EGLL 240250Z 04002KT 6000 NSC 08/06 Q1027 TEMPO
                        4000 HZ=
201203240220 METAR EGLL 240220Z AUTO 04003KT 3300 HZ NCD 08/06 Q1027=
201203240150 METAR EGLL 240150Z AUTO 07002KT 3200 HZ NCD 08/06 Q1027=
201203240120 METAR EGLL 240120Z AUTO 06003KT 3500 HZ NCD 09/06 Q1027=
201203240050 METAR COR EGLL 240050Z 05003KT 6000 NSC 09/06 Q1027 TEMPO
                        4000 HZ=
201203240020 METAR COR EGLL 240020Z 07004KT 6000 NSC 10/06 Q1027 BECMG
                        4000 HZ=
201203232350 METAR COR EGLL 232350Z 06004KT 6000 NSC 10/06 Q1027 BECMG
                        4000 HZ=
201203232320 METAR COR EGLL 232320Z 07004KT 6000 NSC 11/06 Q1027 BECMG
                        4000 HZ=
201203232250 METAR COR EGLL 232250Z 07003KT 6000 NSC 12/07 Q1027 BECMG
                        4000 HZ=
201203232220 METAR COR EGLL 232220Z 06002KT 6000 NSC 13/07 Q1027 NOSIG=
201203232150 METAR COR EGLL 232150Z 07002KT 6000 NSC 12/07 Q1027 NOSIG=
201203232120 METAR COR EGLL 232120Z 09004KT 060V130 6000 NSC 12/07 Q1027
                        NOSIG=
201203232050 METAR COR EGLL 232050Z 08003KT 6000 NSC 13/08 Q1027 BECMG
                        4000 HZ=
201203232020 METAR COR EGLL 232020Z 09005KT 060V120 7000 NSC 13/07 Q1027
                        BECMG 4000 HZ=
201203231950 METAR COR EGLL 231950Z 11008KT 090V150 9000 NSC 14/06 Q1026
                        NOSIG=
201203231920 METAR COR EGLL 231920Z 01003KT 9000 NSC 18/06 Q1026 BECMG
                        4500 HZ=
201203231850 METAR COR EGLL 231850Z 34002KT 9000 NSC 17/06 Q1026 BECMG
                        4500 HZ=
201203231820 METAR COR EGLL 231820Z 29003KT CAVOK 17/06 Q1026 BECMG 4500
                        HZ=
201203231750 METAR COR EGLL 231750Z 28005KT CAVOK 17/05 Q1026 NOSIG=
201203231720 METAR COR EGLL 231720Z 18004KT 140V260 CAVOK 19/03 Q1025
                        NOSIG=
201203231650 METAR COR EGLL 231650Z 19004KT 150V210 CAVOK 19/05 Q1025
                        NOSIG=
201203231620 METAR COR EGLL 231620Z 19006KT 150V220 CAVOK 19/05 Q1025
                        NOSIG=
201203231550 METAR COR EGLL 231550Z 16004KT 100V240 CAVOK 19/06 Q1025
                        NOSIG=
201203231520 METAR COR EGLL 231520Z 21005KT 090V250 CAVOK 20/05 Q1026
                        NOSIG=
201203231450 METAR COR EGLL 231450Z 20006KT 140V280 CAVOK 21/05 Q1026
                        NOSIG=
201203231420 METAR COR EGLL 231420Z 20006KT 160V250 8000 NSC 19/06 Q1026
                        NOSIG=
201203231350 METAR COR EGLL 231350Z 19004KT 130V310 8000 NSC 20/07 Q1026
                        NOSIG=
201203231320 METAR COR EGLL 231320Z VRB02KT 6000 NSC 19/07 Q1026 NOSIG=
201203231250 METAR COR EGLL 231250Z VRB03KT 6000 NSC 18/08 Q1027 NOSIG=
201203231220 METAR COR EGLL 231220Z 23005KT 170V260 5000 HZ NSC 17/09
                        Q1027 NOSIG=
201203231150 METAR COR EGLL 231150Z 24005KT 170V340 5000 HZ NSC 16/09
                        Q1027 NOSIG=
201203231120 METAR COR EGLL 231120Z VRB02KT 4600 HZ NSC 16/08 Q1027 BECMG
                        6000 NSW=
201203231050 METAR COR EGLL 231050Z VRB03KT 4000 HZ NSC 14/08 Q1027 BECMG
                        6000 NSW=
201203231020 METAR COR EGLL 231020Z VRB03KT 4000 HZ NSC 13/08 Q1027 BECMG
                        6000 NSW=
201203230950 METAR COR EGLL 230950Z VRB03KT 3700 HZ NSC 12/08 Q1027 BECMG
                        5000=
201203230920 METAR COR EGLL 230920Z VRB03KT 3200 HZ NSC 11/07 Q1027 BECMG
                        5000=
201203230850 METAR COR EGLL 230850Z VRB03KT 2700 HZ NSC 10/07 Q1027 BECMG
                        5000=
201203230820 METAR COR EGLL 230820Z 07002KT 2500 HZ NSC 09/07 Q1027 BECMG
                        5000=
201203230750 METAR COR EGLL 230750Z VRB02KT 2300 HZ NSC 09/07 Q1027 BECMG
                        5000=
201203230720 METAR COR EGLL 230720Z 35002KT 1500 BR NSC 08/06 Q1027 BECMG
                        5000 HZ=
201203230650 METAR COR EGLL 230650Z 35002KT 1500 BR NSC 07/06 Q1026 TEMPO
                        1100=
201203230620 METAR COR EGLL 230620Z VRB03KT 1900 HZ NSC 07/06 Q1026 TEMPO
                        1200 BR=
201203230550 METAR COR EGLL 230550Z 36002KT 1800 HZ NSC 06/05 Q1026 TEMPO
                        1200 BR=
201203230520 METAR COR EGLL 230520Z 01003KT 3100 HZ NSC 06/05 Q1026 TEMPO
                        2000=
201203230450 METAR COR EGLL 230450Z VRB02KT 3600 HZ NSC 06/05 Q1026 TEMPO
                        2000 BR=
201203230420 METAR COR EGLL 230420Z 00000KT 3600 HZ NSC 07/06 Q1026 TEMPO
                        2200=
201203230350 METAR COR EGLL 230350Z 05003KT 3700 HZ NSC 06/05 Q1026 NOSIG=
201203230320 METAR COR EGLL 230320Z 05004KT 3700 HZ NSC 06/05 Q1026 NOSIG=
201203230250 METAR COR EGLL 230250Z 00000KT 4500 HZ NSC 07/06 Q1026 NOSIG=
201203230220 METAR EGLL 230220Z AUTO 07002KT 2300 HZ NCD 07/06 Q1026=
201203230150 METAR EGLL 230150Z AUTO 07004KT 2000 HZ NCD 07/06 Q1026=
201203230120 METAR EGLL 230120Z AUTO VRB03KT 2200 HZ NCD 07/05 Q1026=
201203230050 METAR COR EGLL 230050Z 06004KT 4500 HZ NSC 08/06 Q1027 NOSIG=
201203230020 METAR EGLL 230020Z 06004KT 5000 HZ NSC 08/06 Q1027=
201203222350 METAR EGLL 222350Z 08002KT 5000 HZ NSC 08/06 Q1027=
201203222320 METAR COR EGLL 222320Z 00000KT 5000 HZ NSC 09/06 Q1027 BECMG
                        4000=
201203222250 METAR COR EGLL 222250Z 06005KT 6000 NSC 09/07 Q1027 BECMG
                        4500=
201203222220 METAR COR EGLL 222220Z 07005KT 6000 NSC 09/06 Q1028 BECMG
                        4500=
201203222150 METAR COR EGLL 222150Z 07005KT 4700 HZ NSC 11/07 Q1028 TEMPO
                        6000=
201203222120 METAR EGLL 222120Z AUTO 08008KT 5000 NCD 11/07 Q1028=
201203222050 METAR EGLL 222050Z AUTO 08009KT 5000 NCD 11/07 Q1028=
201203222020 METAR EGLL 222020Z AUTO 08009KT 5000 NCD 11/07 Q1028=
201203221950 METAR EGLL 221950Z AUTO 08010KT 5000 NCD 11/07 Q1028=
201203221920 METAR EGLL 221920Z AUTO 09010KT 5000 NCD 12/06 Q1028=
201203221850 METAR EGLL 221850Z AUTO 10010KT 6000 NCD 12/05 Q1027=
201203221820 METAR COR EGLL 221820Z 09009KT 7000 NSC 13/04 Q1027 NOSIG=
201203221750 METAR COR EGLL 221750Z 08009KT 9000 NSC 14/03 Q1027 NOSIG=
201203221720 METAR COR EGLL 221720Z 09010KT 9000 NSC 14/02 Q1027 NOSIG=
201203221650 METAR EGLL 221650Z NIL=
201203221620 METAR COR EGLL 221620Z 09012KT CAVOK 16/02 Q1027 NOSIG=
201203221550 METAR COR EGLL 221550Z 09013KT CAVOK 16/01 Q1027 NOSIG=
201203221520 METAR COR EGLL 221520Z 09015KT CAVOK 16/01 Q1027 NOSIG=
201203221450 METAR COR EGLL 221450Z 09014KT CAVOK 16/02 Q1027 NOSIG=
201203221420 METAR COR EGLL 221420Z 09015KT CAVOK 17/01 Q1028 NOSIG=
201203221350 METAR COR EGLL 221350Z 09015KT CAVOK 17/02 Q1028 NOSIG=
201203221320 METAR COR EGLL 221320Z 08013KT CAVOK 17/01 Q1028 NOSIG=
201203221250 METAR COR EGLL 221250Z 08012KT CAVOK 17/03 Q1028 NOSIG=
201203221220 METAR COR EGLL 221220Z 08012KT CAVOK 16/04 Q1028 NOSIG=
201203221150 METAR COR EGLL 221150Z 09011KT 9000 NSC 15/04 Q1029 NOSIG=
201203221120 METAR EGLL 221120Z 09012KT 9000 NSC 15/04 Q1029=
201203221050 METAR COR EGLL 221050Z 09010KT 8000 NSC 14/05 Q1029 NOSIG=
201203221020 METAR COR EGLL 221020Z 07007KT 8000 NSC 14/05 Q1029 NOSIG=
201203220950 METAR COR EGLL 220950Z 07007KT 7000 NSC 12/05 Q1030 NOSIG=
201203220920 METAR COR EGLL 220920Z 06007KT 6000 NSC 11/05 Q1030 NOSIG=
201203220850 METAR COR EGLL 220850Z 06007KT 5000 HZ NSC 10/06 Q1030 NOSIG=
201203220820 METAR COR EGLL 220820Z 07006KT 4000 HZ NSC 09/06 Q1030 BECMG
                        6000 NSW=
201203220750 METAR COR EGLL 220750Z 06006KT 4000 HZ NSC 08/05 Q1030 BECMG
                        6000 NSW=
201203220720 METAR COR EGLL 220720Z 06007KT 3900 HZ NSC 07/05 Q1030 BECMG
                        6000 NSW=
201203220650 METAR COR EGLL 220650Z 06005KT 3700 HZ NSC 06/04 Q1030 BECMG
                        6000 NSW=
201203220620 METAR COR EGLL 220620Z 05004KT 3500 HZ NSC 06/04 Q1030 BECMG
                        6000=
201203220550 METAR COR EGLL 220550Z 06006KT 2000 HZ NSC 05/03 Q1030 BECMG
                        5000=
201203220520 METAR COR EGLL 220520Z 07004KT 6000 NSC 05/03 Q1030 TEMPO
                        4500=
201203220450 METAR COR EGLL 220450Z 05005KT 7000 NSC 05/03 Q1030 NOSIG=
201203220420 METAR COR EGLL 220420Z 07004KT 8000 NSC 06/03 Q1030 NOSIG=
201203220350 METAR COR EGLL 220350Z 07006KT 8000 NSC 06/04 Q1030 NOSIG=
201203220320 METAR COR EGLL 220320Z 07005KT 8000 NSC 06/04 Q1030 NOSIG=
201203220250 METAR COR EGLL 220250Z 07005KT 9000 NSC 06/03 Q1031 NOSIG=
201203220220 METAR EGLL 220220Z AUTO 06006KT 9000 NCD 06/03 Q1031=
201203220150 METAR EGLL 220150Z AUTO 06006KT 9999 NCD 06/03 Q1031=
201203220120 METAR EGLL 220120Z AUTO 06007KT 9999 NCD 06/03 Q1031=
201203220050 METAR COR EGLL 220050Z 07006KT CAVOK 07/03 Q1032 NOSIG=
201203220020 METAR COR EGLL 220020Z 06007KT CAVOK 07/03 Q1032 NOSIG=
201203212350 METAR COR EGLL 212350Z 08006KT CAVOK 07/03 Q1032 NOSIG=
201203212320 METAR COR EGLL 212320Z 08005KT CAVOK 07/03 Q1032 NOSIG=
201203212250 METAR COR EGLL 212250Z 08004KT CAVOK 08/03 Q1032 NOSIG=
201203212220 METAR COR EGLL 212220Z 08005KT CAVOK 08/03 Q1032 NOSIG=
201203212150 METAR COR EGLL 212150Z 09005KT CAVOK 08/03 Q1032 NOSIG=
201203212120 METAR COR EGLL 212120Z 08005KT CAVOK 09/03 Q1032 NOSIG=
201203212050 METAR COR EGLL 212050Z 08006KT CAVOK 09/03 Q1032 NOSIG=
201203212020 METAR COR EGLL 212020Z 08006KT CAVOK 09/04 Q1032 NOSIG=
201203211950 METAR COR EGLL 211950Z 10008KT CAVOK 10/04 Q1033 NOSIG=
201203211920 METAR COR EGLL 211920Z 10009KT CAVOK 10/04 Q1032 NOSIG=
201203211850 METAR COR EGLL 211850Z 09010KT CAVOK 11/04 Q1032 NOSIG=
201203211820 METAR COR EGLL 211820Z 10010KT CAVOK 12/04 Q1032 NOSIG=
201203211750 METAR COR EGLL 211750Z 09010KT CAVOK 13/05 Q1032 NOSIG=
201203211720 METAR COR EGLL 211720Z 10011KT CAVOK 14/05 Q1032 NOSIG=
201203211650 METAR COR EGLL 211650Z 10011KT 9999 FEW048 14/04 Q1032 NOSIG=
201203211620 METAR COR EGLL 211620Z 11010KT 9999 FEW048 15/04 Q1032 NOSIG=
201203211550 METAR COR EGLL 211550Z 09009KT 040V120 9999 FEW048 15/03
                        Q1032 NOSIG=
201203211520 METAR COR EGLL 211520Z 10009KT 9999 FEW048 16/03 Q1032 NOSIG=
201203211450 METAR COR EGLL 211450Z 10007KT 060V130 9999 FEW046 16/04
                        Q1033 NOSIG=
201203211420 METAR COR EGLL 211420Z 10008KT 9999 FEW046 16/04 Q1033 NOSIG=
201203211350 METAR COR EGLL 211350Z 10006KT 050V140 9999 FEW046 16/04
                        Q1033 NOSIG=
201203211320 METAR COR EGLL 211320Z VRB06KT 9999 SCT046 16/04 Q1034 NOSIG=
201203211250 METAR COR EGLL 211250Z 09006KT 040V120 9999 SCT044 15/04
                        Q1034 NOSIG=
201203211220 METAR COR EGLL 211220Z 11008KT 9999 SCT040 15/05 Q1034 NOSIG=
201203211150 METAR EGLL 211150Z NIL=
201203211120 METAR COR EGLL 211120Z VRB04KT 9999 FEW042 14/06 Q1035 NOSIG=
201203211050 METAR COR EGLL 211050Z 05004KT 330V110 9999 FEW042 13/06
                        Q1035 NOSIG=
201203211020 METAR COR EGLL 211020Z 08004KT 330V130 9999 FEW042 12/05
                        Q1035 NOSIG=
201203210950 METAR COR EGLL 210950Z VRB03KT 9999 SCT042 12/05 Q1036 NOSIG=
201203210920 METAR COR EGLL 210920Z 07004KT 360V120 9999 SCT042 11/05
                        Q1036 NOSIG=
201203210850 METAR COR EGLL 210850Z VRB03KT 9999 BKN042 10/05 Q1035 NOSIG=
201203210820 METAR COR EGLL 210820Z VRB03KT 9999 BKN042 09/05 Q1035 NOSIG=
201203210750 METAR COR EGLL 210750Z VRB02KT 9999 BKN042 09/04 Q1035 NOSIG=
201203210720 METAR COR EGLL 210720Z 04004KT 360V080 9999 BKN042 09/04
                        Q1035 NOSIG=
201203210650 METAR COR EGLL 210650Z 03004KT 360V070 9999 BKN042 08/04
                        Q1035 NOSIG=
201203210620 METAR COR EGLL 210620Z 01004KT 330V050 9999 BKN042 08/04
                        Q1035 NOSIG=
201203210550 METAR COR EGLL 210550Z 04004KT 360V090 9999 BKN041 09/04
                        Q1035 NOSIG=
201203210520 METAR COR EGLL 210520Z 08002KT 9999 BKN042 08/04 Q1035 NOSIG=
201203210450 METAR COR EGLL 210450Z VRB02KT 9999 BKN043 08/04 Q1034 NOSIG=
201203210420 METAR COR EGLL 210420Z VRB03KT 9999 BKN042 08/04 Q1034 NOSIG=
201203210350 METAR COR EGLL 210350Z 00000KT 9999 BKN042 08/04 Q1035 NOSIG=
201203210320 METAR COR EGLL 210320Z VRB02KT 9999 BKN043 08/04 Q1035 NOSIG=
201203210250 METAR COR EGLL 210250Z 08002KT 9999 BKN042 08/04 Q1035 NOSIG=
201203210220 METAR EGLL 210220Z AUTO VRB02KT 9999 BKN042/// 08/04 Q1035=
201203210150 METAR COR EGLL 210150Z AUTO VRB03KT 9999 BKN042/// 09/04
                        Q1035 NOSIG=
201203210120 METAR COR EGLL 210120Z AUTO 00000KT 9999 OVC042/// 09/04
                        Q1035 NOSIG=
201203210050 METAR COR EGLL 210050Z 00000KT 9999 BKN042 08/04 Q1035 NOSIG=
201203210020 METAR COR EGLL 210020Z 31003KT 9999 BKN042 08/04 Q1035 NOSIG=
201203202350 METAR COR EGLL 202350Z 30003KT 9999 BKN041 08/04 Q1035 NOSIG=
201203202320 METAR COR EGLL 202320Z 32004KT 9999 BKN041 09/04 Q1035 NOSIG=
201203202250 METAR COR EGLL 202250Z 31003KT 9999 BKN041 10/05 Q1035 NOSIG=
201203202220 METAR COR EGLL 202220Z 31003KT 9999 BKN041 11/05 Q1035 NOSIG=
201203202150 METAR COR EGLL 202150Z 32003KT 9999 BKN041 11/05 Q1035 NOSIG=
201203202120 METAR COR EGLL 202120Z 31003KT 9999 BKN041 11/05 Q1035 NOSIG=
201203202050 METAR COR EGLL 202050Z 30004KT 9999 BKN041 11/05 Q1034 NOSIG=
201203202020 METAR COR EGLL 202020Z 30003KT 9999 BKN042 11/05 Q1034 NOSIG=
201203201950 METAR COR EGLL 201950Z 28004KT 9999 FEW040 11/05 Q1034 NOSIG=
201203201920 METAR COR EGLL 201920Z 28006KT 9999 FEW041 11/04 Q1034 NOSIG=
201203201850 METAR COR EGLL 201850Z 27005KT 9999 FEW042 11/04 Q1034 NOSIG=
201203201820 METAR COR EGLL 201820Z 28007KT 9999 FEW042 12/05 Q1034 NOSIG=
201203201750 METAR COR EGLL 201750Z 27005KT 9999 FEW040 13/05 Q1033 NOSIG=
201203201720 METAR COR EGLL 201720Z VRB03KT 9999 SCT040 14/05 Q1033 NOSIG=
201203201650 METAR COR EGLL 201650Z 30004KT 270V340 9999 SCT040 14/05
                        Q1033 NOSIG=
201203201620 METAR COR EGLL 201620Z 29004KT 9999 BKN040 14/05 Q1034 NOSIG=
201203201550 METAR COR EGLL 201550Z 29005KT 250V010 9999 BKN039 14/05
                        Q1034 NOSIG=
201203201520 METAR COR EGLL 201520Z 31006KT 280V340 9999 BKN038 14/04
                        Q1034 NOSIG=
201203201450 METAR COR EGLL 201450Z 28007KT 250V310 9999 BKN038 14/05
                        Q1034 NOSIG=
201203201420 METAR COR EGLL 201420Z 26009KT 230V320 9999 SCT037 14/05
                        Q1034 NOSIG=
201203201350 METAR COR EGLL 201350Z 29009KT 9999 SCT036 14/05 Q1034 NOSIG=
201203201320 METAR COR EGLL 201320Z 27012KT 9999 SCT036 14/05 Q1035 NOSIG=
201203201250 METAR COR EGLL 201250Z 27010KT 9999 SCT034 13/05 Q1035 NOSIG=
201203201220 METAR COR EGLL 201220Z 27012KT 9999 BKN034 13/05 Q1035 NOSIG=
201203201150 METAR COR EGLL 201150Z 27011KT 9999 BKN034 13/05 Q1035 NOSIG=
201203201120 METAR COR EGLL 201120Z 28008KT 250V340 9999 SCT029 SCT031
                        13/05 Q1035 NOSIG=
201203201050 METAR COR EGLL 201050Z 26010KT 9999 SCT032 13/05 Q1035 NOSIG=
201203201020 METAR COR EGLL 201020Z 27008KT 9999 FEW028 12/05 Q1035 NOSIG=
201203200950 METAR COR EGLL 200950Z 27008KT 9999 FEW027 11/06 Q1036 NOSIG=
201203200920 METAR COR EGLL 200920Z 26008KT 9999 FEW027 10/06 Q1036 NOSIG=
201203200850 METAR EGLL 200850Z 27009KT 9999 BKN028 09/05 Q1036=
201203200820 METAR COR EGLL 200820Z 28007KT 9999 BKN030 08/05 Q1035 NOSIG=
201203200750 METAR COR EGLL 200750Z 24007KT 210V270 9999 BKN030 07/04
                        Q1035 NOSIG=
201203200720 METAR COR EGLL 200720Z 25007KT 210V280 9999 BKN030 06/04
                        Q1035 NOSIG=
201203200650 METAR COR EGLL 200650Z 25009KT 9999 SCT030 06/03 Q1035 NOSIG=
201203200620 METAR COR EGLL 200620Z 29005KT 9999 BKN030 05/03 Q1035 NOSIG=
201203200550 METAR COR EGLL 200550Z 26005KT 9999 SCT031 04/02 Q1035 NOSIG=
201203200520 METAR COR EGLL 200520Z 26004KT 9999 FEW029 04/02 Q1034 NOSIG=
201203200450 METAR COR EGLL 200450Z 24005KT 9999 FEW029 04/02 Q1034 NOSIG=
201203200420 METAR COR EGLL 200420Z 25006KT 9999 SCT029 04/02 Q1034 NOSIG=
201203200350 METAR COR EGLL 200350Z 25004KT 9999 SCT032 05/02 Q1034 NOSIG=
201203200320 METAR COR EGLL 200320Z 21004KT 9999 SCT032 04/02 Q1034 NOSIG=
201203200250 METAR COR EGLL 200250Z VRB03KT 9999 FEW032 04/02 Q1035 NOSIG=
201203200220 METAR EGLL 200220Z AUTO 27005KT 9999 NCD 04/01 Q1035=
201203200150 METAR EGLL 200150Z AUTO 26007KT 9999 NCD 04/01 Q1035=
201203200120 METAR EGLL 200120Z AUTO 25007KT 9999 NCD 05/01 Q1035=
201203200050 METAR COR EGLL 200050Z 26005KT CAVOK 05/01 Q1035 NOSIG=
201203200020 METAR COR EGLL 200020Z 26005KT CAVOK 05/01 Q1035 NOSIG=
201203192350 METAR COR EGLL 192350Z 27005KT CAVOK 06/01 Q1035 NOSIG=
201203192320 METAR COR EGLL 192320Z 25007KT CAVOK 06/01 Q1035 NOSIG=
201203192250 METAR COR EGLL 192250Z 28007KT CAVOK 07/01 Q1035 NOSIG=
201203192220 METAR COR EGLL 192220Z 27008KT CAVOK 07/01 Q1035 NOSIG=
201203192150 METAR COR EGLL 192150Z 28008KT CAVOK 07/01 Q1035 NOSIG=
201203192120 METAR COR EGLL 192120Z 28009KT CAVOK 07/00 Q1035 NOSIG=
201203192050 METAR COR EGLL 192050Z 27009KT CAVOK 08/M00 Q1034 NOSIG=
201203192020 METAR EGLL 192020Z 27008KT CAVOK 09/M01 Q1034=
201203191950 METAR COR EGLL 191950Z 26010KT CAVOK 09/M01 Q1034 NOSIG=
201203191920 METAR COR EGLL 191920Z 25009KT CAVOK 10/M00 Q1034 NOSIG=
201203191850 METAR COR EGLL 191850Z 26010KT 9999 FEW049 10/00 Q1033 NOSIG=
201203191820 METAR COR EGLL 191820Z 28009KT 9999 FEW049 10/01 Q1033 NOSIG=
201203191750 METAR COR EGLL 191750Z 28009KT 9999 FEW049 11/01 Q1033 NOSIG=
201203191720 METAR COR EGLL 191720Z 28011KT 9999 FEW049 12/01 Q1033 NOSIG=
201203191650 METAR COR EGLL 191650Z 28010KT 9999 SCT049 12/01 Q1032 NOSIG=
201203191620 METAR COR EGLL 191620Z 27011KT 9999 FEW049 13/01 Q1032 NOSIG=
201203191550 METAR COR EGLL 191550Z 28011KT 9999 SCT049 13/01 Q1032 NOSIG=
201203191520 METAR COR EGLL 191520Z 25011KT 9999 SCT049 13/M00 Q1033 NOSIG=
201203191450 METAR COR EGLL 191450Z 27011KT 9999 SCT049 12/00 Q1033 NOSIG=
201203191420 METAR COR EGLL 191420Z 28012KT 9999 SCT048 12/00 Q1033 NOSIG=
201203191350 METAR COR EGLL 191350Z 28010KT 9999 SCT049 12/00 Q1033 NOSIG=
201203191320 METAR COR EGLL 191320Z 27009KT 250V310 9999 SCT047 12/01
                        Q1033 NOSIG=
201203191250 METAR COR EGLL 191250Z 28008KT 9999 SCT046 12/01 Q1033 NOSIG=
201203191220 METAR COR EGLL 191220Z 28009KT 250V320 9999 SCT044 12/01
                        Q1033 NOSIG=
201203191150 METAR COR EGLL 191150Z 28008KT 240V320 9999 SCT040 12/02
                        Q1033 NOSIG=
201203191120 METAR EGLL 191120Z 27007KT 220V320 9999 FEW028 11/02 Q1033=
201203191050 METAR EGLL 191050Z 28006KT 9999 FEW028 10/02 Q1033=
201203191020 METAR COR EGLL 191020Z 27007KT 240V310 9999 FEW024 09/02
                        Q1033 NOSIG=
201203190950 METAR COR EGLL 190950Z 29005KT 230V320 CAVOK 08/02 Q1033
                        NOSIG=
201203190920 METAR COR EGLL 190920Z 27005KT 240V310 CAVOK 07/01 Q1033
                        NOSIG=
201203190850 METAR COR EGLL 190850Z 28004KT 230V310 CAVOK 06/01 Q1033
                        NOSIG=
201203190820 METAR COR EGLL 190820Z 27005KT CAVOK 05/01 Q1032 NOSIG=
201203190750 METAR COR EGLL 190750Z 28005KT CAVOK 04/01 Q1032 NOSIG=
201203190720 METAR COR EGLL 190720Z 30003KT CAVOK 02/00 Q1032 NOSIG=
201203190650 METAR COR EGLL 190650Z 00000KT 9000 NSC 01/M00 Q1031 NOSIG=
201203190620 METAR COR EGLL 190620Z 29003KT 7000 NSC 01/M01 Q1031 NOSIG=
201203190550 METAR COR EGLL 190550Z 29003KT 6000 NSC 00/M01 Q1030 TEMPO
                        4000 BR=
201203190520 METAR COR EGLL 190520Z 29004KT 250V310 8000 NSC 02/00 Q1030
                        NOSIG=
201203190450 METAR COR EGLL 190450Z 30004KT 8000 NSC 02/00 Q1030 NOSIG=
201203190420 METAR COR EGLL 190420Z 30003KT 8000 NSC 01/M00 Q1029 NOSIG=
201203190350 METAR COR EGLL 190350Z 31003KT 7000 NSC 00/M01 Q1029 NOSIG=
201203190320 METAR COR EGLL 190320Z 29004KT 7000 NSC 01/M00 Q1029 NOSIG=
201203190250 METAR COR EGLL 190250Z 29004KT 7000 NSC 01/00 Q1028 NOSIG=
201203190220 METAR EGLL 190220Z AUTO 30004KT 7000 NCD 01/M01 Q1028=
201203190150 METAR EGLL 190150Z AUTO 30003KT 7000 NCD 01/00 Q1028=
201203190120 METAR EGLL 190120Z AUTO 29003KT 6000 NCD 01/00 Q1028=
201203190050 METAR COR EGLL 190050Z 27005KT 8000 NSC 02/01 Q1028 NOSIG=
201203190020 METAR COR EGLL 190020Z 30004KT CAVOK 03/01 Q1027 NOSIG=
201203182350 METAR COR EGLL 182350Z 31004KT CAVOK 03/01 Q1027 NOSIG=
201203182320 METAR COR EGLL 182320Z 29003KT CAVOK 04/01 Q1027 NOSIG=
201203182250 METAR COR EGLL 182250Z VRB03KT CAVOK 04/01 Q1027 NOSIG=
201203182220 METAR COR EGLL 182220Z 31003KT CAVOK 05/02 Q1026 NOSIG=
201203182150 METAR COR EGLL 182150Z 31004KT CAVOK 05/02 Q1026 NOSIG=
201203182120 METAR COR EGLL 182120Z 30004KT CAVOK 06/02 Q1025 NOSIG=
201203182050 METAR COR EGLL 182050Z 31003KT CAVOK 06/02 Q1025 NOSIG=
201203182020 METAR COR EGLL 182020Z 34003KT CAVOK 06/02 Q1025 NOSIG=
201203181950 METAR COR EGLL 181950Z 35002KT CAVOK 06/02 Q1024 NOSIG=
201203181920 METAR COR EGLL 181920Z 36004KT 9999 FEW020 06/02 Q1024 NOSIG=
201203181850 METAR COR EGLL 181850Z 36004KT 330V030 9999 SCT022 07/02
                        Q1023 NOSIG=
201203181820 METAR COR EGLL 181820Z 02005KT 330V060 9999 FEW020 SCT049
                        07/03 Q1022 NOSIG=
201203181750 METAR COR EGLL 181750Z 01005KT 9999 VCSH FEW021 SCT048 08/03
                        Q1022 NOSIG=
201203181720 METAR COR EGLL 181720Z 03006KT 340V060 9999 FEW021 BKN045
                        08/03 Q1021 NOSIG=
201203181650 METAR COR EGLL 181650Z 01007KT 340V040 9999 SCT023 BKN041
                        08/03 Q1021 NOSIG=
201203181620 METAR COR EGLL 181620Z 01008KT 9999 SCT022 BKN036 08/03 Q1020
                        NOSIG=
201203181550 METAR COR EGLL 181550Z 36007KT 330V040 9999 FEW021 08/03
                        Q1020 NOSIG=
201203181520 METAR COR EGLL 181520Z 01008KT 9999 SCT021 08/03 Q1019 NOSIG=
201203181450 METAR COR EGLL 181450Z 01007KT 330V040 9999 BKN048 08/03
                        Q1019 NOSIG=
201203181420 METAR COR EGLL 181420Z 36007KT 320V040 9999 SCT024 BKN039
                        08/03 Q1018 NOSIG=
201203181350 METAR COR EGLL 181350Z 01008KT 340V040 9999 SCT022 BKN037
                        09/03 Q1018 TEMPO -SHRA BKN014=
201203181320 METAR COR EGLL 181320Z 35006KT 310V040 9999 FEW025 SCT036
                        10/03 Q1018 NOSIG=
201203181250 METAR COR EGLL 181250Z 33006KT 300V020 9999 FEW019 SCT026
                        10/04 Q1017 BECMG 03010KT=
201203181220 METAR COR EGLL 181220Z 32009KT 9999 SCT021 BKN025 09/04 Q1017
                        BECMG 03010KT=
201203181150 METAR COR EGLL 181150Z 33006KT 290V050 9999 SCT023 BKN029
                        10/04 Q1017 BECMG 03010KT=
201203181120 METAR COR EGLL 181120Z 31007KT 250V020 9999 SCT017 SCT029
                        09/04 Q1016 NOSIG=
201203181050 METAR COR EGLL 181050Z 27007KT 240V310 9999 BKN016 09/05
                        Q1016 NOSIG=
201203181020 METAR COR EGLL 181020Z 28008KT 9999 FEW011 08/04 Q1016 NOSIG=
201203180950 METAR COR EGLL 180950Z 30008KT 250V320 9999 FEW010 07/04
                        Q1016 NOSIG=
201203180920 METAR COR EGLL 180920Z 29005KT 270V330 9999 FEW012 07/04
                        Q1015 NOSIG=
201203180850 METAR COR EGLL 180850Z 27007KT 230V290 9999 FEW015 06/04
                        Q1015 TEMPO BKN006=
201203180820 METAR COR EGLL 180820Z 29006KT 9999 FEW015 05/04 Q1014 TEMPO
                        BKN006=
201203180750 METAR COR EGLL 180750Z 26006KT 9999 FEW015 05/03 Q1014 TEMPO
                        4000 BKN006=
201203180720 METAR COR EGLL 180720Z 27005KT 220V300 9999 FEW015 04/03
                        Q1014 TEMPO 4000 BR BKN005=
201203180650 METAR COR EGLL 180650Z 27005KT 9999 FEW040 04/03 Q1013 TEMPO
                        4000 BR BKN005=
201203180620 METAR COR EGLL 180620Z 26007KT 9000 NSC 03/02 Q1013 TEMPO
                        4000 BR BKN005=
201203180550 METAR COR EGLL 180550Z 25006KT 9000 FEW049 03/02 Q1013 TEMPO
                        4000 BR=
201203180520 METAR COR EGLL 180520Z 25006KT 9999 FEW049 04/03 Q1012 NOSIG=
201203180450 METAR COR EGLL 180450Z 27004KT 9999 NSC 03/02 Q1012 TEMPO
                        4000 BR=
201203180420 METAR COR EGLL 180420Z 27004KT 9999 NSC 04/03 Q1012 TEMPO
                        4000 BR=
201203180350 METAR COR EGLL 180350Z 28004KT 8000 NSC 04/03 Q1012 TEMPO
                        4000 BR=
201203180320 METAR COR EGLL 180320Z 28004KT 6000 FEW006 04/03 Q1012 TEMPO
                        4000 BR=
201203180250 METAR COR EGLL 180250Z 27004KT 7000 FEW006 05/04 Q1012 NOSIG=
201203180220 METAR EGLL 180220Z NIL=
201203180150 METAR EGLL 180150Z NIL=
201203180120 METAR EGLL 180120Z NIL=
201203180050 METAR COR EGLL 180050Z 26005KT 9999 FEW016 SCT020 07/05 Q1011
                        NOSIG=
201203180020 METAR EGLL 180020Z NIL=
201203172350 METAR EGLL 172350Z NIL=
201203172320 METAR EGLL 172320Z NIL=
201203172250 METAR COR EGLL 172250Z VRB02KT 9999 BKN022 SCT032 07/04 Q1012
                        NOSIG=
201203172220 METAR COR EGLL 172220Z 29006KT 9999 FEW008 SCT014 BKN024
                        07/06 Q1012 NOSIG=
201203172150 METAR COR EGLL 172150Z 22007KT 190V260 9999 FEW021 08/06
                        Q1011 NOSIG=
201203172120 METAR COR EGLL 172120Z 22007KT 190V260 9999 SCT044 08/06
                        Q1011 TEMPO SHRA=
201203172050 METAR COR EGLL 172050Z 22006KT 9999 -SHRA SCT041 08/06 Q1011
                        TEMPO SHRA=
201203172020 METAR COR EGLL 172020Z 23009KT 9999 -RA FEW032 08/06 Q1012
                        TEMPO SHRA=
201203171950 METAR COR EGLL 171950Z 22008KT 190V250 9999 FEW045 08/06
                        Q1012 NOSIG=
201203171920 METAR COR EGLL 171920Z 21006KT 150V250 9999 FEW040 BKN045
                        08/06 Q1011 NOSIG=
201203171850 METAR COR EGLL 171850Z 21009KT 9999 FEW039 BKN044 09/06 Q1012
                        NOSIG=
201203171820 METAR COR EGLL 171820Z 22008KT 190V250 9999 FEW039 SCT045
                        09/06 Q1011 NOSIG=
201203171750 METAR COR EGLL 171750Z 21007KT 160V260 9999 FEW020 SCT047
                        09/07 Q1011 NOSIG=
201203171720 METAR COR EGLL 171720Z 20007KT 170V240 9999 -SHRA FEW020CB
                        BKN034 09/06 Q1010 NOSIG=
201203171650 METAR COR EGLL 171650Z 22009KT 9999 -SHRA FEW020 SCT030 BKN043
                        10/07 Q1011 NOSIG=
201203171620 METAR COR EGLL 171620Z 23006KT 9999 -SHRA FEW015 BKN022 10/07
                        Q1011 NOSIG=
201203171550 METAR COR EGLL 171550Z 23009KT 190V260 9999 -SHRA FEW012
                        SCT026 10/07 Q1011 NOSIG=
201203171520 METAR COR EGLL 171520Z 19008KT 160V240 9999 FEW015 BKN021CB
                        10/07 Q1011 NOSIG=
201203171450 METAR COR EGLL 171450Z 21007KT 160V250 9999 FEW014 BKN020
                        11/07 Q1011 NOSIG=
201203171420 METAR COR EGLL 171420Z 21007KT 160V240 9999 FEW015 BKN035
                        11/08 Q1011 NOSIG=
201203171350 METAR COR EGLL 171350Z 20009KT 170V230 9999 FEW011 BKN015
                        11/08 Q1012 NOSIG=
201203171320 METAR COR EGLL 171320Z 22009KT 200V260 9999 FEW010 BKN023
                        11/08 Q1012 NOSIG=
201203171250 METAR COR EGLL 171250Z 21009KT 9999 FEW010 BKN021 10/08 Q1012
                        TEMPO RA BKN014=
201203171220 METAR COR EGLL 171220Z 20010KT 170V250 9999 -RA SCT009 BKN021
                        10/08 Q1013 TEMPO RA BKN014=
201203171150 METAR COR EGLL 171150Z 20008KT 9999 -RA SCT008 BKN024 10/08
                        Q1013 TEMPO -RA BKN014=
201203171120 METAR COR EGLL 171120Z 20008KT 170V260 9000 -RA SCT007 BKN012
                        10/08 Q1013 TEMPO 4000 RA=
201203171050 METAR COR EGLL 171050Z 19011KT 6000 -RA SCT008 BKN011 10/08
                        Q1013 TEMPO 4000=
201203171020 METAR EGLL 171020Z 20009KT 6000 FEW008 BKN011 10/08 Q1013=
201203170950 METAR COR EGLL 170950Z 20009KT 170V230 6000 -RA SCT011 BKN028
                        10/08 Q1013 TEMPO 4000 RA BKN012=
201203170920 METAR COR EGLL 170920Z 18011KT 7000 SCT032 BKN049 10/07 Q1013
                        TEMPO 4000 -RA BKN012=
201203170850 METAR COR EGLL 170850Z 20010KT 4500 HZ FEW013 BKN027 10/07
                        Q1013 TEMPO -RA BKN014=
201203170820 METAR COR EGLL 170820Z 21007KT 180V240 5000 HZ SCT014 BKN038
                        09/07 Q1013 TEMPO 4000 -RA BKN014=
201203170750 METAR COR EGLL 170750Z 21006KT 170V240 5000 HZ SCT041 BKN048
                        09/07 Q1013 TEMPO 4000 -RA BKN012=
201203170720 METAR EGLL 170720Z 20008KT 180V250 5000 HZ FEW013 BKN041
                        09/06 Q1013=
201203170650 METAR COR EGLL 170650Z 20007G17KT 6000 BKN013 09/06 Q1013
                        TEMPO 4000 -RA=
201203170620 METAR COR EGLL 170620Z 19007KT 120V210 4000 DZ BKN015 08/06
                        Q1013 TEMPO BKN012=
201203170550 METAR COR EGLL 170550Z 19007KT 6000 BKN015 08/06 Q1014 BECMG
                        BKN012=
201203170520 METAR COR EGLL 170520Z 19006KT 7000 BKN014 08/06 Q1013 NOSIG=
201203170450 METAR COR EGLL 170450Z 19006KT 7000 SCT015 BKN030 08/06 Q1013
                        NOSIG=
201203170420 METAR COR EGLL 170420Z 20006KT 7000 SCT015 SCT033 08/06 Q1014
                        NOSIG=
201203170350 METAR COR EGLL 170350Z 21007KT 7000 SCT030 SCT039 08/06 Q1014
                        NOSIG=
201203170320 METAR COR EGLL 170320Z 19008KT 7000 FEW049 07/05 Q1014 NOSIG=
201203170250 METAR COR EGLL 170250Z 20007KT 8000 FEW049 07/05 Q1014 NOSIG=
201203170220 METAR EGLL 170220Z AUTO 20007KT 5000 NCD 07/06 Q1014=
201203170150 METAR EGLL 170150Z AUTO 20007KT 4900 HZ FEW035/// 07/05 Q1014=
201203170120 METAR EGLL 170120Z AUTO 20008KT 5000 FEW035/// 07/05 Q1015=
201203170050 METAR COR EGLL 170050Z 19007KT 9000 SCT034 07/05 Q1015 NOSIG=
201203170020 METAR COR EGLL 170020Z 21005KT 9000 BKN038 08/06 Q1015 NOSIG=
201203162350 METAR COR EGLL 162350Z 20006KT 9000 BKN036 09/06 Q1015 NOSIG=
201203162320 METAR COR EGLL 162320Z 20007KT 9000 BKN038 09/06 Q1015 NOSIG=
201203162250 METAR COR EGLL 162250Z 21008KT 9000 BKN037 09/06 Q1016 NOSIG=
201203162220 METAR COR EGLL 162220Z 22008KT 9000 BKN034 09/05 Q1016 NOSIG=
201203162150 METAR COR EGLL 162150Z 22010KT 190V250 9999 BKN037 09/05
                        Q1016 NOSIG=
201203162120 METAR COR EGLL 162120Z 22010KT 180V250 9999 OVC038 09/05
                        Q1016 NOSIG=
201203162050 METAR COR EGLL 162050Z 22010KT 9999 BKN032 BKN036 09/05 Q1016
                        NOSIG=
201203162020 METAR COR EGLL 162020Z 22010KT 9999 BKN030 09/05 Q1016 NOSIG=
201203161950 METAR COR EGLL 161950Z 21009KT 180V250 9999 FEW023 BKN029
                        09/04 Q1016 NOSIG=
201203161920 METAR COR EGLL 161920Z 22010KT 9999 OVC030 09/04 Q1016 NOSIG=
201203161850 METAR COR EGLL 161850Z 22008KT 9999 OVC031 09/04 Q1016 NOSIG=
201203161820 METAR COR EGLL 161820Z 22009KT 190V250 9999 BKN032 09/04
                        Q1016 NOSIG=
201203161750 METAR COR EGLL 161750Z 23009KT 9999 FEW026 SCT030 09/04 Q1016
                        NOSIG=
201203161720 METAR COR EGLL 161720Z 25011KT 9999 BKN025 09/04 Q1016 NOSIG=
201203161650 METAR COR EGLL 161650Z 24013KT 9999 BKN023 09/04 Q1016 NOSIG=
201203161620 METAR COR EGLL 161620Z 23011KT 9999 FEW021 BKN024 10/04 Q1016
                        NOSIG=
201203161550 METAR COR EGLL 161550Z 23011KT 9999 BKN022 10/04 Q1016 NOSIG=
201203161520 METAR COR EGLL 161520Z 23011KT 9999 BKN022 10/04 Q1017 NOSIG=
201203161450 METAR COR EGLL 161450Z 24009KT 9999 BKN021 10/04 Q1017 NOSIG=
201203161420 METAR COR EGLL 161420Z 23012KT 9999 BKN020 09/04 Q1017 NOSIG=
201203161350 METAR COR EGLL 161350Z 25013KT 9999 BKN020 09/04 Q1018 NOSIG=
201203161320 METAR COR EGLL 161320Z 24014KT 9999 BKN020 09/04 Q1018 NOSIG=
201203161250 METAR COR EGLL 161250Z 24013KT 9999 BKN020 09/04 Q1018 NOSIG=
201203161220 METAR COR EGLL 161220Z 23011KT 9999 BKN020 09/04 Q1019 NOSIG=
201203161150 METAR COR EGLL 161150Z 24013KT 9000 BKN020 09/05 Q1019 NOSIG=
201203161120 METAR COR EGLL 161120Z 24012KT 9000 BKN019 09/05 Q1019 NOSIG=
201203161050 METAR COR EGLL 161050Z 23011KT 9000 BKN019 09/04 Q1019 NOSIG=
201203161020 METAR COR EGLL 161020Z 23010KT 200V260 9000 BKN020 09/04
                        Q1020 NOSIG=
201203160950 METAR COR EGLL 160950Z 24011KT 9000 BKN020 09/04 Q1020 NOSIG=
201203160920 METAR COR EGLL 160920Z 23011KT 9000 BKN019 09/04 Q1020 NOSIG=
201203160850 METAR COR EGLL 160850Z 24011KT 9000 BKN020 09/04 Q1020 NOSIG=
201203160820 METAR COR EGLL 160820Z 25010KT 7000 BKN020 08/04 Q1020 NOSIG=
201203160750 METAR COR EGLL 160750Z 23010KT 7000 BKN019 09/04 Q1020 NOSIG=
201203160720 METAR COR EGLL 160720Z 25007KT 6000 BKN020 09/04 Q1020 NOSIG=
201203160650 METAR COR EGLL 160650Z 25011KT 6000 BKN020 09/04 Q1020 NOSIG=
201203160620 METAR COR EGLL 160620Z 24008KT 5000 HZ OVC021 08/04 Q1020
                        NOSIG=
201203160550 METAR COR EGLL 160550Z 24007KT 5000 HZ OVC021 08/04 Q1020
                        NOSIG=
201203160520 METAR COR EGLL 160520Z 24010KT 5000 HZ OVC019 08/04 Q1020
                        NOSIG=
201203160450 METAR COR EGLL 160450Z 25010KT 5000 HZ BKN018 08/04 Q1020
                        NOSIG=
201203160420 METAR COR EGLL 160420Z 26008KT 5000 HZ BKN018 08/04 Q1021
                        NOSIG=
201203160350 METAR COR EGLL 160350Z 26008KT 5000 HZ BKN019 08/04 Q1021
                        NOSIG=
201203160320 METAR COR EGLL 160320Z 27008KT 5000 HZ BKN018 08/05 Q1021
                        NOSIG=
201203160250 METAR COR EGLL 160250Z 26009KT 5000 HZ BKN019 08/04 Q1021
                        NOSIG=
201203160220 METAR EGLL 160220Z AUTO 25008KT 5000 BKN019/// 09/04 Q1021=
201203160150 METAR EGLL 160150Z AUTO 27009KT 5000 BKN019/// 09/04 Q1022=
201203160120 METAR EGLL 160120Z AUTO 26010KT 6000 OVC019/// 09/04 Q1022=
201203160050 METAR COR EGLL 160050Z 27011KT 6000 OVC019 09/04 Q1022 NOSIG=
201203160020 METAR COR EGLL 160020Z 26012KT 6000 BKN020 09/05 Q1022 NOSIG=
201203152350 METAR COR EGLL 152350Z 26010KT 6000 BKN020 09/05 Q1022 NOSIG=
201203152320 METAR COR EGLL 152320Z 26011KT 6000 BKN020 09/05 Q1022 NOSIG=
201203152250 METAR COR EGLL 152250Z 27011KT 4300 HZ BKN015 09/06 Q1022
                        BECMG 5000=
201203152220 METAR COR EGLL 152220Z 28010KT 2900 HZ FEW009 BKN017 09/07
                        Q1022 BECMG 5000=
201203152150 METAR COR EGLL 152150Z 29008KT 2700 HZ SCT009 BKN017 09/07
                        Q1022 NOSIG=
201203152120 METAR COR EGLL 152120Z 28009KT 2800 HZ BKN010 BKN022 10/07
                        Q1022 NOSIG=
201203152050 METAR COR EGLL 152050Z 28010KT 2800 HZ BKN010 10/08 Q1022
                        TEMPO BKN008=
201203152020 METAR COR EGLL 152020Z 25008KT 210V290 2800 HZ BKN011 10/08
                        Q1022 TEMPO BKN009=
201203151950 METAR COR EGLL 151950Z 23010KT 3000 HZ BKN015 10/07 Q1022
                        TEMPO BKN012=
201203151920 METAR COR EGLL 151920Z 27008KT 3000 HZ FEW021 10/08 Q1022
                        NOSIG=
201203151850 METAR COR EGLL 151850Z 28010KT 3500 HZ NSC 11/08 Q1022 BECMG
                        BKN008=
201203151820 METAR COR EGLL 151820Z 29004KT 3500 HZ NSC 11/08 Q1022 BECMG
                        BKN010=
201203151750 METAR COR EGLL 151750Z 31004KT 5000 HZ NSC 12/08 Q1021 BECMG
                        BKN012=
201203151720 METAR COR EGLL 151720Z 31005KT 6000 NSC 14/08 Q1021 BECMG
                        BKN012=
201203151650 METAR COR EGLL 151650Z 24007KT 180V280 7000 NSC 16/08 Q1021
                        NOSIG=
201203151620 METAR COR EGLL 151620Z 20007KT 160V250 6000 NSC 16/08 Q1021
                        NOSIG=
201203151550 METAR COR EGLL 151550Z 19007KT 130V270 7000 NSC 16/08 Q1022
                        NOSIG=
201203151520 METAR COR EGLL 151520Z 23008KT 170V280 7000 NSC 16/08 Q1022
                        NOSIG=
201203151450 METAR COR EGLL 151450Z 21007KT 180V250 6000 NSC 16/08 Q1022
                        NOSIG=
201203151420 METAR COR EGLL 151420Z 21006KT 170V270 6000 NSC 15/08 Q1023
                        NOSIG=
201203151350 METAR COR EGLL 151350Z VRB02KT 6000 NSC 15/08 Q1023 NOSIG=
201203151320 METAR COR EGLL 151320Z VRB02KT 5000 HZ NSC 12/07 Q1023 TEMPO
                        9999 NSW=
201203151250 METAR COR EGLL 151250Z 26004KT 210V310 4000 HZ NSC 11/07
                        Q1024 BECMG 6000 NSW=
201203151220 METAR COR EGLL 151220Z 23004KT 190V300 3200 HZ FEW006 09/06
                        Q1024 BECMG 6000 NSW=
201203151150 METAR COR EGLL 151150Z 24004KT 180V290 2800 HZ BKN004 07/05
                        Q1024 BECMG 6000 NSW FEW008=
201203151120 METAR COR EGLL 151120Z 24006KT 210V280 2800 HZ OVC004 06/05
                        Q1025 BECMG 5000 SCT007=
201203151050 METAR COR EGLL 151050Z 21004KT 150V250 1500 BR BKN002 BKN003
                        05/04 Q1025 BECMG 5000 HZ SCT005=
201203151020 METAR COR EGLL 151020Z VRB03KT 0800 R27R/P1500 R27L/0900
                        FG VV/// 04/04 Q1025 BECMG 2500 BR
                        NSC=
201203150950 METAR COR EGLL 150950Z VRB03KT 0500 R27R/P1500 R27L/0500
                        FG VV/// 04/03 Q1025 BECMG 1500 BR
                        NSC=
201203150920 METAR COR EGLL 150920Z 16004KT 120V210 0500 R27R/1400 R27L/0400
                        FG FEW004 03/02 Q1025 BECMG 2000
                        BR BKN004=
201203150850 METAR COR EGLL 150850Z VRB03KT 0800 R27R/P1500 R27L/0250
                        FG FEW003 03/02 Q1026 BECMG 2000
                        BR BKN003=
201203150820 METAR COR EGLL 150820Z VRB03KT 0900 0400NW R27R/P1500 R27L/0200
                        FG FEW004 03/02 Q1026 TEMPO 1500
                        BR BKN002=
201203150750 METAR COR EGLL 150750Z VRB03KT 0900 0400N R27R/P1500 R27L/0200
                        FG FEW003 02/01 Q1025 TEMPO BKN001=
201203150720 METAR COR EGLL 150720Z VRB03KT 0800 0100SW R27R/P1500 R27L/1400
                        BCFG NSC 01/00 Q1025 TEMPO BKN001=
201203150650 METAR COR EGLL 150650Z VRB02KT 1200 0100SW R27R/P1500 R27L/P1500
                        BCFG BR NSC 02/01 Q1025 TEMPO 0500=
201203150620 METAR COR EGLL 150620Z 12004KT 1300 R27R/P1500 R27L/P1500
                        BR NSC 02/01 Q1026 BECMG 2500=
201203150550 METAR COR EGLL 150550Z 09002KT 1500 BR NSC 02/01 Q1026 TEMPO
                        1100=
201203150520 METAR COR EGLL 150520Z 07002KT 1900 BR NSC 03/02 Q1026 TEMPO
                        1200=
201203150450 METAR COR EGLL 150450Z 07003KT 1900 BR NSC 02/02 Q1026 TEMPO
                        1200=
201203150420 METAR COR EGLL 150420Z 06003KT 1900 BR NSC 03/02 Q1026 TEMPO
                        1200=
201203150350 METAR COR EGLL 150350Z 07002KT 2400 HZ NSC 03/02 Q1027 TEMPO
                        1200=
201203150320 METAR COR EGLL 150320Z 05002KT 2400 HZ NSC 03/02 Q1027 TEMPO
                        1200=
201203150250 METAR COR EGLL 150250Z 07002KT 2500 HZ NSC 03/02 Q1027 TEMPO
                        1200=
201203150220 METAR EGLL 150220Z AUTO 06003KT 1200 R09L/P1500 HZ NCD 03/02
                        Q1027=
201203150150 METAR EGLL 150150Z AUTO 06003KT 1100 R09L/P1500 HZ NCD 04/02
                        Q1028=
201203150120 METAR EGLL 150120Z AUTO 08002KT 1800 HZ NCD 04/03 Q1028=
201203150050 METAR COR EGLL 150050Z 06002KT 2500 HZ NSC 04/03 Q1028 NOSIG=
201203150020 METAR COR EGLL 150020Z VRB03KT 2500 HZ NSC 04/03 Q1028 NOSIG=
201203142350 METAR COR EGLL 142350Z 08003KT 2800 HZ NSC 05/03 Q1028 NOSIG=
201203142320 METAR COR EGLL 142320Z 08004KT 2900 HZ NSC 04/03 Q1028 NOSIG=
201203142250 METAR COR EGLL 142250Z 08004KT 3000 HZ NSC 05/03 Q1029 NOSIG=
201203142220 METAR COR EGLL 142220Z 07002KT 3500 HZ NSC 05/03 Q1029 NOSIG=
201203142150 METAR COR EGLL 142150Z 07004KT 3500 HZ NSC 05/03 Q1029 NOSIG=
201203142120 METAR EGLL 142120Z 09006KT 3900 HZ NSC 06/03 Q1029 NOSIG=
201203142050 METAR COR EGLL 142050Z 10007KT 4900 HZ NSC 06/04 Q1029 NOSIG=
201203142020 METAR COR EGLL 142020Z 10006KT 4900 HZ NSC 07/04 Q1029 NOSIG=
201203141950 METAR COR EGLL 141950Z 09006KT 7000 NSC 07/04 Q1029 NOSIG=
201203141920 METAR COR EGLL 141920Z 09006KT 8000 NSC 08/04 Q1029 NOSIG=
201203141850 METAR COR EGLL 141850Z 08005KT 8000 NSC 10/04 Q1029 NOSIG=
201203141820 METAR COR EGLL 141820Z 05002KT 8000 NSC 12/04 Q1029 NOSIG=
201203141750 METAR COR EGLL 141750Z 06003KT 9000 NSC 12/04 Q1029 NOSIG=
201203141720 METAR COR EGLL 141720Z VRB02KT 9000 NSC 12/04 Q1029 NOSIG=
201203141650 METAR COR EGLL 141650Z 10003KT 9000 NSC 13/04 Q1029 NOSIG=
201203141620 METAR COR EGLL 141620Z VRB03KT 9000 NSC 13/04 Q1029 NOSIG=
201203141550 METAR COR EGLL 141550Z VRB02KT 9000 NSC 13/04 Q1029 NOSIG=
201203141520 METAR COR EGLL 141520Z 00000KT 9000 NSC 12/04 Q1030 NOSIG=
201203141450 METAR COR EGLL 141450Z VRB02KT 9000 NSC 12/04 Q1030 NOSIG=
201203141420 METAR COR EGLL 141420Z VRB02KT 9000 NSC 12/04 Q1030 NOSIG=
201203141350 METAR COR EGLL 141350Z VRB03KT 9000 NSC 11/04 Q1031 NOSIG=
201203141320 METAR COR EGLL 141320Z VRB02KT 7000 NSC 10/04 Q1031 NOSIG=
201203141250 METAR COR EGLL 141250Z 16004KT 090V190 7000 SCT016 09/04
                        Q1031 NOSIG=
201203141220 METAR COR EGLL 141220Z 12004KT 080V170 7000 BKN016 08/04
                        Q1032 NOSIG=
201203141150 METAR COR EGLL 141150Z 12004KT 060V200 5000 HZ OVC011 07/03
                        Q1032 BECMG BKN015=
201203141120 METAR COR EGLL 141120Z 16006KT 120V180 5000 HZ OVC010 07/03
                        Q1032 NOSIG=
201203141050 METAR COR EGLL 141050Z 11006KT 090V150 5000 HZ OVC008 06/03
                        Q1032 BECMG BKN011=
201203141020 METAR COR EGLL 141020Z VRB03KT 5000 HZ OVC007 06/03 Q1032
                        BECMG BKN010=
201203140950 METAR COR EGLL 140950Z 12005KT 090V160 5000 HZ OVC009 06/03
                        Q1032 BECMG BKN010=
201203140920 METAR COR EGLL 140920Z 15004KT 120V190 6000 OVC009 06/03
                        Q1032 BECMG BKN010=
201203140850 METAR COR EGLL 140850Z 14005KT 090V170 6000 OVC009 05/03
                        Q1032 BECMG BKN010=
201203140820 METAR COR EGLL 140820Z 15004KT 6000 BKN009 05/03 Q1032 NOSIG=
201203140750 METAR COR EGLL 140750Z 12005KT 090V160 6000 BKN009 05/03
                        Q1032 NOSIG=
201203140720 METAR COR EGLL 140720Z 11006KT 6000 OVC009 05/03 Q1032 NOSIG=
201203140650 METAR COR EGLL 140650Z 14006KT 6000 OVC009 05/03 Q1032 NOSIG=
201203140620 METAR COR EGLL 140620Z 11004KT 6000 OVC009 05/03 Q1032 NOSIG=
201203140550 METAR COR EGLL 140550Z 11004KT 8000 BKN009 BKN010 05/03 Q1032
                        NOSIG=
201203140520 METAR COR EGLL 140520Z 11005KT 8000 BKN009 BKN010 05/03 Q1032
                        NOSIG=
201203140450 METAR COR EGLL 140450Z 10006KT 8000 BKN009 BKN010 05/03 Q1032
                        TEMPO SCT009 BKN010=
201203140420 METAR COR EGLL 140420Z 11004KT 7000 BKN009 05/03 Q1032 TEMPO
                        SCT009 BKN010=
201203140350 METAR COR EGLL 140350Z 09007KT 7000 SCT009 BKN010 05/03 Q1032
                        TEMPO BKN009=
201203140320 METAR COR EGLL 140320Z 09004KT 8000 FEW009 BKN010 05/03 Q1032
                        TEMPO BKN009=
201203140250 METAR COR EGLL 140250Z 09005KT 7000 BKN010 06/03 Q1033 NOSIG=
201203140220 METAR EGLL 140220Z AUTO 10005KT 070V140 8000 OVC010/// 06/03
                        Q1033=
201203140150 METAR EGLL 140150Z AUTO 10004KT 050V120 8000 OVC010/// 06/03
                        Q1033=
201203140120 METAR EGLL 140120Z AUTO VRB03KT 7000 OVC010/// 06/04 Q1033=
201203140050 METAR COR EGLL 140050Z VRB03KT 7000 OVC010 06/04 Q1033 NOSIG=
201203140020 METAR COR EGLL 140020Z VRB03KT 7000 OVC010 06/04 Q1033 NOSIG=
201203132350 METAR COR EGLL 132350Z 09004KT 7000 OVC010 06/04 Q1033 NOSIG=
201203132320 METAR COR EGLL 132320Z 08004KT 9000 OVC011 06/04 Q1034 NOSIG=
201203132250 METAR COR EGLL 132250Z 10005KT 8000 OVC012 06/04 Q1034 NOSIG=
201203132220 METAR COR EGLL 132220Z 10007KT 7000 BKN012 07/04 Q1034 NOSIG=
201203132150 METAR COR EGLL 132150Z 11003KT 7000 BKN013 07/04 Q1034 NOSIG=
201203132120 METAR COR EGLL 132120Z 08003KT 7000 BKN013 07/04 Q1034 NOSIG=
201203132050 METAR COR EGLL 132050Z 06002KT 7000 BKN012 06/04 Q1034 NOSIG=
201203132020 METAR COR EGLL 132020Z 06004KT 6000 NSC 06/04 Q1033 BECMG
                        BKN012=
201203131950 METAR COR EGLL 131950Z 06004KT 7000 NSC 07/05 Q1033 BECMG
                        BKN012=
201203131920 METAR COR EGLL 131920Z 07004KT 7000 NSC 07/05 Q1033 BECMG
                        BKN012=
201203131850 METAR COR EGLL 131850Z VRB03KT 7000 NSC 07/05 Q1034 NOSIG=
201203131820 METAR COR EGLL 131820Z VRB03KT 6000 NSC 08/05 Q1034 NOSIG=
201203131750 METAR COR EGLL 131750Z 36005KT 7000 NSC 08/05 Q1034 NOSIG=
201203131720 METAR COR EGLL 131720Z 36005KT 7000 NSC 09/05 Q1034 NOSIG=
201203131650 METAR COR EGLL 131650Z 36005KT 310V020 7000 NSC 09/05 Q1034
                        NOSIG=
201203131620 METAR COR EGLL 131620Z 35004KT 320V070 7000 NSC 10/06 Q1034
                        NOSIG=
201203131550 METAR COR EGLL 131550Z 01004KT 330V080 6000 NSC 10/06 Q1034
                        NOSIG=
201203131520 METAR COR EGLL 131520Z 35005KT 300V060 6000 FEW013 10/06
                        Q1034 NOSIG=
201203131450 METAR COR EGLL 131450Z 01005KT 320V090 7000 SCT013 10/05
                        Q1034 NOSIG=
201203131420 METAR COR EGLL 131420Z 36004KT 300V050 7000 BKN013 09/05
                        Q1034 TEMPO SCT016=
201203131350 METAR COR EGLL 131350Z 36004KT 310V030 6000 BKN012 09/05
                        Q1035 TEMPO SCT016=
201203131320 METAR COR EGLL 131320Z VRB03KT 6000 BKN012 08/05 Q1035 TEMPO
                        BKN016=
201203131250 METAR COR EGLL 131250Z VRB02KT 7000 BKN011 08/05 Q1035 NOSIG=
201203131220 METAR COR EGLL 131220Z 04005KT 010V080 6000 BKN010 08/05
                        Q1035 NOSIG=
201203131150 METAR COR EGLL 131150Z 07004KT 020V110 6000 BKN010 08/05
                        Q1035 NOSIG=
201203131120 METAR COR EGLL 131120Z 08004KT 030V170 6000 BKN008 07/05
                        Q1035 BECMG BKN010=
201203131050 METAR COR EGLL 131050Z VRB03KT 6000 BKN007 07/05 Q1035 NOSIG=
201203131020 METAR COR EGLL 131020Z 03004KT 340V070 6000 BKN006 07/05
                        Q1035 NOSIG=
201203130950 METAR COR EGLL 130950Z 04004KT 340V090 5000 HZ BKN006 06/05
                        Q1035 NOSIG=
201203130920 METAR COR EGLL 130920Z 03004KT 310V070 5000 HZ FEW005 BKN006
                        06/05 Q1035 NOSIG=
201203130850 METAR COR EGLL 130850Z VRB03KT 4400 HZ SCT004 BKN006 06/05
                        Q1035 NOSIG=
201203130820 METAR COR EGLL 130820Z VRB03KT 4300 HZ SCT004 BKN006 06/05
                        Q1035 BECMG 6000 NSW=
201203130750 METAR COR EGLL 130750Z 36004KT 3100 BR SCT003 BKN004 06/05
                        Q1035 BECMG BKN005=
201203130720 METAR COR EGLL 130720Z 01004KT 340V060 2600 BR FEW002 BKN003
                        06/05 Q1035 TEMPO BKN005=
201203130650 METAR COR EGLL 130650Z VRB03KT 2700 BR BKN003 06/05 Q1035
                        TEMPO BKN005=
201203130620 METAR COR EGLL 130620Z 36004KT 3000 BR SCT003 BKN004 06/05
                        Q1035 TEMPO BKN005=
201203130550 METAR COR EGLL 130550Z VRB02KT 3200 HZ SCT004 BKN005 07/05
                        Q1034 TEMPO BKN004=
201203130520 METAR COR EGLL 130520Z VRB03KT 3500 HZ FEW004 BKN005 07/05
                        Q1034 TEMPO BKN004=
201203130450 METAR COR EGLL 130450Z 36004KT 3800 HZ SCT005 BKN006 07/06
                        Q1034 TEMPO BKN004=
201203130420 METAR EGLL 130420Z NIL=
201203130350 METAR COR EGLL 130350Z VRB03KT 4200 HZ BKN006 08/06 Q1034
                        TEMPO BKN004=
201203130320 METAR COR EGLL 130320Z 00000KT 4200 HZ BKN006 08/06 Q1034
                        NOSIG=
201203130250 METAR COR EGLL 130250Z VRB03KT 4200 HZ BKN006 08/06 Q1034
                        NOSIG=
201203130220 METAR EGLL 130220Z AUTO VRB02KT 4500 HZ OVC007/// 08/06 Q1034=
201203130150 METAR EGLL 130150Z AUTO VRB03KT 4000 HZ OVC007/// 08/06 Q1035=
201203130120 METAR EGLL 130120Z AUTO VRB02KT 4000 HZ OVC006/// 08/06 Q1035=
201203130050 METAR COR EGLL 130050Z VRB03KT 4000 HZ FEW005 BKN006 08/06
                        Q1035 NOSIG=
201203130020 METAR COR EGLL 130020Z 07003KT 4500 HZ FEW005 BKN006 08/07
                        Q1035 NOSIG=
201203122350 METAR COR EGLL 122350Z 06003KT 4500 HZ FEW005 BKN006 08/07
                        Q1035 NOSIG=
201203122320 METAR COR EGLL 122320Z VRB03KT 4700 HZ BKN006 BKN007 08/07
                        Q1035 NOSIG=
201203122250 METAR COR EGLL 122250Z 06004KT 5000 HZ FEW006 BKN007 BKN008
                        08/07 Q1035 TEMPO 4000 HZ=
201203122220 METAR COR EGLL 122220Z 04005KT 6000 FEW008 BKN009 08/06 Q1035
                        NOSIG=
201203122150 METAR COR EGLL 122150Z 04004KT 8000 BKN009 08/06 Q1035 NOSIG=
201203122120 METAR COR EGLL 122120Z 08003KT 8000 FEW010 07/05 Q1034 BECMG
                        BKN009=
201203122050 METAR COR EGLL 122050Z 11005KT 8000 NSC 07/05 Q1034 BECMG
                        BKN009=
201203122020 METAR COR EGLL 122020Z 09005KT 8000 NSC 08/06 Q1034 TEMPO
                        BKN009=
201203121950 METAR COR EGLL 121950Z 07004KT 9000 NSC 10/07 Q1034 TEMPO
                        BKN009=
201203121920 METAR COR EGLL 121920Z 06006KT 9000 NSC 11/07 Q1034 NOSIG=
201203121850 METAR COR EGLL 121850Z 05004KT 9000 NSC 12/07 Q1034 NOSIG=
201203121820 METAR COR EGLL 121820Z 03004KT 010V070 9000 NSC 12/07 Q1034
                        NOSIG=
201203121750 METAR COR EGLL 121750Z VRB03KT 9000 NSC 13/07 Q1034 NOSIG=
201203121720 METAR COR EGLL 121720Z 36003KT 9000 NSC 14/08 Q1034 NOSIG=
201203121650 METAR COR EGLL 121650Z VRB02KT 9000 NSC 14/08 Q1034 NOSIG=
201203121620 METAR COR EGLL 121620Z VRB02KT 9000 NSC 14/08 Q1034 NOSIG=
201203121550 METAR COR EGLL 121550Z VRB03KT 9000 NSC 14/08 Q1034 NOSIG=
201203121520 METAR COR EGLL 121520Z VRB02KT 9000 NSC 14/07 Q1034 NOSIG=
201203121450 METAR COR EGLL 121450Z VRB02KT 9000 NSC 13/07 Q1034 NOSIG=
201203121420 METAR COR EGLL 121420Z VRB03KT 9000 NSC 13/07 Q1034 NOSIG=
201203121350 METAR COR EGLL 121350Z VRB03KT 9000 NSC 12/07 Q1035 NOSIG=
201203121320 METAR COR EGLL 121320Z VRB03KT 8000 FEW016 11/07 Q1035 NOSIG=
201203121250 METAR COR EGLL 121250Z 30004KT 250V330 6000 SCT010 10/07
                        Q1035 NOSIG=
201203121220 METAR COR EGLL 121220Z VRB03KT 5000 HZ BKN009 10/06 Q1035
                        BECMG SCT012=
201203121150 METAR COR EGLL 121150Z VRB03KT 3300 BR SCT004 BKN006 09/06
                        Q1035 BECMG 7000 SCT007 BKN010=
201203121120 METAR COR EGLL 121120Z VRB03KT 2700 BR FEW003 BKN004 08/06
                        Q1036 BECMG 5000 SCT006 BKN010=
201203121050 METAR COR EGLL 121050Z 36004KT 320V040 2200 BR SCT003 BKN004
                        07/06 Q1036 BECMG 5000 SCT006 BKN010=
201203121020 METAR COR EGLL 121020Z 01004KT 340V050 1800 HZ SCT002 BKN003
                        06/05 Q1036 BECMG 4000 SCT005 BKN010=
201203120950 METAR COR EGLL 120950Z 34004KT 290V040 1100 R27R/P1500 R27L/P1500
                        BR BCFG SCT001 BKN002 06/05 Q1036
                        BECMG 4500 BKN005=
201203120920 METAR COR EGLL 120920Z VRB03KT 1000 R27R/1100 R27L/1400 BCFG
                        BKN001 06/05 Q1036 BECMG 2800 BR
                        BKN004=
201203120850 METAR COR EGLL 120850Z VRB03KT 0500 R27R/0750 R27L/1400 BR
                        BKN001 05/05 Q1036 BECMG 2000 BR
                        BKN003=
201203120820 METAR COR EGLL 120820Z VRB03KT 0400 R27R/0550 R27L/1100 FG
                        OVC001 05/04 Q1035 BECMG 1200 BCFG
                        BKN003=
201203120750 METAR COR EGLL 120750Z 30004KT 260V340 0200 R27R/0400 R27L/0650
                        FG OVC001 05/04 Q1035 TEMPO 1000
                        BCFG BKN003=
201203120720 METAR COR EGLL 120720Z 32004KT 0150 R27R/0275 R27L/0600 FG
                        BKN001 05/04 Q1035 TEMPO 1000 BCFG
                        BKN003=
201203120650 METAR COR EGLL 120650Z 33004KT 0150 R27R/0400 R27L/0750 FG
                        BKN000 04/03 Q1035 TEMPO 1500 BR=
201203120620 METAR COR EGLL 120620Z 30004KT 0100 R27R/0275 R27L/0750 FG
                        BKN000 04/03 Q1035 TEMPO 1200 BR=
201203120550 METAR COR EGLL 120550Z 32003KT 0600 R27L/P1500 FG BKN001
                        05/04 Q1035 TEMPO 2000 BR=
201203120520 METAR COR EGLL 120520Z 32003KT 2200 VCFG FEW001 06/05 Q1035
                        TEMPO 0600 FG BKN001=
201203120450 METAR COR EGLL 120450Z 32004KT 2500 HZ NSC 07/06 Q1035 TEMPO
                        0600 FG=
201203120420 METAR COR EGLL 120420Z 32005KT 3300 HZ NSC 06/05 Q1035 TEMPO
                        0600 FG=
201203120350 METAR COR EGLL 120350Z 31004KT 3500 HZ NSC 05/04 Q1035 TEMPO
                        0600 FG=
201203120320 METAR COR EGLL 120320Z 28004KT 4000 HZ NSC 05/04 Q1035 TEMPO
                        0600 FG=
201203120250 METAR COR EGLL 120250Z 26002KT 5000 HZ NSC 06/05 Q1035 BECMG
                        4000 BR=
201203120220 METAR EGLL 120220Z AUTO 30003KT 3900 HZ NCD 07/05 Q1035=
201203120150 METAR EGLL 120150Z AUTO 32003KT 3400 HZ NCD 06/04 Q1035=
201203120120 METAR EGLL 120120Z AUTO 28003KT 5000 NCD 06/05 Q1035=
201203120050 METAR COR EGLL 120050Z 28005KT 7000 NSC 07/05 Q1035 BECMG
                        4000 BR=
201203120020 METAR COR EGLL 120020Z 28004KT 8000 NSC 07/05 Q1035 BECMG
                        4000 BR=
201203112350 METAR COR EGLL 112350Z 27003KT 9000 NSC 08/05 Q1035 BECMG
                        4000 HZ=
201203112320 METAR COR EGLL 112320Z 28003KT CAVOK 09/06 Q1035 NOSIG=
201203112250 METAR EGLL 112250Z 27003KT CAVOK 10/06 Q1035=
201203112220 METAR COR EGLL 112220Z 31003KT CAVOK 11/06 Q1035 NOSIG=
201203112150 METAR COR EGLL 112150Z 34002KT CAVOK 12/07 Q1035 NOSIG=
201203112120 METAR COR EGLL 112120Z 35002KT CAVOK 12/07 Q1035 NOSIG=
201203112050 METAR COR EGLL 112050Z 34002KT CAVOK 13/07 Q1035 NOSIG=
201203112020 METAR COR EGLL 112020Z 35003KT CAVOK 13/07 Q1035 NOSIG=
201203111950 METAR COR EGLL 111950Z 32002KT CAVOK 14/07 Q1035 NOSIG=
201203111920 METAR COR EGLL 111920Z 32004KT CAVOK 14/07 Q1035 NOSIG=
201203111850 METAR COR EGLL 111850Z 31003KT CAVOK 13/07 Q1035 NOSIG=
201203111820 METAR COR EGLL 111820Z 22004KT 180V310 CAVOK 14/07 Q1035
                        NOSIG=
201203111750 METAR COR EGLL 111750Z 28003KT CAVOK 14/07 Q1035 NOSIG=
201203111720 METAR COR EGLL 111720Z 22005KT CAVOK 15/07 Q1035 NOSIG=
201203111650 METAR EGLL 111650Z 20003KT CAVOK 15/08 Q1035=
201203111620 METAR COR EGLL 111620Z VRB03KT CAVOK 15/08 Q1036 NOSIG=
201203111550 METAR COR EGLL 111550Z VRB02KT CAVOK 16/07 Q1036 NOSIG=
201203111520 METAR COR EGLL 111520Z VRB03KT CAVOK 16/08 Q1036 NOSIG=
201203111450 METAR COR EGLL 111450Z 30004KT 250V350 CAVOK 16/08 Q1036
                        NOSIG=
201203111420 METAR COR EGLL 111420Z VRB02KT CAVOK 16/08 Q1036 NOSIG=
201203111350 METAR COR EGLL 111350Z VRB02KT 9999 FEW028 15/08 Q1036 NOSIG=
201203111320 METAR COR EGLL 111320Z VRB02KT 9999 FEW028 14/08 Q1037 NOSIG=
201203111250 METAR COR EGLL 111250Z VRB04KT 9999 SCT023 14/07 Q1037 NOSIG=
201203111220 METAR COR EGLL 111220Z 36004KT 310V040 9999 BKN021 13/08
                        Q1037 NOSIG=
201203111150 METAR COR EGLL 111150Z 32004KT 270V030 9999 BKN020 12/07
                        Q1037 NOSIG=
201203111120 METAR COR EGLL 111120Z 36005KT 320V030 9999 SCT019 BKN025
                        12/07 Q1037 NOSIG=
201203111050 METAR COR EGLL 111050Z 03005KT 330V080 9999 BKN018 12/07
                        Q1037 NOSIG=
201203111020 METAR EGLL 111020Z 01005KT 330V060 9999 BKN016 11/07 Q1038=
201203110950 METAR COR EGLL 110950Z 32006KT 9999 BKN015 11/07 Q1038 NOSIG=
201203110920 METAR COR EGLL 110920Z 35004KT 300V030 9999 SCT013 10/07
                        Q1038 NOSIG=
201203110850 METAR COR EGLL 110850Z 29004KT 270V330 9999 SCT013 10/07
                        Q1038 TEMPO BKN014=
201203110820 METAR COR EGLL 110820Z VRB03KT 9000 FEW049 08/07 Q1038 NOSIG=
201203110750 METAR COR EGLL 110750Z 29004KT 9000 NSC 07/06 Q1038 NOSIG=
201203110720 METAR COR EGLL 110720Z 28003KT 9000 NSC 05/04 Q1038 NOSIG=
201203110650 METAR COR EGLL 110650Z VRB03KT 9000 VCFG FEW049 06/04 Q1038
                        BECMG NSW=
201203110620 METAR COR EGLL 110620Z 28003KT 9999 VCFG FEW040 07/05 Q1037
                        BECMG NSW=
201203110550 METAR COR EGLL 110550Z 32002KT CAVOK 07/06 Q1037 NOSIG=
201203110520 METAR COR EGLL 110520Z 00000KT CAVOK 06/05 Q1037 NOSIG=
201203110450 METAR COR EGLL 110450Z 27004KT CAVOK 06/05 Q1037 NOSIG=
201203110420 METAR COR EGLL 110420Z 30002KT CAVOK 06/04 Q1037 NOSIG=
201203110350 METAR COR EGLL 110350Z 00000KT CAVOK 07/05 Q1037 NOSIG=
201203110320 METAR COR EGLL 110320Z 00000KT CAVOK 07/06 Q1037 NOSIG=
201203110250 METAR COR EGLL 110250Z 31003KT CAVOK 07/06 Q1037 NOSIG=
201203110220 METAR EGLL 110220Z AUTO 31004KT 9999 NCD 08/06 Q1038=
201203110150 METAR EGLL 110150Z AUTO 31003KT 9999 NCD 08/06 Q1038=
201203110120 METAR EGLL 110120Z AUTO 30003KT 9999 NCD 07/05 Q1038=
201203110050 METAR COR EGLL 110050Z 31004KT CAVOK 09/07 Q1038 NOSIG=
201203110020 METAR COR EGLL 110020Z 30004KT CAVOK 09/07 Q1038 NOSIG=
201203102350 METAR COR EGLL 102350Z 30004KT CAVOK 10/07 Q1038 NOSIG=
201203102320 METAR COR EGLL 102320Z 30004KT CAVOK 10/07 Q1038 NOSIG=
201203102250 METAR COR EGLL 102250Z 30004KT CAVOK 11/07 Q1038 NOSIG=
201203102220 METAR COR EGLL 102220Z 31003KT CAVOK 11/07 Q1037 NOSIG=
201203102150 METAR COR EGLL 102150Z 32004KT CAVOK 12/08 Q1037 NOSIG=
201203102120 METAR COR EGLL 102120Z 32005KT 290V010 9999 FEW049 12/08
                        Q1037 NOSIG=
201203102050 METAR COR EGLL 102050Z 32005KT 9999 FEW049 12/08 Q1037 NOSIG=
201203102020 METAR COR EGLL 102020Z 33007KT 9999 FEW034 13/08 Q1037 NOSIG=
201203101950 METAR COR EGLL 101950Z 33006KT 9999 BKN037 14/08 Q1037 NOSIG=
201203101920 METAR COR EGLL 101920Z 33005KT 9999 SCT030 BKN041 14/08 Q1037
                        NOSIG=
201203101850 METAR COR EGLL 101850Z 33007KT 300V010 9999 SCT029 BKN043
                        15/09 Q1036 NOSIG=
201203101820 METAR COR EGLL 101820Z 29005KT 9999 SCT031 BKN039 BKN044
                        14/09 Q1036 NOSIG=
201203101750 METAR COR EGLL 101750Z 28007KT 9999 BKN033 15/09 Q1036 NOSIG=
201203101720 METAR COR EGLL 101720Z 26006KT 9999 FEW030 SCT039 15/09 Q1036
                        NOSIG=
201203101650 METAR COR EGLL 101650Z 28008KT 9999 FEW029 SCT032 15/09 Q1036
                        NOSIG=
201203101620 METAR COR EGLL 101620Z 30006KT 260V330 9999 FEW026 SCT040
                        15/09 Q1036 NOSIG=
201203101550 METAR COR EGLL 101550Z 29009KT 260V320 9999 BKN027 15/09
                        Q1036 NOSIG=
201203101520 METAR COR EGLL 101520Z 27012KT 9999 FEW024 15/09 Q1036 NOSIG=
201203101450 METAR COR EGLL 101450Z 27011KT 9999 FEW023 SCT029 15/09 Q1036
                        NOSIG=
201203101420 METAR EGLL 101420Z 28009KT 9999 SCT023 BKN029 14/09 Q1037=
201203101350 METAR COR EGLL 101350Z 27007KT 220V310 9999 SCT020 BKN023
                        14/09 Q1036 NOSIG=
201203101320 METAR COR EGLL 101320Z 27008KT 9999 BKN019 14/09 Q1037 NOSIG=
201203101250 METAR COR EGLL 101250Z 26008KT 230V300 9999 BKN015 13/09
                        Q1037 NOSIG=
201203101220 METAR COR EGLL 101220Z 29005KT 260V340 9999 BKN012 12/09
                        Q1038 BECMG SCT012=
201203101150 METAR COR EGLL 101150Z 29006KT 250V320 9999 SCT010 BKN012
                        12/08 Q1038 BECMG SCT012=
201203101120 METAR COR EGLL 101120Z 27011KT 9999 SCT009 BKN011 11/08 Q1037
                        BECMG SCT012=
201203101050 METAR EGLL 101050Z 28008KT 9000 BKN008 11/08 Q1038 BECMG
                        SCT012=
201203101020 METAR COR EGLL 101020Z 28008KT 9999 BKN007 10/08 Q1038 BECMG
                        SCT012=
201203100950 METAR COR EGLL 100950Z 27010KT 9000 SCT007 BKN008 10/08 Q1038
                        BECMG SCT012=
201203100920 METAR COR EGLL 100920Z 28007KT 7000 SCT006 BKN007 10/08 Q1037
                        BECMG SCT012=
201203100850 METAR COR EGLL 100850Z 28007KT 6000 SCT005 BKN006 10/08 Q1037
                        BECMG SCT006=
201203100820 METAR COR EGLL 100820Z 27007KT 5000 HZ BKN005 09/08 Q1037
                        BECMG SCT006=
201203100750 METAR COR EGLL 100750Z 29006KT 4400 HZ BKN005 09/08 Q1036
                        BECMG 6000 NSW SCT006=
201203100720 METAR COR EGLL 100720Z 28008KT 4300 HZ FEW004 BKN005 09/08
                        Q1036 BECMG 6000 NSW SCT006=
201203100650 METAR COR EGLL 100650Z 27008KT 4300 HZ FEW004 BKN005 09/07
                        Q1036 BECMG 6000 NSW SCT006=
201203100620 METAR COR EGLL 100620Z 27009KT 4500 HZ OVC006 09/07 Q1036
                        BECMG 6000 NSW=
201203100550 METAR COR EGLL 100550Z 28008KT 6000 OVC007 09/07 Q1036 NOSIG=
201203100520 METAR COR EGLL 100520Z 28006KT 7000 BKN007 OVC008 09/07 Q1035
                        NOSIG=
201203100450 METAR COR EGLL 100450Z 26009KT 7000 BKN008 OVC010 09/07 Q1035
                        TEMPO SCT008 BKN012=
201203100420 METAR COR EGLL 100420Z 25005KT 8000 OVC009 09/07 Q1035 TEMPO
                        BKN012=
201203100350 METAR COR EGLL 100350Z 25006KT 9000 OVC009 10/07 Q1035 TEMPO
                        BKN012=
201203100320 METAR COR EGLL 100320Z 26006KT 9000 OVC010 10/07 Q1035 TEMPO
                        BKN007=
201203100250 METAR COR EGLL 100250Z 28009KT 9000 OVC010 10/07 Q1036 TEMPO
                        BKN007=
201203100220 METAR EGLL 100220Z AUTO 28009KT 9999 OVC010/// 10/07 Q1036=
201203100150 METAR EGLL 100150Z AUTO 28009KT 9999 BKN011/// 10/07 Q1036=
201203100120 METAR EGLL 100120Z AUTO 27008KT 9999 OVC011/// 10/07 Q1036=
201203100050 METAR COR EGLL 100050Z 27010KT 9999 OVC012 10/07 Q1036 TEMPO
                        BKN008=
201203100020 METAR COR EGLL 100020Z 26011KT 9999 OVC013 10/07 Q1035 TEMPO
                        SCT008 BKN016=
201203092350 METAR COR EGLL 092350Z 26011KT 9999 OVC014 10/07 Q1035 NOSIG=
201203092320 METAR COR EGLL 092320Z 26009KT 9999 BKN015 BKN021 10/07 Q1035
                        TEMPO BKN012=
201203092250 METAR COR EGLL 092250Z 27009KT 9999 OVC017 11/07 Q1035 TEMPO
                        BKN012=
201203092220 METAR COR EGLL 092220Z 26012KT 9999 BKN019 11/07 Q1035 TEMPO
                        BKN014=
201203092150 METAR COR EGLL 092150Z 26010KT 9999 BKN020 11/07 Q1035 TEMPO
                        BKN014=
201203092120 METAR COR EGLL 092120Z 26009KT 9999 OVC020 11/07 Q1035 TEMPO
                        BKN014=
201203092050 METAR COR EGLL 092050Z 25010KT 9999 BKN025 11/07 Q1035 NOSIG=
201203092020 METAR COR EGLL 092020Z 25009KT 9999 BKN028 11/07 Q1035 NOSIG=
201203091950 METAR COR EGLL 091950Z 24010KT 9999 BKN029 11/07 Q1035 NOSIG=
201203091920 METAR COR EGLL 091920Z 25011KT 9999 BKN023 11/07 Q1035 NOSIG=
201203091850 METAR COR EGLL 091850Z 24008KT 9999 BKN021 11/07 Q1034 TEMPO
                        BKN014=
201203091820 METAR COR EGLL 091820Z 25010KT 9999 OVC021 11/07 Q1034 TEMPO
                        BKN014=
201203091750 METAR COR EGLL 091750Z 25009KT 9999 BKN020 11/07 Q1034 TEMPO
                        BKN014=
201203091720 METAR COR EGLL 091720Z 25010KT 9999 BKN022 11/07 Q1034 TEMPO
                        BKN014=
201203091650 METAR COR EGLL 091650Z 25010KT 9999 BKN023 11/07 Q1034 TEMPO
                        BKN014=
201203091620 METAR COR EGLL 091620Z 25010KT 9999 BKN020 11/07 Q1034 TEMPO
                        BKN014=
201203091550 METAR COR EGLL 091550Z 25010KT 9999 OVC020 11/06 Q1034 TEMPO
                        BKN014=
201203091520 METAR COR EGLL 091520Z 25011KT 9999 BKN020 11/06 Q1034 TEMPO
                        BKN014=
201203091450 METAR COR EGLL 091450Z 26011KT 9999 BKN020 11/06 Q1034 TEMPO
                        BKN014=
201203091420 METAR EGLL 091420Z 26012KT 9999 BKN020 11/06 Q1034 NOSIG=
201203091350 METAR COR EGLL 091350Z 26014KT 9999 BKN022 11/06 Q1034 NOSIG=
201203091320 METAR COR EGLL 091320Z 25012KT 9999 BKN023 11/06 Q1034 NOSIG=
201203091250 METAR COR EGLL 091250Z 25014KT 9999 BKN024 11/05 Q1034 NOSIG=
201203091220 METAR COR EGLL 091220Z 26014KT 9999 BKN025 11/05 Q1034 NOSIG=
201203091150 METAR COR EGLL 091150Z 24013KT 9999 BKN025 11/05 Q1034 NOSIG=
201203091120 METAR COR EGLL 091120Z 24013KT 9999 FEW024 BKN037 11/05 Q1034
                        NOSIG=
201203091050 METAR COR EGLL 091050Z 24012KT 9999 FEW029 BKN034 10/05 Q1035
                        NOSIG=
201203091020 METAR COR EGLL 091020Z 24012KT 9999 BKN034 10/04 Q1035 NOSIG=
201203090950 METAR COR EGLL 090950Z 23011KT 9999 BKN034 10/04 Q1035 NOSIG=
201203090920 METAR COR EGLL 090920Z 24012KT 9999 BKN034 09/04 Q1035 NOSIG=
201203090850 METAR COR EGLL 090850Z 24013KT 9999 BKN034 09/04 Q1035 NOSIG=
201203090820 METAR COR EGLL 090820Z 23012KT 9999 BKN035 09/04 Q1034 NOSIG=
201203090750 METAR COR EGLL 090750Z 23009KT 9999 BKN032 08/04 Q1034 NOSIG=
201203090720 METAR COR EGLL 090720Z 22009KT 9999 BKN031 08/04 Q1034 NOSIG=
201203090650 METAR COR EGLL 090650Z 22008KT 190V260 9999 BKN032 08/04
                        Q1034 NOSIG=
201203090620 METAR COR EGLL 090620Z 23010KT 9999 BKN033 08/04 Q1034 NOSIG=
201203090550 METAR COR EGLL 090550Z 23009KT 9999 OVC031 08/04 Q1034 NOSIG=
201203090520 METAR COR EGLL 090520Z 24009KT 9999 OVC030 08/04 Q1034 NOSIG=
201203090450 METAR COR EGLL 090450Z 23007KT 9999 OVC031 07/04 Q1034 NOSIG=
201203090420 METAR COR EGLL 090420Z 22005KT 9999 BKN032 06/03 Q1034 NOSIG=
201203090350 METAR COR EGLL 090350Z 21006KT 9999 BKN032 06/03 Q1034 NOSIG=
201203090320 METAR COR EGLL 090320Z 21005KT 9999 BKN033 06/03 Q1035 NOSIG=
201203090250 METAR COR EGLL 090250Z 21005KT 9999 BKN033 06/03 Q1035 NOSIG=
201203090220 METAR EGLL 090220Z AUTO 23007KT 9999 NCD 06/03 Q1035=
201203090150 METAR EGLL 090150Z AUTO 21004KT 9999 NCD 06/03 Q1035=
201203090120 METAR EGLL 090120Z AUTO 22006KT 9999 NCD 06/03 Q1035=
201203090050 METAR COR EGLL 090050Z 21004KT CAVOK 06/03 Q1035 NOSIG=
201203090020 METAR COR EGLL 090020Z 21005KT CAVOK 07/03 Q1035 NOSIG=
201203082350 METAR COR EGLL 082350Z 20004KT CAVOK 07/03 Q1035 NOSIG=
201203082320 METAR COR EGLL 082320Z 21005KT CAVOK 07/03 Q1035 NOSIG=
201203082250 METAR COR EGLL 082250Z 23005KT CAVOK 07/03 Q1035 NOSIG=
201203082220 METAR COR EGLL 082220Z 24008KT CAVOK 08/03 Q1035 NOSIG=
201203082150 METAR COR EGLL 082150Z 24008KT CAVOK 08/03 Q1035 NOSIG=
201203082120 METAR COR EGLL 082120Z 25008KT CAVOK 09/03 Q1035 NOSIG=
201203082050 METAR COR EGLL 082050Z 28006KT CAVOK 09/03 Q1034 NOSIG=
201203082020 METAR COR EGLL 082020Z 27006KT CAVOK 09/03 Q1034 NOSIG=
201203081950 METAR COR EGLL 081950Z 27007KT CAVOK 09/02 Q1034 NOSIG=
201203081920 METAR COR EGLL 081920Z 28007KT 9999 FEW047 10/03 Q1034 NOSIG=
201203081850 METAR COR EGLL 081850Z 27006KT CAVOK 10/02 Q1034 NOSIG=
201203081820 METAR COR EGLL 081820Z 28006KT CAVOK 10/02 Q1033 NOSIG=
201203081750 METAR EGLL 081750Z 27006KT 230V290 9999 FEW049 10/02 Q1033=
201203081720 METAR COR EGLL 081720Z 27006KT 9999 FEW049 10/02 Q1033 NOSIG=
201203081650 METAR COR EGLL 081650Z 27007KT 9999 FEW049 10/02 Q1033 NOSIG=
201203081620 METAR COR EGLL 081620Z 26008KT 9999 FEW048 11/01 Q1033 NOSIG=
201203081550 METAR COR EGLL 081550Z 28008KT 9999 FEW048 11/01 Q1033 NOSIG=
201203081520 METAR COR EGLL 081520Z 28008KT 250V330 9999 FEW048 11/02
                        Q1032 NOSIG=
201203081450 METAR COR EGLL 081450Z 29008KT 9999 FEW048 11/01 Q1032 NOSIG=
201203081420 METAR COR EGLL 081420Z 27012KT 9999 SCT048 11/01 Q1032 NOSIG=
201203081350 METAR COR EGLL 081350Z 27010KT 9999 BKN049 11/01 Q1032 NOSIG=
201203081320 METAR COR EGLL 081320Z 29005KT 260V340 9999 SCT044 11/01
                        Q1032 NOSIG=
201203081250 METAR COR EGLL 081250Z 30009KT 270V350 9999 SCT039 SCT045
                        11/01 Q1032 NOSIG=
201203081220 METAR COR EGLL 081220Z 30010KT 9999 SCT033 11/01 Q1032 NOSIG=
201203081150 METAR COR EGLL 081150Z 28010KT 9999 SCT032 11/03 Q1032 NOSIG=
201203081120 METAR COR EGLL 081120Z 28011KT 9999 FEW031 10/03 Q1032 NOSIG=
201203081050 METAR COR EGLL 081050Z 29011KT 9999 FEW024 09/03 Q1032 NOSIG=
201203081020 METAR COR EGLL 081020Z 29010KT 9999 FEW046 08/02 Q1031 NOSIG=
201203080950 METAR COR EGLL 080950Z 29009KT 9999 FEW046 07/02 Q1031 NOSIG=
201203080920 METAR COR EGLL 080920Z 30008KT 250V320 9999 SCT048 06/02
                        Q1031 NOSIG=
201203080850 METAR COR EGLL 080850Z 27010KT CAVOK 05/01 Q1031 NOSIG=
201203080820 METAR COR EGLL 080820Z 28007KT CAVOK 04/01 Q1031 NOSIG=
201203080750 METAR COR EGLL 080750Z 28008KT CAVOK 03/01 Q1030 NOSIG=
201203080720 METAR COR EGLL 080720Z 27010KT CAVOK 03/00 Q1029 NOSIG=
201203080650 METAR COR EGLL 080650Z 28008KT CAVOK 02/M00 Q1029 NOSIG=
201203080620 METAR COR EGLL 080620Z 27007KT CAVOK 02/M00 Q1029 NOSIG=
201203080550 METAR COR EGLL 080550Z 28008KT CAVOK 02/M01 Q1029 NOSIG=
201203080520 METAR COR EGLL 080520Z 28008KT CAVOK 02/M01 Q1028 NOSIG=
201203080450 METAR COR EGLL 080450Z 28008KT CAVOK 01/M01 Q1027 NOSIG=
201203080420 METAR EGLL 080420Z AUTO 28007KT 9999 NCD 02/M01 Q1027=
201203080350 METAR COR EGLL 080350Z 29011KT CAVOK 03/M00 Q1026 NOSIG=
201203080320 METAR COR EGLL 080320Z 30009KT CAVOK 04/M00 Q1026 NOSIG=
201203080250 METAR EGLL 080250Z AUTO 31005KT 280V360 9999 NCD 04/M00 Q1025=
201203080220 METAR EGLL 080220Z AUTO 28011KT 9999 NCD 04/M00 Q1025=
201203080150 METAR EGLL 080150Z AUTO 28005KT 9999 NCD 03/M00 Q1025=
201203080120 METAR COR EGLL 080120Z 29006KT CAVOK 03/M00 Q1024 NOSIG=
201203080050 METAR COR EGLL 080050Z 29009KT CAVOK 03/M00 Q1024 NOSIG=
201203080020 METAR COR EGLL 080020Z 29009KT CAVOK 03/M00 Q1024 NOSIG=
201203072350 METAR COR EGLL 072350Z 28009KT CAVOK 04/M00 Q1023 NOSIG=
201203072320 METAR COR EGLL 072320Z 28009KT CAVOK 04/M00 Q1023 NOSIG=
201203072250 METAR COR EGLL 072250Z 28010KT CAVOK 05/M01 Q1023 NOSIG=
201203072220 METAR COR EGLL 072220Z 28010KT CAVOK 05/M01 Q1022 NOSIG=
201203072150 METAR COR EGLL 072150Z 29006KT CAVOK 05/M01 Q1022 NOSIG=
201203072120 METAR EGLL 072120Z 29007KT CAVOK 06/M00 Q1021=
201203072050 METAR EGLL 072050Z 31004KT 280V360 CAVOK 06/M00 Q1021=
201203072020 METAR EGLL 072020Z 31004KT CAVOK 06/M01 Q1020=
201203071950 METAR COR EGLL 071950Z 31004KT CAVOK 07/M01 Q1020 NOSIG=
201203071920 METAR COR EGLL 071920Z 30008KT CAVOK 08/M01 Q1019 NOSIG=
201203071850 METAR EGLL 071850Z 30010KT CAVOK 08/M01 Q1018=
201203071820 METAR COR EGLL 071820Z 30009KT 290V350 9999 FEW048 08/M02
                        Q1017 NOSIG=
201203071750 METAR EGLL 071750Z 31014KT 9999 VCSH FEW015 09/M03 Q1016=
201203071720 METAR EGLL 071720Z 30008KT 9999 VCSH FEW020 09/00 Q1016=
201203071650 METAR COR EGLL 071650Z 31014KT 9999 FEW049 09/M00 Q1015 NOSIG=
201203071620 METAR COR EGLL 071620Z 31014KT 9999 FEW035 10/01 Q1014 TEMPO
                        31017G28KT=
201203071550 METAR COR EGLL 071550Z 30012KT 9999 VCSH FEW027 BKN034 10/03
                        Q1014 TEMPO 31015G25KT=
201203071520 METAR COR EGLL 071520Z 30013KT 9999 SCT032 11/04 Q1013 TEMPO
                        31018G28KT=
201203071450 METAR COR EGLL 071450Z 30012KT 9999 FEW049 10/05 Q1013 TEMPO
                        31015G25KT=
201203071420 METAR COR EGLL 071420Z 31012KT 9999 SCT030 SCT048 09/05 Q1013
                        TEMPO 31018G28KT=
201203071350 METAR COR EGLL 071350Z 30017G29KT 5000 RADZ BKN018 10/07
                        Q1012 BECMG 9999 NSW=
201203071320 METAR COR EGLL 071320Z 29016KT 9000 -RADZ FEW017 BKN021 10/08
                        Q1011 RERA TEMPO 31020G30KT RA BKN014=
201203071250 METAR COR EGLL 071250Z 25016KT 9999 VCSH FEW015 BKN020 12/09
                        Q1011 TEMPO 27020G30KT 4000 RA BKN012=
201203071220 METAR COR EGLL 071220Z 23013KT 9999 FEW008 SCT034 11/09 Q1011
                        TEMPO 27018G28KT 4000 RA BKN012=
201203071150 METAR COR EGLL 071150Z 23011KT 9999 -RA FEW010 SCT022 09/08
                        Q1012 REDZ TEMPO 27018G30KT 4000
                        RA BKN012=
201203071120 METAR COR EGLL 071120Z 22011KT 5000 -RADZ SCT006 BKN010 09/08
                        Q1012 REDZ TEMPO 2500 RADZ BKN006=
201203071050 METAR COR EGLL 071050Z 21013KT 180V250 3000 DZ SCT005 BKN010
                        09/07 Q1012 TEMPO 22018G28KT 6000
                        -RA=
201203071020 METAR COR EGLL 071020Z 22014G24KT 4500 -DZ BKN005 08/07 Q1013
                        RERA REDZ TEMPO 6000 SCT006 BKN012=
201203070950 METAR COR EGLL 070950Z 22013KT 4500 RADZ BKN006 08/06 Q1014
                        TEMPO 22018G28KT 6000 -RA SCT006
                        BKN012=
201203070920 METAR COR EGLL 070920Z 21013KT 6000 -RADZ BKN009 08/06 Q1014
                        TEMPO 2500 RADZ=
201203070850 METAR COR EGLL 070850Z 21013KT 9999 BKN010 08/05 Q1015 TEMPO
                        22018G28KT BKN007=
201203070820 METAR COR EGLL 070820Z 21014G27KT 9999 -DZ BKN013 08/05 Q1015
                        TEMPO RA=
201203070750 METAR COR EGLL 070750Z 21014KT 9999 BKN014 08/04 Q1015 TEMPO
                        22017G28KT=
201203070720 METAR COR EGLL 070720Z 21014G25KT 180V240 9999 BKN017 SCT024
                        08/04 Q1016 TEMPO BKN014=
201203070650 METAR COR EGLL 070650Z 22014KT 9999 SCT021 BKN039 07/04 Q1017
                        TEMPO BKN014=
201203070620 METAR COR EGLL 070620Z 22012KT 9999 SCT025 BKN040 07/04 Q1017
                        TEMPO BKN014=
201203070550 METAR COR EGLL 070550Z 21013KT 9999 SCT020 BKN040 BKN045
                        07/04 Q1018 TEMPO BKN014=
201203070520 METAR COR EGLL 070520Z 22011KT 9999 BKN018 07/04 Q1019 TEMPO
                        BKN014=
201203070450 METAR COR EGLL 070450Z 21011KT 9999 BKN017 07/04 Q1019 NOSIG=
201203070420 METAR EGLL 070420Z 21011KT 9999 -RA BKN017 07/04 Q1020=
201203070350 METAR COR EGLL 070350Z 21010KT 9999 -RA BKN016 07/04 Q1020
                        NOSIG=
201203070320 METAR EGLL 070320Z AUTO 22009KT 9999 -RA SCT016/// SCT021///
                        07/04 Q1021=
201203070250 METAR EGLL 070250Z AUTO 21009KT 9999 -RA FEW019/// 06/03
                        Q1021=
201203070220 METAR EGLL 070220Z AUTO 20009KT 9999 NCD 06/03 Q1021=
201203070150 METAR COR EGLL 070150Z 20009KT CAVOK 06/03 Q1022 NOSIG=
201203070120 METAR COR EGLL 070120Z 20008KT CAVOK 06/02 Q1023 NOSIG=
201203070050 METAR COR EGLL 070050Z 21008KT CAVOK 05/03 Q1023 NOSIG=
201203070020 METAR COR EGLL 070020Z 20008KT CAVOK 05/02 Q1023 NOSIG=
201203062350 METAR COR EGLL 062350Z 20007KT CAVOK 05/02 Q1024 NOSIG=
201203062320 METAR COR EGLL 062320Z 21007KT CAVOK 05/02 Q1024 NOSIG=
201203062250 METAR COR EGLL 062250Z 20008KT CAVOK 05/01 Q1024 NOSIG=
201203062220 METAR COR EGLL 062220Z 21008KT CAVOK 05/01 Q1025 NOSIG=
201203062150 METAR COR EGLL 062150Z 20007KT CAVOK 05/01 Q1025 NOSIG=
201203062120 METAR EGLL 062120Z 20009KT CAVOK 05/01 Q1025=
201203062050 METAR COR EGLL 062050Z 19009KT CAVOK 05/01 Q1025 NOSIG=
201203062020 METAR COR EGLL 062020Z 19008KT 150V220 CAVOK 05/01 Q1025
                        NOSIG=
201203061950 METAR COR EGLL 061950Z 19007KT 150V240 CAVOK 04/01 Q1025
                        NOSIG=
201203061920 METAR COR EGLL 061920Z 20007KT 170V270 CAVOK 05/01 Q1025
                        NOSIG=
201203061850 METAR COR EGLL 061850Z 18006KT 130V210 CAVOK 05/01 Q1025
                        NOSIG=
201203061820 METAR COR EGLL 061820Z 16006KT 130V200 CAVOK 06/01 Q1026
                        NOSIG=
201203061750 METAR COR EGLL 061750Z 16005KT 110V200 9999 FEW037 06/02
                        Q1026 NOSIG=
201203061720 METAR COR EGLL 061720Z 16007KT 110V180 9999 FEW037 07/02
                        Q1025 NOSIG=
201203061650 METAR COR EGLL 061650Z 15006KT 030V200 9999 FEW037 07/02
                        Q1025 NOSIG=
201203061620 METAR COR EGLL 061620Z 15006KT 080V220 9999 FEW029 SCT037
                        08/01 Q1025 NOSIG=
201203061550 METAR COR EGLL 061550Z 14006KT 110V170 9999 SCT029 SCT039
                        08/02 Q1026 NOSIG=
201203061520 METAR COR EGLL 061520Z 17004KT 100V220 9999 SCT030 BKN038
                        08/02 Q1026 NOSIG=
201203061450 METAR COR EGLL 061450Z 08004KT 040V120 9999 FEW030 BKN038
                        08/02 Q1026 NOSIG=
201203061420 METAR COR EGLL 061420Z 08004KT 020V180 9999 FEW029 BKN033
                        08/02 Q1026 NOSIG=
201203061350 METAR COR EGLL 061350Z VRB03KT 9999 BKN032 07/02 Q1026 NOSIG=
201203061320 METAR COR EGLL 061320Z 36004KT 9999 BKN031 07/02 Q1026 NOSIG=
201203061250 METAR COR EGLL 061250Z 36006KT 330V030 9999 BKN031 07/02
                        Q1026 NOSIG=
201203061220 METAR COR EGLL 061220Z 35005KT 320V030 9999 BKN027 06/01
                        Q1026 NOSIG=
201203061150 METAR COR EGLL 061150Z 36007KT 9999 FEW029 BKN034 06/01 Q1026
                        NOSIG=
201203061120 METAR COR EGLL 061120Z 36006KT 9999 FEW020 BKN025 05/01 Q1027
                        NOSIG=
201203061050 METAR COR EGLL 061050Z 35005KT 320V020 9999 FEW020 BKN027
                        05/01 Q1027 NOSIG=
201203061020 METAR COR EGLL 061020Z 33006KT 300V020 9999 SCT020 SCT026
                        BKN030 04/00 Q1027 NOSIG=
201203060950 METAR COR EGLL 060950Z 34005KT 310V020 9999 FEW016 SCT028
                        BKN034 04/00 Q1026 NOSIG=
201203060920 METAR COR EGLL 060920Z 31005KT 280V350 9999 FEW017 BKN024
                        04/00 Q1026 NOSIG=
201203060850 METAR EGLL 060850Z 31007KT 9999 SCT017 BKN032 04/00 Q1026
                        NOSIG=
201203060820 METAR COR EGLL 060820Z 35004KT 300V030 9999 SCT016 SCT034
                        03/00 Q1026 NOSIG=
201203060750 METAR COR EGLL 060750Z 33006KT 9999 VCSH FEW016 SCT025 BKN037
                        03/M00 Q1025 NOSIG=
201203060720 METAR COR EGLL 060720Z 34004KT 290V040 9999 FEW016 BKN040
                        03/M01 Q1025 NOSIG=
201203060650 METAR COR EGLL 060650Z 32006KT 9999 SCT040 02/M01 Q1025 NOSIG=
201203060620 METAR COR EGLL 060620Z 32005KT 290V360 9999 FEW040 02/M01
                        Q1024 NOSIG=
201203060550 METAR COR EGLL 060550Z 33006KT 300V010 9999 FEW038 02/M01
                        Q1024 NOSIG=
201203060520 METAR EGLL 060520Z 35006KT 310V010 9999 SCT038 03/M01 Q1024=
201203060450 METAR COR EGLL 060450Z 32008KT 300V360 CAVOK 02/M01 Q1024
                        NOSIG=
201203060420 METAR COR EGLL 060420Z 34006KT 310V020 CAVOK 02/M01 Q1024
                        NOSIG=
201203060350 METAR COR EGLL 060350Z 33007KT CAVOK 02/M01 Q1024 NOSIG=
201203060320 METAR EGLL 060320Z 33007KT 300V360 CAVOK 03/M01 Q1024 NOSIG=
201203060250 METAR COR EGLL 060250Z 33006KT 310V010 CAVOK 03/M01 Q1024
                        NOSIG=
201203060220 METAR EGLL 060220Z AUTO 34007KT 9999 NCD 03/M01 Q1024=
201203060150 METAR EGLL 060150Z AUTO 33008KT 9999 NCD 03/M01 Q1024=
201203060120 METAR EGLL 060120Z AUTO 33006KT 9999 NCD 03/M01 Q1024=
201203060050 METAR COR EGLL 060050Z 33007KT 310V010 CAVOK 03/M01 Q1024
                        NOSIG=
201203060020 METAR COR EGLL 060020Z 33008KT 300V010 CAVOK 04/M01 Q1024
                        NOSIG=
201203052350 METAR COR EGLL 052350Z 33007KT 300V010 CAVOK 04/M01 Q1024
                        NOSIG=
201203052320 METAR COR EGLL 052320Z 32009KT 290V350 CAVOK 04/M01 Q1024
                        NOSIG=
201203052250 METAR COR EGLL 052250Z 32009KT CAVOK 05/M01 Q1024 NOSIG=
201203052220 METAR COR EGLL 052220Z 33010KT CAVOK 05/M02 Q1024 NOSIG=
201203052150 METAR COR EGLL 052150Z 35009KT 310V020 CAVOK 06/M02 Q1024
                        NOSIG=
201203052120 METAR COR EGLL 052120Z 34008KT 310V020 CAVOK 06/M02 Q1024
                        NOSIG=
201203052050 METAR COR EGLL 052050Z 35009KT 320V030 CAVOK 06/M02 Q1023
                        NOSIG=
201203052020 METAR COR EGLL 052020Z 34010KT 310V020 CAVOK 07/M01 Q1023
                        NOSIG=
201203051950 METAR COR EGLL 051950Z 34008G20KT 310V020 CAVOK 07/M02 Q1023
                        NOSIG=
201203051920 METAR COR EGLL 051920Z 34009G19KT 310V010 CAVOK 08/M02 Q1023
                        NOSIG=
201203051850 METAR COR EGLL 051850Z 34010KT 310V020 CAVOK 08/M02 Q1023
                        NOSIG=
201203051820 METAR COR EGLL 051820Z 34011KT 310V010 CAVOK 08/M03 Q1022
                        NOSIG=
201203051750 METAR COR EGLL 051750Z 34012G22KT 310V010 9999 FEW049 09/M03
                        Q1022 NOSIG=
201203051720 METAR COR EGLL 051720Z 34012G22KT 310V010 9999 FEW049 09/M03
                        Q1022 NOSIG=
201203051650 METAR COR EGLL 051650Z 33014KT 290V010 9999 FEW049 09/M03
                        Q1022 NOSIG=
201203051620 METAR COR EGLL 051620Z 34014G26KT 310V020 9999 FEW048 10/M03
                        Q1021 NOSIG=
201203051550 METAR COR EGLL 051550Z 33014G25KT 300V010 9999 FEW048 10/M02
                        Q1021 NOSIG=
201203051520 METAR COR EGLL 051520Z 33017G31KT 9999 FEW048 10/M02 Q1021
                        NOSIG=
201203051450 METAR COR EGLL 051450Z 32014KT 9999 FEW045 10/M02 Q1021 NOSIG=
201203051420 METAR COR EGLL 051420Z 33014KT 300V020 9999 FEW045 10/M01
                        Q1021 NOSIG=
201203051350 METAR COR EGLL 051350Z 33014G26KT 9999 SCT046 09/M02 Q1021
                        NOSIG=
201203051320 METAR COR EGLL 051320Z 33014G24KT 290V360 9999 SCT040 09/M01
                        Q1021 NOSIG=
201203051250 METAR COR EGLL 051250Z 33013G24KT 9999 SCT039 09/M01 Q1021
                        NOSIG=
201203051220 METAR COR EGLL 051220Z 32014G24KT 9999 SCT038 09/M01 Q1021
                        NOSIG=
201203051150 METAR COR EGLL 051150Z 32014KT 9999 FEW035 SCT039 09/M01
                        Q1021 TEMPO 32017G27KT=
201203051120 METAR COR EGLL 051120Z 33015G27KT 300V360 9999 FEW030 SCT037
                        08/00 Q1021 NOSIG=
201203051050 METAR COR EGLL 051050Z 32016G26KT 300V360 9999 SCT030 08/01
                        Q1021 NOSIG=
201203051020 METAR COR EGLL 051020Z 31015KT 9999 SCT027 07/00 Q1021 TEMPO
                        32018G28KT=
201203050950 METAR COR EGLL 050950Z 31014KT 9999 BKN027 06/01 Q1021 TEMPO
                        33018G28KT=
201203050920 METAR COR EGLL 050920Z 32015KT 9999 BKN026 06/01 Q1021 TEMPO
                        33018G28KT=
201203050850 METAR COR EGLL 050850Z 31014KT 9999 SCT021 05/01 Q1022 NOSIG=
201203050820 METAR COR EGLL 050820Z 31012KT 9999 SCT022 05/01 Q1022 NOSIG=
201203050750 METAR COR EGLL 050750Z 31013KT 9999 SCT022 05/01 Q1022 NOSIG=
201203050720 METAR COR EGLL 050720Z 31012KT 9999 SCT023 04/00 Q1021 NOSIG=
201203050650 METAR COR EGLL 050650Z 30013KT 9999 SCT023 SCT044 04/00 Q1021
                        NOSIG=
201203050620 METAR COR EGLL 050620Z 30013KT 9999 FEW022 04/M00 Q1021 NOSIG=
201203050550 METAR COR EGLL 050550Z 29012KT 9999 SCT021 SCT047 04/M00
                        Q1021 NOSIG=
201203050520 METAR COR EGLL 050520Z 30012KT 9999 FEW025 04/M00 Q1021 NOSIG=
201203050450 METAR COR EGLL 050450Z 30013KT 9999 FEW023 04/M01 Q1021 NOSIG=
201203050420 METAR COR EGLL 050420Z 29013KT 9999 FEW024 03/M01 Q1020 NOSIG=
201203050350 METAR COR EGLL 050350Z 29013KT 9999 FEW025 03/M01 Q1020 NOSIG=
201203050320 METAR COR EGLL 050320Z 29014KT 9999 FEW025 03/M01 Q1020 NOSIG=
201203050250 METAR COR EGLL 050250Z 30014KT 9999 FEW028 04/M01 Q1020 NOSIG=
201203050220 METAR EGLL 050220Z AUTO 30013KT 9999 NCD 04/M00 Q1020=
201203050150 METAR EGLL 050150Z AUTO 29013KT 9999 NCD 04/M00 Q1020=
201203050120 METAR EGLL 050120Z AUTO 30013KT 9999 NCD 04/M00 Q1020=
201203050050 METAR COR EGLL 050050Z 30014KT 270V330 CAVOK 04/M00 Q1020
                        NOSIG=
201203050020 METAR COR EGLL 050020Z 30013KT CAVOK 04/M01 Q1020 NOSIG=
201203042350 METAR COR EGLL 042350Z 31013KT CAVOK 04/M01 Q1020 NOSIG=
201203042320 METAR COR EGLL 042320Z 30014KT CAVOK 04/M01 Q1019 NOSIG=
201203042250 METAR COR EGLL 042250Z 30015KT CAVOK 04/M01 Q1019 NOSIG=
201203042220 METAR COR EGLL 042220Z 30013G24KT CAVOK 05/M00 Q1019 NOSIG=
201203042150 METAR COR EGLL 042150Z 30013KT 9999 FEW045 04/M00 Q1018 NOSIG=
201203042120 METAR COR EGLL 042120Z 30013KT 9999 SCT047 05/M00 Q1018 NOSIG=
201203042050 METAR EGLL 042050Z 30011KT 280V340 9999 SCT048 05/00 Q1018=
201203042020 METAR COR EGLL 042020Z 31011KT 280V360 9999 FEW027 SCT038
                        05/01 Q1018 NOSIG=
201203041950 METAR COR EGLL 041950Z 31014KT 9999 FEW031 SCT037 05/01 Q1017
                        NOSIG=
201203041920 METAR COR EGLL 041920Z 31013KT 9999 SCT038 05/01 Q1017 NOSIG=
201203041850 METAR COR EGLL 041850Z 31007KT 9999 FEW027 SCT037 05/02 Q1017
                        NOSIG=
201203041820 METAR COR EGLL 041820Z 32013G23KT 280V340 9999 SCT038 05/02
                        Q1016 NOSIG=
201203041750 METAR COR EGLL 041750Z 32011KT 9999 -RA FEW023 SCT033 05/02
                        Q1016 TEMPO BKN014=
201203041720 METAR COR EGLL 041720Z 32008KT 9999 FEW020 SCT035 05/02 Q1015
                        TEMPO BKN014=
201203041650 METAR COR EGLL 041650Z 31009KT 280V340 9999 -RA SCT015 SCT020
                        04/02 Q1015 TEMPO BKN013=
201203041620 METAR COR EGLL 041620Z 32010KT 9999 -RA SCT016 BKN019 04/02
                        Q1015 TEMPO BKN012=
201203041550 METAR COR EGLL 041550Z 31010KT 290V350 9999 -RA FEW013 BKN016
                        04/02 Q1014 TEMPO BKN010=
201203041520 METAR COR EGLL 041520Z 31011KT 9999 -RA FEW011 BKN014 03/02
                        Q1014 TEMPO BKN009=
201203041450 METAR COR EGLL 041450Z 31012KT 9999 -RA FEW010 BKN012 04/02
                        Q1014 TEMPO 6000 -RASN BKN007=
201203041420 METAR COR EGLL 041420Z 30011KT 9999 -RA SCT010 BKN013 04/02
                        Q1013 TEMPO 4500 RASN BKN005=
201203041350 METAR COR EGLL 041350Z 32012KT 9999 -RA FEW010 BKN013 04/02
                        Q1013 TEMPO 4000 RASN BKN005=
201203041320 METAR COR EGLL 041320Z 31014KT 9999 -RA SCT010 BKN030 06/03
                        Q1012 RERA RESHGS TEMPO 4000 RASN
                        BKN005=
201203041250 METAR COR EGLL 041250Z 29012KT 9000 4000E RAGS SCT011 BKN017
                        07/05 Q1012 TEMPO BKN007=
201203041220 METAR COR EGLL 041220Z 21009KT 9000 RA SCT007 SCT012 09/07
                        Q1012 TEMPO 4000 +RA BKN005=
201203041150 METAR COR EGLL 041150Z 19012KT 9999 RA SCT010 SCT034 09/07
                        Q1012 TEMPO 3500 +RA BKN005=
201203041120 METAR COR EGLL 041120Z 19011KT 130V220 9999 RA BKN010 09/07
                        Q1013 TEMPO 4000 +RA BKN006=
201203041050 METAR COR EGLL 041050Z 18012KT 9999 -RA SCT008 BKN011 09/07
                        Q1013 TEMPO 4500 RA BKN007=
201203041020 METAR COR EGLL 041020Z 17011KT 150V210 9999 -RA SCT008 BKN011
                        09/07 Q1014 RERA TEMPO RA BKN008=
201203040950 METAR COR EGLL 040950Z 18010KT 150V230 9999 RA SCT012 09/07
                        Q1014 TEMPO BKN008=
201203040920 METAR COR EGLL 040920Z 18011KT 9999 -RA BKN011 09/07 Q1014
                        TEMPO RA BKN007=
201203040850 METAR COR EGLL 040850Z 16009KT 130V190 9999 -RA FEW007 SCT009
                        BKN012 08/07 Q1015 TEMPO RA BKN008=
201203040820 METAR COR EGLL 040820Z 13009KT 8000 -RA FEW006 BKN008 08/07
                        Q1015 RERA TEMPO SCT008 BKN012=
201203040750 METAR COR EGLL 040750Z 13008KT 6000 -RA FEW007 SCT009 BKN013
                        08/07 Q1015 TEMPO 4000 RA BKN008=
201203040720 METAR COR EGLL 040720Z 14007KT 100V160 8000 -RA FEW009 BKN015
                        08/06 Q1016 TEMPO 4000 RA BKN008=
201203040650 METAR COR EGLL 040650Z 14007KT 7000 -RA BKN012 07/06 Q1016
                        TEMPO +RA BKN008=
201203040620 METAR COR EGLL 040620Z 13007KT 090V170 6000 -RA FEW017 SCT024
                        BKN030 07/06 Q1017 BECMG BKN012=
201203040550 METAR COR EGLL 040550Z 14005KT 7000 -RA FEW031 BKN035 07/06
                        Q1017 BECMG BKN012=
201203040520 METAR COR EGLL 040520Z 16005KT 7000 -RA BKN033 SCT044 07/06
                        Q1018 BECMG BKN012=
201203040450 METAR COR EGLL 040450Z 17006KT 7000 -RA FEW003 BKN006 08/06
                        Q1018 TEMPO BKN012=
201203040420 METAR COR EGLL 040420Z 16005KT 8000 BKN009 07/06 Q1018 BECMG
                        -RA BKN012=
201203040350 METAR COR EGLL 040350Z 16005KT 130V200 8000 SCT007 07/05
                        Q1019 TEMPO BKN006=
201203040320 METAR COR EGLL 040320Z 15004KT 8000 FEW020 07/05 Q1019 TEMPO
                        BKN006=
201203040250 METAR EGLL 040250Z AUTO 16004KT 8000 NCD 07/06 Q1019=
201203040220 METAR EGLL 040220Z AUTO 19004KT 8000 NCD 07/05 Q1020=
201203040150 METAR EGLL 040150Z AUTO 18005KT 8000 NCD 07/05 Q1020=
201203040120 METAR EGLL 040120Z AUTO 21006KT 8000 NCD 07/05 Q1021=
201203040050 METAR COR EGLL 040050Z 19004KT 9000 NSC 06/05 Q1021 NOSIG=
201203040020 METAR COR EGLL 040020Z 17004KT 9000 NSC 06/05 Q1021 NOSIG=
201203032350 METAR COR EGLL 032350Z 20005KT CAVOK 07/05 Q1021 NOSIG=
201203032320 METAR COR EGLL 032320Z 21005KT CAVOK 07/05 Q1021 NOSIG=
201203032250 METAR COR EGLL 032250Z 21006KT CAVOK 07/05 Q1021 NOSIG=
201203032220 METAR COR EGLL 032220Z 22008G18KT 180V260 CAVOK 07/05 Q1021
                        NOSIG=
201203032150 METAR COR EGLL 032150Z 22008KT CAVOK 07/05 Q1021 NOSIG=
201203032120 METAR COR EGLL 032120Z 22008KT 180V260 CAVOK 07/05 Q1021
                        NOSIG=
201203032050 METAR COR EGLL 032050Z 21007KT 180V250 CAVOK 08/05 Q1021
                        NOSIG=
201203032020 METAR COR EGLL 032020Z 21008KT CAVOK 08/05 Q1020 NOSIG=
201203031950 METAR COR EGLL 031950Z 22009KT CAVOK 09/05 Q1020 NOSIG=
201203031920 METAR COR EGLL 031920Z 22011KT CAVOK 09/05 Q1020 NOSIG=
201203031850 METAR COR EGLL 031850Z 21008KT CAVOK 10/05 Q1020 NOSIG=
201203031820 METAR COR EGLL 031820Z 22009KT 180V250 CAVOK 10/05 Q1020
                        NOSIG=
201203031750 METAR COR EGLL 031750Z 22009KT 180V250 9999 FEW041 11/05
                        Q1019 NOSIG=
201203031720 METAR COR EGLL 031720Z 26009KT 220V280 9999 FEW041 12/04
                        Q1019 NOSIG=
201203031650 METAR COR EGLL 031650Z 28007KT 9999 FEW038 11/03 Q1019 NOSIG=
201203031620 METAR COR EGLL 031620Z 29011KT 9999 SCT046CB 11/02 Q1019
                        NOSIG=
201203031550 METAR COR EGLL 031550Z 24014KT 9999 SCT050CB 14/02 Q1018
                        NOSIG=
201203031520 METAR COR EGLL 031520Z 25016KT CAVOK 14/01 Q1018 NOSIG=
201203031450 METAR COR EGLL 031450Z 24014KT CAVOK 14/M00 Q1018 NOSIG=
201203031420 METAR COR EGLL 031420Z 25016KT 9999 FEW043 15/M01 Q1017 NOSIG=
201203031350 METAR COR EGLL 031350Z 24018KT 9999 SCT043 14/M01 Q1017 NOSIG=
201203031320 METAR COR EGLL 031320Z 23013KT 9999 FEW032 SCT042 14/06 Q1017
                        NOSIG=
201203031250 METAR COR EGLL 031250Z 23011KT 200V260 9999 SCT024 SCT030
                        13/07 Q1017 NOSIG=
201203031220 METAR EGLL 031220Z 21011KT 9999 FEW020 SCT027 12/08 Q1018=
201203031150 METAR COR EGLL 031150Z 21011KT 8000 SCT012 SCT016 11/08 Q1018
                        TEMPO BKN014=
201203031120 METAR COR EGLL 031120Z 21010KT 180V250 7000 FEW008 SCT010
                        BKN013 11/08 Q1018 BECMG SCT012 BKN025=
201203031050 METAR COR EGLL 031050Z 20010KT 170V230 6000 SCT008 BKN011
                        10/08 Q1018 BECMG SCT011 BKN018=
201203031020 METAR COR EGLL 031020Z 19010KT 3200 -RADZ FEW008 BKN012 BKN019
                        10/08 Q1018 BECMG 9999 NSW BKN022=
201203030950 METAR COR EGLL 030950Z 18012KT 4500 HZ BKN012 10/07 Q1017
                        TEMPO RA BKN008=
201203030920 METAR EGLL 030920Z 19011KT 6000 BKN011 10/07 Q1017=
201203030850 METAR COR EGLL 030850Z 18010G20KT 150V240 4500 HZ FEW008
                        BKN011 10/07 Q1017 TEMPO RA BKN008=
201203030820 METAR COR EGLL 030820Z 18010KT 160V220 3500 HZ SCT008 BKN010
                        09/07 Q1017 TEMPO BKN008=
201203030750 METAR COR EGLL 030750Z 19008KT 170V230 2700 HZ FEW006 SCT008
                        BKN011 09/07 Q1017 TEMPO BKN007=
201203030720 METAR COR EGLL 030720Z 19008KT 100V270 2100 HZ FEW004 BKN005
                        09/07 Q1017 TEMPO SCT006 BKN010=
201203030650 METAR COR EGLL 030650Z 19008KT 2300 HZ BKN006 09/07 Q1017
                        TEMPO BKN004=
201203030620 METAR COR EGLL 030620Z 18007KT 110V250 2700 HZ SCT005 BKN007
                        09/07 Q1017 BECMG BKN010=
201203030550 METAR COR EGLL 030550Z 18006KT 2300 HZ FEW006 BKN007 08/07
                        Q1017 NOSIG=
201203030520 METAR COR EGLL 030520Z 18006KT 2500 HZ BKN006 08/07 Q1017
                        NOSIG=
201203030450 METAR COR EGLL 030450Z 17004KT 2400 HZ BKN006 08/07 Q1018
                        NOSIG=
201203030420 METAR COR EGLL 030420Z 17004KT 2200 HZ FEW002 SCT006 BKN009
                        08/07 Q1018 TEMPO BKN006=
201203030350 METAR COR EGLL 030350Z 18004KT 1800 HZ SCT002 BKN004 07/07
                        Q1018 BECMG BKN006=
201203030320 METAR COR EGLL 030320Z 17004KT 1100 R09R/P1500 HZ SCT001
                        BKN002 07/07 Q1018 NOSIG=
201203030250 METAR COR EGLL 030250Z 16005KT 1100 R09R/P1500 HZ SCT001
                        BKN002 07/06 Q1019 TEMPO 0700 FG=
201203030220 METAR EGLL 030220Z AUTO 16004KT 130V200 1300 R09R/P1500 HZ
                        OVC002/// 07/06 Q1019=
201203030150 METAR EGLL 030150Z AUTO 15004KT 1400 R09R/P1500 HZ OVC002///
                        07/06 Q1019=
201203030120 METAR EGLL 030120Z AUTO 12004KT 080V160 0900 R09R/P1500 BKN002///
                        07/06 Q1019=
201203030050 METAR COR EGLL 030050Z 11005KT 1200 HZ BKN002 07/06 Q1020
                        TEMPO 0700 FG=
201203030020 METAR COR EGLL 030020Z 11005KT 1800 HZ BKN003 07/06 Q1020
                        TEMPO 1200 BKN002=
201203022350 METAR COR EGLL 022350Z 12005KT 2100 HZ BKN003 07/06 Q1020
                        TEMPO 1200 BKN002=
201203022320 METAR EGLL 022320Z 10005KT 2200 HZ BKN004 07/06 Q1020=
201203022250 METAR COR EGLL 022250Z 11005KT 2300 HZ SCT004 BKN006 07/06
                        Q1021 TEMPO 1400 BKN004=
201203022220 METAR COR EGLL 022220Z 10005KT 2200 HZ SCT004 BKN006 07/06
                        Q1021 TEMPO 1400 BKN004=
201203022150 METAR COR EGLL 022150Z 11005KT 2300 HZ SCT004 BKN006 07/06
                        Q1021 TEMPO BKN004=
201203022120 METAR COR EGLL 022120Z 10006KT 2300 HZ SCT004 BKN006 07/06
                        Q1022 TEMPO 1400 BKN004=
201203022050 METAR COR EGLL 022050Z 11006KT 2400 HZ FEW004 BKN006 07/06
                        Q1022 TEMPO BKN004=
201203022020 METAR COR EGLL 022020Z 09006KT 2700 HZ FEW006 BKN007 08/06
                        Q1022 NOSIG=
201203021950 METAR COR EGLL 021950Z 10007KT 3000 HZ FEW006 BKN008 08/06
                        Q1022 NOSIG=
201203021920 METAR COR EGLL 021920Z 10008KT 3800 HZ BKN009 08/06 Q1023
                        NOSIG=
201203021850 METAR COR EGLL 021850Z 10007KT 4500 HZ BKN011 08/05 Q1023
                        BECMG BKN008=
201203021820 METAR COR EGLL 021820Z 10008KT 4500 HZ BKN011 08/05 Q1023
                        BECMG BKN008=
201203021750 METAR COR EGLL 021750Z 09009KT 3900 HZ BKN008 07/05 Q1023
                        NOSIG=
201203021720 METAR COR EGLL 021720Z 10010KT 3500 HZ BKN008 08/05 Q1024
                        NOSIG=
201203021650 METAR COR EGLL 021650Z 10009KT 3800 HZ BKN009 08/06 Q1024
                        NOSIG=
201203021620 METAR COR EGLL 021620Z 11010KT 4000 HZ BKN010 08/06 Q1024
                        BECMG BKN008=
201203021550 METAR COR EGLL 021550Z 11011KT 4500 HZ NSC 09/06 Q1024 TEMPO
                        BKN008=
201203021520 METAR COR EGLL 021520Z 10009KT 6000 NSC 10/06 Q1024 TEMPO
                        4000 BR BKN008=
201203021450 METAR COR EGLL 021450Z 11008KT 070V140 6000 NSC 10/06 Q1024
                        TEMPO 4000 BR BKN008=
201203021420 METAR COR EGLL 021420Z 10007KT 060V120 6000 NSC 11/06 Q1024
                        NOSIG=
201203021350 METAR COR EGLL 021350Z 11007KT 6000 NSC 11/06 Q1025 NOSIG=
201203021320 METAR COR EGLL 021320Z 11007KT 6000 FEW026 11/06 Q1025 NOSIG=
201203021250 METAR COR EGLL 021250Z 10007KT 6000 FEW026 11/06 Q1025 NOSIG=
201203021220 METAR COR EGLL 021220Z 08006KT 050V130 6000 NSC 11/06 Q1026
                        NOSIG=
201203021150 METAR COR EGLL 021150Z 10005KT 050V130 4500 HZ NSC 11/07
                        Q1026 BECMG 5000 NSW=
201203021120 METAR COR EGLL 021120Z 12005KT 060V170 3500 HZ SCT012 10/06
                        Q1026 BECMG 5000 NSW=
201203021050 METAR COR EGLL 021050Z 12005KT 2300 HZ FEW006 BKN008 09/07
                        Q1027 BECMG 6000 NSW SCT008=
201203021020 METAR COR EGLL 021020Z VRB03KT 1900 BR SCT002 BKN004 09/07
                        Q1027 BECMG 4000 HZ BKN006=
201203020950 METAR COR EGLL 020950Z 05003KT 1900 R09L/1300 BR OVC002 08/07
                        Q1027 BECMG 3000 HZ BKN005=
201203020920 METAR COR EGLL 020920Z VRB03KT 0800 R09L/0750 R09R/1400 FG
                        VV/// 07/06 Q1027 BECMG 1200 BR BKN004=
201203020850 METAR COR EGLL 020850Z 05004KT 030V090 0600 R09L/0550 R09R/1100
                        FG VV/// 06/06 Q1027 BECMG 1200 BR
                        BKN004=
201203020820 METAR EGLL 020820Z 06004KT 020V090 0400 R09L/0650 R09R/0800
                        FG VV/// 06/06 Q1027=
201203020750 METAR COR EGLL 020750Z VRB03KT 0300 R09L/0550 R09R/0900 FG
                        VV/// 06/06 Q1027 TEMPO 1200 BR SCT002
                        BKN020=
201203020720 METAR COR EGLL 020720Z VRB03KT 0150 R09L/0375 R09R/0400 FG
                        VV/// 06/05 Q1027 TEMPO 1200 BR SCT002
                        BKN020=
201203020650 METAR COR EGLL 020650Z 07004KT 0150 R09L/0400 R09R/0500 FG
                        VV/// 06/05 Q1027 TEMPO 1200 BR SCT002
                        BKN020=
201203020620 METAR COR EGLL 020620Z 07004KT 0000 R09L/0350 R09R/0375 FG
                        BKN000 06/05 Q1027 TEMPO 1200 BR
                        SCT002 BKN020=
201203020550 METAR COR EGLL 020550Z 06004KT 030V100 0100 R09L/0400 FG
                        BKN000 05/04 Q1027 TEMPO 1200 BR
                        SCT002 BKN020=
201203020520 METAR COR EGLL 020520Z VRB02KT 3000 HZ FEW002 04/03 Q1027
                        TEMPO 1200 BKN002=
201203020450 METAR COR EGLL 020450Z 01002KT 4500 HZ NSC 04/03 Q1027 NOSIG=
201203020420 METAR COR EGLL 020420Z 34002KT 4900 HZ NSC 04/03 Q1027 NOSIG=
201203020350 METAR COR EGLL 020350Z 34002KT 5000 HZ NSC 04/03 Q1027 TEMPO
                        2500 BR=
201203020320 METAR COR EGLL 020320Z 00000KT 6000 NSC 05/03 Q1027 TEMPO
                        3500 BR=
201203020250 METAR COR EGLL 020250Z 35002KT 6000 NSC 04/03 Q1027 TEMPO
                        4000 HZ=
201203020220 METAR EGLL 020220Z AUTO 27002KT 4400 HZ NCD 04/03 Q1027=
201203020150 METAR EGLL 020150Z AUTO 00000KT 5000 NCD 05/03 Q1028=
201203020120 METAR EGLL 020120Z AUTO 32002KT 6000 NCD 05/03 Q1028=
201203020050 METAR COR EGLL 020050Z 00000KT 7000 NSC 06/04 Q1028 BECMG
                        4000 HZ=
201203020020 METAR COR EGLL 020020Z 34002KT 8000 NSC 06/04 Q1028 BECMG
                        4000 HZ=
201203012350 METAR COR EGLL 012350Z 34003KT 8000 NSC 07/04 Q1028 NOSIG=
201203012320 METAR COR EGLL 012320Z 36003KT 9000 NSC 07/04 Q1028 NOSIG=
201203012250 METAR COR EGLL 012250Z 36004KT 9000 NSC 08/04 Q1028 NOSIG=
201203012220 METAR COR EGLL 012220Z VRB02KT CAVOK 09/05 Q1028 NOSIG=
201203012150 METAR COR EGLL 012150Z 35003KT CAVOK 10/05 Q1028 NOSIG=
201203012120 METAR COR EGLL 012120Z 35003KT CAVOK 10/05 Q1028 NOSIG=
201203012050 METAR COR EGLL 012050Z 00000KT CAVOK 10/05 Q1027 NOSIG=
201203012020 METAR COR EGLL 012020Z 00000KT CAVOK 10/05 Q1027 NOSIG=
201203011950 METAR COR EGLL 011950Z 34002KT CAVOK 10/04 Q1027 NOSIG=
201203011920 METAR COR EGLL 011920Z 35004KT CAVOK 11/04 Q1027 NOSIG=
201203011850 METAR COR EGLL 011850Z 36003KT CAVOK 11/04 Q1027 NOSIG=
201203011820 METAR COR EGLL 011820Z 33004KT 9000 NSC 12/05 Q1027 NOSIG=
201203011750 METAR COR EGLL 011750Z 32004KT 8000 NSC 12/06 Q1027 NOSIG=
201203011720 METAR COR EGLL 011720Z 29005KT 7000 NSC 12/07 Q1026 NOSIG=
201203011650 METAR COR EGLL 011650Z 28006KT 8000 NSC 13/07 Q1026 NOSIG=
201203011620 METAR COR EGLL 011620Z 28005KT 8000 NSC 14/07 Q1026 NOSIG=
201203011550 METAR COR EGLL 011550Z VRB03KT 7000 NSC 14/07 Q1026 NOSIG=
201203011520 METAR COR EGLL 011520Z 28004KT 240V310 7000 NSC 14/06 Q1026
                        NOSIG=
201203011450 METAR COR EGLL 011450Z 24004KT 180V300 6000 NSC 14/07 Q1026
                        NOSIG=
201203011420 METAR COR EGLL 011420Z VRB03KT 6000 NSC 13/07 Q1026 NOSIG=
201203011350 METAR COR EGLL 011350Z VRB03KT 5000 HZ NSC 13/07 Q1026 NOSIG=
201203011320 METAR COR EGLL 011320Z 21004KT 140V290 4800 HZ NSC 12/07
                        Q1026 BECMG 6000=
201203011250 METAR COR EGLL 011250Z VRB03KT 4400 HZ NSC 11/07 Q1027 BECMG
                        6000=
201203011220 METAR COR EGLL 011220Z VRB02KT 4000 HZ SCT007 11/07 Q1027
                        BECMG 6000=
201203011150 METAR COR EGLL 011150Z 28004KT 240V330 3000 HZ SCT004 08/07
                        Q1027 BECMG 6000=
201203011120 METAR COR EGLL 011120Z 31004KT 280V350 1100 R27L/P1500 R27R/P1500
                        BR SCT002 BKN004 07/06 Q1027 BECMG
                        3000 HZ SCT004=
201203011050 METAR COR EGLL 011050Z VRB03KT 0900 R27L/P1500 R27R/1400
                        FG BKN001 06/06 Q1027 BECMG 1800
                        BR BKN004=
201203011020 METAR COR EGLL 011020Z 30004KT 0700 R27L/1300 R27R/0700 FG
                        BKN001 06/05 Q1027 BECMG 1800 BR
                        SCT002=
201203010950 METAR COR EGLL 010950Z 29004KT 270V350 0400 R27L/0450 R27R/0500
                        FG BKN001 06/05 Q1027 BECMG 1800
                        BR SCT002=
201203010920 METAR COR EGLL 010920Z 27004KT 230V330 0350 R27L/0375 R27R/0400
                        FG BKN001 05/04 Q1027 BECMG 1800
                        BR SCT002=
201203010850 METAR COR EGLL 010850Z VRB03KT 0400 R27R/0350 R27L/1300 FG
                        BKN001 04/04 Q1026 TEMPO 0200 FG=
201203010820 METAR COR EGLL 010820Z 27004KT 0700 R27R/0900 R27L/1300 FG
                        SCT001 05/04 Q1026 TEMPO 0200 FG
                        BKN001=
201203010750 METAR COR EGLL 010750Z 30003KT 0800 R27R/0350 R27L/P1500
                        FG FEW001 04/03 Q1026 TEMPO 0200
                        FG BKN001=
201203010720 METAR COR EGLL 010720Z 30004KT 1100 R27R/0375 R27L/P1500
                        BR BCFG FEW001 04/03 Q1026 TEMPO
                        0200 FG BKN001=
201203010650 METAR COR EGLL 010650Z VRB03KT 2100 1400NW R27R/0550 R27L/P1500
                        BR BCFG NSC 05/03 Q1025 TEMPO 0800
                        FG BKN001=
201203010620 METAR COR EGLL 010620Z 30002KT 2200 HZ NSC 05/04 Q1025 TEMPO
                        1200 BR BKN003=
201203010550 METAR COR EGLL 010550Z 28004KT 3200 HZ NSC 05/04 Q1025 TEMPO
                        1200 BR BKN003=
201203010520 METAR COR EGLL 010520Z 27004KT 3500 HZ NSC 06/05 Q1025 TEMPO
                        1200 BR BKN003=
201203010450 METAR COR EGLL 010450Z 25003KT 3500 HZ NSC 06/05 Q1025 TEMPO
                        1200 BR BKN005=
201203010420 METAR COR EGLL 010420Z 22003KT 3500 HZ NSC 07/05 Q1024 NOSIG=
201203010350 METAR COR EGLL 010350Z 18003KT 4500 HZ NSC 06/05 Q1024 TEMPO
                        0800 BCFG=
201203010320 METAR COR EGLL 010320Z 00000KT 4900 HZ NSC 07/05 Q1024 TEMPO
                        0800 BCFG=
201203010250 METAR COR EGLL 010250Z 00000KT 6000 NSC 07/05 Q1024 BECMG
                        2500 BR=
201203010220 METAR EGLL 010220Z AUTO 27003KT 4800 HZ NCD 08/06 Q1024=
201203010150 METAR EGLL 010150Z AUTO 26004KT 5000 NCD 08/06 Q1024=
201203010120 METAR EGLL 010120Z AUTO 27003KT 5000 NCD 08/06 Q1024=
201203010050 METAR COR EGLL 010050Z 27005KT 7000 NSC 08/06 Q1025 BECMG
                        4000 HZ=
201203010020 METAR COR EGLL 010020Z 25004KT 220V280 8000 NSC 09/06 Q1025
                        BECMG 4000 HZ=