##########################################################
# Query made at 01/13/2020 13:35:39 UTC
# Time interval: from 03/01/2018 00:00  to 03/31/2018 23:59  UTC
##########################################################

##########################################################
# EGLL, London / Heathrow Airport (United Kingdom)
# WMO index: 03772
# Latitude 51-29N. Longitude 000-27W. Altitude 24 m.
##########################################################

###################################
#  METAR/SPECI from EGLL
###################################
201803312350 METAR COR EGLL 312350Z AUTO 32007KT 9999 OVC014 05/03 Q1007
                        NOSIG=
201803312320 METAR COR EGLL 312320Z AUTO 31010KT 9999 BKN011 OVC020 05/03
                        Q1006 NOSIG=
201803312250 METAR COR EGLL 312250Z AUTO 31010KT 9999 BKN012 OVC032 05/03
                        Q1006 NOSIG=
201803312220 METAR COR EGLL 312220Z AUTO 31007KT 9999 SCT013 OVC031 06/03
                        Q1005 TEMPO BKN014=
201803312150 METAR COR EGLL 312150Z AUTO 31009KT 9999 OVC012 06/04 Q1005
                        NOSIG=
201803312120 METAR COR EGLL 312120Z AUTO 32009KT 290V350 9999 OVC013 06/04
                        Q1005 NOSIG=
201803312050 METAR COR EGLL 312050Z AUTO 31008KT 290V360 9999 BKN013 OVC040
                        06/04 Q1004 NOSIG=
201803312020 METAR COR EGLL 312020Z AUTO 32007KT 290V010 9999 BKN015 OVC025
                        07/04 Q1004 TEMPO BKN014=
201803311950 METAR COR EGLL 311950Z AUTO 31007KT 280V340 9999 BKN016 OVC027
                        07/04 Q1003 TEMPO BKN014=
201803311920 METAR COR EGLL 311920Z AUTO 31009KT 9999 BKN014 OVC027 07/05
                        Q1002 NOSIG=
201803311850 METAR COR EGLL 311850Z AUTO 31010KT 9999 FEW016 SCT020 BKN027
                        07/05 Q1002 NOSIG=
201803311820 METAR COR EGLL 311820Z AUTO 31008KT 9999 SCT021 BKN028 OVC043
                        07/05 Q1001 NOSIG=
201803311750 METAR COR EGLL 311750Z AUTO 32008KT 9999 SCT016/// SCT021///
                        BKN028/// //////TCU 07/05 Q1001 NOSIG=
201803311720 METAR COR EGLL 311720Z AUTO 30007KT 9999 BKN015/// BKN020///
                        OVC034/// //////TCU 07/06 Q1000 RERA
                        NOSIG=
201803311650 METAR COR EGLL 311650Z AUTO 29011G24KT 9999 -RA SCT020///
                        SCT034/// BKN043/// //////TCU 08/05
                        Q1000 TEMPO 3000 SHRA=
201803311620 METAR COR EGLL 311620Z AUTO 29009KT 9999 SCT038/// //////TCU
                        09/04 Q1000 TEMPO SHRA=
201803311550 METAR COR EGLL 311550Z AUTO 31010KT 9999 BKN033 BKN046 09/04
                        Q0999 TEMPO SHRA=
201803311520 METAR COR EGLL 311520Z AUTO 32005KT 300V360 9999 SCT031 BKN042
                        09/04 Q0999 NOSIG=
201803311450 METAR COR EGLL 311450Z AUTO 35006KT 300V040 9999 FEW020 SCT024
                        BKN030 09/04 Q0999 NOSIG=
201803311420 METAR COR EGLL 311420Z AUTO 35004KT 300V050 9999 SCT019 SCT029
                        BKN037 09/06 Q0998 NOSIG=
201803311350 METAR COR EGLL 311350Z AUTO 32004KT 280V020 9999 FEW016 SCT034
                        BKN046 07/06 Q0998 NOSIG=
201803311320 METAR COR EGLL 311320Z AUTO 35004KT 300V030 9999 FEW015 SCT021
                        BKN037 07/05 Q0998 NOSIG=
201803311250 METAR COR EGLL 311250Z AUTO VRB02KT 6000 -RA FEW013 BKN017
                        OVC046 07/05 Q0998 NOSIG=
201803311220 METAR COR EGLL 311220Z AUTO VRB02KT 9999 SCT014 SCT019 BKN024
                        08/05 Q0997 TEMPO BKN014=
201803311150 METAR COR EGLL 311150Z AUTO VRB03KT 9999 SCT009 SCT014 BKN019
                        07/05 Q0997 TEMPO SCT009 BKN014=
201803311120 METAR COR EGLL 311120Z AUTO 30004KT 9999 -RA SCT006 BKN012
                        OVC016 06/05 Q0997 TEMPO BKN009=
201803311050 METAR COR EGLL 311050Z AUTO 23005KT 160V280 5000 -RA BKN005
                        OVC011 05/05 Q0997 TEMPO FEW005 BKN011=
201803311020 METAR COR EGLL 311020Z 23005KT 4000 -RADZ BR SCT004 BKN005TCU
                        OVC017 05/05 Q0996 TEMPO 2500 RADZ
                        BKN004=
201803310950 METAR COR EGLL 310950Z AUTO 24006KT 190V280 3700 -RADZ OVC005///
                        //////TCU 05/04 Q0996 TEMPO 2500
                        RADZ=
201803310920 METAR COR EGLL 310920Z AUTO 22007KT 9000 OVC005/// //////TCU
                        05/04 Q0995 NOSIG=
201803310850 METAR COR EGLL 310850Z AUTO 22008KT 180V250 9999 OVC007///
                        //////TCU 05/04 Q0995 NOSIG=
201803310820 METAR COR EGLL 310820Z AUTO 21007KT 180V250 9999 OVC008 05/04
                        Q0995 NOSIG=
201803310750 METAR COR EGLL 310750Z AUTO 21008KT 9999 OVC009 05/04 Q0994
                        NOSIG=
201803310720 METAR COR EGLL 310720Z AUTO 20007KT 170V230 9999 BKN009 OVC013
                        04/03 Q0994 TEMPO SCT009 BKN012=
201803310650 METAR COR EGLL 310650Z AUTO 21007KT 180V240 9999 BKN009 OVC017
                        04/03 Q0994 TEMPO BKN010=
201803310620 METAR COR EGLL 310620Z AUTO 19007KT 160V240 9999 BKN008 OVC014
                        04/03 Q0994 TEMPO SCT008 BKN014=
201803310550 METAR COR EGLL 310550Z AUTO 18005KT 150V240 9999 BKN008 BKN011
                        OVC030 04/03 Q0993 TEMPO SCT008=
201803310520 METAR COR EGLL 310520Z 21007KT 170V270 9999 -RA FEW009 BKN011
                        OVC030 04/03 Q0993 TEMPO SCT011=
201803310450 METAR COR EGLL 310450Z AUTO 21008KT 9999 SCT009 SCT013 OVC026
                        04/03 Q0993 TEMPO BKN013=
201803310420 METAR COR EGLL 310420Z AUTO 20007KT 9999 FEW017 OVC024 04/03
                        Q0993 TEMPO BKN012=
201803310350 METAR COR EGLL 310350Z AUTO 21007KT 9999 SCT017 OVC023 04/03
                        Q0993 TEMPO BKN012=
201803310320 METAR EGLL 310320Z AUTO 21007KT 9999 SCT016 OVC025 04/03
                        Q0992=
201803310250 METAR COR EGLL 310250Z AUTO 21007KT 9999 SCT008 SCT017 BKN024
                        04/03 Q0992 TEMPO BKN008=
201803310220 METAR COR EGLL 310220Z AUTO 21008KT 9999 FEW009 BKN015 OVC030
                        04/03 Q0992 TEMPO BKN009=
201803310150 METAR COR EGLL 310150Z AUTO 21009KT 9999 SCT009 BKN014 OVC029
                        04/03 Q0992 NOSIG=
201803310120 METAR COR EGLL 310120Z AUTO 20009KT 9999 BKN009 OVC019 04/03
                        Q0992 TEMPO BKN012=
201803310050 METAR COR EGLL 310050Z AUTO 21011KT 9999 BKN009 OVC033 04/03
                        Q0992 TEMPO BKN012=
201803310020 METAR COR EGLL 310020Z AUTO 20008KT 9999 -RA BKN008 OVC034
                        04/03 Q0992 TEMPO 4500 RA=
201803302350 METAR COR EGLL 302350Z AUTO 19008KT 9999 -RA BKN008 BKN045
                        04/03 Q0992 TEMPO 4500 RA=
201803302320 METAR COR EGLL 302320Z AUTO 21009KT 9999 SCT008 BKN041 04/03
                        Q0992 TEMPO 4000 RADZ BKN004=
201803302250 METAR COR EGLL 302250Z AUTO 20010KT 9999 BKN007 OVC040 04/04
                        Q0992 TEMPO 4000 RADZ=
201803302220 METAR COR EGLL 302220Z AUTO 20011KT 9999 -RA OVC006 05/04
                        Q0991 TEMPO 4000 OVC004=
201803302150 METAR COR EGLL 302150Z AUTO 19011KT 9999 -RA OVC006 04/04
                        Q0991 TEMPO 4000 OVC004=
201803302120 METAR COR EGLL 302120Z AUTO 18011KT 9999 -RA OVC005 05/04
                        Q0991 TEMPO 4000 RADZ OVC004=
201803302050 METAR COR EGLL 302050Z AUTO 17011KT 4300 -RADZ OVC004 05/04
                        Q0991 RERA REDZ TEMPO 6000 BKN006=
201803302020 METAR COR EGLL 302020Z AUTO 15009KT 110V180 3800 -RA OVC005
                        05/05 Q0991 RERA TEMPO 7000 BKN010=
201803301950 METAR COR EGLL 301950Z AUTO 14008KT 7000 BKN008 OVC024 06/05
                        Q0991 TEMPO 4000 RADZ=
201803301920 METAR COR EGLL 301920Z AUTO 12009KT 9999 BKN011 BKN018 OVC027
                        06/05 Q0990 TEMPO BKN008=
201803301850 METAR COR EGLL 301850Z AUTO 11007KT 9999 BKN016 06/06 Q0990
                        TEMPO BKN012=
201803301820 METAR COR EGLL 301820Z AUTO 09006KT 9999 FEW018 SCT025 BKN033
                        06/06 Q0990 TEMPO BKN014=
201803301750 METAR COR EGLL 301750Z AUTO 06005KT 9999 -RA SCT017/// BKN023///
                        BKN028/// //////CB 06/06 Q0990 TEMPO
                        BKN014=
201803301720 METAR COR EGLL 301720Z AUTO 07006KT 6000 -RA SCT008/// BKN012///
                        BKN020/// //////CB 06/06 Q0990 TEMPO
                        BKN008=
201803301650 METAR COR EGLL 301650Z AUTO 06007KT 8000 -RA BKN009/// BKN014///
                        OVC024/// //////CB 06/05 Q0991 NOSIG=
201803301620 METAR COR EGLL 301620Z AUTO 05007KT 010V080 8000 -RA BKN012///
                        OVC018/// //////TCU 06/05 Q0991 NOSIG=
201803301550 METAR COR EGLL 301550Z AUTO 06009KT 9999 -RA SCT014/// BKN018///
                        //////TCU 06/05 Q0991 TEMPO BKN014=
201803301520 METAR COR EGLL 301520Z AUTO 07008KT 9999 -RA SCT014/// BKN022///
                        OVC026/// //////TCU 06/05 Q0992 TEMPO
                        BKN014=
201803301450 METAR COR EGLL 301450Z AUTO 09010KT 8000 -RA BKN014/// OVC034///
                        //////CB 06/05 Q0992 NOSIG=
201803301420 METAR COR EGLL 301420Z AUTO 08010KT 9999 -RA BKN014/// OVC025///
                        //////CB 06/05 Q0992 NOSIG=
201803301350 METAR COR EGLL 301350Z AUTO 09009KT 9999 -RA FEW012/// SCT017///
                        BKN023/// //////TCU 06/05 Q0993 TEMPO
                        BKN012=
201803301320 METAR COR EGLL 301320Z AUTO 10012KT 9999 -RA FEW013/// BKN018///
                        BKN025/// //////TCU 06/05 Q0993 TEMPO
                        6000 RA BKN014=
201803301250 METAR COR EGLL 301250Z AUTO 07010KT 020V090 6000 -RA SCT013///
                        BKN017/// OVC027/// //////TCU 07/06
                        Q0994 NOSIG=
201803301220 METAR COR EGLL 301220Z AUTO 06010KT 9000 -RA FEW014/// SCT020///
                        BKN025/// //////TCU 07/06 Q0994 TEMPO
                        6000 RA BKN014=
201803301150 METAR COR EGLL 301150Z AUTO 07009KT 8000 -RA FEW014/// SCT019///
                        BKN026/// //////TCU 07/06 Q0994 TEMPO
                        BKN014=
201803301120 METAR COR EGLL 301120Z AUTO 09009KT 9000 -RA FEW019 BKN024
                        OVC030 08/06 Q0995 NOSIG=
201803301050 METAR COR EGLL 301050Z AUTO 09011KT 9999 -RA FEW016 SCT021
                        OVC028 08/06 Q0995 TEMPO 6000 RA
                        BKN014=
201803301020 METAR COR EGLL 301020Z AUTO 09008KT 9999 -RA BKN015/// BKN020///
                        OVC046/// //////TCU 07/06 Q0996 TEMPO
                        BKN014=
201803300950 METAR COR EGLL 300950Z AUTO 09009KT 9999 BKN016 08/06 Q0996
                        TEMPO 6000 -RA BKN014=
201803300920 METAR COR EGLL 300920Z AUTO 09009KT 9999 BKN015 07/05 Q0996
                        NOSIG=
201803300850 METAR COR EGLL 300850Z AUTO 10008KT 9999 FEW013 BKN018 07/06
                        Q0996 TEMPO BKN014=
201803300820 METAR COR EGLL 300820Z AUTO 10009KT 9999 SCT008 BKN018 BKN035
                        07/06 Q0996 TEMPO BKN014=
201803300750 METAR COR EGLL 300750Z AUTO 09007KT 9999 BKN035 07/06 Q0996
                        NOSIG=
201803300720 METAR COR EGLL 300720Z AUTO 07005KT 9000 FEW042 05/05 Q0997
                        NOSIG=
201803300650 METAR COR EGLL 300650Z AUTO 08005KT 9000 FEW017 05/05 Q0997
                        NOSIG=
201803300620 METAR COR EGLL 300620Z AUTO 05003KT 9999 NCD 04/04 Q0997
                        NOSIG=
201803300550 METAR COR EGLL 300550Z AUTO 08003KT 9000 FEW022 03/03 Q0997
                        NOSIG=
201803300520 METAR COR EGLL 300520Z AUTO 08004KT 9999 SCT021 04/04 Q0997
                        NOSIG=
201803300450 METAR COR EGLL 300450Z AUTO 08004KT 9999 NCD 04/03 Q0997
                        NOSIG=
201803300420 METAR COR EGLL 300420Z AUTO 08004KT 9999 NCD 04/03 Q0997
                        NOSIG=
201803300350 METAR COR EGLL 300350Z AUTO 10004KT 9999 FEW034 04/03 Q0997
                        NOSIG=
201803300320 METAR COR EGLL 300320Z AUTO 11004KT 9999 BKN034 04/03 Q0998
                        NOSIG=
201803300250 METAR COR EGLL 300250Z AUTO 13003KT 9999 FEW021 BKN030 OVC046
                        04/04 Q0998 NOSIG=
201803300220 METAR COR EGLL 300220Z AUTO 23004KT 9000 -RA SCT008 BKN013
                        BKN021 05/04 Q0998 TEMPO 4000 SHRA
                        BKN013CB=
201803300150 METAR COR EGLL 300150Z AUTO 18004KT 140V260 9999 FEW012///
                        SCT024/// BKN038/// //////TCU 05/04
                        Q0998 TEMPO 4000 SHRA BKN012CB=
201803300120 METAR COR EGLL 300120Z AUTO 15006KT 9999 SCT036/// //////TCU
                        04/04 Q0998 TEMPO SHRA=
201803300050 METAR COR EGLL 300050Z AUTO 14007KT 9999 //////TCU 04/03
                        Q0998 TEMPO SHRA=
201803300020 METAR COR EGLL 300020Z AUTO 14006KT 9999 SCT041 04/04 Q0998
                        TEMPO SHRA=
201803292350 METAR COR EGLL 292350Z AUTO 15006KT 9999 FEW041 04/04 Q0998
                        TEMPO SHRA=
201803292320 METAR COR EGLL 292320Z AUTO 14006KT 9999 NCD 03/03 Q0998
                        TEMPO SHRA=
201803292250 METAR COR EGLL 292250Z AUTO 13006KT 9999 NCD 03/03 Q0998
                        NOSIG=
201803292220 METAR COR EGLL 292220Z AUTO 14004KT 9999 NCD 04/03 Q0998
                        NOSIG=
201803292150 METAR COR EGLL 292150Z AUTO 14005KT 9999 FEW037 04/03 Q0999
                        NOSIG=
201803292120 METAR COR EGLL 292120Z AUTO 14005KT 9999 NCD 03/03 Q0999
                        NOSIG=
201803292050 METAR COR EGLL 292050Z AUTO 15005KT 9999 NCD 04/03 Q0999
                        NOSIG=
201803292020 METAR COR EGLL 292020Z AUTO 15007KT 9999 NCD 04/04 Q0999
                        NOSIG=
201803291950 METAR COR EGLL 291950Z AUTO 15007KT 9999 NCD 05/04 Q0998
                        NOSIG=
201803291920 METAR COR EGLL 291920Z AUTO 17006KT 9999 //////CB 04/03 Q0998
                        NOSIG=
201803291850 METAR COR EGLL 291850Z AUTO 18006KT 9999 SCT031/// //////CB
                        04/03 Q0998 NOSIG=
201803291820 METAR COR EGLL 291820Z AUTO 22013G28KT 4100 RA SCT013///
                        BKN022/// //////CB 06/05 Q0998 TEMPO
                        9999 NSW=
201803291750 METAR COR EGLL 291750Z AUTO 18011KT 9999 BKN018/// BKN026///
                        BKN040/// //////CB 07/06 Q0998 TEMPO
                        7000 SHRA BKN008=
201803291720 METAR COR EGLL 291720Z AUTO 18009KT 9999 -RA SCT011/// BKN017///
                        BKN026/// //////CB 07/06 Q0997 RERA
                        TEMPO 7000 RA BKN011=
201803291650 METAR EGLL 291650Z AUTO 17007KT 150V220 5000 -RADZ SCT009///
                        BKN013/// BKN017/// //////CB 07/06
                        Q0997 RERA REDZ=
201803291620 METAR COR EGLL 291620Z AUTO 14008KT 110V170 6000 -RA BKN015///
                        BKN025/// OVC040/// //////CB 06/06
                        Q0997 TEMPO BKN014=
201803291550 METAR COR EGLL 291550Z AUTO 12010KT 9000 -RA SCT011/// BKN016///
                        BKN020/// //////CB 06/06 Q0998 TEMPO
                        6000 RA BKN012=
201803291520 METAR COR EGLL 291520Z AUTO 13010KT 7000 -RA BKN009/// BKN016///
                        OVC021/// //////TCU 06/05 Q0998 BECMG
                        BKN012=
201803291450 METAR COR EGLL 291450Z 15012KT 7000 -RA BKN013CB BKN020 06/05
                        Q0999 NOSIG=
201803291420 METAR COR EGLL 291420Z AUTO 15014KT 9999 -RA SCT014/// BKN019///
                        OVC031/// //////TCU 06/05 Q0999 TEMPO
                        6000 RA=
201803291350 METAR COR EGLL 291350Z AUTO 16016KT 9999 -RA BKN017/// OVC036///
                        //////TCU 06/05 Q0999 TEMPO 7000
                        SHRA BKN014=
201803291320 METAR COR EGLL 291320Z AUTO 15012KT 9999 -RA SCT021/// BKN027///
                        BKN035/// //////TCU 08/05 Q1000 TEMPO
                        6000 SHRA BKN014=
201803291250 METAR COR EGLL 291250Z AUTO 15013KT 9999 -RA SCT026/// BKN039///
                        //////TCU 09/05 Q1000 TEMPO 6000
                        SHRA BKN014=
201803291220 METAR COR EGLL 291220Z AUTO 15013KT 9999 -RA SCT027/// BKN035///
                        //////TCU 08/05 Q1000 TEMPO 6000
                        SHRA BKN014=
201803291150 METAR COR EGLL 291150Z AUTO 15013KT 9999 -RA FEW029 SCT034
                        BKN040 08/04 Q1000 NOSIG=
201803291120 METAR COR EGLL 291120Z AUTO 16012KT 9999 -RA BKN024 BKN033
                        08/05 Q1001 NOSIG=
201803291050 METAR COR EGLL 291050Z AUTO 16015KT 9999 -RA SCT025 BKN029
                        BKN037 08/04 Q1001 TEMPO 6000 SHRA=
201803291020 METAR COR EGLL 291020Z AUTO 15013KT 9999 -RA SCT023 BKN029
                        BKN045 09/04 Q1001 NOSIG=
201803290950 METAR COR EGLL 290950Z AUTO 15011KT 9999 SCT021 BKN043 09/05
                        Q1002 TEMPO 6000 SHRA=
201803290920 METAR COR EGLL 290920Z AUTO 16011KT 9999 NCD 08/04 Q1002
                        TEMPO 6000 SHRA=
201803290850 METAR COR EGLL 290850Z AUTO 16008KT 120V220 9999 BKN042 07/04
                        Q1002 TEMPO 6000 SHRA=
201803290820 METAR COR EGLL 290820Z AUTO 18010KT 140V240 9999 FEW024 SCT031
                        06/04 Q1003 TEMPO 6000 SHRA=
201803290750 METAR COR EGLL 290750Z AUTO 16007KT 140V220 9999 BKN044 05/03
                        Q1003 NOSIG=
201803290720 METAR COR EGLL 290720Z AUTO 17005KT 120V230 9999 FEW031 04/03
                        Q1003 NOSIG=
201803290650 METAR COR EGLL 290650Z AUTO 17007KT 140V230 9999 NCD 02/02
                        Q1003 NOSIG=
201803290620 METAR COR EGLL 290620Z AUTO 18005KT 140V220 9999 NCD 01/01
                        Q1003 NOSIG=
201803290550 METAR COR EGLL 290550Z AUTO 15005KT 080V210 9999 NCD 01/00
                        Q1003 NOSIG=
201803290520 METAR COR EGLL 290520Z AUTO VRB03KT 9999 NCD 01/00 Q1003
                        NOSIG=
201803290450 METAR COR EGLL 290450Z AUTO 17003KT 9999 NCD 01/01 Q1004
                        NOSIG=
201803290420 METAR COR EGLL 290420Z AUTO VRB02KT 9999 NCD 02/01 Q1004
                        NOSIG=
201803290350 METAR COR EGLL 290350Z AUTO VRB02KT 9999 NCD 02/01 Q1004
                        NOSIG=
201803290320 METAR COR EGLL 290320Z AUTO 18002KT 9999 NCD 02/02 Q1004
                        NOSIG=
201803290250 METAR COR EGLL 290250Z AUTO 18004KT 9999 NCD 02/02 Q1004
                        NOSIG=
201803290220 METAR COR EGLL 290220Z AUTO 21005KT 9999 NCD 03/02 Q1004
                        NOSIG=
201803290150 METAR COR EGLL 290150Z AUTO 19004KT 9999 NCD 02/02 Q1005
                        NOSIG=
201803290120 METAR COR EGLL 290120Z AUTO 22005KT 9999 NCD 03/02 Q1005
                        NOSIG=
201803290050 METAR COR EGLL 290050Z AUTO 23004KT 200V270 9999 NCD 03/02
                        Q1005 NOSIG=
201803290020 METAR COR EGLL 290020Z AUTO 26005KT 9999 NCD 03/02 Q1005
                        NOSIG=
201803282350 METAR COR EGLL 282350Z AUTO 27006KT 9999 NCD 03/02 Q1005
                        NOSIG=
201803282320 METAR COR EGLL 282320Z AUTO 27005KT 9999 NCD 04/03 Q1005
                        NOSIG=
201803282250 METAR COR EGLL 282250Z AUTO 26005KT 9999 NCD 04/03 Q1005
                        NOSIG=
201803282220 METAR COR EGLL 282220Z AUTO 24007KT 9999 NCD 04/03 Q1005
                        NOSIG=
201803282150 METAR EGLL 282150Z AUTO 24006KT 9999 NCD 04/03 Q1005=
201803282120 METAR COR EGLL 282120Z AUTO 25007KT 9999 NCD 05/03 Q1005
                        NOSIG=
201803282050 METAR COR EGLL 282050Z AUTO 27006KT 9999 NCD 05/03 Q1005
                        NOSIG=
201803282020 METAR COR EGLL 282020Z AUTO 24006KT 9999 NCD 05/03 Q1005
                        NOSIG=
201803281950 METAR COR EGLL 281950Z AUTO 24007KT 9999 NCD 05/04 Q1004
                        NOSIG=
201803281920 METAR COR EGLL 281920Z AUTO 24006KT 9999 NCD 05/04 Q1004
                        NOSIG=
201803281850 METAR COR EGLL 281850Z AUTO 26007KT 9999 NCD 05/03 Q1004
                        NOSIG=
201803281820 METAR COR EGLL 281820Z AUTO 31004KT 270V010 9999 -RA SCT022
                        BKN037 06/04 Q1004 TEMPO SHRA=
201803281750 METAR COR EGLL 281750Z AUTO 28010KT 9999 //////TCU 06/03
                        Q1004 TEMPO SHRA=
201803281720 METAR COR EGLL 281720Z AUTO 29004KT 9999 //////TCU 06/03
                        Q1003 TEMPO SHRA=
201803281650 METAR COR EGLL 281650Z 32006KT 9999 VCSH SCT026TCU BKN031
                        BKN039 06/03 Q1003 TEMPO SHRA=
201803281620 METAR COR EGLL 281620Z AUTO 29006KT 9999 BKN035 08/03 Q1003
                        TEMPO SHRAGS=
201803281550 METAR COR EGLL 281550Z AUTO 28009KT 9999 FEW038 09/02 Q1003
                        TEMPO SHRA=
201803281520 METAR COR EGLL 281520Z AUTO 30008KT 270V340 9999 FEW026 SCT031
                        09/04 Q1003 TEMPO SHRA=
201803281450 METAR COR EGLL 281450Z AUTO 32008KT 290V350 9999 FEW020 SCT025
                        BKN033 08/04 Q1003 NOSIG=
201803281420 METAR COR EGLL 281420Z AUTO 31008KT 280V350 9999 SCT015 BKN020
                        08/04 Q1003 NOSIG=
201803281350 METAR COR EGLL 281350Z AUTO 32009KT 270V360 9999 BKN014 BKN029
                        06/05 Q1003 BECMG SCT018=
201803281320 METAR COR EGLL 281320Z AUTO 31009KT 9999 -RA BKN012 BKN020
                        OVC033 06/04 Q1003 BECMG SCT015=
201803281250 METAR COR EGLL 281250Z AUTO 29010KT 9999 -RA SCT010 BKN015
                        OVC031 06/05 Q1002 TEMPO BKN012=
201803281220 METAR COR EGLL 281220Z AUTO 29007KT 9999 -RA FEW012 BKN022
                        OVC035 05/04 Q1002 TEMPO BKN012=
201803281150 METAR COR EGLL 281150Z AUTO 30008KT 9999 -RA SCT011 BKN015
                        BKN020 05/04 Q1002 TEMPO BKN011=
201803281120 METAR COR EGLL 281120Z AUTO 28007KT 9999 -RA SCT010/// BKN015///
                        OVC022/// //////CB 05/04 Q1002 BECMG
                        BKN010=
201803281050 METAR COR EGLL 281050Z AUTO 29007KT 9999 -RA BKN010 05/03
                        Q1002 TEMPO RA=
201803281020 METAR COR EGLL 281020Z AUTO 27005KT 9000 -RA OVC012 05/03
                        Q1002 TEMPO RA=
201803280950 METAR COR EGLL 280950Z AUTO VRB03KT 9000 -RA OVC010/// //////TCU
                        05/04 Q1002 TEMPO RA=
201803280920 METAR COR EGLL 280920Z AUTO 07003KT 9999 -RA BKN011/// OVC018///
                        //////TCU 05/04 Q1002 RA=
201803280850 METAR COR EGLL 280850Z AUTO VRB03KT 9999 -RA SCT010/// BKN016///
                        OVC020/// //////TCU 05/04 Q1002 TEMPO
                        RA BKN010=
201803280820 METAR COR EGLL 280820Z AUTO 15004KT 080V240 9999 -RA OVC014///
                        //////TCU 05/04 Q1002 TEMPO RA=
201803280750 METAR COR EGLL 280750Z AUTO 19005KT 160V230 9000 -RA BKN012///
                        OVC024/// //////TCU 05/04 Q1003 TEMPO
                        RA=
201803280720 METAR COR EGLL 280720Z AUTO 17004KT 120V220 9000 -RA SCT014///
                        BKN018/// OVC033/// //////TCU 05/05
                        Q1003 TEMPO RA BKN012=
201803280650 METAR COR EGLL 280650Z AUTO 21006KT 170V240 9999 -RA BKN020///
                        OVC035/// //////TCU 06/05 Q1003 TEMPO
                        RA BKN014=
201803280620 METAR COR EGLL 280620Z AUTO 22006KT 9999 -RA BKN021/// OVC041///
                        //////TCU 06/05 Q1004 TEMPO RA BKN014=
201803280550 METAR COR EGLL 280550Z AUTO 21005KT 170V240 9999 -RA SCT020///
                        BKN024/// BKN029/// //////TCU 06/05
                        Q1004 TEMPO RA BKN014=
201803280520 METAR COR EGLL 280520Z AUTO 18004KT 140V240 9999 -RA BKN033
                        OVC046 06/05 Q1004 TEMPO RA=
201803280450 METAR COR EGLL 280450Z AUTO 23001KT 9999 OVC049 06/05 Q1004
                        TEMPO RA=
201803280420 METAR COR EGLL 280420Z AUTO 26003KT 9999 OVC047 06/05 Q1005
                        NOSIG=
201803280350 METAR COR EGLL 280350Z AUTO 27005KT 9999 OVC049 06/05 Q1005
                        NOSIG=
201803280320 METAR COR EGLL 280320Z AUTO 27005KT 9999 -RA SCT031/// BKN041///
                        //////TCU 06/05 Q1005 NOSIG=
201803280250 METAR COR EGLL 280250Z AUTO 27005KT 9999 -RA SCT036 BKN044
                        06/05 Q1006 NOSIG=
201803280220 METAR COR EGLL 280220Z AUTO 25006KT 9999 -RA NCD 07/05 Q1006
                        NOSIG=
201803280150 METAR COR EGLL 280150Z AUTO 24006KT 9999 FEW049 07/04 Q1006
                        NOSIG=
201803280120 METAR EGLL 280120Z AUTO 25007KT 9999 NCD 07/04 Q1007=
201803280050 METAR COR EGLL 280050Z AUTO 25007KT 9999 NCD 07/04 Q1007
                        NOSIG=
201803280020 METAR COR EGLL 280020Z AUTO 26008KT 9999 NCD 07/05 Q1007
                        NOSIG=
201803272350 METAR COR EGLL 272350Z AUTO 26007KT 9999 NCD 07/05 Q1007
                        NOSIG=
201803272320 METAR COR EGLL 272320Z AUTO 26005KT 9999 NCD 07/05 Q1007
                        NOSIG=
201803272250 METAR COR EGLL 272250Z AUTO 25008KT 9999 NCD 08/05 Q1007
                        NOSIG=
201803272220 METAR COR EGLL 272220Z AUTO 25007KT 9999 NCD 08/05 Q1007
                        NOSIG=
201803272150 METAR COR EGLL 272150Z AUTO 27007KT 9999 NCD 08/05 Q1007
                        NOSIG=
201803272120 METAR COR EGLL 272120Z AUTO 27008KT 9999 NCD 08/04 Q1007
                        NOSIG=
201803272050 METAR COR EGLL 272050Z AUTO 27009KT 9999 NCD 09/03 Q1007
                        NOSIG=
201803272020 METAR COR EGLL 272020Z AUTO 28008KT 9999 NCD 10/03 Q1007
                        NOSIG=
201803271950 METAR COR EGLL 271950Z AUTO 29009KT 9999 NCD 10/03 Q1007
                        NOSIG=
201803271920 METAR COR EGLL 271920Z AUTO 29008KT 9999 NCD 10/04 Q1007
                        NOSIG=
201803271850 METAR COR EGLL 271850Z AUTO 29009KT 250V310 9999 NCD 11/04
                        Q1006 NOSIG=
201803271820 METAR COR EGLL 271820Z AUTO 29008KT 9999 OVC049 11/04 Q1006
                        NOSIG=
201803271750 METAR COR EGLL 271750Z AUTO 30014KT 9999 SCT034 OVC045 12/05
                        Q1006 NOSIG=
201803271720 METAR COR EGLL 271720Z AUTO 29013KT 9999 FEW039 12/05 Q1005
                        NOSIG=
201803271650 METAR COR EGLL 271650Z AUTO 30012KT 9999 BKN034 OVC045 13/07
                        Q1005 NOSIG=
201803271620 METAR COR EGLL 271620Z AUTO 28014KT 260V320 9999 SCT021 BKN027
                        BKN035 13/09 Q1004 NOSIG=
201803271550 METAR COR EGLL 271550Z AUTO 27017KT 9999 FEW021 SCT027 14/10
                        Q1004 NOSIG=
201803271520 METAR COR EGLL 271520Z AUTO 27016KT 9999 FEW022/// SCT029///
                        //////CB 15/10 Q1004 NOSIG=
201803271450 METAR COR EGLL 271450Z AUTO 28012KT 9999 SCT025 SCT034 BKN040
                        15/11 Q1004 NOSIG=
201803271420 METAR COR EGLL 271420Z AUTO 27012KT 9999 FEW028 14/10 Q1004
                        NOSIG=
201803271350 METAR COR EGLL 271350Z AUTO 27012KT 9999 SCT030 SCT038 14/11
                        Q1004 NOSIG=
201803271320 METAR EGLL 271320Z AUTO 29008KT 9999 -RA SCT017 BKN027 BKN033
                        13/11 Q1004=
201803271250 METAR COR EGLL 271250Z AUTO 27012KT 4200 -RA SCT015 SCT020
                        BKN025 13/11 Q1004 BECMG 9999 NSW=
201803271220 METAR COR EGLL 271220Z AUTO 27008KT 240V300 9999 BKN012 BKN017
                        OVC041 13/11 Q1004 BECMG SCT012=
201803271150 METAR COR EGLL 271150Z AUTO 26011KT 9999 SCT009 BKN014 12/10
                        Q1004 BECMG BKN018=
201803271120 METAR COR EGLL 271120Z AUTO 26011KT 9999 BKN008 OVC012 11/10
                        Q1005 BECMG SCT008=
201803271050 METAR COR EGLL 271050Z AUTO 26010KT 9999 BKN006 OVC010 10/09
                        Q1005 NOSIG=
201803271020 METAR COR EGLL 271020Z AUTO 25008KT 9999 OVC006 09/09 Q1005
                        NOSIG=
201803270950 METAR COR EGLL 270950Z AUTO 22006KT 180V260 8000 BKN004 OVC010
                        08/08 Q1005 BECMG BKN008=
201803270920 METAR COR EGLL 270920Z AUTO 21005KT 130V250 9999 BKN004 OVC009
                        08/08 Q1005 TEMPO 4000 -DZ SCT004=
201803270850 METAR COR EGLL 270850Z AUTO 19006KT 130V250 3900 BR BKN004
                        OVC007 07/07 Q1005 TEMPO 5000 BKN005=
201803270820 METAR COR EGLL 270820Z AUTO 17005KT 4100 -DZ BKN006 OVC010
                        07/07 Q1006 TEMPO 5000=
201803270750 METAR COR EGLL 270750Z AUTO 16007KT 6000 -RA BKN007 OVC011
                        06/06 Q1006 TEMPO 4000=
201803270720 METAR COR EGLL 270720Z AUTO 15006KT 4200 -RADZ BKN005 OVC010
                        06/06 Q1007 TEMPO 5000=
201803270650 METAR COR EGLL 270650Z AUTO 15007KT 4400 -DZ SCT004 BKN007
                        OVC011 06/05 Q1007 RERA REDZ TEMPO
                        5000=
201803270620 METAR COR EGLL 270620Z AUTO 16007KT 3200 RADZ OVC005 05/05
                        Q1007 TEMPO 5000 -RADZ BKN004=
201803270550 METAR COR EGLL 270550Z AUTO 16008KT 4000 RA BKN008 OVC014
                        05/05 Q1008 TEMPO 5000 -RA=
201803270520 METAR EGLL 270520Z AUTO 16009KT 6000 -RA BKN010 OVC015 05/04
                        Q1008=
201803270450 METAR COR EGLL 270450Z AUTO 15010KT 9000 -RA BKN021/// OVC038///
                        //////TCU 05/04 Q1009 TEMPO RA BKN012=
201803270420 METAR COR EGLL 270420Z AUTO 15009KT 9999 -RA BKN029 OVC046
                        05/04 Q1009 TEMPO RA BKN012=
201803270350 METAR COR EGLL 270350Z AUTO 16009KT 8000 -RA BKN032 OVC046
                        05/04 Q1010 TEMPO BKN014=
201803270320 METAR COR EGLL 270320Z AUTO 17010KT 9999 -RA BKN036/// //////CB
                        06/04 Q1011 TEMPO RA BKN014=
201803270250 METAR COR EGLL 270250Z AUTO 18009KT 9999 -RA BKN035/// //////TCU
                        06/04 Q1012 TEMPO RA=
201803270220 METAR COR EGLL 270220Z AUTO 20008KT 9999 -RA BKN037/// OVC046///
                        //////TCU 06/03 Q1013 TEMPO RA=
201803270150 METAR COR EGLL 270150Z AUTO 21010KT 9999 -RA BKN040/// //////TCU
                        07/02 Q1013 TEMPO RA=
201803270120 METAR COR EGLL 270120Z AUTO 21008KT 9999 -RA SCT040 BKN046
                        08/02 Q1013 TEMPO RA BKN014=
201803270050 METAR COR EGLL 270050Z AUTO 22008KT 9999 NCD 08/02 Q1014
                        NOSIG=
201803270020 METAR COR EGLL 270020Z AUTO 20005KT 9999 NCD 07/02 Q1014
                        NOSIG=
201803262350 METAR COR EGLL 262350Z AUTO 20006KT 9999 NCD 07/02 Q1014
                        NOSIG=
201803262320 METAR COR EGLL 262320Z AUTO 19006KT 9999 NCD 07/02 Q1015
                        NOSIG=
201803262250 METAR COR EGLL 262250Z AUTO 19005KT 9999 NCD 07/02 Q1015
                        NOSIG=
201803262220 METAR COR EGLL 262220Z AUTO 21005KT 9999 NCD 07/02 Q1016
                        NOSIG=
201803262150 METAR COR EGLL 262150Z AUTO 21005KT 9999 NCD 07/02 Q1016
                        NOSIG=
201803262120 METAR COR EGLL 262120Z AUTO 22005KT 200V270 9999 NCD 08/02
                        Q1016 NOSIG=
201803262050 METAR COR EGLL 262050Z AUTO 22006KT 9999 NCD 08/02 Q1016
                        NOSIG=
201803262020 METAR COR EGLL 262020Z AUTO 23007KT 9999 NCD 09/02 Q1016
                        NOSIG=
201803261950 METAR COR EGLL 261950Z AUTO 22007KT 9999 NCD 09/01 Q1016
                        NOSIG=
201803261920 METAR COR EGLL 261920Z AUTO 23006KT 9999 NCD 10/M01 Q1016
                        NOSIG=
201803261850 METAR COR EGLL 261850Z AUTO 24007KT 9999 NCD 10/M01 Q1016
                        NOSIG=
201803261820 METAR COR EGLL 261820Z AUTO 22008KT 9999 NCD 11/M01 Q1016
                        NOSIG=
201803261750 METAR COR EGLL 261750Z AUTO 23006KT 9999 NCD 11/M01 Q1016
                        NOSIG=
201803261720 METAR COR EGLL 261720Z AUTO 25006KT 9999 NCD 10/M01 Q1017
                        NOSIG=
201803261650 METAR COR EGLL 261650Z AUTO 25008KT 9999 NCD 12/M01 Q1017
                        NOSIG=
201803261620 METAR COR EGLL 261620Z AUTO 24004KT 200V290 9999 NCD 12/M02
                        Q1017 NOSIG=
201803261550 METAR COR EGLL 261550Z AUTO 25008KT 220V300 9999 NCD 12/M01
                        Q1017 NOSIG=
201803261520 METAR COR EGLL 261520Z AUTO 25007KT 220V290 9999 NCD 12/M02
                        Q1017 NOSIG=
201803261450 METAR COR EGLL 261450Z AUTO 25008KT 220V320 9999 NCD 12/M01
                        Q1018 NOSIG=
201803261420 METAR COR EGLL 261420Z AUTO 24010KT 9999 NCD 12/M00 Q1018
                        NOSIG=
201803261350 METAR COR EGLL 261350Z AUTO 28010KT 250V310 9999 NCD 11/00
                        Q1018 NOSIG=
201803261320 METAR COR EGLL 261320Z AUTO 29007KT 9999 NCD 11/M01 Q1018
                        NOSIG=
201803261250 METAR COR EGLL 261250Z AUTO 27007KT 250V310 9999 NCD 11/00
                        Q1018 NOSIG=
201803261220 METAR COR EGLL 261220Z AUTO 31005KT 260V010 9999 BKN047 11/00
                        Q1018 NOSIG=
201803261150 METAR COR EGLL 261150Z AUTO 29005KT 230V330 9999 NCD 11/01
                        Q1018 NOSIG=
201803261120 METAR COR EGLL 261120Z AUTO 27008KT 230V310 9999 NCD 11/01
                        Q1018 NOSIG=
201803261050 METAR COR EGLL 261050Z AUTO 25007KT 210V300 9999 NCD 11/02
                        Q1018 NOSIG=
201803261020 METAR COR EGLL 261020Z AUTO VRB03KT 9999 NCD 11/03 Q1018
                        NOSIG=
201803260950 METAR COR EGLL 260950Z AUTO VRB02KT 9999 NCD 10/02 Q1018
                        NOSIG=
201803260920 METAR COR EGLL 260920Z AUTO VRB02KT 9999 NCD 09/03 Q1019
                        NOSIG=
201803260850 METAR COR EGLL 260850Z AUTO VRB02KT 9999 NCD 08/03 Q1018
                        NOSIG=
201803260820 METAR COR EGLL 260820Z AUTO 30004KT 9999 NCD 07/02 Q1018
                        NOSIG=
201803260750 METAR COR EGLL 260750Z AUTO 29005KT 9999 NCD 07/02 Q1018
                        NOSIG=
201803260720 METAR COR EGLL 260720Z AUTO 29005KT 9999 NCD 06/02 Q1018
                        NOSIG=
201803260650 METAR COR EGLL 260650Z AUTO 29005KT 9999 NCD 06/01 Q1018
                        NOSIG=
201803260620 METAR COR EGLL 260620Z AUTO 30004KT 9999 NCD 06/01 Q1018
                        NOSIG=
201803260550 METAR COR EGLL 260550Z AUTO 29003KT 9999 NCD 06/01 Q1017
                        NOSIG=
201803260520 METAR COR EGLL 260520Z AUTO 30003KT 9999 NCD 06/01 Q1017
                        NOSIG=
201803260450 METAR COR EGLL 260450Z AUTO 30004KT 9999 NCD 06/01 Q1017
                        NOSIG=
201803260420 METAR COR EGLL 260420Z AUTO 31003KT 9999 NCD 06/01 Q1017
                        NOSIG=
201803260350 METAR COR EGLL 260350Z AUTO 30003KT 9999 NCD 06/02 Q1017
                        NOSIG=
201803260320 METAR COR EGLL 260320Z AUTO 29003KT 9999 NCD 06/02 Q1016
                        NOSIG=
201803260250 METAR COR EGLL 260250Z AUTO 29003KT 9999 NCD 06/02 Q1016
                        NOSIG=
201803260220 METAR COR EGLL 260220Z AUTO 28003KT 9999 NCD 07/02 Q1016
                        NOSIG=
201803260150 METAR COR EGLL 260150Z AUTO VRB03KT 9999 NCD 07/02 Q1016
                        NOSIG=
201803260120 METAR COR EGLL 260120Z AUTO 36004KT 9999 NCD 07/02 Q1016
                        NOSIG=
201803260050 METAR COR EGLL 260050Z AUTO VRB02KT 9999 NCD 07/02 Q1016
                        NOSIG=
201803260020 METAR COR EGLL 260020Z AUTO VRB03KT 9999 NCD 06/03 Q1016
                        NOSIG=
201803252350 METAR COR EGLL 252350Z AUTO 31004KT 9000 NCD 06/04 Q1016
                        NOSIG=
201803252320 METAR COR EGLL 252320Z AUTO 31004KT 7000 NCD 05/03 Q1016
                        NOSIG=
201803252250 METAR COR EGLL 252250Z AUTO 31003KT 8000 NCD 05/03 Q1015
                        NOSIG=
201803252220 METAR COR EGLL 252220Z AUTO 32004KT 9000 NCD 06/03 Q1015
                        NOSIG=
201803252150 METAR COR EGLL 252150Z AUTO 33004KT 9999 NCD 07/03 Q1015
                        NOSIG=
201803252120 METAR COR EGLL 252120Z AUTO 30003KT 9999 NCD 07/03 Q1015
                        NOSIG=
201803252050 METAR COR EGLL 252050Z AUTO 31003KT 9999 NCD 09/04 Q1015
                        NOSIG=
201803252020 METAR COR EGLL 252020Z AUTO 32003KT 9999 NCD 09/04 Q1014
                        NOSIG=
201803251950 METAR COR EGLL 251950Z AUTO 31002KT 9999 NCD 11/03 Q1014
                        NOSIG=
201803251920 METAR COR EGLL 251920Z AUTO 36001KT 9999 NCD 10/03 Q1014
                        NOSIG=
201803251850 METAR COR EGLL 251850Z AUTO 01002KT 9999 NCD 11/04 Q1014
                        NOSIG=
201803251820 METAR COR EGLL 251820Z AUTO VRB02KT 9999 NCD 11/04 Q1013
                        NOSIG=
201803251750 METAR COR EGLL 251750Z AUTO VRB03KT 9999 NCD 11/04 Q1013
                        NOSIG=
201803251720 METAR COR EGLL 251720Z AUTO 35004KT 320V020 9999 BKN042 BKN049
                        11/04 Q1013 NOSIG=
201803251650 METAR COR EGLL 251650Z AUTO 36005KT 320V030 9999 BKN042 12/03
                        Q1012 NOSIG=
201803251620 METAR COR EGLL 251620Z AUTO VRB03KT 9999 BKN043 12/03 Q1012
                        NOSIG=
201803251550 METAR COR EGLL 251550Z AUTO VRB02KT 9999 FEW039 12/03 Q1012
                        NOSIG=
201803251520 METAR COR EGLL 251520Z AUTO 05004KT 360V110 9999 FEW035 12/04
                        Q1012 NOSIG=
201803251450 METAR COR EGLL 251450Z AUTO 02004KT 330V080 9999 NCD 12/05
                        Q1012 NOSIG=
201803251420 METAR COR EGLL 251420Z AUTO 36006KT 330V040 9999 FEW030 12/05
                        Q1012 NOSIG=
201803251350 METAR COR EGLL 251350Z AUTO 02005KT 330V060 9999 SCT027 SCT033
                        BKN047 11/05 Q1012 NOSIG=
201803251320 METAR COR EGLL 251320Z AUTO 03006KT 350V060 9999 SCT026 BKN033
                        11/05 Q1012 NOSIG=
201803251250 METAR COR EGLL 251250Z AUTO 02005KT 350V050 9999 SCT026 BKN036
                        BKN046 11/05 Q1012 NOSIG=
201803251220 METAR COR EGLL 251220Z AUTO 03006KT 9999 SCT023 BKN030 BKN037
                        11/06 Q1012 NOSIG=
201803251150 METAR COR EGLL 251150Z AUTO 35006KT 9000 FEW022 SCT028 BKN045
                        10/06 Q1012 NOSIG=
201803251120 METAR COR EGLL 251120Z AUTO 01006KT 340V060 9000 SCT020 BKN039
                        BKN045 10/06 Q1011 NOSIG=
201803251050 METAR COR EGLL 251050Z AUTO 01005KT 310V080 8000 SCT019 BKN023
                        BKN048 10/06 Q1011 NOSIG=
201803251020 METAR COR EGLL 251020Z AUTO 36006KT 330V040 7000 SCT017 BKN022
                        BKN034 10/06 Q1011 NOSIG=
201803250950 METAR COR EGLL 250950Z AUTO 01005KT 330V070 7000 BKN015 09/06
                        Q1011 NOSIG=
201803250920 METAR COR EGLL 250920Z AUTO 36005KT 320V050 5000 HZ BKN012
                        OVC048 09/07 Q1010 BECMG SCT012 BKN048=
201803250850 METAR COR EGLL 250850Z AUTO 01005KT 330V040 5000 HZ BKN009
                        OVC048 08/07 Q1010 BECMG FEW009 SCT014=
201803250820 METAR COR EGLL 250820Z AUTO 02005KT 340V050 4300 HZ BKN009
                        OVC028 08/07 Q1010 BECMG 5000 SCT009
                        BKN028=
201803250750 METAR COR EGLL 250750Z AUTO 03005KT 360V070 3800 HZ BKN008
                        OVC035 08/07 Q1009 BECMG 5000 SCT008
                        BKN035=
201803250720 METAR COR EGLL 250720Z AUTO 04006KT 340V060 3400 HZ BKN008
                        OVC011 08/07 Q1009 TEMPO SCT008 BKN011=
201803250650 METAR COR EGLL 250650Z AUTO 35004KT 310V030 2600 HZ OVC007
                        08/07 Q1008 TEMPO 3000 SCT007 BKN011=
201803250620 METAR COR EGLL 250620Z AUTO 36004KT 320V030 2300 BR OVC005
                        07/07 Q1008 TEMPO 3000=
201803250550 METAR COR EGLL 250550Z AUTO 36006KT 2600 BR BKN006 OVC029
                        07/07 Q1008 TEMPO BKN020=
201803250520 METAR COR EGLL 250520Z AUTO VRB03KT 2500 BR FEW008 BKN026
                        07/06 Q1007 TEMPO BKN008=
201803250450 METAR COR EGLL 250450Z AUTO VRB03KT 2500 HZ FEW008 BKN030
                        07/06 Q1007 TEMPO BKN008=
201803250420 METAR COR EGLL 250420Z AUTO 36004KT 2600 HZ SCT009 BKN026
                        OVC030 07/06 Q1007 TEMPO BKN008=
201803250350 METAR COR EGLL 250350Z AUTO VRB03KT 2600 HZ SCT008 BKN027
                        BKN031 07/06 Q1007 TEMPO BKN008=
201803250320 METAR COR EGLL 250320Z AUTO VRB03KT 2600 HZ BKN008 OVC024
                        07/07 Q1006 NOSIG=
201803250250 METAR COR EGLL 250250Z AUTO VRB02KT 2600 HZ SCT008 BKN012
                        OVC023 07/07 Q1006 NOSIG=
201803250220 METAR COR EGLL 250220Z AUTO VRB03KT 2800 HZ BKN020 OVC027
                        07/07 Q1006 NOSIG=
201803250150 METAR COR EGLL 250150Z AUTO VRB03KT 2700 HZ BKN022 OVC028
                        08/07 Q1006 NOSIG=
201803250120 METAR COR EGLL 250120Z AUTO VRB03KT 3000 HZ BKN022 OVC028
                        08/07 Q1006 NOSIG=
201803250050 METAR COR EGLL 250050Z AUTO 35004KT 330V030 3300 HZ FEW017
                        OVC024 08/07 Q1006 NOSIG=
201803250020 METAR COR EGLL 250020Z AUTO VRB03KT 3200 HZ OVC024 08/07
                        Q1005 NOSIG=
201803242350 METAR COR EGLL 242350Z AUTO 36004KT 3300 HZ BKN024 OVC029
                        07/07 Q1005 NOSIG=
201803242320 METAR COR EGLL 242320Z AUTO 36004KT 3300 HZ BKN020 OVC027
                        08/07 Q1005 NOSIG=
201803242250 METAR COR EGLL 242250Z AUTO 35004KT 3000 HZ BKN018 08/06
                        Q1005 TEMPO BKN014=
201803242220 METAR COR EGLL 242220Z AUTO 35004KT 3200 HZ FEW013 SCT020
                        08/06 Q1005 TEMPO BKN014=
201803242150 METAR COR EGLL 242150Z AUTO VRB03KT 3700 HZ FEW014 08/06
                        Q1005 TEMPO BKN014=
201803242120 METAR COR EGLL 242120Z AUTO 35004KT 3800 HZ SCT026 BKN032
                        08/07 Q1005 TEMPO -DZ BKN012=
201803242050 METAR COR EGLL 242050Z VRB03KT 5000 HZ FEW029 BKN036 08/07
                        Q1004 NOSIG=
201803242020 METAR COR EGLL 242020Z VRB03KT 5000 HZ FEW026 BKN036 08/07
                        Q1004 NOSIG=
201803241950 METAR COR EGLL 241950Z AUTO VRB03KT 5000 HZ FEW030 OVC034
                        08/07 Q1004 NOSIG=
201803241920 METAR COR EGLL 241920Z AUTO VRB03KT 5000 HZ OVC030 09/07
                        Q1004 TEMPO -RADZ BKN008=
201803241850 METAR COR EGLL 241850Z AUTO VRB03KT 6000 BKN025 BKN029 OVC036
                        09/07 Q1004 TEMPO BKN014=
201803241820 METAR COR EGLL 241820Z AUTO VRB03KT 6000 -RA SCT024 BKN029
                        09/06 Q1003 NOSIG=
201803241750 METAR COR EGLL 241750Z AUTO VRB03KT 7000 -RA BKN027 09/06
                        Q1003 NOSIG=
201803241720 METAR COR EGLL 241720Z AUTO 04004KT 7000 FEW018 SCT026 BKN032
                        09/06 Q1003 TEMPO BKN014=
201803241650 METAR COR EGLL 241650Z AUTO 36004KT 330V060 7000 -RA BKN027
                        09/07 Q1002 TEMPO BKN012=
201803241620 METAR EGLL 241620Z AUTO VRB03KT 8000 -RA FEW019 BKN028 OVC037
                        09/06 Q1002=
201803241550 METAR COR EGLL 241550Z AUTO VRB03KT 9000 BKN022 OVC036 10/06
                        Q1002 NOSIG=
201803241520 METAR COR EGLL 241520Z AUTO VRB02KT 9999 BKN024 OVC028 09/06
                        Q1002 NOSIG=
201803241450 METAR COR EGLL 241450Z VRB03KT 9000 SCT019 BKN024 09/06 Q1001
                        NOSIG=
201803241420 METAR COR EGLL 241420Z AUTO 09004KT 8000 SCT016 OVC023 09/06
                        Q1001 NOSIG=
201803241350 METAR COR EGLL 241350Z AUTO VRB03KT 8000 BKN020 OVC027 09/06
                        Q1001 NOSIG=
201803241320 METAR COR EGLL 241320Z AUTO VRB03KT 8000 SCT018 OVC022 09/06
                        Q1001 NOSIG=
201803241250 METAR COR EGLL 241250Z VRB02KT 9000 FEW016 BKN023 09/06 Q1001
                        NOSIG=
201803241220 METAR COR EGLL 241220Z VRB02KT 8000 FEW012 SCT015 BKN019
                        09/06 Q1001 NOSIG=
201803241150 METAR COR EGLL 241150Z AUTO 09004KT 7000 BKN012 OVC017 08/06
                        Q1001 NOSIG=
201803241120 METAR COR EGLL 241120Z AUTO 11006KT 6000 OVC011 08/06 Q1001
                        NOSIG=
201803241050 METAR COR EGLL 241050Z AUTO 14005KT 5000 HZ BKN010 OVC015
                        08/07 Q1001 NOSIG=
201803241020 METAR COR EGLL 241020Z AUTO 10004KT 5000 HZ BKN009 OVC012
                        08/06 Q1001 TEMPO SCT009 BKN012=
201803240950 METAR COR EGLL 240950Z 09004KT 5000 HZ FEW008 BKN012 07/06
                        Q1000 TEMPO 4000 BR=
201803240920 METAR COR EGLL 240920Z 10005KT 4900 BR FEW008 BKN010 07/07
                        Q1000 TEMPO 5000=
201803240850 METAR COR EGLL 240850Z 09005KT 4900 BR SCT007 BKN010 07/07
                        Q1000 BECMG 5000=
201803240820 METAR COR EGLL 240820Z 11004KT 4900 BR BKN007 BKN011 07/07
                        Q1000 TEMPO 5000 SCT007 BKN011=
201803240750 METAR COR EGLL 240750Z 10004KT 4600 -RA BR BKN006 BKN009
                        07/06 Q0999 NOSIG=
201803240720 METAR COR EGLL 240720Z 09007KT 4900 -RADZ BR BKN006 BKN008
                        07/06 Q0999 RERA REDZ TEMPO BKN004=
201803240650 METAR COR EGLL 240650Z AUTO 09006KT 4100 BR BKN006 OVC009
                        07/06 Q0998 TEMPO BKN004=
201803240620 METAR COR EGLL 240620Z AUTO 09006KT 5000 -DZ OVC006/// //////TCU
                        07/06 Q0998 TEMPO 4000 DZ BKN004=
201803240550 METAR COR EGLL 240550Z 10006KT 6000 -RADZ SCT008 BKN010 07/06
                        Q0998 TEMPO BKN008=
201803240520 METAR COR EGLL 240520Z AUTO 09007KT 5000 -RADZ BKN008 OVC014
                        07/06 Q0997 TEMPO 4000 RADZ=
201803240450 METAR COR EGLL 240450Z AUTO 08006KT 6000 -RA SCT007 BKN013
                        OVC019 07/06 Q0997 TEMPO BKN008=
201803240420 METAR COR EGLL 240420Z 08007KT 6000 -RADZ SCT008 BKN012 OVC021
                        07/06 Q0997 TEMPO 4000 RADZ BKN008=
201803240350 METAR COR EGLL 240350Z 11006KT 7000 -RADZ SCT009 BKN014 OVC025
                        07/06 Q0997 TEMPO 4000 RADZ BKN009=
201803240320 METAR COR EGLL 240320Z AUTO 08006KT 5000 -RADZ SCT011 BKN015
                        OVC022 07/06 Q0996 TEMPO 4000 RADZ
                        BKN010=
201803240250 METAR COR EGLL 240250Z AUTO 08005KT 5000 -RA BKN016 OVC023
                        07/07 Q0996 TEMPO 4000 RADZ BKN010=
201803240220 METAR COR EGLL 240220Z AUTO 08005KT 6000 -RA OVC011 07/07
                        Q0996 TEMPO 4000 RADZ=
201803240150 METAR COR EGLL 240150Z AUTO 07004KT 7000 -RA BKN010 OVC043
                        07/06 Q0997 TEMPO 4000 RADZ BKN007=
201803240120 METAR COR EGLL 240120Z AUTO 07005KT 8000 -RA BKN010 BKN015
                        OVC046 07/06 Q0997 TEMPO RADZ BKN007=
201803240050 METAR COR EGLL 240050Z AUTO 08005KT 9999 -RA OVC012 07/06
                        Q0997 TEMPO BKN008=
201803240020 METAR COR EGLL 240020Z AUTO 08005KT 9999 -RA BKN014 OVC031
                        07/05 Q0997 BECMG BKN008=
201803232350 METAR COR EGLL 232350Z AUTO 09004KT 9999 -RA OVC020 07/05
                        Q0997 BECMG BKN012=
201803232320 METAR COR EGLL 232320Z AUTO 12004KT 090V160 9999 -RA BKN025
                        BKN036 BKN047 07/05 Q0997 NOSIG=
201803232250 METAR COR EGLL 232250Z AUTO 18004KT 130V250 9999 -RA BKN035
                        07/05 Q0997 NOSIG=
201803232220 METAR COR EGLL 232220Z AUTO 18005KT 130V250 9999 NCD 08/04
                        Q0997 NOSIG=
201803232150 METAR COR EGLL 232150Z AUTO 17005KT 110V250 9999 NCD 08/05
                        Q0997 NOSIG=
201803232120 METAR COR EGLL 232120Z AUTO 17006KT 130V300 9000 FEW018 07/05
                        Q0997 NOSIG=
201803232050 METAR COR EGLL 232050Z AUTO 16005KT 090V210 9999 FEW020 08/04
                        Q0997 NOSIG=
201803232020 METAR COR EGLL 232020Z AUTO 17008KT 130V210 9999 NCD 08/04
                        Q0997 NOSIG=
201803231950 METAR COR EGLL 231950Z AUTO 17009KT 130V240 9999 NCD 08/04
                        Q0997 NOSIG=
201803231920 METAR COR EGLL 231920Z AUTO 19009KT 150V240 9999 NCD 09/03
                        Q0997 NOSIG=
201803231850 METAR COR EGLL 231850Z AUTO 18011KT 150V230 9999 NCD 09/03
                        Q0997 NOSIG=
201803231820 METAR COR EGLL 231820Z AUTO 18010KT 140V220 9999 NCD 09/02
                        Q0997 NOSIG=
201803231750 METAR COR EGLL 231750Z AUTO 19010KT 160V240 9999 NCD 10/03
                        Q0997 NOSIG=
201803231720 METAR COR EGLL 231720Z AUTO 20011KT 9999 FEW042 BKN049 10/03
                        Q0997 NOSIG=
201803231650 METAR COR EGLL 231650Z AUTO 20012KT 170V240 9999 SCT040 11/04
                        Q0997 NOSIG=
201803231620 METAR COR EGLL 231620Z AUTO 21011KT 170V250 9999 NCD 11/03
                        Q0998 NOSIG=
201803231550 METAR COR EGLL 231550Z AUTO 19012KT 9999 SCT036 SCT043 12/04
                        Q0998 NOSIG=
201803231520 METAR EGLL 231520Z AUTO 24010KT 200V270 9999 BKN046 12/02
                        Q0998=
201803231450 METAR COR EGLL 231450Z AUTO 23008KT 200V260 9999 BKN048 13/02
                        Q0998 NOSIG=
201803231420 METAR COR EGLL 231420Z AUTO 24011KT 9999 SCT041 12/02 Q0999
                        NOSIG=
201803231350 METAR COR EGLL 231350Z AUTO 23009KT 190V250 9999 FEW040 BKN047
                        12/03 Q0999 NOSIG=
201803231320 METAR COR EGLL 231320Z AUTO 23013KT 9999 SCT039 BKN047 12/03
                        Q0999 NOSIG=
201803231250 METAR COR EGLL 231250Z AUTO 26014KT 9999 SCT035 BKN044 12/04
                        Q1000 NOSIG=
201803231220 METAR COR EGLL 231220Z AUTO 24011KT 200V280 9999 FEW036 BKN043
                        12/03 Q1000 NOSIG=
201803231150 METAR COR EGLL 231150Z AUTO 24013KT 9999 OVC035 12/04 Q1000
                        NOSIG=
201803231120 METAR COR EGLL 231120Z AUTO 24014KT 9999 BKN037 BKN045 11/03
                        Q1000 NOSIG=
201803231050 METAR COR EGLL 231050Z AUTO 25015KT 9999 FEW034 SCT041 BKN049
                        11/03 Q1001 NOSIG=
201803231020 METAR COR EGLL 231020Z AUTO 24015KT 9999 BKN031 11/03 Q1001
                        NOSIG=
201803230950 METAR COR EGLL 230950Z AUTO 24014KT 9999 SCT027 10/04 Q1001
                        NOSIG=
201803230920 METAR COR EGLL 230920Z AUTO 24013KT 9999 SCT023 BKN028 BKN035
                        10/05 Q1001 NOSIG=
201803230850 METAR COR EGLL 230850Z AUTO 23011KT 190V250 9999 FEW016 SCT021
                        BKN026 10/06 Q1001 NOSIG=
201803230820 METAR COR EGLL 230820Z AUTO 21010KT 9999 SCT011 BKN015 BKN021
                        09/07 Q1001 NOSIG=
201803230750 METAR COR EGLL 230750Z AUTO 21010KT 9999 FEW010 BKN015 BKN035
                        08/06 Q1002 NOSIG=
201803230720 METAR COR EGLL 230720Z AUTO 22010KT 9999 BKN009 BKN015 07/06
                        Q1002 BECMG FEW009=
201803230650 METAR COR EGLL 230650Z AUTO 21012KT 9999 BKN007 BKN012 OVC022
                        06/06 Q1002 BECMG FEW007=
201803230620 METAR COR EGLL 230620Z AUTO 20014KT 9000 -RA BKN008 OVC023
                        06/05 Q1002 TEMPO 4000 RADZ=
201803230550 METAR COR EGLL 230550Z AUTO 20014KT 5000 -RA SCT009 BKN013
                        OVC020 06/05 Q1003 TEMPO 4000 RADZ
                        BKN008=
201803230520 METAR COR EGLL 230520Z AUTO 20014KT 9999 BKN010 OVC020 06/05
                        Q1003 TEMPO BKN008=
201803230450 METAR COR EGLL 230450Z AUTO 19014KT 9999 BKN011 OVC019 06/04
                        Q1004 TEMPO BKN008=
201803230420 METAR COR EGLL 230420Z AUTO 20015KT 9999 BKN014 OVC049 07/04
                        Q1004 TEMPO BKN008=
201803230350 METAR COR EGLL 230350Z AUTO 20015KT 9999 BKN017 07/03 Q1005
                        BECMG BKN012=
201803230320 METAR COR EGLL 230320Z AUTO 21015KT 9999 BKN019 BKN024 07/03
                        Q1005 BECMG BKN012=
201803230250 METAR COR EGLL 230250Z AUTO 20014KT 9999 BKN020 07/03 Q1006
                        NOSIG=
201803230220 METAR COR EGLL 230220Z AUTO 21015KT 9999 BKN021 OVC026 07/03
                        Q1007 NOSIG=
201803230150 METAR COR EGLL 230150Z AUTO 20013KT 9999 BKN023 BKN035 07/03
                        Q1007 NOSIG=
201803230120 METAR COR EGLL 230120Z AUTO 21012KT 9999 BKN024 OVC029 07/02
                        Q1008 NOSIG=
201803230050 METAR COR EGLL 230050Z AUTO 21011KT 9999 BKN025 OVC032 07/03
                        Q1009 NOSIG=
201803230020 METAR COR EGLL 230020Z AUTO 21011KT 9999 OVC025 07/03 Q1009
                        NOSIG=
201803222350 METAR COR EGLL 222350Z AUTO 20010KT 9999 OVC033 07/02 Q1010
                        NOSIG=
201803222320 METAR COR EGLL 222320Z AUTO 19011KT 9999 OVC035 07/02 Q1010
                        NOSIG=
201803222250 METAR COR EGLL 222250Z AUTO 21010KT 9999 OVC037 07/02 Q1011
                        NOSIG=
201803222220 METAR COR EGLL 222220Z AUTO 20011KT 160V240 9999 OVC037 07/02
                        Q1012 NOSIG=
201803222150 METAR COR EGLL 222150Z AUTO 22009KT 9999 OVC037 07/01 Q1012
                        NOSIG=
201803222120 METAR COR EGLL 222120Z AUTO 22010KT 190V250 9999 OVC033 07/01
                        Q1013 NOSIG=
201803222050 METAR COR EGLL 222050Z AUTO 24011KT 9999 OVC032 08/01 Q1014
                        NOSIG=
201803222020 METAR COR EGLL 222020Z AUTO 24011KT 9999 OVC033 07/01 Q1014
                        NOSIG=
201803221950 METAR COR EGLL 221950Z AUTO 24011KT 9999 OVC032 07/01 Q1015
                        NOSIG=
201803221920 METAR COR EGLL 221920Z AUTO 24012KT 9999 OVC033 08/01 Q1015
                        NOSIG=
201803221850 METAR COR EGLL 221850Z AUTO 24012KT 9999 OVC033 08/00 Q1015
                        NOSIG=
201803221820 METAR COR EGLL 221820Z AUTO 25013KT 9999 OVC034 08/00 Q1015
                        NOSIG=
201803221750 METAR COR EGLL 221750Z AUTO 24014KT 9999 OVC034 08/01 Q1016
                        NOSIG=
201803221720 METAR COR EGLL 221720Z AUTO 26011KT 9999 BKN035 08/01 Q1016
                        NOSIG=
201803221650 METAR COR EGLL 221650Z AUTO 27014KT 9999 OVC035 09/01 Q1016
                        NOSIG=
201803221620 METAR COR EGLL 221620Z AUTO 26015KT 9999 BKN036 09/02 Q1016
                        NOSIG=
201803221550 METAR COR EGLL 221550Z AUTO 25013KT 9999 SCT036 10/01 Q1017
                        NOSIG=
201803221520 METAR COR EGLL 221520Z AUTO 27016KT 9999 BKN035 09/02 Q1017
                        NOSIG=
201803221450 METAR COR EGLL 221450Z AUTO 26013KT 9999 BKN035 09/02 Q1017
                        NOSIG=
201803221420 METAR COR EGLL 221420Z AUTO 25014KT 9999 BKN035 10/02 Q1018
                        NOSIG=
201803221350 METAR EGLL 221350Z AUTO 28010KT 9999 OVC033 11/02 Q1018=
201803221320 METAR COR EGLL 221320Z AUTO 27013KT 9999 BKN029 OVC035 10/02
                        Q1019 NOSIG=
201803221250 METAR COR EGLL 221250Z AUTO 27012KT 9999 BKN022 OVC028 09/04
                        Q1019 NOSIG=
201803221220 METAR COR EGLL 221220Z AUTO 26013KT 9999 OVC020 09/05 Q1020
                        NOSIG=
201803221150 METAR COR EGLL 221150Z AUTO 26012KT 9999 BKN021 OVC027 09/05
                        Q1020 NOSIG=
201803221120 METAR COR EGLL 221120Z AUTO 27011KT 9999 OVC024 10/05 Q1020
                        NOSIG=
201803221050 METAR COR EGLL 221050Z AUTO 28009KT 9999 BKN024 10/04 Q1020
                        NOSIG=
201803221020 METAR COR EGLL 221020Z AUTO 28010KT 250V310 9999 BKN022 11/05
                        Q1021 NOSIG=
201803220950 METAR COR EGLL 220950Z AUTO 27011KT 9999 NCD 10/05 Q1021
                        NOSIG=
201803220920 METAR COR EGLL 220920Z AUTO 27011KT 9999 SCT039 09/05 Q1021
                        NOSIG=
201803220850 METAR COR EGLL 220850Z AUTO 27012KT 9999 BKN038 08/04 Q1022
                        NOSIG=
201803220820 METAR COR EGLL 220820Z AUTO 27010KT 9999 BKN037 07/04 Q1022
                        NOSIG=
201803220750 METAR COR EGLL 220750Z AUTO 26008KT 9999 NCD 06/04 Q1022
                        NOSIG=
201803220720 METAR COR EGLL 220720Z AUTO 24007KT 9999 FEW038 06/03 Q1022
                        NOSIG=
201803220650 METAR COR EGLL 220650Z AUTO 25008KT 9999 BKN038 06/03 Q1022
                        NOSIG=
201803220620 METAR COR EGLL 220620Z AUTO 25009KT 9999 NCD 05/03 Q1022
                        NOSIG=
201803220550 METAR COR EGLL 220550Z AUTO 26007KT 9999 BKN039 05/03 Q1023
                        NOSIG=
201803220520 METAR COR EGLL 220520Z AUTO 26006KT 9999 OVC035 05/03 Q1023
                        NOSIG=
201803220450 METAR COR EGLL 220450Z AUTO 27005KT 9999 OVC033 05/03 Q1023
                        NOSIG=
201803220420 METAR COR EGLL 220420Z AUTO 25007KT 9999 OVC033 05/03 Q1023
                        NOSIG=
201803220350 METAR COR EGLL 220350Z AUTO 25007KT 9999 OVC032 05/02 Q1024
                        NOSIG=
201803220320 METAR COR EGLL 220320Z AUTO 26008KT 9999 OVC032 05/02 Q1024
                        NOSIG=
201803220250 METAR COR EGLL 220250Z AUTO 24004KT 9999 BKN031 05/02 Q1024
                        NOSIG=
201803220220 METAR COR EGLL 220220Z AUTO 25008KT 9999 NCD 05/02 Q1024
                        NOSIG=
201803220150 METAR COR EGLL 220150Z AUTO 26008KT 9999 SCT038 BKN048 05/02
                        Q1025 NOSIG=
201803220120 METAR COR EGLL 220120Z AUTO 26008KT 9999 BKN047 05/02 Q1025
                        NOSIG=
201803220050 METAR COR EGLL 220050Z AUTO 25007KT 9999 SCT043 05/02 Q1025
                        NOSIG=
201803220020 METAR COR EGLL 220020Z AUTO 25008KT 9999 NCD 05/02 Q1025
                        NOSIG=
201803212350 METAR COR EGLL 212350Z AUTO 25008KT 9999 NCD 05/02 Q1026
                        NOSIG=
201803212320 METAR COR EGLL 212320Z AUTO 26008KT 9999 NCD 05/02 Q1026
                        NOSIG=
201803212250 METAR COR EGLL 212250Z AUTO 27009KT 9999 NCD 05/01 Q1026
                        NOSIG=
201803212220 METAR COR EGLL 212220Z AUTO 25011KT 9999 NCD 06/01 Q1026
                        NOSIG=
201803212150 METAR COR EGLL 212150Z AUTO 25010KT 9999 NCD 06/02 Q1027
                        NOSIG=
201803212120 METAR COR EGLL 212120Z AUTO 27010KT 9999 NCD 06/02 Q1027
                        NOSIG=
201803212050 METAR EGLL 212050Z AUTO 28008KT 9999 NCD 07/01 Q1027=
201803212020 METAR COR EGLL 212020Z AUTO 28007KT 9999 FEW041 07/M00 Q1028
                        NOSIG=
201803211950 METAR COR EGLL 211950Z AUTO 29008KT 9999 BKN041 07/01 Q1028
                        NOSIG=
201803211920 METAR COR EGLL 211920Z AUTO 27011KT 9999 OVC039 08/01 Q1028
                        NOSIG=
201803211850 METAR COR EGLL 211850Z AUTO 27010KT 9999 BKN042 OVC049 08/01
                        Q1028 NOSIG=
201803211820 METAR COR EGLL 211820Z AUTO 27011KT 9999 BKN047 08/00 Q1028
                        NOSIG=
201803211750 METAR COR EGLL 211750Z AUTO 27011KT 9999 FEW047 08/M01 Q1028
                        NOSIG=
201803211720 METAR COR EGLL 211720Z AUTO 27015KT 9999 NCD 08/M01 Q1028
                        NOSIG=
201803211650 METAR COR EGLL 211650Z AUTO 27013KT 9999 NCD 09/M03 Q1028
                        NOSIG=
201803211620 METAR COR EGLL 211620Z AUTO 28013KT 9999 NCD 10/M04 Q1029
                        NOSIG=
201803211550 METAR COR EGLL 211550Z AUTO 29012KT 9999 NCD 10/M03 Q1029
                        NOSIG=
201803211520 METAR COR EGLL 211520Z AUTO 27012KT 9999 NCD 11/M02 Q1029
                        NOSIG=
201803211450 METAR COR EGLL 211450Z AUTO 28009KT 240V310 9999 NCD 10/M02
                        Q1029 NOSIG=
201803211420 METAR COR EGLL 211420Z AUTO 27010KT 9999 NCD 10/M01 Q1029
                        NOSIG=
201803211350 METAR COR EGLL 211350Z AUTO 29009KT 9999 NCD 11/M01 Q1030
                        NOSIG=
201803211320 METAR COR EGLL 211320Z AUTO 28009KT 230V310 9999 FEW043 10/M00
                        Q1030 NOSIG=
201803211250 METAR COR EGLL 211250Z AUTO 27012KT 240V300 9999 SCT040 10/M00
                        Q1031 NOSIG=
201803211220 METAR COR EGLL 211220Z AUTO 26011KT 9999 SCT038 10/00 Q1031
                        NOSIG=
201803211150 METAR COR EGLL 211150Z AUTO 27013KT 9999 FEW036 09/00 Q1031
                        NOSIG=
201803211120 METAR COR EGLL 211120Z AUTO 28010KT 9999 SCT031 08/00 Q1032
                        NOSIG=
201803211050 METAR COR EGLL 211050Z AUTO 26008KT 210V300 9999 SCT031 08/01
                        Q1032 NOSIG=
201803211020 METAR COR EGLL 211020Z AUTO 28008KT 9999 NCD 07/01 Q1032
                        NOSIG=
201803210950 METAR COR EGLL 210950Z AUTO 28007KT 240V310 9999 NCD 07/01
                        Q1033 NOSIG=
201803210920 METAR COR EGLL 210920Z AUTO 24005KT 210V290 9999 NCD 05/01
                        Q1033 NOSIG=
201803210850 METAR COR EGLL 210850Z AUTO 24004KT 210V280 7000 NCD 04/01
                        Q1033 NOSIG=
201803210820 METAR COR EGLL 210820Z AUTO 25004KT 210V280 7000 NCD 03/01
                        Q1033 NOSIG=
201803210750 METAR COR EGLL 210750Z AUTO 24004KT 220V280 5000 HZ NCD 02/01
                        Q1033 NOSIG=
201803210720 METAR COR EGLL 210720Z AUTO VRB03KT 4900 HZ NCD 01/00 Q1033
                        BECMG 6000=
201803210650 METAR COR EGLL 210650Z AUTO 28004KT 5000 HZ NCD 00/M01 Q1033
                        TEMPO 4000 BR=
201803210620 METAR COR EGLL 210620Z AUTO VRB03KT 5000 HZ NCD M01/M02 Q1033
                        TEMPO 4000 BR=
201803210550 METAR COR EGLL 210550Z AUTO 28005KT 7000 FEW041 00/M01 Q1033
                        TEMPO 4000 BR=
201803210520 METAR COR EGLL 210520Z AUTO 27005KT 8000 FEW038 M00/M02 Q1033
                        TEMPO 4000 BR=
201803210450 METAR COR EGLL 210450Z AUTO 28003KT 9999 FEW036 00/M01 Q1033
                        NOSIG=
201803210420 METAR COR EGLL 210420Z AUTO 28003KT 9999 FEW033 M01/M02 Q1033
                        NOSIG=
201803210350 METAR COR EGLL 210350Z AUTO 30003KT 9999 NCD M00/M02 Q1033
                        NOSIG=
201803210320 METAR COR EGLL 210320Z AUTO 28002KT 9999 NCD 00/M02 Q1033
                        NOSIG=
201803210250 METAR COR EGLL 210250Z AUTO 29003KT 9999 NCD M00/M02 Q1033
                        NOSIG=
201803210220 METAR COR EGLL 210220Z AUTO 31004KT 9999 NCD 00/M02 Q1033
                        NOSIG=
201803210150 METAR COR EGLL 210150Z AUTO 31004KT 9999 NCD M00/M03 Q1033
                        NOSIG=
201803210120 METAR COR EGLL 210120Z AUTO 31004KT 9999 NCD 01/M02 Q1033
                        NOSIG=
201803210050 METAR COR EGLL 210050Z AUTO 31003KT 9999 NCD 03/M02 Q1033
                        NOSIG=
201803210020 METAR COR EGLL 210020Z AUTO VRB02KT 9999 BKN034 03/M01 Q1033
                        NOSIG=
201803202350 METAR COR EGLL 202350Z AUTO 32003KT 9999 BKN034 03/M02 Q1033
                        NOSIG=
201803202320 METAR EGLL 202320Z AUTO 34002KT 9999 SCT037 03/M02 Q1033=
201803202250 METAR COR EGLL 202250Z AUTO 36002KT 9999 FEW039 03/M02 Q1033
                        NOSIG=
201803202220 METAR COR EGLL 202220Z AUTO VRB02KT 9999 SCT042 04/M02 Q1033
                        NOSIG=
201803202150 METAR COR EGLL 202150Z AUTO VRB03KT 9999 FEW032 BKN041 03/M02
                        Q1033 NOSIG=
201803202120 METAR COR EGLL 202120Z AUTO 01003KT 9999 FEW031 SCT044 04/M02
                        Q1033 NOSIG=
201803202050 METAR COR EGLL 202050Z AUTO 02004KT 340V070 9999 BKN032 BKN045
                        05/M02 Q1033 NOSIG=
201803202020 METAR COR EGLL 202020Z AUTO 36005KT 340V040 9999 SCT038 05/M02
                        Q1033 NOSIG=
201803201950 METAR COR EGLL 201950Z AUTO 01004KT 340V050 9999 OVC046 05/M01
                        Q1032 NOSIG=
201803201920 METAR COR EGLL 201920Z AUTO 01003KT 9999 BKN046 05/M02 Q1032
                        NOSIG=
201803201850 METAR COR EGLL 201850Z AUTO VRB03KT 9999 SCT046 05/M02 Q1032
                        NOSIG=
201803201820 METAR COR EGLL 201820Z AUTO 03006KT 330V060 9999 SCT047 06/M02
                        Q1031 NOSIG=
201803201750 METAR COR EGLL 201750Z AUTO 03006KT 350V060 9999 SCT047 06/M03
                        Q1031 NOSIG=
201803201720 METAR COR EGLL 201720Z AUTO 03008KT 360V060 9999 FEW048 07/M03
                        Q1031 NOSIG=
201803201650 METAR COR EGLL 201650Z AUTO 01009KT 340V050 9999 BKN046 08/M03
                        Q1031 NOSIG=
201803201620 METAR COR EGLL 201620Z AUTO 01008KT 340V050 9999 BKN045 07/M02
                        Q1030 NOSIG=
201803201550 METAR COR EGLL 201550Z AUTO 03008KT 9999 BKN044 08/M02 Q1030
                        NOSIG=
201803201520 METAR COR EGLL 201520Z AUTO 01008KT 340V050 9999 BKN044 08/M02
                        Q1030 NOSIG=
201803201450 METAR COR EGLL 201450Z AUTO 03009KT 350V060 9999 BKN043 08/M02
                        Q1030 NOSIG=
201803201420 METAR COR EGLL 201420Z AUTO 03008KT 330V060 9999 BKN043 08/M02
                        Q1030 NOSIG=
201803201350 METAR COR EGLL 201350Z AUTO 03010KT 340V070 9999 BKN041 08/M02
                        Q1029 NOSIG=
201803201320 METAR EGLL 201320Z AUTO 03009KT 340V060 9999 BKN040 07/M02
                        Q1029=
201803201250 METAR COR EGLL 201250Z AUTO 04010KT 350V070 9999 BKN039 07/M02
                        Q1029 NOSIG=
201803201220 METAR COR EGLL 201220Z AUTO 01011KT 9999 BKN035 BKN041 07/M01
                        Q1029 NOSIG=
201803201150 METAR COR EGLL 201150Z AUTO 01011KT 330V050 9999 BKN031 07/00
                        Q1029 NOSIG=
201803201120 METAR COR EGLL 201120Z AUTO 01011KT 330V060 9999 BKN032 OVC044
                        07/M00 Q1028 NOSIG=
201803201050 METAR COR EGLL 201050Z AUTO 05013G23KT 010V090 9999 BKN035
                        07/M01 Q1028 NOSIG=
201803201020 METAR COR EGLL 201020Z AUTO 03010KT 350V060 9999 BKN031 06/M01
                        Q1028 NOSIG=
201803200950 METAR COR EGLL 200950Z AUTO 03012KT 350V060 9999 BKN027 OVC044
                        06/M00 Q1027 NOSIG=
201803200920 METAR COR EGLL 200920Z AUTO 02010G21KT 350V080 9999 SCT029
                        BKN038 05/01 Q1027 TEMPO BKN012=
201803200850 METAR COR EGLL 200850Z AUTO 01011KT 350V050 9999 BKN018 BKN028
                        05/02 Q102T TEMPO BKN012=
201803200820 METAR COR EGLL 200820Z AUTO 01009KT 330V040 9999 BKN015 04/02
                        Q1026 TEMPO BKN012=
201803200750 METAR COR EGLL 200750Z AUTO 35006KT 300V020 9999 BKN015 04/02
                        Q1026 TEMPO BKN012=
201803200720 METAR COR EGLL 200720Z AUTO 36008KT 320V020 9999 BKN014 OVC028
                        04/02 Q1026 BECMG SCT018=
201803200650 METAR COR EGLL 200650Z AUTO 36007KT 310V030 9999 BKN014 03/01
                        Q1025 TEMPO -SHRA BKN009=
201803200620 METAR COR EGLL 200620Z AUTO 35005KT 300V020 9999 OVC014 03/01
                        Q1025 TEMPO -SHRA BKN009=
201803200550 METAR COR EGLL 200550Z AUTO VRB03KT 9999 BKN014 OVC034 02/01
                        Q1025 TEMPO -SHRA BKN009=
201803200520 METAR COR EGLL 200520Z AUTO 33004KT 300V010 9999 OVC031 02/01
                        Q1025 TEMPO BKN012=
201803200450 METAR COR EGLL 200450Z AUTO 36006KT 330V030 9999 SCT012 BKN030
                        02/01 Q1025 TEMPO BKN012=
201803200420 METAR COR EGLL 200420Z AUTO 36007KT 330V040 9999 -RA BKN017
                        BKN026 BKN034 02/00 Q1024 BECMG BKN012=
201803200350 METAR COR EGLL 200350Z AUTO 36007KT 9999 OVC040 02/M01 Q1024
                        TEMPO -SHRASN BKN012=
201803200320 METAR COR EGLL 200320Z AUTO 36005KT 320V020 9999 BKN042 02/M02
                        Q1024 TEMPO -SHRASN BKN012=
201803200250 METAR COR EGLL 200250Z AUTO 36005KT 9999 OVC040 02/M03 Q1024
                        TEMPO -SHRASN BKN012=
201803200220 METAR COR EGLL 200220Z AUTO VRB03KT 9999 BKN039 01/M03 Q1024
                        TEMPO -SHRASN BKN012=
201803200150 METAR COR EGLL 200150Z AUTO VRB03KT 9999 NCD 01/M03 Q1024
                        TEMPO -RASN BKN012=
201803200120 METAR COR EGLL 200120Z AUTO 01005KT 340V040 9999 BKN034 01/M03
                        Q1023 NOSIG=
201803200050 METAR COR EGLL 200050Z AUTO 02004KT 330V050 9999 BKN034 01/M03
                        Q1023 NOSIG=
201803200020 METAR COR EGLL 200020Z AUTO 04005KT 9999 BKN032 01/M03 Q1023
                        NOSIG=
201803192350 METAR COR EGLL 192350Z AUTO 01006KT 340V060 9999 FEW034 01/M03
                        Q1023 NOSIG=
201803192320 METAR COR EGLL 192320Z AUTO 03007KT 330V060 9999 NCD 01/M03
                        Q1023 NOSIG=
201803192250 METAR COR EGLL 192250Z AUTO 04008KT 360V080 9999 NCD 01/M03
                        Q1022 NOSIG=
201803192220 METAR COR EGLL 192220Z AUTO 05009KT 010V080 9999 NCD 01/M03
                        Q1022 NOSIG=
201803192150 METAR COR EGLL 192150Z AUTO 04008KT 9999 SCT026 01/M03 Q1022
                        NOSIG=
201803192120 METAR COR EGLL 192120Z AUTO 04008KT 9999 BKN024 01/M03 Q1022
                        NOSIG=
201803192050 METAR COR EGLL 192050Z AUTO 04008KT 350V070 9999 SCT026 01/M04
                        Q1021 NOSIG=
201803192020 METAR COR EGLL 192020Z AUTO 04008KT 350V070 9999 NCD 01/M04
                        Q1021 NOSIG=
201803191950 METAR COR EGLL 191950Z AUTO 04009KT 340V070 9999 NCD 01/M04
                        Q1020 NOSIG=
201803191920 METAR COR EGLL 191920Z AUTO 04009KT 360V060 9999 FEW034 02/M05
                        Q1020 NOSIG=
201803191850 METAR COR EGLL 191850Z AUTO 05010KT 010V080 9999 NCD 02/M06
                        Q1019 NOSIG=
201803191820 METAR COR EGLL 191820Z AUTO 05010KT 020V080 9999 NCD 02/M07
                        Q1018 NOSIG=
201803191750 METAR COR EGLL 191750Z AUTO 05012KT 9999 NCD 03/M08 Q1018
                        NOSIG=
201803191720 METAR COR EGLL 191720Z AUTO 05012KT 9999 NCD 03/M07 Q1017
                        NOSIG=
201803191650 METAR COR EGLL 191650Z AUTO 05014KT 010V070 9999 NCD 04/M06
                        Q1017 NOSIG=
201803191620 METAR COR EGLL 191620Z AUTO 04012G22KT 010V070 9999 NCD 04/M06
                        Q1016 NOSIG=
201803191550 METAR COR EGLL 191550Z AUTO 06014G24KT 9999 NCD 04/M06 Q1016
                        NOSIG=
201803191520 METAR COR EGLL 191520Z AUTO 05014KT 9999 FEW046 04/M06 Q1016
                        NOSIG=
201803191450 METAR COR EGLL 191450Z AUTO 05015G26KT 010V070 9999 NCD 04/M06
                        Q1016 NOSIG=
201803191420 METAR COR EGLL 191420Z AUTO 06013KT 9999 NCD 03/M05 Q1015
                        NOSIG=
201803191350 METAR COR EGLL 191350Z AUTO 05014KT 9999 FEW044 03/M05 Q1015
                        NOSIG=
201803191320 METAR COR EGLL 191320Z AUTO 06012KT 9999 SCT040 03/M06 Q1015
                        NOSIG=
201803191250 METAR COR EGLL 191250Z AUTO 05013KT 9999 SCT040 03/M05 Q1015
                        NOSIG=
201803191220 METAR COR EGLL 191220Z AUTO 06014KT 9999 BKN038 02/M06 Q1015
                        NOSIG=
201803191150 METAR COR EGLL 191150Z AUTO 06015KT 9999 BKN037 01/M06 Q1015
                        NOSIG=
201803191120 METAR COR EGLL 191120Z AUTO 07015KT 9999 BKN036 01/M06 Q1015
                        NOSIG=
201803191050 METAR COR EGLL 191050Z AUTO 06014KT 9999 OVC034 01/M06 Q1015
                        NOSIG=
201803191020 METAR COR EGLL 191020Z AUTO 06014G24KT 9999 OVC035 00/M06
                        Q1015 NOSIG=
201803190950 METAR COR EGLL 190950Z AUTO 05013KT 020V080 9999 OVC036 00/M06
                        Q1014 NOSIG=
201803190920 METAR COR EGLL 190920Z AUTO 05014KT 9999 OVC038 00/M06 Q1014
                        NOSIG=
201803190850 METAR COR EGLL 190850Z AUTO 05013KT 9999 BKN039 00/M06 Q1014
                        NOSIG=
201803190820 METAR COR EGLL 190820Z AUTO 05012KT 9999 BKN039 M00/M06 Q1013
                        NOSIG=
201803190750 METAR COR EGLL 190750Z AUTO 05013KT 9999 BKN038 M00/M06 Q1013
                        NOSIG=
201803190720 METAR COR EGLL 190720Z AUTO 04008KT 360V070 9999 OVC039 M00/M06
                        Q1013 NOSIG=
201803190650 METAR COR EGLL 190650Z AUTO 04009KT 9999 OVC039 M00/M05 Q1012
                        NOSIG=
201803190620 METAR COR EGLL 190620Z AUTO 05011G21KT 9999 OVC039 M00/M06
                        Q1012 NOSIG=
201803190550 METAR COR EGLL 190550Z AUTO 05010KT 9999 OVC039 M00/M06 Q1012
                        NOSIG=
201803190520 METAR COR EGLL 190520Z AUTO 05011KT 9999 OVC038 M00/M06 Q1012
                        NOSIG=
201803190450 METAR COR EGLL 190450Z AUTO 05010KT 9999 OVC038 00/M06 Q1012
                        NOSIG=
201803190420 METAR COR EGLL 190420Z AUTO 05010KT 010V070 9999 OVC037 00/M05
                        Q1011 NOSIG=
201803190350 METAR COR EGLL 190350Z AUTO 05009KT 9999 OVC037 00/M05 Q1011
                        NOSIG=
201803190320 METAR COR EGLL 190320Z AUTO 05008KT 020V080 9999 OVC037 00/M05
                        Q1011 NOSIG=
201803190250 METAR COR EGLL 190250Z AUTO 06010KT 9999 OVC036 00/M05 Q1011
                        NOSIG=
201803190220 METAR COR EGLL 190220Z AUTO 05007KT 9999 OVC036 01/M04 Q1011
                        NOSIG=
201803190150 METAR COR EGLL 190150Z AUTO 05007KT 9999 OVC036 01/M04 Q1011
                        NOSIG=
201803190120 METAR COR EGLL 190120Z AUTO 05007KT 9999 OVC035 01/M04 Q1011
                        NOSIG=
201803190050 METAR COR EGLL 190050Z 05006KT 020V090 9999 BKN034 01/M03
                        Q1011 NOSIG=
201803190020 METAR COR EGLL 190020Z AUTO 06008KT 9999 BKN035 01/M03 Q1011
                        NOSIG=
201803182350 METAR COR EGLL 182350Z 06008KT 9999 -SN SCT027 BKN032 01/M03
                        Q1011 NOSIG=
201803182320 METAR COR EGLL 182320Z AUTO 06007KT 9999 FEW025 BKN030 OVC047
                        01/M03 Q1011 NOSIG=
201803182250 METAR COR EGLL 182250Z 06007KT 9999 BKN023 BKN031 M00/M02
                        Q1011 RERA NOSIG=
201803182220 METAR COR EGLL 182220Z AUTO 06006KT 9999 BKN023 BKN029 OVC033
                        M00/M02 Q1011 NOSIG=
201803182150 METAR COR EGLL 182150Z 05005KT 010V070 9999 -SN BKN023 OVC033
                        M01/M02 Q1011 RERA NOSIG=
201803182120 METAR COR EGLL 182120Z AUTO 05005KT 360V070 1300 R09L/P1500
                        R09R/P1500 -SN SCT008 BKN011 BKN017
                        M01/M02 Q1011 TEMPO SN=
201803182050 METAR COR EGLL 182050Z AUTO 05007KT 010V080 3000 -SN BKN030
                        OVC038 M01/M02 Q1011 RESG TEMPO 2500
                        SN BKN014=
201803182020 METAR COR EGLL 182020Z AUTO 05008KT 4900 -SN SCT019 SCT031
                        OVC038 M01/M02 Q1011 2500 BKN014=
201803181950 METAR COR EGLL 181950Z 04008KT 010V080 5000 -SN BKN028 BKN033
                        M01/M02 Q1011 RESG TEMPO 4000 BKN014=
201803181920 METAR COR EGLL 181920Z AUTO 04008KT 3600 -SN SCT011 SCT022
                        BKN028 M02/M02 Q1011 TEMPO BKN011=
201803181850 METAR COR EGLL 181850Z AUTO 04009KT 1900 -SN BKN009 OVC025
                        M02/M02 Q1011 TEMPO 5000 SCT009 BKN014=
201803181820 METAR COR EGLL 181820Z AUTO 04008KT 360V070 1600 -SN BKN007
                        OVC011 M02/M02 Q1011 TEMPO 3000 SCT007
                        BKN011=
201803181750 METAR COR EGLL 181750Z AUTO 05009KT 1900 -SN FEW008 BKN013
                        M02/M02 Q1010 TEMPO BKN010=
201803181720 METAR COR EGLL 181720Z AUTO 05010KT 2400 -SN SCT012 BKN021
                        BKN034 M01/M03 Q1010 TEMPO BKN012=
201803181650 METAR COR EGLL 181650Z AUTO 06013KT 9999 BKN024 M00/M04 Q1010
                        TEMPO 3500 -SN BKN012=
201803181620 METAR COR EGLL 181620Z AUTO 06010KT 340V080 9999 OVC024 M00/M05
                        Q1010 TEMPO -SN BKN014=
201803181550 METAR COR EGLL 181550Z AUTO 06009KT 9999 OVC024 M00/M05 Q1010
                        TEMPO -SHSN BKN014=
201803181520 METAR COR EGLL 181520Z AUTO 06012KT 9999 OVC024 M00/M05 Q1010
                        TEMPO -SHSN BKN014=
201803181450 METAR COR EGLL 181450Z AUTO 06014KT 9999 OVC024 M00/M05 Q1009
                        TEMPO -SHSN BKN014=
201803181420 METAR COR EGLL 181420Z AUTO 06013KT 9999 OVC024 M00/M05 Q1009
                        NOSIG=
201803181350 METAR COR EGLL 181350Z AUTO 06013KT 9999 OVC024 M00/M04 Q1009
                        NOSIG=
201803181320 METAR COR EGLL 181320Z AUTO 06013KT 9999 OVC024 M00/M04 Q1009
                        NOSIG=
201803181250 METAR COR EGLL 181250Z AUTO 06015KT 9999 OVC024 00/M04 Q1009
                        NOSIG=
201803181220 METAR EGLL 181220Z AUTO 06014KT 9999 OVC024 00/M04 Q1009=
201803181150 METAR EGLL 181150Z AUTO 06014KT 9999 OVC024 00/M04 Q1009
                        NOSIG=
201803181120 METAR COR EGLL 181120Z AUTO 07016KT 9999 OVC024 00/M04 Q1009
                        NOSIG=
201803181050 METAR COR EGLL 181050Z AUTO 06016KT 9999 OVC023 00/M04 Q1009
                        NOSIG=
201803181020 METAR COR EGLL 181020Z AUTO 07013KT 9999 OVC024 00/M04 Q1009
                        NOSIG=
201803180950 METAR COR EGLL 180950Z AUTO 07014KT 9999 OVC023 00/M04 Q1009
                        NOSIG=
201803180920 METAR COR EGLL 180920Z AUTO 06013KT 9999 OVC022 00/M03 Q1008
                        NOSIG=
201803180850 METAR COR EGLL 180850Z AUTO 07014KT 9999 OVC022 00/M03 Q1008
                        NOSIG=
201803180820 METAR COR EGLL 180820Z AUTO 07014KT 9999 OVC021 00/M03 Q1008
                        NOSIG=
201803180750 METAR EGLL 180750Z AUTO 08015KT 9999 OVC020 00/M03 Q1007=
201803180720 METAR EGLL 180720Z AUTO 08015KT 9999 OVC021 01/M03 Q1007=
201803180650 METAR COR EGLL 180650Z AUTO 08016KT 9999 OVC020 01/M03 Q1006
                        NOSIG=
201803180620 METAR COR EGLL 180620Z AUTO 07014KT 9999 -RA OVC019 00/M02
                        Q1006 RESG R09L/6/0395 R09R/2/0095
                        NOSIG=
201803180550 METAR COR EGLL 180550Z AUTO 07014KT 9999 -RA OVC017 00/M02
                        Q1005 RERA R09L/6/0395 NOSIG=
201803180520 METAR COR EGLL 180520Z AUTO 08013KT 8000 RA OVC016 M00/M01
                        Q1005 RESG TEMPO 4000 SN BKN014=
201803180450 METAR COR EGLL 180450Z AUTO 07012KT 3200 SG SCT012 OVC017
                        M01/M01 Q1005 TEMPO 2500 SN=
201803180420 METAR COR EGLL 180420Z AUTO 07012KT 2900 SG FEW009 BKN013
                        OVC021 M01/M01 Q1005 R09L/1/0095
                        R09R/1/0095 NOSIG=
201803180350 METAR COR EGLL 180350Z AUTO 06010KT 1500 -SN SCT004 BKN008
                        BKN012 M01/M01 Q1005 TEMPO 3000 SCT008
                        BKN012=
201803180320 METAR COR EGLL 180320Z AUTO 07012KT 1800 -SN BKN005 BKN012
                        OVC022 M01/M01 Q1005 TEMPO SCT005
                        BKN012=
201803180250 METAR COR EGLL 180250Z AUTO 07011KT 1600 -SN SCT005 BKN008
                        BKN013 M01/M02 Q1005 TEMPO SN=
201803180220 METAR COR EGLL 180220Z AUTO 06009KT 1300 -SN BKN006 BKN009
                        OVC016 M01/M02 Q1005 TEMPO SN=
201803180150 METAR COR EGLL 180150Z AUTO 05008KT 2200 -SN SCT006 SCT016
                        BKN021 M01/M02 Q1005 TEMPO 1400 SN
                        BKN006=
201803180120 METAR COR EGLL 180120Z AUTO 05008KT 3400 -SN BKN021 M01/M02
                        Q1005 TEMPO 1400 SN BKN008=
201803180050 METAR EGLL 180050Z AUTO 05008KT 010V080 2300 -SN SCT006 BKN011
                        BKN022 M02/M02 Q1005=
201803180020 METAR COR EGLL 180020Z AUTO 05009KT 2100 -SN SCT006 SCT012
                        BKN018 M02/M02 Q1005 TEMPO SN BKN006=
201803172350 METAR COR EGLL 172350Z AUTO 05011KT 2600 -SN BKN015 OVC022
                        M01/M02 Q1005 RERA TEMPO SN=
201803172320 METAR COR EGLL 172320Z AUTO 06011KT 9999 SG BKN014 BKN021
                        OVC038 M01/M03 Q1005 TEMPO 4000 -SN=
201803172250 METAR COR EGLL 172250Z AUTO 06011KT 9000 -SN BKN013 BKN019
                        OVC033 M01/M02 Q1005 NOSIG=
201803172220 METAR COR EGLL 172220Z AUTO 06010KT 8000 -SN BKN012 OVC028
                        M01/M02 Q1005 4000 SN BKN009=
201803172150 METAR COR EGLL 172150Z AUTO 05010KT 6000 -SN BKN013 OVC017
                        M01/M02 Q1006 TEMPO 4000 SN BKN009=
201803172120 METAR COR EGLL 172120Z AUTO 05010G20KT 3300 -SN BKN013 OVC024
                        M01/M02 Q1006 TEMPO 2500 SN BKN008=
201803172050 METAR COR EGLL 172050Z AUTO 05009KT 6000 -SN BKN013 BKN017
                        OVC034 M01/M02 Q1006 TEMPO 3000 SN
                        BKN008=
201803172020 METAR COR EGLL 172020Z AUTO 05010KT 5000 -SN BKN013 BKN019
                        OVC024 M01/M02 Q1006 TEMPO 3000 SN
                        BKN008=
201803171950 METAR COR EGLL 171950Z AUTO 05010KT 350V070 3300 -SN BKN015
                        BKN022 OVC044 M01/M03 Q1006 TEMPO
                        2000 SN BKN008=
201803171920 METAR COR EGLL 171920Z AUTO 04010G20KT 5000 -SN SCT016 BKN020
                        OVC043 M01/M03 Q1006 TEMPO 4000 BKN014=
201803171850 METAR COR EGLL 171850Z AUTO 05009KT 010V080 5000 -SN SCT018
                        OVC039 M01/M03 Q1006 TEMPO 4000 BKN014=
201803171820 METAR COR EGLL 171820Z AUTO 04011KT 010V070 7000 -SN FEW018
                        OVC037 M01/M03 Q1006 TEMPO 4000 BKN014=
201803171750 METAR COR EGLL 171750Z AUTO 05011KT 020V090 8000 -SN SCT020
                        SCT029 OVC040 M01/M04 Q1006 TEMPO
                        4000 BKN014=
201803171720 METAR COR EGLL 171720Z AUTO 05011KT 6000 -SN BKN020 BKN029
                        OVC046 M01/M03 Q1006 TEMPO 4000 BKN014=
201803171650 METAR COR EGLL 171650Z AUTO 05012KT 010V080 9999 -SN SCT022
                        BKN027 BKN034 M00/M04 Q1006 TEMPO
                        4000 BKN014=
201803171620 METAR COR EGLL 171620Z 05011KT 010V070 9999 -SHSN SCT023
                        BKN030 M00/M04 Q1006 TEMPO 4000 BKN014=
201803171550 METAR COR EGLL 171550Z 06011KT 9999 VCSH SCT019 BKN024 M00/M04
                        Q1006 TEMPO 4000 -SN BKN014=
201803171520 METAR COR EGLL 171520Z 06012KT 9999 VCSH SCT018 BKN025 M00/M04
                        Q1006 TEMPO 4000 -SHSN BKN014=
201803171450 METAR COR EGLL 171450Z 06014G24KT 9999 VCSH BKN023 M00/M04
                        Q1006 TEMPO 4000 -SHSN BKN014=
201803171420 METAR COR EGLL 171420Z 06011G24KT 9999 BKN022 M00/M04 Q1006
                        TEMPO -SN BKN014=
201803171350 METAR COR EGLL 171350Z 06012KT 9999 -SHSN BKN023 M00/M04
                        Q1006 NOSIG=
201803171320 METAR COR EGLL 171320Z 06015G25KT 9999 -SHSN BKN023 00/M03
                        Q1006 NOSIG=
201803171250 METAR COR EGLL 171250Z 06015G26KT 9999 -SHSN BKN023 00/M03
                        Q1007 NOSIG=
201803171220 METAR COR EGLL 171220Z 06014KT 9999 FEW021 BKN025 00/M03
                        Q1007 NOSIG=
201803171150 METAR COR EGLL 171150Z 06015KT 020V080 9999 BKN020 00/M02
                        Q1007 TEMPO -SN BKN012=
201803171120 METAR COR EGLL 171120Z 06017KT 9999 FEW022 BKN030 M00/M02
                        Q1007 TEMPO -SN BKN014=
201803171050 METAR COR EGLL 171050Z 06011KT 9999 BKN020 M00/M01 Q1007
                        RESG TEMPO -SN BKN012=
201803171020 METAR COR EGLL 171020Z AUTO 06014KT 9999 -SN OVC019 M00/M01
                        Q1007 TEMPO BKN012=
201803170950 METAR COR EGLL 170950Z AUTO 06012KT 3700 -SN SCT012 BKN018
                        OVC025 M00/M00 Q1007 TEMPO 2000 SN
                        BKN008=
201803170920 METAR COR EGLL 170920Z AUTO 05014KT 1700 R09R/1300 -SN SCT009
                        BKN013 OVC023 M00/M00 Q1007 TEMPO
                        1200 SN BKN008=
201803170850 METAR EGLL 170850Z AUTO 05011KT 4700 -SN BKN010 OVC029 00/M00
                        Q1007 RESN=
201803170820 METAR COR EGLL 170820Z 05010KT 020V080 3000 SN SCT010 BKN016
                        BKN024 01/M00 Q1007 RESG TEMPO 1400
                        BKN008=
201803170750 METAR COR EGLL 170750Z AUTO 06015KT 8000 SG BKN014 BKN023
                        BKN036 01/M01 Q1007 TEMPO 2000 SN
                        BKN008=
201803170720 METAR COR EGLL 170720Z 05014G26KT 020V090 6000 -RASN SCT011
                        BKN021 01/00 Q1006 TEMPO 4000 RASN
                        BKN009=
201803170650 METAR COR EGLL 170650Z 05010KT 6000 BKN014 BKN020 01/00 Q1006
                        RESG TEMPO 4000 -RASN BKN009=
201803170620 METAR COR EGLL 170620Z AUTO 06015G25KT 9999 BKN014 OVC020
                        02/M00 Q1006 TEMPO 4000 -RASN=
201803170550 METAR COR EGLL 170550Z AUTO 06013KT 030V100 9999 BKN013 OVC018
                        03/00 Q1006 TEMPO 4000 -RASN=
201803170520 METAR COR EGLL 170520Z AUTO 06011KT 9999 OVC012 03/01 Q1006
                        TEMPO 4000 -RASN BKN009=
201803170450 METAR COR EGLL 170450Z AUTO 07014KT 9999 OVC009 03/02 Q1005
                        TEMPO 4000 -RASN=
201803170420 METAR COR EGLL 170420Z AUTO 06013KT 6000 BKN007 OVC012 03/02
                        Q1005 TEMPO 4000 -RASN=
201803170350 METAR COR EGLL 170350Z AUTO 06015KT 6000 OVC006 04/03 Q1005
                        TEMPO SCT006 BKN010=
201803170320 METAR COR EGLL 170320Z AUTO 07010KT 4300 HZ BKN006 OVC013
                        04/04 Q1005 TEMPO 6000=
201803170250 METAR COR EGLL 170250Z AUTO 06013KT 5000 HZ BKN007 OVC017
                        05/04 Q1005 TEMPO 4000 BR=
201803170220 METAR COR EGLL 170220Z AUTO 07013KT 4100 -RA BKN007 OVC012
                        05/04 Q1005 REDZ TEMPO 6000 SCT006
                        BKN012=
201803170150 METAR COR EGLL 170150Z AUTO 07012KT 3400 HZ SCT008 BKN013
                        BKN018 06/05 Q1005 TEMPO 2500 DZ
                        BKN006=
201803170120 METAR COR EGLL 170120Z AUTO 08011KT 7000 BKN010 BKN015 OVC026
                        07/06 Q1005 TEMPO 4000 -DZ BKN008=
201803170050 METAR COR EGLL 170050Z AUTO 07010KT 9000 BKN013 OVC018 07/06
                        Q1004 TEMPO 3000 -RADZ BKN006=
201803170020 METAR EGLL 170020Z AUTO 09014KT 9999 BKN010 OVC015 07/06
                        Q1004=
201803162350 METAR EGLL 162350Z AUTO 09011KT 8000 OVC009 07/06 Q1004=
201803162320 METAR EGLL 162320Z AUTO 08012KT 8000 BKN009 07/06 Q1004=
201803162250 METAR COR EGLL 162250Z AUTO 08009KT 9000 SCT013 SCT030 08/06
                        Q1004 BECMG BKN010=
201803162220 METAR COR EGLL 162220Z AUTO 07006KT 9999 SCT027/// SCT034///
                        BKN041/// //////TCU 08/06 Q1003 TEMPO
                        BKN014=
201803162150 METAR COR EGLL 162150Z AUTO 06003KT 9999 NCD 08/05 Q1003
                        TEMPO BKN014=
201803162120 METAR COR EGLL 162120Z AUTO 08003KT 9999 NCD 08/05 Q1003
                        TEMPO BKN010=
201803162050 METAR COR EGLL 162050Z AUTO 04003KT 9999 NCD 08/05 Q1003
                        NOSIG=
201803162020 METAR COR EGLL 162020Z AUTO 06001KT 9999 FEW033 09/05 Q1003
                        NOSIG=
201803161950 METAR COR EGLL 161950Z AUTO 09002KT 9999 SCT033 SCT049 09/05
                        Q1003 NOSIG=
201803161920 METAR COR EGLL 161920Z AUTO 05003KT 9999 SCT036 SCT047 09/05
                        Q1003 NOSIG=
201803161850 METAR COR EGLL 161850Z 05004KT 9999 FEW035 09/05 Q1002 NOSIG=
201803161820 METAR COR EGLL 161820Z 07003KT 9999 NSC 10/05 Q1002 NOSIG=
201803161750 METAR COR EGLL 161750Z AUTO 09004KT 9999 FEW035/// //////CB
                        10/06 Q1001 NOSIG=
201803161720 METAR COR EGLL 161720Z AUTO 11005KT 9999 BKN037/// BKN046///
                        //////CB 11/06 Q1001 NOSIG=
201803161650 METAR COR EGLL 161650Z AUTO VRB02KT 9999 SCT040 11/07 Q1001
                        NOSIG=
201803161620 METAR COR EGLL 161620Z AUTO 36004KT 9999 FEW049 11/08 Q1000
                        NOSIG=
201803161550 METAR COR EGLL 161550Z AUTO VRB03KT 9999 -RA SCT031/// SCT038///
                        BKN048/// //////CB 11/06 Q1000 NOSIG=
201803161520 METAR COR EGLL 161520Z AUTO 07005KT 040V110 9999 -RA FEW026
                        BKN031 11/07 Q1000 NOSIG=
201803161450 METAR COR EGLL 161450Z AUTO 08007KT 9999 FEW049 13/06 Q1000
                        NOSIG=
201803161420 METAR COR EGLL 161420Z AUTO VRB03KT 9999 FEW033 13/05 Q1000
                        NOSIG=
201803161350 METAR COR EGLL 161350Z AUTO VRB03KT 9999 FEW034/// //////CB
                        13/06 Q1000 NOSIG=
201803161320 METAR COR EGLL 161320Z AUTO 24009KT 9999 FEW032 12/06 Q1000
                        NOSIG=
201803161250 METAR COR EGLL 161250Z AUTO 22006KT 190V260 9999 NCD 12/05
                        Q1000 NOSIG=
201803161220 METAR COR EGLL 161220Z AUTO 18004KT 110V250 9999 SCT040 BKN048
                        10/06 Q1000 NOSIG=
201803161150 METAR COR EGLL 161150Z AUTO 21012KT 170V240 9999 -RA FEW033
                        BKN045 10/06 Q1000 NOSIG=
201803161120 METAR COR EGLL 161120Z AUTO 21006KT 100V260 9999 FEW044 12/05
                        Q0999 NOSIG=
201803161050 METAR COR EGLL 161050Z AUTO 22009KT 190V260 9999 FEW027 12/06
                        Q0999 NOSIG=
201803161020 METAR COR EGLL 161020Z AUTO 23010KT 9999 FEW024 11/07 Q0999
                        NOSIG=
201803160950 METAR COR EGLL 160950Z AUTO 21010KT 180V240 9999 SCT019 BKN024
                        11/06 Q0998 NOSIG=
201803160920 METAR COR EGLL 160920Z AUTO 20010KT 160V240 9999 BKN015 BKN024
                        10/07 Q0998 NOSIG=
201803160850 METAR COR EGLL 160850Z AUTO 19008KT 160V230 9999 BKN013 BKN017
                        09/07 Q0998 NOSIG=
201803160820 METAR COR EGLL 160820Z AUTO 21009KT 180V240 9999 BKN012 09/07
                        Q0997 NOSIG=
201803160750 METAR COR EGLL 160750Z AUTO 21008KT 9999 SCT015 09/07 Q0997
                        NOSIG=
201803160720 METAR COR EGLL 160720Z AUTO 19009KT 170V230 9999 FEW022 08/06
                        Q0996 NOSIG=
201803160650 METAR COR EGLL 160650Z AUTO 19009KT 9999 BKN024 08/07 Q0996
                        NOSIG=
201803160620 METAR COR EGLL 160620Z AUTO 19006KT 160V230 9999 BKN016 08/07
                        Q0995 NOSIG=
201803160550 METAR COR EGLL 160550Z AUTO 19006KT 160V250 9999 SCT017 08/06
                        Q0994 NOSIG=
201803160520 METAR COR EGLL 160520Z AUTO 22006KT 9999 FEW020 SCT024 BKN029
                        08/06 Q0994 NOSIG=
201803160450 METAR COR EGLL 160450Z AUTO 22009KT 190V250 9999 SCT030 SCT048
                        08/06 Q0994 NOSIG=
201803160420 METAR COR EGLL 160420Z AUTO 21010KT 9999 BKN020 09/06 Q0993
                        NOSIG=
201803160350 METAR COR EGLL 160350Z AUTO 21012KT 9999 BKN016 OVC022 09/06
                        Q0993 NOSIG=
201803160320 METAR COR EGLL 160320Z AUTO 20012KT 9999 BKN015 OVC029 09/07
                        Q0992 TEMPO BKN012=
201803160250 METAR COR EGLL 160250Z AUTO 17011KT 9999 BKN013 OVC018 09/07
                        Q0992 NOSIG=
201803160220 METAR COR EGLL 160220Z AUTO 15009KT 9999 BKN014 OVC033 09/08
                        Q0992 NOSIG=
201803160150 METAR COR EGLL 160150Z AUTO 13009KT 9999 BKN012 BKN016 OVC031
                        09/08 Q0992 NOSIG=
201803160120 METAR COR EGLL 160120Z AUTO 13008KT 9999 SCT012 BKN019 OVC040
                        09/08 Q0992 TEMPO BKN014=
201803160050 METAR COR EGLL 160050Z AUTO 12010KT 9999 SCT014 BKN020 BKN032
                        09/08 Q0992 TEMPO BKN014=
201803160020 METAR COR EGLL 160020Z AUTO 13009KT 9999 -RA SCT014 BKN041
                        09/08 Q0991 TEMPP BKN014=
201803152350 METAR COR EGLL 152350Z AUTO 13008KT 9999 BKN013 10/07 Q0991
                        NOSIG=
201803152320 METAR COR EGLL 152320Z AUTO 13007KT 9999 SCT015 BKN039 BKN046
                        10/07 Q0991 NOSIG=
201803152250 METAR COR EGLL 152250Z AUTO 12009KT 9999 FEW019 SCT031 BKN042
                        09/07 Q0991 NOSIG=
201803152220 METAR COR EGLL 152220Z AUTO 11009KT 9999 BKN040 09/07 Q0991
                        NOSIG=
201803152150 METAR COR EGLL 152150Z AUTO 10009KT 9999 SCT045 09/07 Q0991
                        NOSIG=
201803152120 METAR COR EGLL 152120Z AUTO 10008KT 9999 BKN044 10/06 Q0991
                        NOSIG=
201803152050 METAR COR EGLL 152050Z AUTO 10007KT 9999 SCT040 BKN049 10/07
                        Q0991 NOSIG=
201803152020 METAR COR EGLL 152020Z AUTO 10007KT 9999 OVC046 10/07 Q0991
                        NOSIG=
201803151950 METAR COR EGLL 151950Z AUTO 11007KT 9999 BKN047 09/07 Q0991
                        NOSIG=
201803151920 METAR COR EGLL 151920Z AUTO 10006KT 9999 NCD 10/06 Q0991
                        NOSIG=
201803151850 METAR COR EGLL 151850Z AUTO 13006KT 9999 NCD 10/06 Q0990
                        NOSIG=
201803151820 METAR COR EGLL 151820Z AUTO 13007KT 9999 NCD 10/05 Q0990
                        NOSIG=
201803151750 METAR COR EGLL 151750Z AUTO 14006KT 9999 NCD 11/05 Q0990
                        NOSIG=
201803151720 METAR COR EGLL 151720Z AUTO 12007KT 9999 NCD 12/06 Q0989
                        NOSIG=
201803151650 METAR COR EGLL 151650Z AUTO 15008KT 9999 NCD 12/06 Q0989
                        NOSIG=
201803151620 METAR COR EGLL 151620Z AUTO 15010KT 9999 FEW032 13/06 Q0989
                        NOSIG=
201803151550 METAR COR EGLL 151550Z AUTO 15009KT 9999 NCD 12/06 Q0989
                        NOSIG=
201803151520 METAR COR EGLL 151520Z AUTO 16008KT 9999 NCD 13/07 Q0989
                        NOSIG=
201803151450 METAR COR EGLL 151450Z AUTO 15009KT 120V180 9999 NCD 13/08
                        Q0989 NOSIG=
201803151420 METAR COR EGLL 151420Z AUTO 15009KT 9999 OVC046 12/07 Q0989
                        NOSIG=
201803151350 METAR COR EGLL 151350Z AUTO 17007KT 9999 FEW021 BKN041 OVC048
                        12/08 Q0989 NOSIG=
201803151320 METAR COR EGLL 151320Z AUTO 16008KT 120V190 9999 FEW020 SCT028
                        BKN032 11/08 Q0990 NOSIG=
201803151250 METAR EGLL 151250Z AUTO 16008KT 9999 BKN032 11/08 Q0989=
201803151220 METAR COR EGLL 151220Z AUTO 16009KT 9999 -RA SCT016 BKN026
                        BKN030 11/09 Q0989 NOSIG=
201803151150 METAR COR EGLL 151150Z AUTO 16007KT 9999 SCT015 BKN022 BKN028
                        10/09 Q0989 NOSIG=
201803151120 METAR COR EGLL 151120Z AUTO 15008KT 9999 BKN010 BKN020 OVC049
                        10/09 Q0989 NOSIG=
201803151050 METAR COR EGLL 151050Z AUTO 15008KT 9999 SCT009 BKN013 10/09
                        Q0989 TEMPO BKN009=
201803151020 METAR COR EGLL 151020Z AUTO 16008KT 9999 BKN009 BKN015 OVC049
                        10/09 Q0989 TEMPO 4000 -SHRA=
201803150950 METAR EGLL 150950Z AUTO 16007KT 9999 BKN008 BKN012 OVC032
                        10/09 Q0989=
201803150920 METAR COR EGLL 150920Z AUTO 15007KT 9999 FEW006 OVC009 09/09
                        Q0989 REDZ BECMG BKN014=
201803150850 METAR COR EGLL 150850Z AUTO 15007KT 4100 -RADZ SCT006 BKN011
                        OVC039 09/08 Q0989 TEMPO RADZ BKN008=
201803150820 METAR COR EGLL 150820Z AUTO 15008KT 9999 -RA SCT006 BKN011
                        OVC022 09/08 Q0988 NOSIG=
201803150750 METAR COR EGLL 150750Z AUTO 14007KT 9999 -RA BKN010 OVC014
                        09/08 Q0988 TEMPO 4000 RADZ=
201803150720 METAR COR EGLL 150720Z AUTO 15007KT 5000 -RADZ BKN009 BKN014
                        OVC018 09/08 Q0988 TEMPO 4000 RADZ=
201803150650 METAR COR EGLL 150650Z AUTO 15009KT 9000 -RA BKN006 OVC017
                        09/08 Q0988 NOSIG=
201803150620 METAR COR EGLL 150620Z AUTO 15009KT 9999 -RA BKN012 OVC017
                        09/08 Q0987 TEMPO BKN008=
201803150550 METAR COR EGLL 150550Z AUTO 14008KT 9999 -RA BKN013 BKN025
                        OVC043 08/08 Q0987 TEMPO BKN008=
201803150520 METAR COR EGLL 150520Z AUTO 14009KT 9999 -RA SCT014 BKN019
                        BKN026 08/08 Q0987 TEMPO BKN008=
201803150450 METAR COR EGLL 150450Z AUTO 14009KT 8000 -RA BKN012 OVC036
                        08/08 Q0987 TEMPO 4000 RA BKN008=
201803150420 METAR COR EGLL 150420Z AUTO 13010KT 9000 -RA BKN012/// OVC020///
                        //////TCU 08/08 Q0987 TEMPO 4000
                        RA BKN008=
201803150350 METAR COR EGLL 150350Z AUTO 12012KT 8000 -RA BKN013/// OVC022///
                        //////TCU 08/07 Q0987 TEMPO 4000
                        RA=
201803150320 METAR COR EGLL 150320Z AUTO 12015KT 5000 -DZ FEW014 BKN019
                        BKN023 08/07 Q0987 TEMPO 4000 RA=
201803150250 METAR COR EGLL 150250Z AUTO 12015KT 9000 -RA SCT031 BKN044
                        08/07 Q0988 TEMPO RA BKN012=
201803150220 METAR COR EGLL 150220Z AUTO 12016KT 8000 -RA BKN035/// //////TCU
                        08/07 Q0988 TEMPO RA BKN012=
201803150150 METAR COR EGLL 150150Z AUTO 12014KT 9000 -RA BKN037/// //////TCU
                        08/07 Q0989 TEMPO RA BKN012=
201803150120 METAR COR EGLL 150120Z AUTO 12015KT 9999 -RA FEW043 09/06
                        Q0989 TEMPO RA=
201803150050 METAR COR EGLL 150050Z AUTO 13014KT 9999 -RA FEW044/// //////TCU
                        09/06 Q0990 TEMPO RA=
201803150020 METAR EGLL 150020Z AUTO 12012KT 9999 -RA //////TCU 10/05
                        Q0990=
201803142350 METAR COR EGLL 142350Z AUTO 12014KT 9999 //////TCU 10/04
                        Q0991 TEMPO RA=
201803142320 METAR COR EGLL 142320Z AUTO 12012KT 9999 NCD 10/04 Q0991
                        TEMPO RA=
201803142250 METAR COR EGLL 142250Z AUTO 12013KT 9999 NCD 10/04 Q0992
                        TEMPO RA=
201803142220 METAR COR EGLL 142220Z AUTO 11015KT 9999 NCD 10/04 Q0992
                        TEMPO RA=
201803142150 METAR EGLL 142150Z AUTO 11014KT 9999 NCD 10/03 Q0993=
201803142120 METAR COR EGLL 142120Z AUTO 12015KT 9999 NCD 10/03 Q0994
                        NOSIG=
201803142050 METAR COR EGLL 142050Z AUTO 12016KT 9999 NCD 10/03 Q0994
                        NOSIG=
201803142020 METAR COR EGLL 142020Z AUTO 12017KT 9999 NCD 11/03 Q0995
                        NOSIG=
201803141950 METAR COR EGLL 141950Z AUTO 12019KT 9999 NCD 11/03 Q0995
                        NOSIG=
201803141920 METAR COR EGLL 141920Z AUTO 12017KT 9999 NCD 11/04 Q0996
                        NOSIG=
201803141850 METAR COR EGLL 141850Z AUTO 12015KT 9999 NCD 11/04 Q0996
                        NOSIG=
201803141820 METAR COR EGLL 141820Z AUTO 12015KT 9999 NCD 11/04 Q0997
                        NOSIG=
201803141750 METAR COR EGLL 141750Z AUTO 12016KT 9999 NCD 11/04 Q0997
                        NOSIG=
201803141720 METAR COR EGLL 141720Z AUTO 13014KT 9999 NCD 12/04 Q0997
                        NOSIG=
201803141650 METAR COR EGLL 141650Z AUTO 13016KT 9999 NCD 12/04 Q0998
                        NOSIG=
201803141620 METAR COR EGLL 141620Z AUTO 13016KT 9999 NCD 12/04 Q0998
                        NOSIG=
201803141550 METAR COR EGLL 141550Z AUTO 14017KT 9999 NCD 12/04 Q0998
                        NOSIG=
201803141520 METAR COR EGLL 141520Z AUTO 14015KT 9999 NCD 12/04 Q0999
                        NOSIG=
201803141450 METAR COR EGLL 141450Z AUTO 13015KT 9999 NCD 12/05 Q0999
                        NOSIG=
201803141420 METAR COR EGLL 141420Z AUTO 14015KT 9999 NCD 12/04 Q1000
                        NOSIG=
201803141350 METAR COR EGLL 141350Z AUTO 14015KT 9999 NCD 12/05 Q1000
                        NOSIG=
201803141320 METAR COR EGLL 141320Z AUTO 15014KT 9999 FEW039 12/05 Q1001
                        NOSIG=
201803141250 METAR COR EGLL 141250Z AUTO 16015KT 9999 FEW037 12/05 Q1002
                        NOSIG=
201803141220 METAR COR EGLL 141220Z AUTO 17015KT 9999 NCD 13/04 Q1002
                        NOSIG=
201803141150 METAR EGLL 141150Z AUTO 16016KT 9999 FEW048 13/03 Q1003=
201803141120 METAR COR EGLL 141120Z AUTO 16017KT 130V190 9999 SCT046 13/03
                        Q1003 NOSIG=
201803141050 METAR COR EGLL 141050Z AUTO 15015KT 9999 FEW035 12/05 Q1003
                        NOSIG=
201803141020 METAR COR EGLL 141020Z AUTO 15012KT 9999 NCD 11/05 Q1004
                        NOSIG=
201803140950 METAR COR EGLL 140950Z AUTO 15012KT 9999 NCD 10/05 Q1005
                        NOSIG=
201803140920 METAR COR EGLL 140920Z AUTO 15013KT 9999 NCD 09/05 Q1005
                        NOSIG=
201803140850 METAR COR EGLL 140850Z AUTO 15012KT 9999 NCD 08/06 Q1006
                        NOSIG=
201803140820 METAR COR EGLL 140820Z AUTO 13008KT 9999 NCD 08/06 Q1006
                        NOSIG=
201803140750 METAR COR EGLL 140750Z AUTO 13007KT 9999 NCD 06/05 Q1006
                        NOSIG=
201803140720 METAR COR EGLL 140720Z AUTO 15005KT 9000 NCD 05/04 Q1006
                        NOSIG=
201803140650 METAR COR EGLL 140650Z AUTO 13006KT 9000 NCD 04/04 Q1007
                        NOSIG=
201803140620 METAR COR EGLL 140620Z AUTO 11007KT 8000 NCD 03/03 Q1007
                        NOSIG=
201803140550 METAR COR EGLL 140550Z AUTO 14006KT 8000 NCD 04/03 Q1007
                        NOSIG=
201803140520 METAR COR EGLL 140520Z AUTO 12007KT 7000 NCD 03/02 Q1007
                        NOSIG=
201803140450 METAR COR EGLL 140450Z AUTO 13006KT 9999 NCD 03/03 Q1007
                        NOSIG=
201803140420 METAR COR EGLL 140420Z AUTO 12005KT 7000 NCD 02/02 Q1008
                        NOSIG=
201803140350 METAR COR EGLL 140350Z AUTO 13005KT 7000 SCT049 03/03 Q1008
                        TEMPO 4500 BR=
201803140320 METAR COR EGLL 140320Z AUTO 14004KT 7000 NCD 03/02 Q1009
                        NOSIG=
201803140250 METAR COR EGLL 140250Z AUTO 14004KT 9000 NCD 02/02 Q1009
                        TEMPO 3000 MIFG=
201803140220 METAR COR EGLL 140220Z AUTO 14004KT 9999 SCT045 03/02 Q1009
                        NOSIG=
201803140150 METAR COR EGLL 140150Z AUTO 14003KT 9999 NCD 03/02 Q1010
                        NOSIG=
201803140120 METAR COR EGLL 140120Z AUTO 15004KT 9999 NCD 03/02 Q1010
                        NOSIG=
201803140050 METAR COR EGLL 140050Z AUTO 17004KT 9999 NCD 03/02 Q1010
                        NOSIG=
201803140020 METAR COR EGLL 140020Z AUTO 18005KT 9999 NCD 04/02 Q1010
                        NOSIG=
201803132350 METAR COR EGLL 132350Z AUTO 18003KT 9999 NCD 04/02 Q1010
                        NOSIG=
201803132320 METAR COR EGLL 132320Z AUTO 16004KT 9999 NCD 04/02 Q1010
                        NOSIG=
201803132250 METAR COR EGLL 132250Z AUTO 19006KT 9999 FEW042 05/03 Q1010
                        NOSIG=
201803132220 METAR COR EGLL 132220Z AUTO 20006KT 9999 NCD 05/03 Q1010
                        NOSIG=
201803132150 METAR COR EGLL 132150Z AUTO 21006KT 170V240 9999 FEW041 06/03
                        Q1010 NOSIG=
201803132120 METAR COR EGLL 132120Z AUTO 22005KT 180V280 9999 NCD 06/03
                        Q1010 NOSIG=
201803132050 METAR COR EGLL 132050Z AUTO 21007KT 190V250 9999 NCD 07/03
                        Q1010 NOSIG=
201803132020 METAR COR EGLL 132020Z AUTO 20007KT 160V240 9999 NCD 07/03
                        Q1010 NOSIG=
201803131950 METAR COR EGLL 131950Z AUTO 19007KT 160V240 9999 NCD 07/04
                        Q1010 NOSIG=
201803131920 METAR COR EGLL 131920Z AUTO 18007KT 140V230 9999 NCD 08/06
                        Q1010 NOSIG=
201803131850 METAR COR EGLL 131850Z AUTO 16006KT 9999 NCD 08/05 Q1010
                        NOSIG=
201803131820 METAR COR EGLL 131820Z AUTO 18006KT 140V230 9999 NCD 09/05
                        Q1009 NOSIG=
201803131750 METAR COR EGLL 131750Z AUTO 21004KT 160V240 9999 NCD 09/05
                        Q1009 NOSIG=
201803131720 METAR COR EGLL 131720Z AUTO 21005KT 170V240 9999 NCD 11/05
                        Q1009 NOSIG=
201803131650 METAR COR EGLL 131650Z AUTO 23005KT 200V270 9999 NCD 11/05
                        Q1009 NOSIG=
201803131620 METAR COR EGLL 131620Z AUTO 24007KT 9999 NCD 11/05 Q1009
                        NOSIG=
201803131550 METAR COR EGLL 131550Z AUTO 24006KT 9999 BKN044 11/05 Q1009
                        NOSIG=
201803131520 METAR COR EGLL 131520Z AUTO 25005KT 210V280 9999 SCT046 10/05
                        Q1009 NOSIG=
201803131450 METAR COR EGLL 131450Z AUTO 28006KT 9999 FEW035 10/06 Q1009
                        NOSIG=
201803131420 METAR COR EGLL 131420Z AUTO 27007KT 9999 FEW024 SCT045 11/05
                        Q1009 TEMPO SHRA=
201803131350 METAR COR EGLL 131350Z AUTO 28006KT 240V320 9999 FEW024 11/05
                        Q1009 NOSIG=
201803131320 METAR COR EGLL 131320Z AUTO 29005KT 270V330 9999 SCT026 BKN037
                        BKN045 10/06 Q1009 NOSIG=
201803131250 METAR COR EGLL 131250Z AUTO 28008KT 9999 BKN026 OVC041 10/05
                        Q1009 NOSIG=
201803131220 METAR COR EGLL 131220Z AUTO 31005KT 250V020 9999 BKN026 10/05
                        Q1009 NOSIG=
201803131150 METAR COR EGLL 131150Z AUTO 32005KT 260V040 9999 SCT023 SCT029
                        BKN035 11/05 Q1008 NOSIG=
201803131120 METAR COR EGLL 131120Z AUTO 31005KT 270V030 9999 SCT022 BKN029
                        BKN034 10/05 Q1008 NOSIG=
201803131050 METAR COR EGLL 131050Z AUTO 27009KT 9999 FEW025 BKN031 10/06
                        Q1008 NOSIG=
201803131020 METAR COR EGLL 131020Z AUTO 27008KT 9999 FEW019 OVC033 09/06
                        Q1008 NOSIG=
201803130950 METAR COR EGLL 130950Z AUTO 27006KT 240V310 9999 BKN038 09/05
                        Q1007 NOSIG=
201803130920 METAR COR EGLL 130920Z AUTO 29006KT 9999 BKN039 08/06 Q1007
                        NOSIG=
201803130850 METAR COR EGLL 130850Z AUTO 28008KT 9999 FEW014 08/06 Q1007
                        NOSIG=
201803130820 METAR COR EGLL 130820Z AUTO 28006KT 9000 NCD 07/05 Q1006
                        NOSIG=
201803130750 METAR COR EGLL 130750Z AUTO 29007KT 8000 NCD 06/05 Q1006
                        NOSIG=
201803130720 METAR COR EGLL 130720Z AUTO 29005KT 9000 NCD 06/04 Q1005
                        NOSIG=
201803130650 METAR COR EGLL 130650Z AUTO 28005KT 9999 NCD 06/04 Q1005
                        NOSIG=
201803130620 METAR COR EGLL 130620Z AUTO 29004KT 9999 FEW042 06/04 Q1004
                        NOSIG=
201803130550 METAR COR EGLL 130550Z AUTO 30004KT 270V330 9999 FEW013 SCT029
                        BKN043 06/04 Q1004 NOSIG=
201803130520 METAR COR EGLL 130520Z AUTO 30006KT 9999 FEW016 SCT022 BKN032
                        06/04 Q1004 NOSIG=
201803130450 METAR COR EGLL 130450Z AUTO 31006KT 270V340 9999 BKN016 BKN022
                        06/04 Q1003 NOSIG=
201803130420 METAR COR EGLL 130420Z AUTO 32006KT 280V360 9999 SCT015 BKN035
                        06/04 Q1003 NOSIG=
201803130350 METAR COR EGLL 130350Z AUTO 30003KT 9999 BKN013 OVC026 06/05
                        Q1003 BECMG FEW013=
201803130320 METAR COR EGLL 130320Z AUTO 33006KT 300V360 9999 BKN013 OVC021
                        06/05 Q1002 TEMPO FEW013=
201803130250 METAR COR EGLL 130250Z 31007KT 9999 SCT017 BKN022 06/05 Q1001
                        TEMPO BKN014=
201803130220 METAR COR EGLL 130220Z 31008KT 9999 FEW014 BKN019 06/04 Q1001
                        NOSIG=
201803130150 METAR COR EGLL 130150Z 32009KT 290V360 9999 FEW016 BKN028
                        06/04 Q1000 TEMPO BKN014=
201803130120 METAR COR EGLL 130120Z 31007KT 7000 -RA BKN014 06/05 Q1000
                        TEMPO FEW014 BKN020=
201803130050 METAR COR EGLL 130050Z 31008KT 9999 BKN016 06/04 Q1000 TEMPO
                        BKN012=
201803130020 METAR COR EGLL 130020Z 31008KT 9999 BKN022 OVC030 06/04 Q0999
                        TEMPO BKN012=
201803122350 METAR COR EGLL 122350Z AUTO 31009KT 9999 BKN012 OVC020 07/05
                        Q0999 NOSIG=
201803122320 METAR COR EGLL 122320Z 31005KT 9999 BKN014 07/05 Q0998 NOSIG=
201803122250 METAR COR EGLL 122250Z 31008KT 290V030 9999 SCT016 BKN028
                        07/05 Q0998 TEMPO -RA BKN012=
201803122220 METAR COR EGLL 122220Z 32009KT 280V350 9999 SCT013 BKN020
                        07/05 Q0997 TEMPO -RA BKN012=
201803122150 METAR COR EGLL 122150Z 32008KT 8000 -RA BKN011 OVC017 07/06
                        Q0997 TEMPO SCT011=
201803122120 METAR COR EGLL 122120Z AUTO 33005KT 300V020 9000 OVC012 08/06
                        Q0996 TEMPO SCT012 BKN020=
201803122050 METAR COR EGLL 122050Z AUTO 31008KT 9999 BKN014 OVC020 08/05
                        Q0996 TEMPO SCT014=
201803122020 METAR COR EGLL 122020Z AUTO 31010KT 9999 BKN015 OVC029 08/06
                        Q0995 TEMPO BKN012=
201803121950 METAR COR EGLL 121950Z AUTO 30009KT 9999 BKN010 BKN015 OVC036
                        08/06 Q0994 TEMPO SCT010=
201803121920 METAR COR EGLL 121920Z AUTO 30009KT 270V340 9999 BKN012 OVC029
                        08/06 Q0994 TEMPO BKN008=
201803121850 METAR COR EGLL 121850Z AUTO 30010KT 9999 OVC013 09/06 Q0993
                        NOSIG=
201803121820 METAR COR EGLL 121820Z AUTO 30009KT 9999 BKN013/// BKN019///
                        //////TCU 09/07 Q0993 TEMPO SCT013
                        BKN019=
201803121750 METAR COR EGLL 121750Z AUTO 31008KT 9999 BKN015 09/07 Q0992
                        TEMPO SHRA BKN014=
201803121720 METAR COR EGLL 121720Z AUTO 30010KT 9999 BKN014 BKN023 10/08
                        Q0991 NOSIG=
201803121650 METAR COR EGLL 121650Z AUTO 30008KT 9999 -RA SCT010 OVC015
                        10/09 Q0991 TEMPO SHRA=
201803121620 METAR COR EGLL 121620Z AUTO 30008KT 9999 -RA BKN013 BKN022
                        10/08 Q0990 TEMPO SHRA BKN008=
201803121550 METAR COR EGLL 121550Z AUTO 30010KT 9999 SCT019 BKN032 BKN038
                        11/08 Q0990 TEMPO SHRA BKN014=
201803121520 METAR COR EGLL 121520Z AUTO 28008KT 250V310 9999 SCT015 BKN035
                        11/09 Q0989 TEMPO SHRA BKN014=
201803121450 METAR COR EGLL 121450Z AUTO 29009KT 9999 -RA FEW015 SCT031
                        BKN039 10/08 Q0989 TEMPO SHRA BKN014=
201803121420 METAR COR EGLL 121420Z AUTO 29008KT 9999 -RA FEW014 BKN025
                        OVC034 10/08 Q0989 TEMPO SHRA BKN014=
201803121350 METAR COR EGLL 121350Z AUTO 29009KT 9999 -RA SCT016 SCT022
                        BKN027 10/09 Q0988 TEMPO SHRA BKN014=
201803121320 METAR COR EGLL 121320Z 29009KT 9999 5000E -RA FEW008 SCT012
                        BKN016 10/09 Q0988 TEMPO 4000 SHRA
                        BKN012=
201803121250 METAR COR EGLL 121250Z AUTO 29007KT 6000 SCT009/// SCT014///
                        BKN019/// //////TCU 10/09 Q0987 TEMPO
                        SHRA BKN009=
201803121220 METAR COR EGLL 121220Z AUTO 30008KT 4700 -RADZ SCT010///
                        BKN014/// BKN023/// //////TCU 10/09
                        Q0987 TEMPO 6000 SHRA SCT014 BKN030=
201803121150 METAR COR EGLL 121150Z AUTO 31005KT 290V350 9999 SCT009///
                        BKN012/// //////TCU 10/09 Q0987 TEMPO
                        SHRA=
201803121120 METAR COR EGLL 121120Z AUTO 31005KT 280V340 9999 -RA SCT007///
                        BKN011/// OVC015/// //////TCU 10/09
                        Q0987 TEMPO SHRA=
201803121050 METAR COR EGLL 121050Z AUTO 33004KT 9999 -RA FEW006/// BKN015///
                        OVC046/// //////TCU 09/09 Q0986 TEMPO
                        SCT006 BKN012=
201803121020 METAR COR EGLL 121020Z AUTO 36005KT 9999 -RA SCT025/// BKN032///
                        BKN047/// //////TCU 09/09 Q0986 TEMPO
                        BKN012=
201803120950 METAR COR EGLL 120950Z AUTO 36004KT 320V030 6000 -RA FEW027///
                        BKN031/// OVC043/// //////CB 09/08
                        Q0985 TEMPO 4000 SHRA BKN012=
201803120920 METAR COR EGLL 120920Z AUTO 35004KT 9000 -RA FEW029/// BKN034///
                        OVC044/// //////CB 09/08 Q0985 TEMPO
                        4000 SHRA BKN014=
201803120850 METAR COR EGLL 120850Z AUTO 01004KT 340V050 7000 -RA BKN040///
                        //////TCU 09/08 Q0985 TEMPO SHRA=
201803120820 METAR COR EGLL 120820Z AUTO 03003KT 9999 -RA SCT029/// BKN035///
                        BKN044/// //////TCU 09/08 Q0985 TEMPO
                        4000 SHRA BKN012=
201803120750 METAR COR EGLL 120750Z AUTO 05005KT 9999 -RA FEW022 SCT028
                        BKN033 09/08 Q0984 TEMPO 4000 SHRA
                        BKN012=
201803120720 METAR COR EGLL 120720Z AUTO 06005KT 9999 -RA BKN039/// BKN049///
                        //////TCU 09/08 Q0984 TEMPO 4000
                        SHRA BKN012=
201803120650 METAR COR EGLL 120650Z AUTO 06006KT 9999 SCT020/// BKN035///
                        //////TCU 08/08 Q0984 TEMPO 4000
                        SHRA BKN012=
201803120620 METAR COR EGLL 120620Z AUTO 07005KT 9999 -RA SCT021/// SCT027///
                        BKN032/// //////TCU 08/08 Q0984 TEMPO
                        4000 SHRA BKN012=
201803120550 METAR COR EGLL 120550Z AUTO 06006KT 8000 -RA FEW029/// BKN034///
                        OVC045/// //////TCU 08/08 Q0984 TEMPO
                        4000 SHRA=
201803120520 METAR COR EGLL 120520Z AUTO 08006KT 7000 -RA FEW023/// SCT029///
                        BKN037/// //////TCU 09/08 Q0984 TEMPO
                        SHRA=
201803120450 METAR COR EGLL 120450Z AUTO 06008KT 9999 -RA BKN030/// BKN041///
                        OVC049/// //////TCU 09/08 Q0984 TEMPO
                        4000 SHRA=
201803120420 METAR COR EGLL 120420Z AUTO 07005KT 9999 -RA BKN036/// //////TCU
                        08/08 Q0985 TEMPO 4000 SHRA=
201803120350 METAR COR EGLL 120350Z AUTO 09005KT 8000 -RA FEW024 BKN031
                        BKN038 08/08 Q0985 RERA TEMPO 4000
                        SHRA=
201803120320 METAR COR EGLL 120320Z AUTO 09006KT 9999 BKN043 08/08 Q0985
                        NOSIG=
201803120250 METAR COR EGLL 120250Z AUTO 08006KT 9999 -RA BKN037/// //////TCU
                        09/08 Q0985 NOSIG=
201803120220 METAR COR EGLL 120220Z AUTO 08007KT 9999 -RA BKN037 BKN049
                        09/08 Q0985 NOSIG=
201803120150 METAR COR EGLL 120150Z AUTO 09005KT 9999 -RA BKN035 08/08
                        Q0986 NOSIG=
201803120120 METAR COR EGLL 120120Z AUTO 09006KT 9999 SCT040 BKN046 09/08
                        Q0986 NOSIG=
201803120050 METAR COR EGLL 120050Z AUTO 08005KT 9999 -RA BKN034 09/08
                        Q0986 NOSIG=
201803120020 METAR COR EGLL 120020Z AUTO 09006KT 9999 -RA FEW034 BKN044
                        09/08 Q0987 TEMPO RA=
201803112350 METAR COR EGLL 112350Z AUTO 09005KT 9999 -RA FEW013 SCT045
                        08/08 Q0987 TEMPO RA=
201803112320 METAR COR EGLL 112320Z AUTO 08004KT 9999 FEW035 08/08 Q0987
                        TEMPO 4000 RA=
201803112250 METAR COR EGLL 112250Z AUTO 09006KT 7000 FEW019 SCT031 BKN048
                        09/08 Q0987 TEMPO 4000 RA=
201803112220 METAR COR EGLL 112220Z AUTO 09008KT 4700 BR BKN027 09/08
                        Q0987 RERA TEMPO SHRA=
201803112150 METAR COR EGLL 112150Z AUTO 09007KT 4600 -RA SCT047 09/08
                        Q0988 TEMPO RA=
201803112120 METAR COR EGLL 112120Z AUTO 09006KT 4500 BR BKN036 BKN046
                        09/08 Q0988 NOSIG=
201803112050 METAR COR EGLL 112050Z AUTO 08005KT 4700 BR SCT042 09/08
                        Q0987 NOSIG=
201803112020 METAR COR EGLL 112020Z AUTO 08007KT 5000 BR NCD 09/09 Q0987
                        NOSIG=
201803111950 METAR COR EGLL 111950Z AUTO 09007KT 6000 -RA NCD 10/09 Q0988
                        NOSIG=
201803111920 METAR COR EGLL 111920Z AUTO 07006KT 9000 //////CB 10/09 Q0988
                        NOSIG=
201803111850 METAR COR EGLL 111850Z AUTO 12007KT 9999 -RA SCT014/// BKN032///
                        //////CB 10/09 Q0988 RERA NOSIG=
201803111820 METAR COR EGLL 111820Z AUTO 09009KT 9999 SCT027/// BKN038///
                        //////CB 10/09 Q0987 TEMPO +4500
                        SHRA BKN014CB=
201803111750 METAR COR EGLL 111750Z AUTO 08007KT 9999 FEW032/// SCT046///
                        //////CB 11/09 Q0987 TEMPO 4500 +SHRA
                        BKN014CB=
201803111720 METAR COR EGLL 111720Z AUTO 08008KT 9999 -RA SCT028/// SCT038///
                        //////CB 11/09 Q0987 TEMPO SHRA BKN014CB=
201803111650 METAR COR EGLL 111650Z AUTO 08009KT 9999 //////CB 11/09 Q0988
                        TEMPO SHRA BKN014CB=
201803111620 METAR COR EGLL 111620Z AUTO 08009KT 9999 NCD 12/09 Q0988
                        TEMPO SHRA=
201803111550 METAR COR EGLL 111550Z AUTO 08010KT 9999 NCD 12/09 Q0988
                        TEMPO SHRA BKN012=
201803111520 METAR COR EGLL 111520Z AUTO 09010KT 9999 FEW031 SCT040 12/09
                        Q0988 NOSIG=
201803111450 METAR COR EGLL 111450Z AUTO 09010KT 9999 BKN014 BKN021 11/09
                        Q0989 BECMG FEW014=
201803111420 METAR COR EGLL 111420Z AUTO 09011KT 9999 BKN014 BKN020 11/09
                        Q0989 BECMG FEW014=
201803111350 METAR COR EGLL 111350Z AUTO 09011KT 9999 FEW014 SCT021 11/09
                        Q0989 TEMPO BKN012=
201803111320 METAR COR EGLL 111320Z AUTO 08009KT 9999 BKN012 OVC023 10/08
                        Q0989 BECMG SCT012=
201803111250 METAR COR EGLL 111250Z AUTO 09010KT 9999 OVC013 11/09 Q0990
                        NOSIG=
201803111220 METAR COR EGLL 111220Z 09010KT 9999 BKN014 11/09 Q0990 NOSIG=
201803111150 METAR COR EGLL 111150Z AUTO 10010KT 9999 BKN015 OVC022 11/09
                        Q0990 TEMPO BKN012=
201803111120 METAR COR EGLL 111120Z AUTO 11010KT 9999 SCT017 BKN022 OVC033
                        11/08 Q0990 TEMPO BKN012=
201803111050 METAR COR EGLL 111050Z AUTO 10010KT 9999 FEW018 SCT034 11/08
                        Q0990 NOSIG=
201803111020 METAR COR EGLL 111020Z AUTO 10009KT 070V140 9999 FEW020 12/09
                        Q0991 NOSIG=
201803110950 METAR COR EGLL 110950Z AUTO 08007KT 9999 NCD 10/08 Q0991
                        NOSIG=
201803110920 METAR COR EGLL 110920Z AUTO 07004KT 6000 FEW049 09/08 Q0992
                        NOSIG=
201803110850 METAR COR EGLL 110850Z AUTO VRB03KT 6000 BKN048 08/08 Q0992
                        NOSIG=
201803110820 METAR COR EGLL 110820Z AUTO VRB02KT 6000 OVC047 08/08 Q0992
                        NOSIG=
201803110750 METAR COR EGLL 110750Z AUTO VRB02KT 6000 BKN040 07/07 Q0992
                        NOSIG=
201803110720 METAR COR EGLL 110720Z AUTO 04004KT 6000 NCD 07/07 Q0992
                        NOSIG=
201803110650 METAR COR EGLL 110650Z AUTO VRB03KT 5000 BR BKN049 07/07
                        Q0992 NOSIG=
201803110620 METAR COR EGLL 110620Z AUTO VRB02KT 5000 BR SCT046 07/07
                        Q0993 NOSIG=
201803110550 METAR COR EGLL 110550Z AUTO VRB02KT 5000 BR NCD 06/06 Q0993
                        NOSIG=
201803110520 METAR COR EGLL 110520Z AUTO VRB02KT 4300 BR BKN044 06/06
                        Q0993 NOSIG=
201803110450 METAR COR EGLL 110450Z 36002KT 4000 BR NSC 06/06 Q0993 NOSIG=
201803110420 METAR COR EGLL 110420Z 24001KT 3500 BR NSC 06/06 Q0993 NOSIG=
201803110350 METAR COR EGLL 110350Z 03002KT 4200 BR NSC 06/06 Q0994 NOSIG=
201803110320 METAR COR EGLL 110320Z AUTO 21001KT 2500 BR NCD 06/06 Q0994
                        NOSIG=
201803110250 METAR COR EGLL 110250Z AUTO VRB02KT 1900 BR BKN047 06/06
                        Q0994 NOSIG=
201803110220 METAR COR EGLL 110220Z AUTO VRB01KT 1900 BR NCD 06/06 Q0994
                        NOSIG=
201803110150 METAR COR EGLL 110150Z AUTO 21002KT 3600 BR NCD 07/07 Q0995
                        NOSIG=
201803110120 METAR COR EGLL 110120Z AUTO VRB03KT 4400 BR NCD 07/07 Q0995
                        NOSIG=
201803110050 METAR COR EGLL 110050Z AUTO 09005KT 3300 BR NCD 06/06 Q0995
                        TEMPO 2000 BR=
201803110020 METAR COR EGLL 110020Z AUTO 03003KT 4400 BR NCD 06/06 Q0995
                        TEMPO 2000 BR=
201803102350 METAR COR EGLL 102350Z AUTO VRB03KT 4400 BR NCD 07/07 Q0995
                        NOSIG=
201803102320 METAR COR EGLL 102320Z AUTO 16003KT 4100 BR NCD 07/06 Q0996
                        NOSIG=
201803102250 METAR COR EGLL 102250Z AUTO 21004KT 180V250 5000 BR NCD 08/07
                        Q0996 TEMPO 4000=
201803102220 METAR EGLL 102220Z AUTO 22007KT 190V260 5000 BR NCD 08/08
                        Q0997=
201803102150 METAR COR EGLL 102150Z AUTO 22006KT 5000 BR NCD 08/07 Q0997
                        NOSIG=
201803102120 METAR COR EGLL 102120Z AUTO 21008KT 170V250 6000 NCD 08/08
                        Q0997 NOSIG=
201803102050 METAR EGLL 102050Z AUTO 20008KT 180V240 6000 NCD 09/08 Q0997=
201803102020 METAR COR EGLL 102020Z AUTO 19008KT 6000 NCD 09/08 Q0997
                        NOSIG=
201803101950 METAR EGLL 101950Z AUTO 18006KT 150V220 7000 NCD 09/08 Q0996=
201803101920 METAR COR EGLL 101920Z AUTO 22005KT 170V260 8000 NCD 09/08
                        Q0996 NOSIG=
201803101850 METAR COR EGLL 101850Z AUTO 19005KT 150V230 9000 NCD 10/08
                        Q0996 NOSIG=
201803101820 METAR COR EGLL 101820Z AUTO 21008KT 170V240 9000 NCD 11/09
                        Q0996 NOSIG=
201803101750 METAR COR EGLL 101750Z AUTO 21010KT 170V240 9999 FEW022 11/09
                        Q0996 NOSIG=
201803101720 METAR COR EGLL 101720Z AUTO 21011KT 9999 BKN018 12/09 Q0995
                        NOSIG=
201803101650 METAR COR EGLL 101650Z AUTO 22013KT 9999 BKN014 OVC022 12/10
                        Q0995 BECMG FEW014 SCT022=
201803101620 METAR COR EGLL 101620Z AUTO 22012KT 9999 BKN012 OVC021 12/10
                        Q0994 BECMG FEW012 SCT021=
201803101550 METAR COR EGLL 101550Z AUTO 20012KT 9999 BKN011 BKN016 OVC047
                        13/11 Q0994 BECMG FEW011 SCT016=
201803101520 METAR COR EGLL 101520Z AUTO 20013KT 170V240 9999 -RA SCT014
                        BKN018 BKN024 13/11 Q0994 TEMPO BKN014=
201803101450 METAR COR EGLL 101450Z AUTO 19013KT 170V240 9999 SCT014 BKN020
                        BKN030 14/11 Q0994 TEMPO BKN014=
201803101420 METAR COR EGLL 101420Z AUTO 19011KT 150V220 9999 BKN012 BKN021
                        OVC039 14/12 Q0994 NOSIG=
201803101350 METAR COR EGLL 101350Z AUTO 19012KT 9999 -RA BKN011 OVC017
                        13/11 Q0994 TEMPO BKN009=
201803101320 METAR COR EGLL 101320Z AUTO 19012KT 9999 BKN012 OVC019 13/11
                        Q0994 TEMPO -RA BKN009=
201803101250 METAR COR EGLL 101250Z AUTO 19010G20KT 160V220 9999 BKN012
                        13/11 Q0994 TEMPO RA BKN009=
201803101220 METAR COR EGLL 101220Z AUTO 18011KT 9999 BKN011 OVC015 13/11
                        Q0994 TEMPO BKN009=
201803101150 METAR COR EGLL 101150Z AUTO 18011KT 150V210 9999 -RA OVC010
                        12/11 Q0994 TEMPO BKN007=
201803101120 METAR COR EGLL 101120Z AUTO 18011KT 9999 BKN010 12/11 Q0994
                        TEMPO BKN007=
201803101050 METAR COR EGLL 101050Z AUTO 19008G18KT 160V230 9999 BKN010
                        12/11 Q0994 TEMPO SHRA=
201803101020 METAR COR EGLL 101020Z AUTO 20009KT 170V230 9999 BKN012 12/10
                        Q0994 TEMPO SHRA=
201803100950 METAR COR EGLL 100950Z AUTO 19012KT 160V220 9999 -RA BKN013///
                        //////TCU 11/10 Q0994 TEMPO SHRA=
201803100920 METAR COR EGLL 100920Z AUTO 18010KT 150V220 9999 -RA FEW015///
                        //////TCU 12/10 Q0994 TEMPO SHRA
                        BKN014=
201803100850 METAR COR EGLL 100850Z AUTO 18006KT 130V210 9999 -RA NCD
                        11/10 Q0994 TEMPO SHRA BKN014=
201803100820 METAR COR EGLL 100820Z AUTO 16006KT 120V210 9999 NCD 11/10
                        Q0993 TEMPO -SHRA BKN014=
201803100750 METAR COR EGLL 100750Z AUTO 17006KT 110V250 9999 NCD 10/09
                        Q0993 NOSIG=
201803100720 METAR COR EGLL 100720Z AUTO 18008KT 150V230 9999 NCD 10/09
                        Q0993 NOSIG=
201803100650 METAR COR EGLL 100650Z AUTO 16007KT 130V230 9999 NCD 11/09
                        Q0993 NOSIG=
201803100620 METAR COR EGLL 100620Z AUTO 18006KT 140V250 9999 NCD 11/09
                        Q0993 NOSIG=
201803100550 METAR COR EGLL 100550Z AUTO 18005KT 9999 NCD 11/10 Q0993
                        NOSIG=
201803100520 METAR COR EGLL 100520Z AUTO 17006KT 9999 NCD 11/10 Q0993
                        NOSIG=
201803100450 METAR COR EGLL 100450Z AUTO 17008KT 9999 NCD 10/10 Q0993
                        NOSIG=
201803100420 METAR COR EGLL 100420Z AUTO 16006KT 9999 BKN032 BKN044 10/10
                        Q0993 NOSIG=
201803100350 METAR COR EGLL 100350Z AUTO 16005KT 9999 SCT033 10/10 Q0994
                        NOSIG=
201803100320 METAR COR EGLL 100320Z AUTO 15006KT 9999 SCT037/// //////TCU
                        10/10 Q0994 NOSIG=
201803100250 METAR COR EGLL 100250Z AUTO 17006KT 8000 -RA FEW032/// SCT042///
                        //////TCU 11/10 Q0994 NOSIG=
201803100220 METAR COR EGLL 100220Z AUTO 17008KT 9000 -RA FEW011 BKN027
                        11/10 Q0994 NOSIG=
201803100150 METAR COR EGLL 100150Z AUTO 18008KT 9000 BKN019 BKN044 11/10
                        Q0995 NOSIG=
201803100120 METAR COR EGLL 100120Z AUTO 18008KT 5000 -RADZ SCT010 BKN017
                        BKN023 11/10 Q0995 TEMPO BKN010=
201803100050 METAR COR EGLL 100050Z AUTO 19006KT 7000 OVC009 10/10 Q0995
                        TEMPO BKN011=
201803100020 METAR COR EGLL 100020Z 18006KT 7000 BKN009 10/10 Q0995 TEMPO
                        BKN011=
201803092350 METAR COR EGLL 092350Z 19007KT 7000 SCT009 BKN011 10/10 Q0995
                        NOSIG=
201803092320 METAR COR EGLL 092320Z 19008KT 8000 -RA FEW009 BKN011 10/10
                        Q0995 NOSIG=
201803092250 METAR COR EGLL 092250Z 19008KT 7000 SCT007 BKN011 10/10 Q0995
                        TEMPO 4000 -RADZ BKN007=
201803092220 METAR COR EGLL 092220Z 18009KT 6000 -RA SCT006 OVC010 10/10
                        Q0995 TEMPO 4000 RA BKN008=
201803092150 METAR COR EGLL 092150Z 15007KT 3000 -RADZ FEW004 SCT008 BKN011
                        09/09 Q0995 RERA REDZ TEMPO 6000=
201803092120 METAR COR EGLL 092120Z AUTO 13008G18KT 2500 RA SCT004///
                        OVC007/// //////TCU 09/09 Q0996 BECMG
                        6000 -RADZ=
201803092050 METAR COR EGLL 092050Z AUTO 11007KT 3500 RA BKN005/// OVC008///
                        //////TCU 09/09 Q0996 REDZ TEMPO
                        5000 -RADZ OVC008=
201803092020 METAR COR EGLL 092020Z AUTO 12007KT 2300 RA BKN004/// OVC009///
                        //////CB 09/09 Q0996 REDZ TEMPO 5000
                        -RADZ BKN008=
201803091950 METAR COR EGLL 091950Z AUTO 12007KT 2800 -RADZ OVC004 08/08
                        Q0997 RERA TEMPO 5000 BKN006=
201803091920 METAR COR EGLL 091920Z AUTO 10006KT 3300 RA OVC005 08/08
                        Q0997 TEMPO 5000=
201803091850 METAR COR EGLL 091850Z AUTO 09007KT 3600 RA OVC007 08/08
                        Q0997 TEMPO 5000 -RADZ=
201803091820 METAR COR EGLL 091820Z AUTO 09007KT 7000 -RA BKN007 OVC049
                        08/08 Q0998 RERA TEMPO 4000 RADZ=
201803091750 METAR COR EGLL 091750Z AUTO 11006KT 7000 -RA BKN007 OVC010
                        08/08 Q0998 NOSIG=
201803091720 METAR COR EGLL 091720Z AUTO 13007KT 9000 -RA SCT006 BKN009
                        OVC014 08/08 Q0999 TEMPO 4000 RADZ=
201803091650 METAR COR EGLL 091650Z AUTO 11008KT 9999 -RA BKN007 BKN011
                        OVC016 08/08 Q0999 TEMPO 4000 RA=
201803091620 METAR COR EGLL 091620Z AUTO 12009KT 9000 -RA BKN009 OVC017
                        08/07 Q0999 TEMPO 4000 RA=
201803091550 METAR COR EGLL 091550Z AUTO 11007KT 9999 -RA BKN011 OVC017
                        08/08 Q1000 TEMPO 4000 RA BKN008=
201803091520 METAR COR EGLL 091520Z AUTO 12007KT 8000 -RA BKN011 OVC015
                        09/07 Q1000 TEMPO 4000 RA BKN008=
201803091450 METAR COR EGLL 091450Z AUTO 13007KT 9000 -RA BKN012 OVC017
                        09/07 Q1000 TEMPO BKN008=
201803091420 METAR COR EGLL 091420Z AUTO 11006KT 5000 -RA OVC016 08/07
                        Q1001 BECMG BKN012=
201803091350 METAR COR EGLL 091350Z AUTO 12008KT 5000 -RA BKN021 BKN030
                        OVC042 09/06 Q1001 BECMG BKN012=
201803091320 METAR COR EGLL 091320Z AUTO 12010KT 6000 -RA BKN022 09/05
                        Q1001 BECMG BKN012=
201803091250 METAR COR EGLL 091250Z AUTO 12008KT 9999 BKN023 09/05 Q1001
                        BECMG BKN012=
201803091220 METAR COR EGLL 091220Z AUTO 13008KT 9999 BKN024 OVC030 09/04
                        Q1002 BECMG BKN012=
201803091150 METAR COR EGLL 091150Z AUTO 12009KT 9999 BKN032 09/05 Q1002
                        NOSIG=
201803091120 METAR COR EGLL 091120Z AUTO 13007KT 100V160 9999 BKN038 09/05
                        Q1003 NOSIG=
201803091050 METAR COR EGLL 091050Z AUTO 11006KT 9999 FEW046 08/05 Q1003
                        NOSIG=
201803091020 METAR COR EGLL 091020Z AUTO 12005KT 9999 NCD 08/05 Q1003
                        NOSIG=
201803090950 METAR COR EGLL 090950Z AUTO 12003KT 9999 NCD 07/05 Q1003
                        NOSIG=
201803090920 METAR COR EGLL 090920Z AUTO 11004KT 080V150 9999 NCD 06/04
                        Q1003 NOSIG=
201803090850 METAR COR EGLL 090850Z AUTO VRB03KT 9999 NCD 05/04 Q1004
                        NOSIG=
201803090820 METAR COR EGLL 090820Z AUTO 14003KT 9999 NCD 04/03 Q1004
                        NOSIG=
201803090750 METAR COR EGLL 090750Z AUTO VRB03KT 9999 NCD 04/03 Q1004
                        NOSIG=
201803090720 METAR COR EGLL 090720Z AUTO 15004KT 120V190 9999 NCD 03/02
                        Q1004 NOSIG=
201803090650 METAR COR EGLL 090650Z AUTO 18004KT 120V220 9999 NCD 03/02
                        Q1004 NOSIG=
201803090620 METAR COR EGLL 090620Z AUTO 17004KT 120V230 9999 NCD 03/02
                        Q1004 NOSIG=
201803090550 METAR COR EGLL 090550Z AUTO VRB02KT 9999 NCD 03/02 Q1004
                        NOSIG=
201803090520 METAR COR EGLL 090520Z AUTO 19003KT 9999 NCD 03/02 Q1004
                        NOSIG=
201803090450 METAR COR EGLL 090450Z AUTO VRB02KT 9999 NCD 02/02 Q1004
                        NOSIG=
201803090420 METAR COR EGLL 090420Z AUTO 17002KT 9999 NCD 02/01 Q1004
                        NOSIG=
201803090350 METAR COR EGLL 090350Z AUTO 15002KT 9999 NCD 02/01 Q1004
                        NOSIG=
201803090320 METAR COR EGLL 090320Z AUTO 17003KT 9999 NCD 02/01 Q1004
                        NOSIG=
201803090250 METAR COR EGLL 090250Z AUTO 20003KT 9999 NCD 03/01 Q1004
                        NOSIG=
201803090220 METAR COR EGLL 090220Z AUTO VRB01KT 9999 NCD 04/02 Q1004
                        NOSIG=
201803090150 METAR COR EGLL 090150Z AUTO 24005KT 9999 NCD 04/02 Q1003
                        NOSIG=
201803090120 METAR COR EGLL 090120Z AUTO 22006KT 9999 NCD 04/02 Q1003
                        NOSIG=
201803090050 METAR COR EGLL 090050Z AUTO 23008KT 9999 NCD 05/02 Q1003
                        NOSIG=
201803090020 METAR COR EGLL 090020Z AUTO 22009KT 9999 NCD 05/03 Q1003
                        NOSIG=
201803082350 METAR COR EGLL 082350Z AUTO 22008KT 9999 NCD 05/03 Q1003
                        NOSIG=
201803082320 METAR COR EGLL 082320Z AUTO 22007KT 9999 NCD 05/03 Q1003
                        NOSIG=
201803082250 METAR COR EGLL 082250Z AUTO 22009KT 9999 NCD 06/03 Q1003
                        NOSIG=
201803082220 METAR COR EGLL 082220Z AUTO 23010KT 200V260 9999 NCD 06/03
                        Q1002 NOSIG=
201803082150 METAR COR EGLL 082150Z AUTO 24009KT 9999 FEW046 07/03 Q1002
                        NOSIG=
201803082120 METAR COR EGLL 082120Z AUTO 23009KT 190V260 9999 BKN039 07/03
                        Q1002 NOSIG=
201803082050 METAR COR EGLL 082050Z AUTO 23010KT 9999 BKN043 07/02 Q1001
                        NOSIG=
201803082020 METAR COR EGLL 082020Z AUTO 22010KT 9999 BKN047 07/02 Q1001
                        NOSIG=
201803081950 METAR COR EGLL 081950Z AUTO 22010KT 9999 NCD 07/02 Q1001
                        NOSIG=
201803081920 METAR COR EGLL 081920Z AUTO 23009KT 9999 NCD 08/00 Q1000
                        NOSIG=
201803081850 METAR COR EGLL 081850Z AUTO 22008KT 9999 NCD 08/M00 Q1000
                        NOSIG=
201803081820 METAR COR EGLL 081820Z AUTO 24008KT 200V270 9999 NCD 08/M01
                        Q1000 NOSIG=
201803081750 METAR COR EGLL 081750Z AUTO 25010KT 9999 NCD 08/M01 Q0999
                        NOSIG=
201803081720 METAR COR EGLL 081720Z AUTO 26012KT 9999 NCD 09/M01 Q0999
                        NOSIG=
201803081650 METAR COR EGLL 081650Z AUTO 26014KT 9999 NCD 09/M02 Q0999
                        NOSIG=
201803081620 METAR COR EGLL 081620Z AUTO 27015KT 9999 NCD 10/M03 Q0998
                        NOSIG=
201803081550 METAR COR EGLL 081550Z AUTO 28013KT 9999 NCD 10/M01 Q0998
                        NOSIG=
201803081520 METAR COR EGLL 081520Z AUTO 26019KT 9999 SCT049 10/M00 Q0998
                        NOSIG=
201803081450 METAR COR EGLL 081450Z AUTO 26017G28KT 9999 FEW046 10/M00
                        Q0997 NOSIG=
201803081420 METAR COR EGLL 081420Z AUTO 28019KT 9999 SCT047 10/M01 Q0997
                        NOSIG=
201803081350 METAR COR EGLL 081350Z AUTO 27020KT 9999 BKN047 10/M01 Q0997
                        NOSIG=
201803081320 METAR COR EGLL 081320Z AUTO 27018G30KT 9999 SCT040 BKN049
                        08/M00 Q0996 NOSIG=
201803081250 METAR COR EGLL 081250Z AUTO 27019KT 9999 FEW040 BKN047 08/01
                        Q0996 NOSIG=
201803081220 METAR COR EGLL 081220Z AUTO 27020KT 9999 SCT034 OVC042 08/01
                        Q0996 NOSIG=
201803081150 METAR COR EGLL 081150Z AUTO 26020KT 9999 SCT033 BKN039 08/01
                        Q0995 NOSIG=
201803081120 METAR COR EGLL 081120Z AUTO 25024KT 9999 BKN032 BKN046 08/02
                        Q0995 NOSIG=
201803081050 METAR COR EGLL 081050Z AUTO 26021KT 9999 SCT029 BKN033 BKN042
                        07/02 Q0994 NOSIG=
201803081020 METAR COR EGLL 081020Z AUTO 25022KT 9999 FEW027 BKN031 07/02
                        Q0994 NOSIG=
201803080950 METAR COR EGLL 080950Z AUTO 25018KT 9999 BKN028 07/02 Q0994
                        NOSIG=
201803080920 METAR COR EGLL 080920Z AUTO 24016KT 9999 BKN026 07/02 Q0993
                        NOSIG=
201803080850 METAR COR EGLL 080850Z AUTO 24016G26KT 9999 FEW026 06/02
                        Q0993 NOSIG=
201803080820 METAR COR EGLL 080820Z AUTO 23014KT 9999 NCD 06/02 Q0993
                        NOSIG=
201803080750 METAR COR EGLL 080750Z AUTO 23012KT 9999 NCD 06/03 Q0993
                        NOSIG=
201803080720 METAR COR EGLL 080720Z AUTO 23013KT 9999 FEW028 06/03 Q0993
                        NOSIG=
201803080650 METAR COR EGLL 080650Z AUTO 24013KT 9999 NCD 06/03 Q0992
                        NOSIG=
201803080620 METAR COR EGLL 080620Z AUTO 24011KT 9999 FEW021 06/04 Q0992
                        NOSIG=
201803080550 METAR COR EGLL 080550Z AUTO 22011KT 9999 FEW016 SCT032 06/05
                        Q0992 NOSIG=
201803080520 METAR COR EGLL 080520Z AUTO 22016G27KT 9999 -RA SCT017 SCT025
                        BKN040 07/06 Q0992 NOSIG=
201803080450 METAR COR EGLL 080450Z AUTO 19013G25KT 9999 SCT016/// BKN022///
                        //////TCU 06/06 Q0992 NOSIG=
201803080420 METAR COR EGLL 080420Z AUTO 16009KT 9999 -RA SCT024/// BKN031///
                        BKN039/// //////TCU 05/05 Q0992 TEMPO
                        BKN014=
201803080350 METAR COR EGLL 080350Z AUTO 15007KT 9999 -RA SCT016/// BKN038///
                        //////TCU 05/04 Q0993 TEMPO RA=
201803080320 METAR COR EGLL 080320Z AUTO 17006KT 9999 -RA SCT017/// BKN025///
                        BKN035/// //////TCU 05/04 Q0994 TEMPO
                        RA=
201803080250 METAR COR EGLL 080250Z AUTO 16009KT 9999 FEW035/// //////TCU
                        05/04 Q0994 TEMPO RA=
201803080220 METAR COR EGLL 080220Z AUTO 16007KT 9999 SCT029/// BKN040///
                        //////TCU 04/04 Q0995 TEMPO RA=
201803080150 METAR COR EGLL 080150Z AUTO 17007KT 9999 FEW021 SCT036 04/03
                        Q0995 TEMPO RA=
201803080120 METAR COR EGLL 080120Z AUTO 17009KT 9999 -RA SCT033 BKN039
                        BKN047 05/04 Q0996 TEMPO RA=
201803080050 METAR COR EGLL 080050Z AUTO 20011KT 9999 -RA BKN029 BKN043
                        05/04 Q0996 TEMPO SHRA=
201803080020 METAR COR EGLL 080020Z AUTO 19010KT 9999 -RA FEW040/// SCT049///
                        //////TCU 05/04 Q0997 TEMPO SHRA=
201803072350 METAR COR EGLL 072350Z AUTO 18007KT 9999 -RA NCD 05/03 Q0997
                        TEMPO SHRA=
201803072320 METAR COR EGLL 072320Z AUTO 19006KT 9999 NCD 05/03 Q0997
                        TEMPO RA=
201803072250 METAR COR EGLL 072250Z AUTO 19008KT 160V240 9999 NCD 04/03
                        Q0997 NOSIG=
201803072220 METAR COR EGLL 072220Z AUTO 20009KT 150V250 9999 NCD 04/02
                        Q0998 TEMPO RA=
201803072150 METAR COR EGLL 072150Z AUTO 20008KT 160V250 9999 NCD 04/02
                        Q0998 NOSIG=
201803072120 METAR COR EGLL 072120Z AUTO 21008KT 190V250 9999 NCD 04/02
                        Q0998 NOSIG=
201803072050 METAR COR EGLL 072050Z AUTO 21009KT 180V250 9999 NCD 05/02
                        Q0998 NOSIG=
201803072020 METAR COR EGLL 072020Z AUTO 22009KT 9999 NCD 05/02 Q0998
                        NOSIG=
201803071950 METAR COR EGLL 071950Z AUTO 22008KT 190V250 9999 NCD 05/02
                        Q0998 NOSIG=
201803071920 METAR COR EGLL 071920Z AUTO 23010KT 9999 NCD 06/02 Q0997
                        NOSIG=
201803071850 METAR COR EGLL 071850Z AUTO 23008G18KT 9999 NCD 06/02 Q0997
                        NOSIG=
201803071820 METAR COR EGLL 071820Z AUTO 23009KT 9999 NCD 07/02 Q0997
                        NOSIG=
201803071750 METAR COR EGLL 071750Z AUTO 23010KT 190V250 9999 NCD 08/02
                        Q0997 NOSIG=
201803071720 METAR COR EGLL 071720Z AUTO 24012KT 9999 NCD 09/01 Q0996
                        NOSIG=
201803071650 METAR COR EGLL 071650Z AUTO 24014KT 9999 NCD 09/M00 Q0996
                        NOSIG=
201803071620 METAR COR EGLL 071620Z AUTO 27013KT 9999 NCD 09/00 Q0996
                        NOSIG=
201803071550 METAR COR EGLL 071550Z AUTO 26014KT 9999 NCD 10/M01 Q0996
                        NOSIG=
201803071520 METAR COR EGLL 071520Z AUTO 27015KT 9999 NCD 10/01 Q0996
                        NOSIG=
201803071450 METAR COR EGLL 071450Z AUTO 26014KT 9999 FEW049 10/01 Q0995
                        NOSIG=
201803071420 METAR COR EGLL 071420Z AUTO 27012KT 240V310 9999 FEW041 09/02
                        Q0995 NOSIG=
201803071350 METAR COR EGLL 071350Z AUTO 27010KT 9999 BKN045 10/04 Q0995
                        NOSIG=
201803071320 METAR COR EGLL 071320Z AUTO 27011KT 9999 FEW030 SCT041 09/04
                        Q0995 NOSIG=
201803071250 METAR COR EGLL 071250Z AUTO 25009KT 9999 SCT045 09/05 Q0995
                        NOSIG=
201803071220 METAR COR EGLL 071220Z AUTO 25009KT 200V280 9999 SCT015 08/05
                        Q0995 NOSIG=
201803071150 METAR COR EGLL 071150Z AUTO 27011KT 8000 BKN013 07/05 Q0995
                        BECMG BKN016=
201803071120 METAR COR EGLL 071120Z AUTO 25009KT 8000 BKN011 BKN016 08/06
                        Q0995 BECMG SCT011 BKN016=
201803071050 METAR COR EGLL 071050Z AUTO 25007KT 7000 SCT009 BKN015 07/06
                        Q0994 NOSIG=
201803071020 METAR COR EGLL 071020Z AUTO 23007KT 5000 HZ SCT010 BKN024
                        BKN035 07/05 Q0994 TEMPO 4000 HZ
                        BKN012=
201803070950 METAR COR EGLL 070950Z AUTO 26004KT 200V310 9999 -RA SCT023
                        SCT027 06/05 Q0994 NOSIG=
201803070920 METAR COR EGLL 070920Z AUTO 27005KT 7000 -RA BKN024 OVC039
                        06/04 Q0994 NOSIG=
201803070850 METAR COR EGLL 070850Z AUTO 27005KT 6000 -RA BKN025/// OVC037///
                        //////TCU 06/04 Q0993 NOSIG=
201803070820 METAR COR EGLL 070820Z AUTO 26005KT 9999 -RA SCT027/// BKN037///
                        OVC048/// //////TCU 05/04 Q0993 NOSIG=
201803070750 METAR COR EGLL 070750Z AUTO VRB03KT 9999 -RA FEW020/// BKN024///
                        BKN029/// //////TCU 06/03 Q0993 NOSIG=
201803070720 METAR COR EGLL 070720Z AUTO 33004KT 270V030 6000 -RA BKN020///
                        OVC031/// //////TCU 05/04 Q0992 RERA
                        TEMPO RA=
201803070650 METAR COR EGLL 070650Z AUTO 33004KT 280V010 9999 -RA BKN022///
                        OVC042/// //////TCU 05/04 Q0992 TEMPO
                        RA=
201803070620 METAR COR EGLL 070620Z AUTO 31005KT 8000 -RA SCT024/// BKN030///
                        BKN036/// //////TCU 05/04 Q0991 TEMPO
                        4500 RA=
201803070550 METAR COR EGLL 070550Z AUTO 31005KT 8000 -RA FEW038 BKN049
                        05/04 Q0991 TEMPO 4500 RA=
201803070520 METAR COR EGLL 070520Z AUTO 30004KT 7000 -RA FEW036/// //////TCU
                        05/05 Q0991 TEMPO 4500 RA=
201803070450 METAR COR EGLL 070450Z AUTO 29003KT 6000 -RA FEW029/// SCT036///
                        //////TCU 05/04 Q0991 TEMPO 4500
                        RA BKN014=
201803070420 METAR COR EGLL 070420Z AUTO 34002KT 6000 -RA SCT028/// BKN037///
                        //////TCU 05/04 Q0990 TEMPO 4500
                        RA=
201803070350 METAR COR EGLL 070350Z AUTO 34002KT 5000 -RA SCT023 BKN035
                        BKN042 05/04 Q0990 TEMPO 4500 RA
                        BKN014=
201803070320 METAR COR EGLL 070320Z AUTO 35002KT 6000 -RA SCT016 BKN021
                        BKN035 05/04 Q0990 TEMPO 4500 RA
                        BKN014=
201803070250 METAR COR EGLL 070250Z AUTO 19001KT 6000 -RA FEW018 05/04
                        Q0990 TEMPO 4500 RA BKN014=
201803070220 METAR COR EGLL 070220Z AUTO VRB02KT 6000 NCD 05/04 Q0990
                        TEMPO 4500 RA=
201803070150 METAR COR EGLL 070150Z AUTO VRB03KT 6000 NCD 05/04 Q0990
                        TEMPO 4500 RA=
201803070120 METAR COR EGLL 070120Z AUTO VRB02KT 5000 BR NCD 04/04 Q0990
                        TEMPO 4500 RA=
201803070050 METAR COR EGLL 070050Z AUTO 29002KT 5000 BR NCD 05/04 Q0990
                        TEMPO 4500 RA=
201803070020 METAR COR EGLL 070020Z AUTO 29002KT 7000 NCD 05/04 Q0990
                        TEMPO 4500 RA=
201803062350 METAR COR EGLL 062350Z AUTO 17001KT 6000 NCD 05/04 Q0990
                        NOSIG=
201803062320 METAR COR EGLL 062320Z AUTO 16004KT 8000 NCD 05/04 Q0990
                        NOSIG=
201803062250 METAR COR EGLL 062250Z AUTO VRB01KT 8000 NCD 05/04 Q0990
                        NOSIG=
201803062220 METAR EGLL 062220Z AUTO VRB02KT 8000 NCD 05/04 Q0990=
201803062150 METAR COR EGLL 062150Z AUTO 27004KT 9999 NCD 05/04 Q0990
                        NOSIG=
201803062120 METAR COR EGLL 062120Z AUTO 20005KT 130V250 9999 NCD 06/04
                        Q0990 NOSIG=
201803062050 METAR COR EGLL 062050Z AUTO 18005KT 150V250 9999 NCD 06/04
                        Q0990 NOSIG=
201803062020 METAR COR EGLL 062020Z AUTO 18005KT 110V240 9999 NCD 06/04
                        Q0990=
201803061950 METAR COR EGLL 061950Z AUTO 20005KT 120V270 9999 NCD 06/04
                        Q0990 NOSIG=
201803061920 METAR COR EGLL 061920Z AUTO 19006KT 140V240 9999 NCD 07/04
                        Q0990 NOSIG=
201803061850 METAR COR EGLL 061850Z AUTO 18006KT 150V230 9999 NCD 07/04
                        Q0990 NOSIG=
201803061820 METAR COR EGLL 061820Z AUTO 19006KT 130V240 9999 NCD 08/03
                        Q0989 NOSIG=
201803061750 METAR COR EGLL 061750Z AUTO 18007KT 140V230 9999 NCD 08/03
                        Q0989 NOSIG=
201803061720 METAR COR EGLL 061720Z AUTO 19006KT 160V240 9999 NCD 09/03
                        Q0989 NOSIG=
201803061650 METAR COR EGLL 061650Z AUTO 20007KT 140V250 9999 SCT034 09/03
                        Q0989 NOSIG=
201803061620 METAR COR EGLL 061620Z AUTO VRB03KT 9999 NCD 09/03 Q0988
                        NOSIG=
201803061550 METAR COR EGLL 061550Z AUTO 19005KT 130V260 9999 BKN046 09/04
                        Q0988 NOSIG=
201803061520 METAR COR EGLL 061520Z AUTO 21007KT 170V240 9999 SCT033 SCT044
                        09/03 Q0988 NOSIG=
201803061450 METAR COR EGLL 061450Z AUTO 19007KT 150V230 9999 FEW032 10/04
                        Q0988 NOSIG=
201803061420 METAR COR EGLL 061420Z AUTO 19006KT 140V260 9999 FEW039 SCT047
                        09/04 Q0988 NOSIG=
201803061350 METAR COR EGLL 061350Z AUTO 20005KT 140V250 9999 FEW029 SCT037
                        09/05 Q0988 NOSIG=
201803061320 METAR COR EGLL 061320Z AUTO 20004KT 150V240 9999 -RA SCT028
                        BKN032 BKN040 08/06 Q0989 NOSIG=
201803061250 METAR COR EGLL 061250Z AUTO 22008KT 9999 -RA BKN029 BKN033
                        OVC045 09/04 Q0989 NOSIG=
201803061220 METAR COR EGLL 061220Z AUTO 24006KT 210V270 9999 FEW032 SCT038
                        OVC046 09/03 Q0989 NOSIG=
201803061150 METAR COR EGLL 061150Z AUTO 23008KT 9999 SCT041 09/03 Q0989
                        NOSIG=
201803061120 METAR COR EGLL 061120Z AUTO 23009KT 9999 SCT021 SCT029 BKN049
                        09/04 Q0989 NOSIG=
201803061050 METAR COR EGLL 061050Z AUTO 23008KT 190V250 9999 FEW018 OVC044
                        09/05 Q0988 NOSIG=
201803061020 METAR COR EGLL 061020Z AUTO 23008KT 9999 SCT013 BKN045 08/05
                        Q0988 NOSIG=
201803060950 METAR COR EGLL 060950Z AUTO 21006KT 170V240 9999 OVC042 07/05
                        Q0988 NOSIG=
201803060920 METAR COR EGLL 060920Z AUTO 22006KT 9999 OVC041 06/05 Q0988
                        NOSIG=
201803060850 METAR COR EGLL 060850Z AUTO 20006KT 170V240 9999 OVC039 06/05
                        Q0988 NOSIG=
201803060820 METAR COR EGLL 060820Z AUTO 20008KT 170V250 9999 OVC040 06/04
                        Q0988 NOSIG=
201803060750 METAR COR EGLL 060750Z AUTO 21007KT 9999 OVC041 05/04 Q0988
                        NOSIG=
201803060720 METAR COR EGLL 060720Z AUTO 21007KT 180V250 9999 -RA BKN037
                        05/04 Q0987 NOSIG=
201803060650 METAR COR EGLL 060650Z AUTO 21007KT 170V240 9999 OVC040 05/04
                        Q0987 NOSIG=
201803060620 METAR COR EGLL 060620Z AUTO 22007KT 190V250 9999 BKN033 06/04
                        Q0987 NOSIG=
201803060550 METAR COR EGLL 060550Z AUTO 21007KT 9999 OVC033 06/05 Q0987
                        NOSIG=
201803060520 METAR COR EGLL 060520Z AUTO 22008KT 9999 OVC027 06/05 Q0987
                        NOSIG=
201803060450 METAR COR EGLL 060450Z AUTO 21007KT 190V250 9999 BKN021 OVC027
                        06/05 Q0986 NOSIG=
201803060420 METAR COR EGLL 060420Z AUTO 21007KT 9999 BKN019 OVC025 06/05
                        Q0986 NOSIG=
201803060350 METAR COR EGLL 060350Z AUTO 21008KT 9999 BKN023 OVC029 06/05
                        Q0986 NOSIG=
201803060320 METAR COR EGLL 060320Z AUTO 21008KT 9999 BKN026 OVC031 06/05
                        Q0986 TEMPO BKN012=
201803060250 METAR COR EGLL 060250Z AUTO 23009KT 9999 SCT012 BKN019 BKN026
                        07/05 Q0986 TEMPO BKN012=
201803060220 METAR COR EGLL 060220Z AUTO 23007KT 9999 BKN010 OVC036 07/06
                        Q0986 TEMPO BKN009=
201803060150 METAR COR EGLL 060150Z AUTO 21006KT 9999 BKN011 OVC032 07/06
                        Q0986 TEMPO BKN009=
201803060120 METAR COR EGLL 060120Z AUTO 19007KT 9999 FEW017 OVC033 07/06
                        Q0985 TEMPO BKN012=
201803060050 METAR COR EGLL 060050Z AUTO 18008KT 9999 FEW024 OVC030 08/07
                        Q0985 TEMPO BKN008=
201803060020 METAR COR EGLL 060020Z AUTO 17009KT 9999 BKN008 OVC021 08/07
                        Q0985 TEMPO SCT008 BKN020=
201803052350 METAR COR EGLL 052350Z AUTO 15008KT 9999 -RA BKN011 08/07
                        Q0985 NOSIG=
201803052320 METAR COR EGLL 052320Z AUTO 15009KT 9999 BKN011/// OVC016///
                        //////TCU 08/07 Q0985 NOSIG=
201803052250 METAR COR EGLL 052250Z AUTO 15008KT 9999 -RA BKN016 OVC045
                        08/06 Q0985 TEMPO BKN014=
201803052220 METAR COR EGLL 052220Z AUTO 14007KT 9999 -RA BKN020/// OVC035///
                        //////TCU 08/06 Q0985 TEMPO SHRA=
201803052150 METAR COR EGLL 052150Z AUTO 14011KT 7000 -RA SCT023/// BKN027///
                        //////CB 08/06 Q0985 TEMPO SHRA=
201803052120 METAR COR EGLL 052120Z AUTO 14012KT 9999 SCT039 08/05 Q0985
                        TEMPO SHRA=
201803052050 METAR COR EGLL 052050Z AUTO 13011KT 9999 BKN035/// OVC044///
                        //////TCU 08/06 Q0985 TEMPO SHRA=
201803052020 METAR COR EGLL 052020Z AUTO 12011KT 9999 -RA SCT044/// //////TCU
                        08/06 Q0986 TEMPO RA=
201803051950 METAR COR EGLL 051950Z AUTO 12010KT 9999 -RA FEW036 BKN042
                        08/06 Q0986 NOSIG=
201803051920 METAR COR EGLL 051920Z AUTO 12010KT 9000 -RA BKN035 08/06
                        Q0986 NOSIG=
201803051850 METAR COR EGLL 051850Z AUTO 11008KT 9999 BKN034/// //////TCU
                        07/05 Q0986 NOSIG=
201803051820 METAR COR EGLL 051820Z AUTO 11010KT 9999 BKN037 07/05 Q0987
                        NOSIG=
201803051750 METAR COR EGLL 051750Z AUTO 11012KT 9999 FEW017 BKN040 07/05
                        Q0987 NOSIG=
201803051720 METAR COR EGLL 051720Z AUTO 11011KT 9999 OVC047 07/05 Q0987
                        NOSIG=
201803051650 METAR COR EGLL 051650Z AUTO 09012KT 9999 NCD 07/05 Q0986
                        NOSIG=
201803051620 METAR COR EGLL 051620Z AUTO 10011KT 9999 NCD 07/05 Q0987
                        NOSIG=
201803051550 METAR COR EGLL 051550Z AUTO 11009KT 9999 -RA FEW042 08/05
                        Q0987 NOSIG=
201803051520 METAR COR EGLL 051520Z AUTO 14010KT 9999 -RA SCT036 BKN043
                        09/05 Q0987 TEMPO RA BKN014=
201803051450 METAR EGLL 051450Z AUTO 13010KT 9999 FEW024 SCT040 10/05
                        Q0987=
201803051420 METAR COR EGLL 051420Z AUTO 13010KT 9999 FEW024 SCT047 10/05
                        Q0988 TEMPO RA BKN014=
201803051350 METAR COR EGLL 051350Z AUTO 12009KT 9999 FEW024 10/05 Q0988
                        NOSIG=
201803051320 METAR COR EGLL 051320Z AUTO 14009KT 110V170 9999 NCD 09/05
                        Q0988 NOSIG=
201803051250 METAR COR EGLL 051250Z AUTO 17009KT 9999 NCD 09/05 Q0989
                        NOSIG=
201803051220 METAR COR EGLL 051220Z AUTO 16011KT 9999 SCT021 SCT027 BKN031
                        09/05 Q0989 NOSIG=
201803051150 METAR COR EGLL 051150Z AUTO 16011KT 9999 FEW017 SCT029 10/05
                        Q0989 NOSIG=
201803051120 METAR COR EGLL 051120Z AUTO 16007KT 9999 SCT017 BKN022 BKN034
                        09/06 Q0990 NOSIG=
201803051050 METAR COR EGLL 051050Z AUTO 16006KT 9999 BKN013 09/06 Q0990
                        BECMG SCT015=
201803051020 METAR COR EGLL 051020Z AUTO 15006KT 9999 BKN013 08/06 Q0990
                        BECMG SCT014=
201803050950 METAR COR EGLL 050950Z AUTO 15007KT 100V200 9999 SCT010 BKN015
                        08/06 Q0990 NOSIG=
201803050920 METAR COR EGLL 050920Z AUTO 15006KT 100V210 9999 SCT007 08/06
                        Q0990 NOSIG=
201803050850 METAR COR EGLL 050850Z AUTO 18007KT 150V220 9999 BKN006 07/06
                        Q0990 BECMG SCT010=
201803050820 METAR COR EGLL 050820Z AUTO 18007KT 140V220 9999 OVC006 06/05
                        Q0990 BECMG BKN010=
201803050750 METAR COR EGLL 050750Z AUTO 18008KT 9000 OVC006 06/05 Q0990
                        NOSIG=
201803050720 METAR COR EGLL 050720Z AUTO 19009KT 170V240 8000 BKN006 05/05
                        Q0990 NOSIG=
201803050650 METAR COR EGLL 050650Z AUTO 20008KT 170V240 8000 BKN006 BKN010
                        05/05 Q0990 NOSIG=
201803050620 METAR COR EGLL 050620Z AUTO 20008G19KT 120V260 8000 SCT005
                        05/04 Q0990 TEMPO BKN005=
201803050550 METAR COR EGLL 050550Z AUTO 20009KT 9000 NCD 05/04 Q0990
                        TEMPO BKN006=
201803050520 METAR COR EGLL 050520Z 21008KT CAVOK 05/04 Q0989 TEMPO BKN008=
201803050450 METAR COR EGLL 050450Z 20008KT CAVOK 05/04 Q0989 TEMPO BKN008=
201803050420 METAR COR EGLL 050420Z AUTO 19005KT 9999 NCD 04/04 Q0989
                        TEMPO BKN008=
201803050350 METAR COR EGLL 050350Z AUTO 18006KT 9999 NCD 04/04 Q0989
                        NOSIG=
201803050320 METAR COR EGLL 050320Z AUTO 20005KT 9999 NCD 05/04 Q0989
                        NOSIG=
201803050250 METAR COR EGLL 050250Z AUTO 21007KT 9999 NCD 05/04 Q0989
                        NOSIG=
201803050220 METAR COR EGLL 050220Z AUTO 22010KT 9999 SCT045 06/04 Q0989
                        NOSIG=
201803050150 METAR COR EGLL 050150Z AUTO 20007KT 9999 SCT042/// //////TCU
                        05/05 Q0989 NOSIG=
201803050120 METAR COR EGLL 050120Z AUTO 21007KT 9999 FEW048 06/05 Q0989
                        NOSIG=
201803050050 METAR COR EGLL 050050Z AUTO 20007KT 9999 NCD 06/05 Q0989
                        NOSIG=
201803050020 METAR COR EGLL 050020Z AUTO 21007KT 9999 NCD 06/05 Q0989
                        NOSIG=
201803042350 METAR COR EGLL 042350Z AUTO 21007KT 9999 FEW035 06/04 Q0989
                        NOSIG=
201803042320 METAR COR EGLL 042320Z AUTO 20006KT 9999 NCD 06/04 Q0989
                        NOSIG=
201803042250 METAR COR EGLL 042250Z AUTO 19007KT 9999 FEW035 06/05 Q0988
                        NOSIG=
201803042220 METAR COR EGLL 042220Z AUTO 20009KT 9999 -RA SCT035 BKN046
                        06/05 Q0989 TEMPO SHRA=
201803042150 METAR COR EGLL 042150Z AUTO 18008KT 130V220 9999 -RA SCT025
                        BKN041 06/05 Q0989 TEMPO SHRA=
201803042120 METAR COR EGLL 042120Z AUTO 17008KT 090V210 9999 -RA SCT032///
                        BKN044/// //////TCU 06/05 Q0988 TEMPO
                        SHRA=
201803042050 METAR COR EGLL 042050Z AUTO 17007KT 140V230 9999 NCD 06/05
                        Q0988 TEMPO SHRA=
201803042020 METAR COR EGLL 042020Z AUTO 17004KT 9000 NCD 05/05 Q0988
                        TEMPO SHRA BKN014=
201803041950 METAR COR EGLL 041950Z AUTO 16006KT 9999 FEW016 06/05 Q0988
                        TEMPO SHRA BKN014=
201803041920 METAR COR EGLL 041920Z AUTO 16006KT 9999 SCT019 SCT028 BKN040
                        07/06 Q0988 NOSIG=
201803041850 METAR COR EGLL 041850Z AUTO 14006KT 9999 SCT017 SCT025 BKN043
                        07/06 Q0988 TEMPO -SHRA BKN014=
201803041820 METAR COR EGLL 041820Z AUTO 14007KT 9999 FEW014 BKN022 BKN027
                        07/06 Q0988 TEMPO -SHRA BKN014=
201803041750 METAR COR EGLL 041750Z AUTO 14007KT 9999 SCT014 BKN024 07/06
                        Q0988 TEMPO -SHRA BKN014=
201803041720 METAR COR EGLL 041720Z AUTO 15007KT 9999 OVC014 08/06 Q0988
                        TEMPO SHRA=
201803041650 METAR COR EGLL 041650Z AUTO 15008KT 9999 OVC015 08/06 Q0988
                        TEMPO SHRA=
201803041620 METAR COR EGLL 041620Z AUTO 15009KT 9999 BKN015 OVC023 08/06
                        Q0988 TEMPO SHRA=
201803041550 METAR EGLL 041550Z AUTO 15008KT 9999 BKN016 OVC023 08/06
                        Q0988=
201803041520 METAR COR EGLL 041520Z AUTO 16009KT 9999 BKN015 BKN020 OVC026
                        08/06 Q0988 TEMPO -SHRA BKN014=
201803041450 METAR COR EGLL 041450Z AUTO 16010KT 9999 BKN016 OVC026 08/06
                        Q0988 TEMPO -SHRA BKN014=
201803041420 METAR COR EGLL 041420Z AUTO 16010KT 9999 BKN015 09/06 Q0989
                        TEMPO -SHRA BKN014=
201803041350 METAR COR EGLL 041350Z AUTO 16011KT 9999 SCT014 BKN019 BKN027
                        09/07 Q0989 TEMPO -SHRA BKN014=
201803041320 METAR COR EGLL 041320Z AUTO 16010KT 9999 SCT017 BKN024 OVC028
                        09/06 Q0989 NOSIG=
201803041250 METAR COR EGLL 041250Z AUTO 15009KT 9999 -RA SCT016/// BKN023///
                        BKN029/// //////TCU 09/07 Q0989 NOSIG=
201803041220 METAR COR EGLL 041220Z AUTO 15010KT 9999 BKN017 09/07 Q0989
                        NOSIG=
201803041150 METAR COR EGLL 041150Z AUTO 16009KT 9999 BKN017 BKN032 BKN042
                        09/07 Q0989 NOSIG=
201803041120 METAR COR EGLL 041120Z AUTO 15009KT 9999 BKN015 BKN028 09/07
                        Q0990 NOSIG=
201803041050 METAR COR EGLL 041050Z AUTO 15009KT 9999 BKN013 09/07 Q0990
                        BECMG BKN016=
201803041020 METAR COR EGLL 041020Z AUTO 16007KT 9999 BKN012 OVC016 08/07
                        Q0990 TEMPO SCT012 BKN016=
201803040950 METAR COR EGLL 040950Z AUTO 15010KT 9999 BKN011 BKN015 08/06
                        Q0990 TEMPO SCT011=
201803040920 METAR COR EGLL 040920Z AUTO 16007KT 9000 BKN009 08/06 Q0990
                        BECMG BKN011=
201803040850 METAR COR EGLL 040850Z AUTO 16008KT 9000 FEW007 OVC010 07/06
                        Q0990 TEMPO BKN009=
201803040820 METAR COR EGLL 040820Z AUTO 15006KT 8000 SCT007 BKN012 06/06
                        Q0990 TEMPO BKN007=
201803040750 METAR COR EGLL 040750Z 13005KT 7000 FEW007 SCT012 06/05 Q0990
                        TEMPO BKN012=
201803040720 METAR COR EGLL 040720Z 13006KT 6000 SCT015 SCT031 05/05 Q0990
                        TEMPO BKN007=
201803040650 METAR COR EGLL 040650Z 14005KT 5000 BR FEW016 SCT036 04/04
                        Q0990 TEMPO 3000 BKN004=
201803040620 METAR COR EGLL 040620Z 10004KT 080V140 4500 BR FEW005 03/03
                        Q0990 TEMPO BKN004=
201803040550 METAR COR EGLL 040550Z AUTO 08005KT 2300 BR BKN004/// //////TCU
                        04/03 Q0990 TEMPO BKN005=
201803040520 METAR COR EGLL 040520Z AUTO 09006KT 2200 BR BKN007 BKN011
                        OVC016 03/03 Q0990 TEMPO SCT007=
201803040450 METAR COR EGLL 040450Z AUTO 09005KT 2400 BR SCT007 OVC011
                        04/04 Q0990 TEMPO 3000 BKN006=
201803040420 METAR COR EGLL 040420Z AUTO 08005KT 2200 BR OVC012 04/04
                        Q0990 TEMPO 3000=
201803040350 METAR COR EGLL 040350Z AUTO 07005KT 2200 BR BKN014 04/03
                        Q0990 NOSIG=
201803040320 METAR COR EGLL 040320Z AUTO 09006KT 2100 BR FEW014 BKN023
                        04/03 Q0991 NOSIG=
201803040250 METAR COR EGLL 040250Z AUTO 08006KT 2100 BR BKN015 BKN023
                        03/03 Q0991 NOSIG=
201803040220 METAR COR EGLL 040220Z AUTO 08005KT 2200 BR BKN017 OVC021
                        04/03 Q0991 TEMPO 3000=
201803040150 METAR COR EGLL 040150Z AUTO 08005KT 2000 BR BKN019 03/03
                        Q0991 NOSIG=
201803040120 METAR COR EGLL 040120Z AUTO 08005KT 1800 -RA SCT021 BKN028
                        BKN042 03/03 Q0991 NOSIG=
201803040050 METAR COR EGLL 040050Z AUTO 08005KT 1500 BR FEW008 BKN025
                        BKN029 03/03 Q0992 TEMPO BKN004=
201803040020 METAR COR EGLL 040020Z AUTO 08005KT 1400 R09R/P1500 BR FEW029
                        BKN034 BKN043 03/03 Q0992 TEMPO 2000=
201803032350 METAR COR EGLL 032350Z AUTO 09006KT 1300 R09R/P1500 BR FEW017
                        03/03 Q0992 TEMPO 3000 RADZ BKN006=
201803032320 METAR COR EGLL 032320Z 10006KT 1500 BR NSC 02/02 Q0992 TEMPO
                        3000 BKN003=
201803032250 METAR COR EGLL 032250Z 08005KT 2000 BR FEW018 02/02 Q0991
                        TEMPO 3000 BKN003=
201803032220 METAR COR EGLL 032220Z 10006KT 1500 -RADZ BR BKN018 03/03
                        Q0991 TEMPO 3000 BR=
201803032150 METAR COR EGLL 032150Z 10008KT 1400 R09L/P1500 R09R/P1500
                        -RADZ BR SCT006 BKN008 04/03 Q0991
                        TEMPO 3000 BR=
201803032120 METAR COR EGLL 032120Z 10010KT 1200 R09L/P1500 R09R/P1500
                        -RADZ BR SCT006 BKN007 03/03 Q0991
                        TEMPO 3000=
201803032050 METAR COR EGLL 032050Z 10009KT 1300 R09L/P1500 R09R/P1500
                        -RADZ BR BKN007 BKN010 OVC015 03/03
                        Q0991 TEMPO 1600=
201803032020 METAR COR EGLL 032020Z AUTO 09011KT 1300 R09L/P1500 R09R/P1500
                        -RADZ BKN007 OVC013 03/03 Q0991 TEMPO
                        1500=
201803031950 METAR COR EGLL 031950Z 09013KT 1600 -DZ BR SCT007 BKN008
                        OVC019 03/03 Q0991 TEMPO RADZ=
201803031920 METAR COR EGLL 031920Z 09012KT 1700 -RADZ SCT007 BKN011 OVC021
                        03/03 Q0991 REDZ TEMPO BKN007=
201803031850 METAR COR EGLL 031850Z 08013KT 1700 -DZ SCT008 BKN011 OVC024
                        03/02 Q0991 REDZ TEMPO BKN008=
201803031820 METAR COR EGLL 031820Z AUTO 08010KT 1700 -RADZ BKN008 BKN012
                        OVC026 03/02 Q0991 TEMPO RADZ=
201803031750 METAR COR EGLL 031750Z AUTO 09012KT 2200 -RADZ BKN008 OVC038
                        03/02 Q0991 RERA REDZ TEMPO RA=
201803031720 METAR COR EGLL 031720Z AUTO 09012KT 3000 HZ BKN010 03/02
                        Q0991 TEMPO RA=
201803031650 METAR COR EGLL 031650Z AUTO 07010KT 3100 HZ BKN010 OVC043
                        03/02 Q0991 TEMPO RA=
201803031620 METAR COR EGLL 031620Z AUTO 07010KT 040V100 3300 HZ BKN009
                        BKN013 04/02 Q0991 TEMPO RA=
201803031550 METAR COR EGLL 031550Z AUTO 07011KT 3300 HZ BKN010 03/02
                        Q0991 TEMPO BKN009=
201803031520 METAR COR EGLL 031520Z AUTO 08011KT 040V100 3400 HZ BKN010
                        04/02 Q0991 NOSIG=
201803031450 METAR COR EGLL 031450Z AUTO 08012KT 3700 HZ BKN010 04/02
                        Q0991 NOSIG=
201803031420 METAR COR EGLL 031420Z AUTO 08014KT 3800 HZ BKN010 04/02
                        Q0992 TEMPO SCT010=
201803031350 METAR COR EGLL 031350Z AUTO 08012KT 3700 HZ BKN010 04/02
                        Q0992 TEMPO SCT010=
201803031320 METAR COR EGLL 031320Z AUTO 07011KT 040V100 4000 HZ BKN010
                        04/02 Q0992 BECMG SCT010=
201803031250 METAR COR EGLL 031250Z AUTO 07012KT 3800 HZ BKN009 03/02
                        Q0992 TEMPO SCT010=
201803031220 METAR COR EGLL 031220Z AUTO 08011KT 3400 HZ BKN009 03/02
                        Q0992 BECMG SCT010=
201803031150 METAR COR EGLL 031150Z AUTO 07009KT 3300 HZ BKN008 04/02
                        Q0993 BECMG SCT008=
201803031120 METAR COR EGLL 031120Z 08011KT 3300 HZ SCT007 BKN008 03/02
                        Q0993 BECMG SCT008=
201803031050 METAR COR EGLL 031050Z 08011KT 3200 HZ SCT007 BKN008 03/01
                        Q0993 BECMG SCT010=
201803031020 METAR COR EGLL 031020Z 08011KT 2700 BR SCT005 BKN007 02/01
                        Q0993 BECMG 4000 SCT010=
201803030950 METAR COR EGLL 030950Z 08009KT 2200 BR BKN004 OVC008 02/02
                        Q0993 BECMG 3000 SCT010=
201803030920 METAR EGLL 030920Z 09010KT 1700 BR BKN004 OVC005 02/01 Q0993=
201803030850 METAR COR EGLL 030850Z 08007KT 1600 BR BKN003 OVC004 02/01
                        Q0993 BECMG BKN005=
201803030820 METAR COR EGLL 030820Z 07006KT 1400 R09L/P1500 R09R/P1500
                        BR OVC003 02/01 Q0992 NOSIG=
201803030750 METAR COR EGLL 030750Z 08008KT 1400 R09L/P1500 R09R/P1500
                        BR OVC003 01/01 Q0992 NOSIG=
201803030720 METAR EGLL 030720Z 08009KT 1300 R09L/P1500 R09R/1400 BR OVC003
                        01/01 Q0992=
201803030650 METAR COR EGLL 030650Z 09007KT 1300 R09L/P1500 R09R/P1500
                        BR OVC003 01/01 Q0992 TEMPO OVC002=
201803030620 METAR COR EGLL 030620Z 08010KT 1400 R09L/P1500 R09R/P1500
                        BR OVC002 01/01 Q0992 TEMPO 1800
                        OVC003=
201803030550 METAR COR EGLL 030550Z 08010KT 0900 R09L/P1500 R09R/P1500
                        FG OVC002 01/01 Q0992 TEMPO OVC003=
201803030520 METAR COR EGLL 030520Z AUTO 09011KT 0900 R09R/P1500 FG OVC002
                        01/01 Q0991 TEMPO OVC003=
201803030450 METAR COR EGLL 030450Z AUTO 08008KT 1100 R09L/P1500 R09R/P1500
                        BR OVC003 01/01 Q0991 TEMPO OVC002=
201803030420 METAR COR EGLL 030420Z AUTO 08009KT 1200 R09L/P1500 R09R/P1500
                        BR OVC003 01/01 Q0991 TEMPO OVC002=
201803030350 METAR COR EGLL 030350Z AUTO 09009KT 1000 R09L/P1500 R09R/P1500
                        BR OVC003 01/01 Q0992 TEMPO OVC002=
201803030320 METAR COR EGLL 030320Z AUTO 08009KT 0900 R09L/P1500 R09R/P1500
                        FG OVC002 01/01 Q0992 NOSIG=
201803030250 METAR COR EGLL 030250Z AUTO 07009KT 1100 R09L/P1500 R09R/P1500
                        BR OVC003/// //////TCU 01/01 Q0992
                        RERA TEMPO OVC002=
201803030220 METAR COR EGLL 030220Z AUTO 07009KT 1100 R09L/P1500 R09R/P1500
                        -RADZ OVC003 01/01 Q0992 TEMPO -RASN
                        OVC002=
201803030150 METAR COR EGLL 030150Z AUTO 07008KT 1200 R09L/P1500 R09R/P1500
                        BR OVC003 01/00 Q0992 TEMPO -SN OVC002=
201803030120 METAR COR EGLL 030120Z AUTO 08009KT 1400 R09L/P1500 R09R/P1500
                        BR OVC003 01/00 Q0992 NOSIG=
201803030050 METAR COR EGLL 030050Z AUTO 08009KT 1600 BR OVC003 01/00
                        Q0992 TEMPO 1200=
201803030020 METAR COR EGLL 030020Z AUTO 07008KT 1800 BR OVC004 00/M00
                        Q0992 TEMPO 1400=
201803022350 METAR COR EGLL 022350Z AUTO 08010KT 2300 BR OVC005 00/M00
                        Q0993 NOSIG=
201803022320 METAR COR EGLL 022320Z AUTO 09012KT 3000 BR OVC006 00/M00
                        Q0993 TEMPO 2000 -SN=
201803022250 METAR COR EGLL 022250Z AUTO 09011KT 2900 BR OVC005 00/M00
                        Q0993 TEMPO 1400 -SN=
201803022220 METAR COR EGLL 022220Z AUTO 08010KT 3600 BR OVC006 00/M01
                        Q0993 TEMPO 2500 -SN=
201803022150 METAR COR EGLL 022150Z 08010KT 3200 -SN BR BKN007 M00/M01
                        Q0993 NOSIG=
201803022120 METAR COR EGLL 022120Z 08010KT 2400 -SN FEW006 BKN007 M00/M01
                        Q0993 TEMPO 3500=
201803022050 METAR COR EGLL 022050Z 08011KT 4500 -SN BR BKN008 M00/M01
                        Q0993 NOSIG=
201803022020 METAR COR EGLL 022020Z 08011KT 4500 -SN BR BKN009 OVC013
                        M00/M01 Q0993 REFZDZ TEMPO 2500=
201803021950 METAR COR EGLL 021950Z 08011KT 4200 -FZDZ BKN008 OVC016 M01/M01
                        Q0993 TEMPO 2500 -SN=
201803021920 METAR COR EGLL 021920Z 07007KT 3500 -SN BKN008 OVC024 M01/M01
                        Q0993 NOSIG=
201803021850 METAR COR EGLL 021850Z 07008KT 2200 -SN BR SCT009 BKN014
                        OVC026 M01/M01 Q0992 NOSIG=
201803021820 METAR COR EGLL 021820Z 07008KT 1500 -SN BR SCT008 BKN011
                        BKN026 M01/M02 Q0992 NOSIG=
201803021750 METAR COR EGLL 021750Z 08011KT 1500 -SN BR BKN008 BKN013
                        OVC033 M01/M02 Q0992 TEMPO SN=
201803021720 METAR EGLL 021720Z 09014KT 2800 -SN BKN011 OVC025 M01/M02
                        Q0992=
201803021650 METAR COR EGLL 021650Z 09011KT 3700 -SN SCT008 BKN013 BKN022
                        M01/M02 Q0992 NOSIG=
201803021620 METAR COR EGLL 021620Z 08010KT 2200 -SN SCT008 BKN011 M01/M02
                        Q0991 NOSIG=
201803021550 METAR COR EGLL 021550Z 08009KT 1200 R09R/1200 -SN SCT007
                        BKN011 M01/M02 Q0992 NOSIG=
201803021520 METAR EGLL 021520Z 07009KT 1100 R09R/1300 -SN SCT006 BKN011
                        M01/M02 Q0992 RESN=
201803021450 METAR COR EGLL 021450Z 08010KT 1000 R09L/P1500 R09R/1400
                        SN BKN009 M01/M02 Q0992 TEMPO 4000
                        -SN=
201803021420 METAR COR EGLL 021420Z 08012KT 2800 R09R/1400 -SN BKN009
                        OVC012 M02/M02 Q0992 1200 TEMPO SN=
201803021350 METAR EGLL 021350Z 07013KT 3200 -RASN OVC010 M01/M03 Q0992=
201803021320 METAR COR EGLL 021320Z 08015KT 3700 -RASN BKN012 M01/M03
                        Q0992 REFZRA NOSIG=
201803021250 METAR COR EGLL 021250Z 08016KT 3000 -FZRA OVC014 M01/M03
                        Q0992 NOSIG=
201803021220 METAR COR EGLL 021220Z 08013KT 4600 HZ OVC012 M01/M03 Q0992
                        RERA NOSIG=
201803021150 METAR COR EGLL 021150Z AUTO 08017KT 4800 HZ BKN012 OVC016
                        M01/M03 Q0992 NOSIG=
201803021120 METAR COR EGLL 021120Z AUTO 07016KT 7000 OVC012 M01/M03 Q0992
                        TEMPO 4000 -SN=
201803021050 METAR COR EGLL 021050Z AUTO 07017KT 5000 HZ BKN013 OVC018
                        M01/M03 Q0992 TEMPO 4000 -SN=
201803021020 METAR COR EGLL 021020Z AUTO 07017G27KT 6000 OVC015 M01/M04
                        Q0992 TEMPO 3000 -SN=
201803020950 METAR COR EGLL 020950Z AUTO 07016G28KT 6000 BKN016 OVC020
                        M01/M04 Q0992 TEMPO 4000 -SN=
201803020920 METAR COR EGLL 020920Z AUTO 07015G28KT 5000 HZ OVC017 M01/M04
                        Q0992 TEMPO 4000 -SN=
201803020850 METAR COR EGLL 020850Z AUTO 07018G28KT 7000 BKN018 OVC023
                        M01/M04 Q0992 TEMPO 4000 -SN=
201803020820 METAR COR EGLL 020820Z AUTO 07016KT 7000 OVC018 M01/M04 Q0992
                        NOSIG=
201803020750 METAR COR EGLL 020750Z AUTO 07015KT 8000 OVC019 M01/M04 Q0992
                        NOSIG=
201803020720 METAR COR EGLL 020720Z AUTO 07016G27KT 8000 BKN020 OVC036
                        M01/M04 Q0992 NOSIG=
201803020650 METAR COR EGLL 020650Z 07016KT 8000 BKN021 M01/M04 Q0992
                        NOSIG=
201803020620 METAR COR EGLL 020620Z 07017KT 8000 BKN021 M01/M04 Q0992
                        NOSIG=
201803020550 METAR COR EGLL 020550Z 07018G28KT 8000 -SN BKN020 M01/M04
                        Q0992 NOSIG=
201803020520 METAR COR EGLL 020520Z 07016KT 7000 -SN BKN022 BKN032 M01/M04
                        Q0992 TEMPO 4000 -SN=
201803020450 METAR COR EGLL 020450Z 07017KT 8000 -SN SCT024 BKN037 M01/M05
                        Q0992 TEMPO 4000 -SN=
201803020420 METAR COR EGLL 020420Z 07018KT 8000 -SN FEW023 OVC037 M01/M05
                        Q0992=
201803020350 METAR EGLL 020350Z AUTO 07018KT 9999 FEW024 OVC034 M01/M05
                        Q0992 RESG=
201803020320 METAR COR EGLL 020320Z AUTO 07019KT 9999 -RA OVC033 M01/M05
                        Q0993 NOSIG=
201803020250 METAR COR EGLL 020250Z AUTO 07018KT 9999 OVC032 M00/M05 Q0993
                        NOSIG=
201803020220 METAR COR EGLL 020220Z AUTO 07018G28KT 9999 FEW027 OVC031
                        M00/M05 Q0993 NOSIG=
201803020150 METAR COR EGLL 020150Z AUTO 07015G25KT 9999 OVC037 M00/M05
                        Q0993 NOSIG=
201803020120 METAR COR EGLL 020120Z AUTO 07017KT 9999 FEW025 OVC036 M01/M04
                        Q0994 NOSIG=
201803020050 METAR COR EGLL 020050Z AUTO 07017KT 9999 FEW022 OVC036 M01/M04
                        Q0994 NOSIG=
201803020020 METAR COR EGLL 020020Z AUTO 07020G31KT 9999 FEW021 SCT029
                        OVC036 M01/M04 Q0994 TEMPO 4000 -SN=
201803012350 METAR COR EGLL 012350Z AUTO 07016KT 9999 SCT021 BKN028 OVC038
                        M01/M04 Q0994 TEMPO 6000 -SN=
201803012320 METAR COR EGLL 012320Z 07017G29KT 9999 SCT021 BKN029 M01/M04
                        Q0995 TEMPO 6000 -SN=
201803012250 METAR COR EGLL 012250Z 07018KT 9999 BKN020 BKN031 M01/M04
                        Q0995 NOSIG=
201803012220 METAR COR EGLL 012220Z 08016KT 7000 -SN BKN020 BKN030 M01/M03
                        Q0995 NOSIG=
201803012150 METAR COR EGLL 012150Z 08016G27KT 7000 -SN SCT020 OVC029
                        M01/M04 Q0995 NOSIG=
201803012120 METAR COR EGLL 012120Z 08018G28KT 6000 -SN BKN030 M00/M04
                        Q0995 NOSIG=
201803012050 METAR COR EGLL 012050Z 08016KT 9000 -SN BKN029 M00/M05 Q0995
                        TEMPO 4000 -SN=
201803012020 METAR COR EGLL 012020Z 08022KT 8000 -SN BKN031 M00/M05 Q0995
                        TEMPO 4000 -SN=
201803011950 METAR COR EGLL 011950Z 08019G29KT 9999 BKN030 M00/M05 Q0995
                        NOSIG=
201803011920 METAR COR EGLL 011920Z AUTO 08018KT 7000 -SN BKN030 M00/M05
                        Q0995 NOSIG=
201803011850 METAR COR EGLL 011850Z 07015KT 9000 -SN BKN030 M00/M05 Q0996
                        TEMPO 4000=
201803011820 METAR COR EGLL 011820Z 07015G25KT 7000 -SN OVC033 M00/M05
                        Q0996 TEMPO 3000=
201803011750 METAR COR EGLL 011750Z 07015KT 8000 -SN OVC033 M01/M05 Q0996
                        TEMPO 3000=
201803011720 METAR COR EGLL 011720Z 07015KT 6000 -SN SCT024 OVC030 M01/M04
                        Q0996 TEMPO 3000=
201803011650 METAR COR EGLL 011650Z 08014KT 5000 -SN OVC022 M01/M04 Q0997
                        TEMPO 3000=
201803011620 METAR COR EGLL 011620Z 07016KT 4000 -SN BKN023 M01/M04 Q0997
                        TEMPO 2500 BKN012=
201803011550 METAR COR EGLL 011550Z 07016KT 7000 -SN OVC018 M01/M05 Q0997
                        TEMPO 3000=
201803011520 METAR COR EGLL 011520Z 07017KT 8000 OVC015 M02/M04 Q0997
                        TEMPO 3000 SN=
201803011450 METAR COR EGLL 011450Z 07016KT 7000 OVC013 M02/M04 Q0998
                        TEMPO 3000 -SN=
201803011420 METAR COR EGLL 011420Z 07017KT 7000 OVC013 M02/M04 Q0998
                        TEMPO 3000 -SN=
201803011350 METAR COR EGLL 011350Z 07015KT 7000 -SN OVC014 M02/M04 Q0998
                        TEMPO 4000=
201803011320 METAR COR EGLL 011320Z 07015KT 6000 -SN OVC014 M03/M04 Q0999
                        TEMPO 4000=
201803011250 METAR COR EGLL 011250Z 08015KT 6000 -SN OVC014 M03/M05 Q1000
                        TEMPO 4500=
201803011220 METAR COR EGLL 011220Z 07014G25KT 5000 -SN OVC015 M03/M05
                        Q1000 TEMPO 4000 BKN012=
201803011150 METAR COR EGLL 011150Z 07014KT 7000 BKN015 BKN017 M03/M05
                        Q1000 TEMPO 4500=
201803011120 METAR COR EGLL 011120Z 07017KT 6000 -SN SCT014 BKN018 OVC027
                        M03/M05 Q1000 TEMPO 4000=
201803011050 METAR COR EGLL 011050Z 07015KT 030V090 6000 -SN SCT014 BKN021
                        M03/M05 Q1001 TEMPO 4000=
201803011020 METAR COR EGLL 011020Z 06012KT 4000 -SN FEW015 SCT021 BKN032
                        M04/M05 Q1001 TEMPO 5000=
201803010950 METAR COR EGLL 010950Z 07015KT 2800 -SN BKN016 OVC023 M04/M05
                        Q1002 TEMPO 5000=
201803010920 METAR COR EGLL 010920Z 07014KT 4500 -SN BKN018 OVC026 M04/M06
                        Q1002 TEMPO 6000=
201803010850 METAR COR EGLL 010850Z 07014KT 5000 -SN BKN018 BKN022 OVC027
                        M04/M06 Q1002 TEMPO 4000=
201803010820 METAR COR EGLL 010820Z 06014KT 3600 -SN BKN016 OVC025 M04/M05
                        Q1003 TEMPO 4500=
201803010750 METAR COR EGLL 010750Z 06013KT 2800 -SN BKN015 BKN020 OVC027
                        M04/M06 Q1003 TEMPO 4000 BKN012=
201803010720 METAR COR EGLL 010720Z 06013KT 2500 -SN FEW009 SCT014 BKN019
                        M05/M06 Q1003 TEMPO 4000=
201803010650 METAR COR EGLL 010650Z 07013KT 2200 -SN SCT013 BKN018 OVC028
                        M05/M06 Q1004 TEMPO SN BKN010=
201803010620 METAR COR EGLL 010620Z 07018KT 7000 -SHSN BKN024 M04/M07
                        Q1004 TEMPO 2000 SN BKN010=
201803010550 METAR COR EGLL 010550Z 07018G28KT 8000 BKN023 M04/M07 Q1004
                        TEMPO 4000 SN=
201803010520 METAR COR EGLL 010520Z 07014G25KT 9000 BKN025 M04/M08 Q1005
                        NOSIG=
201803010450 METAR COR EGLL 010450Z 07015G29KT 9000 -SHSN BKN024 M04/M07
                        Q1005 RESG NOSIG=
201803010420 METAR COR EGLL 010420Z AUTO 07015KT 6000 -SN BKN021 OVC025
                        M04/M07 Q1005 NOSIG=
201803010350 METAR COR EGLL 010350Z AUTO 06012KT 6000 -SN BKN021 OVC028
                        M04/M07 Q1006 NOSIG=
201803010320 METAR COR EGLL 010320Z AUTO 06013KT 5000 -SN BKN023 OVC029
                        M04/M07 Q1006 NOSIG=
201803010250 METAR COR EGLL 010250Z AUTO 06013KT 6000 -SN BKN024 OVC031
                        M04/M07 Q1007 TEMPO 4000 SHSN=
201803010220 METAR COR EGLL 010220Z AUTO 06012KT 4500 -SN BKN023 OVC028
                        M04/M07 Q1007 TEMPO SHSN=
201803010150 METAR COR EGLL 010150Z AUTO 06011KT 5000 -SN SCT023 BKN028
                        OVC033 M04/M07 Q1008 TEMPO 4000 SHSN=
201803010120 METAR COR EGLL 010120Z AUTO 07013KT 8000 -SN FEW027 OVC033
                        M04/M08 Q1008 NOSIG=
201803010050 METAR COR EGLL 010050Z AUTO 07014KT 8000 -SN FEW028 BKN036
                        OVC043 M04/M08 Q1009 NOSIG=
201803010020 METAR COR EGLL 010020Z AUTO 07015KT 9000 -SN SCT027 OVC034
                        M04/M08 Q1009 NOSIG=

</pre>

</body>
</html>
