##########################################################
# Query made at 01/13/2020 12:19:14 UTC
# Time interval: from 03/01/2016 00:00  to 03/31/2016 23:59  UTC
##########################################################

##########################################################
# EGLL, London / Heathrow Airport (United Kingdom)
# WMO index: 03772
# Latitude 51-29N. Longitude 000-27W. Altitude 24 m.
##########################################################

###################################
#  METAR/SPECI from EGLL
###################################
201603312350 METAR COR EGLL 312350Z AUTO 09001KT 9999 NCD 05/02 Q1019
                        NOSIG=
201603312320 METAR COR EGLL 312320Z AUTO 00000KT 9999 NCD 05/02 Q1019
                        NOSIG=
201603312250 METAR COR EGLL 312250Z AUTO VRB01KT 9999 NCD 06/02 Q1019
                        NOSIG=
201603312220 METAR COR EGLL 312220Z AUTO 28002KT 9999 NCD 07/02 Q1019
                        NOSIG=
201603312150 METAR COR EGLL 312150Z AUTO 06002KT 9999 NCD 07/02 Q1019
                        NOSIG=
201603312120 METAR COR EGLL 312120Z AUTO VRB01KT 9999 NCD 08/02 Q1019
                        NOSIG=
201603312050 METAR COR EGLL 312050Z AUTO 08003KT 9999 NCD 08/02 Q1019
                        NOSIG=
201603312020 METAR COR EGLL 312020Z AUTO 12005KT 090V160 9999 NCD 07/02
                        Q1019 NOSIG=
201603311950 METAR COR EGLL 311950Z AUTO 12007KT 100V160 9999 SCT038 07/02
                        Q1018 NOSIG=
201603311920 METAR COR EGLL 311920Z AUTO 07006KT 360V120 9999 NCD 10/01
                        Q1018 NOSIG=
201603311850 METAR COR EGLL 311850Z AUTO 35003KT 9999 NCD 10/M00 Q1017
                        NOSIG=
201603311820 METAR COR EGLL 311820Z AUTO 36004KT 9999 NCD 11/M01 Q1017
                        NOSIG=
201603311750 METAR COR EGLL 311750Z AUTO 36004KT 320V030 9999 NCD 11/01
                        Q1017 NOSIG=
201603311720 METAR COR EGLL 311720Z AUTO 36004KT 320V050 9999 NCD 11/00
                        Q1016 NOSIG=
201603311650 METAR COR EGLL 311650Z AUTO 01006KT 310V050 9999 NCD 12/M00
                        Q1016 NOSIG=
201603311620 METAR COR EGLL 311620Z AUTO 01006KT 9999 NCD 12/M01 Q1016
                        NOSIG=
201603311550 METAR COR EGLL 311550Z AUTO 04005KT 360V080 9999 NCD 12/M01
                        Q1016 NOSIG=
201603311520 METAR COR EGLL 311520Z AUTO 03006KT 350V090 9999 NCD 12/M01
                        Q1016 NOSIG=
201603311450 METAR COR EGLL 311450Z AUTO 36006KT 330V030 9999 BKN049 12/M01
                        Q1015 NOSIG=
201603311420 METAR COR EGLL 311420Z AUTO 35006KT 9999 BKN049 12/00 Q1015
                        NOSIG=
201603311350 METAR COR EGLL 311350Z AUTO 01005KT 310V060 9999 BKN045 12/01
                        Q1015 NOSIG=
201603311320 METAR COR EGLL 311320Z AUTO 02006KT 340V080 9999 BKN043 11/01
                        Q1015 NOSIG=
201603311250 METAR COR EGLL 311250Z AUTO 36007KT 310V030 9999 BKN041 11/01
                        Q1015 NOSIG=
201603311220 METAR COR EGLL 311220Z AUTO 36006KT 9999 BKN038 11/01 Q1015
                        NOSIG=
201603311150 METAR COR EGLL 311150Z AUTO 35005KT 270V080 9999 BKN036 10/01
                        Q1015 NOSIG=
201603311120 METAR COR EGLL 311120Z AUTO 36005KT 300V060 9999 SCT036 11/02
                        Q1016 NOSIG=
201603311050 METAR COR EGLL 311050Z AUTO 35006KT 310V050 9999 BKN035 10/01
                        Q1016 NOSIG=
201603311020 METAR COR EGLL 311020Z AUTO 35006KT 310V040 9999 FEW029 09/02
                        Q1016 NOSIG=
201603310950 METAR COR EGLL 310950Z AUTO 35006KT 310V040 9999 BKN027 10/03
                        Q1016 NOSIG=
201603310920 METAR COR EGLL 310920Z AUTO 01006KT 320V080 9999 SCT026 09/03
                        Q1016 NOSIG=
201603310850 METAR COR EGLL 310850Z AUTO 02005KT 330V060 9999 NCD 09/03
                        Q1016 NOSIG=
201603310820 METAR COR EGLL 310820Z AUTO 02005KT 330V050 9999 NCD 08/03
                        Q1015 NOSIG=
201603310750 METAR COR EGLL 310750Z AUTO 36005KT 330V030 9999 NCD 07/02
                        Q1015 NOSIG=
201603310720 METAR COR EGLL 310720Z AUTO VRB03KT 9999 NCD 06/02 Q1015
                        NOSIG=
201603310650 METAR COR EGLL 310650Z AUTO VRB03KT 9999 NCD 06/02 Q1015
                        NOSIG=
201603310620 METAR COR EGLL 310620Z AUTO VRB03KT 9999 NCD 05/02 Q1014
                        NOSIG=
201603310550 METAR COR EGLL 310550Z AUTO VRB03KT 9999 NCD 05/02 Q1014
                        NOSIG=
201603310520 METAR COR EGLL 310520Z AUTO VRB02KT 9999 NCD 05/01 Q1014
                        NOSIG=
201603310450 METAR COR EGLL 310450Z AUTO VRB02KT 9999 NCD 06/02 Q1013
                        NOSIG=
201603310420 METAR COR EGLL 310420Z AUTO 35002KT 9999 NCD 06/02 Q1013
                        NOSIG=
201603310350 METAR COR EGLL 310350Z AUTO VRB01KT 9999 NCD 06/02 Q1013
                        NOSIG=
201603310320 METAR COR EGLL 310320Z AUTO VRB03KT 9999 NCD 06/02 Q1013
                        NOSIG=
201603310250 METAR COR EGLL 310250Z AUTO VRB02KT 9999 NCD 06/02 Q1012
                        NOSIG=
201603310220 METAR COR EGLL 310220Z AUTO 36003KT 9999 NCD 05/02 Q1012
                        NOSIG=
201603310150 METAR COR EGLL 310150Z AUTO VRB03KT 9999 NCD 06/02 Q1012
                        NOSIG=
201603310120 METAR COR EGLL 310120Z AUTO VRB01KT 9999 NCD 06/03 Q1012
                        NOSIG=
201603310050 METAR COR EGLL 310050Z AUTO VRB01KT 9999 NCD 06/03 Q1012
                        NOSIG=
201603310020 METAR COR EGLL 310020Z AUTO 32003KT 9999 NCD 07/03 Q1012
                        NOSIG=
201603302350 METAR COR EGLL 302350Z AUTO 30004KT 9999 NCD 06/02 Q1012
                        NOSIG=
201603302320 METAR COR EGLL 302320Z AUTO 27006KT 9999 NCD 06/02 Q1012
                        NOSIG=
201603302250 METAR COR EGLL 302250Z AUTO 28005KT 9999 NCD 07/02 Q1012
                        NOSIG=
201603302220 METAR COR EGLL 302220Z AUTO 27005KT 9999 NCD 08/03 Q1011
                        NOSIG=
201603302150 METAR COR EGLL 302150Z AUTO 28005KT 9999 NCD 08/04 Q1011
                        NOSIG=
201603302120 METAR COR EGLL 302120Z AUTO 27004KT 9999 NCD 09/04 Q1011
                        NOSIG=
201603302050 METAR COR EGLL 302050Z AUTO 24005KT 9999 NCD 09/04 Q1011
                        NOSIG=
201603302020 METAR COR EGLL 302020Z AUTO 23006KT 9999 NCD 09/04 Q1011
                        NOSIG=
201603301950 METAR COR EGLL 301950Z AUTO VRB03KT 9999 FEW049 10/03 Q1010
                        NOSIG=
201603301920 METAR COR EGLL 301920Z AUTO 31003KT 9999 NCD 10/03 Q1010
                        NOSIG=
201603301850 METAR COR EGLL 301850Z AUTO 31005KT 9999 FEW049/// //////CB
                        11/02 Q1010 NOSIG=
201603301820 METAR COR EGLL 301820Z AUTO 31006KT 9999 SCT048 11/02 Q1009
                        NOSIG=
201603301750 METAR COR EGLL 301750Z AUTO 28007KT 9999 SCT046 11/01 Q1009
                        NOSIG=
201603301720 METAR COR EGLL 301720Z AUTO 29006KT 9999 FEW041 11/02 Q1009
                        NOSIG=
201603301650 METAR COR EGLL 301650Z AUTO 26007KT 230V300 9999 FEW039 12/03
                        Q1009 NOSIG=
201603301620 METAR COR EGLL 301620Z AUTO 29007KT 260V320 9999 FEW043 12/03
                        Q1008 NOSIG=
201603301550 METAR COR EGLL 301550Z AUTO 26010KT 9999 BKN044 12/02 Q1008
                        NOSIG=
201603301520 METAR COR EGLL 301520Z AUTO 27010KT 9999 FEW047 12/02 Q1008
                        NOSIG=
201603301450 METAR COR EGLL 301450Z AUTO 28006KT 240V310 9999 FEW042 12/03
                        Q1008 NOSIG=
201603301420 METAR COR EGLL 301420Z AUTO 26010KT 9999 FEW039 12/02 Q1009
                        NOSIG=
201603301350 METAR COR EGLL 301350Z AUTO 25011KT 9999 FEW033 12/03 Q1009
                        TEMPO SHRA=
201603301320 METAR COR EGLL 301320Z AUTO 26011KT 9999 FEW040 11/04 Q1009
                        TEMPO SHRA=
201603301250 METAR COR EGLL 301250Z AUTO 29010KT 9999 BKN037 11/04 Q1009
                        TEMPO SHRA=
201603301220 METAR COR EGLL 301220Z AUTO 27010KT 9999 BKN039 12/02 Q1009
                        NOSIG=
201603301150 METAR COR EGLL 301150Z AUTO 25015KT 9999 BKN036 11/02 Q1009
                        NOSIG=
201603301120 METAR COR EGLL 301120Z AUTO 26012KT 220V300 9999 FEW030 SCT046
                        11/02 Q1009 TEMPO SHRA=
201603301050 METAR COR EGLL 301050Z AUTO 25012KT 9999 SCT030 10/02 Q1009
                        TEMPO SHRA=
201603301020 METAR COR EGLL 301020Z AUTO 27011KT 9999 FEW028 10/04 Q1009
                        NOSIG=
201603300950 METAR COR EGLL 300950Z AUTO 26011KT 9999 FEW025 10/04 Q1008
                        NOSIG=
201603300920 METAR COR EGLL 300920Z AUTO 25010KT 210V280 9999 FEW038 09/04
                        Q1008 NOSIG=
201603300850 METAR COR EGLL 300850Z AUTO 24009KT 9999 NCD 08/04 Q1008
                        NOSIG=
201603300820 METAR COR EGLL 300820Z AUTO 24009KT 9999 NCD 08/04 Q1008
                        NOSIG=
201603300750 METAR COR EGLL 300750Z AUTO 23009KT 9999 NCD 07/04 Q1007
                        NOSIG=
201603300720 METAR COR EGLL 300720Z AUTO 24009KT 9999 NCD 06/03 Q1007
                        NOSIG=
201603300650 METAR COR EGLL 300650Z AUTO 24010KT 9999 NCD 05/03 Q1007
                        NOSIG=
201603300620 METAR COR EGLL 300620Z AUTO 24009KT 9999 NCD 05/03 Q1006
                        NOSIG=
201603300550 METAR COR EGLL 300550Z AUTO 23008KT 9999 NCD 05/03 Q1006
                        NOSIG=
201603300520 METAR COR EGLL 300520Z AUTO 23009KT 9999 NCD 05/03 Q1006
                        NOSIG=
201603300450 METAR COR EGLL 300450Z AUTO 24009KT 9999 NCD 05/03 Q1005
                        NOSIG=
201603300420 METAR COR EGLL 300420Z AUTO 22007KT 9999 NCD 05/03 Q1005
                        NOSIG=
201603300350 METAR COR EGLL 300350Z AUTO 21006KT 9999 NCD 05/03 Q1005
                        NOSIG=
201603300320 METAR COR EGLL 300320Z AUTO 22005KT 9999 FEW031 05/03 Q1005
                        NOSIG=
201603300250 METAR COR EGLL 300250Z AUTO 21006KT 9999 NCD 05/03 Q1005
                        NOSIG=
201603300220 METAR COR EGLL 300220Z AUTO 21006KT 9999 FEW033 05/03 Q1005
                        NOSIG=
201603300150 METAR COR EGLL 300150Z AUTO 21007KT 9999 SCT031 05/03 Q1005
                        NOSIG=
201603300120 METAR COR EGLL 300120Z AUTO 21007KT 9999 NCD 05/03 Q1005
                        NOSIG=
201603300050 METAR COR EGLL 300050Z AUTO 21009KT 9999 NCD 05/03 Q1005
                        NOSIG=
201603300020 METAR COR EGLL 300020Z AUTO 21007KT 9999 NCD 06/04 Q1005
                        NOSIG=
201603292350 METAR COR EGLL 292350Z AUTO 21007KT 9999 NCD 05/04 Q1005
                        NOSIG=
201603292320 METAR COR EGLL 292320Z AUTO 22006KT 9999 NCD 05/04 Q1005
                        NOSIG=
201603292250 METAR COR EGLL 292250Z AUTO 23006KT 9999 FEW038 06/04 Q1005
                        NOSIG=
201603292220 METAR COR EGLL 292220Z AUTO 22008KT 9999 FEW026 SCT038 06/04
                        Q1005 NOSIG=
201603292150 METAR COR EGLL 292150Z AUTO 23007KT 9999 NCD 06/04 Q1004
                        NOSIG=
201603292120 METAR COR EGLL 292120Z AUTO 24009KT 9999 NCD 07/04 Q1004
                        NOSIG=
201603292050 METAR COR EGLL 292050Z AUTO 24009KT 9999 NCD 07/04 Q1004
                        NOSIG=
201603292020 METAR COR EGLL 292020Z AUTO 25011KT 9999 NCD 07/05 Q1004
                        NOSIG=
201603291950 METAR COR EGLL 291950Z AUTO 22009KT 9999 FEW033 07/05 Q1003
                        NOSIG=
201603291920 METAR COR EGLL 291920Z AUTO 20010KT 9999 -RA SCT010/// BKN023///
                        //////TCU 07/05 Q1003 NOSIG=
201603291850 METAR COR EGLL 291850Z AUTO 21009KT 180V240 9999 FEW020///
                        BKN033/// //////TCU 07/05 Q1003 NOSIG=
201603291820 METAR COR EGLL 291820Z AUTO 20011KT 9999 -RA BKN028/// BKN044///
                        //////CB 07/05 Q1003 NOSIG=
201603291750 METAR COR EGLL 291750Z AUTO 21015G25KT 190V250 9999 -RA OVC021///
                        //////CB 06/05 Q1003 TEMPO SHRA=
201603291720 METAR COR EGLL 291720Z AUTO 24009KT 9000 -RA BKN019/// OVC036///
                        //////CB 07/05 Q1004 TEMPO 4000 +SHRA
                        BKN014=
201603291650 METAR COR EGLL 291650Z AUTO 24011KT 8000 -RA BKN020/// //////TCU
                        07/05 Q1003 TEMPO 4000 +TSRA BKN014CB=
201603291620 METAR COR EGLL 291620Z 22012KT 190V250 8000 VCTS -SHRA SCT012CB
                        BKN030 07/05 Q1004 RETS RESHRA TEMPO
                        4000 +TSRA=
201603291550 METAR COR EGLL 291550Z AUTO 20015KT 9999 FEW038/// //////CB
                        10/03 Q1004 TEMPO 4000 +SHRA=
201603291520 METAR COR EGLL 291520Z AUTO 21017G27KT 9999 FEW048 11/01
                        Q1004 TEMPO 4000 +SHRA=
201603291450 METAR COR EGLL 291450Z AUTO 23015KT 9999 SCT049 12/00 Q1004
                        TEMPO SHRA=
201603291420 METAR COR EGLL 291420Z AUTO 23014KT 9999 NCD 12/M02 Q1004
                        TEMPO SHRA=
201603291350 METAR COR EGLL 291350Z AUTO 25012KT 9999 NCD 12/M01 Q1004
                        TEMPO SHRA=
201603291320 METAR COR EGLL 291320Z AUTO 25015KT 9999 NCD 12/M01 Q1005
                        TEMPO SHRA=
201603291250 METAR COR EGLL 291250Z AUTO 25018KT 9999 NCD 11/M01 Q1004
                        TEMPO SHRA=
201603291220 METAR COR EGLL 291220Z AUTO 25018G28KT 9999 SCT040 11/M01
                        Q1004 TEMPO SHRA=
201603291150 METAR COR EGLL 291150Z AUTO 25016KT 9999 SCT034 11/02 Q1004
                        NOSIG=
201603291120 METAR COR EGLL 291120Z 28012KT 9999 SCT035CB 09/03 Q1004
                        NOSIG=
201603291050 METAR COR EGLL 291050Z 29013KT 9999 VCSH SCT041CB 10/02 Q1004
                        NOSIG=
201603291020 METAR COR EGLL 291020Z 24015KT 9999 SCT036CB 10/01 Q1003
                        NOSIG=
201603290950 METAR COR EGLL 290950Z AUTO 24016G27KT 9999 BKN033 10/02
                        Q1003 NOSIG=
201603290920 METAR COR EGLL 290920Z AUTO 24015KT 9999 SCT030 10/02 Q1003
                        NOSIG=
201603290850 METAR COR EGLL 290850Z AUTO 25017KT 9999 FEW030 09/02 Q1003
                        NOSIG=
201603290820 METAR COR EGLL 290820Z AUTO 24014KT 9999 NCD 08/03 Q1003
                        NOSIG=
201603290750 METAR COR EGLL 290750Z AUTO 24013KT 9999 NCD 07/03 Q1002
                        NOSIG=
201603290720 METAR COR EGLL 290720Z AUTO 24014KT 9999 NCD 07/03 Q1002
                        NOSIG=
201603290650 METAR COR EGLL 290650Z AUTO 23012KT 9999 NCD 06/03 Q1002
                        NOSIG=
201603290620 METAR COR EGLL 290620Z AUTO 23011KT 9999 SCT025 06/03 Q1002
                        NOSIG=
201603290550 METAR COR EGLL 290550Z AUTO 23010KT 9999 BKN021 06/03 Q1001
                        NOSIG=
201603290520 METAR COR EGLL 290520Z AUTO 23013KT 9999 BKN022 06/03 Q1001
                        NOSIG=
201603290450 METAR COR EGLL 290450Z AUTO 23011KT 9999 BKN020 06/03 Q1001
                        NOSIG=
201603290420 METAR COR EGLL 290420Z AUTO 24011KT 9999 FEW020 BKN031 06/03
                        Q1000 NOSIG=
201603290350 METAR COR EGLL 290350Z AUTO 24011KT 9999 SCT019 BKN032 06/03
                        Q1000 TEMPO SHRA=
201603290320 METAR COR EGLL 290320Z AUTO 24013KT 9999 SCT016 OVC032 06/04
                        Q1000 TEMPO SHRA=
201603290250 METAR COR EGLL 290250Z AUTO 23011KT 9999 FEW017 OVC031 06/04
                        Q0999 TEMPO SHRA=
201603290220 METAR COR EGLL 290220Z AUTO 23010KT 9999 OVC032 06/04 Q0999
                        TEMPO SHRA=
201603290150 METAR COR EGLL 290150Z AUTO 23010KT 9999 BKN029 06/03 Q0999
                        NOSIG=
201603290120 METAR COR EGLL 290120Z AUTO 23009KT 9999 NCD 05/03 Q0999
                        NOSIG=
201603290050 METAR COR EGLL 290050Z AUTO 24008KT 9999 FEW034 05/03 Q0999
                        NOSIG=
201603290020 METAR COR EGLL 290020Z AUTO 23008KT 9999 NCD 05/03 Q0998
                        NOSIG=
201603282350 METAR COR EGLL 282350Z AUTO 24005KT 9999 NCD 05/03 Q0998
                        NOSIG=
201603282320 METAR COR EGLL 282320Z AUTO 22008KT 9999 FEW028 05/03 Q0998
                        NOSIG=
201603282250 METAR COR EGLL 282250Z AUTO 23007KT 9999 FEW039 05/03 Q0998
                        NOSIG=
201603282220 METAR COR EGLL 282220Z AUTO 23010KT 9999 FEW027 06/03 Q0997
                        NOSIG=
201603282150 METAR COR EGLL 282150Z AUTO 22010KT 9999 BKN038 06/04 Q0997
                        NOSIG=
201603282120 METAR COR EGLL 282120Z AUTO 23010KT 9999 NCD 06/04 Q0997
                        NOSIG=
201603282050 METAR COR EGLL 282050Z AUTO 23012KT 9999 NCD 06/04 Q0996
                        NOSIG=
201603282020 METAR COR EGLL 282020Z AUTO 23013KT 9999 NCD 06/04 Q0996
                        NOSIG=
201603281950 METAR COR EGLL 281950Z AUTO 23010KT 9999 //////TCU 06/04
                        Q0996 NOSIG=
201603281920 METAR COR EGLL 281920Z AUTO 24011KT 9999 //////TCU 07/04
                        Q0995 TEMPO SHRA=
201603281850 METAR COR EGLL 281850Z AUTO 22010KT 9999 -RA FEW015/// //////TCU
                        07/04 Q0995 TEMPO SHRA=
201603281820 METAR COR EGLL 281820Z AUTO 24012KT 9999 -RA BKN028/// //////TCU
                        08/05 Q0994 TEMPO SHRA=
201603281750 METAR COR EGLL 281750Z AUTO 23009KT 9999 BKN037/// //////TCU
                        08/05 Q0994 TEMPO SHRA=
201603281720 METAR COR EGLL 281720Z AUTO 23009KT 9999 FEW049/// //////TCU
                        08/05 Q0994 TEMPO SHRA=
201603281650 METAR COR EGLL 281650Z AUTO 25008KT 9999 FEW022/// //////CB
                        09/05 Q0993 TEMPO SHRA=
201603281620 METAR COR EGLL 281620Z AUTO 29010KT 9999 -RA SCT009/// BKN022///
                        //////CB 07/05 Q0994 RERA TEMPO SHRA=
201603281550 METAR COR EGLL 281550Z AUTO 23018KT 5000 -RA FEW012/// BKN032///
                        //////CB 08/04 Q0993 TEMPO 4500 SHRA=
201603281520 METAR COR EGLL 281520Z AUTO 27011KT 9999 BKN044/// //////CB
                        11/01 Q0993 TEMPO SHRA=
201603281450 METAR COR EGLL 281450Z AUTO 25016KT 9999 BKN048/// //////CB
                        12/00 Q0993 NOSIG=
201603281420 METAR COR EGLL 281420Z AUTO 27019KT 9999 SCT047 12/00 Q0992
                        NOSIG=
201603281350 METAR EGLL 281350Z AUTO 26020KT 9999 SCT044 12/01 Q0992=
201603281320 METAR COR EGLL 281320Z AUTO 27020KT 9999 //////TCU 12/00
                        Q0992 NOSIG=
201603281250 METAR COR EGLL 281250Z AUTO 26022KT 9999 FEW048 12/M01 Q0992
                        NOSIG=
201603281220 METAR COR EGLL 281220Z AUTO 26023KT 9999 SCT045 12/00 Q0991
                        NOSIG=
201603281150 METAR COR EGLL 281150Z AUTO 26025G35KT 9999 BKN042 11/01
                        Q0991 NOSIG=
201603281120 METAR COR EGLL 281120Z AUTO 25024G34KT 9999 SCT037 10/01
                        Q0990 NOSIG=
201603281050 METAR COR EGLL 281050Z AUTO 26022KT 9999 BKN035 11/02 Q0990
                        NOSIG=
201603281020 METAR COR EGLL 281020Z AUTO 26024KT 9999 SCT032 10/03 Q0989
                        NOSIG=
201603280950 METAR COR EGLL 280950Z AUTO 26024KT 9999 SCT029 09/03 Q0988
                        NOSIG=
201603280920 METAR COR EGLL 280920Z AUTO 26022G36KT 9999 FEW027 09/04
                        Q0987 NOSIG=
201603280850 METAR COR EGLL 280850Z AUTO 25024G35KT 9999 BKN023 07/03
                        Q0986 NOSIG=
201603280820 METAR COR EGLL 280820Z AUTO 25025G35KT 9999 BKN019 06/03
                        Q0985 NOSIG=
201603280750 METAR COR EGLL 280750Z AUTO 25028G38KT 9999 -RA BKN017///
                        OVC032/// //////TCU 06/03 Q0983 NOSIG=
201603280720 METAR COR EGLL 280720Z AUTO 25026KT 9999 -RA BKN012/// OVC025///
                        //////CB 05/03 Q0981 RERA TEMPO 4000
                        RADZ=
201603280650 METAR COR EGLL 280650Z AUTO 25034G48KT 4800 RA OVC011///
                        //////CB 04/02 Q0979 REDZ NOSIG=
201603280620 METAR COR EGLL 280620Z AUTO 23031G43KT 5000 -RADZ OVC015///
                        //////TCU 06/03 Q0976 TEMPO 4000
                        RADZ BKN014=
201603280550 METAR COR EGLL 280550Z AUTO 22026KT 9999 -RA OVC014 07/03
                        Q0975 BECMG 26025G48KT 4500 +RA BKN009=
201603280520 METAR COR EGLL 280520Z AUTO 21028G38KT 9999 OVC019 08/04
                        Q0974 NOSIG=
201603280450 METAR COR EGLL 280450Z AUTO 20033G51KT 8000 -RA BKN018 OVC034
                        09/06 Q0974 NOSIG=
201603280420 METAR COR EGLL 280420Z AUTO 19031G52KT 7000 -RA BKN015///
                        //////TCU 10/08 Q0975 RERA NOSIG=
201603280350 METAR COR EGLL 280350Z AUTO 18024G34KT 9999 -RA BKN012///
                        BKN025/// //////TCU 10/07 Q0976 RERA
                        TEMPO SCT012=
201603280320 METAR COR EGLL 280320Z AUTO 18025G38KT 8000 -RA BKN014///
                        //////TCU 09/07 Q0978 TEMPO 4800
                        SHRA BKN009=
201603280250 METAR COR EGLL 280250Z AUTO 18025G37KT 9999 -RA OVC014///
                        //////TCU 09/06 Q0980 TEMPO 4800
                        +RA BKN009=
201603280220 METAR COR EGLL 280220Z AUTO 18028G40KT 9999 -RA OVC016///
                        //////TCU 09/06 Q0981 TEMPO 4500
                        +SHRA BKN012=
201603280150 METAR COR EGLL 280150Z AUTO 18027G45KT 8000 -RA BKN012 08/06
                        Q0982 TEMPO SCT012 BKN018=
201603280120 METAR COR EGLL 280120Z AUTO 18028G39KT 5000 -RADZ BKN012///
                        OVC025/// //////CB 08/06 Q0983 RERA
                        TEMPO 3500 +RA BKN009=
201603280050 METAR COR EGLL 280050Z AUTO 18029G40KT 5000 -RA BKN013///
                        OVC026/// //////TCU 08/06 Q0985 RERA
                        TEMPO 3500 +RA BKN009=
201603280020 METAR COR EGLL 280020Z AUTO 16022G34KT 6000 -RA BKN012///
                        OVC024/// //////CB 07/06 Q0986 RESHRA
                        RERA TEMPO 4000 RA=
201603272350 METAR COR EGLL 272350Z 17021KT 3500 +SHRA HZ BKN015 FEW023TCU
                        BKN029 07/06 Q0988 RESHRA TEMPO BKN012=
201603272320 METAR COR EGLL 272320Z 18021G32KT 5000 SHRA HZ SCT014 FEW023TCU
                        BKN027 08/06 Q0990 TEMPO 3500 +RA
                        BKN010=
201603272250 METAR COR EGLL 272250Z 17019G32KT 9000 SHRA SCT015 BKN018
                        FEW023TCU BKN029 08/07 Q0991 TEMPO
                        4500 +RA BKN012=
201603272220 METAR COR EGLL 272220Z AUTO 16015KT 9999 -RA BKN011 OVC023
                        08/07 Q0992 TEMPO RA=
201603272150 METAR COR EGLL 272150Z AUTO 17013KT 150V220 9999 -RA BKN011
                        OVC026 08/07 Q0993 BECMG RA=
201603272120 METAR COR EGLL 272120Z AUTO 17012KT 140V230 9999 -RA BKN013
                        OVC027 08/06 Q0995 TEMPO RA SCT013=
201603272050 METAR COR EGLL 272050Z AUTO 18009KT 150V240 9999 -RA BKN015
                        BKN027 BKN037 08/06 Q0996 TEMPO RA
                        BKN013=
201603272020 METAR COR EGLL 272020Z AUTO 18009KT 150V230 9999 SCT016 BKN035
                        07/06 Q0997 TEMPO RA=
201603271950 METAR COR EGLL 271950Z AUTO 20011KT 160V240 9999 -RA BKN023///
                        BKN038/// //////CB 07/05 Q0997 NOSIG=
201603271920 METAR COR EGLL 271920Z AUTO 21012KT 9999 -RA SCT027/// BKN045///
                        //////TCU 07/05 Q0998 NOSIG=
201603271850 METAR COR EGLL 271850Z AUTO 20011KT 180V250 9999 -RA SCT016
                        08/05 Q0998 TEMPO SHRA=
201603271820 METAR COR EGLL 271820Z AUTO 21016KT 9999 -RA FEW017/// BKN027///
                        //////CB 09/04 Q0999 TEMPO SHRA=
201603271750 METAR COR EGLL 271750Z AUTO 21015KT 180V250 5000 -RA FEW014
                        BKN026 BKN041 09/04 Q0999 TEMPO SHRA=
201603271720 METAR COR EGLL 271720Z AUTO 20015KT 9999 SCT028 BKN045 10/04
                        Q0999 TEMPO SHRA=
201603271650 METAR COR EGLL 271650Z AUTO 21019KT 9999 SCT033 10/03 Q0999
                        TEMPO SHRA=
201603271620 METAR COR EGLL 271620Z AUTO 21020KT 9999 BKN033 11/03 Q0999
                        TEMPO SHRA=
201603271550 METAR COR EGLL 271550Z AUTO 22021G37KT 9999 BKN032/// //////CB
                        11/03 Q0999 TEMPO SHRA=
201603271520 METAR COR EGLL 271520Z AUTO 22017G28KT 9999 -RA BKN033///
                        OVC049/// //////TCU 10/03 Q0999 TEMPO
                        SHRA=
201603271450 METAR COR EGLL 271450Z AUTO 21019G31KT 9999 BKN030 11/04
                        Q0999 NOSIG=
201603271420 METAR COR EGLL 271420Z AUTO 23019KT 9999 BKN024 10/05 Q1000
                        NOSIG=
201603271350 METAR COR EGLL 271350Z AUTO 21016KT 9999 SCT025 09/05 Q1000
                        NOSIG=
201603271320 METAR COR EGLL 271320Z AUTO 23015KT 9999 -RA BKN016/// BKN031///
                        //////TCU 07/05 Q1001 RESHRA TEMPO
                        SHRA=
201603271250 METAR COR EGLL 271250Z 24016KT 9999 4500SW SHRA VCTS FEW013CB
                        FEW018 BKN032 07/04 Q1001 RESHRA
                        BECMG NSW=
201603271220 METAR COR EGLL 271220Z AUTO 22017KT 9999 -RA BKN023/// //////CB
                        10/06 Q1000 TEMPO SHRA=
201603271150 METAR COR EGLL 271150Z AUTO 21019G29KT 9999 BKN022 10/05
                        Q1000 TEMPO SHRA=
201603271120 METAR COR EGLL 271120Z AUTO 21015G25KT 9999 FEW023 09/06
                        Q1001 RETS /TEMPO SHRA=
201603271050 METAR COR EGLL 271050Z AUTO 22014KT 9999 -TSRA SCT015///
                        SCT034/// //////CB 07/05 Q1001 RESHRA
                        RERA BECMG NSW=
201603271020 METAR COR EGLL 271020Z 22016G26KT 180V250 4500 +RA VCTS SCT012CB
                        BKN033 09/05 Q1001 BECMG 9999 NSW=
201603270950 METAR COR EGLL 270950Z AUTO 21016G28KT 9999 BKN021/// BKN037///
                        //////CB 10/05 Q1000 TEMPO 4000 SHRA
                        TSGR BKN012CB=
201603270920 METAR COR EGLL 270920Z AUTO 21014KT 9999 BKN020 10/06 Q1001
                        TEMPO SHRA=
201603270850 METAR COR EGLL 270850Z AUTO 21014KT 9999 FEW022 09/05 Q1001
                        TEMPO SHRA=
201603270820 METAR COR EGLL 270820Z AUTO 21013KT 9999 FEW037 08/05 Q1001
                        TEMPO SHRA=
201603270750 METAR COR EGLL 270750Z AUTO 20010KT 9999 FEW028 07/05 Q1001
                        TEMPO SHRA=
201603270720 METAR COR EGLL 270720Z AUTO 20010KT 170V240 9999 FEW018 06/04
                        Q1001 TEMPO SHRA=
201603270650 METAR COR EGLL 270650Z AUTO 18011KT 9999 SCT021 SCT037 06/04
                        Q1001 TEMPO SHRA=
201603270620 METAR COR EGLL 270620Z AUTO 21012KT 9999 -RA BKN018 BKN033
                        07/04 Q1001 TEMPO SHRA=
201603270550 METAR COR EGLL 270550Z AUTO 19013KT 9999 -RA FEW031 SCT040
                        07/04 Q1001 NOSIG=
201603270520 METAR COR EGLL 270520Z AUTO 18012KT 9999 FEW028 06/04 Q1001
                        NOSIG=
201603270450 METAR COR EGLL 270450Z AUTO 19009KT 9999 NCD 06/04 Q1001
                        NOSIG=
201603270420 METAR COR EGLL 270420Z AUTO 18009KT 9999 NCD 06/04 Q1001
                        NOSIG=
201603270350 METAR COR EGLL 270350Z AUTO 19008KT 9999 NCD 06/04 Q1001
                        NOSIG=
201603270320 METAR COR EGLL 270320Z AUTO 18006KT 9999 NCD 06/04 Q1001
                        NOSIG=
201603270250 METAR COR EGLL 270250Z AUTO 19004KT 9999 NCD 06/03 Q1000
                        NOSIG=
201603270220 METAR COR EGLL 270220Z AUTO 21005KT 9999 NCD 06/03 Q1000
                        NOSIG=
201603270150 METAR COR EGLL 270150Z AUTO 21007KT 9999 NCD 06/03 Q1001
                        NOSIG=
201603270120 METAR COR EGLL 270120Z AUTO 21007KT 9999 NCD 06/03 Q1000
                        NOSIG=
201603270050 METAR COR EGLL 270050Z AUTO 21010KT 9999 NCD 07/03 Q1001
                        NOSIG=
201603270020 METAR COR EGLL 270020Z AUTO 21009KT 9999 NCD 08/04 Q1000
                        NOSIG=
201603262350 METAR COR EGLL 262350Z AUTO 22008KT 9999 NCD 08/05 Q0999
                        NOSIG=
201603262320 METAR COR EGLL 262320Z AUTO 22009KT 9999 //////TCU 08/05
                        Q1000 NOSIG=
201603262250 METAR COR EGLL 262250Z AUTO 22011KT 9999 NCD 08/06 Q1000
                        NOSIG=
201603262220 METAR COR EGLL 262220Z AUTO 21011G21KT 180V240 9999 NCD 08/06
                        Q0999 NOSIG=
201603262150 METAR COR EGLL 262150Z AUTO 22011KT 180V250 9999 NCD 08/05
                        Q0999 NOSIG=
201603262120 METAR COR EGLL 262120Z AUTO 23014KT 9999 NCD 08/05 Q0999
                        NOSIG=
201603262050 METAR COR EGLL 262050Z AUTO 22015KT 9999 NCD 08/05 Q0999
                        NOSIG=
201603262020 METAR COR EGLL 262020Z AUTO 20013KT 9999 -RA BKN038/// //////TCU
                        08/06 Q0999 NOSIG=
201603261950 METAR COR EGLL 261950Z AUTO 22012KT 180V250 9999 -RA OVC033
                        08/06 Q0999 NOSIG=
201603261920 METAR COR EGLL 261920Z AUTO 23016KT 9999 -RA BKN028/// OVC046///
                        //////TCU 09/06 Q0999 NOSIG=
201603261850 METAR COR EGLL 261850Z AUTO 24018G32KT 9999 -RA BKN032///
                        OVC048/// //////TCU 09/07 Q0998 NOSIG=
201603261820 METAR COR EGLL 261820Z AUTO 23024G35KT 9999 -RA SCT009///
                        BKN014/// //////CB 12/09 Q0997 RERA
                        BECMG SCT016=
201603261750 METAR COR EGLL 261750Z AUTO 19021KT 170V230 9999 -RA SCT013///
                        BKN028/// //////CB 13/11 Q0996 TEMPO
                        4000 +RA BKN009=
201603261720 METAR COR EGLL 261720Z AUTO 19023KT 170V230 9999 -RA BKN011
                        OVC024 13/11 Q0996 TEMPO RA BKN009=
201603261650 METAR COR EGLL 261650Z 19021G31KT 9999 7000NE -RA BKN012
                        13/11 Q0997 TEMPO RA BKN009=
201603261620 METAR COR EGLL 261620Z AUTO 19020G30KT 170V230 9999 BKN015
                        14/11 Q0997 TEMPO RA BKN012=
201603261550 METAR COR EGLL 261550Z AUTO 18017KT 160V230 9999 -RA BKN013
                        13/11 Q0998 NOSIG=
201603261520 METAR COR EGLL 261520Z AUTO 18020G31KT 160V230 9999 -RA BKN011
                        OVC035 13/11 Q0999 TEMPO SCT011 BKN015=
201603261450 METAR COR EGLL 261450Z AUTO 19022KT 5000 -DZ BKN012 13/11
                        Q1000 TEMPO SCT012 BKN015=
201603261420 METAR COR EGLL 261420Z AUTO 19020KT 9999 OVC011 13/10 Q1000
                        TEMPO 4800 -RADZ BKN009=
201603261350 METAR COR EGLL 261350Z AUTO 19020G32KT 9999 OVC010 12/10
                        Q1001 TEMPO 4800 -RADZ BKN008=
201603261320 METAR COR EGLL 261320Z AUTO 19017G28KT 9000 OVC009 12/10
                        Q1002 TEMPO 4800 DZ=
201603261250 METAR COR EGLL 261250Z AUTO 19016KT 4900 -DZ OVC007 12/10
                        Q1002 TEMPO 8000 NSW SCT007 BKN012=
201603261220 METAR COR EGLL 261220Z AUTO 19019G32KT 4000 HZ OVC008 12/10
                        Q1003 TEMPO 8000 NSW BKN010=
201603261150 METAR COR EGLL 261150Z AUTO 19018KT 4900 HZ OVC007 12/10
                        Q1003 TEMPO 8000 NSW BKN012=
201603261120 METAR COR EGLL 261120Z AUTO 18015KT 9999 OVC007 11/09 Q1004
                        TEMPO 4800 -DZ=
201603261050 METAR COR EGLL 261050Z AUTO 18017KT 8000 OVC005 10/09 Q1005
                        TEMPO BKN010=
201603261020 METAR COR EGLL 261020Z AUTO 18017KT 4500 HZ OVC006 10/09
                        Q1005 TEMPO 8000 NSW SCT007 BKN012=
201603260950 METAR COR EGLL 260950Z AUTO 19015G25KT 4200 HZ OVC006 10/08
                        Q1006 TEMPO 6000 NSW SCT006 BKN010=
201603260920 METAR COR EGLL 260920Z AUTO 18014KT 4100 -RADZ OVC005 09/08
                        Q1006 RERA TEMPO 6000 NSW SCT006
                        BKN010=
201603260850 METAR COR EGLL 260850Z AUTO 17013KT 4000 HZ OVC006 08/07
                        Q1007 TEMPO 7000 NSW BKN010=
201603260820 METAR COR EGLL 260820Z AUTO 17014KT 9000 OVC007 08/06 Q1007
                        TEMPO BKN010=
201603260750 METAR COR EGLL 260750Z AUTO 18011KT 9999 OVC011 09/06 Q1008
                        TEMPO BKN008=
201603260720 METAR COR EGLL 260720Z AUTO 18010KT 9999 BKN015 09/05 Q1008
                        TEMPO BKN012=
201603260650 METAR COR EGLL 260650Z AUTO 19014KT 9999 OVC016 08/05 Q1008
                        TEMPO BKN012=
201603260620 METAR COR EGLL 260620Z AUTO 20016G26KT 180V240 9999 OVC016
                        09/05 Q1009 TEMPO BKN012=
201603260550 METAR EGLL 260550Z AUTO 20015KT 9999 OVC014 09/06 Q1009=
201603260520 METAR EGLL 260520Z AUTO 19014KT 9999 BKN013 09/06 Q1009=
201603260450 METAR COR EGLL 260450Z AUTO 19011KT 9999 FEW025 08/06 Q1009
                        NOSIG=
201603260420 METAR COR EGLL 260420Z AUTO 18012KT 9999 FEW026 08/06 Q1010
                        NOSIG=
201603260350 METAR COR EGLL 260350Z AUTO 18009KT 9999 FEW026 08/05 Q1010
                        NOSIG=
201603260320 METAR COR EGLL 260320Z AUTO 15005KT 9999 NCD 07/05 Q1011
                        TEMPO BKN012=
201603260250 METAR COR EGLL 260250Z AUTO 15004KT 9999 NCD 07/04 Q1011
                        NOSIG=
201603260220 METAR COR EGLL 260220Z AUTO 15006KT 9999 NCD 07/04 Q1011
                        NOSIG=
201603260150 METAR COR EGLL 260150Z AUTO 15006KT 9999 NCD 07/03 Q1012
                        NOSIG=
201603260120 METAR COR EGLL 260120Z AUTO 16006KT 9999 NCD 07/03 Q1013
                        NOSIG=
201603260050 METAR COR EGLL 260050Z AUTO 15006KT 9999 NCD 07/03 Q1013
                        NOSIG=
201603260020 METAR COR EGLL 260020Z AUTO 17005KT 9999 NCD 07/03 Q1014
                        NOSIG=
201603252350 METAR COR EGLL 252350Z AUTO 17005KT 9999 NCD 07/03 Q1015
                        NOSIG=
201603252320 METAR COR EGLL 252320Z AUTO 17005KT 9999 NCD 07/02 Q1015
                        NOSIG=
201603252250 METAR COR EGLL 252250Z AUTO 19008KT 9999 NCD 08/02 Q1015
                        NOSIG=
201603252220 METAR COR EGLL 252220Z AUTO 19009KT 160V240 9999 NCD 08/03
                        Q1015 NOSIG=
201603252150 METAR COR EGLL 252150Z AUTO 20007KT 180V250 9999 NCD 08/03
                        Q1016 NOSIG=
201603252120 METAR COR EGLL 252120Z AUTO 22009KT 190V250 9999 NCD 08/04
                        Q1016 NOSIG=
201603252050 METAR COR EGLL 252050Z AUTO 21009KT 180V260 9999 NCD 09/04
                        Q1016 NOSIG=
201603252020 METAR COR EGLL 252020Z AUTO 21008KT 9999 NCD 09/04 Q1016
                        NOSIG=
201603251950 METAR COR EGLL 251950Z AUTO 20009KT 160V240 9999 NCD 10/05
                        Q1016 NOSIG=
201603251920 METAR COR EGLL 251920Z AUTO 20010KT 180V250 9999 NCD 11/04
                        Q1016 NOSIG=
201603251850 METAR COR EGLL 251850Z AUTO 18007KT 140V230 9999 NCD 11/02
                        Q1015 NOSIG=
201603251820 METAR COR EGLL 251820Z AUTO 21006KT 170V240 9999 NCD 12/02
                        Q1015 NOSIG=
201603251750 METAR COR EGLL 251750Z AUTO 25008KT 9999 NCD 13/01 Q1016
                        NOSIG=
201603251720 METAR COR EGLL 251720Z AUTO 27006KT 9999 NCD 14/02 Q1015
                        NOSIG=
201603251650 METAR COR EGLL 251650Z AUTO 25007KT 220V300 9999 NCD 14/02
                        Q1015 NOSIG=
201603251620 METAR COR EGLL 251620Z AUTO 28008KT 9999 NCD 14/02 Q1015
                        NOSIG=
201603251550 METAR COR EGLL 251550Z AUTO 28005KT 230V340 9999 NCD 14/01
                        Q1015 NOSIG=
201603251520 METAR COR EGLL 251520Z AUTO 28006KT 230V350 9999 SCT049///
                        15/02 Q1015 NOSIG=
201603251450 METAR COR EGLL 251450Z AUTO 26009KT 230V290 9999 FEW049///
                        14/02 Q1015 NOSIG=
201603251420 METAR COR EGLL 251420Z AUTO 27008KT 9999 FEW048 14/02 Q1016
                        NOSIG=
201603251350 METAR COR EGLL 251350Z AUTO 31006KT 250V030 9999 FEW048 14/03
                        Q1016 NOSIG=
201603251320 METAR COR EGLL 251320Z AUTO VRB04KT 9999 FEW042 14/02 Q1015
                        NOSIG=
201603251250 METAR COR EGLL 251250Z AUTO 31005KT 260V350 9999 SCT040 14/03
                        Q1015 NOSIG=
201603251220 METAR COR EGLL 251220Z AUTO 36005KT 330V030 9999 BKN038 13/03
                        Q1015 NOSIG=
201603251150 METAR COR EGLL 251150Z AUTO VRB06KT 9999 BKN037 13/02 Q1015
                        NOSIG=
201603251120 METAR COR EGLL 251120Z AUTO 35006KT 300V030 9999 BKN034 13/04
                        Q1015 NOSIG=
201603251050 METAR COR EGLL 251050Z AUTO 35007KT 310V030 9999 SCT032 11/03
                        Q1015 NOSIG=
201603251020 METAR COR EGLL 251020Z AUTO 32006KT 280V360 9999 NCD 11/04
                        Q1015 NOSIG=
201603250950 METAR COR EGLL 250950Z AUTO 34006KT 300V040 9999 NCD 11/04
                        Q1014 NOSIG=
201603250920 METAR COR EGLL 250920Z AUTO 35008KT 320V030 9999 NCD 10/04
                        Q1014 NOSIG=
201603250850 METAR COR EGLL 250850Z AUTO 34006KT 300V040 9999 NCD 09/04
                        Q1014 NOSIG=
201603250820 METAR COR EGLL 250820Z AUTO 34009KT 300V010 9999 NCD 09/05
                        Q1013 NOSIG=
201603250750 METAR COR EGLL 250750Z AUTO 35006KT 310V020 9999 NCD 08/04
                        Q1013 NOSIG=
201603250720 METAR COR EGLL 250720Z AUTO 32007KT 9999 NCD 08/04 Q1013
                        NOSIG=
201603250650 METAR COR EGLL 250650Z AUTO 32006KT 280V350 9999 FEW039 08/05
                        Q1012 NOSIG=
201603250620 METAR COR EGLL 250620Z AUTO 31006KT 9999 FEW039 OVC049 08/05
                        Q1012 NOSIG=
201603250550 METAR COR EGLL 250550Z AUTO 32004KT 9999 BKN034 08/05 Q1011
                        NOSIG=
201603250520 METAR COR EGLL 250520Z AUTO 33008KT 9999 -RA FEW011 BKN018
                        BKN033 08/06 Q1010 BECMG NSW=
201603250450 METAR COR EGLL 250450Z AUTO 31005KT 280V360 3700 -RADZ BKN002
                        BKN011 09/08 Q1010 REDZ TEMPO 5000
                        NSW SCT002 BKN015=
201603250420 METAR COR EGLL 250420Z AUTO 28006KT 5000 HZ BKN002 09/08
                        Q1009 BECMG SCT003=
201603250350 METAR COR EGLL 250350Z AUTO 27007KT 2800 HZ OVC004 09/08
                        Q1009 BECMG 5000 NSW SCT004 SCT018=
201603250320 METAR COR EGLL 250320Z AUTO 28006KT 9999 BKN007 BKN015 09/08
                        Q1009 BECMG SCT007 SCT018=
201603250250 METAR COR EGLL 250250Z AUTO 25005KT 9999 -RA BKN007 09/08
                        Q1009 BECMG NSW SCT008 BKN018=
201603250220 METAR COR EGLL 250220Z AUTO 23006KT 9999 -RA BKN004 09/08
                        Q1009 BECMG NSW SCT004 BKN012=
201603250150 METAR COR EGLL 250150Z AUTO 23006KT 8000 -RA BKN003 OVC017
                        09/08 Q1009 BECMG SCT004 BKN012=
201603250120 METAR COR EGLL 250120Z AUTO 23007KT 5000 -RADZ BKN004 09/08
                        Q1009 NOSIG=
201603250050 METAR COR EGLL 250050Z AUTO 22008KT 8000 -RA OVC004 09/08
                        Q1009 NOSIG=
201603250020 METAR COR EGLL 250020Z AUTO 22009KT 9999 -RA BKN006 OVC016
                        09/08 Q1009 TEMPO RA SCT008 BKN012=
201603242350 METAR COR EGLL 242350Z AUTO 22009KT 9999 -RA BKN006 09/08
                        Q1009 TEMPO RA SCT008 BKN012=
201603242320 METAR COR EGLL 242320Z AUTO 22009KT 9999 -RA BKN007 09/08
                        Q1010 TEMPO SCT007 BKN010=
201603242250 METAR COR EGLL 242250Z AUTO 22009KT 9999 -RA BKN006 08/07
                        Q1010 TEMPO SCT006 BKN010=
201603242220 METAR COR EGLL 242220Z AUTO 23010KT 9999 -RA BKN007 OVC016
                        08/07 Q1010 TEMPO SCT007 BKN014=
201603242150 METAR COR EGLL 242150Z AUTO 22010KT 9999 -RA BKN006 08/07
                        Q1010 TEMPO SCT006 BKN012=
201603242120 METAR COR EGLL 242120Z AUTO 22011KT 9999 -RA OVC008 08/07
                        Q1010 TEMPO SCT008 BKN012=
201603242050 METAR COR EGLL 242050Z AUTO 22011KT 9000 -RA BKN007 OVC028
                        08/07 Q1011 TEMPO SCT007=
201603242020 METAR COR EGLL 242020Z AUTO 22011KT 9999 -RA SCT006 OVC032
                        08/07 Q1011 TEMPO BKN007=
201603241950 METAR COR EGLL 241950Z AUTO 22011KT 9999 -RA SCT009 BKN032
                        08/07 Q1011 TEMPO BKN009=
201603241920 METAR COR EGLL 241920Z AUTO 22011KT 9999 -RA SCT009 BKN033
                        08/07 Q1011 TEMPO BKN009=
201603241850 METAR COR EGLL 241850Z AUTO 22010KT 9999 -RA BKN010 OVC033
                        08/07 Q1011 TEMPO SCT012=
201603241820 METAR COR EGLL 241820Z AUTO 22009KT 9999 -RA BKN013 OVC034
                        08/07 Q1011 TEMPO SCT014=
201603241750 METAR COR EGLL 241750Z AUTO 23011KT 9999 -RA SCT015 BKN026
                        OVC043 08/07 Q1011 TEMPO BKN014=
201603241720 METAR COR EGLL 241720Z AUTO 23011KT 9999 -RA FEW015 BKN029
                        OVC045 09/07 Q1012 TEMPO BKN014=
201603241650 METAR COR EGLL 241650Z AUTO 23013KT 9999 -RA SCT012 BKN026
                        OVC040 09/07 Q1012 TEMPO BKN012=
201603241620 METAR COR EGLL 241620Z AUTO 23012KT 9999 -RA BKN012 OVC044
                        09/07 Q1012 TEMPO SCT012=
201603241550 METAR COR EGLL 241550Z AUTO 24010KT 9999 -RA SCT014 BKN026
                        OVC043 10/07 Q1012 TEMPO BKN012=
201603241520 METAR COR EGLL 241520Z AUTO 24011KT 9999 -RA SCT016 BKN031
                        10/07 Q1012 TEMPO BKN014=
201603241450 METAR COR EGLL 241450Z AUTO 23009KT 5000 -RA SCT017 BKN027
                        OVC043 10/07 Q1012 NOSIG=
201603241420 METAR COR EGLL 241420Z 25010KT 9999 -RA FEW027 SCT042 10/06
                        Q1012 NOSIG=
201603241350 METAR EGLL 241350Z AUTO 24012KT 9999 -RA FEW016/// SCT023///
                        BKN037/// //////TCU 11/06 Q1013=
201603241320 METAR COR EGLL 241320Z AUTO 26015KT 9999 -RA BKN027/// //////TCU
                        11/05 Q1013 NOSIG=
201603241250 METAR COR EGLL 241250Z AUTO 23010KT 9999 -RA BKN025 11/05
                        Q1013 NOSIG=
201603241220 METAR COR EGLL 241220Z AUTO 25010KT 9999 BKN024 11/05 Q1013
                        NOSIG=
201603241150 METAR COR EGLL 241150Z AUTO 26013KT 9999 BKN021 10/05 Q1013
                        NOSIG=
201603241120 METAR COR EGLL 241120Z AUTO 24010KT 9999 BKN020 10/05 Q1014
                        NOSIG=
201603241050 METAR COR EGLL 241050Z AUTO 24010KT 200V260 9999 FEW020 10/05
                        Q1014 NOSIG=
201603241020 METAR COR EGLL 241020Z AUTO 23009KT 9999 NCD 09/05 Q1014
                        NOSIG=
201603240950 METAR COR EGLL 240950Z AUTO 22009KT 9999 FEW018 09/04 Q1014
                        NOSIG=
201603240920 METAR COR EGLL 240920Z AUTO 24009KT 9999 FEW017 09/05 Q1014
                        NOSIG=
201603240850 METAR COR EGLL 240850Z AUTO 24008KT 9999 NCD 08/04 Q1014
                        NOSIG=
201603240820 METAR COR EGLL 240820Z AUTO 23008KT 9999 NCD 08/04 Q1014
                        NOSIG=
201603240750 METAR COR EGLL 240750Z AUTO 22006KT 9000 NCD 07/03 Q1015
                        NOSIG=
201603240720 METAR COR EGLL 240720Z AUTO 23006KT 8000 OVC047 06/03 Q1015
                        NOSIG=
201603240650 METAR COR EGLL 240650Z AUTO 24005KT 7000 FEW033 05/02 Q1015
                        NOSIG=
201603240620 METAR COR EGLL 240620Z AUTO 22006KT 180V260 7000 FEW033 05/02
                        Q1014 NOSIG=
201603240550 METAR COR EGLL 240550Z AUTO 21005KT 7000 NCD 05/02 Q1014
                        NOSIG=
201603240520 METAR COR EGLL 240520Z AUTO 21004KT 7000 NCD 05/02 Q1014
                        NOSIG=
201603240450 METAR COR EGLL 240450Z AUTO 22004KT 7000 NCD 05/02 Q1014
                        NOSIG=
201603240420 METAR COR EGLL 240420Z AUTO 23004KT 6000 NCD 05/01 Q1014
                        NOSIG=
201603240350 METAR COR EGLL 240350Z AUTO 26004KT 6000 NCD 06/02 Q1015
                        NOSIG=
201603240320 METAR COR EGLL 240320Z AUTO 27006KT 6000 NCD 06/01 Q1015
                        NOSIG=
201603240250 METAR COR EGLL 240250Z AUTO 27004KT 7000 NCD 06/01 Q1015
                        NOSIG=
201603240220 METAR COR EGLL 240220Z AUTO 26006KT 7000 FEW043 06/01 Q1015
                        NOSIG=
201603240150 METAR COR EGLL 240150Z AUTO 27005KT 7000 BKN044 07/01 Q1015
                        NOSIG=
201603240120 METAR COR EGLL 240120Z AUTO 26006KT 7000 OVC045 07/02 Q1016
                        NOSIG=
201603240050 METAR COR EGLL 240050Z AUTO 26006KT 7000 OVC045 08/02 Q1016
                        NOSIG=
201603240020 METAR COR EGLL 240020Z AUTO 27006KT 7000 OVC044 08/02 Q1016
                        NOSIG=
201603232350 METAR COR EGLL 232350Z AUTO 28007KT 7000 OVC044 08/02 Q1016
                        NOSIG=
201603232320 METAR COR EGLL 232320Z AUTO 28006KT 7000 OVC044 08/02 Q1016
                        NOSIG=
201603232250 METAR COR EGLL 232250Z AUTO 26008KT 7000 OVC041 09/02 Q1016
                        NOSIG=
201603232220 METAR COR EGLL 232220Z AUTO 24008KT 200V260 8000 OVC042 09/02
                        Q1016 NOSIG=
201603232150 METAR COR EGLL 232150Z AUTO 25005KT 220V290 8000 OVC042 09/02
                        Q1016 NOSIG=
201603232120 METAR COR EGLL 232120Z AUTO 23006KT 200V290 8000 OVC042 09/02
                        Q1016 NOSIG=
201603232050 METAR COR EGLL 232050Z AUTO 19004KT 130V240 8000 OVC044 09/02
                        Q1016 NOSIG=
201603232020 METAR COR EGLL 232020Z AUTO VRB02KT 8000 OVC044 09/01 Q1016
                        NOSIG=
201603231950 METAR COR EGLL 231950Z AUTO VRB02KT 8000 OVC046 09/01 Q1016
                        NOSIG=
201603231920 METAR COR EGLL 231920Z AUTO VRB03KT 8000 OVC045 09/02 Q1016
                        NOSIG=
201603231850 METAR COR EGLL 231850Z AUTO 35005KT 9000 OVC045 09/02 Q1016
                        NOSIG=
201603231820 METAR COR EGLL 231820Z AUTO 31005KT 9999 OVC045 09/01 Q1016
                        NOSIG=
201603231750 METAR COR EGLL 231750Z AUTO 33005KT 300V010 9999 OVC043 09/01
                        Q1016 NOSIG=
201603231720 METAR COR EGLL 231720Z AUTO 32005KT 9999 OVC043 10/01 Q1016
                        NOSIG=
201603231650 METAR COR EGLL 231650Z AUTO 31005KT 280V350 9999 BKN041 10/01
                        Q1016 NOSIG=
201603231620 METAR COR EGLL 231620Z AUTO 30005KT 270V330 9999 OVC038 10/01
                        Q1016 NOSIG=
201603231550 METAR COR EGLL 231550Z AUTO 28006KT 240V310 9999 OVC038 10/01
                        Q1016 NOSIG=
201603231520 METAR EGLL 231520Z AUTO 27005KT 240V310 9999 OVC037 10/02
                        Q1016=
201603231450 METAR EGLL 231450Z AUTO 27006KT 220V290 9999 OVC037 10/01
                        Q1016=
201603231420 METAR COR EGLL 231420Z AUTO 27005KT 9999 OVC037 10/01 Q1016
                        NOSIG=
201603231350 METAR COR EGLL 231350Z AUTO 28004KT 260V330 9999 OVC037 10/01
                        Q1016 NOSIG=
201603231320 METAR COR EGLL 231320Z AUTO VRB03KT 9999 OVC034 10/01 Q1017
                        NOSIG=
201603231250 METAR COR EGLL 231250Z AUTO VRB03KT 9999 OVC031 10/02 Q1017
                        NOSIG=
201603231220 METAR COR EGLL 231220Z AUTO VRB03KT 9999 OVC032 10/02 Q1017
                        NOSIG=
201603231150 METAR COR EGLL 231150Z AUTO VRB03KT 9000 OVC038 10/02 Q1017
                        NOSIG=
201603231120 METAR COR EGLL 231120Z AUTO VRB03KT 9000 OVC038 09/03 Q1018
                        NOSIG=
201603231050 METAR COR EGLL 231050Z AUTO VRB02KT 9000 OVC038 09/02 Q1018=
201603231020 METAR COR EGLL 231020Z AUTO VRB03KT 9999 OVC038 09/02 Q1018
                        NOSIG=
201603230950 METAR COR EGLL 230950Z AUTO VRB03KT 9000 OVC039 09/02 Q1018
                        NOSIG=
201603230920 METAR COR EGLL 230920Z AUTO VRB02KT 9000 OVC038 09/02 Q1018
                        NOSIG=
201603230850 METAR COR EGLL 230850Z AUTO VRB02KT 9000 FEW026 OVC038 08/03
                        Q1017 NOSIG=
201603230820 METAR COR EGLL 230820Z AUTO VRB02KT 9000 BKN030 08/03 Q1017
                        NOSIG=
201603230750 METAR COR EGLL 230750Z AUTO VRB03KT 9000 OVC030 08/03 Q1017
                        NOSIG=
201603230720 METAR COR EGLL 230720Z AUTO VRB02KT 9000 OVC038 08/03 Q1017
                        NOSIG=
201603230650 METAR COR EGLL 230650Z AUTO VRB02KT 9000 OVC039 07/03 Q1017
                        NOSIG=
201603230620 METAR COR EGLL 230620Z AUTO 35002KT 9999 OVC040 07/03 Q1017
                        NOSIG=
201603230550 METAR COR EGLL 230550Z AUTO VRB02KT 9999 OVC041 07/03 Q1017
                        NOSIG=
201603230520 METAR COR EGLL 230520Z AUTO 02004KT 9999 OVC041 07/03 Q1016
                        NOSIG=
201603230450 METAR COR EGLL 230450Z AUTO 02004KT 9999 OVC042 07/03 Q1016
                        NOSIG=
201603230420 METAR COR EGLL 230420Z AUTO VRB03KT 9999 OVC043 06/03 Q1016
                        NOSIG=
201603230350 METAR COR EGLL 230350Z AUTO 34002KT 9999 OVC042 06/03 Q1016
                        NOSIG=
201603230320 METAR COR EGLL 230320Z AUTO 36003KT 9999 OVC043 06/03 Q1016
                        NOSIG=
201603230250 METAR COR EGLL 230250Z AUTO 35003KT 9999 OVC043 06/03 Q1016
                        NOSIG=
201603230220 METAR COR EGLL 230220Z AUTO 33002KT 9999 OVC044 06/03 Q1016
                        NOSIG=
201603230150 METAR COR EGLL 230150Z AUTO 35003KT 9999 OVC043 07/03 Q1016
                        NOSIG=
201603230120 METAR COR EGLL 230120Z AUTO VRB03KT 9999 OVC043 07/03 Q1016
                        NOSIG=
201603230050 METAR EGLL 230050Z AUTO VRB02KT 9999 OVC042 07/02 Q1016=
201603230020 METAR COR EGLL 230020Z AUTO 04003KT 9999 BKN043 08/03 Q1017
                        NOSIG=
201603222350 METAR COR EGLL 222350Z AUTO 05004KT 9999 OVC044 08/03 Q1017
                        NOSIG=
201603222320 METAR COR EGLL 222320Z AUTO 05003KT 9999 OVC044 08/03 Q1017
                        NOSIG=
201603222250 METAR COR EGLL 222250Z AUTO VRB03KT 9999 OVC044 08/03 Q1016
                        NOSIG=
201603222220 METAR COR EGLL 222220Z AUTO 05004KT 020V090 9999 BKN044 08/03
                        Q1016 NOSIG=
201603222150 METAR COR EGLL 222150Z AUTO 02004KT 340V060 9999 OVC044 08/03
                        Q1016 NOSIG=
201603222120 METAR COR EGLL 222120Z AUTO 02004KT 350V070 9999 BKN044 08/03
                        Q1016 NOSIG=
201603222050 METAR COR EGLL 222050Z AUTO 02005KT 340V060 9999 BKN043 09/02
                        Q1016 NOSIG=
201603222020 METAR COR EGLL 222020Z AUTO 02003KT 9999 FEW045 09/02 Q1016
                        NOSIG=
201603221950 METAR COR EGLL 221950Z AUTO 01003KT 9999 FEW046 09/02 Q1016
                        NOSIG=
201603221920 METAR COR EGLL 221920Z AUTO 36004KT 9999 NCD 10/02 Q1016
                        NOSIG=
201603221850 METAR COR EGLL 221850Z AUTO 36004KT 9999 NCD 10/02 Q1016
                        NOSIG=
201603221820 METAR COR EGLL 221820Z AUTO 35004KT 9999 SCT048 11/02 Q1016
                        NOSIG=
201603221750 METAR COR EGLL 221750Z AUTO 34004KT 310V030 9999 BKN046 11/02
                        Q1016 NOSIG=
201603221720 METAR COR EGLL 221720Z AUTO 33006KT 300V010 9999 BKN046 12/02
                        Q1016 NOSIG=
201603221650 METAR COR EGLL 221650Z AUTO 31006KT 270V340 9999 BKN047 12/02
                        Q1016 NOSIG=
201603221620 METAR COR EGLL 221620Z AUTO 29006KT 250V020 9999 FEW044 12/02
                        Q1016 NOSIG=
201603221550 METAR COR EGLL 221550Z AUTO 31005KT 260V010 9999 FEW044 12/02
                        Q1016 NOSIG=
201603221520 METAR COR EGLL 221520Z AUTO 31004KT 270V020 9999 FEW045 13/01
                        Q1016 NOSIG=
201603221450 METAR COR EGLL 221450Z AUTO 32005KT 290V350 9999 BKN043 13/02
                        Q1016 NOSIG=
201603221420 METAR COR EGLL 221420Z AUTO VRB06KT 9999 FEW043 13/01 Q1016
                        NOSIG=
201603221350 METAR COR EGLL 221350Z AUTO 24005KT 180V360 9999 FEW043 13/01
                        Q1017 NOSIG=
201603221320 METAR COR EGLL 221320Z AUTO 22004KT 140V280 9999 NCD 13/01
                        Q1017 NOSIG=
201603221250 METAR COR EGLL 221250Z AUTO 26005KT 200V340 9999 NCD 12/01
                        Q1017 NOSIG=
201603221220 METAR COR EGLL 221220Z AUTO VRB03KT 9999 BKN036 12/01 Q1018
                        NOSIG=
201603221150 METAR COR EGLL 221150Z AUTO VRB03KT 9999 BKN034 12/02 Q1018
                        NOSIG=
201603221120 METAR COR EGLL 221120Z AUTO VRB03KT 9999 FEW033 11/01 Q1018
                        NOSIG=
201603221050 METAR COR EGLL 221050Z AUTO VRB02KT 9999 NCD 10/02 Q1018
                        NOSIG=
201603221020 METAR COR EGLL 221020Z AUTO 18004KT 140V260 9999 NCD 10/03
                        Q1018 NOSIG=
201603220950 METAR COR EGLL 220950Z AUTO VRB03KT 9999 NCD 10/02 Q1019
                        NOSIG=
201603220920 METAR COR EGLL 220920Z AUTO VRB03KT 9000 NCD 09/03 Q1019
                        NOSIG=
201603220850 METAR COR EGLL 220850Z AUTO VRB02KT 9000 NCD 07/02 Q1019
                        NOSIG=
201603220820 METAR COR EGLL 220820Z AUTO VRB02KT 8000 NCD 06/02 Q1019
                        NOSIG=
201603220750 METAR COR EGLL 220750Z AUTO VRB03KT 7000 NCD 04/02 Q1019
                        NOSIG=
201603220720 METAR COR EGLL 220720Z AUTO VRB03KT 6000 NCD 03/01 Q1019
                        NOSIG=
201603220650 METAR COR EGLL 220650Z AUTO VRB03KT 6000 NCD 02/00 Q1019
                        NOSIG=
201603220620 METAR COR EGLL 220620Z AUTO VRB01KT 6000 NCD 01/M00 Q1019
                        NOSIG=
201603220550 METAR COR EGLL 220550Z AUTO 30002KT 6000 NCD 02/00 Q1019
                        NOSIG=
201603220520 METAR COR EGLL 220520Z AUTO 28001KT 6000 NCD 02/01 Q1019
                        TEMPO 4800 HZ=
201603220450 METAR COR EGLL 220450Z AUTO 29002KT 5000 HZ NCD 02/00 Q1019
                        NOSIG=
201603220420 METAR COR EGLL 220420Z AUTO 28004KT 6000 NCD 03/01 Q1019
                        NOSIG=
201603220350 METAR COR EGLL 220350Z AUTO 28004KT 7000 NCD 03/01 Q1019
                        NOSIG=
201603220320 METAR COR EGLL 220320Z AUTO 26004KT 8000 NCD 03/01 Q1019
                        NOSIG=
201603220250 METAR COR EGLL 220250Z AUTO 27003KT 8000 NCD 03/01 Q1020
                        NOSIG=
201603220220 METAR COR EGLL 220220Z AUTO 26001KT 8000 NCD 04/01 Q1020
                        NOSIG=
201603220150 METAR COR EGLL 220150Z AUTO 31001KT 9000 NCD 04/01 Q1020
                        NOSIG=
201603220120 METAR COR EGLL 220120Z AUTO 27001KT 9000 NCD 04/01 Q1020
                        NOSIG=
201603220050 METAR COR EGLL 220050Z AUTO 28003KT 9999 NCD 03/01 Q1020
                        NOSIG=
201603220020 METAR COR EGLL 220020Z AUTO 29002KT 8000 NCD 04/01 Q1020
                        NOSIG=
201603212350 METAR COR EGLL 212350Z AUTO VRB01KT 9999 NCD 05/01 Q1021
                        NOSIG=
201603212320 METAR COR EGLL 212320Z AUTO 36002KT 9999 NCD 06/01 Q1021
                        NOSIG=
201603212250 METAR COR EGLL 212250Z AUTO 35002KT 9999 NCD 07/01 Q1021
                        NOSIG=
201603212220 METAR COR EGLL 212220Z AUTO 33001KT 9999 NCD 06/01 Q1021
                        NOSIG=
201603212150 METAR COR EGLL 212150Z AUTO VRB02KT 9999 NCD 07/01 Q1021
                        NOSIG=
201603212120 METAR COR EGLL 212120Z AUTO VRB02KT 9999 FEW039 07/01 Q1021
                        NOSIG=
201603212050 METAR COR EGLL 212050Z AUTO 31003KT 9999 SCT038 08/01 Q1021
                        NOSIG=
201603212020 METAR COR EGLL 212020Z AUTO 30003KT 9999 OVC039 08/01 Q1021
                        NOSIG=
201603211950 METAR COR EGLL 211950Z AUTO 31003KT 9999 OVC039 09/01 Q1021
                        NOSIG=
201603211920 METAR COR EGLL 211920Z AUTO VRB03KT 9999 OVC037 09/01 Q1021
                        NOSIG=
201603211850 METAR COR EGLL 211850Z AUTO 34005KT 310V020 9999 BKN039 09/00
                        Q1021 NOSIG=
201603211820 METAR COR EGLL 211820Z AUTO 35007KT 310V020 9999 OVC039 09/01
                        Q1022 NOSIG=
201603211750 METAR COR EGLL 211750Z AUTO 35007KT 320V030 9999 OVC038 09/02
                        Q1022 NOSIG=
201603211720 METAR COR EGLL 211720Z AUTO 36007KT 320V040 9999 OVC039 09/02
                        Q1022 NOSIG=
201603211650 METAR COR EGLL 211650Z AUTO 33007KT 9999 OVC040 10/02 Q1021
                        NOSIG=
201603211620 METAR COR EGLL 211620Z AUTO 34007KT 9999 OVC040 10/02 Q1021
                        NOSIG=
201603211550 METAR COR EGLL 211550Z AUTO 32008KT 9999 BKN038 11/02 Q1021
                        NOSIG=
201603211520 METAR COR EGLL 211520Z AUTO 30009KT 280V340 9999 BKN037 11/02
                        Q1021 NOSIG=
201603211450 METAR COR EGLL 211450Z AUTO 31008KT 280V350 9999 BKN037 12/03
                        Q1022 NOSIG=
201603211420 METAR COR EGLL 211420Z AUTO 32008KT 9999 OVC037 12/02 Q1022
                        NOSIG=
201603211350 METAR COR EGLL 211350Z AUTO 30008KT 260V330 9999 BKN037 12/03
                        Q1022 NOSIG=
201603211320 METAR COR EGLL 211320Z AUTO 30008KT 270V330 9999 OVC039 12/02
                        Q1022 NOSIG=
201603211250 METAR EGLL 211250Z AUTO 30009KT 9999 OVC041 12/02 Q1023=
201603211220 METAR EGLL 211220Z AUTO 29008KT 9999 OVC038 12/02 Q1023=
201603211150 METAR COR EGLL 211150Z AUTO 27010KT 240V300 9999 OVC035 11/02
                        Q1023 NOSIG=
201603211120 METAR COR EGLL 211120Z AUTO 27009KT 9999 BKN032 11/03 Q1024
                        NOSIG=
201603211050 METAR COR EGLL 211050Z AUTO 29007KT 220V320 9999 SCT028 BKN047
                        11/04 Q1024 NOSIG=
201603211020 METAR COR EGLL 211020Z AUTO 28005KT 9999 OVC048 10/04 Q1024
                        NOSIG=
201603210950 METAR COR EGLL 210950Z AUTO 28005KT 250V330 9000 OVC048 10/05
                        Q1024 NOSIG=
201603210920 METAR COR EGLL 210920Z AUTO 30004KT 260V340 9000 OVC049 09/05
                        Q1024 NOSIG=
201603210850 METAR COR EGLL 210850Z AUTO 31004KT 9000 OVC049 09/05 Q1024
                        NOSIG=
201603210820 METAR COR EGLL 210820Z AUTO 30004KT 9000 OVC049 08/05 Q1024
                        NOSIG=
201603210750 METAR COR EGLL 210750Z AUTO 28004KT 9999 OVC047 08/05 Q1024
                        NOSIG=
201603210720 METAR COR EGLL 210720Z AUTO VRB03KT 9999 OVC048 07/05 Q1024
                        NOSIG=
201603210650 METAR COR EGLL 210650Z AUTO 27004KT 220V290 9999 OVC048 07/04
                        Q1024 NOSIG=
201603210620 METAR COR EGLL 210620Z AUTO 27004KT 9999 OVC048 07/04 Q1024
                        NOSIG=
201603210550 METAR COR EGLL 210550Z AUTO 27004KT 9999 OVC048 06/04 Q1024
                        NOSIG=
201603210520 METAR COR EGLL 210520Z AUTO VRB03KT 9999 OVC049 06/04 Q1024
                        NOSIG=
201603210450 METAR COR EGLL 210450Z AUTO VRB03KT 9999 OVC049 07/04 Q1024
                        NOSIG=
201603210420 METAR COR EGLL 210420Z AUTO VRB02KT 9999 OVC049 06/04 Q1024
                        NOSIG=
201603210350 METAR COR EGLL 210350Z AUTO 28003KT 9999 OVC047 06/04 Q1024
                        NOSIG=
201603210320 METAR COR EGLL 210320Z AUTO 28003KT 9999 OVC047 06/04 Q1024
                        NOSIG=
201603210250 METAR COR EGLL 210250Z AUTO VRB02KT 9999 OVC049 07/04 Q1024
                        NOSIG=
201603210220 METAR COR EGLL 210220Z AUTO VRB02KT 9999 NCD 07/04 Q1024
                        NOSIG=
201603210150 METAR COR EGLL 210150Z AUTO 35002KT 9999 OVC048 07/05 Q1024
                        NOSIG=
201603210120 METAR COR EGLL 210120Z AUTO 36003KT 9999 OVC049 07/05 Q1024
                        NOSIG=
201603210050 METAR COR EGLL 210050Z AUTO 01003KT 9999 NCD 07/05 Q1024
                        NOSIG=
201603210020 METAR COR EGLL 210020Z AUTO 04003KT 9999 NCD 07/05 Q1025
                        NOSIG=
201603202350 METAR COR EGLL 202350Z AUTO VRB01KT 9999 NCD 07/05 Q1025
                        NOSIG=
201603202320 METAR COR EGLL 202320Z AUTO VRB01KT 9999 NCD 07/04 Q1025
                        NOSIG=
201603202250 METAR COR EGLL 202250Z AUTO VRB02KT 9999 NCD 08/04 Q1025
                        NOSIG=
201603202220 METAR COR EGLL 202220Z AUTO 01003KT 9999 NCD 08/04 Q1025
                        NOSIG=
201603202150 METAR COR EGLL 202150Z AUTO VRB03KT 9999 NCD 08/04 Q1025
                        NOSIG=
201603202120 METAR COR EGLL 202120Z AUTO VRB03KT 9999 NCD 08/04 Q1024
                        NOSIG=
201603202050 METAR COR EGLL 202050Z AUTO 04004KT 9999 NCD 08/03 Q1024
                        NOSIG=
201603202020 METAR COR EGLL 202020Z AUTO 04004KT 9999 FEW037 08/03 Q1024
                        NOSIG=
201603201950 METAR COR EGLL 201950Z AUTO 04005KT 9999 FEW039 09/03 Q1024
                        NOSIG=
201603201920 METAR COR EGLL 201920Z AUTO VRB03KT 9999 NCD 08/02 Q1024
                        NOSIG=
201603201850 METAR COR EGLL 201850Z AUTO VRB03KT 9999 NCD 08/02 Q1024
                        NOSIG=
201603201820 METAR COR EGLL 201820Z AUTO 02004KT 360V060 9999 NCD 09/02
                        Q1024 NOSIG=
201603201750 METAR COR EGLL 201750Z AUTO 03005KT 340V060 9999 FEW038 10/02
                        Q1024 NOSIG=
201603201720 METAR COR EGLL 201720Z AUTO 04005KT 010V080 9999 BKN037 10/02
                        Q1023 NOSIG=
201603201650 METAR COR EGLL 201650Z AUTO 05005KT 010V080 9999 FEW035 SCT049
                        11/03 Q1023 NOSIG=
201603201620 METAR COR EGLL 201620Z AUTO 04006KT 360V090 9999 NCD 10/02
                        Q1023 NOSIG=
201603201550 METAR COR EGLL 201550Z AUTO 05006KT 020V080 9999 OVC036 10/02
                        Q1023 NOSIG=
201603201520 METAR COR EGLL 201520Z AUTO 08005KT 050V110 9999 OVC039 10/02
                        Q1023 NOSIG=
201603201450 METAR COR EGLL 201450Z AUTO 07006KT 040V110 9999 BKN035 10/02
                        Q1024 NOSIG=
201603201420 METAR COR EGLL 201420Z AUTO 02006KT 350V050 9999 OVC033 09/02
                        Q1024 NOSIG=
201603201350 METAR COR EGLL 201350Z AUTO 06007KT 040V100 9999 OVC034 09/02
                        Q1024 NOSIG=
201603201320 METAR COR EGLL 201320Z AUTO 04008KT 9999 OVC032 09/02 Q1024
                        NOSIG=
201603201250 METAR COR EGLL 201250Z AUTO 05008KT 010V080 9999 OVC030 09/02
                        Q1025 NOSIG=
201603201220 METAR COR EGLL 201220Z AUTO 05008KT 010V090 9999 BKN027 08/02
                        Q1025 NOSIG=
201603201150 METAR COR EGLL 201150Z AUTO 06007KT 330V100 9999 BKN020 08/02
                        Q1025 NOSIG=
201603201120 METAR COR EGLL 201120Z AUTO 05006KT 9999 OVC017 07/03 Q1025
                        NOSIG=
201603201050 METAR COR EGLL 201050Z AUTO 03006KT 340V060 9999 BKN015 07/03
                        Q1025 NOSIG=
201603201020 METAR COR EGLL 201020Z AUTO 03006KT 350V060 9999 SCT015 OVC026
                        07/03 Q1025 NOSIG=
201603200950 METAR COR EGLL 200950Z AUTO 02004KT 320V060 9999 FEW013 OVC025
                        06/03 Q1025 NOSIG=
201603200920 METAR COR EGLL 200920Z AUTO 02006KT 340V050 9999 FEW014 OVC024
                        06/04 Q1025 NOSIG=
201603200850 METAR COR EGLL 200850Z AUTO 03005KT 340V060 9999 OVC022 06/04
                        Q1026 NOSIG=
201603200820 METAR COR EGLL 200820Z AUTO 36005KT 330V030 9999 OVC022 06/04
                        Q1026 NOSIG=
201603200750 METAR COR EGLL 200750Z AUTO 36004KT 340V040 9999 SCT004 OVC020
                        05/04 Q1026 NOSIG=
201603200720 METAR COR EGLL 200720Z AUTO 03004KT 340V060 3400 -RADZ BKN006
                        OVC016 05/04 Q1026 BECMG SCT006 OVC016=
201603200650 METAR COR EGLL 200650Z 02005KT 9999 5000N -SHRA SCT009 BKN018
                        05/03 Q1025 TEMPO BKN012=
201603200620 METAR COR EGLL 200620Z AUTO 03004KT 350V060 8000 -RA BKN011
                        05/03 Q1025 NOSIG=
201603200550 METAR COR EGLL 200550Z AUTO 03005KT 360V060 9999 FEW010 OVC018
                        05/03 Q1025 NOSIG=
201603200520 METAR COR EGLL 200520Z AUTO 02005KT 330V060 6000 BKN013 05/02
                        Q1025 TEMPO BKN018=
201603200450 METAR COR EGLL 200450Z AUTO 02005KT 350V060 9999 BKN015 05/02
                        Q1025 TEMPO BKN014=
201603200420 METAR COR EGLL 200420Z AUTO 05006KT 9999 OVC019 06/02 Q1025
                        NOSIG=
201603200350 METAR COR EGLL 200350Z AUTO 06006KT 9999 OVC020 06/01 Q1025
                        NOSIG=
201603200320 METAR COR EGLL 200320Z AUTO 06006KT 9999 OVC018 06/02 Q1025
                        NOSIG=
201603200250 METAR COR EGLL 200250Z AUTO 05006KT 010V070 9999 OVC018 06/02
                        Q1025 TEMPO BKN014=
201603200220 METAR COR EGLL 200220Z AUTO 05006KT 9999 OVC019 06/02 Q1025
                        NOSIG=
201603200150 METAR COR EGLL 200150Z AUTO 05006KT 360V080 9999 OVC019 06/01
                        Q1026 NOSIG=
201603200120 METAR COR EGLL 200120Z AUTO 05009KT 010V080 9999 OVC020 06/01
                        Q1026 NOSIG=
201603200050 METAR COR EGLL 200050Z AUTO 06009KT 010V080 9999 OVC021 06/01
                        Q1026 NOSIG=
201603200020 METAR COR EGLL 200020Z AUTO 05007KT 9999 OVC021 06/01 Q1026
                        NOSIG=
201603192350 METAR COR EGLL 192350Z AUTO 05008KT 020V080 9999 OVC023 06/01
                        Q1026 NOSIG=
201603192320 METAR COR EGLL 192320Z AUTO 05006KT 010V080 9999 OVC023 06/01
                        Q1026 NOSIG=
201603192250 METAR COR EGLL 192250Z AUTO 05008KT 9999 OVC023 06/01 Q1026
                        NOSIG=
201603192220 METAR COR EGLL 192220Z AUTO 06010KT 9999 OVC023 06/01 Q1026
                        NOSIG=
201603192150 METAR COR EGLL 192150Z AUTO 06009KT 9999 OVC020 06/01 Q1026
                        NOSIG=
201603192120 METAR COR EGLL 192120Z AUTO 04009KT 350V070 9999 OVC021 06/01
                        Q1026 NOSIG=
201603192050 METAR COR EGLL 192050Z AUTO 04008KT 360V070 9999 OVC021 06/02
                        Q1026 NOSIG=
201603192020 METAR COR EGLL 192020Z AUTO 03008KT 9999 OVC021 07/02 Q1026
                        NOSIG=
201603191950 METAR COR EGLL 191950Z AUTO 04007KT 350V070 9999 OVC021 07/02
                        Q1026 NOSIG=
201603191920 METAR COR EGLL 191920Z AUTO 04009KT 9999 OVC021 07/02 Q1026
                        NOSIG=
201603191850 METAR COR EGLL 191850Z AUTO 05008KT 010V080 9999 OVC023 07/02
                        Q1026 NOSIG=
201603191820 METAR COR EGLL 191820Z AUTO 06010KT 9999 OVC022 07/02 Q1026
                        NOSIG=
201603191750 METAR COR EGLL 191750Z AUTO 04008KT 9999 OVC021 08/02 Q1026
                        NOSIG=
201603191720 METAR COR EGLL 191720Z AUTO 05008KT 020V080 9999 OVC022 08/02
                        Q1026 NOSIG=
201603191650 METAR COR EGLL 191650Z AUTO 05008KT 010V090 9999 OVC023 08/02
                        Q1026 NOSIG=
201603191620 METAR COR EGLL 191620Z AUTO 04009KT 360V060 9999 OVC023 08/02
                        Q1026 NOSIG=
201603191550 METAR COR EGLL 191550Z AUTO 03009KT 350V050 9999 OVC023 08/03
                        Q1026 NOSIG=
201603191520 METAR COR EGLL 191520Z AUTO 03008KT 360V060 9999 OVC024 08/03
                        Q1026 NOSIG=
201603191450 METAR EGLL 191450Z AUTO 05008KT 9999 OVC026 08/02 Q1026=
201603191420 METAR COR EGLL 191420Z 04009KT 360V070 9999 BKN028 08/02
                        Q1026 NOSIG=
201603191350 METAR COR EGLL 191350Z AUTO 05009KT 9999 OVC025 09/02 Q1026
                        NOSIG=
201603191320 METAR COR EGLL 191320Z AUTO 05008KT 9999 OVC024 09/02 Q1026
                        NOSIG=
201603191250 METAR COR EGLL 191250Z AUTO 04007KT 360V080 9999 OVC023 09/03
                        Q1026 NOSIG=
201603191220 METAR COR EGLL 191220Z AUTO 06008KT 030V090 9999 OVC022 09/03
                        Q1026 NOSIG=
201603191150 METAR COR EGLL 191150Z AUTO 06008KT 020V100 9999 BKN017 08/03
                        Q1026 NOSIG=
201603191120 METAR COR EGLL 191120Z AUTO 04008KT 350V060 9999 SCT019 BKN029
                        08/04 Q1026 NOSIG=
201603191050 METAR COR EGLL 191050Z AUTO 05008KT 9999 OVC017 07/03 Q1026
                        NOSIG=
201603191020 METAR COR EGLL 191020Z AUTO 06009KT 360V080 9999 OVC019 07/03
                        Q1026 TEMPO BKN014=
201603190950 METAR COR EGLL 190950Z AUTO 05008KT 350V090 9999 -RA BKN014
                        07/03 Q1027 BECMG BKN025=
201603190920 METAR COR EGLL 190920Z AUTO 04007KT 350V070 9999 BKN012 06/03
                        Q1027 BECMG BKN015=
201603190850 METAR COR EGLL 190850Z AUTO 03007KT 360V060 9999 BKN014 06/03
                        Q1027 TEMPO OVC016=
201603190820 METAR COR EGLL 190820Z AUTO 05009KT 010V080 9999 OVC019 06/02
                        Q1026 NOSIG=
201603190750 METAR COR EGLL 190750Z AUTO 05005KT 9999 BKN015 06/03 Q1026
                        TEMPO BKN014=
201603190720 METAR COR EGLL 190720Z AUTO 04007KT 360V070 9999 OVC016 06/02
                        Q1026 NOSIG=
201603190650 METAR COR EGLL 190650Z 04005KT 9999 BKN025 06/02 Q1026 NOSIG=
201603190620 METAR COR EGLL 190620Z 04006KT 360V070 9999 FEW013 BKN022
                        06/03 Q1026 NOSIG=
201603190550 METAR COR EGLL 190550Z AUTO 05006KT 360V080 9999 OVC015 06/03
                        Q1026 NOSIG=
201603190520 METAR COR EGLL 190520Z AUTO 05006KT 010V080 9999 -RA OVC015
                        06/03 Q1026 NOSIG=
201603190450 METAR COR EGLL 190450Z AUTO 04007KT 360V070 9999 OVC017 06/02
                        Q1026 NOSIG=
201603190420 METAR COR EGLL 190420Z AUTO 05006KT 360V080 9999 OVC020 06/02
                        Q1026 NOSIG=
201603190350 METAR COR EGLL 190350Z AUTO 05005KT 9999 OVC023 06/02 Q1026
                        NOSIG=
201603190320 METAR COR EGLL 190320Z AUTO 04007KT 9999 OVC021 06/02 Q1026
                        NOSIG=
201603190250 METAR COR EGLL 190250Z AUTO 05007KT 010V080 9999 OVC020 06/02
                        Q1026 NOSIG=
201603190220 METAR COR EGLL 190220Z AUTO 04006KT 9999 OVC022 06/02 Q1026
                        NOSIG=
201603190150 METAR COR EGLL 190150Z AUTO 04006KT 010V070 9999 OVC025 06/02
                        Q1026 NOSIG=
201603190120 METAR COR EGLL 190120Z AUTO 04007KT 360V070 9999 OVC019 06/02
                        Q1026 NOSIG=
201603190050 METAR COR EGLL 190050Z AUTO 04006KT 9999 OVC021 06/02 Q1026
                        NOSIG=
201603190020 METAR COR EGLL 190020Z AUTO 06007KT 9999 OVC018 06/02 Q1026
                        NOSIG=
201603182350 METAR COR EGLL 182350Z AUTO 04008KT 360V070 9999 OVC018 06/02
                        Q1027 NOSIG=
201603182320 METAR COR EGLL 182320Z AUTO 05007KT 9999 OVC018 06/02 Q1027
                        NOSIG=
201603182250 METAR COR EGLL 182250Z AUTO 05007KT 010V080 9999 OVC016 06/02
                        Q1027 NOSIG=
201603182220 METAR COR EGLL 182220Z AUTO 06011KT 9999 OVC017 06/02 Q1026
                        TEMPO BKN014=
201603182150 METAR COR EGLL 182150Z AUTO 05009KT 020V080 9999 OVC015 06/03
                        Q1026 TEMPO BKN014=
201603182120 METAR COR EGLL 182120Z AUTO 04007KT 010V080 9999 OVC014 07/03
                        Q1026 NOSIG=
201603182050 METAR COR EGLL 182050Z AUTO 05009KT 010V090 9999 OVC013 07/03
                        Q1026 TEMPO BKN015=
201603182020 METAR EGLL 182020Z AUTO 04007KT 360V070 9999 OVC009 07/04
                        Q1026=
201603181950 METAR COR EGLL 181950Z AUTO 03005KT 350V070 9000 -RA OVC008
                        06/05 Q1026 TEMPO BKN010=
201603181920 METAR COR EGLL 181920Z AUTO 04005KT 010V080 8000 -RA OVC010
                        06/05 Q1026 TEMPO BKN008=
201603181850 METAR COR EGLL 181850Z AUTO 05005KT 9999 OVC014 07/04 Q1026
                        TEMPO OVC015=
201603181820 METAR COR EGLL 181820Z AUTO 04005KT 9999 OVC015 07/04 Q1026
                        TEMPO BKN012=
201603181750 METAR COR EGLL 181750Z AUTO 04007KT 9999 OVC015 07/03 Q1026
                        TEMPO BKN012=
201603181720 METAR COR EGLL 181720Z AUTO 02007KT 350V050 9999 OVC014 07/04
                        Q1026 NOSIG=
201603181650 METAR COR EGLL 181650Z AUTO 01007KT 9999 OVC011 07/04 Q1025
                        NOSIG=
201603181620 METAR COR EGLL 181620Z AUTO 02008KT 340V060 9999 OVC011 07/04
                        Q1025 NOSIG=
201603181550 METAR COR EGLL 181550Z AUTO 03008KT 350V060 9999 OVC013 07/04
                        Q1025 TEMPO OVC015=
201603181520 METAR COR EGLL 181520Z AUTO 03007KT 360V060 9999 OVC014 07/04
                        Q1025 TEMPO BKN015=
201603181450 METAR COR EGLL 181450Z AUTO 06006KT 020V080 9999 OVC013 07/04
                        Q1025 NOSIG=
201603181420 METAR COR EGLL 181420Z AUTO 02006KT 330V060 9999 OVC012 07/04
                        Q1026 TEMPO SCT012 BKN017=
201603181350 METAR COR EGLL 181350Z AUTO 03005KT 340V070 9999 OVC014 07/04
                        Q1026 TEMPO SCT014 BKN016=
201603181320 METAR COR EGLL 181320Z AUTO 04007KT 9999 OVC014 07/03 Q1026
                        TEMPO SCT014 BKN016=
201603181250 METAR COR EGLL 181250Z AUTO 04007KT 360V070 9999 OVC014 07/03
                        Q1026 TEMPO SCT014 BKN016=
201603181220 METAR COR EGLL 181220Z AUTO 04005KT 360V080 9999 OVC013 06/03
                        Q1027 TEMPO SCT013 BKN016=
201603181150 METAR COR EGLL 181150Z AUTO 03007KT 330V060 9999 OVC013 06/03
                        Q1027 NOSIG=
201603181120 METAR COR EGLL 181120Z AUTO 02006KT 340V050 9999 OVC011 06/03
                        Q1027 NOSIG=
201603181050 METAR COR EGLL 181050Z AUTO 04006KT 350V070 9999 OVC011 06/02
                        Q1027 NOSIG=
201603181020 METAR COR EGLL 181020Z AUTO 04006KT 360V070 9999 OVC009 05/03
                        Q1027 BECMG BKN012=
201603180950 METAR COR EGLL 180950Z AUTO 02007KT 340V050 9999 OVC008 05/03
                        Q1027 NOSIG=
201603180920 METAR COR EGLL 180920Z AUTO 04007KT 010V070 9999 OVC007 04/03
                        Q1027 NOSIG=
201603180850 METAR COR EGLL 180850Z AUTO 03004KT 330V070 8000 OVC005 04/03
                        Q1027 NOSIG=
201603180820 METAR COR EGLL 180820Z AUTO VRB03KT 5000 HZ OVC006 04/02
                        Q1027 NOSIG=
201603180750 METAR COR EGLL 180750Z AUTO 05003KT 6000 OVC006 04/02 Q1027
                        NOSIG=
201603180720 METAR COR EGLL 180720Z AUTO 07004KT 030V100 7000 OVC007 03/02
                        Q1027 NOSIG=
201603180650 METAR COR EGLL 180650Z AUTO 05003KT 8000 OVC008 03/01 Q1027
                        NOSIG=
201603180620 METAR COR EGLL 180620Z AUTO 05005KT 360V080 9999 OVC008 03/01
                        Q1027 NOSIG=
201603180550 METAR COR EGLL 180550Z AUTO 04006KT 9999 OVC008 03/01 Q1027
                        NOSIG=
201603180520 METAR COR EGLL 180520Z AUTO 04004KT 350V070 9000 OVC007 03/01
                        Q1027 NOSIG=
201603180450 METAR COR EGLL 180450Z AUTO 04005KT 360V070 8000 OVC007 03/01
                        Q1027 NOSIG=
201603180420 METAR COR EGLL 180420Z AUTO 04005KT 360V070 7000 OVC005 03/01
                        Q1027 TEMPO 4500 BR=
201603180350 METAR COR EGLL 180350Z 04005KT 360V070 4400 HZ OVC006 02/02
                        Q1027 NOSIG=
201603180320 METAR EGLL 180320Z AUTO 04006KT 360V070 1300 HZ OVC001 02/01
                        Q1027=
201603180250 METAR COR EGLL 180250Z AUTO 02006KT 340V040 0600 R09L/P1500
                        FG BKN001 02/01 Q1028 TEMPO 1500
                        BR BKN002=
201603180220 METAR COR EGLL 180220Z AUTO 03003KT 3600 HZ NCD 02/01 Q1028
                        TEMPO BKN007=
201603180150 METAR COR EGLL 180150Z AUTO 01003KT 3700 HZ NCD 02/01 Q1028
                        TEMPO BKN007=
201603180120 METAR COR EGLL 180120Z AUTO 35004KT 4000 HZ NCD 02/00 Q1028
                        TEMPO BKN007=
201603180050 METAR COR EGLL 180050Z AUTO 35004KT 4700 HZ NCD 03/01 Q1028
                        TEMPO 5000=
201603180020 METAR COR EGLL 180020Z AUTO 36004KT 5000 HZ NCD 03/01 Q1029
                        TEMPO 4000 BR=
201603172350 METAR COR EGLL 172350Z AUTO 02003KT 6000 NCD 04/01 Q1029
                        NOSIG=
201603172320 METAR COR EGLL 172320Z AUTO 01003KT 7000 NCD 04/01 Q1029
                        NOSIG=
201603172250 METAR COR EGLL 172250Z AUTO 01003KT 7000 NCD 05/01 Q1029
                        NOSIG=
201603172220 METAR COR EGLL 172220Z AUTO 01003KT 7000 NCD 06/01 Q1029
                        NOSIG=
201603172150 METAR COR EGLL 172150Z AUTO VRB02KT 8000 NCD 06/M01 Q1029
                        NOSIG=
201603172120 METAR COR EGLL 172120Z VRB02KT CAVOK 05/M01 Q1029 NOSIG=
201603172050 METAR COR EGLL 172050Z 09003KT 9999 FEW020 05/M01 Q1029 NOSIG=
201603172020 METAR COR EGLL 172020Z 07006KT 9999 SCT022 06/M01 Q1028 NOSIG=
201603171950 METAR COR EGLL 171950Z 05004KT 020V080 9999 SCT023 08/00
                        Q1028 NOSIG=
201603171920 METAR COR EGLL 171920Z AUTO 06005KT 9999 FEW027 07/M00 Q1028
                        NOSIG=
201603171850 METAR COR EGLL 171850Z AUTO 02006KT 350V050 9999 NCD 09/01
                        Q1028 NOSIG=
201603171820 METAR COR EGLL 171820Z AUTO 04006KT 9999 NCD 09/M00 Q1028
                        NOSIG=
201603171750 METAR COR EGLL 171750Z AUTO 04006KT 9999 NCD 10/M00 Q1028
                        NOSIG=
201603171720 METAR COR EGLL 171720Z AUTO 06007KT 010V080 9999 NCD 10/M01
                        Q1028 NOSIG=
201603171650 METAR COR EGLL 171650Z AUTO 06006KT 9999 NCD 11/M01 Q1028
                        NOSIG=
201603171620 METAR COR EGLL 171620Z AUTO 08007KT 050V120 9999 NCD 11/M01
                        Q1028 NOSIG=
201603171550 METAR COR EGLL 171550Z AUTO 08006KT 050V110 9999 NCD 11/M01
                        Q1028 NOSIG=
201603171520 METAR COR EGLL 171520Z AUTO 07008KT 030V090 9999 NCD 11/M00
                        Q1029 NOSIG=
201603171450 METAR COR EGLL 171450Z AUTO 06007KT 010V110 9999 NCD 11/M00
                        Q1029 NOSIG=
201603171420 METAR COR EGLL 171420Z AUTO 09008KT 050V120 9999 NCD 11/M00
                        Q1029 NOSIG=
201603171350 METAR COR EGLL 171350Z AUTO 05007KT 010V110 9999 NCD 12/00
                        Q1029 NOSIG=
201603171320 METAR COR EGLL 171320Z AUTO 06007KT 360V100 9999 FEW043 11/01
                        Q1030 NOSIG=
201603171250 METAR COR EGLL 171250Z AUTO 08008KT 050V120 9999 NCD 11/01
                        Q1030 NOSIG=
201603171220 METAR COR EGLL 171220Z AUTO 07008KT 040V120 9999 FEW034 11/01
                        Q1030 NOSIG=
201603171150 METAR COR EGLL 171150Z AUTO 07009KT 040V110 9999 FEW034 10/01
                        Q1031 NOSIG=
201603171120 METAR COR EGLL 171120Z AUTO 09011KT 9999 NCD 10/01 Q1031
                        NOSIG=
201603171050 METAR COR EGLL 171050Z AUTO 07011KT 030V100 9999 NCD 09/01
                        Q1031 NOSIG=
201603171020 METAR COR EGLL 171020Z AUTO 06011KT 040V100 9999 FEW029 09/02
                        Q1031 NOSIG=
201603170950 METAR COR EGLL 170950Z AUTO 06010KT 9000 NCD 08/02 Q1031
                        NOSIG=
201603170920 METAR COR EGLL 170920Z AUTO 06007KT 7000 NCD 07/03 Q1031
                        NOSIG=
201603170850 METAR COR EGLL 170850Z AUTO 05006KT 020V090 6000 NCD 05/03
                        Q1031 NOSIG=
201603170820 METAR COR EGLL 170820Z AUTO 05006KT 5000 HZ NCD 04/02 Q1031
                        NOSIG=
201603170750 METAR COR EGLL 170750Z AUTO 03005KT 350V070 4700 HZ FEW008
                        03/01 Q1031 BECMG 5000=
201603170720 METAR COR EGLL 170720Z AUTO 02004KT 4600 HZ NCD 02/01 Q1031
                        TEMPO 5000=
201603170650 METAR COR EGLL 170650Z AUTO 03004KT 340V060 4800 HZ NCD 02/00
                        Q1031 B BECMG 5000=
201603170620 METAR COR EGLL 170620Z AUTO 01004KT 4200 HZ NCD 02/00 Q1031
                        BECMG 5000=
201603170550 METAR COR EGLL 170550Z AUTO 02004KT 350V060 3800 HZ NCD 01/00
                        Q1031 NOSIG=
201603170520 METAR COR EGLL 170520Z AUTO 04003KT 4300 HZ NCD 02/01 Q1031
                        NOSIG=
201603170450 METAR COR EGLL 170450Z AUTO 03004KT 360V070 4100 HZ NCD 02/00
                        Q1031 NOSIG=
201603170420 METAR COR EGLL 170420Z AUTO VRB03KT 5000 HZ NCD 03/01 Q1031
                        TEMPO 4500=
201603170350 METAR COR EGLL 170350Z AUTO 04004KT 5000 HZ NCD 03/01 Q1030
                        NOSIG=
201603170320 METAR COR EGLL 170320Z AUTO 04005KT 5000 HZ NCD 03/02 Q1030
                        NOSIG=
201603170250 METAR COR EGLL 170250Z AUTO 04005KT 5000 HZ NCD 03/02 Q1030
                        NOSIG=
201603170220 METAR COR EGLL 170220Z AUTO 05005KT 5000 HZ NCD 04/02 Q1030
                        NOSIG=
201603170150 METAR COR EGLL 170150Z AUTO 05006KT 6000 NCD 04/02 Q1030
                        NOSIG=
201603170120 METAR COR EGLL 170120Z AUTO 05005KT 6000 NCD 04/02 Q1031
                        NOSIG=
201603170050 METAR COR EGLL 170050Z AUTO 05005KT 7000 NCD 04/02 Q1031
                        NOSIG=
201603170020 METAR COR EGLL 170020Z AUTO 05005KT 8000 NCD 05/02 Q1031
                        NOSIG=
201603162350 METAR COR EGLL 162350Z AUTO 05006KT 8000 NCD 05/02 Q1031
                        NOSIG=
201603162320 METAR COR EGLL 162320Z AUTO 06008KT 9000 FEW017 05/02 Q1031
                        NOSIG=
201603162250 METAR COR EGLL 162250Z AUTO 06008KT 9999 BKN017 06/02 Q1031
                        NOSIG=
201603162220 METAR COR EGLL 162220Z AUTO 06009KT 9999 OVC019 06/02 Q1031
                        NOSIG=
201603162150 METAR COR EGLL 162150Z AUTO 05009KT 020V080 9999 BKN022 OVC037
                        06/01 Q1031 NOSIG=
201603162120 METAR COR EGLL 162120Z AUTO 06008KT 9999 SCT023 OVC038 06/01
                        Q1030 NOSIG=
201603162050 METAR COR EGLL 162050Z AUTO 06008KT 020V080 9999 BKN027 06/01
                        Q1030 NOSIG=
201603162020 METAR COR EGLL 162020Z AUTO 06009KT 9999 BKN027 06/00 Q1030
                        NOSIG=
201603161950 METAR COR EGLL 161950Z AUTO 06010KT 020V080 9999 OVC032 06/M00
                        Q1030 NOSIG=
201603161920 METAR COR EGLL 161920Z AUTO 06009KT 030V090 9999 OVC031 06/M01
                        Q1030 NOSIG=
201603161850 METAR COR EGLL 161850Z AUTO 06012KT 9999 BKN029 06/M01 Q1030
                        NOSIG=
201603161820 METAR COR EGLL 161820Z AUTO 08012KT 9999 OVC032 06/M01 Q1030
                        NOSIG=
201603161750 METAR COR EGLL 161750Z AUTO 07013KT 9999 OVC033 07/M01 Q1029
                        NOSIG=
201603161720 METAR COR EGLL 161720Z AUTO 06012KT 9999 BKN036 08/M00 Q1029
                        NOSIG=
201603161650 METAR COR EGLL 161650Z AUTO 06011KT 9999 BKN038 08/M00 Q1028
                        NOSIG=
201603161620 METAR COR EGLL 161620Z AUTO 06014KT 9999 SCT040 09/M01 Q1028
                        NOSIG=
201603161550 METAR COR EGLL 161550Z AUTO 06014KT 9999 SCT040 09/M00 Q1028
                        NOSIG=
201603161520 METAR COR EGLL 161520Z AUTO 07011KT 030V100 9999 FEW041 09/M00
                        Q1028 NOSIG=
201603161450 METAR COR EGLL 161450Z AUTO 07013KT 9999 FEW042 10/M00 Q1029
                        NOSIG=
201603161420 METAR COR EGLL 161420Z AUTO 08013KT 9999 BKN037 09/M00 Q1029
                        NOSIG=
201603161350 METAR COR EGLL 161350Z AUTO 06012KT 9999 BKN032 09/00 Q1029
                        NOSIG=
201603161320 METAR COR EGLL 161320Z AUTO 05010KT 9999 BKN033 08/00 Q1029
                        NOSIG=
201603161250 METAR COR EGLL 161250Z AUTO 06013KT 9999 BKN030 09/01 Q1029
                        NOSIG=
201603161220 METAR COR EGLL 161220Z AUTO 05011KT 9999 OVC024 08/01 Q1030
                        NOSIG=
201603161150 METAR COR EGLL 161150Z AUTO 06011KT 9999 OVC024/// 08/02
                        Q1030 NOSIG=
201603161120 METAR EGLL 161120Z AUTO 06010KT 9999 OVC024 08/02 Q1030=
201603161050 METAR COR EGLL 161050Z AUTO 06011KT 9999 OVC027 08/01 Q1030
                        NOSIG=
201603161020 METAR COR EGLL 161020Z AUTO 06011KT 9999 BKN026 08/02 Q1030
                        NOSIG=
201603160950 METAR COR EGLL 160950Z AUTO 07013KT 9999 BKN026 08/02 Q1030
                        NOSIG=
201603160920 METAR COR EGLL 160920Z AUTO 07011KT 9999 BKN025 07/02 Q1030
                        NOSIG=
201603160850 METAR COR EGLL 160850Z 07012KT 9999 BKN024 07/03 Q1030 NOSIG=
201603160820 METAR COR EGLL 160820Z 06012KT 9999 SCT020 07/03 Q1029 NOSIG=
201603160750 METAR EGLL 160750Z AUTO 07012KT 9999 BKN013 07/03 Q1029=
201603160720 METAR COR EGLL 160720Z AUTO 06010KT 9999 SCT015 BKN029 07/04
                        Q1029 NOSIG=
201603160650 METAR COR EGLL 160650Z AUTO 05007KT 010V070 9999 BKN013 OVC034
                        07/05 Q1029 BECMG FEW013=
201603160620 METAR COR EGLL 160620Z AUTO 05007KT 360V080 9999 SCT009 BKN021
                        07/05 Q1029 TEMPO BKN010=
201603160550 METAR COR EGLL 160550Z AUTO 06009KT 9999 OVC009 07/05 Q1029
                        BECMG BKN012=
201603160520 METAR COR EGLL 160520Z AUTO 06008KT 9999 OVC008 07/05 Q1028
                        BECMG BKN012=
201603160450 METAR COR EGLL 160450Z AUTO 05006KT 020V100 9999 OVC008 07/06
                        Q1028 BECMG BKN012=
201603160420 METAR COR EGLL 160420Z AUTO 04007KT 020V080 9999 OVC008 07/06
                        Q1028 BECMG BKN012=
201603160350 METAR COR EGLL 160350Z AUTO 04006KT 9999 -RA OVC008 07/06
                        Q1028 BECMG BKN012=
201603160320 METAR COR EGLL 160320Z AUTO 04006KT 6000 -RA OVC008 07/05
                        Q1028 TEMPO BKN010=
201603160250 METAR COR EGLL 160250Z AUTO 03007KT 5000 -RADZ BKN010 07/05
                        Q1029 NOSIG=
201603160220 METAR COR EGLL 160220Z AUTO 04008KT 360V080 9999 SCT012 OVC049
                        07/05 Q1029 TEMPO BKN012=
201603160150 METAR COR EGLL 160150Z AUTO 04007KT 9999 NCD 07/05 Q1029
                        NOSIG=
201603160120 METAR COR EGLL 160120Z AUTO 04007KT 010V080 9000 FEW010 OVC043
                        07/05 Q1029 TEMPO BKN008=
201603160050 METAR COR EGLL 160050Z AUTO 05007KT 020V080 9999 BKN011 07/05
                        Q1029 TEMPO BKN008=
201603160020 METAR EGLL 160020Z AUTO 05006KT 020V090 9999 OVC010 07/05
                        Q1029=
201603152350 METAR COR EGLL 152350Z AUTO 05007KT 020V090 9999 OVC010 07/05
                        Q1029 NOSIG=
201603152320 METAR COR EGLL 152320Z AUTO 05007KT 9999 OVC008 07/05 Q1029
                        NOSIG=
201603152250 METAR COR EGLL 152250Z AUTO 05007KT 9999 OVC007 07/05 Q1029
                        NOSIG=
201603152220 METAR COR EGLL 152220Z AUTO 02006KT 340V070 9999 OVC007 07/05
                        Q1029 NOSIG=
201603152150 METAR COR EGLL 152150Z AUTO 03006KT 350V060 9999 OVC007 07/05
                        Q1029 NOSIG=
201603152120 METAR COR EGLL 152120Z AUTO 03007KT 360V060 9999 OVC006 07/05
                        Q1029 NOSIG=
201603152050 METAR COR EGLL 152050Z AUTO 03007KT 350V060 9999 OVC006 07/05
                        Q1029 NOSIG=
201603152020 METAR COR EGLL 152020Z AUTO 04008KT 010V080 9999 OVC008 07/05
                        Q1029 NOSIG=
201603151950 METAR COR EGLL 151950Z AUTO 04008KT 350V070 9999 OVC010 08/05
                        Q1029 NOSIG=
201603151920 METAR COR EGLL 151920Z AUTO 04007KT 360V060 9999 OVC011 08/05
                        Q1029 NOSIG=
201603151850 METAR COR EGLL 151850Z AUTO 03008KT 360V060 9999 OVC011 08/05
                        Q1029 NOSIG=
201603151820 METAR COR EGLL 151820Z AUTO 03008KT 9999 OVC011 08/05 Q1029
                        NOSIG=
201603151750 METAR COR EGLL 151750Z AUTO 04005KT 360V070 9999 OVC011 08/05
                        Q1029 NOSIG=
201603151720 METAR COR EGLL 151720Z AUTO 03007KT 9999 OVC012 08/05 Q1029
                        NOSIG=
201603151650 METAR COR EGLL 151650Z AUTO 03007KT 360V060 9999 OVC012 08/05
                        Q1029 NOSIG=
201603151620 METAR COR EGLL 151620Z AUTO 03007KT 350V070 9999 OVC011 08/05
                        Q1029 NOSIG=
201603151550 METAR COR EGLL 151550Z AUTO 03008KT 9000 OVC009 08/05 Q1029
                        BECMG BKN012=
201603151520 METAR EGLL 151520Z AUTO 03007KT 350V060 9000 OVC009 08/05
                        Q1029=
201603151450 METAR COR EGLL 151450Z AUTO 03008KT 350V070 9000 OVC011 08/05
                        Q1029 NOSIG=
201603151420 METAR COR EGLL 151420Z AUTO 03006KT 340V060 8000 OVC011 08/05
                        Q1030 NOSIG=
201603151350 METAR COR EGLL 151350Z AUTO 04007KT 350V070 7000 OVC012 08/05
                        Q1030 NOSIG=
201603151320 METAR COR EGLL 151320Z AUTO 02007KT 350V060 8000 OVC013 09/05
                        Q1030 NOSIG=
201603151250 METAR COR EGLL 151250Z AUTO 04007KT 350V070 8000 OVC014 09/05
                        Q1030 NOSIG=
201603151220 METAR EGLL 151220Z AUTO 06008KT 010V090 9000 OVC014 08/05
                        Q1030=
201603151150 METAR COR EGLL 151150Z AUTO 06008KT 020V080 9000 OVC014 08/05
                        Q1030 NOSIG=
201603151120 METAR COR EGLL 151120Z AUTO 06009KT 020V090 8000 OVC014 08/05
                        Q1030 NOSIG=
201603151050 METAR COR EGLL 151050Z AUTO 07009KT 8000 OVC013 08/05 Q1030
                        TEMPO SCT014=
201603151020 METAR COR EGLL 151020Z AUTO 08007KT 7000 OVC011 08/05 Q1031
                        TEMPO SCT012=
201603150950 METAR COR EGLL 150950Z AUTO 06006KT 020V090 7000 BKN010 07/04
                        Q1031 TEMPO SCT010=
201603150920 METAR COR EGLL 150920Z AUTO 05006KT 020V090 6000 OVC009 07/04
                        Q1031 TEMPO SCT010=
201603150850 METAR COR EGLL 150850Z 06007KT 020V080 7000 SCT009 SCT012
                        07/04 Q1031 NOSIG=
201603150820 METAR COR EGLL 150820Z AUTO 04004KT 360V070 7000 FEW009 06/03
                        Q1030 NOSIG=
201603150750 METAR COR EGLL 150750Z AUTO 02004KT 350V060 7000 BKN029 05/03
                        Q1030 NOSIG=
201603150720 METAR COR EGLL 150720Z AUTO VRB03KT 6000 OVC025 04/02 Q1030
                        NOSIG=
201603150650 METAR COR EGLL 150650Z AUTO VRB02KT 6000 OVC026 04/02 Q1030
                        NOSIG=
201603150620 METAR COR EGLL 150620Z AUTO 04004KT 7000 OVC028 03/01 Q1030
                        NOSIG=
201603150550 METAR COR EGLL 150550Z AUTO 04004KT 6000 SCT027 02/01 Q1030
                        NOSIG=
201603150520 METAR COR EGLL 150520Z AUTO 04006KT 7000 NCD 03/01 Q1030
                        NOSIG=
201603150450 METAR COR EGLL 150450Z AUTO 05004KT 7000 NCD 03/01 Q1030
                        NOSIG=
201603150420 METAR COR EGLL 150420Z AUTO 04004KT 7000 NCD 03/01 Q1030
                        NOSIG=
201603150350 METAR COR EGLL 150350Z AUTO 03004KT 6000 NCD 02/01 Q1030
                        NOSIG=
201603150320 METAR COR EGLL 150320Z AUTO 03004KT 7000 NCD 03/01 Q1030
                        NOSIG=
201603150250 METAR COR EGLL 150250Z AUTO 04005KT 7000 NCD 03/01 Q1030
                        NOSIG=
201603150220 METAR COR EGLL 150220Z AUTO 03003KT 7000 NCD 03/01 Q1031
                        NOSIG=
201603150150 METAR COR EGLL 150150Z AUTO VRB02KT 8000 NCD 03/00 Q1031
                        NOSIG=
201603150120 METAR COR EGLL 150120Z AUTO VRB02KT 8000 NCD 03/M00 Q1031
                        NOSIG=
201603150050 METAR COR EGLL 150050Z AUTO 04003KT 9000 NCD 03/M00 Q1031
                        NOSIG=
201603150020 METAR COR EGLL 150020Z AUTO 04004KT 020V080 9999 NCD 04/M00
                        Q1031 NOSIG=
201603142350 METAR COR EGLL 142350Z AUTO 04005KT 9999 NCD 04/M00 Q1031
                        NOSIG=
201603142320 METAR COR EGLL 142320Z AUTO 04005KT 9999 NCD 04/M00 Q1031
                        NOSIG=
201603142250 METAR COR EGLL 142250Z AUTO 04005KT 9999 NCD 04/M01 Q1031
                        NOSIG=
201603142220 METAR COR EGLL 142220Z AUTO 05005KT 9999 NCD 05/M01 Q1031
                        NOSIG=
201603142150 METAR COR EGLL 142150Z AUTO 07008KT 9999 NCD 05/M01 Q1031
                        NOSIG=
201603142120 METAR COR EGLL 142120Z AUTO 07009KT 9999 NCD 05/M01 Q1031
                        NOSIG=
201603142050 METAR COR EGLL 142050Z AUTO 08009KT 9999 NCD 06/M01 Q1031
                        NOSIG=
201603142020 METAR COR EGLL 142020Z AUTO 07010KT 9999 NCD 06/M02 Q1031
                        NOSIG=
201603141950 METAR COR EGLL 141950Z AUTO 06010KT 9999 NCD 06/M02 Q1031
                        NOSIG=
201603141920 METAR COR EGLL 141920Z AUTO 07010KT 9999 NCD 07/M03 Q1031
                        NOSIG=
201603141850 METAR COR EGLL 141850Z AUTO 07012KT 9999 NCD 07/M04 Q1031
                        NOSIG=
201603141820 METAR COR EGLL 141820Z AUTO 08014KT 9999 NCD 08/M05 Q1030
                        NOSIG=
201603141750 METAR COR EGLL 141750Z AUTO 08012KT 9999 NCD 08/M05 Q1030
                        NOSIG=
201603141720 METAR COR EGLL 141720Z AUTO 08016KT 9999 NCD 09/M07 Q1030
                        NOSIG=
201603141650 METAR COR EGLL 141650Z AUTO 07015KT 9999 NCD 10/M08 Q1030
                        NOSIG=
201603141620 METAR EGLL 141620Z AUTO 07014KT 9999 NCD 11/M08 Q1030=
201603141550 METAR COR EGLL 141550Z AUTO 07015KT 9999 NCD 11/M07 Q1030
                        NOSIG=
201603141520 METAR COR EGLL 141520Z AUTO 08016KT 9999 NCD 11/M06 Q1030
                        NOSIG=
201603141450 METAR COR EGLL 141450Z AUTO 07011KT 9999 NCD 11/M06 Q1031
                        NOSIG=
201603141420 METAR COR EGLL 141420Z AUTO 08017KT 9999 NCD 11/M05 Q1031
                        NOSIG=
201603141350 METAR COR EGLL 141350Z AUTO 08014KT 9999 NCD 11/M03 Q1031
                        NOSIG=
201603141320 METAR COR EGLL 141320Z AUTO 07011KT 040V100 9999 NCD 10/M01
                        Q1032 NOSIG=
201603141250 METAR COR EGLL 141250Z AUTO 08013KT 9999 NCD 10/M00 Q1032
                        NOSIG=
201603141220 METAR COR EGLL 141220Z AUTO 07012KT 040V100 9999 NCD 09/01
                        Q1033 NOSIG=
201603141150 METAR COR EGLL 141150Z AUTO 07013KT 9999 NCD 09/01 Q1033
                        NOSIG=
201603141120 METAR EGLL 141120Z AUTO 06013KT 9000 FEW026 08/01 Q1033=
201603141050 METAR COR EGLL 141050Z AUTO 07012KT 030V090 8000 NCD 07/01
                        Q1033 NOSIG=
201603141020 METAR COR EGLL 141020Z AUTO 07010KT 8000 FEW022 07/01 Q1033
                        NOSIG=
201603140950 METAR COR EGLL 140950Z AUTO 07011KT 8000 SCT020 06/00 Q1034
                        NOSIG=
201603140920 METAR COR EGLL 140920Z AUTO 07011KT 8000 BKN020 06/01 Q1034
                        NOSIG=
201603140850 METAR COR EGLL 140850Z AUTO 06011KT 9000 BKN019 05/01 Q1034
                        NOSIG=
201603140820 METAR COR EGLL 140820Z AUTO 06010KT 030V100 8000 BKN018 05/01
                        Q1034 NOSIG=
201603140750 METAR COR EGLL 140750Z AUTO 06009KT 020V090 9000 BKN018 05/01
                        Q1034 NOSIG=
201603140720 METAR EGLL 140720Z AUTO 06010KT 8000 OVC018 05/01 Q1034=
201603140650 METAR COR EGLL 140650Z AUTO 06009KT 8000 OVC017 05/01 Q1034
                        NOSIG=
201603140620 METAR COR EGLL 140620Z AUTO 06009KT 7000 OVC017 05/01 Q1034
                        NOSIG=
201603140550 METAR COR EGLL 140550Z AUTO 05007KT 8000 OVC017 05/01 Q1033
                        NOSIG=
201603140520 METAR COR EGLL 140520Z AUTO 07009KT 8000 OVC018 05/01 Q1033
                        NOSIG=
201603140450 METAR COR EGLL 140450Z AUTO 07008KT 9000 BKN018 05/01 Q1033
                        NOSIG=
201603140420 METAR COR EGLL 140420Z AUTO 06009KT 8000 BKN018 05/02 Q1034
                        NOSIG=
201603140350 METAR COR EGLL 140350Z AUTO 06009KT 8000 BKN016 05/02 Q1034
                        TEMPO BKN014=
201603140320 METAR COR EGLL 140320Z AUTO 06010KT 8000 OVC014 05/02 Q1034
                        TEMPO BKN015=
201603140250 METAR COR EGLL 140250Z AUTO 06011KT 7000 OVC014 05/02 Q1034
                        TEMPO BKN015=
201603140220 METAR COR EGLL 140220Z AUTO 05009KT 7000 OVC014 05/02 Q1034
                        TEMPO BKN015=
201603140150 METAR COR EGLL 140150Z AUTO 05007KT 6000 OVC013 05/02 Q1034
                        NOSIG=
201603140120 METAR COR EGLL 140120Z AUTO 04007KT 6000 OVC013 05/02 Q1034
                        NOSIG=
201603140050 METAR COR EGLL 140050Z AUTO 05008KT 6000 OVC010 05/02 Q1035
                        NOSIG=
201603140020 METAR COR EGLL 140020Z AUTO 06010KT 6000 OVC010 04/02 Q1035
                        NOSIG=
201603132350 METAR COR EGLL 132350Z AUTO 07009KT 7000 BKN011 03/01 Q1035
                        NOSIG=
201603132320 METAR COR EGLL 132320Z AUTO 08007KT 7000 BKN011 03/01 Q1035
                        NOSIG=
201603132250 METAR COR EGLL 132250Z AUTO 07007KT 7000 SCT011 04/01 Q1035
                        TEMPO BKN011=
201603132220 METAR COR EGLL 132220Z AUTO 06008KT 7000 FEW013 04/01 Q1035
                        TEMPO BKN013=
201603132150 METAR COR EGLL 132150Z AUTO 06007KT 8000 NCD 04/01 Q1035
                        NOSIG=
201603132120 METAR EGLL 132120Z AUTO 06009KT 9000 NCD 04/01 Q1035=
201603132050 METAR COR EGLL 132050Z AUTO 07007KT 9000 NCD 04/01 Q1035
                        NOSIG=
201603132020 METAR COR EGLL 132020Z AUTO 07008KT 9000 NCD 05/01 Q1035
                        NOSIG=
201603131950 METAR COR EGLL 131950Z AUTO 07010KT 9000 NCD 05/01 Q1035
                        NOSIG=
201603131920 METAR COR EGLL 131920Z AUTO 07009KT 9999 NCD 05/01 Q1035
                        NOSIG=
201603131850 METAR COR EGLL 131850Z AUTO 08008KT 9999 NCD 06/01 Q1035
                        NOSIG=
201603131820 METAR COR EGLL 131820Z AUTO 09008KT 9999 NCD 06/02 Q1034
                        NOSIG=
201603131750 METAR COR EGLL 131750Z AUTO 08010KT 9999 NCD 07/02 Q1034
                        NOSIG=
201603131720 METAR COR EGLL 131720Z AUTO 07009KT 9999 NCD 08/02 Q1034
                        NOSIG=
201603131650 METAR COR EGLL 131650Z AUTO 07010KT 9999 NCD 09/02 Q1034
                        NOSIG=
201603131620 METAR COR EGLL 131620Z AUTO 08011KT 9999 NCD 10/01 Q1033
                        NOSIG=
201603131550 METAR COR EGLL 131550Z AUTO 06011KT 030V090 9999 NCD 10/01
                        Q1033 NOSIG=
201603131520 METAR COR EGLL 131520Z AUTO 06010KT 9999 NCD 10/01 Q1033
                        NOSIG=
201603131450 METAR COR EGLL 131450Z AUTO 08009KT 040V110 9999 NCD 11/01
                        Q1034 NOSIG=
201603131420 METAR COR EGLL 131420Z AUTO 07009KT 030V100 9999 NCD 11/01
                        Q1034 NOSIG=
201603131350 METAR COR EGLL 131350Z AUTO 06010KT 030V100 9999 FEW036 11/02
                        Q1034 NOSIG=
201603131320 METAR COR EGLL 131320Z AUTO 07009KT 030V110 9999 NCD 10/02
                        Q1034 NOSIG=
201603131250 METAR COR EGLL 131250Z AUTO 07009KT 030V110 9999 NCD 10/02
                        Q1035 NOSIG=
201603131220 METAR COR EGLL 131220Z AUTO 09011KT 9999 FEW026 10/02 Q1035
                        NOSIG=
201603131150 METAR COR EGLL 131150Z AUTO 09009KT 9000 FEW022 09/02 Q1035
                        NOSIG=
201603131120 METAR COR EGLL 131120Z AUTO 07007KT 020V110 8000 BKN014 08/02
                        Q1035 BECMG FEW020=
201603131050 METAR COR EGLL 131050Z AUTO 08008KT 6000 BKN010 08/03 Q1035
                        BECMG FEW012=
201603131020 METAR COR EGLL 131020Z AUTO 07006KT 4300 HZ BKN006 06/03
                        Q1035 BECMG 5000 SCT008=
201603130950 METAR COR EGLL 130950Z AUTO 06006KT 030V100 3100 HZ BKN005
                        06/04 Q1035 BECMG 5000=
201603130920 METAR COR EGLL 130920Z AUTO 05006KT 010V090 2500 HZ BKN004
                        05/04 Q1035 BECMG BKN005=
201603130850 METAR COR EGLL 130850Z 04005KT 010V070 2400 HZ FEW004 BKN006
                        04/03 Q1035 NOSIG=
201603130820 METAR COR EGLL 130820Z 06005KT 2200 HZ FEW004 BKN006 04/03
                        Q1035 BECMG 4000=
201603130750 METAR COR EGLL 130750Z 07005KT 2100 HZ FEW003 BKN004 04/03
                        Q1035 BECMG 4000 SCT004=
201603130720 METAR COR EGLL 130720Z VRB03KT 2200 HZ FEW003 BKN005 04/03
                        Q1035 NOSIG=
201603130650 METAR COR EGLL 130650Z VRB02KT 2000 HZ FEW002 BKN004 03/02
                        Q1034 TEMPO SCT004 BKN017=
201603130620 METAR COR EGLL 130620Z AUTO 05004KT 1600 HZ OVC002 03/02
                        Q1034 TEMPO 1300 SCT004 BKN008=
201603130550 METAR COR EGLL 130550Z 05005KT 2000 BR FEW004 BKN005 04/03
                        Q1034 TEMPO 1400 BKN004=
201603130520 METAR COR EGLL 130520Z 04004KT 360V090 2400 BR BKN006 04/02
                        Q1033 TEMPO 1400 BKN003=
201603130450 METAR EGLL 130450Z 05004KT 010V080 1400 R09L/P1500 BR FEW003
                        BKN004 04/03 Q1033=
201603130420 METAR COR EGLL 130420Z 06003KT 1200 R09L/P1500 BR SCT003
                        BKN004 04/03 Q1033 TEMPO 1600 SCT004
                        BKN005=
201603130350 METAR COR EGLL 130350Z 02003KT 1100 R27R/P1500 BR FEW003
                        BKN005 04/03 Q1033 TEMPO 1600 BKN003=
201603130320 METAR COR EGLL 130320Z AUTO 03004KT 0600 R27R/P1500 FG OVC001
                        04/03 Q1033 BECMG 1200 FEW001 BKN004=
201603130250 METAR COR EGLL 130250Z AUTO VRB02KT 0900 R27R/P1500 FG OVC003
                        04/03 Q1033 TEMPO 1500 HZ=
201603130220 METAR COR EGLL 130220Z AUTO 04003KT 1200 R27R/P1500 HZ SCT004
                        03/02 Q1033 TEMPO BKN004=
201603130150 METAR EGLL 130150Z AUTO 04004KT 1500 HZ NCD 03/02 Q1033=
201603130120 METAR COR EGLL 130120Z AUTO 02003KT 1500 HZ NCD 03/02 Q1033
                        TEMPO 1300=
201603130050 METAR COR EGLL 130050Z AUTO 05003KT 1300 R27R/P1500 HZ NCD
                        04/02 Q1033 TEMPO BKN003=
201603130020 METAR COR EGLL 130020Z AUTO 06003KT 1700 HZ NCD 04/02 Q1033
                        TEMPO BKN005=
201603122350 METAR COR EGLL 122350Z AUTO 07003KT 1600 HZ NCD 04/02 Q1033
                        TEMPO BKN005=
201603122320 METAR COR EGLL 122320Z AUTO 08003KT 1900 HZ NCD 04/03 Q1033
                        NOSIG=
201603122250 METAR COR EGLL 122250Z AUTO 08003KT 1900 HZ NCD 04/02 Q1033
                        NOSIG=
201603122220 METAR COR EGLL 122220Z AUTO 09004KT 040V160 2200 HZ NCD 05/03
                        Q1033 NOSIG=
201603122150 METAR COR EGLL 122150Z AUTO 09004KT 050V130 2200 HZ NCD 04/02
                        Q1032 NOSIG=
201603122120 METAR COR EGLL 122120Z AUTO 08003KT 2700 HZ NCD 05/02 Q1032
                        NOSIG=
201603122050 METAR COR EGLL 122050Z AUTO 09005KT 050V110 2800 HZ NCD 05/03
                        Q1032 NOSIG=
201603122020 METAR COR EGLL 122020Z AUTO 09006KT 3100 HZ NCD 06/03 Q1032
                        NOSIG=
201603121950 METAR COR EGLL 121950Z AUTO 08006KT 020V100 4100 HZ NCD 07/02
                        Q1031 TEMPO 6000=
201603121920 METAR COR EGLL 121920Z AUTO 34001KT 6000 FEW031 09/00 Q1031
                        NOSIG=
201603121850 METAR COR EGLL 121850Z AUTO 33002KT 6000 NCD 09/01 Q1031
                        NOSIG=
201603121820 METAR COR EGLL 121820Z AUTO 32003KT 7000 NCD 09/01 Q1031
                        NOSIG=
201603121750 METAR COR EGLL 121750Z AUTO 31003KT 7000 NCD 09/01 Q1031
                        NOSIG=
201603121720 METAR COR EGLL 121720Z AUTO VRB03KT 8000 NCD 10/01 Q1030
                        NOSIG=
201603121650 METAR COR EGLL 121650Z AUTO 26005KT 7000 NCD 10/01 Q1030
                        NOSIG=
201603121620 METAR COR EGLL 121620Z AUTO 26005KT 190V310 7000 NCD 10/01
                        Q1030 NOSIG=
201603121550 METAR COR EGLL 121550Z AUTO 27005KT 7000 NCD 11/02 Q1030
                        NOSIG=
201603121520 METAR COR EGLL 121520Z AUTO 20004KT 150V270 6000 FEW032 10/02
                        Q1030 NOSIG=
201603121450 METAR COR EGLL 121450Z AUTO VRB03KT 5000 HZ NCD 11/03 Q1030
                        NOSIG=
201603121420 METAR COR EGLL 121420Z 25005KT 140V300 6000 FEW032 11/03
                        Q1030 NOSIG=
201603121350 METAR COR EGLL 121350Z AUTO 20004KT 150V240 4300 HZ NCD 10/04
                        Q1030 BECMG 5000=
201603121320 METAR COR EGLL 121320Z AUTO 20004KT 150V230 3600 HZ NCD 10/05
                        Q1030 BECMG 5000=
201603121250 METAR COR EGLL 121250Z AUTO VRB02KT 3300 HZ NCD 10/05 Q1031
                        BECMG 5000=
201603121220 METAR COR EGLL 121220Z AUTO VRB02KT 3000 HZ FEW011 10/05
                        Q1031 BECMG 5000=
201603121150 METAR COR EGLL 121150Z AUTO VRB03KT 2600 HZ BKN011 09/05
                        Q1031 BECMG FEW011=
201603121120 METAR COR EGLL 121120Z AUTO VRB03KT 2700 HZ BKN009 08/05
                        Q1031 BECMG BKN010=
201603121050 METAR COR EGLL 121050Z AUTO 06004KT 2300 HZ BKN008 07/05
                        Q1031 BECMG BKN010=
201603121020 METAR COR EGLL 121020Z VRB02KT 2300 HZ BKN010 06/05 Q1031
                        TEMPO BKN008=
201603120950 METAR COR EGLL 120950Z VRB03KT 1900 HZ FEW003 BKN008 06/05
                        Q1031 BECMG SCT010=
201603120920 METAR COR EGLL 120920Z VRB02KT 1600 HZ SCT006 SCT010 05/04
                        Q1031 TEMPO BKN008=
201603120850 METAR COR EGLL 120850Z 11002KT 1500 R09R/1100 HZ FEW002 BKN005
                        05/04 Q1031 NOSIG=
201603120820 METAR COR EGLL 120820Z 16003KT 1400 R09L/P1500 R09R/1100
                        HZ FEW001 BKN004 04/03 Q1031 BECMG
                        1600 BKN005=
201603120750 METAR COR EGLL 120750Z 15003KT 1600 R09R/1000 HZ FEW001 BKN006
                        04/03 Q1030 TEMPO 1200 BKN003=
201603120720 METAR COR EGLL 120720Z VRB02KT 1400 R09L/P1500 R09R/P1500
                        HZ FEW001 BKN005 04/03 Q1030 TEMPO
                        BKN003=
201603120650 METAR COR EGLL 120650Z 16004KT 1500 HZ FEW001 BKN005 03/02
                        Q1030 TEMPO 1200 BKN003=
201603120620 METAR COR EGLL 120620Z AUTO 32002KT 1200 R09L/P1500 R09R/P1500
                        HZ OVC005 04/03 Q1030 TEMPO BKN004=
201603120550 METAR COR EGLL 120550Z AUTO VRB01KT 1400 R09L/P1500 HZ BKN004
                        04/03 Q1029 TEMPO 1600 BKN006=
201603120520 METAR COR EGLL 120520Z AUTO VRB03KT 1300 R09L/P1500 HZ OVC004
                        04/03 Q1029 TEMPO 1600 BKN005=
201603120450 METAR COR EGLL 120450Z AUTO 11003KT 1400 R09L/P1500 HZ OVC004
                        04/03 Q1029 TEMPO BKN005=
201603120420 METAR EGLL 120420Z AUTO VRB02KT 1500 HZ OVC005 04/03 Q1029=
201603120350 METAR COR EGLL 120350Z AUTO VRB02KT 1600 HZ OVC006 04/03
                        Q1029 TEMPO BKN004=
201603120320 METAR COR EGLL 120320Z AUTO 36002KT 1400 HZ BKN007 04/03
                        Q1029 TEMPO SCT007=
201603120250 METAR COR EGLL 120250Z AUTO 06001KT 1400 R09L/P1500 HZ FEW008
                        04/03 Q1029 TEMPO BKN003=
201603120220 METAR COR EGLL 120220Z AUTO 09002KT 1200 R09L/P1500 HZ SCT004
                        04/03 Q1030 TEMPO BKN003=
201603120150 METAR COR EGLL 120150Z AUTO 09005KT 060V130 1300 HZ OVC004
                        03/02 Q1030 TEMPO 1800 BKN006=
201603120120 METAR COR EGLL 120120Z AUTO 08003KT 1700 HZ SCT006 03/02
                        Q1030 BECMG 1400=
201603120050 METAR COR EGLL 120050Z AUTO 07002KT 1800 HZ NCD 03/02 Q1030
                        NOSIG=
201603120020 METAR COR EGLL 120020Z AUTO 09002KT 1800 HZ NCD 04/02 Q1030
                        NOSIG=
201603112350 METAR COR EGLL 112350Z AUTO 09002KT 2100 HZ NCD 04/02 Q1030
                        NOSIG=
201603112320 METAR COR EGLL 112320Z AUTO 11003KT 2200 HZ NCD 04/02 Q1030
                        NOSIG=
201603112250 METAR COR EGLL 112250Z AUTO 09002KT 2700 HZ NCD 04/02 Q1030
                        NOSIG=
201603112220 METAR COR EGLL 112220Z AUTO 09003KT 3000 HZ NCD 03/01 Q1030
                        NOSIG=
201603112150 METAR COR EGLL 112150Z AUTO 10005KT 3100 HZ NCD 03/01 Q1030
                        NOSIG=
201603112120 METAR COR EGLL 112120Z AUTO 11005KT 3700 HZ NCD 04/01 Q1030
                        NOSIG=
201603112050 METAR COR EGLL 112050Z AUTO 11005KT 4100 HZ NCD 05/02 Q1029
                        NOSIG=
201603112020 METAR COR EGLL 112020Z AUTO 11006KT 4400 HZ NCD 05/02 Q1029
                        NOSIG=
201603111950 METAR COR EGLL 111950Z AUTO 11006KT 4700 HZ NCD 05/02 Q1029
                        NOSIG=
201603111920 METAR COR EGLL 111920Z AUTO 11007KT 4900 HZ NCD 05/02 Q1029
                        NOSIG=
201603111850 METAR EGLL 111850Z AUTO 10004KT 5000 HZ NCD 07/02 Q1029=
201603111820 METAR COR EGLL 111820Z AUTO 11005KT 5000 HZ NCD 06/01 Q1028
                        NOSIG=
201603111750 METAR COR EGLL 111750Z AUTO 11005KT 5000 HZ NCD 07/02 Q1028
                        NOSIG=
201603111720 METAR COR EGLL 111720Z AUTO 11005KT 5000 HZ NCD 08/02 Q1027
                        NOSIG=
201603111650 METAR COR EGLL 111650Z AUTO 10005KT 6000 FEW039 09/02 Q1027
                        NOSIG=
201603111620 METAR COR EGLL 111620Z AUTO VRB02KT 7000 NCD 11/01 Q1027
                        NOSIG=
201603111550 METAR COR EGLL 111550Z AUTO VRB03KT 8000 NCD 11/01 Q1027
                        NOSIG=
201603111520 METAR COR EGLL 111520Z AUTO VRB03KT 7000 NCD 10/02 Q1028
                        NOSIG=
201603111450 METAR COR EGLL 111450Z AUTO VRB02KT 6000 NCD 11/02 Q1028
                        NOSIG=
201603111420 METAR COR EGLL 111420Z AUTO VRB02KT 7000 FEW026 10/03 Q1028
                        NOSIG=
201603111350 METAR COR EGLL 111350Z AUTO VRB03KT 6000 NCD 10/03 Q1028
                        NOSIG=
201603111320 METAR COR EGLL 111320Z AUTO VRB03KT 5000 HZ FEW021 09/03
                        Q1028 NOSIG=
201603111250 METAR COR EGLL 111250Z AUTO VRB02KT 5000 HZ FEW018 09/04
                        Q1029 NOSIG=
201603111220 METAR EGLL 111220Z AUTO VRB03KT 4400 HZ FEW016 08/04 Q1029=
201603111150 METAR COR EGLL 111150Z AUTO VRB03KT 3900 HZ FEW016 08/04
                        Q1029 BECMG 6000=
201603111120 METAR COR EGLL 111120Z AUTO 21004KT 170V270 3300 HZ SCT013
                        06/03 Q1029 BECMG 6000=
201603111050 METAR COR EGLL 111050Z AUTO VRB02KT 2200 HZ FEW003 05/03
                        Q1029 BECMG 5000=
201603111020 METAR COR EGLL 111020Z 26004KT 220V330 2200 HZ SCT002 05/03
                        Q1029 BECMG 4000=
201603110950 METAR COR EGLL 110950Z 28004KT 1300 R09L/1000 R09R/P1500
                        HZ SCT001 05/03 Q1029 BECMG 4000=
201603110920 METAR COR EGLL 110920Z AUTO VRB01KT 0150 R09L/0350 R09R/1300
                        FG BKN001 02/02 Q1029 BECMG 2000
                        BR SCT003=
201603110850 METAR COR EGLL 110850Z AUTO 33003KT 0150 R09L/0275 R09R/0650
                        FG BKN000 02/01 Q1029 BECMG 15000
                        SCT003=
201603110820 METAR COR EGLL 110820Z AUTO 35002KT 0100 R09L/0200 R09R/0400
                        FG BKN001 01/M00 Q1028 BECMG 1500
                        BR SCT003=
201603110750 METAR COR EGLL 110750Z VRB02KT 0500 R09L/0200 R09R/1100 FG
                        BKN001 01/00 Q1028 BECMG 1500 BR
                        SCT002=
201603110720 METAR COR EGLL 110720Z AUTO 35002KT 2100 HZ NCD 00/M01 Q1028
                        BECMG 3000=
201603110650 METAR EGLL 110650Z AUTO 30002KT 1100 R09L/P1500 R09R/P1500
                        HZ NCD 00/M01 Q1028=
201603110620 METAR COR EGLL 110620Z AUTO VRB02KT 2300 HZ NCD M00/M01 Q1027
                        TEMPO 1200 BR=
201603110550 METAR COR EGLL 110550Z AUTO 32001KT 2300 HZ NCD 01/M00 Q1027
                        TEMPO 1200 BR=
201603110520 METAR COR EGLL 110520Z AUTO VRB01KT 2100 HZ NCD 00/M00 Q1027
                        TEMPO 1200 BR=
201603110450 METAR COR EGLL 110450Z AUTO VRB02KT 2300 HZ NCD 01/00 Q1027
                        TEMPO 12000 BR=
201603110420 METAR COR EGLL 110420Z AUTO VRB02KT 2200 HZ NCD 01/M00 Q1027
                        TEMPO 1200 BR=
201603110350 METAR COR EGLL 110350Z 36002KT 2800 BR NSC 02/01 Q1026 TEMPO
                        1200=
201603110320 METAR COR EGLL 110320Z AUTO 05001KT 2000 HZ NCD 01/00 Q1026
                        TEMPO 1200 BR=
201603110250 METAR EGLL 110250Z AUTO VRB01KT 1500 HZ NCD 02/01 Q1026=
201603110220 METAR COR EGLL 110220Z AUTO 08001KT 2500 HZ NCD 02/01 Q1027
                        NOSIG=
201603110150 METAR COR EGLL 110150Z AUTO 03002KT 2900 HZ NCD 02/01 Q1027
                        NOSIG=
201603110120 METAR COR EGLL 110120Z AUTO 01003KT 2100 HZ NCD 02/01 Q1027
                        NOSIG=
201603110050 METAR COR EGLL 110050Z 02003KT 4200 HZ NSC 03/01 Q1026 NOSIG=
201603110020 METAR COR EGLL 110020Z VRB01KT 4500 BR NSC 03/02 Q1026 NOSIG=
201603102350 METAR COR EGLL 102350Z 01002KT 4800 HZ NSC 03/02 Q1026 NOSIG=
201603102320 METAR COR EGLL 102320Z 36002KT 5000 HZ FEW038 04/02 Q1026
                        TEMPO 4000 BR=
201603102250 METAR COR EGLL 102250Z AUTO 27002KT 3700 HZ FEW037 04/03
                        Q1026 NOSIG=
201603102220 METAR COR EGLL 102220Z AUTO 07001KT 3300 HZ FEW038 05/03
                        Q1026 NOSIG=
201603102150 METAR COR EGLL 102150Z AUTO 08002KT 3800 HZ NCD 06/03 Q1026
                        NOSIG=
201603102120 METAR EGLL 102120Z AUTO 04003KT 4600 HZ NCD 06/04 Q1025=
201603102050 METAR EGLL 102050Z AUTO VRB03KT 5000 HZ FEW028 06/04 Q1025=
201603102020 METAR COR EGLL 102020Z AUTO 34004KT 310V030 6000 SCT029 BKN044
                        07/05 Q1025 NOSIG=
201603101950 METAR COR EGLL 101950Z AUTO VRB02KT 7000 FEW033 BKN044 07/05
                        Q1024 NOSIG=
201603101920 METAR COR EGLL 101920Z AUTO 33003KT 9000 SCT031 BKN045 08/04
                        Q1024 NOSIG=
201603101850 METAR COR EGLL 101850Z AUTO VRB02KT 9999 SCT030 BKN043 08/04
                        Q1024 NOSIG=
201603101820 METAR COR EGLL 101820Z AUTO 36003KT 9999 OVC035 08/04 Q1023
                        NOSIG=
201603101750 METAR COR EGLL 101750Z AUTO 35003KT 9999 OVC034 08/04 Q1023
                        NOSIG=
201603101720 METAR COR EGLL 101720Z AUTO 36003KT 9999 OVC035 09/04 Q1022
                        NOSIG=
201603101650 METAR COR EGLL 101650Z AUTO 01004KT 340V050 9999 BKN021 OVC041
                        09/04 Q1022 NOSIG=
201603101620 METAR COR EGLL 101620Z AUTO VRB03KT 9999 BKN023 OVC045 09/04
                        Q1022 NOSIG=
201603101550 METAR COR EGLL 101550Z AUTO 02004KT 330V060 9999 FEW021 OVC036
                        09/03 Q1022 NOSIG=
201603101520 METAR COR EGLL 101520Z AUTO 36006KT 330V050 9999 FEW019 OVC043
                        09/04 Q1022 NOSIG=
201603101450 METAR COR EGLL 101450Z AUTO 36005KT 290V050 9999 BKN016 OVC042
                        09/04 Q1021 NOSIG=
201603101420 METAR COR EGLL 101420Z AUTO 36005KT 320V040 9999 SCT015 OVC039
                        09/05 Q1021 NOSIG=
201603101350 METAR COR EGLL 101350Z AUTO 35005KT 310V020 9999 SCT014 BKN034
                        08/05 Q1021 NOSIG=
201603101320 METAR COR EGLL 101320Z AUTO 32006KT 290V360 9999 FEW013 OVC038
                        08/05 Q1021 NOSIG=
201603101250 METAR COR EGLL 101250Z AUTO 34005KT 300V030 9999 SCT011 OVC042
                        08/05 Q1021 NOSIG=
201603101220 METAR COR EGLL 101220Z AUTO 36005KT 310V050 9999 SCT010 OVC038
                        07/05 Q1020 NOSIG=
201603101150 METAR COR EGLL 101150Z AUTO 34005KT 310V010 9999 BKN008 OVC029
                        07/05 Q1020 BECMG BKN011=
201603101120 METAR COR EGLL 101120Z 35005KT 320V020 9999 BKN010 BKN034
                        07/05 Q1020 NOSIG=
201603101050 METAR COR EGLL 101050Z 33004KT 300V040 8000 FEW008 BKN010
                        06/05 Q1020 NOSIG=
201603101020 METAR COR EGLL 101020Z 01005KT 320V040 8000 SCT008 BKN010
                        06/05 Q1019 TEMPO BKN009=
201603100950 METAR COR EGLL 100950Z 36005KT 330V040 8000 SCT007 BKN008
                        06/05 Q1019 BECMG SCT009 BKN010=
201603100920 METAR COR EGLL 100920Z 01005KT 340V050 7000 SCT007 BKN009
                        06/04 Q1019 BECMG SCT009 BKN010=
201603100850 METAR COR EGLL 100850Z 34005KT 310V020 8000 FEW007 BKN009
                        06/04 Q1018 TEMPO SCT009 BKN011=
201603100820 METAR COR EGLL 100820Z 36005KT 8000 FEW007 BKN009 06/04 Q1018
                        TEMPO SCT009 BKN012=
201603100750 METAR COR EGLL 100750Z 36005KT 330V040 8000 FEW008 BKN010
                        05/04 Q1017 TEMPO BKN009=
201603100720 METAR COR EGLL 100720Z 36004KT 7000 FEW006 BKN008 05/04 Q1017
                        NOSIG=
201603100650 METAR COR EGLL 100650Z 36005KT 6000 FEW006 BKN008 05/04 Q1016
                        TEMPO 4500 BKN004=
201603100620 METAR COR EGLL 100620Z 35004KT 320V020 6000 FEW006 BKN007
                        05/04 Q1016 TEMPO 4500 BKN004=
201603100550 METAR COR EGLL 100550Z 36006KT 330V030 6000 FEW006 BKN007
                        05/04 Q1015 TEMPO 4500 BKN004=
201603100520 METAR COR EGLL 100520Z 35005KT 320V030 6000 BKN007 05/04
                        Q1015 TEMPO 4500 BKN004=
201603100450 METAR COR EGLL 100450Z AUTO 35004KT 320V020 3500 HZ OVC004
                        05/04 Q1014 TEMPO BKN005=
201603100420 METAR COR EGLL 100420Z 36005KT 320V020 4600 HZ BKN006 05/04
                        Q1014 NOSIG=
201603100350 METAR COR EGLL 100350Z 35005KT 310V020 4500 HZ FEW006 BKN007
                        05/04 Q1013 TEMPO 7000 SCT007 BKN012=
201603100320 METAR COR EGLL 100320Z AUTO 36005KT 330V030 4200 HZ BKN005
                        06/05 Q1013 TEMPO 7000 SCT005 BKN012=
201603100250 METAR EGLL 100250Z AUTO 33006KT 4300 -DZ BKN004 06/05 Q1013=
201603100220 METAR EGLL 100220Z AUTO 32005KT 5000 HZ BKN004 06/05 Q1012=
201603100150 METAR EGLL 100150Z AUTO 35004KT 4000 HZ BKN003 06/05 Q1012=
201603100120 METAR COR EGLL 100120Z 35004KT 4000 HZ FEW007 BKN008 06/05
                        Q1011 NOSIG=
201603100050 METAR EGLL 100050Z AUTO 36004KT 330V040 2200 DZ BKN004 BKN015
                        06/05 Q1011=
201603100020 METAR EGLL 100020Z AUTO 36004KT 3400 HZ BKN004 OVC026 06/05
                        Q1010=
201603092350 METAR COR EGLL 092350Z 36004KT 320V030 4200 HZ FEW005 BKN017
                        06/05 Q1010 TEMPO BKN007=
201603092320 METAR COR EGLL 092320Z 36005KT 4000 -RA BKN015 06/05 Q1009
                        TEMPO 7000 BKN008=
201603092250 METAR COR EGLL 092250Z 35005KT 330V030 5000 HZ FEW005 BKN020
                        06/05 Q1009 TEMPO BKN007=
201603092220 METAR COR EGLL 092220Z 03004KT 350V060 7000 BKN025 06/05
                        Q1008 NOSIG=
201603092150 METAR COR EGLL 092150Z 01004KT 340V040 7000 FEW007 BKN022
                        06/05 Q1008 TEMPO BKN007=
201603092120 METAR COR EGLL 092120Z 02005KT 340V050 7000 -RA FEW005 BKN023
                        06/05 Q1007 TEMPO BKN005=
201603092050 METAR COR EGLL 092050Z AUTO 04007KT 7000 -RA FEW005/// SCT009///
                        BKN024/// 06/05 Q1006 TEMPO BKN009=
201603092020 METAR COR EGLL 092020Z 03005KT 350V060 7000 -RA FEW005 SCT009
                        BKN024 07/05 Q1006 NOSIG BKN009=
201603091950 METAR COR EGLL 091950Z 04007KT 010V070 8000 -SHRA FEW006
                        SCT009 BKN016 07/05 Q1005 TEMPO BKN009=
201603091920 METAR COR EGLL 091920Z 04007KT 010V070 8000 -SHRA FEW006
                        BKN009 BKN038 07/06 Q1004 TEMPO SCT009=
201603091850 METAR COR EGLL 091850Z 04006KT 8000 -SHRA FEW005 BKN009 07/06
                        Q1003 TEMPO SCT009 BKN015=
201603091820 METAR COR EGLL 091820Z 02006KT 6000 -SHRA FEW005 SCT009 BKN015
                        07/06 Q1002 TEMPO 4800 SHRA BKN009=
201603091750 METAR COR EGLL 091750Z 01004KT 350V050 7000 -SHRA FEW003
                        FEW006TCU SCT009 BKN016 08/07 Q1001
                        TEMPO SHRA BKN009=
201603091720 METAR COR EGLL 091720Z 36004KT 6000 -SHRA FEW006 FEW008TCU
                        SCT009 BKN016 07/06 Q1000 TEMPO 4800
                        SHRA BKN010=
201603091650 METAR COR EGLL 091650Z 35005KT 9000 -SHRA FEW008 BKN017TCU
                        07/06 Q0999 TEMPO SHRA BKN012=
201603091620 METAR COR EGLL 091620Z 35006KT 310V020 9000 -SHRA SCT008
                        BKN016TCU 07/06 Q0999 TEMPO SHRA
                        BKN012=
201603091550 METAR COR EGLL 091550Z 34008KT 310V010 9000 -SHRA FEW008
                        SCT011 BKN016TCU 07/06 Q0998 TEMPO
                        4800 SHRA BKN012=
201603091520 METAR EGLL 091520Z 34006KT 310V010 9999 -SHRA FEW010 BKN019TCU
                        BKN028 08/06 Q0997=
201603091450 METAR COR EGLL 091450Z 03006KT 360V060 9999 7000SW -SHRA
                        FEW011 SCT022CB BKN035 09/05 Q0996
                        TEMPO SHRA BKN012=
201603091420 METAR COR EGLL 091420Z 06006KT 9999 VCSH FEW028CB BKN046
                        10/04 Q0995 SHRA BKN014=
201603091350 METAR COR EGLL 091350Z 07008KT 9999 VCSH FEW024 FEW028CB
                        SCT039 10/05 Q0995 TEMPO SHRA BKN014=
201603091320 METAR COR EGLL 091320Z 03005KT 330V100 9999 -SHRA FEW022
                        FEW030CB SCT038 11/05 Q0994 TEMPO
                        SHRA BKN014=
201603091250 METAR COR EGLL 091250Z 04005KT 350V090 9999 FEW022 SCT032
                        10/05 Q0994 NOSIG=
201603091220 METAR COR EGLL 091220Z AUTO 04004KT 350V080 9999 SCT023///
                        OVC037/// //////TCU 09/05 Q0993 NOSIG=
201603091150 METAR COR EGLL 091150Z AUTO 04004KT 360V070 9999 OVC025 09/04
                        Q0992 NOSIG=
201603091120 METAR COR EGLL 091120Z AUTO 09004KT 050V120 9999 OVC022 08/04
                        Q0992 TEMPO BKN012=
201603091050 METAR COR EGLL 091050Z AUTO 12004KT 070V170 9999 BKN020 09/04
                        Q0991 TEMPO BKN012=
201603091020 METAR COR EGLL 091020Z AUTO 14008KT 9999 BKN018 08/05 Q0990
                        TEMPO BKN012=
201603090950 METAR COR EGLL 090950Z AUTO 14008KT 9999 -RA BKN015 OVC029
                        08/05 Q0989 TEMPO BKN012=
201603090920 METAR COR EGLL 090920Z AUTO 12007KT 070V170 9999 BKN015 OVC027
                        08/06 Q0988 TEMPO 4800 RADZ BKN010=
201603090850 METAR EGLL 090850Z AUTO 12007KT 060V160 8000 BKN020 08/06
                        Q0988=
201603090820 METAR COR EGLL 090820Z AUTO 15011KT 6000 -RA SCT009 OVC024
                        08/06 Q0987 TEMPO 4800 RADZ BKN010=
201603090750 METAR EGLL 090750Z 15012KT 9999 -RA SCT016 BKN026 08/06 Q0987=
201603090720 METAR EGLL 090720Z 17014KT 9999 SCT012 BKN025 08/06 Q0987=
201603090650 METAR COR EGLL 090650Z 15014KT 4500 -RADZ BKN008 08/07 Q0986
                        TEMPO 6000 NSW BKN012=
201603090620 METAR COR EGLL 090620Z 13015KT 5000 -RADZ OVC009 08/07 Q0986
                        TEMPO BKN010=
201603090550 METAR COR EGLL 090550Z 12014KT 9999 -RA BKN010 08/07 Q0987
                        TEMPO BKN008=
201603090520 METAR COR EGLL 090520Z AUTO 14013KT 9000 -RA BKN009/// //////CB
                        08/07 Q0988 TEMPO RA BKN010=
201603090450 METAR COR EGLL 090450Z AUTO 14015KT 9999 -RA BKN010/// OVC023///
                        //////CB 08/06 Q0989 TEMPO RA BKN008=
201603090420 METAR COR EGLL 090420Z AUTO 14014G26KT 9999 -RA BKN009///
                        OVC024/// //////CB 08/07 Q0990 TEMPO
                        4000 RA BKN010=
201603090350 METAR COR EGLL 090350Z AUTO 15014KT 9000 -RA BKN008/// //////TCU
                        08/07 Q0992 TEMPO 4000 RA BKN010=
201603090320 METAR COR EGLL 090320Z AUTO 15016KT 8000 -RA BKN006/// BKN015///
                        //////TCU 08/07 Q0993 TEMPO 4000
                        RA=
201603090250 METAR COR EGLL 090250Z AUTO 15015KT 8000 -RA BKN004/// BKN016///
                        //////CB 08/07 Q0994 TEMPO 4000 RA
                        BKN006=
201603090220 METAR COR EGLL 090220Z AUTO 15010KT 9999 -RA OVC004/// //////TCU
                        08/07 Q0996 TEMPO 4000 RA BKN005=
201603090150 METAR COR EGLL 090150Z AUTO 17012KT 9999 -RA OVC005/// //////TCU
                        08/07 Q0997 TEMPO 4000 RA BKN004=
201603090120 METAR COR EGLL 090120Z 17012KT 9000 -RA BKN005 08/07 Q0999
                        TEMPO 4000 RA BKN004=
201603090050 METAR COR EGLL 090050Z 18010KT 9999 BKN007 08/07 Q1000 TEMPO
                        RA=
201603090020 METAR COR EGLL 090020Z 18010KT 4800 -RADZ FEW003 OVC004 08/07
                        Q1001 TEMPO 5000 BKN005=
201603082350 METAR COR EGLL 082350Z 18011KT 5000 -RADZ OVC006 08/07 Q1002
                        TEMPO 4000 BKN004=
201603082320 METAR COR EGLL 082320Z 18010KT 160V220 9999 -RA BKN006 08/06
                        Q1003 TEMPO BKN004=
201603082250 METAR COR EGLL 082250Z 18013KT 9999 -RA SCT005 07/06 Q1004
                        BECMG BKN006=
201603082220 METAR COR EGLL 082220Z 19013KT 150V230 9999 -RA FEW005 SCT006
                        07/06 Q1005 BECMG BKN006=
201603082150 METAR COR EGLL 082150Z 19013KT 160V230 9999 FEW005 BKN008
                        07/06 Q1006 NOSIG=
201603082120 METAR COR EGLL 082120Z 18011KT 150V230 8000 -RA FEW006 BKN007
                        07/06 Q1007 NOSIG=
201603082050 METAR COR EGLL 082050Z 19012KT 160V230 9999 FEW006 BKN008
                        07/05 Q1008 NOSIG=
201603082020 METAR COR EGLL 082020Z 19012KT 160V230 9999 BKN009 07/05
                        Q1009 NOSIG=
201603081950 METAR COR EGLL 081950Z 19011KT 150V230 9999 BKN008 06/05
                        Q1009 NOSIG=
201603081920 METAR COR EGLL 081920Z 19010KT 160V240 9999 FEW007 BKN009
                        06/05 Q1010 NOSIG=
201603081850 METAR COR EGLL 081850Z 19009KT 160V230 9999 FEW006 SCT008
                        BKN010 06/05 Q1011 BECMG BKN008=
201603081820 METAR COR EGLL 081820Z AUTO 20009KT 160V240 8000 -RA OVC011
                        07/04 Q1011 TEMPO BKN008=
201603081750 METAR COR EGLL 081750Z AUTO 22011KT 180V250 8000 -RA OVC017
                        07/04 Q1012 BECMG BKN014=
201603081720 METAR COR EGLL 081720Z AUTO 22011KT 9999 -RA OVC018 07/03
                        Q1012 TEMPO OVC014=
201603081650 METAR COR EGLL 081650Z AUTO 22010KT 9999 OVC022 08/03 Q1012
                        TEMPO BKN014=
201603081620 METAR COR EGLL 081620Z AUTO 22011KT 9999 OVC024 08/02 Q1012
                        TEMPO BKN014=
201603081550 METAR COR EGLL 081550Z AUTO 24012KT 9999 OVC025 08/02 Q1013
                        NOSIG=
201603081520 METAR COR EGLL 081520Z AUTO 24012KT 9999 OVC028 09/01 Q1013
                        NOSIG=
201603081450 METAR COR EGLL 081450Z AUTO 22011KT 9999 BKN030 08/01 Q1012
                        NOSIG=
201603081420 METAR COR EGLL 081420Z AUTO 22010KT 9999 SCT032 BKN041 09/01
                        Q1013 NOSIG=
201603081350 METAR COR EGLL 081350Z AUTO 23011KT 9999 FEW030 OVC044 08/01
                        Q1013 NOSIG=
201603081320 METAR COR EGLL 081320Z AUTO 22009KT 180V240 9999 FEW029 08/01
                        Q1014 NOSIG=
201603081250 METAR COR EGLL 081250Z AUTO 23008KT 180V250 9999 NCD 08/01
                        Q1014 NOSIG=
201603081220 METAR COR EGLL 081220Z AUTO 23008KT 200V260 9999 FEW024 07/01
                        Q1014 NOSIG=
201603081150 METAR COR EGLL 081150Z AUTO 23008KT 9999 FEW029 07/M00 Q1015
                        NOSIG=
201603081120 METAR COR EGLL 081120Z AUTO 23009KT 9999 -RA BKN024 06/M01
                        Q1015 NOSIG=
201603081050 METAR COR EGLL 081050Z AUTO 21006KT 160V250 9999 SCT028 05/M02
                        Q1015 NOSIG=
201603081020 METAR COR EGLL 081020Z AUTO 23007KT 200V260 9999 -RA FEW031
                        OVC038 04/M03 Q1016 NOSIG=
201603080950 METAR COR EGLL 080950Z AUTO 22006KT 9999 OVC041 03/M03 Q1016
                        NOSIG=
201603080920 METAR COR EGLL 080920Z AUTO 22004KT 180V250 9999 OVC042 02/M03
                        Q1016 NOSIG=
201603080850 METAR COR EGLL 080850Z AUTO 18004KT 140V220 9999 OVC039 01/M03
                        Q1016 NOSIG=
201603080820 METAR COR EGLL 080820Z AUTO 16004KT 130V190 9999 BKN037 01/M03
                        Q1016 NOSIG=
201603080750 METAR COR EGLL 080750Z AUTO 17004KT 9999 SCT037 M00/M03 Q1016
                        NOSIG=
201603080720 METAR COR EGLL 080720Z AUTO VRB03KT 9999 NCD M01/M03 Q1016
                        NOSIG=
201603080650 METAR COR EGLL 080650Z AUTO VRB03KT 9999 NCD M01/M04 Q1016
                        NOSIG=
201603080620 METAR COR EGLL 080620Z AUTO VRB03KT 9999 NCD M02/M04 Q1016
                        NOSIG=
201603080550 METAR COR EGLL 080550Z AUTO 26003KT 9999 NCD M01/M04 Q1016
                        NOSIG=
201603080520 METAR COR EGLL 080520Z AUTO 19004KT 160V240 9999 NCD M01/M04
                        Q1015 NOSIG=
201603080450 METAR COR EGLL 080450Z AUTO VRB02KT 9999 NCD M01/M04 Q1015
                        NOSIG=
201603080420 METAR COR EGLL 080420Z AUTO 26002KT 9999 NCD M01/M04 Q1015
                        NOSIG=
201603080350 METAR COR EGLL 080350Z AUTO 27003KT 9999 NCD M01/M04 Q1015
                        NOSIG=
201603080320 METAR COR EGLL 080320Z AUTO 26002KT 9999 NCD M01/M05 Q1015
                        NOSIG=
201603080250 METAR COR EGLL 080250Z AUTO 27002KT 9999 NCD M01/M05 Q1015
                        NOSIG=
201603080220 METAR COR EGLL 080220Z AUTO 30003KT 9999 NCD 00/M04 Q1015
                        NOSIG=
201603080150 METAR COR EGLL 080150Z AUTO 29004KT 9999 NCD M00/M04 Q1015
                        NOSIG=
201603080120 METAR COR EGLL 080120Z AUTO 28004KT 9999 NCD 01/M04 Q1015
                        NOSIG=
201603080050 METAR COR EGLL 080050Z AUTO 28004KT 9999 NCD M01/M04 Q1015
                        NOSIG=
201603080020 METAR COR EGLL 080020Z AUTO 27006KT 9999 NCD M00/M04 Q1015
                        NOSIG=
201603072350 METAR COR EGLL 072350Z AUTO 29004KT 9999 NCD 00/M04 Q1015
                        NOSIG=
201603072320 METAR COR EGLL 072320Z AUTO 32002KT 9999 NCD 02/M04 Q1015
                        NOSIG=
201603072250 METAR COR EGLL 072250Z AUTO 29004KT 9999 NCD 03/M04 Q1014
                        NOSIG=
201603072220 METAR COR EGLL 072220Z AUTO 32003KT 9999 NCD 04/M03 Q1014
                        NOSIG=
201603072150 METAR COR EGLL 072150Z AUTO 30003KT 9999 FEW049 04/M03 Q1014
                        NOSIG=
201603072120 METAR COR EGLL 072120Z AUTO 32004KT 290V360 9999 NCD 05/M03
                        Q1014 NOSIG=
201603072050 METAR COR EGLL 072050Z AUTO 30003KT 9999 NCD 05/M03 Q1014
                        NOSIG=
201603072020 METAR COR EGLL 072020Z AUTO 30005KT 9999 NCD 06/M03 Q1013
                        NOSIG=
201603071950 METAR COR EGLL 071950Z AUTO VRB03KT 9999 NCD 06/M03 Q1013
                        NOSIG=
201603071920 METAR COR EGLL 071920Z AUTO VRB03KT 9999 NCD 06/M03 Q1013
                        NOSIG=
201603071850 METAR COR EGLL 071850Z AUTO 34004KT 310V020 9999 NCD 06/M03
                        Q1013 NOSIG=
201603071820 METAR COR EGLL 071820Z AUTO 35004KT 310V020 9999 FEW045 06/M03
                        Q1012 NOSIG=
201603071750 METAR COR EGLL 071750Z AUTO 34005KT 310V030 9999 BKN044 06/M04
                        Q1012 NOSIG=
201603071720 METAR COR EGLL 071720Z AUTO 33007KT 9999 BKN046 07/M04 Q1011
                        NOSIG=
201603071650 METAR COR EGLL 071650Z AUTO 32008KT 280V360 9999 BKN047 07/M04
                        Q1011 NOSIG=
201603071620 METAR COR EGLL 071620Z AUTO 32009KT 9999 BKN046 07/M04 Q1011
                        NOSIG=
201603071550 METAR COR EGLL 071550Z AUTO 32009KT 9999 BKN043/// 07/M03
                        Q1010 NOSIG=
201603071520 METAR COR EGLL 071520Z AUTO 33008KT 300V020 9999 SCT042 07/M03
                        Q1010 NOSIG=
201603071450 METAR COR EGLL 071450Z AUTO 31008KT 290V360 9999 BKN043 07/M03
                        Q1010 NOSIG=
201603071420 METAR COR EGLL 071420Z AUTO 34008KT 300V030 9999 BKN041 07/M03
                        Q1010 NOSIG=
201603071350 METAR COR EGLL 071350Z AUTO 34008G18KT 310V020 9999 BKN040
                        07/M03 Q1010 NOSIG=
201603071320 METAR COR EGLL 071320Z AUTO 34009KT 300V020 9999 SCT038 07/M03
                        Q1010 NOSIG=
201603071250 METAR COR EGLL 071250Z AUTO 36009KT 310V040 9999 BKN038 07/M03
                        Q1010 NOSIG=
201603071220 METAR COR EGLL 071220Z AUTO 35007KT 310V030 9999 BKN036 07/M03
                        Q1010 NOSIG=
201603071150 METAR COR EGLL 071150Z AUTO 34008KT 310V050 9999 BKN033 07/M02
                        Q1009 NOSIG=
201603071120 METAR COR EGLL 071120Z AUTO 34008KT 300V030 9999 SCT033 07/M02
                        Q1009 NOSIG=
201603071050 METAR COR EGLL 071050Z AUTO 34010KT 310V030 9999 SCT030 06/M03
                        Q1009 NOSIG=
201603071020 METAR COR EGLL 071020Z AUTO 33007KT 300V030 9999 FEW047 05/M02
                        Q1009 NOSIG=
201603070950 METAR COR EGLL 070950Z AUTO 33011KT 300V360 9999 FEW028 04/M03
                        Q1009 NOSIG=
201603070920 METAR COR EGLL 070920Z AUTO 34008KT 300V010 9999 NCD 04/M02
                        Q1009 NOSIG=
201603070850 METAR COR EGLL 070850Z AUTO 33006KT 290V010 9999 NCD 03/M03
                        Q1009 NOSIG=
201603070820 METAR COR EGLL 070820Z AUTO 30006KT 9999 NCD 02/M03 Q1009
                        NOSIG=
201603070750 METAR COR EGLL 070750Z AUTO 29006KT 9999 NCD 01/M03 Q1008
                        NOSIG=
201603070720 METAR COR EGLL 070720Z AUTO 29006KT 9999 NCD 01/M03 Q1008
                        NOSIG=
201603070650 METAR COR EGLL 070650Z AUTO 30004KT 9999 NCD 01/M03 Q1008
                        NOSIG=
201603070620 METAR COR EGLL 070620Z AUTO 31004KT 9999 BKN043 01/M02 Q1007
                        NOSIG=
201603070550 METAR COR EGLL 070550Z AUTO 31004KT 280V350 9999 BKN046 01/M02
                        Q1007 NOSIG=
201603070520 METAR COR EGLL 070520Z AUTO 30004KT 9999 NCD 01/M02 Q1007
                        NOSIG=
201603070450 METAR COR EGLL 070450Z AUTO 31004KT 9999 NCD 01/M02 Q1007
                        NOSIG=
201603070420 METAR COR EGLL 070420Z AUTO 31005KT 9999 NCD 01/M02 Q1006
                        NOSIG=
201603070350 METAR COR EGLL 070350Z AUTO 32004KT 290V360 9999 FEW038 01/M02
                        Q1006 NOSIG=
201603070320 METAR COR EGLL 070320Z AUTO 33005KT 9999 NCD 01/M02 Q1006
                        NOSIG=
201603070250 METAR COR EGLL 070250Z AUTO VRB03KT 9999 NCD 02/M02 Q1006
                        NOSIG=
201603070220 METAR COR EGLL 070220Z AUTO 33006KT 9999 NCD 02/M02 Q1006
                        NOSIG=
201603070150 METAR COR EGLL 070150Z AUTO 33005KT 290V360 9999 FEW036 03/M02
                        Q1006 NOSIG=
201603070120 METAR COR EGLL 070120Z AUTO 32005KT 9999 NCD 03/M02 Q1005
                        NOSIG=
201603070050 METAR COR EGLL 070050Z AUTO 32005KT 290V350 9999 NCD 03/M02
                        Q1005 NOSIG=
201603070020 METAR COR EGLL 070020Z AUTO 33005KT 9999 NCD 03/M02 Q1005
                        NOSIG=
201603062350 METAR COR EGLL 062350Z AUTO 33005KT 9999 NCD 04/M01 Q1005
                        NOSIG=
201603062320 METAR COR EGLL 062320Z AUTO 33004KT 300V010 9999 NCD 04/M01
                        Q1005 NOSIG=
201603062250 METAR COR EGLL 062250Z AUTO 32004KT 290V360 9999 NCD 04/M01
                        Q1005 NOSIG=
201603062220 METAR COR EGLL 062220Z AUTO 33004KT 310V040 9999 NCD 05/M02
                        Q1005 NOSIG=
201603062150 METAR COR EGLL 062150Z AUTO VRB02KT 9999 NCD 04/M02 Q1005
                        NOSIG=
201603062120 METAR COR EGLL 062120Z AUTO 36003KT 9999 NCD 05/M02 Q1005
                        NOSIG=
201603062050 METAR COR EGLL 062050Z AUTO 30002KT 9999 NCD 05/M02 Q1004
                        NOSIG=
201603062020 METAR COR EGLL 062020Z AUTO VRB02KT 9999 NCD 05/M02 Q1004
                        NOSIG=
201603061950 METAR COR EGLL 061950Z AUTO 32003KT 9999 NCD 05/M02 Q1004
                        NOSIG=
201603061920 METAR COR EGLL 061920Z AUTO VRB03KT 9999 NCD 05/M02 Q1004
                        NOSIG=
201603061850 METAR COR EGLL 061850Z AUTO 30003KT 9999 NCD 05/M02 Q1004
                        NOSIG=
201603061820 METAR COR EGLL 061820Z AUTO 31004KT 9999 NCD 05/M02 Q1004
                        NOSIG=
201603061750 METAR COR EGLL 061750Z AUTO 30006KT 9999 FEW038 06/M02 Q1004
                        NOSIG=
201603061720 METAR COR EGLL 061720Z AUTO 31005KT 9999 FEW036 06/M02 Q1004
                        NOSIG=
201603061650 METAR COR EGLL 061650Z AUTO 31005KT 270V340 9999 NCD 06/M02
                        Q1004 TEMPO SHRA=
201603061620 METAR EGLL 061620Z AUTO 31005KT 9999 FEW027 BKN042 06/M01
                        Q1004=
201603061550 METAR COR EGLL 061550Z AUTO 29006KT 9999 FEW044 06/M01 Q1004
                        NOSIG=
201603061520 METAR COR EGLL 061520Z AUTO 29008KT 9999 BKN047/// //////TCU
                        05/M00 Q1004 NOSIG=
201603061450 METAR COR EGLL 061450Z AUTO 28009KT 9999 OVC045 06/M01 Q1005
                        NOSIG=
201603061420 METAR COR EGLL 061420Z AUTO 27011KT 9999 FEW028 06/M01 Q1005
                        TEMPO SHGS=
201603061350 METAR COR EGLL 061350Z AUTO 30004KT 270V350 9999 SCT025 06/M00
                        Q1005 TEMPO SHGS=
201603061320 METAR COR EGLL 061320Z AUTO 30006KT 270V350 9999 -RA FEW024
                        06/M00 Q1005 NOSIG=
201603061250 METAR COR EGLL 061250Z AUTO 31006KT 280V350 9999 BKN021 07/01
                        Q1006 NOSIG=
201603061220 METAR COR EGLL 061220Z AUTO 31005KT 280V350 9999 BKN020 06/01
                        Q1006 NOSIG=
201603061150 METAR COR EGLL 061150Z AUTO 29009KT 9999 BKN020 06/01 Q1006
                        NOSIG=
201603061120 METAR COR EGLL 061120Z AUTO 31009KT 9999 FEW022 06/00 Q1006
                        NOSIG=
201603061050 METAR COR EGLL 061050Z AUTO 32007KT 290V350 9999 FEW021 06/00
                        Q1007 NOSIG=
201603061020 METAR COR EGLL 061020Z AUTO 32008KT 290V350 9999 SCT016 05/00
                        Q1007 NOSIG=
201603060950 METAR COR EGLL 060950Z AUTO 31006KT 9999 BKN013 04/00 Q1007
                        BECMG SCT014=
201603060920 METAR COR EGLL 060920Z AUTO 30008KT 9999 BKN010 03/00 Q1007
                        BECMG SCT012=
201603060850 METAR COR EGLL 060850Z AUTO 31006KT 280V340 9999 BKN009 02/00
                        Q1007 BECMG SCT012=
201603060820 METAR COR EGLL 060820Z AUTO 30007KT 270V330 9000 FEW008 02/00
                        Q1007 NOSIG=
201603060750 METAR COR EGLL 060750Z AUTO 29008KT 7000 NCD 01/M00 Q1007
                        NOSIG=
201603060720 METAR COR EGLL 060720Z AUTO 29006KT 7000 NCD 01/M01 Q1007
                        NOSIG=
201603060650 METAR COR EGLL 060650Z AUTO 29006KT 8000 NCD 01/M01 Q1007
                        NOSIG=
201603060620 METAR COR EGLL 060620Z AUTO 29007KT 9000 NCD 01/M01 Q1007
                        NOSIG=
201603060550 METAR COR EGLL 060550Z AUTO 30005KT 9999 NCD 01/M01 Q1006
                        NOSIG=
201603060520 METAR COR EGLL 060520Z AUTO 30006KT 9999 NCD 01/M01 Q1006
                        NOSIG=
201603060450 METAR COR EGLL 060450Z AUTO 29007KT 9999 NCD 01/M01 Q1006
                        NOSIG=
201603060420 METAR COR EGLL 060420Z AUTO 29005KT 9999 NCD 01/M01 Q1006
                        NOSIG=
201603060350 METAR COR EGLL 060350Z AUTO 31007KT 9999 NCD 01/M01 Q1006
                        NOSIG=
201603060320 METAR COR EGLL 060320Z AUTO 31007KT 9999 NCD 01/M01 Q1006
                        NOSIG=
201603060250 METAR COR EGLL 060250Z AUTO 30007KT 9999 NCD 02/M01 Q1006
                        NOSIG=
201603060220 METAR COR EGLL 060220Z AUTO 31009KT 9999 NCD 02/M01 Q1006
                        NOSIG=
201603060150 METAR COR EGLL 060150Z AUTO 31007KT 9999 NCD 02/M01 Q1006
                        NOSIG=
201603060120 METAR COR EGLL 060120Z AUTO 31008KT 9999 NCD 02/M00 Q1006
                        NOSIG=
201603060050 METAR COR EGLL 060050Z AUTO 32006KT 290V360 9999 NCD 02/M00
                        Q1006 NOSIG=
201603060020 METAR COR EGLL 060020Z AUTO 31007KT 9999 NCD 02/M00 Q1006
                        NOSIG=
201603052350 METAR COR EGLL 052350Z AUTO 32007KT 290V350 9999 NCD 03/M00
                        Q1006 NOSIG=
201603052320 METAR COR EGLL 052320Z AUTO 32006KT 290V350 9999 NCD 03/00
                        Q1005 NOSIG=
201603052250 METAR COR EGLL 052250Z AUTO 31007KT 9999 NCD 03/00 Q1005
                        NOSIG=
201603052220 METAR COR EGLL 052220Z AUTO 31008KT 9999 NCD 04/M00 Q1005
                        NOSIG=
201603052150 METAR COR EGLL 052150Z AUTO 33008KT 9999 NCD 03/00 Q1005
                        NOSIG=
201603052120 METAR COR EGLL 052120Z AUTO 33007KT 9999 NCD 04/01 Q1005
                        NOSIG=
201603052050 METAR COR EGLL 052050Z AUTO 32005KT 9999 NCD 05/01 Q1005
                        NOSIG=
201603052020 METAR COR EGLL 052020Z AUTO 33005KT 300V360 9999 NCD 04/01
                        Q1004 NOSIG=
201603051950 METAR COR EGLL 051950Z AUTO 31005KT 280V350 9999 FEW037 BKN047
                        04/01 Q1004 NOSIG=
201603051920 METAR EGLL 051920Z AUTO 32004KT 280V350 9999 FEW022 04/01
                        Q1004=
201603051850 METAR COR EGLL 051850Z AUTO 36009KT 330V030 9999 -RA FEW013
                        BKN018 05/01 Q1004 NOSIG=
201603051820 METAR COR EGLL 051820Z AUTO 33005KT 300V020 9999 BKN028///
                        //////TCU 06/01 Q1003 NOSIG=
201603051750 METAR COR EGLL 051750Z AUTO 32004KT 290V350 9999 SCT047///
                        //////TCU 06/01 Q1003 NOSIG=
201603051720 METAR COR EGLL 051720Z AUTO 32006KT 9999 NCD 05/01 Q1002
                        NOSIG=
201603051650 METAR COR EGLL 051650Z AUTO 31006KT 9999 //////TCU 05/01
                        Q1002 NOSIG=
201603051620 METAR COR EGLL 051620Z AUTO 35007KT 310V020 9999 -RA FEW012
                        BKN036 05/01 Q1002 NOSIG=
201603051550 METAR COR EGLL 051550Z AUTO 34006KT 290V030 9999 -RA SCT029
                        BKN045 05/01 Q1002 NOSIG=
201603051520 METAR COR EGLL 051520Z AUTO 33005KT 290V030 9999 FEW017 SCT036
                        05/01 Q1002 NOSIG=
201603051450 METAR COR EGLL 051450Z AUTO 01011KT 330V030 9999 -RA SCT016///
                        BKN032/// OVC045/// //////TCU 05/01
                        Q1002 TEMPO SHRA BKN014=
201603051420 METAR COR EGLL 051420Z AUTO 32007KT 9999 -RA SCT011/// BKN023///
                        BKN037/// //////TCU 04/02 Q1001 TEMPO
                        SHRA BKN014=
201603051350 METAR COR EGLL 051350Z AUTO 35011KT 310V040 8000 -RA BKN022///
                        OVC040/// //////TCU 05/01 Q1001 TEMPO
                        SHRA BKN014=
201603051320 METAR COR EGLL 051320Z AUTO 35009KT 9999 BKN026 OVC041 07/01
                        Q1000 TEMPO SHRA=
201603051250 METAR COR EGLL 051250Z AUTO 34008KT 300V030 9999 BKN021///
                        BKN036/// //////TCU 06/01 Q1000 TEMPO
                        SHRA=
201603051220 METAR COR EGLL 051220Z AUTO 36010KT 320V030 9999 BKN021 06/01
                        Q1000 NOSIG=
201603051150 METAR COR EGLL 051150Z AUTO 35008KT 320V050 9999 BKN018 06/02
                        Q1000 TEMPO BKN014=
201603051120 METAR COR EGLL 051120Z AUTO 35009KT 320V030 9999 -RA BKN016
                        05/02 Q1000 TEMPO BKN014=
201603051050 METAR COR EGLL 051050Z 34008KT 310V020 9999 -RA BKN014 05/02
                        Q1000 TEMPO BKN009=
201603051020 METAR COR EGLL 051020Z 34006KT 300V020 9999 -RA FEW008 BKN011
                        04/02 Q1000 TEMPO BKN008=
201603050950 METAR COR EGLL 050950Z 32006KT 290V350 7000 -SHRASN BKN008
                        FEW009TCU BKN012 03/01 Q0999 TEMPO
                        BKN010=
201603050920 METAR COR EGLL 050920Z AUTO 29004KT 250V330 7000 OVC008///
                        //////TCU 02/00 Q0999 TEMPO -RA BKN010=
201603050850 METAR COR EGLL 050850Z AUTO 31006KT 6000 BKN007 02/M00 Q0999
                        TEMPO 4000 -RASN=
201603050820 METAR COR EGLL 050820Z AUTO 33007KT 300V010 5000 HZ BKN006
                        01/M01 Q0999 TEMPO 3000 -RASN=
201603050750 METAR COR EGLL 050750Z AUTO 33006KT 6000 NCD 01/M01 Q0998
                        TEMPO -RA BKN006=
201603050720 METAR COR EGLL 050720Z AUTO 32006KT 6000 NCD 01/M01 Q0998
                        TEMPO 4000 BR BKN004=
201603050650 METAR COR EGLL 050650Z AUTO 30003KT 6000 NCD 01/M01 Q0998
                        TEMPO 4000 BR BKN004=
201603050620 METAR COR EGLL 050620Z AUTO VRB02KT 7000 NCD 00/M01 Q0997
                        TEMPO 4000 BR BKN004=
201603050550 METAR COR EGLL 050550Z AUTO VRB02KT 7000 NCD 00/M01 Q0997
                        TEMPO 4000 BR BKN004=
201603050520 METAR COR EGLL 050520Z AUTO 31003KT 8000 NCD 00/M01 Q0997
                        TEMPO 4000 BR BKN004=
201603050450 METAR COR EGLL 050450Z AUTO 30003KT 9000 NCD 00/M02 Q0996
                        TEMPO 4000 BR BKN004=
201603050420 METAR COR EGLL 050420Z AUTO 29003KT 9000 NCD M00/M02 Q0996
                        TEMPO BKN005=
201603050350 METAR COR EGLL 050350Z AUTO 31003KT 8000 NCD M00/M02 Q0996
                        TEMPO BKN005=
201603050320 METAR COR EGLL 050320Z AUTO 29004KT 9999 NCD M01/M02 Q0996
                        NOSIG=
201603050250 METAR COR EGLL 050250Z AUTO VRB02KT 8000 NCD M00/M02 Q0995
                        NOSIG=
201603050220 METAR COR EGLL 050220Z AUTO 30004KT 9000 NCD M00/M02 Q0995
                        NOSIG=
201603050150 METAR COR EGLL 050150Z AUTO VRB01KT 9999 NCD 00/M02 Q0995
                        NOSIG=
201603050120 METAR COR EGLL 050120Z AUTO VRB02KT 9999 FEW032 01/M01 Q0995
                        NOSIG=
201603050050 METAR COR EGLL 050050Z AUTO VRB02KT 9999 SCT032 01/M01 Q0995
                        NOSIG=
201603050020 METAR COR EGLL 050020Z AUTO 36002KT 9999 NCD 01/M01 Q0995
                        NOSIG=
201603042350 METAR COR EGLL 042350Z AUTO VRB02KT 9999 NCD 01/M01 Q0994
                        NOSIG=
201603042320 METAR COR EGLL 042320Z AUTO 05003KT 9999 NCD 01/M01 Q0994
                        NOSIG=
201603042250 METAR COR EGLL 042250Z AUTO 36003KT 9999 NCD 03/M00 Q0994
                        NOSIG=
201603042220 METAR COR EGLL 042220Z AUTO VRB03KT 9999 NCD 03/M00 Q0993
                        NOSIG=
201603042150 METAR COR EGLL 042150Z AUTO VRB03KT 9999 NCD 03/M00 Q0993
                        NOSIG=
201603042120 METAR COR EGLL 042120Z AUTO 03003KT 9999 NCD 04/M00 Q0993
                        NOSIG=
201603042050 METAR COR EGLL 042050Z AUTO 34003KT 9999 NCD 04/M00 Q0993
                        NOSIG=
201603042020 METAR COR EGLL 042020Z AUTO 29005KT 260V330 9999 FEW021 03/M01
                        Q0993 NOSIG=
201603041950 METAR COR EGLL 041950Z AUTO 27008KT 230V290 9999 BKN021 04/M01
                        Q0992 NOSIG=
201603041920 METAR COR EGLL 041920Z AUTO 16005KT 120V200 9999 NCD 04/M00
                        Q0992 NOSIG=
201603041850 METAR COR EGLL 041850Z AUTO 17006KT 130V210 9999 //////TCU
                        04/M00 Q0992 NOSIG=
201603041820 METAR COR EGLL 041820Z AUTO 21006KT 170V260 9999 NCD 04/M01
                        Q0991 NOSIG=
201603041750 METAR COR EGLL 041750Z 19006KT 150V240 9999 VCSH SCT020CB
                        05/M01 Q0991 NOSIG=
201603041720 METAR COR EGLL 041720Z 21007KT 9999 VCSH SCT020CB 05/M01
                        Q0991 NOSIG=
201603041650 METAR COR EGLL 041650Z AUTO 20009KT 170V240 9999 NCD 06/M00
                        Q0991 NOSIG=
201603041620 METAR COR EGLL 041620Z AUTO 21011KT 9999 NCD 07/M01 Q0990
                        NOSIG=
201603041550 METAR COR EGLL 041550Z AUTO 22011KT 9999 FEW029 07/M01 Q0990
                        NOSIG=
201603041520 METAR COR EGLL 041520Z AUTO 23011KT 210V270 9999 SCT039 07/M02
                        Q0990 NOSIG=
201603041450 METAR COR EGLL 041450Z AUTO 23011KT 9999 NCD 07/M02 Q0990
                        NOSIG=
201603041420 METAR COR EGLL 041420Z AUTO 22012KT 9999 NCD 07/M02 Q0990
                        NOSIG=
201603041350 METAR COR EGLL 041350Z AUTO 24014KT 9999 SCT041 08/M01 Q0990
                        NOSIG=
201603041320 METAR COR EGLL 041320Z AUTO 27012KT 9999 BKN040 07/M01 Q0990
                        NOSIG=
201603041250 METAR COR EGLL 041250Z AUTO 25013KT 9999 SCT038 08/M02 Q0990
                        NOSIG=
201603041220 METAR COR EGLL 041220Z AUTO 25012KT 220V280 9999 FEW037 07/M01
                        Q0991 NOSIG=
201603041150 METAR COR EGLL 041150Z AUTO 25013KT 220V290 9999 FEW036 07/M02
                        Q0991 NOSIG=
201603041120 METAR COR EGLL 041120Z AUTO 26012KT 9999 NCD 07/M02 Q0991
                        NOSIG=
201603041050 METAR COR EGLL 041050Z AUTO 27011KT 9999 NCD 06/M01 Q0991
                        NOSIG=
201603041020 METAR COR EGLL 041020Z AUTO 26012KT 9999 NCD 06/M01 Q0991
                        NOSIG=
201603040950 METAR COR EGLL 040950Z AUTO 26011KT 9999 NCD 05/M01 Q0991
                        NOSIG=
201603040920 METAR COR EGLL 040920Z AUTO 26010KT 9999 NCD 05/M00 Q0991
                        NOSIG=
201603040850 METAR COR EGLL 040850Z AUTO 25010KT 9999 NCD 04/M00 Q0991
                        NOSIG=
201603040820 METAR COR EGLL 040820Z AUTO 25009KT 9999 NCD 03/M00 Q0991
                        NOSIG=
201603040750 METAR COR EGLL 040750Z AUTO 25009KT 9999 NCD 03/M00 Q0991
                        NOSIG=
201603040720 METAR COR EGLL 040720Z AUTO 24008KT 9999 NCD 02/M01 Q0991
                        NOSIG=
201603040650 METAR COR EGLL 040650Z AUTO 24008KT 9999 NCD 03/M01 Q0991
                        NOSIG=
201603040620 METAR COR EGLL 040620Z AUTO 25008KT 9999 NCD 02/M00 Q0991
                        NOSIG=
201603040550 METAR COR EGLL 040550Z AUTO 27009KT 9999 NCD 02/M00 Q0991
                        NOSIG=
201603040520 METAR COR EGLL 040520Z AUTO 29009KT 9999 NCD 03/00 Q0991
                        NOSIG=
201603040450 METAR COR EGLL 040450Z AUTO 29008KT 9999 NCD 03/00 Q0991
                        NOSIG=
201603040420 METAR COR EGLL 040420Z AUTO 30011KT 9999 FEW023 04/01 Q0991
                        NOSIG=
201603040350 METAR COR EGLL 040350Z AUTO 29011KT 9999 BKN023 05/01 Q0991
                        NOSIG=
201603040320 METAR COR EGLL 040320Z AUTO 29013KT 9999 BKN025 05/01 Q0991
                        NOSIG=
201603040250 METAR COR EGLL 040250Z AUTO 29014KT 9999 -RA SCT023 BKN036
                        05/02 Q0991 NOSIG=
201603040220 METAR COR EGLL 040220Z AUTO 29012KT 9999 -RA BKN028/// OVC045///
                        //////TCU 06/03 Q0991 NOSIG=
201603040150 METAR COR EGLL 040150Z AUTO 27021KT 9999 -RA BKN008/// OVC021///
                        //////CB 07/06 Q0991 TEMPO 4000 RA=
201603040120 METAR COR EGLL 040120Z AUTO 22009KT 9999 -RA SCT010/// BKN023///
                        //////TCU 07/06 Q0991 TEMPO 4000
                        +RA BKN009=
201603040050 METAR COR EGLL 040050Z AUTO 21010KT 9999 -RA BKN006 BKN015
                        07/06 Q0992 TEMPO RA=
201603040020 METAR COR EGLL 040020Z AUTO 18013KT 9999 -RA BKN006/// OVC018///
                        //////TCU 07/06 Q0992 TEMPO RA BKN010=
201603032350 METAR COR EGLL 032350Z AUTO 18013KT 6000 -RA BKN006 07/06
                        Q0993 TEMPO BKN010=
201603032320 METAR COR EGLL 032320Z AUTO 17012KT 8000 -RA BKN007 07/05
                        Q0994 TEMPO 4000 +RA=
201603032250 METAR COR EGLL 032250Z AUTO 17013KT 9999 -RA BKN010 OVC028
                        07/05 Q0995 TEMPO 4000 +RA BKN009=
201603032220 METAR EGLL 032220Z AUTO 16012KT 9999 -RA BKN014 07/04 Q0996=
201603032150 METAR COR EGLL 032150Z AUTO 16010KT 9999 -RA BKN022/// BKN037///
                        //////TCU 07/04 Q0997 TEMPO BKN014=
201603032120 METAR COR EGLL 032120Z AUTO 18010KT 9999 FEW025 07/03 Q0999
                        TEMPO -RA BKN014=
201603032050 METAR COR EGLL 032050Z AUTO 18010KT 9999 NCD 06/03 Q1000
                        TEMPO -RA BKN014=
201603032020 METAR COR EGLL 032020Z AUTO 18009KT 9999 NCD 06/03 Q1000
                        TEMPO -RA BKN014=
201603031950 METAR COR EGLL 031950Z AUTO 18010KT 9999 FEW048 07/02 Q1001
                        TEMPO -RA BKN012=
201603031920 METAR COR EGLL 031920Z AUTO 19010G20KT 9999 NCD 07/02 Q1002
                        NOSIG=
201603031850 METAR COR EGLL 031850Z AUTO 18010KT 120V210 9999 NCD 06/03
                        Q1002 NOSIG=
201603031820 METAR COR EGLL 031820Z AUTO 18008KT 160V220 9999 FEW044 07/03
                        Q1003 NOSIG=
201603031750 METAR COR EGLL 031750Z AUTO 21008KT 9999 FEW046 07/03 Q1003
                        NOSIG=
201603031720 METAR COR EGLL 031720Z AUTO 22009KT 9999 FEW024 07/03 Q1003
                        NOSIG=
201603031650 METAR COR EGLL 031650Z AUTO 22007KT 9999 BKN025 OVC048 08/03
                        Q1004 NOSIG=
201603031620 METAR COR EGLL 031620Z AUTO 21008KT 9999 -RA BKN025 OVC046
                        08/03 Q1004 NOSIG=
201603031550 METAR COR EGLL 031550Z AUTO 25006KT 9999 BKN026 BKN047 08/02
                        Q1005 NOSIG=
201603031520 METAR COR EGLL 031520Z AUTO 28006KT 9999 SCT024 OVC039 08/02
                        Q1005 NOSIG=
201603031450 METAR COR EGLL 031450Z AUTO 25009KT 9999 SCT022 OVC038 08/03
                        Q1005 NOSIG=
201603031420 METAR COR EGLL 031420Z AUTO 25011KT 9999 SCT021 09/02 Q1006
                        NOSIG=
201603031350 METAR EGLL 031350Z AUTO 26011G21KT 9999 FEW025 08/02 Q1006=
201603031320 METAR COR EGLL 031320Z AUTO 26013KT 9999 BKN028 08/02 Q1006
                        NOSIG=
201603031250 METAR COR EGLL 031250Z AUTO 27009KT 230V300 9999 NCD 09/M00
                        Q1006 NOSIG=
201603031220 METAR COR EGLL 031220Z AUTO 27009KT 9999 NCD 08/M01 Q1007
                        NOSIG=
201603031150 METAR COR EGLL 031150Z AUTO 28008KT 220V310 9999 FEW034 08/M01
                        Q1007 NOSIG=
201603031120 METAR COR EGLL 031120Z AUTO 27010KT 240V310 9999 FEW030 08/00
                        Q1008 NOSIG=
201603031050 METAR COR EGLL 031050Z AUTO 30009KT 260V330 9999 NCD 07/M00
                        Q1007 NOSIG=
201603031020 METAR COR EGLL 031020Z AUTO 30008KT 270V340 9999 NCD 07/00
                        Q1007 NOSIG=
201603030950 METAR COR EGLL 030950Z AUTO 31006KT 290V360 9999 NCD 06/M00
                        Q1007 NOSIG=
201603030920 METAR COR EGLL 030920Z AUTO 32008KT 290V360 9999 NCD 05/M00
                        Q1007 NOSIG=
201603030850 METAR COR EGLL 030850Z AUTO 32008KT 290V350 9999 NCD 04/M01
                        Q1007 NOSIG=
201603030820 METAR COR EGLL 030820Z AUTO 31007KT 280V350 9999 NCD 04/M01
                        Q1007 NOSIG=
201603030750 METAR COR EGLL 030750Z AUTO 30007KT 270V340 9999 NCD 03/M01
                        Q1006 NOSIG=
201603030720 METAR COR EGLL 030720Z AUTO 30008KT 9999 NCD 03/M01 Q1006
                        NOSIG=
201603030650 METAR COR EGLL 030650Z AUTO 31009KT 9999 FEW022 03/M01 Q1005
                        NOSIG=
201603030620 METAR COR EGLL 030620Z AUTO 31009KT 280V350 9999 SCT023 04/M00
                        Q1005 NOSIG=
201603030550 METAR COR EGLL 030550Z AUTO 32009KT 9999 BKN023 04/M00 Q1004
                        NOSIG=
201603030520 METAR COR EGLL 030520Z AUTO 33012KT 300V010 9999 OVC024 05/00
                        Q1004 NOSIG=
201603030450 METAR COR EGLL 030450Z AUTO 33013KT 9999 OVC025 05/M00 Q1003
                        NOSIG=
201603030420 METAR COR EGLL 030420Z AUTO 32014KT 9999 OVC030 05/M01 Q1002
                        NOSIG=
201603030350 METAR COR EGLL 030350Z AUTO 32017G27KT 290V350 9999 BKN029
                        05/M01 Q1002 NOSIG=
201603030320 METAR COR EGLL 030320Z AUTO 31015KT 9999 BKN027 OVC042 06/02
                        Q1000 NOSIG=
201603030250 METAR COR EGLL 030250Z AUTO 30015G25KT 9999 BKN030 06/02
                        Q1000 NOSIG=
201603030220 METAR COR EGLL 030220Z AUTO 29011KT 9999 -RA FEW007 BKN020
                        05/03 Q1000 RERA REDZ TEMPO SHRA
                        BKN014=
201603030150 METAR COR EGLL 030150Z AUTO 29013KT 7000 -RA BKN018 BKN024
                        06/02 Q1000 TEMPO SHRA BKN014=
201603030120 METAR COR EGLL 030120Z AUTO 29017KT 9999 -RA BKN027 06/02
                        Q0999 TEMPO SHRA=
201603030050 METAR COR EGLL 030050Z AUTO 28018KT 9999 FEW021 BKN030 BKN045
                        06/02 Q0999 TEMPO SHRA BKN014=
201603030020 METAR COR EGLL 030020Z AUTO 28017KT 9999 BKN027 BKN045 06/02
                        Q0999 TEMPO SHRA BKN014=
201603022350 METAR COR EGLL 022350Z AUTO 29017KT 9999 SCT027 BKN041 06/02
                        Q1000 TEMPO SHRA BKN014=
201603022320 METAR COR EGLL 022320Z AUTO 28016KT 9999 BKN032 06/02 Q1000
                        TEMPO SHRA=
201603022250 METAR COR EGLL 022250Z AUTO 28016KT 9999 SCT032 BKN047 06/02
                        Q1000 TEMPO SHRA=
201603022220 METAR COR EGLL 022220Z AUTO 28016KT 9999 BKN035 06/02 Q1000
                        TEMPO SHRA=
201603022150 METAR COR EGLL 022150Z AUTO 28013KT 9999 SCT035 SCT042 06/02
                        Q1000 TEMPO SHRA=
201603022120 METAR COR EGLL 022120Z AUTO 28012KT 9999 BKN034 05/02 Q1000
                        TEMPO SHRA=
201603022050 METAR COR EGLL 022050Z AUTO 28014KT 9999 FEW032 SCT044 05/02
                        Q1000 TEMPO SHRA=
201603022020 METAR COR EGLL 022020Z AUTO 27015KT 9999 -RA BKN031 05/02
                        Q1000 TEMPO SHRA=
201603021950 METAR COR EGLL 021950Z AUTO 27014KT 9999 -RA SCT033/// BKN047///
                        //////TCU 06/01 Q0999 TEMPO SHRA=
201603021920 METAR COR EGLL 021920Z AUTO 27014KT 9999 NCD 06/01 Q0999
                        TEMPO SHRA=
201603021850 METAR COR EGLL 021850Z AUTO 27012KT 9999 NCD 06/00 Q0999
                        TEMPO SHRA=
201603021820 METAR COR EGLL 021820Z AUTO 27008KT 9999 NCD 05/00 Q0999
                        NOSIG=
201603021750 METAR COR EGLL 021750Z AUTO 27009KT 9999 SCT045 05/01 Q0999
                        NOSIG=
201603021720 METAR COR EGLL 021720Z AUTO 28012KT 9999 SCT045 05/01 Q0999
                        NOSIG=
201603021650 METAR COR EGLL 021650Z AUTO 28012KT 9999 NCD 05/01 Q0999
                        NOSIG=
201603021620 METAR COR EGLL 021620Z AUTO 29014KT 9999 //////CB 05/01 Q0998
                        NOSIG=
201603021550 METAR COR EGLL 021550Z AUTO 29015G27KT 9999 FEW021/// //////CB
                        05/01 Q0998 TEMPO SHRA=
201603021520 METAR COR EGLL 021520Z AUTO 30016G28KT 9999 -RA SCT012///
                        SCT027/// //////CB 05/01 Q0998 TEMPO
                        SHRA BKN014=
201603021450 METAR COR EGLL 021450Z AUTO 30018G31KT 9999 FEW029 BKN036
                        07/M01 Q0997 TEMPO 4000 SHRASN BKN014=
201603021420 METAR COR EGLL 021420Z AUTO 30018G29KT 9999 BKN032 07/M00
                        Q0996 TEMPO SHRA=
201603021350 METAR COR EGLL 021350Z AUTO 29020G32KT 9999 BKN027 OVC047
                        06/01 Q0996 NOSIG=
201603021320 METAR COR EGLL 021320Z AUTO 29021G37KT 9999 SCT014 BKN035
                        06/02 Q0995 TEMPO SHRA BKN014=
201603021250 METAR COR EGLL 021250Z AUTO 29027G38KT 9999 -RA BKN014 05/02
                        Q0995 TEMPO 4000 SHRASN=
201603021220 METAR COR EGLL 021220Z AUTO 27027KT 9999 -RA SCT012 BKN025
                        05/02 Q0994 TEMPO SHRA BKN014=
201603021150 METAR COR EGLL 021150Z AUTO 25021KT 9999 BKN020 05/02 Q0994
                        TEMPO 4000 SHRA BKN014=
201603021120 METAR EGLL 021120Z AUTO 24019KT 9999 FEW010 04/02 Q0995 RETS
                        RERA TEMPO SHRA BKN014=
201603021050 METAR COR EGLL 021050Z AUTO 26015KT 220V280 3500 TSRA BKN008///
                        OVC034/// //////CB 04/02 Q0997 TEMPO
                        9999 NSW FEW008 SCT020=
201603021020 METAR COR EGLL 021020Z AUTO 24018KT 8000 -RA BKN011/// OVC037///
                        //////CB 04/02 Q0997 RERA TEMPO 3000
                        +SHRAGS BKN009 BKN013CB=
201603020950 METAR COR EGLL 020950Z AUTO 24017KT 9999 -RA FEW008/// BKN013///
                        BKN025/// //////TCU 05/03 Q0997 TEMPO
                        4000 SHRA=
201603020920 METAR COR EGLL 020920Z AUTO 25019KT 9999 SCT017/// //////TCU
                        05/02 Q0998 TEMPO 4000 +SHRA BKN014CB=
201603020850 METAR COR EGLL 020850Z AUTO 25018KT 9999 SCT014/// //////TCU
                        05/01 Q0999 TEMPO 4000 +SHRA BKN014CB=
201603020820 METAR COR EGLL 020820Z AUTO 24013KT 9999 BKN027/// //////TCU
                        05/00 Q0999 TEMPO 3500 +SHRA BKN014CB=
201603020750 METAR COR EGLL 020750Z AUTO 23013KT 9999 FEW037 04/00 Q1000
                        TEMPO SHRA=
201603020720 METAR COR EGLL 020720Z AUTO 24012KT 9999 NCD 04/M00 Q1000
                        NOSIG=
201603020650 METAR COR EGLL 020650Z AUTO 25015KT 9999 NCD 04/M01 Q1001
                        NOSIG=
201603020620 METAR COR EGLL 020620Z AUTO 27015KT 9999 NCD 04/M01 Q1001
                        NOSIG=
201603020550 METAR COR EGLL 020550Z AUTO 26017KT 9999 SCT027 05/00 Q1001
                        NOSIG=
201603020520 METAR COR EGLL 020520Z AUTO 25012KT 9999 FEW040 05/01 Q1001
                        NOSIG=
201603020450 METAR COR EGLL 020450Z AUTO 27012KT 9999 FEW033 05/00 Q1001
                        NOSIG=
201603020420 METAR COR EGLL 020420Z AUTO 26013KT 9999 FEW032 05/01 Q1001
                        NOSIG=
201603020350 METAR COR EGLL 020350Z AUTO 27008KT 9999 SCT026 05/03 Q1002
                        NOSIG=
201603020320 METAR COR EGLL 020320Z AUTO 28010KT 9999 NCD 05/02 Q1002
                        NOSIG=
201603020250 METAR COR EGLL 020250Z AUTO 27011KT 9999 FEW028/// //////TCU
                        06/03 Q1002 NOSIG=
201603020220 METAR COR EGLL 020220Z AUTO 29012KT 9999 -RA SCT012/// BKN025///
                        //////TCU 06/04 Q1002 RERA REDZ TEMPO
                        BKN012=
201603020150 METAR COR EGLL 020150Z AUTO 25019KT 9999 -RA BKN022/// //////TCU
                        08/04 Q1002 TEMPO SHRA BKN014=
201603020120 METAR COR EGLL 020120Z AUTO 23015KT 9999 SCT028/// BKN043///
                        //////CB 08/04 Q1002 TEMPO SHRA BKN014=
201603020050 METAR COR EGLL 020050Z AUTO 23014KT 9999 SCT022 OVC037 08/04
                        Q1002 NOSIG=
201603020020 METAR COR EGLL 020020Z AUTO 24014KT 9999 FEW023 08/04 Q1003
                        NOSIG=
201603012350 METAR COR EGLL 012350Z AUTO 25014KT 9999 FEW021 08/04 Q1003
                        TEMPO SHRA BKN014=
201603012320 METAR COR EGLL 012320Z AUTO 25013KT 9999 BKN022 BKN040 09/05
                        Q1004 TEMPO SHRA BKN014=
201603012250 METAR COR EGLL 012250Z AUTO 24013KT 9999 SCT022 BKN045 09/05
                        Q1004 TEMPO SHRA BKN014=
201603012220 METAR COR EGLL 012220Z AUTO 24014KT 9999 BKN046 09/05 Q1004
                        NOSIG=
201603012150 METAR COR EGLL 012150Z AUTO 24015KT 9999 OVC044 09/05 Q1004
                        NOSIG=
201603012120 METAR COR EGLL 012120Z AUTO 24014KT 9999 FEW023 OVC042 10/05
                        Q1005 NOSIG=
201603012050 METAR COR EGLL 012050Z AUTO 24014KT 9999 FEW026 OVC036 10/05
                        Q1005 NOSIG=
201603012020 METAR EGLL 012020Z AUTO 25016KT 9999 BKN026 10/05 Q1005=
201603011950 METAR COR EGLL 011950Z AUTO 25016KT 9999 NCD 10/05 Q1005
                        NOSIG=
201603011920 METAR COR EGLL 011920Z AUTO 25019KT 9999 NCD 11/05 Q1005
                        NOSIG=
201603011850 METAR COR EGLL 011850Z AUTO 25018KT 9999 NCD 11/05 Q1006
                        NOSIG=
201603011820 METAR COR EGLL 011820Z AUTO 25019KT 9999 FEW025 10/06 Q1006
                        NOSIG=
201603011750 METAR COR EGLL 011750Z AUTO 26016KT 9999 BKN022 11/07 Q1006
                        NOSIG=
201603011720 METAR COR EGLL 011720Z AUTO 26016KT 9999 OVC021/// 12/07
                        Q1006 NOSIG=
201603011650 METAR COR EGLL 011650Z AUTO 26020KT 9999 OVC018 12/08 Q1006
                        NOSIG=
201603011620 METAR EGLL 011620Z AUTO 26020G30KT 9999 BKN018 12/09 Q1006=
201603011550 METAR COR EGLL 011550Z AUTO 25017KT 9999 BKN017/// OVC033///
                        13/09 Q1006 NOSIG=
201603011520 METAR COR EGLL 011520Z AUTO 25015KT 9999 BKN017 13/09 Q1006
                        NOSIG=
201603011450 METAR COR EGLL 011450Z AUTO 27013KT 9999 BKN016 13/09 Q1007
                        NOSIG=
201603011420 METAR COR EGLL 011420Z AUTO 25015KT 9999 BKN014 13/09 Q1007
                        BECMG SCT014=
201603011350 METAR COR EGLL 011350Z AUTO 25016KT 9999 BKN012 12/10 Q1007
                        BECMG SCT012 BKN020=
201603011320 METAR COR EGLL 011320Z AUTO 23016KT 9999 BKN010 OVC022 12/10
                        Q1007 BECMG SCT010 BKN022=
201603011250 METAR COR EGLL 011250Z AUTO 24015KT 9999 BKN010 11/09 Q1007
                        TEMPO SCT010=
201603011220 METAR EGLL 011220Z AUTO 23015KT 9999 BKN010 11/09 Q1008=
201603011150 METAR COR EGLL 011150Z AUTO 22014KT 9999 -RA BKN008 OVC021
                        10/09 Q1008 BECMG BKN010=
201603011120 METAR COR EGLL 011120Z AUTO 22014KT 9000 -RA BKN008 OVC021
                        10/09 Q1009 BECMG BKN010=
201603011050 METAR EGLL 011050Z AUTO 22014KT 9000 -RA BKN008/// OVC020///
                        //////TCU 10/09 Q1009=
201603011020 METAR EGLL 011020Z AUTO 22015KT 8000 -RA OVC008 10/09 Q1010=
201603010950 METAR COR EGLL 010950Z AUTO 21015KT 4300 -RA BKN007 10/09
                        Q1010 TEMPO 6000 RA=
201603010920 METAR COR EGLL 010920Z AUTO 22014KT 3600 -RADZ BKN006 OVC015
                        10/08 Q1011 TEMPO 6000 NSW=
201603010850 METAR COR EGLL 010850Z AUTO 20013KT 4000 -DZ BKN005 OVC017
                        09/08 Q1012 TEMPO 9999 NSW=
201603010820 METAR COR EGLL 010820Z AUTO 20013KT 9999 BKN005 BKN015 08/07
                        Q1012 NOSIG=
201603010750 METAR COR EGLL 010750Z AUTO 20012KT 9999 OVC005 08/07 Q1013
                        NOSIG=
201603010720 METAR COR EGLL 010720Z AUTO 19012KT 9999 -RA OVC005 07/06
                        Q1013 NOSIG=
201603010650 METAR COR EGLL 010650Z AUTO 20012KT 170V240 9999 -RA OVC005
                        07/06 Q1014 TEMPO SCT006 BKN010=
201603010620 METAR COR EGLL 010620Z AUTO 20013KT 8000 -RA OVC005 07/06
                        Q1015 TEMPO SCT008 BKN010=
201603010550 METAR COR EGLL 010550Z AUTO 19013KT 9999 BKN005 OVC014 06/05
                        Q1016 TEMPO SCT008 BKN014=
201603010520 METAR COR EGLL 010520Z AUTO 19015KT 4500 -RADZ OVC005 06/05
                        Q1016 TEMPO 7000 SCT006 BKN010=
201603010450 METAR COR EGLL 010450Z AUTO 20013KT 8000 OVC005 06/05 Q1017
                        TEMPO SCT006 BKN010=
201603010420 METAR COR EGLL 010420Z AUTO 20013KT 4600 HZ OVC005 05/04
                        Q1018 TEMPO FEW005 BKN007=
201603010350 METAR COR EGLL 010350Z AUTO 20011KT 4100 -RADZ OVC005 05/04
                        Q1018 TEMPO SCT006 BKN008=
201603010320 METAR COR EGLL 010320Z AUTO 20010KT 4600 -DZ OVC006 05/04
                        Q1019 TEMPO 7000 -RA SCT007 BKN010=
201603010250 METAR COR EGLL 010250Z AUTO 19010KT 9999 BKN008 05/03 Q1020
                        TEMPO SCT009 BKN012=
201603010220 METAR COR EGLL 010220Z AUTO 19011KT 6000 -RA BKN009 BKN019
                        04/03 Q1021 TEMPO SCT009 BKN014=
201603010150 METAR COR EGLL 010150Z AUTO 19011KT 9999 FEW013 BKN022 04/02
                        Q1021 BECMG BKN012=
201603010120 METAR COR EGLL 010120Z AUTO 19011KT 9999 -RA FEW015 BKN022
                        BKN038 04/02 Q1022 TEMPO BKN014=
201603010050 METAR COR EGLL 010050Z AUTO 20008KT 9999 -RA OVC021 05/02
                        Q1023 NOSIG=
201603010020 METAR COR EGLL 010020Z AUTO 21009KT 9999 -RA BKN023 OVC037
                        05/01 Q1023 NOSIG=

</pre>

</body>
</html>
