##########################################################
# Query made at 05/28/2013 08:41:50 UTC
# Time interval: from 03/01/2013 00:00  to 03/31/2013 23:59  UTC
##########################################################

##########################################################
# EGLL, London / Heathrow Airport (United Kingdom)
# WMO index: 03772
# Latitude 51-29N. Longitude 000-27W. Altitude 24 m.
##########################################################

###################################
#  METAR/SPECI from EGLL
###################################
201303312350 METAR COR EGLL 312350Z 06005KT 9999 FEW030 BKN047 01/M03
                        Q1012 NOSIG=
201303312320 METAR COR EGLL 312320Z 06007KT 9999 SCT035 01/M03 Q1012 NOSIG=
201303312250 METAR COR EGLL 312250Z 06008KT 9999 FEW022 01/M03 Q1013 NOSIG=
201303312220 METAR COR EGLL 312220Z 07007KT 9999 FEW023 SCT030 01/M03
                        Q1013 NOSIG=
201303312150 METAR COR EGLL 312150Z 07008KT 9999 FEW023 BKN041 BKN046
                        02/M02 Q1013 NOSIG=
201303312120 METAR COR EGLL 312120Z 07007KT 9999 SCT024 01/M03 Q1013 NOSIG=
201303312050 METAR COR EGLL 312050Z 07007KT 9999 SCT027 02/M03 Q1013 NOSIG=
201303312020 METAR COR EGLL 312020Z 07007KT 9999 BKN049 03/M03 Q1013 NOSIG=
201303311950 METAR COR EGLL 311950Z 07008KT 9999 FEW030 BKN046 03/M03
                        Q1013 NOSIG=
201303311920 METAR COR EGLL 311920Z 10009KT 9999 BKN038 03/M04 Q1013 NOSIG=
201303311850 METAR COR EGLL 311850Z 10009KT 9999 BKN046 03/M05 Q1013 NOSIG=
201303311820 METAR COR EGLL 311820Z 10009KT 9999 BKN046 04/M06 Q1013 NOSIG=
201303311750 METAR COR EGLL 311750Z 09011KT 9999 BKN047 04/M06 Q1013 NOSIG=
201303311720 METAR COR EGLL 311720Z 07008KT 9999 BKN048 04/M06 Q1013 NOSIG=
201303311650 METAR COR EGLL 311650Z 10009KT 9999 BKN044 04/M05 Q1013 NOSIG=
201303311620 METAR COR EGLL 311620Z 10009KT 9999 BKN047 05/M05 Q1013 NOSIG=
201303311550 METAR COR EGLL 311550Z 09008KT 060V120 9999 BKN049 05/M05
                        Q1013 NOSIG=
201303311520 METAR COR EGLL 311520Z 11011KT 9999 FEW034 BKN044 04/M03
                        Q1013 NOSIG=
201303311450 METAR COR EGLL 311450Z 10011KT 9999 BKN043 04/M04 Q1014 NOSIG=
201303311420 METAR COR EGLL 311420Z 11010KT 9999 FEW042 BKN049 05/M04
                        Q1014 NOSIG=
201303311350 METAR COR EGLL 311350Z 11010KT 9999 FEW043 BKN048 06/M05
                        Q1014 NOSIG=
201303311320 METAR COR EGLL 311320Z 09007KT 010V130 9999 BKN048 06/M06
                        Q1014 NOSIG=
201303311250 METAR COR EGLL 311250Z 11011KT 070V130 9999 BKN045 05/M06
                        Q1014 NOSIG=
201303311220 METAR COR EGLL 311220Z 09007KT 050V140 9999 FEW035 BKN047
                        05/M05 Q1015 NOSIG=
201303311150 METAR COR EGLL 311150Z 09010KT 9999 FEW038 BKN044 04/M05
                        Q1015 NOSIG=
201303311120 METAR COR EGLL 311120Z 06008KT 9999 BKN040 04/M04 Q1015 NOSIG=
201303311050 METAR COR EGLL 311050Z 09006KT 050V130 9999 FEW036 BKN045
                        04/M05 Q1015 NOSIG=
201303311020 METAR COR EGLL 311020Z 07006KT 040V120 9999 SCT036 SCT042
                        04/M05 Q1015 NOSIG=
201303310950 METAR COR EGLL 310950Z 07008KT 9999 SCT036 05/M04 Q1015 NOSIG=
201303310920 METAR COR EGLL 310920Z 08009KT 040V120 9999 FEW030 04/M04
                        Q1015 NOSIG=
201303310850 METAR COR EGLL 310850Z 09008KT 9999 FEW024 03/M04 Q1015 NOSIG=
201303310820 METAR COR EGLL 310820Z 08008KT CAVOK 03/M02 Q1015 NOSIG=
201303310750 METAR COR EGLL 310750Z 07007KT CAVOK 01/M02 Q1015 NOSIG=
201303310720 METAR COR EGLL 310720Z 06004KT 020V090 CAVOK 00/M03 Q1015
                        NOSIG=
201303310650 METAR COR EGLL 310650Z 07004KT CAVOK M01/M03 Q1015 NOSIG=
201303310620 METAR COR EGLL 310620Z 05003KT CAVOK M02/M04 Q1015 NOSIG=
201303310550 METAR COR EGLL 310550Z 02003KT CAVOK M03/M05 Q1015 NOSIG=
201303310520 METAR COR EGLL 310520Z 36003KT CAVOK M03/M05 Q1015 NOSIG=
201303310450 METAR COR EGLL 310450Z 03003KT CAVOK M03/M05 Q1015 NOSIG=
201303310420 METAR EGLL 310420Z VRB03KT CAVOK M02/M05 Q1015=
201303310350 METAR COR EGLL 310350Z 35003KT CAVOK M02/M04 Q1015 NOSIG=
201303310320 METAR COR EGLL 310320Z 36003KT CAVOK M02/M04 Q1015 NOSIG=
201303310250 METAR COR EGLL 310250Z 36003KT CAVOK M02/M05 Q1015 NOSIG=
201303310220 METAR EGLL 310220Z AUTO 36003KT 9999 NCD M01/M04 Q1015=
201303310150 METAR EGLL 310150Z AUTO 36003KT 9999 NCD M01/M04 Q1015=
201303310120 METAR EGLL 310120Z AUTO 04003KT 9999 NCD M01/M04 Q1015=
201303310050 METAR COR EGLL 310050Z 04003KT CAVOK M00/M04 Q1015 NOSIG=
201303310020 METAR COR EGLL 310020Z 06004KT CAVOK 00/M04 Q1015 NOSIG=
201303302350 METAR COR EGLL 302350Z 05004KT CAVOK 01/M04 Q1015 NOSIG=
201303302320 METAR COR EGLL 302320Z 05005KT CAVOK 02/M04 Q1015 NOSIG=
201303302250 METAR COR EGLL 302250Z 05005KT 020V080 9999 OVC046 02/M03
                        Q1015 NOSIG=
201303302220 METAR COR EGLL 302220Z 05005KT 360V080 9999 FEW037 OVC044
                        03/M03 Q1015 NOSIG=
201303302150 METAR COR EGLL 302150Z 04005KT 9999 BKN048 03/M03 Q1015 NOSIG=
201303302120 METAR COR EGLL 302120Z 06005KT CAVOK 02/M03 Q1015 NOSIG=
201303302050 METAR COR EGLL 302050Z 05005KT 020V080 CAVOK 03/M03 Q1015
                        NOSIG=
201303302020 METAR COR EGLL 302020Z 05004KT 010V090 9999 FEW048 02/M03
                        Q1014 NOSIG=
201303301950 METAR COR EGLL 301950Z 07006KT 9999 SCT035 02/M02 Q1014 NOSIG=
201303301920 METAR COR EGLL 301920Z 07006KT 9999 SCT025 03/M02 Q1014 NOSIG=
201303301850 METAR EGLL 301850Z AUTO 06006KT 9999 SCT032/// 03/M02 Q1013=
201303301820 METAR COR EGLL 301820Z 05007KT 020V090 9999 FEW035 04/M03
                        Q1013 NOSIG=
201303301750 METAR COR EGLL 301750Z 04007KT 010V070 9999 VCSH FEW039 04/M03
                        Q1013 NOSIG=
201303301720 METAR COR EGLL 301720Z 06007KT 9999 VCSH FEW035 SCT040 03/M01
                        Q1013 NOSIG=
201303301650 METAR COR EGLL 301650Z 04006KT 360V070 9999 VCSH SCT036 04/M03
                        Q1012 NOSIG=
201303301620 METAR COR EGLL 301620Z 05007KT 020V090 9999 FEW048 04/M03
                        Q1012 NOSIG=
201303301550 METAR COR EGLL 301550Z 06009KT 010V080 9999 VCSH SCT032 04/M02
                        Q1012 NOSIG=
201303301520 METAR COR EGLL 301520Z 02007KT 350V090 9999 -SHRASN SCT034
                        05/M02 Q1012 NOSIG=
201303301450 METAR COR EGLL 301450Z 02007KT 340V060 CAVOK 05/M02 Q1012
                        NOSIG=
201303301420 METAR EGLL 301420Z 04007KT 360V090 9999 FEW036 05/M03 Q1011=
201303301350 METAR COR EGLL 301350Z 06008KT 010V090 9999 FEW039 SCT044
                        05/M04 Q1011 NOSIG=
201303301320 METAR COR EGLL 301320Z 05008KT 010V070 9999 SCT034 SCT046
                        04/M03 Q1011 NOSIG=
201303301250 METAR COR EGLL 301250Z 04008KT 360V080 9999 SCT034 05/M04
                        Q1011 NOSIG=
201303301220 METAR COR EGLL 301220Z 04008KT 010V080 9999 FEW033 SCT044
                        04/M04 Q1011 NOSIG=
201303301150 METAR COR EGLL 301150Z 02008KT 330V060 9999 FEW028 SCT034
                        BKN044 04/M03 Q1011 NOSIG=
201303301120 METAR COR EGLL 301120Z 05008KT 020V080 9999 SCT031 SCT047
                        04/M04 Q1011 NOSIG=
201303301050 METAR EGLL 301050Z 03007KT 350V070 9999 SCT031 SCT046 04/M04
                        Q1011=
201303301020 METAR COR EGLL 301020Z 05009KT 360V080 9999 SCT033 SCT039
                        05/M04 Q1011 NOSIG=
201303300950 METAR COR EGLL 300950Z 04008KT 9999 SCT029 SCT048 04/M04
                        Q1011 NOSIG=
201303300920 METAR COR EGLL 300920Z 05009KT 9999 FEW028 SCT049 03/M04
                        Q1010 NOSIG=
201303300850 METAR COR EGLL 300850Z 05008KT 020V090 CAVOK 03/M03 Q1010
                        NOSIG=
201303300820 METAR COR EGLL 300820Z 05008KT 010V080 CAVOK 02/M03 Q1010
                        NOSIG=
201303300750 METAR COR EGLL 300750Z 05008KT 9999 BKN047 02/M03 Q1010 NOSIG=
201303300720 METAR COR EGLL 300720Z 04008KT 360V080 9999 FEW042 BKN046
                        02/M03 Q1010 NOSIG=
201303300650 METAR COR EGLL 300650Z 03006KT 360V080 9999 BKN042 01/M03
                        Q1010 NOSIG=
201303300620 METAR COR EGLL 300620Z 04007KT 350V070 9999 BKN043 01/M03
                        Q1010 NOSIG=
201303300550 METAR COR EGLL 300550Z 05007KT 9999 BKN043 01/M03 Q1010 NOSIG=
201303300520 METAR COR EGLL 300520Z 05007KT 010V090 9999 BKN042 01/M03
                        Q1010 NOSIG=
201303300450 METAR COR EGLL 300450Z 05006KT 360V080 9999 BKN042 01/M03
                        Q1009 NOSIG=
201303300420 METAR COR EGLL 300420Z 06005KT 9999 FEW020 BKN046 01/M03
                        Q1009 NOSIG=
201303300350 METAR COR EGLL 300350Z 06006KT 9999 BKN046 01/M03 Q1009 NOSIG=
201303300320 METAR COR EGLL 300320Z 06005KT 030V090 9999 FEW018 BKN047
                        01/M03 Q1009 NOSIG=
201303300250 METAR COR EGLL 300250Z 06006KT 9999 BKN047 01/M03 Q1009 NOSIG=
201303300220 METAR EGLL 300220Z AUTO 04007KT 010V080 9999 OVC042/// 01/M03
                        Q1009=
201303300150 METAR EGLL 300150Z AUTO 04006KT 9999 OVC043/// 01/M03 Q1009=
201303300120 METAR EGLL 300120Z AUTO 06005KT 9999 OVC044/// 01/M03 Q1009=
201303300050 METAR EGLL 300050Z 06005KT 9999 FEW020 BKN048 01/M03 Q1009=
201303300020 METAR COR EGLL 300020Z 06005KT 9999 BKN046 01/M03 Q1009 NOSIG=
201303292350 METAR COR EGLL 292350Z 05005KT 020V090 9999 BKN045 01/M03
                        Q1009 NOSIG=
201303292320 METAR COR EGLL 292320Z 07004KT 9999 BKN046 01/M04 Q1010 NOSIG=
201303292250 METAR COR EGLL 292250Z 06006KT 9999 BKN047 01/M04 Q1010 NOSIG=
201303292220 METAR COR EGLL 292220Z 06008KT 9999 FEW020 SCT048 01/M04
                        Q1010 NOSIG=
201303292150 METAR COR EGLL 292150Z 06008KT 9999 SCT036 BKN042 02/M04
                        Q1010 NOSIG=
201303292120 METAR COR EGLL 292120Z 06007KT 9999 BKN039 02/M04 Q1010 NOSIG=
201303292050 METAR COR EGLL 292050Z 06006KT 9999 SCT041 SCT045 02/M04
                        Q1009 NOSIG=
201303292020 METAR COR EGLL 292020Z 07006KT 9999 FEW031 02/M04 Q1009 NOSIG=
201303291950 METAR COR EGLL 291950Z 07008KT 9999 SCT031 SCT049 02/M04
                        Q1009 NOSIG=
201303291920 METAR COR EGLL 291920Z 08010KT 9999 SCT042 BKN048 03/M04
                        Q1009 NOSIG=
201303291850 METAR COR EGLL 291850Z 09011KT 9999 SCT033 SCT038 03/M04
                        Q1009 NOSIG=
201303291820 METAR COR EGLL 291820Z 08006KT 9999 BKN048 03/M05 Q1009 NOSIG=
201303291750 METAR COR EGLL 291750Z 07010KT 9999 SCT038 BKN045 04/M05
                        Q1009 NOSIG=
201303291720 METAR COR EGLL 291720Z 08009KT 9999 BKN044 04/M05 Q1009 NOSIG=
201303291650 METAR COR EGLL 291650Z 08009KT 9999 BKN042 04/M06 Q1009 NOSIG=
201303291620 METAR COR EGLL 291620Z 06010KT 9999 BKN041 04/M05 Q1009 NOSIG=
201303291550 METAR COR EGLL 291550Z 06010KT 030V090 9999 BKN048 05/M06
                        Q1009 NOSIG=
201303291520 METAR COR EGLL 291520Z 07010KT 040V100 9999 BKN047 05/M07
                        Q1009 NOSIG=
201303291450 METAR COR EGLL 291450Z 06009KT 010V080 9999 BKN049 05/M06
                        Q1009 NOSIG=
201303291420 METAR COR EGLL 291420Z 07010KT 040V120 9999 FEW047 07/M06
                        Q1009 NOSIG=
201303291350 METAR COR EGLL 291350Z 08008KT 020V110 9999 SCT049 07/M06
                        Q1009 NOSIG=
201303291320 METAR COR EGLL 291320Z 10012KT 9999 FEW040 SCT049 07/M07
                        Q1010 NOSIG=
201303291250 METAR COR EGLL 291250Z 06010KT 030V090 9999 BKN049 05/M07
                        Q1010 NOSIG=
201303291220 METAR COR EGLL 291220Z 07010KT 9999 BKN049 06/M06 Q1010 NOSIG=
201303291150 METAR COR EGLL 291150Z 08011KT 9999 SCT046 05/M07 Q1010 NOSIG=
201303291120 METAR COR EGLL 291120Z 05008KT 9999 SCT046 BKN049 06/M06
                        Q1011 NOSIG=
201303291050 METAR COR EGLL 291050Z 08011KT 9999 BKN045 06/M05 Q1011 NOSIG=
201303291020 METAR COR EGLL 291020Z 07010KT 9999 SCT044 05/M05 Q1011 NOSIG=
201303290950 METAR COR EGLL 290950Z 08011KT 040V100 9999 SCT040 05/M05
                        Q1011 NOSIG=
201303290920 METAR COR EGLL 290920Z 06012KT 9999 FEW033 04/M04 Q1011 NOSIG=
201303290850 METAR COR EGLL 290850Z 06011KT 9999 FEW048 04/M04 Q1011 NOSIG=
201303290820 METAR COR EGLL 290820Z 06008KT 9999 FEW048 03/M03 Q1011 NOSIG=
201303290750 METAR COR EGLL 290750Z 05006KT 010V080 9999 SCT049 02/M03
                        Q1012 NOSIG=
201303290720 METAR COR EGLL 290720Z 04004KT 360V090 9999 BKN042 01/M04
                        Q1012 NOSIG=
201303290650 METAR COR EGLL 290650Z 04004KT 320V070 9999 BKN047 00/M04
                        Q1012 NOSIG=
201303290620 METAR COR EGLL 290620Z 03004KT 350V080 9999 FEW020 BKN039
                        00/M04 Q1012 NOSIG=
201303290550 METAR COR EGLL 290550Z 05005KT 9999 BKN044 00/M04 Q1012 NOSIG=
201303290520 METAR COR EGLL 290520Z 06005KT 360V090 9999 BKN045 M00/M04
                        Q1012 NOSIG=
201303290450 METAR COR EGLL 290450Z VRB02KT 9999 BKN042 M01/M04 Q1012
                        NOSIG=
201303290420 METAR COR EGLL 290420Z VRB03KT 9999 BKN045 M02/M05 Q1012
                        NOSIG=
201303290350 METAR COR EGLL 290350Z 01003KT 9999 SCT046 M02/M05 Q1012
                        NOSIG=
201303290320 METAR COR EGLL 290320Z 00000KT 9999 BKN047 M01/M05 Q1012
                        NOSIG=
201303290250 METAR COR EGLL 290250Z 35002KT 9999 BKN047 M01/M05 Q1012
                        NOSIG=
201303290220 METAR EGLL 290220Z AUTO 35002KT 9999 NCD M01/M05 Q1013=
201303290150 METAR EGLL 290150Z AUTO VRB03KT 9999 NCD M01/M05 Q1013=
201303290120 METAR EGLL 290120Z AUTO VRB03KT 9999 NCD M01/M05 Q1013=
201303290050 METAR COR EGLL 290050Z VRB03KT CAVOK M00/M05 Q1013 NOSIG=
201303290020 METAR COR EGLL 290020Z 02004KT 350V060 9999 FEW043 00/M05
                        Q1013 NOSIG=
201303282350 METAR COR EGLL 282350Z 05004KT 010V090 9999 BKN044 01/M05
                        Q1014 NOSIG=
201303282320 METAR COR EGLL 282320Z 04004KT 360V080 9999 BKN044 01/M06
                        Q1014 NOSIG=
201303282250 METAR COR EGLL 282250Z 04006KT 360V080 9999 BKN042 02/M07
                        Q1014 NOSIG=
201303282220 METAR COR EGLL 282220Z 04006KT 010V080 9999 BKN043 02/M07
                        Q1014 NOSIG=
201303282150 METAR COR EGLL 282150Z 04007KT 010V070 9999 BKN042 02/M05
                        Q1014 NOSIG=
201303282120 METAR COR EGLL 282120Z 04006KT 360V080 9999 FEW036 BKN042
                        02/M05 Q1014 NOSIG=
201303282050 METAR COR EGLL 282050Z 05007KT 010V080 9999 BKN044 03/M06
                        Q1014 NOSIG=
201303282020 METAR COR EGLL 282020Z 05007KT 020V080 9999 BKN045 03/M07
                        Q1014 NOSIG=
201303281950 METAR COR EGLL 281950Z 05006KT 010V080 9999 BKN046 03/M07
                        Q1014 NOSIG=
201303281920 METAR COR EGLL 281920Z 05007KT 020V080 9999 BKN047 03/M07
                        Q1014 NOSIG=
201303281850 METAR COR EGLL 281850Z 05007KT 010V080 9999 BKN047 03/M07
                        Q1013 NOSIG=
201303281820 METAR COR EGLL 281820Z 06007KT 010V080 9999 BKN048 03/M07
                        Q1013 NOSIG=
201303281750 METAR COR EGLL 281750Z 04007KT 360V070 9999 BKN044 04/M06
                        Q1013 NOSIG=
201303281720 METAR COR EGLL 281720Z 04008KT 010V070 9999 BKN047 04/M06
                        Q1013 NOSIG=
201303281650 METAR COR EGLL 281650Z 03007KT 350V070 9999 SCT041 BKN048
                        04/M06 Q1013 NOSIG=
201303281620 METAR COR EGLL 281620Z 03007KT 360V080 9999 BKN042 04/M06
                        Q1013 NOSIG=
201303281550 METAR COR EGLL 281550Z 04007KT 340V090 9999 BKN047 04/M06
                        Q1013 NOSIG=
201303281520 METAR COR EGLL 281520Z 05009KT 9999 BKN043 04/M06 Q1012 NOSIG=
201303281450 METAR COR EGLL 281450Z 05008KT 360V080 9999 SCT037 BKN042
                        04/M05 Q1012 NOSIG=
201303281420 METAR COR EGLL 281420Z 04008KT 340V080 9999 FEW036 BKN041
                        04/M04 Q1012 NOSIG=
201303281350 METAR COR EGLL 281350Z 05007KT 010V090 9999 FEW034 BKN042
                        04/M04 Q1013 NOSIG=
201303281320 METAR COR EGLL 281320Z 04007KT 9999 FEW034 BKN043 03/M05
                        Q1012 NOSIG=
201303281250 METAR COR EGLL 281250Z 06010KT 020V080 9999 SCT032 BKN044
                        03/M03 Q1012 NOSIG=
201303281220 METAR COR EGLL 281220Z 06010KT 9999 SCT031 BKN045 03/M03
                        Q1012 NOSIG=
201303281150 METAR COR EGLL 281150Z 05009KT 010V070 9999 SCT032 BKN048
                        04/M04 Q1012 NOSIG=
201303281120 METAR COR EGLL 281120Z 07009KT 9999 SCT042 BKN046 04/M03
                        Q1012 NOSIG=
201303281050 METAR COR EGLL 281050Z 06010KT 9999 SCT032 BKN040 04/M03
                        Q1012 NOSIG=
201303281020 METAR COR EGLL 281020Z 07011KT 9999 FEW034 SCT042 03/M04
                        Q1012 NOSIG=
201303280950 METAR COR EGLL 280950Z 05009KT 020V080 9999 SCT029 05/M02
                        Q1012 NOSIG=
201303280920 METAR COR EGLL 280920Z 06010KT 020V090 9999 FEW027 04/M02
                        Q1012 NOSIG=
201303280850 METAR COR EGLL 280850Z 05007KT 020V080 CAVOK 03/M02 Q1011
                        NOSIG=
201303280820 METAR EGLL 280820Z 05005KT 010V080 CAVOK 02/M02 Q1011 NOSIG=
201303280750 METAR COR EGLL 280750Z 05005KT 9000 NSC 01/M02 Q1011 NOSIG=
201303280720 METAR COR EGLL 280720Z 02005KT 350V060 8000 NSC 00/M02 Q1011
                        NOSIG=
201303280650 METAR COR EGLL 280650Z 01004KT 320V060 7000 NSC M01/M03 Q1011
                        NOSIG=
201303280620 METAR COR EGLL 280620Z 02004KT 340V070 8000 NSC M01/M03 Q1011
                        NOSIG=
201303280550 METAR COR EGLL 280550Z VRB03KT 8000 NSC M02/M03 Q1011 NOSIG=
201303280520 METAR COR EGLL 280520Z VRB03KT 8000 NSC M01/M03 Q1011 NOSIG=
201303280450 METAR COR EGLL 280450Z 36003KT 8000 FEW048 M01/M03 Q1011
                        NOSIG=
201303280420 METAR COR EGLL 280420Z 36003KT 8000 NSC M01/M03 Q1011 NOSIG=
201303280350 METAR EGLL 280350Z AUTO VRB02KT 8000 FEW030/// M01/M03 Q1011=
201303280320 METAR COR EGLL 280320Z VRB03KT 9999 FEW023 M01/M03 Q1011
                        NOSIG=
201303280250 METAR COR EGLL 280250Z 02004KT 310V060 CAVOK M01/M03 Q1011
                        NOSIG=
201303280220 METAR EGLL 280220Z AUTO 02004KT 340V090 9999 SCT045/// M01/M03
                        Q1011=
201303280150 METAR EGLL 280150Z AUTO 02004KT 340V070 9999 FEW019/// M01/M03
                        Q1011=
201303280120 METAR EGLL 280120Z AUTO 02004KT 330V060 9999 FEW018/// M00/M03
                        Q1011=
201303280050 METAR COR EGLL 280050Z 02005KT 350V060 CAVOK 00/M04 Q1012
                        NOSIG=
201303280020 METAR COR EGLL 280020Z 02006KT 350V050 9999 FEW040 00/M04
                        Q1012 NOSIG=
201303272350 METAR COR EGLL 272350Z 02005KT 350V060 9999 SCT021 SCT026
                        01/M04 Q1012 NOSIG=
201303272320 METAR COR EGLL 272320Z 02004KT 330V070 9999 SCT021 00/M05
                        Q1012 NOSIG=
201303272250 METAR COR EGLL 272250Z 02005KT 350V060 9999 FEW024 01/M05
                        Q1012 NOSIG=
201303272220 METAR COR EGLL 272220Z 01004KT 340V050 9999 FEW035 01/M06
                        Q1012 NOSIG=
201303272150 METAR COR EGLL 272150Z 04005KT 010V090 9999 FEW036 01/M06
                        Q1012 NOSIG=
201303272120 METAR COR EGLL 272120Z 05005KT 020V080 9999 FEW040 01/M06
                        Q1012 NOSIG=
201303272050 METAR COR EGLL 272050Z 06009KT 9999 FEW046 01/M06 Q1012 NOSIG=
201303272020 METAR COR EGLL 272020Z 06005KT 9999 FEW046 01/M06 Q1012 NOSIG=
201303271950 METAR COR EGLL 271950Z 05005KT 9999 FEW039 01/M06 Q1012 NOSIG=
201303271920 METAR COR EGLL 271920Z 05007KT 010V090 9999 FEW049 02/M06
                        Q1012 NOSIG=
201303271850 METAR COR EGLL 271850Z 05007KT CAVOK 02/M06 Q1012 NOSIG=
201303271820 METAR COR EGLL 271820Z 05007KT 9999 FEW027 BKN048 02/M05
                        Q1012 NOSIG=
201303271750 METAR COR EGLL 271750Z 05007KT 010V080 9999 FEW036 BKN043
                        03/M05 Q1011 NOSIG=
201303271720 METAR COR EGLL 271720Z 06008KT 9999 BKN038 03/M05 Q1011 NOSIG=
201303271650 METAR COR EGLL 271650Z 05007KT 360V080 9999 SCT039 BKN044
                        03/M05 Q1011 NOSIG=
201303271620 METAR COR EGLL 271620Z 06008KT 9999 BKN040 03/M06 Q1011 NOSIG=
201303271550 METAR COR EGLL 271550Z 06008KT 020V080 9999 BKN036 03/M05
                        Q1011 NOSIG=
201303271520 METAR COR EGLL 271520Z 05007KT 020V080 9999 FEW036 BKN041
                        03/M05 Q1011 NOSIG=
201303271450 METAR COR EGLL 271450Z 06009KT 020V080 9999 FEW038 BKN046
                        04/M05 Q1011 NOSIG=
201303271420 METAR COR EGLL 271420Z 06011KT 9999 SCT040 SCT045 04/M05
                        Q1011 NOSIG=
201303271350 METAR COR EGLL 271350Z 06009KT 010V080 9999 SCT037 SCT044
                        04/M05 Q1011 NOSIG=
201303271320 METAR COR EGLL 271320Z 07011KT 010V100 9999 SCT036 SCT043
                        04/M04 Q1011 NOSIG=
201303271250 METAR COR EGLL 271250Z 07009KT 030V100 9999 SCT037 04/M05
                        Q1011 NOSIG=
201303271220 METAR COR EGLL 271220Z 06011KT 030V090 9999 SCT033 SCT040
                        05/M04 Q1011 NOSIG=
201303271150 METAR COR EGLL 271150Z 07011KT 9999 SCT033 SCT037 04/M04
                        Q1011 NOSIG=
201303271120 METAR COR EGLL 271120Z 06011KT 020V090 9999 BKN033 03/M04
                        Q1011 NOSIG=
201303271050 METAR COR EGLL 271050Z 08011KT 9999 BKN030 03/M04 Q1012 NOSIG=
201303271020 METAR COR EGLL 271020Z 08011KT 9999 BKN030 03/M04 Q1012 NOSIG=
201303270950 METAR COR EGLL 270950Z 07011KT 9999 SCT030 03/M04 Q1012 NOSIG=
201303270920 METAR COR EGLL 270920Z 08011KT 9999 SCT030 03/M05 Q1012 NOSIG=
201303270850 METAR COR EGLL 270850Z 06011KT 030V100 9999 FEW030 02/M04
                        Q1012 NOSIG=
201303270820 METAR COR EGLL 270820Z 06009KT 9999 FEW040 02/M04 Q1012 NOSIG=
201303270750 METAR COR EGLL 270750Z 06007KT 020V090 9999 SCT040 01/M05
                        Q1012 NOSIG=
201303270720 METAR COR EGLL 270720Z 05006KT 020V090 CAVOK 01/M05 Q1011
                        NOSIG=
201303270650 METAR COR EGLL 270650Z 05006KT 9999 FEW046 M00/M05 Q1011
                        NOSIG=
201303270620 METAR COR EGLL 270620Z 05006KT 020V080 9999 FEW046 M00/M05
                        Q1011 NOSIG=
201303270550 METAR COR EGLL 270550Z 05006KT CAVOK M00/M05 Q1011 NOSIG=
201303270520 METAR COR EGLL 270520Z 04007KT CAVOK M00/M04 Q1011 NOSIG=
201303270450 METAR COR EGLL 270450Z 05006KT CAVOK M00/M04 Q1011 NOSIG=
201303270420 METAR EGLL 270420Z AUTO 05006KT 010V070 9999 NCD M00/M04
                        Q1011=
201303270350 METAR COR EGLL 270350Z 04006KT CAVOK M00/M04 Q1011 NOSIG=
201303270320 METAR COR EGLL 270320Z 04005KT CAVOK M00/M04 Q1011 NOSIG=
201303270250 METAR EGLL 270250Z AUTO 04006KT 9999 NCD M00/M04 Q1011=
201303270220 METAR EGLL 270220Z AUTO 04005KT 010V080 9999 NCD M00/M03
                        Q1011=
201303270150 METAR EGLL 270150Z AUTO 04006KT 010V090 9999 SCT049/// 00/M03
                        Q1011=
201303270120 METAR COR EGLL 270120Z 04005KT 010V080 CAVOK 00/M03 Q1012
                        NOSIG=
201303270050 METAR COR EGLL 270050Z 04005KT 350V070 CAVOK 00/M03 Q1012
                        NOSIG=
201303270020 METAR COR EGLL 270020Z 03005KT 340V060 CAVOK 00/M03 Q1012
                        NOSIG=
201303262350 METAR COR EGLL 262350Z 04005KT 360V070 9999 BKN049 01/M03
                        Q1012 NOSIG=
201303262320 METAR COR EGLL 262320Z 04005KT 010V090 9999 BKN048 01/M04
                        Q1012 NOSIG=
201303262250 METAR COR EGLL 262250Z 04007KT 010V070 9999 BKN048 01/M04
                        Q1012 NOSIG=
201303262220 METAR COR EGLL 262220Z 04007KT 360V080 9999 BKN049 01/M05
                        Q1013 NOSIG=
201303262150 METAR COR EGLL 262150Z 05007KT 010V080 9999 BKN048 01/M05
                        Q1013 NOSIG=
201303262120 METAR COR EGLL 262120Z 05007KT 010V090 9999 BKN048 01/M05
                        Q1013 NOSIG=
201303262050 METAR COR EGLL 262050Z 04006KT 010V070 9999 OVC048 01/M05
                        Q1013 NOSIG=
201303262020 METAR COR EGLL 262020Z 05006KT 010V080 9999 BKN044 01/M05
                        Q1013 NOSIG=
201303261950 METAR COR EGLL 261950Z 05006KT 010V080 9999 BKN042 02/M05
                        Q1013 NOSIG=
201303261920 METAR COR EGLL 261920Z 06008KT 9999 FEW039 BKN042 02/M05
                        Q1013 NOSIG=
201303261850 METAR COR EGLL 261850Z 06009KT 9999 BKN035 BKN042 02/M05
                        Q1013 NOSIG=
201303261820 METAR COR EGLL 261820Z 06009KT 9999 BKN034 01/M06 Q1013 NOSIG=
201303261750 METAR COR EGLL 261750Z 07010KT 9999 BKN033 01/M06 Q1013 NOSIG=
201303261720 METAR EGLL 261720Z 08010KT 9999 BKN031 01/M05 Q1013=
201303261650 METAR COR EGLL 261650Z 06009KT 9999 SCT031 BKN034 01/M05
                        Q1013 NOSIG=
201303261620 METAR COR EGLL 261620Z 07009KT 9999 SCT032 BKN035 02/M05
                        Q1013 NOSIG=
201303261550 METAR COR EGLL 261550Z 07010KT 9999 BKN030 02/M05 Q1013 NOSIG=
201303261520 METAR COR EGLL 261520Z 06010KT 9999 BKN031 01/M05 Q1013 NOSIG=
201303261450 METAR EGLL 261450Z 06010KT 020V080 9999 BKN031 01/M05 Q1013
                        NOSIG=
201303261420 METAR EGLL 261420Z 06010KT 9999 OVC031 02/M05 Q1013=
201303261350 METAR COR EGLL 261350Z 06012KT 9999 OVC032 01/M05 Q1013 NOSIG=
201303261320 METAR COR EGLL 261320Z 06013KT 9999 BKN029 BKN036 01/M05
                        Q1013 NOSIG=
201303261250 METAR COR EGLL 261250Z 06010KT 020V080 9999 BKN029 BKN034
                        01/M05 Q1014 NOSIG=
201303261220 METAR COR EGLL 261220Z 06011KT 9999 FEW025 BKN035 01/M06
                        Q1014 NOSIG=
201303261150 METAR COR EGLL 261150Z 05010KT 9999 FEW030 BKN034 01/M06
                        Q1014 NOSIG=
201303261120 METAR COR EGLL 261120Z 06011KT 9999 FEW030 BKN033 01/M05
                        Q1014 NOSIG=
201303261050 METAR COR EGLL 261050Z 06011KT 9999 SCT027 BKN034 02/M05
                        Q1014 NOSIG=
201303261020 METAR COR EGLL 261020Z 07012KT 9999 SCT027 SCT032 01/M05
                        Q1014 NOSIG=
201303260950 METAR COR EGLL 260950Z 07013KT 9999 SCT030 SCT036 01/M05
                        Q1014 NOSIG=
201303260920 METAR COR EGLL 260920Z 07011KT 9999 SCT028 SCT035 01/M05
                        Q1014 NOSIG=
201303260850 METAR EGLL 260850Z 07013KT 9999 SCT028 SCT034 01/M05 Q1014=
201303260820 METAR COR EGLL 260820Z 06011KT 020V080 9999 SCT028 SCT035
                        01/M05 Q1014 NOSIG=
201303260750 METAR COR EGLL 260750Z 06009KT 9999 SCT030 SCT035 01/M05
                        Q1014 NOSIG=
201303260720 METAR COR EGLL 260720Z 06009KT 9999 FEW037 BKN040 01/M05
                        Q1014 NOSIG=
201303260650 METAR COR EGLL 260650Z 05008KT 9999 BKN037 01/M05 Q1013 NOSIG=
201303260620 METAR COR EGLL 260620Z 05009KT 9999 FEW035 BKN039 01/M05
                        Q1013 NOSIG=
201303260550 METAR COR EGLL 260550Z 05009KT 9999 FEW036 SCT042 01/M05
                        Q1013 NOSIG=
201303260520 METAR COR EGLL 260520Z 05009KT 010V080 9999 FEW043 01/M05
                        Q1013 NOSIG=
201303260450 METAR COR EGLL 260450Z 05008KT 020V080 9999 SCT041 01/M05
                        Q1013 NOSIG=
201303260420 METAR COR EGLL 260420Z 05008KT 9999 SCT041 01/M05 Q1013 NOSIG=
201303260350 METAR COR EGLL 260350Z 04008KT 360V070 9999 FEW041 01/M05
                        Q1013 NOSIG=
201303260320 METAR COR EGLL 260320Z 04008KT CAVOK 01/M05 Q1013 NOSIG=
201303260250 METAR COR EGLL 260250Z 04008KT 010V070 CAVOK 01/M05 Q1013
                        NOSIG=
201303260220 METAR EGLL 260220Z AUTO 05009KT 9999 FEW045/// 01/M05 Q1013=
201303260150 METAR EGLL 260150Z AUTO 03008KT 360V060 9999 NCD 01/M05 Q1013=
201303260120 METAR EGLL 260120Z AUTO 04008KT 360V060 9999 FEW046/// 01/M05
                        Q1013=
201303260050 METAR COR EGLL 260050Z 04009KT 010V070 CAVOK 01/M04 Q1013
                        NOSIG=
201303260020 METAR COR EGLL 260020Z 03008KT 360V080 CAVOK 01/M04 Q1013
                        NOSIG=
201303252350 METAR COR EGLL 252350Z 03008KT 340V070 CAVOK 01/M04 Q1013
                        NOSIG=
201303252320 METAR COR EGLL 252320Z 03009KT 350V070 CAVOK 01/M04 Q1013
                        NOSIG=
201303252250 METAR EGLL 252250Z 03008KT 350V070 CAVOK 01/M04 Q1013=
201303252220 METAR COR EGLL 252220Z 03008KT 360V070 CAVOK 01/M04 Q1014
                        NOSIG=
201303252150 METAR COR EGLL 252150Z 04008KT CAVOK 01/M04 Q1014 NOSIG=
201303252120 METAR COR EGLL 252120Z 04009KT 010V070 CAVOK 01/M04 Q1014
                        NOSIG=
201303252050 METAR COR EGLL 252050Z 04008KT CAVOK 01/M04 Q1014 NOSIG=
201303252020 METAR COR EGLL 252020Z 05008KT 010V080 CAVOK 01/M04 Q1014
                        NOSIG=
201303251950 METAR COR EGLL 251950Z 05009KT 010V080 9999 SCT044 01/M04
                        Q1014 NOSIG=
201303251920 METAR COR EGLL 251920Z 05008KT 360V070 9999 FEW035 SCT044
                        01/M05 Q1014 NOSIG=
201303251850 METAR COR EGLL 251850Z 06008KT 9999 FEW036 BKN045 01/M05
                        Q1014 NOSIG=
201303251820 METAR COR EGLL 251820Z 05008KT 010V080 9999 SCT036 BKN045
                        01/M05 Q1014 NOSIG=
201303251750 METAR COR EGLL 251750Z 06012KT 9999 BKN032 01/M05 Q1014 NOSIG=
201303251720 METAR COR EGLL 251720Z 06012KT 030V090 9999 BKN029 01/M05
                        Q1014 NOSIG=
201303251650 METAR COR EGLL 251650Z 06013KT 9999 BKN030 01/M05 Q1014 NOSIG=
201303251620 METAR COR EGLL 251620Z 05009KT 010V080 9999 BKN030 01/M05
                        Q1014 NOSIG=
201303251550 METAR COR EGLL 251550Z 06013KT 9999 BKN029 01/M05 Q1014 NOSIG=
201303251520 METAR COR EGLL 251520Z 07014KT 9999 BKN026 01/M05 Q1014 NOSIG=
201303251450 METAR COR EGLL 251450Z 06014KT 9999 BKN026 01/M04 Q1014 NOSIG=
201303251420 METAR COR EGLL 251420Z 06014KT 9999 BKN026 01/M04 Q1014 NOSIG=
201303251350 METAR COR EGLL 251350Z 06013KT 9999 BKN023 01/M04 Q1014 NOSIG=
201303251320 METAR COR EGLL 251320Z 07013KT 9999 BKN024 01/M04 Q1014 NOSIG=
201303251250 METAR COR EGLL 251250Z 07014KT 9999 BKN024 01/M04 Q1015 NOSIG=
201303251220 METAR COR EGLL 251220Z 06015KT 9999 BKN024 01/M04 Q1015 NOSIG=
201303251150 METAR COR EGLL 251150Z 06011KT 9999 BKN027 01/M04 Q1015 NOSIG=
201303251120 METAR COR EGLL 251120Z 07012G22KT 9999 BKN025 01/M05 Q1015
                        NOSIG=
201303251050 METAR COR EGLL 251050Z 07012KT 9999 BKN025 01/M04 Q1015 NOSIG=
201303251020 METAR COR EGLL 251020Z 06014KT 9999 BKN024 01/M04 Q1015 NOSIG=
201303250950 METAR COR EGLL 250950Z 07012KT 030V090 9999 BKN028 01/M04
                        Q1015 NOSIG=
201303250920 METAR COR EGLL 250920Z 07012KT 9999 FEW025 BKN027 01/M05
                        Q1015 NOSIG=
201303250850 METAR EGLL 250850Z 06013KT 9999 FEW027 BKN031 01/M05 Q1015=
201303250820 METAR COR EGLL 250820Z 06011KT 9999 -SN SCT027 01/M05 Q1015
                        NOSIG=
201303250750 METAR COR EGLL 250750Z 06011KT 9999 -SN SCT032 00/M05 Q1015
                        NOSIG=
201303250720 METAR EGLL 250720Z 06010KT 9999 SCT033 01/M05 Q1015=
201303250650 METAR COR EGLL 250650Z 06011KT 9999 SCT035 00/M05 Q1015 NOSIG=
201303250620 METAR COR EGLL 250620Z 05010KT 010V080 9999 FEW037 00/M06
                        Q1015 NOSIG=
201303250550 METAR COR EGLL 250550Z 05010KT CAVOK 01/M06 Q1014 NOSIG=
201303250520 METAR COR EGLL 250520Z 06010KT 9999 FEW035 01/M06 Q1014 NOSIG=
201303250450 METAR COR EGLL 250450Z 05011KT CAVOK 01/M06 Q1014 NOSIG=
201303250420 METAR COR EGLL 250420Z 06009KT CAVOK 01/M06 Q1014 NOSIG=
201303250350 METAR COR EGLL 250350Z 06010KT 030V090 CAVOK 01/M06 Q1014
                        NOSIG=
201303250320 METAR COR EGLL 250320Z 06011KT CAVOK 01/M06 Q1014 NOSIG=
201303250250 METAR COR EGLL 250250Z 06010KT CAVOK 01/M06 Q1014 NOSIG=
201303250220 METAR EGLL 250220Z AUTO 05010KT 020V080 9999 NCD 01/M06 Q1014=
201303250150 METAR EGLL 250150Z AUTO 05007KT 9999 NCD 01/M06 Q1014=
201303250120 METAR EGLL 250120Z AUTO 06009KT 9999 NCD 01/M06 Q1014=
201303250050 METAR COR EGLL 250050Z 06008KT CAVOK 01/M06 Q1014 NOSIG=
201303250020 METAR COR EGLL 250020Z 06008KT CAVOK 01/M06 Q1014 NOSIG=
201303242350 METAR COR EGLL 242350Z 05008KT CAVOK 01/M06 Q1014 NOSIG=
201303242320 METAR COR EGLL 242320Z 05008KT 360V080 CAVOK 01/M06 Q1014
                        NOSIG=
201303242250 METAR COR EGLL 242250Z 05007KT 020V080 9999 FEW045 01/M06
                        Q1014 NOSIG=
201303242220 METAR COR EGLL 242220Z 05008KT 020V080 CAVOK 01/M06 Q1014
                        NOSIG=
201303242150 METAR COR EGLL 242150Z 05007KT 010V070 CAVOK 01/M06 Q1014
                        NOSIG=
201303242120 METAR COR EGLL 242120Z 05006KT CAVOK 01/M05 Q1014 NOSIG=
201303242050 METAR COR EGLL 242050Z 05006KT 9999 BKN044 01/M05 Q1014 NOSIG=
201303242020 METAR COR EGLL 242020Z 05005KT 020V080 9999 BKN044 01/M05
                        Q1014 NOSIG=
201303241950 METAR COR EGLL 241950Z 06007KT 9999 BKN046 01/M06 Q1014 NOSIG=
201303241920 METAR COR EGLL 241920Z 06008KT 9999 BKN044 01/M06 Q1014 NOSIG=
201303241850 METAR COR EGLL 241850Z 06008KT 9999 BKN042 01/M05 Q1014 NOSIG=
201303241820 METAR COR EGLL 241820Z 06006KT 030V100 9999 FEW020 BKN043
                        01/M05 Q1014 NOSIG=
201303241750 METAR COR EGLL 241750Z 06009KT 9999 OVC040 00/M04 Q1013 NOSIG=
201303241720 METAR COR EGLL 241720Z 06010KT 9999 FEW030 OVC040 00/M04
                        Q1013 NOSIG=
201303241650 METAR COR EGLL 241650Z 06009KT 020V080 9999 FEW017 SCT028
                        BKN040 M00/M04 Q1013 NOSIG=
201303241620 METAR COR EGLL 241620Z 06009KT 9999 SCT018 BKN022 M00/M04
                        Q1013 NOSIG=
201303241550 METAR COR EGLL 241550Z 07012KT 9999 BKN014 M00/M03 Q1013
                        BECMG SCT018=
201303241520 METAR COR EGLL 241520Z 06011KT 030V090 9999 BKN014 M00/M03
                        Q1013 TEMPO BKN015=
201303241450 METAR COR EGLL 241450Z 06011KT 9999 BKN017 M00/M03 Q1013
                        TEMPO BKN014=
201303241420 METAR COR EGLL 241420Z 06012KT 9999 BKN014 M00/M03 Q1013
                        NOSIG=
201303241350 METAR COR EGLL 241350Z 06010KT 9999 BKN013 M00/M03 Q1013
                        NOSIG=
201303241320 METAR COR EGLL 241320Z 07012KT 9999 OVC012 M00/M03 Q1013
                        NOSIG=
201303241250 METAR COR EGLL 241250Z 06012KT 9999 OVC012 M00/M03 Q1013
                        NOSIG=
201303241220 METAR COR EGLL 241220Z 06013KT 9999 BKN011 M00/M03 Q1013
                        NOSIG=
201303241150 METAR COR EGLL 241150Z 06011KT 9999 OVC013 M00/M03 Q1013
                        TEMPO BKN015=
201303241120 METAR COR EGLL 241120Z 06011KT 9999 OVC013 M00/M03 Q1013
                        TEMPO BKN016=
201303241050 METAR COR EGLL 241050Z 06011KT 9999 OVC013 00/M03 Q1013 TEMPO
                        BKN016=
201303241020 METAR COR EGLL 241020Z 06012KT 030V100 9999 OVC013 00/M02
                        Q1013 NOSIG=
201303240950 METAR COR EGLL 240950Z 06010KT 030V090 9999 OVC012 M00/M02
                        Q1013 NOSIG=
201303240920 METAR COR EGLL 240920Z 06012KT 9000 -SN OVC011 M00/M02 Q1013
                        TEMPO BKN009=
201303240850 METAR COR EGLL 240850Z 06011KT 9999 BKN012 00/M02 Q1012 NOSIG=
201303240820 METAR COR EGLL 240820Z 06011KT 7000 SCT012 BKN013 00/M02
                        Q1012 TEMPO BKN009=
201303240750 METAR COR EGLL 240750Z 06012KT 6000 -SG BKN010 BKN015 00/M02
                        Q1012 TEMPO BKN009=
201303240720 METAR COR EGLL 240720Z 06010KT 7000 SCT011 OVC013 00/M02
                        Q1012 TEMPO BKN009=
201303240650 METAR COR EGLL 240650Z 06010KT 6000 OVC010 00/M02 Q1012 TEMPO
                        BKN008=
201303240620 METAR COR EGLL 240620Z 06011KT 6000 OVC011 00/M02 Q1012 NOSIG=
201303240550 METAR COR EGLL 240550Z 06011KT 7000 OVC012 00/M02 Q1012 NOSIG=
201303240520 METAR COR EGLL 240520Z 06011KT 7000 OVC012 01/M02 Q1012 NOSIG=
201303240450 METAR COR EGLL 240450Z 06010KT 7000 OVC011 01/M01 Q1012 NOSIG=
201303240420 METAR COR EGLL 240420Z 06011KT 8000 OVC010 01/M01 Q1011 TEMPO
                        BKN008=
201303240350 METAR COR EGLL 240350Z 06009KT 7000 OVC011 01/M01 Q1011 NOSIG=
201303240320 METAR COR EGLL 240320Z 06012KT 8000 OVC011 01/M01 Q1011 NOSIG=
201303240250 METAR EGLL 240250Z AUTO 07012KT 6000 BKN011/// 01/M01 Q1011=
201303240220 METAR EGLL 240220Z AUTO 07013KT 6000 OVC010/// 01/M01 Q1011=
201303240150 METAR EGLL 240150Z AUTO 07013KT 6000 OVC008/// 01/M01 Q1011=
201303240120 METAR COR EGLL 240120Z 07010KT 5000 BR FEW006 OVC008 01/M00
                        Q1012 NOSIG=
201303240050 METAR COR EGLL 240050Z 06012KT 5000 BR FEW007 OVC008 01/M00
                        Q1012 NOSIG=
201303240020 METAR COR EGLL 240020Z 06011KT 4100 BR FEW007 BKN008 01/00
                        Q1012 NOSIG=
201303232350 METAR COR EGLL 232350Z 07010KT 3600 BR OVC007 01/00 Q1012
                        NOSIG=
201303232320 METAR COR EGLL 232320Z 07011KT 4000 BR FEW007 BKN008 01/00
                        Q1012 NOSIG=
201303232250 METAR COR EGLL 232250Z 07013KT 4000 BR BKN008 01/M00 Q1012
                        NOSIG=
201303232220 METAR COR EGLL 232220Z 07012KT 5000 BR FEW008 BKN009 01/M00
                        Q1012 NOSIG=
201303232150 METAR COR EGLL 232150Z 06011KT 5000 HZ FEW009 BKN010 01/M00
                        Q1012 TEMPO BKN008=
201303232120 METAR COR EGLL 232120Z 06011KT 5000 HZ FEW009 BKN011 01/M00
                        Q1012 NOSIG=
201303232050 METAR COR EGLL 232050Z 06011KT 5000 HZ SCT008 BKN010 01/M00
                        Q1012 TEMPO BKN008=
201303232020 METAR COR EGLL 232020Z 07010KT 4800 HZ SCT008 BKN010 01/M00
                        Q1012 NOSIG=
201303231950 METAR COR EGLL 231950Z 07010KT 5000 HZ FEW007 BKN010 01/00
                        Q1011 NOSIG=
201303231920 METAR COR EGLL 231920Z 06009KT 020V080 4000 HZ FEW007 BKN009
                        01/00 Q1011 TEMPO 5000=
201303231850 METAR COR EGLL 231850Z 06010KT 5000 -SN SCT009 BKN010 01/M00
                        Q1011 TEMPO BKN009=
201303231820 METAR COR EGLL 231820Z 06010KT 6000 -SN BKN009 01/M00 Q1011
                        TEMPO SCT009 BKN012=
201303231750 METAR COR EGLL 231750Z 06011KT 6000 -SN FEW008 BKN010 01/M00
                        Q1011 NOSIG=
201303231720 METAR COR EGLL 231720Z 06010KT 020V090 7000 FEW009 BKN010
                        01/M00 Q1011 TEMPO BKN008=
201303231650 METAR COR EGLL 231650Z 06010KT 7000 SCT008 BKN010 01/M00
                        Q1010 TEMPO BKN008=
201303231620 METAR COR EGLL 231620Z 06010KT 6000 FEW008 BKN010 01/00 Q1010
                        TEMPO BKN008=
201303231550 METAR COR EGLL 231550Z 06010KT 5000 -RASN SCT007 BKN012 01/00
                        Q1010 NOSIG=
201303231520 METAR COR EGLL 231520Z 07011KT 5000 -RASN SCT008 BKN010 01/00
                        Q1010 TEMPO BKN008=
201303231450 METAR COR EGLL 231450Z 07011KT 4800 -SNRA SCT008 BKN010 01/00
                        Q1010 TEMPO 6000 BKN008=
201303231420 METAR COR EGLL 231420Z 07011KT 4000 -SNRA FEW009 BKN012 01/00
                        Q1010 TEMPO 5000 BKN008=
201303231350 METAR COR EGLL 231350Z 07012KT 6000 -RASN FEW007 BKN010 02/00
                        Q1010 TEMPO 4500 BKN008=
201303231320 METAR COR EGLL 231320Z 07011KT 4500 -SNRA SCT008 BKN010 02/00
                        Q1010 TEMPO 6000 BKN007=
201303231250 METAR COR EGLL 231250Z 08012KT 7000 SCT007 BKN010 02/00 Q1010
                        TEMPO 4000 -RASN BKN008=
201303231220 METAR COR EGLL 231220Z 07013KT 5000 HZ FEW007 BKN008 02/00
                        Q1010 TEMPO 4000 -RASN SCT008 BKN010=
201303231150 METAR COR EGLL 231150Z 07011KT 4600 -RASN FEW007 BKN008 02/00
                        Q1010 TEMPO 5000 SCT008 BKN012=
201303231120 METAR COR EGLL 231120Z 07012KT 4500 -RASN SCT008 BKN010 02/00
                        Q1010 TEMPO 5000 BKN008=
201303231050 METAR COR EGLL 231050Z 07011KT 3900 -RASN SCT008 BKN010 02/00
                        Q1010 TEMPO 5000 BKN008=
201303231020 METAR COR EGLL 231020Z 07012KT 5000 -RASN SCT008 BKN010 02/00
                        Q1010 TEMPO 3000 RASN BKN008=
201303230950 METAR COR EGLL 230950Z 07010KT 5000 -RASN SCT008 BKN010 01/00
                        Q1010 TEMPO 2500 RASN BKN008=
201303230920 METAR COR EGLL 230920Z 07010KT 3900 -RASN FEW007 BKN008 01/00
                        Q1009 TEMPO 1400 RASN=
201303230850 METAR COR EGLL 230850Z 07011KT 3800 -RASN FEW007 SCT008 BKN010
                        01/00 Q1009 TEMPO 1400 RASN BKN005=
201303230820 METAR COR EGLL 230820Z 07009KT 2600 -RASN SCT006 BKN008 BKN011
                        01/00 Q1009 RERA RESN TEMPO SCT008
                        BKN012=
201303230750 METAR COR EGLL 230750Z 08011KT 1600 RASN FEW007 BKN008 BKN010
                        01/M00 Q1009 TEMPO 5000 -RASN SCT008
                        BKN012=
201303230720 METAR COR EGLL 230720Z 07010KT 2300 -RASN FEW007 SCT008 BKN010
                        01/00 Q1009 TEMPO BKN008=
201303230650 METAR COR EGLL 230650Z 07010KT 1600 -RASN FEW006 SCT008 BKN009
                        01/00 Q1008 TEMPO FEW008 BKN012=
201303230620 METAR COR EGLL 230620Z 08010KT 1500 RASN FEW006 SCT008 BKN009
                        01/00 Q1008 NOSIG=
201303230550 METAR COR EGLL 230550Z 07011KT 2900 -RASN FEW006 BKN008 OVC010
                        01/00 Q1008 TEMPO FEW008 BKN012=
201303230520 METAR COR EGLL 230520Z 07011KT 3000 -RASN FEW006 BKN008 01/00
                        Q1008 RERA RESN TEMPO FEW008 BKN012=
201303230450 METAR COR EGLL 230450Z 08011KT 3800 RASN FEW007 BKN009 02/01
                        Q1008 TEMPO FEW009 BKN012=
201303230420 METAR EGLL 230420Z 08012KT 4200 -RA SCT009 BKN013 02/01 Q1007=
201303230350 METAR COR EGLL 230350Z 08013KT 4100 -RA OVC010 02/01 Q1007
                        RERA NOSIG=
201303230320 METAR COR EGLL 230320Z 08015KT 3000 RA OVC009 02/01 Q1007
                        BECMG BKN012=
201303230250 METAR EGLL 230250Z AUTO 09014KT 3000 -RA OVC010/// 03/01
                        Q1007=
201303230220 METAR EGLL 230220Z AUTO 08014KT 3400 -RA BKN009/// 03/01
                        Q1007=
201303230150 METAR EGLL 230150Z AUTO 09014KT 3200 DZ OVC008/// 03/01 Q1007=
201303230120 METAR COR EGLL 230120Z 09015KT 3100 -RA OVC010 03/01 Q1008
                        NOSIG=
201303230050 METAR COR EGLL 230050Z 08014KT 3500 -RA BKN011 03/01 Q1008
                        NOSIG=
201303230020 METAR COR EGLL 230020Z 09015KT 3900 -RA BKN011 03/01 Q1008
                        NOSIG=
201303222350 METAR COR EGLL 222350Z 09015KT 3700 -RA BKN012 03/01 Q1008
                        NOSIG=
201303222320 METAR COR EGLL 222320Z 08015KT 3900 -RA BKN011 03/01 Q1008
                        TEMPO FEW012=
201303222250 METAR COR EGLL 222250Z 09016KT 4100 -RA BKN012 04/01 Q1007
                        TEMPO FEW012=
201303222220 METAR COR EGLL 222220Z 08016KT 3600 -RA BKN012 04/02 Q1007
                        TEMPO FEW012=
201303222150 METAR COR EGLL 222150Z 08016KT 3500 -RA FEW014 BKN041 04/02
                        Q1007 NOSIG=
201303222120 METAR COR EGLL 222120Z 08016KT 4000 -RA FEW015 BKN042 04/02
                        Q1008 NOSIG=
201303222050 METAR COR EGLL 222050Z 08017KT 4000 -RA FEW015 BKN045 04/02
                        Q1008 NOSIG=
201303222020 METAR COR EGLL 222020Z 08018KT 4300 -RA FEW016 SCT044 04/01
                        Q1008 NOSIG=
201303221950 METAR COR EGLL 221950Z 08017KT 4600 -RA FEW017 BKN046 04/01
                        Q1008 NOSIG=
201303221920 METAR COR EGLL 221920Z 09017KT 4600 -RA FEW040 BKN046 04/01
                        Q1008 NOSIG=
201303221850 METAR COR EGLL 221850Z 08018KT 4600 -RA FEW042 04/01 Q1007
                        NOSIG=
201303221820 METAR COR EGLL 221820Z 08018KT 5000 -RA SCT045 04/01 Q1007
                        NOSIG=
201303221750 METAR COR EGLL 221750Z 08015KT 5000 -RA FEW020 04/01 Q1008
                        NOSIG=
201303221720 METAR EGLL 221720Z 08015KT 5000 -RA FEW047 04/01 Q1007=
201303221650 METAR COR EGLL 221650Z 08018KT 4800 -RA NSC 04/01 Q1007 NOSIG=
201303221620 METAR COR EGLL 221620Z 08015KT 5000 -RA FEW017 04/01 Q1007
                        NOSIG=
201303221550 METAR EGLL 221550Z 08018KT 6000 NSC 04/00 Q1007=
201303221520 METAR COR EGLL 221520Z 09018KT 6000 NSC 05/01 Q1007 NOSIG=
201303221450 METAR COR EGLL 221450Z 08015KT 6000 NSC 05/01 Q1008 NOSIG=
201303221420 METAR COR EGLL 221420Z 09018KT 6000 NSC 05/01 Q1008 NOSIG=
201303221350 METAR COR EGLL 221350Z 09020KT 6000 NSC 05/01 Q1008 NOSIG=
201303221320 METAR COR EGLL 221320Z 09019KT 6000 NSC 05/01 Q1008 NOSIG=
201303221250 METAR EGLL 221250Z 09018KT 7000 NSC 05/01 Q1008=
201303221220 METAR COR EGLL 221220Z 09019KT 7000 NSC 05/01 Q1008 NOSIG=
201303221150 METAR COR EGLL 221150Z 09018KT 7000 NSC 05/01 Q1008 NOSIG=
201303221120 METAR COR EGLL 221120Z 09020KT 7000 NSC 05/01 Q1009 NOSIG=
201303221050 METAR COR EGLL 221050Z 09017KT 6000 NSC 04/01 Q1009 NOSIG=
201303221020 METAR COR EGLL 221020Z 08017KT 6000 NSC 04/01 Q1009 NOSIG=
201303220950 METAR COR EGLL 220950Z 09016KT 6000 BKN048 04/00 Q1010 NOSIG=
201303220920 METAR COR EGLL 220920Z 09015KT 7000 BKN048 04/00 Q1010 NOSIG=
201303220850 METAR COR EGLL 220850Z 09016KT 7000 BKN047 03/M00 Q1010 NOSIG=
201303220820 METAR COR EGLL 220820Z 09015KT 7000 BKN048 03/M00 Q1010 NOSIG=
201303220750 METAR EGLL 220750Z 08014KT 7000 BKN046 03/M00 Q1010=
201303220720 METAR COR EGLL 220720Z 09015KT 6000 BKN045 03/M00 Q1010 NOSIG=
201303220650 METAR COR EGLL 220650Z 09015KT 5000 -RA OVC042 03/M00 Q1010
                        TEMPO 4500=
201303220620 METAR COR EGLL 220620Z 09015KT 5000 -RA OVC040 02/M00 Q1010
                        TEMPO 4500=
201303220550 METAR COR EGLL 220550Z 09014KT 5000 -RA BKN035 02/00 Q1011
                        TEMPO 4500=
201303220520 METAR COR EGLL 220520Z 09014KT 4600 -RA FEW030 BKN034 02/00
                        Q1011 TEMPO 6000=
201303220450 METAR COR EGLL 220450Z 09014KT 4600 -RA FEW029 OVC033 02/00
                        Q1011 TEMPO 6000=
201303220420 METAR COR EGLL 220420Z 09014KT 4000 -RA OVC029 02/01 Q1011
                        NOSIG=
201303220350 METAR COR EGLL 220350Z 09014KT 3600 -RA BKN030 03/01 Q1011
                        NOSIG=
201303220250 METAR COR EGLL 220250Z 09014KT 3400 -RA BKN031 03/01 Q1012
                        NOSIG=
201303220220 METAR EGLL 220220Z AUTO 09013KT 3200 -RA BKN032/// 03/01
                        Q1012=
201303220150 METAR EGLL 220150Z AUTO 09013KT 3100 -RA OVC033/// 03/01
                        Q1012=
201303220120 METAR EGLL 220120Z AUTO 09014KT 3800 -RA OVC034/// 03/01
                        Q1013 RERA=
201303220050 METAR COR EGLL 220050Z 10013KT 3600 RA SCT012 SCT018 03/01
                        Q1013 RERA TEMPO BKN012=
201303220020 METAR COR EGLL 220020Z 10013KT 3000 -RA FEW014 BKN017 03/01
                        Q1013 TEMPO RA BKN014=
201303212350 METAR COR EGLL 212350Z 10014KT 4500 -RA FEW024 BKN032 03/01
                        Q1013 TEMPO RA=
201303212320 METAR COR EGLL 212320Z 10012KT 4300 -RA FEW018 SCT022 BKN033
                        04/01 Q1013 RERA TEMPO RA=
201303212250 METAR COR EGLL 212250Z 10014KT 5000 -RA BKN020 04/01 Q1014
                        TEMPO 4000 RA=
201303212220 METAR COR EGLL 212220Z 10013KT 5000 -RA BKN029 04/01 Q1014
                        TEMPO 4000 RA=
201303212150 METAR COR EGLL 212150Z 10013KT 6000 -RA BKN027 03/01 Q1014
                        TEMPO RA=
201303212120 METAR COR EGLL 212120Z 10015KT 7000 -RA FEW016 BKN026 03/01
                        Q1014 NOSIG=
201303212050 METAR COR EGLL 212050Z 10016KT 7000 -RA FEW016 SCT025 BKN029
                        03/00 Q1014 NOSIG=
201303212020 METAR COR EGLL 212020Z 10014KT 9999 -RA OVC026 04/M00 Q1015
                        NOSIG=
201303211950 METAR COR EGLL 211950Z 10015KT 9999 BKN025 04/M01 Q1015 NOSIG=
201303211920 METAR COR EGLL 211920Z 10015KT 9999 BKN025 OVC035 04/M00
                        Q1015 NOSIG=
201303211850 METAR COR EGLL 211850Z 09015KT 9999 BKN027 04/M00 Q1014 NOSIG=
201303211820 METAR COR EGLL 211820Z 10014KT 9999 BKN028 05/M00 Q1014 NOSIG=
201303211750 METAR COR EGLL 211750Z 09014KT 9999 BKN030 05/M00 Q1014 NOSIG=
201303211720 METAR COR EGLL 211720Z 09013KT 9999 SCT032 05/M00 Q1014 NOSIG=
201303211650 METAR COR EGLL 211650Z 09013KT 9999 SCT032 BKN042 06/M00
                        Q1014 NOSIG=
201303211620 METAR COR EGLL 211620Z 09014KT 9999 BKN033 06/00 Q1014 NOSIG=
201303211550 METAR COR EGLL 211550Z 10013KT 9999 SCT033 SCT037 06/M00
                        Q1014 NOSIG=
201303211520 METAR COR EGLL 211520Z 10015KT 9999 FEW049 07/M00 Q1015 NOSIG=
201303211450 METAR EGLL 211450Z 12013KT 9999 FEW030 07/M00 Q1015=
201303211420 METAR COR EGLL 211420Z 10012KT 9999 FEW033 07/M00 Q1015 NOSIG=
201303211350 METAR COR EGLL 211350Z 11014KT 9999 FEW032 07/00 Q1015 NOSIG=
201303211320 METAR COR EGLL 211320Z 11012KT 9999 SCT034 07/00 Q1016 NOSIG=
201303211250 METAR COR EGLL 211250Z 11013KT 9999 SCT028 07/M00 Q1016 NOSIG=
201303211220 METAR COR EGLL 211220Z 11012KT 9999 SCT028 07/01 Q1016 NOSIG=
201303211150 METAR COR EGLL 211150Z 11011KT 9999 FEW023 SCT025 07/01 Q1016
                        NOSIG=
201303211120 METAR COR EGLL 211120Z 12011KT 9999 SCT023 06/01 Q1016 NOSIG=
201303211050 METAR COR EGLL 211050Z 11010KT 9999 SCT022 06/01 Q1016 NOSIG=
201303211020 METAR COR EGLL 211020Z 10010KT 9999 SCT022 06/01 Q1017 NOSIG=
201303210950 METAR COR EGLL 210950Z 11010KT 080V140 9999 SCT020 05/00
                        Q1016 NOSIG=
201303210920 METAR COR EGLL 210920Z 10011KT 9999 FEW020 05/00 Q1016 NOSIG=
201303210850 METAR COR EGLL 210850Z 10011KT 9999 FEW020 SCT044 04/M00
                        Q1017 NOSIG=
201303210820 METAR COR EGLL 210820Z 10011KT 9999 FEW040 BKN044 04/M00
                        Q1017 NOSIG=
201303210750 METAR COR EGLL 210750Z 10009KT 9999 SCT035 BKN044 03/M00
                        Q1017 NOSIG=
201303210720 METAR COR EGLL 210720Z 10009KT 9999 FEW020 BKN036 03/M00
                        Q1017 NOSIG=
201303210650 METAR COR EGLL 210650Z 10008KT 8000 FEW020 BKN044 02/M00
                        Q1016 NOSIG=
201303210620 METAR COR EGLL 210620Z 09008KT 7000 BKN037 BKN045 02/M00
                        Q1017 NOSIG=
201303210550 METAR COR EGLL 210550Z 09006KT 7000 BKN036 02/M00 Q1017 NOSIG=
201303210520 METAR COR EGLL 210520Z 09005KT 7000 BKN036 02/M00 Q1017 NOSIG=
201303210450 METAR COR EGLL 210450Z 09005KT 7000 BKN034 BKN044 01/M00
                        Q1016 NOSIG=
201303210350 METAR COR EGLL 210350Z 08004KT 8000 FEW038 SCT046 00/M01
                        Q1016 NOSIG=
201303210320 METAR COR EGLL 210320Z 08004KT 7000 BKN038 00/M01 Q1016 NOSIG=
201303210250 METAR EGLL 210250Z AUTO 09004KT 8000 NCD 01/M01 Q1016=
201303210220 METAR EGLL 210220Z AUTO 09005KT 7000 NCD 00/M01 Q1016=
201303210150 METAR EGLL 210150Z AUTO 11005KT 9000 BKN029/// 01/M01 Q1017=
201303210120 METAR COR EGLL 210120Z 12006KT 060V150 8000 BKN027 02/M00
                        Q1017 NOSIG=
201303210050 METAR EGLL 210050Z 08005KT 8000 BKN026 01/M01 Q1016=
201303210020 METAR EGLL 210020Z 10006KT 8000 SCT029 BKN039 02/00 Q1016=
201303202350 METAR EGLL 202350Z AUTO 10006KT 7000 SCT015/// SCT020///
                        OVC025/// 03/01 Q1016=
201303202320 METAR EGLL 202320Z AUTO 10007KT 7000 BKN016/// 03/01 Q1016=
201303202250 METAR COR EGLL 202250Z 08004KT 7000 BKN013 03/01 Q1016 BECMG
                        SCT015 BKN035=
201303202220 METAR COR EGLL 202220Z 07005KT 7000 OVC013 03/01 Q1016 TEMPO
                        SCT013 BKN035=
201303202150 METAR COR EGLL 202150Z 08006KT 7000 SCT014 BKN018 03/01 Q1015
                        NOSIG=
201303202120 METAR COR EGLL 202120Z 08006KT 7000 FEW013 BKN016 BKN032
                        04/01 Q1015 NOSIG=
201303202050 METAR COR EGLL 202050Z 06006KT 7000 FEW015 SCT024 BKN029
                        04/01 Q1015 NOSIG=
201303202020 METAR COR EGLL 202020Z 05006KT 6000 BKN013 BKN026 04/01 Q1015
                        TEMPO SCT014 BKN025=
201303201950 METAR COR EGLL 201950Z 05005KT 010V080 6000 BKN014 04/01
                        Q1014 TEMPO SCT014 BKN020=
201303201920 METAR COR EGLL 201920Z 06006KT 7000 BKN012 BKN016 04/01 Q1014
                        NOSIG=
201303201850 METAR COR EGLL 201850Z 06006KT 6000 BKN011 BKN016 04/01 Q1014
                        NOSIG=
201303201820 METAR COR EGLL 201820Z 05006KT 020V080 5000 HZ SCT010 BKN013
                        04/01 Q1013 TEMPO 4000=
201303201750 METAR COR EGLL 201750Z 05006KT 6000 SCT011 BKN030 04/01 Q1012
                        TEMPO BKN010=
201303201720 METAR COR EGLL 201720Z 05006KT 020V080 7000 SCT014 BKN026
                        05/02 Q1012 TEMPO BKN014=
201303201650 METAR COR EGLL 201650Z 01006KT 340V050 7000 BKN013 05/02
                        Q1011 NOSIG=
201303201620 METAR COR EGLL 201620Z 03005KT 350V060 8000 OVC013 05/02
                        Q1010 NOSIG=
201303201550 METAR COR EGLL 201550Z 03006KT 360V060 7000 SCT015 BKN019
                        06/02 Q1010 TEMPO BKN012=
201303201520 METAR COR EGLL 201520Z 02005KT 340V060 6000 BKN014 06/02
                        Q1010 TEMPO BKN015=
201303201450 METAR COR EGLL 201450Z 35005KT 300V020 5000 HZ BKN011 05/02
                        Q1009 TEMPO 4000 -SHRA BKN009=
201303201420 METAR COR EGLL 201420Z 36006KT 4000 HZ BKN009 BKN014 05/03
                        Q1009 TEMPO 5000 BKN012=
201303201350 METAR COR EGLL 201350Z 35008KT 5000 HZ BKN014 BKN021 06/03
                        Q1008 TEMPO 4000 -SHRA=
201303201320 METAR COR EGLL 201320Z 34006KT 300V010 7000 SCT017 BKN047
                        06/02 Q1008 NOSIG=
201303201250 METAR COR EGLL 201250Z 33006KT 300V010 7000 FEW018 BKN037
                        06/02 Q1008 NOSIG=
201303201220 METAR COR EGLL 201220Z 36005KT 330V040 7000 FEW023 BKN039
                        06/02 Q1007 NOSIG=
201303201150 METAR COR EGLL 201150Z 35006KT 310V040 8000 FEW020 BKN042
                        07/02 Q1006 NOSIG=
201303201120 METAR COR EGLL 201120Z 34007KT 300V020 8000 SCT020 SCT038
                        06/01 Q1006 NOSIG=
201303201050 METAR COR EGLL 201050Z 03006KT 340V060 5000 HZ SCT014 BKN019
                        06/02 Q1006 BECMG 9999 NSW=
201303201020 METAR COR EGLL 201020Z 36005KT 330V030 5000 HZ SCT014 BKN038
                        06/02 Q1005 BECMG 9999 NSW=
201303200950 METAR COR EGLL 200950Z 01006KT 330V060 5000 HZ SCT010 SCT015
                        05/03 Q1005 NOSIG=
201303200920 METAR COR EGLL 200920Z 02005KT 340V040 4500 HZ FEW008 BKN010
                        05/03 Q1004 BECMG 6000 NSW SCT015=
201303200850 METAR COR EGLL 200850Z 36005KT 320V020 2500 HZ FEW006 BKN019
                        05/03 Q1003 BECMG 6000 NSW=
201303200820 METAR COR EGLL 200820Z VRB03KT 2500 HZ FEW004 BKN010 04/03
                        Q1003 BECMG 6000 NSW=
201303200750 METAR EGLL 200750Z 33004KT 2500 HZ FEW003 SCT004 BKN010 04/02
                        Q1003=
201303200720 METAR COR EGLL 200720Z 33004KT 300V010 2500 BR FEW003 BKN005
                        03/02 Q1002 BECMG 6000 NSW BKN010=
201303200650 METAR COR EGLL 200650Z 33005KT 2500 BR FEW003 BKN005 03/02
                        Q1002 NOSIG=
201303200620 METAR COR EGLL 200620Z 32006KT 2200 HZ BKN003 03/02 Q1002
                        TEMPO SCT003 BKN005=
201303200550 METAR COR EGLL 200550Z 32004KT 2600 HZ BKN004 03/02 Q1001
                        NOSIG=
201303200520 METAR COR EGLL 200520Z VRB03KT 3800 HZ FEW004 BKN009 03/01
                        Q1001 TEMPO BKN012=
201303200450 METAR EGLL 200450Z AUTO 34004KT 300V360 5000 SCT008/// BKN011///
                        03/01 Q1001=
201303200420 METAR COR EGLL 200420Z 33004KT 280V010 6000 BKN012 03/01
                        Q1000 TEMPO 4000 BR BKN008=
201303200350 METAR COR EGLL 200350Z 03004KT 340V080 7000 BKN008 03/01
                        Q1000 TEMPO BKN010=
201303200320 METAR COR EGLL 200320Z 06004KT 030V100 7000 BKN005 02/01
                        Q1000 NOSIG=
201303200250 METAR EGLL 200250Z AUTO 04006KT 360V080 6000 OVC005/// 02/01
                        Q1000=
201303200220 METAR EGLL 200220Z AUTO 05006KT 020V080 6000 OVC005/// 02/01
                        Q1000=
201303200150 METAR EGLL 200150Z AUTO 05005KT 010V080 4800 HZ OVC005///
                        02/01 Q1000=
201303200120 METAR EGLL 200120Z 05006KT 020V080 3300 HZ FEW005 SCT009
                        02/01 Q1000=
201303200050 METAR COR EGLL 200050Z 04005KT 4100 HZ FEW011 02/01 Q1000
                        TEMPO BKN008=
201303200020 METAR COR EGLL 200020Z 04004KT 5000 HZ BKN011 02/01 Q1000
                        TEMPO 4000 BR BKN008=
201303192350 METAR COR EGLL 192350Z 07006KT 6000 FEW010 03/01 Q0999 TEMPO
                        4000 BR BKN008=
201303192320 METAR COR EGLL 192320Z 05005KT 6000 NSC 03/01 Q0999 NOSIG=
201303192250 METAR COR EGLL 192250Z 05006KT 7000 NSC 03/01 Q0999 NOSIG=
201303192220 METAR COR EGLL 192220Z 03004KT 8000 NSC 04/01 Q0999 NOSIG=
201303192150 METAR COR EGLL 192150Z 08004KT 8000 NSC 03/01 Q0999 NOSIG=
201303192120 METAR COR EGLL 192120Z 07004KT CAVOK 04/01 Q0999 NOSIG=
201303192050 METAR COR EGLL 192050Z 07004KT 9000 NSC 03/01 Q0999 NOSIG=
201303192020 METAR EGLL 192020Z 08005KT 9000 NSC 03/01 Q0999=
201303191950 METAR COR EGLL 191950Z 10006KT CAVOK 03/01 Q0999 NOSIG=
201303191920 METAR COR EGLL 191920Z 10006KT 9999 FEW020 04/01 Q0998 NOSIG=
201303191850 METAR COR EGLL 191850Z 10007KT 9999 FEW020CB 04/01 Q0998
                        NOSIG=
201303191820 METAR COR EGLL 191820Z 10005KT 9999 SCT020CB 05/01 Q0998
                        NOSIG=
201303191750 METAR COR EGLL 191750Z 10007KT 9999 FEW020 06/01 Q0998 NOSIG=
201303191720 METAR EGLL 191720Z 09007KT 9999 FEW024 06/01 Q0998=
201303191650 METAR COR EGLL 191650Z 09007KT 9999 FEW024 07/01 Q0998 TEMPO
                        4500 SHRA=
201303191620 METAR COR EGLL 191620Z 09008KT 9999 FEW031 07/01 Q0998 TEMPO
                        4500 SHRA=
201303191550 METAR COR EGLL 191550Z 09009KT 9999 SCT030 07/01 Q0998 NOSIG=
201303191520 METAR COR EGLL 191520Z 08008KT 9999 FEW027 SCT032 08/02 Q0998
                        NOSIG=
201303191450 METAR COR EGLL 191450Z 10008KT 9999 SCT025 08/02 Q0998 NOSIG=
201303191420 METAR COR EGLL 191420Z 10007KT 070V140 9999 FEW023 SCT032
                        08/03 Q0998 NOSIG=
201303191350 METAR COR EGLL 191350Z 07006KT 040V120 9999 SCT022 SCT040
                        08/03 Q0998 NOSIG=
201303191320 METAR COR EGLL 191320Z 10005KT 060V150 9999 SCT019 BKN038
                        07/03 Q0998 NOSIG=
201303191250 METAR COR EGLL 191250Z 08004KT 050V110 9999 SCT018 BKN034
                        07/03 Q0998 NOSIG=
201303191220 METAR COR EGLL 191220Z 09004KT 040V130 9000 FEW014 BKN027
                        06/03 Q0998 NOSIG=
201303191150 METAR COR EGLL 191150Z 09005KT 9999 SCT015 BKN025 06/03 Q0998
                        NOSIG=
201303191120 METAR COR EGLL 191120Z 08004KT 050V110 9999 SCT012 BKN020
                        06/03 Q0998 NOSIG=
201303191050 METAR COR EGLL 191050Z 07004KT 9999 SCT013 SCT020 BKN028
                        06/03 Q0998 NOSIG=
201303191020 METAR COR EGLL 191020Z 07004KT 030V160 7000 BKN015 BKN027
                        06/03 Q0998 NOSIG=
201303190950 METAR COR EGLL 190950Z VRB03KT 7000 SCT015 BKN022 06/03 Q0998
                        NOSIG=
201303190920 METAR COR EGLL 190920Z 14004KT 6000 FEW008 BKN011 04/02 Q0998
                        BECMG SCT012=
201303190850 METAR COR EGLL 190850Z VRB02KT 6000 SCT008 BKN010 04/02 Q0997
                        BECMG SCT012=
201303190820 METAR COR EGLL 190820Z 06004KT 020V090 5000 HZ FEW006 BKN008
                        04/02 Q0997 BECMG SCT008 BKN012=
201303190750 METAR COR EGLL 190750Z VRB02KT 4500 HZ BKN008 04/02 Q0997
                        BECMG 6000 SCT008 BKN012=
201303190720 METAR COR EGLL 190720Z 09004KT 4500 HZ BKN008 04/02 Q0997
                        BECMG 6000 BKN012=
201303190650 METAR COR EGLL 190650Z VRB02KT 5000 HZ OVC008 03/02 Q0997
                        TEMPO 4000=
201303190620 METAR COR EGLL 190620Z VRB02KT 4500 HZ OVC007 03/02 Q0997
                        TEMPO 6000=
201303190550 METAR COR EGLL 190550Z VRB03KT 4200 HZ OVC007 03/02 Q0996
                        TEMPO 6000=
201303190520 METAR COR EGLL 190520Z VRB02KT 4000 HZ BKN008 03/02 Q0996
                        TEMPO 6000 FEW008=
201303190450 METAR COR EGLL 190450Z VRB03KT 3500 HZ BKN009 03/02 Q0996
                        TEMPO 6000 FEW009=
201303190350 METAR COR EGLL 190350Z VRB03KT 3600 HZ BKN008 03/02 Q0996
                        TEMPO 6000 FEW008=
201303190320 METAR COR EGLL 190320Z 05003KT 4000 HZ NSC 03/02 Q0995 TEMPO
                        6000=
201303190250 METAR EGLL 190250Z AUTO 09003KT 4400 HZ NCD 03/01 Q0995=
201303190220 METAR EGLL 190220Z AUTO 06005KT 4500 HZ FEW015/// OVC047///
                        03/02 Q0995=
201303190150 METAR EGLL 190150Z AUTO 05004KT 010V070 4000 HZ BKN015///
                        BKN028/// 03/02 Q0995=
201303190120 METAR EGLL 190120Z VRB03KT 4200 HZ FEW008 BKN015 03/02 Q0995=
201303190050 METAR COR EGLL 190050Z 03004KT 350V080 4000 HZ SCT007 BKN014
                        04/02 Q0995 TEMPO 6000=
201303190020 METAR COR EGLL 190020Z VRB03KT 3000 -DZ SCT008 SCT034 04/02
                        Q0995 TEMPO 6000 BKN008=
201303182350 METAR COR EGLL 182350Z 03004KT 350V060 2900 -DZ SCT006 SCT044
                        04/03 Q0994 TEMPO 4000=
201303182320 METAR COR EGLL 182320Z 36004KT 3000 -RADZ BKN007 BKN020 04/03
                        Q0994 TEMPO 6000 FEW007 BKN020=
201303182250 METAR COR EGLL 182250Z VRB03KT 5000 -RA BKN008 04/03 Q0994
                        TEMPO 4000=
201303182220 METAR COR EGLL 182220Z VRB03KT 9999 SCT020 SCT048 04/03 Q0994
                        NOSIG=
201303182150 METAR COR EGLL 182150Z VRB03KT 9999 -SHRA SCT028 SCT038 04/03
                        Q0994 NOSIG=
201303182120 METAR COR EGLL 182120Z 07005KT 9999 -SHRA FEW043 05/03 Q0993
                        NOSIG=
201303182050 METAR COR EGLL 182050Z 03003KT 9999 -SHRA SCT032 BKN040 04/03
                        Q0993 NOSIG=
201303182020 METAR COR EGLL 182020Z 05003KT 9999 -RA BKN024 BKN034 04/03
                        Q0993 TEMPO SHRA=
201303181950 METAR COR EGLL 181950Z 05005KT 9999 -RA BKN020 04/03 Q0993
                        TEMPO SHRA=
201303181920 METAR COR EGLL 181920Z 05004KT 9999 -SHRA SCT024 BKN029 05/03
                        Q0993 NOSIG=
201303181850 METAR COR EGLL 181850Z 05004KT 020V080 9999 -SHRA SCT022
                        BKN027 05/03 Q0993 NOSIG=
201303181820 METAR EGLL 181820Z AUTO VRB03KT 9999 -RA SCT023/// SCT033///
                        05/03 Q0992=
201303181750 METAR COR EGLL 181750Z 04004KT 350V070 9999 -SHRA FEW009
                        SCT030 05/03 Q0992 TEMPO SHRA=
201303181720 METAR COR EGLL 181720Z 04004KT 9999 -SHRA FEW010 SCT023CB
                        SCT030 05/03 Q0992 TEMPO SHRA BKN010=
201303181650 METAR COR EGLL 181650Z 07005KT 9999 -SHRA FEW009 SCT015CB
                        SCT021 05/03 Q0991 TEMPO SHRA BKN014CB=
201303181620 METAR COR EGLL 181620Z 07004KT 040V100 9999 -SHRA SCT011
                        SCT031CB BKN038 05/03 Q0991 TEMPO
                        SHRA BKN010=
201303181550 METAR COR EGLL 181550Z 14002KT 9999 7000SW -SHRA FEW010 SCT023CB
                        SCT032 05/02 Q0991 TEMPO SHRA BKN014CB=
201303181520 METAR EGLL 181520Z 10002KT 9999 -SHRA VCTS SCT010 BKN024CB
                        05/03 Q0991=
201303181450 METAR COR EGLL 181450Z 10004KT 080V140 7000 -SHRA FEW016
                        BKN023CB 05/03 Q0991 RERA TEMPO 4000
                        SHRA BKN014CB=
201303181420 METAR COR EGLL 181420Z 09010KT 8000 VCSH SCT020CB SCT037
                        06/03 Q0990 TEMPO 4000 SHRA BKN014CB=
201303181350 METAR EGLL 181350Z AUTO 08007KT 020V110 9999 SCT039/// BKN045///
                        07/03 Q0990=
201303181320 METAR EGLL 181320Z VRB03KT 9999 VCSH FEW020 BKN038 08/03
                        Q0990=
201303181250 METAR COR EGLL 181250Z VRB03KT 9999 FEW012 SCT037 07/04 Q0990
                        TEMPO BKN014=
201303181220 METAR COR EGLL 181220Z VRB03KT 9999 SCT012 SCT035 06/04 Q0990
                        TEMPO BKN014=
201303181150 METAR COR EGLL 181150Z 32004KT 9999 -SHRA FEW008 SCT034 06/04
                        Q0990 TEMPO BKN012=
201303181120 METAR COR EGLL 181120Z VRB03KT 9999 -SHRA FEW006 BKN010 06/04
                        Q0990 BECMG FEW010 SCT030=
201303181050 METAR COR EGLL 181050Z 06005KT 7000 FEW006 BKN010 05/04 Q0990
                        TEMPO SHRA BKN006=
201303181020 METAR COR EGLL 181020Z 06005KT 6000 FEW006 BKN009 06/04 Q0990
                        BECMG BKN010=
201303180950 METAR COR EGLL 180950Z VRB03KT 5000 -SHRA SCT006 BKN011 05/03
                        Q0990 TEMPO BKN006=
201303180920 METAR COR EGLL 180920Z 05004KT 4500 -SHRA HZ FEW008 SCT025
                        04/02 Q0990 TEMPO BKN006=
201303180850 METAR COR EGLL 180850Z VRB02KT 5000 HZ FEW010 SCT031 03/02
                        Q0990 NOSIG=
201303180820 METAR COR EGLL 180820Z 08004KT 5000 HZ FEW010 BKN030 03/02
                        Q0990 TEMPO -SHRA BKN008=
201303180750 METAR COR EGLL 180750Z 05004KT 4000 HZ VCFG VCSH BKN039 03/01
                        Q0990 BECMG 6000=
201303180720 METAR COR EGLL 180720Z 07003KT 4000 BR VCFG FEW018 BKN031
                        02/01 Q0990 TEMPO BKN003=
201303180650 METAR COR EGLL 180650Z 09004KT 050V120 6000 VCSH FEW027 BKN032
                        01/01 Q0990 TEMPO 4000=
201303180620 METAR COR EGLL 180620Z 17003KT 6000 FEW030 SCT033 00/M00
                        Q0990 TEMPO 4000 BR=
201303180550 METAR COR EGLL 180550Z 22003KT 3000 BR SCT044 M01/M01 Q0990
                        NOSIG=
201303180520 METAR COR EGLL 180520Z 22002KT 2600 BCFG BR FEW048 M01/M01
                        Q0990 TEMPO 0700 FZFG BKN001=
201303180450 METAR COR EGLL 180450Z 22002KT 2800 BCFG BR NSC M01/M01 Q0989
                        TEMPO 0700 FZFG BKN001=
201303180420 METAR EGLL 180420Z AUTO 23003KT 1000 BR NCD M00/M01 Q0989=
201303180350 METAR COR EGLL 180350Z 00000KT 2900 BR NSC M00/M01 Q0989
                        TEMPO 0700 FG BKN001=
201303180320 METAR COR EGLL 180320Z 04002KT 5000 BR NSC M01/M01 Q0989
                        BECMG 4000=
201303180250 METAR EGLL 180250Z AUTO 08002KT 1900 BR NCD M01/M01 Q0990=
201303180220 METAR EGLL 180220Z AUTO 08002KT 0600 FG NCD M01/M01 Q0990=
201303180150 METAR EGLL 180150Z AUTO 19002KT 5000 NCD 01/00 Q0990=
201303180120 METAR EGLL 180120Z 16003KT 2700 BR NSC 00/M00 Q0990=
201303180050 METAR COR EGLL 180050Z 00000KT 2000 BR NSC M00/M01 Q0990
                        TEMPO 0800=
201303180020 METAR COR EGLL 180020Z VRB02KT 2600 BR NSC 01/M00 Q0990 NOSIG=
201303172350 METAR COR EGLL 172350Z 18003KT 4500 BR NSC 01/00 Q0990 NOSIG=
201303172320 METAR COR EGLL 172320Z VRB03KT 5000 BR NSC 01/00 Q0990 BECMG
                        4000=
201303172250 METAR COR EGLL 172250Z 25007KT 6000 NSC 02/01 Q0990 BECMG
                        4000 BR=
201303172220 METAR COR EGLL 172220Z 28007KT 6000 NSC 02/01 Q0990 BECMG
                        4000 BR=
201303172150 METAR COR EGLL 172150Z 28006KT 8000 NSC 02/01 Q0989 NOSIG=
201303172120 METAR COR EGLL 172120Z 28007KT 9000 FEW007 02/01 Q0989 NOSIG=
201303172050 METAR COR EGLL 172050Z 28008KT 9999 SCT008 03/02 Q0989 NOSIG=
201303172020 METAR COR EGLL 172020Z 28007KT 9999 FEW007 03/02 Q0989 NOSIG=
201303171950 METAR COR EGLL 171950Z 29007KT 9999 FEW007 BKN046 04/02 Q0989
                        NOSIG=
201303171920 METAR COR EGLL 171920Z 30005KT 9999 -SHRA FEW006 SCT041 BKN049
                        04/02 Q0989 TEMPO BKN010=
201303171850 METAR COR EGLL 171850Z 31005KT 9999 -SHRA SCT008 BKN015 04/03
                        Q0988 TEMPO BKN008=
201303171820 METAR COR EGLL 171820Z 33004KT 300V360 9999 VCSH FEW006 SCT009
                        BKN017 04/03 Q0988 TEMPO BKN008=
201303171750 METAR COR EGLL 171750Z VRB03KT 9999 FEW007 BKN017 04/03 Q0988
                        TEMPO BKN008=
201303171720 METAR COR EGLL 171720Z 36004KT 9999 FEW007 SCT012 BKN021
                        05/03 Q0988 TEMPO SHRA BKN008=
201303171650 METAR COR EGLL 171650Z 36004KT 9999 VCSH FEW010CB BKN017
                        05/03 Q0988 TEMPO SHRA BKN008=
201303171620 METAR COR EGLL 171620Z 00000KT 9999 -SHRA FEW006 SCT010CB
                        BKN018 05/03 Q0988 TEMPO SHRA BKN007=
201303171550 METAR COR EGLL 171550Z VRB03KT 9999 VCSH FEW006 SCT010CB
                        BKN021 05/03 Q0988 TEMPO SHRA BKN007=
201303171520 METAR COR EGLL 171520Z VRB02KT 8000 -SHRA FEW007 SCT010CB
                        BKN016 05/03 Q0988 RERA TEMPO SHRA
                        BKN008=
201303171450 METAR COR EGLL 171450Z 30006KT 9999 -SHRA SCT010CB BKN019
                        BKN023 04/03 Q0988 TEMPO SHRA BKN010CB=
201303171420 METAR COR EGLL 171420Z 16009KT 9999 -SHRA FEW009CB SCT017
                        BKN025 06/04 Q0988 TEMPO 4000 SHRA
                        BKN010CB=
201303171350 METAR COR EGLL 171350Z 15012KT 9999 VCSH FEW010CB SCT011
                        BKN022 06/04 Q0988 TEMPO 4000 +SHRA
                        BKN010CB=
201303171320 METAR COR EGLL 171320Z 15010KT 9999 VCSH SCT011 BKN016 BKN020
                        07/05 Q0988 TEMPO SHRA BKN012=
201303171250 METAR COR EGLL 171250Z 16008KT 9999 -SHRA BKN014 BKN024 07/04
                        Q0988 NOSIG=
201303171220 METAR COR EGLL 171220Z 19012KT 9999 -SHRA FEW012 BKN014 BKN021
                        07/04 Q0989 NOSIG=
201303171150 METAR COR EGLL 171150Z 18010KT 150V210 9999 -SHRA BKN014
                        06/04 Q0989 TEMPO SHRA=
201303171120 METAR COR EGLL 171120Z 17013KT 9999 -SHRA BKN013 07/04 Q0989
                        TEMPO SHRA=
201303171050 METAR COR EGLL 171050Z 17013KT 9999 -SHRA FEW010 BKN013 07/04
                        Q0989 RESHRA TEMPO SHRA=
201303170950 METAR COR EGLL 170950Z 16011KT 9999 -SHRA FEW009 BKN012 07/05
                        Q0990 TEMPO SHRA=
201303170920 METAR COR EGLL 170920Z 17011KT 9999 SCT013 BKN017 07/04 Q0990
                        TEMPO SHRA BKN012=
201303170850 METAR COR EGLL 170850Z 16010KT 9999 7000NW -SHRA BKN010 06/04
                        Q0990 NOSIG=
201303170820 METAR COR EGLL 170820Z 15009KT 9999 VCSH FEW009 BKN015 06/05
                        Q0991 TEMPO SHRA BKN012=
201303170750 METAR COR EGLL 170750Z 14007KT 110V170 9999 BKN018 06/04
                        Q0991 TEMPO SHRA BKN014=
201303170720 METAR COR EGLL 170720Z 14006KT 090V170 9999 SCT024 BKN032
                        05/03 Q0991 TEMPO SHRA BKN014=
201303170650 METAR COR EGLL 170650Z 15006KT 110V200 9999 SCT023 BKN049
                        04/03 Q0991 TEMPO SHRA BKN014=
201303170620 METAR COR EGLL 170620Z 12005KT 080V170 9999 SCT016 03/02
                        Q0991 TEMPO SHRA BKN014=
201303170550 METAR COR EGLL 170550Z 10004KT 060V150 9999 FEW011 SCT015
                        03/02 Q0992 TEMPO SHRA BKN014=
201303170520 METAR COR EGLL 170520Z VRB02KT 9999 FEW013 SCT017 04/02 Q0992
                        TEMPO SHRA BKN014=
201303170450 METAR COR EGLL 170450Z 17004KT 9999 BKN028 03/02 Q0992 NOSIG=
201303170420 METAR COR EGLL 170420Z 17002KT 9999 SCT034 03/01 Q0992 NOSIG=
201303170350 METAR EGLL 170350Z AUTO 18005KT 9999 NCD 03/01 Q0992=
201303170320 METAR COR EGLL 170320Z 21004KT 9999 FEW020 03/02 Q0992 NOSIG=
201303170250 METAR COR EGLL 170250Z 23004KT 190V280 9999 FEW018 04/02
                        Q0993 NOSIG=
201303170220 METAR EGLL 170220Z AUTO 23006KT 9999 FEW014/// SCT016///
                        BKN020/// 04/02 Q0993=
201303170150 METAR EGLL 170150Z AUTO 23008KT 9999 BKN014/// 05/02 Q0993=
201303170120 METAR EGLL 170120Z AUTO 25009KT 9999 FEW017/// SCT025///
                        05/02 Q0993=
201303170050 METAR COR EGLL 170050Z 24013KT 9999 SCT029 06/02 Q0993 NOSIG=
201303170020 METAR COR EGLL 170020Z 21010KT 9999 SCT023 06/03 Q0993 NOSIG=
201303162350 METAR COR EGLL 162350Z 21010KT 9999 SCT030 06/03 Q0993 NOSIG=
201303162320 METAR COR EGLL 162320Z 22012KT 9999 FEW019 SCT032 06/03 Q0992
                        NOSIG=
201303162250 METAR EGLL 162250Z 21010KT 9999 FEW020 06/03 Q0992=
201303162220 METAR COR EGLL 162220Z 21010G25KT 170V240 9999 FEW015 SCT040
                        06/04 Q0992 NOSIG=
201303162150 METAR COR EGLL 162150Z 20010KT 180V240 9999 -SHRA SCT021
                        06/04 Q0992 NOSIG=
201303162120 METAR COR EGLL 162120Z 20014G25KT 9999 -SHRA FEW015 SCT020
                        05/03 Q0992 RESHRA NOSIG=
201303162050 METAR COR EGLL 162050Z 22012KT 180V250 8000 SHRA SCT013 BKN020
                        FEW040CB 06/04 Q0992 BECMG NSW=
201303162020 METAR COR EGLL 162020Z 16012KT 130V210 9999 8000NW -SHRA
                        VCTS FEW016 BKN020 FEW040CB 06/04
                        Q0992 TEMPO SHRA BKN012=
201303161950 METAR COR EGLL 161950Z 16011KT 130V210 9999 -SHRA SCT012
                        SCT020 06/04 Q0992 TEMPO SHRA BKN012=
201303161920 METAR COR EGLL 161920Z 15009KT 120V220 9999 FEW008 SCT012
                        BKN016 06/04 Q0993 TEMPO SHRA BKN012=
201303161850 METAR COR EGLL 161850Z 19007KT 120V240 9999 VCSH BKN012 BKN016
                        06/04 Q0993 TEMPO SHRA=
201303161820 METAR COR EGLL 161820Z 16012KT 130V220 9999 -SHRA FEW012CB
                        SCT013 BKN032 06/04 Q0993 RESHRA
                        TEMPO SHRA BKN014=
201303161750 METAR COR EGLL 161750Z 16013KT 130V220 9999 SCT016 SCT032
                        06/03 Q0993 TEMPO SHRA BKN014=
201303161720 METAR COR EGLL 161720Z 17013KT 140V210 9999 SCT016 06/03
                        Q0993 TEMPO SHRA BKN014=
201303161650 METAR COR EGLL 161650Z 18012KT 140V230 9999 BKN017 07/04
                        Q0993 TEMPO SHRA BKN014=
201303161620 METAR COR EGLL 161620Z 18013KT 150V240 9999 SCT017 SCT030
                        08/04 Q0993 TEMPO SHRA BKN014=
201303161550 METAR COR EGLL 161550Z 19015KT 150V230 9999 -SHRA FEW016
                        SCT030 07/05 Q0994 TEMPO SHRA BKN014=
201303161520 METAR COR EGLL 161520Z 18012KT 150V240 9999 FEW013 SCT028
                        07/05 Q0994 TEMPO SHRA BKN014=
201303161450 METAR COR EGLL 161450Z 18014KT 9999 VCSH SCT016 BKN020 08/04
                        Q0994 TEMPO SHRA BKN014=
201303161420 METAR COR EGLL 161420Z 18014KT 150V230 9999 8000E VCSH FEW016
                        SCT036 07/04 Q0994 TEMPO BKN014=
201303161350 METAR COR EGLL 161350Z 19013KT 9999 SCT018 08/04 Q0994 TEMPO
                        SHRA BKN014=
201303161320 METAR COR EGLL 161320Z 20011G23KT 9999 FEW018 SCT028 BKN034
                        08/05 Q0995 NOSIG=
201303161250 METAR COR EGLL 161250Z 19012KT 9999 SCT018 07/04 Q0995 NOSIG=
201303161220 METAR COR EGLL 161220Z 21010KT 9999 BKN041 07/05 Q0995 NOSIG=
201303161150 METAR COR EGLL 161150Z 20013KT 9999 FEW012 SCT023 BKN043
                        07/05 Q0995 TEMPO BKN012=
201303161120 METAR COR EGLL 161120Z 20015G28KT 9000 -RA FEW011 BKN014
                        06/05 Q0995 BECMG SCT018=
201303161050 METAR COR EGLL 161050Z 19017G27KT 9999 -RA BKN013 06/05 Q0995
                        TEMPO RA=
201303161020 METAR COR EGLL 161020Z 19019G29KT 9999 -RA BKN014 06/04 Q0995
                        TEMPO RA=
201303160950 METAR COR EGLL 160950Z 18018KT 9999 -RA BKN013 06/04 Q0995
                        TEMPO RA=
201303160920 METAR COR EGLL 160920Z 18017KT 9999 -RA SCT014 BKN019 06/04
                        Q0995 TEMPO RA BKN012=
201303160850 METAR COR EGLL 160850Z 18020G30KT 9999 -RA SCT016 BKN020
                        07/04 Q0995 TEMPO RA BKN012=
201303160820 METAR COR EGLL 160820Z 18020KT 9999 -RA FEW013 BKN019 06/04
                        Q0996 TEMPO RA BKN012=
201303160750 METAR COR EGLL 160750Z 19019G31KT 9999 -RA FEW013 SCT018
                        BKN021 06/04 Q0996 TEMPO RA BKN012=
201303160720 METAR COR EGLL 160720Z 19017G27KT 9999 -RA SCT013 BKN019
                        06/04 Q0996 NOSIG=
201303160650 METAR COR EGLL 160650Z 18015KT 9999 -RA SCT015 BKN020 06/04
                        Q0996 TEMPO RA BKN012=
201303160620 METAR COR EGLL 160620Z 19019G32KT 9999 -RA SCT016 BKN021
                        06/04 Q0997 BECMG RA BKN012=
201303160550 METAR COR EGLL 160550Z 19017KT 9999 -RA SCT016 SCT023 06/04
                        Q0997 TEMPO RA BKN012=
201303160520 METAR COR EGLL 160520Z 19017KT 9999 -RA FEW016 SCT022 06/04
                        Q0997 BECMG BKN012=
201303160450 METAR COR EGLL 160450Z 19017KT 9999 -RA BKN016 07/04 Q0998
                        BECMG BKN012=
201303160420 METAR COR EGLL 160420Z 19017G27KT 9999 -RA SCT016 07/04 Q0998
                        BECMG BKN012=
201303160350 METAR COR EGLL 160350Z 19016KT 9999 -RA SCT014 BKN020 07/04
                        Q0998 BECMG BKN012=
201303160320 METAR COR EGLL 160320Z 19017KT 9999 FEW016 07/04 Q0998 TEMPO
                        BKN014=
201303160250 METAR COR EGLL 160250Z 20014KT 9999 SCT016 BKN020 07/05 Q0999
                        TEMPO BKN014=
201303160220 METAR EGLL 160220Z AUTO 20016KT 9999 BKN016/// BKN024///
                        07/05 Q0999=
201303160150 METAR EGLL 160150Z AUTO 20017KT 9999 -DZ BKN015/// BKN022///
                        07/05 Q1000=
201303160120 METAR EGLL 160120Z AUTO 20013KT 9999 BKN016/// 07/05 Q1000=
201303160050 METAR COR EGLL 160050Z 20013KT 9999 -RA FEW014 BKN018 07/05
                        Q1000 TEMPO BKN014=
201303160020 METAR COR EGLL 160020Z 20012KT 9999 -RA FEW012 SCT020 07/05
                        Q1001 TEMPO BKN014=
201303152350 METAR COR EGLL 152350Z 20015KT 9999 FEW012 SCT035 07/05 Q1001
                        TEMPO BKN014=
201303152320 METAR COR EGLL 152320Z 20016KT 9000 -RA SCT014 BKN020 07/05
                        Q1001 TEMPO BKN012=
201303152250 METAR EGLL 152250Z 21014KT 9999 -RA SCT014 BKN018 07/05 Q1001=
201303152220 METAR COR EGLL 152220Z 20013KT 9999 -RA SCT014 BKN018 07/05
                        Q1001 TEMPO BKN014=
201303152150 METAR COR EGLL 152150Z 19014KT 160V240 9999 -RA FEW012 SCT018
                        07/05 Q1002 TEMPO BKN014=
201303152120 METAR COR EGLL 152120Z 19013KT 170V240 9999 -RA FEW012 SCT029
                        07/05 Q1002 TEMPO BKN014=
201303152050 METAR COR EGLL 152050Z 20011KT 9999 -RA FEW016 SCT023 07/05
                        Q1002 TEMPO BKN014=
201303152020 METAR COR EGLL 152020Z 21012KT 9999 -RA FEW011 SCT015 BKN022
                        07/05 Q1003 TEMPO BKN014=
201303151950 METAR COR EGLL 151950Z 20011KT 170V250 9000 -RA SCT012 BKN014
                        06/05 Q1003 TEMPO SCT014 BKN025=
201303151920 METAR COR EGLL 151920Z 21011KT 180V250 9999 -RA FEW012 SCT015
                        BKN021 07/05 Q1003 TEMPO BKN014=
201303151850 METAR COR EGLL 151850Z 20013KT 9999 -RA FEW014 BKN018 07/05
                        Q1003 TEMPO BKN014=
201303151820 METAR COR EGLL 151820Z 20014KT 180V240 9000 -RA FEW014 BKN019
                        07/05 Q1004 TEMPO BKN014=
201303151750 METAR COR EGLL 151750Z 20012KT 180V240 9000 -RA BKN015 BKN019
                        07/05 Q1004 RERA TEMPO BKN012=
201303151720 METAR COR EGLL 151720Z 21013KT 9999 RA BKN017 BKN022 07/05
                        Q1004 RERA TEMPO RA BKN014=
201303151650 METAR EGLL 151650Z 21014KT 9999 -RA SCT018 BKN020 08/05 Q1004=
201303151620 METAR COR EGLL 151620Z 20014KT 9999 FEW015 SCT020 BKN029
                        08/05 Q1004 TEMPO -RA BKN014=
201303151550 METAR COR EGLL 151550Z 19015KT 170V230 9999 -RA FEW015 SCT017
                        BKN025 07/05 Q1004 TEMPO -RA BKN014=
201303151520 METAR COR EGLL 151520Z 21015KT 9999 SCT022 BKN025 08/04 Q1004
                        TEMPO -RA BKN014=
201303151450 METAR COR EGLL 151450Z 21014KT 9999 -RA SCT020 BKN027 09/05
                        Q1005 TEMPO RA BKN014=
201303151420 METAR COR EGLL 151420Z 21014KT 9999 SCT020 BKN025 09/05 Q1005
                        NOSIG=
201303151350 METAR COR EGLL 151350Z 21014KT 9999 SCT021 BKN023 09/05 Q1005
                        NOSIG=
201303151320 METAR EGLL 151320Z 22014KT 9999 SCT019 BKN023 09/05 Q1006=
201303151250 METAR COR EGLL 151250Z 20013KT 9999 FEW014 SCT016 BKN020
                        08/05 Q1006 RERA TEMPO RA BKN014=
201303151220 METAR COR EGLL 151220Z 21012KT 9999 6000NE -SHRA SCT016 BKN026
                        07/05 Q1007 TEMPO RA BKN014=
201303151150 METAR COR EGLL 151150Z 21013KT 150V240 9999 SCT022 SCT026
                        09/04 Q1007 TEMPO RA BKN014=
201303151120 METAR COR EGLL 151120Z 20014KT 9999 SCT019 SCT025 08/04 Q1007
                        NOSIG=
201303151050 METAR COR EGLL 151050Z 21013KT 9999 SCT019 BKN023 08/04 Q1008
                        NOSIG=
201303151020 METAR COR EGLL 151020Z 21011KT 9999 SCT016 BKN020 08/04 Q1008
                        NOSIG=
201303150950 METAR EGLL 150950Z 21011KT 9999 BKN020 07/04 Q1008=
201303150920 METAR COR EGLL 150920Z 21011KT 9999 SCT018 SCT022 07/04 Q1008
                        NOSIG=
201303150850 METAR COR EGLL 150850Z 21010KT 9999 SCT020 06/04 Q1009 NOSIG=
201303150820 METAR COR EGLL 150820Z 21009KT 9999 FEW014 SCT019 05/03 Q1009
                        NOSIG=
201303150750 METAR COR EGLL 150750Z 21008KT 180V250 9999 SCT023 05/03
                        Q1009 NOSIG=
201303150720 METAR COR EGLL 150720Z 21008KT 180V250 9999 -RA FEW026 BKN035
                        04/03 Q1009 NOSIG=
201303150650 METAR COR EGLL 150650Z 20008KT 180V250 9999 -RA SCT020 SCT034
                        04/02 Q1009 NOSIG=
201303150620 METAR COR EGLL 150620Z 19008KT 170V240 9999 -RA BKN019 03/02
                        Q1009 NOSIG=
201303150550 METAR COR EGLL 150550Z 22007KT 9999 -RA BKN018 03/01 Q1010
                        NOSIG=
201303150520 METAR COR EGLL 150520Z 21008KT 9999 -RA SCT021 03/00 Q1010
                        NOSIG=
201303150450 METAR COR EGLL 150450Z 21007KT 9999 SCT025 03/M00 Q1010 NOSIG=
201303150420 METAR COR EGLL 150420Z 21007KT 9999 -RA SCT030 03/M01 Q1010
                        NOSIG=
201303150350 METAR COR EGLL 150350Z 20007KT 9999 FEW035 03/M01 Q1011 NOSIG=
201303150320 METAR COR EGLL 150320Z 21008KT 9999 FEW041 03/M02 Q1011 NOSIG=
201303150250 METAR COR EGLL 150250Z 20007KT 9999 SCT041 03/M02 Q1011 NOSIG=
201303150220 METAR EGLL 150220Z AUTO 19007KT 9999 BKN040/// 03/M02 Q1012=
201303150150 METAR EGLL 150150Z AUTO 21006KT 9999 BKN042/// 03/M02 Q1012=
201303150120 METAR EGLL 150120Z AUTO 21005KT 9999 FEW047/// 03/M03 Q1013=
201303150050 METAR COR EGLL 150050Z 21005KT 190V260 9999 FEW031 03/M03
                        Q1013 NOSIG=
201303150020 METAR COR EGLL 150020Z 23007KT CAVOK 03/M03 Q1013 NOSIG=
201303142350 METAR COR EGLL 142350Z 21006KT CAVOK 03/M04 Q1013 NOSIG=
201303142320 METAR COR EGLL 142320Z 24007KT CAVOK 03/M05 Q1014 NOSIG=
201303142250 METAR COR EGLL 142250Z 25011KT CAVOK 04/M04 Q1014 NOSIG=
201303142220 METAR COR EGLL 142220Z 25010KT CAVOK 04/M04 Q1014 NOSIG=
201303142150 METAR COR EGLL 142150Z 25009KT 9999 FEW049 05/M05 Q1014 NOSIG=
201303142120 METAR COR EGLL 142120Z 25009KT CAVOK 05/M06 Q1014 NOSIG=
201303142050 METAR COR EGLL 142050Z 25010KT CAVOK 05/M06 Q1015 NOSIG=
201303142020 METAR COR EGLL 142020Z 23009KT CAVOK 05/M06 Q1015 NOSIG=
201303141950 METAR COR EGLL 141950Z 22007KT 190V260 CAVOK 05/M06 Q1015
                        NOSIG=
201303141920 METAR COR EGLL 141920Z 24008KT CAVOK 05/M07 Q1015 NOSIG=
201303141850 METAR COR EGLL 141850Z 25008KT CAVOK 05/M07 Q1015 NOSIG=
201303141820 METAR COR EGLL 141820Z 27007KT CAVOK 06/M07 Q1015 NOSIG=
201303141750 METAR COR EGLL 141750Z 30004KT 270V330 CAVOK 06/M07 Q1015
                        NOSIG=
201303141720 METAR COR EGLL 141720Z VRB03KT CAVOK 06/M07 Q1015 NOSIG=
201303141650 METAR COR EGLL 141650Z 29006KT CAVOK 06/M07 Q1015 NOSIG=
201303141620 METAR COR EGLL 141620Z 30008KT CAVOK 06/M07 Q1015 NOSIG=
201303141550 METAR COR EGLL 141550Z 34004KT 290V040 CAVOK 07/M07 Q1015
                        NOSIG=
201303141520 METAR COR EGLL 141520Z 30006KT 270V340 CAVOK 06/M07 Q1015
                        NOSIG=
201303141450 METAR COR EGLL 141450Z 33005KT 290V350 CAVOK 06/M06 Q1015
                        NOSIG=
201303141420 METAR COR EGLL 141420Z 30007KT 260V340 9999 SCT048 06/M06
                        Q1016 NOSIG=
201303141350 METAR COR EGLL 141350Z 31006KT 270V020 9999 SCT044 06/M06
                        Q1016 NOSIG=
201303141320 METAR COR EGLL 141320Z 33005KT 250V030 9999 SCT040 SCT046
                        06/M04 Q1016 NOSIG=
201303141250 METAR COR EGLL 141250Z VRB04KT 9999 SCT039 06/M04 Q1016 NOSIG=
201303141220 METAR COR EGLL 141220Z 32006KT 280V010 9999 SCT036 06/M03
                        Q1017 NOSIG=
201303141150 METAR COR EGLL 141150Z 32005KT 200V360 9999 FEW032 SCT040
                        05/M03 Q1017 NOSIG=
201303141120 METAR COR EGLL 141120Z 34004KT 280V030 9999 FEW030 SCT038
                        05/M03 Q1017 NOSIG=
201303141050 METAR COR EGLL 141050Z 35005KT 290V030 9999 SCT024 04/M02
                        Q1017 NOSIG=
201303141020 METAR COR EGLL 141020Z 34005KT 230V040 9999 SCT022 04/M02
                        Q1017 NOSIG=
201303140950 METAR COR EGLL 140950Z 01005KT 340V050 9999 SCT018 04/M01
                        Q1017 NOSIG=
201303140850 METAR COR EGLL 140850Z VRB02KT 8000 R27R/1200 NSC 02/M01
                        Q1017 NOSIG=
201303140820 METAR COR EGLL 140820Z VRB03KT 7000 R27R/1200 NSC 01/M02
                        Q1017 NOSIG=
201303140750 METAR COR EGLL 140750Z VRB03KT 7000 R27R/1200 NSC 00/M02
                        Q1016 NOSIG=
201303140720 METAR COR EGLL 140720Z 30003KT 7000 R27R/1400 NSC M01/M02
                        Q1016 NOSIG=
201303140650 METAR EGLL 140650Z VRB02KT 6000 NSC M01/M03 Q1016=
201303140620 METAR COR EGLL 140620Z 28004KT 6000 NSC M02/M03 Q1016 NOSIG=
201303140550 METAR COR EGLL 140550Z 28004KT 6000 NSC M02/M03 Q1016 NOSIG=
201303140520 METAR COR EGLL 140520Z VRB02KT 7000 NSC M02/M03 Q1016 NOSIG=
201303140450 METAR COR EGLL 140450Z 31004KT 7000 NSC M02/M03 Q1015 NOSIG=
201303140420 METAR COR EGLL 140420Z 31004KT 7000 NSC M02/M03 Q1015 NOSIG=
201303140350 METAR COR EGLL 140350Z 30004KT 7000 NSC M02/M03 Q1015 NOSIG=
201303140320 METAR EGLL 140320Z AUTO 32003KT 7000 NCD M01/M03 Q1015=
201303140250 METAR EGLL 140250Z AUTO VRB03KT 7000 NCD M01/M03 Q1015=
201303140220 METAR EGLL 140220Z AUTO 29004KT 7000 NCD M01/M03 Q1015=
201303140150 METAR COR EGLL 140150Z VRB03KT 8000 NSC M01/M03 Q1015 NOSIG=
201303140120 METAR COR EGLL 140120Z 31003KT 8000 NSC M01/M03 Q1015 NOSIG=
201303140050 METAR COR EGLL 140050Z 32003KT 9000 NSC M01/M02 Q1015 NOSIG=
201303140020 METAR COR EGLL 140020Z 31004KT CAVOK M00/M02 Q1015 NOSIG=
201303132350 METAR COR EGLL 132350Z 31005KT CAVOK M00/M02 Q1015 NOSIG=
201303132320 METAR COR EGLL 132320Z 31004KT CAVOK 00/M02 Q1014 NOSIG=
201303132250 METAR COR EGLL 132250Z VRB03KT CAVOK 01/M02 Q1014 NOSIG=
201303132220 METAR COR EGLL 132220Z VRB03KT CAVOK 01/M01 Q1014 NOSIG=
201303132150 METAR COR EGLL 132150Z 32003KT CAVOK 01/M01 Q1014 NOSIG=
201303132120 METAR COR EGLL 132120Z 34004KT 290V010 CAVOK 02/M01 Q1014
                        NOSIG=
201303132050 METAR COR EGLL 132050Z 36005KT 330V030 CAVOK 02/M01 Q1013
                        NOSIG=
201303132020 METAR COR EGLL 132020Z 01005KT 320V040 CAVOK 02/M01 Q1013
                        NOSIG=
201303131950 METAR COR EGLL 131950Z 01005KT 330V060 9999 VCSH FEW030 02/M01
                        Q1013 TEMPO SHRASN=
201303131920 METAR EGLL 131920Z AUTO 36004KT 330V040 9999 NCD 03/M02 Q1013=
201303131850 METAR COR EGLL 131850Z 36006KT CAVOK 03/M01 Q1012 NOSIG=
201303131820 METAR COR EGLL 131820Z 36008KT 340V040 9999 VCSH FEW035 03/M01
                        Q1012 NOSIG=
201303131750 METAR COR EGLL 131750Z 04009KT 350V060 9999 VCSH FEW035 04/M01
                        Q1012 NOSIG=
201303131720 METAR COR EGLL 131720Z 32007KT 9999 VCSH FEW030 05/M05 Q1011
                        NOSIG=
201303131650 METAR COR EGLL 131650Z 35005KT 300V040 9999 FEW030 05/M04
                        Q1011 NOSIG=
201303131620 METAR COR EGLL 131620Z 36007KT 340V040 9999 -SHRASN FEW030
                        06/M04 Q1010 NOSIG=
201303131550 METAR COR EGLL 131550Z 01009KT 330V040 9999 VCSH FEW030 07/M04
                        Q1010 NOSIG=
201303131520 METAR COR EGLL 131520Z 32009KT 9999 VCSH FEW030 06/M05 Q1010
                        NOSIG=
201303131450 METAR EGLL 131450Z 34009KT 300V030 9999 FEW030 07/M05 Q1010=
201303131420 METAR COR EGLL 131420Z 34009KT 290V020 9999 VCSH FEW030 SCT045
                        07/M05 Q1010 NOSIG=
201303131350 METAR EGLL 131350Z AUTO 35007KT 310V030 9999 FEW025/// SCT046///
                        06/M04 Q1010=
201303131320 METAR COR EGLL 131320Z 35008KT 310V070 9999 VCSH SCT046 07/M05
                        Q1010 NOSIG=
201303131250 METAR COR EGLL 131250Z 33009KT 290V010 9999 VCSH SCT042 06/M04
                        Q1011 NOSIG=
201303131220 METAR COR EGLL 131220Z 34009KT 310V010 9999 SCT037 SCT044
                        06/M04 Q1011 NOSIG=
201303131150 METAR COR EGLL 131150Z 36008KT 330V030 9999 SCT034 SCT045
                        06/M03 Q1011 NOSIG=
201303131120 METAR COR EGLL 131120Z 01008KT 330V040 9999 SCT033 SCT041
                        06/M03 Q1011 NOSIG=
201303131050 METAR EGLL 131050Z AUTO 35009KT 300V020 9999 SCT032/// SCT037///
                        06/M03 Q1010=
201303131020 METAR COR EGLL 131020Z 33010KT 310V030 9999 SCT028 05/M03
                        Q1010 NOSIG=
201303130950 METAR COR EGLL 130950Z 36008KT 320V040 9999 FEW027 05/M02
                        Q1010 NOSIG=
201303130920 METAR COR EGLL 130920Z 36010KT 9999 FEW025 04/M02 Q1010 NOSIG=
201303130850 METAR COR EGLL 130850Z 35007KT 310V030 9999 FEW024 03/M02
                        Q1010 NOSIG=
201303130820 METAR COR EGLL 130820Z 32008KT 290V350 CAVOK 03/M02 Q1010
                        NOSIG=
201303130750 METAR COR EGLL 130750Z 32006KT CAVOK 02/M02 Q1010 NOSIG=
201303130720 METAR COR EGLL 130720Z 34005KT 300V020 CAVOK 02/M02 Q1009
                        NOSIG=
201303130650 METAR COR EGLL 130650Z 32005KT CAVOK 01/M03 Q1009 NOSIG=
201303130620 METAR EGLL 130620Z 31005KT 280V350 CAVOK 01/M03 Q1009=
201303130550 METAR COR EGLL 130550Z VRB02KT CAVOK 01/M03 Q1009 NOSIG=
201303130520 METAR COR EGLL 130520Z 32004KT 290V350 CAVOK 01/M03 Q1009
                        NOSIG=
201303130450 METAR COR EGLL 130450Z VRB03KT CAVOK 01/M03 Q1009 NOSIG=
201303130350 METAR EGLL 130350Z AUTO 33005KT 300V020 9999 NCD 02/M03 Q1009=
201303130320 METAR EGLL 130320Z AUTO 33006KT 300V010 9999 NCD 02/M03 Q1009=
201303130250 METAR EGLL 130250Z AUTO 34005KT 310V010 9999 NCD 02/M03 Q1009=
201303130220 METAR EGLL 130220Z AUTO 34005KT 310V010 9999 NCD 02/M03 Q1009=
201303130150 METAR EGLL 130150Z AUTO 33007KT 300V360 9999 NCD 02/M03 Q1009=
201303130120 METAR EGLL 130120Z AUTO 33006KT 9999 NCD 03/M02 Q1009=
201303130050 METAR EGLL 130050Z AUTO 33007KT 300V010 9999 NCD 03/M02 Q1009=
201303130020 METAR EGLL 130020Z AUTO 31006KT 9999 NCD 02/M01 Q1009=
201303122350 METAR COR EGLL 122350Z 32004KT 300V360 CAVOK 02/M01 Q1010
                        NOSIG=
201303122320 METAR COR EGLL 122320Z 32004KT CAVOK 02/M01 Q1010 NOSIG=
201303122250 METAR COR EGLL 122250Z 35005KT 9999 FEW035 02/M00 Q1010 NOSIG=
201303122220 METAR COR EGLL 122220Z 35004KT 290V020 9999 FEW013 02/M00
                        Q1010 NOSIG=
201303122150 METAR COR EGLL 122150Z 36006KT 330V040 9999 FEW014 SCT032
                        02/M01 Q1010 NOSIG=
201303122120 METAR COR EGLL 122120Z 36007KT 330V050 9999 FEW020 SCT034
                        03/M01 Q1010 NOSIG=
201303122050 METAR COR EGLL 122050Z 36005KT 9999 FEW020 02/M01 Q1010 NOSIG=
201303122020 METAR EGLL 122020Z 35005KT 320V020 9999 FEW021 SCT040 03/M02
                        Q1010=
201303121950 METAR COR EGLL 121950Z 35005KT 9999 FEW020 SCT043 02/M02
                        Q1010 NOSIG=
201303121920 METAR EGLL 121920Z 36005KT 310V030 9999 SCT023 SCT043 02/M02
                        Q1010=
201303121850 METAR EGLL 121850Z AUTO 36007KT 9999 SCT030/// BKN034///
                        03/M02 Q1010=
201303121820 METAR COR EGLL 121820Z 36007KT 310V030 9999 FEW041 03/M03
                        Q1010 NOSIG=
201303121750 METAR COR EGLL 121750Z 36007KT 330V040 9999 FEW040 03/M03
                        Q1010 NOSIG=
201303121720 METAR COR EGLL 121720Z 36009KT 330V030 9999 FEW020 SCT042
                        03/M03 Q1010 NOSIG=
201303121650 METAR COR EGLL 121650Z 03010KT 9999 FEW020 SCT042 04/M06
                        Q1009 NOSIG=
201303121620 METAR COR EGLL 121620Z 03011KT 350V070 9999 FEW042 04/M06
                        Q1009 NOSIG=
201303121550 METAR COR EGLL 121550Z 04009KT 350V070 9999 FEW045 04/M06
                        Q1009 NOSIG=
201303121520 METAR COR EGLL 121520Z 03012KT 350V070 9999 FEW045 04/M07
                        Q1009 NOSIG=
201303121450 METAR COR EGLL 121450Z 04013KT 9999 FEW045 05/M08 Q1009 TEMPO
                        04015G25KT=
201303121420 METAR COR EGLL 121420Z 04013KT 350V070 9999 FEW045 04/M08
                        Q1009 TEMPO 04015G25KT=
201303121350 METAR EGLL 121350Z AUTO 04016KT 360V080 9999 SCT047/// 04/M08
                        Q1009=
201303121320 METAR EGLL 121320Z 03013KT 340V070 9999 SCT047 04/M08 Q1009=
201303121250 METAR COR EGLL 121250Z 03012KT 360V090 9999 SCT045 04/M08
                        Q1010 TEMPO 03015G25KT=
201303121220 METAR COR EGLL 121220Z 06016G27KT 020V080 9999 SCT048 04/M09
                        Q1010 NOSIG=
201303121150 METAR COR EGLL 121150Z 06016KT 9999 SCT048 03/M10 Q1010 TEMPO
                        06018G28KT=
201303121120 METAR EGLL 121120Z AUTO 05015KT 9999 SCT047/// 03/M10 Q1010=
201303121050 METAR EGLL 121050Z 05015KT 9999 FEW046 02/M10 Q1010=
201303121020 METAR COR EGLL 121020Z 06016G27KT 9999 FEW044 01/M10 Q1010
                        NOSIG=
201303120950 METAR COR EGLL 120950Z 05016G28KT 9999 FEW040 01/M10 Q1010
                        NOSIG=
201303120920 METAR COR EGLL 120920Z 04015G27KT 010V070 9999 FEW038 00/M10
                        Q1010 NOSIG=
201303120850 METAR COR EGLL 120850Z 04015KT 010V100 9999 FEW048 M00/M09
                        Q1009 NOSIG=
201303120820 METAR COR EGLL 120820Z 04011G22KT 360V070 9999 FEW043 M01/M08
                        Q1009 NOSIG=
201303120750 METAR COR EGLL 120750Z 03012KT 340V060 9999 FEW043 BKN048
                        M01/M08 Q1009 NOSIG=
201303120720 METAR COR EGLL 120720Z 03011KT 360V060 9999 SCT049 M01/M08
                        Q1009 NOSIG=
201303120650 METAR COR EGLL 120650Z 03012KT 9999 SCT049 M01/M08 Q1008
                        NOSIG=
201303120620 METAR COR EGLL 120620Z 03012G22KT 350V080 9999 SCT049 M01/M08
                        Q1008 NOSIG=
201303120550 METAR COR EGLL 120550Z 03012G23KT 360V070 9999 BKN047 M01/M08
                        Q1008 NOSIG=
201303120520 METAR COR EGLL 120520Z 03013G23KT 9999 SCT039 M02/M08 Q1008
                        NOSIG=
201303120450 METAR COR EGLL 120450Z 03012KT 350V060 9999 SCT034 M02/M08
                        Q1007 NOSIG=
201303120420 METAR COR EGLL 120420Z 03013KT 360V060 9999 -SN SCT032 M02/M07
                        Q1007 NOSIG=
201303120350 METAR COR EGLL 120350Z 04013KT 360V060 9000 -SN FEW028 BKN038
                        M02/M07 Q1007 NOSIG=
201303120320 METAR EGLL 120320Z AUTO 04012KT 360V060 9999 -SN BKN027///
                        M02/M07 Q1007=
201303120250 METAR EGLL 120250Z AUTO 04012KT 360V070 9999 -SN BKN028///
                        BKN035/// M02/M06 Q1007=
201303120220 METAR EGLL 120220Z AUTO 03012G23KT 360V080 5000 -SN FEW022///
                        SCT028/// M02/M06 Q1007=
201303120150 METAR COR EGLL 120150Z 03013G26KT 9999 -SN FEW031 SCT041
                        M02/M07 Q1007 NOSIG=
201303120120 METAR COR EGLL 120120Z 04012KT 360V070 9000 BKN024 M02/M06
                        Q1008 NOSIG=
201303120050 METAR COR EGLL 120050Z 04013KT 360V060 9999 SCT024 SCT034
                        M02/M06 Q1008 NOSIG=
201303120020 METAR COR EGLL 120020Z 04014KT 9999 SCT023 M02/M07 Q1008
                        NOSIG=
201303112350 METAR COR EGLL 112350Z 04013KT 010V070 9999 SCT024 SCT030
                        M02/M06 Q1008 NOSIG=
201303112320 METAR COR EGLL 112320Z 04013G24KT 360V070 9999 SCT026 M02/M07
                        Q1008 NOSIG=
201303112250 METAR COR EGLL 112250Z 04013KT 9999 FEW026 M02/M07 Q1008
                        NOSIG=
201303112220 METAR COR EGLL 112220Z 04013KT 9999 FEW030 M02/M07 Q1008
                        NOSIG=
201303112150 METAR COR EGLL 112150Z 05013G25KT 9999 FEW030 M01/M07 Q1008
                        NOSIG=
201303112120 METAR COR EGLL 112120Z 04013KT 360V070 9999 SCT028 M01/M07
                        Q1008 NOSIG=
201303112050 METAR COR EGLL 112050Z 05015G27KT 020V080 9999 SCT027 M01/M07
                        Q1008 NOSIG=
201303112020 METAR COR EGLL 112020Z 05014KT 010V080 9999 BKN027 BKN035
                        M01/M07 Q1008 NOSIG=
201303111950 METAR COR EGLL 111950Z 05016G27KT 020V080 9999 -SN FEW018
                        SCT047 M01/M07 Q1008 NOSIG=
201303111920 METAR COR EGLL 111920Z 05016G26KT 9999 SCT031 SCT045 M01/M07
                        Q1008 NOSIG=
201303111850 METAR COR EGLL 111850Z 05013KT 360V080 9999 SCT031 M01/M07
                        Q1007 TEMPO 05018G28KT=
201303111820 METAR COR EGLL 111820Z 05014G24KT 9999 FEW032 M00/M07 Q1007
                        NOSIG=
201303111750 METAR COR EGLL 111750Z 05016G29KT 9999 SCT036 M00/M08 Q1007
                        NOSIG=
201303111720 METAR COR EGLL 111720Z 05016KT 9999 SCT038 M00/M08 Q1007
                        TEMPO 05020G30KT=
201303111650 METAR COR EGLL 111650Z 06016G27KT 9999 FEW041 SCT048 M00/M09
                        Q1007 NOSIG=
201303111620 METAR COR EGLL 111620Z 06018G28KT 9999 BKN034 M00/M08 Q1007
                        NOSIG=
201303111550 METAR COR EGLL 111550Z 06016G26KT 9999 SCT035 M00/M08 Q1007
                        TEMPO -SHSN=
201303111520 METAR COR EGLL 111520Z 06015KT 9999 FEW030 SCT036 M00/M07
                        Q1007 TEMPO 06018G30KT -SHSN=
201303111450 METAR COR EGLL 111450Z 06017G29KT 9999 VCSH FEW020 BKN044
                        00/M08 Q1007 TEMPO -SHSN=
201303111420 METAR COR EGLL 111420Z 06017KT 9999 SCT031 00/M07 Q1007 TEMPO
                        -SHSN 06018G28KT=
201303111350 METAR COR EGLL 111350Z 06016G26KT 9999 FEW030 SCT034 01/M06
                        Q1007 NOSIG=
201303111320 METAR COR EGLL 111320Z 06017G27KT 9999 FEW027 SCT033 01/M06
                        Q1007 NOSIG=
201303111250 METAR COR EGLL 111250Z 06017KT 9999 -SHSN SCT027 SCT034 00/M06
                        Q1008 TEMPO 06018G30KT=
201303111220 METAR COR EGLL 111220Z 06018KT 030V090 9999 -SHSN FEW025
                        BKN030 01/M05 Q1008 TEMPO 06020G30KT=
201303111150 METAR COR EGLL 111150Z 06018KT 9999 SCT025 BKN031 00/M05
                        Q1008 TEMPO 06020G30KT -SHSN=
201303111120 METAR COR EGLL 111120Z 06016G30KT 9999 7000SW -SN SCT015
                        BKN030 M01/M04 Q1008 TEMPO 4000=
201303111050 METAR COR EGLL 111050Z 06018KT 9999 4000NE -SHSN FEW022 BKN027
                        M00/M05 Q1008 TEMPO 06020G32KT 3000=
201303111020 METAR COR EGLL 111020Z 06016G30KT 9999 5000E -SHSN FEW022
                        BKN033 00/M06 Q1008 TEMPO 3000=
201303110950 METAR COR EGLL 110950Z 06017KT 020V080 9999 FEW025 BKN034
                        00/M06 Q1007 TEMPO 06020G30KT -SHSN=
201303110920 METAR COR EGLL 110920Z 06018KT 9999 SCT026 00/M06 Q1007 TEMPO
                        07020G30KT -SHSN=
201303110850 METAR COR EGLL 110850Z 06015KT 020V080 9999 FEW027 00/M06
                        Q1007 TEMPO 06018G28KT -SHSN=
201303110820 METAR COR EGLL 110820Z 06016KT 020V080 9999 SCT023 M00/M06
                        Q1007 TEMPO 06018G28KT -SHSN=
201303110750 METAR EGLL 110750Z 06016KT 020V080 9999 BKN023 M00/M05 Q1007=
201303110720 METAR COR EGLL 110720Z 06012KT 010V080 9999 FEW022 BKN044
                        M00/M05 Q1007 TEMPO 06016G26KT -SHSN=
201303110650 METAR COR EGLL 110650Z 05013G24KT 020V090 9999 FEW021 BKN043
                        M00/M05 Q1007 NOSIG=
201303110620 METAR COR EGLL 110620Z 06015KT 9999 FEW019 SCT033 BKN039
                        M00/M05 Q1007 NOSIG=
201303110550 METAR COR EGLL 110550Z 05014G25KT 020V090 9999 SCT018 BKN041
                        M00/M04 Q1007 NOSIG=
201303110520 METAR COR EGLL 110520Z 05014KT 9999 FEW020 SCT024 M00/M04
                        Q1007 NOSIG=
201303110450 METAR COR EGLL 110450Z 05013G24KT 9999 FEW023 SCT040 M00/M04
                        Q1007 NOSIG=
201303110420 METAR COR EGLL 110420Z 06013KT 9999 FEW026 M00/M05 Q1007
                        NOSIG=
201303110350 METAR EGLL 110350Z AUTO 05012KT 9999 SG SCT020/// SCT042///
                        00/M04 Q1007=
201303110320 METAR EGLL 110320Z AUTO 06012KT 9999 BKN019/// 00/M04 Q1007=
201303110250 METAR EGLL 110250Z AUTO 06012KT 9999 BKN018/// 00/M04 Q1007=
201303110220 METAR COR EGLL 110220Z 05012G23KT 020V080 9999 SCT019 00/M03
                        Q1007 NOSIG=
201303110150 METAR COR EGLL 110150Z 05012KT 9999 FEW020 00/M03 Q1007 NOSIG=
201303110120 METAR EGLL 110120Z 06011KT 020V080 9999 SCT019 01/M03 Q1007=
201303110050 METAR COR EGLL 110050Z 06011KT 9999 BKN018 01/M03 Q1007 NOSIG=
201303110020 METAR EGLL 110020Z 06011KT 9999 BKN019 01/M03 Q1007=
201303102350 METAR COR EGLL 102350Z 05012KT 9999 BKN020 01/M03 Q1007 NOSIG=
201303102320 METAR COR EGLL 102320Z 05011KT 9999 FEW019 SCT031 BKN049
                        01/M03 Q1007 NOSIG=
201303102250 METAR COR EGLL 102250Z 05011KT 9999 SCT020 SCT040 01/M03
                        Q1007 NOSIG=
201303102220 METAR COR EGLL 102220Z 06010KT 020V090 9999 BKN018 01/M03
                        Q1007 NOSIG=
201303102150 METAR COR EGLL 102150Z 06011KT 9999 BKN019 01/M03 Q1007 NOSIG=
201303102120 METAR COR EGLL 102120Z 05010KT 020V080 9999 SCT022 01/M03
                        Q1007 NOSIG=
201303102050 METAR COR EGLL 102050Z 05011KT 9999 FEW021 OVC049 01/M03
                        Q1007 NOSIG=
201303102020 METAR COR EGLL 102020Z 05009KT 9999 SCT020 BKN047 01/M03
                        Q1007 NOSIG=
201303101950 METAR COR EGLL 101950Z 05009KT 020V080 9999 BKN023 OVC045
                        01/M03 Q1007 NOSIG=
201303101920 METAR COR EGLL 101920Z 05010KT 360V080 9999 FEW019 SCT030
                        BKN044 02/M02 Q1007 NOSIG=
201303101850 METAR COR EGLL 101850Z 05010KT 020V090 9999 FEW024 BKN044
                        02/M02 Q1007 NOSIG=
201303101820 METAR COR EGLL 101820Z 05010KT 010V080 9999 FEW029 BKN048
                        02/M02 Q1007 NOSIG=
201303101750 METAR COR EGLL 101750Z 06010KT 020V080 9999 FEW020 SCT023
                        BKN035 02/M02 Q1007 NOSIG=
201303101720 METAR EGLL 101720Z 06010KT 9999 FEW019 SCT024 BKN030 02/M02
                        Q1007=
201303101650 METAR COR EGLL 101650Z 06010KT 9999 BKN019 BKN026 02/M01
                        Q1007 NOSIG=
201303101620 METAR COR EGLL 101620Z 06015KT 9999 BKN016 02/M01 Q1006 TEMPO
                        -SHSN BKN014=
201303101550 METAR COR EGLL 101550Z 06015G26KT 020V080 9999 6000E VCSH
                        BKN017 03/M01 Q1006 NOSIG=
201303101520 METAR COR EGLL 101520Z 06011KT 020V080 9999 7000NE -SHSN
                        BKN020 03/M01 Q1006 NOSIG=
201303101450 METAR COR EGLL 101450Z 06013KT 9999 VCSH BKN013 BKN022 02/M00
                        Q1006 TEMPO SCT014 BKN022=
201303101420 METAR COR EGLL 101420Z 06012KT 9999 4000SE -SN BKN014 03/M00
                        Q1006 TEMPO NSW BKN015=
201303101350 METAR COR EGLL 101350Z 06013KT 9999 FEW018 BKN020 03/M01
                        Q1006 NOSIG=
201303101320 METAR COR EGLL 101320Z 06012KT 010V090 9999 BKN020 BKN026
                        04/M00 Q1006 NOSIG=
201303101250 METAR COR EGLL 101250Z 06013KT 9999 BKN020 04/M00 Q1006 NOSIG=
201303101220 METAR COR EGLL 101220Z 06013G23KT 9999 FEW018 BKN021 04/M00
                        Q1006 NOSIG=
201303101150 METAR COR EGLL 101150Z 06013KT 9999 BKN017 BKN028 04/M00
                        Q1006 NOSIG=
201303101120 METAR COR EGLL 101120Z 06011KT 020V090 9999 BKN016 04/00
                        Q1006 NOSIG=
201303101050 METAR COR EGLL 101050Z 06011KT 020V080 9999 FEW014 BKN016
                        04/00 Q1006 TEMPO BKN014=
201303101020 METAR COR EGLL 101020Z 05010KT 020V080 9999 SCT014 BKN017
                        03/00 Q1006 TEMPO BKN014=
201303100950 METAR COR EGLL 100950Z 05009KT 020V080 9999 BKN014 BKN017
                        03/00 Q1006 NOSIG=
201303100920 METAR COR EGLL 100920Z 06011G21KT 9999 BKN013 BKN018 03/00
                        Q1005 NOSIG=
201303100850 METAR COR EGLL 100850Z 05009KT 9999 BKN012 BKN022 03/00 Q1005
                        NOSIG=
201303100820 METAR COR EGLL 100820Z 06010KT 9999 BKN013 BKN018 03/00 Q1005
                        NOSIG=
201303100750 METAR COR EGLL 100750Z 05008KT 010V080 9999 BKN011 BKN017
                        03/00 Q1005 NOSIG=
201303100720 METAR COR EGLL 100720Z 05007KT 9999 BKN012 03/00 Q1005 NOSIG=
201303100650 METAR COR EGLL 100650Z 05007KT 360V080 9999 BKN011 03/00
                        Q1005 NOSIG=
201303100620 METAR COR EGLL 100620Z 05008KT 9999 BKN011 03/00 Q1005 NOSIG=
201303100550 METAR COR EGLL 100550Z 03006KT 010V070 9999 OVC011 03/00
                        Q1005 NOSIG=
201303100520 METAR COR EGLL 100520Z 03005KT 350V070 9999 BKN011 03/00
                        Q1005 NOSIG=
201303100450 METAR COR EGLL 100450Z 04006KT 010V070 9999 BKN011 03/00
                        Q1005 NOSIG=
201303100420 METAR COR EGLL 100420Z 02005KT 350V060 9999 BKN012 03/00
                        Q1005 NOSIG=
201303100350 METAR EGLL 100350Z AUTO 03006KT 360V060 9999 BKN011/// 03/00
                        Q1005=
201303100320 METAR EGLL 100320Z AUTO 05006KT 010V080 9999 OVC011/// 03/00
                        Q1005=
201303100250 METAR EGLL 100250Z AUTO 02006KT 360V070 9999 BKN010/// 03/00
                        Q1005=
201303100220 METAR COR EGLL 100220Z 02006KT 350V060 9999 BKN011 BKN016
                        03/00 Q1005 NOSIG=
201303100150 METAR COR EGLL 100150Z 03006KT 340V060 9999 BKN012 03/00
                        Q1005 NOSIG=
201303100120 METAR COR EGLL 100120Z 02006KT 350V050 9999 OVC012 03/00
                        Q1005 NOSIG=
201303100050 METAR COR EGLL 100050Z 01006KT 330V050 9999 OVC011 03/01
                        Q1005 NOSIG=
201303100020 METAR COR EGLL 100020Z 03008KT 350V060 9999 OVC012 03/01
                        Q1005 NOSIG=
201303092350 METAR COR EGLL 092350Z 02007KT 330V050 9999 BKN013 04/01
                        Q1005 NOSIG=
201303092320 METAR COR EGLL 092320Z 03006KT 9999 BKN014 04/01 Q1005 NOSIG=
201303092250 METAR COR EGLL 092250Z 03006KT 350V060 9999 BKN015 04/01
                        Q1005 TEMPO BKN014=
201303092220 METAR COR EGLL 092220Z 04005KT 010V080 9999 BKN014 04/01
                        Q1005 NOSIG=
201303092150 METAR COR EGLL 092150Z 36006KT 9999 BKN014 04/01 Q1005 NOSIG=
201303092120 METAR COR EGLL 092120Z 01005KT 330V060 9999 SCT013 BKN016
                        05/02 Q1005 TEMPO BKN013=
201303092050 METAR COR EGLL 092050Z 02006KT 350V060 9999 BKN013 05/02
                        Q1005 NOSIG=
201303092020 METAR COR EGLL 092020Z 03005KT 360V060 9999 BKN011 05/03
                        Q1005 NOSIG=
201303091950 METAR COR EGLL 091950Z 03005KT 9999 FEW010 BKN012 06/03 Q1004
                        NOSIG=
201303091920 METAR COR EGLL 091920Z 03006KT 9999 BKN013 06/03 Q1004 NOSIG=
201303091850 METAR COR EGLL 091850Z 36004KT 9999 BKN014 06/03 Q1004 NOSIG=
201303091820 METAR COR EGLL 091820Z 36005KT 320V040 9999 BKN013 06/03
                        Q1004 NOSIG=
201303091750 METAR COR EGLL 091750Z 01005KT 340V050 9999 BKN012 07/04
                        Q1004 NOSIG=
201303091720 METAR COR EGLL 091720Z 36006KT 8000 OVC011 07/04 Q1003 NOSIG=
201303091650 METAR COR EGLL 091650Z 36005KT 310V030 7000 OVC011 07/04
                        Q1003 NOSIG=
201303091620 METAR COR EGLL 091620Z 36005KT 320V030 7000 OVC011 07/04
                        Q1003 NOSIG=
201303091550 METAR COR EGLL 091550Z 35004KT 310V030 7000 OVC010 07/04
                        Q1003 NOSIG=
201303091520 METAR COR EGLL 091520Z 31004KT 280V360 7000 BKN010 07/05
                        Q1003 TEMPO SCT010 BKN015=
201303091450 METAR COR EGLL 091450Z 33004KT 290V360 7000 BKN010 07/05
                        Q1003 TEMPO SCT010 BKN015=
201303091420 METAR COR EGLL 091420Z 36004KT 320V030 6000 BKN009 07/05
                        Q1003 BECMG BKN010=
201303091350 METAR EGLL 091350Z 36006KT 6000 BKN008 07/05 Q1003 BECMG
                        SCT008 BKN010=
201303091320 METAR COR EGLL 091320Z 36005KT 310V030 5000 HZ BKN007 07/05
                        Q1003 BECMG SCT007 BKN012=
201303091250 METAR COR EGLL 091250Z 34004KT 300V020 4000 HZ BKN006 07/05
                        Q1003 BECMG SCT006 BKN010=
201303091220 METAR COR EGLL 091220Z VRB03KT 4200 HZ BKN006 07/05 Q1003
                        BECMG 5000 SCT006 BKN010=
201303091150 METAR COR EGLL 091150Z 34004KT 300V020 3600 HZ BKN006 07/05
                        Q1003 BECMG SCT006 BKN010=
201303091120 METAR COR EGLL 091120Z 35004KT 310V030 3500 HZ BKN006 07/05
                        Q1003 BECMG 5000 SCT006 BKN010=
201303091050 METAR COR EGLL 091050Z 33004KT 290V010 4600 HZ OVC006 07/05
                        Q1002 BECMG 5000 SCT006 BKN010=
201303091020 METAR COR EGLL 091020Z 36004KT 3800 HZ BKN005 06/05 Q1002
                        BECMG SCT006 BKN010=
201303090950 METAR COR EGLL 090950Z 33004KT 280V010 3800 HZ BKN006 06/05
                        Q1002 BECMG SCT006 BKN010=
201303090920 METAR COR EGLL 090920Z 36004KT 320V030 3700 HZ BKN007 BKN008
                        06/05 Q1002 BECMG SCT008 BKN010=
201303090850 METAR COR EGLL 090850Z 35004KT 310V030 3700 HZ BKN006 BKN007
                        06/05 Q1002 NOSIG=
201303090820 METAR COR EGLL 090820Z 36004KT 330V040 3800 HZ BKN006 BKN007
                        06/05 Q1002 NOSIG=
201303090750 METAR COR EGLL 090750Z 36004KT 330V040 3500 HZ BKN005 BKN006
                        06/05 Q1002 NOSIG=
201303090720 METAR COR EGLL 090720Z VRB03KT 3500 HZ SCT005 BKN006 06/05
                        Q1001 NOSIG=
201303090650 METAR COR EGLL 090650Z VRB03KT 3800 HZ SCT005 BKN006 06/05
                        Q1001 NOSIG=
201303090620 METAR COR EGLL 090620Z 01004KT 4400 HZ BKN004 06/05 Q1001
                        BECMG BKN006=
201303090550 METAR COR EGLL 090550Z 02004KT 350V070 4400 HZ BKN005 06/05
                        Q1001 NOSIG=
201303090520 METAR COR EGLL 090520Z 36004KT 4800 HZ BKN004 06/05 Q1001
                        NOSIG=
201303090450 METAR COR EGLL 090450Z 36004KT 330V040 4600 HZ BKN004 06/05
                        Q1001 NOSIG=
201303090420 METAR EGLL 090420Z AUTO VRB02KT 4100 HZ BKN004/// 06/05 Q1000=
201303090350 METAR COR EGLL 090350Z VRB03KT 4200 BR BKN004 06/06 Q1000
                        NOSIG=
201303090320 METAR COR EGLL 090320Z 01004KT 340V050 3000 BR BKN003 BKN009
                        07/06 Q1001 NOSIG=
201303090250 METAR EGLL 090250Z AUTO VRB03KT 3300 HZ BKN003/// BKN009///
                        07/06 Q1001=
201303090220 METAR EGLL 090220Z AUTO 35004KT 2700 BR BKN002/// BKN010///
                        07/06 Q1001=
201303090150 METAR EGLL 090150Z AUTO 36004KT 1500 DZ BKN003/// 07/07 Q1001=
201303090120 METAR COR EGLL 090120Z 36004KT 1700 -RADZ OVC003 08/07 Q1001
                        NOSIG=
201303090050 METAR COR EGLL 090050Z VRB03KT 2000 -DZ BKN004 08/07 Q1001
                        NOSIG=
201303090020 METAR COR EGLL 090020Z VRB03KT 1700 DZ BKN004 BKN013 08/07
                        Q1001 TEMPO BKN005=
201303082350 METAR COR EGLL 082350Z 04004KT 1800 -RA BKN004 BKN014 08/07
                        Q1001 TEMPO BKN005=
201303082320 METAR COR EGLL 082320Z VRB03KT 2300 -RA BKN005 BKN013 08/07
                        Q1001 TEMPO BKN004=
201303082250 METAR COR EGLL 082250Z 03004KT 350V060 2100 -RA BKN004 BKN014
                        08/07 Q1001 NOSIG=
201303082220 METAR COR EGLL 082220Z VRB03KT 2200 -RA BKN004 BKN014 09/08
                        Q1000 NOSIG=
201303082150 METAR COR EGLL 082150Z 03004KT 2200 -DZ BKN004 BKN012 09/08
                        Q1000 TEMPO BKN006=
201303082120 METAR COR EGLL 082120Z 03004KT 350V060 2500 -RADZ FEW004
                        BKN006 09/08 Q1000 NOSIG=
201303082050 METAR COR EGLL 082050Z 03004KT 350V070 2700 -DZ SCT004 09/08
                        Q1000 TEMPO BKN006=
201303082020 METAR COR EGLL 082020Z 36004KT 2600 -DZ BKN004 09/08 Q1000
                        TEMPO 6000 BKN008=
201303081950 METAR COR EGLL 081950Z VRB03KT 4500 -DZ FEW005 BKN011 10/08
                        Q1000 TEMPO 6000 BKN008=
201303081920 METAR COR EGLL 081920Z 06003KT 5000 -DZ SCT006 BKN010 10/09
                        Q1000 TEMPO 4000 BR BKN006=
201303081850 METAR COR EGLL 081850Z 06003KT 5000 -DZ SCT005 BKN013 10/09
                        Q1000 TEMPO 4500 BKN007=
201303081820 METAR EGLL 081820Z AUTO 04003KT 6000 -RA FEW005/// BKN012///
                        10/09 Q0999=
201303081750 METAR COR EGLL 081750Z 04004KT 010V070 7000 -RA SCT005 BKN013
                        10/09 Q0999 TEMPO BKN008=
201303081720 METAR COR EGLL 081720Z VRB02KT 7000 -RA SCT005 10/09 Q0999
                        TEMPO BKN008=
201303081650 METAR EGLL 081650Z VRB03KT 7000 -DZ FEW005 BKN006 10/09 Q0999=
201303081620 METAR COR EGLL 081620Z 06003KT 7000 -DZ FEW005 SCT006 BKN010
                        10/09 Q0998 TEMPO BKN008=
201303081550 METAR COR EGLL 081550Z VRB03KT 6000 -DZ FEW005 BKN006 10/09
                        Q0998 TEMPO SCT006 BKN035=
201303081520 METAR COR EGLL 081520Z VRB03KT 5000 -RA BKN006 10/09 Q0998
                        BECMG SCT006 BKN035=
201303081450 METAR COR EGLL 081450Z 06004KT 030V090 5000 -RA SCT005 BKN032
                        10/09 Q0998 TEMPO BKN007=
201303081420 METAR COR EGLL 081420Z 04004KT 010V090 4900 -RA FEW005 BKN034
                        10/09 Q0998 TEMPO BKN008=
201303081350 METAR COR EGLL 081350Z 04004KT 010V070 4500 -RA SCT004 BKN009
                        10/09 Q0998 TEMPO SCT006 BKN016=
201303081320 METAR COR EGLL 081320Z VRB03KT 3700 -RA FEW004 BKN005 BKN009
                        10/09 Q0998 RERA BECMG SCT006 BKN030=
201303081250 METAR COR EGLL 081250Z 04004KT 360V060 3900 -RA BKN004 10/09
                        Q0998 BECMG SCT006 BKN035=
201303081220 METAR COR EGLL 081220Z 07004KT 3200 -RA BR FEW004 BKN005
                        10/09 Q0998 BECMG SCT006 BKN035=
201303081150 METAR COR EGLL 081150Z 06005KT 3000 -RA BR SCT004 BKN006
                        10/09 Q0998 BECMG SCT006 BKN035=
201303081120 METAR COR EGLL 081120Z 07005KT 040V100 3000 -RA BR SCT004
                        BKN006 10/09 Q0997 BECMG SCT006 BKN035=
201303081050 METAR COR EGLL 081050Z 07005KT 3000 -RADZ SCT004 BKN005 10/09
                        Q0997 BECMG SCT006 BKN040=
201303081020 METAR COR EGLL 081020Z 08005KT 2700 -RADZ BKN004 09/08 Q0997
                        BECMG SCT004 BKN007=
201303080950 METAR COR EGLL 080950Z 10006KT 2300 -RA SCT003 BKN006 09/09
                        Q0997 TEMPO BKN004=
201303080920 METAR COR EGLL 080920Z 09005KT 1900 BR FEW001 BKN002 BKN003
                        09/08 Q0997 BECMG SCT002 BKN003=
201303080850 METAR COR EGLL 080850Z 09008KT 2100 BR FEW001 BKN002 BKN003
                        09/08 Q0997 BECMG SCT002 BKN003=
201303080820 METAR COR EGLL 080820Z 09005KT 2000 BR FEW002 BKN003 BKN004
                        09/08 Q0996 NOSIG=
201303080750 METAR COR EGLL 080750Z 10006KT 2000 BR FEW002 BKN003 BKN005
                        09/08 Q0996 NOSIG=
201303080720 METAR COR EGLL 080720Z 08004KT 1700 BR FEW002 BKN003 BKN004
                        09/08 Q0996 TEMPO 1200 BKN002=
201303080650 METAR COR EGLL 080650Z 07004KT 1500 BR FEW001 BKN002 BKN003
                        09/09 Q0996 TEMPO 1200 BKN001=
201303080620 METAR COR EGLL 080620Z 07004KT 1400 R09L/P1500 R09R/P1500
                        BR FEW001 BKN002 BKN004 09/09 Q0995
                        BECMG FG BKN001=
201303080550 METAR COR EGLL 080550Z 08004KT 1300 R09L/P1500 BR FEW001
                        BKN002 BKN004 09/09 Q0995 BECMG BKN001=
201303080520 METAR COR EGLL 080520Z 08005KT 1100 R09L/P1500 BR FEW001
                        BKN002 09/09 Q0995 BECMG BKN001=
201303080450 METAR COR EGLL 080450Z 07005KT 1700 BR BKN003 BKN004 09/09
                        Q0995 BECMG 1200 BKN001=
201303080420 METAR COR EGLL 080420Z 07004KT 1800 BR FEW003 BKN004 BKN005
                        09/09 Q0995 TEMPO 1200=
201303080350 METAR COR EGLL 080350Z 09005KT 1700 BR FEW002 BKN003 BKN006
                        09/09 Q0995 TEMPO 1200=
201303080320 METAR COR EGLL 080320Z 08005KT 1700 BR BKN006 09/09 Q0995
                        BECMG BKN003=
201303080250 METAR COR EGLL 080250Z 09006KT 1700 BR BKN007 09/09 Q0995
                        BECMG BKN003=
201303080220 METAR EGLL 080220Z AUTO 09007KT 1600 BR FEW002/// OVC008///
                        09/09 Q0995=
201303080150 METAR EGLL 080150Z AUTO 09006KT 1700 BR BKN002/// OVC009///
                        09/09 Q0995=
201303080120 METAR EGLL 080120Z AUTO 09006KT 1800 BR BKN003/// OVC014///
                        09/09 Q0995=
201303080050 METAR COR EGLL 080050Z 09006KT 1600 BR SCT003 BKN007 09/09
                        Q0995 BECMG BKN003=
201303080020 METAR COR EGLL 080020Z 08006KT 1700 BR FEW003 SCT004 BKN009
                        09/09 Q0995 BECMG BKN003=
201303072350 METAR COR EGLL 072350Z 09006KT 1600 BR FEW004 SCT009 BKN010
                        09/09 Q0995 BECMG BKN004=
201303072320 METAR COR EGLL 072320Z 08006KT 1700 -RA BR FEW004 SCT008
                        OVC011 09/09 Q0995 BECMG BKN004=
201303072250 METAR COR EGLL 072250Z 09006KT 2200 HZ FEW003 SCT004 BKN007
                        09/09 Q0995 BECMG BKN004=
201303072220 METAR COR EGLL 072220Z 08005KT 2200 HZ SCT004 SCT005 BKN007
                        10/09 Q0996 BECMG BKN004=
201303072150 METAR COR EGLL 072150Z 10006KT 2300 BR FEW005 SCT006 BKN007
                        10/09 Q0996 BECMG BKN003=
201303072120 METAR COR EGLL 072120Z 10004KT 2100 BR FEW004 SCT005 BKN006
                        09/09 Q0995 BECMG BKN003=
201303072050 METAR COR EGLL 072050Z 09006KT 2300 BR SCT004 BKN005 09/09
                        Q0995 BECMG BKN003=
201303072020 METAR COR EGLL 072020Z 09006KT 1700 BR SCT003 BKN004 09/08
                        Q0995 NOSIG=
201303071950 METAR COR EGLL 071950Z 08006KT 1500 BR SCT003 BKN004 09/08
                        Q0995 NOSIG=
201303071920 METAR COR EGLL 071920Z 09006KT 1400 BR FEW003 SCT004 BKN005
                        09/08 Q0995 BECMG BKN004=
201303071850 METAR COR EGLL 071850Z 09006KT 1600 BR BKN004 BKN006 09/08
                        Q0995 TEMPO 1400=
201303071820 METAR COR EGLL 071820Z 09007KT 1800 BR FEW003 BKN004 BKN008
                        09/08 Q0995 TEMPO 1400=
201303071750 METAR COR EGLL 071750Z 09007KT 1600 BR SCT003 BKN004 09/08
                        Q0995 TEMPO 1400=
201303071720 METAR COR EGLL 071720Z 09008KT 1400 R09L/P1500 R09R/P1500
                        BR SCT003 BKN004 09/08 Q0995 NOSIG=
201303071650 METAR COR EGLL 071650Z 09009KT 1400 BR FEW003 SCT004 BKN005
                        09/08 Q0995 TEMPO BKN004=
201303071620 METAR COR EGLL 071620Z 10009KT 1700 BR SCT005 BKN006 09/08
                        Q0995 NOSIG=
201303071550 METAR COR EGLL 071550Z 10009KT 3000 BR SCT006 BKN008 09/08
                        Q0995 NOSIG=
201303071520 METAR COR EGLL 071520Z 09008KT 3700 BR FEW007 SCT008 BKN010
                        10/08 Q0995 TEMPO BKN008=
201303071450 METAR COR EGLL 071450Z 09008KT 3200 -RA BR FEW006 SCT007
                        BKN011 10/08 Q0995 TEMPO BKN007=
201303071420 METAR COR EGLL 071420Z 08006KT 3500 -RA FEW007 SCT009 BKN020
                        10/08 Q0995 BECMG BKN010=
201303071350 METAR COR EGLL 071350Z 08007KT 3700 -RA FEW009 BKN024 10/08
                        Q0995 BECMG BKN010=
201303071320 METAR COR EGLL 071320Z 08007KT 4500 -RA FEW007 BKN032 10/08
                        Q0996 TEMPO BKN010=
201303071250 METAR COR EGLL 071250Z 08007KT 5000 -RA FEW024 BKN031 10/08
                        Q0996 BECMG 4000 BR BKN010=
201303071220 METAR COR EGLL 071220Z 07006KT 5000 -RA BKN033 09/08 Q0996
                        BECMG 3000 BR BKN010=
201303071150 METAR COR EGLL 071150Z 08006KT 5000 -RA FEW037 SCT044 09/07
                        Q0996 TEMPO BKN010=
201303071120 METAR COR EGLL 071120Z 06006KT 3600 -RA FEW027 SCT043 09/08
                        Q0997 TEMPO BKN006=
201303071050 METAR COR EGLL 071050Z 07006KT 3200 -RA SCT027 BKN041 09/08
                        Q0997 TEMPO BKN006=
201303071020 METAR COR EGLL 071020Z 06007KT 3100 -RA FEW028 BKN041 09/08
                        Q0997 TEMPO BKN006=
201303070950 METAR COR EGLL 070950Z 07004KT 040V100 2800 -RA BR FEW006
                        BKN044 09/08 Q0997 TEMPO BKN006=
201303070920 METAR COR EGLL 070920Z 07005KT 2100 -RA BR FEW005 SCT047
                        09/08 Q0997 TEMPO BKN007=
201303070850 METAR COR EGLL 070850Z 07003KT 2100 -RA BR SCT004 SCT046
                        08/07 Q0998 TEMPO BKN004=
201303070820 METAR COR EGLL 070820Z 09004KT 1800 -RA BR BKN004 08/07 Q0998
                        TEMPO BKN006=
201303070750 METAR COR EGLL 070750Z 10005KT 1900 -RA BR BKN004 08/07 Q0998
                        TEMPO BKN006=
201303070720 METAR COR EGLL 070720Z 08005KT 1800 -RA BR SCT005 BKN043
                        08/07 Q0998 TEMPO BKN005=
201303070650 METAR COR EGLL 070650Z 08004KT 2000 -RA BR FEW005 08/07 Q0998
                        TEMPO BKN005=
201303070620 METAR COR EGLL 070620Z 07003KT 2000 -RA BR NSC 08/07 Q0998
                        NOSIG=
201303070550 METAR COR EGLL 070550Z 07006KT 2000 -RA BR NSC 08/07 Q0997
                        NOSIG=
201303070520 METAR COR EGLL 070520Z 06005KT 2500 -RA BR NSC 08/07 Q0997
                        NOSIG=
201303070450 METAR COR EGLL 070450Z 02004KT 350V060 2100 -RA BR FEW004
                        BKN042 07/07 Q0998 TEMPO BKN005=
201303070420 METAR COR EGLL 070420Z VRB03KT 2100 -RA BR FEW004 BKN032
                        08/07 Q0998 NOSIG=
201303070350 METAR COR EGLL 070350Z 06004KT 2100 -RA BR FEW004 SCT005
                        07/07 Q0998 TEMPO BKN005=
201303070320 METAR EGLL 070320Z AUTO 08004KT 2300 -RA BKN041/// 07/06
                        Q0998=
201303070250 METAR EGLL 070250Z AUTO 06005KT 010V090 2900 -RA BKN042///
                        08/06 Q0998=
201303070220 METAR EGLL 070220Z AUTO 05005KT 3000 -RA SCT038/// 08/06
                        Q0999=
201303070150 METAR EGLL 070150Z AUTO 04004KT 3400 -RA SCT037/// 08/06
                        Q0999 RERA=
201303070120 METAR EGLL 070120Z AUTO 06004KT 3700 -RA FEW037/// 08/06
                        Q0999=
201303070050 METAR COR EGLL 070050Z 05004KT 4200 -RA HZ FEW049 08/06 Q0999
                        NOSIG=
201303070020 METAR COR EGLL 070020Z 06004KT 4200 -RA HZ NSC 08/06 Q0999
                        NO SIG=
201303062350 METAR COR EGLL 062350Z VRB03KT 4400 -RA HZ NSC 08/06 Q1000
                        TEMPO 6000=
201303062320 METAR COR EGLL 062320Z 06004KT 4500 -RA FEW048 08/06 Q1000
                        TEMPO 6000=
201303062250 METAR COR EGLL 062250Z 04003KT 6000 NSC 09/06 Q1000 NOSIG=
201303062220 METAR COR EGLL 062220Z 06005KT 6000 -RA NSC 09/06 Q1000 NOSIG=
201303062150 METAR COR EGLL 062150Z 07005KT 7000 -RA NSC 10/06 Q1000 NOSIG=
201303062120 METAR COR EGLL 062120Z 07005KT 7000 NSC 10/06 Q1000 NOSIG=
201303062050 METAR COR EGLL 062050Z 08008KT 7000 FEW048 09/06 Q1000 NOSIG=
201303062020 METAR COR EGLL 062020Z 08008KT 7000 -RA SCT048 10/06 Q1000
                        NOSIG=
201303061950 METAR COR EGLL 061950Z 10009KT 7000 -RA FEW049 10/06 Q1000
                        NOSIG=
201303061920 METAR COR EGLL 061920Z 10008KT 8000 -RA NSC 11/05 Q1000 NOSIG=
201303061850 METAR COR EGLL 061850Z 10005KT 8000 NSC 11/06 Q1000 NOSIG=
201303061820 METAR COR EGLL 061820Z 10006KT 8000 NSC 12/06 Q1000 NOSIG=
201303061750 METAR COR EGLL 061750Z 09006KT 9000 NSC 12/06 Q0999 NOSIG=
201303061720 METAR COR EGLL 061720Z 07006KT CAVOK 12/06 Q0999 NOSIG=
201303061650 METAR COR EGLL 061650Z 06007KT CAVOK 13/06 Q0999 NOSIG=
201303061620 METAR COR EGLL 061620Z 07006KT 9000 NSC 13/06 Q0999 NOSIG=
201303061550 METAR EGLL 061550Z 06006KT 9000 NSC 13/06 Q0999=
201303061520 METAR COR EGLL 061520Z 07005KT 9000 NSC 13/06 Q1000 NOSIG=
201303061450 METAR COR EGLL 061450Z 07005KT 9000 NSC 13/06 Q1000 NOSIG=
201303061420 METAR COR EGLL 061420Z 10006KT 9000 NSC 13/06 Q1000 NOSIG=
201303061350 METAR COR EGLL 061350Z 09007KT 9000 NSC 13/06 Q1000 NOSIG=
201303061320 METAR COR EGLL 061320Z 09007KT 9000 NSC 13/05 Q1000 NOSIG=
201303061250 METAR COR EGLL 061250Z 08007KT 9000 NSC 13/05 Q1000 NOSIG=
201303061220 METAR COR EGLL 061220Z 10007KT 9000 NSC 12/05 Q1000 NOSIG=
201303061150 METAR COR EGLL 061150Z 10007KT 9000 NSC 12/05 Q1001 NOSIG=
201303061120 METAR COR EGLL 061120Z 08006KT 8000 NSC 11/05 Q1001 NOSIG=
201303061050 METAR COR EGLL 061050Z 07006KT 7000 NSC 11/06 Q1001 NOSIG=
201303061020 METAR COR EGLL 061020Z 08007KT 7000 NSC 11/05 Q1001 NOSIG=
201303060950 METAR COR EGLL 060950Z 07007KT 7000 NSC 10/05 Q1001 NOSIG=
201303060920 METAR COR EGLL 060920Z 06006KT 6000 NSC 10/05 Q1001 NOSIG=
201303060850 METAR EGLL 060850Z 06005KT 6000 NSC 09/05 Q1001=
201303060820 METAR COR EGLL 060820Z 06004KT 6000 NSC 08/05 Q1001 NOSIG=
201303060750 METAR COR EGLL 060750Z 04004KT 6000 NSC 08/05 Q1001 NOSIG=
201303060720 METAR COR EGLL 060720Z 05004KT 7000 NSC 08/05 Q1001 NOSIG=
201303060650 METAR COR EGLL 060650Z 05004KT 7000 NSC 08/05 Q1000 NOSIG=
201303060620 METAR EGLL 060620Z 06003KT 7000 NSC 08/05 Q1000 NOSIG=
201303060550 METAR COR EGLL 060550Z 04004KT 8000 NSC 08/04 Q1000 NOSIG=
201303060520 METAR COR EGLL 060520Z 07004KT 8000 NSC 08/04 Q1000 NOSIG=
201303060450 METAR COR EGLL 060450Z 06004KT 8000 NSC 08/04 Q1001 NOSIG=
201303060420 METAR COR EGLL 060420Z 07004KT 9000 NSC 07/04 Q1001 NOSIG=
201303060350 METAR COR EGLL 060350Z 07004KT 8000 NSC 07/04 Q1001 NOSIG=
201303060320 METAR COR EGLL 060320Z 06004KT 9000 NSC 07/04 Q1001 NOSIG=
201303060250 METAR COR EGLL 060250Z 07003KT 9000 NSC 07/04 Q1001 NOSIG=
201303060220 METAR EGLL 060220Z AUTO 05003KT 9000 NCD 07/04 Q1001=
201303060150 METAR EGLL 060150Z AUTO 06003KT 9000 NCD 08/04 Q1001=
201303060120 METAR EGLL 060120Z AUTO 04004KT 9999 NCD 08/04 Q1001=
201303060050 METAR COR EGLL 060050Z 04002KT CAVOK 08/04 Q1002 NOSIG=
201303060020 METAR COR EGLL 060020Z VRB03KT CAVOK 09/04 Q1002 NOSIG=
201303052350 METAR COR EGLL 052350Z 07004KT CAVOK 09/04 Q1002 NOSIG=
201303052320 METAR COR EGLL 052320Z 08005KT CAVOK 09/04 Q1002 NOSIG=
201303052250 METAR COR EGLL 052250Z 09006KT CAVOK 08/04 Q1002 NOSIG=
201303052220 METAR COR EGLL 052220Z 09006KT CAVOK 08/03 Q1003 NOSIG=
201303052150 METAR COR EGLL 052150Z 08006KT CAVOK 08/03 Q1003 NOSIG=
201303052120 METAR COR EGLL 052120Z 09006KT CAVOK 07/03 Q1003 NOSIG=
201303052050 METAR COR EGLL 052050Z 08005KT CAVOK 08/03 Q1003 NOSIG=
201303052020 METAR COR EGLL 052020Z 09005KT CAVOK 09/04 Q1003 NOSIG=
201303051950 METAR COR EGLL 051950Z 13006KT CAVOK 10/04 Q1003 NOSIG=
201303051920 METAR COR EGLL 051920Z 14008KT CAVOK 11/04 Q1003 NOSIG=
201303051850 METAR COR EGLL 051850Z 13006KT CAVOK 11/04 Q1003 NOSIG=
201303051820 METAR COR EGLL 051820Z 13005KT CAVOK 11/04 Q1002 NOSIG=
201303051750 METAR COR EGLL 051750Z 14005KT CAVOK 12/04 Q1002 NOSIG=
201303051720 METAR COR EGLL 051720Z 16006KT CAVOK 13/05 Q1002 NOSIG=
201303051650 METAR COR EGLL 051650Z 15008KT 9999 FEW040 14/05 Q1002 NOSIG=
201303051620 METAR COR EGLL 051620Z 16007KT 9999 FEW040 15/05 Q1002 NOSIG=
201303051550 METAR COR EGLL 051550Z 15008KT 120V180 9999 FEW041 15/05
                        Q1002 NOSIG=
201303051520 METAR COR EGLL 051520Z 17007KT 120V200 9999 FEW040 15/05
                        Q1002 NOSIG=
201303051450 METAR COR EGLL 051450Z 16008KT CAVOK 16/05 Q1002 NOSIG=
201303051420 METAR COR EGLL 051420Z 16008KT CAVOK 16/05 Q1003 NOSIG=
201303051350 METAR COR EGLL 051350Z 15006KT CAVOK 16/05 Q1003 NOSIG=
201303051320 METAR COR EGLL 051320Z VRB03KT CAVOK 15/05 Q1003 NOSIG=
201303051250 METAR COR EGLL 051250Z VRB03KT CAVOK 15/05 Q1004 NOSIG=
201303051220 METAR COR EGLL 051220Z 19004KT 150V210 9000 NSC 14/05 Q1004
                        NOSIG=
201303051150 METAR COR EGLL 051150Z VRB03KT 8000 NSC 13/05 Q1004 NOSIG=
201303051120 METAR COR EGLL 051120Z 18004KT 140V230 7000 NSC 11/05 Q1005
                        NOSIG=
201303051050 METAR COR EGLL 051050Z VRB02KT 6000 NSC 10/05 Q1005 NOSIG=
201303051020 METAR COR EGLL 051020Z VRB02KT 5000 HZ NSC 09/04 Q1005 NOSIG=
201303050950 METAR COR EGLL 050950Z 18004KT 130V210 5000 2400E HZ NSC
                        08/04 Q1005 NOSIG=
201303050920 METAR COR EGLL 050920Z VRB02KT 4600 2200E HZ NSC 07/04 Q1005
                        BECMG 6000=
201303050850 METAR COR EGLL 050850Z VRB02KT 3200 BR NSC 04/03 Q1006 BECMG
                        5000 HZ=
201303050820 METAR COR EGLL 050820Z 00000KT 2700 BR NSC 03/02 Q1006 NOSIG=
201303050750 METAR COR EGLL 050750Z 36003KT 2700 BR NSC 02/01 Q1006 NOSIG=
201303050720 METAR COR EGLL 050720Z 00000KT 2700 BR NSC 01/M00 Q1005 NOSIG=
201303050650 METAR COR EGLL 050650Z 00000KT 2500 BR NSC 01/M00 Q1005 NOSIG=
201303050620 METAR COR EGLL 050620Z 00000KT 3500 BR NSC 01/M00 Q1005 NOSIG=
201303050550 METAR COR EGLL 050550Z 01003KT 3000 BR NSC 01/M00 Q1005 NOSIG=
201303050520 METAR COR EGLL 050520Z 01002KT 3000 HZ NSC 01/M00 Q1005 NOSIG=
201303050450 METAR COR EGLL 050450Z 00000KT 3000 HZ NSC 00/M01 Q1005 NOSIG=
201303050420 METAR COR EGLL 050420Z 00000KT 3000 HZ NSC 01/M00 Q1005 NOSIG=
201303050350 METAR COR EGLL 050350Z VRB02KT 3500 HZ NSC 01/00 Q1006 NOSIG=
201303050320 METAR COR EGLL 050320Z 07002KT 4500 BR NSC 01/M00 Q1006 NOSIG=
201303050250 METAR COR EGLL 050250Z 05003KT 5000 HZ NSC 01/M00 Q1006 BECMG
                        3000 BR=
201303050220 METAR EGLL 050220Z AUTO 06003KT 3500 HZ NCD 01/00 Q1006=
201303050150 METAR EGLL 050150Z AUTO 06004KT 3100 HZ NCD 02/00 Q1007=
201303050120 METAR EGLL 050120Z AUTO 05003KT 3700 HZ NCD 02/00 Q1007=
201303050050 METAR COR EGLL 050050Z VRB03KT 5000 HZ NSC 02/00 Q1007 BECMG
                        4000 BR=
201303050020 METAR EGLL 050020Z 04003KT 5000 HZ NSC 02/00 Q1007=
201303042350 METAR COR EGLL 042350Z 04004KT 5000 HZ NSC 02/00 Q1007 BECMG
                        4000 BR=
201303042320 METAR COR EGLL 042320Z 01003KT 5000 HZ NSC 02/01 Q1008 BECMG
                        4000 BR=
201303042250 METAR COR EGLL 042250Z 03003KT 6000 NSC 04/01 Q1008 BECMG
                        4500 BR=
201303042220 METAR COR EGLL 042220Z 05003KT 6000 NSC 04/01 Q1008 TEMPO
                        4500 BR=
201303042150 METAR COR EGLL 042150Z 05003KT 4800 HZ NSC 03/01 Q1009 NOSIG=
201303042120 METAR COR EGLL 042120Z 07004KT 4600 HZ NSC 03/01 Q1009 NOSIG=
201303042050 METAR COR EGLL 042050Z 09007KT 4600 HZ NSC 04/01 Q1009 NOSIG=
201303042020 METAR COR EGLL 042020Z 09007KT 5000 HZ NSC 03/01 Q1009 BECMG
                        4200 BR=
201303041950 METAR COR EGLL 041950Z 07005KT 6000 NSC 04/01 Q1009 TEMPO
                        4500=
201303041920 METAR COR EGLL 041920Z 09006KT 7000 NSC 04/01 Q1009 NOSIG=
201303041850 METAR COR EGLL 041850Z 09007KT 7000 NSC 05/01 Q1009 NOSIG=
201303041820 METAR COR EGLL 041820Z 08008KT 7000 NSC 05/01 Q1009 NOSIG=
201303041750 METAR COR EGLL 041750Z 09009KT 9000 NSC 06/01 Q1009 NOSIG=
201303041720 METAR COR EGLL 041720Z 09010KT CAVOK 07/01 Q1009 NOSIG=
201303041650 METAR COR EGLL 041650Z 09011KT CAVOK 07/01 Q1009 NOSIG=
201303041620 METAR COR EGLL 041620Z 09012KT CAVOK 08/01 Q1009 NOSIG=
201303041550 METAR COR EGLL 041550Z 09012KT CAVOK 09/01 Q1010 NOSIG=
201303041520 METAR COR EGLL 041520Z 09010KT CAVOK 09/01 Q1010 NOSIG=
201303041450 METAR COR EGLL 041450Z 08010KT CAVOK 09/01 Q1010 NOSIG=
201303041420 METAR COR EGLL 041420Z 08010KT 9000 NSC 09/02 Q1011 NOSIG=
201303041350 METAR COR EGLL 041350Z 08009KT 9000 NSC 09/01 Q1011 NOSIG=
201303041320 METAR COR EGLL 041320Z 08011KT 9000 NSC 09/01 Q1012 NOSIG=
201303041250 METAR COR EGLL 041250Z 09010KT 9000 NSC 09/01 Q1012 NOSIG=
201303041220 METAR COR EGLL 041220Z 09012KT 8000 NSC 08/01 Q1013 NOSIG=
201303041150 METAR COR EGLL 041150Z 09011KT 8000 NSC 08/01 Q1013 NOSIG=
201303041120 METAR COR EGLL 041120Z 09010KT 8000 NSC 07/02 Q1014 NOSIG=
201303041050 METAR COR EGLL 041050Z 08010KT 6000 NSC 06/02 Q1014 NOSIG=
201303041020 METAR COR EGLL 041020Z 09011KT 6000 FEW016 05/02 Q1015 NOSIG=
201303040950 METAR COR EGLL 040950Z 08011KT 6000 FEW016 05/01 Q1015 NOSIG=
201303040920 METAR COR EGLL 040920Z 09011KT 6000 FEW012 04/01 Q1015 NOSIG=
201303040850 METAR COR EGLL 040850Z 09011KT 6000 FEW012 04/01 Q1016 NOSIG=
201303040820 METAR COR EGLL 040820Z 09010KT 4800 HZ FEW012 03/01 Q1016
                        BECMG 6000 NSW=
201303040750 METAR COR EGLL 040750Z 09010KT 4800 HZ NSC 02/00 Q1016 BECMG
                        6000 NSW=
201303040720 METAR COR EGLL 040720Z 09008KT 4400 HZ NSC 02/00 Q1016 BECMG
                        6000 NSW=
201303040650 METAR COR EGLL 040650Z 09009KT 4000 HZ NSC 02/M00 Q1016 BECMG
                        6000 NSW=
201303040620 METAR COR EGLL 040620Z 09009KT 5000 HZ NSC 01/M00 Q1016 TEMPO
                        3500=
201303040550 METAR COR EGLL 040550Z 09009KT 7000 NSC 02/M00 Q1016 TEMPO
                        4000 HZ=
201303040520 METAR COR EGLL 040520Z 09009KT 7000 NSC 02/M00 Q1017 NOSIG=
201303040450 METAR COR EGLL 040450Z 09007KT 7000 NSC 02/M00 Q1017 NOSIG=
201303040420 METAR COR EGLL 040420Z 08006KT 7000 NSC 01/M01 Q1017 TEMPO
                        4000 HZ=
201303040350 METAR COR EGLL 040350Z 07006KT 7000 NSC 01/M01 Q1017 TEMPO
                        4000 HZ=
201303040320 METAR EGLL 040320Z AUTO 07004KT 4500 HZ FEW019/// 01/M01
                        Q1018=
201303040250 METAR EGLL 040250Z AUTO 07004KT 4800 HZ FEW019/// 01/M01
                        Q1018=
201303040220 METAR EGLL 040220Z AUTO 10007KT 5000 BKN019/// 02/M00 Q1018=
201303040150 METAR COR EGLL 040150Z 10006KT 7000 BKN019 03/00 Q1019 TEMPO
                        4000 HZ=
201303040120 METAR COR EGLL 040120Z 11007KT 8000 BKN019 03/01 Q1019 NOSIG=
201303040050 METAR COR EGLL 040050Z 09007KT 8000 BKN019 03/01 Q1019 NOSIG=
201303040020 METAR COR EGLL 040020Z 09006KT 8000 BKN020 03/01 Q1019 TEMPO
                        4500 HZ=
201303032350 METAR COR EGLL 032350Z 09005KT 9000 NSC 01/M00 Q1020 TEMPO
                        4500 HZ BKN012=
201303032320 METAR COR EGLL 032320Z 09006KT 9000 NSC 02/00 Q1020 TEMPO
                        4500 BR BKN010=
201303032250 METAR COR EGLL 032250Z 10008KT 9000 FEW012 03/01 Q1020 TEMPO
                        BKN012=
201303032220 METAR COR EGLL 032220Z 10009KT 9000 SCT013 03/01 Q1021 TEMPO
                        BKN009=
201303032150 METAR COR EGLL 032150Z 10007KT 9000 FEW014 BKN018 03/02 Q1021
                        TEMPO BKN012=
201303032120 METAR COR EGLL 032120Z 13007KT 9000 BKN014 03/01 Q1021 TEMPO
                        SCT012=
201303032050 METAR COR EGLL 032050Z 10005KT 9999 FEW015 03/01 Q1021 TEMPO
                        BKN010=
201303032020 METAR COR EGLL 032020Z 10009KT 9999 SCT012 04/01 Q1021 TEMPO
                        BKN012=
201303031950 METAR COR EGLL 031950Z 09013KT 9999 SCT013 04/02 Q1021 TEMPO
                        BKN012=
201303031920 METAR COR EGLL 031920Z 09008KT 9999 FEW012 05/02 Q1021 TEMPO
                        BKN012=
201303031850 METAR COR EGLL 031850Z 09008KT 9999 FEW030 04/01 Q1021 NOSIG=
201303031820 METAR COR EGLL 031820Z 08008KT 9999 FEW030 06/01 Q1021 NOSIG=
201303031750 METAR COR EGLL 031750Z 09010KT 9999 FEW029 06/01 Q1021 NOSIG=
201303031720 METAR COR EGLL 031720Z 10011KT 9999 SCT030 07/01 Q1021 NOSIG=
201303031650 METAR COR EGLL 031650Z 11010KT 9999 BKN034 07/01 Q1021 NOSIG=
201303031620 METAR COR EGLL 031620Z 10012KT 9999 BKN034 07/00 Q1021 NOSIG=
201303031550 METAR COR EGLL 031550Z 11012KT 9999 BKN033 08/01 Q1022 NOSIG=
201303031520 METAR COR EGLL 031520Z 12013KT 9999 SCT027 08/01 Q1022 NOSIG=
201303031450 METAR COR EGLL 031450Z 11010KT 9999 BKN027 07/01 Q1022 NOSIG=
201303031420 METAR COR EGLL 031420Z 10011KT 9999 BKN028 07/01 Q1022 NOSIG=
201303031350 METAR COR EGLL 031350Z 10012KT 9999 OVC028 07/01 Q1023 NOSIG=
201303031320 METAR COR EGLL 031320Z 10010KT 9999 BKN026 07/01 Q1023 NOSIG=
201303031250 METAR COR EGLL 031250Z 09007KT 9999 OVC025 07/01 Q1023 NOSIG=
201303031220 METAR COR EGLL 031220Z 11009KT 070V130 9999 BKN025 07/01
                        Q1024 NOSIG=
201303031150 METAR COR EGLL 031150Z 12011KT 9999 BKN021 07/01 Q1024 NOSIG=
201303031120 METAR COR EGLL 031120Z 11010KT 9999 BKN022 BKN026 06/01 Q1024
                        NOSIG=
201303031050 METAR COR EGLL 031050Z 10009KT 9999 FEW023 OVC028 06/01 Q1024
                        NOSIG=
201303031020 METAR COR EGLL 031020Z 09005KT 050V120 9999 BKN029 05/01
                        Q1024 NOSIG=
201303030950 METAR COR EGLL 030950Z 04004KT 350V080 9999 BKN028 04/00
                        Q1024 NOSIG=
201303030920 METAR COR EGLL 030920Z VRB03KT 9000 BKN027 03/01 Q1024 NOSIG=
201303030850 METAR COR EGLL 030850Z VRB03KT 8000 BKN028 03/00 Q1024 NOSIG=
201303030820 METAR EGLL 030820Z AUTO VRB02KT 8000 OVC026/// 02/M00 Q1025=
201303030750 METAR EGLL 030750Z AUTO 01003KT 7000 OVC023/// 01/M01 Q1025=
201303030720 METAR EGLL 030720Z AUTO VRB03KT 7000 OVC023/// 00/M01 Q1025=
201303030650 METAR EGLL 030650Z AUTO 36004KT 7000 OVC023/// M00/M02 Q1025=
201303030620 METAR COR EGLL 030620Z 05003KT 7000 BKN024 M01/M02 Q1025
                        NOSIG=
201303030550 METAR COR EGLL 030550Z 00000KT 6000 BKN027 M02/M03 Q1025
                        NOSIG=
201303030520 METAR COR EGLL 030520Z 00000KT 6000 SCT027 M02/M03 Q1025
                        NOSIG=
201303030450 METAR COR EGLL 030450Z 26002KT 6000 SCT025 M02/M03 Q1025
                        NOSIG=
201303030420 METAR COR EGLL 030420Z 00000KT 6000 SCT026 M02/M03 Q1025
                        NOSIG=
201303030350 METAR COR EGLL 030350Z 30002KT 7000 NSC M02/M04 Q1025 NOSIG=
201303030320 METAR COR EGLL 030320Z 00000KT 7000 NSC M02/M03 Q1025 NOSIG=
201303030250 METAR COR EGLL 030250Z 00000KT 7000 NSC M01/M03 Q1025 NOSIG=
201303030120 METAR COR EGLL 030120Z 36002KT 8000 NSC M01/M03 Q1026 NOSIG=
201303030050 METAR COR EGLL 030050Z 36002KT 9000 NSC M01/M03 Q1026 NOSIG=
201303030020 METAR COR EGLL 030020Z VRB02KT 9000 NSC M01/M03 Q1026 NOSIG=
201303022350 METAR COR EGLL 022350Z 00000KT CAVOK 00/M02 Q1026 NOSIG=
201303022320 METAR COR EGLL 022320Z 00000KT CAVOK 01/M02 Q1026 NOSIG=
201303022250 METAR COR EGLL 022250Z 00000KT CAVOK 02/M02 Q1026 NOSIG=
201303022220 METAR COR EGLL 022220Z 35003KT CAVOK 03/M01 Q1026 NOSIG=
201303022150 METAR COR EGLL 022150Z 05002KT CAVOK 03/M01 Q1026 NOSIG=
201303022120 METAR COR EGLL 022120Z 06002KT CAVOK 03/M01 Q1026 NOSIG=
201303022050 METAR COR EGLL 022050Z 06003KT CAVOK 02/M02 Q1026 NOSIG=
201303022020 METAR COR EGLL 022020Z 05002KT CAVOK 02/M02 Q1026 NOSIG=
201303021950 METAR COR EGLL 021950Z 05003KT CAVOK 02/M02 Q1026 NOSIG=
201303021920 METAR COR EGLL 021920Z VRB02KT CAVOK 03/M01 Q1026 NOSIG=
201303021850 METAR COR EGLL 021850Z VRB02KT CAVOK 02/M02 Q1026 NOSIG=
201303021820 METAR COR EGLL 021820Z VRB03KT 9999 FEW025 03/M02 Q1026 NOSIG=
201303021750 METAR COR EGLL 021750Z 36004KT 330V030 CAVOK 03/M02 Q1026
                        NOSIG=
201303021720 METAR COR EGLL 021720Z 04004KT 350V090 9999 SCT023 04/M01
                        Q1026 NOSIG=
201303021650 METAR COR EGLL 021650Z 02004KT 320V090 9999 SCT023 04/M01
                        Q1026 NOSIG=
201303021620 METAR COR EGLL 021620Z 02005KT 330V070 9999 SCT025 05/M01
                        Q1026 NOSIG=
201303021550 METAR COR EGLL 021550Z 35005KT 310V020 9999 BKN025 05/M01
                        Q1026 NOSIG=
201303021520 METAR COR EGLL 021520Z 05004KT 010V090 9999 BKN025 05/M01
                        Q1026 NOSIG=
201303021450 METAR COR EGLL 021450Z 02004KT 330V080 9999 BKN025 05/M01
                        Q1027 NOSIG=
201303021420 METAR COR EGLL 021420Z VRB03KT 9999 BKN023 04/M01 Q1027 NOSIG=
201303021350 METAR COR EGLL 021350Z 07004KT 030V100 9999 BKN020 04/M01
                        Q1027 NOSIG=
201303021320 METAR COR EGLL 021320Z 02004KT 290V090 9999 OVC021 04/M01
                        Q1027 NOSIG=
201303021250 METAR COR EGLL 021250Z VRB04KT 9999 OVC021 04/M01 Q1027 NOSIG=
201303021220 METAR COR EGLL 021220Z VRB03KT 9999 BKN021 04/M01 Q1028 NOSIG=
201303021150 METAR COR EGLL 021150Z VRB03KT 9999 BKN021 04/M01 Q1028 NOSIG=
201303021120 METAR COR EGLL 021120Z 06005KT 020V090 9999 BKN020 03/M01
                        Q1028 NOSIG=
201303021050 METAR COR EGLL 021050Z VRB03KT 9999 OVC020 03/M01 Q1028 NOSIG=
201303021020 METAR COR EGLL 021020Z 06005KT 350V110 9999 OVC019 03/M01
                        Q1028 NOSIG=
201303020950 METAR COR EGLL 020950Z 03005KT 9999 BKN019 03/M01 Q1028 NOSIG=
201303020920 METAR COR EGLL 020920Z 06004KT 020V090 9999 BKN018 03/M01
                        Q1028 NOSIG=
201303020850 METAR COR EGLL 020850Z 04004KT 360V090 9999 BKN018 03/M01
                        Q1028 NOSIG=
201303020820 METAR COR EGLL 020820Z 07006KT 030V090 9999 BKN020 03/M02
                        Q1028 NOSIG=
201303020750 METAR COR EGLL 020750Z 07005KT 030V090 9999 BKN021 03/M02
                        Q1028 NOSIG=
201303020720 METAR COR EGLL 020720Z 06004KT 9999 BKN022 03/M02 Q1028 NOSIG=
201303020650 METAR COR EGLL 020650Z 05004KT 010V090 9999 BKN022 03/M02
                        Q1028 NOSIG=
201303020620 METAR COR EGLL 020620Z 08008KT 9999 BKN023 03/M02 Q1028 NOSIG=
201303020550 METAR COR EGLL 020550Z 03007KT 360V070 9999 BKN023 03/M02
                        Q1028 NOSIG=
201303020520 METAR COR EGLL 020520Z 05007KT 010V080 9999 BKN023 03/M02
                        Q1028 NOSIG=
201303020450 METAR COR EGLL 020450Z 05006KT 9999 BKN024 03/M02 Q1028 NOSIG=
201303020420 METAR COR EGLL 020420Z 06007KT 9999 BKN024 03/M02 Q1029 NOSIG=
201303020350 METAR COR EGLL 020350Z 04005KT 360V080 9999 BKN024 03/M02
                        Q1029 NOSIG=
201303020320 METAR COR EGLL 020320Z 06007KT 020V090 9999 BKN024 03/M02
                        Q1029 NOSIG=
201303020250 METAR COR EGLL 020250Z 04007KT 010V080 9999 BKN024 03/M02
                        Q1029 NOSIG=
201303020220 METAR EGLL 020220Z AUTO 05007KT 020V080 9999 BKN024/// 03/M02
                        Q1029=
201303020150 METAR EGLL 020150Z AUTO 05006KT 9999 OVC024/// 03/M02 Q1029=
201303020120 METAR EGLL 020120Z AUTO 06006KT 9999 OVC024/// 03/M02 Q1030=
201303020050 METAR COR EGLL 020050Z 04005KT 360V070 9999 BKN025 03/M02
                        Q1030 NOSIG=
201303020020 METAR COR EGLL 020020Z 05006KT 360V070 9999 BKN025 04/M02
                        Q1030 NOSIG=
201303012350 METAR COR EGLL 012350Z 07008KT 9999 BKN025 04/M02 Q1030 NOSIG=
201303012320 METAR COR EGLL 012320Z 06009KT 9999 BKN025 04/M02 Q1030 NOSIG=
201303012250 METAR COR EGLL 012250Z 06010KT 9999 BKN025 04/M01 Q1030 NOSIG=
201303012220 METAR COR EGLL 012220Z 05008KT 9999 BKN026 04/M01 Q1030 NOSIG=
201303012150 METAR COR EGLL 012150Z 04007KT 010V070 9999 OVC026 04/M01
                        Q1030 NOSIG=
201303012120 METAR COR EGLL 012120Z 06007KT 020V090 9999 OVC028 04/M02
                        Q1030 NOSIG=
201303012050 METAR COR EGLL 012050Z 04007KT 360V070 9999 OVC029 05/M02
                        Q1029 NOSIG=
201303012020 METAR COR EGLL 012020Z 04008KT 360V060 9999 BKN030 05/M01
                        Q1029 NOSIG=
201303011950 METAR COR EGLL 011950Z 04009KT 010V070 9999 BKN028 05/M01
                        Q1029 NOSIG=
201303011920 METAR COR EGLL 011920Z 04007KT 360V070 9999 BKN030 05/00
                        Q1029 NOSIG=
201303011850 METAR EGLL 011850Z AUTO 02008KT 9999 OVC029/// 06/00 Q1029=
201303011820 METAR COR EGLL 011820Z 05007KT 010V090 9999 BKN033 06/M01
                        Q1029 NOSIG=
201303011750 METAR COR EGLL 011750Z 04008KT 010V070 9999 BKN033 06/M01
                        Q1029 NOSIG=
201303011720 METAR COR EGLL 011720Z 03009KT 360V070 9999 BKN033 06/M01
                        Q1029 NOSIG=
201303011650 METAR COR EGLL 011650Z 06007KT 9999 BKN035 06/M01 Q1029 NOSIG=
201303011620 METAR COR EGLL 011620Z 05009KT 020V080 9999 BKN035 06/M01
                        Q1029 NOSIG=
201303011550 METAR COR EGLL 011550Z 06008KT 020V080 9999 BKN035 06/M01
                        Q1029 NOSIG=
201303011520 METAR COR EGLL 011520Z 07009KT 9999 BKN038 06/M01 Q1029 NOSIG=
201303011450 METAR COR EGLL 011450Z 05009KT 9999 OVC032 06/M00 Q1029 NOSIG=
201303011420 METAR COR EGLL 011420Z 05009KT 9999 BKN032 06/00 Q1029 NOSIG=
201303011350 METAR COR EGLL 011350Z 06010KT 9999 SCT028 BKN034 07/00 Q1029
                        NOSIG=
201303011320 METAR COR EGLL 011320Z 05009KT 9999 SCT022 BKN030 07/01 Q1029
                        NOSIG=
201303011250 METAR EGLL 011250Z 06008KT 9999 FEW022 BKN035 07/02 Q1029
                        NOSIG=
201303011220 METAR COR EGLL 011220Z 06008KT 9999 FEW017 BKN030 06/03 Q1029
                        NOSIG=
201303011150 METAR COR EGLL 011150Z 05009KT 9999 SCT016 BKN024 06/03 Q1029
                        NOSIG=
201303011120 METAR COR EGLL 011120Z 05008KT 010V070 9999 FEW015 BKN034
                        06/03 Q1029 NOSIG=
201303011050 METAR COR EGLL 011050Z 04009KT 9999 FEW014 BKN035 06/04 Q1029
                        NOSIG=
201303011020 METAR COR EGLL 011020Z 05008KT 010V080 9000 -DZ SCT011 SCT037
                        06/04 Q1029 NOSIG=
201303010950 METAR COR EGLL 010950Z 05007KT 010V080 8000 SCT011 BKN014
                        06/04 Q1029 BECMG FEW018 BKN035=
201303010920 METAR COR EGLL 010920Z 04007KT 010V070 9000 SCT008 BKN010
                        05/04 Q1029 BECMG SCT012 BKN030=
201303010850 METAR COR EGLL 010850Z 03005KT 350V070 5000 -DZ FEW007 SCT008
                        BKN010 05/04 Q1029 NOSIG=
201303010820 METAR COR EGLL 010820Z 04005KT 8000 FEW008 BKN009 05/04 Q1029
                        BECMG SCT009 BKN014=
201303010750 METAR COR EGLL 010750Z 02004KT 350V060 7000 SCT008 BKN010
                        04/03 Q1029 NOSIG=
201303010720 METAR COR EGLL 010720Z VRB03KT 4500 -DZ HZ FEW005 BKN006
                        04/03 Q1028 BECMG 7000 SCT006 BKN012=
201303010650 METAR COR EGLL 010650Z VRB03KT 4000 -DZ HZ SCT004 BKN005
                        04/03 Q1028 TEMPO 2200 BKN004=
201303010620 METAR COR EGLL 010620Z 01004KT 340V040 4000 BR SCT004 BKN005
                        03/02 Q1028 TEMPO BKN004=
201303010550 METAR COR EGLL 010550Z 35003KT 2600 -DZ BR SCT005 BKN007
                        03/02 Q1028 TEMPO BKN004=
201303010520 METAR COR EGLL 010520Z 36004KT 3600 -DZ BR FEW003 SCT006
                        BKN009 03/02 Q1028 TEMPO BKN010=
201303010450 METAR COR EGLL 010450Z 36004KT 3000 -DZ BR FEW004 SCT007
                        BKN012 03/02 Q1028 TEMPO BKN006=
201303010420 METAR COR EGLL 010420Z 35004KT 4100 BR FEW006 SCT008 BKN012
                        03/02 Q1028 TEMPO BKN009=
201303010350 METAR COR EGLL 010350Z 36004KT 330V030 5000 BR BKN009 03/01
                        Q1028 NOSIG=
201303010320 METAR COR EGLL 010320Z 35004KT 330V030 4900 BR FEW006 SCT009
                        BKN011 03/01 Q1028 TEMPOP BKN009=
201303010250 METAR COR EGLL 010250Z 36005KT 4900 BR BKN013 03/01 Q1029
                        TEMPO BKN007=
201303010220 METAR EGLL 010220Z AUTO 04004KT 360V080 7000 BKN012/// BKN020///
                        03/01 Q1029=
201303010150 METAR EGLL 010150Z AUTO 07005KT 9999 SCT010/// BKN013///
                        03/01 Q1029=
201303010120 METAR EGLL 010120Z AUTO 06007KT 020V090 9999 BKN011/// 03/00
                        Q1029=
201303010050 METAR COR EGLL 010050Z 05007KT 360V070 9999 BKN011 02/M00
                        Q1030 BECMG BKN009=
201303010020 METAR COR EGLL 010020Z 05007KT 010V080 9999 BKN012 02/M00
                        Q1030 BECMG BKN009=
