##########################################################
# Query made at 01/13/2020 12:57:22 UTC
# Time interval: from 03/01/2017 00:00  to 03/31/2017 23:59  UTC
##########################################################

##########################################################
# EGLL, London / Heathrow Airport (United Kingdom)
# WMO index: 03772
# Latitude 51-29N. Longitude 000-27W. Altitude 24 m.
##########################################################

###################################
#  METAR/SPECI from EGLL
###################################
201703312350 METAR COR EGLL 312350Z AUTO 15008KT 9999 NCD 10/07 Q1008
                        NOSIG=
201703312320 METAR COR EGLL 312320Z AUTO 13007KT 9999 NCD 09/07 Q1008
                        NOSIG=
201703312250 METAR COR EGLL 312250Z AUTO 13004KT 9999 NCD 08/06 Q1009
                        NOSIG=
201703312220 METAR COR EGLL 312220Z AUTO 15005KT 9999 NCD 09/07 Q1009
                        NOSIG=
201703312150 METAR COR EGLL 312150Z AUTO 15007KT 9999 NCD 10/07 Q1009
                        NOSIG=
201703312120 METAR COR EGLL 312120Z AUTO 16008KT 9999 NCD 11/07 Q1009
                        NOSIG=
201703312050 METAR COR EGLL 312050Z AUTO 16008KT 9999 NCD 11/07 Q1009
                        NOSIG=
201703312020 METAR COR EGLL 312020Z AUTO 15008KT 110V170 9999 NCD 12/07
                        Q1009 NOSIG=
201703311950 METAR COR EGLL 311950Z AUTO VRB06KT 9999 NCD 11/07 Q1010
                        NOSIG=
201703311920 METAR COR EGLL 311920Z AUTO 17006KT 110V210 9999 NCD 12/07
                        Q1010 NOSIG=
201703311850 METAR COR EGLL 311850Z AUTO 21007KT 180V240 9999 FEW043 13/07
                        Q1010 NOSIG=
201703311820 METAR COR EGLL 311820Z 22010KT 9999 FEW037 14/07 Q1010 NOSIG=
201703311750 METAR COR EGLL 311750Z 22012KT 9999 FEW038 14/06 Q1010 NOSIG=
201703311720 METAR COR EGLL 311720Z 22011KT 9999 SCT036 14/06 Q1010 NOSIG=
201703311650 METAR COR EGLL 311650Z 23012KT 9999 SCT034 15/07 Q1010 NOSIG=
201703311620 METAR COR EGLL 311620Z AUTO 22016KT 9999 SCT036 15/06 Q1010
                        NOSIG=
201703311550 METAR COR EGLL 311550Z AUTO 21016G27KT 9999 FEW043 15/05
                        Q1010 NOSIG=
201703311520 METAR EGLL 311520Z AUTO 22019KT 190V250 9999 SCT037 16/06
                        Q1010=
201703311450 METAR COR EGLL 311450Z AUTO 22016KT 9999 SCT038 16/06 Q1010
                        NOSIG=
201703311420 METAR COR EGLL 311420Z AUTO 22016KT 9999 BKN038 16/06 Q1010
                        NOSIG=
201703311350 METAR COR EGLL 311350Z AUTO 21014KT 170V240 9999 BKN034 16/07
                        Q1010 NOSIG=
201703311320 METAR COR EGLL 311320Z AUTO 23015KT 9999 BKN031 15/07 Q1010
                        NOSIG=
201703311250 METAR COR EGLL 311250Z AUTO 22013KT 9999 BKN024 OVC041 15/08
                        Q1010 NOSIG=
201703311220 METAR COR EGLL 311220Z AUTO 23016KT 9999 BKN024 OVC038 14/08
                        Q1010 NOSIG=
201703311150 METAR COR EGLL 311150Z AUTO 23014KT 9999 BKN020 OVC035 14/08
                        Q1010 NOSIG=
201703311120 METAR COR EGLL 311120Z AUTO 21013KT 190V250 9999 BKN020 OVC035
                        13/09 Q1010 NOSIG=
201703311050 METAR COR EGLL 311050Z AUTO 23017KT 9999 SCT018 OVC032 13/09
                        Q1011 NOSIG=
201703311020 METAR COR EGLL 311020Z AUTO 23013KT 9999 BKN018 OVC032 13/09
                        Q1011 NOSIG=
201703310950 METAR COR EGLL 310950Z AUTO 23012KT 190V280 9999 SCT014 OVC025
                        13/10 Q1010 NOSIG=
201703310920 METAR COR EGLL 310920Z AUTO 22011KT 190V250 9999 BKN011 13/10
                        Q1010 BECMG BKN018=
201703310850 METAR COR EGLL 310850Z AUTO 22011KT 9999 OVC013 13/10 Q1010
                        TEMPO BKN018=
201703310820 METAR COR EGLL 310820Z AUTO 22013KT 9999 -RA BKN015 13/10
                        Q1010 TEMPO -RA BKN014=
201703310750 METAR COR EGLL 310750Z AUTO 20008KT 9999 NCD 13/09 Q1010
                        TEMPO -RA BKN014=
201703310720 METAR COR EGLL 310720Z AUTO 20007KT 170V230 9999 FEW011 12/09
                        Q1010 TEMPO -RA BKN014=
201703310650 METAR COR EGLL 310650Z AUTO 19006KT 160V240 9999 NCD 12/09
                        Q1009 NOSIG=
201703310620 METAR COR EGLL 310620Z AUTO 22005KT 180V250 9999 NCD 12/09
                        Q1009 NOSIG=
201703310550 METAR COR EGLL 310550Z AUTO 22004KT 180V250 9999 NCD 12/09
                        Q1009 NOSIG=
201703310520 METAR COR EGLL 310520Z AUTO 21006KT 170V250 9999 NCD 12/08
                        Q1009 NOSIG=
201703310450 METAR COR EGLL 310450Z AUTO 23007KT 9999 NCD 12/08 Q1009
                        NOSIG=
201703310420 METAR COR EGLL 310420Z AUTO 21006KT 9999 NCD 12/08 Q1010
                        NOSIG=
201703310350 METAR COR EGLL 310350Z AUTO 20006KT 9999 NCD 12/08 Q1009
                        NOSIG=
201703310320 METAR COR EGLL 310320Z AUTO 20005KT 9999 NCD 13/08 Q1009
                        NOSIG=
201703310250 METAR COR EGLL 310250Z AUTO 18006KT 9999 NCD 13/08 Q1010
                        NOSIG=
201703310220 METAR COR EGLL 310220Z AUTO 17007KT 9999 NCD 13/08 Q1010
                        NOSIG=
201703310150 METAR COR EGLL 310150Z AUTO 17007KT 9999 NCD 13/08 Q1010
                        NOSIG=
201703310120 METAR COR EGLL 310120Z AUTO 17007KT 9999 NCD 14/08 Q1011
                        NOSIG=
201703310050 METAR COR EGLL 310050Z AUTO 17007KT 9999 NCD 14/08 Q1011
                        NOSIG=
201703310020 METAR COR EGLL 310020Z AUTO 17007KT 9999 NCD 15/08 Q1011
                        NOSIG=
201703302350 METAR COR EGLL 302350Z AUTO 15005KT 9999 NCD 14/08 Q1012
                        NOSIG=
201703302320 METAR COR EGLL 302320Z AUTO 16005KT 9999 NCD 15/08 Q1012
                        NOSIG=
201703302250 METAR COR EGLL 302250Z AUTO 15006KT 9999 NCD 15/08 Q1013
                        NOSIG=
201703302220 METAR COR EGLL 302220Z AUTO 15006KT 9999 NCD 15/09 Q1013
                        NOSIG=
201703302150 METAR COR EGLL 302150Z AUTO 16006KT 9999 NCD 16/09 Q1013
                        NOSIG=
201703302120 METAR COR EGLL 302120Z AUTO 15005KT 9999 NCD 16/09 Q1014
                        NOSIG=
201703302050 METAR COR EGLL 302050Z AUTO 14006KT 100V170 9999 NCD 17/09
                        Q1014 NOSIG=
201703302020 METAR COR EGLL 302020Z AUTO 14006KT 110V180 9999 NCD 17/08
                        Q1015 NOSIG=
201703301950 METAR COR EGLL 301950Z AUTO 14006KT 110V210 9999 NCD 17/08
                        Q1015 NOSIG=
201703301920 METAR COR EGLL 301920Z AUTO 15007KT 110V190 9999 NCD 18/08
                        Q1015 NOSIG=
201703301850 METAR COR EGLL 301850Z AUTO 18009KT 140V210 9999 NCD 18/08
                        Q1015 NOSIG=
201703301820 METAR COR EGLL 301820Z AUTO 16008KT 110V190 9999 NCD 18/08
                        Q1015 NOSIG=
201703301750 METAR COR EGLL 301750Z AUTO VRB07KT 9999 NCD 19/09 Q1016
                        NOSIG=
201703301720 METAR COR EGLL 301720Z AUTO 18007KT 150V220 9999 NCD 19/09
                        Q1016 NOSIG=
201703301650 METAR COR EGLL 301650Z AUTO 20010KT 9999 NCD 19/09 Q1016
                        NOSIG=
201703301620 METAR COR EGLL 301620Z AUTO 18010KT 150V220 9999 NCD 19/09
                        Q1016 NOSIG=
201703301550 METAR COR EGLL 301550Z AUTO 18012KT 9999 NCD 20/09 Q1017
                        NOSIG=
201703301520 METAR COR EGLL 301520Z AUTO 19011KT 9999 NCD 20/09 Q1017
                        NOSIG=
201703301450 METAR COR EGLL 301450Z AUTO 19012KT 160V230 9999 NCD 21/08
                        Q1017 NOSIG=
201703301420 METAR COR EGLL 301420Z AUTO 18012KT 150V210 9999 NCD 21/08
                        Q1017 NOSIG=
201703301350 METAR COR EGLL 301350Z AUTO 19013KT 170V240 9999 NCD 21/08
                        Q1018 NOSIG=
201703301320 METAR COR EGLL 301320Z AUTO 20014KT 9999 NCD 21/07 Q1018
                        NOSIG=
201703301250 METAR COR EGLL 301250Z AUTO 20013G25KT 170V250 9999 NCD 21/08
                        Q1019 NOSIG=
201703301220 METAR COR EGLL 301220Z AUTO 21013KT 170V240 9999 NCD 20/07
                        Q1019 NOSIG=
201703301150 METAR COR EGLL 301150Z AUTO 20012G24KT 150V240 9999 NCD 19/08
                        Q1019 NOSIG=
201703301120 METAR COR EGLL 301120Z AUTO 20011G21KT 160V230 9999 NCD 19/08
                        Q1019 NOSIG=
201703301050 METAR COR EGLL 301050Z AUTO 19010KT 150V250 9999 NCD 18/08
                        Q1020 NOSIG=
201703301020 METAR COR EGLL 301020Z AUTO 20011KT 150V240 9999 NCD 17/10
                        Q1020 NOSIG=
201703300950 METAR COR EGLL 300950Z AUTO 19009KT 160V240 9999 NCD 16/10
                        Q1020 NOSIG=
201703300920 METAR COR EGLL 300920Z AUTO 19008KT 150V240 9999 NCD 15/10
                        Q1021 NOSIG=
201703300850 METAR COR EGLL 300850Z AUTO 19008KT 150V240 9999 NCD 15/10
                        Q1021 NOSIG=
201703300820 METAR COR EGLL 300820Z AUTO 19008KT 9999 NCD 14/10 Q1020
                        NOSIG=
201703300750 METAR COR EGLL 300750Z AUTO 19006KT 130V240 9999 NCD 13/09
                        Q1020 NOSIG=
201703300720 METAR COR EGLL 300720Z AUTO 15005KT 100V220 9999 NCD 12/09
                        Q1020 NOSIG=
201703300650 METAR COR EGLL 300650Z AUTO 17006KT 130V220 9999 FEW049 12/09
                        Q1020 NOSIG=
201703300620 METAR COR EGLL 300620Z 20006KT 9999 SCT023 12/08 Q1020 NOSIG=
201703300550 METAR COR EGLL 300550Z 20007KT 160V240 9999 FEW018 BKN028
                        12/08 Q1021 NOSIG=
201703300520 METAR COR EGLL 300520Z AUTO 20005KT 160V250 9999 BKN032 12/08
                        Q1021 NOSIG=
201703300450 METAR COR EGLL 300450Z AUTO 19005KT 9999 BKN043 12/08 Q1021
                        NOSIG=
201703300420 METAR COR EGLL 300420Z AUTO 21006KT 9999 SCT043 12/08 Q1021
                        NOSIG=
201703300350 METAR COR EGLL 300350Z AUTO 22005KT 9999 FEW044 13/08 Q1021
                        NOSIG=
201703300320 METAR COR EGLL 300320Z AUTO 20007KT 9999 FEW039 13/08 Q1020
                        NOSIG=
201703300250 METAR COR EGLL 300250Z AUTO 20007KT 9999 NCD 13/08 Q1020
                        NOSIG=
201703300220 METAR COR EGLL 300220Z AUTO 20007KT 9999 NCD 13/08 Q1021
                        NOSIG=
201703300150 METAR COR EGLL 300150Z AUTO 20006KT 9999 NCD 12/09 Q1021
                        NOSIG=
201703300120 METAR COR EGLL 300120Z AUTO 21008KT 9999 NCD 12/09 Q1021
                        NOSIG=
201703300050 METAR COR EGLL 300050Z AUTO 20008KT 9999 NCD 12/09 Q1021
                        NOSIG=
201703300020 METAR COR EGLL 300020Z AUTO 21005KT 9999 NCD 12/09 Q1021
                        NOSIG=
201703292350 METAR COR EGLL 292350Z AUTO 21006KT 9999 NCD 12/09 Q1022
                        NOSIG=
201703292320 METAR COR EGLL 292320Z AUTO 20006KT 9999 NCD 12/09 Q1022
                        NOSIG=
201703292250 METAR COR EGLL 292250Z AUTO 19005KT 9999 NCD 12/09 Q1022
                        NOSIG=
201703292220 METAR COR EGLL 292220Z AUTO 20007KT 9999 NCD 13/10 Q1022
                        NOSIG=
201703292150 METAR COR EGLL 292150Z AUTO 19008KT 9999 OVC047 13/10 Q1022
                        NOSIG=
201703292120 METAR COR EGLL 292120Z AUTO 19007KT 9999 SCT035 13/10 Q1022
                        NOSIG=
201703292050 METAR COR EGLL 292050Z AUTO 19009KT 9999 OVC041 14/10 Q1022
                        NOSIG=
201703292020 METAR COR EGLL 292020Z AUTO 22009KT 9999 BKN048 14/11 Q1022
                        NOSIG=
201703291950 METAR COR EGLL 291950Z AUTO 21008KT 9999 BKN049 14/11 Q1022
                        NOSIG=
201703291920 METAR COR EGLL 291920Z AUTO 21009KT 9999 SCT048 14/11 Q1021
                        NOSIG=
201703291850 METAR COR EGLL 291850Z AUTO 21008KT 9999 FEW020 OVC047 14/11
                        Q1022 NOSIG=
201703291820 METAR COR EGLL 291820Z AUTO 21008KT 9999 SCT016 OVC043 14/11
                        Q1022 NOSIG=
201703291750 METAR COR EGLL 291750Z AUTO 22012KT 9999 BKN016 15/11 Q1022
                        NOSIG=
201703291720 METAR COR EGLL 291720Z AUTO 23011KT 9999 OVC017 15/11 Q1022
                        NOSIG=
201703291650 METAR COR EGLL 291650Z AUTO 23011KT 9999 BKN017 OVC043 15/11
                        Q1021 NOSIG=
201703291620 METAR COR EGLL 291620Z AUTO 23015KT 9999 BKN014 15/11 Q1021
                        BECMG SCT014 BKN020=
201703291550 METAR COR EGLL 291550Z AUTO 22012KT 9999 OVC012 14/11 Q1021
                        BECMG FEW014 BKN018=
201703291520 METAR COR EGLL 291520Z AUTO 21011KT 9999 OVC011 14/11 Q1021
                        TEMPO FEW012 BKN015=
201703291450 METAR COR EGLL 291450Z AUTO 22012KT 9999 OVC010 13/11 Q1022
                        TEMPO FEW010 BKN015=
201703291420 METAR COR EGLL 291420Z AUTO 22012KT 9999 OVC011 13/11 Q1022
                        TEMPO SCT012 BKN015=
201703291350 METAR COR EGLL 291350Z 23014KT 9999 VCSH BKN016 14/11 Q1022
                        NOSIG=
201703291320 METAR COR EGLL 291320Z AUTO 22014KT 9999 OVC016 14/10 Q1022
                        NOSIG=
201703291250 METAR COR EGLL 291250Z AUTO 22015KT 190V250 9999 BKN020 15/10
                        Q1022 NOSIG=
201703291220 METAR COR EGLL 291220Z AUTO 22013KT 180V250 9999 BKN015 14/10
                        Q1022 NOSIG=
201703291150 METAR COR EGLL 291150Z AUTO 22012KT 180V250 9999 OVC014 14/11
                        Q1022 BECMG BKN018=
201703291120 METAR COR EGLL 291120Z AUTO 22013KT 9999 OVC013 14/11 Q1023
                        BECMG BKN018=
201703291050 METAR COR EGLL 291050Z AUTO 23013KT 9999 OVC012 14/11 Q1023
                        BECMG FEW014 BKN020=
201703291020 METAR COR EGLL 291020Z AUTO 23013KT 9999 OVC011 13/11 Q1023
                        BECMG SCT014 BKN018=
201703290950 METAR COR EGLL 290950Z AUTO 21011KT 170V240 9999 BKN011 13/11
                        Q1022 BECMG SCT014 BKN018=
201703290920 METAR COR EGLL 290920Z AUTO 22012KT 9999 OVC012 13/10 Q1022
                        BECMG SCT014 BKN018=
201703290850 METAR COR EGLL 290850Z AUTO 23011KT 9999 OVC012 13/10 Q1022
                        BECMG SCT014 BKN018=
201703290820 METAR COR EGLL 290820Z AUTO 23011KT 9999 OVC012 13/10 Q1022
                        BECMG SCT014 BKN018=
201703290750 METAR COR EGLL 290750Z AUTO 23012KT 9999 OVC012 12/10 Q1022
                        TEMPO SCT014 BKN018=
201703290720 METAR COR EGLL 290720Z AUTO 23011KT 9999 BKN013 12/10 Q1021
                        TEMPO SCT014 BKN018=
201703290650 METAR COR EGLL 290650Z 23012KT 9999 FEW013 BKN017 12/10 Q1021
                        TEMPO BKN014=
201703290620 METAR COR EGLL 290620Z AUTO 22010KT 9999 BKN013 12/10 Q1021
                        BECMG SCT014 BKN018=
201703290550 METAR COR EGLL 290550Z AUTO 23012KT 9999 BKN011 12/10 Q1021
                        TEMPO SCT011 BKN015=
201703290520 METAR COR EGLL 290520Z AUTO 22011KT 9999 OVC011 12/10 Q1020
                        NOSIG=
201703290450 METAR COR EGLL 290450Z AUTO 22011KT 9999 BKN012 12/10 Q1020
                        NOSIG=
201703290420 METAR COR EGLL 290420Z AUTO 22012KT 9999 BKN013 12/10 Q1020
                        TEMPO BKN008=
201703290350 METAR COR EGLL 290350Z AUTO 22010KT 9999 OVC013 12/10 Q1020
                        TEMPO BKN008=
201703290320 METAR COR EGLL 290320Z AUTO 22013KT 9999 -RA BKN013 12/10
                        Q1020 TEMPO BKN008=
201703290220 METAR COR EGLL 290220Z AUTO 22013KT 9999 BKN013 12/10 Q1020
                        NOSIG=
201703290150 METAR COR EGLL 290150Z AUTO 22013KT 9999 OVC012 12/10 Q1020
                        TEMPO BKN008=
201703290120 METAR COR EGLL 290120Z AUTO 22016KT 9999 OVC012 12/10 Q1020
                        TEMPO BKN008=
201703290050 METAR COR EGLL 290050Z AUTO 22016G27KT 9999 OVC015 12/09
                        Q1020 TEMPO BKN012=
201703290020 METAR COR EGLL 290020Z AUTO 21009KT 9999 BKN021 12/09 Q1020
                        TEMPO BKN012=
201703282350 METAR COR EGLL 282350Z AUTO 19008KT 9999 BKN030 OVC045 11/09
                        Q1020 NOSIG=
201703282320 METAR COR EGLL 282320Z AUTO 18006KT 9999 -RA OVC041 11/09
                        Q1021 NOSIG=
201703282250 METAR COR EGLL 282250Z AUTO 18006KT 9999 -RA BKN039 11/09
                        Q1021 NOSIG=
201703282220 METAR COR EGLL 282220Z AUTO 20007KT 9999 -RA BKN047 11/09
                        Q1021 TEMPO RA=
201703282150 METAR COR EGLL 282150Z AUTO 21008KT 9999 -RA BKN047 12/09
                        Q1021 TEMPO RA=
201703282120 METAR COR EGLL 282120Z AUTO 22009KT 9999 -RA FEW019 12/09
                        Q1021 TEMPO RA=
201703282050 METAR COR EGLL 282050Z AUTO 21009KT 9999 -RA SCT020 12/08
                        Q1021 NOSIG=
201703282020 METAR COR EGLL 282020Z AUTO 21010KT 9999 NCD 12/08 Q1021
                        NOSIG=
201703281950 METAR COR EGLL 281950Z AUTO 22012KT 9999 NCD 13/08 Q1021
                        NOSIG=
201703281920 METAR COR EGLL 281920Z AUTO 21011KT 9999 NCD 13/08 Q1021
                        NOSIG=
201703281850 METAR COR EGLL 281850Z AUTO 22012KT 9999 NCD 13/08 Q1021
                        NOSIG=
201703281820 METAR COR EGLL 281820Z AUTO 22011KT 9999 NCD 13/08 Q1020
                        NOSIG=
201703281750 METAR COR EGLL 281750Z AUTO 22015KT 9999 FEW026 14/08 Q1020
                        NOSIG=
201703281720 METAR COR EGLL 281720Z AUTO 22015KT 9999 NCD 14/08 Q1020
                        NOSIG=
201703281650 METAR COR EGLL 281650Z AUTO 22013KT 9999 NCD 14/08 Q1020
                        NOSIG=
201703281620 METAR COR EGLL 281620Z AUTO 22014KT 9999 FEW031 15/07 Q1020
                        NOSIG=
201703281550 METAR COR EGLL 281550Z AUTO 22017KT 9999 NCD 15/07 Q1020
                        NOSIG=
201703281520 METAR COR EGLL 281520Z AUTO 22015KT 9999 SCT038 17/07 Q1020
                        NOSIG=
201703281450 METAR COR EGLL 281450Z AUTO 22011KT 9999 BKN036 17/08 Q1019
                        NOSIG=
201703281420 METAR COR EGLL 281420Z AUTO 23010KT 190V260 9999 SCT034 17/08
                        Q1019 NOSIG=
201703281350 METAR COR EGLL 281350Z AUTO 23009KT 9999 SCT029 17/08 Q1020
                        NOSIG=
201703281320 METAR COR EGLL 281320Z AUTO 24012KT 210V270 9999 SCT026 16/09
                        Q1020 NOSIG=
201703281250 METAR COR EGLL 281250Z AUTO 24013KT 9999 FEW029 16/08 Q1020
                        NOSIG=
201703281220 METAR COR EGLL 281220Z AUTO 24013KT 9999 BKN031 16/09 Q1020
                        NOSIG=
201703281150 METAR COR EGLL 281150Z AUTO 22010KT 9999 SCT031 16/09 Q1020
                        NOSIG=
201703281120 METAR COR EGLL 281120Z AUTO 23006KT 170V270 9999 NCD 16/09
                        Q1020 NOSIG=
201703281050 METAR COR EGLL 281050Z AUTO 25007KT 210V300 7000 NCD 15/09
                        Q1020 NOSIG=
201703281020 METAR COR EGLL 281020Z AUTO 24009KT 210V270 7000 NCD 14/09
                        Q1020 NOSIG=
201703280950 METAR COR EGLL 280950Z 22006KT 170V270 7000 NSC 13/08 Q1020
                        NOSIG=
201703280920 METAR EGLL 280920Z 20006KT 160V270 7000 NSC 11/07 Q1020=
201703280850 METAR COR EGLL 280850Z 22006KT 170V260 6000 NSC 11/07 Q1020
                        NOSIG=
201703280820 METAR COR EGLL 280820Z AUTO VRB03KT 3600 HZ NCD 10/07 Q1019
                        BECMG 5000=
201703280750 METAR COR EGLL 280750Z AUTO 08004KT 050V120 3100 HZ NCD 09/07
                        Q1019 NOSIG=
201703280720 METAR COR EGLL 280720Z AUTO 09004KT 2400 HZ NCD 08/07 Q1019
                        NOSIG=
201703280650 METAR COR EGLL 280650Z AUTO 08004KT 050V120 2100 HZ NCD 06/06
                        Q1019 NOSIG=
201703280620 METAR COR EGLL 280620Z AUTO 08005KT 1900 HZ NCD 07/06 Q1019
                        NOSIG=
201703280550 METAR COR EGLL 280550Z AUTO 08003KT 1900 BR NCD 07/06 Q1019
                        TEMPO 1000=
201703280520 METAR COR EGLL 280520Z AUTO 10005KT 1500 BR FEW003 06/06
                        Q1019 TEMPO 1000 BKN003=
201703280450 METAR COR EGLL 280450Z AUTO 09004KT 1500 BR SCT004 06/06
                        Q1019 TEMPO 1000 BKN003=
201703280420 METAR COR EGLL 280420Z 09003KT 1500 BR BKN004 OVC005 06/06
                        Q1019 TEMPO 1000 BKN002=
201703280350 METAR COR EGLL 280350Z AUTO 08004KT 1500 BR OVC003 06/06
                        Q1019 TEMPO 0800 FG BKN002=
201703280320 METAR COR EGLL 280320Z AUTO 06003KT 1400 R27L/P1500 BR OVC003
                        06/06 Q1019 TEMPO 0800 FG BKN002=
201703280250 METAR COR EGLL 280250Z AUTO 06003KT 1400 BR OVC003 06/05
                        Q1019 TEMPO 0800 FG BKN002=
201703280220 METAR COR EGLL 280220Z AUTO 07004KT 1400 R27L/P1500 BR BKN003
                        05/05 Q1019 TEMPO 0800 FG BKN002=
201703280150 METAR COR EGLL 280150Z AUTO 07003KT 1200 R27L/P1500 BR BKN003
                        05/05 Q1020 TEMPO 0800 FG BKN001=
201703280120 METAR COR EGLL 280120Z AUTO 08004KT 1300 R27L/P1500 BR SCT003
                        05/05 Q1020 TEMPO 0800 FG BKN001=
201703280050 METAR COR EGLL 280050Z AUTO 08004KT 1600 BR BKN004 06/05
                        Q1020 TEMPO 0800 FG BKN001=
201703280020 METAR COR EGLL 280020Z AUTO 08004KT 1300 R27L/P1500 BR FEW005
                        05/05 Q1020 TEMPO 0800 FG BKN002=
201703272350 METAR COR EGLL 272350Z AUTO 07003KT 1300 R27L/P1500 BR NCD
                        06/05 Q1020 TEMPO 0800 FG BKN002=
201703272320 METAR COR EGLL 272320Z AUTO 06004KT 1800 BR NCD 06/05 Q1020
                        TEMPO 1400 BKN004=
201703272250 METAR EGLL 272250Z AUTO 07004KT 2300 HZ NCD 07/06 Q1020=
201703272220 METAR COR EGLL 272220Z AUTO 07003KT 3400 HZ NCD 08/06 Q1020
                        BECMG 2500 BR=
201703272150 METAR COR EGLL 272150Z AUTO 08003KT 4300 HZ NCD 08/06 Q1020
                        BECMG 2500 BR=
201703272120 METAR COR EGLL 272120Z AUTO 07005KT 4600 HZ NCD 08/06 Q1021
                        NOSIG=
201703272050 METAR COR EGLL 272050Z AUTO 07006KT 5000 HZ NCD 10/06 Q1021
                        BECMG 4500 HZ=
201703272020 METAR COR EGLL 272020Z AUTO 07005KT 6000 NCD 10/06 Q1021
                        BECMG 4500 HZ=
201703271950 METAR COR EGLL 271950Z AUTO 08005KT 6000 NCD 10/06 Q1020
                        BECMG 4500 HZ=
201703271920 METAR COR EGLL 271920Z AUTO 10007KT 6000 NCD 10/06 Q1020
                        BECMG 4500 HZ=
201703271850 METAR COR EGLL 271850Z AUTO 12009KT 7000 NCD 11/07 Q1020
                        NOSIG=
201703271820 METAR COR EGLL 271820Z AUTO 12009KT 8000 NCD 12/07 Q1020
                        NOSIG=
201703271750 METAR COR EGLL 271750Z AUTO 13007KT 8000 NCD 14/06 Q1020
                        NOSIG=
201703271720 METAR COR EGLL 271720Z AUTO 09005KT 050V110 8000 NCD 14/08
                        Q1019 NOSIG=
201703271650 METAR COR EGLL 271650Z AUTO 09007KT 8000 NCD 15/07 Q1019
                        NOSIG=
201703271620 METAR COR EGLL 271620Z AUTO 11007KT 8000 NCD 15/07 Q1019
                        NOSIG=
201703271550 METAR COR EGLL 271550Z AUTO 12008KT 9000 NCD 16/07 Q1020
                        NOSIG=
201703271520 METAR COR EGLL 271520Z AUTO 10007KT 050V130 9999 NCD 15/06
                        Q1020 NOSIG=
201703271450 METAR COR EGLL 271450Z AUTO 10007KT 9000 NCD 15/06 Q1020
                        NOSIG=
201703271420 METAR COR EGLL 271420Z AUTO 11006KT 070V150 9000 NCD 15/06
                        Q1020 NOSIG=
201703271350 METAR COR EGLL 271350Z AUTO 10008KT 060V120 9999 NCD 15/06
                        Q1021 NOSIG=
201703271320 METAR COR EGLL 271320Z AUTO 12007KT 070V140 9000 NCD 15/07
                        Q1021 NOSIG=
201703271250 METAR COR EGLL 271250Z AUTO 05006KT 010V100 8000 NCD 15/07
                        Q1021 NOSIG=
201703271220 METAR COR EGLL 271220Z AUTO 07006KT 030V110 8000 NCD 14/07
                        Q1022 NOSIG=
201703271150 METAR COR EGLL 271150Z AUTO 07009KT 040V110 8000 NCD 13/07
                        Q1022 NOSIG=
201703271120 METAR COR EGLL 271120Z AUTO 07009KT 040V100 8000 NCD 12/07
                        Q1022 NOSIG=
201703271050 METAR COR EGLL 271050Z AUTO 05006KT 010V090 8000 NCD 12/07
                        Q1023 NOSIG=
201703271020 METAR COR EGLL 271020Z AUTO 06007KT 7000 FEW013 11/07 Q1023
                        NOSIG=
201703270950 METAR COR EGLL 270950Z 08007KT 7000 FEW010 SCT012 09/06 Q1023
                        NOSIG=
201703270920 METAR COR EGLL 270920Z 07008KT 5000 HZ SCT009 SCT010 BKN012
                        09/06 Q1023 BECMG SCT012=
201703270850 METAR COR EGLL 270850Z 06007KT 4800 HZ SCT008 BKN009 08/06
                        Q1023 BECMG 7000 SCT009=
201703270820 METAR COR EGLL 270820Z 06007KT 4500 HZ SCT007 BKN009 08/06
                        Q1023 BECMG 5000=
201703270750 METAR COR EGLL 270750Z 05005KT 010V080 4200 HZ SCT007 BKN008
                        07/06 Q1023 BECMG 5000 BKN010=
201703270720 METAR COR EGLL 270720Z 06007KT 4000 HZ BKN006 07/06 Q1023
                        BECMG 5000=
201703270650 METAR COR EGLL 270650Z 08007KT 4000 HZ BKN006 07/06 Q1023
                        BECMG 5000=
201703270620 METAR COR EGLL 270620Z 07007KT 3600 HZ SCT005 BKN006 07/06
                        Q1023 BECMG 5000=
201703270550 METAR COR EGLL 270550Z 07007KT 3500 HZ BKN005 07/06 Q1023
                        BECMG 5000=
201703270520 METAR COR EGLL 270520Z 06008KT 3400 BR BKN005 07/06 Q1023
                        TEMPO BKN004=
201703270450 METAR COR EGLL 270450Z 07007KT 3800 BR BKN004 BKN005 07/06
                        Q1023 NOSIG=
201703270420 METAR COR EGLL 270420Z 07007KT 2900 BR SCT004 BKN006 06/06
                        Q1023 TEMPO BKN004=
201703270350 METAR COR EGLL 270350Z 06007KT 3200 BR SCT004 BKN005 06/06
                        Q1023 NOSIG=
201703270320 METAR COR EGLL 270320Z AUTO 06008KT 3600 HZ OVC004 06/06
                        Q1023 NOSIG=
201703270250 METAR COR EGLL 270250Z AUTO 06006KT 020V090 5000 HZ OVC006
                        07/06 Q1023 BECMG 4000 BR BKN004=
201703270220 METAR COR EGLL 270220Z AUTO 05005KT 8000 OVC008 07/05 Q1023
                        NOSIG=
201703270150 METAR COR EGLL 270150Z AUTO 05006KT 9999 OVC009 07/05 Q1023
                        NOSIG=
201703270120 METAR COR EGLL 270120Z AUTO 05004KT 9999 BKN010 07/05 Q1023
                        TEMPO BKN009=
201703270050 METAR COR EGLL 270050Z AUTO 04004KT 9999 SCT011 06/04 Q1024
                        TEMPO BKN010=
201703270020 METAR COR EGLL 270020Z AUTO 05004KT 9999 SCT011 07/04 Q1024
                        TEMPO BKN009=
201703262350 METAR COR EGLL 262350Z AUTO 05004KT 9999 NCD 07/05 Q1024
                        NOSIG=
201703262320 METAR COR EGLL 262320Z AUTO 06007KT 9999 NCD 08/05 Q1024
                        NOSIG=
201703262250 METAR COR EGLL 262250Z AUTO 07007KT 9999 NCD 08/05 Q1024
                        NOSIG=
201703262220 METAR COR EGLL 262220Z AUTO 08007KT 9999 NCD 08/05 Q1024
                        NOSIG=
201703262150 METAR COR EGLL 262150Z AUTO 10009KT 9999 NCD 09/05 Q1024
                        NOSIG=
201703262120 METAR COR EGLL 262120Z AUTO 09005KT 050V110 9999 NCD 09/05
                        Q1024 NOSIG=
201703262050 METAR COR EGLL 262050Z AUTO 08007KT 9999 NCD 10/05 Q1024
                        NOSIG=
201703262020 METAR COR EGLL 262020Z AUTO 08009KT 9999 NCD 10/05 Q1023
                        NOSIG=
201703261950 METAR COR EGLL 261950Z AUTO 07011KT 9999 NCD 10/05 Q1023
                        NOSIG=
201703261920 METAR COR EGLL 261920Z AUTO 07011KT 9999 NCD 11/05 Q1023
                        NOSIG=
201703261850 METAR COR EGLL 261850Z AUTO 07013KT 9999 NCD 11/05 Q1023
                        NOSIG=
201703261820 METAR COR EGLL 261820Z AUTO 07011KT 9999 NCD 11/04 Q1023
                        NOSIG=
201703261750 METAR COR EGLL 261750Z AUTO 07010KT 9999 NCD 12/05 Q1022
                        NOSIG=
201703261720 METAR COR EGLL 261720Z AUTO 07011KT 9999 NCD 13/05 Q1022
                        NOSIG=
201703261650 METAR COR EGLL 261650Z AUTO 08013KT 9999 NCD 13/05 Q1022
                        NOSIG=
201703261620 METAR COR EGLL 261620Z AUTO 07013KT 9999 NCD 14/05 Q1023
                        NOSIG=
201703261550 METAR COR EGLL 261550Z AUTO 08013KT 9999 NCD 14/04 Q1023
                        NOSIG=
201703261520 METAR COR EGLL 261520Z AUTO 09014KT 9999 NCD 15/05 Q1023
                        NOSIG=
201703261450 METAR COR EGLL 261450Z AUTO 08012KT 040V100 9999 NCD 15/05
                        Q1023 NOSIG=
201703261420 METAR COR EGLL 261420Z AUTO 09014KT 9999 NCD 15/05 Q1023
                        NOSIG=
201703261350 METAR COR EGLL 261350Z AUTO 10016KT 9999 NCD 15/05 Q1023
                        NOSIG=
201703261320 METAR COR EGLL 261320Z AUTO 08016KT 050V110 9999 NCD 15/06
                        Q1023 NOSIG=
201703261250 METAR EGLL 261250Z AUTO 09013KT 050V120 9999 NCD 15/06 Q1023=
201703261220 METAR COR EGLL 261220Z AUTO 09015KT 9999 NCD 15/06 Q1024
                        NOSIG=
201703261150 METAR COR EGLL 261150Z AUTO 09014KT 9999 NCD 15/05 Q1024
                        NOSIG=
201703261120 METAR COR EGLL 261120Z AUTO 07012KT 9999 NCD 14/06 Q1024
                        NOSIG=
201703261050 METAR COR EGLL 261050Z AUTO 07012KT 9999 NCD 13/05 Q1024
                        NOSIG=
201703261020 METAR COR EGLL 261020Z AUTO 08011KT 9999 NCD 13/06 Q1024
                        NOSIG=
201703260950 METAR COR EGLL 260950Z AUTO 09011KT 9999 NCD 12/06 Q1024
                        NOSIG=
201703260920 METAR COR EGLL 260920Z AUTO 08011KT 9999 FEW014 10/06 Q1025
                        NOSIG=
201703260850 METAR COR EGLL 260850Z AUTO 07009KT 9999 BKN012 09/06 Q1025
                        BECMG SCT012=
201703260820 METAR COR EGLL 260820Z AUTO 07009KT 040V100 9999 BKN010 08/06
                        Q1024 BECMG SCT012=
201703260750 METAR EGLL 260750Z AUTO 06009KT 9999 OVC010 07/06 Q1024=
201703260720 METAR EGLL 260720Z AUTO 06008KT 9999 BKN010 07/05 Q1024=
201703260650 METAR EGLL 260650Z AUTO 05007KT 9999 NCD 06/05 Q1024=
201703260620 METAR COR EGLL 260620Z AUTO 05004KT 9999 NCD 06/04 Q1024
                        NOSIG=
201703260550 METAR COR EGLL 260550Z AUTO 06006KT 9999 NCD 06/04 Q1024
                        NOSIG=
201703260520 METAR COR EGLL 260520Z AUTO 05006KT 9999 NCD 06/03 Q1024
                        NOSIG=
201703260450 METAR COR EGLL 260450Z AUTO 05006KT 9999 NCD 06/03 Q1024
                        NOSIG=
201703260420 METAR COR EGLL 260420Z AUTO 05007KT 9999 NCD 06/03 Q1024
                        NOSIG=
201703260350 METAR COR EGLL 260350Z AUTO 05007KT 9999 NCD 06/02 Q1024
                        NOSIG=
201703260320 METAR COR EGLL 260320Z AUTO 05005KT 9999 NCD 06/01 Q1024
                        NOSIG=
201703260250 METAR COR EGLL 260250Z AUTO 05004KT 010V100 9999 NCD 05/00
                        Q1024 NOSIG=
201703260220 METAR COR EGLL 260220Z AUTO 05004KT 9999 NCD 06/M00 Q1025
                        NOSIG=
201703260150 METAR COR EGLL 260150Z AUTO VRB03KT 9999 NCD 05/M01 Q1025
                        NOSIG=
201703260120 METAR COR EGLL 260120Z AUTO 05007KT 360V080 9999 NCD 06/M02
                        Q1025 NOSIG=
201703260050 METAR COR EGLL 260050Z AUTO 05009KT 9999 NCD 06/M03 Q1025
                        NOSIG=
201703260020 METAR COR EGLL 260020Z AUTO 06008KT 9999 NCD 06/M05 Q1025
                        NOSIG=
201703252350 METAR COR EGLL 252350Z AUTO 06009KT 9999 NCD 06/M05 Q1026
                        NOSIG=
201703252320 METAR COR EGLL 252320Z AUTO 06010KT 9999 NCD 07/M06 Q1026
                        NOSIG=
201703252250 METAR COR EGLL 252250Z AUTO 07010KT 9999 NCD 07/M06 Q1026
                        NOSIG=
201703252220 METAR COR EGLL 252220Z AUTO 06011KT 9999 NCD 08/M07 Q1026
                        NOSIG=
201703252150 METAR COR EGLL 252150Z AUTO 06012KT 9999 NCD 08/M07 Q1026
                        NOSIG=
201703252120 METAR COR EGLL 252120Z AUTO 06012KT 9999 NCD 09/M07 Q1026
                        NOSIG=
201703252050 METAR COR EGLL 252050Z AUTO 05013KT 9999 NCD 09/M08 Q1026
                        NOSIG=
201703252020 METAR COR EGLL 252020Z AUTO 06012KT 9999 NCD 09/M07 Q1026
                        NOSIG=
201703251950 METAR COR EGLL 251950Z AUTO 06010KT 9999 NCD 10/M07 Q1026
                        NOSIG=
201703251920 METAR EGLL 251920Z AUTO 05009KT 9999 NCD 10/M06 Q1026=
201703251850 METAR COR EGLL 251850Z AUTO 06010KT 9999 NCD 11/M06 Q1026
                        NOSIG=
201703251820 METAR COR EGLL 251820Z AUTO 06012KT 9999 NCD 12/M07 Q1026
                        NOSIG=
201703251750 METAR COR EGLL 251750Z AUTO 06012KT 9999 NCD 12/M07 Q1025
                        NOSIG=
201703251720 METAR COR EGLL 251720Z AUTO 06015KT 9999 NCD 13/M07 Q1026
                        NOSIG=
201703251650 METAR COR EGLL 251650Z AUTO 07011KT 9999 NCD 14/M06 Q1026
                        NOSIG=
201703251620 METAR COR EGLL 251620Z AUTO 07015KT 9999 NCD 14/M06 Q1026
                        NOSIG=
201703251550 METAR COR EGLL 251550Z AUTO 07015KT 9999 NCD 15/M05 Q1026
                        NOSIG=
201703251520 METAR COR EGLL 251520Z AUTO 06013KT 9999 NCD 15/M03 Q1027
                        NOSIG=
201703251450 METAR COR EGLL 251450Z AUTO 07014KT 9999 NCD 14/M03 Q1027
                        NOSIG=
201703251420 METAR COR EGLL 251420Z AUTO 05012KT 9999 NCD 15/M02 Q1027
                        NOSIG=
201703251350 METAR COR EGLL 251350Z AUTO 06014KT 9999 NCD 15/M02 Q1028
                        NOSIG=
201703251320 METAR COR EGLL 251320Z AUTO 07014KT 9999 NCD 14/M02 Q1028
                        NOSIG=
201703251250 METAR COR EGLL 251250Z AUTO 06013KT 030V100 9999 NCD 14/00
                        Q1029 NOSIG=
201703251220 METAR COR EGLL 251220Z AUTO 06015KT 9999 NCD 14/01 Q1029
                        NOSIG=
201703251150 METAR COR EGLL 251150Z AUTO 07014KT 9999 NCD 14/01 Q1029
                        NOSIG=
201703251120 METAR COR EGLL 251120Z AUTO 06012KT 020V090 9999 NCD 14/02
                        Q1030 NOSIG=
201703251050 METAR COR EGLL 251050Z AUTO 06011KT 9999 NCD 13/03 Q1030
                        NOSIG=
201703251020 METAR COR EGLL 251020Z AUTO 06013KT 9999 NCD 12/02 Q1030
                        NOSIG=
201703250950 METAR COR EGLL 250950Z AUTO 06011KT 9999 NCD 11/03 Q1031
                        NOSIG=
201703250920 METAR COR EGLL 250920Z AUTO 06011KT 9999 NCD 10/03 Q1031
                        NOSIG=
201703250850 METAR COR EGLL 250850Z AUTO 06009KT 9999 NCD 09/03 Q1031
                        NOSIG=
201703250820 METAR COR EGLL 250820Z AUTO 06009KT 020V080 9999 NCD 08/03
                        Q1031 NOSIG=
201703250750 METAR COR EGLL 250750Z AUTO 06007KT 9999 NCD 07/03 Q1031
                        NOSIG=
201703250720 METAR COR EGLL 250720Z AUTO 05005KT 020V080 9999 NCD 06/03
                        Q1031 NOSIG=
201703250650 METAR COR EGLL 250650Z AUTO 03004KT 350V070 9999 NCD 04/03
                        Q1031 NOSIG=
201703250620 METAR COR EGLL 250620Z AUTO 04004KT 360V060 9999 NCD 04/03
                        Q1031 NOSIG=
201703250550 METAR COR EGLL 250550Z AUTO 05005KT 010V080 9999 NCD 05/03
                        Q1031 NOSIG=
201703250520 METAR COR EGLL 250520Z AUTO 05005KT 9999 NCD 05/03 Q1031
                        NOSIG=
201703250450 METAR COR EGLL 250450Z AUTO 05004KT 9999 NCD 05/03 Q1031
                        NOSIG=
201703250420 METAR COR EGLL 250420Z AUTO 05004KT 010V070 9999 NCD 05/03
                        Q1031 NOSIG=
201703250350 METAR COR EGLL 250350Z AUTO 05007KT 9999 NCD 05/03 Q1031
                        NOSIG=
201703250320 METAR COR EGLL 250320Z AUTO 04006KT 9999 NCD 05/03 Q1031
                        NOSIG=
201703250250 METAR COR EGLL 250250Z AUTO 04005KT 360V070 9999 NCD 05/03
                        Q1031 NOSIG=
201703250220 METAR COR EGLL 250220Z AUTO 04005KT 9999 NCD 05/03 Q1031
                        NOSIG=
201703250150 METAR COR EGLL 250150Z AUTO 04004KT 9999 NCD 06/03 Q1032
                        NOSIG=
201703250120 METAR COR EGLL 250120Z AUTO 05006KT 9999 NCD 06/03 Q1032
                        NOSIG=
201703250050 METAR COR EGLL 250050Z AUTO 05006KT 9999 NCD 06/03 Q1032
                        NOSIG=
201703250020 METAR COR EGLL 250020Z AUTO 06006KT 9999 NCD 06/03 Q1032
                        NOSIG=
201703242350 METAR COR EGLL 242350Z AUTO 04006KT 9999 NCD 06/03 Q1032
                        NOSIG=
201703242320 METAR COR EGLL 242320Z AUTO 05006KT 9999 NCD 07/03 Q1032
                        NOSIG=
201703242250 METAR COR EGLL 242250Z AUTO 05008KT 9999 NCD 07/03 Q1032
                        NOSIG=
201703242220 METAR COR EGLL 242220Z AUTO 06009KT 9999 NCD 07/03 Q1032
                        NOSIG=
201703242150 METAR COR EGLL 242150Z AUTO 05007KT 9999 NCD 07/03 Q1032
                        NOSIG=
201703242120 METAR COR EGLL 242120Z AUTO 05006KT 020V080 9999 NCD 08/03
                        Q1032 NOSIG=
201703242050 METAR COR EGLL 242050Z AUTO 05009KT 020V080 9999 NCD 08/04
                        Q1032 NOSIG=
201703242020 METAR COR EGLL 242020Z AUTO 06009KT 9999 NCD 09/04 Q1032
                        NOSIG=
201703241950 METAR COR EGLL 241950Z AUTO 07010KT 9999 NCD 09/04 Q1031
                        NOSIG=
201703241920 METAR COR EGLL 241920Z AUTO 06011KT 9999 NCD 10/05 Q1031
                        NOSIG=
201703241850 METAR COR EGLL 241850Z AUTO 06008KT 9999 NCD 10/04 Q1030
                        NOSIG=
201703241820 METAR COR EGLL 241820Z AUTO 07012KT 9999 NCD 11/04 Q1030
                        NOSIG=
201703241750 METAR COR EGLL 241750Z AUTO 07010KT 9999 NCD 12/04 Q1029
                        NOSIG=
201703241720 METAR COR EGLL 241720Z AUTO 06012KT 9999 NCD 12/05 Q1029
                        NOSIG=
201703241650 METAR COR EGLL 241650Z AUTO 06012KT 9999 NCD 13/05 Q1029
                        NOSIG=
201703241620 METAR COR EGLL 241620Z AUTO 05012KT 9999 NCD 13/05 Q1029
                        NOSIG=
201703241550 METAR COR EGLL 241550Z AUTO 04009KT 010V070 9999 NCD 13/06
                        Q1029 NOSIG=
201703241520 METAR COR EGLL 241520Z AUTO 05010KT 020V080 9999 SCT027 12/06
                        Q1029 NOSIG=
201703241450 METAR COR EGLL 241450Z AUTO 05010KT 010V080 9000 BKN024 12/07
                        Q1029 NOSIG=
201703241420 METAR COR EGLL 241420Z AUTO 07011KT 8000 BKN023 12/07 Q1029
                        NOSIG=
201703241350 METAR COR EGLL 241350Z AUTO 06010KT 8000 BKN021 12/07 Q1029
                        NOSIG=
201703241320 METAR COR EGLL 241320Z AUTO 06010KT 7000 OVC019 11/07 Q1029
                        NOSIG=
201703241250 METAR COR EGLL 241250Z AUTO 06011KT 030V090 7000 OVC018 10/07
                        Q1030 NOSIG=
201703241220 METAR COR EGLL 241220Z AUTO 07011KT 7000 OVC017 10/06 Q1030
                        NOSIG=
201703241150 METAR COR EGLL 241150Z AUTO 07010KT 6000 OVC016 10/06 Q1029
                        NOSIG=
201703241120 METAR COR EGLL 241120Z AUTO 06012KT 6000 OVC015 10/07 Q1029
                        NOSIG=
201703241050 METAR COR EGLL 241050Z AUTO 07011KT 6000 OVC014 09/06 Q1029
                        BECMG SCT015=
201703241020 METAR COR EGLL 241020Z AUTO 07014KT 5000 HZ OVC012 09/06
                        Q1028 BECMG SCT015=
201703240950 METAR COR EGLL 240950Z AUTO 06011KT 020V090 5000 HZ OVC012
                        08/06 Q1028 NOSIG=
201703240920 METAR COR EGLL 240920Z AUTO 06010KT 5000 HZ OVC011 08/06
                        Q1028 NOSIG=
201703240850 METAR COR EGLL 240850Z AUTO 05010KT 5000 HZ OVC011 08/06
                        Q1028 NOSIG=
201703240820 METAR COR EGLL 240820Z AUTO 06010KT 030V090 5000 HZ OVC011
                        08/06 Q1028 NOSIG=
201703240750 METAR COR EGLL 240750Z AUTO 06011KT 5000 HZ OVC012 08/05
                        Q1027 TEMPO SCT013=
201703240720 METAR COR EGLL 240720Z AUTO 06010KT 5000 HZ OVC012 08/05
                        Q1026 TEMPO SCT013 BKN015=
201703240650 METAR COR EGLL 240650Z AUTO 06009KT 020V080 6000 OVC013 07/05
                        Q1026 TEMPO BKN015=
201703240620 METAR COR EGLL 240620Z AUTO 06012KT 6000 OVC013 07/05 Q1026
                        TEMPO BKN015=
201703240550 METAR COR EGLL 240550Z AUTO 05008KT 020V080 7000 OVC013 07/05
                        Q1025 TEMPO BKN015=
201703240520 METAR COR EGLL 240520Z AUTO 05010KT 7000 OVC012 07/05 Q1025
                        TEMPO BKN015=
201703240450 METAR COR EGLL 240450Z AUTO 05009KT 7000 OVC011 07/05 Q1024
                        TEMPO SCT014=
201703240420 METAR COR EGLL 240420Z AUTO 06010KT 6000 OVC011 07/05 Q1024
                        NOSIG=
201703240350 METAR COR EGLL 240350Z AUTO 06009KT 6000 OVC011 07/05 Q1023
                        NOSIG=
201703240320 METAR COR EGLL 240320Z AUTO 06009KT 7000 OVC011 07/05 Q1023
                        NOSIG=
201703240250 METAR COR EGLL 240250Z AUTO 06011KT 7000 BKN011 07/05 Q1023
                        NOSIG=
201703240220 METAR COR EGLL 240220Z AUTO 06012KT 7000 OVC011 07/05 Q1023
                        NOSIG=
201703240150 METAR COR EGLL 240150Z AUTO 06009KT 7000 BKN012 07/05 Q1023
                        NOSIG=
201703240120 METAR COR EGLL 240120Z AUTO 06010KT 7000 BKN012 07/05 Q1023
                        NOSIG=
201703240050 METAR COR EGLL 240050Z AUTO 06011KT 8000 SCT014 07/05 Q1023
                        TEMPO BKN013=
201703240020 METAR COR EGLL 240020Z AUTO 06012KT 8000 SCT013 07/05 Q1023
                        TEMPO BKN013=
201703232350 METAR COR EGLL 232350Z AUTO 06010KT 010V080 8000 BKN014 07/05
                        Q1022 TEMPO SCT018=
201703232320 METAR COR EGLL 232320Z AUTO 05009KT 8000 BKN014 07/05 Q1022
                        TEMPO SCT017=
201703232250 METAR COR EGLL 232250Z AUTO 05009KT 8000 BKN014 07/05 Q1022
                        TEMPO SCT016=
201703232220 METAR COR EGLL 232220Z AUTO 05010KT 9000 BKN014 07/05 Q1022
                        TEMPO SCT015=
201703232150 METAR COR EGLL 232150Z AUTO 05009KT 9999 SCT016 07/05 Q1021
                        TEMPO BKN014=
201703232120 METAR COR EGLL 232120Z AUTO 04008KT 360V070 9999 FEW018 07/04
                        Q1021 NOSIG=
201703232050 METAR COR EGLL 232050Z AUTO 05009KT 360V080 9999 NCD 08/04
                        Q1020 NOSIG=
201703232020 METAR COR EGLL 232020Z AUTO 06009KT 9999 NCD 08/04 Q1020
                        NOSIG=
201703231950 METAR COR EGLL 231950Z AUTO 05011KT 9999 NCD 08/04 Q1019
                        NOSIG=
201703231920 METAR COR EGLL 231920Z AUTO 05010KT 010V080 9999 NCD 09/04
                        Q1019 NOSIG=
201703231850 METAR COR EGLL 231850Z AUTO 05011KT 030V090 9999 NCD 09/04
                        Q1018 NOSIG=
201703231820 METAR COR EGLL 231820Z AUTO 06012KT 9999 FEW034 10/04 Q1018
                        NOSIG=
201703231750 METAR COR EGLL 231750Z AUTO 06013KT 9999 FEW036 10/03 Q1018
                        NOSIG=
201703231720 METAR COR EGLL 231720Z AUTO 07014KT 030V090 9999 FEW038 11/03
                        Q1017 NOSIG=
201703231650 METAR COR EGLL 231650Z AUTO 08016KT 9999 BKN039 11/03 Q1017
                        NOSIG=
201703231620 METAR COR EGLL 231620Z AUTO 07015KT 9999 FEW037 11/03 Q1016
                        NOSIG=
201703231550 METAR COR EGLL 231550Z AUTO 06017KT 9999 BKN035 11/04 Q1016
                        NOSIG=
201703231520 METAR COR EGLL 231520Z AUTO 06016KT 9999 SCT034 11/04 Q1016
                        NOSIG=
201703231450 METAR COR EGLL 231450Z AUTO 06017G28KT 9999 FEW036 11/04
                        Q1015 NOSIG=
201703231420 METAR COR EGLL 231420Z AUTO 06014KT 9999 FEW036 11/04 Q1015
                        NOSIG=
201703231350 METAR COR EGLL 231350Z AUTO 06018KT 9999 SCT036 11/04 Q1015
                        NOSIG=
201703231320 METAR COR EGLL 231320Z AUTO 07016KT 9999 SCT034 11/04 Q1015
                        NOSIG=
201703231250 METAR COR EGLL 231250Z AUTO 07016KT 9999 BKN031 BKN045 11/04
                        Q1015 NOSIG=
201703231220 METAR COR EGLL 231220Z AUTO 07015KT 9999 BKN030 11/05 Q1015
                        NOSIG=
201703231150 METAR COR EGLL 231150Z AUTO 08016KT 9999 BKN026 10/04 Q1015
                        NOSIG=
201703231120 METAR COR EGLL 231120Z AUTO 06014KT 9999 BKN024 10/06 Q1015
                        NOSIG=
201703231050 METAR COR EGLL 231050Z AUTO 06015KT 9999 FEW026 10/06 Q1015
                        NOSIG=
201703231020 METAR COR EGLL 231020Z AUTO 06013KT 9999 FEW018 10/06 Q1015
                        NOSIG=
201703230950 METAR COR EGLL 230950Z AUTO 06010KT 9000 FEW015 09/06 Q1015
                        NOSIG=
201703230920 METAR COR EGLL 230920Z AUTO 06011KT 030V090 8000 FEW016 BKN038
                        09/06 Q1015 NOSIG=
201703230850 METAR COR EGLL 230850Z AUTO 07010KT 8000 FEW015 BKN048 08/06
                        Q1014 NOSIG=
201703230820 METAR COR EGLL 230820Z AUTO 06009KT 040V100 7000 -RA FEW013
                        BKN043 08/06 Q1014 NOSIG=
201703230750 METAR COR EGLL 230750Z AUTO 07009KT 6000 FEW014 08/06 Q1013
                        NOSIG=
201703230720 METAR COR EGLL 230720Z AUTO 06011KT 7000 NCD 07/06 Q1013
                        NOSIG=
201703230650 METAR COR EGLL 230650Z AUTO 06010KT 7000 NCD 07/06 Q1012
                        NOSIG=
201703230620 METAR COR EGLL 230620Z AUTO 06010KT 6000 -RA OVC042 07/06
                        Q1012 NOSIG=
201703230550 METAR COR EGLL 230550Z AUTO 06006KT 8000 -RA OVC039 07/06
                        Q1011 NOSIG=
201703230520 METAR COR EGLL 230520Z AUTO 06009KT 6000 -RA BKN032 07/06
                        Q1011 TEMPO BKN014=
201703230450 METAR COR EGLL 230450Z AUTO 07009KT 7000 -RA SCT011 BKN028
                        07/06 Q1011 TEMPO 4800 RADZ BKN014=
201703230420 METAR COR EGLL 230420Z AUTO 07008KT 8000 BKN011 BKN028 07/06
                        Q1011 BECMG SCT014=
201703230350 METAR COR EGLL 230350Z AUTO 07008KT 6000 SCT006 OVC024 07/06
                        Q1011 TEMPO BKN014=
201703230320 METAR COR EGLL 230320Z AUTO 05005KT 6000 -RA BKN006 OVC027
                        07/06 Q1011 TEMPO FEW008 BKN012=
201703230250 METAR COR EGLL 230250Z AUTO 02003KT 3100 -RADZ BKN006 OVC015
                        06/06 Q1011 RERA REDZ TEMPO FEW008
                        BKN012=
201703230220 METAR COR EGLL 230220Z AUTO 04003KT 5000 -RA BKN012/// //////TCU
                        06/06 Q1011 TEMPO 4500 RADZ SCT012
                        BKN018=
201703230150 METAR COR EGLL 230150Z AUTO 04004KT 010V080 6000 -RA BKN021
                        06/05 Q1011 TEMPO 4800 RADZ BKN014=
201703230120 METAR EGLL 230120Z AUTO 05004KT 9999 -RA BKN025 06/05 Q1011=
201703230050 METAR EGLL 230050Z AUTO 06005KT 9999 -RA BKN026 BKN040 06/05
                        Q1011=
201703230020 METAR COR EGLL 230020Z AUTO 07004KT 9999 -RA BKN029 OVC048
                        06/05 Q1011 TEMPO RA BKN012=
201703222350 METAR COR EGLL 222350Z AUTO 08004KT 9999 -RA BKN024 07/05
                        Q1011 TEMPO RA BKN012=
201703222320 METAR COR EGLL 222320Z AUTO 07005KT 9999 BKN020 07/05 Q1011
                        TEMPO RA BKN014=
201703222250 METAR COR EGLL 222250Z AUTO 06004KT 9999 NCD 06/05 Q1011
                        NOSIG=
201703222220 METAR COR EGLL 222220Z AUTO 10003KT 9999 NCD 06/05 Q1010
                        NOSIG=
201703222150 METAR COR EGLL 222150Z AUTO 09005KT 9999 NCD 05/04 Q1010
                        NOSIG=
201703222120 METAR COR EGLL 222120Z AUTO 11003KT 9999 NCD 05/04 Q1010
                        NOSIG=
201703222050 METAR COR EGLL 222050Z AUTO 13004KT 9999 FEW031 06/04 Q1010
                        NOSIG=
201703222020 METAR COR EGLL 222020Z AUTO 13006KT 9999 FEW032 05/04 Q1010
                        NOSIG=
201703221950 METAR COR EGLL 221950Z AUTO 14006KT 9999 NCD 06/04 Q1009
                        NOSIG=
201703221920 METAR COR EGLL 221920Z AUTO 15005KT 9999 NCD 07/04 Q1009
                        NOSIG=
201703221850 METAR COR EGLL 221850Z AUTO 16006KT 9999 NCD 08/04 Q1008
                        NOSIG=
201703221820 METAR COR EGLL 221820Z AUTO 16007KT 120V240 9999 NCD 09/04
                        Q1008 NOSIG=
201703221750 METAR COR EGLL 221750Z AUTO 16007KT 120V240 9999 SCT032 09/04
                        Q1007 NOSIG=
201703221720 METAR COR EGLL 221720Z AUTO 22007KT 160V250 9999 SCT031 10/04
                        Q1007 NOSIG=
201703221650 METAR COR EGLL 221650Z AUTO 26007KT 9999 FEW034 SCT049 10/04
                        Q1007 NOSIG=
201703221620 METAR COR EGLL 221620Z AUTO 25007KT 9999 SCT031 BKN044 10/05
                        Q1006 TEMPO SHRA=
201703221550 METAR COR EGLL 221550Z AUTO 19011KT 9999 SCT029 SCT043 11/03
                        Q1006 TEMPO SHRA=
201703221520 METAR COR EGLL 221520Z AUTO 19011KT 140V240 9999 SCT028 11/04
                        Q1006 TEMPO SHRA=
201703221450 METAR COR EGLL 221450Z 22011KT 9999 FEW024 11/04 Q1006 TEMPO
                        SHRA=
201703221420 METAR COR EGLL 221420Z 20011KT 9999 FEW023 SCT026 10/05 Q1006
                        TEMPO SHRA=
201703221350 METAR COR EGLL 221350Z 19013KT 9999 FEW018 BKN023 10/06 Q1005
                        TEMPO SHRA=
201703221320 METAR COR EGLL 221320Z 21010KT 170V240 9999 FEW012 SCT023
                        09/06 Q1005 TEMPO SHRA=
201703221250 METAR COR EGLL 221250Z 21010KT 9999 SCT011 SCT023 08/06 Q1005
                        TEMPO SHRA BKN011=
201703221220 METAR COR EGLL 221220Z 22017KT 9999 8000NE -RA FEW011 BKN027
                        07/05 Q1005 TEMPO SHRA=
201703221150 METAR COR EGLL 221150Z 16013KT 9999 -RA SCT017 BKN024 09/07
                        Q1004 TEMPO RA=
201703221120 METAR COR EGLL 221120Z 15013KT 9999 -RA FEW013 BKN016 07/06
                        Q1004 TEMPO RA BKN013=
201703221050 METAR COR EGLL 221050Z 15012KT 9999 -RA FEW011 SCT014 BKN024
                        07/06 Q1004 TEMPO RA BKN014=
201703221020 METAR COR EGLL 221020Z 15015KT 9999 -RA SCT011 BKN014 07/05
                        Q1004 TEMPO RA=
201703220950 METAR COR EGLL 220950Z 15014KT 9999 -RA SCT013 BKN019 07/05
                        Q1004 TEMPO RA BKN013=
201703220920 METAR COR EGLL 220920Z 15011KT 9999 -RA BKN017TCU 07/05 Q1004
                        TEMPO RA BKN014=
201703220850 METAR COR EGLL 220850Z AUTO 16016KT 9999 -RA BKN014/// //////TCU
                        07/05 Q1004 TEMPO RA=
201703220820 METAR COR EGLL 220820Z AUTO 16016KT 9999 -RA OVC020/// //////TCU
                        07/05 Q1004 TEMPO RA BKN014=
201703220750 METAR COR EGLL 220750Z AUTO 15013KT 9999 -RA OVC021/// //////TCU
                        07/04 Q1004 TEMPO RA BKN014=
201703220720 METAR COR EGLL 220720Z AUTO 13010KT 9999 OVC024/// //////TCU
                        07/03 Q1003 TEMPO RA=
201703220650 METAR COR EGLL 220650Z AUTO 12010KT 9999 BKN022/// 07/03
                        Q1003 TEMPO RA=
201703220620 METAR COR EGLL 220620Z AUTO 12012KT 9999 BKN023 06/03 Q1004
                        NOSIG=
201703220550 METAR COR EGLL 220550Z AUTO 13011KT 9999 BKN024 06/03 Q1004
                        NOSIG=
201703220520 METAR COR EGLL 220520Z AUTO 13012KT 9999 SCT023 06/03 Q1004
                        NOSIG=
201703220450 METAR COR EGLL 220450Z AUTO 14009KT 9999 BKN024 06/03 Q1004
                        NOSIG=
201703220420 METAR COR EGLL 220420Z AUTO 13009KT 9999 NCD 06/03 Q1004
                        NOSIG=
201703220350 METAR COR EGLL 220350Z AUTO 14008KT 9999 FEW027 06/03 Q1005
                        NOSIG=
201703220320 METAR COR EGLL 220320Z AUTO 14007KT 9999 FEW029 05/03 Q1005
                        NOSIG=
201703220250 METAR COR EGLL 220250Z AUTO 13008KT 9999 NCD 05/02 Q1005
                        NOSIG=
201703220220 METAR COR EGLL 220220Z AUTO 11010KT 9999 NCD 05/02 Q1006
                        NOSIG=
201703220150 METAR COR EGLL 220150Z AUTO 13009KT 9999 NCD 05/02 Q1006
                        NOSIG=
201703220120 METAR COR EGLL 220120Z AUTO 15009KT 9999 NCD 06/02 Q1007
                        NOSIG=
201703220050 METAR COR EGLL 220050Z AUTO 15009KT 9999 NCD 06/03 Q1007
                        NOSIG=
201703220020 METAR COR EGLL 220020Z AUTO 15007KT 9999 NCD 06/02 Q1008
                        NOSIG=
201703212350 METAR COR EGLL 212350Z AUTO 16007KT 9999 NCD 06/02 Q1008
                        NOSIG=
201703212320 METAR COR EGLL 212320Z AUTO 16007KT 9999 NCD 06/03 Q1008
                        NOSIG=
201703212250 METAR COR EGLL 212250Z AUTO 18008KT 130V240 9999 NCD 06/03
                        Q1009 NOSIG=
201703212220 METAR COR EGLL 212220Z AUTO 17008KT 130V240 9999 NCD 06/03
                        Q1009 NOSIG=
201703212150 METAR COR EGLL 212150Z AUTO 16008KT 140V240 9999 NCD 06/03
                        Q1009 NOSIG=
201703212120 METAR COR EGLL 212120Z AUTO 18006KT 140V250 9999 NCD 05/03
                        Q1009 NOSIG=
201703212050 METAR COR EGLL 212050Z AUTO 19009KT 150V240 9999 -RA SCT029
                        SCT043 06/03 Q1009 NOSIG=
201703212020 METAR COR EGLL 212020Z AUTO 21008KT 180V250 9999 NCD 06/03
                        Q1010 NOSIG=
201703211950 METAR COR EGLL 211950Z AUTO 22011KT 9999 FEW022/// //////TCU
                        07/03 Q1010 NOSIG=
201703211920 METAR COR EGLL 211920Z AUTO 21012KT 9999 NCD 08/02 Q1010
                        NOSIG=
201703211850 METAR COR EGLL 211850Z AUTO 21012KT 9999 SCT041 08/01 Q1010
                        NOSIG=
201703211820 METAR COR EGLL 211820Z AUTO 21011KT 180V250 9999 SCT040 09/01
                        Q1010 NOSIG=
201703211750 METAR COR EGLL 211750Z AUTO 24012KT 210V270 9999 BKN038 10/01
                        Q1009 NOSIG=
201703211720 METAR COR EGLL 211720Z AUTO 24011KT 9999 FEW047 10/01 Q1009
                        NOSIG=
201703211650 METAR COR EGLL 211650Z AUTO 26011KT 9999 BKN049 09/02 Q1009
                        NOSIG=
201703211620 METAR COR EGLL 211620Z AUTO 27016KT 9999 FEW027/// //////TCU
                        09/02 Q1009 NOSIG=
201703211550 METAR COR EGLL 211550Z AUTO 24013KT 9999 //////TCU 11/M02
                        Q1009 TEMPO SHRA=
201703211520 METAR COR EGLL 211520Z AUTO 24014KT 9999 NCD 11/M01 Q1009
                        TEMPO SHRA=
201703211450 METAR COR EGLL 211450Z AUTO 25013KT 9999 NCD 11/M02 Q1009
                        NOSIG=
201703211420 METAR COR EGLL 211420Z AUTO 24018KT 9999 NCD 12/M03 Q1010
                        NOSIG=
201703211350 METAR COR EGLL 211350Z AUTO 25013G23KT 9999 NCD 11/M02 Q1010
                        NOSIG=
201703211320 METAR COR EGLL 211320Z AUTO 25016KT 9999 NCD 10/M01 Q1010
                        NOSIG=
201703211250 METAR COR EGLL 211250Z AUTO 24018KT 9999 BKN048 11/M01 Q1010
                        NOSIG=
201703211220 METAR COR EGLL 211220Z AUTO 27015KT 9999 BKN049 11/M01 Q1010
                        NOSIG=
201703211150 METAR COR EGLL 211150Z AUTO 26016KT 9999 SCT046 10/M01 Q1010
                        NOSIG=
201703211120 METAR COR EGLL 211120Z AUTO 25015KT 9999 SCT042 10/00 Q1010
                        NOSIG=
201703211050 METAR COR EGLL 211050Z AUTO 24016KT 9999 SCT035 09/00 Q1010
                        NOSIG=
201703211020 METAR COR EGLL 211020Z AUTO 26015KT 9999 SCT036 09/01 Q1010
                        NOSIG=
201703210950 METAR COR EGLL 210950Z AUTO 26014KT 240V300 9999 NCD 08/00
                        Q1010 NOSIG=
201703210920 METAR COR EGLL 210920Z AUTO 25015KT 9999 NCD 08/01 Q1010
                        NOSIG=
201703210850 METAR COR EGLL 210850Z AUTO 25014KT 9999 NCD 07/01 Q1010
                        NOSIG=
201703210820 METAR COR EGLL 210820Z AUTO 26013KT 9999 NCD 06/00 Q1010
                        NOSIG=
201703210750 METAR COR EGLL 210750Z AUTO 25012KT 9999 NCD 06/00 Q1009
                        NOSIG=
201703210720 METAR COR EGLL 210720Z AUTO 25011KT 9999 NCD 05/01 Q1009
                        NOSIG=
201703210650 METAR COR EGLL 210650Z AUTO 25012KT 9999 NCD 05/01 Q1009
                        NOSIG=
201703210620 METAR COR EGLL 210620Z AUTO 26011KT 9999 NCD 04/01 Q1009
                        NOSIG=
201703210550 METAR COR EGLL 210550Z AUTO 26011KT 9999 NCD 05/02 Q1008
                        NOSIG=
201703210520 METAR COR EGLL 210520Z AUTO 26010KT 9999 NCD 05/02 Q1008
                        NOSIG=
201703210450 METAR COR EGLL 210450Z AUTO 26010KT 9999 NCD 05/02 Q1008
                        NOSIG=
201703210420 METAR COR EGLL 210420Z AUTO 27012KT 9999 NCD 06/02 Q1007
                        NOSIG=
201703210350 METAR COR EGLL 210350Z AUTO 26013KT 9999 NCD 06/02 Q1007
                        NOSIG=
201703210320 METAR COR EGLL 210320Z AUTO 26012KT 9999 NCD 06/03 Q1007
                        NOSIG=
201703210250 METAR COR EGLL 210250Z AUTO 26013KT 9999 NCD 07/03 Q1007
                        NOSIG=
201703210220 METAR COR EGLL 210220Z AUTO 25013KT 9999 NCD 07/04 Q1006
                        NOSIG=
201703210150 METAR COR EGLL 210150Z AUTO 25013KT 9999 NCD 07/04 Q1006
                        NOSIG=
201703210120 METAR COR EGLL 210120Z AUTO 24009KT 9999 NCD 07/05 Q1006
                        NOSIG=
201703210050 METAR COR EGLL 210050Z AUTO 25009KT 9999 NCD 07/05 Q1006
                        NOSIG=
201703210020 METAR COR EGLL 210020Z AUTO 24009KT 9999 NCD 07/05 Q1006
                        NOSIG=
201703202350 METAR COR EGLL 202350Z AUTO 23009KT 9999 NCD 07/05 Q1006
                        NOSIG=
201703202320 METAR COR EGLL 202320Z AUTO 22007KT 9999 NCD 07/04 Q1006
                        NOSIG=
201703202250 METAR COR EGLL 202250Z AUTO 23007KT 9999 NCD 07/05 Q1006
                        NOSIG=
201703202220 METAR COR EGLL 202220Z AUTO 24009KT 9999 FEW028 07/04 Q1006
                        NOSIG=
201703202150 METAR COR EGLL 202150Z AUTO 25012KT 9999 FEW028 08/04 Q1005
                        NOSIG=
201703202120 METAR COR EGLL 202120Z AUTO 26013KT 9999 NCD 08/04 Q1005
                        NOSIG=
201703202050 METAR COR EGLL 202050Z AUTO 26012KT 9999 NCD 09/04 Q1005
                        NOSIG=
201703202020 METAR COR EGLL 202020Z AUTO 26013KT 9999 NCD 09/05 Q1005
                        NOSIG=
201703201950 METAR COR EGLL 201950Z AUTO 26013KT 9999 NCD 09/05 Q1005
                        NOSIG=
201703201920 METAR COR EGLL 201920Z AUTO 25013KT 9999 NCD 09/06 Q1004
                        NOSIG=
201703201850 METAR COR EGLL 201850Z AUTO 25014KT 9999 FEW024 10/06 Q1004
                        NOSIG=
201703201820 METAR COR EGLL 201820Z AUTO 26010KT 9999 FEW027 10/07 Q1004
                        NOSIG=
201703201750 METAR COR EGLL 201750Z AUTO 27010KT 9999 BKN028 10/07 Q1003
                        NOSIG=
201703201720 METAR COR EGLL 201720Z AUTO 27015KT 9999 BKN020 11/07 Q1003
                        NOSIG=
201703201650 METAR COR EGLL 201650Z AUTO 26015KT 9999 BKN024 11/07 Q1003
                        NOSIG=
201703201620 METAR COR EGLL 201620Z AUTO 25017KT 9999 BKN017 11/08 Q1003
                        NOSIG=
201703201550 METAR COR EGLL 201550Z 25017KT 9999 SCT018 SCT023 12/09 Q1002
                        NOSIG=
201703201520 METAR COR EGLL 201520Z 26014KT 9999 FEW012 SCT035 11/09 Q1002
                        TEMPO RA=
201703201450 METAR COR EGLL 201450Z 25015KT 9999 -RA SCT010 BKN012 BKN030
                        11/10 Q1002 RERA TEMPO RA=
201703201420 METAR COR EGLL 201420Z 22018KT 7000 -RA FEW011 SCT014 BKN017
                        11/10 Q1002 TEMPO RA BKN012=
201703201350 METAR COR EGLL 201350Z 22019G29KT 9999 6000N -RA FEW012 BKN015
                        12/09 Q1002 TEMPO RA BKN012=
201703201320 METAR COR EGLL 201320Z 22017KT 9999 FEW012 BKN015 11/09 Q1002
                        TEMPO RA BKN012=
201703201250 METAR COR EGLL 201250Z 22018KT 9999 BKN023 12/09 Q1002 TEMPO
                        RA BKN012=
201703201220 METAR COR EGLL 201220Z 23017KT 9999 BKN023 13/09 Q1002 TEMPO
                        RA BKN012=
201703201150 METAR COR EGLL 201150Z 22017KT 9999 BKN027 12/10 Q1002 NOSIG=
201703201120 METAR COR EGLL 201120Z 22016KT 9999 BKN020 12/10 Q1003 TEMPO
                        BKN014=
201703201050 METAR COR EGLL 201050Z 22017KT 8000 -RADZ FEW008 BKN015 12/11
                        Q1003 TEMPO BKN012=
201703201020 METAR COR EGLL 201020Z 22015KT 9999 BKN012 12/10 Q1003 NOSIG=
201703200950 METAR COR EGLL 200950Z 22014G24KT 9999 BKN014 12/10 Q1003
                        TEMPO BKN015=
201703200920 METAR COR EGLL 200920Z 22014KT 9999 BKN013 12/10 Q1003 NOSIG=
201703200850 METAR COR EGLL 200850Z 22013KT 9999 SCT011 BKN015 12/10 Q1004
                        TEMPO BKN012=
201703200820 METAR COR EGLL 200820Z 22012G24KT 9999 SCT013 BKN020 12/10
                        Q1004 BECMG BKN012=
201703200750 METAR COR EGLL 200750Z 22011KT 9999 SCT010 BKN015 11/10 Q1004
                        BECMG BKN010=
201703200720 METAR COR EGLL 200720Z 22011KT 5000 -RA FEW007 SCT008 BKN011
                        11/10 Q1004 TEMPO 4000 RADZ BKN008=
201703200650 METAR COR EGLL 200650Z 22012G23KT 6000 -RA FEW006 SCT009
                        BKN012 11/10 Q1005 TEMPO BKN009=
201703200620 METAR COR EGLL 200620Z 22011KT 9999 FEW007 BKN011 11/10 Q1005
                        TEMPO BKN008=
201703200550 METAR COR EGLL 200550Z 23012KT 9999 FEW006 BKN010 11/10 Q1005
                        TEMPO BKN008=
201703200520 METAR COR EGLL 200520Z 21012KT 9999 SCT007 BKN010 11/10 Q1005
                        TEMPO BKN008=
201703200450 METAR COR EGLL 200450Z 22012KT 9999 SCT007 BKN012 11/10 Q1005
                        TEMPO BKN008=
201703200420 METAR COR EGLL 200420Z 21011KT 9999 SCT006 BKN012 11/10 Q1005
                        TEMPO BKN008=
201703200350 METAR COR EGLL 200350Z 22010KT 7000 -RADZ FEW004 SCT007 BKN013
                        11/10 Q1006 RERA REDZ TEMPO 4000
                        BKN007=
201703200320 METAR COR EGLL 200320Z 22011KT 4500 RADZ FEW004 SCT007 BKN013
                        11/10 Q1006 TEMPO 6000 -RADZ BKN006=
201703200250 METAR COR EGLL 200250Z AUTO 22011KT 5000 HZ OVC008 11/10
                        Q1006 TEMPO 4000 -RADZ=
201703200220 METAR COR EGLL 200220Z AUTO 22011KT 9999 -RA OVC011 11/10
                        Q1006 TEMPO BKN008=
201703200150 METAR COR EGLL 200150Z AUTO 23011KT 9999 -RA BKN012 12/10
                        Q1007 TEMPO BKN008=
201703200120 METAR COR EGLL 200120Z AUTO 24013KT 9999 -RA OVC013 12/10
                        Q1007 NOSIG=
201703200050 METAR COR EGLL 200050Z AUTO 24012KT 9999 -RA OVC012 12/10
                        Q1007 NOSIG=
201703200020 METAR COR EGLL 200020Z AUTO 23013KT 9999 OVC012 12/10 Q1007
                        TEMPO BKN008=
201703192350 METAR COR EGLL 192350Z AUTO 23014KT 9999 BKN012 12/10 Q1008
                        TEMPO BKN008=
201703192320 METAR COR EGLL 192320Z 24014KT 9999 BKN013 OVC025 12/10 Q1008
                        TEMPO BKN008=
201703192250 METAR COR EGLL 192250Z 23012KT 9999 BKN013 12/10 Q1008 NOSIG=
201703192220 METAR COR EGLL 192220Z 23012KT 9999 FEW012 SCT015 BKN020
                        12/10 Q1008 BECMG BKN010=
201703192150 METAR COR EGLL 192150Z 23013KT 9999 -RA FEW010 SCT018 BKN021
                        12/10 Q1008 BECMG BKN010=
201703192120 METAR COR EGLL 192120Z 23014KT 6000 -RADZ FEW008 SCT016 BKN021
                        12/10 Q1008 BECMG BKN010=
201703192050 METAR COR EGLL 192050Z 23013KT 7000 -RADZ FEW008 SCT016 BKN021
                        12/10 Q1008 BECMG BKN010=
201703192020 METAR COR EGLL 192020Z 23014KT 9999 FEW010 SCT016 BKN023
                        12/10 Q1008 BECMG BKN010=
201703191950 METAR COR EGLL 191950Z 23015KT 9999 FEW011 SCT016 BKN020
                        12/10 Q1008 BECMG BKN012=
201703191920 METAR COR EGLL 191920Z 24015KT 9999 FEW016 BKN021 13/10 Q1008
                        NOSIG=
201703191850 METAR COR EGLL 191850Z 24017KT 9999 FEW018 BKN020 13/09 Q1008
                        BECMG BKN014=
201703191820 METAR COR EGLL 191820Z AUTO 25017KT 9999 OVC021 13/09 Q1008
                        BECMG BKN014=
201703191750 METAR COR EGLL 191750Z AUTO 24014KT 220V280 9999 OVC024 14/09
                        Q1008 NOSIG=
201703191720 METAR COR EGLL 191720Z AUTO 25017G30KT 9999 BKN023 14/09
                        Q1008 NOSIG=
201703191650 METAR COR EGLL 191650Z AUTO 25020KT 9999 BKN023 14/09 Q1007
                        NOSIG=
201703191620 METAR COR EGLL 191620Z AUTO 25020KT 9999 OVC025 14/09 Q1008
                        NOSIG=
201703191550 METAR COR EGLL 191550Z AUTO 26019KT 9999 BKN027 14/09 Q1008
                        NOSIG=
201703191520 METAR COR EGLL 191520Z AUTO 26021KT 9999 OVC030 15/08 Q1008
                        NOSIG=
201703191450 METAR COR EGLL 191450Z AUTO 26022KT 9999 OVC033 15/08 Q1008
                        NOSIG=
201703191420 METAR COR EGLL 191420Z AUTO 25021G32KT 9999 BKN032 15/08
                        Q1008 NOSIG=
201703191350 METAR COR EGLL 191350Z AUTO 25023G33KT 9999 OVC031 15/08
                        Q1008 NOSIG=
201703191320 METAR COR EGLL 191320Z AUTO 26026KT 9999 BKN031 15/08 Q1008
                        NOSIG=
201703191250 METAR COR EGLL 191250Z 25021KT 9999 SCT019 SCT037 14/09 Q1008
                        NOSIG=
201703191220 METAR COR EGLL 191220Z AUTO 26022KT 9999 BKN020 13/10 Q1008
                        NOSIG=
201703191150 METAR COR EGLL 191150Z AUTO 25016KT 9999 OVC022 14/09 Q1009
                        NOSIG=
201703191120 METAR COR EGLL 191120Z AUTO 25019KT 9999 OVC023 14/09 Q1009
                        NOSIG=
201703191050 METAR COR EGLL 191050Z AUTO 26017KT 9999 OVC022 14/08 Q1009
                        NOSIG=
201703191020 METAR COR EGLL 191020Z AUTO 25018KT 9999 OVC023 14/08 Q1009
                        NOSIG=
201703190950 METAR COR EGLL 190950Z AUTO 26019KT 9999 OVC023 13/08 Q1009
                        NOSIG=
201703190920 METAR COR EGLL 190920Z AUTO 26017KT 9999 BKN023 13/08 Q1009
                        NOSIG=
201703190850 METAR COR EGLL 190850Z AUTO 25017KT 9999 OVC022 12/08 Q1009
                        NOSIG=
201703190820 METAR COR EGLL 190820Z AUTO 26014KT 9999 BKN023 12/08 Q1009
                        NOSIG=
201703190750 METAR COR EGLL 190750Z AUTO 26019KT 9999 BKN021 12/08 Q1010
                        NOSIG=
201703190720 METAR EGLL 190720Z AUTO 26017KT 9999 BKN018 12/09 Q1009=
201703190650 METAR COR EGLL 190650Z AUTO 25015KT 9999 OVC016 12/09 Q1009
                        NOSIG=
201703190620 METAR COR EGLL 190620Z AUTO 24014KT 9999 BKN012 OVC026 12/09
                        Q1009 BECMG SCT012 BKN026=
201703190550 METAR COR EGLL 190550Z AUTO 25014KT 9999 OVC012 12/10 Q1009
                        BECMG BKN015=
201703190520 METAR COR EGLL 190520Z AUTO 25013KT 9999 OVC012 12/10 Q1010
                        BECMG BKN015=
201703190450 METAR COR EGLL 190450Z AUTO 25015KT 9999 OVC012 12/10 Q1010
                        BECMG BKN012=
201703190420 METAR COR EGLL 190420Z AUTO 25014KT 9999 OVC013 12/10 Q1010
                        BECMG BKN015=
201703190350 METAR COR EGLL 190350Z AUTO 25013KT 9999 BKN012 12/10 Q1010
                        NOSIG=
201703190320 METAR COR EGLL 190320Z AUTO 24012KT 9999 OVC013 12/10 Q1010
                        BECMG BKN015=
201703190250 METAR COR EGLL 190250Z AUTO 25012KT 9999 OVC013 12/10 Q1010
                        NOSIG=
201703190220 METAR COR EGLL 190220Z AUTO 25012KT 9999 OVC012 12/10 Q1011
                        NOSIG=
201703190150 METAR COR EGLL 190150Z AUTO 25013KT 9999 OVC012 12/10 Q1011
                        NOSIG=
201703190120 METAR COR EGLL 190120Z AUTO 25013KT 9999 OVC012 12/10 Q1011
                        NOSIG=
201703190050 METAR COR EGLL 190050Z AUTO 25013KT 9999 OVC011 12/10 Q1011
                        NOSIG=
201703190020 METAR COR EGLL 190020Z AUTO 25011KT 9999 OVC011 12/10 Q1012
                        NOSIG=
201703182350 METAR COR EGLL 182350Z AUTO 25013KT 9999 OVC011 12/10 Q1012
                        NOSIG=
201703182320 METAR COR EGLL 182320Z AUTO 25015KT 9999 OVC011 12/10 Q1012
                        TEMPO BKN009=
201703182250 METAR COR EGLL 182250Z AUTO 25014KT 9999 OVC012 12/10 Q1012
                        NOSIG=
201703182220 METAR COR EGLL 182220Z AUTO 26014KT 9999 BKN012 12/10 Q1012
                        NOSIG=
201703182150 METAR COR EGLL 182150Z AUTO 26014KT 9999 OVC012 12/10 Q1012
                        NOSIG=
201703182120 METAR COR EGLL 182120Z AUTO 27016KT 9999 OVC013 13/10 Q1013
                        NOSIG=
201703182050 METAR COR EGLL 182050Z AUTO 25016KT 9999 OVC012 13/10 Q1012
                        NOSIG=
201703182020 METAR COR EGLL 182020Z AUTO 26015KT 9999 OVC012 13/10 Q1012
                        NOSIG=
201703181950 METAR COR EGLL 181950Z AUTO 25015KT 9999 OVC012 12/10 Q1012
                        NOSIG=
201703181920 METAR COR EGLL 181920Z AUTO 27017KT 9999 OVC013 13/10 Q1012
                        NOSIG=
201703181850 METAR COR EGLL 181850Z AUTO 25014KT 9999 BKN014 13/10 Q1011
                        NOSIG=
201703181820 METAR COR EGLL 181820Z AUTO 25014KT 9999 BKN017 OVC029 13/10
                        Q1011 BECMG BKN012=
201703181750 METAR COR EGLL 181750Z AUTO 26012KT 9999 FEW019 OVC030 14/10
                        Q1011 NOSIG=
201703181720 METAR COR EGLL 181720Z AUTO 27015KT 9999 BKN020 BKN032 14/10
                        Q1011 NOSIG=
201703181650 METAR COR EGLL 181650Z AUTO 27016KT 9999 BKN019 OVC034 14/10
                        Q1011 NOSIG=
201703181620 METAR COR EGLL 181620Z AUTO 27017KT 9999 BKN018 OVC035 14/10
                        Q1011 NOSIG=
201703181550 METAR COR EGLL 181550Z AUTO 26017KT 9999 OVC019 14/10 Q1011
                        NOSIG=
201703181520 METAR COR EGLL 181520Z AUTO 26016KT 9999 OVC018 14/10 Q1011
                        NOSIG=
201703181450 METAR COR EGLL 181450Z AUTO 27018KT 9999 BKN019 14/10 Q1011
                        NOSIG=
201703181420 METAR COR EGLL 181420Z AUTO 27019KT 9999 BKN018 14/10 Q1011
                        NOSIG=
201703181350 METAR COR EGLL 181350Z AUTO 27017KT 9999 BKN017 14/10 Q1011
                        TEMPO BKN014=
201703181320 METAR COR EGLL 181320Z AUTO 28017KT 9999 BKN016 14/10 Q1011
                        TEMPO BKN014=
201703181250 METAR COR EGLL 181250Z AUTO 26017KT 9999 OVC017 14/10 Q1011
                        TEMPO BKN014=
201703181220 METAR COR EGLL 181220Z AUTO 25017KT 9999 OVC016 14/10 Q1011
                        TEMPO BKN014=
201703181150 METAR COR EGLL 181150Z AUTO 25019KT 9999 BKN018 14/10 Q1011
                        NOSIG=
201703181120 METAR COR EGLL 181120Z AUTO 26018KT 9999 OVC017 14/10 Q1011
                        NOSIG=
201703181050 METAR COR EGLL 181050Z AUTO 25014KT 9999 BKN014 14/10 Q1011
                        TEMPO SCT014=
201703181020 METAR COR EGLL 181020Z AUTO 26014KT 9999 BKN013 OVC026 14/11
                        Q1011 TEMPO SCT013=
201703180950 METAR COR EGLL 180950Z AUTO 26016KT 9999 BKN011 BKN024 13/10
                        Q1011 TEMPO SCT011=
201703180920 METAR COR EGLL 180920Z AUTO 26016KT 9000 BKN012 13/10 Q1011
                        TEMPO SCT012 BKN018=
201703180850 METAR COR EGLL 180850Z AUTO 26014KT 9999 SCT010 BKN019 12/10
                        Q1011 TEMPO BKN010=
201703180820 METAR COR EGLL 180820Z AUTO 26014KT 9999 SCT009 OVC025 12/10
                        Q1010 TEMPO BKN010=
201703180750 METAR COR EGLL 180750Z AUTO 26014KT 9999 BKN008 OVC028 11/10
                        Q1010 BECMG SCT008=
201703180720 METAR COR EGLL 180720Z AUTO 26012KT 9999 BKN007 OVC017 11/10
                        Q1010 RERA REDZ BECMG SCT007=
201703180650 METAR COR EGLL 180650Z AUTO 25014KT 3900 RADZ OVC006 11/10
                        Q1010 BECMG 6000 NSW SCT006 BKN010=
201703180620 METAR COR EGLL 180620Z AUTO 26012KT 2300 -RA BKN006 11/10
                        Q1009 TEMPO 6000 NSW SCT006 BKN010=
201703180550 METAR COR EGLL 180550Z AUTO 27013KT 4500 HZ BKN009 11/10
                        Q1009 TEMPO 9999 NSW=
201703180520 METAR COR EGLL 180520Z AUTO 26015G25KT 6000 OVC010 11/10
                        Q1009 NOSIG=
201703180450 METAR COR EGLL 180450Z AUTO 26015KT 9999 OVC011 11/10 Q1008
                        NOSIG=
201703180420 METAR COR EGLL 180420Z AUTO 26018KT 7000 OVC011 11/10 Q1008
                        NOSIG=
201703180350 METAR COR EGLL 180350Z AUTO 26015KT 9999 OVC011 12/10 Q1008
                        NOSIG=
201703180320 METAR COR EGLL 180320Z AUTO 27013KT 7000 -RA OVC010 11/10
                        Q1008 NOSIG=
201703180250 METAR COR EGLL 180250Z AUTO 27015KT 4400 -DZ OVC012 11/10
                        Q1008 BECMG 9999 NSW=
201703180220 METAR COR EGLL 180220Z AUTO 25015KT 7000 OVC010 11/10 Q1008
                        NOSIG=
201703180150 METAR COR EGLL 180150Z AUTO 26016KT 9999 OVC010 11/09 Q1008
                        NOSIG=
201703180120 METAR COR EGLL 180120Z AUTO 25017KT 9999 OVC010 11/09 Q1008
                        NOSIG=
201703180050 METAR COR EGLL 180050Z AUTO 25020KT 9999 OVC012 11/09 Q1008
                        NOSIG=
201703180020 METAR COR EGLL 180020Z AUTO 25021KT 9999 OVC012 11/08 Q1008
                        NOSIG=
201703172350 METAR COR EGLL 172350Z AUTO 25018G29KT 9999 OVC012 10/08
                        Q1009 NOSIG=
201703172320 METAR COR EGLL 172320Z AUTO 25020KT 9999 OVC014 10/07 Q1009
                        TEMPO BKN016=
201703172250 METAR COR EGLL 172250Z AUTO 25022KT 9999 OVC015 11/07 Q1009
                        TEMPO BKN014=
201703172220 METAR COR EGLL 172220Z AUTO 25021KT 9999 OVC018 10/07 Q1010
                        NOSIG=
201703172150 METAR COR EGLL 172150Z AUTO 25019G29KT 9999 OVC020 10/06
                        Q1010 NOSIG=
201703172120 METAR EGLL 172120Z AUTO 25020KT 9999 OVC021 10/06 Q1010=
201703172050 METAR COR EGLL 172050Z AUTO 25021KT 9999 OVC022 10/06 Q1011
                        NOSIG=
201703172020 METAR COR EGLL 172020Z AUTO 24020KT 9999 OVC023 10/05 Q1011
                        NOSIG=
201703171950 METAR COR EGLL 171950Z AUTO 24019KT 9999 OVC024 10/05 Q1012
                        NOSIG=
201703171920 METAR COR EGLL 171920Z AUTO 24018KT 9999 OVC025 10/05 Q1012
                        NOSIG=
201703171850 METAR COR EGLL 171850Z AUTO 24016KT 9999 OVC025 10/05 Q1013
                        NOSIG=
201703171820 METAR COR EGLL 171820Z AUTO 24017KT 9999 OVC027 10/05 Q1014
                        NOSIG=
201703171750 METAR COR EGLL 171750Z AUTO 24016KT 9999 OVC026 10/05 Q1014
                        NOSIG=
201703171720 METAR COR EGLL 171720Z AUTO 25016KT 9999 OVC029 11/04 Q1014
                        NOSIG=
201703171650 METAR COR EGLL 171650Z AUTO 25016KT 9999 BKN031 11/04 Q1015
                        NOSIG=
201703171620 METAR COR EGLL 171620Z AUTO 25015KT 9999 BKN033 11/04 Q1015
                        NOSIG=
201703171550 METAR COR EGLL 171550Z AUTO 25015KT 9999 OVC034 11/03 Q1016
                        NOSIG=
201703171520 METAR COR EGLL 171520Z AUTO 25019KT 9999 OVC037 11/03 Q1016
                        NOSIG=
201703171450 METAR COR EGLL 171450Z AUTO 26017KT 9999 BKN038 11/03 Q1017
                        NOSIG=
201703171420 METAR COR EGLL 171420Z AUTO 26017KT 9999 BKN035 11/03 Q1017
                        NOSIG=
201703171350 METAR COR EGLL 171350Z AUTO 26017KT 9999 BKN035 11/03 Q1018
                        NOSIG=
201703171320 METAR COR EGLL 171320Z AUTO 25015KT 9999 BKN033 11/03 Q1018
                        NOSIG=
201703171250 METAR COR EGLL 171250Z AUTO 25015KT 9999 BKN033 11/04 Q1019
                        NOSIG=
201703171220 METAR COR EGLL 171220Z AUTO 26015KT 9999 SCT032 10/03 Q1019
                        NOSIG=
201703171150 METAR COR EGLL 171150Z AUTO 26013KT 9999 FEW032 10/03 Q1020
                        NOSIG=
201703171120 METAR COR EGLL 171120Z AUTO 26015KT 9999 FEW031 10/03 Q1020
                        NOSIG=
201703171050 METAR COR EGLL 171050Z AUTO 27014KT 9999 FEW030 09/03 Q1020
                        NOSIG=
201703171020 METAR COR EGLL 171020Z AUTO 27014KT 9999 FEW032 09/03 Q1020
                        NOSIG=
201703170950 METAR COR EGLL 170950Z AUTO 27013KT 9999 NCD 08/02 Q1020
                        NOSIG=
201703170920 METAR COR EGLL 170920Z AUTO 27012KT 9999 NCD 07/03 Q1021
                        NOSIG=
201703170850 METAR COR EGLL 170850Z AUTO 27013KT 9999 NCD 07/03 Q1020
                        NOSIG=
201703170820 METAR COR EGLL 170820Z AUTO 26012KT 9999 NCD 06/03 Q1020
                        NOSIG=
201703170750 METAR COR EGLL 170750Z AUTO 27011KT 9999 NCD 05/03 Q1020
                        NOSIG=
201703170720 METAR COR EGLL 170720Z AUTO 27011KT 9999 NCD 05/03 Q1020
                        NOSIG=
201703170650 METAR COR EGLL 170650Z AUTO 27007KT 9999 NCD 05/03 Q1020
                        NOSIG=
201703170620 METAR COR EGLL 170620Z AUTO 27007KT 9999 NCD 04/03 Q1020
                        NOSIG=
201703170550 METAR COR EGLL 170550Z AUTO 27006KT 9999 FEW019 04/03 Q1020
                        NOSIG=
201703170520 METAR COR EGLL 170520Z AUTO 27007KT 9999 FEW027 04/03 Q1020
                        NOSIG=
201703170450 METAR COR EGLL 170450Z AUTO 28005KT 9999 NCD 04/02 Q1020
                        NOSIG=
201703170420 METAR COR EGLL 170420Z AUTO 28005KT 9999 NCD 05/03 Q1020
                        NOSIG=
201703170350 METAR COR EGLL 170350Z AUTO 30003KT 9999 NCD 06/04 Q1020
                        NOSIG=
201703170320 METAR COR EGLL 170320Z AUTO 29005KT 9999 NCD 06/04 Q1020
                        NOSIG=
201703170250 METAR COR EGLL 170250Z AUTO 27004KT 9999 NCD 06/03 Q1020
                        NOSIG=
201703170220 METAR COR EGLL 170220Z AUTO VRB02KT 9999 FEW040 07/03 Q1020
                        NOSIG=
201703170150 METAR COR EGLL 170150Z AUTO 31004KT 280V360 9999 BKN031 OVC045
                        08/04 Q1020 NOSIG=
201703170120 METAR COR EGLL 170120Z AUTO 32005KT 290V030 9999 OVC028 08/05
                        Q1020 NOSIG=
201703170050 METAR COR EGLL 170050Z AUTO 31006KT 280V340 9999 BKN010 08/06
                        Q1020 REDZ BECMG SCT025=
201703170020 METAR COR EGLL 170020Z AUTO 27007KT 3100 DZ BKN010 BKN032
                        08/06 Q1020 BECMG 9999 NSW SCT030=
201703162350 METAR COR EGLL 162350Z AUTO 27006KT 9999 BKN031 07/06 Q1019
                        NOSIG=
201703162320 METAR COR EGLL 162320Z AUTO 26005KT 9999 BKN030 08/06 Q1019
                        NOSIG=
201703162250 METAR COR EGLL 162250Z AUTO 27007KT 9999 NCD 09/06 Q1019
                        NOSIG=
201703162220 METAR COR EGLL 162220Z AUTO 26007KT 9999 NCD 08/06 Q1019
                        NOSIG=
201703162150 METAR COR EGLL 162150Z AUTO 26008KT 9999 NCD 09/06 Q1019
                        NOSIG=
201703162120 METAR COR EGLL 162120Z AUTO 26008KT 9999 NCD 09/06 Q1019
                        NOSIG=
201703162050 METAR COR EGLL 162050Z AUTO 25008KT 9999 SCT026 10/06 Q1019
                        NOSIG=
201703162020 METAR COR EGLL 162020Z AUTO 26008KT 9999 OVC026 10/06 Q1019
                        NOSIG=
201703161950 METAR COR EGLL 161950Z AUTO 26008KT 9999 OVC025 10/06 Q1019
                        NOSIG=
201703161920 METAR COR EGLL 161920Z AUTO 28009KT 250V320 9999 OVC019 11/06
                        Q1019 NOSIG=
201703161850 METAR COR EGLL 161850Z AUTO 28009KT 9999 OVC019 11/07 Q1019
                        NOSIG=
201703161820 METAR COR EGLL 161820Z AUTO 28010KT 9999 OVC019 11/07 Q1019
                        NOSIG=
201703161750 METAR COR EGLL 161750Z 27011KT 9999 FEW020 BKN025 11/07 Q1019
                        NOSIG=
201703161720 METAR COR EGLL 161720Z 28009KT 9999 BKN019 12/08 Q1019 NOSIG=
201703161650 METAR COR EGLL 161650Z 26012KT 9000 BKN022 12/08 Q1019 NOSIG=
201703161620 METAR COR EGLL 161620Z 26010KT 9000 FEW018 BKN022 12/08 Q1019
                        NOSIG=
201703161550 METAR COR EGLL 161550Z 25010KT 8000 FEW018 BKN020 12/08 Q1019
                        NOSIG=
201703161520 METAR COR EGLL 161520Z 25011KT 220V280 7000 FEW017 BKN019
                        12/09 Q1020 NOSIG=
201703161450 METAR COR EGLL 161450Z 26013KT 6000 FEW018 BKN022 13/09 Q1020
                        NOSIG=
201703161420 METAR COR EGLL 161420Z 25013KT 6000 SCT018 BKN023 13/09 Q1021
                        NOSIG=
201703161350 METAR COR EGLL 161350Z 24012KT 6000 SCT018 BKN023 12/09 Q1021
                        NOSIG=
201703161320 METAR COR EGLL 161320Z 25011KT 6000 BKN017 12/09 Q1021 NOSIG=
201703161250 METAR COR EGLL 161250Z 25009KT 210V280 6000 BKN014 12/09
                        Q1022 BECMG BKN016=
201703161220 METAR COR EGLL 161220Z 24009KT 210V270 6000 BKN012 12/09
                        Q1022 NOSIG=
201703161150 METAR COR EGLL 161150Z 23010KT 7000 BKN011 11/09 Q1023 NOSIG=
201703161120 METAR COR EGLL 161120Z 24012KT 7000 BKN010 11/09 Q1023 TEMPO
                        BKN009=
201703161050 METAR COR EGLL 161050Z 23008KT 7000 BKN010 10/08 Q1023 TEMPO
                        BKN009=
201703161020 METAR COR EGLL 161020Z 23009KT 200V260 5000 HZ FEW006 BKN007
                        09/08 Q1024 NOSIG=
201703160950 METAR COR EGLL 160950Z 24010KT 190V260 5000 BR BKN005 09/08
                        Q1024 NOSIG=
201703160920 METAR COR EGLL 160920Z 23008KT 5000 BR FEW003 BKN004 08/07
                        Q1025 BECMG BKN005=
201703160850 METAR COR EGLL 160850Z 22008KT 190V260 4000 BR FEW002 BKN003
                        07/07 Q1025 BECMG 5000 BKN005=
201703160820 METAR COR EGLL 160820Z 23009KT 3200 BR SCT002 BKN003 07/07
                        Q1025 BECMG 5000 SCT003 BKN005=
201703160750 METAR COR EGLL 160750Z 24008KT 3000 BR SCT002 BKN003 06/06
                        Q1025 TEMPO SCT003 BKN005=
201703160720 METAR COR EGLL 160720Z 25007KT 3000 BR SCT002 BKN003 06/06
                        Q1025 TEMPO SCT003 BKN005=
201703160650 METAR COR EGLL 160650Z 23008KT 3000 BR SCT002 BKN003 06/06
                        Q1025 TEMPO BKN002=
201703160620 METAR COR EGLL 160620Z 23008KT 200V260 2100 BR BKN002 BKN003
                        06/06 Q1025 NOSIG=
201703160550 METAR COR EGLL 160550Z 22008KT 2000 BR BKN002 BKN003 06/06
                        Q1026 TEMPO 0500 FG OVC001=
201703160520 METAR COR EGLL 160520Z 21007KT 190V250 1000 R27R/P1500 BCFG
                        BR BKN002 06/06 Q1026 TEMPO 0500
                        FG VV///=
201703160450 METAR COR EGLL 160450Z 19005KT 150V240 0300 R27R/P1500 FG
                        VV/// 06/06 Q1026 NOSIG=
201703160420 METAR COR EGLL 160420Z 20005KT 4000 0800W R27R/P1500 FG NSC
                        06/06 Q1026 TEMPO 0200 FG OVC001=
201703160350 METAR COR EGLL 160350Z AUTO 20005KT 2400 BR FEW001 07/07
                        Q1026 TEMPO 1200 BKN002=
201703160320 METAR COR EGLL 160320Z AUTO 19004KT 3800 BR NCD 07/07 Q1026
                        TEMPO 1200 BKN004=
201703160250 METAR COR EGLL 160250Z AUTO 22004KT 3100 BR NCD 08/07 Q1027
                        BECMG BKN004=
201703160220 METAR COR EGLL 160220Z AUTO 22004KT 3900 BR NCD 08/07 Q1027
                        BECMG BKN006=
201703160150 METAR COR EGLL 160150Z AUTO 25003KT 5000 BR NCD 08/07 Q1027
                        BECMG 4000 BR BKN006=
201703160120 METAR COR EGLL 160120Z AUTO VRB01KT 6000 NCD 08/07 Q1028
                        BECMG 4000 BR BKN006=
201703160050 METAR COR EGLL 160050Z AUTO 22003KT 8000 NCD 09/08 Q1028
                        BECMG BKN006=
201703160020 METAR COR EGLL 160020Z AUTO 18002KT 9999 NCD 09/08 Q1029
                        BECMG BKN006=
201703152350 METAR COR EGLL 152350Z AUTO VRB01KT 9999 NCD 10/08 Q1029
                        BECMG BKN006=
201703152320 METAR COR EGLL 152320Z AUTO 19003KT 9999 NCD 09/08 Q1029
                        NOSIG=
201703152250 METAR COR EGLL 152250Z AUTO VRB02KT 9999 NCD 10/08 Q1030
                        NOSIG=
201703152220 METAR COR EGLL 152220Z AUTO 21004KT 9999 NCD 11/08 Q1030
                        NOSIG=
201703152150 METAR COR EGLL 152150Z AUTO 24004KT 210V280 9999 NCD 11/08
                        Q1030 NOSIG=
201703152120 METAR COR EGLL 152120Z AUTO 23005KT 190V250 9999 NCD 12/08
                        Q1030 NOSIG=
201703152050 METAR COR EGLL 152050Z AUTO 26004KT 220V290 9999 NCD 13/08
                        Q1030 NOSIG=
201703152020 METAR COR EGLL 152020Z AUTO 27004KT 9999 NCD 13/08 Q1030
                        NOSIG=
201703151950 METAR COR EGLL 151950Z AUTO 27005KT 9999 NCD 13/08 Q1030
                        NOSIG=
201703151920 METAR COR EGLL 151920Z AUTO 27003KT 9999 NCD 13/08 Q1030
                        NOSIG=
201703151850 METAR COR EGLL 151850Z AUTO 27006KT 9999 NCD 14/08 Q1030
                        NOSIG=
201703151820 METAR COR EGLL 151820Z AUTO 29005KT 9999 NCD 14/08 Q1030
                        NOSIG=
201703151750 METAR COR EGLL 151750Z AUTO 29005KT 9999 NCD 14/09 Q1030
                        NOSIG=
201703151720 METAR COR EGLL 151720Z AUTO 27008KT 9999 NCD 16/08 Q1030
                        NOSIG=
201703151650 METAR COR EGLL 151650Z AUTO 27008KT 9999 NCD 16/09 Q1031
                        NOSIG=
201703151620 METAR EGLL 151620Z AUTO 27007KT 9999 NCD 17/09 Q1031=
201703151550 METAR COR EGLL 151550Z AUTO 29006KT 230V350 9999 NCD 17/09
                        Q1031 NOSIG=
201703151520 METAR COR EGLL 151520Z AUTO VRB04KT 9999 NCD 18/08 Q1031
                        NOSIG=
201703151450 METAR COR EGLL 151450Z AUTO 24005KT 160V290 9999 NCD 18/08
                        Q1031 NOSIG=
201703151420 METAR COR EGLL 151420Z AUTO 28005KT 230V320 9999 NCD 17/07
                        Q1032 NOSIG=
201703151350 METAR COR EGLL 151350Z AUTO 25006KT 200V310 9999 NCD 17/08
                        Q1032 NOSIG=
201703151320 METAR COR EGLL 151320Z AUTO 26005KT 190V290 9999 NCD 17/08
                        Q1032 NOSIG=
201703151250 METAR COR EGLL 151250Z AUTO 22007KT 160V260 9999 NCD 16/09
                        Q1033 NOSIG=
201703151220 METAR COR EGLL 151220Z AUTO 23007KT 9999 NCD 16/09 Q1033
                        NOSIG=
201703151150 METAR COR EGLL 151150Z AUTO 24007KT 190V290 9999 NCD 15/09
                        Q1033 NOSIG=
201703151120 METAR COR EGLL 151120Z AUTO 28004KT 200V360 9999 NCD 13/09
                        Q1034 NOSIG=
201703151050 METAR COR EGLL 151050Z AUTO VRB03KT 9999 FEW012 14/09 Q1034
                        NOSIG=
201703151020 METAR COR EGLL 151020Z AUTO VRB02KT 9000 SCT011 12/09 Q1034
                        NOSIG=
201703150950 METAR COR EGLL 150950Z AUTO VRB02KT 8000 SCT009 12/09 Q1034
                        NOSIG=
201703150920 METAR COR EGLL 150920Z VRB02KT 8000 FEW008 SCT009 11/09 Q1034
                        NOSIG=
201703150850 METAR COR EGLL 150850Z VRB03KT 7000 BKN008 10/09 Q1034 BECMG
                        SCT008=
201703150820 METAR COR EGLL 150820Z VRB03KT 6000 BKN006 09/09 Q1034 TEMPO
                        SCT006 BKN010=
201703150750 METAR COR EGLL 150750Z VRB02KT 5000 BR SCT005 BKN006 09/09
                        Q1034 NOSIG=
201703150720 METAR COR EGLL 150720Z VRB02KT 4000 BR FEW002 BKN004 09/09
                        Q1034 TEMPO 5000 BKN005=
201703150650 METAR COR EGLL 150650Z VRB02KT 2900 BR SCT002 BKN003 09/08
                        Q1034 BECMG 5000 HZ BKN005=
201703150620 METAR EGLL 150620Z VRB02KT 1200 R27L/P1500 R27R/P1500 BR
                        BKN002 BKN003 08/08 Q1034=
201703150550 METAR COR EGLL 150550Z VRB03KT 1100 R27R/P1500 BR VCFG BKN002
                        BKN003 08/08 Q1034 TEMPO BKN001=
201703150520 METAR COR EGLL 150520Z VRB02KT 1100 R27R/1300 BR BKN002 BKN003
                        08/08 Q1034 TEMPO BKN001=
201703150450 METAR COR EGLL 150450Z 32004KT 280V010 1900 BR BKN002 BKN003
                        09/08 Q1034 NOSIG=
201703150420 METAR COR EGLL 150420Z 30004KT 1200 R27R/1400 BR BKN001 BKN002
                        08/08 Q1033 TEMPO 3000 SCT002 BKN003=
201703150350 METAR COR EGLL 150350Z AUTO 28003KT 1100 BR OVC001 09/08
                        Q1033 TEMPO 3000 SCT001 BKN002=
201703150320 METAR COR EGLL 150320Z AUTO 27002KT 1900 BR FEW004 09/08
                        Q1033 TEMPO BKN003=
201703150250 METAR COR EGLL 150250Z AUTO 25002KT 3400 BR SCT005 09/08
                        Q1033 TEMPO BKN003=
201703150220 METAR COR EGLL 150220Z AUTO 27002KT 3900 BR NCD 09/08 Q1033
                        TEMPO BKN003=
201703150150 METAR COR EGLL 150150Z AUTO 26002KT 4800 BR NCD 10/09 Q1033
                        TEMPO BKN004=
201703150120 METAR COR EGLL 150120Z AUTO 25005KT 5000 BR NCD 09/09 Q1033
                        TEMPO 4000 BR=
201703150050 METAR COR EGLL 150050Z AUTO 28005KT 5000 BR NCD 08/08 Q1033
                        TEMPO 4500 BR BKN004=
201703150020 METAR COR EGLL 150020Z AUTO 27007KT 6000 NCD 10/09 Q1033
                        NOSIG=
201703142350 METAR COR EGLL 142350Z AUTO 27005KT 9000 NCD 09/08 Q1033
                        TEMPO BKN007=
201703142320 METAR COR EGLL 142320Z AUTO 26006KT 9999 NCD 10/09 Q1033
                        TEMPO BKN008=
201703142250 METAR COR EGLL 142250Z AUTO 28006KT 9999 NCD 11/09 Q1033
                        NOSIG=
201703142220 METAR COR EGLL 142220Z AUTO 27006KT 9999 NCD 11/10 Q1033
                        NOSIG=
201703142150 METAR COR EGLL 142150Z AUTO 28005KT 9999 NCD 12/10 Q1033
                        NOSIG=
201703142120 METAR COR EGLL 142120Z AUTO 28006KT 9999 NCD 12/10 Q1033
                        NOSIG=
201703142050 METAR COR EGLL 142050Z AUTO 27005KT 9999 NCD 12/09 Q1033
                        NOSIG=
201703142020 METAR COR EGLL 142020Z AUTO 27005KT 9999 NCD 13/10 Q1033
                        NOSIG=
201703141950 METAR COR EGLL 141950Z AUTO 26007KT 9999 BKN032 13/10 Q1033
                        NOSIG=
201703141920 METAR COR EGLL 141920Z AUTO 27006KT 9999 OVC031 14/10 Q1033
                        NOSIG=
201703141850 METAR COR EGLL 141850Z AUTO 27008KT 9999 OVC028 14/10 Q1032
                        NOSIG=
201703141820 METAR COR EGLL 141820Z AUTO 26007KT 9999 OVC027 14/10 Q1032
                        NOSIG=
201703141750 METAR COR EGLL 141750Z AUTO 26007KT 9999 OVC024 14/10 Q1032
                        NOSIG=
201703141720 METAR COR EGLL 141720Z AUTO 27008KT 9999 OVC025 14/10 Q1032
                        NOSIG=
201703141650 METAR COR EGLL 141650Z AUTO 27009KT 9999 OVC025 14/10 Q1032
                        NOSIG=
201703141620 METAR COR EGLL 141620Z AUTO 27009KT 9999 OVC024 14/10 Q1032
                        NOSIG=
201703141550 METAR COR EGLL 141550Z AUTO 28009KT 9999 OVC024 14/10 Q1032
                        NOSIG=
201703141520 METAR COR EGLL 141520Z AUTO 30008KT 9999 OVC024 15/10 Q1032
                        NOSIG=
201703141450 METAR EGLL 141450Z AUTO 29006KT 9999 OVC023 14/10 Q1032=
201703141420 METAR COR EGLL 141420Z AUTO 27010KT 9999 OVC023 14/10 Q1032
                        NOSIG=
201703141350 METAR COR EGLL 141350Z AUTO 27011KT 9999 OVC023 14/09 Q1032
                        NOSIG=
201703141320 METAR COR EGLL 141320Z AUTO 27011KT 9999 OVC023 14/09 Q1032
                        NOSIG=
201703141250 METAR COR EGLL 141250Z AUTO 27012KT 9999 BKN021 14/09 Q1032
                        NOSIG=
201703141220 METAR COR EGLL 141220Z AUTO 26011KT 9999 BKN020 13/09 Q1032
                        NOSIG=
201703141150 METAR COR EGLL 141150Z AUTO 27011KT 9999 OVC018 13/09 Q1032
                        NOSIG=
201703141120 METAR COR EGLL 141120Z AUTO 26010KT 9999 OVC015 12/09 Q1032
                        NOSIG=
201703141050 METAR EGLL 141050Z AUTO 26010KT 9999 OVC012 11/08 Q1033=
201703141020 METAR COR EGLL 141020Z AUTO 27011KT 9999 OVC012 11/09 Q1033
                        BECMG BKN015=
201703140950 METAR COR EGLL 140950Z AUTO 27013KT 9999 OVC012 11/09 Q1033
                        NOSIG=
201703140920 METAR COR EGLL 140920Z AUTO 27012KT 9999 OVC011 11/09 Q1033
                        NOSIG=
201703140850 METAR COR EGLL 140850Z AUTO 27011KT 9999 OVC009 10/09 Q1032
                        BECMG BKN010=
201703140820 METAR COR EGLL 140820Z AUTO 27012KT 9999 OVC007 10/08 Q1032
                        TEMPO BKN010=
201703140750 METAR COR EGLL 140750Z AUTO 27011KT 8000 OVC008 10/08 Q1032
                        TEMPO BKN010=
201703140720 METAR COR EGLL 140720Z 26011KT 9000 SCT008 BKN010 09/08 Q1032
                        TEMPO BKN008=
201703140650 METAR COR EGLL 140650Z 27011KT 9000 FEW007 BKN008 09/08 Q1032
                        BECMG SCT008 BKN010=
201703140620 METAR COR EGLL 140620Z 26012KT 9999 BKN007 09/08 Q1032 TEMPO
                        SCT007 BKN010=
201703140550 METAR COR EGLL 140550Z 26010KT 9999 BKN007 09/08 Q1031 NOSIG=
201703140520 METAR COR EGLL 140520Z 25008KT 9999 BKN006 09/08 Q1031 NOSIG=
201703140450 METAR COR EGLL 140450Z 25011KT 9999 BKN005 09/08 Q1031 NOSIG=
201703140420 METAR COR EGLL 140420Z 25009KT 9999 BKN005 09/08 Q1031 NOSIG=
201703140350 METAR COR EGLL 140350Z 25009KT 7000 FEW002 BKN005 08/08 Q1031
                        TEMPO 4500 BR BKN004=
201703140320 METAR COR EGLL 140320Z 27010KT 3300 BR FEW002 BKN003 08/08
                        Q1032 TEMPO 5000 SCT003 BKN005=
201703140250 METAR COR EGLL 140250Z 28010KT 2800 BR FEW001 BKN002 08/08
                        Q1032 TEMPO 5000 SCT003 BKN005=
201703140220 METAR COR EGLL 140220Z AUTO 25007KT 3000 BR BKN003 08/07
                        Q1032 TEMPO SCT003 BKN005=
201703140150 METAR COR EGLL 140150Z AUTO 23005KT 5000 HZ NCD 08/07 Q1032
                        BECMG BKN007=
201703140120 METAR COR EGLL 140120Z AUTO 23005KT 8000 NCD 08/07 Q1032
                        BECMG BKN007=
201703140050 METAR COR EGLL 140050Z AUTO 20004KT 9999 NCD 08/07 Q1032
                        BECMG BKN007=
201703140020 METAR COR EGLL 140020Z AUTO 23006KT 9999 NCD 08/07 Q1032
                        BECMG BKN008=
201703132350 METAR COR EGLL 132350Z AUTO 21004KT 9999 NCD 09/08 Q1032
                        NOSIG=
201703132320 METAR COR EGLL 132320Z AUTO 21005KT 9999 NCD 09/08 Q1032
                        NOSIG=
201703132250 METAR COR EGLL 132250Z AUTO 22005KT 9999 NCD 10/08 Q1032
                        TEMPO BKN010=
201703132220 METAR COR EGLL 132220Z AUTO 23006KT 9999 NCD 10/08 Q1032
                        NOSIG=
201703132150 METAR COR EGLL 132150Z AUTO 25007KT 9999 NCD 11/08 Q1032
                        NOSIG=
201703132120 METAR COR EGLL 132120Z AUTO 26008KT 9999 NCD 11/07 Q1032
                        NOSIG=
201703132050 METAR COR EGLL 132050Z AUTO 25007KT 9999 SCT034 12/07 Q1031
                        NOSIG=
201703132020 METAR COR EGLL 132020Z AUTO 24007KT 210V280 9999 BKN032 12/06
                        Q1031 NOSIG=
201703131950 METAR COR EGLL 131950Z AUTO 22006KT 9999 OVC037 13/06 Q1031
                        NOSIG=
201703131920 METAR COR EGLL 131920Z AUTO 21004KT 180V250 9999 BKN038 13/07
                        Q1031 NOSIG=
201703131850 METAR COR EGLL 131850Z AUTO 23005KT 200V270 9999 OVC037 13/07
                        Q1031 NOSIG=
201703131820 METAR COR EGLL 131820Z AUTO 28003KT 9999 OVC037 13/07 Q1031
                        NOSIG=
201703131750 METAR COR EGLL 131750Z AUTO 27005KT 9999 BKN036 13/06 Q1030
                        NOSIG=
201703131720 METAR COR EGLL 131720Z AUTO 27007KT 9999 NCD 13/06 Q1030
                        NOSIG=
201703131650 METAR COR EGLL 131650Z AUTO 27006KT 9999 NCD 13/06 Q1030
                        NOSIG=
201703131620 METAR COR EGLL 131620Z AUTO 27008KT 9999 NCD 14/06 Q1030
                        NOSIG=
201703131550 METAR COR EGLL 131550Z AUTO 26008KT 9999 NCD 14/06 Q1030
                        NOSIG=
201703131520 METAR COR EGLL 131520Z AUTO 28006KT 240V320 9999 NCD 15/05
                        Q1030 NOSIG=
201703131450 METAR COR EGLL 131450Z AUTO 29006KT 220V340 9999 NCD 14/05
                        Q1030 NOSIG=
201703131420 METAR COR EGLL 131420Z AUTO 27009KT 9999 NCD 14/04 Q1030
                        NOSIG=
201703131350 METAR COR EGLL 131350Z AUTO 27008KT 240V310 9999 NCD 14/04
                        Q1029 NOSIG=
201703131320 METAR COR EGLL 131320Z AUTO 26011KT 9999 NCD 14/04 Q1029
                        NOSIG=
201703131250 METAR COR EGLL 131250Z AUTO 28008KT 240V310 9999 NCD 13/04
                        Q1029 NOSIG=
201703131220 METAR COR EGLL 131220Z AUTO 30006KT 240V340 9999 NCD 13/04
                        Q1029 NOSIG=
201703131150 METAR COR EGLL 131150Z AUTO 29008KT 260V340 9999 NCD 12/05
                        Q1030 NOSIG=
201703131120 METAR COR EGLL 131120Z AUTO 30007KT 250V360 9999 NCD 12/04
                        Q1030 NOSIG=
201703131050 METAR COR EGLL 131050Z AUTO 32006KT 280V020 9999 NCD 12/04
                        Q1030 NOSIG=
201703131020 METAR COR EGLL 131020Z AUTO 32006KT 280V010 9999 NCD 11/05
                        Q1030 NOSIG=
201703130950 METAR COR EGLL 130950Z AUTO 31006KT 290V360 9999 NCD 11/04
                        Q1029 NOSIG=
201703130920 METAR COR EGLL 130920Z AUTO 30007KT 270V340 9999 NCD 10/05
                        Q1029 NOSIG=
201703130850 METAR COR EGLL 130850Z AUTO 29005KT 260V330 9999 NCD 09/05
                        Q1029 NOSIG=
201703130820 METAR COR EGLL 130820Z AUTO 28005KT 9999 NCD 08/05 Q1028
                        NOSIG=
201703130750 METAR COR EGLL 130750Z AUTO 31004KT 280V340 9999 NCD 07/04
                        Q1028 NOSIG=
201703130720 METAR COR EGLL 130720Z AUTO 31005KT 9999 NCD 07/04 Q1028
                        NOSIG=
201703130650 METAR COR EGLL 130650Z AUTO 31004KT 9999 NCD 07/04 Q1027
                        NOSIG=
201703130620 METAR COR EGLL 130620Z AUTO 32004KT 9999 NCD 06/04 Q1027
                        NOSIG=
201703130550 METAR COR EGLL 130550Z AUTO 32004KT 9999 NCD 06/04 Q1026
                        NOSIG=
201703130520 METAR COR EGLL 130520Z AUTO 31004KT 280V350 9999 NCD 06/04
                        Q1026 NOSIG=
201703130450 METAR COR EGLL 130450Z AUTO VRB03KT 9999 NCD 06/04 Q1026
                        NOSIG=
201703130420 METAR COR EGLL 130420Z AUTO VRB02KT 9999 NCD 07/05 Q1025
                        NOSIG=
201703130350 METAR COR EGLL 130350Z AUTO VRB02KT 9999 NCD 07/05 Q1025
                        NOSIG=
201703130320 METAR COR EGLL 130320Z AUTO VRB02KT 9999 NCD 07/05 Q1025
                        NOSIG=
201703130250 METAR COR EGLL 130250Z AUTO 30003KT 9999 NCD 07/05 Q1024
                        NOSIG=
201703130220 METAR COR EGLL 130220Z AUTO 31004KT 280V350 9999 BKN045 08/05
                        Q1024 NOSIG=
201703130150 METAR COR EGLL 130150Z AUTO 32004KT 290V350 9999 FEW035 BKN044
                        09/06 Q1024 NOSIG=
201703130120 METAR COR EGLL 130120Z AUTO 33005KT 290V030 9999 BKN041 09/06
                        Q1023 NOSIG=
201703130050 METAR COR EGLL 130050Z AUTO 32007KT 290V350 9999 SCT042 09/06
                        Q1023 NOSIG=
201703130020 METAR COR EGLL 130020Z AUTO 32005KT 290V350 9999 SCT042 09/06
                        Q1023 NOSIG=
201703122350 METAR COR EGLL 122350Z AUTO 32006KT 290V010 9999 NCD 10/07
                        Q1022 NOSIG=
201703122320 METAR COR EGLL 122320Z AUTO 32007KT 290V010 9999 FEW043 10/07
                        Q1022 NOSIG=
201703122250 METAR COR EGLL 122250Z AUTO 32007KT 290V010 9999 NCD 10/08
                        Q1021 NOSIG=
201703122220 METAR COR EGLL 122220Z AUTO 33006KT 300V010 9999 NCD 11/08
                        Q1021 NOSIG=
201703122150 METAR COR EGLL 122150Z AUTO 33006KT 9999 NCD 11/08 Q1020
                        NOSIG=
201703122120 METAR COR EGLL 122120Z AUTO 33006KT 300V360 9999 NCD 11/08
                        Q1020 NOSIG=
201703122050 METAR COR EGLL 122050Z AUTO 31005KT 9999 NCD 12/09 Q1019
                        NOSIG=
201703122020 METAR COR EGLL 122020Z AUTO 30004KT 9999 -RA FEW049 12/09
                        Q1019 NOSIG=
201703121950 METAR COR EGLL 121950Z AUTO 29004KT 9999 -RA FEW031 12/09
                        Q1019 NOSIG=
201703121920 METAR COR EGLL 121920Z AUTO 28005KT 9999 NCD 12/09 Q1018
                        NOSIG=
201703121850 METAR COR EGLL 121850Z AUTO 29004KT 9999 NCD 12/09 Q1018
                        NOSIG=
201703121820 METAR COR EGLL 121820Z AUTO 31003KT 9999 OVC048 12/09 Q1017
                        NOSIG=
201703121750 METAR COR EGLL 121750Z AUTO 32004KT 9999 OVC043 12/10 Q1016
                        NOSIG=
201703121720 METAR COR EGLL 121720Z AUTO 30005KT 9999 FEW014 BKN027 12/10
                        Q1016 NOSIG=
201703121650 METAR COR EGLL 121650Z AUTO VRB03KT 9000 -RA SCT012 BKN025
                        12/10 Q1016 NOSIG=
201703121620 METAR COR EGLL 121620Z AUTO 30003KT 8000 FEW010 OVC037 12/10
                        Q1015 NOSIG=
201703121550 METAR COR EGLL 121550Z AUTO 29004KT 8000 SCT031 SCT046 12/10
                        Q1015 NOSIG=
201703121520 METAR COR EGLL 121520Z AUTO VRB03KT 9000 -RA FEW012 OVC042
                        12/10 Q1015 NOSIG=
201703121450 METAR COR EGLL 121450Z 30004KT 260V320 8000 FEW009 BKN043
                        12/10 Q1014 NOSIG=
201703121420 METAR COR EGLL 121420Z 30006KT 270V330 8000 -RA FEW008 BKN012
                        12/10 Q1014 BECMG SCT012=
201703121350 METAR COR EGLL 121350Z 30004KT 270V330 7000 FEW006 BKN011
                        12/10 Q1014 BECMG SCT010 BKN030=
201703121320 METAR COR EGLL 121320Z 30004KT 280V340 4200 -RADZ FEW006
                        SCT012 BKN030 11/10 Q1014 TEMPO 5000
                        -RA BKN012=
201703121250 METAR COR EGLL 121250Z VRB03KT 3500 -RADZ BKN006 11/10 Q1014
                        BECMG 5000 -RA SCT006 BKN012=
201703121220 METAR COR EGLL 121220Z 29003KT 3300 -RA BKN005 11/10 Q1014
                        TEMPO SCT008 BKN014=
201703121150 METAR COR EGLL 121150Z 28004KT 3000 -RA BKN005 10/10 Q1014
                        TEMPO SCT008 BKN015=
201703121120 METAR COR EGLL 121120Z VRB03KT 3500 -RADZ BKN005 11/09 Q1014
                        NOSIG=
201703121050 METAR COR EGLL 121050Z VRB03KT 3500 -RADZ BKN006 10/09 Q1013
                        NOSIG=
201703121020 METAR COR EGLL 121020Z AUTO 28004KT 250V320 3600 -RADZ FEW005
                        BKN011 BKN042 10/09 Q1013 RERA TEMPO
                        RADZ BKN007=
201703120950 METAR COR EGLL 120950Z AUTO 27005KT 4000 RA FEW023 BKN040
                        10/08 Q1013 TEMPO RADZ BKN009=
201703120920 METAR COR EGLL 120920Z AUTO 27006KT 6000 -RA FEW021 BKN041
                        10/08 Q1013 TEMPO 3000 RADZ BKN009=
201703120850 METAR COR EGLL 120850Z AUTO 28003KT 7000 FEW022 BKN045 11/08
                        Q1013 TEMPO 3500 RADZ=
201703120820 METAR COR EGLL 120820Z AUTO VRB02KT 9999 -RA SCT022 SCT047
                        11/07 Q1013 TEMPO 4800 RADZ=
201703120750 METAR COR EGLL 120750Z AUTO VRB02KT 8000 -RA FEW019 11/08
                        Q1013 TEMPO 4500 RADZ=
201703120720 METAR COR EGLL 120720Z AUTO VRB02KT 6000 -RA FEW044 10/08
                        Q1013 TEMPO 4500 RADZ=
201703120650 METAR COR EGLL 120650Z AUTO VRB02KT 8000 NCD 10/07 Q1012
                        TEMPO RADZ=
201703120620 METAR COR EGLL 120620Z AUTO VRB02KT 9000 -RA NCD 10/07 Q1012
                        TEMPO RADZ=
201703120550 METAR COR EGLL 120550Z AUTO VRB02KT 9000 -RA NCD 09/07 Q1012
                        NOSIG=
201703120520 METAR COR EGLL 120520Z AUTO VRB02KT 9000 NCD 10/07 Q1012
                        NOSIG=
201703120450 METAR COR EGLL 120450Z AUTO VRB01KT 9999 NCD 09/07 Q1012
                        NOSIG=
201703120420 METAR COR EGLL 120420Z AUTO 03001KT 9999 NCD 09/07 Q1012
                        NOSIG=
201703120350 METAR COR EGLL 120350Z AUTO 30001KT 9999 NCD 10/07 Q1013
                        NOSIG=
201703120320 METAR COR EGLL 120320Z AUTO 29002KT 9000 FEW036 09/07 Q1013
                        NOSIG=
201703120150 METAR COR EGLL 120150Z 12004KT CAVOK 10/07 Q1013 NOSIG=
201703120120 METAR COR EGLL 120120Z VRB02KT CAVOK 10/08 Q1014 NOSIG=
201703120050 METAR EGLL 120050Z AUTO 13003KT 9000 NCD 10/08 Q1014=
201703120020 METAR COR EGLL 120020Z AUTO 13003KT 6000 NCD 10/09 Q1014
                        NOSIG=
201703112350 METAR EGLL 112350Z AUTO 17003KT 8000 NSC 11/08 Q1014=
201703112320 METAR COR EGLL 112320Z AUTO 18003KT 6000 NCD 11/09 Q1015
                        NOSIG=
201703112250 METAR COR EGLL 112250Z AUTO 19005KT 150V260 6000 NCD 11/09
                        Q1015 NOSIG=
201703112220 METAR COR EGLL 112220Z AUTO 17006KT 120V250 5000 HZ NCD 11/09
                        Q1015 NOSIG=
201703112150 METAR COR EGLL 112150Z AUTO 17006KT 130V280 6000 NCD 12/10
                        Q1015 NOSIG=
201703112120 METAR COR EGLL 112120Z AUTO 18005KT 130V250 7000 NCD 12/10
                        Q1016 NOSIG=
201703112050 METAR COR EGLL 112050Z AUTO 15006KT 120V210 9999 NCD 12/09
                        Q1016 NOSIG=
201703112020 METAR COR EGLL 112020Z AUTO 19008KT 140V250 9999 NCD 13/09
                        Q1016 NOSIG=
201703111950 METAR COR EGLL 111950Z AUTO 21007KT 9999 NCD 13/09 Q1016
                        NOSIG=
201703111920 METAR COR EGLL 111920Z AUTO 19006KT 150V260 9999 NCD 13/09
                        Q1016 NOSIG=
201703111850 METAR COR EGLL 111850Z AUTO 19006KT 140V240 9999 NCD 14/09
                        Q1016 NOSIG=
201703111820 METAR COR EGLL 111820Z AUTO 20007KT 180V250 9999 NCD 14/10
                        Q1016 NOSIG=
201703111750 METAR COR EGLL 111750Z AUTO 22007KT 190V250 9999 NCD 15/10
                        Q1016 NOSIG=
201703111720 METAR COR EGLL 111720Z AUTO 22008KT 190V250 9999 NCD 15/10
                        Q1016 NOSIG=
201703111650 METAR COR EGLL 111650Z AUTO 21007KT 170V250 9999 FEW030 16/10
                        Q1016 NOSIG=
201703111620 METAR COR EGLL 111620Z AUTO 22007KT 9999 FEW030 16/10 Q1016
                        NOSIG=
201703111550 METAR COR EGLL 111550Z AUTO 22006KT 150V260 9999 FEW029 16/10
                        Q1016 NOSIG=
201703111520 METAR COR EGLL 111520Z AUTO 22008KT 9999 FEW025 17/10 Q1016
                        NOSIG=
201703111450 METAR COR EGLL 111450Z AUTO 15006KT 120V190 9999 SCT023 17/11
                        Q1016 NOSIG=
201703111420 METAR COR EGLL 111420Z AUTO 18006KT 120V230 9999 FEW020 16/11
                        Q1017 NOSIG=
201703111350 METAR COR EGLL 111350Z AUTO 14005KT 090V180 9999 SCT016 16/11
                        Q1017 NOSIG=
201703111320 METAR COR EGLL 111320Z AUTO 14006KT 100V170 9999 SCT015 16/11
                        Q1017 NOSIG=
201703111250 METAR COR EGLL 111250Z AUTO 16005KT 100V210 9000 FEW014 15/11
                        Q1017 NOSIG=
201703111220 METAR COR EGLL 111220Z AUTO 19005KT 150V230 7000 FEW009 14/11
                        Q1018 NOSIG=
201703111150 METAR COR EGLL 111150Z VRB06KT 7000 FEW008 BKN009 13/11 Q1018
                        BECMG SCT009 BKN011=
201703111120 METAR COR EGLL 111120Z AUTO VRB05KT 5000 HZ OVC006 12/10
                        Q1019 BECMG SCT007 BKN010=
201703111050 METAR COR EGLL 111050Z AUTO 15006KT 090V200 4400 HZ OVC006
                        12/10 Q1019 BECMG 6000 SCT008 BKN010=
201703111020 METAR COR EGLL 111020Z AUTO 15006KT 110V230 4000 HZ OVC005
                        11/10 Q1019 BECMG 6000 NSW SCT006
                        BKN010=
201703110950 METAR COR EGLL 110950Z AUTO 16006KT 100V220 3300 HZ OVC005
                        11/09 Q1019 NOSIG=
201703110920 METAR COR EGLL 110920Z AUTO VRB03KT 3600 HZ OVC005 11/09
                        Q1019 BECMG 5000=
201703110850 METAR COR EGLL 110850Z AUTO 16005KT 140V210 3700 HZ OVC005
                        11/09 Q1019 BECMG 5000=
201703110820 METAR COR EGLL 110820Z AUTO 17006KT 130V270 3600 HZ OVC006
                        10/09 Q1019 BECMG 5000=
201703110750 METAR COR EGLL 110750Z AUTO 16006KT 100V210 3700 HZ OVC005
                        10/09 Q1019 TEMPO 5000=
201703110720 METAR COR EGLL 110720Z AUTO 17007KT 140V200 3800 HZ OVC006
                        10/09 Q1019 TEMPO 5000=
201703110650 METAR COR EGLL 110650Z AUTO VRB07KT 3800 HZ OVC005 10/09
                        Q1019 NOSIG=
201703110620 METAR COR EGLL 110620Z AUTO 16006KT 070V190 3700 HZ OVC005
                        10/09 Q1019 NOSIG=
201703110550 METAR COR EGLL 110550Z AUTO 17006KT 120V200 3800 HZ OVC005
                        10/09 Q1019 NOSIG=
201703110520 METAR COR EGLL 110520Z AUTO 17006KT 100V200 4000 HZ OVC006
                        10/09 Q1019 NOSIG=
201703110450 METAR COR EGLL 110450Z AUTO 17005KT 140V210 3800 HZ OVC007
                        10/09 Q1019 NOSIG=
201703110420 METAR COR EGLL 110420Z AUTO 16005KT 3800 HZ OVC008 10/09
                        Q1019 NOSIG=
201703110350 METAR COR EGLL 110350Z AUTO 15007KT 3800 HZ BKN008 OVC030
                        11/10 Q1020 TEMPO SCT010=
201703110320 METAR COR EGLL 110320Z AUTO 15007KT 3500 HZ BKN008 OVC033
                        11/10 Q1020 TEMPO SCT010=
201703110250 METAR COR EGLL 110250Z AUTO 15005KT 3500 HZ OVC009 11/10
                        Q1020 TEMPO BKN010=
201703110220 METAR COR EGLL 110220Z AUTO 14005KT 3600 HZ OVC007 10/10
                        Q1021 TEMPO 5000 BKN010=
201703110150 METAR COR EGLL 110150Z AUTO 14003KT 4500 HZ OVC008 10/10
                        Q1021 TEMPO 5000 BKN010=
201703110120 METAR COR EGLL 110120Z AUTO 16002KT 4600 HZ BKN005 10/10
                        Q1022 TEMPO 5000 BKN010=
201703110050 METAR COR EGLL 110050Z AUTO 16003KT 4700 HZ BKN006 OVC032
                        10/10 Q1022 TEMPO 5000 BKN010=
201703110020 METAR COR EGLL 110020Z AUTO 18003KT 4700 HZ SCT006 OVC019
                        10/10 Q1022 TEMPO 5000 BKN006=
201703102350 METAR COR EGLL 102350Z AUTO 18004KT 5000 HZ BKN006 10/10
                        Q1022 TEMPO 4000 BR=
201703102320 METAR COR EGLL 102320Z AUTO 18004KT 4600 HZ BKN005 10/10
                        Q1022 TEMPO 5000=
201703102250 METAR COR EGLL 102250Z AUTO 18005KT 150V250 4100 HZ OVC006
                        10/09 Q1022 TEMPO 5000=
201703102220 METAR COR EGLL 102220Z AUTO 18005KT 090V240 9000 BKN006 10/09
                        Q1022 TEMPO BKN010=
201703102150 METAR COR EGLL 102150Z AUTO 17006KT 120V240 9999 OVC010 10/09
                        Q1022 TEMPO BKN008=
201703102120 METAR EGLL 102120Z 16008KT 130V210 9999 SCT006 OVC015 10/09
                        Q1022=
201703102050 METAR COR EGLL 102050Z 17006KT 120V250 9999 FEW006 BKN007
                        10/09 Q1023 NOSIG=
201703102020 METAR EGLL 102020Z 18007KT 140V230 9999 FEW006 BKN008 10/09
                        Q1023=
201703101950 METAR COR EGLL 101950Z 19009KT 150V230 9999 FEW006 BKN007
                        11/09 Q1023 NOSIG=
201703101920 METAR COR EGLL 101920Z 18007KT 140V250 9999 FEW006 BKN007
                        11/09 Q1024 NOSIG=
201703101850 METAR COR EGLL 101850Z AUTO 18007KT 140V240 9000 OVC008 11/09
                        Q1024 NOSIG=
201703101820 METAR COR EGLL 101820Z AUTO 18006KT 140V240 9000 BKN007 OVC021
                        11/09 Q1024 TEMPO SCT007=
201703101750 METAR COR EGLL 101750Z AUTO 21008KT 9000 BKN008 OVC019 11/09
                        Q1023 TEMPO SCT008=
201703101720 METAR COR EGLL 101720Z AUTO 19007KT 170V230 9000 BKN008 11/10
                        Q1023 TEMPO SCT008=
201703101650 METAR COR EGLL 101650Z AUTO 21009KT 180V240 9999 BKN009 11/09
                        Q1023 TEMPO BKN012=
201703101620 METAR COR EGLL 101620Z AUTO 21008KT 180V250 9999 OVC010 12/10
                        Q1023 NOSIG=
201703101550 METAR COR EGLL 101550Z AUTO 20009KT 170V250 9999 OVC010 12/10
                        Q1023 NOSIG=
201703101520 METAR COR EGLL 101520Z AUTO 21007KT 150V270 9999 BKN011 13/10
                        Q1023 NOSIG=
201703101450 METAR COR EGLL 101450Z AUTO 20007KT 140V250 9999 BKN010 12/10
                        Q1024 NOSIG=
201703101420 METAR COR EGLL 101420Z AUTO 21007KT 180V260 9999 OVC010 12/10
                        Q1024 NOSIG=
201703101350 METAR COR EGLL 101350Z 19008KT 150V230 9999 BKN010 BKN012
                        12/10 Q1024 NOSIG=
201703101320 METAR COR EGLL 101320Z 19008KT 160V230 9999 BKN010 12/10
                        Q1025 NOSIG=
201703101250 METAR COR EGLL 101250Z 17006KT 130V230 9999 BKN010 11/10
                        Q1025 NOSIG=
201703101220 METAR COR EGLL 101220Z 18005KT 130V240 9999 BKN009 11/09
                        Q1025 TEMPO BKN010=
201703101150 METAR COR EGLL 101150Z VRB05KT 9999 SCT006 BKN008 11/09 Q1025
                        TEMPO BKN010=
201703101120 METAR COR EGLL 101120Z 16004KT 110V260 8000 FEW005 BKN007
                        10/09 Q1026 NOSIG=
201703101050 METAR COR EGLL 101050Z 17005KT 110V250 5000 BR FEW004 BKN007
                        10/09 Q1026 NOSIG=
201703101020 METAR EGLL 101020Z AUTO 17005KT 130V240 5000 BR OVC004 09/09
                        Q1026=
201703100950 METAR COR EGLL 100950Z 17005KT 130V230 5000 HZ FEW003 BKN006
                        09/08 Q1026 NOSIG=
201703100920 METAR COR EGLL 100920Z 16005KT 110V230 3000 -DZRA FEW003
                        BKN008 09/08 Q1026 TEMPO 6000 NSW=
201703100850 METAR COR EGLL 100850Z 15007KT 120V200 6000 BKN008 09/07
                        Q1026 TEMPO 3000 RADZ=
201703100820 METAR COR EGLL 100820Z AUTO 15005KT 080V220 8000 OVC008 09/07
                        Q1026 NOSIG=
201703100750 METAR COR EGLL 100750Z AUTO 16006KT 120V230 9000 OVC008 08/07
                        Q1026 NOSIG=
201703100720 METAR COR EGLL 100720Z VRB03KT 9999 BKN010 08/06 Q1026 TEMPO
                        BKN008=
201703100650 METAR COR EGLL 100650Z AUTO 16004KT 120V220 9999 BKN010 08/06
                        Q1026 TEMPO BKN008=
201703100620 METAR COR EGLL 100620Z AUTO 16004KT 100V220 9999 NCD 08/06
                        Q1026 NOSIG=
201703100550 METAR COR EGLL 100550Z AUTO 15006KT 9999 NCD 08/05 Q1026
                        NOSIG=
201703100520 METAR COR EGLL 100520Z AUTO 11005KT 9999 NCD 07/04 Q1026
                        NOSIG=
201703100450 METAR COR EGLL 100450Z AUTO 08004KT 9999 NCD 07/04 Q1026
                        NOSIG=
201703100420 METAR EGLL 100420Z AUTO 08004KT 9999 NCD 07/04 Q1026=
201703100350 METAR EGLL 100350Z AUTO 09003KT 9999 NCD 07/04 Q1026=
201703100320 METAR COR EGLL 100320Z AUTO 08004KT 9999 NCD 06/04 Q1026
                        NOSIG=
201703100250 METAR COR EGLL 100250Z AUTO 09005KT 9999 NCD 07/03 Q1027
                        NOSIG=
201703100220 METAR COR EGLL 100220Z AUTO 09004KT 9999 NCD 06/03 Q1027
                        NOSIG=
201703100150 METAR COR EGLL 100150Z AUTO 09004KT 9999 NCD 07/04 Q1027
                        NOSIG=
201703100120 METAR COR EGLL 100120Z AUTO 09004KT 9999 NCD 07/04 Q1027
                        NOSIG=
201703100050 METAR COR EGLL 100050Z AUTO 08006KT 9999 NCD 07/04 Q1027
                        NOSIG=
201703100020 METAR COR EGLL 100020Z AUTO 09006KT 9999 NCD 07/04 Q1027
                        NOSIG=
201703092350 METAR COR EGLL 092350Z AUTO 10007KT 9999 NCD 08/04 Q1027
                        NOSIG=
201703092320 METAR COR EGLL 092320Z AUTO 10004KT 9999 NCD 09/04 Q1026
                        NOSIG=
201703092250 METAR COR EGLL 092250Z AUTO 06002KT 9999 NCD 10/03 Q1026
                        NOSIG=
201703092220 METAR COR EGLL 092220Z AUTO 06003KT 9999 NCD 10/03 Q1026
                        NOSIG=
201703092150 METAR COR EGLL 092150Z AUTO 07004KT 9999 NCD 11/03 Q1026
                        NOSIG=
201703092120 METAR COR EGLL 092120Z AUTO VRB03KT 9999 NCD 11/03 Q1026
                        NOSIG=
201703092050 METAR COR EGLL 092050Z AUTO 06004KT 9999 NCD 11/03 Q1026
                        NOSIG=
201703092020 METAR COR EGLL 092020Z AUTO VRB03KT 9999 NCD 12/02 Q1025
                        NOSIG=
201703091950 METAR COR EGLL 091950Z AUTO VRB02KT 9999 NCD 12/02 Q1025
                        NOSIG=
201703091920 METAR COR EGLL 091920Z AUTO VRB02KT 9999 NCD 12/02 Q1025
                        NOSIG=
201703091850 METAR COR EGLL 091850Z AUTO VRB03KT 9999 NCD 12/02 Q1024
                        NOSIG=
201703091820 METAR COR EGLL 091820Z AUTO 01004KT 340V050 9999 NCD 13/02
                        Q1024 NOSIG=
201703091750 METAR COR EGLL 091750Z AUTO 36004KT 320V040 9999 NCD 13/02
                        Q1024 NOSIG=
201703091720 METAR COR EGLL 091720Z AUTO 34004KT 300V030 9999 NCD 14/02
                        Q1023 NOSIG=
201703091650 METAR COR EGLL 091650Z AUTO 35005KT 300V040 9999 NCD 15/03
                        Q1023 NOSIG=
201703091620 METAR COR EGLL 091620Z AUTO 29009KT 9999 NCD 16/03 Q1023
                        NOSIG=
201703091550 METAR COR EGLL 091550Z AUTO 28011KT 250V310 9999 NCD 16/04
                        Q1022 NOSIG=
201703091520 METAR COR EGLL 091520Z AUTO 28008KT 9999 NCD 16/05 Q1022
                        NOSIG=
201703091450 METAR COR EGLL 091450Z AUTO 28007KT 230V310 9999 FEW045 16/06
                        Q1022 NOSIG=
201703091420 METAR COR EGLL 091420Z AUTO 31007KT 270V330 9999 FEW043 16/06
                        Q1022 NOSIG=
201703091350 METAR COR EGLL 091350Z AUTO 29008KT 9999 NCD 16/06 Q1021
                        NOSIG=
201703091320 METAR COR EGLL 091320Z AUTO 27011KT 9999 FEW042 16/06 Q1021
                        NOSIG=
201703091250 METAR COR EGLL 091250Z AUTO 29008KT 260V340 9999 SCT035 16/08
                        Q1021 NOSIG=
201703091220 METAR COR EGLL 091220Z AUTO 30009KT 9999 BKN032 16/08 Q1021
                        NOSIG=
201703091150 METAR COR EGLL 091150Z AUTO 29010KT 9999 BKN030 15/08 Q1021
                        NOSIG=
201703091120 METAR COR EGLL 091120Z AUTO 30010KT 270V330 9999 BKN027 15/09
                        Q1021 NOSIG=
201703091050 METAR COR EGLL 091050Z AUTO 29013KT 9999 BKN022 15/09 Q1020
                        NOSIG=
201703091020 METAR COR EGLL 091020Z AUTO 28012KT 250V310 9999 BKN022 14/09
                        Q1020 NOSIG=
201703090950 METAR COR EGLL 090950Z AUTO 27012KT 9999 SCT017 13/09 Q1019
                        NOSIG=
201703090920 METAR COR EGLL 090920Z 27014KT 9999 SCT017 13/10 Q1019 NOSIG=
201703090850 METAR COR EGLL 090850Z 28012KT 9999 SCT015 SCT019 13/10 Q1019
                        NOSIG=
201703090820 METAR COR EGLL 090820Z 27012KT 9999 SCT015 SCT019 12/10 Q1018
                        NOSIG=
201703090750 METAR COR EGLL 090750Z AUTO 27010KT 9999 SCT017 BKN029 12/09
                        Q1018 NOSIG=
201703090720 METAR COR EGLL 090720Z AUTO 27009KT 9999 SCT017 12/09 Q1018
                        NOSIG=
201703090650 METAR COR EGLL 090650Z AUTO 26010KT 9999 SCT014 SCT025 12/09
                        Q1017 NOSIG=
201703090620 METAR COR EGLL 090620Z AUTO 27012KT 9999 OVC015 12/10 Q1017
                        NOSIG=
201703090550 METAR COR EGLL 090550Z AUTO 26010KT 9999 OVC016 12/10 Q1017
                        NOSIG=
201703090520 METAR COR EGLL 090520Z AUTO 26015KT 9999 OVC015 12/10 Q1016
                        NOSIG=
201703090450 METAR COR EGLL 090450Z AUTO 25012KT 9999 BKN015 12/10 Q1016
                        NOSIG=
201703090420 METAR COR EGLL 090420Z AUTO 25010KT 9999 BKN015 12/10 Q1015
                        NOSIG=
201703090350 METAR COR EGLL 090350Z AUTO 24009KT 9999 BKN013 12/10 Q1015
                        TEMPO SCT020=
201703090320 METAR COR EGLL 090320Z AUTO 24011KT 9999 SCT011 BKN018 12/10
                        Q1016 NOSIG=
201703090250 METAR COR EGLL 090250Z AUTO 24010KT 9999 OVC010 12/10 Q1016
                        TEMPO BKN018=
201703090220 METAR COR EGLL 090220Z AUTO 23008KT 9999 BKN011 11/10 Q1016
                        TEMPO BKN020=
201703090150 METAR COR EGLL 090150Z AUTO 24006KT 9999 OVC009 11/10 Q1016
                        TEMPO BKN012=
201703090120 METAR COR EGLL 090120Z 23008KT 9999 BKN011 11/10 Q1016 TEMPO
                        BKN015=
201703090050 METAR COR EGLL 090050Z 24006KT 9999 BKN011 10/09 Q1016 TEMPO
                        BKN008=
201703090020 METAR COR EGLL 090020Z 23006KT 9999 BKN013 10/09 Q1016 TEMPO
                        BKN008=
201703082350 METAR COR EGLL 082350Z AUTO 24006KT 9999 FEW009 OVC017 10/09
                        Q1016 TEMPO BKN008=
201703082320 METAR COR EGLL 082320Z AUTO 23006KT 8000 BKN024 09/08 Q1016
                        TEMPO BKN012=
201703082250 METAR COR EGLL 082250Z AUTO 23006KT 7000 FEW036 09/08 Q1016
                        NOSIG=
201703082220 METAR COR EGLL 082220Z AUTO 25008KT 8000 NCD 09/08 Q1016
                        NOSIG=
201703082150 METAR COR EGLL 082150Z AUTO 24007KT 8000 NCD 09/08 Q1016
                        NOSIG=
201703082120 METAR COR EGLL 082120Z AUTO 24006KT 9999 NCD 10/08 Q1016
                        NOSIG=
201703082050 METAR COR EGLL 082050Z AUTO 25007KT 210V270 9999 NCD 10/09
                        Q1016 NOSIG=
201703082020 METAR COR EGLL 082020Z AUTO 26006KT 9999 NCD 10/09 Q1016
                        NOSIG=
201703081950 METAR COR EGLL 081950Z AUTO 25008KT 9999 NCD 10/08 Q1015
                        NOSIG=
201703081920 METAR COR EGLL 081920Z AUTO 25008KT 9999 FEW042 10/09 Q1015
                        NOSIG=
201703081850 METAR COR EGLL 081850Z AUTO 24008KT 9999 BKN039 11/09 Q1015
                        NOSIG=
201703081820 METAR COR EGLL 081820Z AUTO 24009KT 9999 OVC038 11/09 Q1015
                        NOSIG=
201703081750 METAR COR EGLL 081750Z AUTO 24008KT 9999 BKN029 OVC046 12/09
                        Q1014 NOSIG=
201703081720 METAR COR EGLL 081720Z AUTO 26010KT 9999 OVC028 12/08 Q1014
                        NOSIG=
201703081650 METAR COR EGLL 081650Z AUTO 26010KT 9999 BKN021 12/09 Q1014
                        NOSIG=
201703081620 METAR COR EGLL 081620Z AUTO 26012KT 9999 BKN026 OVC042 13/08
                        Q1013 NOSIG=
201703081550 METAR COR EGLL 081550Z AUTO 25010KT 9999 OVC035 13/08 Q1013
                        NOSIG=
201703081520 METAR COR EGLL 081520Z AUTO 27011KT 9999 SCT023 SCT035 13/08
                        Q1013 NOSIG=
201703081450 METAR COR EGLL 081450Z AUTO 26013KT 9999 BKN031 13/09 Q1013
                        NOSIG=
201703081420 METAR COR EGLL 081420Z AUTO 26014KT 9999 FEW030 OVC039 14/08
                        Q1012 NOSIG=
201703081350 METAR COR EGLL 081350Z AUTO 27013KT 9999 FEW024 BKN030 14/09
                        Q1012 NOSIG=
201703081320 METAR COR EGLL 081320Z AUTO 28011KT 9999 SCT024 SCT039 14/10
                        Q1012 NOSIG=
201703081250 METAR COR EGLL 081250Z AUTO 27012KT 9999 OVC044 15/11 Q1012
                        NOSIG=
201703081220 METAR COR EGLL 081220Z AUTO 27011KT 9999 FEW028 BKN041 14/10
                        Q1011 NOSIG=
201703081150 METAR COR EGLL 081150Z AUTO 26011KT 9999 SCT017 BKN032 14/11
                        Q1011 NOSIG=
201703081120 METAR COR EGLL 081120Z AUTO 27010KT 9999 FEW014 BKN024 14/11
                        Q1011 NOSIG=
201703081050 METAR COR EGLL 081050Z 26011KT 9999 SCT011 BKN015 13/11 Q1011
                        TEMPO BKN012=
201703081020 METAR COR EGLL 081020Z AUTO 25011KT 9999 BKN009 OVC020 13/11
                        Q1010 TEMPO BKN010=
201703080950 METAR COR EGLL 080950Z 25011KT 9999 FEW009 SCT012 BKN014
                        12/11 Q1010 TEMPO 4000 RADZ BKN009=
201703080920 METAR COR EGLL 080920Z 25012KT 9999 FEW009 SCT012 BKN015
                        12/11 Q1011 TEMPO 4000 RADZ BKN009=
201703080850 METAR COR EGLL 080850Z 25011KT 9999 3200NE -RADZ FEW006 SCT009
                        BKN012 12/11 Q1011 TEMPO RADZ BKN009=
201703080820 METAR COR EGLL 080820Z 25011KT 9999 FEW011 SCT013 BKN014
                        12/11 Q1010 TEMPO BKN009=
201703080750 METAR COR EGLL 080750Z 25011KT 9999 FEW011 SCT013 BKN015
                        12/10 Q1010 TEMPO BKN012=
201703080720 METAR COR EGLL 080720Z 24013KT 9999 FEW010 SCT014 BKN016
                        12/10 Q1009 TEMPO BKN012=
201703080650 METAR COR EGLL 080650Z 24013KT 9999 BKN011 BKN014 12/10 Q1009
                        NOSIG=
201703080620 METAR COR EGLL 080620Z 24012KT 9999 BKN011 11/10 Q1009 TEMPO
                        BKN006=
201703080550 METAR COR EGLL 080550Z 22010KT 9999 FEW008 BKN012 10/10 Q1009
                        TEMPO BKN006=
201703080520 METAR COR EGLL 080520Z 22009KT 180V250 9999 FEW008 BKN012
                        10/09 Q1010 TEMPO BKN006=
201703080450 METAR COR EGLL 080450Z 21008KT 9999 FEW006 BKN008 09/09 Q1010
                        NOSIG=
201703080420 METAR COR EGLL 080420Z 21007KT 9999 FEW007 BKN009 09/08 Q1010
                        TEMPO SCT009 BKN012=
201703080350 METAR COR EGLL 080350Z 20010KT 9999 FEW006 SCT008 BKN012
                        09/08 Q1010 TEMPO BKN006=
201703080320 METAR COR EGLL 080320Z 19012KT 9999 -RA FEW004 BKN006 08/08
                        Q1010 NOSIG=
201703080250 METAR COR EGLL 080250Z AUTO 20014KT 4800 -RADZ OVC004 08/08
                        Q1011 TEMPO 6000=
201703080220 METAR COR EGLL 080220Z AUTO 19013KT 9999 -RA OVC006 08/07
                        Q1012 NOSIG=
201703080150 METAR COR EGLL 080150Z AUTO 19012KT 9999 -RA OVC006 08/07
                        Q1012 NOSIG=
201703080120 METAR COR EGLL 080120Z AUTO 18011KT 9999 -RA OVC005 08/07
                        Q1013 TEMPO BKN010=
201703080050 METAR COR EGLL 080050Z AUTO 18011KT 9999 -RA OVC006 08/07
                        Q1014 TEMPO RA=
201703080020 METAR COR EGLL 080020Z AUTO 20009KT 9999 -RA OVC006 08/07
                        Q1014 TEMPO RA=
201703072350 METAR COR EGLL 072350Z AUTO 20011KT 9999 -RA OVC007 08/07
                        Q1015 NOSIG=
201703072320 METAR COR EGLL 072320Z AUTO 19010KT 9999 -RA BKN010 08/06
                        Q1015 TEMPO BKN006=
201703072250 METAR COR EGLL 072250Z AUTO 18011KT 150V220 9999 -RA BKN015
                        08/05 Q1015 BECMG BKN012=
201703072220 METAR COR EGLL 072220Z AUTO 19009KT 150V240 9999 BKN016 08/05
                        Q1016 BECMG -RA BKN012=
201703072150 METAR COR EGLL 072150Z AUTO 18008KT 150V240 9999 BKN017 BKN042
                        07/04 Q1016 BECMG BKN012=
201703072120 METAR COR EGLL 072120Z AUTO 19009KT 160V240 9999 BKN040 07/04
                        Q1016 NOSIG=
201703072050 METAR COR EGLL 072050Z AUTO 19009KT 150V240 9999 OVC038 07/03
                        Q1017 NOSIG=
201703072020 METAR COR EGLL 072020Z AUTO 18009KT 160V240 9999 FEW033 BKN049
                        07/03 Q1017 NOSIG=
201703071950 METAR COR EGLL 071950Z AUTO 19009KT 160V240 9999 NCD 07/02
                        Q1018 NOSIG=
201703071920 METAR COR EGLL 071920Z AUTO 19008KT 160V230 9999 NCD 07/02
                        Q1017 NOSIG=
201703071850 METAR COR EGLL 071850Z AUTO 21009KT 180V250 9999 NCD 08/02
                        Q1017 NOSIG=
201703071820 METAR EGLL 071820Z AUTO 22010KT 180V250 9999 NCD 09/02 Q1017
                        NOSIG=
201703071750 METAR COR EGLL 071750Z AUTO 23008KT 9999 NCD 09/01 Q1017
                        NOSIG=
201703071720 METAR COR EGLL 071720Z AUTO 23009KT 9999 NCD 10/01 Q1017
                        NOSIG=
201703071650 METAR COR EGLL 071650Z AUTO 23010KT 200V260 9999 FEW042 10/01
                        Q1017 NOSIG=
201703071620 METAR COR EGLL 071620Z AUTO 22007KT 170V260 9999 FEW042 11/02
                        Q1017 NOSIG=
201703071550 METAR EGLL 071550Z AUTO 23007KT 170V260 9999 NCD 11/02 Q1016=
201703071520 METAR COR EGLL 071520Z AUTO 22004KT 160V330 9999 NCD 11/01
                        Q1016 NOSIG=
201703071450 METAR COR EGLL 071450Z AUTO 24006KT 180V290 9999 FEW034 11/02
                        Q1017 NOSIG=
201703071420 METAR COR EGLL 071420Z AUTO 25007KT 210V290 9999 FEW034 10/02
                        Q1017 NOSIG=
201703071350 METAR COR EGLL 071350Z AUTO 26007KT 210V280 9999 SCT031 10/03
                        Q1018 NOSIG=
201703071320 METAR COR EGLL 071320Z AUTO 27008KT 9999 SCT030 10/03 Q1018
                        NOSIG=
201703071250 METAR COR EGLL 071250Z AUTO 29004KT 230V020 9999 SCT026 10/03
                        Q1017 NOSIG=
201703071220 METAR COR EGLL 071220Z AUTO 25004KT 190V340 9999 SCT025 09/03
                        Q1017 NOSIG=
201703071150 METAR COR EGLL 071150Z AUTO 30004KT 260V340 9999 FEW026 08/03
                        Q1018 NOSIG=
201703071120 METAR COR EGLL 071120Z AUTO 29006KT 9999 FEW020 08/03 Q1018
                        NOSIG=
201703071050 METAR COR EGLL 071050Z AUTO 29006KT 260V320 9999 FEW018 07/03
                        Q1018 NOSIG=
201703071020 METAR COR EGLL 071020Z AUTO 30006KT 260V330 9999 SCT017 07/03
                        Q1017 NOSIG=
201703070950 METAR COR EGLL 070950Z AUTO 31004KT 260V360 9999 SCT016 07/03
                        Q1017 NOSIG=
201703070920 METAR COR EGLL 070920Z AUTO 29005KT 260V330 9999 FEW016 06/03
                        Q1017 NOSIG=
201703070850 METAR COR EGLL 070850Z AUTO 27007KT 9999 NCD 06/03 Q1017
                        NOSIG=
201703070820 METAR COR EGLL 070820Z AUTO 28007KT 9999 NCD 05/03 Q1017
                        NOSIG=
201703070750 METAR COR EGLL 070750Z AUTO 28006KT 9999 NCD 05/03 Q1017
                        NOSIG=
201703070720 METAR EGLL 070720Z AUTO 27007KT 9999 NCD 04/03 Q1017=
201703070650 METAR COR EGLL 070650Z AUTO 27006KT 9999 SCT020 04/03 Q1017
                        NOSIG=
201703070620 METAR COR EGLL 070620Z AUTO 27007KT 9999 FEW031 04/03 Q1016
                        NOSIG=
201703070550 METAR COR EGLL 070550Z AUTO 29008KT 9999 FEW013 OVC030 05/03
                        Q1016 NOSIG=
201703070520 METAR COR EGLL 070520Z AUTO 29007KT 9999 FEW011 BKN028 05/03
                        Q1016 NOSIG=
201703070450 METAR COR EGLL 070450Z AUTO 29008KT 9999 SCT011 OVC027 05/03
                        Q1015 NOSIG=
201703070420 METAR COR EGLL 070420Z 30007KT 9999 SCT013 BKN027 05/04 Q1015
                        NOSIG=
201703070350 METAR COR EGLL 070350Z 31010KT 9999 SCT010 SCT021 06/04 Q1015
                        NOSIG=
201703070320 METAR COR EGLL 070320Z 30007KT 9999 FEW006 SCT010 BKN017
                        06/05 Q1014 TEMPO BKN010=
201703070250 METAR COR EGLL 070250Z AUTO 28010KT 9999 BKN010 06/04 Q1014
                        BECMG BKN015=
201703070220 METAR COR EGLL 070220Z AUTO 28011KT 9999 BKN013 06/04 Q1014
                        BECMG BKN015=
201703070150 METAR COR EGLL 070150Z AUTO 28009KT 9999 BKN014 OVC028 07/04
                        Q1014 BECMG BKN015=
201703070120 METAR COR EGLL 070120Z AUTO 29007KT 9999 BKN014 07/04 Q1014
                        TEMPO SCT015=
201703070050 METAR COR EGLL 070050Z AUTO 28008KT 9999 BKN015 BKN028 07/05
                        Q1013 NOSIG=
201703070020 METAR COR EGLL 070020Z AUTO 29008KT 9999 FEW020 SCT039 07/05
                        Q1013 NOSIG=
201703062350 METAR COR EGLL 062350Z AUTO 29009KT 9999 BKN039 07/05 Q1013
                        NOSIG=
201703062320 METAR COR EGLL 062320Z AUTO 27007KT 9999 SCT041 07/05 Q1012
                        NOSIG=
201703062250 METAR COR EGLL 062250Z AUTO 27008KT 9999 SCT047 07/04 Q1012
                        NOSIG=
201703062220 METAR COR EGLL 062220Z AUTO 28007KT 9999 NCD 07/04 Q1012
                        NOSIG=
201703062150 METAR COR EGLL 062150Z AUTO 28008KT 9999 FEW043 06/04 Q1011
                        NOSIG=
201703062120 METAR COR EGLL 062120Z AUTO 27010KT 9999 NCD 07/04 Q1011
                        NOSIG=
201703062050 METAR COR EGLL 062050Z AUTO 27011KT 9999 NCD 07/04 Q1011
                        NOSIG=
201703062020 METAR COR EGLL 062020Z AUTO 28007KT 9999 NCD 06/04 Q1010
                        NOSIG=
201703061950 METAR COR EGLL 061950Z AUTO 27010KT 9999 NCD 07/04 Q1010
                        NOSIG=
201703061920 METAR COR EGLL 061920Z AUTO 27010KT 9999 NCD 07/04 Q1010
                        NOSIG=
201703061850 METAR COR EGLL 061850Z AUTO 27010KT 9999 SCT046 08/03 Q1009
                        NOSIG=
201703061820 METAR COR EGLL 061820Z AUTO 28006KT 9999 FEW043 08/03 Q1009
                        NOSIG=
201703061750 METAR COR EGLL 061750Z AUTO 29005KT 9999 FEW044 08/02 Q1008
                        NOSIG=
201703061720 METAR COR EGLL 061720Z AUTO 29005KT 9999 FEW049 09/02 Q1008
                        NOSIG=
201703061650 METAR COR EGLL 061650Z AUTO 30007KT 9999 NCD 10/00 Q1008
                        NOSIG=
201703061620 METAR COR EGLL 061620Z AUTO 30007KT 9999 SCT046 10/00 Q1007
                        NOSIG=
201703061550 METAR COR EGLL 061550Z AUTO 29008KT 9999 SCT046 10/01 Q1007
                        NOSIG=
201703061520 METAR COR EGLL 061520Z AUTO 30008KT 9999 FEW045 10/00 Q1006
                        NOSIG=
201703061450 METAR COR EGLL 061450Z AUTO 31010KT 270V340 9999 FEW044 10/01
                        Q1006 NOSIG=
201703061420 METAR COR EGLL 061420Z AUTO 30010KT 270V330 9999 SCT042 10/00
                        Q1006 NOSIG=
201703061350 METAR COR EGLL 061350Z AUTO 29010KT 9999 FEW048 10/01 Q1005
                        NOSIG=
201703061320 METAR COR EGLL 061320Z AUTO 31009KT 9999 SCT038 10/02 Q1005
                        NOSIG=
201703061250 METAR COR EGLL 061250Z AUTO 30011KT 9999 SCT032 10/02 Q1004
                        NOSIG=
201703061220 METAR COR EGLL 061220Z AUTO 30011KT 9999 BKN029 BKN044 10/03
                        Q1004 NOSIG=
201703061150 METAR COR EGLL 061150Z AUTO 31011KT 280V340 9999 BKN026 10/03
                        Q1003 NOSIG=
201703061120 METAR COR EGLL 061120Z AUTO 30009KT 9999 FEW024 09/04 Q1003
                        NOSIG=
201703061050 METAR COR EGLL 061050Z AUTO 31008KT 280V350 9999 FEW019 09/04
                        Q1003 NOSIG=
201703061020 METAR COR EGLL 061020Z AUTO 29008KT 250V330 9999 NCD 08/04
                        Q1002 NOSIG=
201703060950 METAR COR EGLL 060950Z AUTO 30006KT 270V340 9999 NCD 07/04
                        Q1002 NOSIG=
201703060920 METAR COR EGLL 060920Z AUTO 30007KT 9999 NCD 07/04 Q1001
                        NOSIG=
201703060850 METAR COR EGLL 060850Z AUTO 30005KT 9999 NCD 05/04 Q1001
                        NOSIG=
201703060820 METAR COR EGLL 060820Z AUTO 28004KT 9999 NCD 05/03 Q1000
                        NOSIG=
201703060750 METAR COR EGLL 060750Z AUTO 30003KT 9999 NCD 04/03 Q1000
                        NOSIG=
201703060720 METAR COR EGLL 060720Z AUTO 27004KT 9999 NCD 04/03 Q1000
                        NOSIG=
201703060650 METAR COR EGLL 060650Z AUTO VRB03KT 9999 NCD 03/03 Q1000
                        NOSIG=
201703060620 METAR COR EGLL 060620Z AUTO 23005KT 9999 NCD 04/03 Q1000
                        NOSIG=
201703060550 METAR COR EGLL 060550Z AUTO 27005KT 9999 NCD 04/03 Q1000
                        NOSIG=
201703060520 METAR COR EGLL 060520Z AUTO 26005KT 9999 NCD 03/02 Q1000
                        NOSIG=
201703060450 METAR COR EGLL 060450Z AUTO 26006KT 9999 NCD 05/03 Q1000
                        NOSIG=
201703060420 METAR COR EGLL 060420Z AUTO 26005KT 9999 NCD 04/03 Q1000
                        NOSIG=
201703060350 METAR COR EGLL 060350Z AUTO 27006KT 9999 NCD 04/02 Q1000
                        NOSIG=
201703060320 METAR COR EGLL 060320Z AUTO 26006KT 9999 NCD 04/03 Q1000
                        NOSIG=
201703060250 METAR COR EGLL 060250Z AUTO 27007KT 9999 NCD 05/03 Q1000
                        NOSIG=
201703060220 METAR COR EGLL 060220Z AUTO 27009KT 9999 SCT030 06/04 Q1000
                        NOSIG=
201703060150 METAR COR EGLL 060150Z AUTO 27010KT 9999 BKN026 05/04 Q1000
                        NOSIG=
201703060120 METAR EGLL 060120Z AUTO 28010KT 9999 SCT021 BKN037 06/04
                        Q1000=
201703060050 METAR COR EGLL 060050Z AUTO 28011KT 9999 SCT020 BKN036 06/04
                        Q1000 NOSIG=
201703060020 METAR EGLL 060020Z 28013KT 9999 FEW022 BKN036 06/04 Q0999=
201703052350 METAR COR EGLL 052350Z 29012KT 9999 -RA BKN022 06/04 Q0999
                        NOSIG=
201703052320 METAR COR EGLL 052320Z 29013KT 9999 -RA SCT016 SCT019 06/04
                        Q0998 TEMPO BKN014=
201703052250 METAR COR EGLL 052250Z 30013KT 270V330 9999 BKN016 06/04
                        Q0997 TEMPO BKN014=
201703052220 METAR COR EGLL 052220Z 30013KT 9999 SCT017 SCT022 06/04 Q0996
                        NOSIG=
201703052150 METAR COR EGLL 052150Z 29015KT 7000 -RA SCT016 BKN022 07/05
                        Q0995 NOSIG=
201703052120 METAR COR EGLL 052120Z 27015KT 9999 -RA FEW018 BKN022 07/05
                        Q0994 TEMPO BKN014=
201703052050 METAR EGLL 052050Z AUTO 26014KT 6000 -RA BKN018 BKN034 07/05
                        Q0994=
201703052020 METAR COR EGLL 052020Z AUTO 25012KT 9999 -RA FEW020 07/05
                        Q0993 TEMPO BKN014=
201703051950 METAR COR EGLL 051950Z AUTO 25011KT 9999 SCT041 07/05 Q0993
                        NOSIG=
201703051920 METAR COR EGLL 051920Z AUTO 24010KT 9999 SCT023 BKN041 06/05
                        Q0993 NOSIG=
201703051850 METAR COR EGLL 051850Z AUTO 23011KT 9999 BKN021 06/05 Q0992
                        NOSIG=
201703051820 METAR COR EGLL 051820Z 23013KT 9999 FEW014TCU BKN032 06/05
                        Q0992 NOSIG=
201703051750 METAR COR EGLL 051750Z AUTO 24014KT 9999 -RA FEW015/// BKN022///
                        OVC040/// //////TCU 07/05 Q0991 NOSIG=
201703051720 METAR COR EGLL 051720Z AUTO 23013KT 9999 -RA SCT019/// BKN024///
                        //////TCU 07/05 Q0991 TEMPO 4500
                        SHRA BKN020CB=
201703051650 METAR COR EGLL 051650Z AUTO 26014KT 9999 FEW021/// BKN033///
                        BKN048/// //////TCU 09/03 Q0990 TEMPO
                        4500 SHRA BKN020CB=
201703051620 METAR COR EGLL 051620Z AUTO 28007KT 250V320 9999 FEW010///
                        BKN032/// BKN049/// //////TCU 09/04
                        Q0990 RERA TEMPO 4000 SHRA BKN020CB=
201703051550 METAR COR EGLL 051550Z AUTO 27018KT 4900 RA FEW010/// BKN027///
                        //////TCU 10/04 Q0990 TEMPO 9999
                        NSW=
201703051520 METAR COR EGLL 051520Z AUTO 26015G26KT 230V290 9999 -RA FEW016///
                        BKN037/// //////TCU 10/02 Q0989 TEMPO
                        4500 SHRA BKN020CB=
201703051450 METAR COR EGLL 051450Z AUTO 26015KT 9999 FEW011/// BKN030///
                        BKN046/// //////TCU 10/04 Q0989 TEMPO
                        4000 SHRA BKN018CB=
201703051420 METAR COR EGLL 051420Z AUTO 25013KT 9999 BKN030/// BKN046///
                        //////TCU 10/05 Q0989 TEMPO 4000
                        SHRA BKN018CB=
201703051350 METAR COR EGLL 051350Z AUTO 26017KT 9999 -RA FEW011/// SCT030///
                        BKN045/// //////CB 09/05 Q0988 TEMPO
                        4000 SHRA BKN018CB=
201703051320 METAR COR EGLL 051320Z AUTO 25018KT 9999 BKN033/// //////TCU
                        10/03 Q0988 TEMPO SHRA=
201703051250 METAR COR EGLL 051250Z AUTO 26020KT 9999 FEW033 09/03 Q0988
                        TEMPO SHRA BKN014=
201703051220 METAR COR EGLL 051220Z AUTO 25020G32KT 9999 -RA FEW010 BKN017
                        10/04 Q0987 TEMPO SHRA BKN014=
201703051150 METAR COR EGLL 051150Z AUTO 23017G30KT 9999 SCT028 BKN042
                        10/04 Q0987 TEMPO SHRA=
201703051120 METAR COR EGLL 051120Z AUTO 24015KT 9999 BKN025 10/05 Q0987
                        TEMPO SHRA=
201703051050 METAR COR EGLL 051050Z AUTO 24017KT 9999 FEW025 10/06 Q0986
                        TEMPO SHRA=
201703051020 METAR COR EGLL 051020Z AUTO 21013KT 9999 FEW017 BKN024 09/07
                        Q0986 NOSIG=
201703050950 METAR COR EGLL 050950Z AUTO 19013KT 9999 -RA BKN008 BKN031
                        07/06 Q0986 BECMG 26018G28KT FEW008=
201703050920 METAR COR EGLL 050920Z AUTO 15015G25KT 120V190 9999 -RA BKN009///
                        //////TCU 06/05 Q0987 BECMG 26018G28KT
                        FEW009=
201703050850 METAR COR EGLL 050850Z AUTO 14014KT 8000 -RA BKN010/// BKN023///
                        //////TCU 06/05 Q0988 TEMPO 4000
                        RA BKN008=
201703050820 METAR COR EGLL 050820Z AUTO 16017KT 140V210 9000 -RA BKN013///
                        OVC048/// //////TCU 06/04 Q0989 TEMPO
                        4000 RA=
201703050750 METAR COR EGLL 050750Z AUTO 17014KT 9999 -RA BKN017/// //////TCU
                        07/05 Q0990 TEMPO RA BKN012=
201703050720 METAR COR EGLL 050720Z AUTO 17014KT 130V210 8000 -RA BKN023///
                        //////TCU 07/04 Q0990 TEMPO RA=
201703050650 METAR COR EGLL 050650Z AUTO 17010KT 140V230 9999 FEW018 BKN040
                        07/05 Q0991 TEMPO RA BKN014=
201703050620 METAR COR EGLL 050620Z AUTO 18011KT 160V230 9999 FEW021 07/04
                        Q0991 TEMPO RA BKN014=
201703050550 METAR COR EGLL 050550Z AUTO 18009KT 9999 -RA SCT025 SCT039
                        07/04 Q0992 TEMPO BKN014=
201703050520 METAR COR EGLL 050520Z AUTO 19009KT 9999 NCD 06/03 Q0992
                        NOSIG=
201703050450 METAR COR EGLL 050450Z AUTO 19008KT 9999 NCD 06/03 Q0993
                        NOSIG=
201703050420 METAR COR EGLL 050420Z AUTO 20006KT 9999 NCD 06/03 Q0993
                        NOSIG=
201703050350 METAR COR EGLL 050350Z AUTO 21007KT 9999 NCD 06/03 Q0993
                        NOSIG=
201703050320 METAR COR EGLL 050320Z AUTO 21008KT 9999 NCD 06/03 Q0993
                        NOSIG=
201703050250 METAR COR EGLL 050250Z AUTO 22010KT 9999 NCD 06/03 Q0993
                        NOSIG=
201703050220 METAR COR EGLL 050220Z AUTO 23014KT 9999 NCD 06/03 Q0993
                        NOSIG=
201703050150 METAR COR EGLL 050150Z AUTO 23011KT 9999 FEW020 06/04 Q0993
                        NOSIG=
201703050120 METAR COR EGLL 050120Z AUTO 23012KT 9999 BKN019 06/04 Q0993
                        NOSIG=
201703050050 METAR COR EGLL 050050Z AUTO 23012KT 9999 SCT027 SCT039 07/03
                        Q0993 NOSIG=
201703050020 METAR COR EGLL 050020Z AUTO 24012KT 9999 FEW023 SCT042 07/04
                        Q0993 NOSIG=
201703042350 METAR COR EGLL 042350Z AUTO 23013KT 9999 SCT022 07/04 Q0993
                        NOSIG=
201703042320 METAR COR EGLL 042320Z AUTO 23010KT 9999 BKN021 07/04 Q0992
                        NOSIG=
201703042250 METAR COR EGLL 042250Z AUTO 24013KT 9999 BKN021 OVC039 07/04
                        Q0992 NOSIG=
201703042220 METAR EGLL 042220Z AUTO 24014KT 9999 BKN022 08/04 Q0991=
201703042150 METAR COR EGLL 042150Z AUTO 24014KT 9999 BKN028 07/04 Q0991
                        NOSIG=
201703042120 METAR COR EGLL 042120Z AUTO 23013KT 9999 FEW034 07/04 Q0991
                        NOSIG=
201703042050 METAR COR EGLL 042050Z AUTO 23012KT 9999 SCT035 07/04 Q0990
                        NOSIG=
201703042020 METAR COR EGLL 042020Z AUTO 23011KT 9999 BKN033 08/05 Q0990
                        NOSIG=
201703041950 METAR COR EGLL 041950Z AUTO 22010KT 9999 SCT037 08/05 Q0990
                        NOSIG=
201703041920 METAR COR EGLL 041920Z AUTO 21009KT 9999 FEW029/// //////TCU
                        08/06 Q0989 NOSIG=
201703041850 METAR COR EGLL 041850Z AUTO 22008KT 9999 FEW029/// //////TCU
                        08/06 Q0989 NOSIG=
201703041820 METAR COR EGLL 041820Z AUTO 21010KT 170V240 9999 -RA SCT014///
                        BKN027/// BKN045/// //////TCU 08/06
                        Q0989 NOSIG=
201703041750 METAR COR EGLL 041750Z AUTO 19011KT 9999 FEW029/// BKN041///
                        //////TCU 09/06 Q0989 TEMPO SHRA=
201703041720 METAR COR EGLL 041720Z AUTO 19011KT 9999 BKN040 09/06 Q0988
                        TEMPO SHRA=
201703041650 METAR COR EGLL 041650Z AUTO 19014KT 9999 BKN019 OVC049 09/06
                        Q0988 NOSIG=
201703041620 METAR COR EGLL 041620Z AUTO 19015KT 9999 -RA SCT023 OVC040
                        10/05 Q0988 TEMPO SHRA=
201703041550 METAR COR EGLL 041550Z AUTO 20016KT 9999 -RA FEW016 BKN030
                        10/05 Q0988 TEMPO SHRA=
201703041520 METAR COR EGLL 041520Z AUTO 19012G24KT 170V240 9999 BKN034
                        11/04 Q0988 TEMPO SHRA=
201703041450 METAR COR EGLL 041450Z AUTO 19013KT 160V240 9999 BKN034 11/04
                        Q0988 TEMPO SHRA=
201703041420 METAR COR EGLL 041420Z AUTO 22012KT 190V250 9999 SCT041 11/02
                        Q0988 NOSIG=
201703041350 METAR COR EGLL 041350Z AUTO 22013KT 9999 BKN040 12/02 Q0988
                        NOSIG=
201703041320 METAR COR EGLL 041320Z AUTO 23012KT 9999 BKN033 11/03 Q0988
                        NOSIG=
201703041250 METAR COR EGLL 041250Z AUTO 20012KT 170V250 9999 BKN033 11/04
                        Q0989 NOSIG=
201703041220 METAR COR EGLL 041220Z AUTO 21013KT 180V240 9999 BKN034 11/04
                        Q0989 NOSIG=
201703041150 METAR COR EGLL 041150Z AUTO 22013G24KT 9999 BKN028 11/04
                        Q0989 NOSIG=
201703041120 METAR COR EGLL 041120Z AUTO 21011KT 180V250 9999 SCT024 SCT039
                        11/05 Q0989 NOSIG=
201703041050 METAR COR EGLL 041050Z AUTO 23012KT 9999 NCD 10/04 Q0989
                        NOSIG=
201703041020 METAR COR EGLL 041020Z AUTO 23010KT 190V260 9999 FEW020 10/05
                        Q0989 NOSIG=
201703040950 METAR COR EGLL 040950Z AUTO 24010KT 9999 FEW014 10/07 Q0989
                        NOSIG=
201703040920 METAR COR EGLL 040920Z AUTO 23009KT 190V260 9999 NCD 08/06
                        Q0989 NOSIG=
201703040850 METAR COR EGLL 040850Z AUTO 23008KT 9999 NCD 08/06 Q0989
                        NOSIG=
201703040820 METAR COR EGLL 040820Z AUTO 23008KT 9999 NCD 07/06 Q0989
                        NOSIG=
201703040750 METAR COR EGLL 040750Z AUTO 22007KT 9999 NCD 07/06 Q0989
                        NOSIG=
201703040720 METAR COR EGLL 040720Z AUTO 22006KT 9999 NCD 07/06 Q0989
                        NOSIG=
201703040650 METAR COR EGLL 040650Z AUTO 21006KT 170V250 9999 NCD 07/06
                        Q0989 NOSIG=
201703040620 METAR COR EGLL 040620Z AUTO 22006KT 190V250 9999 NCD 07/06
                        Q0989 NOSIG=
201703040550 METAR COR EGLL 040550Z AUTO 21005KT 9999 NCD 07/07 Q0989
                        NOSIG=
201703040520 METAR COR EGLL 040520Z AUTO 21006KT 9999 NCD 08/07 Q0989
                        NOSIG=
201703040450 METAR COR EGLL 040450Z AUTO 20005KT 9999 NCD 08/07 Q0989
                        NOSIG=
201703040420 METAR COR EGLL 040420Z AUTO 21007KT 9999 NCD 08/07 Q0989
                        NOSIG=
201703040350 METAR COR EGLL 040350Z AUTO 21007KT 9999 NCD 08/07 Q0989
                        NOSIG=
201703040320 METAR COR EGLL 040320Z AUTO 20007KT 9999 FEW038 BKN046 08/07
                        Q0989 NOSIG=
201703040250 METAR COR EGLL 040250Z AUTO 17004KT 9999 FEW018 08/07 Q0989
                        NOSIG=
201703040220 METAR COR EGLL 040220Z AUTO 18005KT 9999 BKN044 08/07 Q0989
                        NOSIG=
201703040150 METAR COR EGLL 040150Z AUTO 18004KT 9000 OVC040 08/08 Q0989
                        NOSIG=
201703040120 METAR COR EGLL 040120Z AUTO 19005KT 9999 BKN039 08/08 Q0989
                        NOSIG=
201703040050 METAR COR EGLL 040050Z AUTO 15004KT 9999 FEW041 08/08 Q0989
                        NOSIG=
201703040020 METAR COR EGLL 040020Z AUTO 13007KT 9999 BKN048 08/08 Q0990
                        NOSIG=
201703032350 METAR COR EGLL 032350Z AUTO 09005KT 9999 -RA FEW013/// BKN035///
                        //////CB 08/08 Q0990 NOSIG=
201703032320 METAR COR EGLL 032320Z AUTO 15004KT 7000 -RA FEW020/// BKN033///
                        //////TCU 09/08 Q0990 TEMPO SHRA=
201703032250 METAR COR EGLL 032250Z AUTO VRB02KT 9000 -RA FEW025/// BKN041///
                        //////TCU 09/08 Q0990 TEMPO SHRA=
201703032220 METAR COR EGLL 032220Z AUTO 23004KT 180V270 9999 -RA SCT023///
                        BKN039/// //////CB 09/08 Q0991 TEMPO
                        SHRA=
201703032150 METAR COR EGLL 032150Z AUTO 23011KT 7000 -RA VCTS SCT010///
                        BKN022/// //////CB 10/08 Q0991 RERA
                        TEMPO 4500 SHRA BKN010=
201703032120 METAR COR EGLL 032120Z AUTO 14003KT 9999 -RA FEW011/// BKN021///
                        //////CB 10/08 Q0990 RESHRA TEMPO
                        4000 SHRA=
201703032050 METAR COR EGLL 032050Z AUTO 11006KT 9999 FEW046/// //////CB
                        10/08 Q0991 TEMPO SHRA=
201703032020 METAR COR EGLL 032020Z AUTO 12005KT 9999 NCD 10/08 Q0991
                        NOSIG=
201703031950 METAR COR EGLL 031950Z AUTO 13007KT 9999 NCD 10/08 Q0992
                        TEMPO SHRA=
201703031920 METAR COR EGLL 031920Z AUTO 14006KT 9999 NCD 10/08 Q0992
                        NOSIG=
201703031850 METAR COR EGLL 031850Z AUTO 16005KT 9999 NCD 10/08 Q0992
                        NOSIG=
201703031820 METAR COR EGLL 031820Z AUTO 15008KT 9999 NCD 10/08 Q0992
                        NOSIG=
201703031750 METAR COR EGLL 031750Z AUTO 15007KT 9999 NCD 10/08 Q0992
                        NOSIG=
201703031720 METAR COR EGLL 031720Z AUTO 15008KT 9999 NCD 10/08 Q0993
                        NOSIG=
201703031650 METAR COR EGLL 031650Z AUTO 16009KT 9999 FEW017 SCT033 10/08
                        Q0993 NOSIG=
201703031620 METAR EGLL 031620Z AUTO 16010KT 9999 FEW016 11/08 Q0993=
201703031550 METAR COR EGLL 031550Z 16010KT 9999 NSC 11/08 Q0993 NOSIG=
201703031520 METAR COR EGLL 031520Z AUTO 17010KT 9999 FEW015 11/08 Q0994
                        NOSIG=
201703031450 METAR COR EGLL 031450Z AUTO 17011KT 9999 FEW017 11/08 Q0994
                        NOSIG=
201703031420 METAR COR EGLL 031420Z AUTO 16011KT 9999 FEW014 11/08 Q0995
                        NOSIG=
201703031350 METAR COR EGLL 031350Z AUTO 16011KT 9999 SCT012 SCT041 11/09
                        Q0995 NOSIG=
201703031320 METAR COR EGLL 031320Z 16012KT 9999 FEW010 BKN015 10/08 Q0996
                        TEMPO BKN014=
201703031250 METAR COR EGLL 031250Z 15011KT 9999 FEW010 SCT012 BKN015
                        10/08 Q0996 TEMPO BKN013=
201703031220 METAR COR EGLL 031220Z 16011KT 9999 FEW008 BKN012 09/08 Q0997
                        BECMG SCT014 BKN022=
201703031150 METAR COR EGLL 031150Z 15009KT 9999 FEW007 BKN012 09/08 Q0997
                        BECMG FEW014 BKN025=
201703031120 METAR COR EGLL 031120Z 14009KT 9999 FEW007 BKN011 08/07 Q0998
                        BECMG SCT013=
201703031050 METAR COR EGLL 031050Z 14009KT 9000 -RA FEW006 BKN011 08/07
                        Q0998 TEMPO SCT011 BKN018=
201703031020 METAR COR EGLL 031020Z 13009KT 9999 -RA FEW007 SCT009 BKN016
                        07/07 Q0999 TEMPO BKN012=
201703030950 METAR COR EGLL 030950Z 14009KT 9000 -RA FEW007 BKN011 07/06
                        Q0999 TEMPO RA BKN009=
201703030920 METAR COR EGLL 030920Z 14010KT 8000 -RA BKN012 07/06 Q1000
                        TEMPO RA BKN009=
201703030850 METAR COR EGLL 030850Z AUTO 14009KT 9999 -RA OVC011 07/05
                        Q1000 TEMPO RA BKN009=
201703030820 METAR COR EGLL 030820Z AUTO 13010KT 9999 -RA BKN013 BKN033
                        07/05 Q1001 TEMPO RA=
201703030750 METAR COR EGLL 030750Z AUTO 12009KT 9999 -RA FEW015 BKN037
                        07/05 Q1001 TEMPO RA=
201703030720 METAR COR EGLL 030720Z AUTO 12008KT 9999 -RA SCT023/// OVC038///
                        //////TCU 06/05 Q1002 TEMPO RA=
201703030650 METAR COR EGLL 030650Z AUTO 14008KT 9000 -RA BKN025/// OVC040///
                        //////TCU 06/05 Q1003 TEMPO RA=
201703030620 METAR COR EGLL 030620Z AUTO 15009KT 9999 -RA OVC041 07/05
                        Q1003 TEMPO RA=
201703030550 METAR COR EGLL 030550Z AUTO 13006KT 9999 FEW033 07/04 Q1004
                        TEMPO RA=
201703030520 METAR COR EGLL 030520Z AUTO 12006KT 9999 NCD 06/04 Q1004
                        TEMPO RA=
201703030450 METAR COR EGLL 030450Z AUTO 11006KT 9999 NCD 05/04 Q1005
                        NOSIG=
201703030420 METAR COR EGLL 030420Z AUTO 11006KT 9999 NCD 05/04 Q1005
                        NOSIG=
201703030350 METAR COR EGLL 030350Z AUTO 10006KT 9999 NCD 05/04 Q1006
                        NOSIG=
201703030320 METAR COR EGLL 030320Z AUTO 13006KT 9999 NCD 05/04 Q1006
                        NOSIG=
201703030250 METAR COR EGLL 030250Z AUTO 11006KT 9999 NCD 05/04 Q1007
                        NOSIG=
201703030220 METAR COR EGLL 030220Z AUTO 13005KT 9999 NCD 06/04 Q1008
                        NOSIG=
201703030150 METAR COR EGLL 030150Z AUTO 15006KT 9999 NCD 06/04 Q1008
                        NOSIG=
201703030120 METAR COR EGLL 030120Z AUTO 17006KT 9999 NCD 06/04 Q1009
                        NOSIG=
201703030050 METAR COR EGLL 030050Z AUTO 17006KT 9999 NCD 07/04 Q1009
                        NOSIG=
201703030020 METAR COR EGLL 030020Z AUTO 17008KT 9999 NCD 07/04 Q1010
                        NOSIG=
201703022350 METAR EGLL 022350Z AUTO 16004KT 9999 NCD 06/04 Q1010=
201703022320 METAR COR EGLL 022320Z AUTO 17005KT 9999 NCD 06/04 Q1011
                        NOSIG=
201703022250 METAR COR EGLL 022250Z AUTO 18009KT 160V220 9999 NCD 06/04
                        Q1011 NOSIG=
201703022220 METAR COR EGLL 022220Z AUTO 18008KT 9999 NCD 06/04 Q1011
                        NOSIG=
201703022150 METAR COR EGLL 022150Z AUTO 19007KT 150V220 9999 NCD 06/04
                        Q1012 NOSIG=
201703022120 METAR COR EGLL 022120Z AUTO 19007KT 9999 NCD 06/04 Q1012
                        NOSIG=
201703022050 METAR COR EGLL 022050Z AUTO 18008KT 140V220 9999 NCD 07/04
                        Q1012 NOSIG=
201703022020 METAR COR EGLL 022020Z AUTO 17005KT 150V230 9999 NCD 06/04
                        Q1012 NOSIG=
201703021950 METAR COR EGLL 021950Z AUTO 20008KT 9999 NCD 07/03 Q1013
                        NOSIG=
201703021920 METAR COR EGLL 021920Z AUTO 21010KT 9999 NCD 08/03 Q1013
                        NOSIG=
201703021850 METAR COR EGLL 021850Z AUTO 21009KT 9999 NCD 08/02 Q1012
                        NOSIG=
201703021820 METAR COR EGLL 021820Z AUTO 21008KT 9999 NCD 08/00 Q1012
                        NOSIG=
201703021750 METAR COR EGLL 021750Z AUTO 23007KT 9999 NCD 09/M02 Q1012
                        NOSIG=
201703021720 METAR EGLL 021720Z AUTO 24008KT 9999 NCD 10/M03 Q1012=
201703021650 METAR COR EGLL 021650Z AUTO 24012KT 9999 NCD 10/M04 Q1012
                        NOSIG=
201703021620 METAR COR EGLL 021620Z AUTO 26014KT 9999 NCD 10/M06 Q1012
                        NOSIG=
201703021550 METAR COR EGLL 021550Z AUTO 25015KT 9999 NCD 11/M04 Q1012
                        NOSIG=
201703021520 METAR COR EGLL 021520Z AUTO 25015KT 9999 NCD 11/M04 Q1012
                        NOSIG=
201703021450 METAR COR EGLL 021450Z AUTO 26017KT 9999 FEW047 11/M01 Q1011
                        NOSIG=
201703021420 METAR COR EGLL 021420Z AUTO 25016KT 9999 FEW048 11/00 Q1011
                        NOSIG=
201703021350 METAR COR EGLL 021350Z AUTO 27018KT 9999 FEW049 11/00 Q1011
                        NOSIG=
201703021320 METAR COR EGLL 021320Z AUTO 27019KT 9999 NCD 11/01 Q1011
                        NOSIG=
201703021250 METAR COR EGLL 021250Z AUTO 27020KT 9999 FEW040 11/01 Q1011
                        NOSIG=
201703021220 METAR COR EGLL 021220Z AUTO 27017G28KT 9999 SCT038 11/02
                        Q1011 NOSIG=
201703021150 METAR COR EGLL 021150Z AUTO 28018KT 9999 BKN037 11/02 Q1011
                        NOSIG=
201703021120 METAR EGLL 021120Z AUTO 28019KT 9999 SCT035 10/02 Q1010=
201703021050 METAR COR EGLL 021050Z AUTO 27020KT 9999 BKN036 09/02 Q1010
                        NOSIG=
201703021020 METAR COR EGLL 021020Z AUTO 27022G32KT 9999 OVC035 09/02
                        Q1009 NOSIG=
201703020950 METAR COR EGLL 020950Z AUTO 27023KT 9999 OVC036 08/02 Q1009
                        NOSIG=
201703020920 METAR COR EGLL 020920Z AUTO 26025G35KT 9999 BKN035 08/01
                        Q1008 NOSIG=
201703020850 METAR COR EGLL 020850Z AUTO 26022KT 9999 BKN037 08/01 Q1007
                        NOSIG=
201703020820 METAR COR EGLL 020820Z AUTO 26022G34KT 9999 BKN039 07/00
                        Q1006 NOSIG=
201703020750 METAR COR EGLL 020750Z AUTO 26021KT 9999 OVC043 07/00 Q1006
                        NOSIG=
201703020720 METAR EGLL 020720Z AUTO 25017G29KT 9999 BKN037 06/01 Q1005=
201703020650 METAR COR EGLL 020650Z AUTO 25014KT 9999 SCT034 06/00 Q1005
                        NOSIG=
201703020620 METAR COR EGLL 020620Z AUTO 24016KT 9999 BKN036 06/01 Q1005
                        NOSIG=
201703020550 METAR COR EGLL 020550Z AUTO 25016KT 9999 FEW038 06/01 Q1004
                        NOSIG=
201703020520 METAR COR EGLL 020520Z AUTO 25016KT 9999 BKN038 06/01 Q1004
                        NOSIG=
201703020450 METAR COR EGLL 020450Z AUTO 25018KT 9999 FEW039 05/01 Q1004
                        NOSIG=
201703020420 METAR COR EGLL 020420Z AUTO 25019KT 9999 FEW034 SCT047 06/01
                        Q1003 NOSIG=
201703020350 METAR COR EGLL 020350Z AUTO 25020KT 9999 BKN041 06/01 Q1003
                        NOSIG=
201703020320 METAR COR EGLL 020320Z AUTO 25021KT 9999 BKN041 06/01 Q1002
                        NOSIG=
201703020250 METAR COR EGLL 020250Z AUTO 25020KT 9999 SCT042 06/01 Q1002
                        NOSIG=
201703020220 METAR COR EGLL 020220Z AUTO 24018KT 9999 NCD 06/01 Q1002
                        NOSIG=
201703020150 METAR COR EGLL 020150Z AUTO 24022KT 9999 FEW043 06/00 Q1001
                        NOSIG=
201703020120 METAR COR EGLL 020120Z AUTO 26017KT 9999 SCT040 06/M01 Q1001
                        TEMPO SHRA=
201703020050 METAR COR EGLL 020050Z AUTO 25019G29KT 9999 FEW042 06/01
                        Q1001 NOSIG=
201703020020 METAR COR EGLL 020020Z AUTO 26020KT 9999 NCD 06/01 Q1000
                        NOSIG=
201703012350 METAR COR EGLL 012350Z AUTO 26021KT 9999 FEW030 06/01 Q1000
                        NOSIG=
201703012320 METAR COR EGLL 012320Z AUTO 27019KT 9999 SCT027 06/02 Q1000
                        NOSIG=
201703012250 METAR COR EGLL 012250Z AUTO 26022KT 9999 FEW027 07/03 Q0999
                        NOSIG=
201703012220 METAR COR EGLL 012220Z AUTO 26023KT 9999 BKN026 07/03 Q0998
                        NOSIG=
201703012150 METAR COR EGLL 012150Z AUTO 25019KT 9999 BKN018 07/05 Q0998
                        NOSIG=
201703012120 METAR COR EGLL 012120Z 22009KT 9999 FEW007 SCT016 07/06 Q0997
                        NOSIG=
201703012050 METAR COR EGLL 012050Z 21009KT 9999 -RA FEW005 SCT009 07/06
                        Q0997 NOSIG=
201703012020 METAR COR EGLL 012020Z 22009KT 7000 -RA FEW005 BKN011 07/06
                        Q0998 TEMPO 4000 +SHRA BKN007=
201703011950 METAR COR EGLL 011950Z 21008KT 9000 -RA FEW005 BKN013 07/06
                        Q0998 TEMPO 4000 +SHRA BKN007=
201703011920 METAR COR EGLL 011920Z 22007KT 9000 FEW004 BKN013 07/06 Q0998
                        TEMPO 4000 +SHRA=
201703011850 METAR COR EGLL 011850Z 21008KT 170V260 6000 -RA FEW004 SCT007
                        BKN012 07/06 Q0998 TEMPO 4000 SHRA=
201703011820 METAR COR EGLL 011820Z 21007KT 6000 -RA FEW005 SCT011 07/06
                        Q0998 TEMPO BKN012=
201703011750 METAR COR EGLL 011750Z AUTO 22008KT 9999 SCT009 OVC019 07/05
                        Q0998 TEMPO BKN014=
201703011720 METAR COR EGLL 011720Z AUTO 23007KT 9999 -RA OVC029 08/05
                        Q0997 TEMPO BKN014=
201703011650 METAR COR EGLL 011650Z AUTO 23008KT 9999 FEW012 BKN032 08/05
                        Q0997 TEMPO BKN014=
201703011620 METAR COR EGLL 011620Z AUTO 22010KT 9999 -RA FEW016 OVC034
                        08/05 Q0998 TEMPO BKN014=
201703011550 METAR COR EGLL 011550Z AUTO 21010KT 180V240 9999 FEW015 BKN042
                        08/05 Q0997 NOSIG=
201703011520 METAR COR EGLL 011520Z AUTO 21010KT 170V240 9999 -RA BKN015
                        BKN031 09/05 Q0998 NOSIG=
201703011450 METAR COR EGLL 011450Z AUTO 20010KT 170V250 9999 -RA SCT017
                        OVC041 09/06 Q0998 NOSIG=
201703011420 METAR COR EGLL 011420Z AUTO 21010KT 9999 -RA BKN021 BKN040
                        09/05 Q0998 NOSIG=
201703011350 METAR COR EGLL 011350Z AUTO 21008KT 170V240 9999 -RA FEW025
                        09/05 Q0998 NOSIG=
201703011320 METAR COR EGLL 011320Z AUTO 21011KT 9999 -RA SCT023 09/04
                        Q0998 NOSIG=
201703011250 METAR COR EGLL 011250Z AUTO 22008KT 180V250 9999 -RA BKN024
                        09/04 Q0999 NOSIG=
201703011220 METAR COR EGLL 011220Z AUTO 23010KT 9999 SCT025 BKN044 09/04
                        Q0999 NOSIG=
201703011150 METAR COR EGLL 011150Z AUTO 23010KT 190V250 9999 SCT045 09/04
                        Q0999 NOSIG=
201703011120 METAR COR EGLL 011120Z AUTO 23010KT 9999 NCD 09/04 Q1000
                        NOSIG=
201703011050 METAR COR EGLL 011050Z AUTO 24010KT 9999 FEW023 08/04 Q1000
                        NOSIG=
201703011020 METAR COR EGLL 011020Z AUTO 23010KT 9999 NCD 08/04 Q1000
                        NOSIG=
201703010950 METAR COR EGLL 010950Z AUTO 23010KT 9999 NCD 07/04 Q1000
                        NOSIG=
201703010920 METAR COR EGLL 010920Z AUTO 24010KT 9999 NCD 07/03 Q1000
                        NOSIG=
201703010850 METAR COR EGLL 010850Z AUTO 23009KT 9999 NCD 07/04 Q1000
                        NOSIG=
201703010820 METAR COR EGLL 010820Z AUTO 23009KT 9999 NCD 06/04 Q1000
                        NOSIG=
201703010750 METAR COR EGLL 010750Z AUTO 23009KT 9999 FEW044 06/04 Q1000
                        NOSIG=
201703010720 METAR COR EGLL 010720Z AUTO 24008KT 9999 FEW028 BKN036 06/04
                        Q1000 NOSIG=
201703010650 METAR COR EGLL 010650Z AUTO 24009KT 9999 FEW020 OVC040 06/04
                        Q0999 NOSIG=
201703010620 METAR COR EGLL 010620Z AUTO 24008KT 9999 SCT017 BKN027 BKN042
                        06/04 Q0999 NOSIG=
201703010550 METAR COR EGLL 010550Z AUTO 26011KT 9999 BKN027 06/04 Q0999
                        NOSIG=
201703010520 METAR COR EGLL 010520Z AUTO 25011KT 9999 BKN020 BKN036 06/04
                        Q0999 NOSIG=
201703010450 METAR COR EGLL 010450Z AUTO 26009KT 9999 BKN019 OVC034 07/04
                        Q0998 NOSIG=
201703010420 METAR COR EGLL 010420Z AUTO 26008KT 9999 BKN019 OVC034 07/04
                        Q0998 NOSIG=
201703010350 METAR COR EGLL 010350Z AUTO 26009KT 9999 SCT019 OVC034 07/04
                        Q0998 NOSIG=
201703010320 METAR COR EGLL 010320Z AUTO 27010KT 9999 FEW023 BKN036 07/04
                        Q0997 NOSIG=
201703010250 METAR COR EGLL 010250Z AUTO 27008KT 9999 BKN033 07/04 Q0997
                        NOSIG=
201703010220 METAR COR EGLL 010220Z AUTO 27010KT 9999 OVC040 07/04 Q0997
                        NOSIG=
201703010150 METAR COR EGLL 010150Z AUTO 27007KT 9999 SCT045 05/03 Q0997
                        NOSIG=
201703010050 METAR COR EGLL 010050Z AUTO 28012KT 9999 NCD ///// Q////
                        NOSIG=

</pre>

</body>
</html>
