##########################################################
# Query made at 12/24/2012 14:09:35 UTC
# Time interval: from 03/01/2011 00:00  to 03/31/2011 23:59  UTC
##########################################################

##########################################################
# EGLL, London / Heathrow Airport (United Kingdom)
# WMO index: 03772
# Latitude 51-29N. Longitude 000-27W. Altitude 24 m.
##########################################################

###################################
#  METAR/SPECI from EGLL
###################################
201103312350 METAR EGLL 312350Z 22009KT 9999 OVC011 12/10 Q1017=
201103312320 METAR COR EGLL 312320Z 23011KT 9999 BKN012 12/10 Q1017 TEMPO
                        BKN009=
201103312250 METAR COR EGLL 312250Z 23008KT 9999 BKN012 12/10 Q1017 NOSIG=
201103312220 METAR COR EGLL 312220Z 23008G19KT 180V260 9999 BKN013 12/10
                        Q1017 NOSIG=
201103312150 METAR COR EGLL 312150Z 22008KT 9999 SCT013 SCT023 12/10 Q1016
                        BECMG BKN012=
201103312120 METAR COR EGLL 312120Z 23010KT 190V250 9999 FEW016 12/10
                        Q1016 BECMG BKN011=
201103312050 METAR COR EGLL 312050Z 22012KT 9999 FEW014 12/10 Q1016 BECMG
                        BKN011=
201103312020 METAR COR EGLL 312020Z 24012KT 9999 FEW032 13/10 Q1016 BECMG
                        BKN011=
201103311950 METAR COR EGLL 311950Z 23011KT 9999 FEW015 13/10 Q1015 TEMPO
                        BKN011=
201103311920 METAR COR EGLL 311920Z 23014KT 9999 FEW020 SCT034 14/10 Q1015
                        NOSIG=
201103311850 METAR COR EGLL 311850Z 23013KT 9999 SCT030 SCT037 15/09 Q1015
                        NOSIG=
201103311820 METAR COR EGLL 311820Z 26013KT 9999 SCT032 SCT043 15/09 Q1015
                        NOSIG=
201103311750 METAR COR EGLL 311750Z 26014KT 9999 FEW034 SCT046 16/09 Q1014
                        NOSIG=
201103311720 METAR COR EGLL 311720Z 26013KT 9999 SCT038 SCT047 16/10 Q1013
                        NOSIG=
201103311650 METAR COR EGLL 311650Z 28015KT 9999 FEW033 SCT044 16/09 Q1013
                        NOSIG=
201103311620 METAR EGLL 311620Z 27016G27KT 9999 FEW031 SCT042 16/09 Q1013=
201103311550 METAR COR EGLL 311550Z 27017KT 9999 FEW034 SCT043 16/09 Q1013
                        NOSIG=
201103311520 METAR COR EGLL 311520Z 26019KT 9999 FEW030 SCT042 16/10 Q1013
                        NOSIG=
201103311450 METAR COR EGLL 311450Z 26021KT 9999 SCT033 SCT042 16/10 Q1013
                        NOSIG=
201103311420 METAR COR EGLL 311420Z 26019KT 9999 SCT034 16/09 Q1012 NOSIG=
201103311350 METAR COR EGLL 311350Z 26019G30KT 9999 FEW037 SCT047 17/09
                        Q1012 NOSIG=
201103311320 METAR COR EGLL 311320Z 26021G32KT 9999 SCT034 BKN041 17/09
                        Q1011 NOSIG=
201103311250 METAR COR EGLL 311250Z 25020KT 9999 SCT045 18/10 Q1011 NOSIG=
201103311220 METAR COR EGLL 311220Z 25019KT 9999 SCT028 16/11 Q1011 NOSIG=
201103311150 METAR COR EGLL 311150Z 25022KT 9999 SCT028 SCT038 16/11 Q1010
                        NOSIG=
201103311120 METAR COR EGLL 311120Z 25019KT 9999 FEW028 SCT048 15/11 Q1010
                        TEMPO 25022G32KT=
201103311050 METAR COR EGLL 311050Z 23018KT 9999 SCT023 SCT038 14/11 Q1010
                        NOSIG=
201103311020 METAR COR EGLL 311020Z 23019KT 9999 6000NE -RA BKN013 14/11
                        Q1010 BECMG NSW BKN016=
201103310950 METAR COR EGLL 310950Z 23017KT 9999 BKN015 14/11 Q1009 NOSIG=
201103310920 METAR COR EGLL 310920Z 23016KT 9999 SCT012 BKN023 14/11 Q1009
                        NOSIG=
201103310850 METAR COR EGLL 310850Z 23018KT 9999 SCT011 BKN022 14/11 Q1009
                        NOSIG=
201103310820 METAR COR EGLL 310820Z 23015KT 9999 SCT011 BKN021 13/11 Q1009
                        NOSIG=
201103310750 METAR COR EGLL 310750Z 22013KT 9999 SCT011 SCT021 13/11 Q1009
                        NOSIG=
201103310720 METAR COR EGLL 310720Z 22012KT 9999 SCT008 BKN011 12/11 Q1008
                        NOSIG=
201103310650 METAR COR EGLL 310650Z 22011KT 8000 BKN007 12/11 Q1008 BECMG
                        BKN010=
201103310620 METAR COR EGLL 310620Z 23012KT 9000 OVC005 12/10 Q1008 NOSIG=
201103310550 METAR COR EGLL 310550Z 22011KT 9000 -RA OVC005 11/10 Q1008
                        NOSIG=
201103310520 METAR COR EGLL 310520Z 22008KT 9999 OVC005 11/10 Q1008 NOSIG=
201103310450 METAR COR EGLL 310450Z 20010KT 9999 -DZ OVC005 10/09 Q1008
                        NOSIG=
201103310420 METAR COR EGLL 310420Z 20010KT 9999 -DZ FEW006 BKN008 10/09
                        Q1008 NOSIG=
201103310350 METAR COR EGLL 310350Z 17008KT 9999 -RA FEW006 BKN014 09/08
                        Q1008 NOSIG=
201103310320 METAR COR EGLL 310320Z 18008KT 6000 -RA FEW006 BKN015 09/08
                        Q1009 NOSIG=
201103310250 METAR COR EGLL 310250Z 19007KT 6000 RA FEW013 BKN021 09/08
                        Q1010 NOSIG=
201103310220 METAR COR EGLL 310220Z 19008KT 4500 RA SCT026 SCT032 10/08
                        Q1010 TEMPO 6000 -RA=
201103310150 METAR COR EGLL 310150Z 19007KT 3800 RA BKN041 10/08 Q1010
                        NOSIG=
201103310120 METAR EGLL 310120Z AUTO 20007KT 4900NDV RA BKN045/// 10/08
                        Q1011=
201103310050 METAR EGLL 310050Z AUTO 21008KT 5000NDV DZ NCD 10/08 Q1011=
201103310020 METAR EGLL 310020Z AUTO 21006KT 5000NDV NCD 10/08 Q1011=
201103302350 METAR EGLL 302350Z 21006KT 3900 BR NSC 10/09 Q1011=
201103302320 METAR COR EGLL 302320Z 21007KT 3500 BR BKN005 10/09 Q1011
                        NOSIG=
201103302250 METAR COR EGLL 302250Z 20006KT 3300 HZ BKN005 10/08 Q1011
                        NOSIG=
201103302220 METAR COR EGLL 302220Z 21008KT 3800 HZ NSC 10/08 Q1011 NOSIG=
201103302150 METAR COR EGLL 302150Z 23010KT 5000 HZ NSC 10/08 Q1011 NOSIG=
201103302120 METAR COR EGLL 302120Z 23009KT 190V250 7000 NSC 09/08 Q1011
                        NOSIG=
201103302050 METAR COR EGLL 302050Z 22009KT 190V250 8000 FEW006 09/08
                        Q1011 NOSIG=
201103302020 METAR COR EGLL 302020Z 22008KT CAVOK 09/08 Q1011 NOSIG=
201103301950 METAR COR EGLL 301950Z 21007KT 190V250 9999 FEW021 09/08
                        Q1011 NOSIG=
201103301920 METAR COR EGLL 301920Z 21007KT 180V250 9999 FEW020 10/08
                        Q1010 NOSIG=
201103301850 METAR COR EGLL 301850Z 22007KT 200V260 9999 SCT025 10/08
                        Q1010 NOSIG=
201103301820 METAR COR EGLL 301820Z 22007KT 180V250 9999 FEW011 10/08
                        Q1010 NOSIG=
201103301750 METAR COR EGLL 301750Z 23009KT 180V260 9999 FEW009 SCT012
                        11/08 Q1010 TEMPO BKN012=
201103301720 METAR COR EGLL 301720Z 21009KT 9999 FEW008 SCT017 11/09 Q1010
                        NOSIG=
201103301650 METAR COR EGLL 301650Z 22009KT 9999 FEW008 BKN011 10/08 Q1010
                        TEMPO SCT012 BKN015=
201103301620 METAR COR EGLL 301620Z 21011KT 180V250 9999 FEW010 BKN012
                        10/08 Q1010 TEMPO SCT012 BKN015=
201103301550 METAR EGLL 301550Z 22013KT 9999 -RA BKN012 10/08 Q1010 TEMPO
                        SCT012 BKN018=
201103301520 METAR COR EGLL 301520Z 22012KT 9999 BKN014 11/08 Q1010 BECMG
                        BKN020=
201103301450 METAR COR EGLL 301450Z 22014KT 9999 FEW014 BKN016 11/08 Q1010
                        NOSIG=
201103301420 METAR COR EGLL 301420Z 22012KT 9999 SCT017 BKN024 11/08 Q1010
                        NOSIG=
201103301350 METAR COR EGLL 301350Z 22016G26KT 9999 FEW013 SCT020 BKN036
                        11/09 Q1010 BECMG 22013KT=
201103301320 METAR COR EGLL 301320Z 20010KT 9999 -RA SCT008 BKN013 11/09
                        Q1010 RERA NOSIG=
201103301250 METAR COR EGLL 301250Z 19010KT 8000 RA FEW009 BKN016 11/09
                        Q1010 TEMPO -RA BKN014=
201103301220 METAR COR EGLL 301220Z 20009KT 160V240 8000 -RA FEW009 SCT014
                        BKN020 11/09 Q1011 RERA TEMPO RA
                        BKN014=
201103301150 METAR COR EGLL 301150Z 22009KT 7000 RA SCT013 BKN020 11/09
                        Q1011 TEMPO BKN013=
201103301120 METAR COR EGLL 301120Z 22010KT 9000 -RA SCT017 BKN020 11/08
                        Q1011 TEMPO BKN014=
201103301050 METAR COR EGLL 301050Z 22010KT 9999 SCT015 SCT025 12/08 Q1011
                        TEMPO -RA BKN014=
201103301020 METAR COR EGLL 301020Z 21011KT 190V250 9999 BKN021 12/07
                        Q1011 TEMPO -RA BKN014=
201103300950 METAR COR EGLL 300950Z 21011KT 9999 SCT016 BKN022 11/07 Q1011
                        TEMPO -RA BKN014=
201103300920 METAR COR EGLL 300920Z 22010KT 9999 SCT017 BKN038 11/07 Q1011
                        NOSIG=
201103300850 METAR COR EGLL 300850Z 21009KT 180V250 9999 FEW018 BKN023
                        11/07 Q1011 NOSIG=
201103300820 METAR COR EGLL 300820Z 21008KT 9999 FEW015 SCT018 11/07 Q1011
                        NOSIG=
201103300750 METAR COR EGLL 300750Z 21008KT 9999 SCT017 BKN032 11/07 Q1011
                        NOSIG=
201103300720 METAR COR EGLL 300720Z 22008KT 6000 FEW013 BKN018 10/07 Q1012
                        NOSIG=
201103300650 METAR COR EGLL 300650Z 21008KT 190V250 6000 BKN013 BKN015
                        10/08 Q1012 BECMG SCT014 BKN018=
201103300620 METAR COR EGLL 300620Z 21006KT 6000 BKN013 BKN016 10/08 Q1012
                        NOSIG=
201103300550 METAR COR EGLL 300550Z 24010KT 6000 BKN009 10/08 Q1011 NOSIG=
201103300520 METAR COR EGLL 300520Z 23008KT 4700 HZ OVC010 10/08 Q1011
                        NOSIG=
201103300450 METAR COR EGLL 300450Z 25007KT 3500 HZ OVC010 10/08 Q1011
                        TEMPO BKN008=
201103300420 METAR COR EGLL 300420Z 24009KT 3500 HZ OVC008 10/08 Q1011
                        NOSIG=
201103300350 METAR COR EGLL 300350Z 23005KT 3200 HZ BKN010 10/08 Q1010
                        TEMPO BKN008=
201103300320 METAR COR EGLL 300320Z 21005KT 3400 HZ BKN020 10/08 Q1010
                        NOSIG=
201103300250 METAR COR EGLL 300250Z 22005KT 3500 HZ FEW020 10/08 Q1010
                        NOSIG=
201103300220 METAR COR EGLL 300220Z 21005KT 4000 HZ NSC 10/07 Q1011 NOSIG=
201103300150 METAR COR EGLL 300150Z 21004KT 4100 HZ FEW046 10/08 Q1011
                        NOSIG=
201103300120 METAR COR EGLL 300120Z 21005KT 4500 HZ NSC 10/08 Q1011 NOSIG=
201103300050 METAR COR EGLL 300050Z 22003KT 4700 HZ NSC 10/08 Q1011 NOSIG=
201103300020 METAR COR EGLL 300020Z 17004KT 4800 HZ NSC 10/08 Q1011 NOSIG=
201103292350 METAR COR EGLL 292350Z 19004KT 5000 HZ NSC 11/08 Q1012 TEMPO
                        4000 BR=
201103292320 METAR COR EGLL 292320Z 17004KT 5000 HZ NSC 11/08 Q1012 BECMG
                        4000 BR=
201103292250 METAR COR EGLL 292250Z 19007KT 5000 HZ FEW035 11/09 Q1012
                        BECMG 4000 BR=
201103292220 METAR COR EGLL 292220Z 18005KT 150V230 5000 HZ NSC 12/09
                        Q1012 BECMG 4000 BR=
201103292150 METAR COR EGLL 292150Z 22005G15KT 180V280 5000 HZ NSC 12/09
                        Q1012 BECMG 4000 BR=
201103292120 METAR COR EGLL 292120Z VRB05KT 6000 NSC 12/09 Q1012 NOSIG=
201103292050 METAR COR EGLL 292050Z 18006KT 130V240 6000 NSC 12/09 Q1012
                        NOSIG=
201103292020 METAR COR EGLL 292020Z 19005KT 150V240 7000 NSC 12/09 Q1012
                        NOSIG=
201103291950 METAR COR EGLL 291950Z 22006KT 160V250 7000 NSC 13/09 Q1011
                        NOSIG=
201103291920 METAR COR EGLL 291920Z 20006KT 160V240 7000 NSC 13/09 Q1011
                        NOSIG=
201103291850 METAR COR EGLL 291850Z 20005KT 8000 NSC 14/09 Q1011 NOSIG=
201103291820 METAR COR EGLL 291820Z 19005KT 8000 NSC 14/09 Q1011 NOSIG=
201103291750 METAR COR EGLL 291750Z 18005KT 8000 NSC 14/08 Q1011 NOSIG=
201103291720 METAR COR EGLL 291720Z 16006KT 8000 NSC 14/08 Q1011 NOSIG=
201103291650 METAR COR EGLL 291650Z 16006KT 130V200 7000 FEW026 15/09
                        Q1011 TEMPO SHRA=
201103291620 METAR COR EGLL 291620Z 14007KT 7000 FEW027 15/08 Q1011 TEMPO
                        SHRA=
201103291550 METAR COR EGLL 291550Z 15007KT 7000 BKN028 15/09 Q1011 TEMPO
                        SHRA=
201103291520 METAR EGLL 291520Z 14006KT 7000 SCT030 16/08 Q1011=
201103291450 METAR COR EGLL 291450Z VRB02KT 6000 NSC 14/07 Q1011 NOSIG=
201103291420 METAR COR EGLL 291420Z VRB03KT 6000 NSC 14/07 Q1012 NOSIG=
201103291350 METAR COR EGLL 291350Z 13005KT 090V190 6000 FEW030 13/07
                        Q1012 NOSIG=
201103291320 METAR COR EGLL 291320Z 16006KT 130V190 6000 FEW028 14/08
                        Q1012 NOSIG=
201103291250 METAR COR EGLL 291250Z 12005KT 090V190 6000 NSC 14/08 Q1013
                        NOSIG=
201103291220 METAR COR EGLL 291220Z 12007KT 6000 NSC 13/07 Q1013 NOSIG=
201103291150 METAR COR EGLL 291150Z 12006KT 5000 HZ NSC 12/06 Q1013 TEMPO
                        4000=
201103291120 METAR COR EGLL 291120Z 10005KT 5000 HZ FEW045 11/06 Q1013
                        TEMPO 4000=
201103291050 METAR COR EGLL 291050Z 09005KT 5000 HZ FEW016 10/06 Q1013
                        TEMPO 4500=
201103291020 METAR COR EGLL 291020Z 07003KT 5000 -RA FEW034 09/06 Q1013
                        TEMPO 4500 HZ=
201103290950 METAR COR EGLL 290950Z 09005KT 4800 -RA FEW025 09/06 Q1013
                        TEMPO 6000=
201103290920 METAR COR EGLL 290920Z 09002KT 4900 -RA FEW038 SCT048 08/05
                        Q1014 TEMPO 6000=
201103290850 METAR COR EGLL 290850Z 08004KT 6000 -RA FEW042 08/04 Q1014
                        NOSIG=
201103290820 METAR EGLL 290820Z 08003KT 6000 NSC 07/04 Q1014=
201103290750 METAR COR EGLL 290750Z 09003KT 7000 NSC 07/03 Q1014 NOSIG=
201103290720 METAR COR EGLL 290720Z 07004KT 050V110 7000 NSC 06/02 Q1014
                        NOSIG=
201103290650 METAR COR EGLL 290650Z 06002KT 8000 NSC 05/01 Q1014 NOSIG=
201103290620 METAR COR EGLL 290620Z 08002KT 7000 NSC 04/01 Q1014 NOSIG=
201103290550 METAR COR EGLL 290550Z 06002KT 8000 NSC 04/01 Q1014 NOSIG=
201103290520 METAR COR EGLL 290520Z 06002KT 8000 NSC 04/01 Q1014 NOSIG=
201103290450 METAR COR EGLL 290450Z 07003KT 8000 NSC 05/01 Q1014 NOSIG=
201103290420 METAR COR EGLL 290420Z 07004KT 8000 NSC 05/01 Q1014 NOSIG=
201103290350 METAR COR EGLL 290350Z 06002KT 8000 NSC 05/01 Q1014 NOSIG=
201103290320 METAR COR EGLL 290320Z 07003KT 8000 NSC 05/01 Q1014 NOSIG=
201103290250 METAR COR EGLL 290250Z 05002KT 9000 NSC 05/00 Q1015 NOSIG=
201103290220 METAR COR EGLL 290220Z 00000KT 9000 NSC 06/01 Q1015 NOSIG=
201103290150 METAR COR EGLL 290150Z 00000KT 9000 NSC 06/01 Q1015 NOSIG=
201103290120 METAR COR EGLL 290120Z 00000KT 9000 NSC 06/00 Q1015 NOSIG=
201103290050 METAR COR EGLL 290050Z 15002KT 9000 NSC 06/01 Q1016 NOSIG=
201103290020 METAR COR EGLL 290020Z 14003KT 9000 NSC 06/01 Q1016 NOSIG=
201103282350 METAR COR EGLL 282350Z 10003KT 9000 NSC 06/01 Q1016 NOSIG=
201103282320 METAR COR EGLL 282320Z 10004KT 9000 NSC 06/01 Q1016 NOSIG=
201103282250 METAR COR EGLL 282250Z 10005KT 8000 NSC 07/01 Q1016 NOSIG=
201103282220 METAR COR EGLL 282220Z 12004KT 9000 NSC 07/01 Q1016 NOSIG=
201103282150 METAR COR EGLL 282150Z 15005KT CAVOK 09/02 Q1016 NOSIG=
201103282120 METAR COR EGLL 282120Z 14006KT CAVOK 09/02 Q1016 NOSIG=
201103282050 METAR COR EGLL 282050Z 15006KT 9999 FEW038 10/03 Q1016 NOSIG=
201103282020 METAR COR EGLL 282020Z 17005KT CAVOK 10/03 Q1016 NOSIG=
201103281950 METAR COR EGLL 281950Z 17004KT 9999 SCT038 11/03 Q1016 NOSIG=
201103281920 METAR COR EGLL 281920Z 18007KT 9999 FEW037 11/03 Q1016 NOSIG=
201103281850 METAR COR EGLL 281850Z 12009KT 9999 FEW038 SCT047 12/04 Q1016
                        NOSIG=
201103281820 METAR COR EGLL 281820Z 12008KT 9999 FEW048 12/04 Q1016 NOSIG=
201103281750 METAR COR EGLL 281750Z 12008KT 100V160 9999 FEW048 12/04
                        Q1015 NOSIG=
201103281720 METAR COR EGLL 281720Z 13007KT 100V200 CAVOK 14/04 Q1015
                        NOSIG=
201103281650 METAR COR EGLL 281650Z 12005KT 070V200 9999 FEW047 14/04
                        Q1015 NOSIG=
201103281620 METAR COR EGLL 281620Z VRB05KT 9999 FEW047 15/03 Q1015 NOSIG=
201103281550 METAR COR EGLL 281550Z 17004KT 110V250 9000 SCT048 15/03
                        Q1016 NOSIG=
201103281520 METAR COR EGLL 281520Z 11004KT 060V240 9000 FEW047 15/03
                        Q1016 NOSIG=
201103281450 METAR COR EGLL 281450Z 11005KT 050V180 9000 FEW046 14/03
                        Q1016 NOSIG=
201103281420 METAR COR EGLL 281420Z VRB05KT 9000 SCT045 13/03 Q1016 NOSIG=
201103281350 METAR COR EGLL 281350Z 06004KT 020V100 9000 SCT042 13/03
                        Q1016 NOSIG=
201103281320 METAR COR EGLL 281320Z VRB03KT 9000 BKN041 13/04 Q1017 NOSIG=
201103281250 METAR COR EGLL 281250Z 03004KT 340V080 8000 BKN040 13/03
                        Q1017 NOSIG=
201103281220 METAR COR EGLL 281220Z VRB03KT 8000 BKN041 12/04 Q1017 NOSIG=
201103281150 METAR COR EGLL 281150Z 13004KT 090V220 7000 FEW039 SCT042
                        12/04 Q1017 NOSIG=
201103281120 METAR COR EGLL 281120Z VRB04KT 8000 FEW033 BKN043 12/04 Q1017
                        NOSIG=
201103281050 METAR COR EGLL 281050Z 14004KT 060V210 8000 SCT043 12/05
                        Q1017 NOSIG=
201103281020 METAR COR EGLL 281020Z 12005KT 070V180 8000 BKN042 11/05
                        Q1017 NOSIG=
201103280950 METAR COR EGLL 280950Z VRB03KT 7000 BKN042 10/05 Q1017 NOSIG=
201103280920 METAR COR EGLL 280920Z 13005KT 100V170 8000 BKN043 10/05
                        Q1017 NOSIG=
201103280850 METAR COR EGLL 280850Z 08005KT 7000 BKN043 09/05 Q1017 NOSIG=
201103280820 METAR COR EGLL 280820Z 07004KT 030V100 7000 BKN042 09/04
                        Q1017 NOSIG=
201103280750 METAR COR EGLL 280750Z VRB03KT 6000 BKN044 08/04 Q1017 NOSIG=
201103280720 METAR COR EGLL 280720Z VRB03KT 6000 FEW031 BKN043 08/03 Q1016
                        NOSIG=
201103280650 METAR COR EGLL 280650Z VRB03KT 6000 FEW031 BKN037 08/03 Q1016
                        NOSIG=
201103280620 METAR COR EGLL 280620Z VRB03KT 6000 BKN028 BKN042 08/04 Q1016
                        NOSIG=
201103280550 METAR COR EGLL 280550Z VRB02KT 5000 HZ BKN028 BKN043 08/04
                        Q1016 TEMPO 4500=
201103280520 METAR COR EGLL 280520Z VRB03KT 4800 HZ BKN027 BKN042 07/04
                        Q1015 BECMG 5000=
201103280450 METAR COR EGLL 280450Z 36002KT 4800 HZ SCT029 BKN041 07/04
                        Q1015 NOSIG=
201103280420 METAR COR EGLL 280420Z 00000KT 4800 HZ FEW031 BKN044 07/04
                        Q1015 NOSIG=
201103280350 METAR COR EGLL 280350Z 00000KT 5000 HZ BKN044 07/04 Q1015
                        TEMPO 4000=
201103280320 METAR COR EGLL 280320Z 00000KT 5000 HZ FEW032 BKN045 07/04
                        Q1015 TEMPO 4000=
201103280250 METAR COR EGLL 280250Z 04002KT 5000 HZ BKN045 07/03 Q1015
                        TEMPO 4000=
201103280220 METAR COR EGLL 280220Z 04002KT 5000 HZ BKN043 07/03 Q1015
                        TEMPO 4000=
201103280150 METAR COR EGLL 280150Z 06003KT 5000 HZ BKN040 07/03 Q1015
                        TEMPO 4000=
201103280120 METAR COR EGLL 280120Z 06004KT 6000 BKN034 07/03 Q1015 NOSIG=
201103280050 METAR COR EGLL 280050Z 03004KT 360V060 5000 HZ BKN034 07/03
                        Q1015 TEMPO 4000=
201103280020 METAR COR EGLL 280020Z VRB03KT 5000 HZ SCT039 07/03 Q1015
                        TEMPO 4000=
201103272350 METAR COR EGLL 272350Z 02002KT 6000 NSC 07/03 Q1015 NOSIG=
201103272320 METAR COR EGLL 272320Z 09003KT 6000 NSC 07/03 Q1015 BECMG
                        4000 HZ=
201103272250 METAR COR EGLL 272250Z 11003KT 7000 NSC 08/03 Q1015 NOSIG=
201103272220 METAR COR EGLL 272220Z 08003KT 7000 NSC 07/03 Q1015 NOSIG=
201103272150 METAR COR EGLL 272150Z 09005KT 8000 NSC 08/03 Q1014 NOSIG=
201103272120 METAR COR EGLL 272120Z 11005KT 8000 NSC 09/04 Q1014 NOSIG=
201103272050 METAR COR EGLL 272050Z 10005KT 9000 NSC 10/04 Q1014 NOSIG=
201103272020 METAR COR EGLL 272020Z 11006KT 9000 NSC 10/04 Q1014 NOSIG=
201103271950 METAR COR EGLL 271950Z 10006KT 8000 NSC 08/03 Q1014 NOSIG=
201103271920 METAR COR EGLL 271920Z 09007KT 8000 NSC 09/03 Q1014 NOSIG=
201103271850 METAR COR EGLL 271850Z 10007KT 8000 NSC 09/04 Q1013 NOSIG=
201103271820 METAR COR EGLL 271820Z 09007KT 8000 NSC 10/05 Q1013 NOSIG=
201103271750 METAR COR EGLL 271750Z 09008KT 8000 NSC 11/05 Q1013 NOSIG=
201103271720 METAR COR EGLL 271720Z 10007KT 8000 NSC 13/05 Q1012 NOSIG=
201103271650 METAR COR EGLL 271650Z 10007KT 9000 NSC 14/06 Q1012 NOSIG=
201103271620 METAR COR EGLL 271620Z 10007KT 9000 NSC 14/05 Q1012 TEMPO
                        CAVOK=
201103271550 METAR COR EGLL 271550Z 09005KT 040V120 8000 NSC 15/05 Q1012
                        TEMPO CAVOK=
201103271520 METAR COR EGLL 271520Z 08007KT 050V110 8000 NSC 15/06 Q1012
                        TEMPO CAVOK=
201103271450 METAR COR EGLL 271450Z 07005KT 020V100 9000 NSC 15/05 Q1012
                        NOSIG=
201103271420 METAR COR EGLL 271420Z 06006KT 360V120 9000 NSC 15/06 Q1013
                        BECMG 9999=
201103271350 METAR COR EGLL 271350Z 07005KT 030V110 8000 NSC 15/06 Q1013
                        BECMG 9999=
201103271320 METAR COR EGLL 271320Z 06006KT 030V090 8000 NSC 15/06 Q1013
                        BECMG 9999=
201103271250 METAR COR EGLL 271250Z 07006KT 010V120 8000 NSC 14/06 Q1013
                        NOSIG=
201103271220 METAR COR EGLL 271220Z 08005KT 030V120 8000 NSC 12/05 Q1013
                        NOSIG=
201103271150 METAR COR EGLL 271150Z 09005KT 060V130 7000 NSC 12/06 Q1013
                        NOSIG=
201103271120 METAR COR EGLL 271120Z 08004KT 020V150 7000 NSC 12/06 Q1014
                        NOSIG=
201103271050 METAR COR EGLL 271050Z 08006KT 020V130 7000 NSC 11/06 Q1014
                        NOSIG=
201103271020 METAR COR EGLL 271020Z 07007KT 050V110 7000 NSC 10/06 Q1014
                        NOSIG=
201103270950 METAR COR EGLL 270950Z 08007KT 020V100 6000 BKN012 09/05
                        Q1014 NOSIG=
201103270920 METAR COR EGLL 270920Z 06007KT 5000 HZ BKN011 08/05 Q1014
                        BECMG SCT012=
201103270850 METAR COR EGLL 270850Z 06008KT 4700 HZ OVC010 08/05 Q1014
                        BECMG 5000 SCT010=
201103270820 METAR COR EGLL 270820Z 07007KT 4700 HZ OVC010 07/05 Q1014
                        BECMG 5000=
201103270750 METAR COR EGLL 270750Z 06007KT 4500 HZ OVC010 07/04 Q1014
                        BECMG 5000=
201103270720 METAR COR EGLL 270720Z 06006KT 4300 HZ OVC009 07/04 Q1014
                        BECMG 5000 BKN010=
201103270650 METAR COR EGLL 270650Z 08006KT 4300 HZ OVC009 07/05 Q1013
                        BECMG 5000 BKN010=
201103270620 METAR COR EGLL 270620Z 07006KT 4300 HZ OVC009 07/04 Q1013
                        BECMG 5000 BKN010=
201103270550 METAR COR EGLL 270550Z 07009KT 4200 HZ OVC010 07/04 Q1013
                        BECMG 5000=
201103270520 METAR COR EGLL 270520Z 07007KT 4300 HZ OVC010 07/05 Q1014
                        BECMG 5000=
201103270450 METAR COR EGLL 270450Z 07006KT 4600 HZ OVC011 07/05 Q1014
                        TEMPO 5000=
201103270420 METAR COR EGLL 270420Z 07007KT 4300 HZ BKN011 07/05 Q1014
                        NOSIG=
201103270350 METAR COR EGLL 270350Z 08007KT 4300 HZ BKN010 07/05 Q1014
                        NOSIG=
201103270320 METAR COR EGLL 270320Z 08007KT 4100 HZ BKN010 07/05 Q1014
                        NOSIG=
201103270250 METAR COR EGLL 270250Z 08008KT 4300 HZ BKN012 07/05 Q1014
                        NOSIG=
201103270220 METAR COR EGLL 270220Z 07006KT 4200 HZ BKN010 07/05 Q1014
                        TEMPO SCT010=
201103270150 METAR COR EGLL 270150Z 08009KT 4400 HZ SCT010 07/05 Q1014
                        TEMPO BKN010=
201103270120 METAR COR EGLL 270120Z 09008KT 4400 HZ SCT010 08/05 Q1014
                        TEMPO BKN010=
201103270050 METAR COR EGLL 270050Z 08007KT 4600 HZ FEW010 08/05 Q1014
                        TEMPO BKN010=
201103270020 METAR COR EGLL 270020Z 08006KT 5000 -RA SCT010 SCT040 08/05
                        Q1015 TEMPO BKN010=
201103262350 METAR COR EGLL 262350Z 08007KT 5000 -RADZ SCT010 SCT040 08/05
                        Q1015 TEMPO BKN010=
201103262320 METAR COR EGLL 262320Z 08007KT 6000 FEW012 SCT040 08/05 Q1015
                        NOSIG=
201103262250 METAR COR EGLL 262250Z 08009KT 7000 FEW012 SCT038 08/05 Q1015
                        TEMPO BKN012=
201103262220 METAR COR EGLL 262220Z 08009KT 8000 SCT012 BKN035 08/05 Q1015
                        TEMPO BKN012=
201103262150 METAR COR EGLL 262150Z 08007KT 050V110 8000 SCT012 BKN034
                        08/04 Q1015 TEMPO BKN012=
201103262120 METAR COR EGLL 262120Z 09010KT 8000 FEW013 BKN033 08/04 Q1015
                        TEMPO BKN013=
201103262050 METAR COR EGLL 262050Z 09011KT 9000 FEW033 08/04 Q1015 NOSIG=
201103262020 METAR COR EGLL 262020Z 09007KT CAVOK 08/04 Q1015 NOSIG=
201103261950 METAR COR EGLL 261950Z 08009KT CAVOK 08/04 Q1015 NOSIG=
201103261920 METAR COR EGLL 261920Z 08010KT 9000 NSC 08/04 Q1015 NOSIG=
201103261850 METAR COR EGLL 261850Z 08010KT 9000 NSC 09/05 Q1014 NOSIG=
201103261820 METAR COR EGLL 261820Z 08010KT 8000 NSC 09/05 Q1014 NOSIG=
201103261750 METAR COR EGLL 261750Z 08011KT 8000 NSC 09/05 Q1014 NOSIG=
201103261720 METAR COR EGLL 261720Z 09011KT 6000 NSC 10/06 Q1014 NOSIG=
201103261650 METAR COR EGLL 261650Z 08011KT 6000 NSC 11/06 Q1014 NOSIG=
201103261620 METAR COR EGLL 261620Z 09012KT 5000 HZ NSC 12/07 Q1014 TEMPO
                        4500=
201103261550 METAR COR EGLL 261550Z 09013KT 4500 HZ NSC 13/07 Q1013 TEMPO
                        5000=
201103261520 METAR COR EGLL 261520Z 09011KT 5000 HZ NSC 13/08 Q1013 NOSIG=
201103261450 METAR COR EGLL 261450Z 09011KT 5000 HZ NSC 13/08 Q1013 NOSIG=
201103261420 METAR COR EGLL 261420Z 09010KT 5000 HZ NSC 13/08 Q1014 NOSIG=
201103261350 METAR COR EGLL 261350Z 09009KT 4500 HZ NSC 14/08 Q1014 TEMPO
                        5000=
201103261320 METAR COR EGLL 261320Z 10007KT 4500 HZ NSC 14/08 Q1014 TEMPO
                        5000=
201103261250 METAR COR EGLL 261250Z 09005KT 060V130 4000 HZ NSC 14/08
                        Q1014 TEMPO 5000=
201103261220 METAR COR EGLL 261220Z 09004KT 050V140 4500 HZ NSC 13/08
                        Q1014 BECMG 5000=
201103261150 METAR COR EGLL 261150Z 09003KT 4200 HZ NSC 13/07 Q1014 BECMG
                        6000 NSW=
201103261120 METAR COR EGLL 261120Z 13004KT 100V170 4100 HZ NSC 13/07
                        Q1014 NOSIG=
201103261050 METAR COR EGLL 261050Z 16004KT 110V190 3900 HZ NSC 12/07
                        Q1015 BECMG 6000 NSW=
201103261020 METAR COR EGLL 261020Z 16003KT 4000 HZ NSC 12/07 Q1015 BECMG
                        6000 NSW=
201103260950 METAR COR EGLL 260950Z VRB03KT 4200 HZ NSC 12/06 Q1015 BECMG
                        6000 NSW=
201103260920 METAR COR EGLL 260920Z VRB03KT 4000 HZ NSC 12/06 Q1015 BECMG
                        6000 NSW=
201103260850 METAR COR EGLL 260850Z VRB02KT 4000 HZ NSC 11/06 Q1015 BECMG
                        6000 NSW=
201103260820 METAR COR EGLL 260820Z VRB03KT 3700 HZ NSC 10/07 Q1015 BECMG
                        6000 NSW=
201103260750 METAR COR EGLL 260750Z 00000KT 3500 HZ NSC 09/06 Q1015 BECMG
                        6000 NSW=
201103260720 METAR EGLL 260720Z 08002KT 3200 BR NSC 08/06 Q1015=
201103260650 METAR COR EGLL 260650Z 07002KT 3200 BR NSC 07/05 Q1015 TEMPO
                        2000=
201103260620 METAR COR EGLL 260620Z 04003KT 3200 BR NSC 07/05 Q1015 TEMPO
                        2500=
201103260550 METAR COR EGLL 260550Z 09002KT 3600 HZ NSC 08/05 Q1015 NOSIG=
201103260520 METAR COR EGLL 260520Z 00000KT 4500 HZ NSC 08/05 Q1015 NOSIG=
201103260450 METAR COR EGLL 260450Z 18003KT 4500 BR NSC 08/05 Q1015 NOSIG=
201103260420 METAR EGLL 260420Z VRB03KT 4500 BR NSC 07/05 Q1015=
201103260350 METAR COR EGLL 260350Z 07003KT 4800 BR NSC 07/05 Q1015 TEMPO
                        6000 NSW=
201103260320 METAR COR EGLL 260320Z 10003KT 4800 HZ NSC 07/04 Q1015 TEMPO
                        2500=
201103260250 METAR COR EGLL 260250Z 07004KT 4800 HZ NSC 07/04 Q1015 TEMPO
                        2500=
201103260220 METAR EGLL 260220Z AUTO VRB03KT 4200NDV HZ NCD 07/04 Q1016=
201103260150 METAR EGLL 260150Z AUTO 06002KT 4400NDV HZ NCD 08/05 Q1016=
201103260120 METAR EGLL 260120Z AUTO 17003KT 4900NDV HZ NCD 08/05 Q1016=
201103260050 METAR COR EGLL 260050Z 10003KT 4900 HZ NSC 08/06 Q1016 NOSIG=
201103260020 METAR COR EGLL 260020Z 10002KT 4800 HZ NSC 09/06 Q1016 TEMPO
                        6000 NSW=
201103252350 METAR EGLL 252350Z 06002KT 5000 HZ NSC 09/06 Q1016=
201103252320 METAR COR EGLL 252320Z VRB03KT 5000 HZ NSC 10/06 Q1016 TEMPO
                        4000 BR=
201103252250 METAR COR EGLL 252250Z 07002KT 5000 HZ NSC 10/06 Q1016 TEMPO
                        4000 BR=
201103252220 METAR COR EGLL 252220Z VRB03KT 6000 NSC 10/06 Q1016 NOSIG=
201103252150 METAR COR EGLL 252150Z 10004KT 070V140 6000 FEW049 11/07
                        Q1016 NOSIG=
201103252120 METAR COR EGLL 252120Z 12005KT 080V160 6000 NSC 11/07 Q1017
                        NOSIG=
201103252050 METAR COR EGLL 252050Z 08004KT 7000 NSC 12/07 Q1017 NOSIG=
201103252020 METAR COR EGLL 252020Z 12005KT 090V150 7000 NSC 13/07 Q1017
                        NOSIG=
201103251950 METAR COR EGLL 251950Z 12006KT 8000 NSC 14/06 Q1017 NOSIG=
201103251920 METAR COR EGLL 251920Z 19004KT 150V220 8000 NSC 14/05 Q1016
                        NOSIG=
201103251850 METAR COR EGLL 251850Z 35002KT 8000 NSC 15/04 Q1016 NOSIG=
201103251820 METAR COR EGLL 251820Z 28004KT 8000 NSC 15/04 Q1016 NOSIG=
201103251750 METAR COR EGLL 251750Z 27007KT 9000 NSC 15/04 Q1016 NOSIG=
201103251720 METAR COR EGLL 251720Z 26006KT CAVOK 16/05 Q1017 NOSIG=
201103251650 METAR COR EGLL 251650Z 26005KT 220V290 8000 NSC 17/05 Q1017
                        NOSIG=
201103251620 METAR COR EGLL 251620Z 26005KT 9000 NSC 18/05 Q1017 NOSIG=
201103251550 METAR COR EGLL 251550Z 27005KT 220V340 9000 NSC 17/06 Q1017
                        NOSIG=
201103251520 METAR COR EGLL 251520Z 26004KT 190V320 9000 NSC 18/05 Q1018
                        NOSIG=
201103251450 METAR COR EGLL 251450Z VRB03KT 8000 NSC 18/05 Q1018 NOSIG=
201103251420 METAR COR EGLL 251420Z VRB03KT 7000 NSC 18/05 Q1018 NOSIG=
201103251350 METAR COR EGLL 251350Z VRB03KT 7000 NSC 18/06 Q1019 NOSIG=
201103251320 METAR COR EGLL 251320Z VRB02KT 8000 NSC 18/06 Q1019 NOSIG=
201103251250 METAR COR EGLL 251250Z VRB03KT 7000 NSC 17/06 Q1020 NOSIG=
201103251220 METAR COR EGLL 251220Z 10004KT 360V160 8000 NSC 17/06 Q1020
                        NOSIG=
201103251150 METAR COR EGLL 251150Z VRB03KT 8000 NSC 17/07 Q1020 NOSIG=
201103251120 METAR COR EGLL 251120Z VRB02KT 8000 NSC 15/06 Q1021 NOSIG=
201103251050 METAR COR EGLL 251050Z VRB03KT 7000 NSC 14/07 Q1021 NOSIG=
201103251020 METAR COR EGLL 251020Z VRB02KT 7000 NSC 13/07 Q1022 NOSIG=
201103250950 METAR COR EGLL 250950Z VRB03KT 8000 NSC 13/07 Q1022 NOSIG=
201103250920 METAR COR EGLL 250920Z VRB03KT 8000 NSC 10/06 Q1022 NOSIG=
201103250850 METAR COR EGLL 250850Z 00000KT 8000 NSC 09/05 Q1023 NOSIG=
201103250820 METAR COR EGLL 250820Z VRB02KT 8000 NSC 08/05 Q1023 NOSIG=
201103250750 METAR COR EGLL 250750Z VRB03KT 7000 NSC 07/04 Q1023 NOSIG=
201103250720 METAR COR EGLL 250720Z 03002KT 8000 NSC 05/03 Q1023 NOSIG=
201103250650 METAR COR EGLL 250650Z VRB02KT 8000 NSC 04/02 Q1023 NOSIG=
201103250620 METAR COR EGLL 250620Z 00000KT 7000 NSC 04/02 Q1023 TEMPO
                        4000 BR=
201103250550 METAR COR EGLL 250550Z 00000KT 8000 NSC 04/02 Q1023 TEMPO
                        4500 HZ=
201103250520 METAR COR EGLL 250520Z VRB03KT 8000 NSC 04/02 Q1024 TEMPO
                        4500 HZ=
201103250450 METAR COR EGLL 250450Z 03003KT CAVOK 04/03 Q1024 NOSIG=
201103250420 METAR COR EGLL 250420Z 02002KT CAVOK 04/03 Q1024 NOSIG=
201103250350 METAR COR EGLL 250350Z 01003KT CAVOK 05/03 Q1024 NOSIG=
201103250320 METAR COR EGLL 250320Z 01003KT CAVOK 05/03 Q1025 NOSIG=
201103250250 METAR COR EGLL 250250Z 36003KT CAVOK 05/03 Q1025 NOSIG=
201103250220 METAR COR EGLL 250220Z AUTO 03002KT 9999NDV NCD 06/03 Q1025
                        NOSIG=
201103250150 METAR EGLL 250150Z AUTO 03002KT 9999NDV NCD 06/03 Q1026=
201103250120 METAR EGLL 250120Z AUTO 00000KT 9999NDV NCD 07/03 Q1026=
201103250050 METAR COR EGLL 250050Z 03002KT CAVOK 07/03 Q1026 NOSIG=
201103250020 METAR COR EGLL 250020Z 06002KT CAVOK 07/03 Q1027 NOSIG=
201103242350 METAR COR EGLL 242350Z 06002KT CAVOK 08/03 Q1027 NOSIG=
201103242320 METAR COR EGLL 242320Z 06003KT CAVOK 08/04 Q1028 NOSIG=
201103242250 METAR COR EGLL 242250Z 08003KT CAVOK 08/04 Q1028 NOSIG=
201103242220 METAR COR EGLL 242220Z 06004KT CAVOK 08/04 Q1029 NOSIG=
201103242150 METAR COR EGLL 242150Z 08004KT CAVOK 08/03 Q1029 NOSIG=
201103242120 METAR COR EGLL 242120Z 08005KT CAVOK 08/03 Q1029 NOSIG=
201103242050 METAR COR EGLL 242050Z 09006KT CAVOK 09/03 Q1030 NOSIG=
201103242020 METAR COR EGLL 242020Z 09009KT CAVOK 09/04 Q1030 NOSIG=
201103241950 METAR COR EGLL 241950Z 10008KT CAVOK 09/04 Q1030 NOSIG=
201103241920 METAR COR EGLL 241920Z 10009KT CAVOK 11/04 Q1030 NOSIG=
201103241850 METAR COR EGLL 241850Z 08008KT CAVOK 11/04 Q1030 NOSIG=
201103241820 METAR COR EGLL 241820Z 09010KT CAVOK 11/03 Q1030 NOSIG=
201103241750 METAR COR EGLL 241750Z 09010KT CAVOK 12/02 Q1030 NOSIG=
201103241720 METAR COR EGLL 241720Z 09012KT CAVOK 13/01 Q1030 NOSIG=
201103241650 METAR COR EGLL 241650Z 07010KT CAVOK 14/M02 Q1031 NOSIG=
201103241620 METAR COR EGLL 241620Z 09010KT CAVOK 15/00 Q1031 NOSIG=
201103241550 METAR COR EGLL 241550Z 09009KT CAVOK 15/01 Q1031 NOSIG=
201103241520 METAR COR EGLL 241520Z 09010KT CAVOK 16/03 Q1031 NOSIG=
201103241450 METAR COR EGLL 241450Z 08009KT CAVOK 16/05 Q1032 NOSIG=
201103241420 METAR COR EGLL 241420Z 09010KT 040V120 CAVOK 16/07 Q1032
                        NOSIG=
201103241350 METAR COR EGLL 241350Z 09010KT CAVOK 16/06 Q1033 NOSIG=
201103241320 METAR COR EGLL 241320Z 08010KT CAVOK 16/07 Q1033 NOSIG=
201103241250 METAR COR EGLL 241250Z 08010KT 040V130 CAVOK 15/07 Q1034
                        NOSIG=
201103241220 METAR EGLL 241220Z 09010KT 9000 NSC 15/07 Q1034=
201103241150 METAR COR EGLL 241150Z 09011KT 060V120 9000 NSC 15/08 Q1035
                        NOSIG=
201103241120 METAR COR EGLL 241120Z 09009KT 9000 NSC 14/07 Q1035 NOSIG=
201103241050 METAR COR EGLL 241050Z 10008KT 9000 NSC 13/07 Q1036 NOSIG=
201103241020 METAR COR EGLL 241020Z 07006KT 050V110 7000 NSC 13/07 Q1036
                        NOSIG=
201103240950 METAR COR EGLL 240950Z 08004KT 040V110 6000 NSC 11/07 Q1036
                        NOSIG=
201103240920 METAR COR EGLL 240920Z 05004KT 360V090 4600 HZ NSC 09/07
                        Q1036 BECMG 7000 NSW=
201103240850 METAR COR EGLL 240850Z 05004KT 360V080 3600 HZ NSC 08/06
                        Q1036 BECMG 5000=
201103240820 METAR COR EGLL 240820Z 04004KT 360V090 2800 HZ FEW004 07/06
                        Q1037 BECMG 5000=
201103240750 METAR COR EGLL 240750Z 06004KT 360V100 1900 BR FEW002 BKN003
                        06/05 Q1037 BECMG 5000 HZ SCT005=
201103240720 METAR COR EGLL 240720Z 06004KT 1700 BR FEW001 BKN002 06/05
                        Q1037 BECMG 4000 SCT004=
201103240650 METAR COR EGLL 240650Z 07005KT 1200 R09L/P1500 R09R/1500
                        BR BKN001 06/05 Q1037 BECMG 3000
                        SCT004=
201103240620 METAR COR EGLL 240620Z 07005KT 1200 R09R/1300 BR FEW001 BKN002
                        06/05 Q1036 BECMG 3000=
201103240550 METAR COR EGLL 240550Z 08005KT 2000 BR BKN002 06/04 Q1036
                        TEMPO 1400=
201103240520 METAR COR EGLL 240520Z 06004KT 3300 BR FEW004 05/04 Q1036
                        TEMPO BKN004=
201103240450 METAR COR EGLL 240450Z 05003KT 3700 BR FEW004 05/04 Q1036
                        TEMPO BKN004=
201103240420 METAR COR EGLL 240420Z 04004KT 4000 BR SCT004 05/04 Q1036
                        TEMPO BKN004=
201103240350 METAR COR EGLL 240350Z 05002KT 4400 HZ NSC 05/04 Q1037 NOSIG=
201103240320 METAR COR EGLL 240320Z 05003KT 4700 HZ NSC 06/04 Q1037 BECMG
                        4000 BR=
201103240250 METAR COR EGLL 240250Z 05003KT 6000 NSC 06/04 Q1037 BECMG
                        4000 BR=
201103240220 METAR COR EGLL 240220Z 04004KT 7000 NSC 06/05 Q1037 BECMG
                        4000 BR=
201103240150 METAR COR EGLL 240150Z 04004KT 8000 NSC 07/05 Q1037 BECMG
                        4000 BR=
201103240120 METAR COR EGLL 240120Z 04003KT 8000 NSC 07/05 Q1038 BECMG
                        4000 BR=
201103240050 METAR COR EGLL 240050Z 04003KT 9000 NSC 07/05 Q1038 BECMG
                        4000 BR=
201103240020 METAR COR EGLL 240020Z 06002KT CAVOK 08/06 Q1038 BEMCG 4000
                        BR=
201103232350 METAR COR EGLL 232350Z 09003KT CAVOK 08/06 Q1038 NOSIG=
201103232320 METAR COR EGLL 232320Z 09003KT CAVOK 07/05 Q1038 NOSIG=
201103232250 METAR COR EGLL 232250Z 08003KT CAVOK 07/05 Q1038 NOSIG=
201103232220 METAR COR EGLL 232220Z 09004KT CAVOK 08/05 Q1039 NOSIG=
201103232150 METAR COR EGLL 232150Z 09006KT CAVOK 09/06 Q1039 NOSIG=
201103232120 METAR COR EGLL 232120Z 10006KT CAVOK 08/06 Q1039 NOSIG=
201103232050 METAR COR EGLL 232050Z 09006KT CAVOK 09/06 Q1039 NOSIG=
201103232020 METAR COR EGLL 232020Z 09006KT CAVOK 10/07 Q1039 NOSIG=
201103231950 METAR COR EGLL 231950Z 10008KT CAVOK 11/07 Q1038 NOSIG=
201103231920 METAR COR EGLL 231920Z 10007KT CAVOK 13/08 Q1038 NOSIG=
201103231850 METAR COR EGLL 231850Z 10006KT CAVOK 12/07 Q1038 NOSIG=
201103231820 METAR COR EGLL 231820Z 10008KT CAVOK 12/07 Q1038 NOSIG=
201103231750 METAR COR EGLL 231750Z 10007KT CAVOK 14/07 Q1038 NOSIG=
201103231720 METAR COR EGLL 231720Z 08007KT CAVOK 15/05 Q1038 NOSIG=
201103231650 METAR COR EGLL 231650Z 08007KT CAVOK 16/06 Q1038 NOSIG=
201103231620 METAR COR EGLL 231620Z 06005KT 010V100 CAVOK 17/05 Q1038
                        NOSIG=
201103231550 METAR COR EGLL 231550Z 08007KT 050V110 CAVOK 17/06 Q1038
                        NOSIG=
201103231520 METAR COR EGLL 231520Z 07005KT 360V130 CAVOK 17/06 Q1038
                        NOSIG=
201103231450 METAR COR EGLL 231450Z 05006KT 360V090 9999 FEW049 17/06
                        Q1038 NOSIG=
201103231420 METAR COR EGLL 231420Z 06007KT 020V120 9999 FEW040 17/06
                        Q1039 NOSIG=
201103231350 METAR COR EGLL 231350Z 10007KT 060V130 9999 FEW037 17/06
                        Q1039 NOSIG=
201103231320 METAR COR EGLL 231320Z 08005KT 030V120 9999 FEW037 17/06
                        Q1039 NOSIG=
201103231250 METAR COR EGLL 231250Z 06007KT 9999 FEW038 16/05 Q1040 NOSIG=
201103231220 METAR COR EGLL 231220Z 09008KT 060V140 9999 FEW036 16/07
                        Q1040 NOSIG=
201103231150 METAR COR EGLL 231150Z 10007KT 070V140 9999 FEW032 16/07
                        Q1041 NOSIG=
201103231120 METAR COR EGLL 231120Z 10009KT 070V140 9999 FEW032 15/07
                        Q1041 NOSIG=
201103231050 METAR COR EGLL 231050Z 10007KT 060V140 9999 FEW028 15/07
                        Q1041 NOSIG=
201103231020 METAR COR EGLL 231020Z 10004KT 050V140 8000 NSC 14/07 Q1041
                        NOSIG=
201103230950 METAR COR EGLL 230950Z VRB03KT 6000 NSC 13/07 Q1042 NOSIG=
201103230920 METAR COR EGLL 230920Z VRB03KT 5000 HZ NSC 12/07 Q1042 NOSIG=
201103230850 METAR COR EGLL 230850Z VRB02KT 4600 HZ NSC 11/07 Q1042 BECMG
                        6000 NSW=
201103230820 METAR COR EGLL 230820Z VRB03KT 4100 HZ NSC 09/06 Q1042 BECMG
                        6000 NSW=
201103230750 METAR COR EGLL 230750Z VRB02KT 3500 HZ NSC 07/05 Q1041 BECMG
                        5000=
201103230720 METAR COR EGLL 230720Z 36003KT 3100 HZ NSC 06/04 Q1041 BECMG
                        6000 NSW=
201103230650 METAR COR EGLL 230650Z VRB02KT 2700 BR NSC 05/04 Q1041 NOSIG=
201103230620 METAR COR EGLL 230620Z 00000KT 3200 BR NSC 05/03 Q1041 NOSIG=
201103230550 METAR COR EGLL 230550Z 02002KT 3200 BR NSC 04/03 Q1041 NOSIG=
201103230520 METAR COR EGLL 230520Z 36002KT 3600 BR NSC 05/03 Q1040 NOSIG=
201103230450 METAR COR EGLL 230450Z 00000KT 3500 BR NSC 04/03 Q1040 NOSIG=
201103230420 METAR EGLL 230420Z 00000KT 4000 BR NSC 04/03 Q1040=
201103230350 METAR COR EGLL 230350Z 00000KT 3400 HZ NSC 04/03 Q1040 NOSIG=
201103230320 METAR COR EGLL 230320Z 00000KT 4500 HZ NSC 04/03 Q1040 NOSIG=
201103230250 METAR COR EGLL 230250Z 00000KT 4500 HZ NSC 05/03 Q1040 NOSIG=
201103230220 METAR COR EGLL 230220Z 03002KT 4200 HZ NSC 06/04 Q1040 NOSIG=
201103230150 METAR COR EGLL 230150Z 01002KT 5000 HZ NSC 06/04 Q1040 TEMPO
                        4000 BR=
201103230120 METAR COR EGLL 230120Z 00000KT 6000 NSC 07/05 Q1040 NOSIG=
201103230050 METAR COR EGLL 230050Z 08003KT 6000 NSC 07/04 Q1040 NOSIG=
201103230020 METAR COR EGLL 230020Z 09002KT 7000 NSC 08/04 Q1040 NOSIG=
201103222350 METAR COR EGLL 222350Z 00000KT 8000 NSC 09/04 Q1040 NOSIG=
201103222320 METAR COR EGLL 222320Z 10002KT 8000 NSC 09/04 Q1040 NOSIG=
201103222250 METAR COR EGLL 222250Z 08003KT 9000 NSC 10/04 Q1040 NOSIG=
201103222220 METAR COR EGLL 222220Z 08003KT 9000 NSC 11/04 Q1040 NOSIG=
201103222150 METAR COR EGLL 222150Z 08003KT CAVOK 10/04 Q1040 NOSIG=
201103222120 METAR COR EGLL 222120Z 10005KT CAVOK 10/04 Q1040 NOSIG=
201103222050 METAR COR EGLL 222050Z 08004KT 9000 NSC 10/05 Q1040 NOSIG=
201103222020 METAR EGLL 222020Z 09004KT 9000 NSC 10/05 Q1039=
201103221950 METAR EGLL 221950Z 09007KT 9000 NSC 12/05 Q1039=
201103221920 METAR COR EGLL 221920Z 05003KT CAVOK 13/05 Q1039 NOSIG=
201103221850 METAR COR EGLL 221850Z 04004KT CAVOK 13/05 Q1039 NOSIG=
201103221820 METAR COR EGLL 221820Z 05004KT CAVOK 14/05 Q1038 NOSIG=
201103221750 METAR COR EGLL 221750Z 05004KT 020V080 CAVOK 14/05 Q1038
                        NOSIG=
201103221720 METAR EGLL 221720Z 05005KT 020V080 CAVOK 15/05 Q1038=
201103221650 METAR COR EGLL 221650Z 03006KT 350V070 CAVOK 15/05 Q1037
                        NOSIG=
201103221620 METAR EGLL 221620Z 05005KT 010V090 CAVOK 15/05 Q1038=
201103221550 METAR COR EGLL 221550Z 04006KT 360V070 CAVOK 15/04 Q1038
                        NOSIG=
201103221520 METAR EGLL 221520Z 10005KT 040V150 CAVOK 16/05 Q1038=
201103221450 METAR COR EGLL 221450Z 06005KT 010V090 9999 BKN049 15/04
                        Q1038 NOSIG=
201103221420 METAR COR EGLL 221420Z 04005KT 340V080 9999 BKN048 15/04
                        Q1038 NOSIG=
201103221350 METAR COR EGLL 221350Z 05005KT 020V080 9999 BKN048 15/04
                        Q1038 NOSIG=
201103221320 METAR COR EGLL 221320Z 04005KT 350V110 9999 SCT046 15/05
                        Q1038 NOSIG=
201103221250 METAR COR EGLL 221250Z VRB03KT 9999 BKN048 15/04 Q1038 NOSIG=
201103221220 METAR COR EGLL 221220Z 01004KT 310V080 9999 FEW042 BKN047
                        15/05 Q1038 NOSIG=
201103221150 METAR COR EGLL 221150Z 02004KT 340V060 9000 SCT035 BKN048
                        15/06 Q1038 NOSIG=
201103221120 METAR EGLL 221120Z VRB02KT 8000 SCT030 BKN048 14/07 Q1038=
201103221050 METAR COR EGLL 221050Z VRB02KT 5000 HZ BKN047 14/07 Q1038
                        NOSIG=
201103221020 METAR COR EGLL 221020Z VRB02KT 5000 BR BKN048 13/08 Q1038
                        NOSIG=
201103220950 METAR COR EGLL 220950Z VRB02KT 4500 HZ BKN048 12/07 Q1038
                        BECMG 7000 NSW=
201103220920 METAR COR EGLL 220920Z 36003KT 4500 HZ BKN046 11/07 Q1038
                        BECMG 7000=
201103220850 METAR COR EGLL 220850Z 00000KT 5000 HZ BKN045 10/06 Q1038
                        NOSIG=
201103220820 METAR COR EGLL 220820Z 36002KT 5000 HZ BKN046 10/06 Q1038
                        NOSIG=
201103220750 METAR COR EGLL 220750Z 00000KT 5000 BR BKN045 09/06 Q1038
                        NOSIG=
201103220720 METAR COR EGLL 220720Z 36002KT 5000 BR BKN044 09/06 Q1037
                        NOSIG=
201103220650 METAR COR EGLL 220650Z VRB03KT 6000 BKN046 08/06 Q1037 NOSIG=
201103220620 METAR COR EGLL 220620Z 19004KT 160V250 5000 HZ BKN045 08/05
                        Q1037 TEMPO 4000 BR=
201103220550 METAR COR EGLL 220550Z 17003KT 5000 BR BKN046 08/05 Q1036
                        TEMPO 4000=
201103220520 METAR COR EGLL 220520Z VRB03KT 6000 BKN046 08/05 Q1036 NOSIG=
201103220450 METAR COR EGLL 220450Z VRB03KT 6000 BKN045 07/05 Q1036 NOSIG=
201103220420 METAR COR EGLL 220420Z 17002KT 6000 BKN045 07/05 Q1036 NOSIG=
201103220350 METAR COR EGLL 220350Z 17003KT 6000 BKN045 07/05 Q1036 NOSIG=
201103220320 METAR COR EGLL 220320Z 18003KT 6000 BKN044 07/05 Q1036 NOSIG=
201103220250 METAR COR EGLL 220250Z 18002KT 6000 BKN043 07/05 Q1036 NOSIG=
201103220220 METAR COR EGLL 220220Z 19002KT 6000 BKN044 07/05 Q1036 NOSIG=
201103220150 METAR COR EGLL 220150Z 18003KT 6000 BKN042 07/04 Q1036 NOSIG=
201103220120 METAR COR EGLL 220120Z 18003KT 6000 BKN044 08/05 Q1036 TEMPO
                        4000 BR=
201103220050 METAR COR EGLL 220050Z 15002KT 6000 BKN044 08/06 Q1036 TEMPO
                        4000 BR=
201103220020 METAR COR EGLL 220020Z 16003KT 7000 BKN043 08/06 Q1036 NOSIG=
201103212350 METAR COR EGLL 212350Z VRB02KT 7000 BKN043 09/06 Q1036 NOSIG=
201103212320 METAR COR EGLL 212320Z 29003KT 7000 BKN043 09/06 Q1035 NOSIG=
201103212250 METAR COR EGLL 212250Z VRB02KT 7000 BKN043 09/06 Q1035 NOSIG=
201103212220 METAR COR EGLL 212220Z 21002KT 8000 BKN043 09/06 Q1035 NOSIG=
201103212150 METAR COR EGLL 212150Z 20003KT 8000 BKN043 10/05 Q1035 NOSIG=
201103212120 METAR COR EGLL 212120Z 21004KT 9000 BKN043 11/06 Q1035 NOSIG=
201103212050 METAR COR EGLL 212050Z 22005KT 9999 BKN043 11/06 Q1035 NOSIG=
201103212020 METAR COR EGLL 212020Z VRB03KT 9999 BKN044 12/07 Q1035 NOSIG=
201103211950 METAR COR EGLL 211950Z 31003KT 9999 FEW035 BKN044 13/07 Q1034
                        NOSIG=
201103211920 METAR COR EGLL 211920Z 00000KT 9999 FEW033 BKN043 13/07 Q1034
                        NOSIG=
201103211850 METAR COR EGLL 211850Z VRB02KT 9999 FEW033 BKN043 13/07 Q1034
                        NOSIG=
201103211820 METAR COR EGLL 211820Z 31002KT 9999 FEW034 BKN041 13/07 Q1034
                        NOSIG=
201103211750 METAR COR EGLL 211750Z 28004KT 9999 BKN041 13/07 Q1034 NOSIG=
201103211720 METAR COR EGLL 211720Z VRB03KT 9999 BKN039 14/07 Q1033 NOSIG=
201103211650 METAR COR EGLL 211650Z VRB03KT 9999 BKN039 14/06 Q1033 NOSIG=
201103211620 METAR COR EGLL 211620Z 24005KT 190V270 9999 BKN041 14/06
                        Q1033 NOSIG=
201103211550 METAR COR EGLL 211550Z 21004KT 180V270 9999 BKN037 14/06
                        Q1034 NOSIG=
201103211520 METAR COR EGLL 211520Z 21005KT 170V240 9999 BKN038 14/06
                        Q1034 NOSIG=
201103211450 METAR COR EGLL 211450Z 29005KT 9999 BKN038 15/07 Q1034 NOSIG=
201103211420 METAR COR EGLL 211420Z 29007KT 9999 BKN036 14/07 Q1034 NOSIG=
201103211350 METAR COR EGLL 211350Z 28005KT 230V310 9999 BKN036 14/07
                        Q1034 NOSIG=
201103211320 METAR COR EGLL 211320Z 26007KT 140V290 9999 BKN035 14/07
                        Q1034 NOSIG=
201103211250 METAR EGLL 211250Z 19006KT 150V250 9999 FEW035 14/07 Q1034=
201103211220 METAR COR EGLL 211220Z 22006KT 140V290 9999 FEW035 14/07
                        Q1034 NOSIG=
201103211150 METAR COR EGLL 211150Z 21005KT 130V270 9999 FEW035 12/06
                        Q1035 NOSIG=
201103211120 METAR COR EGLL 211120Z 20004KT 130V260 9999 FEW032 11/06
                        Q1035 NOSIG=
201103211050 METAR COR EGLL 211050Z 21004KT 160V270 9000 BKN032 09/05
                        Q1035 NOSIG=
201103211020 METAR COR EGLL 211020Z 23004KT 160V280 8000 BKN032 08/05
                        Q1035 NOSIG=
201103210950 METAR COR EGLL 210950Z 22005KT 180V260 6000 BKN032 07/04
                        Q1035 NOSIG=
201103210920 METAR COR EGLL 210920Z 22004KT 140V280 5000 HZ BKN034 06/04
                        Q1035 NOSIG=
201103210850 METAR COR EGLL 210850Z 22004KT 180V260 4100 BR BKN033 06/04
                        Q1035 BECMG 6000 NSW=
201103210820 METAR COR EGLL 210820Z 23004KT 190V270 4100 BR FEW030 BKN032
                        06/04 Q1035 BECMG 6000 NSW=
201103210750 METAR COR EGLL 210750Z 22005KT 180V250 3200 BR FEW030 BKN034
                        05/04 Q1035 BECMG 6000 NSW=
201103210720 METAR COR EGLL 210720Z 22005KT 2800 BR FEW032 BKN035 05/04
                        Q1034 NOSIG=
201103210650 METAR COR EGLL 210650Z 22005KT 180V260 3000 BR BKN035 04/03
                        Q1034 NOSIG=
201103210620 METAR COR EGLL 210620Z 20004KT 160V240 2800 BR BKN035 04/03
                        Q1034 NOSIG=
201103210550 METAR COR EGLL 210550Z 20003KT 1800 BR BKN037 03/02 Q1034
                        NOSIG=
201103210520 METAR COR EGLL 210520Z 21004KT 160V270 2400 BR NSC 03/02
                        Q1033 NOSIG=
201103210450 METAR COR EGLL 210450Z VRB03KT 2300 HZ NSC 03/02 Q1033 NOSIG=
201103210420 METAR COR EGLL 210420Z 20002KT 2500 BR NSC 03/01 Q1033 NOSIG=
201103210350 METAR COR EGLL 210350Z 20002KT 2500 BR NSC 03/02 Q1033 NOSIG=
201103210320 METAR COR EGLL 210320Z 00000KT 2600 HZ NSC 03/02 Q1033 NOSIG=
201103210250 METAR COR EGLL 210250Z 20004KT 3000 HZ NSC 03/02 Q1033 NOSIG=
201103210220 METAR EGLL 210220Z AUTO 00000KT 3000NDV HZ NCD 04/03 Q1033=
201103210150 METAR EGLL 210150Z AUTO 20002KT 3200NDV HZ NCD 04/02 Q1033=
201103210120 METAR EGLL 210120Z AUTO 20002KT 3700NDV HZ NCD 04/02 Q1033=
201103210050 METAR COR EGLL 210050Z 17005KT 4500 HZ NSC 04/02 Q1033 TEMPO
                        2500 BR=
201103210020 METAR COR EGLL 210020Z 18004KT 4900 HZ NSC 04/02 Q1033 TEMPO
                        2500 BR=
201103202350 METAR COR EGLL 202350Z 00000KT 5000 HZ NSC 05/03 Q1033 TEMPO
                        3500 BR=
201103202320 METAR COR EGLL 202320Z 25003KT 6000 NSC 05/03 Q1033 NOSIG=
201103202250 METAR COR EGLL 202250Z 24005KT 210V280 6000 NSC 06/03 Q1033
                        NOSIG=
201103202220 METAR COR EGLL 202220Z 22007KT 180V270 6000 NSC 06/03 Q1033
                        NOSIG=
201103202150 METAR COR EGLL 202150Z 24008KT 200V260 7000 NSC 07/03 Q1033
                        NOSIG=
201103202120 METAR COR EGLL 202120Z 24009KT 7000 NSC 07/04 Q1033 NOSIG=
201103202050 METAR COR EGLL 202050Z 23007KT 210V270 7000 NSC 08/04 Q1033
                        NOSIG=
201103202020 METAR COR EGLL 202020Z 23007KT 7000 NSC 08/04 Q1033 NOSIG=
201103201950 METAR COR EGLL 201950Z 22007KT 8000 NSC 09/04 Q1033 NOSIG=
201103201920 METAR COR EGLL 201920Z 22007KT 190V260 9000 NSC 09/04 Q1033
                        NOSIG=
201103201850 METAR COR EGLL 201850Z 20007KT 170V240 9000 NSC 09/04 Q1032
                        NOSIG=
201103201820 METAR COR EGLL 201820Z 19008KT 140V250 CAVOK 10/04 Q1032
                        NOSIG=
201103201750 METAR COR EGLL 201750Z 21008KT 180V250 CAVOK 11/04 Q1032
                        NOSIG=
201103201720 METAR COR EGLL 201720Z 22009KT 190V250 9999 FEW036 11/05
                        Q1032 NOSIG=
201103201650 METAR COR EGLL 201650Z 22008KT CAVOK 12/05 Q1031 NOSIG=
201103201620 METAR COR EGLL 201620Z 23010KT 190V260 9999 FEW042 12/05
                        Q1031 NOSIG=
201103201550 METAR COR EGLL 201550Z 21009KT 180V250 9999 FEW035 13/04
                        Q1031 NOSIG=
201103201520 METAR COR EGLL 201520Z 20008G20KT 170V240 9999 FEW034 13/04
                        Q1031 NOSIG=
201103201450 METAR COR EGLL 201450Z 22008KT 180V260 9999 FEW034 SCT049
                        13/04 Q1032 NOSIG=
201103201420 METAR COR EGLL 201420Z 23007KT 180V280 9999 FEW035 BKN048
                        13/04 Q1032 NOSIG=
201103201350 METAR COR EGLL 201350Z 24008KT 210V280 9999 BKN049 12/04
                        Q1032 NOSIG=
201103201320 METAR COR EGLL 201320Z 21007KT 170V250 9999 FEW034 BKN047
                        12/04 Q1032 NOSIG=
201103201250 METAR COR EGLL 201250Z 22007KT 190V250 9999 FEW044 12/04
                        Q1032 NOSIG=
201103201220 METAR COR EGLL 201220Z 23007KT 190V260 9999 SCT032 BKN048
                        11/04 Q1033 NOSIG=
201103201150 METAR EGLL 201150Z 20007KT 170V250 9999 SCT029 11/04 Q1033=
201103201120 METAR COR EGLL 201120Z 20006KT 160V290 9999 FEW027 10/04
                        Q1033 NOSIG=
201103201050 METAR COR EGLL 201050Z 21007KT 180V240 9999 FEW020 10/05
                        Q1033 NOSIG=
201103201020 METAR COR EGLL 201020Z 20006KT 160V250 8000 FEW016 09/05
                        Q1033 NOSIG=
201103200950 METAR COR EGLL 200950Z 19008KT 140V240 8000 NSC 08/05 Q1033
                        NOSIG=
201103200920 METAR COR EGLL 200920Z 21005KT 160V240 8000 NSC 07/04 Q1033
                        NOSIG=
201103200850 METAR COR EGLL 200850Z VRB03KT 9000 NSC 06/04 Q1033 NOSIG=
201103200820 METAR COR EGLL 200820Z 18005KT 130V240 CAVOK 05/03 Q1033
                        NOSIG=
201103200750 METAR COR EGLL 200750Z VRB03KT CAVOK 05/02 Q1033 NOSIG=
201103200720 METAR COR EGLL 200720Z VRB03KT CAVOK 04/02 Q1033 NOSIG=
201103200650 METAR COR EGLL 200650Z VRB02KT CAVOK 03/01 Q1033 NOSIG=
201103200620 METAR COR EGLL 200620Z VRB03KT CAVOK 03/01 Q1033 NOSIG=
201103200550 METAR COR EGLL 200550Z 19003KT CAVOK 03/01 Q1032 NOSIG=
201103200520 METAR COR EGLL 200520Z VRB02KT CAVOK 03/01 Q1033 NOSIG=
201103200450 METAR COR EGLL 200450Z VRB02KT CAVOK 02/00 Q1032 NOSIG=
201103200420 METAR COR EGLL 200420Z 18003KT CAVOK 03/00 Q1033 NOSIG=
201103200350 METAR COR EGLL 200350Z 20003KT CAVOK 02/00 Q1033 NOSIG=
201103200320 METAR COR EGLL 200320Z 22002KT CAVOK 02/M00 Q1033 NOSIG=
201103200250 METAR COR EGLL 200250Z 18002KT CAVOK 03/00 Q1033 NOSIG=
201103200220 METAR EGLL 200220Z AUTO 19003KT 9999NDV NCD 02/00 Q1033=
201103200150 METAR EGLL 200150Z AUTO 18003KT 9999NDV NCD 02/00 Q1034=
201103200120 METAR COR EGLL 200120Z AUTO 17003KT 9999NDV NCD 03/00 Q1034
                        NOSIG=
201103200050 METAR COR EGLL 200050Z 19002KT CAVOK 03/M00 Q1034 NOSIG=
201103200020 METAR COR EGLL 200020Z 16002KT CAVOK 03/M00 Q1034 NOSIG=
201103192350 METAR COR EGLL 192350Z 17003KT CAVOK 03/M01 Q1034 NOSIG=
201103192320 METAR COR EGLL 192320Z VRB03KT CAVOK 04/M00 Q1034 NOSIG=
201103192250 METAR COR EGLL 192250Z 22004KT CAVOK 05/M00 Q1034 NOSIG=
201103192220 METAR COR EGLL 192220Z 19006KT 130V270 CAVOK 05/M00 Q1034
                        NOSIG=
201103192150 METAR COR EGLL 192150Z 22006KT 180V260 CAVOK 06/01 Q1034
                        NOSIG=
201103192120 METAR COR EGLL 192120Z 22004KT 200V280 CAVOK 06/00 Q1034
                        NOSIG=
201103192050 METAR COR EGLL 192050Z 21005KT 180V250 CAVOK 06/00 Q1034
                        NOSIG=
201103192020 METAR COR EGLL 192020Z 22007KT CAVOK 07/M01 Q1034 NOSIG=
201103191950 METAR COR EGLL 191950Z 20007KT 160V250 CAVOK 07/M02 Q1034
                        NOSIG=
201103191920 METAR COR EGLL 191920Z 19005KT 150V240 CAVOK 08/M04 Q1033
                        NOSIG=
201103191850 METAR COR EGLL 191850Z 18005KT 130V230 CAVOK 09/M06 Q1033
                        NOSIG=
201103191820 METAR COR EGLL 191820Z 19004KT 140V270 CAVOK 10/M07 Q1033
                        NOSIG=
201103191750 METAR COR EGLL 191750Z VRB03KT CAVOK 10/M07 Q1033 NOSIG=
201103191720 METAR COR EGLL 191720Z VRB03KT CAVOK 11/M07 Q1033 NOSIG=
201103191650 METAR COR EGLL 191650Z 23005KT 180V300 CAVOK 12/M06 Q1033
                        NOSIG=
201103191620 METAR COR EGLL 191620Z 22005KT 140V250 CAVOK 12/M06 Q1033
                        NOSIG=
201103191550 METAR COR EGLL 191550Z 24006KT 190V270 CAVOK 11/M06 Q1033
                        NOSIG=
201103191520 METAR COR EGLL 191520Z 26005KT 210V310 CAVOK 11/M04 Q1034
                        NOSIG=
201103191450 METAR COR EGLL 191450Z VRB03KT CAVOK 12/M03 Q1034 NOSIG=
201103191420 METAR COR EGLL 191420Z VRB03KT CAVOK 12/M02 Q1034 NOSIG=
201103191350 METAR COR EGLL 191350Z VRB03KT CAVOK 12/M03 Q1034 NOSIG=
201103191320 METAR COR EGLL 191320Z 13004KT 080V220 9999 FEW010 11/M02
                        Q1035 NOSIG=
201103191250 METAR COR EGLL 191250Z VRB03KT 9999 FEW010 11/M02 Q1035 NOSIG=
201103191220 METAR COR EGLL 191220Z VRB03KT CAVOK 11/M01 Q1035 NOSIG=
201103191150 METAR COR EGLL 191150Z 14004KT 110V230 CAVOK 10/M01 Q1035
                        NOSIG=
201103191120 METAR COR EGLL 191120Z VRB02KT CAVOK 10/00 Q1035 NOSIG=
201103191050 METAR COR EGLL 191050Z VRB02KT CAVOK 09/01 Q1035 NOSIG=
201103191020 METAR COR EGLL 191020Z VRB02KT CAVOK 08/01 Q1035 NOSIG=
201103190950 METAR COR EGLL 190950Z VRB02KT CAVOK 06/01 Q1035 NOSIG=
201103190920 METAR COR EGLL 190920Z 00000KT CAVOK 05/01 Q1035 NOSIG=
201103190850 METAR COR EGLL 190850Z VRB02KT CAVOK 03/01 Q1035 NOSIG=
201103190820 METAR EGLL 190820Z 31002KT CAVOK 02/01 Q1035 NOSIG=
201103190750 METAR COR EGLL 190750Z 31002KT CAVOK 00/M01 Q1034 NOSIG=
201103190720 METAR COR EGLL 190720Z 32004KT CAVOK M00/M01 Q1034 NOSIG=
201103190650 METAR COR EGLL 190650Z 31003KT CAVOK M01/M02 Q1034 NOSIG=
201103190620 METAR COR EGLL 190620Z 00000KT CAVOK M01/M02 Q1033 NOSIG=
201103190550 METAR COR EGLL 190550Z 00000KT CAVOK M01/M02 Q1033 NOSIG=
201103190520 METAR COR EGLL 190520Z 28002KT CAVOK M01/M02 Q1033 NOSIG=
201103190450 METAR COR EGLL 190450Z 00000KT CAVOK M01/M02 Q1032 NOSIG=
201103190420 METAR COR EGLL 190420Z 00000KT CAVOK M02/M03 Q1032 NOSIG=
201103190350 METAR COR EGLL 190350Z 31004KT CAVOK M01/M02 Q1032 NOSIG=
201103190320 METAR COR EGLL 190320Z 28004KT CAVOK M01/M03 Q1032 NOSIG=
201103190250 METAR EGLL 190250Z 35003KT CAVOK M02/M03 Q1031=
201103190220 METAR EGLL 190220Z AUTO 35003KT 9999NDV NCD M01/M02 Q1031=
201103190150 METAR COR EGLL 190150Z AUTO 35003KT 9999NDV NCD M02/M04 Q1031
                        NOSIG=
201103190120 METAR COR EGLL 190120Z AUTO 35004KT 9999NDV NCD 01/M02 Q1031
                        NOSIG=
201103190050 METAR COR EGLL 190050Z 34004KT CAVOK M00/M02 Q1031 NOSIG=
201103190020 METAR COR EGLL 190020Z 34003KT CAVOK 00/M02 Q1030 NOSIG=
201103182350 METAR COR EGLL 182350Z 34004KT CAVOK 02/M01 Q1030 NOSIG=
201103182320 METAR COR EGLL 182320Z 35004KT CAVOK 02/M01 Q1029 NOSIG=
201103182250 METAR COR EGLL 182250Z 35003KT CAVOK 02/M01 Q1029 NOSIG=
201103182220 METAR COR EGLL 182220Z 35002KT CAVOK 02/M00 Q1029 NOSIG=
201103182150 METAR COR EGLL 182150Z VRB03KT CAVOK 03/M00 Q1028 NOSIG=
201103182120 METAR COR EGLL 182120Z 33002KT CAVOK 03/00 Q1028 NOSIG=
201103182050 METAR COR EGLL 182050Z 36004KT CAVOK 04/00 Q1028 NOSIG=
201103182020 METAR COR EGLL 182020Z VRB03KT CAVOK 05/01 Q1027 NOSIG=
201103181950 METAR COR EGLL 181950Z 35003KT CAVOK 04/01 Q1027 NOSIG=
201103181920 METAR COR EGLL 181920Z 36003KT CAVOK 05/01 Q1026 NOSIG=
201103181850 METAR EGLL 181850Z AUTO VRB02KT 9999NDV NCD 06/02 Q1026=
201103181820 METAR EGLL 181820Z AUTO 36004KT 9999NDV NCD 06/02 Q1025=
201103181750 METAR COR EGLL 181750Z 36004KT CAVOK 06/03 Q1025 NOSIG=
201103181720 METAR COR EGLL 181720Z 04004KT 360V070 CAVOK 06/03 Q1024
                        NOSIG=
201103181650 METAR COR EGLL 181650Z 06004KT 9999 FEW020 06/03 Q1024 NOSIG=
201103181620 METAR COR EGLL 181620Z 05005KT 020V080 9999 FEW016 06/03
                        Q1024 NOSIG=
201103181550 METAR COR EGLL 181550Z 05006KT 020V090 9999 FEW019 BKN048
                        06/03 Q1023 NOSIG=
201103181520 METAR COR EGLL 181520Z 04005KT 350V080 9999 -RA FEW015 SCT022
                        BKN044 06/03 Q1023 NOSIG=
201103181450 METAR COR EGLL 181450Z 05006KT 010V070 9999 FEW015 BKN043
                        05/03 Q1023 NOSIG=
201103181420 METAR COR EGLL 181420Z 05006KT 010V080 9999 -RA FEW014 BKN020
                        06/03 Q1023 NOSIG=
201103181350 METAR COR EGLL 181350Z 04007KT 010V080 9999 -RA SCT012 BKN020
                        06/03 Q1022 TEMPO BKN012=
201103181320 METAR COR EGLL 181320Z 04007KT 010V080 9000 -RA SCT011 BKN019
                        06/04 Q1022 RERA TEMPO BKN012=
201103181250 METAR COR EGLL 181250Z 03005KT 360V060 8000 RA SCT009 BKN018
                        06/04 Q1022 NOSIG=
201103181220 METAR COR EGLL 181220Z 02006KT 350V050 7000 RA FEW011 SCT015
                        BKN033 06/03 Q1022 NOSIG=
201103181150 METAR COR EGLL 181150Z 03007KT 9000 RA SCT012 BKN017 06/04
                        Q1022 TEMPO BKN012=
201103181120 METAR COR EGLL 181120Z 02005KT 350V060 8000 RA SCT015 BKN019
                        06/04 Q1022 TEMPO BKN014=
201103181050 METAR COR EGLL 181050Z 02006KT 7000 RA SCT017 BKN023 06/04
                        Q1022 NOSIG=
201103181020 METAR COR EGLL 181020Z 06005KT 020V080 9000 -RA FEW022 OVC024
                        07/04 Q1022 NOSIG=
201103180950 METAR COR EGLL 180950Z 06005KT 9000 -RA OVC024 07/04 Q1021
                        NOSIG=
201103180920 METAR COR EGLL 180920Z 07004KT 030V150 9999 -RA OVC021 07/04
                        Q1021 NOSIG=
201103180850 METAR COR EGLL 180850Z 07004KT 9999 -RA OVC021 06/03 Q1021
                        NOSIG=
201103180820 METAR COR EGLL 180820Z 05004KT 360V090 9999 OVC021 06/03
                        Q1021 TEMPO BKN014=
201103180750 METAR COR EGLL 180750Z 06004KT 030V090 9999 BKN019 06/03
                        Q1021 TEMPO BKN014=
201103180720 METAR COR EGLL 180720Z 02005KT 340V070 9999 BKN020 06/03
                        Q1021 TEMPO BKN014=
201103180650 METAR COR EGLL 180650Z 02004KT 340V060 9999 -DZ FEW016 BKN019
                        06/03 Q1021 TEMPO BKN014=
201103180620 METAR COR EGLL 180620Z 02005KT 330V050 9000 -RA BKN020 06/03
                        Q1021 TEMPO BKN014=
201103180550 METAR COR EGLL 180550Z VRB03KT 9999 BKN021 07/03 Q1021 TEMPO
                        BKN014=
201103180520 METAR COR EGLL 180520Z 07005KT 9999 BKN021 07/03 Q1020 TEMPO
                        BKN014=
201103180450 METAR COR EGLL 180450Z 05004KT 9999 BKN021 07/03 Q1020 TEMPO
                        BKN014=
201103180420 METAR COR EGLL 180420Z 03005KT 9999 BKN021 07/03 Q1020 TEMPO
                        BKN014=
201103180350 METAR COR EGLL 180350Z 36004KT 330V060 8000 BKN019 07/03
                        Q1020 TEMPO BKN014=
201103180320 METAR COR EGLL 180320Z 04004KT 8000 SCT019 BKN039 07/04 Q1020
                        NOSIG=
201103180250 METAR COR EGLL 180250Z 04004KT 7000 FEW030 BKN043 07/04 Q1020
                        NOSIG=
201103180220 METAR COR EGLL 180220Z 36004KT 7000 BKN032 BKN040 08/04 Q1020
                        NOSIG=
201103180150 METAR COR EGLL 180150Z 04005KT 6000 -RA FEW032 BKN036 08/04
                        Q1020 NOSIG=
201103180120 METAR COR EGLL 180120Z VRB02KT 6000 -RA SCT038 BKN044 08/05
                        Q1020 NOSIG=
201103180050 METAR COR EGLL 180050Z VRB02KT 5000 HZ FEW038 OVC048 07/05
                        Q1020 NOSIG=
201103180020 METAR COR EGLL 180020Z 00000KT 5000 BR OVC046 08/04 Q1020
                        TEMPO 4000 HZ=
201103172350 METAR COR EGLL 172350Z 00000KT 5000 BR BKN045 07/04 Q1019
                        TEMPO 4000 HZ=
201103172320 METAR COR EGLL 172320Z 13003KT 5000 BR FEW048 08/04 Q1019
                        TEMPO 4000=
201103172250 METAR COR EGLL 172250Z VRB03KT 5000 HZ FEW041 08/04 Q1019
                        NOSIG=
201103172220 METAR COR EGLL 172220Z VRB03KT 6000 SCT039 08/04 Q1019 NOSIG=
201103172150 METAR COR EGLL 172150Z 36003KT 6000 FEW038 BKN046 08/04 Q1019
                        NOSIG=
201103172120 METAR COR EGLL 172120Z 19005KT 160V250 6000 BKN046 08/04
                        Q1019 NOSIG=
201103172050 METAR COR EGLL 172050Z VRB03KT 7000 FEW045 08/04 Q1018 NOSIG=
201103172020 METAR COR EGLL 172020Z 19004KT 150V250 7000 FEW046 07/03
                        Q1018 NOSIG=
201103171950 METAR COR EGLL 171950Z 20005KT 150V260 7000 NSC 08/03 Q1018
                        NOSIG=
201103171920 METAR COR EGLL 171920Z 19005KT 160V260 7000 NSC 08/03 Q1018
                        NOSIG=
201103171850 METAR COR EGLL 171850Z 23005KT 200V280 8000 NSC 09/03 Q1017
                        NOSIG=
201103171820 METAR COR EGLL 171820Z 30002KT 9000 NSC 10/03 Q1017 NOSIG=
201103171750 METAR COR EGLL 171750Z 30002KT 9000 NSC 10/03 Q1017 NOSIG=
201103171720 METAR COR EGLL 171720Z VRB03KT 9000 NSC 10/03 Q1017 NOSIG=
201103171650 METAR COR EGLL 171650Z VRB03KT 9000 FEW036 10/04 Q1017 NOSIG=
201103171620 METAR EGLL 171620Z 31006KT 280V350 9000 FEW026 10/03 Q1016=
201103171550 METAR COR EGLL 171550Z 31006KT 9000 FEW026 10/04 Q1016 NOSIG=
201103171520 METAR COR EGLL 171520Z 32007KT 7000 SCT026 09/04 Q1016 NOSIG=
201103171450 METAR COR EGLL 171450Z 30005KT 6000 SCT016 SCT024 09/05 Q1016
                        NOSIG=
201103171420 METAR COR EGLL 171420Z 30008KT 6000 SCT014 BKN023 08/05 Q1016
                        NOSIG=
201103171350 METAR COR EGLL 171350Z 30007KT 270V330 6000 BKN013 08/04
                        Q1016 BECMG BKN016=
201103171320 METAR COR EGLL 171320Z 30006KT 270V340 7000 BKN012 08/04
                        Q1015 BECMG BKN016=
201103171250 METAR COR EGLL 171250Z 27006KT 7000 BKN016 07/04 Q1016 NOSIG=
201103171220 METAR COR EGLL 171220Z 30004KT 260V360 6000 BKN012 07/04
                        Q1016 BECMG BKN018=
201103171150 METAR COR EGLL 171150Z VRB03KT 7000 BKN013 07/04 Q1015 BECMG
                        BKN018=
201103171120 METAR COR EGLL 171120Z 33004KT 280V030 7000 OVC012 06/03
                        Q1015 BECMG BKN018=
201103171050 METAR COR EGLL 171050Z VRB03KT 7000 BKN010 05/03 Q1015 TEMPO
                        BKN015=
201103171020 METAR COR EGLL 171020Z VRB02KT 7000 BKN010 05/03 Q1015 NOSIG=
201103170950 METAR COR EGLL 170950Z 29007KT 7000 BKN009 04/02 Q1015 BECMG
                        BKN012=
201103170920 METAR COR EGLL 170920Z 32006KT 290V030 6000 BKN007 04/02
                        Q1015 BECMG BKN010=
201103170850 METAR COR EGLL 170850Z 33005KT 280V030 5000 HZ BKN006 04/02
                        Q1014 BECMG BKN012=
201103170820 METAR COR EGLL 170820Z 02004KT 310V070 4500 HZ BKN006 04/02
                        Q1014 BECMG 6000=
201103170750 METAR COR EGLL 170750Z 34005KT 310V030 4500 HZ BKN006 04/02
                        Q1014 BECMG 6000=
201103170720 METAR COR EGLL 170720Z 01005KT 320V050 4200 HZ BKN005 04/02
                        Q1014 BECMG 6000 NSW=
201103170650 METAR COR EGLL 170650Z 01005KT 330V060 4200 HZ FEW004 BKN005
                        04/02 Q1014 BECMG 6000 NSW=
201103170620 METAR COR EGLL 170620Z 34005KT 300V020 4100 HZ BKN004 04/03
                        Q1013 BECMG BKN006=
201103170550 METAR COR EGLL 170550Z 36004KT 300V050 3200 HZ BKN004 04/02
                        Q1013 BECMG BKN006=
201103170520 METAR COR EGLL 170520Z 33005KT 300V010 3100 BR SCT003 BKN004
                        04/02 Q1013 TEMPO FEW003 BKN005=
201103170450 METAR COR EGLL 170450Z 35005KT 320V030 3100 BR BKN003 BKN004
                        03/02 Q1013 TEMPO SCT003 BKN007=
201103170420 METAR COR EGLL 170420Z 34005KT 300V020 3100 BR BKN003 03/02
                        Q1012 TEMPO SCT003 BKN006=
201103170350 METAR COR EGLL 170350Z 35005KT 310V050 2600 BR BKN003 03/02
                        Q1012 TEMPO 3500 SCT003 BKN006=
201103170320 METAR COR EGLL 170320Z 34006KT 310V030 2700 BR BKN002 04/02
                        Q1012 TEMPO 3500 SCT002 BKN005=
201103170250 METAR COR EGLL 170250Z 35006KT 2400 BR FEW003 BKN005 03/02
                        Q1012 TEMPO 4000 BKN003=
201103170220 METAR COR EGLL 170220Z 34006KT 310V010 2300 BR BKN003 04/03
                        Q1012 TEMPO 3500 BKN005=
201103170150 METAR COR EGLL 170150Z 34005KT 310V030 2300 BR BKN003 04/03
                        Q1012 TEMPO 4000 BKN005=
201103170120 METAR COR EGLL 170120Z 04005KT 360V070 2400 BR BKN004 04/03
                        Q1012 TEMPO 4000=
201103170050 METAR COR EGLL 170050Z 36006KT 320V030 2500 BR BKN004 04/03
                        Q1012 NOSIG=
201103170020 METAR COR EGLL 170020Z 35006KT 320V030 2600 HZ BKN004 04/03
                        Q1012 NOSIG=
201103162350 METAR COR EGLL 162350Z 35006KT 3000 HZ BKN004 05/03 Q1012
                        NOSIG=
201103162320 METAR COR EGLL 162320Z 05006KT 020V080 3000 HZ BKN005 05/04
                        Q1012 TEMPO 2000 BR BKN003=
201103162250 METAR COR EGLL 162250Z 04004KT 010V080 3400 HZ BKN006 06/04
                        Q1012 TEMPO 2500 BR BKN004=
201103162220 METAR COR EGLL 162220Z 05005KT 360V080 3600 HZ OVC007 06/04
                        Q1012 TEMPO 2500 BR=
201103162150 METAR COR EGLL 162150Z 05005KT 360V080 3900 HZ OVC007 06/04
                        Q1012 TEMPO 2500 BR=
201103162120 METAR COR EGLL 162120Z 06005KT 3900 HZ OVC007 06/04 Q1012
                        TEMPO 2500 BR=
201103162050 METAR COR EGLL 162050Z 02005KT 350V050 3600 HZ OVC007 06/04
                        Q1012 TEMPO 2500 BR=
201103162020 METAR COR EGLL 162020Z 01006KT 340V050 3300 HZ OVC007 06/04
                        Q1012 TEMPO 2000 BR=
201103161950 METAR COR EGLL 161950Z 02006KT 340V060 3300 HZ FEW008 OVC009
                        07/05 Q1012 TEMPO 2000 BR=
201103161920 METAR COR EGLL 161920Z 01007KT 340V060 3500 HZ FEW009 OVC010
                        08/05 Q1012 NOSIG=
201103161850 METAR COR EGLL 161850Z 03007KT 3800 HZ OVC010 08/05 Q1012
                        NOSIG=
201103161820 METAR COR EGLL 161820Z 36007KT 330V040 3800 HZ OVC011 08/05
                        Q1011 NOSIG=
201103161750 METAR COR EGLL 161750Z 02008KT 340V070 4100 HZ OVC013 09/06
                        Q1011 NOSIG=
201103161720 METAR COR EGLL 161720Z 01006KT 340V060 4000 HZ OVC014 09/06
                        Q1011 NOSIG=
201103161650 METAR COR EGLL 161650Z 01006KT 340V040 4200 HZ BKN013 09/06
                        Q1011 NOSIG=
201103161620 METAR EGLL 161620Z 01008KT 340V050 4000 HZ BKN013 09/06 Q1011=
201103161550 METAR COR EGLL 161550Z 01006KT 330V070 4000 HZ BKN013 09/06
                        Q1011 TEMPO 6000=
201103161520 METAR EGLL 161520Z 05007KT 020V080 3800 HZ OVC013 10/06 Q1011=
201103161450 METAR COR EGLL 161450Z 04007KT 010V070 3500 HZ BKN014 10/06
                        Q1012 NOSIG=
201103161420 METAR COR EGLL 161420Z 05006KT 010V080 3000 HZ OVC010 10/06
                        Q1012 TEMPO 6000=
201103161350 METAR COR EGLL 161350Z 05008KT 010V070 3000 HZ OVC009 10/06
                        Q1012 TEMPO 6000 BKN011=
201103161320 METAR COR EGLL 161320Z 04007KT 350V080 3200 HZ BKN011 10/07
                        Q1012 TEMPO 6000=
201103161250 METAR COR EGLL 161250Z 04007KT 360V080 3000 HZ BKN011 09/07
                        Q1012 TEMPO 6000=
201103161220 METAR COR EGLL 161220Z 04008KT 3300 HZ BKN010 10/07 Q1013
                        NOSIG=
201103161150 METAR COR EGLL 161150Z 04007KT 010V070 2500 HZ BKN007 BKN010
                        09/07 Q1013 BECMG BKN010=
201103161120 METAR COR EGLL 161120Z 05006KT 350V080 2300 HZ BKN006 BKN008
                        09/07 Q1013 BECMG BKN010=
201103161050 METAR COR EGLL 161050Z 03007KT 360V070 2200 BR BKN006 09/07
                        Q1013 NOSIG=
201103161020 METAR COR EGLL 161020Z 03006KT 340V070 2200 BR SCT004 BKN007
                        09/07 Q1013 NOSIG=
201103160950 METAR COR EGLL 160950Z 03007KT 1900 BR SCT003 BKN004 08/07
                        Q1013 BECMG BKN007=
201103160920 METAR COR EGLL 160920Z 03006KT 350V070 1500 BR BKN003 BKN004
                        08/07 Q1014 BECMG BKN007=
201103160850 METAR COR EGLL 160850Z 03005KT 350V070 1500 BR BKN003 BKN004
                        08/07 Q1014 BECMG BKN007=
201103160820 METAR COR EGLL 160820Z 03007KT 010V070 1600 BR SCT003 BKN005
                        08/07 Q1014 BECMG BKN007=
201103160750 METAR COR EGLL 160750Z 04006KT 010V070 1500 BR SCT003 BKN004
                        08/07 Q1014 NOSIG=
201103160720 METAR COR EGLL 160720Z 04007KT 010V070 1500 BR SCT003 BKN004
                        08/06 Q1014 NOSIG=
201103160650 METAR COR EGLL 160650Z 03007KT 350V070 1700 BR SCT003 BKN004
                        07/06 Q1014 NOSIG=
201103160620 METAR COR EGLL 160620Z 03007KT 1700 BR BKN003 08/07 Q1014
                        NOSIG=
201103160550 METAR COR EGLL 160550Z 04007KT 360V080 1300 R09L/P1500 BR
                        SCT002 BKN003 08/07 Q1014 NOSIG=
201103160520 METAR COR EGLL 160520Z 03006KT 350V060 1300 R09L/P1500 BR
                        SCT002 BKN003 08/07 Q1014 NOSIG=
201103160450 METAR COR EGLL 160450Z 03007KT 360V070 1200 R09L/P1500 BR
                        SCT002 BKN003 08/07 Q1014 NOSIG=
201103160420 METAR COR EGLL 160420Z 02006KT 340V050 1200 R09L/P1500 BR
                        SCT002 BKN003 08/07 Q1014 NOSIG=
201103160350 METAR COR EGLL 160350Z 03007KT 1200 R09L/P1500 BR BKN002
                        08/07 Q1014 NOSIG=
201103160320 METAR COR EGLL 160320Z 03006KT 340V060 1200 R09L/P1500 BR
                        SCT003 BKN004 09/07 Q1014 NOSIG=
201103160250 METAR COR EGLL 160250Z 03005KT 350V060 1400 R09L/P1500 BR
                        BKN003 09/07 Q1014 NOSIG=
201103160220 METAR COR EGLL 160220Z 05005KT 1500 HZ BKN004 09/07 Q1014
                        BECMG 1200 BR=
201103160150 METAR COR EGLL 160150Z 03005KT 340V060 1600 HZ BKN005 09/07
                        Q1014 NOSIG=
201103160120 METAR COR EGLL 160120Z 03005KT 360V060 1600 HZ BKN005 09/07
                        Q1014 NOSIG=
201103160050 METAR COR EGLL 160050Z 04006KT 010V070 1600 HZ BKN005 09/07
                        Q1014 BECMG 1400 BR BKN003=
201103160020 METAR COR EGLL 160020Z 03004KT 350V080 1600 HZ BKN006 09/07
                        Q1014 BECMG 1400 BR BKN004=
201103152350 METAR COR EGLL 152350Z 03007KT 350V060 1700 HZ OVC006 09/07
                        Q1014 BECMG 1400 BR BKN004=
201103152320 METAR COR EGLL 152320Z 01004KT 340V050 1700 HZ BKN007 09/07
                        Q1014 BECMG 1400 BR=
201103152250 METAR COR EGLL 152250Z 02004KT 330V050 1800 HZ BKN007 09/07
                        Q1015 NOSIG=
201103152220 METAR COR EGLL 152220Z 04004KT 010V080 1900 HZ FEW007 BKN008
                        09/07 Q1015 NOSIG=
201103152150 METAR COR EGLL 152150Z 05005KT 020V080 2000 HZ BKN008 09/07
                        Q1015 NOSIG=
201103152120 METAR COR EGLL 152120Z 04005KT 010V080 2800 DZ BKN008 09/07
                        Q1015 NOSIG=
201103152050 METAR COR EGLL 152050Z 05006KT 010V070 3000 HZ BKN008 09/07
                        Q1015 NOSIG=
201103152020 METAR COR EGLL 152020Z 04005KT 340V070 2800 HZ BKN008 09/07
                        Q1014 NOSIG=
201103151950 METAR COR EGLL 151950Z 06007KT 3300 HZ BKN009 09/07 Q1014
                        NOSIG=
201103151920 METAR COR EGLL 151920Z 07007KT 020V090 3500 HZ BKN009 09/07
                        Q1014 TEMPO 2500 BR=
201103151850 METAR COR EGLL 151850Z 09006KT 3500 HZ BKN009 09/07 Q1014
                        TEMPO 2500 BR=
201103151820 METAR COR EGLL 151820Z 08008KT 3700 HZ BKN010 09/07 Q1014
                        TEMPO 2500 BR BKN007=
201103151750 METAR COR EGLL 151750Z 06008KT 4100 HZ BKN012 10/07 Q1013
                        TEMPO BKN007=
201103151720 METAR COR EGLL 151720Z 06009KT 4400 HZ FEW013 10/07 Q1013
                        NOSIG=
201103151650 METAR COR EGLL 151650Z 07008KT 4700 HZ NSC 11/07 Q1013 NOSIG=
201103151620 METAR COR EGLL 151620Z 08009KT 5000 HZ NSC 12/07 Q1013 BECMG
                        4000=
201103151550 METAR COR EGLL 151550Z 08009KT 6000 NSC 12/08 Q1012 NOSIG=
201103151520 METAR COR EGLL 151520Z 09009KT 6000 NSC 12/08 Q1012 NOSIG=
201103151450 METAR COR EGLL 151450Z 08008KT 6000 NSC 12/08 Q1012 TEMPO
                        4000 BR=
201103151420 METAR COR EGLL 151420Z 09010KT 4500 HZ NSC 12/08 Q1013 TEMPO
                        6000 NSW=
201103151350 METAR COR EGLL 151350Z 09010KT 4500 HZ NSC 13/09 Q1013 TEMPO
                        6000 NSW=
201103151320 METAR COR EGLL 151320Z 09011KT 4300 HZ NSC 13/08 Q1013 TEMPO
                        6000 NSW=
201103151250 METAR EGLL 151250Z 09011KT 4300 HZ NSC 14/08 Q1013=
201103151220 METAR COR EGLL 151220Z 10012KT 4100 HZ NSC 13/08 Q1013 BECMG
                        6000 NSW=
201103151150 METAR COR EGLL 151150Z 10011KT 4400 HZ NSC 14/08 Q1013 BECMG
                        6000 NSW=
201103151120 METAR COR EGLL 151120Z 10010KT 4300 HZ NSC 13/09 Q1014 BECMG
                        6000 NSW=
201103151050 METAR COR EGLL 151050Z 09009KT 4000 HZ NSC 12/08 Q1014 BECMG
                        6000 NSW=
201103151020 METAR COR EGLL 151020Z 10010KT 3700 HZ NSC 12/08 Q1014 BECMG
                        5000=
201103150950 METAR COR EGLL 150950Z 08010KT 3000 HZ SCT007 10/08 Q1014
                        BECMG 5000=
201103150920 METAR COR EGLL 150920Z 08009KT 2800 HZ SCT004 BKN006 10/08
                        Q1014 BECMG 4500 SCT008=
201103150850 METAR COR EGLL 150850Z 08010KT 2200 BR BKN004 BKN006 09/07
                        Q1014 BECMG 4500 HZ SCT006 BKN010=
201103150820 METAR COR EGLL 150820Z 10009KT 1500 BR SCT003 BKN004 09/08
                        Q1014 BECMG 4000 HZ SCT004 BKN008=
201103150750 METAR COR EGLL 150750Z 08009KT 1400 R09L/P1500 R09R/P1500
                        BR BKN002 BKN003 08/07 Q1014 BECMG
                        3500 SCT003 BKN006=
201103150720 METAR COR EGLL 150720Z 08009KT 1400 R09L/P1500 R09R/P1500
                        BR BKN002 BKN003 08/07 Q1014 NOSIG=
201103150650 METAR COR EGLL 150650Z 09007KT 1300 R09L/P1500 R09R/P1500
                        BR FEW001 BKN002 08/07 Q1014 NOSIG=
201103150620 METAR COR EGLL 150620Z 07006KT 1100 R09L/P1500 R09R/P1500
                        BR FEW001 BKN002 08/07 Q1014 NOSIG=
201103150550 METAR COR EGLL 150550Z 07007KT 1100 R09L/P1500 R09R/P1500
                        BR FEW001 BKN002 07/07 Q1014 NOSIG=
201103150520 METAR COR EGLL 150520Z 08007KT 1000 R09L/P1500 R09R/P1500
                        BR FEW001 BKN002 07/06 Q1015 TEMPO
                        BKN001=
201103150450 METAR COR EGLL 150450Z 07007KT 1100 R09L/P1500 BR BKN001
                        07/06 Q1015 NOSIG=
201103150420 METAR COR EGLL 150420Z 07007KT 1100 R09L/P1500 BR BKN001
                        07/06 Q1015 NOSIG=
201103150350 METAR COR EGLL 150350Z 07006KT 1200 R09L/P1500 BR SCT001
                        BKN002 07/06 Q1015 NOSIG=
201103150320 METAR COR EGLL 150320Z 08008KT 1100 R09L/P1500 BR SCT001
                        BKN002 07/06 Q1015 NOSIG=
201103150250 METAR COR EGLL 150250Z 07007KT 1000 R09L/1400 BR FEW001 BKN002
                        07/06 Q1015 NOSIG=
201103150220 METAR COR EGLL 150220Z 07007KT 1100 BR FEW001 BKN002 07/06
                        Q1016 NOSIG=
201103150150 METAR COR EGLL 150150Z 07006KT 1700 BR SCT002 BKN003 07/06
                        Q1016 NOSIG=
201103150120 METAR COR EGLL 150120Z 09009KT 1400 R09L/P1500 BR SCT002
                        BKN003 07/06 Q1016 NOSIG=
201103150050 METAR COR EGLL 150050Z 08008KT 2100 BR FEW003 BKN004 07/06
                        Q1016 NOSIG=
201103150020 METAR COR EGLL 150020Z 07007KT 2900 BR BKN005 07/06 Q1016
                        NOSIG=
201103142350 METAR COR EGLL 142350Z 07007KT 3500 BR BKN006 07/06 Q1016
                        NOSIG=
201103142320 METAR COR EGLL 142320Z 06008KT 3400 BR FEW005 BKN007 07/06
                        Q1016 NOSIG=
201103142250 METAR COR EGLL 142250Z 08010KT 2800 BR BKN005 07/06 Q1017
                        NOSIG=
201103142220 METAR COR EGLL 142220Z 09010KT 2800 BR SCT004 BKN006 07/06
                        Q1017 NOSIG=
201103142150 METAR COR EGLL 142150Z 09011KT 3000 BR SCT004 BKN005 07/06
                        Q1017 NOSIG=
201103142120 METAR COR EGLL 142120Z 09009KT 3500 BR SCT005 BKN006 07/06
                        Q1017 NOSIG=
201103142050 METAR COR EGLL 142050Z 09011KT 4000 BR BKN006 07/06 Q1017
                        NOSIG=
201103142020 METAR COR EGLL 142020Z 09009KT 5000 BR FEW007 BKN009 07/06
                        Q1017 BECMG 3500 BR=
201103141950 METAR COR EGLL 141950Z 10011KT 6000 FEW007 BKN009 08/06 Q1017
                        BECMG 4000 BR=
201103141920 METAR COR EGLL 141920Z 10010KT 6000 SCT006 BKN008 08/06 Q1017
                        NOSIG=
201103141850 METAR COR EGLL 141850Z 09010KT 7000 BKN010 08/05 Q1017 BECMG
                        BKN006=
201103141820 METAR COR EGLL 141820Z 10014KT 9999 BKN013 09/05 Q1017 BECMG
                        BKN008=
201103141750 METAR COR EGLL 141750Z 08010KT 9999 BKN017 09/05 Q1016 BECMG
                        BKN012=
201103141720 METAR COR EGLL 141720Z 09009KT 9999 BKN020 09/05 Q1016 BECMG
                        BKN014=
201103141650 METAR COR EGLL 141650Z 10011KT 9999 BKN020 10/05 Q1016 BECMG
                        BKN014=
201103141620 METAR COR EGLL 141620Z 09010KT 9999 BKN021 10/05 Q1016 NOSIG=
201103141550 METAR COR EGLL 141550Z 09012KT 9999 BKN021 10/05 Q1016 NOSIG=
201103141520 METAR COR EGLL 141520Z 09013KT 9999 BKN022 10/05 Q1016 NOSIG=
201103141450 METAR COR EGLL 141450Z 11013KT 9999 SCT024 12/05 Q1016 NOSIG=
201103141420 METAR COR EGLL 141420Z 11014KT 9999 FEW027 12/04 Q1015 NOSIG=
201103141350 METAR COR EGLL 141350Z 10013KT CAVOK 12/03 Q1015 NOSIG=
201103141320 METAR COR EGLL 141320Z 07009KT CAVOK 12/M01 Q1016 NOSIG=
201103141250 METAR COR EGLL 141250Z 09010KT CAVOK 12/M00 Q1016 NOSIG=
201103141220 METAR COR EGLL 141220Z 07008KT CAVOK 12/01 Q1016 NOSIG=
201103141150 METAR COR EGLL 141150Z 08009KT CAVOK 11/M00 Q1016 NOSIG=
201103141120 METAR COR EGLL 141120Z 07010KT CAVOK 11/M01 Q1016 NOSIG=
201103141050 METAR COR EGLL 141050Z 08010KT CAVOK 10/00 Q1016 NOSIG=
201103141020 METAR COR EGLL 141020Z 07009KT CAVOK 10/02 Q1016 NOSIG=
201103140950 METAR EGLL 140950Z VRB04KT 9000 NSC 08/03 Q1016=
201103140920 METAR COR EGLL 140920Z 07004KT 030V100 9000 NSC 07/03 Q1016
                        NOSIG=
201103140850 METAR COR EGLL 140850Z VRB03KT 8000 NSC 06/03 Q1016 NOSIG=
201103140820 METAR COR EGLL 140820Z 07004KT 030V110 9000 NSC 04/01 Q1015
                        NOSIG=
201103140750 METAR COR EGLL 140750Z VRB02KT CAVOK 03/00 Q1015 NOSIG=
201103140720 METAR COR EGLL 140720Z VRB03KT CAVOK 01/M01 Q1014 NOSIG=
201103140650 METAR COR EGLL 140650Z 03002KT CAVOK 01/M01 Q1014 NOSIG=
201103140620 METAR COR EGLL 140620Z 03003KT CAVOK 01/M01 Q1014 NOSIG=
201103140550 METAR COR EGLL 140550Z 35003KT CAVOK 00/M01 Q1013 NOSIG=
201103140520 METAR COR EGLL 140520Z 00000KT CAVOK M00/M01 Q1013 NOSIG=
201103140450 METAR COR EGLL 140450Z 35003KT CAVOK 00/M01 Q1013 NOSIG=
201103140420 METAR COR EGLL 140420Z 00000KT CAVOK 00/M01 Q1012 NOSIG=
201103140350 METAR COR EGLL 140350Z 00000KT CAVOK M00/M01 Q1012 NOSIG=
201103140320 METAR COR EGLL 140320Z 35002KT CAVOK M00/M01 Q1012 NOSIG=
201103140250 METAR COR EGLL 140250Z VRB02KT CAVOK 00/M01 Q1011 NOSIG=
201103140220 METAR EGLL 140220Z AUTO VRB03KT 9999NDV NCD 01/M00 Q1011=
201103140150 METAR EGLL 140150Z AUTO 36002KT 9999NDV NCD 01/M01 Q1011=
201103140120 METAR EGLL 140120Z AUTO VRB02KT 9999NDV NCD 01/M00 Q1011=
201103140050 METAR COR EGLL 140050Z 00000KT CAVOK 02/M00 Q1010 NOSIG=
201103140020 METAR COR EGLL 140020Z VRB02KT CAVOK 02/M00 Q1010 NOSIG=
201103132350 METAR COR EGLL 132350Z 32004KT CAVOK 03/01 Q1009 NOSIG=
201103132320 METAR COR EGLL 132320Z 28003KT CAVOK 02/01 Q1009 NOSIG=
201103132250 METAR COR EGLL 132250Z 01002KT CAVOK 03/01 Q1009 NOSIG=
201103132220 METAR COR EGLL 132220Z 01002KT CAVOK 04/00 Q1009 NOSIG=
201103132150 METAR COR EGLL 132150Z 35003KT CAVOK 06/02 Q1008 NOSIG=
201103132120 METAR COR EGLL 132120Z VRB02KT CAVOK 06/02 Q1008 NOSIG=
201103132050 METAR COR EGLL 132050Z VRB03KT CAVOK 07/01 Q1007 NOSIG=
201103132020 METAR COR EGLL 132020Z VRB03KT CAVOK 07/01 Q1007 NOSIG=
201103131950 METAR COR EGLL 131950Z 35003KT CAVOK 08/02 Q1006 NOSIG=
201103131920 METAR COR EGLL 131920Z VRB03KT CAVOK 08/02 Q1006 NOSIG=
201103131850 METAR COR EGLL 131850Z 35003KT CAVOK 08/03 Q1005 NOSIG=
201103131820 METAR COR EGLL 131820Z 36003KT CAVOK 09/03 Q1005 NOSIG=
201103131750 METAR COR EGLL 131750Z 31004KT 9999 FEW040 09/04 Q1004 NOSIG=
201103131720 METAR COR EGLL 131720Z 32005KT 9999 FEW032 10/04 Q1004 NOSIG=
201103131650 METAR COR EGLL 131650Z 31006KT 9999 SCT027 10/05 Q1004 NOSIG=
201103131620 METAR COR EGLL 131620Z 32006KT 290V350 9999 FEW025 SCT039
                        10/04 Q1003 NOSIG=
201103131550 METAR COR EGLL 131550Z 31006KT 280V350 9999 SCT024 BKN039
                        10/05 Q1003 NOSIG=
201103131520 METAR COR EGLL 131520Z 31006KT 280V350 9999 SCT019 SCT038
                        10/05 Q1002 NOSIG=
201103131450 METAR COR EGLL 131450Z 32006KT 9999 SCT019 BKN027 10/06 Q1002
                        NOSIG=
201103131420 METAR COR EGLL 131420Z 31008KT 9999 SCT016 BKN020 09/06 Q1002
                        NOSIG=
201103131350 METAR COR EGLL 131350Z 30005KT 280V340 9999 SCT014 BKN021
                        10/07 Q1001 NOSIG=
201103131320 METAR COR EGLL 131320Z 30007KT 9999 BKN012 10/07 Q1001 BECMG
                        SCT012=
201103131250 METAR COR EGLL 131250Z 30006KT 270V340 9999 BKN011 10/07
                        Q1001 BECMG SCT012=
201103131220 METAR COR EGLL 131220Z 30006KT 9999 BKN011 BKN015 10/07 Q1001
                        BECMG SCT012=
201103131150 METAR COR EGLL 131150Z 29007KT 9999 FEW006 BKN014 09/07 Q1000
                        NOSIG=
201103131120 METAR COR EGLL 131120Z 28006KT 5000 -RA SCT007 BKN026 09/08
                        Q1000 NOSIG=
201103131050 METAR COR EGLL 131050Z 28008KT 4500 -RADZ FEW004 SCT011 BKN030
                        09/08 Q1000 TEMPO BKN008=
201103131020 METAR COR EGLL 131020Z 18008KT 140V240 3400 -DZ BKN004 BKN006
                        10/08 Q0999 RERA NOSIG=
201103130950 METAR COR EGLL 130950Z 20007KT 150V260 3600 RA FEW006 BKN007
                        10/08 Q0999 NOSIG=
201103130920 METAR COR EGLL 130920Z 20006KT 140V240 4500 -DZ OVC008 10/08
                        Q0999 NOSIG=
201103130850 METAR COR EGLL 130850Z 22006KT 180V250 6000 -DZ BKN008 10/08
                        Q0999 NOSIG=
201103130820 METAR COR EGLL 130820Z 21006KT 150V250 6000 SCT007 BKN045
                        09/08 Q0998 BECMG BKN008=
201103130750 METAR COR EGLL 130750Z 18005KT 150V240 5000 BR BKN008 09/08
                        Q0998 NOSIG=
201103130720 METAR COR EGLL 130720Z 19006KT 150V230 4400 BR FEW006 SCT040
                        09/08 Q0998 BECMG BKN009=
201103130650 METAR COR EGLL 130650Z 19006KT 150V230 5000 BR FEW006 BKN013
                        09/08 Q0998 NOSIG=
201103130620 METAR COR EGLL 130620Z VRB06KT 5000 BR FEW006 SCT010 BKN043
                        09/07 Q0998 TEMPO 4000 BKN010=
201103130550 METAR COR EGLL 130550Z 19007KT 6000 FEW006 OVC039 09/08 Q0997
                        NOSIG=
201103130520 METAR COR EGLL 130520Z 18006KT 6000 FEW011 BKN041 09/08 Q0997
                        BECMG BKN010=
201103130450 METAR COR EGLL 130450Z 18006KT 6000 SCT009 BKN013 BKN043
                        09/08 Q0997 NOSIG=
201103130420 METAR COR EGLL 130420Z 19005KT 7000 SCT008 BKN010 09/08 Q0996
                        TEMPO 4000 BR BKN006=
201103130350 METAR COR EGLL 130350Z 19004KT 4200 BR BKN004 09/08 Q0996
                        NOSIG=
201103130320 METAR COR EGLL 130320Z 19007KT 1900 BR BKN004 09/08 Q0996
                        NOSIG=
201103130250 METAR COR EGLL 130250Z 16007KT 4900 BR BKN004 09/08 Q0996
                        TEMPO 6000 BKN006=
201103130220 METAR EGLL 130220Z AUTO 16005KT 3400NDV BR BKN008/// 09/08
                        Q0997=
201103130150 METAR EGLL 130150Z AUTO 14006KT 3900NDV HZ BKN006/// 09/08
                        Q0997=
201103130120 METAR EGLL 130120Z AUTO 15005KT 5000NDV BKN007/// 09/08 Q0997=
201103130050 METAR COR EGLL 130050Z 13004KT 4000 BR SCT008 BKN012 09/08
                        Q0997 NOSIG=
201103130020 METAR COR EGLL 130020Z 15004KT 1900 HZ FEW002 SCT004 BKN011
                        09/07 Q0997 TEMPO BKN004=
201103122350 METAR COR EGLL 122350Z 15005KT 3200 -DZ BKN009 09/07 Q0998
                        TEMPO 5000=
201103122320 METAR COR EGLL 122320Z 14004KT 7000 BKN009 09/07 Q0998 NOSIG=
201103122250 METAR COR EGLL 122250Z 15005KT 7000 BKN009 09/07 Q0998 NOSIG=
201103122220 METAR COR EGLL 122220Z 16006KT 7000 -RA SCT008 BKN017 09/07
                        Q0998 BECMG BKN010=
201103122150 METAR COR EGLL 122150Z 18006KT 8000 -RA SCT010 09/07 Q0998
                        BECMG BKN010=
201103122120 METAR COR EGLL 122120Z 16006KT 130V190 9000 -RA BKN012 09/07
                        Q0999 TEMPO BKN009=
201103122050 METAR COR EGLL 122050Z 17006KT 9999 -RA BKN015 10/06 Q0999
                        BECMG BKN012=
201103122020 METAR COR EGLL 122020Z 18007KT 9999 FEW015 10/06 Q0999 BECMG
                        BKN012=
201103121950 METAR COR EGLL 121950Z 18007KT CAVOK 10/06 Q0999 NOSIG=
201103121920 METAR COR EGLL 121920Z 17007KT CAVOK 10/06 Q0999 NOSIG=
201103121850 METAR COR EGLL 121850Z 18008KT CAVOK 10/05 Q0999 NOSIG=
201103121820 METAR COR EGLL 121820Z 18007KT 9999 FEW030 10/05 Q0999 NOSIG=
201103121750 METAR COR EGLL 121750Z 18007KT 9999 FEW030 10/05 Q0999 NOSIG=
201103121720 METAR COR EGLL 121720Z 20005KT CAVOK 10/05 Q0999 NOSIG=
201103121650 METAR COR EGLL 121650Z 20008KT CAVOK 10/05 Q0999 NOSIG=
201103121620 METAR COR EGLL 121620Z 19009KT 9999 FEW022 10/05 Q0999 NOSIG=
201103121550 METAR COR EGLL 121550Z 16012KT 9999 FEW023 11/05 Q0999 NOSIG=
201103121520 METAR COR EGLL 121520Z 16012KT CAVOK 12/05 Q0999 NOSIG=
201103121450 METAR COR EGLL 121450Z 15009KT CAVOK 13/05 Q0999 NOSIG=
201103121420 METAR COR EGLL 121420Z 15010KT CAVOK 13/05 Q0999 NOSIG=
201103121350 METAR COR EGLL 121350Z 15007KT 120V180 CAVOK 13/05 Q0999
                        NOSIG=
201103121320 METAR COR EGLL 121320Z 16010KT CAVOK 13/04 Q1000 NOSIG=
201103121250 METAR COR EGLL 121250Z 16010KT 130V190 CAVOK 13/04 Q1000
                        NOSIG=
201103121220 METAR COR EGLL 121220Z 15010KT 110V180 CAVOK 13/03 Q1000
                        NOSIG=
201103121150 METAR COR EGLL 121150Z 13011KT CAVOK 12/03 Q1001 NOSIG=
201103121120 METAR COR EGLL 121120Z 13009KT 100V160 9999 FEW032 12/03
                        Q1001 NOSIG=
201103121050 METAR COR EGLL 121050Z 10010KT CAVOK 12/04 Q1002 NOSIG=
201103121020 METAR COR EGLL 121020Z 11010KT CAVOK 12/04 Q1002 NOSIG=
201103120950 METAR COR EGLL 120950Z 12009KT CAVOK 12/04 Q1003 NOSIG=
201103120920 METAR COR EGLL 120920Z 12008KT 9999 FEW045 11/04 Q1003 NOSIG=
201103120850 METAR COR EGLL 120850Z 12007KT 9999 BKN045 10/04 Q1004 NOSIG=
201103120820 METAR COR EGLL 120820Z 14008KT 120V200 9999 BKN044 09/04
                        Q1004 NOSIG=
201103120750 METAR COR EGLL 120750Z 14006KT 070V220 9999 BKN044 08/04
                        Q1004 NOSIG=
201103120720 METAR COR EGLL 120720Z 14006KT 110V190 9999 BKN045 08/04
                        Q1005 NOSIG=
201103120650 METAR COR EGLL 120650Z 15006KT 9999 SCT049 07/04 Q1005 NOSIG=
201103120620 METAR COR EGLL 120620Z 14007KT 100V190 CAVOK 07/04 Q1005
                        NOSIG=
201103120550 METAR COR EGLL 120550Z 15005KT CAVOK 07/04 Q1005 NOSIG=
201103120520 METAR COR EGLL 120520Z 15006KT CAVOK 07/04 Q1006 NOSIG=
201103120450 METAR COR EGLL 120450Z 15006KT CAVOK 07/04 Q1006 NOSIG=
201103120420 METAR COR EGLL 120420Z 15006KT CAVOK 07/04 Q1007 NOSIG=
201103120350 METAR COR EGLL 120350Z 15005KT 9999 FEW041 SCT047 07/04 Q1007
                        NOSIG=
201103120320 METAR COR EGLL 120320Z 16006KT 9999 FEW042 07/04 Q1007 NOSIG=
201103120250 METAR COR EGLL 120250Z 15005KT CAVOK 07/04 Q1008 NOSIG=
201103120220 METAR COR EGLL 120220Z 17005KT CAVOK 07/04 Q1008 NOSIG=
201103120150 METAR COR EGLL 120150Z 15004KT CAVOK 07/04 Q1009 NOSIG=
201103120120 METAR COR EGLL 120120Z 19005KT CAVOK 07/04 Q1009 NOSIG=
201103120050 METAR COR EGLL 120050Z 20008KT CAVOK 07/04 Q1009 NOSIG=
201103120020 METAR COR EGLL 120020Z 19008KT 9999 SCT037 08/04 Q1010 NOSIG=
201103112350 METAR COR EGLL 112350Z 19007KT 9999 SCT040 08/04 Q1010 NOSIG=
201103112320 METAR COR EGLL 112320Z 19007KT 9999 FEW033 08/04 Q1010 NOSIG=
201103112250 METAR COR EGLL 112250Z 20008KT CAVOK 08/04 Q1011 NOSIG=
201103112220 METAR COR EGLL 112220Z 19009KT 9999 BKN048 08/04 Q1011 NOSIG=
201103112150 METAR COR EGLL 112150Z 20008KT 9999 BKN049 08/04 Q1011 NOSIG=
201103112120 METAR COR EGLL 112120Z 19009KT 170V230 9999 FEW045 09/04
                        Q1012 NOSIG=
201103112050 METAR COR EGLL 112050Z 21009KT 9999 BKN045 09/05 Q1012 NOSIG=
201103112020 METAR COR EGLL 112020Z 20008KT 9999 BKN043 09/05 Q1012 NOSIG=
201103111950 METAR COR EGLL 111950Z 21009KT 9999 FEW018 BKN041 09/05 Q1012
                        NOSIG=
201103111920 METAR COR EGLL 111920Z 21009KT 9999 BKN020 09/05 Q1012 NOSIG=
201103111850 METAR COR EGLL 111850Z 21009KT 180V270 9999 FEW023 BKN034
                        09/04 Q1013 NOSIG=
201103111820 METAR COR EGLL 111820Z 21009KT 9999 FEW023 BKN040 09/04 Q1013
                        NOSIG=
201103111750 METAR COR EGLL 111750Z 22011KT 9999 SCT028 BKN033 10/04 Q1013
                        NOSIG=
201103111720 METAR COR EGLL 111720Z 22011KT 9999 FEW030 BKN038 10/04 Q1013
                        NOSIG=
201103111650 METAR COR EGLL 111650Z 23011KT 9999 BKN030 10/04 Q1013 NOSIG=
201103111620 METAR COR EGLL 111620Z 22011KT 9999 BKN033 10/03 Q1013 NOSIG=
201103111550 METAR COR EGLL 111550Z 21011KT 9999 BKN036 11/03 Q1013 NOSIG=
201103111520 METAR COR EGLL 111520Z 23011KT 200V270 9999 BKN038 11/03
                        Q1014 NOSIG=
201103111450 METAR COR EGLL 111450Z 25013KT 9999 BKN041 11/02 Q1014 NOSIG=
201103111420 METAR COR EGLL 111420Z 25011KT 9999 BKN041 11/03 Q1014 NOSIG=
201103111350 METAR COR EGLL 111350Z 25012KT 9999 BKN042 11/02 Q1015 NOSIG=
201103111320 METAR COR EGLL 111320Z 27011KT 9999 BKN041 11/02 Q1015 NOSIG=
201103111250 METAR COR EGLL 111250Z 25015KT 9999 SCT040 11/02 Q1015 NOSIG=
201103111220 METAR COR EGLL 111220Z 25013KT 9999 BKN039 12/03 Q1015 NOSIG=
201103111150 METAR COR EGLL 111150Z 26014KT 9999 FEW033 BKN039 10/03 Q1016
                        NOSIG=
201103111120 METAR COR EGLL 111120Z 27014KT 9999 FEW047 11/03 Q1016 NOSIG=
201103111050 METAR COR EGLL 111050Z 25014KT 9999 SCT030 11/03 Q1016 NOSIG=
201103111020 METAR COR EGLL 111020Z 25014KT 9999 FEW022 SCT027 10/04 Q1016
                        NOSIG=
201103110950 METAR COR EGLL 110950Z 25012KT 9999 FEW020 BKN022 09/04 Q1016
                        NOSIG=
201103110920 METAR COR EGLL 110920Z 24011KT 9999 FEW032 SCT048 08/04 Q1017
                        NOSIG=
201103110850 METAR COR EGLL 110850Z 24009KT 9999 BKN048 07/03 Q1017 NOSIG=
201103110820 METAR COR EGLL 110820Z 24007KT 9999 FEW032 06/03 Q1016 NOSIG=
201103110750 METAR COR EGLL 110750Z 22008KT CAVOK 05/02 Q1016 NOSIG=
201103110720 METAR COR EGLL 110720Z 23007KT 190V250 CAVOK 05/01 Q1016
                        NOSIG=
201103110650 METAR COR EGLL 110650Z 24006KT CAVOK 03/01 Q1016 NOSIG=
201103110620 METAR COR EGLL 110620Z 25009KT CAVOK 04/02 Q1016 NOSIG=
201103110550 METAR COR EGLL 110550Z 25008KT CAVOK 04/02 Q1016 NOSIG=
201103110520 METAR COR EGLL 110520Z 25008KT CAVOK 05/03 Q1016 NOSIG=
201103110450 METAR COR EGLL 110450Z 25009KT CAVOK 05/03 Q1015 NOSIG=
201103110420 METAR COR EGLL 110420Z 24006KT CAVOK 05/03 Q1015 NOSIG=
201103110350 METAR COR EGLL 110350Z 25008KT CAVOK 05/03 Q1015 NOSIG=
201103110320 METAR COR EGLL 110320Z 25007KT CAVOK 05/03 Q1015 NOSIG=
201103110250 METAR COR EGLL 110250Z 24010KT CAVOK 05/03 Q1015 NOSIG=
201103110220 METAR COR EGLL 110220Z 23008KT CAVOK 06/03 Q1015 NOSIG=
201103110150 METAR COR EGLL 110150Z 25010KT CAVOK 06/03 Q1015 NOSIG=
201103110120 METAR COR EGLL 110120Z 26009KT CAVOK 06/04 Q1015 NOSIG=
201103110050 METAR COR EGLL 110050Z 25010KT CAVOK 06/03 Q1015 NOSIG=
201103110020 METAR COR EGLL 110020Z 26011KT CAVOK 06/03 Q1014 NOSIG=
201103102350 METAR COR EGLL 102350Z 26011KT CAVOK 06/03 Q1014 NOSIG=
201103102320 METAR COR EGLL 102320Z 25011KT CAVOK 06/04 Q1014 NOSIG=
201103102250 METAR COR EGLL 102250Z 26012KT CAVOK 07/04 Q1014 NOSIG=
201103102220 METAR COR EGLL 102220Z 25013KT 9000 NSC 07/04 Q1014 NOSIG=
201103102150 METAR COR EGLL 102150Z 25012KT CAVOK 07/03 Q1013 NOSIG=
201103102120 METAR COR EGLL 102120Z 25012KT CAVOK 08/03 Q1013 NOSIG=
201103102050 METAR COR EGLL 102050Z 25013KT CAVOK 08/04 Q1013 NOSIG=
201103102020 METAR COR EGLL 102020Z 25013KT CAVOK 09/03 Q1013 NOSIG=
201103101950 METAR COR EGLL 101950Z 25012KT CAVOK 09/03 Q1012 NOSIG=
201103101920 METAR COR EGLL 101920Z 25015KT CAVOK 09/03 Q1012 NOSIG=
201103101850 METAR COR EGLL 101850Z 26017KT CAVOK 09/03 Q1012 NOSIG=
201103101820 METAR COR EGLL 101820Z 26018KT CAVOK 10/03 Q1012 NOSIG=
201103101750 METAR COR EGLL 101750Z 26019KT 9999 FEW045 10/03 Q1011 NOSIG=
201103101720 METAR COR EGLL 101720Z 27020KT 9999 FEW036 11/02 Q1011 NOSIG=
201103101650 METAR COR EGLL 101650Z 26021KT 9999 FEW037 12/03 Q1010 NOSIG=
201103101620 METAR COR EGLL 101620Z 26022KT 9999 FEW034 12/04 Q1010 NOSIG=
201103101550 METAR COR EGLL 101550Z 26019KT 9999 SCT042 12/04 Q1010 TEMPO
                        26022G32KT=
201103101520 METAR COR EGLL 101520Z 26023G34KT 9999 FEW035 12/05 Q1010
                        TEMPO 24018KT=
201103101450 METAR COR EGLL 101450Z 26020KT 9999 SCT028 SCT036 12/06 Q1010
                        NOSIG=
201103101420 METAR COR EGLL 101420Z 26020KT 9999 SCT028 SCT033 12/06 Q1010
                        NOSIG=
201103101350 METAR EGLL 101350Z 26020G30KT 9999 SCT030 12/06 Q1010=
201103101320 METAR COR EGLL 101320Z 26018KT 9999 BKN033 12/05 Q1010 NOSIG=
201103101250 METAR COR EGLL 101250Z 26022KT 9999 SCT034 BKN049 12/05 Q1010
                        NOSIG=
201103101220 METAR COR EGLL 101220Z 26023KT 9999 SCT033 12/05 Q1010 NOSIG=
201103101150 METAR COR EGLL 101150Z 26024KT 9999 SCT033 SCT042 13/05 Q1010
                        NOSIG=
201103101120 METAR COR EGLL 101120Z 25021KT 9999 FEW028 BKN043 13/06 Q1011
                        NOSIG=
201103101050 METAR COR EGLL 101050Z 25021KT 9999 SCT025 BKN031 11/06 Q1011
                        NOSIG=
201103101020 METAR COR EGLL 101020Z 25020KT 9999 SCT025 BKN039 11/06 Q1011
                        NOSIG=
201103100950 METAR COR EGLL 100950Z 25020KT 9999 SCT022 SCT045 10/06 Q1011
                        NOSIG=
201103100920 METAR COR EGLL 100920Z 24019KT 9999 SCT020 SCT042 10/05 Q1012
                        NOSIG=
201103100850 METAR COR EGLL 100850Z 25017G27KT 9999 SCT020 BKN028 09/05
                        Q1012 NOSIG=
201103100820 METAR COR EGLL 100820Z 25019KT 9999 BKN021 09/05 Q1011 NOSIG=
201103100750 METAR COR EGLL 100750Z 25017KT 9999 FEW022 SCT025 09/05 Q1011
                        NOSIG=
201103100720 METAR COR EGLL 100720Z 24019KT 9999 FEW029 BKN045 09/05 Q1011
                        NOSIG=
201103100650 METAR COR EGLL 100650Z 24018G28KT 9999 FEW034 BKN042 09/04
                        Q1011 NOSIG=
201103100620 METAR COR EGLL 100620Z 23016KT 9999 SCT040 BKN045 08/04 Q1011
                        NOSIG=
201103100550 METAR COR EGLL 100550Z 23014KT 9999 BKN045 08/04 Q1012 TEMPO
                        24016G26KT=
201103100520 METAR COR EGLL 100520Z 22014KT 9999 FEW030 08/04 Q1012 TEMPO
                        23016G26KT=
201103100450 METAR COR EGLL 100450Z 22015KT 9999 BKN047 08/04 Q1012 NOSIG=
201103100420 METAR COR EGLL 100420Z 22013KT 9999 BKN047 07/04 Q1012 NOSIG=
201103100350 METAR COR EGLL 100350Z 24014KT 9999 SCT045 07/04 Q1013 TEMPO
                        24015G25KT=
201103100320 METAR COR EGLL 100320Z 23015G25KT 9999 SCT045 07/04 Q1013
                        TEMPO 24012KT=
201103100250 METAR COR EGLL 100250Z 24013KT 9999 SCT024 06/03 Q1014 NOSIG=
201103100220 METAR COR EGLL 100220Z 24011KT 9999 FEW020 06/03 Q1014 NOSIG=
201103100150 METAR COR EGLL 100150Z 23013KT 9999 FEW020 06/03 Q1015 NOSIG=
201103100120 METAR COR EGLL 100120Z 24011KT CAVOK 06/03 Q1015 NOSIG=
201103100050 METAR COR EGLL 100050Z 25011KT CAVOK 06/03 Q1015 NOSIG=
201103100020 METAR COR EGLL 100020Z 26015KT CAVOK 06/02 Q1016 NOSIG=
201103092350 METAR COR EGLL 092350Z 24011KT CAVOK 05/02 Q1016 NOSIG=
201103092320 METAR COR EGLL 092320Z 24012KT CAVOK 05/01 Q1016 NOSIG=
201103092250 METAR COR EGLL 092250Z 25011KT CAVOK 06/02 Q1016 NOSIG=
201103092220 METAR COR EGLL 092220Z 26012KT CAVOK 06/02 Q1017 NOSIG=
201103092150 METAR COR EGLL 092150Z 27012KT CAVOK 06/02 Q1017 NOSIG=
201103092120 METAR COR EGLL 092120Z 25013KT CAVOK 06/02 Q1017 NOSIG=
201103092050 METAR COR EGLL 092050Z 25013KT CAVOK 06/02 Q1017 NOSIG=
201103092020 METAR COR EGLL 092020Z 26011KT CAVOK 06/02 Q1017 NOSIG=
201103091950 METAR COR EGLL 091950Z 25011KT CAVOK 07/02 Q1017 NOSIG=
201103091920 METAR COR EGLL 091920Z 25012KT CAVOK 07/02 Q1017 NOSIG=
201103091850 METAR COR EGLL 091850Z 27009KT 9999 FEW048 08/03 Q1017 NOSIG=
201103091820 METAR EGLL 091820Z 27014KT 9999 -RA FEW033 BKN043 09/03 Q1017=
201103091750 METAR COR EGLL 091750Z 27009KT 9999 FEW034 BKN046 08/03 Q1017
                        NOSIG=
201103091720 METAR COR EGLL 091720Z 28008KT 9999 FEW033 SCT039 08/04 Q1017
                        NOSIG=
201103091650 METAR COR EGLL 091650Z 28009KT 9999 VCSH FEW041 SCT045 09/02
                        Q1017 NOSIG=
201103091620 METAR COR EGLL 091620Z 27009KT 9999 SCT038 09/02 Q1016 NOSIG=
201103091550 METAR COR EGLL 091550Z 26013KT 9999 FEW042 10/02 Q1016 NOSIG=
201103091520 METAR COR EGLL 091520Z 28012KT 9999 FEW048 10/01 Q1016 NOSIG=
201103091450 METAR COR EGLL 091450Z 27014KT 9999 FEW041 10/01 Q1016 NOSIG=
201103091420 METAR COR EGLL 091420Z 26016KT 9999 FEW041 10/01 Q1016 NOSIG=
201103091350 METAR COR EGLL 091350Z 28013KT 9999 FEW048 10/01 Q1016 NOSIG=
201103091320 METAR COR EGLL 091320Z 26018KT 9999 FEW042 10/02 Q1016 NOSIG=
201103091250 METAR COR EGLL 091250Z 28014KT 9999 FEW042 11/01 Q1016 NOSIG=
201103091220 METAR COR EGLL 091220Z 27017KT 9999 SCT042 11/01 Q1016 NOSIG=
201103091150 METAR COR EGLL 091150Z 28013KT 9999 SCT033 10/02 Q1016 NOSIG=
201103091120 METAR COR EGLL 091120Z 26015KT 9999 FEW031 SCT036 10/02 Q1016
                        NOSIG=
201103091050 METAR COR EGLL 091050Z 27016KT 9999 FEW028 SCT035 09/03 Q1016
                        NOSIG=
201103091020 METAR COR EGLL 091020Z 27015KT 9999 SCT034 10/03 Q1016 NOSIG=
201103090950 METAR COR EGLL 090950Z 27015KT 9999 FEW024 09/03 Q1016 NOSIG=
201103090920 METAR COR EGLL 090920Z 26014KT 9999 FEW018 09/03 Q1016 NOSIG=
201103090850 METAR COR EGLL 090850Z 27015KT 9999 FEW017 08/04 Q1016 NOSIG=
201103090820 METAR COR EGLL 090820Z 26013KT 9999 FEW017 08/04 Q1016 NOSIG=
201103090750 METAR COR EGLL 090750Z 27010KT 9999 FEW017 07/04 Q1015 NOSIG=
201103090720 METAR COR EGLL 090720Z 25011KT 9999 FEW014 06/04 Q1015 NOSIG=
201103090650 METAR COR EGLL 090650Z 25011KT 9999 FEW025 06/04 Q1014 NOSIG=
201103090620 METAR COR EGLL 090620Z 24012KT 9999 SCT020 BKN025 07/04 Q1014
                        NOSIG=
201103090550 METAR COR EGLL 090550Z 24014KT 9999 BKN020 06/03 Q1014 TEMPO
                        BKN014=
201103090520 METAR COR EGLL 090520Z 22009KT 9999 BKN020 06/03 Q1014 TEMPO
                        BKN014=
201103090450 METAR COR EGLL 090450Z 23011KT 9999 SCT015 05/02 Q1014 TEMPO
                        BKN014=
201103090420 METAR COR EGLL 090420Z 23012KT 9999 SCT020 05/02 Q1014 TEMPO
                        BKN014=
201103090350 METAR COR EGLL 090350Z 23009KT 9999 SCT030 05/02 Q1014 TEMPO
                        BKN014=
201103090320 METAR COR EGLL 090320Z 23009KT 9999 FEW015 05/02 Q1015 TEMPO
                        BKN014=
201103090250 METAR COR EGLL 090250Z 23011KT 9999 BKN015 05/01 Q1015 TEMPO
                        BKN012=
201103090220 METAR EGLL 090220Z AUTO 24011KT 9999NDV SCT019/// BKN032///
                        04/01 Q1015=
201103090120 METAR EGLL 090120Z AUTO 23008KT 7000NDV NCD 04/01 Q1016=
201103090050 METAR COR EGLL 090050Z 22008KT 8000 NSC 04/01 Q1015 NOSIG=
201103090020 METAR COR EGLL 090020Z 23008KT 8000 NSC 04/01 Q1015 NOSIG=
201103082350 METAR COR EGLL 082350Z 25009KT 8000 NSC 04/01 Q1016 NOSIG=
201103082320 METAR COR EGLL 082320Z 25011KT 8000 NSC 04/01 Q1016 NOSIG=
201103082250 METAR COR EGLL 082250Z 25008KT 7000 NSC 04/01 Q1017 NOSIG=
201103082220 METAR COR EGLL 082220Z 24010KT 6000 BKN025 05/01 Q1017 NOSIG=
201103082150 METAR COR EGLL 082150Z 25010KT 5000 HZ BKN025 05/02 Q1018
                        TEMPO 4000 BR=
201103082120 METAR COR EGLL 082120Z 25010KT 5000 HZ FEW025 05/02 Q1018
                        TEMPO 4000 BR=
201103082050 METAR COR EGLL 082050Z 23010KT 6000 NSC 05/02 Q1017 NOSIG=
201103082020 METAR COR EGLL 082020Z 22010KT 7000 NSC 06/02 Q1017 NOSIG=
201103081950 METAR COR EGLL 081950Z 22009KT 7000 NSC 06/02 Q1017 NOSIG=
201103081920 METAR COR EGLL 081920Z 21010KT 7000 NSC 07/02 Q1017 NOSIG=
201103081850 METAR COR EGLL 081850Z 21008KT 7000 FEW036 08/02 Q1018 NOSIG=
201103081820 METAR EGLL 081820Z AUTO 23009KT 200V260 8000NDV FEW037///
                        09/03 Q1018=
201103081750 METAR COR EGLL 081750Z 22009KT 8000 FEW037 09/03 Q1017 NOSIG=
201103081720 METAR COR EGLL 081720Z 22011KT 9000 FEW036 09/02 Q1017 NOSIG=
201103081650 METAR COR EGLL 081650Z 22011KT 9000 NSC 10/02 Q1017 NOSIG=
201103081620 METAR COR EGLL 081620Z 23012KT CAVOK 11/02 Q1017 NOSIG=
201103081550 METAR COR EGLL 081550Z 22011KT 200V260 CAVOK 11/02 Q1017
                        NOSIG=
201103081520 METAR COR EGLL 081520Z 22012KT CAVOK 12/01 Q1017 NOSIG=
201103081450 METAR COR EGLL 081450Z 23011KT 190V260 CAVOK 12/01 Q1018
                        NOSIG=
201103081420 METAR COR EGLL 081420Z 23011KT 190V270 CAVOK 12/00 Q1018
                        NOSIG=
201103081350 METAR COR EGLL 081350Z 24013KT 210V270 CAVOK 12/00 Q1019
                        NOSIG=
201103081320 METAR COR EGLL 081320Z 24011KT CAVOK 12/00 Q1019 NOSIG=
201103081250 METAR COR EGLL 081250Z 24011KT CAVOK 11/02 Q1020 NOSIG=
201103081220 METAR COR EGLL 081220Z 21010KT 170V250 CAVOK 11/01 Q1020
                        NOSIG=
201103081150 METAR COR EGLL 081150Z 23010KT CAVOK 10/00 Q1021 NOSIG=
201103081120 METAR COR EGLL 081120Z 21007KT 170V250 9000 NSC 09/02 Q1021
                        NOSIG=
201103081050 METAR COR EGLL 081050Z 22007KT 170V260 9000 NSC 08/02 Q1021
                        NOSIG=
201103081020 METAR COR EGLL 081020Z 23006KT 200V300 8000 NSC 06/01 Q1022
                        NOSIG=
201103080950 METAR COR EGLL 080950Z 24006KT 200V280 7000 NSC 04/01 Q1022
                        NOSIG=
201103080920 METAR COR EGLL 080920Z 29004KT 250V330 6000 NSC 03/00 Q1022
                        NOSIG=
201103080850 METAR COR EGLL 080850Z 00000KT 6000 NSC 02/M00 Q1022 NOSIG=
201103080820 METAR COR EGLL 080820Z VRB02KT 5000 BR NSC 00/M01 Q1022 NOSIG=
201103080750 METAR COR EGLL 080750Z 00000KT 5000 BR NSC M01/M02 Q1022
                        NOSIG=
201103080720 METAR COR EGLL 080720Z 36003KT 5000 BR NSC M02/M03 Q1022
                        NOSIG=
201103080650 METAR COR EGLL 080650Z 00000KT 5000 HZ NSC M03/M04 Q1022
                        NOSIG=
201103080620 METAR COR EGLL 080620Z 00000KT 6000 NSC M02/M03 Q1022 NOSIG=
201103080550 METAR COR EGLL 080550Z 00000KT 8000 NSC M03/M04 Q1022 NOSIG=
201103080520 METAR COR EGLL 080520Z 00000KT 8000 NSC M02/M03 Q1023 NOSIG=
201103080450 METAR COR EGLL 080450Z 36002KT 8000 NSC M02/M03 Q1023 NOSIG=
201103080420 METAR COR EGLL 080420Z 00000KT 8000 NSC M03/M04 Q1023 NOSIG=
201103080350 METAR COR EGLL 080350Z 00000KT 8000 NSC M02/M03 Q1023 NOSIG=
201103080320 METAR COR EGLL 080320Z 00000KT 8000 NSC M01/M03 Q1024 NOSIG=
201103080250 METAR COR EGLL 080250Z 00000KT 7000 NSC M01/M03 Q1024 NOSIG=
201103080220 METAR COR EGLL 080220Z 00000KT CAVOK M01/M03 Q1024 NOSIG=
201103080150 METAR EGLL 080150Z AUTO 00000KT 8000NDV ///////// 00/M02
                        Q1024=
201103080120 METAR EGLL 080120Z AUTO 00000KT 9000NDV ///////// 00/M02
                        Q1025=
201103080050 METAR EGLL 080050Z AUTO 00000KT 8000NDV ///////// 01/M02
                        Q1025=
201103080020 METAR COR EGLL 080020Z 00000KT CAVOK 01/M02 Q1025 NOSIG=
201103072350 METAR COR EGLL 072350Z 04003KT CAVOK 01/M02 Q1026 NOSIG=
201103072320 METAR COR EGLL 072320Z 01002KT CAVOK 02/M02 Q1026 NOSIG=
201103072250 METAR COR EGLL 072250Z 03003KT CAVOK 02/M02 Q1026 NOSIG=
201103072220 METAR COR EGLL 072220Z 36003KT CAVOK 02/M02 Q1027 NOSIG=
201103072150 METAR COR EGLL 072150Z 06004KT CAVOK 03/M01 Q1027 NOSIG=
201103072120 METAR COR EGLL 072120Z 09005KT CAVOK 02/M02 Q1027 NOSIG=
201103072050 METAR COR EGLL 072050Z 09006KT CAVOK 02/M02 Q1027 NOSIG=
201103072020 METAR COR EGLL 072020Z 09006KT CAVOK 02/M02 Q1027 NOSIG=
201103071950 METAR COR EGLL 071950Z 09007KT CAVOK 03/M03 Q1027 NOSIG=
201103071920 METAR COR EGLL 071920Z 10009KT CAVOK 03/M04 Q1027 NOSIG=
201103071850 METAR EGLL 071850Z 10008KT CAVOK 04/M06 Q1027=
201103071820 METAR COR EGLL 071820Z 10009KT CAVOK 05/M06 Q1027 NOSIG=
201103071750 METAR COR EGLL 071750Z 09010KT CAVOK 05/M05 Q1027 NOSIG=
201103071720 METAR COR EGLL 071720Z 09009KT CAVOK 06/M04 Q1027 NOSIG=
201103071650 METAR COR EGLL 071650Z 09010KT CAVOK 07/M03 Q1027 NOSIG=
201103071620 METAR COR EGLL 071620Z 09008KT CAVOK 08/M02 Q1027 NOSIG=
201103071550 METAR COR EGLL 071550Z 10008KT CAVOK 09/M02 Q1027 NOSIG=
201103071520 METAR COR EGLL 071520Z 08008KT CAVOK 09/M02 Q1027 NOSIG=
201103071450 METAR COR EGLL 071450Z 10008KT CAVOK 10/M03 Q1028 NOSIG=
201103071420 METAR COR EGLL 071420Z 09008KT 030V120 CAVOK 10/M02 Q1028
                        NOSIG=
201103071350 METAR COR EGLL 071350Z 09006KT CAVOK 10/M02 Q1028 NOSIG=
201103071320 METAR COR EGLL 071320Z 08008KT 050V120 CAVOK 10/M02 Q1029
                        NOSIG=
201103071250 METAR COR EGLL 071250Z 08006KT 030V120 CAVOK 09/M02 Q1029
                        NOSIG=
201103071220 METAR COR EGLL 071220Z 09007KT 040V150 CAVOK 09/M01 Q1030
                        NOSIG=
201103071150 METAR COR EGLL 071150Z 09008KT 050V120 CAVOK 09/M01 Q1030
                        NOSIG=
201103071120 METAR COR EGLL 071120Z 09008KT 050V120 CAVOK 08/M01 Q1030
                        NOSIG=
201103071050 METAR COR EGLL 071050Z 08008KT CAVOK 07/M02 Q1030 NOSIG=
201103071020 METAR COR EGLL 071020Z 10007KT 070V130 CAVOK 07/M01 Q1031
                        NOSIG=
201103070950 METAR COR EGLL 070950Z 10010KT CAVOK 06/M00 Q1031 NOSIG=
201103070920 METAR COR EGLL 070920Z 09007KT 050V110 CAVOK 05/00 Q1031
                        NOSIG=
201103070850 METAR COR EGLL 070850Z 07006KT CAVOK 04/M00 Q1031 NOSIG=
201103070820 METAR COR EGLL 070820Z 06005KT 020V080 CAVOK 03/M00 Q1031
                        NOSIG=
201103070750 METAR COR EGLL 070750Z 05004KT 020V080 CAVOK 01/M01 Q1031
                        NOSIG=
201103070720 METAR COR EGLL 070720Z 05005KT CAVOK 01/M01 Q1031 NOSIG=
201103070650 METAR COR EGLL 070650Z 04005KT CAVOK 00/M01 Q1031 NOSIG=
201103070620 METAR COR EGLL 070620Z 04005KT CAVOK 01/M01 Q1031 NOSIG=
201103070550 METAR COR EGLL 070550Z 04005KT CAVOK 01/M01 Q1031 NOSIG=
201103070520 METAR COR EGLL 070520Z 04005KT CAVOK 01/M01 Q1031 NOSIG=
201103070450 METAR COR EGLL 070450Z 05005KT CAVOK 01/M01 Q1031 NOSIG=
201103070420 METAR COR EGLL 070420Z 05005KT CAVOK 01/M02 Q1031 NOSIG=
201103070350 METAR COR EGLL 070350Z 04004KT CAVOK 01/M02 Q1031 NOSIG=
201103070320 METAR COR EGLL 070320Z 05004KT CAVOK 01/M01 Q1031 NOSIG=
201103070250 METAR COR EGLL 070250Z 05004KT CAVOK 02/M01 Q1031 NOSIG=
201103070220 METAR COR EGLL 070220Z 06004KT CAVOK 02/M02 Q1031 NOSIG=
201103070150 METAR EGLL 070150Z AUTO 06005KT 9999NDV NCD 02/M02 Q1031=
201103070120 METAR EGLL 070120Z AUTO 06005KT 9999NDV FEW021/// 02/M02
                        Q1031=
201103070050 METAR EGLL 070050Z AUTO 06005KT 9999NDV SCT022/// 03/M02
                        Q1031=
201103070020 METAR COR EGLL 070020Z 07005KT 9999 BKN022 03/M02 Q1031 NOSIG=
201103062350 METAR COR EGLL 062350Z 09009KT 9999 SCT023 03/M02 Q1032 NOSIG=
201103062320 METAR COR EGLL 062320Z 08010KT 9999 BKN024 03/M02 Q1032 NOSIG=
201103062250 METAR COR EGLL 062250Z 09012KT 9999 BKN024 03/M02 Q1032 NOSIG=
201103062220 METAR COR EGLL 062220Z 09010KT 9999 BKN025 03/M02 Q1032 NOSIG=
201103062150 METAR COR EGLL 062150Z 09010KT 9999 BKN025 04/M02 Q1032 NOSIG=
201103062120 METAR COR EGLL 062120Z 08007KT 9999 BKN025 04/M02 Q1032 NOSIG=
201103062050 METAR COR EGLL 062050Z 07007KT 9999 BKN025 03/M02 Q1032 NOSIG=
201103062020 METAR COR EGLL 062020Z 07008KT 9999 BKN025 03/M02 Q1032 NOSIG=
201103061950 METAR COR EGLL 061950Z 08007KT 9999 BKN025 03/M02 Q1031 NOSIG=
201103061920 METAR COR EGLL 061920Z 07009KT 9999 BKN025 03/M02 Q1031 NOSIG=
201103061850 METAR COR EGLL 061850Z 07008KT 9999 BKN025 04/M02 Q1031 NOSIG=
201103061820 METAR COR EGLL 061820Z 07009KT 9999 BKN026 04/M02 Q1031 NOSIG=
201103061750 METAR COR EGLL 061750Z 07009KT 040V100 9999 SCT025 04/M01
                        Q1031 NOSIG=
201103061720 METAR COR EGLL 061720Z 08009KT 9999 SCT025 04/M02 Q1031 NOSIG=
201103061650 METAR COR EGLL 061650Z 08009KT 9999 SCT030 05/M01 Q1031 NOSIG=
201103061620 METAR COR EGLL 061620Z 08009KT 9999 SCT030 05/M01 Q1031 NOSIG=
201103061550 METAR COR EGLL 061550Z 09010KT 050V120 9999 SCT030 06/M01
                        Q1031 NOSIG=
201103061520 METAR COR EGLL 061520Z 10010KT 060V130 9999 SCT030 06/M01
                        Q1031 NOSIG=
201103061450 METAR COR EGLL 061450Z 11011KT 9999 SCT030 06/M00 Q1031 NOSIG=
201103061420 METAR COR EGLL 061420Z 07010KT 040V100 9999 SCT030 07/M00
                        Q1031 NOSIG=
201103061350 METAR COR EGLL 061350Z 09009KT 9999 FEW030 07/M01 Q1031 NOSIG=
201103061320 METAR COR EGLL 061320Z 11012KT 9999 FEW030 07/M00 Q1032 NOSIG=
201103061250 METAR COR EGLL 061250Z 08010KT 050V120 9999 FEW028 07/M00
                        Q1032 NOSIG=
201103061220 METAR COR EGLL 061220Z 10012KT 9999 SCT028 07/M00 Q1032 NOSIG=
201103061150 METAR COR EGLL 061150Z 10010KT 9999 SCT027 06/M00 Q1032 NOSIG=
201103061120 METAR COR EGLL 061120Z 08010KT 9999 BKN027 05/M01 Q1032 NOSIG=
201103061050 METAR COR EGLL 061050Z 07010KT 9999 BKN026 05/M01 Q1032 NOSIG=
201103061020 METAR COR EGLL 061020Z 06010KT 9999 BKN025 05/M01 Q1032 NOSIG=
201103060950 METAR COR EGLL 060950Z 06009KT 9999 BKN026 05/M01 Q1032 NOSIG=
201103060920 METAR COR EGLL 060920Z 07009KT 9999 BKN024 04/M01 Q1032 NOSIG=
201103060850 METAR COR EGLL 060850Z 06010KT 9999 BKN024 04/M01 Q1032 NOSIG=
201103060820 METAR COR EGLL 060820Z 07010KT 9999 BKN023 04/M01 Q1032 NOSIG=
201103060750 METAR COR EGLL 060750Z 07010KT 9999 BKN024 04/M01 Q1032 NOSIG=
201103060720 METAR COR EGLL 060720Z 07010KT 9999 BKN025 04/M01 Q1031 NOSIG=
201103060650 METAR COR EGLL 060650Z 07010KT 9999 BKN024 04/M01 Q1031 NOSIG=
201103060620 METAR COR EGLL 060620Z 07009KT 040V100 9999 OVC023 04/M01
                        Q1031 NOSIG=
201103060550 METAR COR EGLL 060550Z 07009KT 9999 BKN025 04/M01 Q1031 NOSIG=
201103060520 METAR COR EGLL 060520Z 07010KT 9999 BKN025 04/M01 Q1031 NOSIG=
201103060450 METAR COR EGLL 060450Z 07009KT 9999 BKN026 04/M01 Q1031 NOSIG=
201103060420 METAR COR EGLL 060420Z 07010KT 9999 BKN025 04/M01 Q1031 NOSIG=
201103060350 METAR COR EGLL 060350Z 07010KT 9999 BKN027 04/M01 Q1031 NOSIG=
201103060320 METAR COR EGLL 060320Z 06010KT 9999 BKN026 04/M01 Q1031 NOSIG=
201103060250 METAR COR EGLL 060250Z 07010KT 9999 BKN027 04/M00 Q1031 NOSIG=
201103060220 METAR COR EGLL 060220Z 07009KT 9999 FEW025 BKN028 04/M00
                        Q1031 NOSIG=
201103060150 METAR COR EGLL 060150Z 07008KT 9999 BKN026 04/M00 Q1031 NOSIG=
201103060120 METAR COR EGLL 060120Z 06009KT 9999 BKN027 04/00 Q1031 NOSIG=
201103060050 METAR COR EGLL 060050Z 06009KT 9999 BKN023 05/00 Q1031 NOSIG=
201103060020 METAR COR EGLL 060020Z 07008KT 9999 BKN022 05/01 Q1031 NOSIG=
201103052350 METAR EGLL 052350Z 06008KT 9999 FEW019 BKN022 05/01 Q1031=
201103052320 METAR COR EGLL 052320Z 06010KT 9999 BKN021 05/02 Q1031 NOSIG=
201103052250 METAR COR EGLL 052250Z 07010KT 9999 BKN018 05/02 Q1031 NOSIG=
201103052220 METAR COR EGLL 052220Z 07009KT 9999 BKN014 05/02 Q1031 BECMG
                        BKN018=
201103052150 METAR COR EGLL 052150Z 07010KT 9999 FEW008 BKN014 05/03 Q1031
                        BECMG BKN018=
201103052120 METAR EGLL 052120Z AUTO 06009KT 2500NDV -RA OVC005/// 05/04
                        Q1030=
201103052050 METAR EGLL 052050Z AUTO 06008KT 9999NDV FEW008/// SCT010///
                        BKN022/// 06/04 Q1030=
201103052020 METAR EGLL 052020Z AUTO 06007KT 020V080 6000NDV BKN010///
                        BKN024/// 06/05 Q1030=
201103051950 METAR EGLL 051950Z AUTO 05006KT 020V080 5000NDV BKN006///
                        BKN024/// 06/04 Q1030=
201103051920 METAR EGLL 051920Z AUTO 05005KT 020V080 2600NDV HZ FEW007///
                        BKN010/// 06/04 Q1030=
201103051850 METAR EGLL 051850Z AUTO 04006KT 010V090 8000NDV BKN014///
                        BKN024/// 07/03 Q1030=
201103051820 METAR EGLL 051820Z AUTO 04006KT 8000NDV SCT018/// BKN026///
                        07/03 Q1029=
201103051750 METAR EGLL 051750Z AUTO 05005KT 020V090 9999NDV BKN018///
                        BKN024/// 07/03 Q1029=
201103051720 METAR EGLL 051720Z AUTO 06006KT 010V080 9999NDV BKN023///
                        07/02 Q1029=
201103051650 METAR EGLL 051650Z AUTO 04006KT 360V080 9999NDV FEW023///
                        OVC030/// 07/02 Q1029=
201103051620 METAR EGLL 051620Z AUTO 04006KT 350V070 9999NDV BKN026///
                        07/02 Q1029=
201103051550 METAR EGLL 051550Z AUTO 05006KT 020V080 9999NDV BKN028///
                        07/02 Q1029=
201103051520 METAR COR EGLL 051520Z 05007KT 9999 BKN029 07/01 Q1029 NOSIG=
201103051450 METAR COR EGLL 051450Z 07007KT 020V100 9999 SCT028 BKN033
                        07/01 Q1030 NOSIG=
201103051420 METAR COR EGLL 051420Z 09008KT 060V130 9999 SCT024 SCT031
                        07/01 Q1030 NOSIG=
201103051350 METAR COR EGLL 051350Z 08009KT 9999 SCT022 SCT030 07/01 Q1030
                        NOSIG=
201103051320 METAR COR EGLL 051320Z 08011KT 9999 BKN020 06/01 Q1030 NOSIG=
201103051250 METAR COR EGLL 051250Z 07008KT 9999 BKN020 06/00 Q1030 NOSIG=
201103051220 METAR COR EGLL 051220Z 08008KT 9999 BKN020 05/00 Q1031 NOSIG=
201103051150 METAR COR EGLL 051150Z 07009KT 9999 BKN019 05/00 Q1031 NOSIG=
201103051120 METAR COR EGLL 051120Z 06006KT 9999 BKN020 04/M00 Q1031 NOSIG=
201103051050 METAR COR EGLL 051050Z 08007KT 9999 BKN020 04/M00 Q1031 NOSIG=
201103051020 METAR COR EGLL 051020Z 04006KT 010V080 9999 BKN017 03/M01
                        Q1031 NOSIG=
201103050950 METAR COR EGLL 050950Z 06005KT 030V090 9999 BKN017 03/M01
                        Q1031 NOSIG=
201103050920 METAR COR EGLL 050920Z 08007KT 9999 BKN017 03/M01 Q1031 NOSIG=
201103050850 METAR COR EGLL 050850Z 07005KT 9999 BKN016 02/M01 Q1031 NOSIG=
201103050820 METAR COR EGLL 050820Z 07004KT 030V100 9999 BKN011 01/M02
                        Q1031 NOSIG=
201103050750 METAR COR EGLL 050750Z 06006KT 020V090 9000 OVC011 01/M02
                        Q1031 NOSIG=
201103050720 METAR COR EGLL 050720Z 07007KT 8000 OVC011 01/M01 Q1031 NOSIG=
201103050650 METAR COR EGLL 050650Z 06005KT 020V090 7000 BKN010 01/M01
                        Q1031 TEMPO BKN009=
201103050620 METAR COR EGLL 050620Z 03005KT 350V070 8000 BKN010 01/M01
                        Q1031 NOSIG=
201103050550 METAR COR EGLL 050550Z 04004KT 010V080 7000 BKN010 01/M01
                        Q1031 NOSIG=
201103050520 METAR COR EGLL 050520Z 07005KT 6000 BKN009 01/M01 Q1031 TEMPO
                        4000=
201103050450 METAR COR EGLL 050450Z 04005KT 360V080 6000 BKN009 01/M01
                        Q1031 TEMPO 4000=
201103050420 METAR COR EGLL 050420Z 05004KT 020V080 6000 BKN009 01/M01
                        Q1031 TEMPO 4000=
201103050350 METAR COR EGLL 050350Z 04005KT 360V070 4000 BR BKN006 01/M00
                        Q1031 NOSIG=
201103050320 METAR COR EGLL 050320Z 03006KT 360V070 3000 BR SCT004 SCT005
                        01/00 Q1031 TEMPO 2500 BKN004=
201103050250 METAR COR EGLL 050250Z 04004KT 360V080 2500 BR FEW003 BKN004
                        01/M00 Q1031 TEMPO 3000 BKN006=
201103050220 METAR COR EGLL 050220Z 02005KT 340V060 2100 BR FEW003 BKN005
                        01/M00 Q1031 TEMPO BKN004=
201103050150 METAR COR EGLL 050150Z 02004KT 340V070 3400 BR FEW006 BKN008
                        02/00 Q1031 NOSIG=
201103050120 METAR COR EGLL 050120Z 03004KT 340V060 4000 BR BKN008 02/00
                        Q1031 NOSIG=
201103050050 METAR COR EGLL 050050Z 06004KT 010V100 4500 BR BKN009 02/00
                        Q1031 TEMPO 5000 BKN010=
201103050020 METAR COR EGLL 050020Z 02004KT 330V060 5000 BR BKN010 02/00
                        Q1031 NOSIG=
201103042350 METAR EGLL 042350Z VRB03KT 5000 BR BKN010 01/M00 Q1031=
201103042320 METAR COR EGLL 042320Z VRB03KT 6000 SCT010 01/M01 Q1032 TEMPO
                        BKN010=
201103042250 METAR COR EGLL 042250Z 04003KT 7000 NSC 02/M01 Q1032 TEMPO
                        BKN012=
201103042220 METAR COR EGLL 042220Z VRB03KT 8000 NSC 02/M00 Q1032 NOSIG=
201103042150 METAR COR EGLL 042150Z VRB03KT 9000 NSC 03/M00 Q1032 NOSIG=
201103042120 METAR COR EGLL 042120Z 04004KT 9000 NSC 03/M00 Q1032 NOSIG=
201103042050 METAR COR EGLL 042050Z 07004KT 020V090 9000 NSC 03/M01 Q1032
                        NOSIG=
201103042020 METAR COR EGLL 042020Z 01003KT 9000 NSC 04/M01 Q1032 NOSIG=
201103041950 METAR COR EGLL 041950Z VRB03KT CAVOK 04/M01 Q1032 NOSIG=
201103041920 METAR COR EGLL 041920Z 02004KT 340V050 CAVOK 04/M00 Q1031
                        NOSIG=
201103041850 METAR COR EGLL 041850Z 02005KT 330V060 CAVOK 05/M00 Q1031
                        NOSIG=
201103041820 METAR COR EGLL 041820Z 03004KT CAVOK 05/M00 Q1031 NOSIG=
201103041750 METAR COR EGLL 041750Z 04004KT 360V080 CAVOK 06/M00 Q1031
                        NOSIG=
201103041720 METAR COR EGLL 041720Z 06005KT 020V090 CAVOK 07/M00 Q1031
                        NOSIG=
201103041650 METAR COR EGLL 041650Z 05005KT CAVOK 07/M01 Q1031 NOSIG=
201103041620 METAR COR EGLL 041620Z 05005KT 010V080 CAVOK 07/M01 Q1031
                        NOSIG=
201103041550 METAR COR EGLL 041550Z 05005KT 360V100 CAVOK 07/M01 Q1031
                        NOSIG=
201103041520 METAR COR EGLL 041520Z 03005KT 350V070 CAVOK 07/M01 Q1031
                        NOSIG=
201103041450 METAR COR EGLL 041450Z 09004KT 040V120 CAVOK 07/M01 Q1032
                        NOSIG=
201103041420 METAR EGLL 041420Z 05005KT 010V090 CAVOK 07/M01 Q1032=
201103041350 METAR EGLL 041350Z 05004KT 330V110 CAVOK 07/M01 Q1032=
201103041320 METAR COR EGLL 041320Z 06005KT 020V100 CAVOK 06/M01 Q1032
                        NOSIG=
201103041250 METAR COR EGLL 041250Z 06006KT 020V110 CAVOK 06/M01 Q1033
                        NOSIG=
201103041220 METAR COR EGLL 041220Z 05005KT 010V110 9999 FEW022 05/M01
                        Q1033 NOSIG=
201103041150 METAR COR EGLL 041150Z 06007KT 020V100 9000 SCT020 05/M01
                        Q1034 NOSIG=
201103041120 METAR COR EGLL 041120Z 04006KT 360V080 9000 BKN020 04/M01
                        Q1034 NOSIG=
201103041050 METAR COR EGLL 041050Z 03008KT 360V080 9000 BKN019 03/M02
                        Q1034 NOSIG=
201103041020 METAR COR EGLL 041020Z 05006KT 010V090 9000 BKN017 02/M02
                        Q1034 NOSIG=
201103040950 METAR COR EGLL 040950Z 06008KT 020V080 9999 SCT016 02/M02
                        Q1034 NOSIG=
201103040920 METAR COR EGLL 040920Z 05006KT 010V080 9999 BKN016 02/M02
                        Q1034 NOSIG=
201103040850 METAR COR EGLL 040850Z 04006KT 010V070 9999 BKN016 02/M02
                        Q1034 NOSIG=
201103040820 METAR EGLL 040820Z 04006KT 360V090 9999 BKN016 01/M02 Q1034=
201103040750 METAR COR EGLL 040750Z 06007KT 9999 BKN015 01/M02 Q1034 NOSIG=
201103040720 METAR COR EGLL 040720Z 07007KT 020V100 9999 BKN015 01/M02
                        Q1034 NOSIG=
201103040650 METAR COR EGLL 040650Z 06007KT 9999 BKN015 01/M03 Q1034 NOSIG=
201103040620 METAR COR EGLL 040620Z 06006KT 9999 BKN015 01/M02 Q1033 TEMPO
                        BKN014=
201103040550 METAR COR EGLL 040550Z 07007KT 9999 BKN016 01/M02 Q1033 TEMPO
                        BKN014=
201103040520 METAR COR EGLL 040520Z 06006KT 020V090 9999 BKN016 01/M02
                        Q1033 TEMPO BKN014=
201103040450 METAR COR EGLL 040450Z 05006KT 020V080 9999 OVC015 01/M02
                        Q1034 TEMPO BKN014=
201103040420 METAR EGLL 040420Z 05007KT 9000 BKN017 01/M02 Q1034=
201103040350 METAR COR EGLL 040350Z 05007KT 9000 BKN015 01/M02 Q1034 TEMPO
                        BKN012=
201103040320 METAR COR EGLL 040320Z 04007KT 360V060 9000 BKN015 01/M02
                        Q1034 TEMPO BKN014=
201103040250 METAR COR EGLL 040250Z 04005KT 360V090 8000 BKN014 01/M02
                        Q1034 NOSIG=
201103040220 METAR COR EGLL 040220Z 04006KT 360V080 9999 BKN014 01/M02
                        Q1034 NOSIG=
201103040150 METAR COR EGLL 040150Z 05006KT 020V080 9000 BKN013 01/M02
                        Q1034 NOSIG=
201103040120 METAR COR EGLL 040120Z 04007KT 360V070 9000 BKN013 01/M02
                        Q1034 NOSIG=
201103040050 METAR COR EGLL 040050Z 05007KT 9000 SCT013 01/M02 Q1034 TEMPO
                        BKN013=
201103040020 METAR COR EGLL 040020Z 04008KT 9000 SCT013 01/M02 Q1034 TEMPO
                        BKN013=
201103032350 METAR COR EGLL 032350Z 05008KT 010V070 9000 BKN014 02/M02
                        Q1034 NOSIG=
201103032320 METAR COR EGLL 032320Z 05007KT 9000 BKN014 02/M02 Q1035 NOSIG=
201103032250 METAR COR EGLL 032250Z 03006KT 350V060 9000 BKN015 02/M02
                        Q1035 TEMPO BKN014=
201103032220 METAR COR EGLL 032220Z 05007KT 010V070 9000 BKN014 02/M01
                        Q1035 NOSIG=
201103032150 METAR EGLL 032150Z 05005KT 010V090 9000 BKN015 02/M01 Q1035=
201103032120 METAR COR EGLL 032120Z 05005KT 010V080 9000 BKN015 02/M01
                        Q1035 BECMG BKN014=
201103032050 METAR COR EGLL 032050Z 05005KT 020V100 9000 BKN015 02/M01
                        Q1035 BECMG BKN014=
201103032020 METAR COR EGLL 032020Z 04008KT 360V070 9000 BKN014 02/M01
                        Q1035 NOSIG=
201103031950 METAR COR EGLL 031950Z 04005KT 010V080 9000 BKN016 02/M01
                        Q1035 BECMG BKN014=
201103031920 METAR COR EGLL 031920Z 05008KT 010V080 9000 SCT016 02/M01
                        Q1035 NOSIG=
201103031850 METAR COR EGLL 031850Z 04004KT 360V110 9999 FEW017 02/M01
                        Q1035 NOSIG=
201103031820 METAR COR EGLL 031820Z 04006KT 010V070 9999 SCT018 03/M01
                        Q1035 NOSIG=
201103031750 METAR COR EGLL 031750Z 02007KT 350V050 9999 SCT018 03/M01
                        Q1035 NOSIG=
201103031720 METAR COR EGLL 031720Z 02008KT 330V050 9999 SCT020 03/M01
                        Q1034 NOSIG=
201103031650 METAR COR EGLL 031650Z 03007KT 9999 BKN020 04/M01 Q1034 NOSIG=
201103031620 METAR COR EGLL 031620Z 03007KT 9999 BKN020 04/M00 Q1034 NOSIG=
201103031550 METAR COR EGLL 031550Z 03008KT 350V060 9999 BKN020 04/M00
                        Q1034 NOSIG=
201103031520 METAR COR EGLL 031520Z 03007KT 340V070 9999 BKN019 04/M00
                        Q1034 NOSIG=
201103031450 METAR EGLL 031450Z 03008KT 350V070 9999 BKN019 04/M00 Q1035=
201103031420 METAR COR EGLL 031420Z 04008KT 360V080 9999 BKN015 04/00
                        Q1035 NOSIG=
201103031350 METAR COR EGLL 031350Z 04008KT 010V070 8000 BKN016 04/00
                        Q1035 TEMPO BKN014=
201103031320 METAR COR EGLL 031320Z 05006KT 360V080 9000 OVC016 04/00
                        Q1035 NOSIG=
201103031250 METAR COR EGLL 031250Z 05007KT 020V090 8000 BKN014 04/00
                        Q1035 BECMG BKN015=
201103031220 METAR COR EGLL 031220Z 05008KT 8000 BKN011 03/00 Q1036 NOSIG=
201103031150 METAR COR EGLL 031150Z 04009KT 350V070 7000 BKN013 03/00
                        Q1036 NOSIG=
201103031120 METAR COR EGLL 031120Z 05010KT 020V080 7000 BKN013 03/00
                        Q1036 NOSIG=
201103031050 METAR COR EGLL 031050Z 04008KT 010V090 6000 FEW008 OVC010
                        03/00 Q1036 NOSIG=
201103031020 METAR COR EGLL 031020Z 04007KT 360V080 5000 HZ FEW007 OVC010
                        03/00 Q1036 NOSIG=
201103030950 METAR COR EGLL 030950Z 03008KT 350V070 5000 HZ OVC007 02/00
                        Q1036 BECMG BKN011=
201103030920 METAR COR EGLL 030920Z 04005KT 350V080 5000 HZ BKN008 02/M00
                        Q1036 BECMG BKN011=
201103030850 METAR COR EGLL 030850Z 03007KT 340V060 5000 HZ BKN010 02/M01
                        Q1036 NOSIG=
201103030820 METAR COR EGLL 030820Z 03008KT 360V070 5000 HZ BKN011 02/M01
                        Q1036 NOSIG=
201103030750 METAR COR EGLL 030750Z 04006KT 340V070 5000 HZ BKN011 02/M01
                        Q1036 NOSIG=
201103030720 METAR COR EGLL 030720Z 04008KT 360V080 5000 HZ OVC010 01/M01
                        Q1036 NOSIG=
201103030650 METAR COR EGLL 030650Z 04008KT 010V080 6000 OVC011 01/M01
                        Q1036 NOSIG=
201103030620 METAR COR EGLL 030620Z 04006KT 360V080 5000 HZ OVC010 01/M01
                        Q1036 TEMPO BKN009=
201103030550 METAR COR EGLL 030550Z 03008KT 5000 HZ OVC010 01/M01 Q1036
                        TEMPO BKN009=
201103030520 METAR COR EGLL 030520Z 03008KT 350V070 5000 HZ OVC010 01/M01
                        Q1036 TEMPO BKN009=
201103030450 METAR COR EGLL 030450Z 04006KT 360V080 4800 HZ BKN009 01/M01
                        Q1036 BECMG 5000=
201103030420 METAR COR EGLL 030420Z 03006KT 340V060 4700 HZ BKN009 01/M01
                        Q1036 BECMG 5000=
201103030350 METAR COR EGLL 030350Z 04006KT 4200 HZ BKN008 00/M02 Q1035
                        NOSIG=
201103030320 METAR COR EGLL 030320Z 04006KT 360V070 4100 HZ BKN008 00/M02
                        Q1035 NOSIG=
201103030250 METAR COR EGLL 030250Z 04005KT 010V070 4000 HZ BKN009 00/M02
                        Q1035 NOSIG=
201103030220 METAR EGLL 030220Z AUTO 04005KT 350V070 3900NDV HZ BKN009///
                        00/M02 Q1036=
201103030150 METAR EGLL 030150Z AUTO 03005KT 340V050 3400NDV HZ BKN008///
                        00/M02 Q1036=
201103030120 METAR EGLL 030120Z AUTO 02005KT 350V050 3300NDV HZ SCT008///
                        M00/M02 Q1036=
201103030050 METAR COR EGLL 030050Z 02005KT 340V050 3500 HZ FEW008 M00/M02
                        Q1036 BECMG BKN010=
201103030020 METAR COR EGLL 030020Z 03004KT 340V080 3200 HZ FEW008 00/M02
                        Q1036 BECMG BKN010=
201103022350 METAR COR EGLL 022350Z 03006KT 360V060 3200 HZ FEW008 00/M01
                        Q1036 BECMG BKN010=
201103022320 METAR COR EGLL 022320Z 03006KT 350V060 3300 HZ NSC 01/M01
                        Q1036 BECMG BKN010=
201103022250 METAR COR EGLL 022250Z 02004KT 340V070 3400 HZ FEW008 01/M01
                        Q1036 BECMG BKN010=
201103022220 METAR COR EGLL 022220Z 03005KT 340V060 3300 HZ FEW009 01/M01
                        Q1036 BECMG BKN009=
201103022150 METAR COR EGLL 022150Z VRB03KT 4000 HZ NSC 02/M00 Q1036 BECMG
                        BKN010=
201103022120 METAR COR EGLL 022120Z 02004KT 350V060 4300 HZ NSC 02/M00
                        Q1035 BECMG BKN012=
201103022050 METAR COR EGLL 022050Z VRB03KT 4500 HZ NSC 03/00 Q1035 BECMG
                        BKN012=
201103022020 METAR COR EGLL 022020Z 36004KT 340V040 4500 HZ NSC 03/00
                        Q1035 BECMG BKN012=
201103021950 METAR COR EGLL 021950Z 02004KT 340V050 4700 HZ NSC 03/01
                        Q1035 NOSIG=
201103021920 METAR COR EGLL 021920Z 04004KT 5000 HZ NSC 04/01 Q1035 NOSIG=
201103021850 METAR COR EGLL 021850Z 04006KT 5000 HZ NSC 04/01 Q1035 NOSIG=
201103021820 METAR COR EGLL 021820Z 04006KT 5000 HZ NSC 05/01 Q1035 NOSIG=
201103021750 METAR COR EGLL 021750Z 04005KT 350V090 5000 HZ NSC 05/01
                        Q1035 NOSIG=
201103021720 METAR COR EGLL 021720Z 02008KT 350V050 5000 HZ NSC 06/01
                        Q1035 NOSIG=
201103021650 METAR COR EGLL 021650Z 04008KT 6000 NSC 06/01 Q1035 NOSIG=
201103021620 METAR COR EGLL 021620Z 03008KT 340V060 6000 NSC 06/01 Q1035
                        NOSIG=
201103021550 METAR COR EGLL 021550Z 04009KT 6000 NSC 07/01 Q1035 NOSIG=
201103021520 METAR COR EGLL 021520Z 05010KT 6000 NSC 07/01 Q1035 NOSIG=
201103021450 METAR COR EGLL 021450Z 05009KT 010V110 6000 FEW021 06/00
                        Q1035 NOSIG=
201103021420 METAR COR EGLL 021420Z 04009KT 360V070 6000 BKN022 07/01
                        Q1035 NOSIG=
201103021350 METAR COR EGLL 021350Z 04010KT 010V070 7000 FEW021 06/01
                        Q1035 NOSIG=
201103021320 METAR COR EGLL 021320Z 06009KT 020V080 7000 SCT018 06/01
                        Q1036 NOSIG=
201103021250 METAR COR EGLL 021250Z 03010KT 350V070 5000 HZ SCT019 05/00
                        Q1036 BECMG NSW=
201103021220 METAR COR EGLL 021220Z 04010KT 360V080 5000 HZ BKN018 06/00
                        Q1036 BECMG NSW=
201103021150 METAR COR EGLL 021150Z 05009KT 5000 HZ BKN017 06/00 Q1036
                        BECMG NSW=
201103021120 METAR COR EGLL 021120Z 04008KT 010V080 5000 BR OVC016 05/00
                        Q1037 BECMG NSW=
201103021050 METAR COR EGLL 021050Z 04008KT 360V070 5000 HZ BKN015 05/00
                        Q1036 BECMG NSW=
201103021020 METAR COR EGLL 021020Z 05008KT 010V080 5000 HZ BKN014 04/00
                        Q1037 BECMG NSW SCT015=
201103020950 METAR COR EGLL 020950Z 06007KT 5000 HZ BKN013 04/00 Q1037
                        BECMG BKN015=
201103020920 METAR COR EGLL 020920Z 05008KT 6000 BKN013 04/00 Q1037 BECMG
                        BKN015=
201103020850 METAR COR EGLL 020850Z 04008KT 6000 BKN012 03/00 Q1037 BECMG
                        BKN015=
201103020820 METAR COR EGLL 020820Z 04008KT 360V080 6000 OVC012 03/00
                        Q1037 TEMPO BKN015=
201103020750 METAR COR EGLL 020750Z 04007KT 010V080 7000 OVC012 03/00
                        Q1037 TEMPO BKN015=
201103020720 METAR COR EGLL 020720Z 04007KT 9000 OVC012 03/M00 Q1037 NOSIG=
201103020650 METAR COR EGLL 020650Z 05008KT 020V080 9999 BKN014 03/M00
                        Q1036 NOSIG=
201103020620 METAR COR EGLL 020620Z 05009KT 020V090 9999 BKN015 03/M01
                        Q1036 TEMPO BKN012=
201103020550 METAR COR EGLL 020550Z 03007KT 360V060 9999 BKN017 03/M01
                        Q1036 TEMPO BKN014=
201103020520 METAR COR EGLL 020520Z 03007KT 340V060 9999 BKN019 03/M01
                        Q1036 TEMPO BKN014=
201103020450 METAR COR EGLL 020450Z 05007KT 010V080 9999 BKN014 03/M01
                        Q1036 NOSIG=
201103020420 METAR COR EGLL 020420Z 06008KT 020V090 9999 BKN014 03/M00
                        Q1036 NOSIG=
201103020350 METAR COR EGLL 020350Z 05007KT 010V080 9999 BKN014 03/M00
                        Q1036 NOSIG=
201103020320 METAR COR EGLL 020320Z 06010KT 9999 BKN014 03/M01 Q1037 NOSIG=
201103020250 METAR COR EGLL 020250Z 06009KT 020V080 9999 BKN015 03/M00
                        Q1037 TEMPO BKN012=
201103020220 METAR EGLL 020220Z AUTO 06011KT 9999NDV OVC013/// 03/M00
                        Q1037=
201103020150 METAR EGLL 020150Z AUTO 06009KT 9000NDV OVC012/// 03/M00
                        Q1037=
201103020120 METAR EGLL 020120Z AUTO 06007KT 9000NDV OVC012/// 03/M00
                        Q1037=
201103020050 METAR COR EGLL 020050Z 05007KT 9999 BKN013 03/M00 Q1038 NOSIG=
201103020020 METAR COR EGLL 020020Z 05009KT 9999 BKN013 03/M00 Q1038 NOSIG=
201103012350 METAR COR EGLL 012350Z 06009KT 9999 BKN014 03/M00 Q1038 NOSIG=
201103012320 METAR COR EGLL 012320Z 06009KT 9999 BKN015 03/M00 Q1038 TEMPO
                        BKN012=
201103012250 METAR COR EGLL 012250Z 06008KT 9000 BKN013 03/M00 Q1038 NOSIG=
201103012220 METAR COR EGLL 012220Z 06008KT 9000 BKN013 03/M00 Q1038 NOSIG=
201103012150 METAR COR EGLL 012150Z 05007KT 9000 BKN013 03/M00 Q1039 NOSIG=
201103012120 METAR COR EGLL 012120Z 06010KT 020V080 9999 BKN016 03/M00
                        Q1039 TEMPO BKN013=
201103012050 METAR COR EGLL 012050Z 06010KT 020V080 9999 BKN014 03/M00
                        Q1039 NOSIG=
201103012020 METAR COR EGLL 012020Z 06012KT 9999 BKN016 03/M00 Q1039 TEMPO
                        BKN012=
201103011950 METAR COR EGLL 011950Z 06010KT 9000 SCT015 SCT022 04/00 Q1039
                        TEMPO BKN011=
201103011920 METAR COR EGLL 011920Z 06010KT 9000 BKN014 04/01 Q1039 TEMPO
                        BKN016=
201103011850 METAR COR EGLL 011850Z 05008KT 010V080 9999 BKN017 04/00
                        Q1039 TEMPO BKN014=
201103011820 METAR COR EGLL 011820Z 05009KT 010V090 9999 BKN019 04/00
                        Q1039 NOSIG=
201103011750 METAR COR EGLL 011750Z 05008KT 360V080 9999 FEW020 BKN022
                        04/M00 Q1038 NOSIG=
201103011720 METAR COR EGLL 011720Z 03008KT 9999 FEW024 BKN029 04/M00
                        Q1038 NOSIG=
201103011650 METAR COR EGLL 011650Z 03008KT 360V070 9999 FEW022 BKN027
                        04/M00 Q1038 NOSIG=
201103011620 METAR COR EGLL 011620Z 03008KT 350V070 9999 BKN027 04/M00
                        Q1038 NOSIG=
201103011550 METAR COR EGLL 011550Z 03007KT 360V060 9999 FEW018 SCT021
                        BKN025 04/M00 Q1038 NOSIG=
201103011520 METAR COR EGLL 011520Z 02006KT 350V050 9999 FEW024 BKN028
                        05/00 Q1038 NOSIG=
201103011450 METAR COR EGLL 011450Z 03007KT 340V060 9999 FEW020 BKN024
                        05/M00 Q1038 NOSIG=
201103011420 METAR COR EGLL 011420Z 03007KT 360V060 9999 BKN029 05/00
                        Q1038 NOSIG=
201103011350 METAR COR EGLL 011350Z 03008KT 9999 SCT022 BKN028 05/00 Q1038
                        NOSIG=
201103011320 METAR EGLL 011320Z 05006KT 9999 FEW024 BKN029 05/00 Q1038=
201103011250 METAR COR EGLL 011250Z 04007KT 010V080 9999 BKN022 05/M00
                        Q1038 NOSIG=
201103011220 METAR COR EGLL 011220Z 03008KT 9999 FEW021 BKN027 05/M00
                        Q1039 NOSIG=
201103011150 METAR COR EGLL 011150Z 03009KT 9999 FEW020 BKN028 05/00 Q1039
                        NOSIG=
201103011120 METAR COR EGLL 011120Z 03008KT 330V060 9999 FEW020 BKN030
                        05/01 Q1039 NOSIG=
201103011050 METAR COR EGLL 011050Z 02007KT 340V050 9999 SCT017 BKN030
                        05/01 Q1039 NOSIG=
201103011020 METAR COR EGLL 011020Z 03007KT 350V060 9999 FEW017 BKN034
                        04/01 Q1039 NOSIG=
201103010950 METAR COR EGLL 010950Z 03006KT 350V060 9999 FEW016 BKN035
                        04/00 Q1039 NOSIG=
201103010920 METAR COR EGLL 010920Z 03007KT 340V060 9999 BKN036 04/01
                        Q1038 NOSIG=
201103010850 METAR EGLL 010850Z 02006KT 350V060 9999 BKN036 04/01 Q1038=
201103010820 METAR COR EGLL 010820Z 03007KT 340V060 9999 OVC035 04/01
                        Q1038 NOSIG=
201103010750 METAR COR EGLL 010750Z 03006KT 9999 FEW011 BKN036 04/01 Q1038
                        NOSIG=
201103010720 METAR COR EGLL 010720Z 01007KT 340V040 9999 FEW012 BKN037
                        04/01 Q1037 TEMPO BKN012=
201103010650 METAR COR EGLL 010650Z 36007KT 320V030 9999 FEW011 BKN033
                        04/01 Q1037 TEMPO BKN011=
201103010620 METAR COR EGLL 010620Z 01005KT 330V040 9999 BKN032 04/01
                        Q1037 NOSIG=
201103010550 METAR COR EGLL 010550Z 02005KT 340V060 9000 BKN030 04/01
                        Q1036 NOSIG=
201103010520 METAR COR EGLL 010520Z 01004KT 340V050 9000 SCT015 BKN028
                        04/01 Q1036 TEMPO BKN011=
201103010450 METAR COR EGLL 010450Z 01005KT 9000 FEW012 BKN015 BKN029
                        04/02 Q1036 BECMG BKN011=
201103010420 METAR COR EGLL 010420Z 02005KT 340V050 8000 FEW018 BKN032
                        04/01 Q1036 NOSIG=
201103010350 METAR COR EGLL 010350Z 03005KT 350V070 8000 BKN029 04/01
                        Q1035 TEMPO BKN012=
201103010320 METAR COR EGLL 010320Z 02005KT 340V060 8000 FEW013 OVC028
                        04/01 Q1035 TEMPO BKN012=
201103010250 METAR COR EGLL 010250Z 02005KT 350V050 8000 BKN026 04/01
                        Q1035 NOSIG=
201103010220 METAR COR EGLL 010220Z 04005KT 360V070 8000 BKN028 04/01
                        Q1035 NOSIG=
201103010150 METAR COR EGLL 010150Z 05005KT 020V100 8000 BKN025 04/01
                        Q1035 NOSIG=
201103010120 METAR COR EGLL 010120Z 04004KT 360V070 9000 FEW014 BKN023
                        04/01 Q1035 TEMPO BKN012=
201103010050 METAR COR EGLL 010050Z 05005KT 9000 BKN021 04/01 Q1035 TEMPO
                        BKN012=
201103010020 METAR COR EGLL 010020Z 05006KT 010V080 9000 SCT013 BKN023
                        04/01 Q1035 TEMPO BKN012=
