##########################################################
# Query made at 01/13/2020 14:14:09 UTC
# Time interval: from 03/01/2019 00:00  to 03/31/2019 23:59  UTC
##########################################################

##########################################################
# EGLL, London / Heathrow Airport (United Kingdom)
# WMO index: 03772
# Latitude 51-29N. Longitude 000-27W. Altitude 24 m.
##########################################################

###################################
#  METAR/SPECI from EGLL
###################################
201903312350 METAR COR EGLL 312350Z AUTO 05006KT 9999 OVC018 06/02 Q1025
                        NOSIG=
201903312320 METAR COR EGLL 312320Z AUTO 06007KT 9999 BKN017 06/02 Q1026
                        NOSIG=
201903312250 METAR COR EGLL 312250Z AUTO 06008KT 9999 NCD 06/02 Q1026
                        NOSIG=
201903312220 METAR COR EGLL 312220Z AUTO 06007KT 9999 NCD 06/02 Q1026
                        NOSIG=
201903312150 METAR COR EGLL 312150Z AUTO 07008KT 9999 NCD 06/02 Q1026
                        NOSIG=
201903312120 METAR COR EGLL 312120Z AUTO 07010KT 9999 NCD 06/01 Q1026
                        NOSIG=
201903312050 METAR COR EGLL 312050Z AUTO 07011KT 9999 NCD 07/02 Q1026
                        NOSIG=
201903312020 METAR COR EGLL 312020Z AUTO 07010KT 9999 NCD 07/02 Q1026
                        NOSIG=
201903311950 METAR COR EGLL 311950Z AUTO 08010KT 9999 NCD 08/02 Q1026
                        NOSIG=
201903311920 METAR COR EGLL 311920Z AUTO 07008KT 9999 NCD 08/02 Q1025
                        NOSIG=
201903311850 METAR COR EGLL 311850Z AUTO 08010KT 9999 NCD 09/02 Q1025
                        NOSIG=
201903311820 METAR COR EGLL 311820Z AUTO 08011KT 9999 NCD 09/03 Q1025
                        NOSIG=
201903311750 METAR COR EGLL 311750Z AUTO 08011KT 9999 NCD 10/03 Q1025
                        NOSIG=
201903311720 METAR COR EGLL 311720Z AUTO 08010KT 9999 NCD 11/03 Q1025
                        NOSIG=
201903311650 METAR COR EGLL 311650Z AUTO 08011KT 9999 NCD 11/03 Q1025
                        NOSIG=
201903311620 METAR COR EGLL 311620Z AUTO 08010KT 9999 NCD 11/03 Q1025
                        NOSIG=
201903311550 METAR COR EGLL 311550Z AUTO 09010KT 9999 NCD 12/04 Q1025
                        NOSIG=
201903311520 METAR COR EGLL 311520Z AUTO 07011KT 9999 NCD 12/04 Q1025
                        NOSIG=
201903311450 METAR COR EGLL 311450Z AUTO 08010KT 050V110 9999 NCD 12/04
                        Q1025 NOSIG=
201903311420 METAR COR EGLL 311420Z AUTO 09014KT 9999 SCT033 12/04 Q1025
                        NOSIG=
201903311350 METAR COR EGLL 311350Z AUTO 07011KT 9999 BKN031 11/05 Q1025
                        NOSIG=
201903311320 METAR COR EGLL 311320Z AUTO 08012KT 9999 BKN029 12/05 Q1025
                        NOSIG=
201903311250 METAR COR EGLL 311250Z AUTO 07011KT 9999 BKN028 11/05 Q1026
                        NOSIG=
201903311220 METAR COR EGLL 311220Z AUTO 07012KT 9999 BKN026 11/05 Q1026
                        NOSIG=
201903311150 METAR COR EGLL 311150Z AUTO 07012KT 9999 SCT024 BKN043 11/05
                        Q1026 NOSIG=
201903311120 METAR COR EGLL 311120Z AUTO 07012KT 9999 SCT021 10/05 Q1026
                        NOSIG=
201903311050 METAR COR EGLL 311050Z AUTO 06011KT 9999 BKN018 BKN023 10/06
                        Q1026 NOSIG=
201903311020 METAR COR EGLL 311020Z AUTO 06010KT 9999 BKN017 OVC023 09/06
                        Q1026 NOSIG=
201903310950 METAR COR EGLL 310950Z AUTO 07009KT 9999 BKN015 OVC032 09/06
                        Q1026 NOSIG=
201903310920 METAR COR EGLL 310920Z AUTO 06009KT 9999 OVC014 09/06 Q1025
                        NOSIG=
201903310850 METAR COR EGLL 310850Z AUTO 06012KT 9999 OVC014 09/05 Q1025
                        NOSIG=
201903310820 METAR COR EGLL 310820Z AUTO 07011KT 9999 OVC014 08/05 Q1025
                        BECMG BKN016=
201903310750 METAR COR EGLL 310750Z AUTO 07010KT 9999 OVC014 08/05 Q1025
                        NOSIG=
201903310720 METAR COR EGLL 310720Z AUTO 07010KT 9999 OVC014 08/05 Q1024
                        TEMPO BKN015=
201903310650 METAR COR EGLL 310650Z AUTO 06011KT 020V090 9000 OVC014 08/05
                        Q1024 NOSIG=
201903310620 METAR COR EGLL 310620Z AUTO 06010KT 8000 OVC014 08/05 Q1024
                        TEMPO BKN016=
201903310550 METAR COR EGLL 310550Z AUTO 06009KT 8000 BKN016 08/05 Q1024
                        TEMPO -SHRA BKN014=
201903310520 METAR COR EGLL 310520Z AUTO 06010KT 6000 NCD 09/05 Q1023
                        TEMPO -SHRA BKN014=
201903310450 METAR COR EGLL 310450Z AUTO 05006KT 4600 HZ NCD 09/06 Q1023
                        TEMPO 5000 -SHRA BKN014=
201903310420 METAR COR EGLL 310420Z AUTO 06008KT 4400 HZ NCD 09/06 Q1022
                        TEMPO 5000=
201903310350 METAR COR EGLL 310350Z AUTO 05008KT 3700 HZ NCD 09/06 Q1022
                        NOSIG=
201903310320 METAR COR EGLL 310320Z 05006KT 020V080 3500 HZ NSC 09/06
                        Q1022 NOSIG=
201903310250 METAR COR EGLL 310250Z 04005KT 010V080 3400 HZ NSC 10/06
                        Q1022 NOSIG=
201903310220 METAR COR EGLL 310220Z 04005KT 4400 HZ NSC 10/06 Q1022 NOSIG=
201903310150 METAR COR EGLL 310150Z AUTO 05004KT 5000 HZ NCD 10/06 Q1022
                        TEMPO 4500=
201903310120 METAR COR EGLL 310120Z AUTO 05005KT 340V070 6000 NCD 10/06
                        Q1022 NOSIG=
201903310050 METAR COR EGLL 310050Z AUTO 04005KT 360V080 7000 NCD 11/06
                        Q1022 NOSIG=
201903310020 METAR COR EGLL 310020Z AUTO 02004KT 330V070 7000 NCD 11/05
                        Q1022 NOSIG=
201903302350 METAR COR EGLL 302350Z AUTO 01005KT 7000 NCD 11/05 Q1022
                        NOSIG=
201903302320 METAR COR EGLL 302320Z AUTO 01007KT 340V040 7000 NCD 12/06
                        Q1022 NOSIG=
201903302250 METAR COR EGLL 302250Z AUTO 01007KT 330V050 7000 NCD 12/06
                        Q1022 NOSIG=
201903302220 METAR COR EGLL 302220Z AUTO 02006KT 340V060 9000 NCD 13/06
                        Q1022 NOSIG=
201903302150 METAR COR EGLL 302150Z AUTO 02006KT 340V080 9999 NCD 13/06
                        Q1021 NOSIG=
201903302120 METAR COR EGLL 302120Z AUTO 03004KT 340V060 9999 NCD 14/06
                        Q1021 NOSIG=
201903302050 METAR COR EGLL 302050Z AUTO 02004KT 330V060 9999 NCD 15/06
                        Q1021 NOSIG=
201903302020 METAR COR EGLL 302020Z AUTO 01005KT 340V060 9999 NCD 15/06
                        Q1021 NOSIG=
201903301950 METAR COR EGLL 301950Z AUTO 03004KT 340V080 9999 NCD 15/06
                        Q1021 NOSIG=
201903301920 METAR COR EGLL 301920Z AUTO 36004KT 310V030 9999 NCD 16/06
                        Q1020 NOSIG=
201903301850 METAR COR EGLL 301850Z AUTO 36005KT 9999 NCD 16/06 Q1020
                        NOSIG=
201903301820 METAR COR EGLL 301820Z AUTO 01006KT 9999 NCD 16/06 Q1020
                        NOSIG=
201903301750 METAR COR EGLL 301750Z AUTO 36005KT 9999 NCD 17/06 Q1019
                        NOSIG=
201903301720 METAR COR EGLL 301720Z AUTO 36004KT 9999 NCD 17/05 Q1019
                        NOSIG=
201903301650 METAR COR EGLL 301650Z AUTO 31005KT 280V360 9999 NCD 18/05
                        Q1019 NOSIG=
201903301620 METAR COR EGLL 301620Z AUTO 29005KT 250V330 9999 NCD 18/05
                        Q1019 NOSIG=
201903301550 METAR COR EGLL 301550Z AUTO 30004KT 250V340 9999 NCD 18/06
                        Q1019 NOSIG=
201903301520 METAR COR EGLL 301520Z AUTO 28004KT 220V010 9999 NCD 18/06
                        Q1019 NOSIG=
201903301450 METAR COR EGLL 301450Z AUTO 34004KT 290V020 9999 NCD 18/05
                        Q1019 NOSIG=
201903301420 METAR COR EGLL 301420Z AUTO 31006KT 280V340 9999 NCD 18/06
                        Q1020 NOSIG=
201903301350 METAR COR EGLL 301350Z AUTO 28007KT 250V330 9999 NCD 18/07
                        Q1020 NOSIG=
201903301320 METAR COR EGLL 301320Z AUTO 31005KT 270V350 9999 NCD 18/07
                        Q1020 NOSIG=
201903301250 METAR COR EGLL 301250Z AUTO 26005KT 220V330 9999 NCD 18/07
                        Q1020 NOSIG=
201903301220 METAR COR EGLL 301220Z AUTO 25005KT 190V300 9999 NCD 18/06
                        Q1021 NOSIG=
201903301150 METAR COR EGLL 301150Z AUTO 23006KT 180V270 9000 NCD 18/08
                        Q1021 NOSIG=
201903301120 METAR COR EGLL 301120Z AUTO VRB03KT 7000 NCD 17/08 Q1021
                        NOSIG=
201903301050 METAR COR EGLL 301050Z AUTO VRB01KT 6000 NCD 16/07 Q1021
                        NOSIG=
201903301020 METAR COR EGLL 301020Z AUTO VRB02KT 5000 HZ NCD 15/08 Q1021
                        NOSIG=
201903300950 METAR COR EGLL 300950Z AUTO VRB02KT 5000 HZ NCD 14/07 Q1021
                        NOSIG=
201903300920 METAR COR EGLL 300920Z AUTO VRB02KT 6000 NCD 12/07 Q1021
                        NOSIG=
201903300850 METAR EGLL 300850Z VRB02KT 5000 HZ NSC 12/07 Q1021=
201903300820 METAR COR EGLL 300820Z AUTO VRB01KT 5000 HZ NCD 11/07 Q1021
                        NOSIG=
201903300750 METAR COR EGLL 300750Z AUTO VRB02KT 5000 HZ NCD 10/06 Q1021
                        NOSIG=
201903300720 METAR COR EGLL 300720Z AUTO VRB01KT 4400 HZ NCD 08/06 Q1021
                        TEMPO 5000=
201903300650 METAR COR EGLL 300650Z AUTO VRB03KT 5000 HZ NCD 05/04 Q1021
                        TEMPO 4000=
201903300620 METAR COR EGLL 300620Z AUTO 07001KT 5000 HZ NCD 06/04 Q1022
                        TEMPO 4000=
201903300550 METAR COR EGLL 300550Z AUTO 32001KT 4600 HZ NCD 06/04 Q1022
                        TEMPO 5000=
201903300520 METAR EGLL 300520Z AUTO 00000KT 5000 HZ NCD 06/04 Q1022=
201903300450 METAR COR EGLL 300450Z AUTO 33001KT 5000 HZ BKN047 06/05
                        Q1022 TEMPO 4000=
201903300420 METAR COR EGLL 300420Z AUTO 33001KT 5000 HZ NCD 06/04 Q1022
                        TEMPO 4000=
201903300350 METAR COR EGLL 300350Z AUTO VRB02KT 5000 HZ NCD 06/04 Q1022
                        TEMPO 4000=
201903300320 METAR COR EGLL 300320Z AUTO 00000KT 5000 HZ NCD 06/04 Q1022
                        TEMPO 4000=
201903300250 METAR COR EGLL 300250Z AUTO 05001KT 6000 NCD 07/05 Q1022
                        NOSIG=
201903300220 METAR COR EGLL 300220Z AUTO VRB01KT 6000 NCD 07/05 Q1023
                        NOSIG=
201903300150 METAR COR EGLL 300150Z AUTO 01001KT 6000 NCD 07/04 Q1023
                        NOSIG=
201903300120 METAR COR EGLL 300120Z AUTO 03001KT 8000 NCD 08/04 Q1023
                        NOSIG=
201903300050 METAR COR EGLL 300050Z AUTO 33001KT 8000 NCD 08/04 Q1023
                        NOSIG=
201903300020 METAR COR EGLL 300020Z AUTO 00000KT 8000 NCD 09/04 Q1024
                        NOSIG=
201903292350 METAR COR EGLL 292350Z AUTO 34002KT 9000 NCD 09/04 Q1024
                        NOSIG=
201903292320 METAR COR EGLL 292320Z AUTO 08002KT 9999 NCD 09/04 Q1024
                        NOSIG=
201903292250 METAR COR EGLL 292250Z AUTO VRB03KT 9999 NCD 09/04 Q1024
                        NOSIG=
201903292220 METAR COR EGLL 292220Z AUTO VRB02KT 9999 NCD 10/04 Q1024
                        NOSIG=
201903292150 METAR COR EGLL 292150Z AUTO VRB02KT 9999 NCD 11/04 Q1024
                        NOSIG=
201903292120 METAR COR EGLL 292120Z AUTO VRB02KT 9999 NCD 12/04 Q1025
                        NOSIG=
201903292050 METAR COR EGLL 292050Z AUTO 18005KT 110V220 9999 NCD 12/04
                        Q1025 NOSIG=
201903292020 METAR COR EGLL 292020Z AUTO 19006KT 140V230 9999 NCD 13/04
                        Q1025 NOSIG=
201903291950 METAR COR EGLL 291950Z AUTO 22007KT 9999 NCD 14/04 Q1025
                        NOSIG=
201903291920 METAR COR EGLL 291920Z AUTO 23005KT 190V250 9999 NCD 15/05
                        Q1025 NOSIG=
201903291850 METAR COR EGLL 291850Z AUTO 23005KT 9999 NCD 15/05 Q1025
                        NOSIG=
201903291820 METAR COR EGLL 291820Z AUTO 21006KT 160V240 9999 NCD 16/05
                        Q1025 NOSIG=
201903291750 METAR COR EGLL 291750Z AUTO 22005KT 160V250 9999 NCD 16/05
                        Q1025 NOSIG=
201903291720 METAR COR EGLL 291720Z AUTO 21006KT 170V240 9999 NCD 17/04
                        Q1025 NOSIG=
201903291650 METAR COR EGLL 291650Z AUTO 21004KT 160V240 9999 NCD 17/05
                        Q1025 NOSIG=
201903291620 METAR COR EGLL 291620Z AUTO 18005KT 140V240 9999 NCD 17/05
                        Q1026 NOSIG=
201903291550 METAR COR EGLL 291550Z AUTO 16004KT 050V220 9999 NCD 17/05
                        Q1026 NOSIG=
201903291520 METAR COR EGLL 291520Z AUTO 22005KT 180V260 9999 NCD 17/05
                        Q1026 NOSIG=
201903291450 METAR COR EGLL 291450Z AUTO 26006KT 160V310 9999 NCD 17/05
                        Q1027 NOSIG=
201903291420 METAR EGLL 291420Z AUTO 23007KT 170V300 9999 NCD 17/05 Q1027=
201903291350 METAR COR EGLL 291350Z AUTO VRB04KT 9999 NCD 17/05 Q1027
                        NOSIG=
201903291320 METAR COR EGLL 291320Z AUTO 21004KT 120V300 9999 NCD 16/04
                        Q1028 NOSIG=
201903291250 METAR COR EGLL 291250Z AUTO VRB03KT 9999 NCD 16/04 Q1028
                        NOSIG=
201903291220 METAR COR EGLL 291220Z AUTO VRB05KT 9999 NCD 15/04 Q1029
                        NOSIG=
201903291150 METAR COR EGLL 291150Z AUTO VRB05KT 9999 NCD 15/04 Q1029
                        NOSIG=
201903291120 METAR COR EGLL 291120Z AUTO 22004KT 130V300 9999 NCD 14/04
                        Q1030 NOSIG=
201903291050 METAR COR EGLL 291050Z AUTO VRB04KT 9999 NCD 14/04 Q1030
                        NOSIG=
201903291020 METAR COR EGLL 291020Z AUTO 19005KT 130V240 9999 NCD 13/04
                        Q1031 NOSIG=
201903290950 METAR COR EGLL 290950Z AUTO 20005KT 140V310 9999 NCD 12/03
                        Q1031 NOSIG=
201903290920 METAR COR EGLL 290920Z AUTO 23004KT 200V270 9999 NCD 12/04
                        Q1031 NOSIG=
201903290850 METAR COR EGLL 290850Z AUTO VRB02KT 9999 NCD 11/04 Q1031
                        NOSIG=
201903290820 METAR COR EGLL 290820Z AUTO VRB03KT 9999 NCD 09/04 Q1031
                        NOSIG=
201903290750 METAR COR EGLL 290750Z AUTO VRB02KT 9000 NCD 08/04 Q1031
                        NOSIG=
201903290720 METAR COR EGLL 290720Z AUTO VRB02KT 8000 NCD 06/04 Q1031
                        NOSIG=
201903290650 METAR COR EGLL 290650Z AUTO VRB02KT 8000 NCD 05/03 Q1032
                        NOSIG=
201903290620 METAR COR EGLL 290620Z AUTO VRB02KT 7000 NCD 04/03 Q1032
                        NOSIG=
201903290550 METAR COR EGLL 290550Z AUTO 16001KT 7000 NCD 03/02 Q1032
                        NOSIG=
201903290520 METAR COR EGLL 290520Z AUTO 00000KT 6000 NCD 04/02 Q1032
                        NOSIG=
201903290450 METAR COR EGLL 290450Z AUTO 14001KT 6000 NCD 04/02 Q1032
                        NOSIG=
201903290420 METAR COR EGLL 290420Z AUTO 02001KT 7000 NCD 04/02 Q1032
                        NOSIG=
201903290350 METAR COR EGLL 290350Z AUTO VRB01KT 7000 NCD 04/02 Q1032
                        NOSIG=
201903290320 METAR COR EGLL 290320Z AUTO 00000KT 7000 NCD 04/02 Q1032
                        NOSIG=
201903290250 METAR COR EGLL 290250Z AUTO 00000KT 6000 NCD 05/02 Q1032
                        NOSIG=
201903290220 METAR COR EGLL 290220Z AUTO 18001KT 7000 NCD 05/02 Q1033
                        NOSIG=
201903290150 METAR COR EGLL 290150Z AUTO 16004KT 8000 NCD 06/02 Q1033
                        NOSIG=
201903290120 METAR COR EGLL 290120Z AUTO 19002KT 9000 NCD 06/03 Q1033
                        NOSIG=
201903290050 METAR COR EGLL 290050Z AUTO 17003KT 9000 NCD 06/03 Q1033
                        NOSIG=
201903290020 METAR COR EGLL 290020Z AUTO 17003KT 9999 NCD 07/03 Q1033
                        NOSIG=
201903282350 METAR COR EGLL 282350Z AUTO 18004KT 9999 NCD 07/03 Q1034
                        NOSIG=
201903282320 METAR COR EGLL 282320Z AUTO 18004KT 9999 NCD 07/03 Q1034
                        NOSIG=
201903282250 METAR COR EGLL 282250Z AUTO 18005KT 9999 NCD 08/03 Q1034
                        NOSIG=
201903282220 METAR COR EGLL 282220Z AUTO 16004KT 130V240 9999 NCD 08/03
                        Q1034 NOSIG=
201903282150 METAR COR EGLL 282150Z AUTO 15005KT 110V170 9999 NCD 08/03
                        Q1034 NOSIG=
201903282120 METAR COR EGLL 282120Z AUTO 14005KT 110V170 9999 NCD 09/03
                        Q1034 NOSIG=
201903282050 METAR COR EGLL 282050Z AUTO VRB06KT 9999 NCD 09/04 Q1034
                        NOSIG=
201903282020 METAR COR EGLL 282020Z AUTO 15005KT 100V170 9999 NCD 10/04
                        Q1034 NOSIG=
201903281950 METAR COR EGLL 281950Z AUTO 16007KT 9999 NCD 10/04 Q1034
                        NOSIG=
201903281920 METAR COR EGLL 281920Z AUTO 16009G19KT 120V180 9999 NCD 12/04
                        Q1034 NOSIG=
201903281850 METAR COR EGLL 281850Z AUTO 14007KT 100V170 9999 NCD 12/03
                        Q1033 NOSIG=
201903281820 METAR COR EGLL 281820Z AUTO 16004KT 130V210 9999 FEW049 13/03
                        Q1033 NOSIG=
201903281750 METAR COR EGLL 281750Z AUTO VRB03KT 9999 SCT049 14/04 Q1034
                        NOSIG=
201903281720 METAR COR EGLL 281720Z AUTO VRB02KT 9999 SCT049 14/05 Q1034
                        NOSIG=
201903281650 METAR COR EGLL 281650Z AUTO VRB03KT 9999 SCT049 15/03 Q1034
                        NOSIG=
201903281620 METAR COR EGLL 281620Z AUTO 11004KT 030V140 9999 SCT048 15/03
                        Q1034 NOSIG=
201903281550 METAR COR EGLL 281550Z AUTO 14004KT 080V190 9999 FEW047 15/04
                        Q1034 NOSIG=
201903281520 METAR COR EGLL 281520Z AUTO 11004KT 060V190 9999 FEW048 15/04
                        Q1034 NOSIG=
201903281450 METAR COR EGLL 281450Z AUTO VRB03KT 9999 SCT047 15/04 Q1034
                        NOSIG=
201903281420 METAR EGLL 281420Z AUTO 05004KT 360V090 9999 SCT045 15/04
                        Q1035=
201903281350 METAR COR EGLL 281350Z AUTO VRB03KT 9999 BKN044 14/05 Q1035
                        NOSIG=
201903281320 METAR COR EGLL 281320Z AUTO 25004KT 150V300 9999 BKN043 14/04
                        Q1036 NOSIG=
201903281250 METAR COR EGLL 281250Z AUTO VRB05KT 9999 BKN041 13/04 Q1036
                        NOSIG=
201903281220 METAR COR EGLL 281220Z AUTO VRB03KT 9999 BKN040 14/05 Q1036
                        NOSIG=
201903281150 METAR COR EGLL 281150Z AUTO VRB02KT 9999 BKN039 15/05 Q1036
                        NOSIG=
201903281120 METAR COR EGLL 281120Z AUTO VRB05KT 9999 BKN042 13/04 Q1037
                        NOSIG=
201903281050 METAR COR EGLL 281050Z AUTO 12004KT 060V180 9999 OVC042 13/05
                        Q1037 NOSIG=
201903281020 METAR COR EGLL 281020Z AUTO VRB04KT 9999 OVC042 12/05 Q1037
                        NOSIG=
201903280950 METAR COR EGLL 280950Z AUTO 09004KT 050V160 9999 OVC042 12/05
                        Q1037 NOSIG=
201903280920 METAR COR EGLL 280920Z AUTO VRB02KT 9999 OVC042 11/05 Q1037
                        NOSIG=
201903280850 METAR COR EGLL 280850Z AUTO 08005KT 070V150 9999 OVC042 10/04
                        Q1037 NOSIG=
201903280820 METAR COR EGLL 280820Z AUTO VRB03KT 9999 OVC042 10/04 Q1037
                        NOSIG=
201903280750 METAR COR EGLL 280750Z AUTO VRB01KT 9999 OVC042 09/04 Q1037
                        NOSIG=
201903280720 METAR COR EGLL 280720Z AUTO 30002KT 9999 OVC042 09/04 Q1037
                        NOSIG=
201903280650 METAR COR EGLL 280650Z AUTO VRB02KT 9999 OVC042 09/04 Q1037
                        NOSIG=
201903280620 METAR COR EGLL 280620Z AUTO VRB01KT 9999 OVC042 09/04 Q1037
                        NOSIG=
201903280550 METAR COR EGLL 280550Z AUTO VRB02KT 9999 OVC042 08/04 Q1037
                        NOSIG=
201903280520 METAR COR EGLL 280520Z AUTO VRB01KT 9999 OVC042 09/04 Q1037
                        NOSIG=
201903280450 METAR COR EGLL 280450Z AUTO VRB02KT 9999 OVC042 09/04 Q1036
                        NOSIG=
201903280420 METAR COR EGLL 280420Z AUTO VRB01KT 9999 BKN041 08/04 Q1036
                        NOSIG=
201903280350 METAR COR EGLL 280350Z AUTO VRB02KT 9999 BKN040 08/04 Q1036
                        NOSIG=
201903280320 METAR COR EGLL 280320Z AUTO 36001KT 9999 BKN041 08/04 Q1036
                        NOSIG=
201903280250 METAR COR EGLL 280250Z AUTO VRB02KT 9999 BKN041 07/04 Q1036
                        NOSIG=
201903280220 METAR COR EGLL 280220Z AUTO VRB01KT 9999 BKN040 08/04 Q1036
                        NOSIG=
201903280150 METAR COR EGLL 280150Z AUTO 27002KT 9999 OVC041 08/04 Q1036
                        NOSIG=
201903280120 METAR COR EGLL 280120Z AUTO VRB02KT 9999 BKN041 08/04 Q1036
                        NOSIG=
201903280050 METAR COR EGLL 280050Z AUTO 31003KT 9999 BKN042 08/04 Q1037
                        NOSIG=
201903280020 METAR COR EGLL 280020Z AUTO 28003KT 9999 BKN042 08/05 Q1037
                        NOSIG=
201903272350 METAR COR EGLL 272350Z AUTO VRB01KT 9999 BKN043 09/04 Q1037
                        NOSIG=
201903272320 METAR COR EGLL 272320Z AUTO 36001KT 9999 OVC042 10/04 Q1037
                        NOSIG=
201903272250 METAR COR EGLL 272250Z AUTO 35002KT 9999 OVC041 10/03 Q1036
                        NOSIG=
201903272220 METAR COR EGLL 272220Z AUTO VRB02KT 9999 BKN041 11/03 Q1036
                        NOSIG=
201903272150 METAR COR EGLL 272150Z AUTO 05001KT 9999 BKN041 11/03 Q1036
                        NOSIG=
201903272120 METAR COR EGLL 272120Z AUTO VRB02KT 9999 BKN041 11/03 Q1036
                        NOSIG=
201903272050 METAR COR EGLL 272050Z AUTO VRB02KT 9999 BKN042 11/03 Q1036
                        NOSIG=
201903272020 METAR COR EGLL 272020Z AUTO 05002KT 9999 BKN042 11/03 Q1036
                        NOSIG=
201903271950 METAR COR EGLL 271950Z AUTO 08003KT 9999 BKN041 12/03 Q1036
                        NOSIG=
201903271920 METAR COR EGLL 271920Z AUTO 08003KT 9999 BKN041 11/03 Q1036
                        NOSIG=
201903271850 METAR COR EGLL 271850Z AUTO VRB02KT 9999 FEW042 12/03 Q1036
                        NOSIG=
201903271820 METAR COR EGLL 271820Z AUTO VRB03KT 9999 FEW042 12/03 Q1035
                        NOSIG=
201903271750 METAR COR EGLL 271750Z AUTO 35004KT 310V020 9999 NCD 12/03
                        Q1035 NOSIG=
201903271720 METAR COR EGLL 271720Z AUTO 33005KT 300V030 9999 NCD 13/03
                        Q1035 NOSIG=
201903271650 METAR COR EGLL 271650Z AUTO 35006KT 320V030 9999 NCD 13/03
                        Q1035 NOSIG=
201903271620 METAR COR EGLL 271620Z AUTO 35005KT 310V020 9999 FEW044 13/03
                        Q1035 NOSIG=
201903271550 METAR COR EGLL 271550Z AUTO 34005KT 300V020 9999 SCT041 13/03
                        Q1035 NOSIG=
201903271520 METAR COR EGLL 271520Z AUTO 33005KT 290V030 9999 BKN040 13/04
                        Q1035 NOSIG=
201903271450 METAR COR EGLL 271450Z AUTO 33007KT 300V040 9999 BKN039 12/04
                        Q1035 NOSIG=
201903271420 METAR COR EGLL 271420Z AUTO 34005KT 290V030 9999 OVC038 12/04
                        Q1035 NOSIG=
201903271350 METAR COR EGLL 271350Z AUTO 31004KT 270V030 9999 OVC039 12/04
                        Q1036 NOSIG=
201903271320 METAR COR EGLL 271320Z AUTO 01004KT 340V050 9999 OVC038 12/03
                        Q1036 NOSIG=
201903271250 METAR COR EGLL 271250Z AUTO 01004KT 340V070 9999 OVC038 12/03
                        Q1036 NOSIG=
201903271220 METAR COR EGLL 271220Z AUTO 31004KT 260V360 9999 OVC036 11/03
                        Q1036 NOSIG=
201903271150 METAR COR EGLL 271150Z AUTO 33004KT 270V040 9999 OVC035 11/03
                        Q1036 NOSIG=
201903271120 METAR COR EGLL 271120Z AUTO 36004KT 300V050 9999 OVC035 11/03
                        Q1035 NOSIG=
201903271050 METAR COR EGLL 271050Z AUTO 32005KT 290V020 9999 OVC036 11/03
                        Q1035 NOSIG=
201903271020 METAR COR EGLL 271020Z AUTO VRB03KT 9999 OVC037 11/04 Q1035
                        NOSIG=
201903270950 METAR COR EGLL 270950Z AUTO VRB03KT 9999 OVC037 10/04 Q1035
                        NOSIG=
201903270920 METAR COR EGLL 270920Z AUTO VRB03KT 9999 OVC037 09/03 Q1035
                        NOSIG=
201903270850 METAR COR EGLL 270850Z AUTO VRB02KT 9999 OVC039 09/03 Q1035
                        NOSIG=
201903270820 METAR COR EGLL 270820Z AUTO VRB02KT 9999 OVC040 08/03 Q1035
                        NOSIG=
201903270750 METAR COR EGLL 270750Z AUTO VRB02KT 9999 OVC041 08/03 Q1035
                        NOSIG=
201903270720 METAR COR EGLL 270720Z AUTO 30003KT 9999 OVC041 07/02 Q1035
                        NOSIG=
201903270650 METAR COR EGLL 270650Z AUTO 27003KT 9999 BKN041 06/02 Q1035
                        NOSIG=
201903270620 METAR COR EGLL 270620Z AUTO VRB03KT 9999 SCT041 05/02 Q1034
                        NOSIG=
201903270550 METAR COR EGLL 270550Z AUTO 26003KT 9999 SCT043 06/02 Q1034
                        NOSIG=
201903270520 METAR COR EGLL 270520Z AUTO 28003KT 9999 BKN042 06/01 Q1034
                        NOSIG=
201903270450 METAR COR EGLL 270450Z AUTO 30003KT 9999 BKN040 07/02 Q1034
                        NOSIG=
201903270420 METAR COR EGLL 270420Z AUTO 30003KT 9999 NCD 06/01 Q1034
                        NOSIG=
201903270350 METAR COR EGLL 270350Z AUTO 30003KT 9999 BKN042 06/02 Q1034
                        NOSIG=
201903270320 METAR COR EGLL 270320Z AUTO 30003KT 9999 BKN041 07/02 Q1034
                        NOSIG=
201903270250 METAR COR EGLL 270250Z AUTO VRB02KT 9999 BKN042 07/02 Q1034
                        NOSIG=
201903270220 METAR COR EGLL 270220Z AUTO VRB03KT 9999 BKN042 07/02 Q1034
                        NOSIG=
201903270150 METAR COR EGLL 270150Z AUTO 28003KT 9999 OVC042 08/02 Q1034
                        NOSIG=
201903270120 METAR COR EGLL 270120Z AUTO 30003KT 9999 OVC043 07/03 Q1034
                        NOSIG=
201903270050 METAR COR EGLL 270050Z AUTO 27005KT 9999 BKN042 07/03 Q1034
                        NOSIG=
201903270020 METAR COR EGLL 270020Z AUTO 31003KT 9999 FEW042 07/03 Q1034
                        NOSIG=
201903262350 METAR COR EGLL 262350Z AUTO VRB03KT 9999 NCD 07/03 Q1034
                        NOSIG=
201903262320 METAR COR EGLL 262320Z AUTO 36005KT 330V040 9999 FEW046 08/03
                        Q1034 NOSIG=
201903262250 METAR COR EGLL 262250Z AUTO VRB03KT 9999 FEW045 08/03 Q1034
                        NOSIG=
201903262220 METAR COR EGLL 262220Z AUTO VRB02KT 9999 FEW045 09/03 Q1033
                        NOSIG=
201903262150 METAR COR EGLL 262150Z AUTO 03001KT 9999 BKN045 10/03 Q1033
                        NOSIG=
201903262120 METAR COR EGLL 262120Z AUTO 03001KT 9999 SCT047 09/03 Q1033
                        NOSIG=
201903262050 METAR COR EGLL 262050Z AUTO VRB02KT 9999 NCD 11/03 Q1033
                        NOSIG=
201903262020 METAR COR EGLL 262020Z AUTO 27003KT 9999 BKN049 10/03 Q1033
                        NOSIG=
201903261950 METAR COR EGLL 261950Z AUTO VRB01KT 9999 BKN048 12/02 Q1033
                        NOSIG=
201903261920 METAR COR EGLL 261920Z AUTO 31002KT 9999 SCT048 12/02 Q1033
                        NOSIG=
201903261850 METAR COR EGLL 261850Z AUTO VRB02KT 9999 NCD 12/02 Q1033
                        NOSIG=
201903261820 METAR COR EGLL 261820Z AUTO 32004KT 290V360 9999 NCD 12/02
                        Q1033 NOSIG=
201903261750 METAR COR EGLL 261750Z AUTO 33004KT 290V020 9999 NCD 12/02
                        Q1033 NOSIG=
201903261720 METAR COR EGLL 261720Z AUTO 30005KT 260V340 9999 NCD 13/02
                        Q1033 NOSIG=
201903261650 METAR COR EGLL 261650Z AUTO 36006KT 330V040 9999 FEW047 13/02
                        Q1032 NOSIG=
201903261620 METAR COR EGLL 261620Z AUTO 36006KT 310V040 9999 SCT046 13/02
                        Q1032 NOSIG=
201903261550 METAR COR EGLL 261550Z AUTO 34005KT 290V020 9999 SCT046 13/02
                        Q1032 NOSIG=
201903261520 METAR COR EGLL 261520Z AUTO 35007KT 290V040 9999 BKN045 13/03
                        Q1033 NOSIG=
201903261450 METAR COR EGLL 261450Z AUTO 36006KT 320V050 9999 BKN045 13/03
                        Q1033 NOSIG=
201903261420 METAR COR EGLL 261420Z AUTO 01005KT 330V060 9999 BKN043 13/03
                        Q1033 NOSIG=
201903261350 METAR COR EGLL 261350Z AUTO 31006KT 270V350 9999 SCT041 13/03
                        Q1033 NOSIG=
201903261320 METAR COR EGLL 261320Z AUTO 35005KT 310V040 9999 BKN040 12/03
                        Q1034 NOSIG=
201903261250 METAR COR EGLL 261250Z AUTO 35005KT 310V030 9999 BKN039 12/03
                        Q1034 NOSIG=
201903261220 METAR COR EGLL 261220Z AUTO 34008KT 300V030 9999 BKN041 12/03
                        Q1034 NOSIG=
201903261150 METAR COR EGLL 261150Z AUTO 36006KT 300V050 9999 FEW039 12/03
                        Q1034 NOSIG=
201903261120 METAR COR EGLL 261120Z AUTO 36006KT 280V060 9999 NCD 11/03
                        Q1034 NOSIG=
201903261050 METAR COR EGLL 261050Z AUTO 34006KT 290V020 9999 NCD 10/03
                        Q1035 NOSIG=
201903261020 METAR COR EGLL 261020Z AUTO 29007KT 9999 FEW026 09/04 Q1035
                        NOSIG=
201903260950 METAR COR EGLL 260950Z AUTO 28007KT 220V320 9999 NCD 09/04
                        Q1035 NOSIG=
201903260920 METAR COR EGLL 260920Z AUTO 29007KT 9999 NCD 08/03 Q1035
                        NOSIG=
201903260850 METAR COR EGLL 260850Z AUTO 28007KT 9999 NCD 06/03 Q1035
                        NOSIG=
201903260820 METAR COR EGLL 260820Z AUTO 27007KT 9999 NCD 05/02 Q1035
                        NOSIG=
201903260750 METAR COR EGLL 260750Z AUTO 28006KT 9999 NCD 05/02 Q1035
                        NOSIG=
201903260720 METAR COR EGLL 260720Z AUTO 27005KT 9999 NCD 04/02 Q1035
                        NOSIG=
201903260650 METAR COR EGLL 260650Z AUTO 27006KT 9999 NCD 03/01 Q1035
                        NOSIG=
201903260620 METAR COR EGLL 260620Z AUTO 29005KT 9999 NCD 02/00 Q1035
                        NOSIG=
201903260550 METAR COR EGLL 260550Z AUTO 29003KT 9999 NCD 02/00 Q1034
                        NOSIG=
201903260520 METAR COR EGLL 260520Z AUTO 27004KT 9999 NCD 02/00 Q1034
                        NOSIG=
201903260450 METAR COR EGLL 260450Z AUTO 29004KT 9999 NCD 03/01 Q1034
                        NOSIG=
201903260420 METAR COR EGLL 260420Z AUTO 27004KT 9999 NCD 02/00 Q1034
                        NOSIG=
201903260350 METAR COR EGLL 260350Z AUTO VRB01KT 9999 NCD 02/00 Q1035
                        NOSIG=
201903260320 METAR EGLL 260320Z AUTO 29006KT 9999 NCD 02/00 Q1035=
201903260250 METAR COR EGLL 260250Z AUTO 17004KT 9999 NCD 03/01 Q1035
                        NOSIG=
201903260220 METAR COR EGLL 260220Z AUTO 17002KT 9999 NCD 03/01 Q1035
                        NOSIG=
201903260150 METAR COR EGLL 260150Z AUTO 00000KT 9999 NCD 04/01 Q1035
                        NOSIG=
201903260120 METAR COR EGLL 260120Z AUTO 32001KT 9999 NCD 04/02 Q1035
                        NOSIG=
201903260050 METAR COR EGLL 260050Z AUTO 30003KT 9999 NCD 04/01 Q1035
                        NOSIG=
201903260020 METAR COR EGLL 260020Z AUTO VRB02KT 9999 NCD 05/01 Q1035
                        NOSIG=
201903252350 METAR COR EGLL 252350Z AUTO 34002KT 9999 NCD 06/01 Q1035
                        NOSIG=
201903252320 METAR COR EGLL 252320Z AUTO 07002KT 9999 NCD 07/01 Q1035
                        NOSIG=
201903252250 METAR COR EGLL 252250Z AUTO 07001KT 9999 NCD 06/01 Q1035
                        NOSIG=
201903252220 METAR COR EGLL 252220Z AUTO 07003KT 9999 NCD 08/01 Q1035
                        NOSIG=
201903252150 METAR COR EGLL 252150Z AUTO 06003KT 9999 NCD 08/02 Q1035
                        NOSIG=
201903252120 METAR COR EGLL 252120Z AUTO 04003KT 9999 NCD 09/02 Q1035
                        NOSIG=
201903252050 METAR COR EGLL 252050Z AUTO 06004KT 9999 NCD 10/01 Q1035
                        NOSIG=
201903252020 METAR COR EGLL 252020Z AUTO VRB01KT 9999 NCD 10/M00 Q1034
                        NOSIG=
201903251950 METAR COR EGLL 251950Z AUTO VRB02KT 9999 NCD 10/M00 Q1034
                        NOSIG=
201903251920 METAR COR EGLL 251920Z AUTO VRB03KT 9999 NCD 11/00 Q1034
                        NOSIG=
201903251850 METAR COR EGLL 251850Z AUTO VRB03KT 9999 NCD 11/00 Q1034
                        NOSIG=
201903251820 METAR COR EGLL 251820Z AUTO 03004KT 340V060 9999 NCD 11/00
                        Q1033 NOSIG=
201903251750 METAR COR EGLL 251750Z AUTO 01006KT 330V040 9999 NCD 12/00
                        Q1033 NOSIG=
201903251720 METAR COR EGLL 251720Z AUTO 36006KT 310V040 9999 NCD 12/M00
                        Q1033 NOSIG=
201903251650 METAR COR EGLL 251650Z AUTO 36007KT 320V040 9999 NCD 12/M00
                        Q1033 NOSIG=
201903251620 METAR COR EGLL 251620Z AUTO 34007KT 300V010 9999 NCD 13/M00
                        Q1033 NOSIG=
201903251550 METAR COR EGLL 251550Z AUTO 36007KT 320V030 9999 NCD 13/M00
                        Q1032 NOSIG=
201903251520 METAR COR EGLL 251520Z AUTO 34006KT 310V040 9999 NCD 13/M00
                        Q1032 NOSIG=
201903251450 METAR COR EGLL 251450Z AUTO 02007KT 340V050 9999 NCD 12/M00
                        Q1032 NOSIG=
201903251420 METAR COR EGLL 251420Z AUTO 02007KT 330V070 9999 NCD 12/00
                        Q1032 NOSIG=
201903251350 METAR COR EGLL 251350Z AUTO 36008KT 320V030 9999 NCD 12/01
                        Q1032 NOSIG=
201903251320 METAR COR EGLL 251320Z AUTO 02007KT 330V060 9999 FEW048 12/01
                        Q1033 NOSIG=
201903251250 METAR COR EGLL 251250Z AUTO 36007KT 320V080 9999 FEW047 11/00
                        Q1033 NOSIG=
201903251220 METAR COR EGLL 251220Z AUTO 34008KT 290V030 9999 BKN045 11/01
                        Q1033 NOSIG=
201903251150 METAR COR EGLL 251150Z AUTO 36008KT 310V040 9999 SCT043 11/01
                        Q1033 NOSIG=
201903251120 METAR COR EGLL 251120Z AUTO 36009KT 310V040 9999 FEW042 11/01
                        Q1033 NOSIG=
201903251050 METAR COR EGLL 251050Z AUTO 01009KT 330V050 9999 SCT041 10/01
                        Q1033 NOSIG=
201903251020 METAR COR EGLL 251020Z AUTO 36011KT 320V030 9999 NCD 10/01
                        Q1032 NOSIG=
201903250950 METAR COR EGLL 250950Z AUTO 35009KT 310V020 9999 NCD 10/01
                        Q1032 NOSIG=
201903250920 METAR COR EGLL 250920Z AUTO 35009KT 310V030 9999 NCD 09/01
                        Q1032 NOSIG=
201903250850 METAR COR EGLL 250850Z AUTO 35008KT 310V030 9999 NCD 08/01
                        Q1032 NOSIG=
201903250820 METAR COR EGLL 250820Z AUTO 34008KT 300V030 9999 NCD 08/01
                        Q1031 NOSIG=
201903250750 METAR COR EGLL 250750Z AUTO 33008KT 290V010 9999 NCD 07/02
                        Q1031 NOSIG=
201903250720 METAR COR EGLL 250720Z AUTO 32008KT 9999 NCD 06/01 Q1030
                        NOSIG=
201903250650 METAR COR EGLL 250650Z AUTO 32008KT 9999 NCD 06/01 Q1030
                        NOSIG=
201903250620 METAR COR EGLL 250620Z AUTO 32007KT 9999 NCD 05/02 Q1030
                        NOSIG=
201903250550 METAR COR EGLL 250550Z AUTO 31007KT 9999 NCD 06/02 Q1029
                        NOSIG=
201903250520 METAR COR EGLL 250520Z AUTO 32007KT 9999 NCD 06/02 Q1029
                        NOSIG=
201903250450 METAR COR EGLL 250450Z AUTO 31007KT 9999 NCD 06/02 Q1029
                        NOSIG=
201903250420 METAR COR EGLL 250420Z AUTO 31007KT 9999 NCD 06/02 Q1029
                        NOSIG=
201903250350 METAR EGLL 250350Z AUTO 31008KT 290V350 9999 NCD 07/02 Q1028=
201903250320 METAR COR EGLL 250320Z AUTO 31009KT 9999 NCD 07/03 Q1028
                        NOSIG=
201903250250 METAR COR EGLL 250250Z AUTO 30008KT 9999 BKN031 08/03 Q1029
                        NOSIG=
201903250220 METAR COR EGLL 250220Z AUTO 30007KT 9999 FEW026 07/03 Q1028
                        NOSIG=
201903250150 METAR COR EGLL 250150Z AUTO 29006KT 250V320 9999 SCT029 BKN046
                        08/03 Q1029 NOSIG=
201903250120 METAR COR EGLL 250120Z AUTO 28008KT 9999 BKN030 BKN038 07/03
                        Q1029 NOSIG=
201903250050 METAR COR EGLL 250050Z AUTO 28009KT 9999 BKN039 BKN046 07/02
                        Q1028 NOSIG=
201903250020 METAR COR EGLL 250020Z AUTO 27007KT 9999 BKN046 07/02 Q1029
                        NOSIG=
201903242350 METAR COR EGLL 242350Z AUTO 27007KT 9999 NCD 06/02 Q1029
                        NOSIG=
201903242320 METAR COR EGLL 242320Z AUTO 28007KT 9999 NCD 06/02 Q1029
                        NOSIG=
201903242250 METAR COR EGLL 242250Z AUTO 29006KT 9999 NCD 06/02 Q1029
                        NOSIG=
201903242220 METAR COR EGLL 242220Z AUTO 28010KT 9999 NCD 06/02 Q1029
                        NOSIG=
201903242150 METAR COR EGLL 242150Z AUTO 28009KT 9999 NCD 07/01 Q1029
                        NOSIG=
201903242120 METAR COR EGLL 242120Z AUTO 27007KT 9999 NCD 08/01 Q1029
                        NOSIG=
201903242050 METAR COR EGLL 242050Z AUTO 28007KT 9999 NCD 08/01 Q1029
                        NOSIG=
201903242020 METAR COR EGLL 242020Z AUTO 29006KT 9999 NCD 10/00 Q1029
                        NOSIG=
201903241950 METAR COR EGLL 241950Z AUTO 29005KT 9999 NCD 10/M01 Q1029
                        NOSIG=
201903241920 METAR COR EGLL 241920Z AUTO 31006KT 9999 NCD 10/M01 Q1029
                        NOSIG=
201903241850 METAR COR EGLL 241850Z AUTO 30006KT 9999 NCD 11/M00 Q1029
                        NOSIG=
201903241820 METAR COR EGLL 241820Z AUTO 31006KT 9999 NCD 11/00 Q1029
                        NOSIG=
201903241750 METAR COR EGLL 241750Z AUTO 31006KT 9999 NCD 12/00 Q1028
                        NOSIG=
201903241720 METAR COR EGLL 241720Z AUTO 31008KT 9999 NCD 12/00 Q1028
                        NOSIG=
201903241650 METAR COR EGLL 241650Z AUTO 30009KT 270V330 9999 NCD 12/00
                        Q1028 NOSIG=
201903241620 METAR COR EGLL 241620Z AUTO 30008KT 260V350 9999 NCD 13/M00
                        Q1028 NOSIG=
201903241550 METAR COR EGLL 241550Z AUTO 29010KT 9999 NCD 13/01 Q1029
                        NOSIG=
201903241520 METAR COR EGLL 241520Z AUTO 30010KT 270V340 9999 NCD 13/00
                        Q1029 NOSIG=
201903241450 METAR COR EGLL 241450Z AUTO 28011G28KT 230V320 9999 NCD 14/02
                        Q1029 NOSIG=
201903241420 METAR COR EGLL 241420Z AUTO 28009G20KT 240V330 9999 NCD 14/02
                        Q1029 NOSIG=
201903241350 METAR COR EGLL 241350Z AUTO 26008KT 230V300 9999 NCD 13/02
                        Q1029 NOSIG=
201903241320 METAR COR EGLL 241320Z AUTO 28010KT 230V300 9999 NCD 13/02
                        Q1030 NOSIG=
201903241250 METAR COR EGLL 241250Z AUTO 30007KT 260V360 9999 NCD 13/02
                        Q1030 NOSIG=
201903241220 METAR COR EGLL 241220Z AUTO 30008KT 260V360 9999 NCD 13/02
                        Q1030 NOSIG=
201903241150 METAR COR EGLL 241150Z AUTO 32004KT 260V020 9999 FEW047 13/02
                        Q1031 NOSIG=
201903241120 METAR COR EGLL 241120Z AUTO 28005KT 210V340 9999 FEW039 12/03
                        Q1031 NOSIG=
201903241050 METAR COR EGLL 241050Z AUTO 28005KT 230V330 9999 NCD 12/03
                        Q1031 NOSIG=
201903241020 METAR COR EGLL 241020Z AUTO 30004KT 230V020 9999 NCD 11/03
                        Q1032 NOSIG=
201903240950 METAR COR EGLL 240950Z AUTO 30006KT 250V340 9999 NCD 10/03
                        Q1032 NOSIG=
201903240920 METAR COR EGLL 240920Z AUTO 29005KT 250V330 9999 NCD 09/03
                        Q1032 NOSIG=
201903240850 METAR COR EGLL 240850Z AUTO 28004KT 240V320 9999 NCD 08/04
                        Q1032 NOSIG=
201903240820 METAR COR EGLL 240820Z AUTO VRB02KT 9999 NCD 07/04 Q1032
                        NOSIG=
201903240750 METAR COR EGLL 240750Z AUTO VRB02KT 9999 NCD 07/04 Q1032
                        NOSIG=
201903240720 METAR COR EGLL 240720Z AUTO VRB01KT 9999 NCD 05/03 Q1031
                        NOSIG=
201903240650 METAR COR EGLL 240650Z AUTO VRB02KT 9999 NCD 05/03 Q1031
                        NOSIG=
201903240620 METAR COR EGLL 240620Z AUTO VRB02KT 9999 NCD 05/03 Q1031
                        NOSIG=
201903240550 METAR COR EGLL 240550Z AUTO 36003KT 9999 NCD 04/03 Q1031
                        NOSIG=
201903240520 METAR COR EGLL 240520Z AUTO 35003KT 7000 NCD 04/02 Q1031
                        NOSIG=
201903240450 METAR COR EGLL 240450Z AUTO VRB02KT 9999 NCD 04/02 Q1031
                        NOSIG=
201903240420 METAR COR EGLL 240420Z AUTO 12001KT 9999 NCD 04/02 Q1031
                        NOSIG=
201903240350 METAR COR EGLL 240350Z AUTO 29001KT 9999 NCD 04/02 Q1031
                        NOSIG=
201903240320 METAR COR EGLL 240320Z AUTO 33001KT 9999 NCD 04/02 Q1031
                        NOSIG=
201903240250 METAR COR EGLL 240250Z AUTO VRB01KT 9999 NCD 04/02 Q1032
                        NOSIG=
201903240220 METAR COR EGLL 240220Z AUTO VRB02KT 9999 NCD 05/02 Q1032
                        NOSIG=
201903240150 METAR COR EGLL 240150Z AUTO 04002KT 9999 NCD 05/02 Q1032
                        NOSIG=
201903240120 METAR COR EGLL 240120Z AUTO 02003KT 9999 NCD 05/02 Q1032
                        NOSIG=
201903240050 METAR COR EGLL 240050Z AUTO VRB03KT 9999 NCD 05/02 Q1033
                        NOSIG=
201903240020 METAR COR EGLL 240020Z AUTO 05003KT 9999 NCD 05/02 Q1033
                        NOSIG=
201903232350 METAR COR EGLL 232350Z AUTO 04003KT 9999 NCD 05/02 Q1033
                        NOSIG=
201903232320 METAR COR EGLL 232320Z AUTO 06003KT 9999 NCD 05/02 Q1033
                        NOSIG=
201903232250 METAR COR EGLL 232250Z AUTO 10005KT 9999 NCD 06/02 Q1033
                        NOSIG=
201903232220 METAR COR EGLL 232220Z AUTO 10005KT 9999 FEW033 07/03 Q1033
                        NOSIG=
201903232150 METAR COR EGLL 232150Z AUTO 09006KT 9999 SCT032 07/02 Q1033
                        NOSIG=
201903232120 METAR COR EGLL 232120Z AUTO 10007KT 9999 SCT034 07/03 Q1033
                        NOSIG=
201903232050 METAR COR EGLL 232050Z AUTO 09008KT 9999 SCT031 BKN047 08/02
                        Q1033 NOSIG=
201903232020 METAR COR EGLL 232020Z AUTO 09008KT 9999 BKN045 09/04 Q1033
                        NOSIG=
201903231950 METAR COR EGLL 231950Z AUTO 10008KT 9999 BKN042 09/05 Q1033
                        NOSIG=
201903231920 METAR COR EGLL 231920Z AUTO 10009KT 9999 FEW026 SCT031 OVC040
                        10/06 Q1032 NOSIG=
201903231850 METAR COR EGLL 231850Z AUTO 06006KT 020V110 9999 BKN032 11/06
                        Q1032 NOSIG=
201903231820 METAR COR EGLL 231820Z AUTO 05005KT 9999 BKN040 11/04 Q1032
                        NOSIG=
201903231750 METAR COR EGLL 231750Z AUTO 05005KT 010V080 9999 BKN047 12/03
                        Q1032 NOSIG=
201903231720 METAR COR EGLL 231720Z AUTO 04006KT 010V070 9999 BKN046 12/03
                        Q1032 NOSIG=
201903231650 METAR COR EGLL 231650Z AUTO 05006KT 9999 BKN046 12/03 Q1032
                        NOSIG=
201903231620 METAR COR EGLL 231620Z AUTO 06005KT 010V090 9999 BKN046 13/03
                        Q1032 NOSIG=
201903231550 METAR COR EGLL 231550Z AUTO 04005KT 340V090 9999 BKN045 13/03
                        Q1032 NOSIG=
201903231520 METAR COR EGLL 231520Z AUTO 05007KT 350V080 9999 BKN045 13/04
                        Q1032 NOSIG=
201903231450 METAR COR EGLL 231450Z AUTO 04006KT 340V080 9999 BKN044 13/03
                        Q1032 NOSIG=
201903231420 METAR COR EGLL 231420Z AUTO 04006KT 330V090 9999 SCT043 13/03
                        Q1032 NOSIG=
201903231350 METAR COR EGLL 231350Z AUTO 04006KT 350V080 9999 SCT040 BKN048
                        13/04 Q1032 NOSIG=
201903231320 METAR COR EGLL 231320Z AUTO 03005KT 350V080 9999 BKN040 13/04
                        Q1032 NOSIG=
201903231250 METAR COR EGLL 231250Z AUTO 04005KT 330V070 9999 FEW038 OVC045
                        13/04 Q1032 NOSIG=
201903231220 METAR COR EGLL 231220Z AUTO 03005KT 330V060 9999 SCT037 BKN045
                        13/04 Q1032 NOSIG=
201903231150 METAR COR EGLL 231150Z AUTO 03007KT 360V080 9999 SCT037 BKN044
                        12/03 Q1032 NOSIG=
201903231120 METAR COR EGLL 231120Z AUTO 04005KT 340V110 9999 BKN038 OVC048
                        12/03 Q1033 NOSIG=
201903231050 METAR COR EGLL 231050Z AUTO 03006KT 340V050 9999 OVC039 11/02
                        Q1033 NOSIG=
201903231020 METAR COR EGLL 231020Z AUTO 04006KT 010V070 9999 OVC037 11/02
                        Q1032 NOSIG=
201903230950 METAR COR EGLL 230950Z AUTO 03007KT 350V060 9999 OVC036 11/02
                        Q1032 NOSIG=
201903230920 METAR COR EGLL 230920Z AUTO 03005KT 350V070 9999 OVC034 11/05
                        Q1032 NOSIG=
201903230850 METAR COR EGLL 230850Z AUTO 04005KT 350V080 9999 OVC029 11/05
                        Q1032 NOSIG=
201903230820 METAR COR EGLL 230820Z AUTO 04004KT 340V070 9999 BKN028 11/06
                        Q1031 NOSIG=
201903230750 METAR COR EGLL 230750Z AUTO VRB03KT 9999 OVC029 10/07 Q1031
                        NOSIG=
201903230720 METAR COR EGLL 230720Z AUTO VRB02KT 9999 BKN025 OVC039 10/07
                        Q1031 NOSIG=
201903230650 METAR COR EGLL 230650Z AUTO VRB02KT 9000 BKN024 BKN029 OVC033
                        10/07 Q1031 NOSIG=
201903230620 METAR COR EGLL 230620Z AUTO VRB02KT 8000 FEW023 OVC032 09/07
                        Q1030 NOSIG=
201903230550 METAR COR EGLL 230550Z AUTO 31001KT 8000 OVC032 09/07 Q1030
                        NOSIG=
201903230520 METAR COR EGLL 230520Z AUTO 30003KT 5000 -RA BKN025 OVC032
                        09/07 Q1030 NOSIG=
201903230450 METAR COR EGLL 230450Z AUTO 31003KT 7000 SCT018 OVC023 09/07
                        Q1030 NOSIG=
201903230420 METAR COR EGLL 230420Z AUTO 27005KT 9000 SCT018 OVC023 09/07
                        Q1029 TEMPO BKN014=
201903230350 METAR COR EGLL 230350Z AUTO 26006KT 9999 OVC026 09/07 Q1029
                        NOSIG=
201903230320 METAR COR EGLL 230320Z AUTO 27004KT 8000 OVC027 09/07 Q1029
                        NOSIG=
201903230250 METAR COR EGLL 230250Z AUTO 25004KT 9000 OVC028 09/07 Q1029
                        NOSIG=
201903230220 METAR COR EGLL 230220Z AUTO 24004KT 8000 OVC027 09/07 Q1029
                        NOSIG=
201903230150 METAR COR EGLL 230150Z AUTO 24003KT 7000 OVC028 09/07 Q1029
                        NOSIG=
201903230120 METAR COR EGLL 230120Z AUTO 23004KT 7000 OVC030 09/07 Q1029
                        NOSIG=
201903230050 METAR COR EGLL 230050Z AUTO 22004KT 7000 BKN032 08/07 Q1028
                        NOSIG=
201903230020 METAR COR EGLL 230020Z AUTO 23004KT 8000 NCD 09/07 Q1028
                        NOSIG=
201903222350 METAR COR EGLL 222350Z AUTO 23004KT 9999 NCD 09/07 Q1028
                        NOSIG=
201903222320 METAR COR EGLL 222320Z AUTO 23004KT 9999 NCD 09/07 Q1028
                        NOSIG=
201903222250 METAR COR EGLL 222250Z AUTO 25006KT 9999 NCD 10/07 Q1028
                        NOSIG=
201903222220 METAR COR EGLL 222220Z AUTO 26007KT 9999 OVC028 10/07 Q1028
                        NOSIG=
201903222150 METAR COR EGLL 222150Z AUTO 25007KT 9999 OVC028 10/07 Q1028
                        NOSIG=
201903222120 METAR COR EGLL 222120Z AUTO 23008KT 9999 OVC027 10/07 Q1028
                        NOSIG=
201903222050 METAR COR EGLL 222050Z AUTO 23007KT 200V270 9999 OVC025 10/07
                        Q1028 NOSIG=
201903222020 METAR COR EGLL 222020Z AUTO 24007KT 210V270 9999 OVC026 10/07
                        Q1028 NOSIG=
201903221950 METAR COR EGLL 221950Z AUTO 24007KT 9999 OVC027 11/07 Q1028
                        NOSIG=
201903221920 METAR COR EGLL 221920Z AUTO 24007KT 210V270 9999 SCT020 OVC027
                        11/07 Q1028 NOSIG=
201903221850 METAR COR EGLL 221850Z AUTO 27010KT 9999 OVC019 10/07 Q1028
                        NOSIG=
201903221820 METAR COR EGLL 221820Z AUTO 27009KT 9999 OVC017 11/07 Q1028
                        NOSIG=
201903221750 METAR EGLL 221750Z AUTO 25010KT 9999 OVC017 11/07 Q1027=
201903221720 METAR COR EGLL 221720Z AUTO 24009KT 9999 OVC018 11/07 Q1027
                        NOSIG=
201903221650 METAR COR EGLL 221650Z AUTO 24010KT 9999 OVC018 11/07 Q1027
                        NOSIG=
201903221620 METAR COR EGLL 221620Z AUTO 23009KT 9999 OVC018 11/07 Q1027
                        NOSIG=
201903221550 METAR COR EGLL 221550Z AUTO 24009KT 200V260 9999 OVC017 11/07
                        Q1027 NOSIG=
201903221520 METAR COR EGLL 221520Z AUTO 23010KT 9999 OVC016 11/07 Q1027
                        NOSIG=
201903221450 METAR EGLL 221450Z AUTO 23009KT 190V250 9999 BKN015 OVC019
                        11/07 Q1027=
201903221420 METAR COR EGLL 221420Z AUTO 22009KT 190V250 9999 BKN013 OVC017
                        11/07 Q1027 BECMG BKN015=
201903221350 METAR COR EGLL 221350Z AUTO 23008KT 9999 OVC013 10/07 Q1028
                        BECMG BKN015=
201903221320 METAR COR EGLL 221320Z AUTO 22008KT 9999 OVC012 10/07 Q1028
                        BECMG BKN015=
201903221250 METAR COR EGLL 221250Z AUTO 23009KT 180V250 9999 OVC012 10/07
                        Q1028 BECMG BKN015=
201903221220 METAR COR EGLL 221220Z AUTO 21008KT 180V240 9999 OVC012 10/07
                        Q1028 BECMG BKN015=
201903221150 METAR COR EGLL 221150Z AUTO 20008G20KT 160V230 9999 OVC012
                        10/07 Q1029 BECMG BKN016=
201903221120 METAR COR EGLL 221120Z AUTO 23008KT 190V250 9999 BKN011 OVC015
                        10/07 Q1029 BECMG BKN016=
201903221050 METAR COR EGLL 221050Z AUTO 22008KT 170V260 9999 OVC010 09/07
                        Q1029 NOSIG=
201903221020 METAR COR EGLL 221020Z AUTO 22008KT 190V250 9999 OVC011 09/07
                        Q1029 NOSIG=
201903220950 METAR COR EGLL 220950Z AUTO 22009KT 9999 OVC010 10/07 Q1029
                        NOSIG=
201903220920 METAR COR EGLL 220920Z AUTO 24010KT 9999 OVC011 09/06 Q1029
                        NOSIG=
201903220850 METAR COR EGLL 220850Z AUTO 22008KT 180V250 9999 OVC012 09/06
                        Q1029 NOSIG=
201903220820 METAR COR EGLL 220820Z AUTO 21009KT 9999 OVC012 09/06 Q1029
                        NOSIG=
201903220750 METAR COR EGLL 220750Z AUTO 22009KT 9999 OVC012 09/06 Q1029
                        NOSIG=
201903220720 METAR COR EGLL 220720Z AUTO 21008KT 9999 OVC013 09/06 Q1029
                        NOSIG=
201903220650 METAR COR EGLL 220650Z AUTO 22008KT 9999 OVC013 09/06 Q1029
                        BECMG BKN015=
201903220620 METAR COR EGLL 220620Z AUTO 23009KT 9999 OVC013 09/06 Q1029
                        NOSIG=
201903220550 METAR COR EGLL 220550Z AUTO 21007KT 9999 OVC013 09/06 Q1029
                        TEMPO BKN015=
201903220520 METAR COR EGLL 220520Z AUTO 20009KT 9999 OVC013 09/06 Q1029
                        NOSIG=
201903220450 METAR COR EGLL 220450Z AUTO 20008KT 9999 OVC013 09/06 Q1029
                        NOSIG=
201903220420 METAR COR EGLL 220420Z AUTO 19009KT 9999 OVC014 09/06 Q1029
                        NOSIG=
201903220350 METAR COR EGLL 220350Z AUTO 21007KT 9999 OVC015 10/07 Q1030
                        TEMPO BKN012=
201903220320 METAR COR EGLL 220320Z AUTO 20009KT 9999 OVC016 10/06 Q1030
                        TEMPO BKN012=
201903220250 METAR COR EGLL 220250Z AUTO 17008KT 9999 OVC017 10/07 Q1030
                        NOSIG=
201903220220 METAR COR EGLL 220220Z AUTO 20007KT 9999 OVC018 11/07 Q1030
                        NOSIG=
201903220150 METAR COR EGLL 220150Z AUTO 20006KT 9999 OVC019 11/07 Q1030
                        NOSIG=
201903220120 METAR COR EGLL 220120Z AUTO 19005KT 9999 OVC019 11/07 Q1030
                        NOSIG=
201903220050 METAR COR EGLL 220050Z AUTO 18005KT 9999 OVC020 11/08 Q1030
                        NOSIG=
201903220020 METAR COR EGLL 220020Z AUTO 18004KT 9999 OVC020 11/08 Q1030
                        NOSIG=
201903212350 METAR COR EGLL 212350Z AUTO 16006KT 9999 BKN021 11/08 Q1031
                        NOSIG=
201903212320 METAR COR EGLL 212320Z AUTO 17005KT 9999 BKN025 11/08 Q1031
                        NOSIG=
201903212250 METAR COR EGLL 212250Z AUTO 20005KT 160V240 9999 BKN026 11/08
                        Q1031 NOSIG=
201903212220 METAR COR EGLL 212220Z AUTO VRB04KT 9999 OVC027 11/09 Q1031
                        NOSIG=
201903212150 METAR COR EGLL 212150Z AUTO 36002KT 9999 OVC027 12/09 Q1032
                        NOSIG=
201903212120 METAR COR EGLL 212120Z AUTO VRB02KT 9999 OVC026 12/09 Q1032
                        NOSIG=
201903212050 METAR COR EGLL 212050Z AUTO VRB03KT 9999 OVC018 12/09 Q1032
                        NOSIG=
201903212020 METAR COR EGLL 212020Z AUTO 32004KT 9999 BKN022 OVC027 13/09
                        Q1032 NOSIG=
201903211950 METAR COR EGLL 211950Z AUTO VRB03KT 9999 BKN022 OVC026 13/08
                        Q1032 NOSIG=
201903211920 METAR COR EGLL 211920Z AUTO VRB03KT 9999 OVC022 13/08 Q1032
                        NOSIG=
201903211850 METAR COR EGLL 211850Z AUTO 25005KT 210V280 9999 OVC022 13/08
                        Q1032 NOSIG=
201903211820 METAR COR EGLL 211820Z AUTO 24006KT 210V280 9999 OVC022 13/09
                        Q1032 NOSIG=
201903211750 METAR COR EGLL 211750Z AUTO 29003KT 9999 OVC021 13/08 Q1032
                        NOSIG=
201903211720 METAR COR EGLL 211720Z AUTO VRB03KT 9999 OVC022 13/09 Q1032
                        NOSIG=
201903211650 METAR COR EGLL 211650Z AUTO 32004KT 9999 OVC021 13/09 Q1032
                        NOSIG=
201903211620 METAR COR EGLL 211620Z AUTO 31004KT 9999 OVC022 13/09 Q1032
                        NOSIG=
201903211550 METAR COR EGLL 211550Z AUTO 31004KT 270V010 9999 OVC021 13/09
                        Q1032 NOSIG=
201903211520 METAR COR EGLL 211520Z AUTO 28005KT 240V330 9999 BKN021 OVC025
                        13/09 Q1032 NOSIG=
201903211450 METAR COR EGLL 211450Z AUTO 30004KT 240V350 9999 BKN021 OVC026
                        14/09 Q1032 NOSIG=
201903211420 METAR COR EGLL 211420Z AUTO 29006KT 250V320 9999 BKN020 14/09
                        Q1033 NOSIG=
201903211350 METAR COR EGLL 211350Z AUTO 28005KT 250V310 9999 BKN018 OVC028
                        13/09 Q1033 NOSIG=
201903211320 METAR COR EGLL 211320Z AUTO 27006KT 230V300 9999 OVC019 13/09
                        Q1034 NOSIG=
201903211250 METAR COR EGLL 211250Z AUTO 28005KT 240V320 9999 OVC019 13/09
                        Q1034 NOSIG=
201903211220 METAR COR EGLL 211220Z AUTO 27005KT 210V310 9999 OVC018 13/09
                        Q1034 NOSIG=
201903211150 METAR COR EGLL 211150Z AUTO 26004KT 220V310 9999 OVC017 13/09
                        Q1034 NOSIG=
201903211120 METAR COR EGLL 211120Z AUTO 27005KT 210V310 9999 OVC015 13/09
                        Q1034 NOSIG=
201903211050 METAR COR EGLL 211050Z AUTO 25006KT 210V280 9999 OVC014 12/09
                        Q1034 BECMG BKN016=
201903211020 METAR COR EGLL 211020Z AUTO 25006KT 210V290 9999 OVC012 12/09
                        Q1034 BECMG BKN016=
201903210950 METAR COR EGLL 210950Z AUTO 25006KT 210V290 9999 OVC011 12/09
                        Q1034 BECMG BKN016=
201903210920 METAR COR EGLL 210920Z AUTO 25006KT 9999 OVC011 11/09 Q1034
                        BECMG BKN016=
201903210850 METAR COR EGLL 210850Z AUTO 22007KT 9999 OVC013 11/09 Q1034
                        BECMG BKN016=
201903210820 METAR COR EGLL 210820Z AUTO 20007KT 9999 OVC014 10/08 Q1034
                        BECMG SCT016=
201903210750 METAR COR EGLL 210750Z AUTO 21006KT 170V270 9999 OVC014 10/08
                        Q1034 BECMG SCT016=
201903210720 METAR COR EGLL 210720Z AUTO 22006KT 9999 OVC013 10/08 Q1033
                        BECMG BKN015=
201903210650 METAR COR EGLL 210650Z AUTO 23007KT 9000 SCT008 OVC014 09/08
                        Q1033 TEMPO BKN012=
201903210620 METAR COR EGLL 210620Z 24007KT 7000 OVC008 09/08 Q1033 TEMPO
                        BKN012=
201903210550 METAR COR EGLL 210550Z 27006KT 6000 -DZ FEW004 BKN008 09/08
                        Q1033 TEMPO BKN010=
201903210520 METAR COR EGLL 210520Z 27006KT 6000 -DZ OVC007 09/08 Q1033
                        NOSIG=
201903210450 METAR COR EGLL 210450Z AUTO 27006KT 9999 OVC009 09/08 Q1033
                        TEMPO BKN012=
201903210420 METAR COR EGLL 210420Z AUTO 27006KT 9999 OVC009 09/07 Q1033
                        TEMPO BKN012=
201903210350 METAR COR EGLL 210350Z AUTO 27008KT 9999 OVC010 09/07 Q1033
                        NOSIG=
201903210320 METAR COR EGLL 210320Z AUTO 27008KT 9999 OVC011 10/07 Q1033
                        NOSIG=
201903210250 METAR COR EGLL 210250Z AUTO 27009KT 9999 OVC011 10/08 Q1033
                        NOSIG=
201903210220 METAR COR EGLL 210220Z AUTO 23006KT 9999 OVC011 09/07 Q1033
                        NOSIG=
201903210150 METAR COR EGLL 210150Z AUTO 21006KT 9999 OVC012 09/07 Q1033
                        TEMPO BKN015=
201903210120 METAR COR EGLL 210120Z AUTO 21007KT 9999 OVC014 09/07 Q1033
                        TEMPO BKN015=
201903210050 METAR COR EGLL 210050Z AUTO 21007KT 9999 OVC015 10/08 Q1033
                        TEMPO BKN014=
201903210020 METAR COR EGLL 210020Z AUTO 21007KT 9999 OVC015 10/07 Q1033
                        TEMPO BKN014=
201903202350 METAR COR EGLL 202350Z AUTO 23008KT 9999 OVC013 10/07 Q1033
                        NOSIG=
201903202320 METAR COR EGLL 202320Z AUTO 25009KT 9999 OVC014 10/07 Q1033
                        NOSIG=
201903202250 METAR COR EGLL 202250Z AUTO 25009KT 9999 OVC015 11/07 Q1033
                        BECMG BKN014=
201903202220 METAR COR EGLL 202220Z AUTO 23008G18KT 200V260 9999 OVC015
                        11/08 Q1033 BECMG BKN014=
201903202150 METAR COR EGLL 202150Z AUTO 23009KT 9999 OVC016 11/08 Q1033
                        BECMG BKN014=
201903202120 METAR COR EGLL 202120Z AUTO 22009KT 190V260 9999 OVC018 11/08
                        Q1033 NOSIG=
201903202050 METAR COR EGLL 202050Z AUTO 22008KT 180V260 9999 OVC019 11/08
                        Q1033 NOSIG=
201903202020 METAR COR EGLL 202020Z AUTO 23008KT 9999 OVC020 12/08 Q1033
                        NOSIG=
201903201950 METAR COR EGLL 201950Z AUTO 24007KT 9999 OVC021 12/08 Q1033
                        NOSIG=
201903201920 METAR COR EGLL 201920Z AUTO 25008KT 9999 OVC021 12/08 Q1033
                        NOSIG=
201903201850 METAR COR EGLL 201850Z AUTO 25008KT 9999 OVC021 12/08 Q1033
                        NOSIG=
201903201820 METAR COR EGLL 201820Z AUTO 27006KT 240V300 9999 OVC021 12/08
                        Q1033 NOSIG=
201903201750 METAR EGLL 201750Z AUTO 28007KT 9999 OVC022 12/08 Q1033=
201903201720 METAR COR EGLL 201720Z AUTO 26008KT 9999 OVC021 13/08 Q1032
                        NOSIG=
201903201650 METAR COR EGLL 201650Z AUTO 25010KT 9999 OVC021 13/08 Q1032
                        NOSIG=
201903201620 METAR COR EGLL 201620Z AUTO 25010KT 9999 OVC021 13/08 Q1032
                        NOSIG=
201903201550 METAR COR EGLL 201550Z AUTO 25010KT 9999 BKN020 OVC025 13/08
                        Q1032 NOSIG=
201903201520 METAR COR EGLL 201520Z AUTO 24008KT 9999 OVC020 13/08 Q1032
                        NOSIG=
201903201450 METAR COR EGLL 201450Z AUTO 24009KT 9999 BKN020 OVC026 13/08
                        Q1032 NOSIG=
201903201420 METAR COR EGLL 201420Z AUTO 23009KT 200V260 9999 BKN021 OVC025
                        13/08 Q1032 NOSIG=
201903201350 METAR COR EGLL 201350Z AUTO 23007KT 9999 BKN019 OVC024 12/08
                        Q1033 NOSIG=
201903201320 METAR COR EGLL 201320Z AUTO 25009KT 210V270 9999 OVC016 12/08
                        Q1033 NOSIG=
201903201250 METAR COR EGLL 201250Z AUTO 24009KT 9999 OVC015 12/08 Q1033
                        NOSIG=
201903201220 METAR COR EGLL 201220Z AUTO 24007KT 9999 OVC014 12/08 Q1033
                        BECMG BKN018=
201903201150 METAR COR EGLL 201150Z AUTO 23008KT 9999 OVC013 11/08 Q1033
                        BECMG BKN018=
201903201120 METAR COR EGLL 201120Z AUTO 25008KT 9999 OVC012 11/08 Q1033
                        BECMG BKN015=
201903201050 METAR COR EGLL 201050Z AUTO 25008KT 230V290 9999 OVC012 11/08
                        Q1033 BECMG BKN015=
201903201020 METAR COR EGLL 201020Z AUTO 25009KT 9999 OVC012 11/08 Q1033
                        BECMG BKN015=
201903200950 METAR COR EGLL 200950Z AUTO 26008KT 9999 OVC011 10/08 Q1033
                        NOSIG=
201903200920 METAR COR EGLL 200920Z AUTO 26007KT 9999 OVC011 10/08 Q1033
                        NOSIG=
201903200850 METAR COR EGLL 200850Z AUTO 28007KT 9999 OVC010 10/08 Q1033
                        NOSIG=
201903200820 METAR COR EGLL 200820Z AUTO 28008KT 9999 OVC010 10/08 Q1032
                        NOSIG=
201903200750 METAR COR EGLL 200750Z AUTO 27007KT 9999 OVC009 10/08 Q1032
                        BECMG BKN010=
201903200720 METAR COR EGLL 200720Z AUTO 27006KT 9999 OVC010 10/08 Q1032
                        TEMPO BKN008=
201903200650 METAR COR EGLL 200650Z AUTO 26008KT 9999 OVC010 10/07 Q1032
                        TEMPO BKN008=
201903200620 METAR COR EGLL 200620Z AUTO 27006KT 9999 OVC011 10/07 Q1031
                        TEMPO BKN008=
201903200550 METAR COR EGLL 200550Z AUTO 26006KT 9999 OVC010 09/07 Q1031
                        TEMPO BKN008=
201903200520 METAR COR EGLL 200520Z AUTO 26006KT 9999 BKN011 09/07 Q1031
                        TEMPO BKN008=
201903200450 METAR COR EGLL 200450Z AUTO 26005KT 9999 BKN011 09/07 Q1031
                        TEMPO BKN008=
201903200420 METAR COR EGLL 200420Z AUTO 28005KT 9999 BKN012 09/07 Q1031
                        TEMPO BKN008=
201903200350 METAR COR EGLL 200350Z AUTO 27006KT 9999 SCT012 BKN024 09/07
                        Q1031 TEMPO BKN010=
201903200320 METAR COR EGLL 200320Z AUTO 26006KT 9999 FEW013 SCT026 BKN046
                        09/07 Q1031 TEMPO BKN010=
201903200250 METAR COR EGLL 200250Z AUTO 25007KT 9999 BKN044 10/07 Q1031
                        TEMPO BKN010=
201903200220 METAR COR EGLL 200220Z AUTO 26006KT 9999 BKN041 10/07 Q1031
                        NOSIG=
201903200150 METAR COR EGLL 200150Z AUTO 26006KT 9999 BKN042 10/07 Q1031
                        NOSIG=
201903200120 METAR COR EGLL 200120Z AUTO 26007KT 9999 NCD 10/07 Q1030
                        NOSIG=
201903200050 METAR COR EGLL 200050Z AUTO 27006KT 9999 NCD 10/08 Q1030
                        NOSIG=
201903200020 METAR COR EGLL 200020Z AUTO 24005KT 9999 FEW032 10/08 Q1030
                        NOSIG=
201903192350 METAR COR EGLL 192350Z AUTO 24007KT 9999 SCT025 10/08 Q1030
                        NOSIG=
201903192320 METAR COR EGLL 192320Z AUTO 22006KT 9999 BKN025 10/08 Q1030
                        NOSIG=
201903192250 METAR COR EGLL 192250Z AUTO 23007KT 9999 BKN026 10/08 Q1030
                        NOSIG=
201903192220 METAR COR EGLL 192220Z AUTO 23007KT 9999 OVC028 10/08 Q1030
                        NOSIG=
201903192150 METAR COR EGLL 192150Z AUTO 23008KT 200V260 9999 BKN030 10/08
                        Q1030 NOSIG=
201903192120 METAR COR EGLL 192120Z AUTO 23009KT 9999 SCT035 10/08 Q1030
                        NOSIG=
201903192050 METAR COR EGLL 192050Z AUTO 23009KT 9999 NCD 10/08 Q1029
                        NOSIG=
201903192020 METAR COR EGLL 192020Z AUTO 22009KT 9999 NCD 10/08 Q1029
                        NOSIG=
201903191950 METAR COR EGLL 191950Z AUTO 23009KT 9999 NCD 10/08 Q1029
                        NOSIG=
201903191920 METAR COR EGLL 191920Z AUTO 24010KT 9999 SCT036 11/08 Q1029
                        NOSIG=
201903191850 METAR COR EGLL 191850Z AUTO 22009KT 9999 SCT036 10/08 Q1029
                        NOSIG=
201903191820 METAR COR EGLL 191820Z AUTO 22008KT 9999 FEW025 BKN036 11/08
                        Q1029 NOSIG=
201903191750 METAR COR EGLL 191750Z AUTO 22009KT 9999 BKN023 BKN035 11/08
                        Q1028 NOSIG=
201903191720 METAR COR EGLL 191720Z AUTO 21009KT 9999 SCT030 OVC046 11/08
                        Q1028 NOSIG=
201903191650 METAR COR EGLL 191650Z AUTO 24009KT 9999 SCT027 BKN032 OVC043
                        12/08 Q1028 NOSIG=
201903191620 METAR COR EGLL 191620Z AUTO 28012KT 9999 BKN024 BKN032 OVC041
                        12/08 Q1027 NOSIG=
201903191550 METAR COR EGLL 191550Z AUTO 24009KT 9999 FEW028 BKN034 OVC045
                        13/07 Q1027 NOSIG=
201903191520 METAR COR EGLL 191520Z AUTO 25009KT 9999 FEW029 BKN037 OVC047
                        13/07 Q1027 NOSIG=
201903191450 METAR COR EGLL 191450Z AUTO 24008KT 9999 OVC042 13/07 Q1027
                        NOSIG=
201903191420 METAR COR EGLL 191420Z AUTO 23008KT 9999 FEW025 BKN032 BKN043
                        13/07 Q1027 NOSIG=
201903191350 METAR COR EGLL 191350Z AUTO 24008KT 9999 FEW024 SCT029 BKN035
                        13/07 Q1027 NOSIG=
201903191320 METAR COR EGLL 191320Z AUTO 20006G16KT 160V260 9999 SCT024
                        13/07 Q1027 NOSIG=
201903191250 METAR COR EGLL 191250Z AUTO 21006KT 9999 FEW020 SCT026 BKN031
                        12/07 Q1028 NOSIG=
201903191220 METAR COR EGLL 191220Z AUTO 23007KT 9999 FEW018 SCT023 BKN028
                        12/08 Q1028 NOSIG=
201903191150 METAR COR EGLL 191150Z 23006KT 180V280 9999 BKN015 BKN023
                        11/08 Q1028 NOSIG=
201903191120 METAR COR EGLL 191120Z AUTO 24006KT 180V270 9999 BKN013 11/08
                        Q1028 BECMG BKN015=
201903191050 METAR COR EGLL 191050Z AUTO 24006KT 9999 BKN010 10/08 Q1028
                        BECMG BKN015=
201903191020 METAR COR EGLL 191020Z AUTO 26005KT 230V290 9999 BKN007 10/08
                        Q1027 BECMG BKN010=
201903190950 METAR COR EGLL 190950Z AUTO 25004KT 210V290 6000 BKN007 BKN018
                        09/08 Q1027 TEMPO BKN010=
201903190920 METAR COR EGLL 190920Z AUTO 24004KT 200V280 6000 BKN006 BKN020
                        OVC047 09/08 Q1027 TEMPO BKN010=
201903190850 METAR COR EGLL 190850Z AUTO 25005KT 2900 -RADZ BKN006 OVC032
                        08/07 Q1027 REDZ TEMPO 6000 BKN012=
201903190820 METAR COR EGLL 190820Z AUTO 23006KT 9999 BKN008 OVC045 08/07
                        Q1027 TEMPO BKN012=
201903190750 METAR COR EGLL 190750Z 22006KT 9999 BKN010 BKN031 OVC047
                        08/06 Q1027 NOSIG=
201903190720 METAR COR EGLL 190720Z AUTO 21005KT 180V240 9999 FEW026 OVC047
                        07/06 Q1026 NOSIG=
201903190650 METAR COR EGLL 190650Z AUTO 21005KT 180V270 9999 FEW013 BKN031
                        BKN043 07/06 Q1026 TEMPO BKN014=
201903190620 METAR COR EGLL 190620Z AUTO VRB05KT 9999 OVC028 07/06 Q1026
                        NOSIG=
201903190550 METAR COR EGLL 190550Z AUTO 21004KT 9999 BKN026 07/06 Q1026
                        NOSIG=
201903190520 METAR COR EGLL 190520Z AUTO 21003KT 9999 OVC025 07/06 Q1026
                        NOSIG=
201903190450 METAR COR EGLL 190450Z AUTO 22004KT 9999 OVC025 07/06 Q1025
                        NOSIG=
201903190420 METAR COR EGLL 190420Z AUTO 20004KT 9999 BKN029 OVC040 07/06
                        Q1025 NOSIG=
201903190350 METAR COR EGLL 190350Z AUTO 18004KT 9000 BKN035 07/06 Q1025
                        NOSIG=
201903190320 METAR COR EGLL 190320Z AUTO 16004KT 9999 NCD 06/05 Q1025
                        NOSIG=
201903190250 METAR COR EGLL 190250Z AUTO 23002KT 9999 NCD 07/06 Q1025
                        NOSIG=
201903190220 METAR COR EGLL 190220Z AUTO 24003KT 9999 NCD 07/05 Q1025
                        NOSIG=
201903190150 METAR COR EGLL 190150Z AUTO 20003KT 9999 SCT043 07/05 Q1025
                        NOSIG=
201903190120 METAR COR EGLL 190120Z AUTO 22003KT 9999 FEW045 07/05 Q1025
                        NOSIG=
201903190050 METAR COR EGLL 190050Z AUTO 22003KT 9999 BKN045 07/05 Q1025
                        NOSIG=
201903190020 METAR COR EGLL 190020Z AUTO 22003KT 9999 FEW047 07/05 Q1025
                        NOSIG=
201903182350 METAR COR EGLL 182350Z AUTO 25004KT 9999 FEW047 07/05 Q1024
                        NOSIG=
201903182320 METAR COR EGLL 182320Z AUTO 24005KT 9999 BKN047 08/05 Q1024
                        NOSIG=
201903182250 METAR COR EGLL 182250Z AUTO 24005KT 9999 OVC047 08/05 Q1024
                        NOSIG=
201903182220 METAR COR EGLL 182220Z AUTO 23006KT 200V270 9999 OVC046 07/06
                        Q1024 NOSIG=
201903182150 METAR COR EGLL 182150Z AUTO 24007KT 9999 BKN045 07/05 Q1024
                        NOSIG=
201903182120 METAR COR EGLL 182120Z AUTO 23007KT 200V270 9999 BKN047 07/05
                        Q1024 NOSIG=
201903182050 METAR COR EGLL 182050Z AUTO 24005KT 190V270 9999 BKN048 07/05
                        Q1024 NOSIG=
201903182020 METAR COR EGLL 182020Z AUTO 24006KT 210V270 9999 BKN041 08/05
                        Q1024 NOSIG=
201903181950 METAR COR EGLL 181950Z AUTO 22006KT 190V250 9999 BKN039 08/05
                        Q1023 NOSIG=
201903181920 METAR COR EGLL 181920Z AUTO 23005KT 200V260 9999 FEW043 08/04
                        Q1023 NOSIG=
201903181850 METAR COR EGLL 181850Z AUTO 23005KT 200V280 9999 NCD 08/04
                        Q1023 NOSIG=
201903181820 METAR COR EGLL 181820Z AUTO VRB02KT 9999 NCD 08/04 Q1023
                        NOSIG=
201903181750 METAR COR EGLL 181750Z AUTO 26004KT 230V290 9999 -RA FEW035
                        BKN046 09/04 Q1022 NOSIG=
201903181720 METAR COR EGLL 181720Z AUTO 28004KT 240V310 9999 -RA FEW046
                        09/04 Q1022 NOSIG=
201903181650 METAR COR EGLL 181650Z AUTO 28006KT 9999 FEW045 08/04 Q1022
                        NOSIG=
201903181620 METAR COR EGLL 181620Z AUTO 29006KT 9999 -RA BKN041 09/05
                        Q1022 NOSIG=
201903181550 METAR COR EGLL 181550Z AUTO 29009KT 9999 NCD 10/03 Q1021
                        NOSIG=
201903181520 METAR COR EGLL 181520Z AUTO 29008KT 270V330 9999 NCD 10/03
                        Q1021 NOSIG=
201903181450 METAR COR EGLL 181450Z AUTO 29010KT 9999 NCD 10/03 Q1021
                        NOSIG=
201903181420 METAR COR EGLL 181420Z AUTO 30011KT 9999 FEW043 10/04 Q1021
                        TEMPO SHRA=
201903181350 METAR COR EGLL 181350Z AUTO 30006KT 280V340 9999 -RA FEW049
                        10/03 Q1021 TEMPO SHRA=
201903181320 METAR COR EGLL 181320Z AUTO 30006KT 260V340 9999 -RA SCT044///
                        //////TCU 10/03 Q1021 TEMPO SHRA=
201903181250 METAR COR EGLL 181250Z AUTO 27008KT 9999 -RA SCT030 SCT045
                        10/02 Q1021 TEMPO SHRA=
201903181220 METAR COR EGLL 181220Z AUTO 30007KT 270V340 9999 -RA BKN033
                        10/04 Q1021 TEMPO SHRA=
201903181150 METAR COR EGLL 181150Z AUTO 29008KT 260V320 9999 SCT032 11/04
                        Q1021 NOSIG=
201903181120 METAR COR EGLL 181120Z AUTO 30008KT 270V350 9999 BKN031 10/03
                        Q1021 NOSIG=
201903181050 METAR COR EGLL 181050Z AUTO 29009KT 9999 SCT030 10/04 Q1021
                        NOSIG=
201903181020 METAR COR EGLL 181020Z AUTO 30007KT 270V330 9999 SCT025 BKN030
                        BKN040 09/04 Q1021 NOSIG=
201903180950 METAR COR EGLL 180950Z AUTO 27007KT 220V290 9999 FEW024 09/04
                        Q1021 NOSIG=
201903180920 METAR COR EGLL 180920Z AUTO 27008KT 9999 NCD 08/04 Q1021
                        NOSIG=
201903180850 METAR COR EGLL 180850Z AUTO 26008KT 9999 NCD 07/03 Q1020
                        NOSIG=
201903180820 METAR COR EGLL 180820Z AUTO 27008KT 9999 NCD 06/03 Q1020
                        NOSIG=
201903180750 METAR COR EGLL 180750Z AUTO 27008KT 9999 NCD 06/03 Q1020
                        NOSIG=
201903180720 METAR COR EGLL 180720Z AUTO 27009KT 9999 NCD 05/02 Q1020
                        NOSIG=
201903180650 METAR COR EGLL 180650Z AUTO 27007KT 9999 NCD 04/02 Q1019
                        NOSIG=
201903180620 METAR COR EGLL 180620Z AUTO 28007KT 9999 NCD 04/02 Q1019
                        NOSIG=
201903180550 METAR COR EGLL 180550Z AUTO 28007KT 9999 NCD 04/02 Q1019
                        NOSIG=
201903180520 METAR COR EGLL 180520Z AUTO 27008KT 9999 NCD 04/02 Q1018
                        NOSIG=
201903180450 METAR COR EGLL 180450Z AUTO 27007KT 9999 NCD 04/02 Q1018
                        NOSIG=
201903180420 METAR COR EGLL 180420Z AUTO 26007KT 9999 NCD 04/02 Q1018
                        NOSIG=
201903180350 METAR COR EGLL 180350Z AUTO 27008KT 9999 NCD 04/02 Q1017
                        NOSIG=
201903180320 METAR COR EGLL 180320Z AUTO 29007KT 9999 NCD 03/02 Q1017
                        NOSIG=
201903180250 METAR COR EGLL 180250Z AUTO 29006KT 9999 NCD 03/01 Q1017
                        NOSIG=
201903180220 METAR COR EGLL 180220Z AUTO 28009KT 9999 NCD 04/02 Q1017
                        NOSIG=
201903180150 METAR COR EGLL 180150Z AUTO 29008KT 9999 NCD 05/02 Q1016
                        NOSIG=
201903180120 METAR COR EGLL 180120Z AUTO 28008KT 9999 NCD 04/02 Q1016
                        NOSIG=
201903180050 METAR COR EGLL 180050Z AUTO 27007KT 9999 NCD 04/02 Q1015
                        NOSIG=
201903180020 METAR COR EGLL 180020Z AUTO 29006KT 9999 NCD 05/03 Q1015
                        NOSIG=
201903172350 METAR COR EGLL 172350Z AUTO 27008KT 9999 NCD 05/03 Q1015
                        NOSIG=
201903172320 METAR COR EGLL 172320Z AUTO 28006KT 9999 FEW019 06/03 Q1014
                        NOSIG=
201903172250 METAR COR EGLL 172250Z AUTO 28008KT 9999 -RA FEW011 SCT031
                        BKN044 06/04 Q1014 NOSIG=
201903172220 METAR COR EGLL 172220Z AUTO 28009KT 9999 SCT046 06/03 Q1014
                        NOSIG=
201903172150 METAR COR EGLL 172150Z AUTO 28008KT 9999 BKN043 BKN049 07/03
                        Q1013 NOSIG=
201903172120 METAR COR EGLL 172120Z AUTO 28009KT 9999 FEW048 07/03 Q1013
                        NOSIG=
201903172050 METAR COR EGLL 172050Z AUTO 27008KT 9999 NCD 06/03 Q1012
                        NOSIG=
201903172020 METAR COR EGLL 172020Z AUTO 28011KT 9999 BKN047 07/03 Q1012
                        NOSIG=
201903171950 METAR COR EGLL 171950Z AUTO 28013KT 9999 SCT046 06/03 Q1011
                        NOSIG=
201903171920 METAR COR EGLL 171920Z AUTO 28013KT 9999 BKN037 06/03 Q1011
                        NOSIG=
201903171850 METAR COR EGLL 171850Z AUTO 28014KT 9999 SCT031 BKN037 07/03
                        Q1010 NOSIG=
201903171820 METAR COR EGLL 171820Z AUTO 27018KT 9999 FEW036 SCT049 07/02
                        Q1010 NOSIG=
201903171750 METAR COR EGLL 171750Z AUTO 26014KT 9999 -RA SCT037 BKN044
                        08/02 Q1009 NOSIG=
201903171720 METAR COR EGLL 171720Z AUTO 27012KT 9999 NCD 08/02 Q1009
                        TEMPO SHRA=
201903171650 METAR COR EGLL 171650Z AUTO 27016KT 9999 NCD 09/01 Q1008
                        TEMPO SHRA=
201903171620 METAR COR EGLL 171620Z AUTO 29010G21KT 240V320 9999 //////TCU
                        08/01 Q1008 NOSIG=
201903171550 METAR COR EGLL 171550Z 31007G19KT 270V340 9999 -SHRA SCT025CB
                        BKN045 07/01 Q1007 RESHGR NOSIG=
201903171520 METAR COR EGLL 171520Z 30009KT 260V360 7000 SHGR SCT026CB
                        BKN042 08/01 Q1007 RESHGR BECMG NSW=
201903171450 METAR COR EGLL 171450Z 28018G30KT 250V320 9999 -SHRA SCT040CB
                        BKN048 09/M00 Q1007 TEMPO SHRAGS=
201903171420 METAR COR EGLL 171420Z AUTO 26016KT 9999 FEW019TCU SCT030///
                        BKN046/// 09/02 Q1007 TEMPO SHRAGS=
201903171350 METAR COR EGLL 171350Z 29008KT 9999 FEW019TCU SCT030 BKN046
                        07/02 Q1007 TEMPO SHRA=
201903171320 METAR COR EGLL 171320Z AUTO 27020KT 9999 SCT049 10/M00 Q1006
                        TEMPO SHRA=
201903171250 METAR COR EGLL 171250Z AUTO 27017KT 9999 NCD 10/00 Q1006
                        TEMPO SHRA=
201903171220 METAR COR EGLL 171220Z AUTO 27016KT 9999 FEW046 09/00 Q1006
                        NOSIG=
201903171150 METAR COR EGLL 171150Z AUTO 27016KT 9999 FEW046 08/M00 Q1006
                        NOSIG=
201903171120 METAR COR EGLL 171120Z AUTO 27018KT 9999 NCD 08/01 Q1006
                        NOSIG=
201903171050 METAR COR EGLL 171050Z AUTO 28015KT 9999 SCT034 SCT043 08/01
                        Q1006 NOSIG=
201903171020 METAR COR EGLL 171020Z AUTO 28015KT 9999 FEW031 BKN037 07/01
                        Q1005 NOSIG=
201903170950 METAR COR EGLL 170950Z AUTO 28013KT 9999 SCT028 BKN032 BKN038
                        07/02 Q1005 NOSIG=
201903170920 METAR COR EGLL 170920Z AUTO 28014KT 9999 FEW025 06/02 Q1005
                        NOSIG=
201903170850 METAR COR EGLL 170850Z AUTO 27014KT 9999 NCD 06/02 Q1004
                        NOSIG=
201903170820 METAR COR EGLL 170820Z AUTO 27013KT 9999 NCD 06/02 Q1004
                        NOSIG=
201903170750 METAR COR EGLL 170750Z AUTO 27013KT 9999 NCD 05/02 Q1003
                        NOSIG=
201903170720 METAR COR EGLL 170720Z AUTO 26012KT 9999 NCD 05/02 Q1003
                        NOSIG=
201903170650 METAR COR EGLL 170650Z AUTO 27010KT 9999 NCD 04/02 Q1002
                        NOSIG=
201903170620 METAR COR EGLL 170620Z AUTO 26009KT 9999 NCD 04/02 Q1001
                        NOSIG=
201903170550 METAR COR EGLL 170550Z AUTO 27009KT 9999 NCD 05/02 Q1001
                        NOSIG=
201903170520 METAR COR EGLL 170520Z AUTO 26011KT 9999 NCD 05/03 Q1000
                        NOSIG=
201903170450 METAR COR EGLL 170450Z AUTO 27010KT 9999 NCD 05/03 Q1000
                        NOSIG=
201903170420 METAR COR EGLL 170420Z AUTO 26013KT 9999 NCD 05/03 Q1000
                        NOSIG=
201903170350 METAR COR EGLL 170350Z AUTO 26013KT 9999 FEW029 05/03 Q0999
                        NOSIG=
201903170320 METAR COR EGLL 170320Z AUTO 26013KT 9999 FEW024 SCT031 06/03
                        Q0999 NOSIG=
201903170250 METAR COR EGLL 170250Z AUTO 27011KT 9999 FEW023 SCT043 06/04
                        Q0998 NOSIG=
201903170220 METAR COR EGLL 170220Z AUTO 26012KT 9999 NCD 06/04 Q0998
                        NOSIG=
201903170150 METAR COR EGLL 170150Z AUTO 25012KT 9999 //////TCU 07/04
                        Q0998 NOSIG=
201903170120 METAR COR EGLL 170120Z AUTO 25012KT 9999 BKN018 07/05 Q0998
                        NOSIG=
201903170050 METAR COR EGLL 170050Z AUTO 25011KT 9999 BKN019 07/05 Q0997
                        NOSIG=
201903170020 METAR COR EGLL 170020Z AUTO 26011KT 9999 FEW021 BKN038 BKN046
                        08/05 Q0997 NOSIG=
201903162350 METAR COR EGLL 162350Z AUTO 27012KT 9999 FEW025 SCT035 08/06
                        Q0997 NOSIG=
201903162320 METAR COR EGLL 162320Z AUTO 26014KT 9999 -RA BKN017 BKN025
                        08/06 Q0996 NOSIG=
201903162250 METAR COR EGLL 162250Z AUTO 25013KT 9999 -RA SCT019 BKN026
                        BKN045 09/07 Q0996 NOSIG=
201903162220 METAR COR EGLL 162220Z AUTO 25013KT 9999 -RA FEW026 09/07
                        Q0996 NOSIG=
201903162150 METAR COR EGLL 162150Z AUTO 26015KT 9999 -RA SCT033/// BKN044///
                        //////CB 09/07 Q0996 NOSIG=
201903162120 METAR COR EGLL 162120Z 26021KT 8000 -RA FEW014CB BKN020 BKN032
                        09/07 Q0996 RERA NOSIG=
201903162050 METAR COR EGLL 162050Z AUTO 22018G28KT 9999 -RA BKN013///
                        OVC044/// //////CB 10/09 Q0995 TEMPO
                        4000 RA=
201903162020 METAR COR EGLL 162020Z AUTO 22017KT 6000 -RA BKN010/// OVC018///
                        //////TCU 10/09 Q0996 RERA TEMPO
                        4000 RA BKN009=
201903161950 METAR COR EGLL 161950Z AUTO 22018KT 6000 -RA SCT011 BKN016
                        OVC021 10/08 Q0996 TEMPO RA BKN011=
201903161920 METAR COR EGLL 161920Z AUTO 22016G26KT 9000 -RA BKN012 BKN018
                        OVC024 10/08 Q0996 TEMPO 4000 RA=
201903161850 METAR COR EGLL 161850Z 22019G31KT 6000 -RADZ BKN013 OVC024
                        10/08 Q0996 TEMPO RA=
201903161820 METAR COR EGLL 161820Z AUTO 22020G31KT 9999 BKN017 OVC032
                        11/07 Q0997 TEMPO RA BKN014=
201903161750 METAR COR EGLL 161750Z AUTO 22022KT 9999 -RA OVC018 11/07
                        Q0998 TEMPO RA BKN014=
201903161720 METAR COR EGLL 161720Z AUTO 22023G36KT 9999 OVC021 11/07
                        Q0998 NOSIG=
201903161650 METAR COR EGLL 161650Z AUTO 23026G36KT 9999 BKN022 OVC029
                        11/07 Q0998 NOSIG=
201903161620 METAR COR EGLL 161620Z AUTO 23022G33KT 9999 BKN025 OVC030
                        11/06 Q0998 NOSIG=
201903161550 METAR COR EGLL 161550Z AUTO 23024KT 9999 BKN025 OVC031 11/06
                        Q0999 NOSIG=
201903161520 METAR COR EGLL 161520Z AUTO 23022G37KT 9999 BKN025 OVC030
                        12/06 Q0999 NOSIG=
201903161450 METAR COR EGLL 161450Z AUTO 23026G39KT 9999 BKN026 OVC032
                        12/07 Q1000 NOSIG=
201903161420 METAR COR EGLL 161420Z AUTO 24021G31KT 9999 BKN025 OVC031
                        12/07 Q1000 NOSIG=
201903161350 METAR COR EGLL 161350Z AUTO 24022KT 9999 BKN023 OVC031 12/07
                        Q1001 NOSIG=
201903161320 METAR COR EGLL 161320Z AUTO 23021G31KT 9999 BKN023 OVC036
                        12/07 Q1002 NOSIG=
201903161250 METAR COR EGLL 161250Z AUTO 23028KT 9999 SCT023 BKN028 OVC033
                        12/07 Q1002 NOSIG=
201903161220 METAR COR EGLL 161220Z AUTO 24024KT 9999 SCT027 OVC034 12/07
                        Q1002 NOSIG=
201903161150 METAR COR EGLL 161150Z AUTO 24023G36KT 9999 OVC026 12/06
                        Q1003 NOSIG=
201903161120 METAR COR EGLL 161120Z AUTO 24022G32KT 9999 OVC022 11/07
                        Q1003 NOSIG=
201903161050 METAR COR EGLL 161050Z AUTO 23022G33KT 9999 BKN023 OVC029
                        11/07 Q1004 NOSIG=
201903161020 METAR COR EGLL 161020Z AUTO 24022KT 9999 BKN026 OVC035 12/06
                        Q1004 NOSIG=
201903160950 METAR COR EGLL 160950Z AUTO 23021KT 9999 BKN026 OVC031 12/06
                        Q1004 NOSIG=
201903160920 METAR COR EGLL 160920Z AUTO 24020KT 9999 BKN022 BKN027 OVC031
                        11/06 Q1005 NOSIG=
201903160850 METAR COR EGLL 160850Z AUTO 23021KT 9999 OVC022 11/07 Q1005
                        NOSIG=
201903160820 METAR COR EGLL 160820Z AUTO 24021KT 9999 BKN020 OVC029 11/07
                        Q1005 NOSIG=
201903160750 METAR COR EGLL 160750Z AUTO 23017KT 9999 BKN017 OVC031 11/08
                        Q1005 NOSIG=
201903160720 METAR COR EGLL 160720Z AUTO 23016KT 9999 BKN019 BKN025 OVC032
                        11/08 Q1006 NOSIG=
201903160650 METAR COR EGLL 160650Z AUTO 23017G28KT 9999 BKN020 OVC026
                        11/08 Q1006 NOSIG=
201903160620 METAR COR EGLL 160620Z AUTO 24018KT 9999 BKN017 OVC024 11/08
                        Q1006 NOSIG=
201903160550 METAR COR EGLL 160550Z AUTO 24016KT 9999 OVC017 11/08 Q1006
                        NOSIG=
201903160520 METAR COR EGLL 160520Z AUTO 23018KT 9999 OVC016 11/08 Q1006
                        NOSIG=
201903160450 METAR COR EGLL 160450Z AUTO 23015KT 9999 BKN016 OVC020 11/08
                        Q1007 NOSIG=
201903160420 METAR COR EGLL 160420Z 23018KT 9999 BKN017 OVC026 11/08 Q1007
                        NOSIG=
201903160350 METAR COR EGLL 160350Z AUTO 23016KT 9999 BKN015 OVC022 11/08
                        Q1007 NOSIG=
201903160320 METAR COR EGLL 160320Z AUTO 23017KT 9999 BKN016 OVC024 11/08
                        Q1007 NOSIG=
201903160250 METAR COR EGLL 160250Z AUTO 23019KT 9999 BKN017 11/08 Q1008
                        NOSIG=
201903160220 METAR COR EGLL 160220Z AUTO 23016KT 9999 BKN018 12/09 Q1008
                        TEMPO BKN014=
201903160150 METAR COR EGLL 160150Z AUTO 24015KT 9999 BKN017 12/09 Q1008
                        TEMPO BKN014=
201903160120 METAR COR EGLL 160120Z AUTO 23016KT 9999 BKN014 OVC023 12/09
                        Q1009 TEMPO BKN008=
201903160050 METAR COR EGLL 160050Z AUTO 23014KT 9999 BKN011 OVC022 11/10
                        Q1009 TEMPO BKN008=
201903160020 METAR COR EGLL 160020Z AUTO 23012KT 9999 BKN011 OVC022 11/10
                        Q1009 TEMPO BKN008=
201903152350 METAR COR EGLL 152350Z AUTO 21008KT 9999 -RA BKN009 OVC014
                        11/10 Q1010 TEMPO SCT009=
201903152320 METAR COR EGLL 152320Z AUTO 23007KT 9999 BKN011 OVC016 11/09
                        Q1010 TEMPO BKN008=
201903152250 METAR COR EGLL 152250Z AUTO 23009KT 9999 BKN008 OVC014 10/09
                        Q1011 NOSIG=
201903152220 METAR COR EGLL 152220Z AUTO 23010KT 8000 BKN010 BKN014 OVC019
                        10/09 Q1011 TEMPO BKN008=
201903152150 METAR COR EGLL 152150Z AUTO 23010KT 9999 BKN015 OVC023 11/08
                        Q1011 TEMPO BKN009=
201903152120 METAR COR EGLL 152120Z AUTO 24012KT 9999 BKN025 BKN030 OVC041
                        11/08 Q1011 TEMPO BKN014=
201903152050 METAR COR EGLL 152050Z AUTO 25013KT 9999 BKN030 OVC041 11/08
                        Q1011 NOSIG=
201903152020 METAR COR EGLL 152020Z AUTO 26012KT 9999 BKN032 BKN041 OVC048
                        12/07 Q1011 NOSIG=
201903151950 METAR COR EGLL 151950Z AUTO 27013KT 9999 BKN036 12/07 Q1010
                        NOSIG=
201903151920 METAR COR EGLL 151920Z AUTO 27016KT 9999 FEW028 BKN036 12/07
                        Q1010 NOSIG=
201903151850 METAR COR EGLL 151850Z AUTO 27014KT 9999 SCT025 OVC039 12/08
                        Q1010 NOSIG=
201903151820 METAR COR EGLL 151820Z AUTO 26014KT 9999 FEW029 OVC039 12/08
                        Q1009 NOSIG=
201903151750 METAR COR EGLL 151750Z AUTO 26018KT 9999 BKN033 OVC045 13/08
                        Q1009 NOSIG=
201903151720 METAR COR EGLL 151720Z AUTO 27017KT 9999 BKN036 OVC044 13/08
                        Q1008 NOSIG=
201903151650 METAR COR EGLL 151650Z AUTO 26019KT 9999 FEW029 BKN034 BKN042
                        14/08 Q1008 NOSIG=
201903151620 METAR COR EGLL 151620Z AUTO 26022G33KT 9999 BKN036 15/08
                        Q1008 NOSIG=
201903151550 METAR COR EGLL 151550Z AUTO 26022KT 9999 NCD 14/09 Q1007
                        NOSIG=
201903151520 METAR COR EGLL 151520Z AUTO 27025KT 9999 BKN027 14/09 Q1007
                        NOSIG=
201903151450 METAR COR EGLL 151450Z AUTO 27023KT 9999 SCT025 BKN030 14/09
                        Q1007 NOSIG=
201903151420 METAR COR EGLL 151420Z AUTO 27024G36KT 9999 SCT023 BKN030
                        14/10 Q1007 NOSIG=
201903151350 METAR COR EGLL 151350Z AUTO 27025G36KT 9999 BKN022 BKN031
                        BKN047 14/10 Q1007 NOSIG=
201903151320 METAR COR EGLL 151320Z AUTO 27026G38KT 9999 BKN020 OVC049
                        14/10 Q1007 NOSIG=
201903151250 METAR COR EGLL 151250Z AUTO 27025KT 9999 BKN021 OVC031 14/10
                        Q1007 NOSIG=
201903151220 METAR COR EGLL 151220Z AUTO 27024KT 9999 BKN021 BKN025 OVC033
                        14/10 Q1007 NOSIG=
201903151150 METAR COR EGLL 151150Z AUTO 27025G37KT 9999 BKN020 OVC031
                        14/10 Q1006 NOSIG=
201903151120 METAR COR EGLL 151120Z AUTO 27024G36KT 9999 BKN020 OVC029
                        14/10 Q1006 NOSIG=
201903151050 METAR COR EGLL 151050Z AUTO 27024KT 9999 BKN020 BKN025 14/10
                        Q1006 NOSIG=
201903151020 METAR COR EGLL 151020Z AUTO 27029KT 9999 BKN020 BKN029 14/10
                        Q1006 NOSIG=
201903150950 METAR COR EGLL 150950Z AUTO 27027G41KT 9999 BKN021 BKN026
                        14/10 Q1006 NOSIG=
201903150920 METAR COR EGLL 150920Z AUTO 26027G38KT 9999 BKN020 13/09
                        Q1006 NOSIG=
201903150850 METAR COR EGLL 150850Z AUTO 26028KT 9999 BKN019 13/09 Q1006
                        NOSIG=
201903150820 METAR COR EGLL 150820Z AUTO 26026KT 9999 BKN019 13/09 Q1006
                        NOSIG=
201903150750 METAR COR EGLL 150750Z AUTO 26023G34KT 9999 OVC018 12/09
                        Q1005 NOSIG=
201903150720 METAR COR EGLL 150720Z AUTO 26025KT 9999 BKN019 OVC023 12/09
                        Q1006 NOSIG=
201903150650 METAR COR EGLL 150650Z AUTO 26024G37KT 9999 BKN018 12/09
                        Q1005 NOSIG=
201903150620 METAR COR EGLL 150620Z AUTO 26023G34KT 9999 BKN018 OVC025
                        12/09 Q1005 NOSIG=
201903150550 METAR COR EGLL 150550Z AUTO 26021KT 9999 BKN017 OVC031 12/09
                        Q1005 NOSIG=
201903150520 METAR COR EGLL 150520Z AUTO 26023G33KT 9999 BKN017 OVC021
                        12/09 Q1005 TEMPO BKN014=
201903150450 METAR COR EGLL 150450Z AUTO 26022KT 9999 OVC016 12/09 Q1005
                        TEMPO BKN014=
201903150420 METAR COR EGLL 150420Z AUTO 26024KT 9999 BKN015 OVC021 12/10
                        Q1005 TEMPO BKN014=
201903150350 METAR COR EGLL 150350Z AUTO 26021G31KT 9999 BKN015 OVC028
                        12/10 Q1005 TEMPO BKN012=
201903150320 METAR COR EGLL 150320Z AUTO 26020KT 9999 BKN013 OVC025 12/10
                        Q1005 NOSIG=
201903150250 METAR COR EGLL 150250Z AUTO 26020KT 8000 -RA OVC012 11/10
                        Q1005 NOSIG=
201903150220 METAR COR EGLL 150220Z AUTO 25019KT 5000 -RADZ BKN011 OVC017
                        11/10 Q1005 NOSIG=
201903150150 METAR COR EGLL 150150Z AUTO 25015KT 4900 -RADZ SCT010 OVC014
                        11/10 Q1006 TEMPO BKN006=
201903150120 METAR COR EGLL 150120Z AUTO 24011KT 5000 -RADZ SCT007 BKN011
                        OVC015 10/10 Q1006 TEMPO BKN006=
201903150050 METAR COR EGLL 150050Z 21009KT 5000 -RADZ FEW004 BKN006 OVC009
                        09/09 Q1007 RERA TEMPO 4000 RADZ=
201903150020 METAR COR EGLL 150020Z 21007KT 4500 RA FEW004 BKN010 OVC025
                        09/09 Q1007 TEMPO 7000 -RA=
201903142350 METAR COR EGLL 142350Z AUTO 23010KT 5000 -RA BKN009 BKN015
                        OVC028 09/08 Q1008 RERA TEMPO 4000
                        -RADZ=
201903142320 METAR COR EGLL 142320Z AUTO 24010KT 6000 -RA FEW025 SCT029
                        BKN034 10/08 Q1008 TEMPO BKN014=
201903142250 METAR COR EGLL 142250Z AUTO 24012KT 9999 -RA NCD 11/07 Q1008
                        TEMPO BKN014=
201903142220 METAR COR EGLL 142220Z AUTO 24011KT 9999 NCD 10/07 Q1008
                        NOSIG=
201903142150 METAR COR EGLL 142150Z AUTO 24010KT 9999 NCD 11/07 Q1008
                        NOSIG=
201903142120 METAR COR EGLL 142120Z AUTO 25011KT 9999 NCD 11/06 Q1008
                        NOSIG=
201903142050 METAR COR EGLL 142050Z AUTO 24010KT 9999 NCD 10/05 Q1008
                        NOSIG=
201903142020 METAR COR EGLL 142020Z AUTO 25008KT 9999 SCT046 11/03 Q1008
                        NOSIG=
201903141950 METAR COR EGLL 141950Z AUTO 27008KT 9999 NCD 10/03 Q1009
                        NOSIG=
201903141920 METAR COR EGLL 141920Z AUTO 27006KT 9999 NCD 11/03 Q1008
                        NOSIG=
201903141850 METAR COR EGLL 141850Z AUTO 29007KT 9999 NCD 11/03 Q1008
                        NOSIG=
201903141820 METAR COR EGLL 141820Z AUTO 30008KT 9999 NCD 11/04 Q1008
                        NOSIG=
201903141750 METAR COR EGLL 141750Z AUTO 31010KT 9999 SCT043 12/04 Q1008
                        NOSIG=
201903141720 METAR COR EGLL 141720Z AUTO 30012KT 9999 BKN047 12/03 Q1007
                        NOSIG=
201903141650 METAR COR EGLL 141650Z AUTO 29012KT 9999 NCD 12/03 Q1006
                        NOSIG=
201903141620 METAR COR EGLL 141620Z AUTO 30013KT 9999 NCD 12/03 Q1006
                        NOSIG=
201903141550 METAR COR EGLL 141550Z AUTO 30011KT 9999 -RA FEW042 SCT049
                        12/05 Q1006 NOSIG=
201903141520 METAR COR EGLL 141520Z AUTO 31011KT 280V340 9999 BKN048 14/03
                        Q1005 NOSIG=
201903141450 METAR COR EGLL 141450Z AUTO 30021G37KT 9999 NCD 14/03 Q1004
                        NOSIG=
201903141420 METAR COR EGLL 141420Z AUTO 30019G29KT 9999 NCD 15/03 Q1003
                        NOSIG=
201903141350 METAR COR EGLL 141350Z AUTO 29022G32KT 9999 NCD 14/03 Q1003
                        NOSIG=
201903141320 METAR COR EGLL 141320Z AUTO 29019G30KT 9999 NCD 14/04 Q1003
                        NOSIG=
201903141250 METAR COR EGLL 141250Z AUTO 29022G35KT 9999 NCD 14/05 Q1002
                        NOSIG=
201903141220 METAR COR EGLL 141220Z AUTO 30014KT 9999 FEW035 13/08 Q1002
                        NOSIG=
201903141150 METAR COR EGLL 141150Z AUTO 29017KT 9999 -RA FEW032/// SCT047///
                        //////CB 11/08 Q1002 RERA NOSIG=
201903141120 METAR COR EGLL 141120Z AUTO 31020KT 5000 -RA BKN023/// BKN031///
                        OVC048/// //////CB 12/09 Q1002 NOSIG=
201903141050 METAR COR EGLL 141050Z AUTO 28021G31KT 9999 SCT024/// BKN029///
                        BKN035/// //////CB 13/09 Q1001 TEMPO
                        3000 SHRA=
201903141020 METAR COR EGLL 141020Z AUTO 27029KT 9999 BKN022 13/09 Q1001
                        TEMPO 4000 RA BKN014=
201903140950 METAR COR EGLL 140950Z AUTO 27028G39KT 9999 BKN021 BKN028
                        12/09 Q1001 TEMPO 4000 RA BKN014=
201903140920 METAR COR EGLL 140920Z AUTO 27023KT 9999 BKN021 BKN025 11/08
                        Q1001 TEMPO RA BKN014=
201903140850 METAR COR EGLL 140850Z AUTO 26024G34KT 9999 -RA BKN020 BKN025
                        OVC031 11/08 Q1002 TEMPO RA BKN014=
201903140820 METAR COR EGLL 140820Z AUTO 26022G33KT 9999 -RA BKN018 BKN023
                        OVC035 10/08 Q1002 TEMPO RA BKN014=
201903140750 METAR COR EGLL 140750Z AUTO 26022KT 9999 -RA BKN017 OVC027
                        09/08 Q1002 TEMPO RA BKN014=
201903140720 METAR COR EGLL 140720Z AUTO 25018KT 9999 -RA BKN016 OVC024
                        09/07 Q1003 TEMPO RA BKN014=
201903140650 METAR COR EGLL 140650Z AUTO 25019G29KT 9999 -RA SCT015 BKN019
                        OVC025 09/07 Q1003 TEMPO RA BKN014=
201903140620 METAR COR EGLL 140620Z AUTO 25019KT 8000 -RA BKN015 OVC025
                        08/07 Q1004 TEMPO BKN012=
201903140550 METAR COR EGLL 140550Z AUTO 24016KT 6000 -RA SCT014 OVC019
                        08/07 Q1004 NOSIG=
201903140520 METAR COR EGLL 140520Z AUTO 24015KT 9999 -RA BKN017 OVC027
                        08/06 Q1005 NOSIG=
201903140450 METAR COR EGLL 140450Z AUTO 23013KT 9000 -RA BKN014 OVC025
                        07/06 Q1006 TEMPO SCT014=
201903140420 METAR COR EGLL 140420Z AUTO 23014KT 9000 -RA BKN016 OVC030
                        07/06 Q1007 NOSIG=
201903140350 METAR COR EGLL 140350Z AUTO 23014KT 9999 -RA FEW018 BKN022
                        BKN026 07/06 Q1008 NOSIG=
201903140320 METAR COR EGLL 140320Z AUTO 23014KT 9000 -RA BKN025 07/05
                        Q1009 TEMPO RA=
201903140250 METAR COR EGLL 140250Z AUTO 24015KT 9999 -RA BKN025 BKN034
                        08/05 Q1010 NOSIG=
201903140220 METAR COR EGLL 140220Z AUTO 25016KT 9999 FEW048 08/04 Q1010
                        NOSIG=
201903140150 METAR COR EGLL 140150Z AUTO 24014KT 9999 FEW020 08/05 Q1011
                        NOSIG=
201903140120 METAR COR EGLL 140120Z AUTO 24012KT 9999 SCT022 BKN045 08/04
                        Q1011 NOSIG=
201903140050 METAR COR EGLL 140050Z AUTO 25013KT 9999 BKN040 08/04 Q1012
                        NOSIG=
201903140020 METAR COR EGLL 140020Z AUTO 25012KT 9999 FEW027 BKN035 08/04
                        Q1012 NOSIG=
201903132350 METAR COR EGLL 132350Z AUTO 26014KT 9999 SCT029 08/03 Q1013
                        NOSIG=
201903132320 METAR COR EGLL 132320Z AUTO 26013KT 9999 FEW032 08/03 Q1013
                        NOSIG=
201903132250 METAR COR EGLL 132250Z AUTO 26014KT 9999 NCD 09/04 Q1013
                        NOSIG=
201903132220 METAR COR EGLL 132220Z AUTO 25015KT 9999 NCD 08/04 Q1013
                        NOSIG=
201903132150 METAR COR EGLL 132150Z AUTO 26015KT 9999 NCD 09/03 Q1013
                        NOSIG=
201903132120 METAR COR EGLL 132120Z AUTO 25012KT 9999 NCD 09/03 Q1013
                        NOSIG=
201903132050 METAR COR EGLL 132050Z AUTO 27012KT 9999 NCD 09/01 Q1013
                        NOSIG=
201903132020 METAR COR EGLL 132020Z AUTO 27012KT 9999 NCD 09/01 Q1014
                        NOSIG=
201903131950 METAR COR EGLL 131950Z AUTO 27011KT 9999 NCD 09/01 Q1013
                        NOSIG=
201903131920 METAR COR EGLL 131920Z AUTO 28013KT 9999 NCD 09/01 Q1013
                        NOSIG=
201903131850 METAR COR EGLL 131850Z AUTO 27014KT 9999 NCD 09/01 Q1013
                        NOSIG=
201903131820 METAR COR EGLL 131820Z AUTO 29014KT 9999 NCD 09/01 Q1013
                        NOSIG=
201903131750 METAR COR EGLL 131750Z AUTO 29016KT 9999 FEW043 10/01 Q1013
                        NOSIG=
201903131720 METAR COR EGLL 131720Z AUTO 28016KT 9999 BKN042 10/02 Q1012
                        NOSIG=
201903131650 METAR COR EGLL 131650Z AUTO 28015G25KT 9999 BKN049 10/02
                        Q1012 NOSIG=
201903131620 METAR COR EGLL 131620Z AUTO 29016G26KT 250V320 9999 SCT044
                        11/03 Q1011 NOSIG=
201903131550 METAR COR EGLL 131550Z AUTO 29018G30KT 9999 FEW046 11/02
                        Q1011 NOSIG=
201903131520 METAR COR EGLL 131520Z AUTO 28018KT 9999 SCT044 12/03 Q1010
                        NOSIG=
201903131450 METAR COR EGLL 131450Z AUTO 29019G29KT 9999 SCT045 11/02
                        Q1010 NOSIG=
201903131420 METAR COR EGLL 131420Z AUTO 29020G30KT 9999 BKN045 11/02
                        Q1009 NOSIG=
201903131350 METAR COR EGLL 131350Z AUTO 28021KT 9999 BKN045 11/02 Q1009
                        NOSIG=
201903131320 METAR COR EGLL 131320Z AUTO 29019G31KT 9999 BKN041/// 12/02
                        Q1009 NOSIG=
201903131250 METAR COR EGLL 131250Z AUTO 29020G30KT 9999 SCT042 11/02
                        Q1009 NOSIG=
201903131220 METAR COR EGLL 131220Z AUTO 29020G30KT 9999 SCT040 11/03
                        Q1008 TEMPO SHRA=
201903131150 METAR COR EGLL 131150Z AUTO 28021G31KT 9999 SCT037 10/03
                        Q1008 TEMPO SHRA=
201903131120 METAR COR EGLL 131120Z AUTO 28019KT 9999 BKN035 10/03 Q1008
                        NOSIG=
201903131050 METAR COR EGLL 131050Z AUTO 28022KT 9999 SCT031 BKN040 10/04
                        Q1007 NOSIG=
201903131020 METAR COR EGLL 131020Z AUTO 28023G33KT 9999 SCT030 BKN036
                        09/04 Q1007 NOSIG=
201903130950 METAR COR EGLL 130950Z AUTO 27024KT 9999 BKN031 BKN040 09/04
                        Q1006 NOSIG=
201903130920 METAR COR EGLL 130920Z AUTO 28021KT 9999 SCT031 BKN038 09/04
                        Q1006 NOSIG=
201903130850 METAR COR EGLL 130850Z AUTO 28022KT 9999 BKN029 OVC040 08/03
                        Q1006 NOSIG=
201903130820 METAR COR EGLL 130820Z AUTO 27023G34KT 9999 BKN032 08/03
                        Q1005 NOSIG=
201903130750 METAR COR EGLL 130750Z AUTO 27021KT 9999 FEW035 BKN041 08/03
                        Q1005 NOSIG=
201903130720 METAR COR EGLL 130720Z AUTO 26023G35KT 9999 SCT041 BKN048
                        07/03 Q1004 NOSIG=
201903130650 METAR COR EGLL 130650Z AUTO 26021G31KT 9999 BKN040 07/03
                        Q1004 NOSIG=
201903130620 METAR COR EGLL 130620Z AUTO 27020KT 9999 FEW031 SCT038 07/02
                        Q1004 NOSIG=
201903130550 METAR COR EGLL 130550Z AUTO 27020KT 9999 FEW033 07/02 Q1003
                        NOSIG=
201903130520 METAR COR EGLL 130520Z AUTO 27020KT 9999 BKN032 07/02 Q1003
                        NOSIG=
201903130450 METAR COR EGLL 130450Z AUTO 26021KT 9999 BKN033 BKN042 07/02
                        Q1003 NOSIG=
201903130420 METAR COR EGLL 130420Z AUTO 26021KT 9999 BKN036 BKN044 07/02
                        Q1003 NOSIG=
201903130350 METAR COR EGLL 130350Z AUTO 26021G31KT 9999 FEW037 BKN048
                        07/02 Q1003 NOSIG=
201903130320 METAR COR EGLL 130320Z AUTO 25020KT 9999 OVC036 07/02 Q1003
                        NOSIG=
201903130250 METAR COR EGLL 130250Z AUTO 25019KT 9999 BKN039 07/02 Q1003
                        NOSIG=
201903130220 METAR COR EGLL 130220Z AUTO 25021G32KT 9999 SCT037 BKN045
                        07/02 Q1003 NOSIG=
201903130150 METAR COR EGLL 130150Z AUTO 25019G30KT 9999 NCD 07/02 Q1003
                        NOSIG=
201903130120 METAR COR EGLL 130120Z AUTO 24018KT 9999 BKN037 06/02 Q1003
                        NOSIG=
201903130050 METAR COR EGLL 130050Z AUTO 24018G29KT 9999 NCD 06/02 Q1003
                        NOSIG=
201903130020 METAR COR EGLL 130020Z AUTO 23020KT 9999 BKN042 06/02 Q1003
                        NOSIG=
201903122350 METAR COR EGLL 122350Z AUTO 24018KT 9999 NCD 06/02 Q1004
                        NOSIG=
201903122320 METAR COR EGLL 122320Z AUTO 24017KT 9999 NCD 06/02 Q1004
                        NOSIG=
201903122250 METAR COR EGLL 122250Z AUTO 24019KT 9999 NCD 06/02 Q1004
                        NOSIG=
201903122220 METAR COR EGLL 122220Z AUTO 24016KT 9999 NCD 06/02 Q1004
                        NOSIG=
201903122150 METAR COR EGLL 122150Z AUTO 24013KT 9999 NCD 06/02 Q1004
                        NOSIG=
201903122120 METAR COR EGLL 122120Z AUTO 25016KT 9999 NCD 06/02 Q1004
                        NOSIG=
201903122050 METAR COR EGLL 122050Z AUTO 23013KT 9999 NCD 06/02 Q1004
                        NOSIG=
201903122020 METAR COR EGLL 122020Z AUTO 24014KT 9999 NCD 06/02 Q1004
                        NOSIG=
201903121950 METAR COR EGLL 121950Z AUTO 24014KT 9999 NCD 06/03 Q1004
                        NOSIG=
201903121920 METAR COR EGLL 121920Z AUTO 24015KT 9999 NCD 06/03 Q1004
                        NOSIG=
201903121850 METAR COR EGLL 121850Z AUTO 24013KT 9999 NCD 05/03 Q1003
                        NOSIG=
201903121820 METAR COR EGLL 121820Z AUTO 24011KT 9999 NCD 06/03 Q1003
                        NOSIG=
201903121750 METAR COR EGLL 121750Z AUTO 25014KT 9999 NCD 06/03 Q1003
                        NOSIG=
201903121720 METAR COR EGLL 121720Z 26016KT 9999 NSC 06/03 Q1003 NOSIG=
201903121650 METAR COR EGLL 121650Z AUTO 26015KT 9999 FEW014 06/04 Q1002
                        NOSIG=
201903121620 METAR COR EGLL 121620Z AUTO 25013KT 9999 SCT012 SCT020 06/04
                        Q1002 NOSIG=
201903121550 METAR COR EGLL 121550Z 26012KT 9999 BKN011 OVC028 05/03 Q1002
                        NOSIG=
201903121520 METAR COR EGLL 121520Z 27012KT 9999 -RA BKN010 BKN016 OVC026
                        04/03 Q1002 TEMPO BKN015=
201903121450 METAR COR EGLL 121450Z 28012KT 9999 -RA SCT010 OVC016 04/03
                        Q1001 TEMPO BKN014=
201903121420 METAR COR EGLL 121420Z 28014KT 8000 -RA BKN015 04/03 Q1001
                        RERA TEMPO BKN014=
201903121350 METAR COR EGLL 121350Z AUTO 30011KT 6000 -RA SCT012/// BKN017///
                        OVC034/// //////CB 05/04 Q1001 RERA
                        TEMPO BKN012=
201903121320 METAR COR EGLL 121320Z 30013KT 8000 -RA FEW014 SCT023 BKN028
                        06/04 Q1000 RERA NOSIG=
201903121250 METAR COR EGLL 121250Z 28023KT 2000 +RA SCT009 BKN011 OVC028
                        09/08 Q0999 TEMPO 5000 RA=
201903121220 METAR COR EGLL 121220Z 21018KT 6000 -RA SCT008 BKN012 OVC020
                        09/08 Q0999 TEMPO 3500 +RA=
201903121150 METAR COR EGLL 121150Z 20018G29KT 4500 -RADZ SCT009 BKN012
                        OVC018 09/08 Q1000 RERA REDZ TEMPO
                        3500 +RA=
201903121120 METAR COR EGLL 121120Z 21019G29KT 2500 RADZ SCT009 BKN013
                        OVC018 09/08 Q1001 TEMPO 4000 -RADZ=
201903121050 METAR COR EGLL 121050Z AUTO 21018G28KT 3900 -RA SCT009 BKN013
                        OVC018 09/08 Q1002 TEMPO 6000=
201903121020 METAR COR EGLL 121020Z 21016KT 6000 -RA BKN010 BKN015 OVC021
                        09/08 Q1003 TEMPO 4000 -RADZ=
201903120950 METAR COR EGLL 120950Z 21020G30KT 5000 -RADZ SCT009 BKN014
                        OVC020 09/08 Q1004 TEMPO 4000 RADZ
                        BKN009=
201903120920 METAR COR EGLL 120920Z AUTO 21017G27KT 9000 -RA BKN011 OVC019
                        09/07 Q1004 NOSIG=
201903120850 METAR COR EGLL 120850Z AUTO 21015KT 5000 -RADZ BKN009 OVC025
                        09/07 Q1006 TEMPO 4000 RADZ=
201903120820 METAR COR EGLL 120820Z AUTO 21019KT 3900 -RA BKN010 OVC016
                        09/07 Q1007 TEMPO 5000=
201903120750 METAR COR EGLL 120750Z 21017KT 7000 -RA SCT009 BKN012 OVC018
                        08/07 Q1007 TEMPO 4000 RADZ=
201903120720 METAR COR EGLL 120720Z 21015KT 3500 DZ BKN011 BKN015 OVC023
                        08/07 Q1008 REDZ TEMPO 6000 -RADZ=
201903120650 METAR COR EGLL 120650Z AUTO 21019KT 9000 BKN012 BKN020 08/06
                        Q1009 NOSIG=
201903120620 METAR COR EGLL 120620Z AUTO 21018KT 170V230 9999 BKN013 BKN020
                        08/06 Q1009 NOSIG=
201903120550 METAR COR EGLL 120550Z AUTO 20018KT 9999 -RA BKN012 OVC016
                        08/06 Q1010 NOSIG=
201903120520 METAR COR EGLL 120520Z AUTO 20018KT 9999 BKN014 OVC021 08/06
                        Q1011 NOSIG=
201903120450 METAR COR EGLL 120450Z AUTO 21018G29KT 9999 BKN015 OVC019
                        08/06 Q1012 TEMPO 4000 RADZ BKN012=
201903120420 METAR COR EGLL 120420Z AUTO 21018KT 9999 -RA BKN017 BKN024
                        08/06 Q1013 TEMPO 4000 RADZ BKN012=
201903120350 METAR COR EGLL 120350Z AUTO 21017KT 9000 -RA BKN019 08/05
                        Q1014 TEMPO BKN012=
201903120320 METAR COR EGLL 120320Z AUTO 21014KT 9000 BKN019 OVC027 08/05
                        Q1015 TEMPO BKN012=
201903120250 METAR COR EGLL 120250Z AUTO 21015KT 9999 BKN021 OVC037 08/05
                        Q1016 NOSIG=
201903120220 METAR COR EGLL 120220Z AUTO 21015KT 9000 -RA SCT023 BKN028
                        BKN036 08/05 Q1016 TEMPO BKN012=
201903120150 METAR COR EGLL 120150Z AUTO 21013KT 9999 -RA SCT026 BKN032
                        08/05 Q1017 TEMPO RA=
201903120120 METAR COR EGLL 120120Z AUTO 21015KT 9999 -RA SCT030 BKN037
                        BKN046 09/04 Q1018 TEMPO RA=
201903120050 METAR COR EGLL 120050Z AUTO 21014KT 9999 -RA BKN031 BKN040
                        09/04 Q1018 TEMPO RA=
201903120020 METAR COR EGLL 120020Z AUTO 20013KT 9999 -RA SCT037 BKN047
                        09/04 Q1019 TEMPO RA=
201903112350 METAR COR EGLL 112350Z AUTO 21013KT 9999 FEW029 08/04 Q1020
                        TEMPO RA=
201903112320 METAR COR EGLL 112320Z AUTO 21012KT 9999 SCT029 BKN042 08/04
                        Q1021 NOSIG=
201903112250 METAR COR EGLL 112250Z AUTO 20011KT 9999 BKN041 08/04 Q1022
                        NOSIG=
201903112220 METAR COR EGLL 112220Z AUTO 21009KT 9999 NCD 08/04 Q1022
                        NOSIG=
201903112150 METAR COR EGLL 112150Z AUTO 21010KT 9999 NCD 08/04 Q1023
                        NOSIG=
201903112120 METAR COR EGLL 112120Z AUTO 22010KT 9999 NCD 08/04 Q1023
                        NOSIG=
201903112050 METAR COR EGLL 112050Z AUTO 22010KT 190V260 9999 NCD 09/03
                        Q1023 NOSIG=
201903112020 METAR COR EGLL 112020Z AUTO 21010G20KT 170V240 9999 NCD 09/02
                        Q1024 NOSIG=
201903111950 METAR COR EGLL 111950Z AUTO 22009KT 9999 NCD 09/02 Q1024
                        NOSIG=
201903111920 METAR COR EGLL 111920Z AUTO 22009KT 9999 BKN046 10/02 Q1025
                        NOSIG=
201903111850 METAR COR EGLL 111850Z AUTO 23009KT 9999 NCD 09/01 Q1025
                        NOSIG=
201903111820 METAR COR EGLL 111820Z AUTO 23012KT 9999 NCD 10/01 Q1025
                        NOSIG=
201903111750 METAR COR EGLL 111750Z AUTO 23009KT 9999 NCD 10/00 Q1025
                        NOSIG=
201903111720 METAR COR EGLL 111720Z AUTO 24009KT 9999 NCD 10/M01 Q1025
                        NOSIG=
201903111650 METAR COR EGLL 111650Z AUTO 27008KT 9999 NCD 10/M01 Q1025
                        NOSIG=
201903111620 METAR COR EGLL 111620Z AUTO 28011KT 9999 NCD 10/M01 Q1026
                        NOSIG=
201903111550 METAR COR EGLL 111550Z AUTO 29008KT 9999 NCD 10/M01 Q1026
                        NOSIG=
201903111520 METAR COR EGLL 111520Z AUTO 31013KT 9999 NCD 11/M01 Q1026
                        NOSIG=
201903111450 METAR COR EGLL 111450Z AUTO 29014KT 9999 NCD 11/M02 Q1026
                        NOSIG=
201903111420 METAR COR EGLL 111420Z AUTO 30013KT 9999 NCD 10/M02 Q1026
                        NOSIG=
201903111350 METAR COR EGLL 111350Z AUTO 29016KT 9999 NCD 11/M01 Q1026
                        NOSIG=
201903111320 METAR COR EGLL 111320Z AUTO 29016KT 250V320 9999 NCD 10/M02
                        Q1026 NOSIG=
201903111250 METAR COR EGLL 111250Z AUTO 28017KT 9999 NCD 09/M01 Q1026
                        NOSIG=
201903111220 METAR COR EGLL 111220Z AUTO 29013KT 9999 BKN046 10/M01 Q1026
                        NOSIG=
201903111150 METAR COR EGLL 111150Z AUTO 30015KT 9999 SCT047 09/M01 Q1026
                        NOSIG=
201903111120 METAR COR EGLL 111120Z AUTO 30014KT 9999 SCT044 08/M01 Q1025
                        NOSIG=
201903111050 METAR COR EGLL 111050Z AUTO 30017KT 9999 SCT041 09/M00 Q1025
                        NOSIG=
201903111020 METAR COR EGLL 111020Z AUTO 30013KT 270V330 9999 SCT038 08/M00
                        Q1025 NOSIG=
201903110950 METAR COR EGLL 110950Z AUTO 29014KT 9999 FEW036 SCT043 07/00
                        Q1024 NOSIG=
201903110920 METAR COR EGLL 110920Z AUTO 28015KT 9999 NCD 06/01 Q1024
                        NOSIG=
201903110850 METAR COR EGLL 110850Z AUTO 28014KT 9999 NCD 06/00 Q1023
                        NOSIG=
201903110820 METAR COR EGLL 110820Z AUTO 28013KT 9999 NCD 05/00 Q1023
                        NOSIG=
201903110750 METAR COR EGLL 110750Z AUTO 28014KT 9999 NCD 04/00 Q1022
                        NOSIG=
201903110720 METAR COR EGLL 110720Z AUTO 28013KT 9999 NCD 04/M00 Q1022
                        NOSIG=
201903110650 METAR COR EGLL 110650Z AUTO 28012KT 9999 NCD 03/M01 Q1022
                        NOSIG=
201903110620 METAR COR EGLL 110620Z AUTO 27014KT 9999 NCD 03/M01 Q1021
                        NOSIG=
201903110550 METAR COR EGLL 110550Z AUTO 28014KT 9999 NCD 03/M01 Q1020
                        NOSIG=
201903110520 METAR COR EGLL 110520Z AUTO 27011KT 9999 SCT039 03/M01 Q1020
                        NOSIG=
201903110450 METAR COR EGLL 110450Z AUTO 29009KT 9999 FEW044 03/M01 Q1020
                        NOSIG=
201903110420 METAR COR EGLL 110420Z AUTO 28010KT 9999 NCD 03/M01 Q1019
                        NOSIG=
201903110350 METAR COR EGLL 110350Z AUTO 28015KT 9999 NCD 03/M01 Q1018
                        NOSIG=
201903110320 METAR COR EGLL 110320Z AUTO 27016KT 9999 NCD 04/M01 Q1018
                        NOSIG=
201903110250 METAR COR EGLL 110250Z AUTO 27017KT 9999 NCD 04/M01 Q1018
                        NOSIG=
201903110220 METAR COR EGLL 110220Z AUTO 27019KT 9999 NCD 04/M02 Q1018
                        NOSIG=
201903110150 METAR COR EGLL 110150Z AUTO 26018KT 9999 NCD 04/M02 Q1018
                        NOSIG=
201903110120 METAR COR EGLL 110120Z AUTO 26018KT 9999 NCD 04/M01 Q1018
                        NOSIG=
201903110050 METAR COR EGLL 110050Z AUTO 26018KT 9999 NCD 04/M01 Q1018
                        NOSIG=
201903110020 METAR COR EGLL 110020Z AUTO 26014KT 9999 NCD 04/00 Q1018
                        NOSIG=
201903102350 METAR COR EGLL 102350Z AUTO 25013KT 9999 NCD 04/00 Q1017
                        NOSIG=
201903102320 METAR COR EGLL 102320Z AUTO 25016KT 9999 NCD 04/00 Q1017
                        NOSIG=
201903102250 METAR COR EGLL 102250Z AUTO 25016G27KT 9999 NCD 04/00 Q1017
                        NOSIG=
201903102220 METAR COR EGLL 102220Z AUTO 26016KT 9999 NCD 05/00 Q1017
                        NOSIG=
201903102150 METAR COR EGLL 102150Z AUTO 26017KT 9999 NCD 05/00 Q1017
                        NOSIG=
201903102120 METAR COR EGLL 102120Z AUTO 27014KT 9999 NCD 05/01 Q1016
                        NOSIG=
201903102050 METAR COR EGLL 102050Z AUTO 25012KT 9999 NCD 04/02 Q1016
                        NOSIG=
201903102020 METAR COR EGLL 102020Z AUTO 27012KT 9999 FEW034 03/02 Q1016
                        NOSIG=
201903101950 METAR COR EGLL 101950Z AUTO 26012KT 9999 NCD 03/02 Q1016
                        NOSIG=
201903101920 METAR COR EGLL 101920Z AUTO 27012KT 8000 -RA SCT010CB BKN031///
                        02/02 Q1016 RERA NOSIG=
201903101850 METAR COR EGLL 101850Z 29012KT 6000 RA BKN012CB OVC038 02/01
                        Q1017 RETS BECMG 9999 NSW FEW012CB=
201903101820 METAR COR EGLL 101820Z AUTO 29014KT 9999 -RA BKN039/// BKN049///
                        //////CB 07/M00 Q1015 TEMPO 28027G35KT
                        3000 SHRASN=
201903101750 METAR COR EGLL 101750Z AUTO 27019KT 9999 -RA SCT036/// //////TCU
                        08/M01 Q1015 TEMPO 4000 SHRA=
201903101720 METAR COR EGLL 101720Z AUTO 26021KT 9999 NCD 08/M02 Q1015
                        TEMPO SHRA=
201903101650 METAR COR EGLL 101650Z AUTO 26025KT 9999 NCD 08/M02 Q1015
                        TEMPO SHRA=
201903101620 METAR COR EGLL 101620Z AUTO 27024G37KT 9999 NCD 09/M02 Q1015
                        TEMPO SHRA=
201903101550 METAR EGLL 101550Z AUTO 26023KT 9999 NCD 10/M02 Q1014=
201903101520 METAR COR EGLL 101520Z AUTO 28024KT 9999 NCD 10/M04 Q1014
                        NOSIG=
201903101450 METAR COR EGLL 101450Z AUTO 27024KT 9999 NCD 10/M02 Q1014
                        NOSIG=
201903101420 METAR COR EGLL 101420Z AUTO 28023G35KT 9999 NCD 10/M01 Q1013
                        NOSIG=
201903101350 METAR COR EGLL 101350Z AUTO 29019KT 9999 SCT049/// //////CB
                        09/01 Q1012 NOSIG=
201903101320 METAR COR EGLL 101320Z AUTO 28025G36KT 9999 NCD 10/M00 Q1012
                        NOSIG=
201903101250 METAR COR EGLL 101250Z AUTO 28023G34KT 9999 FEW042/// //////TCU
                        10/01 Q1011 TEMPO SHRA=
201903101220 METAR COR EGLL 101220Z AUTO 29024G41KT 9999 SCT044/// //////CB
                        10/01 Q1011 TEMPO SHRA=
201903101150 METAR COR EGLL 101150Z AUTO 28025G36KT 9999 SCT042 BKN049
                        10/02 Q1009 TEMPO SHRA=
201903101120 METAR COR EGLL 101120Z AUTO 28028G43KT 9999 BKN038 BKN049
                        10/02 Q1008 NOSIG=
201903101050 METAR COR EGLL 101050Z AUTO 28022G33KT 9999 SCT035 BKN042
                        10/04 Q1007 NOSIG=
201903101020 METAR COR EGLL 101020Z AUTO 28020G35KT 9999 FEW031 BKN037
                        BKN047 10/04 Q1007 TEMPO 28030G45KT=
201903100950 METAR COR EGLL 100950Z AUTO 29028G40KT 9999 BKN034 10/04
                        Q1006 NOSIG=
201903100920 METAR COR EGLL 100920Z AUTO 29024G35KT 9999 SCT031 09/04
                        Q1004 NOSIG=
201903100850 METAR COR EGLL 100850Z AUTO 28031G45KT 9999 FEW045 09/04
                        Q1002 NOSIG=
201903100820 METAR COR EGLL 100820Z AUTO 27025KT 9999 FEW020 SCT027 BKN031
                        11/08 Q1000 TEMPO 27035G45KT=
201903100750 METAR COR EGLL 100750Z 25018KT 6000 -RADZ BKN012 OVC022 10/09
                        Q0999 RERA REDZ BECMG 9999 NSW=
201903100720 METAR COR EGLL 100720Z AUTO 23015KT 6000 -RA SCT020 BKN033
                        BKN041 11/09 Q0998 NOSIG=
201903100650 METAR COR EGLL 100650Z AUTO 23012KT 9999 FEW026 OVC045 11/09
                        Q0998 BECMG 26022G35KT=
201903100620 METAR COR EGLL 100620Z AUTO 22010KT 9999 -RA SCT020 BKN028
                        BKN038 09/09 Q0998 BECMG 25020G32KT=
201903100550 METAR COR EGLL 100550Z 20004KT 170V240 5000 -RA SCT017 BKN029
                        BKN039 07/07 Q0999 BECMG 23015G25KT=
201903100520 METAR COR EGLL 100520Z AUTO 15004KT 110V220 9999 -RA SCT007///
                        BKN028/// BKN034/// //////TCU 07/06
                        Q0999 BECMG 23015G25KT=
201903100450 METAR COR EGLL 100450Z 13006KT 9999 -RA SCT008 BKN012 OVC022
                        06/06 Q1000 RERA BECMG 23015G25KT
                        SCT012 BKN022=
201903100420 METAR COR EGLL 100420Z 11005KT 5000 RA SCT004 SCT008 BKN010
                        06/06 Q1001 BECMG 23015G25KT NSW
                        SCT010 BKN020=
201903100350 METAR COR EGLL 100350Z VRB04KT 4500 -RADZ SCT004 BKN008 OVC018
                        06/06 Q1002 RERA REDZ BECMG 23015G25KT
                        9999 NSW SCT008 BKN018=
201903100320 METAR COR EGLL 100320Z 09007KT 2800 RADZ SCT004 BKN006 06/06
                        Q1003 TEMPO 5000 -RADZ FEW004 SCT006
                        BKN010=
201903100250 METAR COR EGLL 100250Z 10008KT 3700 -RADZ SCT004 BKN010 OVC022
                        06/05 Q1004 TEMPO 5000 BKN008=
201903100220 METAR COR EGLL 100220Z 09008KT 3000 -RADZ SCT005 BKN009 BKN013
                        05/05 Q1005 RERA TEMPO RADZ=
201903100150 METAR COR EGLL 100150Z 10007KT 7000 -RA FEW006 BKN015 OVC026
                        05/05 Q1007 REDZ TEMPO 3000 RADZ
                        BKN006=
201903100120 METAR COR EGLL 100120Z 08005KT 3400 -RA BKN019TCU OVC034
                        06/05 Q1008 TEMPO BKN006=
201903100050 METAR COR EGLL 100050Z AUTO 13007KT 6000 -RA BKN030/// OVC048///
                        //////TCU 06/05 Q1009 TEMPO 4500
                        RA=
201903100020 METAR COR EGLL 100020Z AUTO 17006KT 7000 -RA BKN024/// OVC041///
                        //////TCU 06/05 Q1010 TEMPO BKN010=
201903092350 METAR COR EGLL 092350Z AUTO 19006KT 9000 -RA BKN033 06/05
                        Q1011 TEMPO BKN010=
201903092320 METAR COR EGLL 092320Z AUTO 21005KT 8000 -RA BKN024/// OVC039///
                        //////TCU 07/05 Q1012 TEMPO BKN010=
201903092250 METAR COR EGLL 092250Z AUTO 25009KT 9000 -RA SCT020/// SCT026///
                        BKN032/// //////TCU 07/04 Q1013 TEMPO
                        RA=
201903092220 METAR COR EGLL 092220Z AUTO 23008KT 190V260 9999 -RA FEW026///
                        SCT031/// BKN038/// //////TCU 08/03
                        Q1014 TEMPO RA=
201903092150 METAR COR EGLL 092150Z AUTO VRB02KT 9999 NCD 08/03 Q1013
                        TEMPO RA=
201903092120 METAR COR EGLL 092120Z AUTO 23008KT 9999 NCD 09/02 Q1014
                        TEMPO RA=
201903092050 METAR COR EGLL 092050Z AUTO 25009KT 9999 NCD 09/02 Q1015
                        NOSIG=
201903092020 METAR COR EGLL 092020Z AUTO 26013KT 9999 NCD 09/02 Q1015
                        NOSIG=
201903091950 METAR COR EGLL 091950Z AUTO 26015KT 9999 NCD 09/02 Q1016
                        NOSIG=
201903091920 METAR COR EGLL 091920Z AUTO 25015KT 9999 NCD 09/02 Q1016
                        NOSIG=
201903091850 METAR COR EGLL 091850Z AUTO 25016KT 9999 NCD 09/02 Q1016
                        NOSIG=
201903091820 METAR COR EGLL 091820Z AUTO 26016KT 9999 NCD 09/02 Q1016
                        NOSIG=
201903091750 METAR COR EGLL 091750Z AUTO 26017KT 9999 NCD 10/02 Q1016
                        NOSIG=
201903091720 METAR COR EGLL 091720Z AUTO 26020KT 9999 NCD 11/02 Q1015
                        NOSIG=
201903091650 METAR COR EGLL 091650Z AUTO 27018KT 9999 NCD 11/01 Q1015
                        NOSIG=
201903091620 METAR COR EGLL 091620Z AUTO 28015KT 9999 NCD 11/00 Q1014
                        NOSIG=
201903091550 METAR EGLL 091550Z AUTO 28018KT 9999 NCD 11/00 Q1014=
201903091520 METAR COR EGLL 091520Z AUTO 28020KT 9999 NCD 11/M00 Q1014
                        NOSIG=
201903091450 METAR COR EGLL 091450Z AUTO 28019KT 9999 NCD 12/01 Q1014
                        NOSIG=
201903091420 METAR COR EGLL 091420Z AUTO 27023KT 9999 NCD 12/M00 Q1013
                        NOSIG=
201903091350 METAR COR EGLL 091350Z AUTO 28021KT 9999 NCD 12/01 Q1013
                        NOSIG=
201903091320 METAR COR EGLL 091320Z AUTO 27024KT 9999 NCD 12/03 Q1013
                        NOSIG=
201903091250 METAR COR EGLL 091250Z AUTO 28023G34KT 9999 SCT049 13/03
                        Q1012 NOSIG=
201903091220 METAR COR EGLL 091220Z AUTO 28025KT 9999 SCT044 13/03 Q1012
                        NOSIG=
201903091150 METAR COR EGLL 091150Z AUTO 28022G33KT 9999 SCT037 SCT044
                        13/05 Q1011 NOSIG=
201903091120 METAR COR EGLL 091120Z AUTO 27020KT 9999 SCT034 BKN041 BKN048
                        12/06 Q1011 NOSIG=
201903091050 METAR COR EGLL 091050Z AUTO 26022KT 9999 BKN030 BKN038 OVC044
                        12/06 Q1011 TEMPO SHRA=
201903091020 METAR COR EGLL 091020Z AUTO 25021KT 9999 OVC028 11/06 Q1010
                        TEMPO SHRA=
201903090950 METAR COR EGLL 090950Z AUTO 25016KT 9999 BKN023 OVC032 10/06
                        Q1010 NOSIG=
201903090920 METAR COR EGLL 090920Z 24015KT 9999 SCT022 BKN026 10/06 Q1010
                        NOSIG=
201903090850 METAR COR EGLL 090850Z 22011KT 9999 SCT021 BKN030 09/06 Q1010
                        NOSIG=
201903090820 METAR COR EGLL 090820Z 22010KT 9999 FEW025 SCT034 OVC041
                        08/05 Q1011 NOSIG=
201903090750 METAR COR EGLL 090750Z 22011KT 9999 BKN025 08/05 Q1012 NOSIG=
201903090720 METAR COR EGLL 090720Z 23010KT 9999 FEW041 07/05 Q1011 NOSIG=
201903090650 METAR COR EGLL 090650Z 22009G21KT 190V250 CAVOK 07/05 Q1011
                        NOSIG=
201903090620 METAR COR EGLL 090620Z 21009KT 180V250 CAVOK 07/05 Q1011
                        NOSIG=
201903090550 METAR COR EGLL 090550Z 22009KT CAVOK 07/05 Q1011 NOSIG=
201903090520 METAR COR EGLL 090520Z AUTO 21008KT 9999 NCD 07/05 Q1011
                        NOSIG=
201903090450 METAR COR EGLL 090450Z AUTO 23009KT 9999 NCD 08/05 Q1011
                        NOSIG=
201903090420 METAR COR EGLL 090420Z AUTO 24008KT 9999 NCD 08/05 Q1011
                        NOSIG=
201903090350 METAR COR EGLL 090350Z AUTO 25008KT 9999 NCD 08/06 Q1011
                        NOSIG=
201903090320 METAR COR EGLL 090320Z AUTO 25007KT 9999 NCD 08/06 Q1011
                        NOSIG=
201903090250 METAR COR EGLL 090250Z AUTO 26006KT 9999 NCD 08/06 Q1010
                        NOSIG=
201903090220 METAR COR EGLL 090220Z AUTO 27011KT 9999 NCD 08/06 Q1010
                        NOSIG=
201903090150 METAR COR EGLL 090150Z AUTO 27013KT 9999 NCD 08/07 Q1010
                        NOSIG=
201903090120 METAR COR EGLL 090120Z AUTO 27014KT 9999 NCD 09/07 Q1010
                        NOSIG=
201903090050 METAR COR EGLL 090050Z AUTO 25012KT 9999 FEW028 09/07 Q1009
                        NOSIG=
201903090020 METAR COR EGLL 090020Z AUTO 26013KT 9999 NCD 09/08 Q1009
                        NOSIG=
201903082350 METAR COR EGLL 082350Z AUTO 27010KT 9999 SCT013 09/08 Q1008
                        NOSIG=
201903082320 METAR COR EGLL 082320Z AUTO 25010KT 9999 SCT013 BKN020 10/08
                        Q1008 NOSIG=
201903082250 METAR COR EGLL 082250Z AUTO 25010KT 9999 NCD 10/08 Q1007
                        NOSIG=
201903082220 METAR COR EGLL 082220Z AUTO 24012KT 9999 -RA FEW020 BKN026
                        OVC038 10/09 Q1007 NOSIG=
201903082150 METAR COR EGLL 082150Z AUTO 24011KT 6000 -RA BKN010 OVC018
                        10/08 Q1007 BECMG SCT010 BKN018=
201903082120 METAR COR EGLL 082120Z AUTO 23015KT 9999 BKN010 OVC041 09/08
                        Q1007 TEMPO BKN009=
201903082050 METAR COR EGLL 082050Z AUTO 22016KT 9999 SCT009 OVC013 09/08
                        Q1007 TEMPO BKN009=
201903082020 METAR COR EGLL 082020Z AUTO 22015KT 9999 -RA SCT009 BKN013
                        OVC042 08/07 Q1007 TEMPO BKN009=
201903081950 METAR COR EGLL 081950Z AUTO 21013KT 5000 -DZ SCT007 BKN011
                        OVC015 08/07 Q1008 TEMPO 4000 -RADZ
                        BKN007=
201903081920 METAR COR EGLL 081920Z AUTO 21013KT 4800 -RADZ SCT008 OVC013
                        08/07 Q1008 TEMPO BKN008=
201903081850 METAR COR EGLL 081850Z AUTO 22014KT 5000 -RADZ BKN012 OVC024
                        08/07 Q1008 TEMPO 4000 RADZ=
201903081820 METAR COR EGLL 081820Z AUTO 22013KT 5000 -RADZ SCT013 BKN018
                        BKN025 08/06 Q1008 TEMPO 4000 RADZ
                        BKN013=
201903081750 METAR COR EGLL 081750Z AUTO 22011KT 5000 -RADZ SCT015 BKN021
                        BKN027 08/06 Q1009 TEMPO 4000 DZ
                        BKN014=
201903081720 METAR COR EGLL 081720Z AUTO 22013KT 9999 -RA SCT026 BKN031
                        09/06 Q1009 NOSIG=
201903081650 METAR COR EGLL 081650Z AUTO 21012KT 190V250 9999 -RA FEW024
                        BKN029 09/06 Q1010 TEMPO RA=
201903081620 METAR COR EGLL 081620Z AUTO 22011KT 9999 -RA FEW034 SCT043
                        09/06 Q1010 TEMPO RA=
201903081550 METAR COR EGLL 081550Z AUTO 22013KT 9999 NCD 09/05 Q1011
                        TEMPO RA=
201903081520 METAR COR EGLL 081520Z AUTO 21012KT 9999 -RA FEW037/// BKN047///
                        //////TCU 09/05 Q1011 TEMPO SHRA=
201903081450 METAR COR EGLL 081450Z AUTO 22014KT 9999 -RA BKN034 BKN043
                        10/04 Q1011 TEMPO SHRA=
201903081420 METAR COR EGLL 081420Z AUTO 22012KT 190V250 9999 FEW038 11/03
                        Q1011 TEMPO SHRA=
201903081350 METAR COR EGLL 081350Z AUTO 22011KT 9999 SCT036 BKN042 10/03
                        Q1012 NOSIG=
201903081320 METAR COR EGLL 081320Z AUTO 24013KT 9999 SCT037 10/02 Q1012
                        NOSIG=
201903081250 METAR COR EGLL 081250Z AUTO 23012KT 9999 NCD 10/02 Q1012
                        NOSIG=
201903081220 METAR COR EGLL 081220Z AUTO 24013KT 9999 FEW034 09/03 Q1013
                        NOSIG=
201903081150 METAR COR EGLL 081150Z AUTO 24013KT 9999 FEW039 09/02 Q1013
                        NOSIG=
201903081120 METAR COR EGLL 081120Z AUTO 24013KT 9999 FEW037 10/02 Q1013
                        NOSIG=
201903081050 METAR COR EGLL 081050Z AUTO 23011KT 9999 FEW035 10/02 Q1013
                        NOSIG=
201903081020 METAR COR EGLL 081020Z AUTO 24008KT 210V270 9999 NCD 09/03
                        Q1013 NOSIG=
201903080950 METAR COR EGLL 080950Z AUTO 25008KT 9999 NCD 09/03 Q1013
                        NOSIG=
201903080920 METAR COR EGLL 080920Z AUTO 26007KT 9999 NCD 08/03 Q1013
                        NOSIG=
201903080850 METAR COR EGLL 080850Z AUTO 25007KT 9999 NCD 07/04 Q1013
                        NOSIG=
201903080820 METAR COR EGLL 080820Z AUTO 25008KT 9999 NCD 06/03 Q1013
                        NOSIG=
201903080750 METAR COR EGLL 080750Z AUTO 26007KT 9999 NCD 05/03 Q1012
                        NOSIG=
201903080720 METAR COR EGLL 080720Z AUTO 24007KT 9999 NCD 05/03 Q1012
                        NOSIG=
201903080650 METAR COR EGLL 080650Z AUTO 27006KT 9999 NCD 04/03 Q1012
                        NOSIG=
201903080620 METAR EGLL 080620Z AUTO 27006KT 9999 NCD 04/03 Q1011=
201903080550 METAR COR EGLL 080550Z AUTO 27006KT 9999 NCD 04/03 Q1011
                        NOSIG=
201903080520 METAR COR EGLL 080520Z AUTO 27007KT 9999 NCD 03/02 Q1010
                        NOSIG=
201903080450 METAR COR EGLL 080450Z AUTO 27006KT 9999 NCD 04/02 Q1010
                        NOSIG=
201903080420 METAR COR EGLL 080420Z AUTO 27007KT 9999 NCD 04/03 Q1009
                        NOSIG=
201903080350 METAR COR EGLL 080350Z AUTO 28006KT 9999 NCD 05/03 Q1009
                        NOSIG=
201903080320 METAR COR EGLL 080320Z AUTO 27009KT 9999 NCD 04/03 Q1008
                        NOSIGNOSIG=
201903080250 METAR COR EGLL 080250Z AUTO 29007KT 9999 NCD 05/03 Q1008
                        NOSIG=
201903080220 METAR COR EGLL 080220Z AUTO 29008KT 9999 NCD 05/03 Q1008
                        NOSIG=
201903080150 METAR COR EGLL 080150Z AUTO 27007KT 9999 NCD 05/03 Q1007
                        NOSIG=
201903080120 METAR COR EGLL 080120Z AUTO 27009KT 9999 NCD 05/04 Q1007
                        NOSIG=
201903080050 METAR COR EGLL 080050Z AUTO 28008KT 9999 NCD 06/04 Q1006
                        NOSIG=
201903080020 METAR COR EGLL 080020Z AUTO 28010KT 9999 SCT026 SCT036 BKN048
                        07/04 Q1006 NOSIG=
201903072350 METAR COR EGLL 072350Z AUTO 28010KT 9999 FEW031 SCT046 07/04
                        Q1005 NOSIG=
201903072320 METAR COR EGLL 072320Z AUTO 28012KT 9999 -RA FEW045 07/05
                        Q1004 NOSIG=
201903072250 METAR COR EGLL 072250Z AUTO 28013KT 9999 NCD 07/05 Q1004
                        NOSIG=
201903072220 METAR COR EGLL 072220Z AUTO 28011KT 9999 NCD 07/05 Q1003
                        NOSIG=
201903072150 METAR COR EGLL 072150Z AUTO 28012KT 9999 -RA SCT029 BKN037
                        08/05 Q1002 NOSIG=
201903072120 METAR COR EGLL 072120Z AUTO 28012KT 9999 -RA SCT022 BKN029
                        BKN036 08/05 Q1001 NOSIG=
201903072050 METAR COR EGLL 072050Z AUTO 27018KT 9999 -RA BKN023 OVC034
                        08/05 Q1000 NOSIG=
201903072020 METAR COR EGLL 072020Z AUTO 27015KT 9999 -RA SCT024 BKN030
                        BKN036 08/05 Q1000 NOSIG=
201903071950 METAR COR EGLL 071950Z AUTO 27017KT 9999 SCT026 BKN032 BKN038
                        08/05 Q0999 NOSIG=
201903071920 METAR COR EGLL 071920Z AUTO 27020KT 9999 -RA SCT027 BKN031
                        OVC046 08/05 Q0998 NOSIG=
201903071850 METAR COR EGLL 071850Z AUTO 27019KT 9999 -RA OVC026 08/05
                        Q0998 NOSIG=
201903071820 METAR COR EGLL 071820Z AUTO 27019KT 9999 -RA SCT027 BKN032
                        09/05 Q0997 TEMPO RA=
201903071750 METAR COR EGLL 071750Z AUTO 26020KT 9999 -RA SCT028 BKN033
                        09/04 Q0996 TEMPO RA=
201903071720 METAR COR EGLL 071720Z AUTO 26020KT 9999 -RA BKN029 OVC039
                        09/04 Q0995 TEMPO RA=
201903071650 METAR COR EGLL 071650Z AUTO 26023KT 9999 -RA BKN030 BKN039
                        OVC046 09/04 Q0995 TEMPO RA=
201903071620 METAR COR EGLL 071620Z AUTO 25024KT 9999 -RA BKN032 BKN040
                        09/04 Q0994 TEMPO RA=
201903071550 METAR COR EGLL 071550Z AUTO 26026KT 9999 -RA BKN036 BKN043
                        10/03 Q0994 TEMPO RA=
201903071520 METAR COR EGLL 071520Z AUTO 26025KT 9999 BKN040 10/02 Q0993
                        TEMPO RA=
201903071450 METAR COR EGLL 071450Z AUTO 26029G41KT 9999 BKN044 11/02
                        Q0993 TEMPO RA=
201903071420 METAR COR EGLL 071420Z AUTO 26028KT 9999 BKN047 11/02 Q0992
                        TEMPO RA=
201903071350 METAR COR EGLL 071350Z AUTO 26028G39KT 9999 BKN046 11/01
                        Q0992 TEMPO RA=
201903071320 METAR COR EGLL 071320Z AUTO 25026G40KT 9999 SCT046 11/01
                        Q0992 TEMPO RA=
201903071250 METAR COR EGLL 071250Z AUTO 25023KT 9999 FEW043 SCT049 11/01
                        Q0992 NOSIG=
201903071220 METAR COR EGLL 071220Z AUTO 26026G36KT 9999 BKN036 11/02
                        Q0992 NOSIG=
201903071150 METAR COR EGLL 071150Z AUTO 25019KT 9999 BKN031 BKN042 10/03
                        Q0992 NOSIG=
201903071120 METAR COR EGLL 071120Z AUTO 25020G34KT 9999 BKN030 10/03
                        Q0992 NOSIG=
201903071050 METAR COR EGLL 071050Z AUTO 25019KT 9999 BKN027 10/04 Q0991
                        NOSIG=
201903071020 METAR COR EGLL 071020Z AUTO 25016KT 9999 SCT023 BKN028 09/04
                        Q0991 NOSIG=
201903070950 METAR COR EGLL 070950Z AUTO 24018KT 9999 SCT024 SCT036 09/04
                        Q0991 NOSIG=
201903070920 METAR COR EGLL 070920Z AUTO 24019KT 9999 -RA BKN027 09/04
                        Q0991 NOSIG=
201903070850 METAR COR EGLL 070850Z AUTO 23017KT 9999 SCT026 BKN032 08/04
                        Q0991 NOSIG=
201903070820 METAR COR EGLL 070820Z AUTO 23016KT 9999 FEW022 08/04 Q0991
                        NOSIG=
201903070750 METAR COR EGLL 070750Z AUTO 24018G28KT 9999 SCT023 07/04
                        Q0990 TEMPO SHRA=
201903070720 METAR COR EGLL 070720Z AUTO 24015KT 9999 BKN020 07/04 Q0990
                        NOSIG=
201903070650 METAR COR EGLL 070650Z AUTO 23014KT 9999 FEW022 06/04 Q0990
                        NOSIG=
201903070620 METAR COR EGLL 070620Z AUTO 24015KT 9999 NCD 06/03 Q0989
                        NOSIG=
201903070550 METAR COR EGLL 070550Z AUTO 24014KT 9999 NCD 06/04 Q0989
                        NOSIG=
201903070520 METAR COR EGLL 070520Z AUTO 24013KT 9999 NCD 06/04 Q0989
                        NOSIG=
201903070450 METAR COR EGLL 070450Z AUTO 25012KT 9999 FEW040 06/04 Q0988
                        NOSIG=
201903070420 METAR COR EGLL 070420Z AUTO 24012KT 9999 NCD 06/04 Q0988
                        NOSIG=
201903070350 METAR COR EGLL 070350Z AUTO 24013KT 9999 NCD 06/04 Q0988
                        NOSIG=
201903070320 METAR COR EGLL 070320Z AUTO 24012KT 9999 SCT043 07/04 Q0987
                        NOSIG=
201903070250 METAR COR EGLL 070250Z AUTO 25012KT 9999 NCD 07/04 Q0987
                        NOSIG=
201903070220 METAR COR EGLL 070220Z AUTO 25010KT 9999 NCD 07/04 Q0987
                        NOSIG=
201903070150 METAR COR EGLL 070150Z AUTO 25010KT 9999 NCD 07/04 Q0987
                        NOSIG=
201903070120 METAR COR EGLL 070120Z AUTO 26012KT 9999 BKN047 07/04 Q0987
                        NOSIG=
201903070050 METAR COR EGLL 070050Z AUTO 26012KT 9999 SCT024 SCT030 OVC039
                        08/04 Q0987 NOSIG=
201903070020 METAR COR EGLL 070020Z AUTO 26014KT 9999 BKN021 OVC032 08/04
                        Q0986 NOSIG=
201903062350 METAR COR EGLL 062350Z AUTO 26013KT 9999 FEW025 BKN030 08/04
                        Q0986 NOSIG=
201903062320 METAR COR EGLL 062320Z AUTO 24014KT 9999 FEW018 SCT027 OVC033
                        09/06 Q0986 NOSIG=
201903062250 METAR COR EGLL 062250Z AUTO 23012KT 9999 -RA BKN018 BKN026
                        BKN034 09/06 Q0986 NOSIG=
201903062220 METAR COR EGLL 062220Z AUTO 22012KT 9999 FEW024 BKN037 09/06
                        Q0986 NOSIG=
201903062150 METAR COR EGLL 062150Z AUTO 22016KT 9999 BKN019 10/06 Q0986
                        NOSIG=
201903062120 METAR COR EGLL 062120Z AUTO 22015KT 9999 SCT017 BKN023 OVC030
                        10/08 Q0986 NOSIG=
201903062050 METAR COR EGLL 062050Z AUTO 21013KT 9999 BKN017 BKN025 OVC039
                        10/08 Q0986 TEMPO BKN014=
201903062020 METAR COR EGLL 062020Z AUTO 21012KT 9999 BKN020 BKN029 10/08
                        Q0986 TEMPO BKN014=
201903061950 METAR COR EGLL 061950Z AUTO 21013KT 9999 FEW023 BKN029 10/08
                        Q0986 NOSIG=
201903061920 METAR COR EGLL 061920Z AUTO 20016KT 9999 FEW033 11/08 Q0986
                        NOSIG=
201903061850 METAR COR EGLL 061850Z AUTO 20013KT 9999 SCT023 BKN033 11/09
                        Q0986 TEMPO -SHRA BKN014=
201903061820 METAR COR EGLL 061820Z AUTO 21012KT 9999 SCT018 BKN027 BKN034
                        11/09 Q0986 TEMPO -SHRA BKN014=
201903061750 METAR COR EGLL 061750Z AUTO 21012KT 180V240 9999 SCT020///
                        BKN034/// BKN045/// //////TCU 11/09
                        Q0986 TEMPO -SHRA BKN014=
201903061720 METAR COR EGLL 061720Z AUTO 19014KT 9999 -RA SCT016/// BKN024///
                        BKN029/// //////TCU 11/10 Q0986 TEMPO
                        SHRA BKN014=
201903061650 METAR COR EGLL 061650Z AUTO 19012KT 160V230 9999 BKN013///
                        BKN026/// //////TCU 12/10 Q0986 TEMPO
                        4000 SHRA BKN016=
201903061620 METAR COR EGLL 061620Z AUTO 19014KT 170V230 9999 -RA BKN016
                        BKN023 BKN041 12/10 Q0986 TEMPO 4000
                        SHRA BKN014=
201903061550 METAR COR EGLL 061550Z AUTO 20013KT 180V240 9999 SCT012 BKN017
                        BKN037 11/10 Q0986 TEMPO -SHRA BKN012=
201903061520 METAR COR EGLL 061520Z AUTO 20013KT 9999 -RA BKN011 BKN020
                        OVC024 11/10 Q0987 RERA TEMPO SCT012=
201903061450 METAR COR EGLL 061450Z AUTO 20017G27KT 9999 -RA SCT017///
                        BKN021/// BKN025/// //////TCU 12/09
                        Q0987 TEMPO SHRA BKN014=
201903061420 METAR COR EGLL 061420Z AUTO 19018G28KT 9999 -RA BKN015 BKN023
                        12/09 Q0987 TEMPO SHRA BKN014=
201903061350 METAR COR EGLL 061350Z AUTO 19019KT 9999 SCT018 BKN024 BKN029
                        12/09 Q0987 TEMPO SHRA BKN014=
201903061320 METAR COR EGLL 061320Z AUTO 19016G26KT 9999 -RA BKN015///
                        //////TCU 12/09 Q0987 TEMPO 3000
                        +SHRA BKN014=
201903061250 METAR COR EGLL 061250Z AUTO 19017G28KT 9999 BKN014/// BKN019///
                        OVC043/// //////TCU 12/09 Q0988 TEMPO
                        3000 +SHRA=
201903061220 METAR COR EGLL 061220Z AUTO 19014KT 9999 BKN015 OVC024 12/09
                        Q0988 TEMPO SHRA BKN014=
201903061150 METAR COR EGLL 061150Z AUTO 18015KT 9999 BKN015 OVC025 12/09
                        Q0988 TEMPO SHRA BKN014=
201903061120 METAR COR EGLL 061120Z AUTO 19014KT 9999 BKN016 OVC020 12/09
                        Q0989 NOSIG=
201903061050 METAR COR EGLL 061050Z AUTO 19014KT 9999 BKN016 OVC047 12/09
                        Q0989 NOSIG=
201903061020 METAR COR EGLL 061020Z AUTO 19012KT 9999 BKN017 OVC038 12/09
                        Q0989 NOSIG=
201903060950 METAR COR EGLL 060950Z AUTO 19011KT 140V250 9999 BKN020 12/09
                        Q0990 NOSIG=
201903060920 METAR COR EGLL 060920Z AUTO 19009KT 150V220 9999 BKN021 OVC048
                        11/09 Q0990 NOSIG=
201903060850 METAR COR EGLL 060850Z AUTO 19012KT 160V230 6000 -RA BKN014
                        BKN021 OVC027 10/09 Q0990 TEMPO BKN016=
201903060820 METAR COR EGLL 060820Z AUTO 19011KT 8000 -RA BKN018 OVC028
                        10/09 Q0990 TEMPO 4000 -RADZ BKN012=
201903060750 METAR COR EGLL 060750Z AUTO 19008KT 160V240 8000 -RA BKN019
                        OVC024 10/09 Q0990 TEMPO BKN012=
201903060720 METAR COR EGLL 060720Z AUTO 19011KT 9999 BKN018 OVC042 10/08
                        Q0991 RERA REDZ TEMPO -RADZ BKN010=
201903060650 METAR COR EGLL 060650Z 19011KT 5000 RADZ FEW010 BKN016 09/08
                        Q0991 TEMPO BKN010=
201903060620 METAR COR EGLL 060620Z AUTO 18013KT 8000 -RA SCT013 BKN020
                        OVC033 09/08 Q0991 TEMPO BKN012=
201903060550 METAR COR EGLL 060550Z AUTO 18012KT 9999 -RA SCT012 OVC016
                        09/08 Q0991 TEMPO BKN012=
201903060520 METAR COR EGLL 060520Z AUTO 18012KT 9999 -RA BKN013 OVC018
                        09/08 Q0992 NOSIG=
201903060450 METAR COR EGLL 060450Z AUTO 17013KT 9999 -RA SCT015/// BKN020///
                        OVC024/// //////TCU 09/07 Q0992 NOSIG=
201903060420 METAR COR EGLL 060420Z AUTO 18012KT 9999 -RA BKN021 OVC028
                        09/07 Q0993 NOSIG=
201903060350 METAR COR EGLL 060350Z AUTO 17011KT 9999 -RA SCT036 BKN045
                        09/07 Q0993 NOSIG=
201903060320 METAR COR EGLL 060320Z AUTO 16011KT 9999 -RA SCT046 09/07
                        Q0994 NOSIG=
201903060250 METAR COR EGLL 060250Z AUTO 17012KT 9999 -RA BKN045 09/07
                        Q0995 NOSIG=
201903060220 METAR COR EGLL 060220Z AUTO 18014KT 9999 -RA SCT039 BKN048
                        09/07 Q0996 NOSIG=
201903060150 METAR COR EGLL 060150Z AUTO 17013KT 9999 -RA BKN048 09/07
                        Q0996 NOSIG=
201903060120 METAR COR EGLL 060120Z 18013KT 9999 -RA BKN045 10/07 Q0997
                        NOSIG=
201903060050 METAR COR EGLL 060050Z AUTO 18013KT 9999 -RA BKN048 10/07
                        Q0997 NOSIG=
201903060020 METAR COR EGLL 060020Z AUTO 18012KT 9999 -RA BKN046 10/07
                        Q0998 TEMPO RA=
201903052350 METAR COR EGLL 052350Z AUTO 18015KT 9999 -RA SCT021 SCT049
                        10/07 Q0998 TEMPO RA BKN014=
201903052320 METAR COR EGLL 052320Z AUTO 18012KT 9999 -RA BKN019 BKN025
                        10/08 Q0999 TEMPO BKN014=
201903052250 METAR COR EGLL 052250Z AUTO 17010KT 140V240 9999 BKN019 10/08
                        Q1000 TEMPO BKN014=
201903052220 METAR COR EGLL 052220Z AUTO 17011KT 130V240 9999 -RA SCT016
                        BKN046 10/08 Q1000 TEMPO BKN014=
201903052150 METAR COR EGLL 052150Z AUTO 16009KT 140V210 9999 -RA FEW019
                        BKN036 BKN046 09/08 Q1001 TEMPO BKN014=
201903052120 METAR COR EGLL 052120Z AUTO 17008KT 130V220 9999 -RA SCT012
                        SCT026 BKN040 09/08 Q1001 TEMPO RA
                        BKN012=
201903052050 METAR COR EGLL 052050Z AUTO 17008KT 130V250 9999 -RA BKN011
                        BKN049 09/08 Q1002 TEMPO RA=
201903052020 METAR COR EGLL 052020Z AUTO 18010KT 150V230 9999 -RA SCT012
                        BKN046 10/08 Q1002 TEMPO BKN012=
201903051950 METAR COR EGLL 051950Z AUTO 19009KT 160V230 9999 SCT015 09/08
                        Q1002 TEMPO BKN014=
201903051920 METAR COR EGLL 051920Z AUTO 19010KT 160V240 9999 SCT017 09/07
                        Q1002 NOSIG=
201903051850 METAR COR EGLL 051850Z AUTO 19010KT 160V230 9999 -RA SCT015
                        BKN027 BKN044 09/07 Q1003 TEMPO BKN012=
201903051820 METAR COR EGLL 051820Z AUTO 18011KT 9999 -RA SCT015 BKN021
                        BKN025 09/07 Q1003 TEMPO BKN012=
201903051750 METAR COR EGLL 051750Z AUTO 19010KT 170V230 9999 -RA FEW025
                        BKN030 10/07 Q1003 TEMPO 6000 RA
                        BKN012=
201903051720 METAR COR EGLL 051720Z AUTO 20010KT 170V240 9999 -RA FEW031
                        BKN047 10/06 Q1003 NOSIG=
201903051650 METAR COR EGLL 051650Z AUTO 22012KT 9999 SCT027 BKN033 OVC044
                        10/05 Q1003 TEMPO RA=
201903051620 METAR COR EGLL 051620Z AUTO 22012KT 9999 BKN048 11/05 Q1003
                        TEMPO RA=
201903051550 METAR COR EGLL 051550Z AUTO 22012KT 9999 NCD 11/05 Q1003
                        NOSIG=
201903051520 METAR COR EGLL 051520Z AUTO 21014G25KT 9999 FEW044 11/04
                        Q1003 NOSIG=
201903051450 METAR COR EGLL 051450Z AUTO 23015KT 200V260 9999 FEW047 12/02
                        Q1003 NOSIG=
201903051420 METAR COR EGLL 051420Z AUTO 23015KT 9999 SCT044 12/02 Q1004
                        NOSIG=
201903051350 METAR COR EGLL 051350Z AUTO 23014KT 9999 SCT039 SCT047 11/02
                        Q1004 NOSIG=
201903051320 METAR COR EGLL 051320Z AUTO 23013KT 9999 FEW037 11/03 Q1004
                        NOSIG=
201903051250 METAR COR EGLL 051250Z AUTO 23013KT 9999 NCD 11/03 Q1004
                        NOSIG=
201903051220 METAR COR EGLL 051220Z AUTO 23016KT 9999 FEW037 SCT046 11/02
                        Q1004 NOSIG=
201903051150 METAR COR EGLL 051150Z AUTO 23015KT 9999 FEW037 11/03 Q1004
                        NOSIG=
201903051120 METAR COR EGLL 051120Z AUTO 24014KT 9999 SCT033 11/03 Q1004
                        NOSIG=
201903051050 METAR COR EGLL 051050Z AUTO 24014KT 9999 NCD 10/03 Q1004
                        NOSIG=
201903051020 METAR COR EGLL 051020Z AUTO 25013KT 9999 NCD 10/03 Q1003
                        NOSIG=
201903050950 METAR COR EGLL 050950Z AUTO 25010KT 210V290 9999 NCD 09/03
                        Q1003 NOSIG=
201903050920 METAR COR EGLL 050920Z AUTO 25009KT 9999 NCD 08/03 Q1003
                        NOSIG=
201903050850 METAR COR EGLL 050850Z AUTO 23010KT 9999 NCD 07/02 Q1003
                        NOSIG=
201903050820 METAR COR EGLL 050820Z AUTO 23009KT 9999 NCD 06/02 Q1003
                        NOSIG=
201903050750 METAR COR EGLL 050750Z AUTO 23009KT 9999 NCD 05/02 Q1003
                        NOSIG=
201903050720 METAR COR EGLL 050720Z AUTO 23009KT 9999 NCD 04/02 Q1002
                        NOSIG=
201903050650 METAR COR EGLL 050650Z AUTO 22008KT 9999 NCD 03/02 Q1002
                        NOSIG=
201903050620 METAR COR EGLL 050620Z AUTO 22009KT 9999 NCD 04/02 Q1002
                        NOSIG=
201903050550 METAR COR EGLL 050550Z AUTO 23008KT 9999 NCD 04/01 Q1002
                        NOSIG=
201903050520 METAR COR EGLL 050520Z AUTO 23008KT 9999 NCD 04/01 Q1001
                        NOSIG=
201903050450 METAR COR EGLL 050450Z AUTO 22006KT 9999 NCD 03/01 Q1001
                        NOSIG=
201903050420 METAR COR EGLL 050420Z AUTO 22006KT 9999 NCD 03/01 Q1001
                        NOSIG=
201903050350 METAR COR EGLL 050350Z AUTO 23008KT 9999 NCD 04/01 Q1001
                        NOSIG=
201903050320 METAR COR EGLL 050320Z AUTO 23009KT 9999 NCD 04/02 Q1001
                        NOSIG=
201903050250 METAR COR EGLL 050250Z AUTO 23009KT 9999 NCD 04/02 Q1001
                        NOSIG=
201903050220 METAR COR EGLL 050220Z AUTO 23009KT 9999 NCD 04/02 Q1001
                        NOSIG=
201903050150 METAR COR EGLL 050150Z AUTO 22009KT 9999 NCD 04/02 Q1001
                        NOSIG=
201903050120 METAR COR EGLL 050120Z AUTO 22009KT 9999 NCD 04/02 Q1001
                        NOSIG=
201903050050 METAR COR EGLL 050050Z AUTO 22009KT 9999 NCD 04/01 Q1001
                        NOSIG=
201903050020 METAR COR EGLL 050020Z AUTO 24010KT 9999 NCD 05/02 Q1001
                        NOSIG=
201903042350 METAR COR EGLL 042350Z AUTO 25013KT 9999 NCD 05/01 Q1001
                        NOSIG=
201903042320 METAR COR EGLL 042320Z AUTO 24011KT 9999 NCD 05/01 Q1001
                        NOSIG=
201903042250 METAR COR EGLL 042250Z AUTO 23012KT 9999 NCD 05/02 Q1001
                        TEMPO SHRA=
201903042220 METAR COR EGLL 042220Z AUTO 23009KT 9999 NCD 04/02 Q1001
                        NOSIG=
201903042150 METAR COR EGLL 042150Z AUTO 23009KT 9999 NCD 04/01 Q1001
                        NOSIG=
201903042120 METAR EGLL 042120Z AUTO 24014KT 9999 NCD 05/01 Q1001=
201903042050 METAR COR EGLL 042050Z AUTO 25015KT 9999 NCD 05/01 Q1001
                        NOSIG=
201903042020 METAR COR EGLL 042020Z AUTO 25018KT 9999 FEW028 06/01 Q1000
                        NOSIG=
201903041950 METAR COR EGLL 041950Z AUTO 26015KT 9999 NCD 06/01 Q1000
                        TEMPO SHRA=
201903041920 METAR COR EGLL 041920Z AUTO 25018KT 9999 NCD 07/01 Q1000
                        NOSIG=
201903041850 METAR COR EGLL 041850Z AUTO 26020KT 9999 SCT035 BKN044 08/02
                        Q1000 NOSIG=
201903041820 METAR COR EGLL 041820Z AUTO 25017KT 9999 NCD 08/01 Q0999
                        NOSIG=
201903041750 METAR COR EGLL 041750Z AUTO 25021KT 9999 NCD 08/01 Q0999
                        NOSIG=
201903041720 METAR COR EGLL 041720Z AUTO 26020KT 9999 NCD 09/01 Q0998
                        TEMPO SHRA=
201903041650 METAR COR EGLL 041650Z AUTO 26022KT 9999 NCD 09/01 Q0998
                        NOSIG=
201903041620 METAR COR EGLL 041620Z AUTO 25016G26KT 9999 FEW037 09/03
                        Q0997 NOSIG=
201903041550 METAR COR EGLL 041550Z AUTO 24014KT 9999 BKN032 BKN040 09/04
                        Q0997 NOSIG=
201903041520 METAR COR EGLL 041520Z AUTO 24017KT 9999 BKN029 09/04 Q0997
                        NOSIG=
201903041450 METAR COR EGLL 041450Z AUTO 23014KT 9999 BKN030 08/05 Q0997
                        NOSIG=
201903041420 METAR COR EGLL 041420Z 24012KT CAVOK 08/04 Q0997 NOSIG=
201903041350 METAR COR EGLL 041350Z 25015KT 9999 SCT020CB BKN048 07/04
                        Q0997 RESHRA NOSIG=
201903041320 METAR COR EGLL 041320Z AUTO 24015KT 9999 SCT037/// //////TCU
                        10/03 Q0996 TEMPO 4000 +SHRA BKN014CB=
201903041250 METAR COR EGLL 041250Z AUTO 24016G26KT 9999 BKN032 10/03
                        Q0996 TEMPO 4000 +SHRA BKN014CB=
201903041220 METAR COR EGLL 041220Z AUTO 26015KT 9999 SCT031 10/03 Q0996
                        NOSIG=
201903041150 METAR COR EGLL 041150Z AUTO 26016KT 9999 SCT030 09/03 Q0996
                        NOSIG=
201903041120 METAR COR EGLL 041120Z AUTO 26017KT 9999 SCT031 09/03 Q0996
                        NOSIG=
201903041050 METAR COR EGLL 041050Z AUTO 26016KT 9999 FEW033 08/03 Q0995
                        NOSIG=
201903041020 METAR COR EGLL 041020Z AUTO 26014KT 9999 NCD 08/03 Q0995
                        NOSIG=
201903040950 METAR COR EGLL 040950Z AUTO 26014KT 9999 NCD 06/03 Q0995
                        NOSIG=
201903040920 METAR COR EGLL 040920Z AUTO 27013KT 9999 NCD 06/03 Q0994
                        NOSIG=
201903040850 METAR COR EGLL 040850Z AUTO 26012KT 9999 NCD 05/03 Q0993
                        NOSIG=
201903040820 METAR COR EGLL 040820Z AUTO 26012KT 9999 NCD 05/03 Q0993
                        NOSIG=
201903040750 METAR COR EGLL 040750Z AUTO 26012KT 9999 NCD 05/03 Q0992
                        NOSIG=
201903040720 METAR COR EGLL 040720Z AUTO 27011KT 9999 NCD 04/02 Q0991
                        NOSIG=
201903040650 METAR COR EGLL 040650Z AUTO 27010KT 9999 NCD 04/02 Q0990
                        NOSIG=
201903040620 METAR COR EGLL 040620Z AUTO 27010KT 9999 NCD 04/02 Q0990
                        NOSIG=
201903040550 METAR COR EGLL 040550Z AUTO 27009KT 9999 NCD 04/03 Q0989
                        NOSIG=
201903040520 METAR COR EGLL 040520Z AUTO 27010KT 9999 NCD 05/03 Q0988
                        NOSIG=
201903040450 METAR COR EGLL 040450Z AUTO 26009KT 9999 NCD 05/03 Q0988
                        NOSIG=
201903040420 METAR COR EGLL 040420Z AUTO 26009KT 9999 -RA SCT029 BKN047
                        06/04 Q0987 NOSIG=
201903040350 METAR COR EGLL 040350Z AUTO 27005KT 9999 -RA BKN027 BKN039
                        05/04 Q0987 NOSIG=
201903040320 METAR COR EGLL 040320Z AUTO 28007KT 9999 -RA FEW023/// BKN027///
                        BKN035/// //////CB 05/04 Q0987 TEMPO
                        RA=
201903040250 METAR COR EGLL 040250Z AUTO 29006KT 9999 -RA SCT025/// BKN029///
                        BKN038/// //////CB 06/04 Q0987 TEMPO
                        RA=
201903040220 METAR EGLL 040220Z AUTO 30007KT 270V330 9999 -RA SCT016///
                        BKN027/// //////CB 06/05 Q0987=
201903040150 METAR COR EGLL 040150Z AUTO 28007KT 220V310 7000 -RA FEW015///
                        SCT021/// BKN027/// //////CB 07/05
                        Q0987 RERA TEMPO 4000 +RA=
201903040120 METAR COR EGLL 040120Z AUTO 25014KT 9999 -RA BKN030/// BKN045///
                        //////TCU 08/05 Q0987 TEMPO RA=
201903040050 METAR COR EGLL 040050Z AUTO 24010KT 9999 -RA SCT031/// //////TCU
                        09/05 Q0987 TEMPO RA=
201903040020 METAR COR EGLL 040020Z AUTO 23010KT 9999 //////TCU 09/05
                        Q0988 TEMPO RA=
201903032350 METAR COR EGLL 032350Z AUTO 23009KT 9999 NCD 09/05 Q0989
                        TEMPO RA=
201903032320 METAR COR EGLL 032320Z AUTO 24013KT 9999 NCD 09/05 Q0989
                        NOSIG=
201903032250 METAR COR EGLL 032250Z AUTO 23015KT 9999 NCD 09/05 Q0989
                        NOSIG=
201903032220 METAR COR EGLL 032220Z AUTO 23016G27KT 9999 FEW034 09/05
                        Q0989 NOSIG=
201903032150 METAR COR EGLL 032150Z AUTO 22016KT 9999 FEW032 10/05 Q0990
                        NOSIG=
201903032120 METAR COR EGLL 032120Z AUTO 22019KT 9999 FEW032 10/05 Q0990
                        NOSIG=
201903032050 METAR COR EGLL 032050Z AUTO 22020G30KT 9999 SCT032 10/05
                        Q0990 NOSIG=
201903032020 METAR COR EGLL 032020Z AUTO 23020KT 9999 FEW036 BKN042 10/05
                        Q0991 NOSIG=
201903031950 METAR COR EGLL 031950Z AUTO 22021G31KT 9999 BKN034 11/05
                        Q0991 NOSIG=
201903031920 METAR COR EGLL 031920Z AUTO 22019G29KT 9999 SCT035 BKN045
                        11/06 Q0991 NOSIG=
201903031850 METAR COR EGLL 031850Z AUTO 22021G33KT 9000 SCT029 BKN033
                        BKN042 11/07 Q0991 NOSIG=
201903031820 METAR COR EGLL 031820Z AUTO 21023G37KT 9999 FEW026 SCT033
                        12/08 Q0991 NOSIG=
201903031750 METAR COR EGLL 031750Z AUTO 22020G31KT 9999 SCT020/// SCT025///
                        BKN032/// //////TCU 12/09 Q0991 NOSIG=
201903031720 METAR COR EGLL 031720Z AUTO 22016KT 9999 -RA FEW016/// BKN022///
                        BKN032/// //////TCU 12/10 Q0992 TEMPO
                        SHRA BKN014=
201903031650 METAR COR EGLL 031650Z AUTO 21018KT 7000 -RA SCT011/// BKN017///
                        BKN026/// //////TCU 11/10 Q0992 TEMPO
                        BKN011=
201903031620 METAR COR EGLL 031620Z AUTO 21017KT 9999 -RA BKN012/// BKN019///
                        OVC029/// //////TCU 11/10 Q0993 TEMPO
                        SCT012=
201903031550 METAR COR EGLL 031550Z AUTO 20016KT 5000 -RADZ BKN011 OVC030
                        11/09 Q0994 TEMPO 4000 RA=
201903031520 METAR COR EGLL 031520Z AUTO 20019G29KT 7000 -RA FEW018///
                        SCT023/// BKN030/// //////TCU 11/09
                        Q0995 BECMG 4000 RA BKN014=
201903031450 METAR COR EGLL 031450Z AUTO 21020KT 9000 -RA SCT021 BKN031
                        BKN043 12/09 Q0995 NOSIG=
201903031420 METAR COR EGLL 031420Z AUTO 21017G27KT 9999 BKN020 BKN029
                        OVC047 12/09 Q0996 TEMPO BKN014=
201903031350 METAR COR EGLL 031350Z AUTO 22018KT 9999 BKN018 OVC037 12/10
                        Q0997 TEMPO BKN014=
201903031320 METAR COR EGLL 031320Z AUTO 21017KT 9000 -RA SCT012 BKN017
                        OVC042 12/10 Q0998 TEMPO BKN012=
201903031250 METAR COR EGLL 031250Z AUTO 22016KT 8000 -RA BKN011 BKN016
                        OVC022 12/10 Q0999 NOSIG=
201903031220 METAR COR EGLL 031220Z AUTO 22018KT 8000 -RA BKN012 OVC020
                        12/10 Q0999 NOSIG=
201903031150 METAR COR EGLL 031150Z AUTO 23019G33KT 9999 -RA BKN012 OVC025
                        12/10 Q1000 NOSIG=
201903031120 METAR COR EGLL 031120Z AUTO 22016KT 9999 BKN013 OVC030 12/10
                        Q1000 NOSIG=
201903031050 METAR COR EGLL 031050Z AUTO 22019KT 9999 -RA BKN013 OVC028
                        12/10 Q1000 NOSIG=
201903031020 METAR COR EGLL 031020Z AUTO 22017G27KT 8000 -RA BKN011 BKN019
                        OVC028 12/11 Q1000 TEMPO BKN009=
201903030950 METAR COR EGLL 030950Z AUTO 22018KT 9000 -RA BKN013 OVC019
                        12/10 Q1000 TEMPO BKN009=
201903030920 METAR COR EGLL 030920Z AUTO 21015KT 9999 -RA SCT013 BKN017
                        OVC034 12/10 Q1001 TEMPO BKN013=
201903030850 METAR COR EGLL 030850Z AUTO 22013KT 9999 -RA SCT012 BKN017
                        OVC042 12/10 Q1001 TEMPO 4000 RA
                        BKN012=
201903030820 METAR COR EGLL 030820Z AUTO 22010KT 9999 -RA BKN012 OVC024
                        11/10 Q1002 TEMPO 4000 RA=
201903030750 METAR COR EGLL 030750Z AUTO 22007KT 8000 -RA BKN012 10/09
                        Q1002 TEMPO 4000 RA BKN009=
201903030720 METAR COR EGLL 030720Z AUTO 23006KT 8000 -RA FEW004 SCT007
                        BKN011 09/09 Q1002 TEMPO 6000 RA
                        BKN009=
201903030650 METAR EGLL 030650Z AUTO 23005KT 190V250 4100 -RADZ BKN013
                        OVC020 09/09 Q1002=
201903030620 METAR COR EGLL 030620Z AUTO 23007KT 9999 -RA OVC018 09/08
                        Q1003 TEMPO RA BKN014=
201903030550 METAR COR EGLL 030550Z AUTO 24007KT 9999 -RA BKN021 OVC031
                        10/08 Q1003 TEMPO RA BKN014=
201903030520 METAR COR EGLL 030520Z AUTO 24008KT 9999 -RA BKN026 OVC031
                        10/08 Q1003 TEMPO RA=
201903030450 METAR COR EGLL 030450Z AUTO 25009KT 9999 -RA BKN032 BKN040
                        10/08 Q1004 TEMPO RA=
201903030420 METAR COR EGLL 030420Z AUTO 24007KT 9999 BKN034 10/08 Q1004
                        TEMPO RA=
201903030350 METAR COR EGLL 030350Z AUTO 23010KT 9999 SCT035 BKN042 BKN049
                        10/08 Q1004 TEMPO RA=
201903030320 METAR COR EGLL 030320Z AUTO 24011KT 9999 BKN030 OVC046 10/08
                        Q1004 NOSIG=
201903030250 METAR COR EGLL 030250Z AUTO 24009KT 9999 BKN026 OVC037 10/08
                        Q1004 NOSIG=
201903030220 METAR COR EGLL 030220Z AUTO 25010KT 9999 -RA BKN019 OVC034
                        10/08 Q1005 NOSIG=
201903030150 METAR COR EGLL 030150Z AUTO 26012KT 9999 BKN019 10/09 Q1005
                        TEMPO -RA BKN012=
201903030120 METAR COR EGLL 030120Z AUTO 28016KT 6000 -RA FEW009 BKN014
                        OVC019 10/09 Q1005 RERA REDZ TEMPO
                        4000 -RADZ BKN009=
201903030050 METAR COR EGLL 030050Z AUTO 22013KT 5000 -RADZ BKN008///
                        OVC016/// //////TCU 11/10 Q1005 TEMPO
                        4000=
201903030020 METAR COR EGLL 030020Z AUTO 23015KT 5000 -DZ BKN010 OVC015
                        12/10 Q1005 TEMPO 4000 BKN008=
201903022350 METAR COR EGLL 022350Z AUTO 22016KT 9999 OVC012 12/10 Q1005
                        TEMPO SCT012 BKN020=
201903022320 METAR COR EGLL 022320Z AUTO 22017KT 9999 BKN012 OVC023 12/10
                        Q1005 NOSIG=
201903022250 METAR COR EGLL 022250Z AUTO 22017KT 9999 BKN012 OVC024 12/10
                        Q1005 NOSIG=
201903022220 METAR COR EGLL 022220Z AUTO 22013KT 9999 OVC011 12/10 Q1005
                        NOSIG=
201903022150 METAR COR EGLL 022150Z AUTO 22014KT 6000 -RA BKN010 OVC015
                        11/10 Q1005 TEMPO 3500 DZ BKN009=
201903022120 METAR COR EGLL 022120Z AUTO 22015KT 3600 -RADZ BKN010 OVC020
                        11/10 Q1006 TEMPO 6000 -RA=
201903022050 METAR COR EGLL 022050Z AUTO 21016KT 6000 BKN010 BKN014 OVC020
                        11/09 Q1006 TEMPO 4000 DZ BKN009=
201903022020 METAR COR EGLL 022020Z AUTO 22015KT 9000 BKN011 OVC021 12/09
                        Q1006 TEMPO 4000 DZ BKN009=
201903021950 METAR COR EGLL 021950Z AUTO 22017KT 9000 BKN013 OVC032 11/09
                        Q1007 NOSIG=
201903021920 METAR COR EGLL 021920Z AUTO 22016KT 9999 BKN015 11/09 Q1007
                        BECMG BKN014=
201903021850 METAR COR EGLL 021850Z AUTO 22017KT 9999 FEW021 SCT026 12/08
                        Q1007 NOSIG=
201903021820 METAR COR EGLL 021820Z AUTO 21014KT 190V250 9999 SCT022 BKN027
                        BKN033 12/08 Q1008 NOSIG=
201903021750 METAR COR EGLL 021750Z AUTO 22013KT 9999 FEW027 OVC032 12/07
                        Q1008 NOSIG=
201903021720 METAR COR EGLL 021720Z AUTO 22014KT 9999 FEW027 BKN031 12/07
                        Q1008 NOSIG=
201903021650 METAR COR EGLL 021650Z AUTO 23017KT 9999 BKN026 OVC035 12/07
                        Q1009 NOSIG=
201903021620 METAR COR EGLL 021620Z AUTO 23016KT 9999 BKN027 12/07 Q1009
                        NOSIG=
201903021550 METAR COR EGLL 021550Z AUTO 22015KT 9999 BKN026 BKN038 13/07
                        Q1009 NOSIG=
201903021520 METAR COR EGLL 021520Z AUTO 22016KT 9999 SCT031 BKN040 14/07
                        Q1009 NOSIG=
201903021450 METAR COR EGLL 021450Z AUTO 22015KT 9999 NCD 14/07 Q1009
                        NOSIG=
201903021420 METAR COR EGLL 021420Z AUTO 24013KT 9999 FEW036 14/07 Q1009
                        NOSIG=
201903021350 METAR COR EGLL 021350Z AUTO 24014KT 9999 BKN030 BKN037 14/07
                        Q1010 NOSIG=
201903021320 METAR COR EGLL 021320Z AUTO 26013KT 9999 BKN031 14/07 Q1010
                        NOSIG=
201903021250 METAR COR EGLL 021250Z AUTO 25016KT 9999 BKN026 BKN034 14/08
                        Q1010 NOSIG=
201903021220 METAR COR EGLL 021220Z AUTO 24011KT 9999 NCD 14/08 Q1011
                        NOSIG=
201903021150 METAR COR EGLL 021150Z AUTO 26013KT 9999 SCT022 13/09 Q1011
                        NOSIG=
201903021120 METAR COR EGLL 021120Z AUTO 27011KT 9999 BKN018 OVC025 12/09
                        Q1011 NOSIG=
201903021050 METAR COR EGLL 021050Z AUTO 27012KT 9999 BKN019 OVC023 11/09
                        Q1011 NOSIG=
201903021020 METAR COR EGLL 021020Z AUTO 27011KT 9999 SCT015 BKN021 11/09
                        Q1011 NOSIG=
201903020950 METAR COR EGLL 020950Z AUTO 26010KT 9999 OVC013 11/09 Q1011
                        BECMG BKN015=
201903020920 METAR COR EGLL 020920Z AUTO 26009KT 9999 BKN011 OVC022 10/09
                        Q1011 BECMG SCT011 BKN022=
201903020850 METAR COR EGLL 020850Z AUTO 27008KT 9999 SCT007 BKN011 OVC019
                        10/09 Q1011 BECMG SCT012 BKN019=
201903020820 METAR COR EGLL 020820Z 25007KT 8000 SCT005 OVC006 09/09 Q1011
                        TEMPO BKN010=
201903020750 METAR COR EGLL 020750Z AUTO 23007KT 4700 BR BKN003 OVC010
                        09/09 Q1011 BECMG 5000 SCT003 BKN007=
201903020720 METAR COR EGLL 020720Z AUTO 21007KT 2800 BR BKN003 OVC007
                        09/08 Q1010 TEMPO 5000 SCT004 BKN007=
201903020650 METAR COR EGLL 020650Z AUTO 17006KT 130V270 3500 BR BKN004
                        OVC007 09/08 Q1010 TEMPO 5000 SCT004
                        BKN007=
201903020620 METAR COR EGLL 020620Z AUTO 16006KT 110V210 5000 BR SCT004
                        OVC009 09/08 Q1010 TEMPO 2500 DZ
                        BKN003=
201903020550 METAR COR EGLL 020550Z AUTO 16006KT 4000 -RADZ OVC003 09/08
                        Q1010 REDZ TEMPO 5000 SCT003 BKN005=
201903020520 METAR COR EGLL 020520Z AUTO 16007KT 7000 -RA BKN005 OVC010
                        09/08 Q1011 RERA REDZ TEMPO 4000
                        RADZ BKN004=
201903020450 METAR COR EGLL 020450Z AUTO 17007KT 3800 RADZ SCT004 BKN008
                        BKN014 08/08 Q1011 TEMPO 2500 DZ
                        BKN003=
201903020420 METAR COR EGLL 020420Z AUTO 17007KT 9999 BKN007 OVC010 09/08
                        Q1011 TEMPO 3000 -RADZ BKN004=
201903020350 METAR COR EGLL 020350Z AUTO 17008KT 9999 BKN007 OVC014 09/07
                        Q1011 TEMPO 3000 -RADZ BKN004=
201903020320 METAR COR EGLL 020320Z AUTO 17007KT 8000 BKN008 OVC014 09/07
                        Q1012 TEMPO 3000 -RADZ BKN004=
201903020250 METAR COR EGLL 020250Z AUTO 17007KT 8000 -RA SCT012 BKN016
                        BKN022 09/07 Q1012 TEMPO 4000 -RADZ
                        BKN008=
201903020220 METAR COR EGLL 020220Z AUTO 16008KT 9999 SCT014 SCT031 BKN039
                        09/07 Q1013 TEMPO -RA BKN012=
201903020150 METAR COR EGLL 020150Z AUTO 17004KT 9999 SCT017 BKN028 08/06
                        Q1014 TEMPO -RA BKN012=
201903020120 METAR COR EGLL 020120Z AUTO 17005KT 9999 FEW028 SCT043 08/06
                        Q1014 TEMPO -RA BKN012=
201903020050 METAR COR EGLL 020050Z AUTO 17004KT 7000 -RA SCT025 BKN031
                        08/06 Q1015 TEMPO BKN012=
201903020020 METAR COR EGLL 020020Z AUTO 19004KT 160V230 6000 OVC021 08/06
                        Q1015 TEMPO -RA BKN012=
201903012350 METAR COR EGLL 012350Z AUTO 15005KT 9999 BKN023 08/06 Q1015
                        TEMPO -RA BKN012=
201903012320 METAR COR EGLL 012320Z AUTO 15006KT 9999 SCT025 08/05 Q1016
                        NOSIG=
201903012250 METAR COR EGLL 012250Z AUTO 17007KT 9999 BKN025 08/06 Q1016
                        NOSIG=
201903012220 METAR COR EGLL 012220Z AUTO 19007KT 9999 SCT025 08/05 Q1016
                        NOSIG=
201903012150 METAR COR EGLL 012150Z AUTO 20007KT 9999 BKN026 08/06 Q1017
                        NOSIG=
201903012120 METAR COR EGLL 012120Z AUTO 22007KT 180V250 9999 NCD 08/06
                        Q1017 NOSIG=
201903012050 METAR COR EGLL 012050Z AUTO 22008KT 9999 NCD 08/06 Q1017
                        NOSIG=
201903012020 METAR COR EGLL 012020Z AUTO 22008KT 190V250 9999 FEW039 09/06
                        Q1018 NOSIG=
201903011950 METAR COR EGLL 011950Z AUTO 22009KT 9999 BKN039 09/06 Q1018
                        NOSIG=
201903011920 METAR COR EGLL 011920Z AUTO 22007KT 190V260 9999 FEW042 09/06
                        Q1018 NOSIG=
201903011850 METAR COR EGLL 011850Z AUTO 20007KT 9999 BKN042 10/07 Q1018
                        NOSIG=
201903011820 METAR COR EGLL 011820Z AUTO 21006KT 9999 OVC042 11/07 Q1018
                        NOSIG=
201903011750 METAR COR EGLL 011750Z AUTO 21005KT 180V260 9999 OVC041 11/07
                        Q1018 NOSIG=
201903011720 METAR COR EGLL 011720Z AUTO 19005KT 150V240 9999 OVC041 11/07
                        Q1018 NOSIG=
201903011650 METAR COR EGLL 011650Z AUTO 19006KT 160V220 9999 FEW025 OVC031
                        11/07 Q1019 NOSIG=
201903011620 METAR COR EGLL 011620Z AUTO 18006KT 150V260 9999 BKN022 BKN026
                        OVC034 11/06 Q1019 NOSIG=
201903011550 METAR COR EGLL 011550Z AUTO 19005KT 150V240 9999 BKN022 OVC035
                        11/06 Q1019 NOSIG=
201903011520 METAR COR EGLL 011520Z AUTO 22005KT 170V260 9999 SCT026 BKN031
                        OVC038 11/06 Q1019 NOSIG=
201903011450 METAR COR EGLL 011450Z AUTO 24006KT 190V270 9999 OVC040 11/06
                        Q1019 NOSIG=
201903011420 METAR COR EGLL 011420Z AUTO 31004KT 250V340 9999 OVC039 11/06
                        Q1019 NOSIG=
201903011350 METAR COR EGLL 011350Z AUTO 27006KT 9999 OVC024 11/06 Q1019
                        NOSIG=
201903011320 METAR COR EGLL 011320Z AUTO 30004KT 250V340 9999 BKN023 BKN031
                        OVC039 11/06 Q1019 NOSIG=
201903011250 METAR COR EGLL 011250Z AUTO 27005KT 210V320 9999 FEW026 OVC042
                        11/06 Q1020 NOSIG=
201903011220 METAR COR EGLL 011220Z AUTO 27008KT 9999 FEW019 OVC033 10/07
                        Q1020 NOSIG=
201903011150 METAR COR EGLL 011150Z AUTO 29007KT 250V320 9999 SCT017 OVC035
                        10/07 Q1020 NOSIG=
201903011120 METAR COR EGLL 011120Z AUTO 28008KT 9999 FEW015 OVC032 10/07
                        Q1020 NOSIG=
201903011050 METAR COR EGLL 011050Z AUTO 29007KT 9999 SCT015 SCT020 OVC032
                        10/07 Q1020 NOSIG=
201903011020 METAR COR EGLL 011020Z AUTO 30006KT 9999 FEW016 OVC036 10/06
                        Q1020 NOSIG=
201903010950 METAR COR EGLL 010950Z AUTO 30006KT 9999 FEW016 OVC036 09/07
                        Q1020 NOSIG=
201903010920 METAR COR EGLL 010920Z AUTO 28005KT 9999 OVC036 09/06 Q1020
                        NOSIG=
201903010850 METAR COR EGLL 010850Z AUTO 27009KT 9999 FEW015 OVC030 09/07
                        Q1020 NOSIG=
201903010820 METAR COR EGLL 010820Z AUTO 29007KT 9999 FEW020 OVC030 09/06
                        Q1019 NOSIG=
201903010750 METAR COR EGLL 010750Z AUTO 29006KT 7000 FEW019 OVC030 09/07
                        Q1019 NOSIG=
201903010720 METAR COR EGLL 010720Z AUTO 28004KT 260V320 9000 FEW020 BKN024
                        OVC029 09/06 Q1019 NOSIG=
201903010650 METAR COR EGLL 010650Z AUTO 29007KT 9000 BKN017 09/06 Q1019
                        NOSIG=
201903010620 METAR COR EGLL 010620Z AUTO VRB03KT 8000 BKN017 09/06 Q1018
                        NOSIG=
201903010550 METAR COR EGLL 010550Z AUTO 32004KT 290V360 8000 SCT012 SCT026
                        09/07 Q1018 NOSIG=
201903010520 METAR COR EGLL 010520Z AUTO 30006KT 7000 SCT014 BKN021 OVC026
                        09/07 Q1018 TEMPO BKN014=
201903010450 METAR COR EGLL 010450Z AUTO 31006KT 8000 FEW015 SCT019 BKN025
                        09/07 Q1017 TEMPO BKN014=
201903010420 METAR COR EGLL 010420Z AUTO 31006KT 9000 BKN022 OVC048 09/07
                        Q1017 TEMPO BKN014=
201903010350 METAR COR EGLL 010350Z AUTO 32006KT 9999 SCT018 BKN024 09/07
                        Q1017 TEMPO BKN014=
201903010320 METAR COR EGLL 010320Z AUTO 31007KT 9999 BKN013 OVC026 09/08
                        Q1017 TEMPO SCT013=
201903010250 METAR COR EGLL 010250Z AUTO 30006KT 9999 BKN012 OVC020 09/08
                        Q1016 TEMPO BKN025=
201903010220 METAR COR EGLL 010220Z AUTO 29006KT 9999 BKN012 OVC026 09/08
                        Q1016 NOSIG=
201903010150 METAR COR EGLL 010150Z AUTO 28007KT 8000 OVC012 09/08 Q1016
                        NOSIG=
201903010120 METAR COR EGLL 010120Z AUTO 27007KT 7000 BKN014 OVC018 09/08
                        Q1016 TEMPO BKN015=
201903010050 METAR COR EGLL 010050Z AUTO 28007KT 8000 SCT020 BKN024 BKN029
                        09/08 Q1016 NOSIG=
201903010020 METAR COR EGLL 010020Z AUTO 28008KT 8000 BKN025 OVC041 09/08
                        Q1015 NOSIG=

</pre>

</body>
</html>
