##########################################################
# Query made at 12/27/2012 09:40:03 UTC
# Time interval: from 05/01/2010 00:00  to 05/31/2010 23:59  UTC
##########################################################

##########################################################
# EGLL, London / Heathrow Airport (United Kingdom)
# WMO index: 03772
# Latitude 51-29N. Longitude 000-27W. Altitude 24 m.
##########################################################

###################################
#  METAR/SPECI from EGLL
###################################
201005312350 METAR COR EGLL 312350Z 11005KT 9999 BKN035 14/10 Q1019 NOSIG=
201005312320 METAR COR EGLL 312320Z 13005KT 9999 BKN030 14/10 Q1020 NOSIG=
201005312250 METAR COR EGLL 312250Z 12007KT 9999 BKN025 14/10 Q1020 NOSIG=
201005312220 METAR COR EGLL 312220Z 10006KT 9999 SCT025 13/09 Q1020 NOSIG=
201005312150 METAR COR EGLL 312150Z 07006KT 9999 SCT045 14/09 Q1020 NOSIG=
201005312120 METAR COR EGLL 312120Z 06005KT 9999 BKN045 15/09 Q1020 NOSIG=
201005312050 METAR COR EGLL 312050Z 04004KT 9999 BKN048 15/09 Q1021 NOSIG=
201005312020 METAR COR EGLL 312020Z VRB03KT 9999 FEW030 BKN049 15/09 Q1021
                        NOSIG=
201005311950 METAR COR EGLL 311950Z 36004KT 330V040 9999 BKN044 15/10
                        Q1020 NOSIG=
201005311920 METAR COR EGLL 311920Z 36004KT 320V040 9999 SCT049 15/10
                        Q1020 NOSIG=
201005311850 METAR COR EGLL 311850Z 35004KT 300V030 9999 SCT048 16/10
                        Q1020 NOSIG=
201005311820 METAR COR EGLL 311820Z 33004KT 300V010 9999 FEW027 BKN043
                        16/09 Q1020 NOSIG=
201005311750 METAR COR EGLL 311750Z 35004KT 300V030 9999 FEW027 SCT037
                        BKN043 16/09 Q1020 NOSIG=
201005311720 METAR COR EGLL 311720Z 35005KT 310V030 9999 SCT030 BKN044
                        16/09 Q1020 NOSIG=
201005311650 METAR COR EGLL 311650Z 02005KT 330V050 9999 OVC042 16/09
                        Q1020 NOSIG=
201005311620 METAR COR EGLL 311620Z 35005KT 300V020 9999 SCT029 SCT038
                        16/09 Q1021 NOSIG=
201005311550 METAR COR EGLL 311550Z 32005KT 270V010 9999 SCT032 SCT048
                        16/09 Q1021 NOSIG=
201005311520 METAR COR EGLL 311520Z 36004KT 310V060 9999 FEW029 SCT048
                        16/09 Q1021 NOSIG=
201005311450 METAR COR EGLL 311450Z 36005KT 320V060 9999 SCT027 SCT038
                        16/09 Q1021 NOSIG=
201005311420 METAR COR EGLL 311420Z 34005KT 300V040 9999 FEW025 SCT030
                        15/09 Q1021 NOSIG=
201005311350 METAR COR EGLL 311350Z 33004KT 280V020 9999 SCT024 SCT043
                        15/09 Q1021 NOSIG=
201005311320 METAR COR EGLL 311320Z 03005KT 330V070 9999 SCT019 SCT046
                        15/09 Q1021 NOSIG=
201005311250 METAR COR EGLL 311250Z 35007KT 320V020 9999 BKN017 15/09
                        Q1021 NOSIG=
201005311220 METAR COR EGLL 311220Z 36007KT 330V040 9999 BKN016 14/09
                        Q1021 NOSIG=
201005311150 METAR COR EGLL 311150Z 35006KT 320V040 9999 OVC017 13/09
                        Q1021 NOSIG=
201005311120 METAR COR EGLL 311120Z 35007KT 330V030 9999 OVC018 13/09
                        Q1021 NOSIG=
201005311050 METAR COR EGLL 311050Z 36006KT 300V070 9999 OVC021 14/09
                        Q1020 NOSIG=
201005311020 METAR COR EGLL 311020Z 36006KT 310V050 9999 BKN017 14/09
                        Q1020 NOSIG=
201005310950 METAR COR EGLL 310950Z 34007KT 300V020 9999 BKN017 13/09
                        Q1020 NOSIG=
201005310920 METAR COR EGLL 310920Z 01007KT 320V050 9999 BKN019 13/08
                        Q1020 NOSIG=
201005310850 METAR COR EGLL 310850Z 36008KT 310V040 9999 BKN017 13/08
                        Q1020 NOSIG=
201005310820 METAR COR EGLL 310820Z 36008KT 320V030 9999 OVC017 13/08
                        Q1020 NOSIG=
201005310750 METAR COR EGLL 310750Z 35008KT 310V020 9999 OVC018 13/08
                        Q1020 NOSIG=
201005310720 METAR COR EGLL 310720Z 36009KT 320V030 9999 BKN019 13/08
                        Q1019 NOSIG=
201005310650 METAR COR EGLL 310650Z 35008KT 310V030 9999 FEW019 BKN030
                        12/08 Q1019 NOSIG=
201005310620 METAR COR EGLL 310620Z 33007KT 300V020 9999 SCT021 12/07
                        Q1019 NOSIG=
201005310550 METAR COR EGLL 310550Z 32007KT 300V360 9999 BKN018 11/06
                        Q1019 NOSIG=
201005310520 METAR COR EGLL 310520Z 31006KT 9999 BKN020 11/06 Q1018 NOSIG=
201005310450 METAR COR EGLL 310450Z 32005KT 9999 BKN020 11/05 Q1018 NOSIG=
201005310420 METAR COR EGLL 310420Z 32006KT 290V350 9999 BKN020 11/05
                        Q1018 NOSIG=
201005310350 METAR COR EGLL 310350Z 32007KT 280V350 9999 BKN023 10/05
                        Q1018 NOSIG=
201005310320 METAR COR EGLL 310320Z 31007KT 9999 BKN028 11/05 Q1017 NOSIG=
201005310250 METAR COR EGLL 310250Z 31007KT 9999 BKN030 11/05 Q1017 NOSIG=
201005310220 METAR EGLL 310220Z NIL=
201005310150 METAR COR EGLL 310150Z 31007KT CAVOK 10/05 Q1017 NOSIG=
201005310120 METAR EGLL 310120Z 31008KT CAVOK 11/05 Q1016=
201005310050 METAR COR EGLL 310050Z 30007KT 9999 SCT043 11/05 Q1016 NOSIG=
201005310020 METAR COR EGLL 310020Z 29008KT 9999 BKN045 11/05 Q1016 NOSIG=
201005302350 METAR EGLL 302350Z 29007KT 9999 BKN048 11/04 Q1016=
201005302320 METAR COR EGLL 302320Z 28007KT CAVOK 11/04 Q1016 NOSIG=
201005302250 METAR COR EGLL 302250Z 29008KT CAVOK 11/04 Q1016 NOSIG=
201005302220 METAR COR EGLL 302220Z 29007KT CAVOK 12/04 Q1016 NOSIG=
201005302150 METAR COR EGLL 302150Z 29006KT CAVOK 12/03 Q1016 NOSIG=
201005302120 METAR EGLL 302120Z 30008KT CAVOK 13/03 Q1015=
201005302050 METAR COR EGLL 302050Z 30006KT CAVOK 13/03 Q1015 NOSIG=
201005302020 METAR COR EGLL 302020Z 30008KT CAVOK 13/02 Q1015 NOSIG=
201005301950 METAR COR EGLL 301950Z 31008KT CAVOK 14/02 Q1015 NOSIG=
201005301920 METAR COR EGLL 301920Z 31012KT CAVOK 14/02 Q1014 NOSIG=
201005301850 METAR COR EGLL 301850Z 31013KT CAVOK 15/01 Q1014 NOSIG=
201005301820 METAR COR EGLL 301820Z 31011KT 280V340 CAVOK 16/00 Q1013
                        NOSIG=
201005301750 METAR COR EGLL 301750Z 31013KT 280V360 CAVOK 17/00 Q1013
                        NOSIG=
201005301720 METAR COR EGLL 301720Z 31013KT CAVOK 17/00 Q1013 NOSIG=
201005301650 METAR COR EGLL 301650Z 31013KT CAVOK 18/01 Q1013 NOSIG=
201005301620 METAR COR EGLL 301620Z 31011KT 270V340 CAVOK 18/02 Q1012
                        NOSIG=
201005301550 METAR COR EGLL 301550Z 32013KT 280V350 CAVOK 19/03 Q1012
                        NOSIG=
201005301520 METAR EGLL 301520Z 31014KT CAVOK 19/03 Q1012=
201005301450 METAR COR EGLL 301450Z 30015KT 260V340 CAVOK 19/02 Q1011
                        TEMPO 30016G26KT=
201005301420 METAR COR EGLL 301420Z 30015KT CAVOK 19/03 Q1011 TEMPO 30016G26KT=
201005301350 METAR COR EGLL 301350Z 28018G28KT CAVOK 19/02 Q1011 NOSIG=
201005301320 METAR COR EGLL 301320Z 29017G28KT CAVOK 19/04 Q1011 NOSIG=
201005301250 METAR COR EGLL 301250Z 28016KT 9999 SCT045 19/04 Q1011 NOSIG=
201005301220 METAR COR EGLL 301220Z 28014KT 250V320 9999 SCT047 18/07
                        Q1011 NOSIG=
201005301150 METAR COR EGLL 301150Z 28016KT 9999 SCT042 18/07 Q1011 NOSIG=
201005301120 METAR COR EGLL 301120Z 28013KT 9999 SCT040 17/07 Q1012 NOSIG=
201005301050 METAR COR EGLL 301050Z 29011KT 9999 FEW032 SCT038 17/07 Q1011
                        NOSIG=
201005301020 METAR EGLL 301020Z 29012KT 260V330 9999 SCT031 SCT035 17/07
                        Q1011=
201005300950 METAR COR EGLL 300950Z 30010KT 260V010 9999 FEW030 SCT035
                        16/08 Q1011 NOSIG=
201005300920 METAR COR EGLL 300920Z 31010KT 280V340 9999 SCT029 15/08
                        Q1011 NOSIG=
201005300850 METAR COR EGLL 300850Z 32010KT 300V360 9999 SCT030 SCT038
                        14/08 Q1011 NOSIG=
201005300820 METAR COR EGLL 300820Z 30012KT 9999 FEW030 BKN038 14/08 Q1011
                        NOSIG=
201005300750 METAR COR EGLL 300750Z 30010KT 9999 SCT028 SCT033 14/08 Q1011
                        NOSIG=
201005300720 METAR COR EGLL 300720Z 30010KT 270V330 9999 SCT021 SCT029
                        14/08 Q1010 NOSIG=
201005300650 METAR COR EGLL 300650Z 29010KT 9999 SCT020 SCT027 14/09 Q1010
                        NOSIG=
201005300620 METAR COR EGLL 300620Z 28013KT 9999 FEW019 SCT028 14/09 Q1010
                        NOSIG=
201005300550 METAR COR EGLL 300550Z 28011KT 9999 FEW020 SCT032 13/10 Q1009
                        NOSIG=
201005300520 METAR COR EGLL 300520Z 29011KT 9999 FEW020 BKN032 13/10 Q1009
                        NOSIG=
201005300450 METAR COR EGLL 300450Z 29011KT 9999 FEW018 BKN034 13/10 Q1009
                        NOSIG=
201005300420 METAR COR EGLL 300420Z 29011KT 9999 FEW018 BKN038 13/10 Q1008
                        NOSIG=
201005300350 METAR COR EGLL 300350Z 29010KT 9999 SCT018 BKN037 13/10 Q1008
                        NOSIG=
201005300320 METAR COR EGLL 300320Z 28010KT 9999 FEW014 BKN018 13/11 Q1007
                        NOSIG=
201005300250 METAR COR EGLL 300250Z 27010KT 9999 FEW014 SCT018 BKN035
                        14/11 Q1007 NOSIG=
201005300220 METAR COR EGLL 300220Z 27011KT 9999 SCT018 BKN033 13/11 Q1007
                        NOSIG=
201005300150 METAR COR EGLL 300150Z 26010KT 9999 SCT012 BKN020 13/11 Q1007
                        TEMPO BKN012=
201005300120 METAR COR EGLL 300120Z 25012KT 9999 SCT013 SCT030 BKN047
                        14/04 Q1006 TEMPO BKN012=
201005300050 METAR COR EGLL 300050Z 25011KT 9999 SCT014 BKN047 14/04 Q1006
                        TEMPO BKN014=
201005300020 METAR COR EGLL 300020Z 25012KT 9999 FEW015 SCT020 14/04 Q1006
                        TEMPO BKN014=
201005292350 METAR COR EGLL 292350Z 25011KT 9999 SCT017 14/04 Q1006 NOSIG=
201005292320 METAR COR EGLL 292320Z 25011KT 9999 FEW032 SCT036 13/04 Q1006
                        NOSIG=
201005292250 METAR COR EGLL 292250Z 26013KT 9999 FEW038 14/04 Q1006 NOSIG=
201005292220 METAR COR EGLL 292220Z 26012KT 9999 SCT048 14/07 Q1006 NOSIG=
201005292150 METAR COR EGLL 292150Z 24011KT 9999 FEW023 14/12 Q1006 NOSIG=
201005292120 METAR COR EGLL 292120Z 25013KT 9999 FEW019 BKN030 14/12 Q1006
                        NOSIG=
201005292050 METAR COR EGLL 292050Z 23011KT 200V260 9999 FEW009 BKN025
                        14/11 Q1006 RESHRA NOSIG=
201005292020 METAR COR EGLL 292020Z 22011KT 9999 SCT009 BKN012 14/12 Q1006
                        RESHRA TEMPO SCT012=
201005291950 METAR COR EGLL 291950Z 22008KT 190V250 9999 4000N SHRA FEW012
                        SCT018 BKN025 14/12 Q1006 TEMPO BKN014=
201005291920 METAR COR EGLL 291920Z 22009KT 9999 FEW014 15/12 Q1006 TEMPO
                        BKN014=
201005291850 METAR COR EGLL 291850Z 23011KT 9999 BKN013 15/12 Q1006 TEMPO
                        SCT013=
201005291820 METAR COR EGLL 291820Z 22012KT 9000 4000N RADZ FEW008 SCT010
                        BKN015 15/12 Q1005 TEMPO BKN014=
201005291750 METAR COR EGLL 291750Z 22011KT 7000 -SHRA SCT011 BKN019 15/12
                        Q1006 TEMPO BKN012=
201005291720 METAR COR EGLL 291720Z 22013KT 9999 SCT015 BKN020 15/12 Q1006
                        TEMPO BKN014=
201005291650 METAR COR EGLL 291650Z 21012KT 9999 SCT018 BKN023 15/12 Q1006
                        NOSIG=
201005291620 METAR COR EGLL 291620Z 21013KT 9999 FEW017 SCT021 16/11 Q1006
                        NOSIG=
201005291550 METAR COR EGLL 291550Z 21015KT 180V240 9999 FEW018 BKN022
                        16/12 Q1007 NOSIG=
201005291520 METAR COR EGLL 291520Z 21014KT 9999 FEW010 BKN028 15/12 Q1007
                        NOSIG=
201005291450 METAR COR EGLL 291450Z 21012KT 180V240 9999 SCT010 BKN018
                        15/12 Q1007 TEMPO BKN012=
201005291420 METAR COR EGLL 291420Z 18010KT 150V230 9999 SCT008 BKN010
                        15/13 Q1007 TEMPO BKN009=
201005291350 METAR COR EGLL 291350Z 18013KT 9999 FEW006 SCT008 BKN010
                        13/11 Q1008 TEMPO BKN009=
201005291320 METAR COR EGLL 291320Z 18013KT 5000 -RA SCT007 SCT008 BKN010
                        13/11 Q1008 TEMPO BKN009=
201005291250 METAR COR EGLL 291250Z 17012G24KT 140V210 5000 -RA FEW006
                        SCT008 BKN010 13/11 Q1009 RERA TEMPO
                        4000 BKN009=
201005291220 METAR COR EGLL 291220Z 16010KT 140V200 5000 -RA FEW007 BKN010
                        13/11 Q1009 TEMPO 4000 BKN009=
201005291150 METAR COR EGLL 291150Z 16011KT 130V190 7000 -RA BKN012 13/11
                        Q1010 TEMPO DZ=
201005291120 METAR COR EGLL 291120Z 15012KT 110V170 9000 -RA SCT013 SCT030
                        13/10 Q1010 TEMPO BKN013=
201005291050 METAR COR EGLL 291050Z 17010KT 140V210 9999 -RA FEW020 SCT036
                        13/09 Q1011 TEMPO BKN012=
201005291020 METAR COR EGLL 291020Z 18012KT 150V210 9999 -RA FEW021 13/09
                        Q1011 NOSIG=
201005290950 METAR COR EGLL 290950Z 18011KT 150V220 9999 -RA FEW035 15/09
                        Q1011 NOSIG=
201005290920 METAR COR EGLL 290920Z 18012KT 130V230 9999 -SHRA NSC 14/08
                        Q1012 NOSIG=
201005290850 METAR COR EGLL 290850Z 17011KT 130V200 CAVOK 14/08 Q1012
                        NOSIG=
201005290820 METAR COR EGLL 290820Z 17011KT 150V220 CAVOK 14/07 Q1012
                        NOSIG=
201005290750 METAR COR EGLL 290750Z 15012KT 120V180 CAVOK 14/06 Q1012
                        NOSIG=
201005290720 METAR COR EGLL 290720Z 14008KT 110V200 CAVOK 13/07 Q1013
                        NOSIG=
201005290650 METAR COR EGLL 290650Z 14009KT 100V180 CAVOK 12/07 Q1013
                        NOSIG=
201005290620 METAR COR EGLL 290620Z 15008KT 100V190 CAVOK 12/08 Q1014
                        NOSIG=
201005290550 METAR COR EGLL 290550Z 15009KT CAVOK 11/08 Q1014 NOSIG=
201005290520 METAR COR EGLL 290520Z VRB06KT CAVOK 11/07 Q1014 NOSIG=
201005290450 METAR COR EGLL 290450Z 16006KT CAVOK 11/07 Q1014 NOSIG=
201005290420 METAR COR EGLL 290420Z 17005KT 9999 BKN049 11/08 Q1015 NOSIG=
201005290350 METAR COR EGLL 290350Z 18005KT 9999 SCT049 11/08 Q1015 NOSIG=
201005290320 METAR COR EGLL 290320Z 18006KT 9999 FEW049 11/08 Q1015 NOSIG=
201005290250 METAR COR EGLL 290250Z 20005KT 160V220 CAVOK 11/08 Q1015
                        NOSIG=
201005290220 METAR COR EGLL 290220Z 20007KT CAVOK 11/08 Q1015 NOSIG=
201005290150 METAR COR EGLL 290150Z 20006KT CAVOK 11/08 Q1016 NOSIG=
201005290120 METAR COR EGLL 290120Z 22006KT CAVOK 11/08 Q1016 NOSIG=
201005290050 METAR COR EGLL 290050Z 21006KT CAVOK 11/08 Q1016 NOSIG=
201005290020 METAR COR EGLL 290020Z 20005KT CAVOK 12/08 Q1016 NOSIG=
201005282350 METAR COR EGLL 282350Z 19005KT CAVOK 12/07 Q1016 NOSIG=
201005282320 METAR COR EGLL 282320Z 21004KT 190V250 CAVOK 13/07 Q1016
                        NOSIG=
201005282250 METAR COR EGLL 282250Z 24007KT CAVOK 13/08 Q1017 NOSIG=
201005282220 METAR COR EGLL 282220Z 25009KT CAVOK 14/07 Q1017 NOSIG=
201005282150 METAR COR EGLL 282150Z 24011KT CAVOK 14/07 Q1016 NOSIG=
201005282120 METAR COR EGLL 282120Z 24010KT CAVOK 15/07 Q1016 NOSIG=
201005282050 METAR COR EGLL 282050Z 25012KT CAVOK 15/07 Q1016 NOSIG=
201005282020 METAR COR EGLL 282020Z 24012KT CAVOK 16/07 Q1016 NOSIG=
201005281950 METAR COR EGLL 281950Z 22013G23KT CAVOK 16/07 Q1016 NOSIG=
201005281920 METAR COR EGLL 281920Z 22012KT CAVOK 16/07 Q1016 NOSIG=
201005281850 METAR COR EGLL 281850Z 22013KT CAVOK 16/08 Q1015 NOSIG=
201005281820 METAR COR EGLL 281820Z 22013G23KT 9999 FEW047 17/07 Q1015
                        NOSIG=
201005281750 METAR EGLL 281750Z 26010KT 220V290 9999 SCT045 17/06 Q1015=
201005281720 METAR COR EGLL 281720Z 27011KT 230V300 CAVOK 18/04 Q1015
                        NOSIG=
201005281650 METAR COR EGLL 281650Z 27013KT CAVOK 18/04 Q1015 NOSIG=
201005281620 METAR COR EGLL 281620Z 27013KT CAVOK 19/02 Q1015 NOSIG=
201005281550 METAR COR EGLL 281550Z 27013KT CAVOK 19/02 Q1015 NOSIG=
201005281520 METAR COR EGLL 281520Z 28011KT CAVOK 18/03 Q1015 NOSIG=
201005281450 METAR COR EGLL 281450Z 26010KT 210V300 CAVOK 18/05 Q1015
                        NOSIG=
201005281420 METAR COR EGLL 281420Z 27012KT CAVOK 19/04 Q1015 NOSIG=
201005281350 METAR COR EGLL 281350Z 27012KT 220V300 CAVOK 18/04 Q1015
                        NOSIG=
201005281320 METAR COR EGLL 281320Z 27010KT 220V320 CAVOK 18/03 Q1015
                        NOSIG=
201005281250 METAR COR EGLL 281250Z 27010KT 210V340 CAVOK 18/03 Q1015
                        NOSIG=
201005281220 METAR COR EGLL 281220Z 29009KT 270V330 CAVOK 18/04 Q1015
                        NOSIG=
201005281150 METAR COR EGLL 281150Z 26011KT 220V300 CAVOK 17/03 Q1015
                        NOSIG=
201005281120 METAR COR EGLL 281120Z 26010KT 210V310 9999 FEW048 17/03
                        Q1015 NOSIG=
201005281050 METAR COR EGLL 281050Z 29009KT 260V330 9999 SCT048 17/04
                        Q1015 NOSIG=
201005281020 METAR COR EGLL 281020Z 26010KT 240V310 9999 SCT044 15/03
                        Q1014 NOSIG=
201005280950 METAR COR EGLL 280950Z 26012KT 9999 SCT042 16/04 Q1014 NOSIG=
201005280920 METAR COR EGLL 280920Z 28011KT 9999 SCT042 16/05 Q1014 NOSIG=
201005280850 METAR COR EGLL 280850Z 28009KT 9999 SCT031 SCT042 14/06 Q1014
                        NOSIG=
201005280820 METAR COR EGLL 280820Z 29008KT 260V320 9999 SCT026 14/06
                        Q1014 NOSIG=
201005280750 METAR COR EGLL 280750Z 28011KT 9999 SCT022 13/07 Q1014 NOSIG=
201005280720 METAR COR EGLL 280720Z 27010KT 230V300 CAVOK 13/07 Q1014
                        NOSIG=
201005280650 METAR COR EGLL 280650Z 28010KT CAVOK 12/07 Q1014 NOSIG=
201005280620 METAR COR EGLL 280620Z 26010KT CAVOK 11/06 Q1013 NOSIG=
201005280550 METAR COR EGLL 280550Z 27009KT CAVOK 10/06 Q1013 NOSIG=
201005280520 METAR COR EGLL 280520Z 27010KT CAVOK 10/06 Q1013 NOSIG=
201005280450 METAR COR EGLL 280450Z 26007KT CAVOK 09/06 Q1012 NOSIG=
201005280420 METAR COR EGLL 280420Z 25007KT CAVOK 08/05 Q1012 NOSIG=
201005280350 METAR COR EGLL 280350Z 24008KT CAVOK 08/05 Q1012 NOSIG=
201005280320 METAR COR EGLL 280320Z 27006KT CAVOK 08/05 Q1012 NOSIG=
201005280250 METAR COR EGLL 280250Z 25007KT CAVOK 08/05 Q1012 NOSIG=
201005280220 METAR COR EGLL 280220Z 24007KT CAVOK 08/05 Q1012 NOSIG=
201005280150 METAR COR EGLL 280150Z 26008KT CAVOK 09/05 Q1012 NOSIG=
201005280120 METAR COR EGLL 280120Z 25006KT CAVOK 09/04 Q1012 NOSIG=
201005280050 METAR COR EGLL 280050Z 26006KT CAVOK 09/03 Q1012 NOSIG=
201005280020 METAR COR EGLL 280020Z 27007KT CAVOK 10/02 Q1012 NOSIG=
201005272350 METAR COR EGLL 272350Z 26006KT CAVOK 10/02 Q1012 NOSIG=
201005272320 METAR COR EGLL 272320Z 26006KT CAVOK 10/02 Q1011 NOSIG=
201005272250 METAR COR EGLL 272250Z 29005KT CAVOK 10/02 Q1011 NOSIG=
201005272220 METAR COR EGLL 272220Z 29006KT CAVOK 12/01 Q1011 NOSIG=
201005272150 METAR COR EGLL 272150Z 29006KT CAVOK 13/02 Q1011 NOSIG=
201005272120 METAR COR EGLL 272120Z 29004KT CAVOK 13/02 Q1011 NOSIG=
201005272050 METAR COR EGLL 272050Z 30004KT CAVOK 14/01 Q1011 NOSIG=
201005272020 METAR COR EGLL 272020Z 29006KT CAVOK 14/02 Q1010 NOSIG=
201005271950 METAR COR EGLL 271950Z 30006KT CAVOK 15/02 Q1010 NOSIG=
201005271920 METAR COR EGLL 271920Z 29007KT CAVOK 15/04 Q1010 NOSIG=
201005271850 METAR COR EGLL 271850Z 28008KT CAVOK 15/04 Q1010 NOSIG=
201005271820 METAR COR EGLL 271820Z 28008KT 250V320 CAVOK 16/02 Q1009
                        NOSIG=
201005271750 METAR COR EGLL 271750Z 29009KT 260V320 CAVOK 16/02 Q1009
                        NOSIG=
201005271720 METAR COR EGLL 271720Z 27009KT CAVOK 16/01 Q1009 NOSIG=
201005271650 METAR COR EGLL 271650Z 28010KT CAVOK 17/01 Q1009 NOSIG=
201005271620 METAR COR EGLL 271620Z 27010KT 230V310 CAVOK 17/01 Q1009
                        NOSIG=
201005271550 METAR COR EGLL 271550Z 27009KT 240V330 CAVOK 17/01 Q1009
                        NOSIG=
201005271520 METAR COR EGLL 271520Z 29008KT 240V350 CAVOK 17/00 Q1009
                        NOSIG=
201005271450 METAR COR EGLL 271450Z 28010KT 240V320 CAVOK 18/00 Q1009
                        NOSIG=
201005271420 METAR COR EGLL 271420Z 30007KT 240V010 CAVOK 18/01 Q1009
                        NOSIG=
201005271350 METAR COR EGLL 271350Z 29007KT 230V320 CAVOK 17/02 Q1009
                        NOSIG=
201005271320 METAR COR EGLL 271320Z 29006KT 250V320 9999 FEW049 16/03
                        Q1009 NOSIG=
201005271250 METAR COR EGLL 271250Z 28006KT 250V310 9999 SCT046 15/03
                        Q1009 NOSIG=
201005271220 METAR COR EGLL 271220Z 29005KT 250V320 9999 SCT039 16/04
                        Q1009 NOSIG=
201005271150 METAR COR EGLL 271150Z 31005KT 230V020 9999 FEW032 BKN037
                        16/05 Q1010 NOSIG=
201005271120 METAR COR EGLL 271120Z VRB02KT 9999 FEW022 BKN032 14/06 Q1010
                        NOSIG=
201005271050 METAR COR EGLL 271050Z 12005KT 080V170 9999 FEW020 SCT028
                        13/07 Q1010 NOSIG=
201005271020 METAR COR EGLL 271020Z VRB03KT 9999 SCT013 BKN028 12/07 Q1010
                        NOSIG=
201005270950 METAR COR EGLL 270950Z VRB03KT 8000 SCT008 SCT015 BKN028
                        12/08 Q1010 NOSIG=
201005270920 METAR COR EGLL 270920Z 35005KT 310V030 6000 -DZ BKN007 11/08
                        Q1010 BECMG BKN012=
201005270850 METAR COR EGLL 270850Z VRB03KT 8000 BKN008 10/08 Q1010 BECMG
                        BKN012=
201005270820 METAR COR EGLL 270820Z 22005KT 170V260 9999 BKN009 10/08
                        Q1010 BECMG BKN013=
201005270750 METAR COR EGLL 270750Z 21006KT 180V240 9999 SCT009 BKN012
                        10/07 Q1010 NOSIG=
201005270720 METAR COR EGLL 270720Z 20005KT 150V230 9999 FEW010 BKN017
                        10/07 Q1010 TEMPO BKN012=
201005270650 METAR COR EGLL 270650Z 20006KT 160V250 9999 FEW010 BKN020
                        10/07 Q1010 TEMPO BKN012=
201005270620 METAR COR EGLL 270620Z 18006KT 130V280 9999 FEW010 BKN021
                        10/07 Q1009 TEMPO SCT006 BKN010=
201005270550 METAR COR EGLL 270550Z VRB05KT 9999 FEW010 SCT018 BKN025
                        10/07 Q1009 TEMPO SCT006 BKN010=
201005270520 METAR COR EGLL 270520Z 17005KT 120V210 9999 FEW010 BKN021
                        10/07 Q1009 TEMPO SCT006 BKN010=
201005270450 METAR COR EGLL 270450Z 17005KT 9999 FEW010 BKN019 10/08 Q1009
                        TEMPO BKN010=
201005270420 METAR COR EGLL 270420Z 18005KT 9999 -RA FEW010 BKN022 10/08
                        Q1009 TEMPO BKN010=
201005270350 METAR COR EGLL 270350Z 18005KT 9999 -RA FEW009 BKN028 10/08
                        Q1009 NOSIG=
201005270320 METAR COR EGLL 270320Z 15005KT 9999 -RA FEW009 BKN032 10/08
                        Q1009 NOSIG=
201005270250 METAR COR EGLL 270250Z 21004KT 9999 -RA FEW009 BKN033 10/08
                        Q1009 NOSIG=
201005270220 METAR COR EGLL 270220Z 21003KT 9999 -RA FEW010 BKN032 10/08
                        Q1010 NOSIG=
201005270150 METAR COR EGLL 270150Z 21005KT 9999 -RA SCT007 SCT010 BKN030
                        10/08 Q1010 NOSIG=
201005270120 METAR COR EGLL 270120Z 18004KT 140V210 8000 -SHRA SCT013
                        SCT030 10/08 Q1010 RESHRA NOSIG=
201005270050 METAR COR EGLL 270050Z 09003KT 7000 SHRA FEW015 SCT028 BKN038
                        10/08 Q1010 TEMPO NSW=
201005270020 METAR COR EGLL 270020Z VRB02KT 9999 -SHRA FEW030 BKN038 10/08
                        Q1010 TEMPO SHRA=
201005262350 METAR COR EGLL 262350Z 13005KT 9999 -SHRA BKN037 10/07 Q1010
                        TEMPO SHRA=
201005262320 METAR COR EGLL 262320Z 13006KT 9999 -SHRA BKN040 11/06 Q1010
                        TEMPO SHRA=
201005262250 METAR COR EGLL 262250Z 14007KT 9999 -SHRA BKN044 11/06 Q1010
                        TEMPO SHRA=
201005262220 METAR COR EGLL 262220Z 16006KT 9999 BKN045 12/05 Q1010 TEMPO
                        SHRA=
201005262150 METAR COR EGLL 262150Z 14009KT 9999 BKN045 12/05 Q1010 TEMPO
                        SHRA=
201005262120 METAR COR EGLL 262120Z 14010KT 9999 FEW045 13/05 Q1009 TEMPO
                        SHRA=
201005262050 METAR COR EGLL 262050Z 16009KT 9999 SCT044 13/05 Q1009 TEMPO
                        SHRA=
201005262020 METAR COR EGLL 262020Z 14008KT 120V180 9999 BKN042 14/05
                        Q1009 NOSIG=
201005261950 METAR COR EGLL 261950Z 12009KT 9999 SCT038 14/05 Q1009 NOSIG=
201005261920 METAR COR EGLL 261920Z 11011KT 9999 FEW040 SCT045 14/06 Q1009
                        NOSIG=
201005261850 METAR COR EGLL 261850Z 10009KT 9999 FEW044 15/06 Q1009 NOSIG=
201005261820 METAR EGLL 261820Z AUTO 10006KT 9999NDV SCT046/// 15/05 Q1008=
201005261750 METAR COR EGLL 261750Z 10006KT 9999 FEW046 15/05 Q1008 NOSIG=
201005261720 METAR COR EGLL 261720Z 08006KT 050V120 9999 FEW046 16/05
                        Q1008 NOSIG=
201005261650 METAR COR EGLL 261650Z 12005KT 070V150 9999 FEW045 16/05
                        Q1009 NOSIG=
201005261620 METAR COR EGLL 261620Z 14006KT 080V220 9999 FEW049 17/05
                        Q1009 NOSIG=
201005261550 METAR EGLL 261550Z AUTO 13007KT 070V160 9999NDV BKN042///
                        16/05 Q1009=
201005261520 METAR COR EGLL 261520Z 12008KT 070V140 9999 FEW043 SCT049
                        17/05 Q1009 NOSIG=
201005261450 METAR COR EGLL 261450Z 08006KT 9999 FEW041 SCT047 17/05 Q1009
                        NOSIG=
201005261420 METAR COR EGLL 261420Z 06007KT 320V120 9999 SCT045 17/05
                        Q1009 NOSIG=
201005261350 METAR COR EGLL 261350Z 06005KT 360V140 9999 SCT046 16/05
                        Q1009 NOSIG=
201005261320 METAR COR EGLL 261320Z 10007KT 050V140 9999 BKN042 17/05
                        Q1009 NOSIG=
201005261250 METAR COR EGLL 261250Z 08008KT 040V110 9999 SCT040 18/05
                        Q1010 NOSIG=
201005261220 METAR COR EGLL 261220Z 07007KT 020V130 9999 FEW039 16/05
                        Q1010 NOSIG=
201005261150 METAR COR EGLL 261150Z 09009KT 030V120 CAVOK 17/05 Q1010
                        NOSIG=
201005261120 METAR COR EGLL 261120Z 07007KT 030V130 CAVOK 16/05 Q1010
                        NOSIG=
201005261050 METAR COR EGLL 261050Z 09011KT 9999 FEW045 15/05 Q1010 NOSIG=
201005261020 METAR COR EGLL 261020Z 08008KT CAVOK 14/05 Q1010 NOSIG=
201005260950 METAR COR EGLL 260950Z 07008KT 9999 FEW030 13/05 Q1010 NOSIG=
201005260920 METAR COR EGLL 260920Z 07008KT 9999 FEW030 13/05 Q1010 NOSIG=
201005260850 METAR COR EGLL 260850Z 07011KT CAVOK 13/06 Q1010 NOSIG=
201005260820 METAR COR EGLL 260820Z 06010KT 9999 FEW025 12/05 Q1010 NOSIG=
201005260750 METAR COR EGLL 260750Z 06010KT 030V090 9999 FEW025 12/06
                        Q1010 NOSIG=
201005260720 METAR COR EGLL 260720Z 06010KT 9999 FEW025 11/06 Q1010 NOSIG=
201005260650 METAR COR EGLL 260650Z 05008KT 020V080 9999 BKN048 11/06
                        Q1009 NOSIG=
201005260620 METAR COR EGLL 260620Z 04007KT 010V070 9999 SCT048 11/05
                        Q1009 NOSIG=
201005260550 METAR COR EGLL 260550Z 04007KT CAVOK 10/05 Q1009 NOSIG=
201005260520 METAR COR EGLL 260520Z 04005KT 360V070 CAVOK 10/05 Q1009
                        NOSIG=
201005260450 METAR COR EGLL 260450Z 04005KT CAVOK 10/05 Q1009 NOSIG=
201005260420 METAR COR EGLL 260420Z 04005KT 010V070 9999 FEW049 09/05
                        Q1009 NOSIG=
201005260350 METAR COR EGLL 260350Z 04007KT 9999 SCT049 10/05 Q1010 NOSIG=
201005260320 METAR COR EGLL 260320Z 05008KT 360V070 9999 BKN048 10/05
                        Q1010 NOSIG=
201005260250 METAR COR EGLL 260250Z 05007KT 020V080 9999 BKN048 10/04
                        Q1010 NOSIG=
201005260220 METAR COR EGLL 260220Z 05007KT 020V080 9999 BKN047 10/04
                        Q1010 NOSIG=
201005260150 METAR COR EGLL 260150Z 05008KT 9999 BKN045 10/04 Q1010 NOSIG=
201005260120 METAR COR EGLL 260120Z 05007KT 9999 SCT049 10/04 Q1010 NOSIG=
201005260050 METAR COR EGLL 260050Z 05009KT 010V070 9999 FEW049 10/04
                        Q1011 NOSIG=
201005260020 METAR COR EGLL 260020Z 06010KT 9999 FEW045 11/04 Q1011 NOSIG=
201005252350 METAR COR EGLL 252350Z 06011KT 9999 BKN047 11/03 Q1011 NOSIG=
201005252320 METAR COR EGLL 252320Z 06011KT 9999 SCT048 11/03 Q1012 NOSIG=
201005252250 METAR COR EGLL 252250Z 06012KT 9999 FEW048 12/03 Q1012 NOSIG=
201005252220 METAR COR EGLL 252220Z 07012KT 9999 FEW045 12/03 Q1012 NOSIG=
201005252150 METAR COR EGLL 252150Z 07011KT 9999 SCT044 13/03 Q1012 NOSIG=
201005252120 METAR COR EGLL 252120Z 07010KT 9999 BKN043 13/03 Q1012 NOSIG=
201005252050 METAR COR EGLL 252050Z 07010KT 9999 BKN043 13/03 Q1012 NOSIG=
201005252020 METAR COR EGLL 252020Z 07010KT 040V100 9999 BKN043 14/03
                        Q1012 NOSIG=
201005251950 METAR COR EGLL 251950Z 06011KT 9999 BKN048 14/04 Q1012 NOSIG=
201005251920 METAR COR EGLL 251920Z 07011KT 9999 BKN045 15/04 Q1012 NOSIG=
201005251850 METAR COR EGLL 251850Z 06009KT 9999 FEW043 15/05 Q1012 NOSIG=
201005251820 METAR COR EGLL 251820Z 06009KT 020V090 CAVOK 16/05 Q1011
                        NOSIG=
201005251750 METAR COR EGLL 251750Z 07011KT CAVOK 17/05 Q1011 NOSIG=
201005251720 METAR COR EGLL 251720Z 08012KT CAVOK 17/04 Q1011 NOSIG=
201005251650 METAR COR EGLL 251650Z 07011KT CAVOK 17/05 Q1011 NOSIG=
201005251620 METAR COR EGLL 251620Z 07012KT CAVOK 19/06 Q1011 NOSIG=
201005251550 METAR COR EGLL 251550Z 09012KT CAVOK 18/06 Q1011 NOSIG=
201005251520 METAR COR EGLL 251520Z 10013KT CAVOK 19/07 Q1011 NOSIG=
201005251450 METAR COR EGLL 251450Z 09012KT 060V130 CAVOK 20/07 Q1011
                        NOSIG=
201005251420 METAR COR EGLL 251420Z 10012KT CAVOK 20/08 Q1011 NOSIG=
201005251350 METAR COR EGLL 251350Z 09012KT CAVOK 20/08 Q1011 NOSIG=
201005251320 METAR COR EGLL 251320Z 10014KT CAVOK 20/09 Q1011 NOSIG=
201005251250 METAR COR EGLL 251250Z 10014KT 060V130 CAVOK 20/08 Q1012
                        NOSIG=
201005251220 METAR COR EGLL 251220Z 08011KT 040V120 CAVOK 19/09 Q1012
                        NOSIG=
201005251150 METAR COR EGLL 251150Z 09012KT 9999 FEW035 19/09 Q1012 NOSIG=
201005251120 METAR COR EGLL 251120Z 09012KT CAVOK 19/09 Q1012 NOSIG=
201005251050 METAR COR EGLL 251050Z 08010KT 050V120 CAVOK 18/09 Q1012
                        NOSIG=
201005251020 METAR EGLL 251020Z 10012KT CAVOK 18/10 Q1012=
201005250950 METAR COR EGLL 250950Z 09011KT CAVOK 18/10 Q1012 NOSIG=
201005250920 METAR COR EGLL 250920Z 07010KT 030V100 CAVOK 18/10 Q1012
                        NOSIG=
201005250850 METAR COR EGLL 250850Z 07010KT CAVOK 17/10 Q1012 NOSIG=
201005250820 METAR COR EGLL 250820Z 06010KT CAVOK 17/10 Q1013 NOSIG=
201005250750 METAR COR EGLL 250750Z 07009KT CAVOK 16/10 Q1013 NOSIG=
201005250720 METAR EGLL 250720Z 06009KT 9000 NSC 15/10 Q1013=
201005250650 METAR COR EGLL 250650Z 06008KT 9000 FEW049 14/10 Q1012 NOSIG=
201005250620 METAR COR EGLL 250620Z 06007KT 020V080 9000 SCT047 14/10
                        Q1012 NOSIG=
201005250550 METAR COR EGLL 250550Z 06006KT 030V090 9000 FEW010 BKN044
                        13/10 Q1012 TEMPO BKN008=
201005250520 METAR COR EGLL 250520Z 06007KT 6000 FEW010 SCT044 13/10 Q1012
                        TEMPO BKN008=
201005250450 METAR COR EGLL 250450Z 07005KT 6000 FEW010 12/10 Q1012 TEMPO
                        BKN008=
201005250420 METAR COR EGLL 250420Z 06004KT 6000 NSC 12/10 Q1012 TEMPO
                        BKN008=
201005250350 METAR COR EGLL 250350Z 07005KT 7000 NSC 11/10 Q1012 TEMPO
                        BKN008=
201005250320 METAR COR EGLL 250320Z 08004KT 8000 NSC 12/10 Q1012 TEMPO
                        BKN008=
201005250250 METAR COR EGLL 250250Z 07004KT 7000 NSC 12/10 Q1012 TEMPO
                        BKN008=
201005250220 METAR COR EGLL 250220Z 07004KT 7000 NSC 12/10 Q1012 TEMPO
                        BKN008=
201005250150 METAR COR EGLL 250150Z 08006KT CAVOK 13/10 Q1013 TEMPO BKN008=
201005250120 METAR COR EGLL 250120Z 08006KT 9000 NSC 12/10 Q1013 TEMPO
                        BKN008=
201005250050 METAR COR EGLL 250050Z 06006KT 9000 NSC 13/10 Q1013 TEMPO
                        BKN008=
201005250020 METAR COR EGLL 250020Z 06007KT 9000 FEW012 13/11 Q1013 TEMPO
                        BKN008=
201005242350 METAR COR EGLL 242350Z 08006KT CAVOK 13/11 Q1013 TEMPO BKN008=
201005242320 METAR COR EGLL 242320Z 09008KT CAVOK 14/10 Q1013 TEMPO BKN008=
201005242250 METAR COR EGLL 242250Z 09006KT CAVOK 15/10 Q1013 TEMPO BKN008=
201005242220 METAR COR EGLL 242220Z 09007KT CAVOK 15/11 Q1013 NOSIG=
201005242150 METAR COR EGLL 242150Z 08008KT CAVOK 15/11 Q1013 NOSIG=
201005242120 METAR COR EGLL 242120Z 09011KT CAVOK 16/11 Q1013 NOSIG=
201005242050 METAR COR EGLL 242050Z 08011KT CAVOK 17/10 Q1013 NOSIG=
201005242020 METAR COR EGLL 242020Z 09012KT CAVOK 18/11 Q1012 NOSIG=
201005241950 METAR COR EGLL 241950Z 09012KT CAVOK 19/11 Q1012 NOSIG=
201005241920 METAR COR EGLL 241920Z 09012KT CAVOK 21/12 Q1012 NOSIG=
201005241850 METAR COR EGLL 241850Z 03007KT 350V060 CAVOK 25/12 Q1011
                        NOSIG=
201005241820 METAR COR EGLL 241820Z 35007KT 330V030 CAVOK 26/08 Q1011
                        NOSIG=
201005241750 METAR COR EGLL 241750Z 34007KT 290V030 CAVOK 27/08 Q1011
                        NOSIG=
201005241720 METAR COR EGLL 241720Z 33006KT 280V020 CAVOK 27/09 Q1011
                        NOSIG=
201005241650 METAR COR EGLL 241650Z 31007KT 280V350 CAVOK 27/09 Q1011
                        NOSIG=
201005241620 METAR COR EGLL 241620Z 30006KT 250V030 CAVOK 27/08 Q1011
                        NOSIG=
201005241550 METAR COR EGLL 241550Z 31004KT 240V040 CAVOK 28/07 Q1012
                        NOSIG=
201005241520 METAR COR EGLL 241520Z 31005KT 250V360 CAVOK 28/06 Q1012
                        NOSIG=
201005241450 METAR COR EGLL 241450Z 25008KT 200V280 CAVOK 28/06 Q1012
                        NOSIG=
201005241420 METAR COR EGLL 241420Z 24008KT 180V300 CAVOK 28/05 Q1012
                        NOSIG=
201005241350 METAR COR EGLL 241350Z 26007G20KT 180V320 CAVOK 28/05 Q1013
                        NOSIG=
201005241320 METAR COR EGLL 241320Z 23007KT 180V290 CAVOK 28/05 Q1013
                        NOSIG=
201005241250 METAR COR EGLL 241250Z 27008KT 230V310 CAVOK 27/06 Q1013
                        NOSIG=
201005241220 METAR COR EGLL 241220Z 26008KT 210V320 CAVOK 27/07 Q1013
                        NOSIG=
201005241150 METAR COR EGLL 241150Z 26009KT 210V280 CAVOK 27/07 Q1014
                        NOSIG=
201005241120 METAR COR EGLL 241120Z 23007KT 190V280 9999 FEW030 26/07
                        Q1014 NOSIG=
201005241050 METAR COR EGLL 241050Z 23006KT 160V330 9999 FEW025 25/09
                        Q1014 NOSIG=
201005241020 METAR COR EGLL 241020Z VRB05KT CAVOK 24/09 Q1015 NOSIG=
201005240950 METAR COR EGLL 240950Z 28006KT 250V320 CAVOK 24/09 Q1015
                        NOSIG=
201005240920 METAR COR EGLL 240920Z 26007KT 210V290 CAVOK 23/08 Q1015
                        NOSIG=
201005240850 METAR COR EGLL 240850Z 26006KT 220V300 CAVOK 23/07 Q1015
                        NOSIG=
201005240820 METAR COR EGLL 240820Z 25006KT 210V300 CAVOK 21/06 Q1015
                        NOSIG=
201005240750 METAR COR EGLL 240750Z 25006KT CAVOK 20/07 Q1016 NOSIG=
201005240720 METAR COR EGLL 240720Z 26005KT 220V290 CAVOK 19/06 Q1016
                        NOSIG=
201005240650 METAR COR EGLL 240650Z 27005KT CAVOK 18/06 Q1016 NOSIG=
201005240620 METAR COR EGLL 240620Z 21004KT 160V250 CAVOK 17/07 Q1016
                        NOSIG=
201005240550 METAR COR EGLL 240550Z 25004KT 200V290 CAVOK 16/07 Q1016
                        NOSIG=
201005240520 METAR COR EGLL 240520Z 23004KT 170V260 CAVOK 15/08 Q1016
                        NOSIG=
201005240450 METAR COR EGLL 240450Z 21005KT 180V260 CAVOK 15/09 Q1016
                        NOSIG=
201005240420 METAR COR EGLL 240420Z 21005KT CAVOK 15/09 Q1016 NOSIG=
201005240350 METAR COR EGLL 240350Z 25005KT CAVOK 15/09 Q1017 NOSIG=
201005240320 METAR COR EGLL 240320Z 24004KT CAVOK 16/09 Q1017 NOSIG=
201005240250 METAR COR EGLL 240250Z 24005KT CAVOK 16/09 Q1017 NOSIG=
201005240220 METAR COR EGLL 240220Z 27006KT CAVOK 16/09 Q1017 NOSIG=
201005240150 METAR COR EGLL 240150Z VRB02KT CAVOK 17/10 Q1018 NOSIG=
201005240120 METAR COR EGLL 240120Z 29004KT CAVOK 16/11 Q1018 NOSIG=
201005240050 METAR COR EGLL 240050Z 25005KT CAVOK 17/10 Q1018 NOSIG=
201005240020 METAR COR EGLL 240020Z 22005KT CAVOK 18/11 Q1018 NOSIG=
201005232350 METAR COR EGLL 232350Z 21004KT CAVOK 18/11 Q1019 NOSIG=
201005232320 METAR COR EGLL 232320Z 21004KT CAVOK 18/11 Q1019 NOSIG=
201005232250 METAR COR EGLL 232250Z 20006KT CAVOK 19/11 Q1019 NOSIG=
201005232220 METAR COR EGLL 232220Z 19005KT 170V240 CAVOK 19/11 Q1019
                        NOSIG=
201005232150 METAR COR EGLL 232150Z 20004KT 180V240 CAVOK 20/11 Q1020
                        NOSIG=
201005232120 METAR COR EGLL 232120Z 21006KT CAVOK 21/12 Q1020 NOSIG=
201005232050 METAR COR EGLL 232050Z 21007KT CAVOK 22/12 Q1020 NOSIG=
201005232020 METAR COR EGLL 232020Z 22010KT CAVOK 23/12 Q1020 NOSIG=
201005231950 METAR COR EGLL 231950Z 22008KT CAVOK 24/12 Q1020 NOSIG=
201005231920 METAR COR EGLL 231920Z VRB03KT CAVOK 25/10 Q1020 NOSIG=
201005231850 METAR COR EGLL 231850Z 22003KT CAVOK 26/09 Q1020 NOSIG=
201005231820 METAR COR EGLL 231820Z 23004KT 180V280 CAVOK 27/09 Q1020
                        NOSIG=
201005231750 METAR COR EGLL 231750Z VRB03KT CAVOK 27/08 Q1020 NOSIG=
201005231720 METAR COR EGLL 231720Z VRB03KT CAVOK 27/08 Q1020 NOSIG=
201005231650 METAR COR EGLL 231650Z VRB04KT CAVOK 27/08 Q1021 NOSIG=
201005231620 METAR COR EGLL 231620Z 18005KT 130V250 CAVOK 28/09 Q1021
                        NOSIG=
201005231550 METAR COR EGLL 231550Z 16004KT 090V250 CAVOK 28/09 Q1021
                        NOSIG=
201005231520 METAR COR EGLL 231520Z 21006KT 140V260 CAVOK 28/09 Q1021
                        NOSIG=
201005231450 METAR COR EGLL 231450Z 17006KT 100V220 CAVOK 27/09 Q1022
                        NOSIG=
201005231420 METAR COR EGLL 231420Z VRB03KT CAVOK 28/09 Q1022 NOSIG=
201005231350 METAR COR EGLL 231350Z 11005KT 040V200 CAVOK 27/09 Q1022
                        NOSIG=
201005231320 METAR COR EGLL 231320Z VRB03KT CAVOK 26/09 Q1023 NOSIG=
201005231250 METAR COR EGLL 231250Z 21004KT 160V300 CAVOK 26/09 Q1024
                        NOSIG=
201005231220 METAR COR EGLL 231220Z VRB02KT CAVOK 26/09 Q1024 NOSIG=
201005231150 METAR COR EGLL 231150Z VRB03KT CAVOK 25/09 Q1024 NOSIG=
201005231120 METAR COR EGLL 231120Z VRB02KT CAVOK 25/09 Q1025 NOSIG=
201005231050 METAR COR EGLL 231050Z VRB02KT CAVOK 23/10 Q1025 NOSIG=
201005231020 METAR COR EGLL 231020Z VRB03KT CAVOK 23/10 Q1025 NOSIG=
201005230950 METAR COR EGLL 230950Z 13004KT 070V180 CAVOK 23/11 Q1025
                        NOSIG=
201005230920 METAR COR EGLL 230920Z VRB03KT CAVOK 22/11 Q1025 NOSIG=
201005230850 METAR COR EGLL 230850Z VRB03KT CAVOK 21/12 Q1026 NOSIG=
201005230820 METAR COR EGLL 230820Z VRB03KT CAVOK 20/11 Q1026 NOSIG=
201005230750 METAR COR EGLL 230750Z VRB03KT CAVOK 18/11 Q1026 NOSIG=
201005230720 METAR COR EGLL 230720Z VRB02KT CAVOK 17/11 Q1026 NOSIG=
201005230650 METAR COR EGLL 230650Z VRB02KT CAVOK 17/11 Q1026 NOSIG=
201005230620 METAR COR EGLL 230620Z VRB02KT CAVOK 16/11 Q1026 NOSIG=
201005230550 METAR COR EGLL 230550Z VRB02KT CAVOK 14/10 Q1026 NOSIG=
201005230520 METAR COR EGLL 230520Z VRB03KT CAVOK 13/10 Q1026 NOSIG=
201005230450 METAR COR EGLL 230450Z VRB02KT 9999 VCFG NSC 12/10 Q1026
                        NOSIG=
201005230420 METAR COR EGLL 230420Z 35003KT 9999 VCFG NSC 12/09 Q1026
                        NOSIG=
201005230350 METAR COR EGLL 230350Z 36003KT CAVOK 12/10 Q1026 NOSIG=
201005230320 METAR COR EGLL 230320Z VRB03KT CAVOK 12/10 Q1026 NOSIG=
201005230250 METAR COR EGLL 230250Z 34003KT CAVOK 12/10 Q1027 NOSIG=
201005230220 METAR COR EGLL 230220Z 01002KT CAVOK 12/10 Q1027 NOSIG=
201005230150 METAR COR EGLL 230150Z 00000KT CAVOK 12/10 Q1027 NOSIG=
201005230120 METAR COR EGLL 230120Z 08002KT CAVOK 13/10 Q1027 NOSIG=
201005230050 METAR COR EGLL 230050Z 09003KT CAVOK 13/10 Q1027 NOSIG=
201005230020 METAR COR EGLL 230020Z 09004KT CAVOK 13/10 Q1027 NOSIG=
201005222350 METAR COR EGLL 222350Z 09004KT CAVOK 13/10 Q1027 NOSIG=
201005222320 METAR COR EGLL 222320Z 10006KT CAVOK 14/10 Q1027 NOSIG=
201005222250 METAR COR EGLL 222250Z 09006KT CAVOK 13/10 Q1027 NOSIG=
201005222220 METAR COR EGLL 222220Z 09006KT CAVOK 14/10 Q1028 NOSIG=
201005222150 METAR COR EGLL 222150Z 09008KT CAVOK 14/10 Q1028 NOSIG=
201005222120 METAR COR EGLL 222120Z 10008KT CAVOK 15/10 Q1028 NOSIG=
201005222050 METAR COR EGLL 222050Z 10006KT CAVOK 16/10 Q1028 NOSIG=
201005222020 METAR COR EGLL 222020Z 10006KT CAVOK 17/09 Q1027 NOSIG=
201005221950 METAR COR EGLL 221950Z 10009KT CAVOK 18/09 Q1027 NOSIG=
201005221920 METAR COR EGLL 221920Z 10009KT CAVOK 19/08 Q1027 NOSIG=
201005221850 METAR COR EGLL 221850Z 10009KT CAVOK 21/09 Q1027 NOSIG=
201005221820 METAR COR EGLL 221820Z 10009KT CAVOK 21/09 Q1027 NOSIG=
201005221750 METAR COR EGLL 221750Z 10008KT CAVOK 22/09 Q1027 NOSIG=
201005221720 METAR COR EGLL 221720Z 10009KT CAVOK 23/10 Q1027 NOSIG=
201005221650 METAR COR EGLL 221650Z 11010KT CAVOK 23/10 Q1027 NOSIG=
201005221620 METAR COR EGLL 221620Z 10009KT 070V130 CAVOK 24/09 Q1027
                        NOSIG=
201005221550 METAR COR EGLL 221550Z 08008KT 040V130 CAVOK 24/09 Q1028
                        NOSIG=
201005221520 METAR COR EGLL 221520Z 09009KT 070V130 CAVOK 24/08 Q1028
                        NOSIG=
201005221450 METAR COR EGLL 221450Z 09010KT CAVOK 24/07 Q1028 NOSIG=
201005221420 METAR COR EGLL 221420Z 08009KT CAVOK 24/07 Q1028 NOSIG=
201005221350 METAR COR EGLL 221350Z 07006KT 020V140 CAVOK 24/07 Q1028
                        NOSIG=
201005221320 METAR COR EGLL 221320Z 05007KT 010V080 CAVOK 23/08 Q1028
                        NOSIG=
201005221250 METAR COR EGLL 221250Z 06007KT 360V100 CAVOK 23/07 Q1029
                        NOSIG=
201005221220 METAR COR EGLL 221220Z 07008KT 040V100 CAVOK 23/07 Q1029
                        NOSIG=
201005221150 METAR COR EGLL 221150Z 04007KT 350V080 CAVOK 22/09 Q1029
                        NOSIG=
201005221120 METAR COR EGLL 221120Z 03006KT 350V070 CAVOK 22/09 Q1029
                        NOSIG=
201005221050 METAR COR EGLL 221050Z 08009KT 030V110 CAVOK 21/09 Q1030
                        NOSIG=
201005221020 METAR COR EGLL 221020Z 06007KT 040V100 CAVOK 20/10 Q1030
                        NOSIG=
201005220950 METAR COR EGLL 220950Z 07007KT 040V110 CAVOK 20/11 Q1030
                        NOSIG=
201005220920 METAR COR EGLL 220920Z 07007KT 030V100 CAVOK 19/10 Q1030
                        NOSIG=
201005220850 METAR COR EGLL 220850Z 05007KT 020V090 CAVOK 18/11 Q1030
                        NOSIG=
201005220820 METAR COR EGLL 220820Z 06005KT 010V100 9999 FEW024 17/11
                        Q1030 NOSIG=
201005220750 METAR COR EGLL 220750Z 07005KT 9999 FEW015 16/11 Q1030 NOSIG=
201005220720 METAR COR EGLL 220720Z 06005KT 010V100 9999 7000SE NSC 16/11
                        Q1030 NOSIG=
201005220650 METAR COR EGLL 220650Z 07004KT 030V100 9000 VCFG NSC 15/11
                        Q1030 NOSIG=
201005220620 METAR COR EGLL 220620Z 08005KT 8000 VCFG NSC 14/10 Q1030
                        NOSIG=
201005220550 METAR COR EGLL 220550Z VRB03KT 7000 VCFG NSC 13/11 Q1030
                        NOSIG=
201005220520 METAR COR EGLL 220520Z 05003KT 7000 VCFG NSC 13/10 Q1030
                        TEMPO BKN006=
201005220450 METAR COR EGLL 220450Z 01003KT 7000 VCFG NSC 12/10 Q1030
                        TEMPO 4000 BR BKN003=
201005220420 METAR COR EGLL 220420Z 35004KT 7000 VCFG NSC 12/10 Q1030
                        TEMPO 4000 BR BKN003=
201005220350 METAR COR EGLL 220350Z 35003KT 7000 VCFG NSC 11/09 Q1030
                        TEMPO 4000 BR BKN003=
201005220320 METAR COR EGLL 220320Z 04004KT 7000 NSC 11/10 Q1030 TEMPO
                        4000 BR BKN005=
201005220250 METAR COR EGLL 220250Z VRB03KT CAVOK 12/09 Q1030 NOSIG=
201005220220 METAR COR EGLL 220220Z 03002KT CAVOK 12/10 Q1030 NOSIG=
201005220150 METAR COR EGLL 220150Z 07002KT 9999 FEW049 12/10 Q1030 NOSIG=
201005220120 METAR EGLL 220120Z AUTO 07002KT 9999NDV NCD 13/10 Q1030=
201005220050 METAR EGLL 220050Z AUTO 10002KT 9999NDV NCD 13/10 Q1030=
201005220020 METAR EGLL 220020Z AUTO 07002KT 9999NDV NCD 13/10 Q1030=
201005212350 METAR COR EGLL 212350Z 10005KT CAVOK 13/10 Q1030 NOSIG=
201005212320 METAR COR EGLL 212320Z 08005KT CAVOK 13/10 Q1031 NOSIG=
201005212250 METAR COR EGLL 212250Z 08006KT CAVOK 14/10 Q1031 NOSIG=
201005212220 METAR COR EGLL 212220Z 08007KT CAVOK 15/10 Q1031 NOSIG=
201005212150 METAR COR EGLL 212150Z 09007KT CAVOK 15/10 Q1030 NOSIG=
201005212120 METAR COR EGLL 212120Z 09007KT CAVOK 16/10 Q1030 NOSIG=
201005212050 METAR COR EGLL 212050Z 09007KT CAVOK 17/11 Q1030 NOSIG=
201005212020 METAR COR EGLL 212020Z 10008KT CAVOK 18/12 Q1030 NOSIG=
201005211950 METAR COR EGLL 211950Z 09007KT CAVOK 19/12 Q1030 NOSIG=
201005211920 METAR COR EGLL 211920Z 09008KT CAVOK 20/12 Q1030 NOSIG=
201005211850 METAR COR EGLL 211850Z 09008KT CAVOK 21/12 Q1029 NOSIG=
201005211820 METAR COR EGLL 211820Z 09008KT 9999 FEW048 22/12 Q1029 NOSIG=
201005211750 METAR COR EGLL 211750Z 06008KT 010V100 9999 FEW049 23/12
                        Q1029 NOSIG=
201005211720 METAR EGLL 211720Z AUTO 06006KT 020V100 9999NDV NCD 23/11
                        Q1030=
201005211650 METAR COR EGLL 211650Z 04006KT 010V070 CAVOK 24/10 Q1030
                        NOSIG=
201005211620 METAR COR EGLL 211620Z 05007KT 360V090 CAVOK 24/10 Q1030
                        NOSIG=
201005211550 METAR COR EGLL 211550Z 02006KT 340V070 CAVOK 25/10 Q1030
                        NOSIG=
201005211520 METAR COR EGLL 211520Z 04006KT 350V090 CAVOK 24/10 Q1030
                        NOSIG=
201005211450 METAR COR EGLL 211450Z 05007KT CAVOK 24/10 Q1030 NOSIG=
201005211420 METAR COR EGLL 211420Z 07007KT 030V100 CAVOK 24/10 Q1030
                        NOSIG=
201005211350 METAR COR EGLL 211350Z 05007KT 010V100 CAVOK 24/10 Q1030
                        NOSIG=
201005211320 METAR COR EGLL 211320Z 06007KT 020V090 9999 FEW047 24/11
                        Q1031 NOSIG=
201005211250 METAR COR EGLL 211250Z 04008KT 010V080 9999 FEW048 24/11
                        Q1031 NOSIG=
201005211220 METAR COR EGLL 211220Z 06008KT 020V080 9999 SCT043 23/12
                        Q1031 NOSIG=
201005211150 METAR COR EGLL 211150Z 06007KT 010V100 9999 SCT043 23/12
                        Q1031 NOSIG=
201005211120 METAR COR EGLL 211120Z 03006KT 340V080 9999 SCT042 24/12
                        Q1031 NOSIG=
201005211050 METAR COR EGLL 211050Z 07008KT 010V110 9999 SCT040 23/12
                        Q1031 NOSIG=
201005211020 METAR COR EGLL 211020Z 05005KT 010V090 9999 SCT038 23/12
                        Q1031 NOSIG=
201005210950 METAR COR EGLL 210950Z 06006KT 020V090 9999 FEW035 22/12
                        Q1032 NOSIG=
201005210920 METAR COR EGLL 210920Z 07006KT 020V110 9999 FEW033 22/13
                        Q1032 NOSIG=
201005210850 METAR COR EGLL 210850Z 09004KT 020V110 CAVOK 21/12 Q1032
                        NOSIG=
201005210820 METAR COR EGLL 210820Z 03004KT 340V070 8000 NSC 20/13 Q1032
                        NOSIG=
201005210750 METAR COR EGLL 210750Z VRB03KT 9000 NSC 19/13 Q1032 NOSIG=
201005210720 METAR COR EGLL 210720Z 06004KT 360V090 9000 NSC 18/13 Q1032
                        NOSIG=
201005210650 METAR COR EGLL 210650Z VRB03KT 9000 NSC 17/12 Q1032 NOSIG=
201005210620 METAR COR EGLL 210620Z VRB02KT 9000 NSC 16/12 Q1032 NOSIG=
201005210550 METAR COR EGLL 210550Z VRB02KT 9000 FEW037 16/12 Q1032 NOSIG=
201005210520 METAR COR EGLL 210520Z VRB02KT 9999 SCT036 15/12 Q1031 NOSIG=
201005210450 METAR COR EGLL 210450Z 00000KT 9999 SCT039 14/12 Q1031 NOSIG=
201005210420 METAR COR EGLL 210420Z 00000KT 9999 FEW049 15/12 Q1031 NOSIG=
201005210350 METAR COR EGLL 210350Z 00000KT 9999 SCT041 15/12 Q1031 NOSIG=
201005210320 METAR COR EGLL 210320Z VRB02KT 9999 SCT045 15/12 Q1031 NOSIG=
201005210250 METAR COR EGLL 210250Z 31004KT 9999 FEW048 15/12 Q1031 NOSIG=
201005210220 METAR COR EGLL 210220Z 30003KT CAVOK 15/12 Q1031 NOSIG=
201005210150 METAR COR EGLL 210150Z VRB03KT CAVOK 14/12 Q1031 NOSIG=
201005210120 METAR COR EGLL 210120Z 30002KT CAVOK 14/12 Q1031 NOSIG=
201005210050 METAR EGLL 210050Z NIL=
201005210020 METAR EGLL 210020Z NIL=
201005202350 METAR EGLL 202350Z NIL=
201005202320 METAR EGLL 202320Z NIL=
201005202250 METAR COR EGLL 202250Z VRB02KT CAVOK 17/12 Q1031 NOSIG=
201005202220 METAR COR EGLL 202220Z 30004KT CAVOK 18/12 Q1031 NOSIG=
201005202150 METAR COR EGLL 202150Z 31004KT CAVOK 19/13 Q1031 NOSIG=
201005202120 METAR COR EGLL 202120Z 31003KT CAVOK 20/12 Q1031 NOSIG=
201005202050 METAR COR EGLL 202050Z 31003KT CAVOK 20/12 Q1031 NOSIG=
201005202020 METAR COR EGLL 202020Z 28004KT CAVOK 19/12 Q1031 NOSIG=
201005201950 METAR COR EGLL 201950Z 28006KT CAVOK 19/12 Q1031 NOSIG=
201005201920 METAR COR EGLL 201920Z 27006KT CAVOK 19/12 Q1031 NOSIG=
201005201850 METAR COR EGLL 201850Z 27005KT CAVOK 21/12 Q1031 NOSIG=
201005201820 METAR COR EGLL 201820Z 28004KT 260V320 CAVOK 22/12 Q1031
                        NOSIG=
201005201750 METAR COR EGLL 201750Z VRB03KT CAVOK 22/11 Q1031 NOSIG=
201005201720 METAR COR EGLL 201720Z 29005KT 230V330 CAVOK 22/12 Q1031
                        NOSIG=
201005201650 METAR COR EGLL 201650Z 28004KT 230V320 9999 FEW044 21/12
                        Q1031 NOSIG=
201005201620 METAR COR EGLL 201620Z 33004KT 280V040 9999 FEW039 22/12
                        Q1031 NOSIG=
201005201550 METAR COR EGLL 201550Z VRB02KT 9999 SCT035 21/12 Q1031 NOSIG=
201005201520 METAR COR EGLL 201520Z 28006KT 230V040 9999 SCT031 21/13
                        Q1032 NOSIG=
201005201450 METAR COR EGLL 201450Z 26008KT 230V290 9999 BKN031 21/12
                        Q1032 NOSIG=
201005201420 METAR EGLL 201420Z 27004KT 230V310 9999 SCT031 20/12 Q1032=
201005201350 METAR EGLL 201350Z VRB02KT 9999 BKN035 20/11 Q1032=
201005201320 METAR EGLL 201320Z VRB03KT 9999 FEW027 BKN035 20/11 Q1032=
201005201250 METAR EGLL 201250Z 26007KT 230V300 9999 FEW033 BKN049 21/13
                        Q1032=
201005201220 METAR COR EGLL 201220Z 27006KT 230V300 9999 FEW030 BKN049
                        19/13 Q1032 NOSIG=
201005201150 METAR COR EGLL 201150Z 29004KT 220V360 9999 FEW030 BKN046
                        19/13 Q1032 NOSIG=
201005201120 METAR COR EGLL 201120Z VRB03KT 9999 BKN043 18/13 Q1033 NOSIG=
201005201050 METAR EGLL 201050Z VRB02KT 9999 BKN043 17/13 Q1033=
201005201020 METAR COR EGLL 201020Z VRB03KT 9000 OVC039 17/13 Q1033 NOSIG=
201005200950 METAR COR EGLL 200950Z VRB03KT 9000 OVC038 16/12 Q1033 NOSIG=
201005200920 METAR COR EGLL 200920Z VRB03KT 9000 BKN037 16/12 Q1033 NOSIG=
201005200850 METAR COR EGLL 200850Z 28003KT 9000 BKN037 15/12 Q1033 NOSIG=
201005200820 METAR COR EGLL 200820Z 28004KT 9000 BKN037 15/11 Q1033 NOSIG=
201005200750 METAR COR EGLL 200750Z 28003KT 9000 BKN034 14/11 Q1033 NOSIG=
201005200720 METAR COR EGLL 200720Z 28003KT 9000 BKN037 14/11 Q1032 NOSIG=
201005200650 METAR COR EGLL 200650Z VRB02KT 8000 BKN037 13/11 Q1032 NOSIG=
201005200620 METAR COR EGLL 200620Z 28004KT 9000 FEW036 BKN040 13/11 Q1032
                        NOSIG=
201005200550 METAR COR EGLL 200550Z VRB02KT 8000 FEW036 BKN040 12/10 Q1032
                        NOSIG=
201005200520 METAR COR EGLL 200520Z VRB03KT 8000 SCT040 12/10 Q1032 NOSIG=
201005200450 METAR COR EGLL 200450Z VRB02KT 8000 NSC 11/09 Q1032 NOSIG=
201005200420 METAR COR EGLL 200420Z 23002KT 8000 NSC 11/09 Q1032 NOSIG=
201005200350 METAR COR EGLL 200350Z VRB03KT 8000 NSC 10/09 Q1031 NOSIG=
201005200320 METAR COR EGLL 200320Z 28002KT 9000 NSC 11/09 Q1031 NOSIG=
201005200250 METAR COR EGLL 200250Z 00000KT 9000 NSC 11/09 Q1031 NOSIG=
201005200220 METAR COR EGLL 200220Z 29003KT CAVOK 11/09 Q1031 NOSIG=
201005200150 METAR EGLL 200150Z NIL=
201005200120 METAR COR EGLL 200120Z VRB02KT CAVOK 12/09 Q1031 NOSIG=
201005200050 METAR COR EGLL 200050Z 21003KT CAVOK 12/09 Q1031 NOSIG=
201005200020 METAR COR EGLL 200020Z 21003KT CAVOK 12/09 Q1031 NOSIG=
201005192350 METAR COR EGLL 192350Z VRB03KT CAVOK 13/09 Q1031 NOSIG=
201005192320 METAR COR EGLL 192320Z 21003KT CAVOK 14/09 Q1031 NOSIG=
201005192250 METAR COR EGLL 192250Z 20004KT 110V250 CAVOK 14/09 Q1031
                        NOSIG=
201005192220 METAR COR EGLL 192220Z 27003KT CAVOK 15/10 Q1031 NOSIG=
201005192150 METAR COR EGLL 192150Z 30002KT CAVOK 16/10 Q1031 NOSIG=
201005192120 METAR COR EGLL 192120Z 31004KT CAVOK 17/11 Q1031 NOSIG=
201005192050 METAR COR EGLL 192050Z 30007KT 9999 SCT038 BKN046 18/10 Q1030
                        NOSIG=
201005192020 METAR COR EGLL 192020Z 30005KT 9999 SCT038 BKN046 18/10 Q1030
                        NOSIG=
201005191950 METAR COR EGLL 191950Z 27008KT 9999 SCT040 BKN049 18/10 Q1030
                        NOSIG=
201005191920 METAR COR EGLL 191920Z 27008KT 9999 BKN040 18/10 Q1029 NOSIG=
201005191850 METAR COR EGLL 191850Z 27008KT 9999 BKN040 18/11 Q1029 NOSIG=
201005191820 METAR COR EGLL 191820Z 22006KT 170V270 9999 BKN042 18/11
                        Q1029 NOSIG=
201005191750 METAR COR EGLL 191750Z 21006KT 9999 SCT044 19/11 Q1029 NOSIG=
201005191720 METAR COR EGLL 191720Z 19008KT 9999 FEW045 19/11 Q1029 NOSIG=
201005191650 METAR COR EGLL 191650Z 19008KT 150V220 9999 BKN045 19/11
                        Q1029 NOSIG=
201005191620 METAR COR EGLL 191620Z 19009KT 170V250 9999 BKN045 19/11
                        Q1029 NOSIG=
201005191550 METAR COR EGLL 191550Z 23008KT 9999 BKN047 20/10 Q1029 NOSIG=
201005191520 METAR COR EGLL 191520Z 27007KT CAVOK 20/08 Q1029 NOSIG=
201005191450 METAR COR EGLL 191450Z 25007KT 210V280 CAVOK 20/08 Q1029
                        NOSIG=
201005191420 METAR COR EGLL 191420Z 22006KT CAVOK 20/08 Q1029 NOSIG=
201005191350 METAR COR EGLL 191350Z 21005KT 140V310 CAVOK 21/08 Q1029
                        NOSIG=
201005191320 METAR COR EGLL 191320Z 27008KT 230V310 9999 SCT047 20/08
                        Q1029 NOSIG=
201005191250 METAR COR EGLL 191250Z 24006KT 140V300 9999 SCT045 21/08
                        Q1029 NOSIG=
201005191220 METAR COR EGLL 191220Z 27006KT 200V320 9999 BKN042 21/08
                        Q1029 NOSIG=
201005191150 METAR COR EGLL 191150Z 23008KT 190V280 9999 FEW040 20/08
                        Q1029 NOSIG=
201005191120 METAR COR EGLL 191120Z 26007KT 220V300 9999 FEW040 20/09
                        Q1029 NOSIG=
201005191050 METAR COR EGLL 191050Z VRB05KT CAVOK 19/09 Q1029 NOSIG=
201005191020 METAR COR EGLL 191020Z 25005KT 190V310 CAVOK 18/09 Q1030
                        NOSIG=
201005190950 METAR COR EGLL 190950Z 20006KT 150V250 CAVOK 18/09 Q1030
                        NOSIG=
201005190920 METAR COR EGLL 190920Z 25005KT 170V310 CAVOK 17/09 Q1030
                        NOSIG=
201005190850 METAR COR EGLL 190850Z 22004KT 150V270 CAVOK 15/09 Q1030
                        NOSIG=
201005190820 METAR COR EGLL 190820Z 21005KT 140V270 CAVOK 14/09 Q1030
                        NOSIG=
201005190750 METAR COR EGLL 190750Z 20006KT 150V250 CAVOK 13/08 Q1030
                        NOSIG=
201005190720 METAR COR EGLL 190720Z 18006KT CAVOK 12/08 Q1030 NOSIG=
201005190650 METAR COR EGLL 190650Z 20004KT 150V240 CAVOK 11/07 Q1030
                        NOSIG=
201005190620 METAR COR EGLL 190620Z VRB02KT CAVOK 10/06 Q1030 NOSIG=
201005190550 METAR COR EGLL 190550Z VRB03KT CAVOK 09/06 Q1030 NOSIG=
201005190520 METAR COR EGLL 190520Z VRB02KT CAVOK 08/06 Q1030 NOSIG=
201005190450 METAR COR EGLL 190450Z VRB03KT CAVOK 06/05 Q1029 NOSIG=
201005190420 METAR COR EGLL 190420Z VRB03KT CAVOK 07/05 Q1029 NOSIG=
201005190350 METAR COR EGLL 190350Z VRB03KT CAVOK 08/05 Q1029 NOSIG=
201005190320 METAR COR EGLL 190320Z 21004KT CAVOK 08/05 Q1029 NOSIG=
201005190250 METAR COR EGLL 190250Z 00000KT CAVOK 09/05 Q1029 NOSIG=
201005190220 METAR COR EGLL 190220Z 17003KT CAVOK 08/05 Q1029 NOSIG=
201005190150 METAR COR EGLL 190150Z 14004KT CAVOK 08/05 Q1029 NOSIG=
201005190120 METAR COR EGLL 190120Z VRB03KT CAVOK 09/05 Q1029 NOSIG=
201005190050 METAR COR EGLL 190050Z 13004KT CAVOK 09/05 Q1029 NOSIG=
201005190020 METAR COR EGLL 190020Z 12004KT 080V140 CAVOK 09/05 Q1029
                        NOSIG=
201005182350 METAR EGLL 182350Z NIL=
201005182320 METAR COR EGLL 182320Z 14004KT CAVOK 10/06 Q1029 NOSIG=
201005182250 METAR COR EGLL 182250Z 13004KT CAVOK 10/06 Q1029 NOSIG=
201005182220 METAR COR EGLL 182220Z 14005KT CAVOK 11/06 Q1029 NOSIG=
201005182150 METAR COR EGLL 182150Z 16004KT 130V230 CAVOK 12/07 Q1029
                        NOSIG=
201005182120 METAR COR EGLL 182120Z 14005KT CAVOK 13/07 Q1029 NOSIG=
201005182050 METAR COR EGLL 182050Z 13005KT 050V170 CAVOK 14/06 Q1029
                        NOSIG=
201005182020 METAR COR EGLL 182020Z 14005KT 090V170 CAVOK 14/06 Q1029
                        NOSIG=
201005181950 METAR COR EGLL 181950Z 15006KT 120V180 CAVOK 15/06 Q1029
                        NOSIG=
201005181920 METAR COR EGLL 181920Z VRB07KT CAVOK 16/07 Q1028 NOSIG=
201005181850 METAR COR EGLL 181850Z 18008KT 150V230 CAVOK 16/06 Q1028
                        NOSIG=
201005181820 METAR COR EGLL 181820Z 18008KT 160V240 CAVOK 16/06 Q1028
                        NOSIG=
201005181750 METAR COR EGLL 181750Z 20008KT CAVOK 17/07 Q1028 NOSIG=
201005181720 METAR COR EGLL 181720Z 13007KT 080V220 9999 SCT047 17/06
                        Q1028 NOSIG=
201005181650 METAR COR EGLL 181650Z 12009KT 100V170 9999 SCT047 17/06
                        Q1028 NOSIG=
201005181620 METAR COR EGLL 181620Z 11008KT CAVOK 18/06 Q1028 NOSIG=
201005181550 METAR COR EGLL 181550Z 21004KT 120V280 CAVOK 18/04 Q1028
                        NOSIG=
201005181520 METAR COR EGLL 181520Z 25004KT 160V290 CAVOK 18/04 Q1028
                        NOSIG=
201005181450 METAR COR EGLL 181450Z 17007KT 120V240 CAVOK 20/04 Q1028
                        NOSIG=
201005181420 METAR COR EGLL 181420Z 23006KT 190V300 CAVOK 18/04 Q1028
                        NOSIG=
201005181350 METAR COR EGLL 181350Z 19006KT 150V250 CAVOK 18/04 Q1028
                        NOSIG=
201005181320 METAR COR EGLL 181320Z VRB05KT CAVOK 18/03 Q1028 NOSIG=
201005181250 METAR COR EGLL 181250Z VRB05KT CAVOK 18/03 Q1028 NOSIG=
201005181220 METAR COR EGLL 181220Z VRB03KT CAVOK 18/03 Q1028 NOSIG=
201005181150 METAR COR EGLL 181150Z 20004KT 140V280 CAVOK 18/03 Q1028
                        NOSIG=
201005181120 METAR COR EGLL 181120Z VRB04G14KT CAVOK 17/03 Q1028 NOSIG=
201005181050 METAR COR EGLL 181050Z 20005KT 120V290 CAVOK 17/03 Q1029
                        NOSIG=
201005181020 METAR COR EGLL 181020Z 23004KT 150V310 CAVOK 18/03 Q1029
                        NOSIG=
201005180950 METAR COR EGLL 180950Z VRB04KT CAVOK 18/04 Q1029 NOSIG=
201005180920 METAR COR EGLL 180920Z 18004KT 130V270 9999 FEW044 17/05
                        Q1029 NOSIG=
201005180850 METAR COR EGLL 180850Z 17004KT 100V250 9999 FEW040 16/06
                        Q1029 NOSIG=
201005180820 METAR COR EGLL 180820Z VRB03KT 9999 FEW032 14/06 Q1029 NOSIG=
201005180750 METAR COR EGLL 180750Z VRB02KT 9999 FEW024 14/07 Q1029 NOSIG=
201005180720 METAR EGLL 180720Z VRB02KT 9999 FEW024 13/07 Q1029=
201005180650 METAR COR EGLL 180650Z 00000KT 9999 FEW024 12/06 Q1029 NOSIG=
201005180620 METAR COR EGLL 180620Z VRB02KT 9999 FEW016 10/06 Q1028 NOSIG=
201005180550 METAR COR EGLL 180550Z VRB02KT CAVOK 09/06 Q1028 NOSIG=
201005180520 METAR COR EGLL 180520Z 07002KT CAVOK 08/06 Q1028 NOSIG=
201005180450 METAR COR EGLL 180450Z 02002KT CAVOK 07/05 Q1028 NOSIG=
201005180420 METAR COR EGLL 180420Z VRB02KT CAVOK 06/04 Q1028 NOSIG=
201005180350 METAR COR EGLL 180350Z VRB02KT CAVOK 06/05 Q1028 NOSIG=
201005180320 METAR COR EGLL 180320Z 18003KT CAVOK 07/05 Q1028 NOSIG=
201005180250 METAR EGLL 180250Z 00000KT CAVOK 07/05 Q1028=
201005180220 METAR COR EGLL 180220Z 05003KT CAVOK 07/05 Q1028 NOSIG=
201005180150 METAR COR EGLL 180150Z 02004KT CAVOK 08/05 Q1028 NOSIG=
201005180120 METAR COR EGLL 180120Z 00000KT CAVOK 08/05 Q1028 NOSIG=
201005180050 METAR EGLL 180050Z 29004KT CAVOK 08/05 Q1028=
201005180020 METAR COR EGLL 180020Z 36003KT CAVOK 10/05 Q1028 NOSIG=
201005172350 METAR COR EGLL 172350Z 00000KT CAVOK 09/05 Q1027 NOSIG=
201005172320 METAR COR EGLL 172320Z 00000KT CAVOK 10/05 Q1027 NOSIG=
201005172250 METAR COR EGLL 172250Z 00000KT CAVOK 11/04 Q1027 NOSIG=
201005172220 METAR COR EGLL 172220Z VRB03KT CAVOK 11/04 Q1027 NOSIG=
201005172150 METAR COR EGLL 172150Z 10004KT CAVOK 11/04 Q1027 NOSIG=
201005172120 METAR COR EGLL 172120Z 07002KT CAVOK 14/04 Q1027 NOSIG=
201005172050 METAR COR EGLL 172050Z VRB02KT CAVOK 15/04 Q1027 NOSIG=
201005172020 METAR COR EGLL 172020Z 36002KT CAVOK 15/03 Q1026 NOSIG=
201005171950 METAR COR EGLL 171950Z 35002KT CAVOK 15/02 Q1026 NOSIG=
201005171920 METAR COR EGLL 171920Z 36003KT CAVOK 15/02 Q1026 NOSIG=
201005171850 METAR COR EGLL 171850Z VRB03KT CAVOK 16/02 Q1026 NOSIG=
201005171820 METAR COR EGLL 171820Z 32005KT 280V020 CAVOK 16/02 Q1025
                        NOSIG=
201005171750 METAR COR EGLL 171750Z 35004KT 290V020 9999 FEW040 16/03
                        Q1025 NOSIG=
201005171720 METAR EGLL 171720Z 33005KT 290V020 9999 FEW040 16/02 Q1025=
201005171650 METAR EGLL 171650Z 32006KT 280V360 CAVOK 17/03 Q1025=
201005171620 METAR EGLL 171620Z 33005KT 280V010 CAVOK 16/03 Q1025=
201005171550 METAR COR EGLL 171550Z 34006KT 260V020 CAVOK 17/03 Q1025
                        NOSIG=
201005171520 METAR EGLL 171520Z 33006KT 290V010 CAVOK 17/02 Q1025=
201005171450 METAR COR EGLL 171450Z 33005KT 280V030 CAVOK 18/03 Q1024
                        NOSIG=
201005171420 METAR COR EGLL 171420Z 30006KT 250V010 CAVOK 18/04 Q1024
                        NOSIG=
201005171350 METAR COR EGLL 171350Z 35007KT 310V030 CAVOK 16/05 Q1024
                        NOSIG=
201005171320 METAR COR EGLL 171320Z 36009KT 9999 FEW041 16/04 Q1024 NOSIG=
201005171250 METAR EGLL 171250Z 31009KT 270V350 9999 FEW041 18/03 Q1024=
201005171220 METAR COR EGLL 171220Z 29009KT 260V340 9999 FEW041 17/04
                        Q1024 NOSIG=
201005171150 METAR COR EGLL 171150Z 28008KT 220V330 9999 SCT040 16/06
                        Q1024 NOSIG=
201005171120 METAR COR EGLL 171120Z 31007KT 270V350 9999 SCT036 SCT041
                        14/05 Q1024 NOSIG=
201005171050 METAR COR EGLL 171050Z 26007KT 220V290 9999 SCT030 15/06
                        Q1024 NOSIG=
201005171020 METAR COR EGLL 171020Z 25007KT 9999 FEW043 14/07 Q1024 NOSIG=
201005170950 METAR COR EGLL 170950Z 30004KT 230V020 9999 FEW028 14/07
                        Q1024 NOSIG=
201005170920 METAR COR EGLL 170920Z 29006KT 250V330 CAVOK 13/07 Q1024
                        NOSIG=
201005170850 METAR COR EGLL 170850Z 28005KT 230V320 CAVOK 13/07 Q1023
                        NOSIG=
201005170820 METAR COR EGLL 170820Z 27004KT 230V330 CAVOK 12/06 Q1023
                        NOSIG=
201005170750 METAR EGLL 170750Z 27006KT CAVOK 11/06 Q1023=
201005170720 METAR COR EGLL 170720Z 29005KT 260V320 CAVOK 11/06 Q1023
                        NOSIG=
201005170650 METAR COR EGLL 170650Z 28005KT 250V320 CAVOK 10/06 Q1023
                        NOSIG=
201005170620 METAR COR EGLL 170620Z 26005KT CAVOK 09/05 Q1022 NOSIG=
201005170550 METAR COR EGLL 170550Z 28005KT CAVOK 08/04 Q1022 NOSIG=
201005170520 METAR COR EGLL 170520Z 30004KT 270V330 CAVOK 07/04 Q1022
                        NOSIG=
201005170450 METAR COR EGLL 170450Z 29004KT CAVOK 06/04 Q1022 NOSIG=
201005170420 METAR COR EGLL 170420Z VRB02KT CAVOK 05/03 Q1021 NOSIG=
201005170350 METAR COR EGLL 170350Z 29004KT CAVOK 05/03 Q1021 NOSIG=
201005170320 METAR COR EGLL 170320Z 29003KT CAVOK 06/03 Q1021 NOSIG=
201005170250 METAR COR EGLL 170250Z 31003KT CAVOK 06/04 Q1021 NOSIG=
201005170220 METAR COR EGLL 170220Z 28003KT CAVOK 06/03 Q1020 NOSIG=
201005170150 METAR COR EGLL 170150Z 29003KT CAVOK 08/04 Q1020 NOSIG=
201005170120 METAR COR EGLL 170120Z VRB02KT CAVOK 08/04 Q1020 NOSIG=
201005170050 METAR COR EGLL 170050Z 31003KT CAVOK 09/05 Q1020 NOSIG=
201005170020 METAR COR EGLL 170020Z 30004KT CAVOK 09/06 Q1020 NOSIG=
201005162350 METAR COR EGLL 162350Z 30004KT CAVOK 10/07 Q1019 NOSIG=
201005162320 METAR COR EGLL 162320Z 29003KT 9999 SCT046 10/08 Q1019 NOSIG=
201005162250 METAR COR EGLL 162250Z VRB03KT 9999 SCT043 10/09 Q1019 NOSIG=
201005162220 METAR COR EGLL 162220Z VRB03KT 9999 FEW039 10/09 Q1019 NOSIG=
201005162150 METAR COR EGLL 162150Z 31004KT 280V350 CAVOK 11/09 Q1019
                        NOSIG=
201005162120 METAR COR EGLL 162120Z 30005KT 260V330 CAVOK 11/10 Q1018
                        NOSIG=
201005162050 METAR COR EGLL 162050Z 27006KT 240V330 CAVOK 11/10 Q1018
                        NOSIG=
201005162020 METAR COR EGLL 162020Z 25007KT CAVOK 11/10 Q1018 NOSIG=
201005161950 METAR COR EGLL 161950Z 22007KT 190V260 CAVOK 11/10 Q1017
                        NOSIG=
201005161920 METAR COR EGLL 161920Z 23008KT CAVOK 11/10 Q1017 NOSIG=
201005161850 METAR COR EGLL 161850Z 24009KT 9999 FEW005 SCT030 12/10 Q1017
                        TEMPO SHRA=
201005161820 METAR COR EGLL 161820Z 27007KT 9999 SCT046 12/09 Q1017 NOSIG=
201005161750 METAR COR EGLL 161750Z 26006KT 9999 -SHRA FEW015CB SCT040
                        11/09 Q1017 RERA TEMPO SHRA=
201005161720 METAR COR EGLL 161720Z 31006KT 8000 3000E RA SCT015CB SCT026
                        BKN040 11/09 Q1017 TEMPO NSW=
201005161650 METAR COR EGLL 161650Z 25011KT 200V280 9000 VCSH SCT015 SCT023
                        14/10 Q1016 TEMPO SHRA=
201005161620 METAR COR EGLL 161620Z 23012KT 9999 FEW014 SCT020 13/10 Q1016
                        TEMPO SHRA=
201005161550 METAR COR EGLL 161550Z 23010KT 190V260 9000 -SHRA SCT020
                        13/10 Q1016 TEMPO SHRA=
201005161520 METAR COR EGLL 161520Z 24011KT 200V270 9999 SCT023 SCT035
                        15/11 Q1016 TEMPO SHRA=
201005161450 METAR COR EGLL 161450Z 25014KT 9999 -RA SCT024 SCT030 15/10
                        Q1016 TEMPO SHRA=
201005161420 METAR COR EGLL 161420Z 24014KT 9999 SCT024 SCT033 15/09 Q1016
                        TEMPO SHRA=
201005161350 METAR COR EGLL 161350Z 24012KT 210V270 9999 SCT025 16/08
                        Q1016 TEMPO SHRA=
201005161320 METAR COR EGLL 161320Z 25012KT 9999 FEW020 SCT025 15/08 Q1016
                        NOSIG=
201005161250 METAR COR EGLL 161250Z 25010KT 9999 BKN020 BKN030 14/08 Q1016
                        NOSIG=
201005161220 METAR COR EGLL 161220Z 25013KT 8000 3000W VCSH OVC022 14/08
                        Q1016 NOSIG=
201005161150 METAR COR EGLL 161150Z 26011KT 9999 BKN022 BKN031 14/08 Q1016
                        NOSIG=
201005161120 METAR COR EGLL 161120Z 26012KT 9999 BKN020 BKN030 14/07 Q1016
                        NOSIG=
201005161050 METAR COR EGLL 161050Z 25012KT 9999 BKN020 14/07 Q1016 TEMPO
                        BKN014=
201005161020 METAR COR EGLL 161020Z 26012KT 9999 FEW025 BKN040 14/07 Q1016
                        TEMPO BKN014=
201005160950 METAR COR EGLL 160950Z 26013KT 9999 FEW030 BKN048 13/07 Q1016
                        NOSIG=
201005160920 METAR COR EGLL 160920Z 25011KT 9999 -DZ SCT047 12/07 Q1016
                        NOSIG=
201005160850 METAR COR EGLL 160850Z 26010KT 9999 FEW022 BKN044 12/06 Q1016
                        NOSIG=
201005160820 METAR COR EGLL 160820Z 27009KT 9999 FEW022 SCT041 12/06 Q1016
                        NOSIG=
201005160750 METAR COR EGLL 160750Z 26012KT CAVOK 12/05 Q1016 NOSIG=
201005160720 METAR COR EGLL 160720Z 25010KT CAVOK 11/06 Q1016 NOSIG=
201005160650 METAR COR EGLL 160650Z 25009KT 220V280 CAVOK 10/04 Q1016
                        NOSIG=
201005160620 METAR COR EGLL 160620Z 20005KT 170V250 CAVOK 08/03 Q1016
                        NOSIG=
201005160550 METAR COR EGLL 160550Z 21005KT 180V260 CAVOK 08/03 Q1016
                        NOSIG=
201005160520 METAR COR EGLL 160520Z 24005KT CAVOK 07/03 Q1016 NOSIG=
201005160450 METAR EGLL 160450Z 25006KT CAVOK 06/02 Q1016=
201005160420 METAR COR EGLL 160420Z 27005KT CAVOK 05/02 Q1016 NOSIG=
201005160350 METAR COR EGLL 160350Z 27008KT CAVOK 06/02 Q1016 NOSIG=
201005160320 METAR COR EGLL 160320Z 26008KT CAVOK 06/03 Q1016 NOSIG=
201005160250 METAR COR EGLL 160250Z 27006KT CAVOK 07/03 Q1016 NOSIG=
201005160220 METAR COR EGLL 160220Z 27006KT CAVOK 07/04 Q1016 NOSIG=
201005160150 METAR COR EGLL 160150Z 27005KT 9999 SCT049 08/05 Q1016 NOSIG=
201005160120 METAR COR EGLL 160120Z 27005KT CAVOK 08/05 Q1016 NOSIG=
201005160050 METAR COR EGLL 160050Z 29003KT CAVOK 09/05 Q1016 NOSIG=
201005160020 METAR COR EGLL 160020Z 29005KT CAVOK 10/05 Q1016 NOSIG=
201005152350 METAR COR EGLL 152350Z 29006KT CAVOK 10/06 Q1016 NOSIG=
201005152320 METAR COR EGLL 152320Z 29006KT CAVOK 10/06 Q1016 NOSIG=
201005152250 METAR COR EGLL 152250Z 27009KT CAVOK 10/06 Q1016 NOSIG=
201005152220 METAR COR EGLL 152220Z 28007KT CAVOK 10/05 Q1016 NOSIG=
201005152150 METAR COR EGLL 152150Z 28009KT CAVOK 12/05 Q1016 NOSIG=
201005152120 METAR COR EGLL 152120Z 27008KT CAVOK 11/04 Q1016 NOSIG=
201005152050 METAR COR EGLL 152050Z 28004KT CAVOK 12/03 Q1016 NOSIG=
201005152020 METAR COR EGLL 152020Z 29004KT CAVOK 14/03 Q1016 NOSIG=
201005151950 METAR COR EGLL 151950Z 30004KT CAVOK 14/03 Q1015 NOSIG=
201005151920 METAR COR EGLL 151920Z 32004KT CAVOK 15/03 Q1015 NOSIG=
201005151850 METAR COR EGLL 151850Z 31005KT CAVOK 15/02 Q1015 NOSIG=
201005151820 METAR COR EGLL 151820Z 29008KT CAVOK 16/01 Q1015 NOSIG=
201005151750 METAR COR EGLL 151750Z 28008KT CAVOK 16/02 Q1015 NOSIG=
201005151720 METAR EGLL 151720Z 35005KT 290V040 CAVOK 17/01 Q1015=
201005151650 METAR COR EGLL 151650Z 29007KT 260V340 CAVOK 17/00 Q1015
                        NOSIG=
201005151620 METAR COR EGLL 151620Z 30008KT 260V360 CAVOK 17/01 Q1015
                        NOSIG=
201005151550 METAR COR EGLL 151550Z 31008KT CAVOK 16/02 Q1015 NOSIG=
201005151520 METAR COR EGLL 151520Z 31010KT 270V340 CAVOK 17/01 Q1015
                        NOSIG=
201005151450 METAR COR EGLL 151450Z 33005KT 290V050 CAVOK 17/01 Q1015
                        NOSIG=
201005151420 METAR COR EGLL 151420Z 30008KT 270V340 CAVOK 17/02 Q1015
                        NOSIG=
201005151350 METAR COR EGLL 151350Z 32007KT 260V020 CAVOK 18/02 Q1015
                        NOSIG=
201005151320 METAR COR EGLL 151320Z 30007KT 270V350 9999 FEW048 15/03
                        Q1015 NOSIG=
201005151250 METAR COR EGLL 151250Z 31007KT 280V350 9999 FEW045 15/03
                        Q1015 NOSIG=
201005151220 METAR COR EGLL 151220Z 01004KT 240V060 9999 FEW048 15/04
                        Q1015 NOSIG=
201005151150 METAR COR EGLL 151150Z 31008KT 270V010 CAVOK 16/05 Q1015
                        NOSIG=
201005151120 METAR COR EGLL 151120Z 29010KT 270V340 9999 FEW037 15/05
                        Q1015 NOSIG=
201005151050 METAR COR EGLL 151050Z 32005KT 280V010 9999 SCT038 14/05
                        Q1015 NOSIG=
201005151020 METAR COR EGLL 151020Z 31006KT 270V350 9999 SCT035 14/05
                        Q1015 NOSIG=
201005150950 METAR COR EGLL 150950Z 33005KT 300V030 9999 SCT033 14/05
                        Q1015 NOSIG=
201005150920 METAR COR EGLL 150920Z 29006KT 250V330 9999 FEW028 14/06
                        Q1015 NOSIG=
201005150850 METAR COR EGLL 150850Z 30006KT 260V330 9999 FEW031 13/06
                        Q1015 NOSIG=
201005150820 METAR COR EGLL 150820Z 29006KT 260V340 CAVOK 13/06 Q1015
                        NOSIG=
201005150750 METAR COR EGLL 150750Z 29007KT 260V340 CAVOK 11/05 Q1015
                        NOSIG=
201005150720 METAR COR EGLL 150720Z 28005KT CAVOK 11/04 Q1015 NOSIG=
201005150650 METAR COR EGLL 150650Z 28004KT 240V340 CAVOK 10/04 Q1015
                        NOSIG=
201005150620 METAR COR EGLL 150620Z 27006KT CAVOK 08/03 Q1015 NOSIG=
201005150550 METAR COR EGLL 150550Z 28005KT CAVOK 07/03 Q1015 NOSIG=
201005150520 METAR COR EGLL 150520Z 29003KT CAVOK 06/02 Q1015 NOSIG=
201005150450 METAR COR EGLL 150450Z 27005KT CAVOK 06/02 Q1015 NOSIG=
201005150420 METAR COR EGLL 150420Z 28005KT CAVOK 07/02 Q1015 NOSIG=
201005150350 METAR COR EGLL 150350Z 28006KT CAVOK 08/03 Q1015 NOSIG=
201005150320 METAR COR EGLL 150320Z 28006KT CAVOK 08/03 Q1015 NOSIG=
201005150250 METAR EGLL 150250Z 27005KT CAVOK 08/03 Q1015=
201005150220 METAR COR EGLL 150220Z 27006KT CAVOK 08/03 Q1015 NOSIG=
201005150150 METAR COR EGLL 150150Z 25005KT CAVOK 09/03 Q1015 NOSIG=
201005150120 METAR COR EGLL 150120Z 27005KT CAVOK 09/03 Q1015 NOSIG=
201005150050 METAR EGLL 150050Z 23005KT CAVOK 09/03 Q1015=
201005150020 METAR EGLL 150020Z 23004KT CAVOK 09/03 Q1015=
201005142350 METAR COR EGLL 142350Z 25005KT CAVOK 09/03 Q1015 NOSIG=
201005142320 METAR COR EGLL 142320Z 25005KT CAVOK 09/03 Q1014 NOSIG=
201005142250 METAR COR EGLL 142250Z 24006KT CAVOK 09/04 Q1014 NOSIG=
201005142220 METAR COR EGLL 142220Z 24009KT CAVOK 10/04 Q1014 NOSIG=
201005142150 METAR COR EGLL 142150Z 21006KT 170V240 CAVOK 10/03 Q1014
                        NOSIG=
201005142120 METAR COR EGLL 142120Z 22008KT 190V260 CAVOK 11/03 Q1014
                        NOSIG=
201005142050 METAR COR EGLL 142050Z 20009KT 170V250 CAVOK 11/03 Q1014
                        NOSIG=
201005142020 METAR EGLL 142020Z 19007KT 150V240 CAVOK 11/04 Q1013=
201005141950 METAR COR EGLL 141950Z 22007KT 190V260 CAVOK 12/04 Q1013
                        NOSIG=
201005141920 METAR COR EGLL 141920Z 21007KT 180V260 CAVOK 12/04 Q1013
                        NOSIG=
201005141850 METAR COR EGLL 141850Z 22009KT CAVOK 12/03 Q1013 NOSIG=
201005141820 METAR COR EGLL 141820Z 22009KT CAVOK 13/02 Q1012 NOSIG=
201005141750 METAR COR EGLL 141750Z 22009KT CAVOK 13/01 Q1012 NOSIG=
201005141720 METAR COR EGLL 141720Z 23009KT 170V260 CAVOK 13/01 Q1012
                        NOSIG=
201005141650 METAR COR EGLL 141650Z 22009KT CAVOK 13/01 Q1012 NOSIG=
201005141620 METAR COR EGLL 141620Z 23010KT 190V260 CAVOK 14/00 Q1012
                        NOSIG=
201005141550 METAR COR EGLL 141550Z 24012KT CAVOK 14/00 Q1012 NOSIG=
201005141520 METAR COR EGLL 141520Z 23009KT 200V260 CAVOK 14/M00 Q1012
                        NOSIG=
201005141450 METAR COR EGLL 141450Z 23010KT 200V260 CAVOK 14/00 Q1012
                        NOSIG=
201005141420 METAR COR EGLL 141420Z 21009KT 170V240 CAVOK 14/01 Q1012
                        NOSIG=
201005141350 METAR COR EGLL 141350Z 19010KT CAVOK 14/01 Q1011 NOSIG=
201005141320 METAR COR EGLL 141320Z 20008KT 170V240 CAVOK 14/00 Q1011
                        NOSIG=
201005141250 METAR COR EGLL 141250Z 18010KT 130V240 CAVOK 14/M00 Q1011
                        NOSIG=
201005141220 METAR COR EGLL 141220Z 19012KT 160V230 CAVOK 15/00 Q1011
                        NOSIG=
201005141150 METAR COR EGLL 141150Z 19012KT 150V240 CAVOK 14/00 Q1011
                        NOSIG=
201005141120 METAR COR EGLL 141120Z 19013KT 160V230 9999 FEW045 15/01
                        Q1011 NOSIG=
201005141050 METAR COR EGLL 141050Z 20012KT 9999 FEW048 13/01 Q1011 NOSIG=
201005141020 METAR COR EGLL 141020Z 21011KT 9999 FEW043 12/02 Q1011 NOSIG=
201005140950 METAR COR EGLL 140950Z 19010KT 150V230 9999 FEW038 13/02
                        Q1011 NOSIG=
201005140920 METAR COR EGLL 140920Z 19010KT 160V240 9999 SCT036 12/03
                        Q1011 NOSIG=
201005140850 METAR COR EGLL 140850Z 21010KT 9999 FEW029 12/03 Q1011 NOSIG=
201005140820 METAR COR EGLL 140820Z 19012KT 9999 FEW025 12/04 Q1011 NOSIG=
201005140750 METAR COR EGLL 140750Z 19009KT 150V220 9999 FEW023 11/05
                        Q1011 NOSIG=
201005140720 METAR COR EGLL 140720Z 17007KT CAVOK 09/04 Q1011 NOSIG=
201005140650 METAR COR EGLL 140650Z 17005KT 110V250 CAVOK 08/02 Q1011
                        NOSIG=
201005140620 METAR COR EGLL 140620Z 15004KT 090V210 CAVOK 07/02 Q1011
                        NOSIG=
201005140550 METAR COR EGLL 140550Z VRB03KT CAVOK 06/02 Q1011 NOSIG=
201005140520 METAR EGLL 140520Z VRB03KT CAVOK 04/01 Q1011=
201005140450 METAR COR EGLL 140450Z 13004KT 070V160 CAVOK 04/00 Q1011
                        NOSIG=
201005140420 METAR COR EGLL 140420Z 14004KT CAVOK 04/00 Q1011 NOSIG=
201005140350 METAR COR EGLL 140350Z 17004KT CAVOK 05/00 Q1011 NOSIG=
201005140320 METAR COR EGLL 140320Z 17003KT CAVOK 05/01 Q1012 NOSIG=
201005140250 METAR COR EGLL 140250Z 17004KT CAVOK 05/01 Q1012 NOSIG=
201005140220 METAR COR EGLL 140220Z 19004KT CAVOK 06/01 Q1012 NOSIG=
201005140150 METAR COR EGLL 140150Z 20005KT CAVOK 06/01 Q1012 NOSIG=
201005140120 METAR COR EGLL 140120Z 21007KT CAVOK 06/01 Q1012 NOSIG=
201005140050 METAR COR EGLL 140050Z 20006KT CAVOK 06/01 Q1012 NOSIG=
201005140020 METAR COR EGLL 140020Z 21006KT CAVOK 07/01 Q1013 NOSIG=
201005132350 METAR COR EGLL 132350Z 21006KT CAVOK 07/01 Q1013 NOSIG=
201005132320 METAR COR EGLL 132320Z 21007KT CAVOK 07/01 Q1013 NOSIG=
201005132250 METAR COR EGLL 132250Z 21007KT CAVOK 08/01 Q1013 NOSIG=
201005132220 METAR COR EGLL 132220Z 21007KT CAVOK 08/01 Q1013 NOSIG=
201005132150 METAR COR EGLL 132150Z 20009KT 160V240 CAVOK 08/02 Q1013
                        NOSIG=
201005132120 METAR COR EGLL 132120Z 19009KT 160V240 CAVOK 08/02 Q1013
                        NOSIG=
201005132050 METAR COR EGLL 132050Z 20008KT 160V250 CAVOK 09/02 Q1013
                        NOSIG=
201005132020 METAR COR EGLL 132020Z 21008KT 170V250 CAVOK 09/02 Q1013
                        NOSIG=
201005131950 METAR COR EGLL 131950Z 21009KT 190V250 CAVOK 10/02 Q1013
                        NOSIG=
201005131920 METAR COR EGLL 131920Z 20008KT 170V240 CAVOK 10/02 Q1013
                        NOSIG=
201005131850 METAR COR EGLL 131850Z 20008KT 170V240 9999 VCSH FEW049 10/02
                        Q1013 NOSIG=
201005131820 METAR COR EGLL 131820Z 21010KT 180V240 9999 VCSH NSC 11/03
                        Q1013 NOSIG=
201005131750 METAR COR EGLL 131750Z 23013KT CAVOK 11/02 Q1013 NOSIG=
201005131720 METAR COR EGLL 131720Z 22010KT CAVOK 12/01 Q1013 NOSIG=
201005131650 METAR EGLL 131650Z 22009KT 180V260 CAVOK 12/01 Q1013=
201005131620 METAR COR EGLL 131620Z 20009KT 160V240 CAVOK 12/00 Q1013
                        NOSIG=
201005131550 METAR COR EGLL 131550Z 20007KT 160V250 CAVOK 13/M02 Q1013
                        NOSIG=
201005131520 METAR COR EGLL 131520Z 20006KT 150V250 CAVOK 13/M02 Q1013
                        NOSIG=
201005131450 METAR COR EGLL 131450Z VRB06KT CAVOK 13/M02 Q1014 NOSIG=
201005131420 METAR COR EGLL 131420Z 19006G18KT 120V240 CAVOK 13/M03 Q1014
                        NOSIG=
201005131350 METAR COR EGLL 131350Z 20005KT 150V270 CAVOK 13/M03 Q1014
                        NOSIG=
201005131320 METAR COR EGLL 131320Z 19006KT 140V260 CAVOK 12/M04 Q1014
                        NOSIG=
201005131250 METAR COR EGLL 131250Z 24006KT 160V290 CAVOK 13/M03 Q1014
                        NOSIG=
201005131220 METAR COR EGLL 131220Z VRB03KT CAVOK 13/M03 Q1014 NOSIG=
201005131150 METAR COR EGLL 131150Z VRB04KT CAVOK 12/M03 Q1015 NOSIG=
201005131120 METAR COR EGLL 131120Z 26004KT 180V300 CAVOK 12/M04 Q1015
                        NOSIG=
201005131050 METAR COR EGLL 131050Z VRB03KT CAVOK 11/M03 Q1015 NOSIG=
201005131020 METAR COR EGLL 131020Z VRB02KT 9999 NSC 11/M02 Q1015 NOSIG=
201005130950 METAR COR EGLL 130950Z VRB03KT 9999 SCT044 12/M02 Q1015 NOSIG=
201005130920 METAR COR EGLL 130920Z VRB03KT 9999 FEW047 11/M02 Q1015 NOSIG=
201005130850 METAR COR EGLL 130850Z VRB03KT 9999 SCT036 10/01 Q1015 NOSIG=
201005130820 METAR COR EGLL 130820Z VRB03KT CAVOK 10/02 Q1016 NOSIG=
201005130750 METAR COR EGLL 130750Z VRB03KT CAVOK 09/02 Q1016 NOSIG=
201005130720 METAR COR EGLL 130720Z VRB02KT CAVOK 08/02 Q1016 NOSIG=
201005130650 METAR COR EGLL 130650Z 00000KT CAVOK 07/02 Q1016 NOSIG=
201005130620 METAR COR EGLL 130620Z 00000KT CAVOK 06/00 Q1016 NOSIG=
201005130550 METAR COR EGLL 130550Z VRB03KT CAVOK 05/M01 Q1016 NOSIG=
201005130520 METAR COR EGLL 130520Z 34002KT CAVOK 03/M02 Q1016 NOSIG=
201005130450 METAR COR EGLL 130450Z VRB02KT CAVOK 02/M02 Q1015 NOSIG=
201005130420 METAR COR EGLL 130420Z 00000KT CAVOK 02/M02 Q1015 NOSIG=
201005130350 METAR EGLL 130350Z NIL=
201005130320 METAR COR EGLL 130320Z VRB02KT CAVOK 02/M01 Q1015 NOSIG=
201005130250 METAR COR EGLL 130250Z 02003KT CAVOK 03/M00 Q1015 NOSIG=
201005130220 METAR COR EGLL 130220Z 35004KT CAVOK 03/M00 Q1015 NOSIG=
201005130150 METAR COR EGLL 130150Z VRB03KT CAVOK 04/M00 Q1016 NOSIG=
201005130120 METAR COR EGLL 130120Z VRB02KT CAVOK 04/M00 Q1016 NOSIG=
201005130050 METAR COR EGLL 130050Z 36004KT CAVOK 04/M00 Q1016 NOSIG=
201005130020 METAR COR EGLL 130020Z 36004KT CAVOK 04/M02 Q1016 NOSIG=
201005122350 METAR COR EGLL 122350Z 36004KT CAVOK 05/M02 Q1016 NOSIG=
201005122320 METAR COR EGLL 122320Z 36005KT CAVOK 05/M02 Q1016 NOSIG=
201005122250 METAR COR EGLL 122250Z 36004KT CAVOK 06/M01 Q1016 NOSIG=
201005122220 METAR COR EGLL 122220Z 36003KT CAVOK 07/M01 Q1016 NOSIG=
201005122150 METAR COR EGLL 122150Z VRB03KT 9999 FEW040 08/M01 Q1016 NOSIG=
201005122120 METAR COR EGLL 122120Z VRB03KT CAVOK 08/M01 Q1016 NOSIG=
201005122050 METAR COR EGLL 122050Z 36004KT 330V030 CAVOK 08/M01 Q1016
                        NOSIG=
201005122020 METAR COR EGLL 122020Z 36003KT CAVOK 08/M01 Q1016 NOSIG=
201005121950 METAR COR EGLL 121950Z VRB03KT CAVOK 09/M01 Q1015 NOSIG=
201005121920 METAR COR EGLL 121920Z 36005KT 330V030 CAVOK 09/M02 Q1015
                        NOSIG=
201005121850 METAR COR EGLL 121850Z 01005KT 330V050 CAVOK 10/M02 Q1015
                        NOSIG=
201005121820 METAR COR EGLL 121820Z 04006KT 360V080 9999 FEW049 10/M02
                        Q1015 NOSIG=
201005121750 METAR COR EGLL 121750Z 01006KT 330V050 9999 FEW049 10/M02
                        Q1015 NOSIG=
201005121720 METAR COR EGLL 121720Z 02004KT 320V060 9999 FEW048 11/M01
                        Q1015 NOSIG=
201005121650 METAR COR EGLL 121650Z VRB02KT 9999 FEW047 11/M00 Q1015 NOSIG=
201005121620 METAR COR EGLL 121620Z VRB03KT 9999 FEW038 10/00 Q1015 NOSIG=
201005121550 METAR COR EGLL 121550Z 35008KT 9999 FEW045 10/00 Q1015 NOSIG=
201005121520 METAR COR EGLL 121520Z 04008KT 360V080 9999 FEW046 11/00
                        Q1015 NOSIG=
201005121450 METAR COR EGLL 121450Z 03007KT 360V080 9999 FEW044 11/M01
                        Q1015 NOSIG=
201005121420 METAR COR EGLL 121420Z 02008KT 330V070 9999 FEW042 11/00
                        Q1015 NOSIG=
201005121350 METAR COR EGLL 121350Z 04006KT 340V080 9999 FEW035 SCT047
                        09/01 Q1015 NOSIG=
201005121320 METAR COR EGLL 121320Z 03008KT 340V090 9999 SCT046 11/M00
                        Q1015 NOSIG=
201005121250 METAR COR EGLL 121250Z 34005KT 290V030 9999 SCT045 10/M00
                        Q1015 NOSIG=
201005121220 METAR COR EGLL 121220Z 06008KT 010V090 9999 SCT047 11/01
                        Q1015 NOSIG=
201005121150 METAR COR EGLL 121150Z VRB03KT 9999 SCT041 10/00 Q1015 NOSIG=
201005121120 METAR EGLL 121120Z 33006KT 300V010 9999 FEW032 SCT041 10/00
                        Q1015=
201005121050 METAR COR EGLL 121050Z 01005KT 320V060 9999 SCT041 SCT047
                        10/00 Q1015 NOSIG=
201005121020 METAR EGLL 121020Z 01005KT 310V070 9999 FEW038 SCT043 10/M01
                        Q1015=
201005120950 METAR COR EGLL 120950Z 36005KT 330V060 9999 SCT038 SCT049
                        09/M00 Q1015 NOSIG=
201005120920 METAR COR EGLL 120920Z 01006KT 310V100 9999 SCT040 10/M00
                        Q1015 NOSIG=
201005120850 METAR COR EGLL 120850Z 35006KT 310V040 9999 SCT036 09/00
                        Q1015 NOSIG=
201005120820 METAR COR EGLL 120820Z 06005KT 010V090 9999 FEW033 09/M00
                        Q1015 NOSIG=
201005120750 METAR COR EGLL 120750Z 36006KT 320V040 9999 FEW049 08/01
                        Q1015 NOSIG=
201005120720 METAR COR EGLL 120720Z 03006KT 9999 FEW048 07/01 Q1015 NOSIG=
201005120650 METAR COR EGLL 120650Z 03005KT 340V070 CAVOK 06/M00 Q1015
                        NOSIG=
201005120620 METAR COR EGLL 120620Z 36004KT 320V040 CAVOK 05/01 Q1015
                        NOSIG=
201005120550 METAR COR EGLL 120550Z 36004KT CAVOK 03/01 Q1015 NOSIG=
201005120520 METAR COR EGLL 120520Z 35003KT CAVOK 03/00 Q1015 NOSIG=
201005120450 METAR COR EGLL 120450Z 35004KT CAVOK 02/00 Q1014 NOSIG=
201005120420 METAR EGLL 120420Z NIL=
201005120350 METAR COR EGLL 120350Z 35004KT CAVOK 02/00 Q1014 NOSIG=
201005120320 METAR COR EGLL 120320Z 35004KT CAVOK 02/01 Q1014 NOSIG=
201005120250 METAR COR EGLL 120250Z 35004KT CAVOK 02/01 Q1014 NOSIG=
201005120220 METAR COR EGLL 120220Z 35004KT CAVOK 03/01 Q1014 NOSIG=
201005120150 METAR COR EGLL 120150Z 01003KT CAVOK 03/01 Q1014 NOSIG=
201005120120 METAR COR EGLL 120120Z 35004KT CAVOK 03/01 Q1014 NOSIG=
201005120050 METAR COR EGLL 120050Z 01002KT CAVOK 04/01 Q1014 NOSIG=
201005120020 METAR COR EGLL 120020Z 02002KT CAVOK 04/01 Q1014 NOSIG=
201005112350 METAR COR EGLL 112350Z 03003KT CAVOK 05/01 Q1014 NOSIG=
201005112320 METAR COR EGLL 112320Z 35002KT CAVOK 05/01 Q1014 NOSIG=
201005112250 METAR COR EGLL 112250Z 00000KT 9999 SCT042 06/01 Q1014 NOSIG=
201005112220 METAR COR EGLL 112220Z 14002KT 9999 SCT047 06/00 Q1013 NOSIG=
201005112150 METAR COR EGLL 112150Z 07004KT 010V130 9999 SCT045 06/01
                        Q1013 NOSIG=
201005112120 METAR COR EGLL 112120Z 35004KT CAVOK 07/00 Q1013 NOSIG=
201005112050 METAR COR EGLL 112050Z 36004KT CAVOK 07/00 Q1013 NOSIG=
201005112020 METAR COR EGLL 112020Z 35004KT 310V010 9999 VCSH NSC 08/01
                        Q1013 NOSIG=
201005111950 METAR COR EGLL 111950Z VRB03KT 9999 VCSH NSC 08/00 Q1013
                        NOSIG=
201005111920 METAR COR EGLL 111920Z 35004KT 330V030 CAVOK 08/00 Q1013
                        NOSIG=
201005111850 METAR COR EGLL 111850Z 36005KT CAVOK 09/M01 Q1012 NOSIG=
201005111820 METAR COR EGLL 111820Z 36006KT 340V050 CAVOK 09/M01 Q1012
                        NOSIG=
201005111750 METAR COR EGLL 111750Z 04006KT 010V090 CAVOK 09/M01 Q1012
                        NOSIG=
201005111720 METAR COR EGLL 111720Z 03005KT 330V070 CAVOK 09/M00 Q1012
                        NOSIG=
201005111650 METAR COR EGLL 111650Z 05006KT 010V080 9999 FEW049 09/00
                        Q1012 NOSIG=
201005111620 METAR COR EGLL 111620Z 05007KT 9999 FEW049 09/00 Q1012 NOSIG=
201005111550 METAR EGLL 111550Z 03006KT 360V080 CAVOK 09/M00 Q1012=
201005111520 METAR COR EGLL 111520Z 04006KT 350V070 9999 FEW037 09/01
                        Q1012 NOSIG=
201005111450 METAR COR EGLL 111450Z 05007KT 9999 FEW037 BKN049 09/M00
                        Q1012 NOSIG=
201005111420 METAR COR EGLL 111420Z 05007KT 010V080 9999 -RA FEW037 BKN046
                        09/M00 Q1012 NOSIG=
201005111350 METAR COR EGLL 111350Z 06006KT 020V100 9999 SCT046 10/M02
                        Q1012 NOSIG=
201005111320 METAR COR EGLL 111320Z 04007KT 9999 FEW045 10/M01 Q1012 NOSIG=
201005111250 METAR COR EGLL 111250Z 05008KT 010V080 9999 SCT042 09/M01
                        Q1012 NOSIG=
201005111220 METAR EGLL 111220Z 04006KT 350V090 9999 SCT037 09/M01 Q1012=
201005111150 METAR COR EGLL 111150Z 02007KT 330V060 9999 SCT039 09/M00
                        Q1012 NOSIG=
201005111120 METAR COR EGLL 111120Z 05006KT 360V100 9999 SCT047 10/M02
                        Q1012 NOSIG=
201005111050 METAR COR EGLL 111050Z 02006KT 330V080 9999 FEW049 10/M02
                        Q1012 NOSIG=
201005111020 METAR COR EGLL 111020Z 02008KT 330V070 9999 SCT042 09/M01
                        Q1012 NOSIG=
201005110950 METAR COR EGLL 110950Z 35009KT 300V020 9999 SCT042 09/M01
                        Q1012 NOSIG=
201005110920 METAR COR EGLL 110920Z 04007KT 010V080 9999 SCT038 08/M01
                        Q1013 NOSIG=
201005110850 METAR COR EGLL 110850Z 06008KT 9999 SCT038 08/M01 Q1013 NOSIG=
201005110820 METAR COR EGLL 110820Z 03008KT 360V080 9999 SCT034 08/M00
                        Q1013 NOSIG=
201005110750 METAR COR EGLL 110750Z 03009KT 340V070 9999 FEW032 08/00
                        Q1013 NOSIG=
201005110720 METAR COR EGLL 110720Z 02007KT 340V050 9999 FEW024 07/01
                        Q1013 NOSIG=
201005110650 METAR EGLL 110650Z 03008KT 360V070 CAVOK 06/01 Q1013 NOSIG=
201005110620 METAR COR EGLL 110620Z 02006KT 340V060 CAVOK 06/01 Q1013
                        NOSIG=
201005110550 METAR COR EGLL 110550Z 02005KT 330V060 CAVOK 05/01 Q1013
                        NOSIG=
201005110520 METAR COR EGLL 110520Z 03004KT 340V060 CAVOK 04/01 Q1013
                        NOSIG=
201005110450 METAR COR EGLL 110450Z VRB03KT CAVOK 04/01 Q1013 NOSIG=
201005110420 METAR COR EGLL 110420Z VRB03KT CAVOK 04/01 Q1013 NOSIG=
201005110350 METAR COR EGLL 110350Z VRB03KT CAVOK 04/01 Q1013 NOSIG=
201005110320 METAR COR EGLL 110320Z VRB03KT CAVOK 04/01 Q1013 NOSIG=
201005110250 METAR COR EGLL 110250Z 04005KT 010V070 CAVOK 04/01 Q1013
                        NOSIG=
201005110220 METAR COR EGLL 110220Z 05004KT 360V080 CAVOK 04/00 Q1013
                        NOSIG=
201005110150 METAR COR EGLL 110150Z 03005KT CAVOK 05/00 Q1013 NOSIG=
201005110120 METAR COR EGLL 110120Z 04005KT CAVOK 05/00 Q1014 NOSIG=
201005110050 METAR EGLL 110050Z NIL=
201005110020 METAR COR EGLL 110020Z 05005KT CAVOK 06/M00 Q1014 NOSIG=
201005102350 METAR COR EGLL 102350Z 06006KT CAVOK 07/M00 Q1014 NOSIG=
201005102320 METAR COR EGLL 102320Z 06007KT CAVOK 07/M00 Q1014 NOSIG=
201005102250 METAR COR EGLL 102250Z 06008KT CAVOK 08/01 Q1014 NOSIG=
201005102220 METAR COR EGLL 102220Z 06010KT CAVOK 08/01 Q1014 NOSIG=
201005102150 METAR COR EGLL 102150Z 04008KT 9999 BKN040 09/01 Q1013 NOSIG=
201005102120 METAR COR EGLL 102120Z 04007KT 360V070 9999 FEW042 09/01
                        Q1013 NOSIG=
201005102050 METAR COR EGLL 102050Z 03008KT 360V070 9999 FEW032 SCT041
                        09/02 Q1013 NOSIG=
201005102020 METAR COR EGLL 102020Z 04009KT 010V080 9999 SCT040 09/02
                        Q1013 NOSIG=
201005101950 METAR COR EGLL 101950Z 05008KT 010V080 9999 FEW032 BKN036
                        10/03 Q1013 NOSIG=
201005101920 METAR COR EGLL 101920Z 06008KT 9999 BKN040 BKN048 10/03 Q1013
                        NOSIG=
201005101850 METAR COR EGLL 101850Z 06009KT 9999 SCT044 10/03 Q1013 NOSIG=
201005101820 METAR COR EGLL 101820Z 05008KT 020V080 CAVOK 10/03 Q1012
                        NOSIG=
201005101750 METAR COR EGLL 101750Z 04008KT 360V070 9999 FEW045 11/03
                        Q1012 NOSIG=
201005101720 METAR COR EGLL 101720Z 04008KT 010V080 9999 FEW042 10/03
                        Q1012 NOSIG=
201005101650 METAR COR EGLL 101650Z 02008KT 330V050 9999 FEW049 11/03
                        Q1012 NOSIG=
201005101620 METAR COR EGLL 101620Z 03009KT 350V080 9999 FEW045 12/02
                        Q1012 NOSIG=
201005101550 METAR COR EGLL 101550Z 05007KT 010V110 9999 FEW049 12/01
                        Q1012 NOSIG=
201005101520 METAR COR EGLL 101520Z 04008KT 010V080 9999 FEW049 12/01
                        Q1012 NOSIG=
201005101450 METAR COR EGLL 101450Z 05008KT 9999 FEW049 12/01 Q1012 NOSIG=
201005101420 METAR COR EGLL 101420Z 05009KT 010V090 9999 BKN048 13/00
                        Q1012 NOSIG=
201005101350 METAR COR EGLL 101350Z 05008KT 350V100 9999 BKN048 12/01
                        Q1012 NOSIG=
201005101320 METAR COR EGLL 101320Z 07010KT 020V100 9999 SCT047 13/01
                        Q1012 NOSIG=
201005101250 METAR COR EGLL 101250Z 05008KT 010V070 9999 SCT046 12/00
                        Q1012 NOSIG=
201005101220 METAR COR EGLL 101220Z 05008KT 360V080 9999 BKN046 12/01
                        Q1012 NOSIG=
201005101150 METAR COR EGLL 101150Z 08011KT 040V110 9999 SCT046 13/01
                        Q1012 NOSIG=
201005101120 METAR COR EGLL 101120Z 04009KT 360V070 9999 SCT044 12/01
                        Q1012 NOSIG=
201005101050 METAR COR EGLL 101050Z 05008KT 020V090 9999 SCT043 12/02
                        Q1012 NOSIG=
201005101020 METAR COR EGLL 101020Z 05007G17KT 320V100 9999 SCT039 12/02
                        Q1012 NOSIG=
201005100950 METAR COR EGLL 100950Z 05008KT 360V080 9999 SCT035 10/01
                        Q1012 NOSIG=
201005100920 METAR COR EGLL 100920Z 03009KT 330V070 9999 SCT035 10/01
                        Q1012 NOSIG=
201005100850 METAR COR EGLL 100850Z 04007KT 360V080 9999 SCT034 10/01
                        Q1012 NOSIG=
201005100820 METAR COR EGLL 100820Z 06009KT 010V090 9999 FEW033 10/01
                        Q1012 NOSIG=
201005100750 METAR COR EGLL 100750Z 04008KT 350V080 9999 FEW042 09/01
                        Q1012 NOSIG=
201005100720 METAR COR EGLL 100720Z 05007KT 360V080 9999 FEW043 08/01
                        Q1012 NOSIG=
201005100650 METAR COR EGLL 100650Z 04006KT 360V070 9999 FEW042 08/02
                        Q1012 NOSIG=
201005100620 METAR COR EGLL 100620Z 09006KT 9999 FEW041 07/02 Q1012 NOSIG=
201005100550 METAR COR EGLL 100550Z 02005KT 330V060 9999 FEW040 06/03
                        Q1012 NOSIG=
201005100520 METAR COR EGLL 100520Z 02004KT 330V060 9999 BKN040 06/03
                        Q1012 NOSIG=
201005100450 METAR COR EGLL 100450Z 02004KT 340V050 9999 SCT040 06/04
                        Q1012 NOSIG=
201005100420 METAR COR EGLL 100420Z 01004KT 330V050 9999 FEW020 BKN040
                        05/04 Q1012 NOSIG=
201005100350 METAR COR EGLL 100350Z 35005KT 9999 FEW020 BKN040 05/04 Q1012
                        NOSIG=
201005100320 METAR COR EGLL 100320Z 36005KT 330V040 9999 BKN034 05/04
                        Q1012 NOSIG=
201005100250 METAR COR EGLL 100250Z 01004KT 330V060 9999 BKN035 06/04
                        Q1012 NOSIG=
201005100220 METAR COR EGLL 100220Z 36004KT 330V040 9999 SCT030 05/04
                        Q1012 NOSIG=
201005100150 METAR COR EGLL 100150Z 01004KT 340V040 9999 FEW022 SCT031
                        05/04 Q1012 NOSIG=
201005100120 METAR COR EGLL 100120Z 36004KT 9999 FEW024 05/04 Q1012 NOSIG=
201005100050 METAR COR EGLL 100050Z 36004KT CAVOK 06/04 Q1012 NOSIG=
201005100020 METAR COR EGLL 100020Z 36004KT 340V040 9999 FEW023 06/04
                        Q1012 NOSIG=
201005092350 METAR COR EGLL 092350Z VRB03KT CAVOK 06/04 Q1012 NOSIG=
201005092320 METAR COR EGLL 092320Z 04004KT 9999 FEW022 07/04 Q1012 NOSIG=
201005092250 METAR COR EGLL 092250Z 04007KT 360V080 9999 FEW022 08/04
                        Q1012 NOSIG=
201005092220 METAR COR EGLL 092220Z 05005KT 010V080 9999 SCT022 BKN027
                        09/05 Q1012 NOSIG=
201005092150 METAR COR EGLL 092150Z 06004KT 9999 SCT023 09/05 Q1012 NOSIG=
201005092120 METAR COR EGLL 092120Z 08006KT 9999 FEW021 SCT026 10/05 Q1012
                        NOSIG=
201005092050 METAR COR EGLL 092050Z 10005KT 9999 SCT029 BKN039 10/05 Q1012
                        NOSIG=
201005092020 METAR COR EGLL 092020Z 08005KT 9999 FEW035 BKN041 10/04 Q1011
                        NOSIG=
201005091950 METAR COR EGLL 091950Z 07004KT 9999 BKN043 10/04 Q1011 NOSIG=
201005091920 METAR EGLL 091920Z 06004KT 9999 BKN044 11/04 Q1011=
201005091850 METAR COR EGLL 091850Z 04004KT 9999 BKN049 11/04 Q1011 NOSIG=
201005091820 METAR COR EGLL 091820Z 04004KT 9999 FEW030 SCT043 11/03 Q1011
                        NOSIG=
201005091750 METAR COR EGLL 091750Z 05004KT 9999 FEW039 BKN048 11/03 Q1011
                        NOSIG=
201005091720 METAR COR EGLL 091720Z 05005KT 020V080 9999 FEW041 BKN046
                        11/03 Q1011 NOSIG=
201005091650 METAR COR EGLL 091650Z 05005KT 010V070 9999 BKN040 11/03
                        Q1011 NOSIG=
201005091620 METAR COR EGLL 091620Z 04006KT 350V070 9999 FEW037 BKN041
                        11/03 Q1011 NOSIG=
201005091550 METAR COR EGLL 091550Z 04006KT 360V080 9999 BKN046 11/03
                        Q1011 NOSIG=
201005091520 METAR COR EGLL 091520Z 06008KT 030V100 9999 FEW040 12/01
                        Q1011 NOSIG=
201005091450 METAR COR EGLL 091450Z 08008KT 9999 FEW038 BKN049 12/03 Q1011
                        NOSIG=
201005091420 METAR COR EGLL 091420Z 08008KT 9999 BKN035 BKN049 11/03 Q1012
                        NOSIG=
201005091350 METAR COR EGLL 091350Z 07011KT 040V110 9999 FEW039 11/03
                        Q1012 NOSIG=
201005091320 METAR COR EGLL 091320Z 06011KT 9999 SCT028 BKN041 11/04 Q1012
                        NOSIG=
201005091250 METAR COR EGLL 091250Z 05008KT 020V080 9999 FEW024 BKN028
                        11/04 Q1012 NOSIG=
201005091220 METAR COR EGLL 091220Z 06010KT 9999 FEW023 BKN030 10/05 Q1012
                        NOSIG=
201005091150 METAR COR EGLL 091150Z 05007KT 020V080 9999 FEW019 BKN028
                        09/05 Q1012 NOSIG=
201005091120 METAR COR EGLL 091120Z 04009KT 010V070 9999 FEW019 SCT028
                        BKN037 10/05 Q1013 NOSIG=
201005091050 METAR COR EGLL 091050Z 04008KT 010V080 9999 SCT016 BKN032
                        09/05 Q1013 NOSIG=
201005091020 METAR COR EGLL 091020Z 05006KT 360V080 9999 SCT014 BKN019
                        09/06 Q1013 NOSIG=
201005090950 METAR COR EGLL 090950Z 05008KT 010V080 9999 FEW009 BKN015
                        09/06 Q1013 NOSIG=
201005090920 METAR COR EGLL 090920Z 04006KT 7000 -RA SCT009 BKN021 08/06
                        Q1013 TEMPO BKN014=
201005090850 METAR COR EGLL 090850Z 04006KT 360V130 9999 -DZ FEW005 SCT010
                        07/06 Q1013 TEMPO BKN014=
201005090820 METAR COR EGLL 090820Z 05007KT 9000 -SHRA BKN013 08/05 Q1013
                        NOSIG=
201005090750 METAR COR EGLL 090750Z 04006KT 360V070 9999 BKN013 08/05
                        Q1013 BECMG SCT014=
201005090720 METAR COR EGLL 090720Z 04008KT 9999 BKN012 08/05 Q1013 BECMG
                        SCT014=
201005090650 METAR COR EGLL 090650Z 04007KT 010V070 9999 BKN013 08/05
                        Q1013 BECMG SCT014=
201005090620 METAR COR EGLL 090620Z 05007KT 9999 BKN013 07/05 Q1013 TEMPO
                        SCT013 BKN018=
201005090550 METAR COR EGLL 090550Z 03006KT 340V070 9999 BKN013 07/05
                        Q1013 TEMPO SCT013 BKN020=
201005090520 METAR COR EGLL 090520Z 02005KT 340V050 9999 BKN014 BKN024
                        07/05 Q1013 TEMPO SCT014 BKN024=
201005090450 METAR COR EGLL 090450Z 02004KT 350V070 9999 BKN014 07/05
                        Q1013 TEMPO SCT014 BKN018=
201005090420 METAR COR EGLL 090420Z 02004KT 320V050 9999 BKN014 07/05
                        Q1013 TEMPO SCT014 BKN018=
201005090350 METAR COR EGLL 090350Z 02006KT 9999 SCT015 BKN048 07/05 Q1013
                        TEMPO BKN014=
201005090320 METAR COR EGLL 090320Z 02005KT 350V050 9999 FEW011 07/04
                        Q1013 TEMPO BKN012=
201005090250 METAR COR EGLL 090250Z 02005KT 360V060 9999 FEW014 SCT032
                        07/04 Q1013 TEMPO BKN014=
201005090220 METAR COR EGLL 090220Z 03005KT 340V060 9999 FEW014 BKN049
                        07/04 Q1013 TEMPO BKN014=
201005090150 METAR COR EGLL 090150Z 03004KT 330V080 9999 SCT014 BKN023
                        07/04 Q1013 TEMPO BKN014=
201005090120 METAR COR EGLL 090120Z 02006KT 340V050 9999 SCT015 BKN019
                        07/04 Q1013 TEMPO BKN014=
201005090050 METAR COR EGLL 090050Z 03006KT 360V060 9999 SCT014 BKN027
                        BKN046 07/04 Q1013 TEMPO BKN014=
201005090020 METAR COR EGLL 090020Z 02007KT 350V060 9999 FEW014 SCT031
                        OVC045 07/04 Q1014 TEMPO BKN014=
201005082350 METAR EGLL 082350Z NIL=
201005082320 METAR COR EGLL 082320Z 03006KT 350V060 9999 SCT014 BKN027
                        07/04 Q1014 TEMPO BKN014=
201005082250 METAR COR EGLL 082250Z 03007KT 340V070 9999 FEW015 BKN025
                        BKN045 07/04 Q1014 NOSIG=
201005082220 METAR COR EGLL 082220Z 02007KT 350V060 9999 BKN035 07/04
                        Q1014 NOSIG=
201005082150 METAR COR EGLL 082150Z 03006KT 340V050 9999 BKN027 08/04
                        Q1014 NOSIG=
201005082120 METAR COR EGLL 082120Z 03005KT 350V060 9999 FEW017 SCT022
                        BKN025 08/04 Q1014 NOSIG=
201005082050 METAR COR EGLL 082050Z 02005KT 350V060 9999 FEW031 BKN040
                        08/04 Q1014 NOSIG=
201005082020 METAR COR EGLL 082020Z 04006KT 360V080 9999 FEW019 BKN036
                        08/04 Q1014 NOSIG=
201005081950 METAR COR EGLL 081950Z 03009KT 9999 FEW018 BKN040 08/04 Q1013
                        NOSIG=
201005081920 METAR COR EGLL 081920Z 04009KT 340V070 9999 FEW017 BKN029
                        08/04 Q1013 NOSIG=
201005081850 METAR COR EGLL 081850Z 03009KT 350V060 9999 SCT016 BKN026
                        08/05 Q1013 NOSIG=
201005081820 METAR COR EGLL 081820Z 03009KT 360V070 9999 BKN020 09/05
                        Q1013 NOSIG=
201005081750 METAR COR EGLL 081750Z 03008KT 9999 SCT020 BKN030 09/04 Q1013
                        NOSIG=
201005081720 METAR COR EGLL 081720Z 03009KT 360V080 9999 BKN019 09/04
                        Q1013 NOSIG=
201005081650 METAR COR EGLL 081650Z 03008KT 340V050 9999 FEW018 BKN025
                        09/05 Q1013 NOSIG=
201005081620 METAR COR EGLL 081620Z 02007KT 330V060 9999 SCT016 BKN025
                        10/05 Q1013 NOSIG=
201005081550 METAR COR EGLL 081550Z 02008KT 350V070 9999 SCT015 BKN022
                        09/06 Q1013 TEMPO BKN014=
201005081520 METAR COR EGLL 081520Z 01008KT 340V050 9999 BKN017 09/06
                        Q1012 NOSIG=
201005081450 METAR COR EGLL 081450Z 02007KT 340V060 9999 SCT019 BKN024
                        10/07 Q1012 NOSIG=
201005081420 METAR COR EGLL 081420Z 03005KT 340V070 9999 FEW015 BKN019
                        09/06 Q1012 NOSIG=
201005081350 METAR COR EGLL 081350Z 01007KT 340V060 9999 FEW018 BKN022
                        10/06 Q1012 NOSIG=
201005081320 METAR COR EGLL 081320Z 02006KT 340V060 9999 FEW016 BKN026
                        10/06 Q1012 NOSIG=
201005081250 METAR COR EGLL 081250Z 02006KT 330V080 9999 BKN016 10/06
                        Q1012 TEMPO BKN014=
201005081220 METAR COR EGLL 081220Z 02008KT 350V050 9999 FEW010 BKN013
                        09/06 Q1012 TEMPO SCT013 BKN018=
201005081150 METAR COR EGLL 081150Z 01007KT 340V050 9999 FEW007 SCT010
                        BKN013 09/07 Q1012 TEMPO SCT012=
201005081120 METAR COR EGLL 081120Z 02007KT 340V050 9000 -SHRA SCT011
                        SCT015 09/07 Q1012 TEMPO BKN012=
201005081050 METAR COR EGLL 081050Z 03007KT 350V070 9999 SCT016 BKN027
                        10/07 Q1012 NOSIG=
201005081020 METAR COR EGLL 081020Z 01006KT 340V050 9999 SCT016 BKN021
                        10/06 Q1012 NOSIG=
201005080950 METAR COR EGLL 080950Z 36007KT 9999 BKN015 09/06 Q1012 TEMPO
                        BKN014=
201005080920 METAR COR EGLL 080920Z 03006KT 360V060 9999 BKN014 09/06
                        Q1012 TEMPO SCT014 BKN020=
201005080850 METAR COR EGLL 080850Z 02005KT 340V060 9999 SCT011 SCT024
                        09/06 Q1011 TEMPO BKN012=
201005080820 METAR COR EGLL 080820Z 02006KT 310V070 9999 OVC010 08/06
                        Q1011 NOSIG=
201005080750 METAR COR EGLL 080750Z 01005KT 330V070 9999 BKN008 BKN018
                        08/07 Q1011 TEMPO BKN010=
201005080720 METAR COR EGLL 080720Z 36005KT 8000 -DZ SCT006 BKN011 07/06
                        Q1011 NOSIG=
201005080650 METAR COR EGLL 080650Z 36005KT 6000 -DZ SCT007 BKN025 07/06
                        Q1011 TEMPO BKN010=
201005080620 METAR COR EGLL 080620Z 36005KT 330V050 6000 -DZ SCT007 SCT025
                        BKN031 07/06 Q1011 TEMPO BKN012=
201005080550 METAR COR EGLL 080550Z 36005KT 310V040 9999 -RADZ FEW011
                        SCT023 BKN028 07/06 Q1011 TEMPO BKN012=
201005080520 METAR COR EGLL 080520Z 36005KT 330V050 9999 -RA FEW010 BKN027
                        07/05 Q1011 TEMPO BKN012=
201005080450 METAR EGLL 080450Z 01005KT 330V040 9999 -RA FEW010 BKN016
                        07/05 Q1011=
201005080420 METAR COR EGLL 080420Z 36005KT 9999 -RA SCT010 BKN025 07/05
                        Q1011 NOSIG=
201005080350 METAR COR EGLL 080350Z 01004KT 330V060 9999 FEW022 BKN026
                        BKN035 07/05 Q1011 NOSIG=
201005080320 METAR COR EGLL 080320Z 01005KT 340V050 9999 FEW011 BKN035
                        07/05 Q1011 NOSIG=
201005080250 METAR COR EGLL 080250Z 01005KT 320V050 9999 FEW011 SCT034
                        BKN040 07/05 Q1011 NOSIG=
201005080220 METAR COR EGLL 080220Z 02005KT 330V070 9999 SCT015 BKN023
                        07/05 Q1011 NOSIG=
201005080150 METAR COR EGLL 080150Z 01005KT 330V050 9999 FEW013 SCT029
                        07/05 Q1011 TEMPO BKN014=
201005080120 METAR COR EGLL 080120Z 36005KT 340V040 9999 FEW013 BKN030
                        07/05 Q1012 TEMPO BKN014=
201005080050 METAR COR EGLL 080050Z 36004KT 330V040 9999 -RA SCT016 BKN022
                        07/05 Q1012 TEMPO BKN014=
201005080020 METAR COR EGLL 080020Z 02006KT 330V050 9999 BKN014 08/04
                        Q1012 TEMPO BKN016=
201005072350 METAR COR EGLL 072350Z 36004KT 330V040 9999 FEW016 SCT030
                        08/04 Q1012 TEMPO BKN014=
201005072320 METAR COR EGLL 072320Z 01005KT 340V060 9999 BKN018 08/04
                        Q1012 TEMPO BKN012=
201005072250 METAR COR EGLL 072250Z 36005KT 9999 SCT018 BKN023 08/04 Q1012
                        NOSIG=
201005072220 METAR COR EGLL 072220Z 36005KT 320V040 9999 BKN022 08/03
                        Q1012 NOSIG=
201005072150 METAR COR EGLL 072150Z 02004KT 310V050 9999 SCT029 08/03
                        Q1012 NOSIG=
201005072120 METAR COR EGLL 072120Z 02006KT 310V050 CAVOK 08/03 Q1012
                        NOSIG=
201005072050 METAR COR EGLL 072050Z 03008KT 340V070 9999 FEW025 08/03
                        Q1012 NOSIG=
201005072020 METAR COR EGLL 072020Z 02007KT 350V060 9999 FEW025 08/03
                        Q1012 NOSIG=
201005071950 METAR COR EGLL 071950Z 02009KT 340V050 9999 SCT025 SCT035
                        09/03 Q1012 NOSIG=
201005071920 METAR COR EGLL 071920Z 02006KT 340V060 9999 FEW022 SCT032
                        09/03 Q1012 NOSIG=
201005071850 METAR COR EGLL 071850Z 04007KT 350V070 9999 FEW025 SCT032
                        09/04 Q1012 NOSIG=
201005071820 METAR COR EGLL 071820Z 03008KT 340V070 9999 FEW027 10/03
                        Q1012 NOSIG=
201005071750 METAR COR EGLL 071750Z 02009KT 340V050 9999 FEW043 10/03
                        Q1011 NOSIG=
201005071720 METAR COR EGLL 071720Z 04009KT 360V080 9999 FEW043 11/02
                        Q1011 NOSIG=
201005071650 METAR COR EGLL 071650Z 05010KT 010V080 9999 FEW043 11/02
                        Q1011 NOSIG=
201005071620 METAR COR EGLL 071620Z 04008KT 360V070 9999 FEW045 12/02
                        Q1011 NOSIG=
201005071550 METAR COR EGLL 071550Z 03008KT 350V070 CAVOK 12/01 Q1011
                        NOSIG=
201005071520 METAR COR EGLL 071520Z 03008KT 360V060 CAVOK 13/00 Q1011
                        NOSIG=
201005071450 METAR COR EGLL 071450Z 05009KT 010V080 CAVOK 12/00 Q1011
                        NOSIG=
201005071420 METAR COR EGLL 071420Z 05008KT 010V080 CAVOK 13/00 Q1011
                        NOSIG=
201005071350 METAR COR EGLL 071350Z 04009KT 360V080 CAVOK 13/M00 Q1011
                        NOSIG=
201005071320 METAR COR EGLL 071320Z 04008KT 010V070 CAVOK 13/01 Q1011
                        NOSIG=
201005071250 METAR COR EGLL 071250Z 05007KT 010V090 9999 FEW048 12/01
                        Q1011 NOSIG=
201005071220 METAR COR EGLL 071220Z 04008KT 350V080 CAVOK 12/01 Q1011
                        NOSIG=
201005071150 METAR COR EGLL 071150Z 03007KT 330V080 9999 SCT043 11/01
                        Q1011 NOSIG=
201005071120 METAR COR EGLL 071120Z 05007KT 010V090 CAVOK 11/01 Q1011
                        NOSIG=
201005071050 METAR COR EGLL 071050Z 06008KT 9999 FEW039 SCT049 11/01 Q1011
                        NOSIG=
201005071020 METAR COR EGLL 071020Z 04008KT 010V080 9999 BKN039 10/01
                        Q1012 NOSIG=
201005070950 METAR COR EGLL 070950Z 05006KT 010V090 9999 FEW030 SCT049
                        10/03 Q1012 NOSIG=
201005070920 METAR COR EGLL 070920Z 04007KT 360V070 9999 FEW030 SCT047
                        09/03 Q1012 NOSIG=
201005070850 METAR COR EGLL 070850Z 05009KT 010V080 9999 FEW030 SCT048
                        09/03 Q1012 NOSIG=
201005070820 METAR COR EGLL 070820Z 05008KT 010V080 9999 FEW027 SCT039
                        09/03 Q1012 NOSIG=
201005070750 METAR COR EGLL 070750Z 05007KT 010V080 9999 FEW020 BKN042
                        08/03 Q1012 NOSIG=
201005070720 METAR COR EGLL 070720Z 04007KT 340V070 9999 FEW017 BKN044
                        08/04 Q1012 NOSIG=
201005070650 METAR COR EGLL 070650Z 01005KT 330V060 9999 FEW018 07/04
                        Q1012 NOSIG=
201005070620 METAR EGLL 070620Z 35005KT 320V030 9999 BKN041 07/03 Q1012=
201005070550 METAR COR EGLL 070550Z 36006KT 330V030 CAVOK 07/03 Q1012
                        NOSIG=
201005070520 METAR COR EGLL 070520Z 35005KT CAVOK 07/03 Q1011 NOSIG=
201005070450 METAR COR EGLL 070450Z 36004KT 320V030 CAVOK 07/03 Q1011
                        NOSIG=
201005070420 METAR EGLL 070420Z 35005KT 320V020 CAVOK 07/03 Q1011=
201005070350 METAR EGLL 070350Z 36005KT CAVOK 07/03 Q1012=
201005070320 METAR COR EGLL 070320Z 35004KT CAVOK 07/03 Q1012 NOSIG=
201005070250 METAR COR EGLL 070250Z 35005KT 320V020 CAVOK 07/03 Q1012
                        NOSIG=
201005070220 METAR EGLL 070220Z 35004KT 320V020 CAVOK 07/03 Q1012=
201005070150 METAR COR EGLL 070150Z 36005KT 330V040 CAVOK 07/03 Q1012
                        NOSIG=
201005070120 METAR COR EGLL 070120Z 02004KT 330V050 CAVOK 07/03 Q1012
                        NOSIG=
201005070050 METAR COR EGLL 070050Z 01004KT 320V050 CAVOK 07/03 Q1013
                        NOSIG=
201005070020 METAR COR EGLL 070020Z 02004KT 350V060 CAVOK 07/03 Q1013
                        NOSIG=
201005062350 METAR COR EGLL 062350Z 03004KT 350V060 CAVOK 07/03 Q1013
                        NOSIG=
201005062320 METAR COR EGLL 062320Z 02005KT 330V060 CAVOK 07/03 Q1013
                        NOSIG=
201005062250 METAR COR EGLL 062250Z 02005KT 330V050 CAVOK 07/03 Q1013
                        NOSIG=
201005062220 METAR EGLL 062220Z 02006KT 340V040 CAVOK 08/03 Q1013=
201005062150 METAR COR EGLL 062150Z 03007KT 330V060 CAVOK 08/03 Q1013
                        NOSIG=
201005062120 METAR COR EGLL 062120Z 01006KT 340V050 CAVOK 09/02 Q1013
                        NOSIG=
201005062050 METAR COR EGLL 062050Z 03007KT 360V070 9999 FEW044 10/02
                        Q1013 NOSIG=
201005062020 METAR COR EGLL 062020Z 04009KT 360V070 9999 SCT042 10/02
                        Q1012 NOSIG=
201005061950 METAR COR EGLL 061950Z 09006KT 9999 SCT046 11/03 Q1012 NOSIG=
201005061920 METAR COR EGLL 061920Z 12007KT 9999 BKN048 11/03 Q1012 NOSIG=
201005061850 METAR COR EGLL 061850Z 11007KT 9999 FEW048 12/04 Q1011 NOSIG=
201005061820 METAR COR EGLL 061820Z 11008KT 9999 FEW049 12/04 Q1011 NOSIG=
201005061750 METAR COR EGLL 061750Z 05007KT 010V080 CAVOK 14/02 Q1011
                        NOSIG=
201005061720 METAR COR EGLL 061720Z 05010KT 010V080 CAVOK 15/01 Q1011
                        NOSIG=
201005061650 METAR COR EGLL 061650Z 36009KT 330V060 CAVOK 14/01 Q1011
                        NOSIG=
201005061620 METAR COR EGLL 061620Z 01008KT 320V060 CAVOK 15/01 Q1011
                        NOSIG=
201005061550 METAR COR EGLL 061550Z 01008KT 330V060 CAVOK 15/02 Q1011
                        NOSIG=
201005061520 METAR COR EGLL 061520Z 36009KT 310V050 9999 FEW049 14/02
                        Q1011 NOSIG=
201005061450 METAR COR EGLL 061450Z 01009KT 340V050 9999 FEW049 15/02
                        Q1011 NOSIG=
201005061420 METAR COR EGLL 061420Z 04007KT 330V090 9999 SCT048 14/03
                        Q1011 NOSIG=
201005061350 METAR COR EGLL 061350Z 05007KT 010V100 9999 BKN048 14/03
                        Q1011 NOSIG=
201005061320 METAR COR EGLL 061320Z 02006KT 330V080 9999 SCT043 14/03
                        Q1011 NOSIG=
201005061250 METAR COR EGLL 061250Z 02007KT 340V050 9999 BKN041 13/03
                        Q1011 NOSIG=
201005061220 METAR COR EGLL 061220Z 01009KT 320V060 9999 FEW037 BKN043
                        14/04 Q1012 NOSIG=
201005061150 METAR COR EGLL 061150Z 02009KT 340V050 9999 SCT036 BKN044
                        14/04 Q1012 NOSIG=
201005061120 METAR COR EGLL 061120Z 02007KT 320V070 9999 FEW035 BKN046
                        13/04 Q1012 NOSIG=
201005061050 METAR COR EGLL 061050Z 02006KT 330V050 9999 FEW028 BKN044
                        12/05 Q1012 NOSIG=
201005061020 METAR COR EGLL 061020Z 03008KT 360V070 9999 FEW019 SCT026
                        BKN033 11/05 Q1012 NOSIG=
201005060950 METAR COR EGLL 060950Z 04006KT 360V080 9999 FEW018 SCT023
                        BKN029 11/06 Q1012 NOSIG=
201005060920 METAR COR EGLL 060920Z 06007KT 010V080 9999 SCT017 BKN040
                        11/06 Q1013 NOSIG=
201005060850 METAR COR EGLL 060850Z 05005KT 020V090 9999 SCT018 BKN040
                        10/06 Q1013 NOSIG=
201005060820 METAR COR EGLL 060820Z 06007KT 9999 FEW018 BKN041 10/06 Q1013
                        NOSIG=
201005060750 METAR COR EGLL 060750Z 06006KT 020V090 9999 SCT021 BKN042
                        11/06 Q1013 NOSIG=
201005060720 METAR COR EGLL 060720Z 06006KT 360V090 9999 SCT016 BKN022
                        10/06 Q1013 NOSIG=
201005060650 METAR COR EGLL 060650Z 05005KT 020V080 9000 SCT015 BKN020
                        10/06 Q1013 NOSIG=
201005060620 METAR COR EGLL 060620Z 06006KT 8000 FEW016 BKN023 10/06 Q1013
                        NOSIG=
201005060550 METAR COR EGLL 060550Z 05004KT 010V080 9999 SCT027 BKN032
                        10/06 Q1013 NOSIG=
201005060520 METAR COR EGLL 060520Z 03004KT 350V060 9999 BKN039 09/06
                        Q1013 NOSIG=
201005060450 METAR COR EGLL 060450Z 04004KT 9999 BKN030 09/06 Q1013 NOSIG=
201005060420 METAR COR EGLL 060420Z VRB03KT 8000 SCT024 BKN032 09/06 Q1013
                        NOSIG=
201005060350 METAR COR EGLL 060350Z VRB03KT 9000 FEW022 BKN033 09/06 Q1013
                        NOSIG=
201005060320 METAR COR EGLL 060320Z 36004KT 330V040 9000 NSC 09/06 Q1013
                        NOSIG=
201005060250 METAR COR EGLL 060250Z VRB02KT CAVOK 09/06 Q1013 NOSIG=
201005060220 METAR COR EGLL 060220Z VRB02KT CAVOK 09/06 Q1014 NOSIG=
201005060150 METAR COR EGLL 060150Z 35003KT CAVOK 09/06 Q1014 NOSIG=
201005060120 METAR COR EGLL 060120Z VRB02KT CAVOK 09/06 Q1014 NOSIG=
201005060050 METAR COR EGLL 060050Z VRB02KT CAVOK 09/06 Q1015 NOSIG=
201005060020 METAR COR EGLL 060020Z VRB02KT CAVOK 09/06 Q1015 NOSIG=
201005052350 METAR COR EGLL 052350Z 00000KT CAVOK 09/05 Q1015 NOSIG=
201005052320 METAR COR EGLL 052320Z 09002KT CAVOK 08/05 Q1016 NOSIG=
201005052250 METAR COR EGLL 052250Z 10004KT CAVOK 09/05 Q1016 NOSIG=
201005052220 METAR COR EGLL 052220Z 11005KT 9999 FEW032 09/05 Q1016 NOSIG=
201005052150 METAR COR EGLL 052150Z 12007KT 9999 SCT032 10/05 Q1017 NOSIG=
201005052120 METAR COR EGLL 052120Z 11008KT 9999 FEW039 BKN045 11/06 Q1016
                        NOSIG=
201005052050 METAR COR EGLL 052050Z 11010KT 9999 FEW040 BKN048 11/07 Q1016
                        NOSIG=
201005052020 METAR COR EGLL 052020Z 10008KT 9999 SCT036 13/06 Q1016 NOSIG=
201005051950 METAR COR EGLL 051950Z 04004KT CAVOK 13/06 Q1016 NOSIG=
201005051920 METAR COR EGLL 051920Z 03004KT 340V070 CAVOK 14/06 Q1016
                        NOSIG=
201005051850 METAR COR EGLL 051850Z 03005KT 340V060 9999 FEW041 14/06
                        Q1017 NOSIG=
201005051820 METAR COR EGLL 051820Z 03005KT 350V070 CAVOK 14/05 Q1017
                        NOSIG=
201005051750 METAR COR EGLL 051750Z AUTO 03005KT 350V060 9999NDV NCD 14/05
                        Q1017 NOSIG=
201005051720 METAR COR EGLL 051720Z 02006KT 340V070 9999 FEW038 14/05
                        Q1017 NOSIG=
201005051650 METAR COR EGLL 051650Z 36006KT 9999 SCT039 14/05 Q1017 NOSIG=
201005051620 METAR COR EGLL 051620Z 36005KT 330V040 9999 SCT048 15/05
                        Q1018 NOSIG=
201005051550 METAR COR EGLL 051550Z AUTO 01007KT 340V060 9999NDV BKN044///
                        15/04 Q1018 NOSIG=
201005051520 METAR COR EGLL 051520Z 36006KT 320V050 9999 SCT041 BKN047
                        15/04 Q1018 NOSIG=
201005051450 METAR COR EGLL 051450Z 36007KT 330V030 9999 SCT049 15/04
                        Q1018 NOSIG=
201005051420 METAR COR EGLL 051420Z 36006KT 310V030 9999 SCT041 15/04
                        Q1019 NOSIG=
201005051350 METAR COR EGLL 051350Z 36006KT 320V050 9999 FEW042 15/04
                        Q1019 NOSIG=
201005051320 METAR COR EGLL 051320Z 03007KT 350V080 9999 FEW043 15/05
                        Q1019 NOSIG=
201005051250 METAR COR EGLL 051250Z 03007KT 330V080 9999 SCT043 15/04
                        Q1020 NOSIG=
201005051220 METAR COR EGLL 051220Z 02007KT 340V070 9999 SCT043 15/04
                        Q1020 NOSIG=
201005051150 METAR COR EGLL 051150Z 02007KT 320V070 9999 SCT043 15/04
                        Q1020 NOSIG=
201005051120 METAR COR EGLL 051120Z 01006KT 320V080 9999 SCT041 15/04
                        Q1021 NOSIG=
201005051050 METAR COR EGLL 051050Z 05007KT 020V080 9999 FEW042 14/04
                        Q1021 NOSIG=
201005051020 METAR COR EGLL 051020Z 03005KT 340V060 9999 FEW042 14/05
                        Q1022 NOSIG=
201005050950 METAR COR EGLL 050950Z 04006KT 320V080 9999 FEW032 13/06
                        Q1022 NOSIG=
201005050920 METAR COR EGLL 050920Z 35005KT 290V050 9999 FEW048 12/06
                        Q1022 NOSIG=
201005050850 METAR COR EGLL 050850Z VRB03KT CAVOK 11/06 Q1022 NOSIG=
201005050820 METAR COR EGLL 050820Z VRB02KT CAVOK 10/05 Q1023 NOSIG=
201005050750 METAR COR EGLL 050750Z VRB02KT CAVOK 10/05 Q1023 NOSIG=
201005050720 METAR COR EGLL 050720Z 00000KT CAVOK 09/05 Q1023 NOSIG=
201005050650 METAR COR EGLL 050650Z VRB03KT CAVOK 08/03 Q1023 NOSIG=
201005050620 METAR COR EGLL 050620Z VRB03KT CAVOK 06/04 Q1023 NOSIG=
201005050550 METAR COR EGLL 050550Z 34002KT 9999 FEW048 04/02 Q1023 NOSIG=
201005050520 METAR COR EGLL 050520Z 18004KT 150V220 CAVOK 04/02 Q1023
                        NOSIG=
201005050450 METAR COR EGLL 050450Z VRB02KT CAVOK 03/02 Q1023 NOSIG=
201005050420 METAR COR EGLL 050420Z 20003KT CAVOK 03/01 Q1023 NOSIG=
201005050350 METAR COR EGLL 050350Z 00000KT CAVOK 03/02 Q1023 NOSIG=
201005050320 METAR COR EGLL 050320Z 00000KT CAVOK 03/01 Q1024 NOSIG=
201005050250 METAR COR EGLL 050250Z 00000KT CAVOK 04/01 Q1024 NOSIG=
201005050220 METAR COR EGLL 050220Z VRB02KT CAVOK 03/01 Q1024 NOSIG=
201005050150 METAR COR EGLL 050150Z 00000KT CAVOK 04/01 Q1024 NOSIG=
201005050120 METAR COR EGLL 050120Z VRB03KT CAVOK 04/01 Q1024 NOSIG=
201005050050 METAR COR EGLL 050050Z 36002KT CAVOK 04/01 Q1024 NOSIG=
201005050020 METAR COR EGLL 050020Z 35003KT CAVOK 05/01 Q1025 NOSIG=
201005042350 METAR COR EGLL 042350Z 35003KT CAVOK 06/01 Q1025 NOSIG=
201005042320 METAR COR EGLL 042320Z 35003KT CAVOK 06/01 Q1025 NOSIG=
201005042250 METAR COR EGLL 042250Z 35002KT CAVOK 07/01 Q1026 NOSIG=
201005042220 METAR COR EGLL 042220Z 35004KT CAVOK 07/01 Q1026 NOSIG=
201005042150 METAR COR EGLL 042150Z 35004KT CAVOK 08/01 Q1026 NOSIG=
201005042120 METAR COR EGLL 042120Z 36003KT CAVOK 08/01 Q1026 NOSIG=
201005042050 METAR COR EGLL 042050Z 35003KT CAVOK 09/00 Q1026 NOSIG=
201005042020 METAR COR EGLL 042020Z VRB03KT CAVOK 09/M00 Q1026 NOSIG=
201005041950 METAR COR EGLL 041950Z 03004KT CAVOK 09/M00 Q1026 NOSIG=
201005041920 METAR COR EGLL 041920Z 05006KT 010V080 CAVOK 10/00 Q1026
                        NOSIG=
201005041850 METAR COR EGLL 041850Z 04006KT 010V080 CAVOK 11/00 Q1025
                        NOSIG=
201005041820 METAR COR EGLL 041820Z 04007KT 010V080 CAVOK 11/00 Q1025
                        NOSIG=
201005041750 METAR COR EGLL 041750Z 04007KT 360V080 9999 FEW049 11/01
                        Q1025 NOSIG=
201005041720 METAR COR EGLL 041720Z 04008KT 340V090 9999 SCT048 12/01
                        Q1025 NOSIG=
201005041650 METAR COR EGLL 041650Z 03007KT 320V070 9999 BKN045 11/00
                        Q1026 NOSIG=
201005041620 METAR COR EGLL 041620Z 04006KT 330V080 9999 BKN045 12/01
                        Q1026 NOSIG=
201005041550 METAR COR EGLL 041550Z 02007KT 330V060 9999 BKN045 11/01
                        Q1026 NOSIG=
201005041520 METAR COR EGLL 041520Z 03008KT 340V070 9999 BKN048 11/01
                        Q1026 NOSIG=
201005041450 METAR COR EGLL 041450Z 01009KT 320V050 9999 SCT043 BKN048
                        11/01 Q1026 NOSIG=
201005041420 METAR COR EGLL 041420Z 03007KT 350V070 9999 SCT041 BKN046
                        11/01 Q1026 NOSIG=
201005041350 METAR COR EGLL 041350Z 36007KT 330V040 9999 FEW042 BKN047
                        11/01 Q1026 NOSIG=
201005041320 METAR COR EGLL 041320Z 01009KT 330V060 9999 SCT042 BKN049
                        11/01 Q1026 NOSIG=
201005041250 METAR COR EGLL 041250Z 01010KT 330V060 9999 FEW042 BKN049
                        11/01 Q1026 NOSIG=
201005041220 METAR COR EGLL 041220Z 03007KT 310V070 9999 FEW039 BKN045
                        11/01 Q1026 NOSIG=
201005041150 METAR COR EGLL 041150Z 02009KT 340V070 9999 FEW042 BKN045
                        10/00 Q1027 NOSIG=
201005041120 METAR COR EGLL 041120Z 02008KT 350V050 9999 FEW040 BKN047
                        10/01 Q1027 NOSIG=
201005041050 METAR EGLL 041050Z 02008KT 350V050 9999 FEW035 BKN048 09/01
                        Q1027=
201005041020 METAR COR EGLL 041020Z 01007KT 330V050 9999 FEW035 BKN048
                        09/01 Q1028 NOSIG=
201005040950 METAR COR EGLL 040950Z 02009KT 340V050 9999 SCT032 BKN042
                        09/01 Q1028 NOSIG=
201005040920 METAR COR EGLL 040920Z 36010KT 330V050 9999 FEW035 BKN043
                        09/01 Q1028 NOSIG=
201005040850 METAR COR EGLL 040850Z 01009KT 330V040 9999 BKN035 09/01
                        Q1028 NOSIG=
201005040820 METAR COR EGLL 040820Z 01008KT 330V050 9999 SCT025 08/01
                        Q1028 NOSIG=
201005040750 METAR COR EGLL 040750Z 36009KT 330V050 CAVOK 08/02 Q1028
                        NOSIG=
201005040720 METAR COR EGLL 040720Z 01008KT 340V060 9999 FEW020 07/02
                        Q1028 NOSIG=
201005040650 METAR COR EGLL 040650Z 36008KT 330V040 9999 FEW016 06/02
                        Q1028 NOSIG=
201005040620 METAR COR EGLL 040620Z 35006KT CAVOK 05/01 Q1027 NOSIG=
201005040550 METAR COR EGLL 040550Z 36006KT CAVOK 04/01 Q1027 NOSIG=
201005040520 METAR COR EGLL 040520Z 36006KT 320V030 CAVOK 04/01 Q1027
                        NOSIG=
201005040450 METAR COR EGLL 040450Z 33005KT 280V010 CAVOK 03/01 Q1027
                        NOSIG=
201005040420 METAR COR EGLL 040420Z 32004KT 290V360 CAVOK 03/01 Q1027
                        NOSIG=
201005040350 METAR COR EGLL 040350Z 35004KT 320V020 CAVOK 03/01 Q1027
                        NOSIG=
201005040320 METAR COR EGLL 040320Z 35005KT 9999 FEW030 04/01 Q1027 NOSIG=
201005040250 METAR COR EGLL 040250Z 35005KT 310V020 CAVOK 04/00 Q1027
                        NOSIG=
201005040220 METAR COR EGLL 040220Z 33005KT 300V010 CAVOK 04/00 Q1027
                        NOSIG=
201005040150 METAR COR EGLL 040150Z 31005KT CAVOK 03/00 Q1027 NOSIG=
201005040120 METAR COR EGLL 040120Z 32004KT 300V360 CAVOK 03/00 Q1027
                        NOSIG=
201005040050 METAR COR EGLL 040050Z VRB03KT CAVOK 03/M00 Q1028 NOSIG=
201005040020 METAR COR EGLL 040020Z 34004KT 300V020 CAVOK 04/M00 Q1028
                        NOSIG=
201005032350 METAR COR EGLL 032350Z 31004KT CAVOK 04/00 Q1028 NOSIG=
201005032320 METAR COR EGLL 032320Z VRB03KT CAVOK 04/M00 Q1028 NOSIG=
201005032250 METAR COR EGLL 032250Z 34004KT CAVOK 05/M00 Q1027 NOSIG=
201005032220 METAR COR EGLL 032220Z 35004KT CAVOK 05/M00 Q1027 NOSIG=
201005032150 METAR COR EGLL 032150Z 36004KT 340V050 CAVOK 06/M01 Q1027
                        NOSIG=
201005032120 METAR COR EGLL 032120Z 36006KT CAVOK 06/M01 Q1027 NOSIG=
201005032050 METAR COR EGLL 032050Z 36004KT 330V040 CAVOK 07/M01 Q1026
                        NOSIG=
201005032020 METAR COR EGLL 032020Z 03006KT 360V060 CAVOK 07/M00 Q1026
                        NOSIG=
201005031950 METAR COR EGLL 031950Z 04007KT 350V070 CAVOK 07/M01 Q1026
                        NOSIG=
201005031920 METAR COR EGLL 031920Z 02010KT 340V060 9999 FEW045 08/M01
                        Q1025 NOSIG=
201005031850 METAR COR EGLL 031850Z 02009KT 340V060 CAVOK 09/M02 Q1025
                        NOSIG=
201005031820 METAR COR EGLL 031820Z 02009KT 340V070 9999 FEW049 09/M02
                        Q1024 NOSIG=
201005031750 METAR COR EGLL 031750Z 01010KT 340V050 9999 FEW048 10/M02
                        Q1024 NOSIG=
201005031720 METAR COR EGLL 031720Z 01009KT 350V050 CAVOK 10/M02 Q1024
                        NOSIG=
201005031650 METAR COR EGLL 031650Z 02012KT 330V050 CAVOK 11/M02 Q1024
                        NOSIG=
201005031620 METAR COR EGLL 031620Z 01013KT 340V050 CAVOK 11/M02 Q1024
                        NOSIG=
201005031550 METAR COR EGLL 031550Z 01011KT 340V050 9999 FEW048 11/M02
                        Q1023 NOSIG=
201005031520 METAR EGLL 031520Z 03010KT 340V060 9999 SCT044 11/01 Q1023
                        NOSIG=
201005031450 METAR COR EGLL 031450Z 03013KT 350V070 9999 -SHRA SCT046
                        11/M00 Q1023 NOSIG=
201005031420 METAR COR EGLL 031420Z 02011G24KT 340V050 9999 VCSH FEW041
                        11/M00 Q1023 NOSIG=
201005031350 METAR COR EGLL 031350Z 02011KT 350V060 9999 SCT044 11/00
                        Q1023 NOSIG=
201005031320 METAR COR EGLL 031320Z 01013KT 340V060 9999 VCSH SCT044 11/M01
                        Q1023 NOSIG=
201005031250 METAR COR EGLL 031250Z 01011KT 320V060 9999 FEW035 11/02
                        Q1023 RESHRA NOSIG=
201005031220 METAR COR EGLL 031220Z 01011KT 330V040 9999 -SHRA FEW035
                        11/02 Q1022 NOSIG=
201005031150 METAR COR EGLL 031150Z 36011KT 330V040 9999 FEW041 10/01
                        Q1022 NOSIG=
201005031120 METAR COR EGLL 031120Z 01012G24KT 330V050 9999 SCT035 11/02
                        Q1022 NOSIG=
201005031050 METAR COR EGLL 031050Z 36010KT 320V040 9999 FEW040 08/03
                        Q1022 NOSIG=
201005031020 METAR COR EGLL 031020Z 01011KT 9999 FEW033 SCT039 09/01 Q1022
                        NOSIG=
201005030950 METAR COR EGLL 030950Z 36012KT 330V050 9999 FEW033 09/02
                        Q1022 NOSIG=
201005030920 METAR COR EGLL 030920Z 01009KT 340V040 9999 FEW029 SCT032
                        09/02 Q1021 NOSIG=
201005030850 METAR COR EGLL 030850Z 01010KT 310V050 9999 SCT030 08/02
                        Q1021 NOSIG=
201005030820 METAR COR EGLL 030820Z 36010KT 330V050 9999 FEW017 SCT022
                        08/03 Q1021 NOSIG=
201005030750 METAR COR EGLL 030750Z 35011KT 310V020 9999 SCT020 SCT025
                        07/03 Q1021 NOSIG=
201005030720 METAR COR EGLL 030720Z 36009KT 330V050 9999 FEW024 SCT049
                        06/03 Q1021 NOSIG=
201005030650 METAR COR EGLL 030650Z 36009KT 9999 FEW022 06/03 Q1021 NOSIG=
201005030620 METAR COR EGLL 030620Z 36007KT 320V030 9999 FEW015 SCT022
                        06/03 Q1020 NOSIG=
201005030550 METAR COR EGLL 030550Z 35008KT 310V020 9999 SCT021 BKN045
                        06/03 Q1020 NOSIG=
201005030520 METAR COR EGLL 030520Z 36007KT 310V030 9999 SCT020 06/03
                        Q1020 NOSIG=
201005030450 METAR COR EGLL 030450Z 36008KT 330V030 9999 SCT020 06/03
                        Q1019 NOSIG=
201005030420 METAR COR EGLL 030420Z 34005KT 290V010 9999 FEW022 06/03
                        Q1019 NOSIG=
201005030350 METAR COR EGLL 030350Z 35005KT 310V020 9999 FEW017 SCT022
                        06/03 Q1019 NOSIG=
201005030320 METAR COR EGLL 030320Z 35006KT 310V020 9999 SCT016 BKN040
                        05/03 Q1019 NOSIG=
201005030250 METAR COR EGLL 030250Z 35007KT 310V010 9999 -DZ SCT021 05/03
                        Q1019 RERA NOSIG=
201005030220 METAR COR EGLL 030220Z 35008KT 320V050 CAVOK 05/02 Q1018
                        NOSIG=
201005030150 METAR COR EGLL 030150Z 35007KT 9999 SCT030 05/02 Q1018 NOSIG=
201005030120 METAR COR EGLL 030120Z 35007KT 320V030 9999 SCT029 06/02
                        Q1018 NOSIG=
201005030050 METAR EGLL 030050Z 36008KT 310V030 9999 FEW014 06/02 Q1018=
201005030020 METAR COR EGLL 030020Z 35006KT 300V030 9999 FEW014 06/03
                        Q1018 NOSIG=
201005022350 METAR COR EGLL 022350Z 36009KT 320V020 9999 FEW022 06/02
                        Q1018 NOSIG=
201005022320 METAR COR EGLL 022320Z 36008KT 9999 FEW022 06/03 Q1017 NOSIG=
201005022250 METAR COR EGLL 022250Z 36007KT 320V030 9999 FEW020 SCT042
                        06/02 Q1017 NOSIG=
201005022220 METAR COR EGLL 022220Z 36007KT CAVOK 06/02 Q1017 NOSIG=
201005022150 METAR COR EGLL 022150Z 01007KT 340V050 CAVOK 06/02 Q1017
                        NOSIG=
201005022120 METAR COR EGLL 022120Z 36008KT CAVOK 07/02 Q1017 NOSIG=
201005022050 METAR COR EGLL 022050Z 36008KT 9999 FEW033 07/02 Q1016 NOSIG=
201005022020 METAR COR EGLL 022020Z 36009KT 330V060 CAVOK 07/01 Q1016
                        NOSIG=
201005021950 METAR COR EGLL 021950Z 01007KT 330V050 9999 FEW028 08/01
                        Q1016 NOSIG=
201005021920 METAR COR EGLL 021920Z 36010KT 9999 FEW026 08/02 Q1015 NOSIG=
201005021850 METAR COR EGLL 021850Z 01009KT 330V050 9999 FEW032 08/02
                        Q1015 NOSIG=
201005021820 METAR COR EGLL 021820Z 01008KT 330V040 9999 FEW036 09/02
                        Q1014 NOSIG=
201005021750 METAR COR EGLL 021750Z 01010KT 340V060 9999 FEW037 09/02
                        Q1014 NOSIG=
201005021720 METAR COR EGLL 021720Z 01011KT 340V050 9999 FEW035 09/01
                        Q1014 NOSIG=
201005021650 METAR COR EGLL 021650Z 02009KT 9999 FEW033 BKN048 09/01 Q1014
                        NOSIG=
201005021620 METAR COR EGLL 021620Z 01010KT 340V060 9999 FEW033 BKN045
                        09/01 Q1013 NOSIG=
201005021550 METAR COR EGLL 021550Z 02010KT 340V050 9999 FEW032 BKN036
                        09/02 Q1013 NOSIG=
201005021520 METAR COR EGLL 021520Z 02011KT 340V050 9999 SCT032 BKN038
                        09/03 Q1013 NOSIG=
201005021450 METAR COR EGLL 021450Z 03010KT 360V060 9999 SCT024 BKN036
                        09/04 Q1013 NOSIG=
201005021420 METAR COR EGLL 021420Z 03010KT 350V070 9999 SCT027 BKN038
                        09/05 Q1013 NOSIG=
201005021350 METAR COR EGLL 021350Z 03009KT 360V070 9999 -RA FEW029 BKN038
                        09/05 Q1013 NOSIG=
201005021320 METAR COR EGLL 021320Z 03008KT 360V060 9999 -RA SCT014 BKN019
                        08/06 Q1012 NOSIG=
201005021250 METAR COR EGLL 021250Z 03008KT 350V060 9999 SCT015 BKN032
                        08/06 Q1012 NOSIG=
201005021220 METAR COR EGLL 021220Z 03010KT 350V070 9999 -RA SCT013 BKN020
                        08/06 Q1012 NOSIG=
201005021150 METAR COR EGLL 021150Z 02010KT 340V060 9999 -RA BKN011 BKN020
                        08/06 Q1012 BECMG BKN015=
201005021120 METAR COR EGLL 021120Z 03010KT 350V060 9999 -RA SCT010 SCT016
                        BKN032 08/06 Q1011 NOSIG=
201005021050 METAR EGLL 021050Z 02010G20KT 350V050 9999 -RA FEW009 BKN012
                        BKN017 08/06 Q1011=
201005021020 METAR COR EGLL 021020Z 03011KT 9999 -RA BKN009 BKN014 08/06
                        Q1011 BECMG SCT014=
201005020950 METAR COR EGLL 020950Z 02010KT 330V050 8000 -RA SCT007 BKN012
                        08/07 Q1010 RERA BECMG SCT012=
201005020920 METAR COR EGLL 020920Z 02009KT 340V070 4200 RA SCT007 BKN011
                        08/07 Q1010 BECMG 6000 BKN015=
201005020850 METAR COR EGLL 020850Z 04005KT 020V080 4000 RA FEW008 BKN010
                        09/08 Q1010 RERA BECMG 6000 BKN015=
201005020820 METAR COR EGLL 020820Z 05006KT 010V080 4500 RA FEW008 BKN011
                        09/07 Q1010 BECMG 6000 NSW BKN015=
201005020750 METAR COR EGLL 020750Z 05005KT 360V080 4500 RA SCT010 SCT032
                        08/07 Q1009 TEMPO BKN012=
201005020720 METAR COR EGLL 020720Z 05006KT 5000 -RA SCT012 BKN032 08/07
                        Q1009 TEMPO RA BKN012=
201005020650 METAR COR EGLL 020650Z 05007KT 010V070 6000 -RA SCT007 SCT034
                        BKN042 08/07 Q1009 TEMPO RA BKN012=
201005020620 METAR COR EGLL 020620Z 04007KT 360V070 7000 -RADZ SCT025
                        BKN029 09/08 Q1008 TEMPO RA BKN012=
201005020550 METAR COR EGLL 020550Z 03005KT 340V060 9999 7000N FEW007
                        SCT012 BKN028 09/07 Q1008 NOSIG=
201005020520 METAR COR EGLL 020520Z 06007KT 020V090 9999 FEW009 BKN022
                        09/07 Q1008 TEMPO SHRA BKN012=
201005020450 METAR COR EGLL 020450Z VRB02KT 7000 VCTS FEW008 BKN014 09/08
                        Q1007 TEMPO SHRA=
201005020420 METAR EGLL 020420Z 17004KT 150V210 6000 FEW005 BKN009 09/08
                        Q1007=
201005020350 METAR COR EGLL 020350Z 15004KT 120V190 7000 FEW007 BKN012
                        09/08 Q1008 NOSIG=
201005020320 METAR COR EGLL 020320Z VRB03KT 7000 FEW006 SCT008 BKN012
                        09/08 Q1008 TEMPO RA BKN008=
201005020250 METAR COR EGLL 020250Z VRB03KT 7000 SCT007 BKN010 10/08 Q1008
                        TEMPO RA BKN008=
201005020220 METAR COR EGLL 020220Z 07004KT 8000 FEW006 BKN012 10/08 Q1008
                        NOSIG=
201005020150 METAR COR EGLL 020150Z 07005KT 9999 FEW008 BKN011 09/08 Q1008
                        NOSIG=
201005020120 METAR COR EGLL 020120Z 05004KT 9999 SCT008 BKN012 09/08 Q1008
                        TEMPO SHRA=
201005020050 METAR COR EGLL 020050Z 05004KT 9999 BKN013 09/08 Q1008 TEMPO
                        SHRA=
201005020020 METAR COR EGLL 020020Z 04004KT 360V080 9999 SCT013 BKN020
                        09/08 Q1008 TEMPO BKN013=
201005012350 METAR COR EGLL 012350Z 06003KT 9999 FEW008 BKN015 09/08 Q1009
                        BECMG BKN012=
201005012320 METAR COR EGLL 012320Z 06005KT 9999 FEW006 SCT016 10/09 Q1009
                        TEMPO SHRA=
201005012250 METAR COR EGLL 012250Z VRB03KT 9999 FEW012 BKN040 10/09 Q1009
                        TEMPO SHRA=
201005012220 METAR COR EGLL 012220Z 31003KT 9999 -SHRA FEW012 SCT016 BKN038
                        10/08 Q1009 TEMPO SHRA=
201005012150 METAR COR EGLL 012150Z 00000KT 9999 -SHRA BKN029 10/08 Q1009
                        TEMPO SHRA=
201005012120 METAR COR EGLL 012120Z 03004KT 9999 FEW030 BKN035 10/08 Q1009
                        TEMPO SHRA=
201005012050 METAR COR EGLL 012050Z 05005KT 9999 -SHRA FEW022 SCT040 10/07
                        Q1009 TEMPO SHRA=
201005012020 METAR COR EGLL 012020Z 05005KT 9999 SCT028 11/07 Q1009 TEMPO
                        SHRA=
201005011950 METAR COR EGLL 011950Z 01004KT 9999 SCT024 SCT029 11/07 Q1009
                        NOSIG=
201005011920 METAR COR EGLL 011920Z 36004KT 330V060 9999 VCSH SCT024 SCT033
                        BKN042 11/06 Q1009 TEMPO SHRA=
201005011850 METAR COR EGLL 011850Z 09005KT 020V150 9999 SCT024 BKN049
                        12/08 Q1009 TEMPO SHRA=
201005011820 METAR COR EGLL 011820Z 20006KT 160V250 9999 SCT031 BKN048
                        13/08 Q1009 TEMPO SHRA=
201005011750 METAR COR EGLL 011750Z 19009KT 150V240 9999 SCT026 BKN047
                        13/07 Q1009 NOSIG=
201005011720 METAR COR EGLL 011720Z 23010KT 9999 SCT026 14/08 Q1009 TEMPO
                        SHRA=
201005011650 METAR COR EGLL 011650Z 22009KT 9999 SCT049 14/07 Q1009 TEMPO
                        SHRA=
201005011620 METAR COR EGLL 011620Z 25011KT 9999 FEW039 14/07 Q1009 TEMPO
                        SHRA=
201005011550 METAR COR EGLL 011550Z 24013KT 9999 FEW040 14/07 Q1008 TEMPO
                        SHRA=
201005011520 METAR COR EGLL 011520Z 20006KT 150V250 9999 FEW040 16/06
                        Q1008 TEMPO SHRA=
201005011450 METAR COR EGLL 011450Z 20007KT 130V240 9999 FEW040 16/05
                        Q1009 NOSIG=
201005011420 METAR COR EGLL 011420Z 23006KT 180V290 9999 FEW040 16/05
                        Q1009 NOSIG=
201005011350 METAR COR EGLL 011350Z VRB04KT 9999 SCT040 17/05 Q1009 NOSIG=
201005011320 METAR COR EGLL 011320Z 19006KT 160V240 9999 SCT039 17/05
                        Q1009 NOSIG=
201005011250 METAR COR EGLL 011250Z 26004KT 190V290 9999 SCT039 16/07
                        Q1009 NOSIG=
201005011220 METAR COR EGLL 011220Z 29005KT 9999 FEW037 SCT045 15/06 Q1009
                        NOSIG=
201005011150 METAR COR EGLL 011150Z VRB04KT 9999 FEW038 SCT042 16/06 Q1009
                        NOSIG=
201005011120 METAR COR EGLL 011120Z 23005KT 180V290 9999 SCT031 16/06
                        Q1009 NOSIG=
201005011050 METAR COR EGLL 011050Z 26005KT 220V320 9999 SCT031 15/07
                        Q1009 NOSIG=
201005011020 METAR COR EGLL 011020Z 24005KT 190V290 9999 FEW022 SCT033
                        14/07 Q1009 NOSIG=
201005010950 METAR COR EGLL 010950Z 26007KT 230V290 9999 SCT024 13/08
                        Q1009 NOSIG=
201005010920 METAR COR EGLL 010920Z 28005KT 240V320 9999 SCT020 BKN046
                        13/09 Q1009 NOSIG=
201005010850 METAR COR EGLL 010850Z 28005KT 250V320 9999 SCT015 BKN043
                        12/08 Q1009 NOSIG=
201005010820 METAR COR EGLL 010820Z 25007KT 220V280 9999 SCT012 BKN043
                        12/09 Q1009 NOSIG=
201005010750 METAR COR EGLL 010750Z 28008KT 9999 FEW011 SCT013 BKN042
                        11/09 Q1009 NOSIG=
201005010720 METAR COR EGLL 010720Z 27007KT 9999 SCT012 SCT039 11/09 Q1009
                        NOSIG=
201005010650 METAR COR EGLL 010650Z 27007KT 9999 SCT013 SCT037 10/09 Q1009
                        NOSIG=
201005010620 METAR COR EGLL 010620Z 26008KT 9999 SCT016 10/08 Q1009 NOSIG=
201005010550 METAR COR EGLL 010550Z 26009KT 9999 SCT013 BKN018 10/08 Q1009
                        NOSIG=
201005010520 METAR COR EGLL 010520Z 27009KT 9999 SCT023 10/08 Q1008 NOSIG=
201005010450 METAR COR EGLL 010450Z 26007KT 9999 FEW013 SCT046 10/08 Q1008
                        NOSIG=
201005010420 METAR COR EGLL 010420Z 25007KT 9999 FEW018 BKN048 10/08 Q1008
                        NOSIG=
201005010350 METAR COR EGLL 010350Z 23008KT 9999 FEW020 BKN040 10/09 Q1008
                        NOSIG=
201005010320 METAR COR EGLL 010320Z 23008KT 9999 FEW038 10/09 Q1008 NOSIG=
201005010250 METAR COR EGLL 010250Z 23008KT 9999 FEW048 10/09 Q1008 NOSIG=
201005010220 METAR COR EGLL 010220Z 22006KT 9999 -DZ FEW035 10/09 Q1008
                        NOSIG=
201005010150 METAR COR EGLL 010150Z 23007KT CAVOK 10/09 Q1008 NOSIG=
201005010120 METAR COR EGLL 010120Z 24007KT 9999 FEW033 10/09 Q1009 NOSIG=
201005010050 METAR COR EGLL 010050Z 23006KT 9000 SCT046 10/09 Q1009 NOSIG=
201005010020 METAR COR EGLL 010020Z 24006KT 9999 SCT014 BKN019 10/09 Q1009
                        TEMPO BKN014=

# No short TAF reports from EGLL in databse.

###################################
#  large TAF from EGLL
###################################
201005312306 TAF EGLL 312306Z 0100/0206 VRB05KT 9999 SCT025
                      PROB30 0102/0107 8000
                      BECMG 0107/0110 9000 -RA
                      BECMG 0110/0113 BKN012
                      TEMPO 0112/0118 4500 RADZ BKN008
                      BECMG 0117/0120 9999 NSW
                      TEMPO 0118/0206 7000 -DZ BKN006=
201005311659 TAF EGLL 311659Z 3118/0124 VRB05KT 9999 SCT035
                      BECMG 0105/0108 17010KT 9000 -RA
                      TEMPO 0108/0116 RA BKN013
                      PROB30 TEMPO 0110/0116 4500 RADZ BKN009
                      BECMG 0115/0118 29010KT 9999 NSW=
201005311059 TAF EGLL 311059Z 3112/0118 36010KT 9999 BKN024
                      BECMG 3115/3119 08006KT
                      BECMG 0105/0108 17010KT 9000 -RA
                      TEMPO 0108/0116 RA BKN013
                      BECMG 0114/0117 28010KT 9999 NSW=
201005310501 TAF EGLL 310501Z 3106/0112 32008KT 9999 SCT025
                      BECMG 3113/3117 02010KT
                      BECMG 3118/3122 09008KT
                      BECMG 0104/0107 9000 -RA
                      PROB30 0107/0112 RA BKN012=
201005302257 TAF EGLL 302257Z 3100/0106 31008KT 9999 SCT020
                      BECMG 3113/3117 01010KT
                      BECMG 3118/3122 09008KT
                      PROB30 0104/0106 9000 -RA=
201005301706 TAF EGLL 301706Z 3018/3124 32009KT 9999 SCT030=
201005301058 TAF EGLL 301058Z 3012/3118 29010KT 9999 SCT030
                      TEMPO 3012/3018 31015G25KT
                      BECMG 3108/3111 35008KT=
201005300501 TAF EGLL 300501Z 3006/3112 29010KT 9999 FEW014 SCT030
                      PROB40 TEMPO 3012/3018 31015G25KT
                      BECMG 3108/3111 35008KT=
201005292300 TAF EGLL 292300Z 3000/3106 24010KT 9999 SCT025
                      TEMPO 3000/3005 8000 -RADZ BKN012
                      BECMG 3003/3006 30011KT
                      BECMG 3010/3013 31015G26KT
                      BECMG 3017/3019 32010KT=
201005291924 TAF AMD EGLL 291924Z 2919/3024 22010KT 9999 FEW012 SCT020
                      TEMPO 2919/2923 BKN014
                      PROB30 TEMPO 2919/3004 7000 -RADZ SHRA
                      TEMPO 2923/3007 BKN012
                      BECMG 3003/3006 30010KT
                      BECMG 3010/3013 31017G27KT
                      BECMG 3017/3019 31012KT=
201005291703 TAF EGLL 291703Z 2918/3024 22010KT 9999 FEW012 SCT020
                      PROB30 TEMPO 2918/3004 7000 -RADZ SHRA
                      TEMPO 2923/3007 BKN012
                      BECMG 3003/3006 30010KT
                      BECMG 3010/3013 31017G27KT
                      BECMG 3017/3019 31012KT=
201005291056 TAF EGLL 291056Z 2912/3018 18013KT 9999 -RA SCT014 BKN030
                      TEMPO 2913/2920 4000 RADZ BKN009
                      BECMG 2919/2921 24010KT
                      PROB40 TEMPO 2923/3006 BKN012
                      BECMG 3003/3006 31010KT
                      BECMG 3010/3013 30017G27KT=
201005290504 TAF EGLL 290504Z 2906/3012 17004KT 9999 SCT045
                      BECMG 2908/2910 18014KT
                      TEMPO 2911/2917 7000 RA BKN014
                      PROB40 TEMPO 2911/2915 19017G27KT 4000 -RADZ
                       BKN009
                      BECMG 2917/2920 24014KT
                      PROB30 2923/3006 BKN012
                      BECMG 3001/3004 30010KT=
201005282257 TAF EGLL 282257Z 2900/3006 24010KT 9999 FEW045
                      BECMG 2900/2903 17005KT
                      BECMG 2908/2910 18016KT
                      TEMPO 2910/2917 7000 RA BKN014
                      PROB40 TEMPO 2911/2915 19020G30KT 4000 -RADZ
                       BKN009
                      BECMG 2917/2920 24014KT
                      BECMG 3001/3004 30010KT=
201005281702 TAF EGLL 281702Z 2818/2924 26012KT 9999 SCT045
                      BECMG 2823/2902 17005KT
                      BECMG 2908/2910 19017KT
                      TEMPO 2909/2917 7000 RA BKN012
                      PROB40 TEMPO 2911/2915 19020G30KT 4000 -RADZ
                       BKN008
                      BECMG 2917/2920 26014KT=
201005281103 TAF EGLL 281103Z 2812/2918 27010KT 9999 SCT045
                      BECMG 2900/2903 17005KT
                      BECMG 2908/2910 19017KT
                      TEMPO 2909/2918 7000 RA BKN012
                      PROB40 TEMPO 2911/2915 4000 -RADZ BKN008=
201005280457 TAF EGLL 280457Z 2806/2912 27010KT 9999 FEW045
                      BECMG 2900/2903 17005KT
                      BECMG 2907/2910 19016KT BKN014
                      TEMPO 2909/2912 7000 RA BKN009=
201005272257 TAF EGLL 272257Z 2800/2906 27009KT 9999 FEW045
                      BECMG 2903/2906 16010KT=
201005271701 TAF EGLL 271701Z 2718/2824 27010KT 9999 FEW045=
201005271100 TAF EGLL 271100Z 2712/2818 VRB03KT 9999 SCT025
                      BECMG 2715/2718 28010KT
                      PROB30 TEMPO 2812/2818 8000 -SHRA=
201005270822 TAF AMD EGLL 270822Z 2708/2812 18005KT 9999 BKN012
                      TEMPO 2708/2710 7000 BKN008
                      BECMG 2709/2712 SCT025
                      BECMG 2711/2714 27010KT=
201005270500 TAF EGLL 270500Z 2706/2812 18005KT 9999 SCT030
                      TEMPO 2706/2708 7000 -RA
                      PROB40 2706/2709 SCT006 BKN012
                      BECMG 2711/2714 27010KT=
201005262300 TAF EGLL 262300Z 2700/2806 16006KT 9999 BKN035
                      TEMPO 2700/2708 6000 SHRA
                      PROB40 2705/2709 SCT006 BKN012
                      BECMG 2711/2714 27010KT=
201005262054 TAF AMD EGLL 262054Z 2620/2724 12006KT 9999 SCT040
                      TEMPO 2622/2707 7000 RA
                      PROB30 2705/2709 BKN012
                      PROB30 TEMPO 2712/2718 8000 SHRA=
201005261702 TAF EGLL 261702Z 2618/2724 12006KT 9999 SCT040
                      TEMPO 2700/2707 7000 RA
                      PROB30 2705/2709 BKN012
                      PROB30 TEMPO 2712/2718 8000 SHRA=
201005261101 TAF EGLL 261101Z 2612/2718 07008KT 9999 FEW030 SCT045
                      TEMPO 2700/2707 7000 RA
                      PROB30 2706/2710 BKN012
                      PROB30 TEMPO 2712/2718 8000 SHRA=
201005260501 TAF EGLL 260501Z 2606/2712 05010KT 9999 SCT040
                      BECMG 2618/2621 18006KT
                      TEMPO 2700/2706 7000 RA
                      PROB30 TEMPO 2706/2710 BKN010=
201005252259 TAF EGLL 252259Z 2600/2706 07010KT 9999 SCT040
                      BECMG 2618/2621 18006KT
                      TEMPO 2703/2706 7000 RA=
201005251655 TAF EGLL 251655Z 2518/2624 07010KT 9999 FEW040
                      PROB30 TEMPO 2618/2624 7000 SHRA=
201005251207 TAF EGLL 251207Z 2512/2618 09010KT 9999 FEW040
                      PROB30 TEMPO 2616/2618 7000 SHRA=
201005251100 TAF AMD EGLL 251100Z 2512/2618 09010KT 9999 FEW040
                      PROB30 TEMPO 2616/2618 7000 SHRA=
201005250457 TAF EGLL 250457Z 2506/2612 06010KT CAVOK
                      TEMPO 2506/2508 7000 BKN008
                      TEMPO 2508/2524 BKN040=
201005250024 TAF AMD EGLL 250024Z 2500/2606 06010KT CAVOK
                      PROB40 TEMPO 2500/2507 7000 BKN008
                      TEMPO 2507/2524 BKN040=
201005242300 TAF AMD EGLL 250024Z 2500/2606 06010KT CAVOK
                      PROB40 TEMPO 2500/2507 7000 BKN008
                      TEMPO 2507/2524 BKN040=
201005242258 TAF EGLL 242258Z 2500/2606 06010KT CAVOK
                      PROB40 TEMPO 2500/2507 BKN008
                      TEMPO 2507/2524 BKN040=
201005241658 TAF EGLL 241658Z 2418/2524 31007KT CAVOK
                      BECMG 2418/2421 06010KT
                      PROB40 TEMPO 2502/2507 BKN008
                      TEMPO 2508/2519 BKN040=
201005241059 TAF EGLL 241059Z 2412/2518 27007KT CAVOK
                      BECMG 2418/2421 07010KT
                      PROB30 2418/2420 04017KT
                      PROB40 TEMPO 2504/2507 BKN012
                      TEMPO 2508/2518 BKN040=
201005240501 TAF EGLL 240501Z 2406/2512 25005KT 9999 FEW045
                      BECMG 2420/2423 08010KT
                      PROB30 2502/2506 BKN012=
201005232301 TAF EGLL 232301Z 2400/2506 22005KT CAVOK
                      PROB30 2403/2407 8000
                      BECMG 2418/2421 08010KT
                      PROB30 2500/2506 BKN012=
201005231703 TAF EGLL 231703Z 2318/2424 25005KT CAVOK
                      PROB30 2403/2407 8000
                      BECMG 2418/2421 08010KT=
201005231101 TAF EGLL 231101Z 2312/2418 VRB05KT CAVOK
                      PROB30 2403/2407 8000=
201005230459 TAF EGLL 230459Z 2306/2412 VRB05KT CAVOK
                      PROB30 2306/2307 6000
                      PROB30 2403/2407 7000=
201005222256 TAF EGLL 222256Z 2300/2406 09006KT CAVOK
                      PROB40 2302/2307 7000=
201005221702 TAF EGLL 221702Z 2218/2324 09007KT CAVOK
                      BECMG 2301/2304 6000
                      PROB30 2303/2306 3000 BR
                      BECMG 2306/2308 CAVOK=
201005221059 TAF EGLL 221059Z 2212/2318 08007KT CAVOK
                      BECMG 2301/2304 6000
                      PROB30 2303/2306 3000 BR
                      BECMG 2306/2308 CAVOK=
201005220502 TAF EGLL 220502Z 2206/2312 06006KT 6000 NSC
                      PROB30 2206/2207 3000 BR BKN005
                      BECMG 2207/2209 CAVOK
                      BECMG 2301/2304 6000
                      PROB30 2303/2306 3000 BR
                      BECMG 2306/2308 CAVOK=
201005212258 TAF EGLL 212258Z 2200/2306 08007KT CAVOK
                      BECMG 2200/2203 8000
                      TEMPO 2204/2207 BKN005
                      PROB30 2204/2207 3000 BR BKN002
                      BECMG 2207/2210 CAVOK
                      PROB30 2301/2306 8000=
201005211657 TAF EGLL 211657Z 2118/2224 04006KT 9999 FEW045
                      BECMG 2200/2203 7000
                      PROB40 2204/2207 3000 BR BKN006
                      BECMG 2207/2210 9999=
201005211056 TAF EGLL 211056Z 2112/2218 07008KT 9999 FEW040
                      PROB40 2203/2207 6000
                      BECMG 2207/2210 9999=
201005210753 TAF AMD EGLL 210753Z 2108/2212 10005KT 8000 FEW040
                      BECMG 2108/2111 9999
                      BECMG 2201/2204 8000
                      PROB30 2203/2207 3000 BR
                      BECMG 2206/2209 9999=
201005210502 TAF EGLL 210502Z 2106/2212 10005KT 9999 SCT040
                      PROB30 2106/2108 8000
                      BECMG 2201/2204 8000
                      PROB30 2203/2207 3000 BR
                      BECMG 2206/2209 9999=
201005202307 TAF EGLL 202307Z 2100/2206 VRB05KT 9999 FEW040
                      PROB40 2102/2110 8000
                      BECMG 2200/2203 7000
                      PROB40 2203/2206 3000 BR=
201005201657 TAF EGLL 201657Z 2018/2124 VRB05KT 9999 FEW040
                      BECMG 2101/2104 7000
                      BECMG 2107/2110 9999
                      PROB30 2122/2124 8000=
201005201226 TAF EGLL 201226Z 2012/2118 VRB04KT 9999 SCT045
                      BECMG 2101/2104 8000
                      BECMG 2107/2110 9999=
201005201100 TAF EGLL 201100Z NIL=
201005200929 TAF AMD EGLL 200929Z 2009/2112 VRB04KT 8000 SCT045
                      BECMG 2009/2011 9999
                      BECMG 2101/2104 8000
                      BECMG 2106/2108 9999=
201005200501 TAF EGLL 200501Z 2006/2112 VRB04KT 8000 SCT045
                      BECMG 2006/2008 9999
                      BECMG 2101/2104 8000
                      BECMG 2106/2108 9999=
201005192301 TAF EGLL 192301Z 2000/2106 30005KT 9999 SCT045
                      PROB40 2003/2007 7000
                      PROB30 2103/2106 8000=
201005191707 TAF EGLL 191707Z 1918/2024 26005KT 9999 SCT045
                      BECMG 2002/2005 8000
                      PROB30 2003/2007 3000 BR
                      BECMG 2006/2009 9999=
201005191100 TAF EGLL 191100Z 1912/2018 25005KT 9999 SCT040
                      BECMG 2001/2004 8000
                      PROB30 2003/2007 3000 BR
                      BECMG 2008/2011 9999=
201005190502 TAF EGLL 190502Z 1906/2012 23005KT 9999 SCT040
                      BECMG 2000/2003 7000
                      PROB30 2003/2007 3000 BR=
201005182259 TAF EGLL 182259Z 1900/2006 VRB05KT 9999 FEW040
                      PROB30 1902/1907 7000
                      BECMG 2000/2003 7000
                      PROB30 2003/2006 3000 BR=
201005181700 TAF EGLL 181700Z 1818/1924 VRB03KT 9999 SCT040
                      PROB30 1902/1907 7000=
201005181101 TAF EGLL 181101Z 1812/1918 VRB03KT 9999 FEW040
                      PROB30 1902/1907 7000=
201005180501 TAF EGLL 180501Z 1806/1912 12004KT 9999 SCT045=
201005172305 TAF EGLL 172305Z 1800/1906 10004KT 9999 SCT045=
201005171653 TAF EGLL 171653Z 1718/1824 30005KT 9999 SCT030=
201005171053 TAF EGLL 171053Z 1712/1818 30008KT 9999 SCT030
                      PROB30 TEMPO 1712/1715 7000 SHRA=
201005170457 TAF EGLL 170457Z 1706/1812 30008KT 9999 SCT030
                      PROB30 TEMPO 1709/1716 7000 SHRA=
201005162300 TAF EGLL 162300Z 1700/1806 30006KT 9999 SCT030
                      PROB30 TEMPO 1709/1716 7000 SHRA=
201005161701 TAF EGLL 161701Z 1618/1724 28007KT 9999 SCT030
                      TEMPO 1618/1620 7000 SHRA
                      PROB30 TEMPO 1618/1620 3000 +SHGS=
201005161629 TAF AMD EGLL 161629Z 1616/1718 25008KT 9999 SCT025
                      TEMPO 1616/1620 7000 SHRA
                      PROB40 TEMPO 1617/1620 3000 +SHGS=
201005161105 TAF EGLL 161105Z 1612/1718 27007KT 9999 FEW013 BKN020
                      TEMPO 1612/1620 5000 -RADZ BKN013
                      PROB30 TEMPO 1617/1619 +RA=
201005160500 TAF EGLL 160500Z 1606/1712 23010KT CAVOK
                      BECMG 1607/1610 BKN020
                      BECMG 1610/1613 8000 -RA BKN012
                      TEMPO 1613/1617 4000 RADZ BKN009
                      PROB30 TEMPO 1614/1616 +RA
                      BECMG 1616/1618 29008KT 9999 NSW FEW040
                      TEMPO 1617/1619 7000 SHRA=
201005152301 TAF EGLL 152301Z 1600/1706 29007KT CAVOK
                      BECMG 1607/1610 23010KT BKN020
                      BECMG 1610/1613 8000 -RA BKN012
                      TEMPO 1613/1617 4000 RADZ BKN009
                      PROB30 TEMPO 1614/1616 +RA
                      BECMG 1615/1617 29008KT 9999 NSW SCT025
                      TEMPO 1617/1619 7000 SHRA=
201005151655 TAF EGLL 151655Z 1518/1624 29007KT CAVOK
                      BECMG 1607/1610 23010KT SCT020 BKN040
                      BECMG 1610/1613 8000 -RA BKN013
                      TEMPO 1614/1619 4000 RADZ BKN009
                      PROB30 TEMPO 1616/1618 +RA
                      BECMG 1619/1621 29008KT 9999 NSW SCT025=
201005151104 TAF EGLL 151104Z 1512/1618 29007KT 9999 FEW040
                      BECMG 1608/1611 23010KT
                      BECMG 1610/1613 8000 -RA BKN013
                      TEMPO 1614/1618 RA BKN009=
201005150451 TAF EGLL 150451Z 1506/1612 23007KT 9999 SCT040
                      BECMG 1608/1611 8000 -RA
                      TEMPO 1610/1612 RA BKN012=
201005142251 TAF EGLL 142251Z 1500/1606 23007KT 9999 FEW045
                      PROB30 1503/1507 7000=
201005141700 TAF EGLL 141700Z 1418/1524 21010KT 9999 FEW045
                      BECMG 1421/1424 29007KT
                      PROB30 1503/1507 7000=
201005141059 TAF EGLL 141059Z 1412/1518 19010KT 9999 FEW045
                      BECMG 1421/1424 29007KT
                      PROB30 1503/1507 7000 BKN012=
201005140520 TAF EGLL 140520Z 1406/1512 VRB05KT 9999 FEW045
                      PROB30 1406/1407 7000
                      BECMG 1409/1412 19012KT
                      BECMG 1421/1424 28007KT
                      PROB30 1503/1507 7000 BKN012=
201005140500 TAF EGLL 140500Z NIL=
201005132256 TAF EGLL 132256Z 1400/1506 21008KT 9999 FEW045
                      PROB30 1403/1407 7000
                      PROB40 1503/1506 6000 BKN009=
201005131658 TAF EGLL 131658Z 1318/1424 21010KT 9999 FEW045
                      BECMG 1318/1321 VRB05KT
                      PROB30 1402/1407 7000
                      BECMG 1409/1412 21010KT
                      BECMG 1418/1421 VRB05KT=
201005131056 TAF EGLL 131056Z 1312/1418 21010KT 9999 FEW045
                      BECMG 1318/1321 VRB05KT
                      PROB30 1402/1407 7000
                      BECMG 1409/1412 21010KT=
201005130456 TAF EGLL 130456Z 1306/1412 VRB05KT 9999 FEW045
                      PROB30 1306/1307 7000
                      BECMG 1310/1313 21010KT
                      BECMG 1318/1321 VRB05KT
                      PROB30 1402/1407 7000
                      BECMG 1409/1412 21010KT=
201005122255 TAF EGLL 122255Z 1300/1406 VRB05KT 9999 FEW045
                      PROB40 1303/1307 7000
                      PROB30 1402/1406 7000=
201005121656 TAF EGLL 121656Z 1218/1324 VRB05KT 9999 FEW045
                      PROB40 1303/1307 7000=
201005121058 TAF EGLL 121058Z 1212/1318 05005KT 9999 FEW045
                      PROB40 1303/1307 6000
                      PROB30 TEMPO 1312/1318 7000 SHRA=
201005120457 TAF EGLL 120457Z 1206/1312 04004KT 9999 SCT045
                      TEMPO 1208/1220 7000 SHRA
                      PROB40 1303/1306 3000 BR
                      PROB30 TEMPO 1310/1312 7000 SHRA=
201005112304 TAF EGLL 112304Z 1200/1306 04004KT 9999 SCT045
                      PROB30 TEMPO 1213/1220 7000 SHRA
                      PROB40 1303/1306 3000 BR=
201005111702 TAF EGLL 111702Z 1118/1224 02005KT 9999 SCT038
                      PROB30 TEMPO 1213/1220 9000 -SHRA=
201005111056 TAF EGLL 111056Z 1112/1218 03009KT 9999 SCT038
                      PROB30 TEMPO 1113/1119 9000 -SHRA
                      PROB30 TEMPO 1212/1218 7000 SHRA=
201005110500 TAF EGLL 110500Z 1106/1212 04008KT 9999 SCT035
                      PROB30 TEMPO 1210/1212 7000 SHRA=
201005102259 TAF EGLL 102259Z 1100/1206 05008KT 9999 SCT035
                      PROB30 TEMPO 1114/1118 9000 -SHRA=
201005101657 TAF EGLL 101657Z 1018/1124 04010KT 9999 SCT035
                      PROB40 TEMPO 1114/1118 6000 SHRA=
201005101057 TAF EGLL 101057Z 1012/1118 05010KT 9999 SCT035
                      PROB40 TEMPO 1114/1118 6000 SHRA=
201005100500 TAF EGLL 100500Z 1006/1112 04008KT 9999 SCT030=
201005092259 TAF EGLL 092259Z 1000/1106 04008KT 9999 SCT030
                      TEMPO 1003/1008 BKN012
                      PROB30 TEMPO 1004/1007 6000 -RADZ BKN007=
201005091700 TAF EGLL 091700Z 0918/1024 04008KT 9999 SCT030
                      PROB30 1003/1008 BKN014=
201005091057 TAF EGLL 091057Z 0912/1018 04008KT 9999 BKN020
                      PROB30 TEMPO 0912/0914 9000 -RA
                      PROB30 1003/1008 BKN014=
201005090823 TAF AMD EGLL 090823Z 0908/1012 05007KT 9000 -SHRA BKN014
                      BECMG 0908/0910 9999 NSW SCT018
                      PROB30 TEMPO 1003/1007 BKN014=
201005090457 TAF EGLL 090457Z 0906/1012 03008KT 9999 BKN014
                      BECMG 0906/0909 SCT018
                      PROB30 TEMPO 1003/1007 BKN014=
201005082300 TAF EGLL 082300Z 0900/1006 03007KT 9999 FEW012 BKN025
                      TEMPO 0901/0909 9000 -RADZ BKN012
                      PROB30 TEMPO 0903/0906 BKN009
                      PROB30 TEMPO 0911/0915 04015G25KT=
201005081655 TAF EGLL 081655Z 0818/0924 02007KT 9999 SCT013 BKN022
                      TEMPO 0818/0900 8000 -RA BKN014
                      BECMG 0900/0903 BKN012
                      TEMPO 0902/0908 BKN009
                      BECMG 0908/0910 SCT015
                      TEMPO 0911/0915 04015G25KT=
201005081056 TAF EGLL 081056Z 0812/0918 02007KT 9999 SCT014 BKN020
                      TEMPO 0812/0820 6000 -RADZ BKN014
                      TEMPO 0820/0909 6000 -RADZ BKN009
                      TEMPO 0911/0916 04015G25KT=
201005080755 TAF AMD EGLL 080755Z 0807/0912 02007KT 9999 BKN008
                      TEMPO 0807/0909 5000 -RADZ BKN012
                      BECMG 0808/0810 SCT009 BKN015=
201005080452 TAF EGLL 080452Z 0806/0912 02007KT 9999 BKN020
                      TEMPO 0806/0909 8000 -RADZ BKN014=
201005072256 TAF EGLL 072256Z 0800/0906 02007KT 9999 BKN018
                      TEMPO 0800/0906 8000 -RADZ BKN014=
201005071659 TAF EGLL 071659Z 0718/0824 03009KT 9999 SCT035
                      BECMG 0723/0802 BKN014
                      TEMPO 0800/0824 8000 -RADZ
                      TEMPO 0810/0820 FEW013 BKN020=
201005071058 TAF EGLL 071058Z 0712/0818 05009KT 9999 SCT035
                      BECMG 0723/0802 BKN013
                      TEMPO 0800/0818 8000 -RADZ
                      TEMPO 0810/0818 FEW013 BKN018=
201005070456 TAF EGLL 070456Z 0706/0812 04008KT 9999 SCT030
                      BECMG 0722/0801 BKN012
                      TEMPO 0723/0812 8000 -RADZ
                      PROB40 0810/0812 BKN020=
201005062230 TAF EGLL 062230Z 0700/0806 04008KT 9999 SCT030
                      BECMG 0721/0724 BKN012
                      TEMPO 0723/0806 8000 -RADZ=
201005061658 TAF EGLL 061658Z 0618/0724 04008KT 9999 SCT030
                      TEMPO 0720/0724 BKN012=
201005061058 TAF EGLL 061058Z 0612/0718 04008KT 9999 FEW020 SCT030
                      PROB30 TEMPO 0700/0706 9000 BKN014=
201005060459 TAF EGLL 060459Z 0606/0712 VRB03KT 9999 SCT035
                      PROB40 TEMPO 0606/0608 8000
                      BECMG 0608/0611 03010KT
                      PROB30 TEMPO 0710/0712 7000 -SHRA=
201005052300 TAF EGLL 052300Z 0600/0706 11005KT 9999 SCT030
                      PROB30 0603/0607 8000
                      BECMG 0609/0612 03010KT=
201005051702 TAF EGLL 051702Z 0518/0624 05007KT 9999 SCT045
                      PROB30 TEMPO 0602/0608 8000 -RA BKN014=
201005051101 TAF EGLL 051101Z 0512/0618 01010KT 9999 SCT045
                      BECMG 0520/0523 07008KT
                      PROB30 0603/0609 7000 -RA BKN012=
201005050459 TAF EGLL 050459Z 0506/0612 VRB03KT 9999 SCT040
                      BECMG 0506/0509 35010KT
                      PROB30 0506/0508 8000
                      BECMG 0602/0605 06008KT
                      PROB40 0603/0608 6000 -RADZ BKN013=
201005042258 TAF EGLL 042258Z 0500/0606 35005KT 9999 SCT040
                      PROB30 0506/0509 BKN012
                      PROB30 0600/0606 6000 -RADZ BKN013=
201005041700 TAF EGLL 041700Z 0418/0524 03010KT 9999 SCT040
                      BECMG 0420/0423 VRB03KT
                      PROB30 TEMPO 0506/0521 8000 -SHRA
                      TEMPO 0521/0524 7000 -RA BKN012=
201005041100 TAF EGLL 041100Z 0412/0518 02012KT 9999 SCT045
                      BECMG 0420/0423 VRB03KT
                      TEMPO 0506/0510 8000 -RA BKN012
                      PROB30 TEMPO 0510/0518 7000 -RA=
201005040456 TAF EGLL 040456Z 0406/0512 35008KT 9999 FEW040
                      TEMPO 0506/0510 9000 BKN014=
201005032254 TAF EGLL 032254Z 0400/0506 35010KT 9999 SCT040
                      TEMPO 0503/0506 BKN014=
201005031658 TAF EGLL 031658Z 0318/0424 01012KT 9999 SCT040=
201005031100 TAF EGLL 031100Z 0312/0418 01010KT 9999 FEW030 SCT040
                      PROB40 TEMPO 0312/0319 01015G25KT 7000 SHRA=
201005030456 TAF EGLL 030456Z 0306/0412 36010KT 9999 FEW020 SCT030
                      TEMPO 0309/0319 01015G25KT=
201005022258 TAF EGLL 022258Z 0300/0406 36010KT 9999 FEW020 SCT040
                      TEMPO 0309/0319 01015G25KT=
201005021658 TAF EGLL 021658Z 0218/0324 01012KT 9999 SCT025=
201005021059 TAF EGLL 021059Z 0212/0318 02015KT 8000 -RA BKN012
                      BECMG 0212/0215 9999 NSW SCT020=
201005020708 TAF AMD EGLL 020708Z 0207/0312 11004KT 6000 -RA SCT012
                      PROB30 TEMPO 0207/0210 3000 RA BKN008
                      BECMG 0207/0210 02015KT
                      BECMG 0211/0214 9999 NSW=
201005020632 TAF AMD EGLL 020632Z 0207/0312 11004KT 6000 -RA SCT012
                      PROB30 TEMPO 0207/0210 3000 RA BKN008
                      BECMG 0207/0210 02015KT
                      BECMG 0211/0214 9999=
201005020501 TAF EGLL 020501Z 0206/0312 11004KT 6000 -RA BKN012
                      PROB30 TEMPO 0206/0210 3000 RA BKN008
                      BECMG 0207/0210 02015KT
                      BECMG 0211/0214 9999 NSW FEW014 SCT025=
201005012256 TAF EGLL 012256Z 0200/0306 VRB04KT 9999 BKN025
                      PROB30 TEMPO 0200/0206 3000 +SHRA TSRA BKN014CB
                       TEMPO 0200/0215 BKN008
                      BECMG 0206/0209 6000 -RA BKN014
                      TEMPO 0206/0215 3000 RA
                      BECMG 0207/0210 02015KT
                      BECMG 0214/0217 9999 NSW FEW014 SCT025=
201005012157 TAF AMD EGLL 012157Z 0122/0224 25006KT 9999 BKN025
                      TEMPO 0122/0201 7000 SHRA
                      PROB30 TEMPO 0122/0201 3000 +SHRA TSRA BKN014CB
                       BECMG 0201/0204 6000 -RA BKN014
                      TEMPO 0200/0215 3000 RA BKN008
                      BECMG 0207/0210 02015KT
                      BECMG 0213/0216 9999 NSW FEW014 SCT025=
201005011704 TAF EGLL 011704Z 0118/0224 25006KT 9999 BKN025
                      TEMPO 0118/0124 7000 SHRA
                      PROB30 TEMPO 0118/0124 3000 +SHRA BKN014CB
                       BECMG 0200/0203 6000 -RA BKN014
                      TEMPO 0200/0215 3000 RA BKN008
                      BECMG 0207/0210 02015KT
                      BECMG 0213/0216 9999 NSW FEW014 SCT025=
201005011059 TAF EGLL 011059Z 0112/0218 25005KT 9999 SCT025
                      TEMPO 0112/0124 7000 SHRA
                      PROB30 TEMPO 0118/0124 3000 +SHRA BKN014CB
                       BECMG 0200/0203 6000 RA BKN014
                      TEMPO 0203/0212 BKN008
                      BECMG 0207/0210 02012KT
                      BECMG 0211/0214 9999 NSW FEW014=
201005010503 TAF EGLL 010503Z 0106/0212 23010KT 9999 FEW012 SCT045
                      TEMPO 0108/0120 7000 SHRA
                      PROB40 TEMPO 0112/0119 3000 TSRA BKN014CB
                       BECMG 0120/0123 17006KT
                      TEMPO 0123/0206 7000 RA BKN010
                      BECMG 0206/0209 04010KT 7000 RA BKN014
                      PROB30 TEMPO 0209/0212 3000 +RA BKN009=
