##########################################################
# Query made at 12/27/2012 10:47:15 UTC
# Time interval: from 05/01/2008 00:00  to 05/31/2008 23:59  UTC
##########################################################

##########################################################
# EGLL, London / Heathrow Airport (United Kingdom)
# WMO index: 03772
# Latitude 51-29N. Longitude 000-27W. Altitude 24 m.
##########################################################

###################################
#  METAR/SPECI from EGLL
###################################
200805312350 METAR EGLL 312350Z 08005KT 3000 HZ NSC 14/12 Q1017 TEMPO
                        BKN005=
200805312320 METAR EGLL 312320Z 09005KT 3700 HZ NSC 14/12 Q1017 TEMPO
                        BKN005=
200805312250 METAR COR EGLL 312250Z 09008KT 4800 HZ NSC 15/13 Q1017 NOSIG=
200805312220 METAR COR EGLL 312220Z 10009KT 7000 NSC 16/13 Q1017 NOSIG=
200805312150 METAR EGLL 312150Z 09007KT 060V150 9999 NSC 16/13 Q1017 NOSIG=
200805312120 METAR EGLL 312120Z 06007KT CAVOK 18/12 Q1016 NOSIG=
200805312050 METAR COR EGLL 312050Z 04005KT CAVOK 18/11 Q1016 NOSIG=
200805312020 METAR EGLL 312020Z 03006KT 9999 FEW048 19/12 Q1016 NOSIG=
200805311950 METAR COR EGLL 311950Z 03005KT 9999 FEW047 19/12 Q1016 NOSIG=
200805311920 METAR COR EGLL 311920Z 36005KT 330V050 9999 FEW047 19/12
                        Q1016 NOSIG=
200805311850 METAR COR EGLL 311850Z 36005KT 340V050 9999 FEW040 19/12
                        Q1016 NOSIG=
200805311820 METAR EGLL 311820Z 02005KT 330V070 9999 FEW035 20/12 Q1016=
200805311750 METAR COR EGLL 311750Z 36006KT 330V040 9999 SCT038 20/12
                        Q1016 NOSIG=
200805311720 METAR COR EGLL 311720Z 36006KT 320V050 9999 SCT038 20/12
                        Q1016 NOSIG=
200805311650 METAR COR EGLL 311650Z 02005KT 350V050 9999 SCT036 20/12
                        Q1016 NOSIG=
200805311620 METAR COR EGLL 311620Z 03006KT 340V060 9999 FEW041 SCT049
                        20/12 Q1016 NOSIG=
200805311550 METAR EGLL 311550Z 36006KT 320V040 9999 SCT041 SCT049 21/12
                        Q1016=
200805311520 METAR COR EGLL 311520Z 02006KT 320V070 9999 SCT036 21/12
                        Q1016 NOSIG=
200805311450 METAR COR EGLL 311450Z 03005KT 330V080 9999 SCT038 20/12
                        Q1016 NOSIG=
200805311420 METAR EGLL 311420Z 01006KT 320V070 9999 SCT035 21/12 Q1016=
200805311350 METAR COR EGLL 311350Z 05004KT 310V100 9999 SCT035 SCT042
                        21/12 Q1016 NOSIG=
200805311320 METAR COR EGLL 311320Z VRB04KT 9999 FEW041 21/12 Q1016 NOSIG=
200805311250 METAR COR EGLL 311250Z 01005KT 310V070 9999 FEW029 20/13
                        Q1016 NOSIG=
200805311220 METAR EGLL 311220Z 01007KT 330V050 9999 FEW029 21/14 Q1016
                        NOSIG=
200805311150 METAR COR EGLL 311150Z 35006KT 270V060 9999 FEW030 20/13
                        Q1017 NOSIG=
200805311120 METAR COR EGLL 311120Z 30006KT 270V350 9999 FEW028 20/13
                        Q1017 NOSIG=
200805311050 METAR COR EGLL 311050Z 32004KT 250V050 9999 FEW025 20/12
                        Q1017 NOSIG=
200805311020 METAR COR EGLL 311020Z VRB02KT 9999 SCT023 19/13 Q1017 NOSIG=
200805310950 METAR COR EGLL 310950Z 31005KT 9999 SCT023 19/13 Q1017 NOSIG=
200805310920 METAR COR EGLL 310920Z 24006KT 180V300 9999 SCT023 19/13
                        Q1017 NOSIG=
200805310850 METAR COR EGLL 310850Z 23004KT 150V290 9000 SCT019 18/13
                        Q1017 NOSIG=
200805310820 METAR EGLL 310820Z 29004KT 200V010 8000 SCT015 BKN019 19/13
                        Q1016=
200805310750 METAR COR EGLL 310750Z VRB02KT 7000 FEW019 17/14 Q1016 NOSIG=
200805310720 METAR EGLL 310720Z 00000KT 7000 FEW024 18/13 Q1016=
200805310650 METAR COR EGLL 310650Z VRB02KT 6000 FEW036 17/14 Q1016 NOSIG=
200805310620 METAR COR EGLL 310620Z 00000KT 6000 FEW025 16/14 Q1016 NOSIG=
200805310550 METAR COR EGLL 310550Z VRB02KT 5000 HZ FEW048 16/13 Q1016
                        NOSIG=
200805310520 METAR EGLL 310520Z 00000KT 5000 HZ FEW029 15/13 Q1016 NOSIG=
200805310450 METAR COR EGLL 310450Z VRB02KT 5000 HZ FEW030 15/13 Q1016
                        NOSIG=
200805310420 METAR EGLL 310420Z 29003KT 5000 HZ SCT030 15/13 Q1016 TEMPO
                        3000 BR=
200805310350 METAR EGLL 310350Z VRB02KT 5000 HZ FEW027 15/13 Q1015 TEMPO
                        3000 BR=
200805310320 METAR EGLL 310320Z NIL=
200805310250 METAR EGLL 310250Z 30003KT 7000 NSC 15/13 Q1015 NOSIG=
200805310220 METAR EGLL 310220Z VRB02KT 7000 NSC 15/13 Q1015 NOSIG=
200805310150 METAR COR EGLL 310150Z 31003KT 7000 NSC 15/13 Q1015 NOSIG=
200805310120 METAR COR EGLL 310120Z AUTO VRB02KT 7000NDV NCD 15/13 Q1015
                        NOSIG=
200805310050 METAR EGLL 310050Z AUTO 32002KT 8000NDV NCD 16/13 Q1015=
200805310020 METAR EGLL 310020Z AUTO 30003KT 8000NDV NCD 16/13 Q1015=
200805302350 METAR EGLL 302350Z 31003KT 8000 NSC 16/13 Q1015 NOSIG=
200805302320 METAR EGLL 302320Z VRB03KT 9000 FEW047 16/13 Q1015 NOSIG=
200805302250 METAR COR EGLL 302250Z VRB03KT CAVOK 16/13 Q1015 NOSIG=
200805302220 METAR COR EGLL 302220Z 35004KT 310V010 CAVOK 17/13 Q1015
                        NOSIG=
200805302150 METAR EGLL 302150Z VRB03KT 9999 BKN047 17/12 Q1015 NOSIG=
200805302120 METAR EGLL 302120Z 32003KT 9999 FEW030 BKN046 17/12 Q1015
                        NOSIG=
200805302050 METAR EGLL 302050Z VRB03KT 9999 FEW043 SCT047 17/12 Q1014
                        NOSIG=
200805302020 METAR EGLL 302020Z 31004KT 290V350 9999 FEW029 SCT039 17/12
                        Q1014 NOSIG=
200805301950 METAR COR EGLL 301950Z 32004KT 290V350 9999 FEW029 SCT034
                        17/12 Q1014 NOSIG=
200805301920 METAR COR EGLL 301920Z VRB03KT 9999 FEW028 SCT047 18/12 Q1014
                        NOSIG=
200805301850 METAR COR EGLL 301850Z VRB03KT 9999 FEW029 18/12 Q1013 NOSIG=
200805301820 METAR EGLL 301820Z VRB02KT 9999 FEW031 18/11 Q1013 NOSIG=
200805301750 METAR EGLL 301750Z VRB03KT 9999 SCT045 18/12 Q1013 NOSIG=
200805301720 METAR COR EGLL 301720Z VRB03KT 9999 FEW029 SCT048 18/12 Q1013
                        NOSIG=
200805301650 METAR EGLL 301650Z VRB02KT 9999 FEW037 BKN042 18/11 Q1013
                        NOSIG=
200805301620 METAR EGLL 301620Z 35005KT 320V020 9999 FEW027 BKN045 18/12
                        Q1014 NOSIG=
200805301550 METAR COR EGLL 301550Z 35004KT 300V040 9999 FEW026 BKN038
                        18/12 Q1014 NOSIG=
200805301520 METAR COR EGLL 301520Z 31005KT 280V360 9999 SCT025 BKN038
                        18/12 Q1013 NOSIG=
200805301450 METAR COR EGLL 301450Z 36005KT 9999 SCT024 BKN042 18/12 Q1013
                        NOSIG=
200805301420 METAR EGLL 301420Z 32005KT 260V030 9999 BKN039 19/12 Q1013
                        NOSIG=
200805301350 METAR EGLL 301350Z 31005KT 270V010 9999 BKN036 18/12 Q1013
                        NOSIG=
200805301320 METAR COR EGLL 301320Z 31004KT 260V030 9999 FEW022 BKN036
                        18/12 Q1013 NOSIG=
200805301250 METAR COR EGLL 301250Z 33004KT 290V050 9999 FEW020 BKN030
                        17/12 Q1013 NOSIG=
200805301220 METAR COR EGLL 301220Z 36006KT 9999 FEW016 BKN020 17/12 Q1013
                        NOSIG=
200805301150 METAR EGLL 301150Z 34004KT 300V030 9999 VCSH FEW011 BKN020
                        16/12 Q1013 NOSIG=
200805301120 METAR COR EGLL 301120Z 30004KT 270V330 9999 FEW012 BKN020
                        17/12 Q1013 NOSIG=
200805301050 METAR COR EGLL 301050Z 32004KT 290V040 9999 BKN019 17/12
                        Q1013 NOSIG=
200805301020 METAR COR EGLL 301020Z 30005KT 270V350 9999 FEW018 BKN023
                        16/12 Q1013 NOSIG=
200805300950 METAR EGLL 300950Z VRB03KT 9999 SCT014 BKN022 16/12 Q1013
                        NOSIG=
200805300920 METAR COR EGLL 300920Z 34004KT 290V020 9999 BKN013 16/12
                        Q1013 BECMG BKN016=
200805300850 METAR EGLL 300850Z 36004KT 310V040 9999 SCT013 BKN019 15/12
                        Q1013 NOSIG=
200805300820 METAR COR EGLL 300820Z 36004KT 320V040 9999 BKN012 15/12
                        Q1013 BECMG BKN016=
200805300750 METAR COR EGLL 300750Z 36005KT 9999 BKN012 15/12 Q1013 BECMG
                        BKN020=
200805300720 METAR EGLL 300720Z 35004KT 320V030 9999 SCT010 BKN015 14/12
                        Q1013 NOSIG=
200805300650 METAR COR EGLL 300650Z 34004KT 300V030 9999 FEW008 OVC010
                        14/12 Q1013 NOSIG=
200805300620 METAR EGLL 300620Z 31004KT 270V360 9999 FEW007 BKN014 14/12
                        Q1013 NOSIG=
200805300550 METAR COR EGLL 300550Z 29004KT 9999 SCT007 BKN012 13/12 Q1013
                        NOSIG=
200805300520 METAR EGLL 300520Z 29004KT 7000 BKN008 OVC011 13/12 Q1013
                        NOSIG=
200805300450 METAR COR EGLL 300450Z VRB03KT 8000 -DZ OVC008 13/11 Q1013
                        NOSIG=
200805300420 METAR COR EGLL 300420Z VRB03KT 9000 -DZ OVC009 13/11 Q1013
                        REDZ NOSIG=
200805300350 METAR COR EGLL 300350Z 35004KT 310V030 9999 DZ OVC009 13/11
                        Q1012 NOSIG=
200805300320 METAR COR EGLL 300320Z 35003KT 9999 BKN010 13/11 Q1012 NOSIG=
200805300250 METAR COR EGLL 300250Z VRB03KT 9999 OVC010 13/11 Q1012 NOSIG=
200805300220 METAR COR EGLL 300220Z VRB03KT 9999 BKN010 13/11 Q1012 NOSIG=
200805300150 METAR COR EGLL 300150Z 34004KT 300V020 9999 OVC010 13/11
                        Q1012 NOSIG=
200805300120 METAR EGLL 300120Z AUTO VRB03KT 9999NDV OVC010/// 13/11 Q1012=
200805300050 METAR EGLL 300050Z AUTO 36004KT 320V040 9999NDV SCT012///
                        13/11 Q1012=
200805300020 METAR EGLL 300020Z AUTO VRB03KT 9999NDV NCD 13/11 Q1012=
200805292350 METAR EGLL 292350Z 35004KT 9999 FEW032 13/12 Q1012 NOSIG=
200805292320 METAR COR EGLL 292320Z 35004KT 310V040 9999 FEW031 13/12
                        Q1013 NOSIG=
200805292250 METAR COR EGLL 292250Z 02004KT 320V060 9999 FEW038 BKN045
                        14/12 Q1013 NOSIG=
200805292220 METAR COR EGLL 292220Z 04005KT 010V080 9999 FEW011 SCT044
                        14/12 Q1013 NOSIG=
200805292150 METAR COR EGLL 292150Z 04004KT 010V070 9999 FEW010 BKN020
                        BKN028 15/13 Q1013 NOSIG=
200805292120 METAR EGLL 292120Z VRB03KT 9000 FEW009 SCT015 BKN025 14/13
                        Q1013 NOSIG=
200805292050 METAR EGLL 292050Z 04003KT 9999 -RA FEW030 14/13 Q1013 NOSIG=
200805292020 METAR EGLL 292020Z VRB02KT 9999 -RA FEW009 14/13 Q1013 NOSIG=
200805291950 METAR COR EGLL 291950Z VRB03KT 9999 -RA FEW009 14/13 Q1013
                        NOSIG=
200805291920 METAR EGLL 291920Z 07004KT 9999 -RA FEW010 14/13 Q1013 NOSIG=
200805291850 METAR COR EGLL 291850Z VRB03KT 9999 -RA FEW009 14/13 Q1013
                        RERA NOSIG=
200805291820 METAR COR EGLL 291820Z 07007KT 9999 RA FEW006 SCT013 14/13
                        Q1013 NOSIG=
200805291750 METAR EGLL 291750Z 07005KT 6000 RA BKN006 BKN013 14/13 Q1013
                        NOSIG=
200805291720 METAR EGLL 291720Z 09006KT 9000 -RA SCT008 15/13 Q1013 NOSIG=
200805291650 METAR COR EGLL 291650Z 07007KT 9999 -RA FEW046 15/13 Q1012
                        NOSIG=
200805291620 METAR EGLL 291620Z 09009KT 9000 -RA BKN030 15/13 Q1013 RERA
                        NOSIG=
200805291550 METAR COR EGLL 291550Z 09009KT 9000 -RA BKN045 15/13 Q1013
                        NOSIG=
200805291520 METAR COR EGLL 291520Z 09010KT 9000 -RA FEW020 16/14 Q1013
                        RERA NOSIG=
200805291450 METAR COR EGLL 291450Z 09012KT 9999 -RA FEW019 17/13 Q1013
                        NOSIG=
200805291420 METAR EGLL 291420Z 09013KT 9999 -RA FEW031 19/13 Q1013 NOSIG=
200805291350 METAR COR EGLL 291350Z 09011KT 9999 FEW044 20/12 Q1013 NOSIG=
200805291320 METAR COR EGLL 291320Z 08010KT 9999 SCT044 21/12 Q1013 NOSIG=
200805291250 METAR COR EGLL 291250Z 04004KT 360V080 9999 FEW044 22/11
                        Q1012 NOSIG=
200805291220 METAR COR EGLL 291220Z 07005KT 360V160 CAVOK 22/11 Q1012
                        NOSIG=
200805291150 METAR COR EGLL 291150Z 11006KT 050V160 9999 FEW040 21/11
                        Q1013 NOSIG=
200805291120 METAR COR EGLL 291120Z VRB04KT CAVOK 21/11 Q1013 NOSIG=
200805291050 METAR COR EGLL 291050Z 05004KT 310V110 CAVOK 20/11 Q1013
                        NOSIG=
200805291020 METAR EGLL 291020Z 03004KT 310V110 CAVOK 19/11 Q1014 NOSIG=
200805290950 METAR EGLL 290950Z 03004KT 320V070 8000 NSC 17/12 Q1014 NOSIG=
200805290920 METAR EGLL 290920Z 05004KT 350V110 8000 NSC 16/12 Q1014 NOSIG=
200805290850 METAR EGLL 290850Z 04004KT 360V090 8000 NSC 15/12 Q1014 NOSIG=
200805290820 METAR COR EGLL 290820Z 06004KT 010V100 6000 NSC 15/12 Q1014
                        NOSIG=
200805290750 METAR COR EGLL 290750Z 08004KT 040V130 5000 BR SCT006 13/11
                        Q1014 NOSIG=
200805290720 METAR COR EGLL 290720Z 10004KT 060V140 5000 BR SCT005 13/11
                        Q1014 NOSIG=
200805290650 METAR COR EGLL 290650Z VRB02KT 4500 BR SCT004 12/11 Q1013
                        BECMG 6000=
200805290620 METAR COR EGLL 290620Z 00000KT 2300 BR OVC004 11/10 Q1014
                        BECMG 6000 NSW SCT007=
200805290550 METAR COR EGLL 290550Z VRB02KT 3000 BR SCT003 OVC004 11/10
                        Q1014 BECMG 6000 NSW SCT007=
200805290520 METAR COR EGLL 290520Z VRB02KT 3000 BR OVC003 11/10 Q1014
                        NOSIG=
200805290450 METAR COR EGLL 290450Z 00000KT 3000 BR OVC003 11/10 Q1013
                        NOSIG=
200805290420 METAR COR EGLL 290420Z VRB02KT 1400 BR OVC003 11/10 Q1013
                        NOSIG=
200805290350 METAR COR EGLL 290350Z VRB02KT 2200 HZ OVC004 11/10 Q1013
                        TEMPO 1400=
200805290320 METAR COR EGLL 290320Z VRB03KT 5000 HZ BKN004 12/10 Q1013
                        BECMG 3000 BR=
200805290250 METAR COR EGLL 290250Z 20004KT 6000 OVC005 12/11 Q1013 BECMG
                        3000 BR=
200805290220 METAR COR EGLL 290220Z VRB03KT 5000 HZ BKN005 12/10 Q1013
                        BECMG 3000 BR BKN004=
200805290150 METAR COR EGLL 290150Z 25006KT 6000 BKN005 12/10 Q1013 TEMPO
                        4000 BR BKN004=
200805290120 METAR EGLL 290120Z AUTO 24005KT 7000NDV BKN005/// 12/10 Q1013=
200805290050 METAR EGLL 290050Z AUTO 18004KT 6000NDV BKN006/// 12/10 Q1013=
200805290020 METAR EGLL 290020Z AUTO 21004KT 7000NDV FEW008/// 12/10 Q1012=
200805282350 METAR COR EGLL 282350Z 21007KT 9999 SCT008 12/10 Q1012 BECMG
                        BKN008=
200805282320 METAR COR EGLL 282320Z 19009KT 9999 SCT009 12/11 Q1012 BECMG
                        BKN009=
200805282250 METAR COR EGLL 282250Z 21005KT 9999 SCT009 12/11 Q1012 TEMPO
                        BKN009=
200805282220 METAR COR EGLL 282220Z 22009KT 9999 BKN011 12/11 Q1011 TEMPO
                        SCT010=
200805282150 METAR COR EGLL 282150Z 22010KT 200V260 9999 BKN014 13/11
                        Q1011 TEMPO SCT012=
200805282120 METAR COR EGLL 282120Z 21009KT 9999 FEW012 13/11 Q1010 TEMPO
                        BKN012=
200805282050 METAR EGLL 282050Z 22010KT 9999 BKN012 13/11 Q1010 TEMPO
                        SCT012=
200805282020 METAR COR EGLL 282020Z 21011KT 9999 BKN011 14/12 Q1009 TEMPO
                        SCT012=
200805281950 METAR EGLL 281950Z 21012KT 180V240 9999 BKN011 14/12 Q1009
                        TEMPO SCT012=
200805281920 METAR EGLL 281920Z 20014KT 9999 BKN010 14/12 Q1008 TEMPO
                        SCT010=
200805281850 METAR COR EGLL 281850Z 20015KT 9999 BKN010 BKN015 14/12 Q1007
                        NOSIG=
200805281820 METAR EGLL 281820Z 21013KT 9999 -DZ BKN010 BKN017 15/13 Q1007
                        NOSIG=
200805281750 METAR COR EGLL 281750Z 20014KT 9999 BKN010 BKN017 15/13 Q1006
                        NOSIG=
200805281720 METAR EGLL 281720Z 20014KT 9999 BKN009 BKN015 16/14 Q1005
                        NOSIG=
200805281650 METAR EGLL 281650Z 18012KT 150V210 9999 -DZ BKN008 BKN012
                        16/15 Q1005 NOSIG=
200805281620 METAR EGLL 281620Z 19010KT 9999 -RA SCT009 BKN013 17/15 Q1004
                        NOSIG=
200805281550 METAR EGLL 281550Z 19010KT 9999 -RA SCT008 BKN010 17/15 Q1004
                        NOSIG=
200805281520 METAR COR EGLL 281520Z 19008KT 9999 BKN006 BKN008 16/15 Q1004
                        NOSIG=
200805281450 METAR COR EGLL 281450Z 17009KT 3000 DZ OVC006 16/14 Q1003
                        NOSIG=
200805281420 METAR COR EGLL 281420Z 16010KT 9999 VCSH BKN007 BKN010 16/14
                        Q1003 NOSIG=
200805281350 METAR EGLL 281350Z 15011KT 9999 5000W -SHRA FEW006 BKN007
                        16/14 Q1003 TEMPO 3000 RA=
200805281320 METAR COR EGLL 281320Z 16010KT 9999 SCT010 BKN013 17/14 Q1003
                        NOSIG=
200805281250 METAR EGLL 281250Z 15010KT 9999 FEW007 BKN011 16/14 Q1002
                        TEMPO BKN015=
200805281220 METAR EGLL 281220Z 15010KT 9999 SCT009 BKN014 16/15 Q1002
                        NOSIG=
200805281150 METAR COR EGLL 281150Z 15011KT 9999 SCT007 BKN014 16/15 Q1002
                        NOSIG=
200805281120 METAR EGLL 281120Z 14008KT 2400 DZ FEW004 SCT006 BKN009 16/15
                        Q1002 NOSIG=
200805281050 METAR COR EGLL 281050Z 14010KT 2000 -DZ BKN006 OVC009 16/15
                        Q1002 NOSIG=
200805281020 METAR EGLL 281020Z 13009KT 6000 SCT005 OVC009 17/15 Q1002
                        BECMG BKN015=
200805280950 METAR EGLL 280950Z 13009KT 9999 SCT009 OVC011 17/15 Q1001
                        BECMG BKN015=
200805280920 METAR COR EGLL 280920Z 13007KT 9999 BKN009 OVC011 17/15 Q1001
                        BECMG BKN015=
200805280850 METAR COR EGLL 280850Z 10006KT 4500 HZ FEW009 OVC011 17/15
                        Q1001 BECMG 7000 BKN015=
200805280820 METAR COR EGLL 280820Z 09006KT 3500 HZ SCT006 OVC012 16/15
                        Q1001 BECMG 6000 NSW BKN015=
200805280750 METAR COR EGLL 280750Z 09007KT 3600 HZ SCT006 OVC010 16/15
                        Q1001 BECMG 6000 NSW=
200805280720 METAR COR EGLL 280720Z 09008KT 3000 BR OVC006 16/14 Q1001
                        NOSIG=
200805280650 METAR COR EGLL 280650Z 07005KT 3000 BR OVC005 15/14 Q1001
                        BECMG 6000 NSW=
200805280620 METAR EGLL 280620Z 07004KT 3000 BR OVC006 15/14 Q1002 BECMG
                        6000 NSW=
200805280550 METAR EGLL 280550Z 08005KT 2700 BR OVC006 15/14 Q1002 NOSIG=
200805280520 METAR EGLL 280520Z 10003KT 4100 BR OVC006 15/14 Q1001 NOSIG=
200805280450 METAR COR EGLL 280450Z VRB02KT 4000 BR OVC006 15/14 Q1001
                        NOSIG=
200805280420 METAR COR EGLL 280420Z 03007KT 340V060 3400 BR BKN006 15/14
                        Q1001 NOSIG=
200805280350 METAR EGLL 280350Z 04007KT 360V070 2900 -RA BKN006 15/14
                        Q1002 NOSIG=
200805280320 METAR COR EGLL 280320Z 06005KT 3300 -RA BKN005 15/14 Q1003
                        NOSIG=
200805280250 METAR EGLL 280250Z 02005KT 350V060 2600 -RA BKN005 15/14
                        Q1003 RERA NOSIG=
200805280220 METAR COR EGLL 280220Z 02008KT 1600 RA BKN004 15/14 Q1003
                        NOSIG=
200805280150 METAR COR EGLL 280150Z 02005KT 1600 TSRA BKN003CB 15/14 Q1003
                        TEMPO 1200 +RA=
200805280120 METAR EGLL 280120Z AUTO 04006KT 1600NDV +RA OVC003/// 15/14
                        Q1004=
200805280050 METAR EGLL 280050Z AUTO 05004KT 1900NDV RA OVC004/// 15/14
                        Q1005 RERA=
200805280020 METAR EGLL 280020Z AUTO VRB03KT 2600NDV +RA OVC008/// 15/14
                        Q1005=
200805272350 METAR COR EGLL 272350Z VRB03KT 3900 -RA SCT010 BKN014 15/14
                        Q1006 BECMG BKN008=
200805272320 METAR COR EGLL 272320Z 03005KT 4400 -RA FEW010 BKN013 15/13
                        Q1006 BECMG BKN008=
200805272250 METAR EGLL 272250Z 05006KT 020V080 7000 FEW010 BKN020 15/13
                        Q1006 BECMG 4000 -RA BKN008=
200805272220 METAR COR EGLL 272220Z 05006KT 020V080 9000 FEW012 BKN025
                        16/13 Q1007 BECMG -RA BKN010=
200805272150 METAR EGLL 272150Z 05006KT 010V070 9999 SCT019 SCT028 BKN032
                        16/12 Q1007 BECMG BKN010=
200805272120 METAR EGLL 272120Z 06008KT 9999 SCT025 BKN029 16/12 Q1008
                        BECMG BKN012=
200805272050 METAR COR EGLL 272050Z 05007KT 020V080 9999 FEW034 16/12
                        Q1008 BECMG BKN012=
200805272020 METAR COR EGLL 272020Z 06007KT CAVOK 17/12 Q1008 BECMG BKN012=
200805271950 METAR COR EGLL 271950Z 05006KT 9999 FEW020 17/12 Q1008 BECMG
                        BKN012=
200805271920 METAR EGLL 271920Z 04006KT 010V080 CAVOK 17/13 Q1008 BECMG
                        BKN012=
200805271850 METAR COR EGLL 271850Z 06006KT CAVOK 18/12 Q1008 NOSIG=
200805271820 METAR EGLL 271820Z 05005KT 010V070 9999 FEW034 18/12 Q1009
                        NOSIG=
200805271750 METAR COR EGLL 271750Z 06005KT 9999 FEW034 18/12 Q1009 NOSIG=
200805271720 METAR EGLL 271720Z 08006KT 9999 FEW034 18/11 Q1009 NOSIG=
200805271650 METAR COR EGLL 271650Z 33004KT 290V020 9999 FEW034 18/13
                        Q1009 NOSIG=
200805271620 METAR EGLL 271620Z 34004KT 280V020 9999 FEW032 19/12 Q1009
                        NOSIG=
200805271550 METAR EGLL 271550Z 32005KT 280V010 9999 FEW027 19/12 Q1009
                        NOSIG=
200805271520 METAR EGLL 271520Z VRB04KT 9999 SCT027 18/12 Q1010=
200805271450 METAR EGLL 271450Z VRB03KT 9999 FEW028 18/12 Q1010 NOSIG=
200805271420 METAR COR EGLL 271420Z VRB03KT 9999 FEW023 17/12 Q1010 NOSIG=
200805271350 METAR COR EGLL 271350Z 06004KT 010V100 9999 FEW020 17/12
                        Q1011 NOSIG=
200805271320 METAR COR EGLL 271320Z VRB03KT 9999 FEW019 17/12 Q1011 NOSIG=
200805271250 METAR COR EGLL 271250Z VRB03KT 9999 SCT018 16/11 Q1011 NOSIG=
200805271220 METAR COR EGLL 271220Z VRB03KT 9999 BKN017 16/11 Q1011 NOSIG=
200805271150 METAR EGLL 271150Z VRB02KT 9999 BKN016 15/11 Q1011 NOSIG=
200805271120 METAR COR EGLL 271120Z VRB03KT 9999 BKN017 15/11 Q1011 NOSIG=
200805271050 METAR EGLL 271050Z 33004KT 280V360 9999 BKN014 14/11 Q1011
                        BECMG BKN018=
200805271020 METAR EGLL 271020Z VRB03KT 9999 SCT013 BKN018 15/11 Q1011
                        NOSIG=
200805270950 METAR COR EGLL 270950Z 00000KT 9999 SCT010 BKN016 14/11 Q1011
                        NOSIG=
200805270920 METAR EGLL 270920Z VRB02KT 9999 SCT010 BKN015 14/11 Q1011
                        NOSIG=
200805270850 METAR EGLL 270850Z VRB03KT 9999 SCT010 BKN013 13/10 Q1011
                        BECMG BKN018=
200805270820 METAR COR EGLL 270820Z VRB02KT 9999 BKN008 BKN011 13/10 Q1011
                        BECMG BKN015=
200805270750 METAR COR EGLL 270750Z VRB03KT 9999 SCT007 BKN010 12/10 Q1011
                        BECMG BKN015=
200805270720 METAR EGLL 270720Z 06004KT 360V080 9999 BKN007 BKN010 12/10
                        Q1011 NOSIG=
200805270650 METAR COR EGLL 270650Z 05004KT 360V100 9999 BKN006 BKN010
                        11/10 Q1010 NOSIG=
200805270620 METAR EGLL 270620Z 04004KT 360V070 9999 BKN006 BKN012 11/10
                        Q1010 BECMG BKN010=
200805270550 METAR COR EGLL 270550Z 03004KT 340V070 9999 BKN007 BKN012
                        11/10 Q1010 BECMG BKN010=
200805270520 METAR COR EGLL 270520Z 03004KT 330V070 9999 FEW005 BKN008
                        11/09 Q1010 TEMPO 5000 BR=
200805270450 METAR COR EGLL 270450Z 02004KT 330V060 9999 FEW005 BKN007
                        11/09 Q1010 BECMG 5000 BR=
200805270420 METAR COR EGLL 270420Z 02005KT 350V060 9999 FEW006 BKN008
                        11/09 Q1010 BECMG 5000 BR -DZ BKN005=
200805270350 METAR COR EGLL 270350Z 02004KT 350V060 9999 BKN007 11/09
                        Q1010 BECMG 5000 BR=
200805270320 METAR COR EGLL 270320Z 02005KT 9999 FEW006 BKN013 10/09 Q1010
                        BECMG 5000 BR BKN006=
200805270250 METAR COR EGLL 270250Z 03006KT 9999 FEW005 BKN014 10/09 Q1010
                        BECMG 5000 BR BKN007=
200805270220 METAR EGLL 270220Z 02005KT 350V060 9999 FEW005 BKN014 10/09
                        Q1010 BECMG 4500 BR BKN007=
200805270150 METAR COR EGLL 270150Z 04007KT 010V070 9999 FEW006 SCT013
                        BKN018 10/09 Q1010 TEMPO BKN010=
200805270120 METAR EGLL 270120Z AUTO 04006KT 020V090 -RA OVC010/// 10/09
                        Q1011=
200805270050 METAR EGLL 270050Z AUTO 05005KT 010V080 DZ BKN009/// 11/09
                        Q1011 RERA=
200805270020 METAR EGLL 270020Z AUTO 05009KT -RA BKN011/// 11/10 Q1011
                        RERA=
200805262350 METAR COR EGLL 262350Z 06008KT 4500 RA BKN008 11/10 Q1011
                        TEMPO 6000 NSW BKN010=
200805262320 METAR COR EGLL 262320Z 06009KT 6000 -RA BKN008 11/10 Q1011
                        TEMPO BKN010=
200805262250 METAR COR EGLL 262250Z 07008KT 9000 -RA BKN009 11/10 Q1011
                        TEMPO 4000 RA=
200805262220 METAR COR EGLL 262220Z 06009KT 8000 -RA BKN008 11/10 Q1011
                        TEMPO BKN010=
200805262150 METAR COR EGLL 262150Z 06012KT 020V090 8000 -RA BKN009 12/10
                        Q1010 NOSIG=
200805262120 METAR COR EGLL 262120Z 05009KT 8000 -RA BKN008 12/11 Q1010
                        TEMPO 4000 RA=
200805262050 METAR EGLL 262050Z 05009KT 6000 -RA BKN008 OVC012 12/11 Q1010
                        RERA TEMPO 4000 RA=
200805262020 METAR COR EGLL 262020Z 06010KT 6000 RA BKN007 OVC012 12/11
                        Q1010 TEMPO 4000 +RA=
200805261950 METAR COR EGLL 261950Z 05009KT 7000 -RA BKN008 OVC011 12/11
                        Q1010 RERA TEMPO 4000 RA=
200805261920 METAR COR EGLL 261920Z 06009KT 4500 BR BKN007 BKN009 OVC010
                        12/11 Q1010 TEMPO RA=
200805261850 METAR COR EGLL 261850Z 06010KT 4500 BR BKN006 OVC010 12/11
                        Q1010 TEMPO 5000 RA=
200805261820 METAR COR EGLL 261820Z 06011KT 3400 -DZ BKN006 OVC011 12/11
                        Q1010 TEMPO RA=
200805261750 METAR COR EGLL 261750Z 06011KT 3400 -DZ BKN005 OVC009 12/11
                        Q1010 NOSIG=
200805261720 METAR COR EGLL 261720Z 06011KT 3000 HZ BKN006 OVC010 12/11
                        Q1010 NOSIG=
200805261650 METAR EGLL 261650Z 07010KT 5000 BR BKN006 OVC011 12/11 Q1010
                        TEMPO 4000 -DZ=
200805261620 METAR COR EGLL 261620Z 06013KT 6000 BKN008 OVC010 12/11 Q1010
                        TEMPO 4000 -DZ=
200805261550 METAR COR EGLL 261550Z 06013KT 6000 BKN006 OVC011 12/11 Q1010
                        TEMPO 4000 -DZ=
200805261520 METAR COR EGLL 261520Z 06012KT 4000 -DZ BKN006 OVC012 12/11
                        Q1010 TEMPO 6000=
200805261450 METAR EGLL 261450Z 06013KT 3500 DZ BKN006 OVC012 12/11 Q1010
                        NOSIG=
200805261420 METAR COR EGLL 261420Z 07012KT 3500 DZ SCT005 BKN007 OVC013
                        12/11 Q1010 NOSIG=
200805261350 METAR COR EGLL 261350Z 06014KT 4000 -DZ BKN007 BKN010 OVC014
                        12/11 Q1010 NOSIG=
200805261320 METAR COR EGLL 261320Z 06014KT 4000 -DZ BKN007 OVC011 13/11
                        Q1010 TEMPO 6000 NSW=
200805261250 METAR COR EGLL 261250Z 06015KT 4200 -DZ BKN006 OVC010 13/11
                        Q1009 TEMPO 6000 NSW=
200805261220 METAR COR EGLL 261220Z 06015KT 4400 -DZ BKN006 OVC010 13/11
                        Q1010 TEMPO 6000 NSW=
200805261150 METAR EGLL 261150Z 06016KT 3800 -RADZ BKN008 OVC015 13/11
                        Q1009 TEMPO 6000 NSW=
200805261120 METAR COR EGLL 261120Z 06016KT 3800 -RA BKN009 OVC012 13/11
                        Q1009 TEMPO 6000 NSW=
200805261050 METAR COR EGLL 261050Z 06015KT 7000 DZ FEW007 BKN009 OVC012
                        12/11 Q1009 RERA TEMPO 4000 -RADZ=
200805261020 METAR COR EGLL 261020Z 06016KT 7000 -RA BKN010 BKN015 12/11
                        Q1009 TEMPO 06018G28KT=
200805260950 METAR EGLL 260950Z 06019KT 5000 -RA BKN011 13/11 Q1009 NOSIG=
200805260920 METAR COR EGLL 260920Z 06018KT 9999 SCT011 OVC013 13/11 Q1008
                        RERA TEMPO 06020G30KT BKN009=
200805260850 METAR COR EGLL 260850Z 05015KT 3800 RA SCT010 OVC014 12/11
                        Q1008 TEMPO 06018G28KT BKN009=
200805260820 METAR COR EGLL 260820Z 07014KT 4500 RA SCT008 OVC012 12/11
                        Q1009 TEMPO 07020G30KT BKN008=
200805260750 METAR COR EGLL 260750Z 05013KT 6000 RA SCT012 OVC017 12/10
                        Q1009 TEMPO 05020G30KT 4000 +RA BKN010=
200805260720 METAR COR EGLL 260720Z 05015KT 4500 RA FEW009 BKN014 12/10
                        Q1009 TEMPO 05020G30KT +RA BKN009=
200805260650 METAR COR EGLL 260650Z 06014KT 4800 RA SCT009 BKN013 12/11
                        Q1009 TEMPO 06018G28KT +RA BKN008=
200805260620 METAR COR EGLL 260620Z 05014KT 5000 RA BKN009 OVC015 12/11
                        Q1009 TEMPO 05018G28KT 2000 +RA=
200805260550 METAR EGLL 260550Z 05014KT 5000 -RA BKN009 13/11 Q1009 TEMPO
                        05018G28KT 2000 +RA=
200805260520 METAR EGLL 260520Z 05014KT 5000 -RA BKN008 13/11 Q1009 TEMPO
                        05018G28KT 2000 +RA=
200805260450 METAR COR EGLL 260450Z 05012KT 010V070 5000 -DZ BKN008 13/11
                        Q1009 TEMPO 05017G27KT 2000 +RA=
200805260420 METAR COR EGLL 260420Z 05010KT 4500 -RA BKN008 13/12 Q1010
                        RERA TEMPO 05017G27KT 2000 +RA=
200805260350 METAR EGLL 260350Z 05010KT 5000 RA BKN007 13/12 Q1010 TEMPO
                        05015G25KT 2000 +RA=
200805260320 METAR COR EGLL 260320Z 06011KT 6000 -RA BKN006 13/11 Q1010
                        TEMPO 06017G27KT 3000 +RA=
200805260250 METAR EGLL 260250Z 05010KT 6000 -RA OVC006 13/11 Q1011 TEMPO
                        05017G27KT 2000 +RA=
200805260220 METAR COR EGLL 260220Z 05012G23KT 020V080 6000 -RA OVC006
                        12/11 Q1011 TEMPO 3000 RA BKN010=
200805260150 METAR COR EGLL 260150Z 05013KT 6000 OVC006 12/11 Q1011 NOSIG=
200805260120 METAR EGLL 260120Z AUTO 05010KT R09R/P1500 OVC005/// 12/11
                        Q1011=
200805260050 METAR EGLL 260050Z AUTO 05011KT R09R/P1500 OVC005/// 12/11
                        Q1012=
200805260020 METAR EGLL 260020Z AUTO 04009KT 360V080 R09R/P1500 OVC005///
                        12/11 Q1012=
200805252350 METAR COR EGLL 252350Z 05010KT 6000 BKN006 12/11 Q1013 NOSIG=
200805252320 METAR COR EGLL 252320Z 04009KT 010V070 6000 BKN005 12/11
                        Q1013 TEMPO 4000 -DZ BKN004=
200805252250 METAR COR EGLL 252250Z 05010KT 010V080 6000 BKN005 12/11
                        Q1013 NOSIG=
200805252220 METAR EGLL 252220Z NIL=
200805252150 METAR COR EGLL 252150Z 06011KT 6000 FEW004 BKN006 13/11 Q1013
                        TEMPO 4000 -DZ BKN004=
200805252120 METAR EGLL 252120Z 05011KT 020V080 5000 BR BKN004 13/12 Q1013
                        TEMPO 4000 -DZ=
200805252050 METAR COR EGLL 252050Z 05009KT 010V070 5000 BR BKN005 13/12
                        Q1013 TEMPO 4000 -DZ BKN004=
200805252020 METAR COR EGLL 252020Z 05010KT 5000 BR BKN005 13/12 Q1013
                        TEMPO 4000 -DZ BKN004=
200805251950 METAR COR EGLL 251950Z 05008KT 4500 HZ BKN005 13/12 Q1013
                        TEMPO 6000 NSW=
200805251920 METAR COR EGLL 251920Z 05009KT 010V070 6000 BKN006 13/11
                        Q1013 TEMPO 4000 -DZ=
200805251850 METAR COR EGLL 251850Z 06007KT 020V080 6000 BKN006 13/11
                        Q1013 TEMPO 4000 -DZ=
200805251820 METAR EGLL 251820Z 04008KT 6000 BKN007 13/11 Q1013 TEMPO
                        4000 - DZ=
200805251750 METAR COR EGLL 251750Z 05009KT 7000 OVC007 14/12 Q1013 TEMPO
                        4000 - DZ=
200805251720 METAR COR EGLL 251720Z 05009KT 9000 BKN007 BKN010 14/12 Q1012
                        TEMPO 4000 -DZ=
200805251650 METAR COR EGLL 251650Z 04008KT 010V070 9000 BKN008 15/12
                        Q1012 TEMPO 4000 -DZ=
200805251620 METAR COR EGLL 251620Z 04010KT 360V080 9000 OVC009 16/13
                        Q1012 TEMPO BKN011=
200805251550 METAR COR EGLL 251550Z 06010KT 9999 7000NW VCSH BKN011 16/13
                        Q1012 NOSIG=
200805251520 METAR COR EGLL 251520Z 05008KT 9999 SCT011 SCT016 17/13 Q1012
                        BECMG BKN012=
200805251450 METAR COR EGLL 251450Z 05009KT 010V080 9999 SCT010 SCT015
                        17/14 Q1011 BECMG BKN012=
200805251420 METAR COR EGLL 251420Z 04008KT 9999 VCSH FEW009 SCT013 BKN021
                        17/14 Q1011 TEMPO SHRA=
200805251350 METAR EGLL 251350Z 02005KT 350V070 9999 VCSH SCT019 BKN037
                        19/13 Q1011 NOSIG=
200805251320 METAR COR EGLL 251320Z VRB04KT 9999 SCT019 BKN042 19/13 Q1011
                        NOSIG=
200805251250 METAR EGLL 251250Z VRB03KT 9999 FEW014 BKN036 18/14 Q1011
                        NOSIG=
200805251220 METAR COR EGLL 251220Z 17006KT 130V200 9999 FEW010 SCT024
                        BKN034 17/13 Q1011 NOSIG=
200805251150 METAR COR EGLL 251150Z VRB03KT 9999 FEW011 SCT021 BKN032
                        17/14 Q1011 NOSIG=
200805251120 METAR COR EGLL 251120Z VRB02KT 9999 FEW005 BKN033 15/13 Q1010
                        NOSIG=
200805251050 METAR EGLL 251050Z 07007KT 7000 -RA BKN006 OVC010 15/14 Q1010
                        BECMG BKN010=
200805251020 METAR EGLL 251020Z 05005KT 010V080 6000 -RA SCT005 OVC008
                        15/13 Q1010 BECMG BKN010=
200805250950 METAR COR EGLL 250950Z 06005KT 9999 BKN006 OVC008 14/13 Q1010
                        BECMG BKN010=
200805250920 METAR COR EGLL 250920Z 06006KT 6000 -RA FEW005 BKN006 OVC008
                        FEW020CB 14/13 Q1010 RERA BECMG BKN010=
200805250850 METAR COR EGLL 250850Z 06006KT 5000 RA BKN006 OVC008 14/13
                        Q1009 TEMPO 3000 BKN004=
200805250820 METAR COR EGLL 250820Z 05006KT 010V080 4200 RA SCT005 OVC010
                        13/12 Q1009 TEMPO BKN005=
200805250750 METAR COR EGLL 250750Z 06008KT 2500 RA SCT005 OVC010 13/12
                        Q1009 TEMPO BKN005=
200805250720 METAR EGLL 250720Z 06009KT 3500 RA FEW006 BKN008 OVC010 13/12
                        Q1009 NOSIG=
200805250650 METAR COR EGLL 250650Z 06010KT 6000 -RA BKN008 OVC011 13/12
                        Q1008 RERA BECMG 3000 RADZ=
200805250620 METAR COR EGLL 250620Z 05010KT 4800 RA BKN009 OVC012 13/11
                        Q1008 NOSIG=
200805250550 METAR COR EGLL 250550Z 05009KT 6000 -RA BKN010 OVC012 13/11
                        Q1008 BECMG 3000 BKN007=
200805250520 METAR EGLL 250520Z 05009KT 6000 -RA BKN012 13/11 Q1008 BECMG
                        3500 RADZ BKN007=
200805250450 METAR EGLL 250450Z 05010KT 9999 -RA SCT010 BKN013 13/11 Q1008=
200805250420 METAR COR EGLL 250420Z 05009KT 9999 BKN013 BKN018 13/11 Q1008
                        BECMG 4500 -RADZ BKN008=
200805250350 METAR COR EGLL 250350Z 05010KT 9999 -DZ BKN015 BKN027 12/10
                        Q1007 NOSIG=
200805250320 METAR COR EGLL 250320Z 04008KT 9999 BKN018 12/10 Q1007 RERA
                        BECMG BKN012=
200805250250 METAR COR EGLL 250250Z 04007KT 010V080 9999 RA BKN018 12/10
                        Q1008 NOSIG=
200805250220 METAR EGLL 250220Z 04009KT 9999 RA FEW022 BKN048 12/10 Q1008
                        BECMG BKN014=
200805250150 METAR COR EGLL 250150Z 04009KT 9999 RA BKN044 12/10 Q1008
                        NOSIG=
200805250120 METAR EGLL 250120Z AUTO 04009G20KT 010V070 -RA NCD 13/09
                        Q1008 RERA=
200805250050 METAR EGLL 250050Z AUTO 05009KT 010V080 -RA NCD 13/09 Q1009=
200805250020 METAR EGLL 250020Z AUTO 04009KT -RA NCD 13/09 Q1009=
200805242350 METAR COR EGLL 242350Z 05011KT 020V080 9999 -RA NSC 14/08
                        Q1009 NOSIG=
200805242320 METAR EGLL 242320Z 04010KT 340V070 CAVOK 14/07 Q1009 NOSIG=
200805242250 METAR EGLL 242250Z 04011KT 350V080 CAVOK 15/07 Q1009 NOSIG=
200805242220 METAR EGLL 242220Z 04012KT CAVOK 15/06 Q1009 NOSIG=
200805242150 METAR COR EGLL 242150Z 04010G20KT 010V080 CAVOK 16/06 Q1009
                        NOSIG=
200805242120 METAR COR EGLL 242120Z 05012KT 360V070 CAVOK 16/06 Q1009
                        NOSIG=
200805242050 METAR COR EGLL 242050Z 04012G22KT 360V070 CAVOK 16/07 Q1009
                        NOSIG=
200805242020 METAR COR EGLL 242020Z 04012G22KT CAVOK 17/07 Q1009 NOSIG=
200805241950 METAR COR EGLL 241950Z 05012KT 010V080 CAVOK 17/07 Q1009
                        NOSIG=
200805241920 METAR EGLL 241920Z 04011KT 360V070 CAVOK 18/08 Q1009 NOSIG=
200805241850 METAR COR EGLL 241850Z 05013KT CAVOK 18/08 Q1009 NOSIG=
200805241820 METAR COR EGLL 241820Z 05013KT 010V080 9999 FEW046 19/08
                        Q1008 TEMPO 05015G25KT=
200805241750 METAR EGLL 241750Z 06015KT 9999 FEW046 19/09 Q1008 TEMPO
                        06016G26KT=
200805241720 METAR COR EGLL 241720Z 06017KT 9999 FEW048 20/08 Q1008 TEMPO
                        06018G28KT=
200805241650 METAR EGLL 241650Z 06017KT CAVOK 20/07 Q1009 TEMPO 06018G28KT=
200805241620 METAR COR EGLL 241620Z 06015KT CAVOK 20/08 Q1009 TEMPO 06017G27KT=
200805241550 METAR COR EGLL 241550Z 06017G27KT CAVOK 20/08 Q1009 NOSIG=
200805241520 METAR EGLL 241520Z 06016G26KT CAVOK 21/08 Q1009 NOSIG=
200805241450 METAR COR EGLL 241450Z 06015KT CAVOK 21/08 Q1009 TEMPO 06017G27KT=
200805241420 METAR EGLL 241420Z 07016KT 9999 FEW049 21/08 Q1009 TEMPO
                        07017G27KT=
200805241350 METAR COR EGLL 241350Z 06016KT CAVOK 21/08 Q1009 TEMPO 06017G27KT=
200805241320 METAR EGLL 241320Z 06014KT 020V090 9999 SCT049 21/08 Q1009
                        TEMPO 06016G26KT=
200805241250 METAR COR EGLL 241250Z 06015KT 9999 SCT044 22/09 Q1010 NOSIG=
200805241220 METAR COR EGLL 241220Z 06013KT 9999 SCT045 21/10 Q1010 NOSIG=
200805241150 METAR EGLL 241150Z 06015KT 9999 SCT045 21/09 Q1010 NOSIG=
200805241120 METAR COR EGLL 241120Z 06014KT 9999 SCT042 21/09 Q1010 NOSIG=
200805241050 METAR EGLL 241050Z 06012KT 020V080 9999 FEW042 20/10 Q1010
                        NOSIG=
200805241020 METAR EGLL 241020Z 06012KT 9999 FEW040 19/10 Q1010 NOSIG=
200805240950 METAR COR EGLL 240950Z 06013KT 030V090 9999 FEW040 20/10
                        Q1010 NOSIG=
200805240920 METAR EGLL 240920Z 05010KT CAVOK 19/10 Q1010 NOSIG=
200805240850 METAR COR EGLL 240850Z 05011KT 010V080 CAVOK 18/11 Q1010
                        NOSIG=
200805240820 METAR COR EGLL 240820Z 06010KT CAVOK 17/10 Q1011 NOSIG=
200805240750 METAR EGLL 240750Z 05009KT 360V080 CAVOK 16/10 Q1011 NOSIG=
200805240720 METAR COR EGLL 240720Z 05008KT 010V080 CAVOK 15/10 Q1011
                        NOSIG=
200805240650 METAR COR EGLL 240650Z 05009KT CAVOK 14/10 Q1011 NOSIG=
200805240620 METAR COR EGLL 240620Z 05007KT CAVOK 14/09 Q1011 NOSIG=
200805240550 METAR EGLL 240550Z 05007KT CAVOK 13/09 Q1011 NOSIG=
200805240520 METAR COR EGLL 240520Z 05007KT 010V080 CAVOK 13/09 Q1011
                        NOSIG=
200805240450 METAR EGLL 240450Z 05006KT CAVOK 13/09 Q1011 NOSIG=
200805240420 METAR COR EGLL 240420Z 05007KT CAVOK 13/08 Q1011 NOSIG=
200805240350 METAR EGLL 240350Z 05006KT CAVOK 13/07 Q1011 NOSIG=
200805240320 METAR COR EGLL 240320Z 04005KT CAVOK 13/05 Q1011 NOSIG=
200805240250 METAR EGLL 240250Z 05007KT CAVOK 13/05 Q1011 NOSIG=
200805240220 METAR EGLL 240220Z 06008KT 010V080 CAVOK 13/05 Q1011 NOSIG=
200805240150 METAR COR EGLL 240150Z 06009KT CAVOK 14/04 Q1011 NOSIG=
200805240120 METAR EGLL 240120Z AUTO 06011KT 9999NDV NCD 14/04 Q1011=
200805240050 METAR EGLL 240050Z AUTO 06012KT 9999NDV NCD 14/06 Q1011=
200805240020 METAR EGLL 240020Z AUTO 07008KT 9999NDV NCD 15/06 Q1011=
200805232350 METAR EGLL 232350Z 07010KT CAVOK 15/07 Q1011 NOSIG=
200805232320 METAR COR EGLL 232320Z 06009KT CAVOK 15/07 Q1012 NOSIG=
200805232250 METAR EGLL 232250Z 06010KT CAVOK 15/07 Q1012 NOSIG=
200805232220 METAR COR EGLL 232220Z 06008KT CAVOK 15/08 Q1012 NOSIG=
200805232150 METAR COR EGLL 232150Z 05007KT CAVOK 15/07 Q1012 NOSIG=
200805232120 METAR COR EGLL 232120Z 06007KT 010V080 CAVOK 16/07 Q1012
                        NOSIG=
200805232050 METAR COR EGLL 232050Z 06007KT CAVOK 16/07 Q1012 NOSIG=
200805232020 METAR EGLL 232020Z 07007KT CAVOK 16/07 Q1012 NOSIG=
200805231950 METAR COR EGLL 231950Z 07006KT CAVOK 16/07 Q1011 NOSIG=
200805231920 METAR COR EGLL 231920Z 09010KT CAVOK 17/07 Q1011 NOSIG=
200805231850 METAR COR EGLL 231850Z 09010KT CAVOK 17/07 Q1011 NOSIG=
200805231820 METAR COR EGLL 231820Z 09012KT CAVOK 18/07 Q1011 NOSIG=
200805231750 METAR COR EGLL 231750Z 09011KT CAVOK 19/06 Q1011 NOSIG=
200805231720 METAR EGLL 231720Z 09010KT CAVOK 19/08 Q1011=
200805231650 METAR COR EGLL 231650Z 10009KT CAVOK 20/10 Q1011 NOSIG=
200805231620 METAR EGLL 231620Z VRB03KT CAVOK 20/10 Q1011 NOSIG=
200805231550 METAR EGLL 231550Z VRB02KT CAVOK 20/09 Q1012 NOSIG=
200805231520 METAR COR EGLL 231520Z VRB02KT 9999 FEW040 18/11 Q1012 NOSIG=
200805231450 METAR EGLL 231450Z 15005KT 9999 -SHRA FEW034 19/10 Q1012
                        NOSIG=
200805231420 METAR COR EGLL 231420Z VRB02KT CAVOK 20/08 Q1012 TEMPO SHRA=
200805231350 METAR COR EGLL 231350Z 21003KT 9999 -SHRA SCT032 18/09 Q1012
                        TEMPO SHRA=
200805231320 METAR COR EGLL 231320Z 19009KT 9999 -SHRA FEW040 17/10 Q1012
                        TEMPO SHRA=
200805231250 METAR COR EGLL 231250Z 20007KT 170V240 9999 6000S VCSH FEW040
                        18/10 Q1012 TEMPO SHRA=
200805231220 METAR COR EGLL 231220Z VRB03KT 9999 FEW044 19/08 Q1012 NOSIG=
200805231150 METAR COR EGLL 231150Z 21006KT 9999 FEW040 18/08 Q1013 NOSIG=
200805231120 METAR COR EGLL 231120Z 15006KT 9999 VCSH NSC 19/09 Q1013
                        NOSIG=
200805231050 METAR COR EGLL 231050Z 12007KT 090V160 CAVOK 18/09 Q1013
                        NOSIG=
200805231020 METAR EGLL 231020Z 10007KT CAVOK 17/10 Q1013 NOSIG=
200805230950 METAR EGLL 230950Z 09008KT 8000 NSC 17/10 Q1013 NOSIG=
200805230920 METAR EGLL 230920Z 09009KT 7000 NSC 16/10 Q1013 NOSIG=
200805230850 METAR COR EGLL 230850Z 08006KT 040V120 5000 HZ NSC 17/10
                        Q1013 NOSIG=
200805230820 METAR COR EGLL 230820Z 06005KT 4500 HZ NSC 15/10 Q1013 BECMG
                        6000 NSW=
200805230750 METAR COR EGLL 230750Z 06005KT 4500 HZ NSC 14/10 Q1013 BECMG
                        6000 NSW=
200805230720 METAR COR EGLL 230720Z 07004KT 040V110 4400 DZ NSC 13/10
                        Q1013 BECMG 7000 NSW=
200805230650 METAR COR EGLL 230650Z 05004KT 4000 HZ NSC 13/10 Q1013 BECMG
                        7000 NSW=
200805230620 METAR COR EGLL 230620Z 06004KT 3800 HZ FEW035 13/10 Q1013
                        BECMG 7000 NSW=
200805230550 METAR COR EGLL 230550Z 04005KT 4000 -RA SCT035 13/10 Q1012
                        BECMG 7000 NSW=
200805230520 METAR EGLL 230520Z 06005KT 4000 -RA FEW016 13/10 Q1012 BECMG
                        7000 NSW=
200805230450 METAR COR EGLL 230450Z 05004KT 4000 BR FEW030 13/09 Q1012
                        BECMG 7000 NSW=
200805230420 METAR COR EGLL 230420Z 06006KT 4500 -RA NSC 13/10 Q1012 NOSIG=
200805230350 METAR EGLL 230350Z 00000KT 4500 BR NSC 13/09 Q1013 NOSIG=
200805230320 METAR COR EGLL 230320Z 04005KT 5000 DZ NSC 13/09 Q1013 TEMPO
                        4000 BR=
200805230250 METAR COR EGLL 230250Z VRB03KT 5000 -RA NSC 13/09 Q1013 NOSIG=
200805230220 METAR EGLL 230220Z NIL=
200805230150 METAR COR EGLL 230150Z 06005KT 7000 NSC 13/08 Q1013 NOSIG=
200805230120 METAR EGLL 230120Z AUTO 06005KT NCD 14/08 Q1013=
200805230050 METAR EGLL 230050Z AUTO 06005KT NCD 14/08 Q1013=
200805230020 METAR EGLL 230020Z AUTO 05005KT 9000NDV NCD 14/08 Q1014=
200805222350 METAR COR EGLL 222350Z 06005KT CAVOK 14/07 Q1014 NOSIG=
200805222320 METAR EGLL 222320Z NIL=
200805222250 METAR EGLL 222250Z 07005KT CAVOK 12/06 Q1014 NOSIG=
200805222220 METAR COR EGLL 222220Z 08005KT CAVOK 12/05 Q1014 NOSIG=
200805222150 METAR COR EGLL 222150Z 09005KT CAVOK 14/05 Q1014 NOSIG=
200805222120 METAR EGLL 222120Z 09006KT CAVOK 14/04 Q1014 NOSIG=
200805222050 METAR EGLL 222050Z 11007KT CAVOK 14/04 Q1014 NOSIG=
200805222020 METAR COR EGLL 222020Z 09005KT CAVOK 15/04 Q1014 NOSIG=
200805221950 METAR EGLL 221950Z 10006KT CAVOK 15/04 Q1013 NOSIG=
200805221920 METAR EGLL 221920Z 10006KT CAVOK 17/04 Q1013 NOSIG=
200805221850 METAR EGLL 221850Z 11008KT CAVOK 18/04 Q1013 NOSIG=
200805221820 METAR COR EGLL 221820Z 12008KT CAVOK 18/04 Q1013 NOSIG=
200805221750 METAR EGLL 221750Z 11010KT CAVOK 19/04 Q1013 NOSIG=
200805221720 METAR COR EGLL 221720Z 12010KT CAVOK 19/04 Q1013 NOSIG=
200805221650 METAR COR EGLL 221650Z 12010KT CAVOK 20/03 Q1013 NOSIG=
200805221620 METAR COR EGLL 221620Z 16007KT CAVOK 20/02 Q1013 NOSIG=
200805221550 METAR COR EGLL 221550Z 15007KT 120V190 CAVOK 20/03 Q1013
                        NOSIG=
200805221520 METAR EGLL 221520Z 11009KT 090V150 CAVOK 20/02 Q1013=
200805221450 METAR EGLL 221450Z 11009KT CAVOK 21/03 Q1013 NOSIG=
200805221420 METAR COR EGLL 221420Z 13009KT CAVOK 21/02 Q1013 NOSIG=
200805221350 METAR EGLL 221350Z 14008KT 100V170 CAVOK 20/02 Q1013 NOSIG=
200805221320 METAR COR EGLL 221320Z 13008KT 100V170 CAVOK 21/02 Q1013
                        NOSIG=
200805221250 METAR COR EGLL 221250Z 13010KT CAVOK 20/02 Q1013 NOSIG=
200805221220 METAR EGLL 221220Z 14009KT 100V180 CAVOK 21/03 Q1013 NOSIG=
200805221150 METAR COR EGLL 221150Z 13007KT 080V160 CAVOK 22/03 Q1014
                        NOSIG=
200805221120 METAR EGLL 221120Z 14009KT 100V190 CAVOK 21/02 Q1014 NOSIG=
200805221050 METAR COR EGLL 221050Z 13009KT 090V170 CAVOK 21/03 Q1014
                        NOSIG=
200805221020 METAR COR EGLL 221020Z 16010KT CAVOK 21/03 Q1014 NOSIG=
200805220950 METAR COR EGLL 220950Z 12005KT 050V160 9999 FEW048 20/07
                        Q1014 NOSIG=
200805220920 METAR EGLL 220920Z 13006KT 070V180 9999 FEW040 19/09 Q1014
                        NOSIG=
200805220850 METAR COR EGLL 220850Z 10004KT 060V150 6000 NSC 18/10 Q1014
                        NOSIG=
200805220820 METAR COR EGLL 220820Z VRB02KT 6000 NSC 17/10 Q1014 NOSIG=
200805220750 METAR COR EGLL 220750Z 10005KT 050V130 6000 NSC 15/10 Q1014
                        NOSIG=
200805220720 METAR EGLL 220720Z 07004KT 010V130 4800 HZ NSC 14/10 Q1014=
200805220650 METAR COR EGLL 220650Z VRB03KT 4500 HZ NSC 14/10 Q1014 BECMG
                        6000=
200805220620 METAR EGLL 220620Z 05004KT 020V120 5000 2400NE HZ NSC 12/10
                        Q1014 NOSIG=
200805220550 METAR COR EGLL 220550Z 05004KT 020V080 4200 2000NE HZ NSC
                        11/09 Q1014 NOSIG=
200805220520 METAR COR EGLL 220520Z 03004KT 4200 1700NE BR NSC 10/08 Q1014
                        BECMG 6000 NSW=
200805220450 METAR EGLL 220450Z 04004KT 4200 1700NE BR NSC 10/08 Q1014
                        NOSIG=
200805220420 METAR COR EGLL 220420Z 04004KT 4200 BR NSC 09/07 Q1014 BECMG
                        7000 NSW=
200805220350 METAR COR EGLL 220350Z 03003KT 4800 BR NSC 09/08 Q1014 BECMG
                        7000 NSW=
200805220320 METAR COR EGLL 220320Z VRB03KT 4800 BR NSC 09/07 Q1014 NOSIG=
200805220250 METAR EGLL 220250Z 03005KT 5000 BR NSC 09/08 Q1014 NOSIG=
200805220220 METAR COR EGLL 220220Z 04004KT 5000 BR NSC 10/08 Q1014 NOSIG=
200805220150 METAR COR EGLL 220150Z 04004KT 6000 NSC 09/08 Q1015 NOSIG=
200805220120 METAR EGLL 220120Z AUTO 03004KT NCD 10/08 Q1015=
200805220050 METAR EGLL 220050Z AUTO 03003KT NCD 10/08 Q1015=
200805220020 METAR EGLL 220020Z AUTO 05004KT NCD 10/09 Q1015=
200805212350 METAR EGLL 212350Z 06005KT 8000 NSC 11/09 Q1015 NOSIG=
200805212320 METAR EGLL 212320Z 08007KT 8000 NSC 10/08 Q1015 NOSIG=
200805212250 METAR COR EGLL 212250Z 08006KT 9000 NSC 11/08 Q1016 NOSIG=
200805212220 METAR EGLL 212220Z 09008KT 9000 NSC 10/08 Q1016 NOSIG=
200805212150 METAR COR EGLL 212150Z 09011KT CAVOK 11/08 Q1016 NOSIG=
200805212120 METAR EGLL 212120Z 08009KT CAVOK 12/07 Q1016 NOSIG=
200805212050 METAR COR EGLL 212050Z 08010KT CAVOK 12/07 Q1016 NOSIG=
200805212020 METAR COR EGLL 212020Z 09010KT CAVOK 12/07 Q1015 NOSIG=
200805211950 METAR EGLL 211950Z 09011KT CAVOK 13/06 Q1015 NOSIG=
200805211920 METAR EGLL 211920Z 09013KT CAVOK 14/06 Q1015 NOSIG=
200805211850 METAR EGLL 211850Z 09012KT CAVOK 15/05 Q1015 NOSIG=
200805211820 METAR COR EGLL 211820Z 10012KT CAVOK 15/05 Q1015 NOSIG=
200805211750 METAR COR EGLL 211750Z 09013KT CAVOK 16/05 Q1015 NOSIG=
200805211720 METAR COR EGLL 211720Z 09011KT CAVOK 17/06 Q1015 NOSIG=
200805211650 METAR COR EGLL 211650Z 10011KT CAVOK 17/05 Q1015 NOSIG=
200805211620 METAR COR EGLL 211620Z 09012KT CAVOK 18/06 Q1015 NOSIG=
200805211550 METAR COR EGLL 211550Z 10012KT CAVOK 18/06 Q1015 NOSIG=
200805211520 METAR COR EGLL 211520Z 07010KT 040V110 CAVOK 19/06 Q1015
                        NOSIG=
200805211450 METAR EGLL 211450Z 10011KT CAVOK 19/06 Q1015 NOSIG=
200805211420 METAR EGLL 211420Z 08010KT 040V110 CAVOK 19/06 Q1015 NOSIG=
200805211350 METAR COR EGLL 211350Z 09010KT CAVOK 19/05 Q1016 NOSIG=
200805211320 METAR EGLL 211320Z 08009KT CAVOK 18/05 Q1016 NOSIG=
200805211250 METAR COR EGLL 211250Z 11009KT CAVOK 18/06 Q1016 NOSIG=
200805211220 METAR COR EGLL 211220Z 07008KT 030V110 CAVOK 18/06 Q1016
                        NOSIG=
200805211150 METAR EGLL 211150Z 10008KT 050V170 CAVOK 18/05 Q1016 NOSIG=
200805211120 METAR EGLL 211120Z 10009KT 060V130 CAVOK 19/05 Q1016 NOSIG=
200805211050 METAR EGLL 211050Z 12008KT 080V170 9999 SCT048 17/05 Q1017
                        NOSIG=
200805211020 METAR COR EGLL 211020Z 11009KT 060V130 9999 SCT049 16/05
                        Q1017 NOSIG=
200805210950 METAR COR EGLL 210950Z 09009KT 9999 FEW047 17/05 Q1017 NOSIG=
200805210920 METAR COR EGLL 210920Z 10011KT 9999 FEW035 16/06 Q1017 NOSIG=
200805210850 METAR COR EGLL 210850Z 09009KT 050V120 CAVOK 15/08 Q1017
                        NOSIG=
200805210820 METAR COR EGLL 210820Z 09010KT CAVOK 14/08 Q1017 NOSIG=
200805210750 METAR COR EGLL 210750Z 10009KT CAVOK 13/08 Q1017 NOSIG=
200805210720 METAR COR EGLL 210720Z 08006KT 060V130 CAVOK 12/08 Q1017
                        NOSIG=
200805210650 METAR COR EGLL 210650Z 07006KT CAVOK 10/07 Q1017 NOSIG=
200805210620 METAR COR EGLL 210620Z 06005KT 020V080 9999 NSC 09/06 Q1017
                        NOSIG=
200805210550 METAR EGLL 210550Z 04004KT 360V070 9000 NSC 08/06 Q1017 NOSIG=
200805210520 METAR EGLL 210520Z 03005KT CAVOK 07/05 Q1017 NOSIG=
200805210450 METAR EGLL 210450Z VRB03KT 9999 BKN049 06/05 Q1017 NOSIG=
200805210420 METAR COR EGLL 210420Z 02003KT 9999 SCT049 06/04 Q1017 NOSIG=
200805210350 METAR COR EGLL 210350Z VRB03KT CAVOK 06/04 Q1017 NOSIG=
200805210320 METAR COR EGLL 210320Z 02003KT CAVOK 06/04 Q1018 NOSIG=
200805210250 METAR EGLL 210250Z 03004KT CAVOK 06/04 Q1018 NOSIG=
200805210220 METAR COR EGLL 210220Z 03005KT CAVOK 06/04 Q1018 NOSIG=
200805210150 METAR COR EGLL 210150Z 03005KT CAVOK 06/04 Q1018 NOSIG=
200805210120 METAR EGLL 210120Z AUTO 04005KT 9999NDV NCD 07/04 Q1018=
200805210050 METAR EGLL 210050Z AUTO 03005KT 9999NDV NCD 08/04 Q1019=
200805210020 METAR EGLL 210020Z AUTO 04004KT 9999NDV NCD 08/05 Q1019=
200805202350 METAR COR EGLL 202350Z 06006KT CAVOK 09/04 Q1019 NOSIG=
200805202320 METAR COR EGLL 202320Z 06007KT CAVOK 09/04 Q1019 NOSIG=
200805202250 METAR EGLL 202250Z 06007KT CAVOK 09/05 Q1019=
200805202220 METAR COR EGLL 202220Z 07005KT CAVOK 09/04 Q1019 NOSIG=
200805202150 METAR COR EGLL 202150Z 09007KT CAVOK 10/04 Q1019 NOSIG=
200805202120 METAR COR EGLL 202120Z 09009KT CAVOK 09/04 Q1019 NOSIG=
200805202050 METAR EGLL 202050Z 09008KT CAVOK 09/04 Q1019 NOSIG=
200805202020 METAR COR EGLL 202020Z 10009KT CAVOK 10/04 Q1019 NOSIG=
200805201950 METAR COR EGLL 201950Z 10009KT 9999 FEW048 11/03 Q1019 NOSIG=
200805201920 METAR COR EGLL 201920Z 10009KT CAVOK 11/04 Q1019 NOSIG=
200805201850 METAR COR EGLL 201850Z 07008KT 9999 FEW048 13/03 Q1019 NOSIG=
200805201820 METAR COR EGLL 201820Z 09010KT 9999 FEW048 13/04 Q1018 NOSIG=
200805201750 METAR COR EGLL 201750Z 09010KT CAVOK 14/04 Q1018 NOSIG=
200805201720 METAR COR EGLL 201720Z 07010KT 9999 SCT046 14/04 Q1018 NOSIG=
200805201650 METAR COR EGLL 201650Z 07011KT 040V100 9999 SCT047 14/04
                        Q1018 NOSIG=
200805201620 METAR COR EGLL 201620Z 09010KT 040V140 CAVOK 15/04 Q1018
                        NOSIG=
200805201550 METAR COR EGLL 201550Z 07009KT 010V110 CAVOK 16/03 Q1018
                        NOSIG=
200805201520 METAR EGLL 201520Z 08009KT 050V110 CAVOK 15/02 Q1018 NOSIG=
200805201450 METAR COR EGLL 201450Z 05007KT 360V090 CAVOK 16/02 Q1018
                        NOSIG=
200805201420 METAR COR EGLL 201420Z 13009KT CAVOK 16/03 Q1018 NOSIG=
200805201350 METAR COR EGLL 201350Z 08007KT CAVOK 15/03 Q1019 NOSIG=
200805201320 METAR COR EGLL 201320Z 06007KT 010V090 CAVOK 15/03 Q1019
                        NOSIG=
200805201250 METAR COR EGLL 201250Z 06008KT 020V090 9999 FEW048 14/03
                        Q1019 NOSIG=
200805201220 METAR COR EGLL 201220Z 06008KT 020V100 9999 FEW048 14/03
                        Q1019 NOSIG=
200805201150 METAR COR EGLL 201150Z 06008KT 9999 BKN045 14/04 Q1019 NOSIG=
200805201120 METAR EGLL 201120Z 05007KT 360V080 9999 BKN046 16/04 Q1019
                        NOSIG=
200805201050 METAR EGLL 201050Z 06007KT 9999 SCT044 14/03 Q1019=
200805201020 METAR COR EGLL 201020Z 05008KT 9999 SCT043 13/03 Q1019 NOSIG=
200805200950 METAR EGLL 200950Z 09009KT 9999 SCT043 14/03 Q1019 NOSIG=
200805200920 METAR COR EGLL 200920Z 07008KT 020V090 9999 SCT040 14/04
                        Q1019 NOSIG=
200805200850 METAR COR EGLL 200850Z 09008KT 050V130 9999 FEW029 13/05
                        Q1019 NOSIG=
200805200820 METAR COR EGLL 200820Z 07009KT 040V100 9999 FEW028 12/05
                        Q1019 NOSIG=
200805200750 METAR COR EGLL 200750Z 06010KT 9999 FEW025 11/05 Q1019 NOSIG=
200805200720 METAR EGLL 200720Z 06008KT CAVOK 10/05 Q1019 NOSIG=
200805200650 METAR COR EGLL 200650Z 06008KT CAVOK 09/04 Q1019 NOSIG=
200805200620 METAR COR EGLL 200620Z 05005KT 010V080 9999 FEW029 08/04
                        Q1019 NOSIG=
200805200550 METAR COR EGLL 200550Z 05005KT 010V080 9999 FEW025 07/03
                        Q1019 NOSIG=
200805200520 METAR COR EGLL 200520Z 04004KT 360V070 CAVOK 06/03 Q1019
                        NOSIG=
200805200450 METAR COR EGLL 200450Z VRB03KT CAVOK 05/02 Q1019 NOSIG=
200805200420 METAR COR EGLL 200420Z VRB03KT CAVOK 05/02 Q1019 NOSIG=
200805200350 METAR EGLL 200350Z VRB03KT CAVOK 05/03 Q1019 NOSIG=
200805200320 METAR COR EGLL 200320Z VRB03KT CAVOK 04/02 Q1019 NOSIG=
200805200250 METAR COR EGLL 200250Z 36003KT CAVOK 05/03 Q1019 NOSIG=
200805200220 METAR COR EGLL 200220Z 36004KT CAVOK 05/03 Q1019 NOSIG=
200805200150 METAR COR EGLL 200150Z 02004KT CAVOK 06/03 Q1019 NOSIG=
200805200120 METAR EGLL 200120Z AUTO 03004KT 9999NDV NCD 06/03 Q1019=
200805200050 METAR EGLL 200050Z AUTO 03004KT 360V060 9999NDV NCD 07/03
                        Q1019=
200805200020 METAR EGLL 200020Z AUTO 03004KT 9999NDV NCD 08/03 Q1019=
200805192350 METAR COR EGLL 192350Z 04004KT CAVOK 08/03 Q1019 NOSIG=
200805192320 METAR COR EGLL 192320Z 06005KT CAVOK 08/03 Q1019 NOSIG=
200805192250 METAR EGLL 192250Z 06005KT CAVOK 07/03 Q1019 NOSIG=
200805192220 METAR COR EGLL 192220Z 07006KT CAVOK 08/04 Q1019 NOSIG=
200805192150 METAR COR EGLL 192150Z 08005KT CAVOK 09/03 Q1019 NOSIG=
200805192120 METAR COR EGLL 192120Z 09006KT 9999 FEW037 08/03 Q1019 NOSIG=
200805192050 METAR COR EGLL 192050Z 09007KT 9999 FEW037 09/03 Q1019 NOSIG=
200805192020 METAR COR EGLL 192020Z 08006KT 9999 FEW035 09/04 Q1018 NOSIG=
200805191950 METAR COR EGLL 191950Z 07007KT 9999 FEW035 11/03 Q1018 NOSIG=
200805191920 METAR COR EGLL 191920Z 06008KT 9999 FEW037 11/04 Q1018 NOSIG=
200805191850 METAR COR EGLL 191850Z 07007KT 9999 FEW039 11/04 Q1018 NOSIG=
200805191820 METAR COR EGLL 191820Z 07007KT 9999 FEW039 12/04 Q1018 NOSIG=
200805191750 METAR COR EGLL 191750Z 07009KT 9999 FEW043 12/03 Q1018 NOSIG=
200805191720 METAR COR EGLL 191720Z 06008KT 9999 FEW041 12/03 Q1018 NOSIG=
200805191650 METAR COR EGLL 191650Z 05009KT 010V080 9999 FEW048 13/03
                        Q1018 NOSIG=
200805191620 METAR COR EGLL 191620Z 06007KT 030V100 9999 FEW048 13/01
                        Q1018 NOSIG=
200805191550 METAR EGLL 191550Z 06008KT CAVOK 12/02 Q1018 NOSIG=
200805191520 METAR COR EGLL 191520Z 07009KT 9999 BKN047 12/02 Q1018 NOSIG=
200805191450 METAR COR EGLL 191450Z 07006KT 040V100 9999 FEW048 13/03
                        Q1018 NOSIG=
200805191420 METAR COR EGLL 191420Z 07009KT 9999 FEW048 13/02 Q1018 NOSIG=
200805191350 METAR COR EGLL 191350Z 06008KT 010V080 9999 FEW049 13/02
                        Q1018 NOSIG=
200805191320 METAR COR EGLL 191320Z 06009KT 9999 FEW048 14/01 Q1018 NOSIG=
200805191250 METAR COR EGLL 191250Z 07008KT 9999 SCT048 13/02 Q1018 NOSIG=
200805191220 METAR COR EGLL 191220Z 05008KT 020V080 9999 SCT049 13/02
                        Q1018 NOSIG=
200805191150 METAR COR EGLL 191150Z 06010KT 020V090 9999 FEW043 13/02
                        Q1018 NOSIG=
200805191120 METAR COR EGLL 191120Z 06009KT 010V090 9999 FEW046 13/03
                        Q1018 NOSIG=
200805191050 METAR COR EGLL 191050Z 05008KT 010V080 9999 SCT043 12/02
                        Q1018 NOSIG=
200805191020 METAR COR EGLL 191020Z 05008KT 010V090 9999 FEW039 SCT042
                        12/02 Q1018 NOSIG=
200805190950 METAR COR EGLL 190950Z 06008KT 020V080 9999 SCT039 BKN044
                        12/03 Q1018 NOSIG=
200805190920 METAR COR EGLL 190920Z 05008KT 010V080 9999 BKN042 12/03
                        Q1018 NOSIG=
200805190850 METAR COR EGLL 190850Z 04008KT 330V080 9999 FEW042 SCT047
                        11/01 Q1018 NOSIG=
200805190820 METAR COR EGLL 190820Z 04008KT 350V080 9999 FEW030 SCT035
                        11/03 Q1018 NOSIG=
200805190750 METAR COR EGLL 190750Z 03007KT 350V080 9999 SCT030 10/04
                        Q1018 NOSIG=
200805190720 METAR COR EGLL 190720Z 01006KT 340V060 CAVOK 10/04 Q1018
                        NOSIG=
200805190650 METAR COR EGLL 190650Z 02005KT 350V060 CAVOK 09/04 Q1018
                        NOSIG=
200805190620 METAR EGLL 190620Z 02005KT 300V060 CAVOK 08/03 Q1018 NOSIG=
200805190550 METAR COR EGLL 190550Z 36005KT 330V040 CAVOK 07/03 Q1018
                        NOSIG=
200805190520 METAR COR EGLL 190520Z 36005KT 330V040 CAVOK 06/03 Q1018
                        NOSIG=
200805190450 METAR EGLL 190450Z 36005KT 330V040 CAVOK 05/02 Q1018 NOSIG=
200805190420 METAR EGLL 190420Z NIL=
200805190350 METAR COR EGLL 190350Z 36004KT CAVOK 04/02 Q1017 NOSIG=
200805190320 METAR COR EGLL 190320Z 36005KT CAVOK 05/02 Q1017 NOSIG=
200805190250 METAR COR EGLL 190250Z 36004KT CAVOK 05/02 Q1017 NOSIG=
200805190220 METAR COR EGLL 190220Z 36005KT CAVOK 05/02 Q1017 NOSIG=
200805190150 METAR COR EGLL 190150Z 35005KT CAVOK 05/02 Q1017 NOSIG=
200805190120 METAR EGLL 190120Z AUTO 36004KT 9999NDV NCD 05/02 Q1018=
200805190050 METAR EGLL 190050Z AUTO 03004KT 340V060 9999NDV NCD 06/02
                        Q1018=
200805190020 METAR EGLL 190020Z AUTO 04004KT 350V070 9999NDV NCD 07/02
                        Q1018=
200805182350 METAR COR EGLL 182350Z 05005KT CAVOK 07/02 Q1018 NOSIG=
200805182320 METAR COR EGLL 182320Z 05005KT CAVOK 08/02 Q1018 NOSIG=
200805182250 METAR COR EGLL 182250Z 04005KT CAVOK 08/02 Q1018 NOSIG=
200805182220 METAR COR EGLL 182220Z 04005KT 360V060 CAVOK 09/03 Q1018
                        NOSIG=
200805182150 METAR COR EGLL 182150Z 04006KT 010V070 CAVOK 10/02 Q1017
                        NOSIG=
200805182120 METAR COR EGLL 182120Z 05007KT CAVOK 10/02 Q1017 NOSIG=
200805182050 METAR COR EGLL 182050Z 04007KT 350V080 CAVOK 11/03 Q1017
                        NOSIG=
200805182020 METAR EGLL 182020Z 04007KT 360V070 CAVOK 11/03 Q1017 NOSIG=
200805181950 METAR COR EGLL 181950Z 06009KT 020V080 CAVOK 12/02 Q1016
                        NOSIG=
200805181920 METAR COR EGLL 181920Z 06009KT CAVOK 12/03 Q1016 NOSIG=
200805181850 METAR COR EGLL 181850Z 04009KT 360V080 9999 FEW045 13/03
                        Q1015 NOSIG=
200805181820 METAR COR EGLL 181820Z 05009KT CAVOK 13/03 Q1015 NOSIG=
200805181750 METAR COR EGLL 181750Z 04009KT 9999 FEW048 13/03 Q1015 NOSIG=
200805181720 METAR EGLL 181720Z 04007KT 010V080 CAVOK 13/01 Q1015 NOSIG=
200805181650 METAR COR EGLL 181650Z 05009KT 020V080 CAVOK 14/03 Q1015
                        NOSIG=
200805181620 METAR COR EGLL 181620Z 04007KT 010V070 CAVOK 14/02 Q1015
                        NOSIG=
200805181550 METAR COR EGLL 181550Z 06008KT CAVOK 14/01 Q1014 NOSIG=
200805181520 METAR COR EGLL 181520Z 03009KT 360V060 CAVOK 14/02 Q1014
                        NOSIG=
200805181450 METAR COR EGLL 181450Z 05008KT 350V090 CAVOK 15/03 Q1014
                        NOSIG=
200805181420 METAR COR EGLL 181420Z 03009KT 360V070 CAVOK 15/03 Q1014
                        NOSIG=
200805181350 METAR COR EGLL 181350Z 05008KT 360V090 CAVOK 15/02 Q1014
                        NOSIG=
200805181320 METAR COR EGLL 181320Z 05009KT 010V080 CAVOK 15/02 Q1014
                        NOSIG=
200805181250 METAR COR EGLL 181250Z 08010KT 040V110 CAVOK 16/02 Q1014
                        NOSIG=
200805181220 METAR COR EGLL 181220Z 04010KT 360V070 CAVOK 15/02 Q1014
                        NOSIG=
200805181150 METAR COR EGLL 181150Z 05009KT 010V080 9999 BKN048 14/03
                        Q1014 NOSIG=
200805181120 METAR COR EGLL 181120Z 05009KT 280V080 9999 SCT049 14/03
                        Q1014 NOSIG=
200805181050 METAR COR EGLL 181050Z 06010KT 030V090 9999 SCT045 14/03
                        Q1014 NOSIG=
200805181020 METAR COR EGLL 181020Z 06010KT 010V090 9999 BKN046 14/03
                        Q1014 NOSIG=
200805180950 METAR COR EGLL 180950Z 05010KT 010V080 9999 BKN040 14/04
                        Q1014 NOSIG=
200805180920 METAR COR EGLL 180920Z 06008KT 020V090 9999 BKN039 13/04
                        Q1014 NOSIG=
200805180850 METAR COR EGLL 180850Z 05008KT 010V070 9999 SCT036 13/04
                        Q1014 NOSIG=
200805180820 METAR COR EGLL 180820Z 06011KT 9999 FEW032 12/04 Q1014 NOSIG=
200805180750 METAR COR EGLL 180750Z 06010KT 010V080 9999 FEW026 12/05
                        Q1014 NOSIG=
200805180720 METAR COR EGLL 180720Z 06011KT 010V080 9999 FEW024 11/05
                        Q1013 NOSIG=
200805180650 METAR COR EGLL 180650Z 05009KT 020V080 9999 FEW020 10/05
                        Q1013 NOSIG=
200805180620 METAR EGLL 180620Z 05009KT 9999 FEW016 10/05 Q1013 NOSIG=
200805180550 METAR COR EGLL 180550Z 05008KT 010V080 CAVOK 09/05 Q1013
                        NOSIG=
200805180520 METAR COR EGLL 180520Z 05007KT 020V090 CAVOK 09/05 Q1013
                        NOSIG=
200805180450 METAR COR EGLL 180450Z 04006KT 010V080 CAVOK 08/05 Q1013
                        NOSIG=
200805180420 METAR COR EGLL 180420Z 04006KT CAVOK 08/05 Q1012 NOSIG=
200805180350 METAR COR EGLL 180350Z 04006KT CAVOK 08/05 Q1012 NOSIG=
200805180320 METAR COR EGLL 180320Z 03005KT CAVOK 08/05 Q1012 NOSIG=
200805180250 METAR COR EGLL 180250Z 04006KT CAVOK 09/06 Q1012 NOSIG=
200805180220 METAR COR EGLL 180220Z 05006KT 360V080 CAVOK 09/06 Q1012
                        NOSIG=
200805180150 METAR COR EGLL 180150Z 05007KT CAVOK 09/06 Q1012 NOSIG=
200805180120 METAR EGLL 180120Z AUTO 05007KT 9999NDV NCD 10/06 Q1012=
200805180050 METAR EGLL 180050Z AUTO 05006KT 020V080 FEW040/// 10/06 Q1012=
200805180020 METAR EGLL 180020Z AUTO 05006KT 020V080 FEW040/// 10/07 Q1012=
200805172350 METAR COR EGLL 172350Z 06006KT 020V080 9999 BKN032 10/07
                        Q1012 NOSIG=
200805172320 METAR COR EGLL 172320Z 06007KT 9999 FEW017 BKN030 10/07 Q1012
                        NOSIG=
200805172250 METAR COR EGLL 172250Z 06011KT 9999 -RA SCT013 SCT018 11/08
                        Q1012 NOSIG=
200805172220 METAR COR EGLL 172220Z 06007KT 9999 -RA BKN013 11/08 Q1012
                        BECMG FEW013 BKN030=
200805172150 METAR COR EGLL 172150Z 06008KT 9999 -RA SCT014 SCT018 11/09
                        Q1011 NOSIG=
200805172120 METAR COR EGLL 172120Z 06005KT 9999 FEW013 BKN037 11/09 Q1011
                        NOSIG=
200805172050 METAR EGLL 172050Z 06005KT 030V090 9999 FEW018 SCT040 11/09
                        Q1011=
200805172020 METAR COR EGLL 172020Z 07005KT 9999 -RA FEW020 SCT027 BKN045
                        11/09 Q1011 NOSIG=
200805171950 METAR COR EGLL 171950Z 07007KT 9999 -RA FEW035 SCT042 11/09
                        Q1010 NOSIG=
200805171920 METAR COR EGLL 171920Z 06009KT 9999 FEW016 11/08 Q1010 NOSIG=
200805171850 METAR EGLL 171850Z 06007KT 9999 -DZ FEW014 SCT024 12/09 Q1010
                        NOSIG=
200805171820 METAR COR EGLL 171820Z 07008KT 9999 SCT017 SCT025 12/09 Q1010
                        NOSIG=
200805171750 METAR COR EGLL 171750Z 07008KT 9999 FEW015 SCT032 BKN049
                        12/09 Q1009 NOSIG=
200805171720 METAR COR EGLL 171720Z 07009KT 9999 FEW020 BKN038 12/09 Q1009
                        NOSIG=
200805171650 METAR COR EGLL 171650Z 07009KT 9999 FEW015 BKN019 BKN029
                        12/09 Q1009 NOSIG=
200805171620 METAR COR EGLL 171620Z 06007KT 9999 BKN020 BKN031 12/09 Q1009
                        NOSIG=
200805171550 METAR COR EGLL 171550Z 07006KT 9999 FEW013 SCT020 BKN025
                        12/10 Q1009 NOSIG=
200805171520 METAR COR EGLL 171520Z 06009KT 9999 FEW010 SCT018 BKN022
                        12/10 Q1009 NOSIG=
200805171450 METAR COR EGLL 171450Z 06008KT 9999 7000SW FEW010 SCT020
                        BKN028 12/10 Q1009 NOSIG=
200805171420 METAR COR EGLL 171420Z 06008KT 9999 SCT015 BKN026 12/10 Q1008
                        NOSIG=
200805171350 METAR COR EGLL 171350Z 05007KT 9999 -RA FEW010 SCT015 BKN026
                        12/10 Q1008 TEMPO SHRA=
200805171320 METAR EGLL 171320Z 03005KT 340V070 9999 VCSH FEW009 SCT014
                        BKN023 13/10 Q1008 TEMPO BKN014=
200805171250 METAR COR EGLL 171250Z 06008KT 9999 4800N -DZ FEW009 SCT014
                        BKN027 12/10 Q1008 TEMPO BKN014=
200805171220 METAR COR EGLL 171220Z 06005KT 020V090 9999 FEW012 SCT024
                        BKN038 12/10 Q1008 TEMPO -RA BKN014=
200805171150 METAR EGLL 171150Z 06005KT 020V100 9999 -DZ SCT020 BKN024
                        12/09 Q1008 NOSIG=
200805171120 METAR COR EGLL 171120Z 06005KT 9999 -DZ BKN020 12/09 Q1008
                        NOSIG=
200805171050 METAR COR EGLL 171050Z 05005KT 020V080 9999 -RA BKN025 12/09
                        Q1008 NOSIG=
200805171020 METAR COR EGLL 171020Z 05006KT 010V090 9999 BKN023 13/08
                        Q1008 NOSIG=
200805170950 METAR COR EGLL 170950Z 06006KT 9999 SCT020 BKN024 13/08 Q1008
                        NOSIG=
200805170920 METAR COR EGLL 170920Z 06007KT 9999 SCT020 BKN023 12/08 Q1008
                        NOSIG=
200805170850 METAR COR EGLL 170850Z 06009KT 9999 SCT019 BKN030 12/08 Q1008
                        NOSIG=
200805170820 METAR COR EGLL 170820Z 07009KT 9999 SCT016 BKN036 12/08 Q1008
                        NOSIG=
200805170750 METAR COR EGLL 170750Z 07007KT 030V090 9999 SCT013 BKN036
                        12/08 Q1008 NOSIG=
200805170720 METAR COR EGLL 170720Z 06007KT 9999 FEW015 11/08 Q1007 NOSIG=
200805170650 METAR COR EGLL 170650Z 05005KT 9999 FEW013 11/08 Q1007 NOSIG=
200805170620 METAR COR EGLL 170620Z 06006KT CAVOK 11/08 Q1007 NOSIG=
200805170550 METAR COR EGLL 170550Z 05005KT 010V080 CAVOK 11/08 Q1007
                        NOSIG=
200805170520 METAR COR EGLL 170520Z 04005KT 020V080 9999 FEW015 10/08
                        Q1007 TEMPO BKN014=
200805170450 METAR COR EGLL 170450Z 05005KT 010V070 9999 FEW030 10/08
                        Q1007 NOSIG=
200805170420 METAR COR EGLL 170420Z 05005KT 010V080 9999 BKN040 10/08
                        Q1007 NOSIG=
200805170350 METAR COR EGLL 170350Z 05004KT 020V080 9999 SCT039 10/08
                        Q1007 NOSIG=
200805170320 METAR EGLL 170320Z NIL=
200805170250 METAR COR EGLL 170250Z 05003KT CAVOK 10/08 Q1007 NOSIG=
200805170220 METAR EGLL 170220Z NIL=
200805170150 METAR COR EGLL 170150Z 06008KT 9999 FEW015 BKN034 11/08 Q1008
                        NOSIG=
200805170120 METAR EGLL 170120Z AUTO 05004KT 010V080 BKN034/// 11/08 Q1008=
200805170050 METAR EGLL 170050Z AUTO 07006KT 030V100 FEW030/// OVC036///
                        11/08 Q1008=
200805170020 METAR EGLL 170020Z AUTO 07007KT OVC037/// 12/08 Q1008=
200805162350 METAR COR EGLL 162350Z 06006KT 9999 FEW019 BKN030 12/08 Q1008
                        NOSIG=
200805162320 METAR COR EGLL 162320Z 05004KT 010V090 9999 BKN029 11/09
                        Q1008 NOSIG=
200805162250 METAR COR EGLL 162250Z 08007KT 9999 -RA FEW021 OVC026 12/09
                        Q1009 NOSIG=
200805162220 METAR COR EGLL 162220Z 07006KT 9999 BKN019 12/08 Q1009 NOSIG=
200805162150 METAR EGLL 162150Z 06005KT 020V090 9999 FEW020 OVC029 13/09
                        Q1009 NOSIG=
200805162120 METAR COR EGLL 162120Z 06005KT 9999 FEW020 OVC030 12/09 Q1009
                        NOSIG=
200805162050 METAR COR EGLL 162050Z 05005KT 020V080 9999 FEW020 OVC031
                        13/09 Q1008 NOSIG=
200805162020 METAR COR EGLL 162020Z 05004KT 9999 OVC026 13/09 Q1008 NOSIG=
200805161950 METAR COR EGLL 161950Z 06006KT 9999 BKN023 13/09 Q1008 NOSIG=
200805161920 METAR COR EGLL 161920Z 06006KT 9999 SCT019 BKN022 12/09 Q1008
                        NOSIG=
200805161850 METAR COR EGLL 161850Z 06006KT 9999 FEW014 OVC021 12/09 Q1008
                        NOSIG=
200805161820 METAR COR EGLL 161820Z 06005KT 020V090 9999 FEW013 OVC017
                        13/09 Q1008 NOSIG=
200805161750 METAR COR EGLL 161750Z 05005KT 010V080 9999 FEW015 SCT022
                        13/10 Q1008 NOSIG=
200805161720 METAR COR EGLL 161720Z 05005KT 010V070 9999 SCT013 BKN019
                        13/10 Q1008 TEMPO BKN013=
200805161650 METAR COR EGLL 161650Z 06006KT 9999 BKN013 13/10 Q1008 NOSIG=
200805161620 METAR COR EGLL 161620Z 07007KT 9999 BKN013 13/10 Q1008 NOSIG=
200805161550 METAR COR EGLL 161550Z 07006KT 9999 BKN014 13/10 Q1008 TEMPO
                        BKN016=
200805161520 METAR COR EGLL 161520Z 08004KT 030V110 9999 BKN013 13/09
                        Q1008 NOSIG=
200805161450 METAR COR EGLL 161450Z 07005KT 9999 OVC013 13/09 Q1008 NOSIG=
200805161420 METAR COR EGLL 161420Z 07005KT 9999 OVC014 13/09 Q1009 TEMPO
                        BKN016=
200805161350 METAR COR EGLL 161350Z 06004KT 020V090 9999 BKN013 13/09
                        Q1009 TEMPO SCT013 BKN016=
200805161320 METAR COR EGLL 161320Z 06005KT 9999 BKN013 12/09 Q1009 TEMPO
                        SCT014 BKN020=
200805161250 METAR COR EGLL 161250Z 07005KT 020V090 9999 BKN014 12/09
                        Q1009 TEMPO SCT014 BKN018=
200805161220 METAR COR EGLL 161220Z 07006KT 9999 BKN014 12/09 Q1009 TEMPO
                        SCT014 BKN018=
200805161150 METAR COR EGLL 161150Z 07006KT 040V110 9999 BKN014 12/09
                        Q1009 TEMPO SCT014 BKN016=
200805161120 METAR COR EGLL 161120Z 05005KT 010V080 9999 BKN014 12/09
                        Q1009 TEMPO SCT014 BKN020=
200805161050 METAR EGLL 161050Z 06006KT 8000 FEW012 OVC015 12/09 Q1009
                        TEMPO BKN012=
200805161020 METAR COR EGLL 161020Z 07005KT 020V100 9999 BKN013 11/09
                        Q1009 TEMPO SCT013 BKN016=
200805160950 METAR COR EGLL 160950Z 05006KT 9999 BKN011 11/09 Q1009 TEMPO
                        SCT011 BKN016=
200805160920 METAR COR EGLL 160920Z 04005KT 9999 FEW007 BKN010 11/09 Q1009
                        TEMPO SCT010 BKN015=
200805160850 METAR EGLL 160850Z 04006KT 350V070 7000 FEW007 BKN015 11/09
                        Q1009 TEMPO BKN010=
200805160820 METAR EGLL 160820Z 05005KT 7000 BKN012 11/09 Q1009=
200805160750 METAR COR EGLL 160750Z 06006KT 7000 OVC012 11/09 Q1009 TEMPO
                        SCT012 BKN015=
200805160720 METAR COR EGLL 160720Z 06005KT 340V090 9999 SCT016 BKN020
                        11/08 Q1009 NOSIG=
200805160650 METAR COR EGLL 160650Z 06005KT 030V090 9999 SCT016 BKN022
                        11/08 Q1009 NOSIG=
200805160620 METAR EGLL 160620Z 05005KT 020V080 9999 BKN020 BKN024 10/08
                        Q1009=
200805160550 METAR COR EGLL 160550Z VRB03KT 9999 FEW014 BKN020 BKN025
                        10/07 Q1009 TEMPO BKN014=
200805160520 METAR COR EGLL 160520Z 02006KT 330V050 9999 FEW020 BKN025
                        10/07 Q1009 NOSIG=
200805160450 METAR COR EGLL 160450Z 04004KT 010V070 9999 FEW016 OVC027
                        10/07 Q1009 TEMPO BKN014=
200805160420 METAR COR EGLL 160420Z 02005KT 340V060 9999 FEW015 OVC025
                        10/07 Q1009 TEMPO BKN014=
200805160350 METAR EGLL 160350Z 05005KT 020V090 9999 BKN015 BKN021 10/07
                        Q1009 TEMPO 8000 BKN012=
200805160320 METAR COR EGLL 160320Z 04005KT 360V090 9999 BKN015 BKN028
                        10/07 Q1009 TEMPO BKN012=
200805160250 METAR COR EGLL 160250Z 06005KT 9999 BKN014 11/07 Q1009 TEMPO
                        BKN016=
200805160220 METAR COR EGLL 160220Z 06005KT 9999 BKN016 BKN028 11/07 Q1009
                        NOSIG=
200805160150 METAR EGLL 160150Z 06006KT 9999 BKN028 BKN034 11/06 Q1009
                        NOSIG=
200805160120 METAR EGLL 160120Z AUTO 05007KT 030V090 FEW028/// BKN035///
                        BKN042/// 11/07 Q1009=
200805160050 METAR EGLL 160050Z AUTO 06007KT 030V100 FEW028/// OVC038///
                        11/07 Q1009=
200805160020 METAR EGLL 160020Z AUTO 05007KT BKN027/// 11/07 Q1010=
200805152350 METAR EGLL 152350Z 06007KT 9999 BKN027 11/06 Q1010 NOSIG=
200805152320 METAR COR EGLL 152320Z 06008KT 9999 BKN026 12/07 Q1010 NOSIG=
200805152250 METAR COR EGLL 152250Z 06006KT 9999 SCT027 12/06 Q1010 NOSIG=
200805152220 METAR EGLL 152220Z 07006KT 9999 BKN025 12/07 Q1010 NOSIG=
200805152150 METAR EGLL 152150Z 07009KT 9999 OVC021 12/07 Q1010 NOSIG=
200805152120 METAR EGLL 152120Z 07010KT 9999 OVC020 12/07 Q1010 NOSIG=
200805152050 METAR EGLL 152050Z 06010KT 9999 BKN020 13/08 Q1010=
200805152020 METAR COR EGLL 152020Z 06009KT 9999 FEW019 BKN023 13/09 Q1010
                        NOSIG=
200805151950 METAR COR EGLL 151950Z 07009KT 9999 FEW016 BKN030 13/10 Q1009
                        NOSIG=
200805151920 METAR COR EGLL 151920Z 07008KT 9999 FEW018 BKN027 14/10 Q1009
                        NOSIG=
200805151850 METAR COR EGLL 151850Z 06008KT 9999 FEW016 BKN023 14/11 Q1009
                        NOSIG=
200805151820 METAR COR EGLL 151820Z 07008KT 9999 BKN014 14/11 Q1009 TEMPO
                        BKN016=
200805151750 METAR COR EGLL 151750Z 05007KT 020V080 9999 BKN014 15/12
                        Q1009 TEMPO BKN016=
200805151720 METAR COR EGLL 151720Z 05005KT 010V080 9999 FEW015 BKN019
                        15/12 Q1009 NOSIG=
200805151650 METAR COR EGLL 151650Z 06005KT 9999 FEW015 BKN019 15/12 Q1009
                        TEMPO BKN014=
200805151620 METAR COR EGLL 151620Z 05005KT 9999 BKN014 15/11 Q1009 TEMPO
                        BKN016=
200805151550 METAR COR EGLL 151550Z 04006KT 350V070 9999 BKN015 14/11
                        Q1009 TEMPO BKN014=
200805151520 METAR COR EGLL 151520Z 04006KT 010V080 9999 BKN013 14/12
                        Q1009 TEMPO SCT013=
200805151450 METAR COR EGLL 151450Z 04005KT 350V080 9999 FEW013 BKN015
                        14/11 Q1010 TEMPO BKN014=
200805151420 METAR COR EGLL 151420Z 05004KT 9999 FEW010 BKN012 14/11 Q1010
                        NOSIG=
200805151350 METAR COR EGLL 151350Z 04006KT 010V080 9000 FEW010 BKN012
                        14/12 Q1010 NOSIG=
200805151320 METAR COR EGLL 151320Z 05006KT 010V080 9000 FEW009 BKN012
                        14/12 Q1010 TEMPO SCT012=
200805151250 METAR COR EGLL 151250Z 04005KT 360V070 8000 FEW009 BKN012
                        14/11 Q1010 TEMPO SCT012=
200805151220 METAR EGLL 151220Z 05007KT 8000 FEW008 BKN011 13/11 Q1010
                        TEMPO SCT011=
200805151150 METAR COR EGLL 151150Z 03005KT 350V060 8000 -RA BKN011 13/11
                        Q1010 BECMG SCT012 BKN015=
200805151120 METAR EGLL 151120Z 04004KT 330V080 8000 -RADZ SCT009 BKN012
                        12/10 Q1011 BECMG SCT012 BKN020=
200805151050 METAR COR EGLL 151050Z 05006KT 010V080 8000 -DZ SCT008 BKN012
                        12/10 Q1011 BECMG SCT012 BKN020=
200805151020 METAR COR EGLL 151020Z 03007KT 350V070 7000 -RA FEW008 SCT014
                        BKN018 12/10 Q1010 TEMPO RA BKN014=
200805150950 METAR COR EGLL 150950Z 04007KT 6000 -RA FEW009 SCT013 BKN018
                        12/10 Q1010 TEMPO RA BKN013=
200805150920 METAR COR EGLL 150920Z 05007KT 6000 -RA FEW009 SCT012 OVC017
                        11/10 Q1011 TEMPO RA BKN012=
200805150850 METAR COR EGLL 150850Z 05006KT 5000 -RA SCT013 OVC016 11/09
                        Q1011 RERA TEMPO 4500 RA BKN013=
200805150820 METAR COR EGLL 150820Z 05006KT 010V080 6000 RA SCT013 BKN016
                        11/09 Q1011 TEMPO 4500 BKN013=
200805150750 METAR COR EGLL 150750Z 05007KT 6000 RA SCT014 BKN016 11/09
                        Q1011 TEMPO 4500 RA BKN014=
200805150720 METAR EGLL 150720Z 04006KT 9000 -DZ SCT013 BKN016 11/09 Q1010
                        TEMPO RA BKN013=
200805150650 METAR COR EGLL 150650Z 05007KT 9000 -DZ FEW013 OVC015 11/08
                        Q1010 TEMPO RA BKN013=
200805150620 METAR COR EGLL 150620Z 05007KT 010V080 9999 FEW014 BKN018
                        11/08 Q1011 NOSIG=
200805150550 METAR COR EGLL 150550Z 05007KT 010V090 9999 FEW014 BKN019
                        11/08 Q1011 TEMPO BKN014=
200805150520 METAR COR EGLL 150520Z 05006KT 020V080 9999 FEW014 10/08
                        Q1010 NOSIG=
200805150450 METAR COR EGLL 150450Z 05007KT 010V080 9999 -RA FEW031 10/08
                        Q1010 NOSIG=
200805150420 METAR COR EGLL 150420Z 04006KT 9999 FEW047 10/08 Q1010 NOSIG=
200805150350 METAR EGLL 150350Z 05006KT 010V090 9999 -RA NSC 10/07 Q1010
                        NOSIG=
200805150320 METAR COR EGLL 150320Z 04006KT 010V080 9999 -RA NSC 10/08
                        Q1010 NOSIG=
200805150250 METAR COR EGLL 150250Z 05007KT 010V070 CAVOK 11/08 Q1011
                        NOSIG=
200805150220 METAR EGLL 150220Z 04007KT 010V080 CAVOK 11/08 Q1011 NOSIG=
200805150150 METAR COR EGLL 150150Z 05008KT CAVOK 11/07 Q1011 NOSIG=
200805150120 METAR EGLL 150120Z AUTO 04007KT 360V070 9999NDV NCD 11/07
                        Q1011=
200805150050 METAR EGLL 150050Z AUTO 05007KT 9999NDV NCD 11/07 Q1012=
200805150020 METAR EGLL 150020Z AUTO 04008KT 9999NDV NCD 11/08 Q1012=
200805142350 METAR COR EGLL 142350Z 05006KT 010V080 CAVOK 11/08 Q1013
                        NOSIG=
200805142320 METAR COR EGLL 142320Z 05007KT CAVOK 12/07 Q1013 NOSIG=
200805142250 METAR COR EGLL 142250Z 04008KT 010V070 CAVOK 12/08 Q1013
                        NOSIG=
200805142220 METAR COR EGLL 142220Z 04009KT CAVOK 12/08 Q1013 NOSIG=
200805142150 METAR COR EGLL 142150Z 05007KT 020V080 CAVOK 13/08 Q1013
                        NOSIG=
200805142120 METAR COR EGLL 142120Z 05007KT 010V080 CAVOK 13/09 Q1013
                        NOSIG=
200805142050 METAR COR EGLL 142050Z 04009KT 010V070 CAVOK 13/09 Q1013
                        NOSIG=
200805142020 METAR COR EGLL 142020Z 04009KT 360V070 CAVOK 14/09 Q1013
                        NOSIG=
200805141950 METAR COR EGLL 141950Z 03008KT 360V060 CAVOK 15/10 Q1013
                        NOSIG=
200805141920 METAR COR EGLL 141920Z 03010KT 360V060 9999 FEW037 16/10
                        Q1012 NOSIG=
200805141850 METAR COR EGLL 141850Z 03008KT 340V060 CAVOK 17/10 Q1012
                        NOSIG=
200805141820 METAR COR EGLL 141820Z 04010KT 010V070 CAVOK 18/10 Q1012
                        NOSIG=
200805141750 METAR COR EGLL 141750Z 04008KT 010V070 9999 FEW037 19/09
                        Q1012 NOSIG=
200805141720 METAR COR EGLL 141720Z 05009KT 010V080 9999 FEW032 19/11
                        Q1012 NOSIG=
200805141650 METAR COR EGLL 141650Z 05010KT 9999 FEW040 19/10 Q1012 NOSIG=
200805141620 METAR COR EGLL 141620Z 05011KT 360V080 9999 FEW040 20/10
                        Q1012 NOSIG=
200805141550 METAR COR EGLL 141550Z 04011KT 360V080 9999 FEW036 20/10
                        Q1012 NOSIG=
200805141520 METAR COR EGLL 141520Z 04011KT 350V070 CAVOK 20/11 Q1013
                        NOSIG=
200805141450 METAR COR EGLL 141450Z 04011KT 360V070 9999 FEW032 20/11
                        Q1013 NOSIG=
200805141420 METAR COR EGLL 141420Z 04010KT 340V080 CAVOK 19/12 Q1013
                        NOSIG=
200805141350 METAR COR EGLL 141350Z 05011KT 010V080 9999 FEW028 19/11
                        Q1014 NOSIG=
200805141320 METAR EGLL 141320Z 05010KT 360V080 9999 FEW028 19/11 Q1014
                        NOSIG=
200805141250 METAR COR EGLL 141250Z 06010KT 030V090 9999 FEW028 19/12
                        Q1015 NOSIG=
200805141220 METAR COR EGLL 141220Z 05010KT 010V090 CAVOK 18/11 Q1015
                        NOSIG=
200805141150 METAR EGLL 141150Z 05009KT 360V080 CAVOK 19/11 Q1015=
200805141120 METAR COR EGLL 141120Z 04009KT 360V070 CAVOK 18/11 Q1015
                        NOSIG=
200805141050 METAR COR EGLL 141050Z 04010KT 360V080 CAVOK 18/11 Q1015
                        NOSIG=
200805141020 METAR COR EGLL 141020Z 05008KT CAVOK 16/10 Q1015 NOSIG=
200805140950 METAR EGLL 140950Z 04007KT 360V070 CAVOK 16/11 Q1015 NOSIG=
200805140920 METAR COR EGLL 140920Z 04008KT 010V080 CAVOK 14/09 Q1016
                        NOSIG=
200805140850 METAR COR EGLL 140850Z 04009KT CAVOK 15/09 Q1016 NOSIG=
200805140820 METAR COR EGLL 140820Z 04009KT 360V070 CAVOK 14/09 Q1016
                        NOSIG=
200805140750 METAR COR EGLL 140750Z 05008KT CAVOK 13/09 Q1016 NOSIG=
200805140720 METAR COR EGLL 140720Z 04008KT 9999 FEW014 13/09 Q1016 NOSIG=
200805140650 METAR COR EGLL 140650Z 04008KT 010V080 9999 FEW013 12/09
                        Q1016 NOSIG=
200805140620 METAR COR EGLL 140620Z 05008KT 010V080 9999 FEW012 12/09
                        Q1016 NOSIG=
200805140550 METAR COR EGLL 140550Z 05006KT 350V080 CAVOK 11/09 Q1016
                        NOSIG=
200805140520 METAR COR EGLL 140520Z 04006KT CAVOK 11/08 Q1016 TEMPO 9999
                        BKN014=
200805140450 METAR EGLL 140450Z 04007KT 010V080 9999 FEW012 11/08 Q1016
                        NOSIG=
200805140420 METAR COR EGLL 140420Z 04006KT 010V070 9999 FEW013 11/08
                        Q1016 NOSIG=
200805140350 METAR EGLL 140350Z 05008KT 020V080 9999 SCT012 11/08 Q1017
                        TEMPO BKN012=
200805140320 METAR EGLL 140320Z NIL=
200805140250 METAR COR EGLL 140250Z 05008KT 9999 FEW013 11/08 Q1017 NOSIG=
200805140220 METAR COR EGLL 140220Z 05006KT 010V080 9999 FEW012 11/09
                        Q1017 NOSIG=
200805140150 METAR EGLL 140150Z 05007KT 9999 SCT013 12/09 Q1017 TEMPO
                        BKN012=
200805140120 METAR EGLL 140120Z AUTO 05009KT BKN013/// 12/09 Q1017=
200805140050 METAR EGLL 140050Z AUTO 05008KT BKN013/// 12/09 Q1018=
200805140020 METAR EGLL 140020Z AUTO 05007KT 010V080 SCT014/// 12/08 Q1018=
200805132350 METAR EGLL 132350Z NIL=
200805132320 METAR COR EGLL 132320Z 04009KT 9999 SCT014 12/09 Q1018 TEMPO
                        BKN012=
200805132250 METAR EGLL 132250Z 05010KT 020V080 9999 SCT014 13/09 Q1018
                        TEMPO BKN012=
200805132220 METAR COR EGLL 132220Z 05010KT 010V080 9999 SCT012 13/09
                        Q1018 NOSIG=
200805132150 METAR COR EGLL 132150Z 05009KT 350V080 9999 FEW015 13/10
                        Q1018 NOSIG=
200805132120 METAR EGLL 132120Z 05008KT 9999 FEW015 14/10 Q1018 NOSIG=
200805132050 METAR COR EGLL 132050Z 04009KT 360V070 CAVOK 15/11 Q1018
                        NOSIG=
200805132020 METAR COR EGLL 132020Z 04009KT 350V070 CAVOK 16/11 Q1017
                        NOSIG=
200805131950 METAR COR EGLL 131950Z 03010KT CAVOK 16/12 Q1017 NOSIG=
200805131920 METAR EGLL 131920Z 04009KT 010V070 CAVOK 17/11 Q1017 NOSIG=
200805131850 METAR EGLL 131850Z 03010KT 360V070 CAVOK 18/11 Q1017 NOSIG=
200805131820 METAR COR EGLL 131820Z 03009KT CAVOK 19/12 Q1017 NOSIG=
200805131750 METAR COR EGLL 131750Z 03011KT 360V070 CAVOK 20/11 Q1016
                        NOSIG=
200805131720 METAR COR EGLL 131720Z 05010KT 020V080 CAVOK 21/10 Q1016
                        NOSIG=
200805131650 METAR COR EGLL 131650Z 04009KT 360V090 CAVOK 21/09 Q1016
                        NOSIG=
200805131620 METAR COR EGLL 131620Z 05011KT 020V090 CAVOK 21/09 Q1016
                        NOSIG=
200805131550 METAR COR EGLL 131550Z 06011KT 030V090 CAVOK 22/09 Q1016
                        NOSIG=
200805131520 METAR COR EGLL 131520Z 06012KT 020V090 CAVOK 22/09 Q1017
                        NOSIG=
200805131450 METAR EGLL 131450Z 06013KT CAVOK 22/09 Q1017 NOSIG=
200805131420 METAR COR EGLL 131420Z 05010KT 010V080 CAVOK 22/10 Q1017
                        NOSIG=
200805131350 METAR COR EGLL 131350Z 04011KT 360V080 CAVOK 21/11 Q1017
                        NOSIG=
200805131320 METAR EGLL 131320Z 04010KT 010V080 CAVOK 21/11 Q1017=
200805131250 METAR COR EGLL 131250Z 05010KT 010V080 CAVOK 21/11 Q1018
                        NOSIG=
200805131220 METAR EGLL 131220Z 05011KT CAVOK 20/10 Q1018 NOSIG=
200805131150 METAR COR EGLL 131150Z 05010KT 010V090 CAVOK 20/10 Q1018
                        NOSIG=
200805131120 METAR COR EGLL 131120Z 05011KT 020V080 CAVOK 20/11 Q1018
                        NOSIG=
200805131050 METAR COR EGLL 131050Z 04011KT CAVOK 19/10 Q1018 NOSIG=
200805131020 METAR COR EGLL 131020Z 04010KT 360V080 CAVOK 18/10 Q1019
                        NOSIG=
200805130950 METAR COR EGLL 130950Z 04011KT 360V070 CAVOK 18/10 Q1019
                        NOSIG=
200805130920 METAR COR EGLL 130920Z 05010KT CAVOK 17/09 Q1019 NOSIG=
200805130850 METAR COR EGLL 130850Z 05009KT 360V080 CAVOK 15/09 Q1019
                        NOSIG=
200805130820 METAR COR EGLL 130820Z 03010KT CAVOK 15/08 Q1019 NOSIG=
200805130750 METAR COR EGLL 130750Z 04010KT CAVOK 14/08 Q1019 NOSIG=
200805130720 METAR EGLL 130720Z 04008KT 010V090 CAVOK 14/08 Q1019 NOSIG=
200805130650 METAR COR EGLL 130650Z 05008KT 360V090 CAVOK 13/08 Q1019
                        NOSIG=
200805130620 METAR COR EGLL 130620Z 04009KT 020V080 CAVOK 12/08 Q1019
                        NOSIG=
200805130550 METAR COR EGLL 130550Z 03006KT 350V070 CAVOK 12/09 Q1019
                        NOSIG=
200805130520 METAR COR EGLL 130520Z 03006KT 360V060 9000 NSC 11/09 Q1019
                        NOSIG=
200805130450 METAR COR EGLL 130450Z 04004KT 360V080 9000 NSC 11/09 Q1019
                        NOSIG=
200805130420 METAR COR EGLL 130420Z 03005KT 360V090 9000 NSC 11/09 Q1019
                        NOSIG=
200805130350 METAR COR EGLL 130350Z 04005KT 360V150 CAVOK 11/09 Q1019
                        NOSIG=
200805130320 METAR COR EGLL 130320Z 05007KT 020V090 CAVOK 11/08 Q1019
                        NOSIG=
200805130250 METAR COR EGLL 130250Z 03006KT 350V070 CAVOK 12/08 Q1019
                        NOSIG=
200805130220 METAR COR EGLL 130220Z 03005KT 330V070 CAVOK 12/08 Q1019
                        NOSIG=
200805130150 METAR COR EGLL 130150Z 03005KT 360V070 CAVOK 12/08 Q1019
                        NOSIG=
200805130120 METAR EGLL 130120Z AUTO 04006KT 360V080 9999NDV NCD 13/08
                        Q1019=
200805130050 METAR EGLL 130050Z AUTO 05006KT 360V080 9999NDV NCD 14/08
                        Q1019=
200805130020 METAR EGLL 130020Z AUTO 04006KT 010V080 9999NDV NCD 14/08
                        Q1019=
200805122350 METAR COR EGLL 122350Z 05007KT CAVOK 15/09 Q1019 NOSIG=
200805122320 METAR EGLL 122320Z 05007KT 010V070 CAVOK 16/09 Q1019 NOSIG=
200805122250 METAR COR EGLL 122250Z 05008KT CAVOK 16/08 Q1019 NOSIG=
200805122220 METAR COR EGLL 122220Z 05007KT CAVOK 17/08 Q1019 NOSIG=
200805122150 METAR COR EGLL 122150Z 05008KT CAVOK 18/08 Q1019 NOSIG=
200805122120 METAR EGLL 122120Z 05009KT CAVOK 18/09 Q1019 NOSIG=
200805122050 METAR COR EGLL 122050Z 05007KT CAVOK 19/08 Q1018 NOSIG=
200805122020 METAR COR EGLL 122020Z 05007KT CAVOK 20/07 Q1018 NOSIG=
200805121950 METAR COR EGLL 121950Z 05009KT CAVOK 20/06 Q1018 NOSIG=
200805121920 METAR COR EGLL 121920Z 06009KT CAVOK 21/05 Q1018 NOSIG=
200805121850 METAR COR EGLL 121850Z 08010KT CAVOK 21/07 Q1018 NOSIG=
200805121820 METAR EGLL 121820Z 07011KT 040V100 CAVOK 22/07 Q1018 NOSIG=
200805121750 METAR COR EGLL 121750Z 07010KT CAVOK 22/05 Q1017 NOSIG=
200805121720 METAR EGLL 121720Z 07010KT CAVOK 23/05 Q1017 NOSIG=
200805121650 METAR COR EGLL 121650Z 06009KT CAVOK 23/05 Q1017 NOSIG=
200805121620 METAR COR EGLL 121620Z 09012KT CAVOK 23/05 Q1017 NOSIG=
200805121550 METAR COR EGLL 121550Z 06009KT CAVOK 24/05 Q1017 NOSIG=
200805121520 METAR COR EGLL 121520Z 07010KT 030V090 CAVOK 24/07 Q1017
                        NOSIG=
200805121450 METAR COR EGLL 121450Z 07008KT CAVOK 23/06 Q1018 NOSIG=
200805121420 METAR COR EGLL 121420Z 09012KT 050V120 CAVOK 24/07 Q1018
                        NOSIG=
200805121350 METAR COR EGLL 121350Z 09013KT CAVOK 25/07 Q1018 NOSIG=
200805121320 METAR COR EGLL 121320Z 09012KT 050V120 CAVOK 25/07 Q1018
                        NOSIG=
200805121250 METAR COR EGLL 121250Z 07011KT CAVOK 24/08 Q1018 NOSIG=
200805121220 METAR EGLL 121220Z 09014KT CAVOK 23/10 Q1018 NOSIG=
200805121150 METAR COR EGLL 121150Z 07009KT 010V100 CAVOK 23/10 Q1018
                        NOSIG=
200805121120 METAR COR EGLL 121120Z 06009KT 040V100 9999 FEW040 23/10
                        Q1018 NOSIG=
200805121050 METAR COR EGLL 121050Z 05008KT 340V090 CAVOK 23/09 Q1018
                        NOSIG=
200805121020 METAR COR EGLL 121020Z 06008KT CAVOK 23/09 Q1019 NOSIG=
200805120950 METAR COR EGLL 120950Z 03005KT 010V080 CAVOK 21/10 Q1019
                        NOSIG=
200805120920 METAR COR EGLL 120920Z 05005KT 350V090 CAVOK 20/10 Q1019
                        NOSIG=
200805120850 METAR COR EGLL 120850Z 05005KT 350V100 CAVOK 19/11 Q1019
                        NOSIG=
200805120820 METAR COR EGLL 120820Z 04005KT 360V090 CAVOK 18/11 Q1019
                        NOSIG=
200805120750 METAR COR EGLL 120750Z 04005KT 010V080 CAVOK 17/10 Q1019
                        NOSIG=
200805120720 METAR EGLL 120720Z 06006KT CAVOK 16/10 Q1019 NOSIG=
200805120650 METAR COR EGLL 120650Z 05007KT CAVOK 15/10 Q1019 NOSIG=
200805120620 METAR EGLL 120620Z 03005KT 330V060 CAVOK 14/10 Q1019 NOSIG=
200805120550 METAR COR EGLL 120550Z VRB03KT CAVOK 13/09 Q1019 NOSIG=
200805120520 METAR COR EGLL 120520Z 03005KT CAVOK 12/09 Q1019 NOSIG=
200805120450 METAR COR EGLL 120450Z 03004KT CAVOK 12/08 Q1018 NOSIG=
200805120420 METAR EGLL 120420Z VRB02KT CAVOK 12/08 Q1018 NOSIG=
200805120350 METAR COR EGLL 120350Z VRB02KT CAVOK 12/08 Q1018 NOSIG=
200805120320 METAR COR EGLL 120320Z 36004KT CAVOK 12/08 Q1018 NOSIG=
200805120250 METAR COR EGLL 120250Z 36004KT CAVOK 12/08 Q1018 NOSIG=
200805120220 METAR COR EGLL 120220Z 36004KT CAVOK 13/08 Q1018 NOSIG=
200805120150 METAR COR EGLL 120150Z 36003KT CAVOK 13/08 Q1019 NOSIG=
200805120120 METAR EGLL 120120Z AUTO 03003KT 9999NDV NCD 14/08 Q1019=
200805120050 METAR EGLL 120050Z AUTO 04006KT 9999NDV NCD 15/09 Q1019=
200805120020 METAR EGLL 120020Z AUTO 02004KT 350V070 9999NDV NCD 15/08
                        Q1019=
200805112350 METAR EGLL 112350Z 04005KT CAVOK 15/08 Q1019 NOSIG=
200805112320 METAR COR EGLL 112320Z 04004KT CAVOK 16/08 Q1019 NOSIG=
200805112250 METAR COR EGLL 112250Z 01003KT CAVOK 16/08 Q1019 NOSIG=
200805112220 METAR EGLL 112220Z 04003KT CAVOK 17/07 Q1019 NOSIG=
200805112150 METAR COR EGLL 112150Z 07003KT CAVOK 18/07 Q1019 NOSIG=
200805112120 METAR EGLL 112120Z 09004KT CAVOK 17/07 Q1019 NOSIG=
200805112050 METAR COR EGLL 112050Z 10004KT CAVOK 18/07 Q1019 NOSIG=
200805112020 METAR COR EGLL 112020Z 06006KT CAVOK 19/07 Q1019 NOSIG=
200805111950 METAR EGLL 111950Z 06004KT CAVOK 21/06 Q1018 NOSIG=
200805111920 METAR COR EGLL 111920Z 07007KT CAVOK 22/06 Q1018 NOSIG=
200805111850 METAR COR EGLL 111850Z 07007KT CAVOK 22/06 Q1018 NOSIG=
200805111820 METAR COR EGLL 111820Z 08009KT CAVOK 22/08 Q1018 NOSIG=
200805111750 METAR EGLL 111750Z 08008KT CAVOK 23/07 Q1018 NOSIG=
200805111720 METAR EGLL 111720Z 09010KT 040V110 CAVOK 23/06 Q1018 NOSIG=
200805111650 METAR COR EGLL 111650Z 07009KT 030V100 CAVOK 24/06 Q1018
                        NOSIG=
200805111620 METAR COR EGLL 111620Z 08009KT 040V110 CAVOK 24/06 Q1018
                        NOSIG=
200805111550 METAR COR EGLL 111550Z 10010KT CAVOK 25/06 Q1018 NOSIG=
200805111520 METAR COR EGLL 111520Z 10014KT CAVOK 25/06 Q1018 NOSIG=
200805111450 METAR COR EGLL 111450Z 08011KT 040V100 CAVOK 25/05 Q1018
                        NOSIG=
200805111420 METAR EGLL 111420Z 09012KT CAVOK 26/05 Q1018=
200805111350 METAR EGLL 111350Z 07010KT 040V100 CAVOK 26/05 Q1018 NOSIG=
200805111320 METAR EGLL 111320Z 06011KT 020V090 CAVOK 26/05 Q1018 NOSIG=
200805111250 METAR COR EGLL 111250Z 06010KT 010V100 CAVOK 26/06 Q1018
                        NOSIG=
200805111220 METAR COR EGLL 111220Z 07009KT 010V120 CAVOK 26/07 Q1019
                        NOSIG=
200805111150 METAR COR EGLL 111150Z 09008KT 060V130 CAVOK 26/08 Q1019
                        NOSIG=
200805111120 METAR COR EGLL 111120Z 09010KT 060V160 CAVOK 25/07 Q1019
                        NOSIG=
200805111050 METAR COR EGLL 111050Z 10010KT CAVOK 25/08 Q1019 NOSIG=
200805111020 METAR COR EGLL 111020Z 08009KT CAVOK 24/10 Q1019 NOSIG=
200805110950 METAR COR EGLL 110950Z 06005KT 020V100 CAVOK 23/11 Q1019
                        NOSIG=
200805110920 METAR COR EGLL 110920Z 06006KT CAVOK 22/10 Q1019 NOSIG=
200805110850 METAR COR EGLL 110850Z 07006KT CAVOK 21/11 Q1019 NOSIG=
200805110820 METAR EGLL 110820Z 06005KT 020V090 CAVOK 20/11 Q1019 NOSIG=
200805110750 METAR COR EGLL 110750Z 07006KT CAVOK 18/10 Q1019 NOSIG=
200805110720 METAR EGLL 110720Z 05004KT 010V090 CAVOK 17/10 Q1019 NOSIG=
200805110650 METAR COR EGLL 110650Z 04005KT CAVOK 16/10 Q1019 NOSIG=
200805110620 METAR COR EGLL 110620Z VRB03KT CAVOK 15/09 Q1019 NOSIG=
200805110550 METAR COR EGLL 110550Z 36003KT CAVOK 14/09 Q1019 NOSIG=
200805110520 METAR EGLL 110520Z 35004KT 8000 NSC 13/09 Q1019 NOSIG=
200805110450 METAR COR EGLL 110450Z 36004KT 8000 NSC 13/09 Q1018 NOSIG=
200805110420 METAR COR EGLL 110420Z 36004KT 8000 NSC 13/09 Q1018 NOSIG=
200805110350 METAR EGLL 110350Z 36004KT 8000 NSC 13/09 Q1018 NOSIG=
200805110320 METAR EGLL 110320Z 35004KT 8000 NSC 13/09 Q1018 NOSIG=
200805110250 METAR EGLL 110250Z 35003KT 8000 NSC 13/09 Q1018 NOSIG=
200805110220 METAR COR EGLL 110220Z 35004KT 8000 NSC 14/09 Q1018 NOSIG=
200805110150 METAR COR EGLL 110150Z 35005KT 8000 NSC 13/09 Q1018 NOSIG=
200805110120 METAR EGLL 110120Z AUTO 36004KT NCD 14/09 Q1018=
200805110050 METAR EGLL 110050Z AUTO 35004KT NCD 15/09 Q1019=
200805110020 METAR EGLL 110020Z AUTO 36004KT NCD 16/09 Q1019=
200805102350 METAR EGLL 102350Z 36003KT 8000 NSC 16/09 Q1019 NOSIG=
200805102320 METAR COR EGLL 102320Z 05003KT 8000 NSC 16/10 Q1019 NOSIG=
200805102250 METAR EGLL 102250Z 04002KT CAVOK 17/09 Q1019 NOSIG=
200805102220 METAR COR EGLL 102220Z 08002KT CAVOK 17/08 Q1019 NOSIG=
200805102150 METAR COR EGLL 102150Z 06003KT CAVOK 19/08 Q1019 NOSIG=
200805102120 METAR COR EGLL 102120Z 08003KT CAVOK 20/08 Q1018 NOSIG=
200805102050 METAR COR EGLL 102050Z 07004KT CAVOK 20/09 Q1018 NOSIG=
200805102020 METAR COR EGLL 102020Z 09005KT CAVOK 19/09 Q1018 NOSIG=
200805101950 METAR COR EGLL 101950Z 07004KT CAVOK 22/11 Q1018 NOSIG=
200805101920 METAR COR EGLL 101920Z VRB03KT CAVOK 24/12 Q1017 NOSIG=
200805101850 METAR COR EGLL 101850Z VRB03KT CAVOK 24/12 Q1017 NOSIG=
200805101820 METAR EGLL 101820Z 36004KT 330V040 CAVOK 24/12 Q1017 NOSIG=
200805101750 METAR COR EGLL 101750Z 36005KT CAVOK 25/12 Q1017 NOSIG=
200805101720 METAR COR EGLL 101720Z 36005KT CAVOK 25/10 Q1017 TEMPO TSRA
                        BKN045CB=
200805101650 METAR COR EGLL 101650Z 35004KT 320V020 CAVOK 25/09 Q1016
                        NOSIG=
200805101620 METAR EGLL 101620Z 36006KT 340V040 CAVOK 25/09 Q1016=
200805101550 METAR COR EGLL 101550Z 01006KT 330V050 CAVOK 24/08 Q1016
                        TEMPO TSRA BKN045CB=
200805101520 METAR COR EGLL 101520Z 06009KT 9999 FEW045 25/08 Q1016 TEMPO
                        TSRA BKN045CB=
200805101450 METAR COR EGLL 101450Z VRB03KT 9999 FEW040 26/09 Q1016 TEMPO
                        TSRA BKN045CB=
200805101420 METAR EGLL 101420Z 05004KT 350V090 CAVOK 26/11 Q1017 TEMPO
                        SCT045CB=
200805101350 METAR COR EGLL 101350Z VRB04KT CAVOK 25/10 Q1017 TEMPO SCT045CB=
200805101320 METAR COR EGLL 101320Z VRB02KT 9999 FEW040 26/11 Q1017 TEMPO
                        SCT045CB=
200805101250 METAR COR EGLL 101250Z VRB02KT CAVOK 25/12 Q1017 NOSIG=
200805101220 METAR EGLL 101220Z VRB03KT CAVOK 25/11 Q1017 NOSIG=
200805101150 METAR COR EGLL 101150Z VRB03KT CAVOK 24/13 Q1017 NOSIG=
200805101120 METAR COR EGLL 101120Z 06004KT 330V090 CAVOK 23/14 Q1017
                        NOSIG=
200805101050 METAR EGLL 101050Z VRB03KT CAVOK 22/14 Q1017 NOSIG=
200805101020 METAR COR EGLL 101020Z 28005KT 240V340 CAVOK 21/14 Q1017
                        NOSIG=
200805100950 METAR COR EGLL 100950Z 29005KT 220V350 CAVOK 21/14 Q1017
                        NOSIG=
200805100920 METAR COR EGLL 100920Z VRB03KT CAVOK 20/13 Q1017 NOSIG=
200805100850 METAR EGLL 100850Z VRB02KT 8000 NSC 20/13 Q1017 NOSIG=
200805100820 METAR COR EGLL 100820Z VRB03KT 7000 NSC 19/13 Q1017 NOSIG=
200805100750 METAR EGLL 100750Z VRB02KT 7000 NSC 18/12 Q1017 NOSIG=
200805100720 METAR EGLL 100720Z 30003KT 6000 NSC 17/12 Q1017 NOSIG=
200805100650 METAR COR EGLL 100650Z VRB03KT 6000 NSC 16/13 Q1017 NOSIG=
200805100620 METAR EGLL 100620Z VRB02KT 6000 NSC 15/12 Q1017 NOSIG=
200805100550 METAR COR EGLL 100550Z 36003KT 6000 NSC 15/12 Q1016 NOSIG=
200805100520 METAR COR EGLL 100520Z 33002KT 7000 NSC 14/12 Q1016 NOSIG=
200805100450 METAR COR EGLL 100450Z 29004KT 270V330 7000 NSC 14/12 Q1016
                        NOSIG=
200805100420 METAR COR EGLL 100420Z 00000KT 7000 NSC 14/13 Q1015 NOSIG=
200805100350 METAR COR EGLL 100350Z 36003KT 8000 NSC 14/12 Q1015 NOSIG=
200805100320 METAR COR EGLL 100320Z 29003KT 9000 NSC 14/12 Q1015 NOSIG=
200805100250 METAR COR EGLL 100250Z 30002KT CAVOK 15/12 Q1015 NOSIG=
200805100220 METAR COR EGLL 100220Z VRB02KT CAVOK 15/11 Q1015 NOSIG=
200805100150 METAR COR EGLL 100150Z 00000KT CAVOK 15/12 Q1015 NOSIG=
200805100120 METAR EGLL 100120Z AUTO 00000KT 9999NDV NCD 15/12 Q1015=
200805100050 METAR EGLL 100050Z AUTO 00000KT 9999NDV NCD 15/12 Q1015=
200805100020 METAR EGLL 100020Z AUTO 00000KT 9999NDV NCD 16/12 Q1015=
200805092350 METAR COR EGLL 092350Z 10003KT CAVOK 16/11 Q1015 NOSIG=
200805092320 METAR COR EGLL 092320Z 09004KT CAVOK 15/11 Q1015 NOSIG=
200805092250 METAR COR EGLL 092250Z 13003KT CAVOK 17/11 Q1014 NOSIG=
200805092220 METAR COR EGLL 092220Z 11005KT CAVOK 17/12 Q1014 NOSIG=
200805092150 METAR COR EGLL 092150Z 09004KT CAVOK 17/11 Q1014 NOSIG=
200805092120 METAR COR EGLL 092120Z 08004KT CAVOK 18/11 Q1014 NOSIG=
200805092050 METAR COR EGLL 092050Z 07003KT CAVOK 20/12 Q1013 NOSIG=
200805092020 METAR COR EGLL 092020Z 09004KT CAVOK 20/12 Q1013 NOSIG=
200805091950 METAR COR EGLL 091950Z 08004KT CAVOK 20/12 Q1013 NOSIG=
200805091920 METAR COR EGLL 091920Z 09005KT CAVOK 21/12 Q1012 NOSIG=
200805091850 METAR COR EGLL 091850Z 11007KT CAVOK 21/12 Q1012 NOSIG=
200805091820 METAR COR EGLL 091820Z 09009KT CAVOK 22/11 Q1012 NOSIG=
200805091750 METAR COR EGLL 091750Z 09009KT 9999 FEW045CB 23/13 Q1011
                        TEMPO TSRA=
200805091720 METAR COR EGLL 091720Z 13007KT 090V160 CAVOK 24/11 Q1011
                        NOSIG=
200805091650 METAR COR EGLL 091650Z 15010KT 9999 FEW050TCU 24/10 Q1011
                        NOSIG=
200805091620 METAR EGLL 091620Z 10004KT 070V140 9999 FEW035CB 25/13 Q1011
                        NOSIG=
200805091550 METAR COR EGLL 091550Z 10002KT 9999 FEW035CB 24/14 Q1011
                        RERA TEMPO TSRA=
200805091520 METAR COR EGLL 091520Z 08006KT 010V120 9999 TSRA FEW035 23/15
                        Q1011 BECMG NSW=
200805091450 METAR COR EGLL 091450Z VRB02KT 9999 SCT045TCU 25/14 Q1011
                        NOSIG=
200805091420 METAR COR EGLL 091420Z 10004KT 360V140 9999 FEW040TCU 24/14
                        Q1012 NOSIG=
200805091350 METAR COR EGLL 091350Z 08004KT 030V140 CAVOK 24/14 Q1012
                        NOSIG=
200805091320 METAR EGLL 091320Z 07004KT 360V110 CAVOK 22/13 Q1012 NOSIG=
200805091250 METAR COR EGLL 091250Z 08004KT 040V110 CAVOK 22/14 Q1012
                        NOSIG=
200805091220 METAR COR EGLL 091220Z 07004KT 030V110 CAVOK 21/13 Q1012
                        NOSIG=
200805091150 METAR COR EGLL 091150Z 10003KT CAVOK 21/13 Q1012 NOSIG=
200805091120 METAR COR EGLL 091120Z VRB02KT CAVOK 21/14 Q1012 NOSIG=
200805091050 METAR EGLL 091050Z 00000KT CAVOK 21/14 Q1012 NOSIG=
200805091020 METAR COR EGLL 091020Z VRB02KT 9000 FEW020 20/14 Q1012 NOSIG=
200805090950 METAR COR EGLL 090950Z 14002KT 9000 NSC 19/13 Q1012 NOSIG=
200805090920 METAR EGLL 090920Z 06004KT 030V090 9000 NSC 18/13 Q1012 NOSIG=
200805090850 METAR COR EGLL 090850Z 08004KT 9000 -RA NSC 18/13 Q1012 NOSIG=
200805090820 METAR COR EGLL 090820Z VRB03KT 9000 -RA FEW040 18/13 Q1012
                        NOSIG=
200805090750 METAR EGLL 090750Z 07005KT 040V120 9000 NSC 18/12 Q1012 NOSIG=
200805090720 METAR COR EGLL 090720Z 10004KT 070V130 9000 NSC 17/12 Q1012
                        NOSIG=
200805090650 METAR COR EGLL 090650Z 09004KT 9000 NSC 16/12 Q1012 NOSIG=
200805090620 METAR EGLL 090620Z 08004KT 9000 NSC 16/12 Q1012 NOSIG=
200805090550 METAR EGLL 090550Z 07003KT 9000 NSC 15/12 Q1012 NOSIG=
200805090520 METAR COR EGLL 090520Z 06004KT CAVOK 15/11 Q1012 NOSIG=
200805090450 METAR COR EGLL 090450Z 07003KT CAVOK 14/11 Q1012 NOSIG=
200805090420 METAR COR EGLL 090420Z VRB03KT CAVOK 14/11 Q1012 NOSIG=
200805090350 METAR COR EGLL 090350Z 13003KT CAVOK 14/11 Q1012 NOSIG=
200805090320 METAR COR EGLL 090320Z 13004KT CAVOK 15/11 Q1012 NOSIG=
200805090250 METAR COR EGLL 090250Z 09005KT CAVOK 14/11 Q1012 NOSIG=
200805090220 METAR COR EGLL 090220Z 09004KT CAVOK 14/10 Q1012 NOSIG=
200805090150 METAR COR EGLL 090150Z 08003KT CAVOK 14/10 Q1012 NOSIG=
200805090120 METAR EGLL 090120Z AUTO 10005KT 9999NDV NCD 14/10 Q1012=
200805090050 METAR EGLL 090050Z AUTO 09004KT 9999NDV NCD 14/10 Q1012=
200805090020 METAR EGLL 090020Z AUTO 07004KT 9999NDV NCD 14/10 Q1012=
200805082350 METAR COR EGLL 082350Z 07005KT CAVOK 15/10 Q1012 NOSIG=
200805082320 METAR EGLL 082320Z 07006KT CAVOK 16/10 Q1012 NOSIG=
200805082250 METAR COR EGLL 082250Z 09006KT CAVOK 16/10 Q1012 NOSIG=
200805082220 METAR COR EGLL 082220Z 10004KT CAVOK 17/10 Q1012 NOSIG=
200805082150 METAR EGLL 082150Z 09006KT CAVOK 18/10 Q1012 NOSIG=
200805082120 METAR EGLL 082120Z 08007KT CAVOK 18/10 Q1012 NOSIG=
200805082050 METAR COR EGLL 082050Z 08007KT CAVOK 19/10 Q1012 NOSIG=
200805082020 METAR EGLL 082020Z 08007KT CAVOK 19/09 Q1012 NOSIG=
200805081950 METAR COR EGLL 081950Z 09008KT CAVOK 20/09 Q1012 NOSIG=
200805081920 METAR COR EGLL 081920Z 08008KT CAVOK 20/10 Q1012 NOSIG=
200805081850 METAR COR EGLL 081850Z 09009KT CAVOK 22/09 Q1012 NOSIG=
200805081820 METAR COR EGLL 081820Z 08009KT CAVOK 22/09 Q1011 NOSIG=
200805081750 METAR COR EGLL 081750Z 09012KT CAVOK 22/09 Q1011 NOSIG=
200805081720 METAR COR EGLL 081720Z 09013KT CAVOK 23/09 Q1012 NOSIG=
200805081650 METAR COR EGLL 081650Z 08012KT CAVOK 23/09 Q1012 NOSIG=
200805081620 METAR EGLL 081620Z 08012KT CAVOK 23/09 Q1012 NOSIG=
200805081550 METAR EGLL 081550Z 09014KT CAVOK 24/09 Q1012 NOSIG=
200805081520 METAR COR EGLL 081520Z 09014KT CAVOK 24/10 Q1012 NOSIG=
200805081450 METAR COR EGLL 081450Z 10013KT 070V130 CAVOK 24/08 Q1012
                        NOSIG=
200805081420 METAR COR EGLL 081420Z 11015KT CAVOK 24/07 Q1012 NOSIG=
200805081350 METAR EGLL 081350Z 11014KT 070V130 CAVOK 24/07 Q1013 NOSIG=
200805081320 METAR COR EGLL 081320Z 11014KT CAVOK 24/06 Q1013 NOSIG=
200805081250 METAR COR EGLL 081250Z 10011KT CAVOK 24/06 Q1013 NOSIG=
200805081220 METAR COR EGLL 081220Z 12015KT CAVOK 24/06 Q1013 NOSIG=
200805081150 METAR COR EGLL 081150Z 12013KT CAVOK 24/07 Q1013 NOSIG=
200805081120 METAR EGLL 081120Z 12015KT CAVOK 24/07 Q1014 NOSIG=
200805081050 METAR EGLL 081050Z 13014KT CAVOK 23/07 Q1014 NOSIG=
200805081020 METAR COR EGLL 081020Z 10016KT CAVOK 23/07 Q1014 NOSIG=
200805080950 METAR EGLL 080950Z 10013KT CAVOK 22/10 Q1014 NOSIG=
200805080920 METAR COR EGLL 080920Z 10010KT CAVOK 22/10 Q1015 NOSIG=
200805080850 METAR COR EGLL 080850Z 10008KT CAVOK 21/11 Q1015 NOSIG=
200805080820 METAR COR EGLL 080820Z 09009KT 7000 NSC 19/11 Q1015 NOSIG=
200805080750 METAR COR EGLL 080750Z 10010KT 6000 NSC 18/11 Q1015 NOSIG=
200805080720 METAR COR EGLL 080720Z 09007KT 050V120 5000 HZ NSC 17/11
                        Q1015 NOSIG=
200805080650 METAR COR EGLL 080650Z 06006KT 5000 HZ NSC 16/11 Q1015 NOSIG=
200805080620 METAR COR EGLL 080620Z 06005KT 5000 HZ NSC 15/11 Q1016 NOSIG=
200805080550 METAR COR EGLL 080550Z 06005KT 5000 HZ NSC 14/10 Q1016 NOSIG=
200805080520 METAR COR EGLL 080520Z 07005KT 6000 NSC 13/09 Q1016 NOSIG=
200805080450 METAR COR EGLL 080450Z 07005KT 6000 NSC 12/09 Q1016 NOSIG=
200805080420 METAR COR EGLL 080420Z 06004KT 6000 NSC 12/09 Q1016 NOSIG=
200805080350 METAR COR EGLL 080350Z 06005KT 7000 NSC 13/09 Q1016 NOSIG=
200805080320 METAR COR EGLL 080320Z 07005KT 8000 NSC 13/09 Q1016 NOSIG=
200805080250 METAR EGLL 080250Z 06005KT 8000 NSC 13/09 Q1016 NOSIG=
200805080220 METAR COR EGLL 080220Z VRB03KT 8000 NSC 13/10 Q1016 NOSIG=
200805080150 METAR EGLL 080150Z 07004KT 8000 NSC 13/10 Q1017 NOSIG=
200805080120 METAR EGLL 080120Z AUTO 06004KT NCD 13/10 Q1017=
200805080050 METAR EGLL 080050Z AUTO 07003KT NCD 14/10 Q1017=
200805080020 METAR EGLL 080020Z AUTO 07004KT NCD 14/10 Q1017=
200805072350 METAR COR EGLL 072350Z 08006KT 8000 NSC 15/10 Q1017 NOSIG=
200805072320 METAR COR EGLL 072320Z 07006KT 8000 NSC 15/10 Q1018 NOSIG=
200805072250 METAR COR EGLL 072250Z 07007KT 8000 NSC 16/10 Q1018 NOSIG=
200805072220 METAR COR EGLL 072220Z 07008KT CAVOK 16/10 Q1018 NOSIG=
200805072150 METAR COR EGLL 072150Z 07006KT CAVOK 17/10 Q1018 NOSIG=
200805072120 METAR COR EGLL 072120Z 09006KT CAVOK 17/10 Q1018 NOSIG=
200805072050 METAR COR EGLL 072050Z 09009KT CAVOK 18/10 Q1018 NOSIG=
200805072020 METAR COR EGLL 072020Z 09009KT CAVOK 18/10 Q1018 NOSIG=
200805071950 METAR COR EGLL 071950Z 08008KT CAVOK 18/09 Q1018 NOSIG=
200805071920 METAR COR EGLL 071920Z 09011KT CAVOK 18/09 Q1018 NOSIG=
200805071850 METAR COR EGLL 071850Z 10011KT CAVOK 19/08 Q1017 NOSIG=
200805071820 METAR COR EGLL 071820Z 09013KT CAVOK 20/08 Q1017 NOSIG=
200805071750 METAR COR EGLL 071750Z 09014KT CAVOK 21/08 Q1017 NOSIG=
200805071720 METAR COR EGLL 071720Z 09014KT CAVOK 21/08 Q1017 NOSIG=
200805071650 METAR COR EGLL 071650Z 10014KT CAVOK 22/09 Q1017 NOSIG=
200805071620 METAR COR EGLL 071620Z 08013KT CAVOK 23/09 Q1017 NOSIG=
200805071550 METAR EGLL 071550Z 09015KT CAVOK 23/10 Q1018 NOSIG=
200805071520 METAR COR EGLL 071520Z 10014KT CAVOK 23/10 Q1018 NOSIG=
200805071450 METAR COR EGLL 071450Z 10014KT CAVOK 24/10 Q1018 NOSIG=
200805071420 METAR COR EGLL 071420Z 09014KT CAVOK 24/10 Q1018 NOSIG=
200805071350 METAR COR EGLL 071350Z 10013KT CAVOK 24/10 Q1018 NOSIG=
200805071320 METAR COR EGLL 071320Z 11011KT 060V150 CAVOK 23/11 Q1018
                        NOSIG=
200805071250 METAR COR EGLL 071250Z 11011KT 070V150 CAVOK 23/11 Q1018
                        NOSIG=
200805071220 METAR COR EGLL 071220Z 11012KT 080V150 CAVOK 25/11 Q1019
                        NOSIG=
200805071150 METAR COR EGLL 071150Z 08013KT 050V120 CAVOK 24/10 Q1019
                        NOSIG=
200805071120 METAR COR EGLL 071120Z 08011KT 040V110 CAVOK 23/11 Q1019
                        NOSIG=
200805071050 METAR COR EGLL 071050Z 09008KT 060V120 CAVOK 23/12 Q1019
                        NOSIG=
200805071020 METAR COR EGLL 071020Z 09007KT CAVOK 22/12 Q1020 NOSIG=
200805070950 METAR EGLL 070950Z 10007KT 8000 NSC 21/12 Q1020 NOSIG=
200805070920 METAR COR EGLL 070920Z 10007KT 070V140 6000 NSC 20/12 Q1020
                        NOSIG=
200805070850 METAR COR EGLL 070850Z 08006KT 030V120 6000 NSC 19/12 Q1020
                        NOSIG=
200805070820 METAR EGLL 070820Z 06006KT 030V100 5000 HZ NSC 18/12 Q1020
                        NOSIG=
200805070750 METAR COR EGLL 070750Z 07005KT 030V090 5000 HZ NSC 17/12
                        Q1020 NOSIG=
200805070720 METAR COR EGLL 070720Z 07005KT 5000 HZ NSC 16/11 Q1020 NOSIG=
200805070650 METAR EGLL 070650Z 07005KT 5000 HZ NSC 15/11 Q1020 NOSIG=
200805070620 METAR COR EGLL 070620Z 06006KT 5000 HZ NSC 14/11 Q1020 NOSIG=
200805070550 METAR COR EGLL 070550Z 06004KT 5000 HZ NSC 13/10 Q1020 NOSIG=
200805070520 METAR COR EGLL 070520Z 06004KT 5000 HZ NSC 13/10 Q1020 NOSIG=
200805070450 METAR EGLL 070450Z 06004KT 020V090 5000 BR NSC 12/09 Q1020
                        NOSIG=
200805070420 METAR COR EGLL 070420Z 06004KT 5000 BR NSC 12/10 Q1020 NOSIG=
200805070350 METAR COR EGLL 070350Z 06004KT 6000 NSC 12/09 Q1020 NOSIG=
200805070320 METAR EGLL 070320Z 07004KT 7000 NSC 12/10 Q1020 NOSIG=
200805070250 METAR COR EGLL 070250Z 06004KT 7000 NSC 12/09 Q1020 NOSIG=
200805070220 METAR COR EGLL 070220Z 06006KT 020V090 7000 NSC 13/10 Q1020
                        NOSIG=
200805070150 METAR COR EGLL 070150Z 06004KT 020V100 7000 NSC 13/10 Q1021
                        NOSIG=
200805070120 METAR EGLL 070120Z AUTO 06007KT 8000NDV NCD 13/10 Q1021=
200805070050 METAR EGLL 070050Z AUTO 06006KT 8000NDV NCD 14/10 Q1021=
200805070020 METAR EGLL 070020Z AUTO 06006KT 8000NDV NCD 14/10 Q1021=
200805062350 METAR COR EGLL 062350Z 07006KT 9000 NSC 14/10 Q1021 NOSIG=
200805062320 METAR COR EGLL 062320Z 06006KT 9000 NSC 15/10 Q1021 NOSIG=
200805062250 METAR COR EGLL 062250Z 06007KT 9000 NSC 15/10 Q1022 NOSIG=
200805062220 METAR EGLL 062220Z 06006KT 9000 NSC 16/10 Q1022 NOSIG=
200805062150 METAR EGLL 062150Z 07006KT CAVOK 17/10 Q1022 NOSIG=
200805062120 METAR COR EGLL 062120Z 07006KT CAVOK 17/10 Q1022 NOSIG=
200805062050 METAR COR EGLL 062050Z 07006KT 040V110 CAVOK 17/10 Q1022
                        NOSIG=
200805062020 METAR EGLL 062020Z 06005KT CAVOK 17/10 Q1022=
200805061950 METAR COR EGLL 061950Z 07004KT CAVOK 18/10 Q1022 NOSIG=
200805061920 METAR COR EGLL 061920Z 09009KT CAVOK 18/10 Q1022 NOSIG=
200805061850 METAR COR EGLL 061850Z 09009KT CAVOK 19/09 Q1022 NOSIG=
200805061820 METAR COR EGLL 061820Z 08009KT 050V120 CAVOK 19/10 Q1022
                        NOSIG=
200805061750 METAR COR EGLL 061750Z 10010KT CAVOK 19/09 Q1022 NOSIG=
200805061720 METAR COR EGLL 061720Z 10014KT CAVOK 20/09 Q1022 NOSIG=
200805061650 METAR COR EGLL 061650Z 08012KT CAVOK 20/09 Q1022 NOSIG=
200805061620 METAR COR EGLL 061620Z 10014KT CAVOK 21/08 Q1022 NOSIG=
200805061550 METAR COR EGLL 061550Z 09014KT CAVOK 21/08 Q1022 NOSIG=
200805061520 METAR COR EGLL 061520Z 10016KT CAVOK 21/08 Q1022 NOSIG=
200805061450 METAR COR EGLL 061450Z 09016KT CAVOK 21/08 Q1022 NOSIG=
200805061420 METAR COR EGLL 061420Z 08013KT CAVOK 22/09 Q1022 NOSIG=
200805061350 METAR COR EGLL 061350Z 08013KT 040V110 CAVOK 22/09 Q1022
                        NOSIG=
200805061320 METAR EGLL 061320Z 08015KT CAVOK 22/10 Q1023 NOSIG=
200805061250 METAR COR EGLL 061250Z 09013KT CAVOK 22/10 Q1023 NOSIG=
200805061220 METAR COR EGLL 061220Z 10014KT CAVOK 21/09 Q1023 NOSIG=
200805061150 METAR COR EGLL 061150Z 09013KT CAVOK 21/10 Q1023 NOSIG=
200805061120 METAR EGLL 061120Z 10013KT CAVOK 21/10 Q1023 NOSIG=
200805061050 METAR COR EGLL 061050Z 12013KT CAVOK 21/09 Q1024 NOSIG=
200805061020 METAR COR EGLL 061020Z 08011KT CAVOK 20/10 Q1024 NOSIG=
200805060950 METAR COR EGLL 060950Z 09009KT 070V140 CAVOK 20/10 Q1024
                        NOSIG=
200805060920 METAR COR EGLL 060920Z 10007KT CAVOK 19/10 Q1024 NOSIG=
200805060850 METAR EGLL 060850Z 08007KT CAVOK 19/10 Q1024 NOSIG=
200805060820 METAR COR EGLL 060820Z 09007KT CAVOK 17/10 Q1024 NOSIG=
200805060750 METAR COR EGLL 060750Z 09008KT 8000 NSC 16/10 Q1024 NOSIG=
200805060720 METAR EGLL 060720Z 06006KT 8000 NSC 15/10 Q1024 NOSIG=
200805060650 METAR COR EGLL 060650Z 05005KT 7000 NSC 14/09 Q1024 NOSIG=
200805060620 METAR COR EGLL 060620Z 07005KT 7000 NSC 13/09 Q1024 NOSIG=
200805060550 METAR COR EGLL 060550Z 06005KT 7000 NSC 12/09 Q1024 NOSIG=
200805060520 METAR COR EGLL 060520Z 05004KT 7000 NSC 11/08 Q1024 NOSIG=
200805060450 METAR COR EGLL 060450Z 05003KT 7000 NSC 10/08 Q1024 NOSIG=
200805060420 METAR COR EGLL 060420Z 04005KT 8000 NSC 10/08 Q1024 NOSIG=
200805060350 METAR COR EGLL 060350Z VRB02KT 9000 NSC 10/07 Q1024 NOSIG=
200805060320 METAR EGLL 060320Z 04004KT CAVOK 11/07 Q1024 NOSIG=
200805060250 METAR COR EGLL 060250Z 05003KT CAVOK 11/07 Q1024 NOSIG=
200805060220 METAR COR EGLL 060220Z 04004KT CAVOK 12/07 Q1024 NOSIG=
200805060150 METAR COR EGLL 060150Z 03004KT CAVOK 12/06 Q1025 NOSIG=
200805060120 METAR COR EGLL 060120Z 04005KT CAVOK 12/06 Q1025 NOSIG=
200805060050 METAR COR EGLL 060050Z 04004KT CAVOK 12/06 Q1025 NOSIG=
200805060020 METAR COR EGLL 060020Z 04004KT CAVOK 12/06 Q1025 NOSIG=
200805052350 METAR COR EGLL 052350Z 06007KT CAVOK 12/06 Q1025 NOSIG=
200805052320 METAR COR EGLL 052320Z 06006KT CAVOK 12/07 Q1025 NOSIG=
200805052250 METAR COR EGLL 052250Z 06005KT CAVOK 12/06 Q1025 NOSIG=
200805052220 METAR COR EGLL 052220Z 07005KT CAVOK 13/07 Q1025 NOSIG=
200805052150 METAR COR EGLL 052150Z 06005KT CAVOK 15/07 Q1025 NOSIG=
200805052120 METAR COR EGLL 052120Z 07005KT CAVOK 15/07 Q1025 NOSIG=
200805052050 METAR COR EGLL 052050Z 08005KT CAVOK 16/07 Q1025 NOSIG=
200805052020 METAR COR EGLL 052020Z 08006KT CAVOK 16/06 Q1025 NOSIG=
200805051950 METAR COR EGLL 051950Z 08007KT CAVOK 16/06 Q1025 NOSIG=
200805051920 METAR COR EGLL 051920Z 09009KT CAVOK 17/06 Q1025 NOSIG=
200805051850 METAR EGLL 051850Z 09009KT CAVOK 17/06 Q1025 NOSIG=
200805051820 METAR COR EGLL 051820Z 09009KT CAVOK 18/06 Q1025 NOSIG=
200805051750 METAR COR EGLL 051750Z 09009KT CAVOK 19/07 Q1025 NOSIG=
200805051720 METAR EGLL 051720Z 10010KT CAVOK 19/06 Q1024 NOSIG=
200805051650 METAR COR EGLL 051650Z 10011KT 060V130 CAVOK 20/06 Q1024
                        NOSIG=
200805051620 METAR COR EGLL 051620Z 09010KT CAVOK 21/07 Q1024 NOSIG=
200805051550 METAR COR EGLL 051550Z 09009KT CAVOK 20/07 Q1024 NOSIG=
200805051520 METAR COR EGLL 051520Z 10011KT CAVOK 21/07 Q1024 NOSIG=
200805051450 METAR COR EGLL 051450Z 09010KT 060V120 CAVOK 21/06 Q1024
                        NOSIG=
200805051420 METAR COR EGLL 051420Z 06010KT CAVOK 21/07 Q1024 NOSIG=
200805051350 METAR COR EGLL 051350Z 09010KT 050V120 CAVOK 22/07 Q1024
                        NOSIG=
200805051320 METAR COR EGLL 051320Z 09010KT 040V120 CAVOK 22/07 Q1024
                        NOSIG=
200805051250 METAR COR EGLL 051250Z 07010KT 040V100 CAVOK 22/08 Q1024
                        NOSIG=
200805051220 METAR COR EGLL 051220Z 07008KT 030V120 9999 FEW044 21/10
                        Q1025 NOSIG=
200805051150 METAR COR EGLL 051150Z 07009KT CAVOK 21/09 Q1025 NOSIG=
200805051120 METAR EGLL 051120Z 07009KT 020V120 CAVOK 21/10 Q1025=
200805051050 METAR COR EGLL 051050Z 05007KT 020V100 CAVOK 20/10 Q1025
                        NOSIG=
200805051020 METAR COR EGLL 051020Z 04006KT 340V090 CAVOK 19/11 Q1025
                        NOSIG=
200805050950 METAR COR EGLL 050950Z 04007KT 010V070 9000 NSC 19/11 Q1025
                        NOSIG=
200805050920 METAR COR EGLL 050920Z 03007KT 350V060 9000 NSC 19/12 Q1025
                        NOSIG=
200805050850 METAR COR EGLL 050850Z 04007KT 350V070 7000 NSC 18/12 Q1025
                        NOSIG=
200805050820 METAR COR EGLL 050820Z 02006KT 330V060 7000 NSC 17/12 Q1025
                        NOSIG=
200805050750 METAR COR EGLL 050750Z 01005KT 340V060 6000 NSC 17/12 Q1025
                        NOSIG=
200805050720 METAR COR EGLL 050720Z 36004KT 330V040 6000 NSC 16/12 Q1025
                        NOSIG=
200805050650 METAR COR EGLL 050650Z 36004KT 330V040 6000 NSC 15/11 Q1025
                        NOSIG=
200805050620 METAR COR EGLL 050620Z VRB03KT 4000 HZ NSC 15/11 Q1025 BECMG
                        8000 NSW=
200805050550 METAR EGLL 050550Z 35003KT 7000 NSC 15/11 Q1024 NOSIG=
200805050520 METAR COR EGLL 050520Z 31004KT 290V360 6000 NSC 15/11 Q1024
                        NOSIG=
200805050450 METAR COR EGLL 050450Z VRB03KT 6000 NSC 14/11 Q1024 NOSIG=
200805050420 METAR EGLL 050420Z 31003KT 6000 NSC 15/10 Q1024 NOSIG=
200805050350 METAR COR EGLL 050350Z VRB03KT 7000 NSC 15/11 Q1024 NOSIG=
200805050320 METAR EGLL 050320Z 03003KT 7000 NSC 15/11 Q1024 NOSIG=
200805050250 METAR COR EGLL 050250Z 03003KT 7000 NSC 15/10 Q1024 NOSIG=
200805050220 METAR COR EGLL 050220Z 04003KT 7000 NSC 15/10 Q1024 NOSIG=
200805050150 METAR COR EGLL 050150Z 02003KT 9000 NSC 15/11 Q1024 NOSIG=
200805050120 METAR EGLL 050120Z AUTO VRB02KT 8000NDV NCD 15/11 Q1023=
200805050050 METAR EGLL 050050Z AUTO 03003KT 7000NDV NCD 16/12 Q1023=
200805050020 METAR EGLL 050020Z AUTO 36003KT 8000NDV NCD 16/12 Q1023=
200805042350 METAR COR EGLL 042350Z 35003KT 9000 NSC 16/12 Q1023 NOSIG=
200805042320 METAR COR EGLL 042320Z VRB02KT CAVOK 16/11 Q1023 NOSIG=
200805042250 METAR COR EGLL 042250Z 00000KT CAVOK 17/11 Q1023 NOSIG=
200805042220 METAR EGLL 042220Z VRB03KT CAVOK 17/11 Q1023 NOSIG=
200805042150 METAR EGLL 042150Z 09007KT CAVOK 18/11 Q1022 NOSIG=
200805042120 METAR COR EGLL 042120Z 06004KT CAVOK 18/10 Q1022 NOSIG=
200805042050 METAR COR EGLL 042050Z 06004KT CAVOK 19/09 Q1022 NOSIG=
200805042020 METAR COR EGLL 042020Z 09006KT CAVOK 18/10 Q1022 NOSIG=
200805041950 METAR COR EGLL 041950Z 12007KT CAVOK 18/09 Q1022 NOSIG=
200805041920 METAR COR EGLL 041920Z 11007KT CAVOK 19/08 Q1022 NOSIG=
200805041850 METAR EGLL 041850Z 12007KT CAVOK 19/08 Q1021 NOSIG=
200805041820 METAR COR EGLL 041820Z 12007KT CAVOK 19/09 Q1021 NOSIG=
200805041750 METAR COR EGLL 041750Z 15006KT 9999 FEW041 20/09 Q1021 NOSIG=
200805041720 METAR COR EGLL 041720Z 19007KT 140V220 CAVOK 20/09 Q1021
                        NOSIG=
200805041650 METAR COR EGLL 041650Z 21007KT 190V260 CAVOK 21/08 Q1021
                        NOSIG=
200805041620 METAR COR EGLL 041620Z 22007KT CAVOK 21/08 Q1021 NOSIG=
200805041550 METAR COR EGLL 041550Z 22007KT CAVOK 22/08 Q1021 NOSIG=
200805041520 METAR COR EGLL 041520Z 11006KT CAVOK 21/10 Q1021 NOSIG=
200805041450 METAR EGLL 041450Z 14005KT CAVOK 22/10 Q1021 NOSIG=
200805041420 METAR EGLL 041420Z 14006KT CAVOK 22/09 Q1021 NOSIG=
200805041350 METAR COR EGLL 041350Z 11006KT CAVOK 22/11 Q1021 NOSIG=
200805041320 METAR EGLL 041320Z 15006KT 120V190 CAVOK 22/09 Q1021 NOSIG=
200805041250 METAR EGLL 041250Z 14006KT 110V170 CAVOK 22/10 Q1021=
200805041220 METAR COR EGLL 041220Z 12008KT CAVOK 21/09 Q1021 NOSIG=
200805041150 METAR COR EGLL 041150Z 15006KT CAVOK 21/09 Q1021 NOSIG=
200805041120 METAR EGLL 041120Z 18005KT 130V220 CAVOK 21/10 Q1021=
200805041050 METAR EGLL 041050Z 18007KT CAVOK 20/10 Q1021=
200805041020 METAR EGLL 041020Z 18007KT CAVOK 20/10 Q1021=
200805040950 METAR COR EGLL 040950Z 15005KT 120V190 CAVOK 19/10 Q1021
                        NOSIG=
200805040920 METAR EGLL 040920Z 10014KT CAVOK 19/10 Q1020 NOSIG=
200805040850 METAR COR EGLL 040850Z 10015KT CAVOK 18/10 Q1020 NOSIG=
200805040820 METAR COR EGLL 040820Z 10009KT CAVOK 17/10 Q1021 NOSIG=
200805040750 METAR EGLL 040750Z 10008KT CAVOK 16/10 Q1021 NOSIG=
200805040720 METAR COR EGLL 040720Z 10006KT CAVOK 15/10 Q1021 NOSIG=
200805040650 METAR COR EGLL 040650Z 09005KT CAVOK 15/09 Q1021 NOSIG=
200805040620 METAR EGLL 040620Z 09005KT CAVOK 15/09 Q1021 NOSIG=
200805040550 METAR COR EGLL 040550Z 07005KT CAVOK 14/10 Q1021 NOSIG=
200805040520 METAR COR EGLL 040520Z 08003KT CAVOK 14/09 Q1021 NOSIG=
200805040450 METAR COR EGLL 040450Z 07004KT CAVOK 13/09 Q1021 NOSIG=
200805040420 METAR COR EGLL 040420Z 08002KT CAVOK 14/08 Q1021 NOSIG=
200805040350 METAR COR EGLL 040350Z 00000KT CAVOK 14/08 Q1021 NOSIG=
200805040320 METAR COR EGLL 040320Z 07006KT CAVOK 14/09 Q1020 NOSIG=
200805040250 METAR COR EGLL 040250Z 08005KT CAVOK 14/09 Q1021 NOSIG=
200805040220 METAR COR EGLL 040220Z 08006KT CAVOK 14/09 Q1020 NOSIG=
200805040150 METAR COR EGLL 040150Z 09006KT CAVOK 14/08 Q1020 NOSIG=
200805040120 METAR EGLL 040120Z AUTO 09008KT 9999NDV NCD 14/08 Q1021=
200805040050 METAR EGLL 040050Z AUTO 06007KT 9999NDV -RA NCD 14/09 Q1021=
200805040020 METAR EGLL 040020Z AUTO 06004KT 9999NDV NCD 14/08 Q1022=
200805032350 METAR EGLL 032350Z 00000KT CAVOK 14/08 Q1022 NOSIG=
200805032320 METAR COR EGLL 032320Z 09003KT CAVOK 14/08 Q1022 NOSIG=
200805032250 METAR EGLL 032250Z 10010KT CAVOK 15/08 Q1021 NOSIG=
200805032220 METAR EGLL 032220Z 10010KT CAVOK 15/08 Q1021 NOSIG=
200805032150 METAR COR EGLL 032150Z 10008KT CAVOK 15/08 Q1022 NOSIG=
200805032120 METAR COR EGLL 032120Z 11010KT CAVOK 16/08 Q1022 NOSIG=
200805032050 METAR COR EGLL 032050Z 10011KT CAVOK 16/08 Q1021 NOSIG=
200805032020 METAR COR EGLL 032020Z 11013KT CAVOK 16/09 Q1022 NOSIG=
200805031950 METAR EGLL 031950Z 09011KT 9999 -RA NSC 16/08 Q1022 NOSIG=
200805031920 METAR EGLL 031920Z 14006KT CAVOK 17/07 Q1023 NOSIG=
200805031850 METAR EGLL 031850Z 14010KT CAVOK 18/07 Q1022 NOSIG=
200805031820 METAR EGLL 031820Z 13009KT CAVOK 18/07 Q1022 NOSIG=
200805031750 METAR COR EGLL 031750Z 13010KT CAVOK 18/07 Q1022 NOSIG=
200805031720 METAR COR EGLL 031720Z 15009KT CAVOK 19/06 Q1022 NOSIG=
200805031650 METAR EGLL 031650Z 12009KT 9999 FEW021 19/07 Q1022=
200805031620 METAR COR EGLL 031620Z 12011KT CAVOK 19/07 Q1022 NOSIG=
200805031550 METAR COR EGLL 031550Z 13009KT 100V170 CAVOK 20/07 Q1022
                        NOSIG=
200805031520 METAR EGLL 031520Z 16010KT CAVOK 19/07 Q1022=
200805031450 METAR EGLL 031450Z 15010KT CAVOK 20/08 Q1022 NOSIG=
200805031420 METAR COR EGLL 031420Z 13010KT 090V160 CAVOK 20/08 Q1022
                        NOSIG=
200805031350 METAR EGLL 031350Z 14011KT CAVOK 19/07 Q1022 NOSIG=
200805031320 METAR COR EGLL 031320Z 15010KT 100V170 CAVOK 19/07 Q1022
                        NOSIG=
200805031250 METAR COR EGLL 031250Z 15010KT 9999 FEW048 20/08 Q1023 NOSIG=
200805031220 METAR COR EGLL 031220Z 16010KT 9999 FEW040 20/08 Q1023 NOSIG=
200805031150 METAR COR EGLL 031150Z 16011KT 9999 FEW044 19/08 Q1023 NOSIG=
200805031120 METAR COR EGLL 031120Z 14012KT 9999 FEW044 19/09 Q1023 NOSIG=
200805031050 METAR COR EGLL 031050Z 14012KT 9999 FEW040 18/08 Q1023 NOSIG=
200805031020 METAR EGLL 031020Z 15011KT 9999 FEW032 18/09 Q1023=
200805030950 METAR COR EGLL 030950Z 15008KT CAVOK 17/09 Q1023 NOSIG=
200805030920 METAR COR EGLL 030920Z 13011KT CAVOK 17/09 Q1023 NOSIG=
200805030850 METAR EGLL 030850Z 13007KT 090V170 CAVOK 16/09 Q1024 NOSIG=
200805030820 METAR COR EGLL 030820Z 11006KT CAVOK 14/09 Q1024 NOSIG=
200805030750 METAR COR EGLL 030750Z 09007KT CAVOK 12/08 Q1024 NOSIG=
200805030720 METAR COR EGLL 030720Z 08004KT CAVOK 11/07 Q1024 NOSIG=
200805030650 METAR COR EGLL 030650Z 09005KT CAVOK 10/07 Q1024 NOSIG=
200805030620 METAR COR EGLL 030620Z 07004KT CAVOK 09/06 Q1024 NOSIG=
200805030550 METAR EGLL 030550Z 07004KT CAVOK 08/06 Q1024 NOSIG=
200805030520 METAR EGLL 030520Z 05002KT CAVOK 07/05 Q1024 NOSIG=
200805030450 METAR COR EGLL 030450Z 07003KT CAVOK 06/05 Q1023 NOSIG=
200805030420 METAR COR EGLL 030420Z 07003KT CAVOK 06/05 Q1023 NOSIG=
200805030350 METAR COR EGLL 030350Z 09003KT CAVOK 06/05 Q1023 NOSIG=
200805030320 METAR COR EGLL 030320Z 07003KT CAVOK 06/05 Q1023 NOSIG=
200805030250 METAR COR EGLL 030250Z 07002KT CAVOK 06/05 Q1023 NOSIG=
200805030220 METAR COR EGLL 030220Z 08002KT CAVOK 06/05 Q1024 NOSIG=
200805030150 METAR EGLL 030150Z 08002KT CAVOK 07/05 Q1024 NOSIG=
200805030120 METAR EGLL 030120Z AUTO 00000KT 9999NDV NCD 07/06 Q1023=
200805030050 METAR EGLL 030050Z AUTO 00000KT 9999NDV NCD 07/05 Q1023=
200805030020 METAR COR EGLL 030020Z 13002KT CAVOK 07/06 Q1024 NOSIG=
200805022350 METAR COR EGLL 022350Z 09003KT CAVOK 08/06 Q1024 NOSIG=
200805022320 METAR COR EGLL 022320Z 15003KT CAVOK 08/06 Q1023 NOSIG=
200805022250 METAR COR EGLL 022250Z 18004KT CAVOK 09/07 Q1023 NOSIG=
200805022220 METAR COR EGLL 022220Z 17004KT CAVOK 09/07 Q1023 NOSIG=
200805022150 METAR COR EGLL 022150Z 22007KT 170V260 CAVOK 10/07 Q1023
                        NOSIG=
200805022120 METAR COR EGLL 022120Z 19007KT 150V260 CAVOK 10/07 Q1023
                        NOSIG=
200805022050 METAR COR EGLL 022050Z 19006KT 150V230 CAVOK 11/06 Q1023
                        NOSIG=
200805022020 METAR COR EGLL 022020Z 20007KT 180V250 9999 FEW040 12/06
                        Q1023 NOSIG=
200805021950 METAR COR EGLL 021950Z 18007KT 150V230 9999 FEW042 12/06
                        Q1022 NOSIG=
200805021920 METAR COR EGLL 021920Z 18008KT 140V240 9999 FEW042 13/06
                        Q1022 NOSIG=
200805021850 METAR COR EGLL 021850Z 17007KT 120V250 9999 FEW042 14/07
                        Q1022 NOSIG=
200805021820 METAR EGLL 021820Z 17006KT 130V220 9999 SCT043 14/07 Q1022
                        NOSIG=
200805021750 METAR COR EGLL 021750Z 18007KT 130V250 9999 SCT040 14/08
                        Q1022 NOSIG=
200805021720 METAR COR EGLL 021720Z 17007KT 130V230 9999 SCT040 15/08
                        Q1022 NOSIG=
200805021650 METAR COR EGLL 021650Z VRB05KT 9999 FEW037 SCT046 14/08 Q1022
                        NOSIG=
200805021620 METAR COR EGLL 021620Z 17008KT 150V220 9999 FEW024 15/09
                        Q1022 NOSIG=
200805021550 METAR COR EGLL 021550Z 19006KT 140V250 9999 FEW024 15/09
                        Q1021 NOSIG=
200805021520 METAR COR EGLL 021520Z VRB03KT 9999 FEW024 SCT048 15/09 Q1021
                        NOSIG=
200805021450 METAR COR EGLL 021450Z VRB03KT 9999 FEW025 SCT045 14/08 Q1021
                        NOSIG=
200805021420 METAR COR EGLL 021420Z VRB02KT 9999 VCSH FEW025 BKN045 13/09
                        Q1022 TEMPO SHRA=
200805021350 METAR COR EGLL 021350Z 28010KT 8000 -SHRA SCT030TCU SCT036
                        12/09 Q1022 TEMPO SHRA=
200805021320 METAR COR EGLL 021320Z 17009KT 130V220 9999 FEW030TCU SCT046
                        15/07 Q1021 TEMPO SHRA=
200805021250 METAR COR EGLL 021250Z VRB09KT 9999 VCSH SCT030 SCT038 14/08
                        Q1021 TEMPO SHRA=
200805021220 METAR COR EGLL 021220Z VRB04KT 9999 5000SE -SHRA FEW033 SCT037
                        14/07 Q1021 TEMPO SHRA=
200805021150 METAR COR EGLL 021150Z 29004KT 260V330 9999 FEW033 SCT038
                        14/06 Q1020 TEMPO SHRA=
200805021120 METAR COR EGLL 021120Z VRB03KT 9999 SCT035 14/07 Q1020 NOSIG=
200805021050 METAR COR EGLL 021050Z 31006KT 9999 VCSH FEW020 SCT036 12/07
                        Q1020 NOSIG=
200805021020 METAR COR EGLL 021020Z 34004KT 310V010 9999 7000NW VCSH FEW019
                        SCT024CB SCT030 13/08 Q1020 TEMPO
                        SHRA=
200805020950 METAR COR EGLL 020950Z 31006KT 260V360 9999 -SHRA SCT024
                        SCT035 13/08 Q1020 TEMPO SHRA=
200805020920 METAR COR EGLL 020920Z 20008KT 150V260 9999 VCSH SCT019 BKN023
                        13/08 Q1020 NOSIG=
200805020850 METAR COR EGLL 020850Z 21004KT 160V260 9999 SCT009 SCT018
                        12/08 Q1020 NOSIG=
200805020820 METAR COR EGLL 020820Z 22005KT 190V270 9999 SCT009 11/08
                        Q1020 TEMPO SHRA=
200805020750 METAR COR EGLL 020750Z VRB04KT 9999 FEW007 SCT009 10/08 Q1020
                        NOSIG=
200805020720 METAR EGLL 020720Z 22005KT 180V280 8000 FEW006 SCT014 10/08
                        Q1019 NOSIG=
200805020650 METAR COR EGLL 020650Z 21004KT 160V260 8000 FEW010 BKN016
                        09/07 Q1019 NOSIG=
200805020620 METAR COR EGLL 020620Z VRB02KT 8000 FEW010 BKN012 08/07 Q1019
                        BECMG SCT020=
200805020550 METAR COR EGLL 020550Z 00000KT 8000 BKN012 07/06 Q1018 NOSIG=
200805020520 METAR COR EGLL 020520Z 00000KT 7000 BKN014 07/06 Q1018 BECMG
                        SCT015=
200805020450 METAR EGLL 020450Z VRB02KT 7000 BKN014 07/06 Q1017 BECMG
                        SCT015=
200805020420 METAR COR EGLL 020420Z 26002KT 8000 BKN015 06/06 Q1017 NOSIG=
200805020350 METAR COR EGLL 020350Z 00000KT 9000 FEW015 06/05 Q1017 NOSIG=
200805020320 METAR COR EGLL 020320Z 16003KT 9000 NSC 06/05 Q1016 NOSIG=
200805020250 METAR COR EGLL 020250Z 18004KT CAVOK 06/05 Q1016 NOSIG=
200805020220 METAR COR EGLL 020220Z 18004KT CAVOK 06/05 Q1016 NOSIG=
200805020150 METAR COR EGLL 020150Z 19005KT CAVOK 07/06 Q1016 NOSIG=
200805020120 METAR EGLL 020120Z AUTO 21004KT 9000NDV 06/05 Q1015=
200805020050 METAR EGLL 020050Z AUTO 22005KT 9999NDV NCD 07/06 Q1015=
200805020020 METAR COR EGLL 020020Z AUTO 21002KT 9999NDV NCD 07/06 Q1015=
200805012350 METAR COR EGLL 012350Z 21004KT CAVOK 07/06 Q1015 NOSIG=
200805012320 METAR COR EGLL 012320Z 21005KT CAVOK 08/06 Q1015 NOSIG=
200805012250 METAR EGLL 012250Z 22007KT CAVOK 08/06 Q1014 NOSIG=
200805012220 METAR COR EGLL 012220Z 22009KT 180V250 CAVOK 08/06 Q1014
                        NOSIG=
200805012150 METAR COR EGLL 012150Z 22010KT 190V250 CAVOK 09/06 Q1013
                        NOSIG=
200805012120 METAR COR EGLL 012120Z 21009KT 9999 FEW050CB 09/06 Q1013
                        NOSIG=
200805012050 METAR COR EGLL 012050Z 21008KT 170V250 9999 FEW040CB 09/06
                        Q1013 NOSIG=
200805012020 METAR EGLL 012020Z 20007KT 160V250 9999 FEW030 FEW035CB 09/06
                        Q1012 RERA NOSIG=
200805011950 METAR COR EGLL 011950Z 20011KT 170V240 9999 6000E SHRA FEW035CB
                        SCT039 10/07 Q1012 BECMG NSW=
200805011920 METAR COR EGLL 011920Z 21007KT 180V250 9999 VCSH FEW035 SCT040CB
                        11/07 Q1011 TEMPO SHRA=
200805011850 METAR COR EGLL 011850Z 23006KT 180V260 9999 VCSH FEW020 FEW040CB
                        11/07 Q1011 NOSIG=
200805011820 METAR COR EGLL 011820Z 25007KT 9999 FEW040CB SCT047 12/07
                        Q1011 NOSIG=
200805011750 METAR EGLL 011750Z 25007KT 210V280 9999 FEW035CB SCT040 12/06
                        Q1010 NOSIG=
200805011720 METAR COR EGLL 011720Z 27006KT 250V310 9999 7000NE -SHRA
                        SCT034 FEW035CB BKN041 11/06 Q1010
                        RERA NOSIG=
200805011650 METAR COR EGLL 011650Z 22012KT 190V260 9999 4000NE SHRAGR
                        FEW021 SCT035CB SCT040 11/06 Q1010
                        TEMPO SHRA=
200805011620 METAR COR EGLL 011620Z 26009KT 220V290 9999 6000NE SHRA FEW033
                        SCT042CB 10/05 Q1009 TEMPO SHRA=
200805011550 METAR COR EGLL 011550Z 22012KT 190V250 9999 6000N VCTS VCSH
                        SCT033CB 13/06 Q1009 TEMPO +SHRA=
200805011520 METAR COR EGLL 011520Z 22013KT 180V250 9999 6000E VCSH FEW020
                        SCT030CB 11/05 Q1009 RESHRA TEMPO
                        SHRA=
200805011450 METAR COR EGLL 011450Z 24015KT 9999 6000E -SHRA FEW020 FEW025CB
                        FEW040CB 12/06 Q1008 TEMPO +SHRA=
200805011420 METAR COR EGLL 011420Z 28011KT 9999 FEW030CB FEW040TCU 13/06
                        Q1008 TEMPO +SHRA=
200805011350 METAR COR EGLL 011350Z 28013KT 9999 FEW031CB FEW041TCU SCT046
                        12/06 Q1008 TEMPO SHRA=
200805011320 METAR COR EGLL 011320Z 25013KT 220V280 9999 VCSH FEW041TCU
                        FEW046CB 14/03 Q1007 TEMPO 22015G25KT
                        +SHRA=
200805011250 METAR COR EGLL 011250Z 22013KT 9999 VCSH FEW041TCU FEW046CB
                        15/05 Q1007 TEMPO 23015G25KT +SHRA=
200805011220 METAR COR EGLL 011220Z 22012KT 9999 VCSH FEW030TCU FEW040CB
                        14/05 Q1007 TEMPO SHRA=
200805011150 METAR COR EGLL 011150Z 24016KT 9999 VCSH SCT040CB 13/05 Q1007
                        TEMPO SHRA=
200805011120 METAR COR EGLL 011120Z 27014KT 9999 VCSH SCT040CB 13/05 Q1006
                        TEMPO 5000 +SHRA=
200805011050 METAR COR EGLL 011050Z 28010KT 9999 VCSH SCT030CB 15/04 Q1006
                        TEMPO 5000 +SHRA=
200805011020 METAR COR EGLL 011020Z 22011KT 200V260 9999 VCSH SCT030CB
                        14/06 Q1005 TEMPO 5000 +SHRA=
200805010950 METAR COR EGLL 010950Z 24012KT 9999 FEW029CB SCT034 14/06
                        Q1005 TEMPO +SHRA BKN020CB=
200805010920 METAR COR EGLL 010920Z 24014KT 9999 FEW030 SCT034 13/07 Q1005
                        TEMPO SHRA SCT020CB=
200805010850 METAR COR EGLL 010850Z 24010KT 9999 FEW019 SCT021 12/07 Q1005
                        NOSIG=
200805010820 METAR COR EGLL 010820Z 24012KT 9999 SCT019 SCT024 11/07 Q1004
                        NOSIG=
200805010750 METAR EGLL 010750Z 24011KT 9999 SCT014 SCT020 11/07 Q1004
                        NOSIG=
200805010720 METAR EGLL 010720Z 23011KT 9999 BKN012 10/07 Q1004 BECMG
                        SCT020=
200805010650 METAR EGLL 010650Z 22008KT 9999 FEW010 10/07 Q1003 NOSIG=
200805010620 METAR COR EGLL 010620Z 21007KT 190V260 9999 FEW020 09/07
                        Q1003 NOSIG=
200805010550 METAR COR EGLL 010550Z 21008KT 180V260 9999 FEW020 08/06
                        Q1003 NOSIG=
200805010520 METAR COR EGLL 010520Z 21006KT 9999 FEW020 08/06 Q1002 NOSIG=
200805010450 METAR COR EGLL 010450Z 21007KT CAVOK 08/06 Q1002 NOSIG=
200805010420 METAR COR EGLL 010420Z 20007KT 9999 FEW044 08/06 Q1001 NOSIG=
200805010350 METAR EGLL 010350Z 19006KT 9999 FEW044 08/06 Q1001=
200805010320 METAR COR EGLL 010320Z 21006KT 9999 FEW030 BKN045 08/06 Q1001
                        RESHRA NOSIG=
200805010250 METAR EGLL 010250Z 21007KT 9999 -SHRA SCT038 BKN049 08/06
                        Q1000 NOSIG=
200805010220 METAR EGLL 010220Z 22010KT 9999 -SHRA FEW032 SCT044 08/06
                        Q1000=
200805010150 METAR COR EGLL 010150Z 21008KT 9999 FEW026 SCT038 07/06 Q1000
                        NOSIG=
200805010120 METAR EGLL 010120Z AUTO 21008KT 9999NDV -RA SCT027/// SCT036///
                        07/06 Q1000=
200805010050 METAR EGLL 010050Z AUTO 24010KT 9999NDV -RA SCT030/// BKN038///
                        08/06 Q1000 RERA=
200805010020 METAR EGLL 010020Z AUTO 24011KT 9999NDV -RA SCT037/// 08/06
                        Q0999=

###################################
#  short TAF from EGLL
###################################
200805312139 TAF COR EGLL 312139Z 312207 04004KT 9000 FEW045
                      BECMG 2302 3000 BR BKN005=
200805312111 TAF EGLL 312111Z 312207 04004KT 9999 FEW045
                      BECMG 2201 7000
                      PROB30 0107 4000 BR=
200805312100 TAF EGLL 312100Z NIL=
200805311750 TAF EGLL 311750Z 311904 04004KT 9999 SCT045
                      BECMG 2201 7000=
200805311448 TAF EGLL 311448Z 311601 02004KT 9999 SCT045=
200805311153 TAF EGLL 311153Z 311322 02004KT 9999 SCT045
                      PROB30 TEMPO 1922 7000 -RA=
200805310850 TAF EGLL 310850Z 311019 02004KT 9999 SCT045=
200805310603 TAF EGLL 310603Z 310716 30004KT 8000 SCT045
                      BECMG 0810 9999=
200805310257 TAF EGLL 310257Z 310413 VRB03KT 8000 SCT045
                      TEMPO 0407 3000 BR
                      BECMG 0810 9999=
200805310001 TAF EGLL 310001Z 310110 VRB03KT 8000 SCT045
                      TEMPO 0207 3000 BR
                      BECMG 0810 9999=
200805302055 TAF EGLL 302055Z 302207 VRB03KT 9999 SCT045
                      BECMG 0003 8000
                      TEMPO 0307 3000 BR=
200805301810 TAF EGLL 301810Z 301904 VRB03KT 9999 BKN045
                      BECMG 0003 8000=
200805301800 TAF EGLL 301800Z NIL=
200805301521 TAF EGLL 301521Z 301601 34005KT 9999 BKN035
                      BECMG 2301 8000=
200805301500 TAF EGLL 301500Z NIL=
200805301200 TAF EGLL 301200Z 301322 34007KT 9999 BKN022=
200805300913 TAF EGLL 300913Z 301019 34006KT 9999 BKN025=
200805300900 TAF EGLL 300900Z NIL=
200805300558 TAF EGLL 300558Z 300716 33005KT 9999 BKN012
                      TEMPO 0708 7000 BKN008
                      BECMG 0710 SCT030=
200805300256 TAF EGLL 300256Z 300413 34005KT 9999 SCT040
                      TEMPO 0408 8000 BKN010
                      PROB40 0407 3000 BR BKN006=
200805300002 TAF EGLL 300002Z 300110 36005KT 8000 SCT040
                      BECMG 0205 3000 BR BKN006
                      BECMG 0608 6000 NSW BKN012
                      BECMG 0810 9999 SCT030=
200805292101 TAF EGLL 292101Z 292207 36006KT 9999 SCT040
                      BECMG 2201 8000
                      TEMPO 0002 4000 BR
                      BECMG 0205 3000 BR BKN006=
200805291816 TAF EGLL 291816Z 291904 06010KT 8000 BKN040
                      TEMPO 1904 4000 DZ BKN006
                      BECMG 2023 36007KT=
200805291800 TAF EGLL 291800Z NIL=
200805291752 TAF AMD EGLL 291752Z 291701 09010KT 7000 -RA BKN045
                      TEMPO 1901 4000 DZ BKN006=
200805291537 TAF EGLL 291537Z 291601 09010KT 9999 BKN045
                      TEMPO 1619 7000 RA
                      BECMG 2023 36007KT
                      PROB40 TEMPO 1901 6000 BKN010=
200805291500 TAF EGLL 291500Z NIL=
200805291216 TAF EGLL 291216Z 291322 09007KT 9999 SCT040
                      TEMPO 1518 8000 RA
                      PROB30 TEMPO 1822 9000=
200805291200 TAF EGLL 291200Z NIL=
200805290927 TAF EGLL 290927Z 291019 09007KT 9999 SCT040
                      TEMPO 1519 7000 SHRA=
200805290900 TAF EGLL 290900Z NIL=
200805290601 TAF EGLL 290601Z 290716 09005KT 3000 BR BKN004
                      BECMG 0710 9999 NSW SCT025
                      PROB30 TEMPO 1416 7000 SHRA=
200805290300 TAF EGLL 290300Z 290413 VRB05KT 4000 BR BKN005
                      TEMPO 0407 BKN003
                      PROB30 TEMPO 0407 0600 FG BKN001
                      BECMG 0710 9999 NSW SCT025=
200805290003 TAF EGLL 290003Z 290110 18006KT 8000 SCT009
                      BECMG 0103 4000 BR BKN006
                      PROB30 TEMPO 0407 0600 FG BKN001
                      BECMG 0710 9999 NSW SCT025=
200805282104 TAF EGLL 282104Z 282207 21010KT 9999 SCT010 BKN020
                      TEMPO 2201 8000 BKN010
                      BECMG 0103 VRB05KT 4000 BR BKN006
                      PROB30 TEMPO 0407 0600 FG BKN001=
200805281754 TAF EGLL 281754Z 281904 21012KT 9999 BKN017
                      TEMPO 1922 7000 BKN010
                      BECMG 2224 8000
                      BECMG 0003 VRB05KT 4000 BR BKN010
                      PROB30 TEMPO 0304 0600 FG BKN001=
200805281455 TAF EGLL 281455Z 281601 16012KT 7000 BKN010
                      TEMPO 1620 3000 BR RA BKN006
                      PROB40 TEMPO 1621 9999 SCT015
                      PROB30 TEMPO 1619 16015G25KT
                      BECMG 1821 22010KT=
200805281200 TAF EGLL 281200Z 281322 16012KT 7000 BKN010
                      TEMPO 1320 3000 BR RA BKN006
                      PROB40 TEMPO 1318 16015G25KT 9999 SCT015=
200805281123 TAF AMD EGLL 281123Z 281019 14010KT 7000 BKN010
                      TEMPO 1119 3000 BR RA BKN006
                      PROB40 TEMPO 1218 16015G25KT 9999 SCT015=
200805280901 TAF EGLL 280901Z 281019 14010KT 9999 BKN017
                      TEMPO 1012 4000 BR BKN010
                      PROB40 TEMPO 1218 16015G25KT 4000 +SHRA BKN020CB=
200805280605 TAF EGLL 280605Z 280716 09007KT 4000 BR BKN006
                      BECMG 0710 16013KT 9999 NSW BKN015
                      PROB30 TEMPO 0716 4000 +SHRA +TSRA BKN014CB=
200805280304 TAF EGLL 280304Z 280413 03010KT 3000 -RA BR BKN006
                      TEMPO 0408 1400 RA BKN004
                      PROB30 TEMPO 0406 +TSRA BKN060CB
                      PROB30 TEMPO 0613 +SHRA +TSRA BKN014CB
                      BECMG 0912 16013KT 9999 NSW BKN015=
200805280001 TAF EGLL 280001Z 280110 03010KT 3000 -RA BR BKN006
                      TEMPO 0107 1400 RA BKN004
                      PROB40 TEMPO 0106 +TSRA BKN060CB
                      PROB30 TEMPO 0610 +SHRA +TSRA BKN015CB
                      BECMG 0710 16013KT 9999 NSW SCT025=
200805272101 TAF EGLL 272101Z 272207 03008KT 8000 FEW015
                      BECMG 2224 -RA BKN010
                      TEMPO 0007 3000 RA BR BKN006
                      PROB30 TEMPO 0006 1400 +RA TSRA BKN004 BKN060CB=
200805271756 TAF EGLL 271756Z 271904 08005KT 9999 SCT020
                      PROB30 TEMPO 1922 8000 RA BKN012
                      BECMG 2124 02010KT
                      TEMPO 2204 7000 RA BKN010
                      PROB40 TEMPO 0004 4000 TSRA +RA BKN006 BKN060CB=
200805271505 TAF EGLL 271505Z 271601 08005KT 9999 SCT020
                      TEMPO 1801 8000 RA BKN010
                      BECMG 2124 02010KT
                      PROB40 TEMPO 0001 4000 TSRA +RA BKN006=
200805271155 TAF EGLL 271155Z 271322 06005KT 9999 BKN018
                      TEMPO 1822 8000 RA BKN010=
200805270855 TAF EGLL 270855Z 271019 04005KT 9999 BKN012
                      BECMG 1012 SCT025=
200805270602 TAF EGLL 270602Z 270716 04004KT 9999 BKN010
                      TEMPO 0708 8000 BKN007
                      BECMG 0811 SCT025=
200805270306 TAF EGLL 270306Z 270413 08004KT 7000 BKN010
                      BECMG 0406 4000 BR -DZ BKN005
                      BECMG 0609 9999 NSW BKN010
                      BECMG 0912 SCT025=
200805270204 TAF AMD EGLL 270204Z 270210 05007KT 7000 -RA BKN010
                      TEMPO 0204 9999 BKN015
                      BECMG 0306 4000 BR BKN005
                      BECMG 0609 7000 NSW BKN010
                      PROB40 0910 9999 BKN015=
200805270005 TAF EGLL 270005Z 270110 06010KT 7000 BKN010
                      TEMPO 0104 3000 RA BKN006
                      PROB30 TEMPO 0103 1400 +RA
                      BECMG 0205 VRB03KT 2000 BR -DZ BKN004
                      TEMPO 0507 BKN006
                      BECMG 0710 8000 NSW BKN008=
200805262058 TAF EGLL 262058Z 262207 06010KT 7000 -RA BKN012
                      TEMPO 2204 3000 RA BKN006
                      PROB30 TEMPO 2203 1400 +RA
                      BECMG 0205 VRB03KT 2000 BR -DZ BKN004
                      TEMPO 0507 BKN006=
200805261804 TAF EGLL 261804Z 261904 06012KT 5000 -RA BKN010
                      TEMPO 1904 3000 RA -RADZ BKN006
                      PROB30 TEMPO 2003 1400 +RA=
200805261505 TAF EGLL 261505Z 261601 06014KT 5000 -RA BKN010
                      TEMPO 1601 3000 -RADZ BKN006
                      PROB30 TEMPO 2001 1400 +RA=
200805261204 TAF EGLL 261204Z 261322 06016KT 6000 -RA BKN012
                      TEMPO 1322 3000 -RADZ BKN007
                      TEMPO 1318 07018G28KT
                      PROB30 TEMPO 2022 1400 +RA=
200805260906 TAF EGLL 260906Z 261019 06017KT 6000 -RA BKN012
                      TEMPO 1019 07020G30KT 3000 RA -RADZ BKN007=
200805260600 TAF EGLL 260600Z 260716 05017KT 6000 -RA BKN012
                      TEMPO 0712 05020G30KT 2000 +RA RADZ BKN005
                       TEMPO 1216 05022G32KT 4000 RA BKN007=
200805260306 TAF EGLL 260306Z 260413 04018KT 6000 -RA BKN010
                      TEMPO 0412 05022G32KT 2000 +RA RADZ BKN005
                       TEMPO 1213 05022G32KT 4000 RA BKN005=
200805260001 TAF EGLL 260001Z 260110 04008KT 6000 BKN006
                      BECMG 0306 04018KT -RA BKN010
                      TEMPO 0410 05020G30KT 3000 +RA RADZ BKN006=
200805252105 TAF EGLL 252105Z 252207 04008KT 6000 BKN007
                      TEMPO 2205 4000 -DZ BKN004
                      BECMG 0306 04018KT RA
                      TEMPO 0507 05020G30KT 3000 +RA BKN004=
200805251801 TAF EGLL 251801Z 251904 05010KT 8000 BKN010
                      TEMPO 1904 4000 -DZ BKN005
                      BECMG 0204 04020G30KT RA=
200805251505 TAF EGLL 251505Z 251601 04010KT 9999 SCT012 BKN020
                      BECMG 1619 8000 BKN010
                      TEMPO 1801 4000 -DZ BKN007=
200805251215 TAF EGLL 251215Z 251322 VRB05KT 9999 BKN020
                      PROB30 TEMPO 1419 7000 SHRA
                      BECMG 1619 06010KT
                      BECMG 1821 7000 BKN010=
200805251200 TAF EGLL 251200Z NIL=
200805250906 TAF EGLL 250906Z 251019 06008KT 3000 RADZ BKN004
                      BECMG 1012 VRB05KT 8000 NSW BKN014
                      BECMG 1214 9999 BKN020
                      PROB30 TEMPO 1419 7000 SHRA
                      BECMG 1619 06010KT=
200805250608 TAF EGLL 250608Z 250716 06008KT 3000 RADZ BKN007
                      TEMPO 0710 1500 DZ BKN003
                      BECMG 1012 VRB05KT 8000 NSW BKN014
                      BECMG 1214 9999 BKN020=
200805250335 TAF EGLL 250335Z 250413 05010KT 6000 RADZ BKN020
                      BECMG 0407 3000 BKN007
                      TEMPO 0710 1500 DZ BKN003
                      BECMG 1012 VRB05KT 8000 NSW BKN014
                      BECMG 1214 9999 BKN020=
200805250300 TAF EGLL 250300Z NIL=
200805250017 TAF EGLL 250017Z 250110 05012KT 9999 -RA BKN045
                      BECMG 0103 5000 RA
                      BECMG 0306 3000 RADZ BKN006
                      PROB30 TEMPO 0306 +RA
                      TEMPO 0509 1400 DZ BKN003
                      BECMG 0910 7000 NSW BKN014=
200805250000 TAF EGLL 250000Z NIL=
200805242122 TAF EGLL 242122Z 242207 04017G27KT 9999 BKN045
                      BECMG 0003 5000 RA
                      BECMG 0306 06007KT 3000 RADZ BKN006
                      PROB30 TEMPO 0306 +RA
                      TEMPO 0507 1400 DZ BKN003=
200805242100 TAF EGLL 242100Z NIL=
200805241802 TAF EGLL 241802Z 241904 06015KT 9999 SCT035
                      TEMPO 1904 06020G30KT
                      BECMG 2302 5000 -RA
                      TEMPO 0004 3000 +RA BKN010=
200805241500 TAF EGLL 241500Z 241601 06015KT 9999 SCT045
                      TEMPO 1601 06018G28KT
                      TEMPO 2301 7000 RA=
200805241202 TAF EGLL 241202Z 241322 06015KT 9999 SCT045
                      TEMPO 1322 06018G28KT=
200805240902 TAF EGLL 240902Z 241019 05012KT 9999 SCT045
                      BECMG 1215 06016G28KT=
200805240611 TAF EGLL 240611Z 240716 05012KT 9000 SCT045
                      BECMG 0710 9999
                      BECMG 1013 06017G28KT=
200805240600 TAF EGLL 240600Z NIL=
200805240315 TAF COR EGLL 240315Z 240413 06009KT 8000 SCT045
                      BECMG 0710 9999
                      BECMG 1013 06017G28KT=
200805240310 TAF EGLL 240310Z 240413 06009KT 8000 SCT045
                      BECMG 0710 9999=
200805240300 TAF EGLL 240300Z NIL=
200805240005 TAF EGLL 240005Z 240110 07010KT 9999 SCT045
                      BECMG 0305 7000
                      BECMG 0710 9999=
200805232105 TAF EGLL 232105Z 232207 06008KT CAVOK
                      BECMG 0003 7000
                      PROB30 0407 4500 HZ=
200805231800 TAF EGLL 231800Z 231904 08009KT 9999 FEW040
                      PROB30 2204 8000=
200805231459 TAF EGLL 231459Z 231601 10005KT 9999 FEW040
                      PROB30 1901 8000=
200805231239 TAF AMD EGLL 231239Z 231219 12006KT 9999 FEW045
                      PROB40 TEMPO 1316 6000 SHRA=
200805231238 TAF AMD EGLL 231238Z 231322 12006KT 9999 FEW045
                      PROB40 TEMPO 1316 6000 SHRA
                      PROB30 1922 8000=
200805231203 TAF EGLL 231203Z 231322 12006KT 9999 FEW045
                      PROB30 1922 8000=
200805230910 TAF EGLL 230910Z 231019 09006KT 6000 FEW045
                      BECMG 1013 9999=
200805230900 TAF EGLL 230900Z NIL=
200805230557 TAF EGLL 230557Z 230716 09006KT 7000 SCT045
                      PROB30 TEMPO 0708 4000 BR
                      BECMG 0710 9999
                      PROB40 TEMPO 1016 6000 SHRA=
200805230255 TAF EGLL 230255Z 230413 09006KT 7000 SCT045
                      PROB40 0407 4000 BR
                      BECMG 0810 9999
                      PROB40 TEMPO 1013 6000 SHRA=
200805230011 TAF EGLL 230011Z 230110 09007KT 9999 SCT045
                      TEMPO 0108 8000
                      PROB40 0207 4000 BR=
200805230000 TAF EGLL 230000Z NIL=
200805222059 TAF EGLL 222059Z 222207 09007KT CAVOK
                      BECMG 2201 8000
                      TEMPO 0207 4000 BR=
200805221806 TAF EGLL 221806Z 221904 09007KT CAVOK
                      BECMG 2201 8000
                      TEMPO 0304 4500 HZ=
200805221516 TAF EGLL 221516Z 221601 12009KT 9999 SCT045
                      BECMG 2201 8000=
200805221500 TAF EGLL 221500Z NIL=
200805221218 TAF EGLL 221218Z 221322 13010KT 9999 SCT045=
200805221200 TAF EGLL 221200Z NIL=
200805220917 TAF EGLL 220917Z 221019 13008KT 9000 SCT045
                      BECMG 1012=
200805220900 TAF EGLL 220900Z NIL=
200805220602 TAF EGLL 220602Z 220716 11006KT 6000 NSC
                      BECMG 0710 9999 SCT040=
200805220300 TAF EGLL 220300Z 220413 09006KT 6000 NSC
                      PROB30 0406 3000 BR
                      BECMG 0609 CAVOK=
200805220004 TAF EGLL 220004Z 220110 09008KT 8000 NSC
                      BECMG 0508 CAVOK=
200805212238 TAF AMD EGLL 212238Z 212207 09008KT CAVOK
                      PROB40 2207 8000=
200805212055 TAF EGLL 212055Z 212207 09008KT CAVOK
                      PROB30 0407 8000=
200805211805 TAF EGLL 211805Z 211904 09008KT CAVOK=
200805211508 TAF EGLL 211508Z 211601 10010KT 9999 FEW045=
200805211202 TAF EGLL 211202Z 211322 10010KT 9999 SCT045=
200805210910 TAF EGLL 210910Z 211019 09010KT 9999 SCT040=
200805210601 TAF EGLL 210601Z 210716 09008KT 9999 SCT040=
200805210307 TAF EGLL 210307Z 210413 05005KT CAVOK=
200805210000 TAF EGLL 210000Z 210110 06006KT CAVOK=
200805202103 TAF EGLL 202103Z 202207 07007KT CAVOK=
200805201755 TAF EGLL 201755Z 201904 07008KT 9999 SCT040=
200805201456 TAF EGLL 201456Z 201601 07008KT 9999 SCT040=
200805201156 TAF EGLL 201156Z 201322 07010KT 9999 SCT035=
200805200854 TAF EGLL 200854Z 201019 07010KT 9999 SCT035=
200805200553 TAF EGLL 200553Z 200716 05006KT 9999 SCT040=
200805200254 TAF EGLL 200254Z 200413 03005KT CAVOK
                      TEMPO 1113 BKN045=
200805192353 TAF EGLL 192353Z 200110 05005KT CAVOK=
200805192058 TAF EGLL 192058Z 192207 08006KT CAVOK=
200805191752 TAF EGLL 191752Z 191904 05008KT 9999 SCT040=
200805191452 TAF EGLL 191452Z 191601 05008KT 9999 SCT040=
200805191152 TAF EGLL 191152Z 191322 04008KT 9999 SCT040=
200805190903 TAF EGLL 190903Z 191019 02006KT 9999 SCT040=
200805190555 TAF EGLL 190555Z 190716 02006KT CAVOK
                      TEMPO 1013 BKN045=
200805190300 TAF EGLL 190300Z 190413 02006KT CAVOK
                      TEMPO 1013 BKN045=
200805190002 TAF EGLL 190002Z 190110 04007KT CAVOK=
200805182056 TAF EGLL 182056Z 182207 04008KT CAVOK=
200805181804 TAF EGLL 181804Z 181904 04008KT CAVOK=
200805181505 TAF EGLL 181505Z 181601 05008KT CAVOK=
200805181203 TAF EGLL 181203Z 181322 05010KT 9999 SCT048=
200805180906 TAF EGLL 180906Z 181019 05012KT 9999 SCT045=
200805180600 TAF EGLL 180600Z 180716 06010KT 9999 FEW045=
200805180256 TAF EGLL 180256Z 180413 06009KT 9999 FEW045=
200805180003 TAF EGLL 180003Z 180110 06009KT 9999 SCT035=
200805172224 TAF AMD EGLL 172224Z 172207 06009KT 9999 SCT020 BKN040
                      TEMPO 2224 9000 -RA BKN012
                      BECMG 0003 CAVOK=
200805172105 TAF EGLL 172105Z 172207 06009KT 9999 SCT020 BKN040
                      PROB30 TEMPO 2224 9000 -RA
                      BECMG 0003 CAVOK=
200805171802 TAF EGLL 171802Z 171904 06010KT 9999 SCT020 BKN030
                      BECMG 2302 CAVOK=
200805171504 TAF EGLL 171504Z 171601 06010KT 9999 SCT015 BKN030
                      PROB30 TEMPO 1623 7000 -RA BKN014=
200805171203 TAF EGLL 171203Z 171322 06010KT 9999 SCT015 BKN030
                      PROB30 TEMPO 1321 7000 -RA BKN014=
200805170903 TAF EGLL 170903Z 171019 06010KT 9999 SCT015 BKN030
                      TEMPO 1019 7000 -RA BKN014
                      PROB30 TEMPO 1217 RA BKN009=
200805170607 TAF EGLL 170607Z 170716 05009KT 9999 BKN020
                      TEMPO 0716 7000 -RA BKN012
                      PROB30 TEMPO 1216 RA BKN006=
200805170305 TAF EGLL 170305Z 170413 05009KT 9999 BKN020
                      TEMPO 0413 7000 -DZ BKN012
                      PROB30 TEMPO 0509 4000 BR BKN006=
200805170010 TAF EGLL 170010Z 170110 04006KT 9999 BKN020
                      TEMPO 0110 7000 -DZ BKN012
                      PROB30 TEMPO 0409 4000 BR BKN006=
200805162101 TAF EGLL 162101Z 162207 04006KT 9999 BKN020
                      TEMPO 2207 7000 -DZ BKN012
                      PROB30 TEMPO 0307 4000 BR BKN006=
200805161804 TAF EGLL 161804Z 161904 05007KT 9999 FEW012 BKN018
                      TEMPO 1904 7000 -DZ BKN012
                      PROB30 TEMPO 0104 4000 RADZ BKN007=
200805161458 TAF EGLL 161458Z 161601 05007KT 9999 SCT012 BKN018
                      TEMPO 1601 7000 -DZ BKN012=
200805161200 TAF EGLL 161200Z 161322 05007KT 9999 SCT012 BKN018
                      TEMPO 1322 7000 -DZ BKN012=
200805160904 TAF EGLL 160904Z 161019 05007KT 9999 FEW010 BKN018
                      TEMPO 1014 7000 BKN010=
200805160604 TAF EGLL 160604Z 160716 05007KT 9999 BKN020
                      TEMPO 0714 7000 HZ BKN012
                      PROB30 TEMPO 0710 4000 RADZ BKN007=
200805160258 TAF EGLL 160258Z 160413 05007KT 9999 BKN015
                      TEMPO 0413 7000 HZ -RADZ BKN012
                      PROB30 TEMPO 0410 4000 RADZ BKN007=
200805160002 TAF EGLL 160002Z 160110 05007KT 9999 FEW012 BKN020
                      TEMPO 0110 7000 HZ -RADZ BKN012
                      PROB30 TEMPO 0410 4000 RADZ BKN007=
200805152107 TAF EGLL 152107Z 152207 05007KT 9999 SCT012 BKN018
                      BECMG 2202 6000 HZ -RADZ BKN010
                      PROB30 TEMPO 0107 4000 RADZ BKN007=
200805151805 TAF EGLL 151805Z 151904 05008KT 9999 SCT012 BKN018
                      TEMPO 1922 8000 -RA BKN010
                      BECMG 2201 6000 -RADZ BKN010
                      PROB30 TEMPO 0104 4000 RADZ BKN007=
200805151505 TAF EGLL 151505Z 151601 05010KT 9999 FEW010 BKN018
                      PROB40 TEMPO 1622 7000 -RA BKN010
                      BECMG 2201 6000 RADZ BKN010=
200805151203 TAF EGLL 151203Z 151322 05010KT 9999 SCT010 BKN018
                      TEMPO 1322 7000 RADZ BKN010=
200805150907 TAF EGLL 150907Z 151019 05010KT 9999 FEW012 BKN018
                      PROB40 TEMPO 1019 7000 SHRA BKN012=
200805150613 TAF COR EGLL 150613Z 150716 05010KT 9999 BKN030
                      TEMPO 0710 7000 RA BKN014
                      PROB30 TEMPO 0710 4000 TSRA BKN030CB
                      PROB40 TEMPO 1016 7000 BKN014
                      PROB30 TEMPO 1316 SHRA=
200805150600 TAF EGLL 150600Z 150716 05010KT 9999 BKN030
                      TEMPO 0710 7000 RA BKN014
                      PROB40 TEMPO 1016 7000 BKN014
                      PROB30 TEMPO 1316 SHRA=
200805150304 TAF EGLL 150304Z 150413 05010KT 9999 SCT040
                      TEMPO 0410 7000 RA BKN014
                      PROB40 TEMPO 1013 7000 BKN014=
200805150004 TAF EGLL 150004Z 150110 05010KT 9999 SCT040
                      TEMPO 0210 7000 RA BKN014=
200805142054 TAF EGLL 142054Z 142207 05012KT 9999 FEW040
                      BECMG 0003 7000 -RA
                      TEMPO 0307 4000 RA TSRA BKN012 BKN030CB
                      PROB30 TEMPO 0507 BKN007=
200805141756 TAF EGLL 141756Z 141904 05012KT 9999 FEW040
                      PROB40 TEMPO 1902 5000 SHRA TS BKN050CB
                      BECMG 0104 7000 -RA BKN012
                      PROB30 TEMPO 0204 4000 RA TSRA BKN005 BKN030CB=
200805141500 TAF EGLL 141500Z 141601 05012KT 9999 FEW045
                      PROB30 TEMPO 1601 5000 SHRA TS BKN050CB=
200805141209 TAF EGLL 141209Z 141322 05012KT 9999 FEW045
                      PROB30 TEMPO 1322 5000 SHRA TS BKN050CB=
200805140904 TAF EGLL 140904Z 141019 04010KT 9999 FEW045
                      PROB30 TEMPO 1019 05015G25KT 5000 SHRA TS
                       BKN050CB=
200805140558 TAF EGLL 140558Z 140716 04010KT CAVOK
                      PROB30 TEMPO 0708 7000 BKN014
                      TEMPO 0916 06015G25KT=
200805140254 TAF EGLL 140254Z 140413 04010KT 9999 FEW015
                      PROB40 TEMPO 0408 7000 BKN010
                      TEMPO 0913 06015G25KT=
200805140003 TAF EGLL 140003Z 140110 04009KT 9999 FEW015
                      PROB40 TEMPO 0108 7000 BKN010
                      TEMPO 0910 06015G25KT=
200805132055 TAF EGLL 132055Z 132207 04009KT CAVOK
                      PROB40 TEMPO 0007 7000 BKN010=
200805131800 TAF EGLL 131800Z 131904 04009KT CAVOK
                      PROB30 TEMPO 0104 8000 BKN010=
200805131511 TAF EGLL 131511Z 131601 05013KT CAVOK
                      PROB30 TEMPO 1618 07015G25KT=
200805131500 TAF EGLL 131500Z NIL=
200805131209 TAF EGLL 131209Z 131322 05013KT CAVOK
                      PROB30 TEMPO 1318 07015G25KT=
200805130908 TAF EGLL 130908Z 131019 05013KT CAVOK
                      PROB30 TEMPO 1018 07015G25KT=
200805130602 TAF EGLL 130602Z 130716 05010KT CAVOK
                      PROB30 TEMPO 0916 07015G25KT=
200805130305 TAF EGLL 130305Z 130413 04008KT CAVOK
                      TEMPO 0408 7000
                      PROB30 TEMPO 0913 07015G25KT=
200805130001 TAF EGLL 130001Z 130110 04008KT CAVOK
                      TEMPO 0408 7000=
200805122100 TAF EGLL 122100Z 122207 04010KT CAVOK
                      TEMPO 0407 7000=
200805121755 TAF EGLL 121755Z 121904 08008KT CAVOK=
200805121457 TAF EGLL 121457Z 121601 08010KT CAVOK=
200805121151 TAF EGLL 121151Z 121322 07010KT CAVOK=
200805120900 TAF EGLL 120900Z 121019 03004KT CAVOK
                      BECMG 1013 09010KT=
200805120559 TAF EGLL 120559Z 120716 03004KT CAVOK
                      BECMG 1013 09010KT=
200805120301 TAF EGLL 120301Z 120413 36004KT CAVOK
                      BECMG 1013 09010KT=
200805112350 TAF EGLL 112350Z 120110 05005KT CAVOK=
200805112052 TAF EGLL 112052Z 112207 05005KT CAVOK=
200805111803 TAF EGLL 111803Z 111904 08008KT CAVOK=
200805111507 TAF EGLL 111507Z 111601 08008KT CAVOK=
200805111202 TAF EGLL 111202Z 111322 08008KT CAVOK=
200805110904 TAF EGLL 110904Z 111019 08008KT CAVOK=
200805110554 TAF EGLL 110554Z 110716 01006KT CAVOK
                      PROB30 0710 8000
                      BECMG 1013 09010KT=
200805110302 TAF EGLL 110302Z 110413 02006KT 7000 NSC
                      BECMG 0710 CAVOK
                      BECMG 1013 09010KT=
200805110002 TAF EGLL 110002Z 110110 04006KT CAVOK
                      TEMPO 0110 7000=
200805102337 TAF AMD EGLL 102337Z 102307 04005KT CAVOK
                      TEMPO 2307 7000=
200805102103 TAF EGLL 102103Z 102207 04005KT CAVOK
                      PROB30 0507 8000=
200805101801 TAF EGLL 101801Z 101904 03005KT CAVOK
                      BECMG 0003 7000=
200805101459 TAF EGLL 101459Z 101601 06005KT CAVOK
                      PROB30 TEMPO 1620 9000 TSRA BKN045CB=
200805101446 TAF AMD EGLL 101446Z 101422 06005KT CAVOK
                      PROB30 TEMPO 1420 9000 TSRA BKN045CB=
200805101159 TAF EGLL 101159Z 101322 06005KT CAVOK
                      PROB30 TEMPO 1419 SCT045CB=
200805100857 TAF EGLL 100857Z 101019 VRB05KT CAVOK
                      PROB30 TEMPO 1319 SCT045CB=
200805100604 TAF EGLL 100604Z 100716 VRB05KT 7000 NSC
                      BECMG 0710 CAVOK
                      BECMG 1013 06010KT=
200805100600 TAF EGLL 100600Z NIL=
200805100306 TAF EGLL 100306Z 100413 VRB05KT CAVOK
                      TEMPO 0410 7000
                      BECMG 0912 06010KT=
200805100002 TAF EGLL 100002Z 100110 VRB05KT CAVOK
                      BECMG 0205 7000
                      BECMG 0810 CAVOK=
200805092118 TAF EGLL 092118Z 092207 VRB05KT CAVOK
                      PROB40 0107 7000=
200805092100 TAF EGLL 092100Z NIL=
200805091805 TAF EGLL 091805Z 091904 12006KT CAVOK
                      PROB30 TEMPO 1921 8000 TSRA SCT045CB
                      BECMG 0003 7000=
200805091519 TAF AMD EGLL 091519Z 091601 10006KT 9999 FEW045
                      PROB30 TEMPO 1620 8000 TSRA SCT045CB=
200805091456 TAF EGLL 091456Z 091601 10006KT 9999 FEW045
                      PROB30 TEMPO 1620 SCT045CB=
200805091156 TAF EGLL 091156Z 091322 10006KT CAVOK
                      PROB30 TEMPO 1319 SCT045CB=
200805090855 TAF EGLL 090855Z 091019 09006KT 9000 NSC
                      BECMG 1013 CAVOK
                      PROB30 TEMPO 1319 SCT045CB=
200805090604 TAF EGLL 090604Z 090716 09007KT 8000 NSC
                      PROB30 TEMPO 0710 RA
                      BECMG 1013 CAVOK=
200805090320 TAF EGLL 090320Z 090413 09005KT 8000 NSC
                      PROB30 TEMPO 0507 4500 RA
                      BECMG 0912 CAVOK=
200805090300 TAF EGLL 090300Z NIL=
200805090003 TAF EGLL 090003Z 090110 07005KT CAVOK
                      BECMG 0103 7000
                      PROB30 TEMPO 0306 4500 -RA
                      BECMG 0810 CAVOK=
200805082115 TAF EGLL 082115Z 082207 07006KT CAVOK
                      BECMG 0003 7000
                      PROB30 TEMPO 0305 4500 RA=
200805082100 TAF EGLL 082100Z NIL=
200805081802 TAF EGLL 081802Z 081904 09010KT CAVOK
                      BECMG 0003 7000=
200805081504 TAF EGLL 081504Z 081601 10012KT CAVOK=
200805081202 TAF EGLL 081202Z 081322 10013KT CAVOK
                      TEMPO 1315 11015G25KT=
200805081115 TAF AMD EGLL 081115Z 081019 10013KT CAVOK
                      TEMPO 1116 12015G25KT=
200805080902 TAF EGLL 080902Z 081019 10012KT CAVOK=
200805080559 TAF EGLL 080559Z 080716 08011KT 6000 NSC
                      BECMG 0911 CAVOK=
200805080311 TAF EGLL 080311Z 080413 08009KT 7000 NSC
                      BECMG 0911 CAVOK=
200805080300 TAF EGLL 080300Z NIL=
200805080003 TAF EGLL 080003Z 080110 08006KT 7000 NSC
                      BECMG 0810 CAVOK=
200805072110 TAF EGLL 072110Z 072207 08007KT CAVOK
                      BECMG 2302 7000=
200805072100 TAF EGLL 072100Z NIL=
200805071758 TAF EGLL 071758Z 071904 09010KT CAVOK
                      PROB30 0104 8000=
200805071458 TAF EGLL 071458Z 071601 10010KT CAVOK=
200805071205 TAF EGLL 071205Z 071322 09010KT CAVOK=
200805070900 TAF EGLL 070900Z 071019 09008KT 7000 NSC
                      BECMG 1012 CAVOK=
200805070607 TAF EGLL 070607Z 070716 08007KT 6000 NSC
                      BECMG 0810 CAVOK=
200805070309 TAF EGLL 070309Z 070413 06005KT 7000 NSC
                      BECMG 0810 CAVOK=
200805070001 TAF EGLL 070001Z 070110 06005KT 8000 NSC
                      BECMG 0810 CAVOK=
200805062101 TAF EGLL 062101Z 062207 06004KT CAVOK
                      BECMG 2302 8000=
200805061800 TAF EGLL 061800Z 061904 09010KT CAVOK
                      TEMPO 0304 9000=
200805061506 TAF EGLL 061506Z 061601 09014KT CAVOK=
200805061207 TAF EGLL 061207Z 061322 09014KT CAVOK=
200805060908 TAF EGLL 060908Z 061019 09012KT CAVOK=
200805060606 TAF EGLL 060606Z 060716 07006KT 8000 NSC
                      BECMG 0710 CAVOK=
200805060306 TAF EGLL 060306Z 060413 05004KT CAVOK
                      TEMPO 0409 8000=
200805060008 TAF EGLL 060008Z 060110 06006KT CAVOK
                      TEMPO 0309 8000=
200805052103 TAF EGLL 052103Z 052207 08005KT CAVOK
                      TEMPO 0407 8000=
200805051804 TAF EGLL 051804Z 051904 09011KT CAVOK=
200805051517 TAF EGLL 051517Z 051601 09012KT CAVOK=
200805051500 TAF EGLL 051500Z NIL=
200805051208 TAF EGLL 051208Z 051322 09012KT CAVOK=
200805050913 TAF EGLL 050913Z 051019 07009KT 8000 NSC
                      BECMG 1012 CAVOK=
200805050900 TAF EGLL 050900Z NIL=
200805050601 TAF EGLL 050601Z 050716 04003KT 8000 NSC
                      BECMG 0709 CAVOK=
200805050300 TAF EGLL 050300Z 050413 04003KT 7000 NSC
                      BECMG 0608 CAVOK=
200805050002 TAF EGLL 050002Z 050110 VRB03KT CAVOK
                      TEMPO 0108 8000=
200805042057 TAF EGLL 042057Z 042207 09005KT CAVOK
                      PROB30 TEMPO 0007 8000=
200805041810 TAF EGLL 041810Z 041904 14005KT CAVOK
                      TEMPO 1904 7000 SHRA=
200805041800 TAF EGLL 041800Z NIL=
200805041508 TAF EGLL 041508Z 041601 14007KT CAVOK
                      PROB40 TEMPO 1601 7000 SHRA=
200805041209 TAF EGLL 041209Z 041322 14007KT CAVOK
                      PROB40 TEMPO 1322 7000 SHRA=
200805040906 TAF EGLL 040906Z 041019 10010KT CAVOK
                      PROB40 TEMPO 1019 7000 SHRA=
200805040556 TAF EGLL 040556Z 040716 10007KT CAVOK
                      PROB30 TEMPO 0708 8000=
200805040300 TAF EGLL 040300Z 040413 09007KT CAVOK
                      PROB30 TEMPO 0408 8000=
200805040002 TAF EGLL 040002Z 040110 10010KT CAVOK
                      PROB30 TEMPO 0108 8000=
200805032101 TAF EGLL 032101Z 032207 11012KT CAVOK
                      PROB30 TEMPO 0007 8000=
200805031809 TAF EGLL 031809Z 031904 13008KT CAVOK
                      PROB30 TEMPO 1904 8000 SHRA=
200805031507 TAF EGLL 031507Z 031601 14008KT CAVOK
                      PROB30 TEMPO 1601 8000 RA=
200805031207 TAF EGLL 031207Z 031322 15008KT CAVOK=
200805030907 TAF EGLL 030907Z 031019 13008KT CAVOK=
200805030559 TAF EGLL 030559Z 030716 12005KT CAVOK=
200805030258 TAF EGLL 030258Z 030413 12005KT CAVOK
                      TEMPO 0408 7000=
200805022336 TAF EGLL 022336Z 030110 16005KT CAVOK
                      TEMPO 0307 8000=
200805022045 TAF EGLL 022045Z 022207 17005KT CAVOK
                      TEMPO 0307 7000=
200805021745 TAF EGLL 021745Z 021904 17006KT 9999 FEW040=
200805021459 TAF EGLL 021459Z 021601 21007KT 9999 SCT035=
200805021146 TAF EGLL 021146Z 021322 21006KT 9999 SCT035
                      PROB30 TEMPO 1015 7000 SHRA=
200805020856 TAF EGLL 020856Z 021019 21006KT 9999 SCT020
                      PROB30 TEMPO 1015 7000 SHRA=
200805020557 TAF EGLL 020557Z 020716 20006KT 8000 BKN012
                      BECMG 0709 9999 SCT025
                      PROB30 TEMPO 0915 7000 SHRA=
200805020452 TAF AMD EGLL 020452Z 020413 19006KT 9999 FEW030
                      TEMPO 0408 7000 BKN012
                      PROB30 TEMPO 0913 7000 SHRA=
200805020259 TAF EGLL 020259Z 020413 19006KT 9999 FEW030
                      TEMPO 0408 7000
                      PROB30 TEMPO 0913 7000 SHRA=
200805012343 TAF EGLL 012343Z 020110 20006KT 9999 FEW035
                      TEMPO 0307 7000
                      PROB30 TEMPO 0910 7000 SHRA=
200805012049 TAF EGLL 012049Z 012207 20006KT 9999 FEW035
                      TEMPO 0307 7000=
200805011802 TAF EGLL 011802Z 011904 23010KT 9999 FEW035
                      PROB30 TEMPO 1920 SHRA SCT025CB=
200805011456 TAF EGLL 011456Z 011601 23012KT 9999 SCT035
                      TEMPO 1620 SHRA SCT020CB
                      PROB30 TEMPO 1619 23015G25KT 5000 +SHRA TSGR=
200805011155 TAF EGLL 011155Z 011322 23012KT 9999 SCT035
                      TEMPO 1320 SHRA SCT020CB
                      PROB30 TEMPO 1319 23015G25KT 5000 +SHRA TSGR=
200805010902 TAF EGLL 010902Z 011019 23012KT 9999 SCT025
                      TEMPO 1019 SHRA SCT020CB
                      PROB30 TEMPO 1019 23015G25KT 5000 +SHRA TSGR=
200805010607 TAF EGLL 010607Z 010716 22010KT 9999 SCT020
                      TEMPO 0716 SHRA SCT020CB
                      PROB30 TEMPO 0816 23015G25KT 5000 +SHRA TSGR=
200805010305 TAF EGLL 010305Z 010413 22010KT 9999 SCT020
                      TEMPO 0413 SHRA SCT020CB
                      PROB30 TEMPO 0408 BKN012
                      PROB30 TEMPO 0913 23015G25KT 5000 +SHRA TSRA=
200805010002 TAF EGLL 010002Z 010110 21008KT 9999 SCT018 BKN035
                      TEMPO 0110 7000 SHRA RA SCT020CB
                      PROB30 TEMPO 0107 BKN010=

###################################
#  large TAF from EGLL
###################################
200805312327 TAF COR EGLL 312327Z 010606 05005KT 3000 BR BKN005
                      BECMG 0709 6000 NSW BKN012
                      BECMG 0911 9999 SCT030
                      BECMG 2201 7000
                      PROB30 0406 4000 BR=
200805312242 TAF COR EGLL 312242Z 010606 05005KT 3000 BR BKN005
                      BECMG 0709 6000 NSW BKN012
                      BECMG 0911 9999 NSW SCT030
                      BECMG 2201 7000
                      PROB30 0406 4000 BR=
200805311709 TAF AMD EGLL 311709Z 010024 35005KT 7000 SCT045
                      PROB30 0308 4000 BR
                      BECMG 0710 9999
                      TEMPO 2224 7000=
200805311633 TAF EGLL 311633Z 010024 35005KT 7000 SCT045
                      PROB30 0308 4000 BR
                      BECMG 0710 9999=
200805311028 TAF EGLL 311028Z 311818 35005KT 9999 SCT045
                      PROB30 TEMPO 1914 7000 -RA
                      TEMPO 0710 BKN012
                      PROB40 0209 4000 BR
                      BECMG 0912 BKN020=
200805310407 TAF EGLL 310407Z 311212 35005KT 9999 SCT045
                      TEMPO 1906 7000 RA
                      BECMG 0306 BKN010
                      PROB40 0209 4000 BR
                      BECMG 0912 BKN020=
200805302154 TAF EGLL 302154Z 310606 VRB04KT 7000 SCT045
                      PROB30 TEMPO 0607 3000 BR
                      BECMG 0810 9999
                      TEMPO 1906 7000 RA
                      PROB40 0006 4000 BR BKN010=
200805301640 TAF EGLL 301640Z 310024 VRB04KT 9999 BKN040
                      BECMG 0003 7000
                      PROB30 TEMPO 0307 4000 BR
                      BECMG 0810 9999=
200805301057 TAF EGLL 301057Z 301818 36004KT 9999 SCT030
                      BECMG 2302 7000
                      TEMPO 0307 3000 BR
                      BECMG 0810 9999=
200805301000 TAF EGLL 301000Z NIL=
200805300416 TAF EGLL 300416Z 301212 33005KT 9999 SCT030
                      BECMG 2124 8000
                      BECMG 0104 3000 BR
                      PROB40 TEMPO 0306 BKN007
                      BECMG 0608 6000 NSW
                      BECMG 0810 9999=
200805292147 TAF EGLL 292147Z 300606 33005KT 3000 BR BKN006
                      BECMG 0608 6000 NSW BKN012
                      BECMG 0810 9999 SCT030
                      BECMG 2124 8000
                      BECMG 0104 3000 BR
                      PROB40 TEMPO 0306 BKN007=
200805291703 TAF EGLL 291703Z 300024 33006KT 8000 SCT030
                      TEMPO 0003 3000 BR BKN006
                      BECMG 0305 3000 BR BKN006
                      BECMG 0608 5000 HZ BKN012
                      BECMG 0810 9999 NSW SCT030
                      BECMG 2124 8000=
200805291600 TAF EGLL 291600Z NIL=
200805291051 TAF EGLL 291051Z 291818 09010KT 9999 SCT040
                      TEMPO 1809 9000
                      BECMG 2124 36005KT
                      PROB30 TEMPO 0408 4500 BR BKN010=
200805291000 TAF EGLL 291000Z NIL=
200805290412 TAF EGLL 290412Z 291212 08006KT 9999 SCT035
                      PROB30 TEMPO 1424 7000 SHRA -RA
                      TEMPO 0008 7000 BKN010=
200805282217 TAF EGLL 282217Z 290606 VRB05KT 4000 BR BKN006
                      PROB30 TEMPO 0607 0600 FG BKN001
                      BECMG 0710 9999 NSW SCT025
                      PROB30 TEMPO 0306 7000 BKN010=
200805281547 TAF EGLL 281547Z 290024 23010KT 8000 SCT020
                      BECMG 0003 VRB05KT 4000 BR BKN010
                      PROB30 TEMPO 0307 0600 FG BKN001
                      BECMG 0710 12010KT 9999 NSW SCT025
                      PROB30 TEMPO 1624 7000 SHRA
                      BECMG 2124 03005KT=
200805281005 TAF EGLL 281005Z 281818 23012KT 9999 BKN020
                      PROB40 TEMPO 1820 16015G25KT 4000 +SHRA BKN020CB
                       BECMG 0003 VRB05KT 4000 BR BKN010
                      PROB30 TEMPO 0307 0600 FG BKN001
                      BECMG 0710 12010KT 9999 NSW SCT025
                      PROB40 1018 7000 SHRA=
200805280420 TAF EGLL 280420Z 281212 16013KT 9999 BKN015
                      TEMPO 1221 7000 -RA BKN009
                      PROB30 TEMPO 1216 4000 +SHRA +TSRA BKN014CB
                       BECMG 1518 22014KT
                      BECMG 0003 16004KT 5000 BR
                      PROB30 TEMPO 0307 0600 FG BKN001
                      BECMG 0710 9999 NSW=
200805272338 TAF COR EGLL 272338Z 280606 09010KT 4000 -RA BR BKN005
                      PROB30 TEMPO 0611 +SHRA +TSRA BKN015CB
                      BECMG 0710 16013KT 9999 NSW SCT025
                      TEMPO 1219 7000 -RA BKN012
                      BECMG 1518 23014KT
                      BECMG 0003 17004KT 4000 BR
                      PROB30 TEMPO 0306 0500 FG BKN000=
200805272250 TAF EGLL 272250Z 280606 09010KT 4000 -RA BR BKN005
                      PROB30 TEMPO 0611 +SHRA +TSRA
                      BECMG 0710 16013KT 9999 NSW SCT025
                      TEMPO 1219 7000 -RA BKN012
                      BECMG 1518 23014KT
                      BECMG 0003 17004KT 4000 BR
                      PROB30 TEMPO 0306 0500 FG BKN000=
200805272200 TAF EGLL 272200Z NIL=
200805271623 TAF EGLL 271623Z 280024 03010KT 9999 BKN025
                      TEMPO 0020 7000 RA BKN010
                      PROB40 TEMPO 0006 06015G25KT 3000 TSRA +RA
                       BKN006 BKN060CB
                      PROB30 TEMPO 0106 BKN004
                      BECMG 0912 16015KT
                      PROB40 TEMPO 1420 17020G30KT
                      BECMG 2124 23008KT=
200805271018 TAF EGLL 271018Z 271818 09008KT 9999 SCT025
                      TEMPO 1807 8000 RA BKN010
                      BECMG 2124 03010KT
                      PROB40 TEMPO 0006 4000 TSRA +RA BKN006 BKN060CB
                       PROB30
                      TEMPO 0106 06015G25KT +TSRA BKN004
                      BECMG 0912 16015G25KT
                      PROB30 TEMPO 0918 17020G35KT 4000 TSRA BKN040CB=
200805270431 TAF EGLL 270431Z 271212 09005KT 9999 SCT025
                      BECMG 1922 03010KT 8000
                      TEMPO 2022 SHRA BKN010
                      TEMPO 2208 TSRA SHRA BKN006 BKN060CB
                      PROB30 TEMPO 2208 07015G25KT 2000 +TSRA BKN004
                       BECMG 0508 11010KT
                      PROB30 TEMPO 1012 12015G25KT 3000 +TSRA BKN040CB=
200805262219 TAF EGLL 262219Z 270606 09005KT 2000 BR -DZ BKN004
                      BECMG 0710 8000 NSW BKN008
                      BECMG 1012 9999 SCT025
                      BECMG 1922 8000
                      TEMPO 2022 SHRA BKN010
                      TEMPO 2206 TSRA SHRA BKN006 BKN060CB
                      PROB30 TEMPO 2206 07015G25KT 2000 +TSRA BKN004=
200805261640 TAF EGLL 261640Z 270024 05010KT 5000 -RA BKN010
                      TEMPO 0003 3000 RA BKN006
                      PROB30 TEMPO 0003 1400 +RA
                      BECMG 0305 VRB05KT 2000 BR -DZ BKN004
                      BECMG 0710 8000 NSW BKN008
                      BECMG 1012 9999 SCT025
                      TEMPO 2124 7000 -RA BKN010=
200805260958 TAF EGLL 260958Z 261818 05015KT 8000 -RA BKN012
                      TEMPO 1803 4000 RADZ BKN007
                      PROB30 TEMPO 2003 1400 +RA
                      BECMG 0305 VRB05KT 2000 BR -DZ BKN004
                      BECMG 0710 8000 NSW BKN008
                      BECMG 1012 9999 SCT025=
200805260423 TAF EGLL 260423Z 261212 04018KT 8000 -RA BKN012
                      TEMPO 1203 4000 RA BKN007
                      TEMPO 1219 04020G30KT
                      PROB30 TEMPO 1903 +RA +TSRA BKN030CB
                      BECMG 0104 VRB05KT 2000 BR -DZ BKN004
                      BECMG 0710 8000 NSW BKN008
                      BECMG 1012 9999 SCT025=
200805252224 TAF EGLL 252224Z 260606 04018KT 8000 -RADZ BKN012
                      TEMPO 0603 04020G30KT
                      TEMPO 0611 3000 +RA BKN006
                      TEMPO 1106 4000 RA BKN008
                      PROB30 TEMPO 1803 1400 +RA +TSRA BKN030CB
                       BECMG 0003 04008KT
                      PROB40 0306 BKN004=
200805251613 TAF EGLL 251613Z 260024 05012KT 8000 BKN010
                      TEMPO 0005 4000 -DZ BKN007
                      BECMG 0205 04020G30KT RA
                      TEMPO 0524 3000 RADZ BKN006
                      PROB30 TEMPO 0512 1400 +RA
                      PROB30 TEMPO 1824 1400 +RA +TSRA BKN040CB=
200805251028 TAF EGLL 251028Z 251818 06012KT 9999 BKN020
                      BECMG 1821 7000 BKN010
                      TEMPO 2106 4000 -DZ BKN007
                      BECMG 0306 04020G30KT RA
                      TEMPO 0618 3000 RADZ BKN006
                      PROB30 TEMPO 0612 1400 +RA=
200805250507 TAF EGLL 250507Z 251212 05012KT 9999 BKN020
                      BECMG 1821 7000 BKN010
                      BECMG 0104 04018G28KT RADZ
                      TEMPO 0112 3000 RADZ BKN006
                      PROB30 TEMPO 0609 +RA=
200805250400 TAF EGLL 250400Z NIL=
200805242307 TAF EGLL 242307Z 250606 05010KT 3000 -RADZ BKN006
                      TEMPO 0609 1400 DZ BKN003
                      BECMG 0911 9999 NSW BKN020
                      BECMG 1922 8000 BKN010
                      BECMG 0205 04015G25KT 3000 RADZ BKN007=
200805242200 TAF EGLL 242200Z NIL=
200805241637 TAF EGLL 241637Z 250024 06015KT 5000 -RA BKN020
                      TEMPO 0006 06020G32KT 3000 +RA BKN010
                      BECMG 0407 BKN008
                      PROB40 0611 3000 BR -DZ
                      TEMPO 1124 06005KT 9999 NSW SCT010 BKN015=
200805241036 TAF EGLL 241036Z 241818 06015KT 9999 SCT045
                      TEMPO 1806 06018G32KT
                      BECMG 2201 7000 RA
                      BECMG 0407 BKN012
                      PROB40 TEMPO 0610 4500 +RA BKN007
                      TEMPO 1013 2500 RADZ BKN005
                      BECMG 1215 9999 NSW SCT010 BKN020=
200805240455 TAF EGLL 240455Z 241212 06017G28KT 9999 SCT045
                      BECMG 0003 06014KT 6000 RA
                      BECMG 0609 BKN012
                      PROB40 TEMPO 0610 +RA
                      BECMG 0911 BKN007
                      TEMPO 0912 2500 RADZ BKN004=
200805240400 TAF EGLL 240400Z NIL=
200805232257 TAF EGLL 232257Z 240606 05008KT 7000 SCT040
                      BECMG 0710 9999
                      BECMG 1013 06017G27KT
                      BECMG 0003 06013KT 6000 RA
                      TEMPO 0406 4500 RADZ BKN013=
200805232200 TAF EGLL 232200Z NIL=
200805231619 TAF EGLL 231619Z 240024 08009KT 9999 SCT040
                      PROB40 0008 6000
                      TEMPO 0924 06016G26KT
                      TEMPO 2224 7000 RA BKN014=
200805231032 TAF EGLL 231032Z 231818 08009KT 9999 SCT045
                      PROB40 1908 6000
                      TEMPO 0918 06016G26KT=
200805230357 TAF EGLL 230357Z 231212 09008KT 9999 SCT045
                      PROB40 TEMPO 1217 6000 SHRA
                      PROB30 2207 7000
                      PROB30 TEMPO 0912 06015G25KT=
200805222146 TAF EGLL 222146Z 230606 09008KT 8000 SCT040
                      PROB40 TEMPO 0608 4000 BR
                      BECMG 0810 9999
                      PROB40 TEMPO 1015 6000 SHRA
                      PROB30 2206 7000=
200805221709 TAF EGLL 221709Z 230024 09008KT 8000 SCT040
                      TEMPO 0308 4500 HZ
                      BECMG 0810 9999
                      PROB30 TEMPO 1015 6000 SHRA=
200805221600 TAF EGLL 221600Z NIL=
200805221111 TAF EGLL 221111Z 221818 09008KT 9999 SCT045
                      TEMPO 0010 7000 -SHRA
                      PROB30 TEMPO 1015 5000 +SHRA SCT030CB=
200805221000 TAF EGLL 221000Z NIL=
200805220353 TAF EGLL 220353Z 221212 16010KT 9999 SCT045
                      BECMG 1821 10006KT
                      TEMPO 2206 7000 -RA
                      TEMPO 0912 7000 SHRA
                      PROB30 TEMPO 1012 4000 +SHRA TSRA BKN030CB=
200805212151 TAF EGLL 212151Z 220606 12008KT 9999 SCT045
                      PROB30 0608 8000
                      TEMPO 2203 7000 -RA=
200805211642 TAF EGLL 211642Z 220024 09010KT 9999 SCT045
                      TEMPO 0508 8000
                      BECMG 1114 16008KT
                      PROB30 TEMPO 2224 9000 -RA=
200805211031 TAF EGLL 211031Z 211818 09010KT 9999 FEW045
                      BECMG 0305 8000
                      BECMG 0709 9999
                      BECMG 1215 16008KT=
200805210410 TAF EGLL 210410Z 211212 10008KT CAVOK=
200805202218 TAF EGLL 202218Z 210606 10008KT CAVOK=
200805201619 TAF EGLL 201619Z 210024 10007KT 9999 FEW040
                      PROB30 0407 7000=
200805200950 TAF EGLL 200950Z 201818 10008KT 9999 FEW040
                      PROB30 0407 7000=
200805200345 TAF EGLL 200345Z 201212 09007KT 9999 SCT045
                      PROB30 0407 8000=
200805192145 TAF EGLL 192145Z 200606 08007KT CAVOK
                      TEMPO 1117 BKN045
                      PROB30 0406 8000=
200805191603 TAF EGLL 191603Z 200024 08008KT 9999 SCT040=
200805190945 TAF EGLL 190945Z 191818 07010KT 9999 SCT040=
200805190412 TAF EGLL 190412Z 191212 06009KT 9999 SCT045=
200805182219 TAF EGLL 182219Z 190606 05008KT CAVOK
                      TEMPO 1019 BKN045=
200805181632 TAF EGLL 181632Z 190024 06008KT CAVOK
                      TEMPO 1014 BKN045=
200805181020 TAF EGLL 181020Z 181818 05008KT 9999 SCT045=
200805180409 TAF EGLL 180409Z 181212 05010KT 9999 SCT045=
200805172225 TAF EGLL 172225Z 180606 05010KT CAVOK
                      TEMPO 1019 9999 BKN045=
200805171613 TAF EGLL 171613Z 180024 05010KT 9999 BKN030
                      BECMG 0002 CAVOK
                      TEMPO 1218 BKN045=
200805171012 TAF EGLL 171012Z 171818 06010KT 9999 BKN030
                      PROB30 TEMPO 1821 8000 -RA BKN014
                      BECMG 2124 CAVOK
                      TEMPO 1218 BKN045=
200805170429 TAF EGLL 170429Z 171212 04009KT 9999 BKN025
                      TEMPO 1223 7000 -RA BKN012
                      PROB30 TEMPO 1222 4000 RADZ +RA BKN006=
200805162219 TAF EGLL 162219Z 170606 04009KT 9999 BKN020
                      TEMPO 0623 7000 -DZ BKN012
                      PROB30 TEMPO 0622 4000 BR RADZ +RA BKN006=
200805161621 TAF EGLL 161621Z 170024 04009KT 9999 SCT010 BKN020
                      TEMPO 0024 7000 -RA BKN010
                      PROB40 TEMPO 0024 4000 RADZ +RA BKN007=
200805161028 TAF EGLL 161028Z 161818 06009KT 9999 FEW010 BKN020
                      TEMPO 1818 7000 -RA BKN010
                      PROB40 TEMPO 0118 4000 RADZ +RA BKN007=
200805160431 TAF EGLL 160431Z 161212 06009KT 9999 BKN020
                      PROB30 TEMPO 1214 7000 HZ BKN014
                      BECMG 2024 7000 -RA BKN012
                      PROB40 TEMPO 2312 4000 RADZ +RA BKN007=
200805152228 TAF EGLL 152228Z 160606 05009KT 7000 -RA BKN015
                      PROB30 TEMPO 0610 4000 RADZ BKN007
                      BECMG 1014 9999 NSW
                      BECMG 2024 7000 -RA BKN012
                      PROB30 TEMPO 2306 4000 RADZ BKN007=
200805151625 TAF EGLL 151625Z 160024 05009KT 7000 -RA BKN012
                      PROB40 TEMPO 0010 4000 RADZ BKN006
                      BECMG 1013 9999 NSW BKN025
                      TEMPO 1924 7000 -RA BKN010=
200805151030 TAF EGLL 151030Z 151818 06010KT 9999 SCT012 BKN025
                      PROB40 TEMPO 1822 7000 -RA BKN012
                      BECMG 2201 7000 -RA BKN012
                      PROB40 TEMPO 0110 4000 RADZ BKN006
                      BECMG 1013 9999 NSW BKN020
                      PROB30 TEMPO 1318 8000 SHRA=
200805150400 TAF EGLL 150400Z 151212 06010KT 9999 SCT040
                      PROB40 TEMPO 1221 7000 BKN014
                      PROB30 TEMPO 1318 SHRA
                      BECMG 2124 7000 -RA BKN014
                      PROB40 TEMPO 0107 4000 RA BKN008=
200805142212 TAF EGLL 142212Z 150606 05010KT 9999 -RA BKN030
                      TEMPO 0612 7000 RA BKN014
                      PROB30 TEMPO 0611 4000 TSRA BKN030CB
                      TEMPO 1206 7000 BKN012
                      PROB40 TEMPO 1206 4000 BR BKN008=
200805141638 TAF EGLL 141638Z 150024 05012KT 9999 BKN045
                      TEMPO 0002 5000 SHRA TS BKN050CB
                      BECMG 0104 7000 -RA BKN012
                      PROB40 TEMPO 0212 4000 RA TSRA BKN005 BKN030CB
                       TEMPO 1216 BKN008
                      BECMG 1620 SCT018
                      PROB40 1618 9999 NSW
                      PROB30 TEMPO 1824 5000 SHRA TS BKN050CB=
200805141038 TAF EGLL 141038Z 141818 05012KT 9999 FEW045
                      TEMPO 1802 5000 SHRA TS BKN050CB
                      BECMG 0104 7000 -RA BKN012
                      PROB40 TEMPO 0212 4000 RA TSRA BKN005 BKN030CB
                       TEMPO 1216 BKN008
                      PROB40 1618 9999 NSW SCT012=
200805140355 TAF EGLL 140355Z 141212 05010KT CAVOK
                      TEMPO 1221 06015G25KT
                      BECMG 2302 7000 -RA
                      PROB40 TEMPO 0212 4000 RA TSRA BKN040CB
                      PROB30 TEMPO 0612 BKN012=
200805132206 TAF EGLL 132206Z 140606 03008KT CAVOK
                      PROB30 TEMPO 0608 7000 BKN010
                      TEMPO 0921 06015G25KT
                      PROB30 TEMPO 1218 5000 +SHRA TSRA BKN040CB
                       BECMG 0003 7000 -RA
                      PROB30 TEMPO 0306 4000 RA BKN014=
200805131616 TAF EGLL 131616Z 140024 03008KT CAVOK
                      PROB30 TEMPO 0108 8000 BKN010
                      TEMPO 1024 06015G25KT
                      PROB30 TEMPO 1219 5000 +SHRA TSRA BKN040CB=
200805131016 TAF EGLL 131016Z 131818 03008KT CAVOK
                      PROB30 TEMPO 0108 8000 BKN010
                      TEMPO 1018 06015G25KT=
200805130428 TAF EGLL 130428Z 131212 05012KT CAVOK
                      PROB30 TEMPO 1218 07015G25KT
                      TEMPO 0108 8000 BKN010=
200805122145 TAF EGLL 122145Z 130606 04010KT CAVOK
                      TEMPO 0608 7000
                      PROB30 TEMPO 0918 07015G25KT
                      TEMPO 0106 8000 BKN010=
200805121549 TAF EGLL 121549Z 130024 07007KT CAVOK
                      PROB40 0407 7000
                      PROB30 TEMPO 0918 09015G25KT=
200805121020 TAF EGLL 121020Z 121818 07007KT CAVOK
                      PROB30 0407 8000
                      PROB30 TEMPO 0918 09015G25KT=
200805120418 TAF EGLL 120418Z 121212 07008KT CAVOK=
200805112209 TAF EGLL 112209Z 120606 08008KT CAVOK=
200805111545 TAF EGLL 111545Z 120024 07008KT CAVOK
                      PROB30 0409 8000=
200805111025 TAF EGLL 111025Z 111818 08010KT CAVOK
                      TEMPO 2109 02006KT
                      PROB30 0409 8000=
200805110408 TAF EGLL 110408Z 111212 08010KT CAVOK
                      TEMPO 2109 02006KT
                      PROB30 0309 8000=
200805102203 TAF EGLL 102203Z 110606 05008KT CAVOK
                      PROB30 0608 8000
                      TEMPO 1118 11012KT
                      PROB30 0406 8000=
200805101558 TAF EGLL 101558Z 110024 06005KT CAVOK
                      BECMG 0003 7000
                      BECMG 0810 CAVOK=
200805101007 TAF EGLL 101007Z 101818 10006KT CAVOK
                      PROB30 TEMPO 1820 SCT045CB
                      PROB40 TEMPO 0408 7000=
200805100419 TAF EGLL 100419Z 101212 06007KT CAVOK
                      PROB30 TEMPO 0408 7000=
200805092219 TAF EGLL 092219Z 100606 03006KT CAVOK
                      TEMPO 0610 7000
                      TEMPO 0306 7000=
200805091614 TAF EGLL 091614Z 100024 VRB06KT CAVOK
                      BECMG 0003 7000
                      BECMG 0810 CAVOK=
200805091014 TAF EGLL 091014Z 091818 10006KT CAVOK
                      PROB30 TEMPO 1820 SCT045CB
                      BECMG 0003 7000
                      PROB30 TEMPO 0408 4500 SHRA
                      BECMG 0810 CAVOK=
200805090450 TAF EGLL 090450Z 091212 09008KT CAVOK
                      BECMG 0205 7000
                      BECMG 0810 CAVOK=
200805090400 TAF EGLL 090400Z NIL=
200805082257 TAF EGLL 082257Z 090606 09008KT 5000 HZ NSC
                      BECMG 0810 CAVOK
                      BECMG 0205 5000 HZ=
200805082200 TAF EGLL 082200Z NIL=
200805081621 TAF EGLL 081621Z 090024 10008KT CAVOK
                      BECMG 0002 7000
                      BECMG 0810 CAVOK
                      PROB40 2224 8000=
200805081003 TAF EGLL 081003Z 081818 09008KT CAVOK
                      BECMG 2302 7000
                      BECMG 0810 CAVOK=
200805080430 TAF EGLL 080430Z 081212 09012KT CAVOK
                      BECMG 2302 7000
                      BECMG 0911 CAVOK=
200805072230 TAF EGLL 072230Z 080606 09012KT 6000 NSC
                      BECMG 0810 CAVOK
                      BECMG 0003 7000=
200805071608 TAF EGLL 071608Z 080024 10010KT CAVOK
                      PROB40 0108 7000=
200805071016 TAF EGLL 071016Z 071818 09008KT CAVOK
                      BECMG 2201 8000
                      PROB30 0407 4000 HZ
                      BECMG 0911 CAVOK=
200805070413 TAF EGLL 070413Z 071212 11008KT CAVOK
                      BECMG 2201 8000
                      BECMG 0810 CAVOK=
200805062221 TAF EGLL 062221Z 070606 09008KT 8000 NSC
                      BECMG 0810 CAVOK
                      BECMG 2201 8000=
200805061629 TAF EGLL 061629Z 070024 09010KT CAVOK
                      TEMPO 0309 7000=
200805061024 TAF COR EGLL 061024Z 061818 09010KT CAVOK
                      TEMPO 0309 7000=
200805060420 TAF EGLL 060420Z 061212 11010KT 9999 FEW040
                      TEMPO 0309 8000=
200805052224 TAF EGLL 052224Z 060606 09008KT 9999 FEW040
                      TEMPO 0610 8000
                      TEMPO 0306 8000=
200805051623 TAF EGLL 051623Z 060024 09013KT 9999 FEW040
                      TEMPO 0309 8000=
200805051049 TAF EGLL 051049Z 051818 08009KT CAVOK
                      TEMPO 0309 8000=
200805051000 TAF EGLL 051000Z NIL=
200805050347 TAF EGLL 050347Z 051212 07008KT CAVOK
                      TEMPO 0308 8000=
200805042152 TAF EGLL 042152Z 050606 04005KT CAVOK
                      PROB30 TEMPO 0608 8000
                      TEMPO 0306 8000=
200805041624 TAF AMD EGLL 041624Z 050024 08004KT CAVOK
                      TEMPO 0010 8000 RA
                      PROB30 TEMPO 0009 4000 +RA BKN060CB=
200805041051 TAF EGLL 041051Z 041818 08004KT CAVOK
                      TEMPO 1815 8000 RA
                      PROB30 TEMPO 2015 4000 +RA BKN060CB=
200805041000 TAF EGLL 041000Z NIL=
200805040345 TAF EGLL 040345Z 041212 14010KT CAVOK
                      TEMPO 1709 8000 -RA
                      PROB30 TEMPO 1706 4000 +RA BKN070CB
                      BECMG 0003 03005KT=
200805032203 TAF EGLL 032203Z 040606 11010KT CAVOK
                      PROB30 TEMPO 0608 8000
                      TEMPO 2106 8000 -RA
                      PROB30 TEMPO 2106 4000 +RA BKN070CB=
200805031637 TAF EGLL 031637Z 040024 11006KT CAVOK
                      TEMPO 0024 8000 RA
                      PROB40 TEMPO 1824 4000 +RA BKN030CB=
200805031036 TAF EGLL 031036Z 031818 11006KT CAVOK
                      PROB30 TEMPO 1812 8000 RA
                      PROB40 TEMPO 1218 6000 RA=
200805030355 TAF EGLL 030355Z 031212 15010KT CAVOK
                      PROB30 TEMPO 0007 7000 -RA=
200805022154 TAF EGLL 022154Z 030606 15007KT CAVOK
                      TEMPO 0608 8000
                      PROB30 TEMPO 0006 7000 -RA=
200805021610 TAF EGLL 021610Z 030024 16005KT CAVOK
                      TEMPO 0408 8000=
200805020956 TAF EGLL 020956Z 021818 22007KT 9999 SCT030
                      TEMPO 0408 8000
                      BECMG 0811 15010KT=
200805020358 TAF EGLL 020358Z 021212 21007KT 9999 SCT030
                      PROB30 TEMPO 1215 7000 SHRA
                      TEMPO 0408 8000
                      BECMG 0811 15010KT=
200805012150 TAF EGLL 012150Z 020606 20005KT 9999 FEW030
                      TEMPO 0608 7000
                      PROB30 TEMPO 0915 7000 SHRA
                      TEMPO 0406 8000=
200805011550 TAF EGLL 011550Z 020024 21006KT 9999 FEW040
                      PROB30 0408 7000
                      PROB30 TEMPO 0915 7000 SHRA=
200805011001 TAF EGLL 011001Z 011818 22010KT 9999 SCT040
                      TEMPO 1820 SHRA SCT030CB
                      PROB30 TEMPO 1819 23015G25KT 5000 +SHRA TSGR
                       PROB30 0408 8000
                      PROB30 TEMPO 0915 7000 SHRA=
200805010424 TAF EGLL 010424Z 011212 23010KT 9999 SCT030
                      TEMPO 1220 SHRA SCT025CB
                      PROB30 TEMPO 1219 23015G25KT 5000 +SHRA TSRAGS
                       PROB30 0407 7000 BKN008
                      PROB30 TEMPO 0812 7000 SHRA=
