##########################################################
# Query made at 01/13/2020 12:25:34 UTC
# Time interval: from 05/01/2016 00:00  to 05/31/2016 23:59  UTC
##########################################################

##########################################################
# EGLL, London / Heathrow Airport (United Kingdom)
# WMO index: 03772
# Latitude 51-29N. Longitude 000-27W. Altitude 24 m.
##########################################################

###################################
#  METAR/SPECI from EGLL
###################################
201605312350 METAR COR EGLL 312350Z AUTO 01008KT 330V050 9000 OVC007 12/11
                        Q1020 TEMPO 4000 -DZ BKN004=
201605312320 METAR COR EGLL 312320Z AUTO 36007KT 320V040 9999 OVC006 12/11
                        Q1020 TEMPO 4000 -DZ BKN004=
201605312250 METAR COR EGLL 312250Z AUTO 01009KT 8000 OVC006 12/11 Q1020
                        TEMPO 4000 BR BKN004=
201605312220 METAR COR EGLL 312220Z AUTO 36007KT 330V030 9999 OVC005 12/11
                        Q1020 TEMPO 4000 BR BKN004=
201605312150 METAR COR EGLL 312150Z AUTO 01008KT 340V040 8000 OVC005 12/11
                        Q1020 TEMPO 4000 BR BKN004=
201605312120 METAR COR EGLL 312120Z AUTO 36007KT 310V040 7000 OVC005 12/11
                        Q1020 TEMPO 4000 BR BKN004=
201605312050 METAR COR EGLL 312050Z AUTO 36007KT 320V030 8000 OVC007 12/11
                        Q1019 NOSIG=
201605312020 METAR COR EGLL 312020Z AUTO 36009KT 310V030 9999 OVC006 12/11
                        Q1019 NOSIG=
201605311950 METAR COR EGLL 311950Z AUTO 36008KT 320V030 9999 OVC006 12/11
                        Q1019 NOSIG=
201605311920 METAR COR EGLL 311920Z AUTO 36009KT 330V040 9999 OVC007///
                        //////TCU 12/11 Q1018 NOSIG=
201605311850 METAR COR EGLL 311850Z 01008KT 320V040 9999 OVC007TCU 12/10
                        Q1018 NOSIG=
201605311820 METAR COR EGLL 311820Z AUTO 36009KT 330V040 9999 OVC009///
                        //////TCU 12/10 Q1018 TEMPO BKN010=
201605311750 METAR COR EGLL 311750Z AUTO 36010KT 330V030 9999 OVC009 12/10
                        Q1018 TEMPO BKN010=
201605311720 METAR COR EGLL 311720Z AUTO 36010KT 320V040 9999 OVC010 12/10
                        Q1017 TEMPO BKN009=
201605311650 METAR COR EGLL 311650Z AUTO 36009KT 330V050 9999 OVC011 12/10
                        Q1017 TEMPO BKN009=
201605311620 METAR COR EGLL 311620Z AUTO 36012KT 9999 OVC013 13/10 Q1017
                        TEMPO BKN009=
201605311550 METAR COR EGLL 311550Z AUTO 36009KT 320V040 9999 OVC012 13/10
                        Q1017 TEMPO BKN009=
201605311520 METAR COR EGLL 311520Z AUTO 01008KT 310V040 9999 OVC010 12/10
                        Q1017 TEMPO BKN009=
201605311450 METAR COR EGLL 311450Z AUTO 36009KT 320V040 9999 OVC010 12/10
                        Q1017 NOSIG=
201605311420 METAR COR EGLL 311420Z AUTO 36007KT 310V040 9999 -RA OVC010///
                        //////TCU 12/10 Q1017 NOSIG=
201605311350 METAR COR EGLL 311350Z AUTO 35007KT 310V050 9999 -RA OVC010///
                        //////TCU 12/10 Q1017=
201605311320 METAR COR EGLL 311320Z AUTO 35010KT 310V060 9999 -RA OVC010///
                        //////TCU 12/10 Q1017 TEMPO BKN009=
201605311250 METAR COR EGLL 311250Z AUTO 35009KT 310V030 9999 -RA BKN009///
                        //////TCU 12/11 Q1016 BECMG BKN011=
201605311220 METAR COR EGLL 311220Z AUTO 36010KT 320V040 8000 -RA BKN008///
                        //////TCU 12/10 Q1016 TEMPO NSW BKN012=
201605311150 METAR COR EGLL 311150Z AUTO 36010KT 330V030 9999 -RA BKN008///
                        //////CB 11/10 Q1016 RERA NOSIG=
201605311120 METAR COR EGLL 311120Z 35008KT 310V030 4800 RA FEW008 BKN012
                        11/10 Q1016 RERA BECMG 6000 NSW=
201605311050 METAR COR EGLL 311050Z AUTO 35009KT 320V050 5000 -RA OVC008///
                        //////CB 11/10 Q1016 RERA TEMPO 4800
                        RA=
201605311020 METAR COR EGLL 311020Z AUTO 35011KT 290V030 5000 -RADZ OVC009///
                        //////CB 12/10 Q1016 RERA TEMPO 4800
                        RA=
201605310950 METAR COR EGLL 310950Z AUTO 34009KT 310V010 5000 -RA OVC010///
                        //////CB 11/10 Q1016 RERA TEMPO 4800
                        RA BKN008=
201605310920 METAR COR EGLL 310920Z AUTO 35010KT 5000 -RA OVC011/// //////CB
                        11/10 Q1015 RERA TEMPO 4000 RA BKN009=
201605310850 METAR COR EGLL 310850Z AUTO 35010KT 320V040 9999 -RA OVC011///
                        //////CB 11/10 Q1015 TEMPO RA BKN009=
201605310820 METAR COR EGLL 310820Z AUTO 34011G21KT 300V030 9999 -RA OVC011///
                        //////TCU 12/09 Q1015 TEMPO RA BKN008=
201605310750 METAR COR EGLL 310750Z AUTO 35011G21KT 310V030 9999 OVC012///
                        //////TCU 12/09 Q1015 TEMPO RA BKN008=
201605310720 METAR COR EGLL 310720Z AUTO 35011KT 320V030 9999 BKN013///
                        //////TCU 12/09 Q1015 TEMPO RA BKN009=
201605310650 METAR COR EGLL 310650Z AUTO 35012KT 320V020 9999 BKN015///
                        //////CB 12/09 Q1014 TEMPO -RA BKN014=
201605310620 METAR COR EGLL 310620Z AUTO 35011KT 320V030 9999 OVC016 12/08
                        Q1014 TEMPO BKN014=
201605310550 METAR COR EGLL 310550Z AUTO 34014G24KT 310V020 9999 OVC015
                        12/08 Q1014 BECMG BKN012=
201605310520 METAR COR EGLL 310520Z AUTO 35012KT 310V020 9999 OVC016 12/08
                        Q1014 BECMG BKN012=
201605310450 METAR COR EGLL 310450Z AUTO 34011G21KT 9999 OVC016 12/08
                        Q1014 BECMG BKN012=
201605310420 METAR COR EGLL 310420Z AUTO 35011G21KT 310V020 9999 OVC016
                        12/08 Q1014 BECMG BKN013=
201605310350 METAR COR EGLL 310350Z AUTO 35011KT 300V030 9999 OVC017 12/08
                        Q1015 TEMPO BKN012=
201605310320 METAR COR EGLL 310320Z AUTO 34011KT 310V020 9999 BKN019 12/08
                        Q1015 TEMPO BKN014=
201605310250 METAR COR EGLL 310250Z AUTO 33010KT 9999 FEW020 SCT029 OVC048
                        12/08 Q1014 TEMPO BKN014=
201605310220 METAR COR EGLL 310220Z AUTO 34011G22KT 310V020 9999 BKN018
                        13/08 Q1014 TEMPO BKN014=
201605310150 METAR COR EGLL 310150Z AUTO 35009G19KT 310V030 9999 OVC022
                        13/08 Q1015 NOSIG=
201605310120 METAR COR EGLL 310120Z AUTO 35008KT 310V030 9999 BKN020 13/08
                        Q1015 NOSIG=
201605310050 METAR COR EGLL 310050Z AUTO 34010KT 290V020 9999 OVC020 13/07
                        Q1015 NOSIG=
201605310020 METAR COR EGLL 310020Z AUTO 34009KT 310V020 9999 SCT021 13/07
                        Q1015 NOSIG=
201605302350 METAR COR EGLL 302350Z AUTO 35008KT 310V020 9999 NCD 13/07
                        Q1016 NOSIG=
201605302320 METAR COR EGLL 302320Z AUTO 35008KT 310V030 9999 NCD 13/07
                        Q1016 NOSIG=
201605302250 METAR COR EGLL 302250Z AUTO 35008KT 320V030 9999 NCD 14/08
                        Q1016 NOSIG=
201605302220 METAR COR EGLL 302220Z AUTO 35009KT 310V030 9999 NCD 14/08
                        Q1016 NOSIG=
201605302150 METAR COR EGLL 302150Z AUTO 34010G21KT 320V020 9999 NCD 14/09
                        Q1016 NOSIG=
201605302120 METAR COR EGLL 302120Z AUTO 34009KT 300V010 9999 NCD 15/09
                        Q1016 NOSIG=
201605302050 METAR COR EGLL 302050Z AUTO 34010KT 310V020 9999 NCD 15/09
                        Q1016 NOSIG=
201605302020 METAR COR EGLL 302020Z AUTO 34008KT 300V010 9999 NCD 16/09
                        Q1016 NOSIG=
201605301950 METAR COR EGLL 301950Z AUTO 36011KT 9999 FEW037 16/09 Q1016
                        NOSIG=
201605301920 METAR COR EGLL 301920Z AUTO 36011KT 9999 FEW041 17/09 Q1016
                        NOSIG=
201605301850 METAR COR EGLL 301850Z AUTO 36010KT 310V050 9999 BKN036 17/10
                        Q1016 NOSIG=
201605301820 METAR COR EGLL 301820Z AUTO 35009KT 9999 BKN032 17/11 Q1015
                        NOSIG=
201605301750 METAR COR EGLL 301750Z AUTO 36009KT 330V030 9999 BKN031 17/10
                        Q1015 NOSIG=
201605301720 METAR COR EGLL 301720Z AUTO 36009KT 330V050 9999 OVC030 17/11
                        Q1015 NOSIG=
201605301650 METAR COR EGLL 301650Z AUTO 34008KT 310V020 9999 OVC028 17/11
                        Q1015 NOSIG=
201605301620 METAR COR EGLL 301620Z AUTO 35009KT 9999 BKN027 17/11 Q1015
                        NOSIG=
201605301550 METAR COR EGLL 301550Z AUTO 35008KT 300V020 9999 OVC028 17/11
                        Q1015 NOSIG=
201605301520 METAR COR EGLL 301520Z AUTO 36011KT 310V040 9999 OVC028 17/11
                        Q1015 NOSIG=
201605301450 METAR COR EGLL 301450Z AUTO 36010G20KT 330V030 9999 OVC026
                        17/11 Q1016 NOSIG=
201605301420 METAR COR EGLL 301420Z AUTO 35011G24KT 310V020 9999 OVC023
                        17/11 Q1016 NOSIG=
201605301350 METAR COR EGLL 301350Z AUTO 36008KT 320V050 9999 OVC019 16/11
                        Q1016 NOSIG=
201605301320 METAR COR EGLL 301320Z AUTO 36009KT 320V030 9999 OVC019 15/11
                        Q1016 NOSIG=
201605301250 METAR COR EGLL 301250Z AUTO 36009KT 330V030 9999 OVC017 15/11
                        Q1016 NOSIG=
201605301220 METAR COR EGLL 301220Z AUTO 36010KT 320V030 9999 OVC015 15/11
                        Q1016 NOSIG=
201605301150 METAR COR EGLL 301150Z AUTO 36009KT 320V030 9999 OVC015 14/11
                        Q1016 NOSIG=
201605301120 METAR COR EGLL 301120Z AUTO 35007KT 320V040 9999 OVC013 14/10
                        Q1016 TEMPO BKN016=
201605301050 METAR COR EGLL 301050Z AUTO 35008KT 310V040 9999 OVC012 13/10
                        Q1016 TEMPO BKN015=
201605301020 METAR COR EGLL 301020Z AUTO 01007KT 330V050 9999 OVC011 13/10
                        Q1016 TEMPO BKN015=
201605300950 METAR COR EGLL 300950Z AUTO 35007KT 310V020 9999 OVC011 13/10
                        Q1016 NOSIG=
201605300920 METAR COR EGLL 300920Z AUTO 36008KT 320V040 9999 OVC011 13/10
                        Q1016 NOSIG=
201605300850 METAR COR EGLL 300850Z AUTO 01007KT 330V040 9999 OVC012 13/10
                        Q1016 TEMPO BKN015=
201605300820 METAR COR EGLL 300820Z AUTO 01009KT 340V050 9999 OVC012 13/10
                        Q1016 TEMPO BKN015=
201605300750 METAR COR EGLL 300750Z AUTO 36010KT 320V040 9999 OVC013 13/10
                        Q1016 TEMPO BKN015=
201605300720 METAR COR EGLL 300720Z AUTO 01009KT 340V050 9999 OVC012 13/10
                        Q1016 TEMPO BKN015=
201605300650 METAR COR EGLL 300650Z AUTO 36007KT 320V050 9999 OVC012 13/10
                        Q1015 BECMG SCT015=
201605300620 METAR COR EGLL 300620Z AUTO 36008KT 330V050 9999 OVC012 12/09
                        Q1015 NOSIG=
201605300550 METAR COR EGLL 300550Z AUTO 01009KT 340V050 9000 OVC012 12/09
                        Q1015 NOSIG=
201605300520 METAR COR EGLL 300520Z AUTO 01006KT 340V050 9999 OVC011 12/09
                        Q1015 NOSIG=
201605300450 METAR COR EGLL 300450Z AUTO 36005KT 310V050 9999 OVC010 12/09
                        Q1015 NOSIG=
201605300420 METAR COR EGLL 300420Z AUTO 36006KT 330V030 9999 OVC010 12/09
                        Q1015 NOSIG=
201605300350 METAR COR EGLL 300350Z AUTO 01007KT 330V050 9999 OVC010 12/09
                        Q1015 NOSIG=
201605300320 METAR COR EGLL 300320Z AUTO 36008KT 330V040 9000 OVC010 12/10
                        Q1015 NOSIG=
201605300250 METAR COR EGLL 300250Z AUTO 02007KT 9999 OVC009 12/10 Q1015
                        TEMPO BKN012=
201605300220 METAR COR EGLL 300220Z AUTO 02007KT 340V050 9999 OVC009 12/10
                        Q1015 TEMPO BKN011=
201605300150 METAR COR EGLL 300150Z AUTO 01007KT 340V040 9999 OVC009 12/10
                        Q1015 TEMPO BKN010=
201605300120 METAR COR EGLL 300120Z AUTO 01006KT 310V050 9999 OVC007 12/10
                        Q1015 NOSIG=
201605300050 METAR COR EGLL 300050Z AUTO 36007KT 320V040 9999 OVC008 12/10
                        Q1015 NOSIG=
201605300020 METAR COR EGLL 300020Z AUTO 36008KT 330V030 9999 OVC007 12/10
                        Q1016 NOSIG=
201605292350 METAR COR EGLL 292350Z AUTO 03008KT 350V070 9999 OVC007 12/10
                        Q1016 NOSIG=
201605292320 METAR COR EGLL 292320Z AUTO 04008KT 9999 OVC009 12/10 Q1016
                        TEMPO OVC010=
201605292250 METAR COR EGLL 292250Z AUTO 01007KT 330V050 9999 BKN010 12/10
                        Q1016 NOSIG=
201605292220 METAR COR EGLL 292220Z AUTO 04006KT 9999 OVC010 13/10 Q1015
                        NOSIG=
201605292150 METAR COR EGLL 292150Z AUTO 03007KT 350V060 9999 BKN011 13/10
                        Q1015 NOSIG=
201605292120 METAR COR EGLL 292120Z AUTO 03008KT 9999 NCD 13/10 Q1015
                        BECMG BKN010=
201605292050 METAR COR EGLL 292050Z AUTO 03005KT 330V070 9999 FEW049 15/11
                        Q1015 BECMG BKN010=
201605292020 METAR COR EGLL 292020Z AUTO 02007KT 350V060 9999 SCT048 15/10
                        Q1014 BECMG BKN010=
201605291950 METAR COR EGLL 291950Z AUTO 01008KT 340V050 9999 FEW049 16/10
                        Q1014 BECMG BKN012=
201605291920 METAR COR EGLL 291920Z AUTO 02008KT 340V050 9999 FEW049 17/10
                        Q1014 TEMPO BKN012=
201605291850 METAR COR EGLL 291850Z AUTO 01008KT 330V040 9999 BKN049 17/11
                        Q1014 NOSIG=
201605291820 METAR COR EGLL 291820Z AUTO 03009KT 350V060 9999 SCT049 18/11
                        Q1013 NOSIG=
201605291750 METAR COR EGLL 291750Z AUTO 02008KT 340V050 9999 FEW030 19/11
                        Q1013 NOSIG=
201605291720 METAR COR EGLL 291720Z AUTO 01009KT 330V050 9999 SCT029 19/11
                        Q1013 NOSIG=
201605291650 METAR COR EGLL 291650Z AUTO 36009KT 320V030 9999 BKN028 19/11
                        Q1013 NOSIG=
201605291620 METAR COR EGLL 291620Z AUTO 01010KT 330V060 9999 BKN026 19/12
                        Q1013 NOSIG=
201605291550 METAR COR EGLL 291550Z AUTO 02009KT 330V060 9999 BKN026 19/12
                        Q1013 NOSIG=
201605291520 METAR COR EGLL 291520Z AUTO 36008KT 310V050 9999 BKN024 19/12
                        Q1013 NOSIG=
201605291450 METAR COR EGLL 291450Z AUTO 02007KT 330V060 9999 BKN023 18/11
                        Q1013 NOSIG=
201605291420 METAR COR EGLL 291420Z AUTO 36008KT 320V040 9999 SCT023 18/11
                        Q1013 NOSIG=
201605291350 METAR COR EGLL 291350Z AUTO 03008KT 330V060 9999 SCT021 17/11
                        Q1013 NOSIG=
201605291320 METAR COR EGLL 291320Z AUTO 02008KT 330V060 9999 FEW020 17/10
                        Q1013 NOSIG=
201605291250 METAR COR EGLL 291250Z 02009KT 340V060 9999 SCT020 17/10
                        Q1013 NOSIG=
201605291220 METAR COR EGLL 291220Z 03009KT 340V050 9999 BKN019 15/10
                        Q1013 NOSIG=
201605291150 METAR COR EGLL 291150Z 02009KT 330V050 9999 BKN019 15/10
                        Q1014 NOSIG=
201605291120 METAR COR EGLL 291120Z 02008KT 330V070 9999 OVC016 14/10
                        Q1014 NOSIG=
201605291050 METAR COR EGLL 291050Z AUTO 02008KT 340V060 9999 OVC012 14/10
                        Q1014 BECMG BKN015=
201605291020 METAR COR EGLL 291020Z AUTO 01009KT 330V050 9999 OVC011 13/09
                        Q1014 TEMPO SCT012=
201605290950 METAR COR EGLL 290950Z AUTO 02008KT 340V060 9000 OVC010 12/09
                        Q1014 TEMPO SCT010=
201605290920 METAR COR EGLL 290920Z AUTO 03007KT 340V060 9999 OVC009 12/09
                        Q1013 TEMPO SCT010=
201605290850 METAR COR EGLL 290850Z AUTO 36007KT 330V040 9999 OVC008 11/09
                        Q1013 TEMPO SCT010=
201605290820 METAR COR EGLL 290820Z AUTO 36007KT 320V040 9999 OVC009 11/08
                        Q1013 BECMG SCT010=
201605290750 METAR COR EGLL 290750Z AUTO 36008KT 330V040 9999 OVC010 11/08
                        Q1013 TEMPO SCT010=
201605290720 METAR COR EGLL 290720Z AUTO 02007KT 340V060 9999 OVC010 11/08
                        Q1013 TEMPO SCT010=
201605290650 METAR COR EGLL 290650Z AUTO 01007KT 9999 BKN008 11/08 Q1013
                        TEMPO SCT008=
201605290620 METAR COR EGLL 290620Z AUTO 36008KT 340V040 9999 OVC008 10/08
                        Q1013 TEMPO SCT008=
201605290550 METAR COR EGLL 290550Z AUTO 03007KT 350V060 9000 OVC007 10/08
                        Q1013 TEMPO SCT007=
201605290520 METAR COR EGLL 290520Z AUTO 01005KT 330V050 8000 BKN007 09/08
                        Q1013 TEMPO SCT007=
201605290450 METAR COR EGLL 290450Z AUTO 02007KT 340V060 9000 FEW008 09/07
                        Q1013 TEMPO BKN006=
201605290420 METAR COR EGLL 290420Z AUTO 36005KT 330V050 9999 NCD 09/07
                        Q1013 TEMPO BKN006=
201605290350 METAR COR EGLL 290350Z AUTO 36006KT 9999 NCD 10/07 Q1013
                        TEMPO BKN006=
201605290320 METAR COR EGLL 290320Z AUTO 02005KT 330V050 9999 NCD 10/07
                        Q1013 TEMPO BKN006=
201605290250 METAR COR EGLL 290250Z AUTO 02004KT 330V070 9999 NCD 10/07
                        Q1013 NOSIG=
201605290220 METAR COR EGLL 290220Z AUTO 36005KT 9999 NCD 11/07 Q1013
                        NOSIG=
201605290150 METAR COR EGLL 290150Z AUTO VRB03KT 9999 NCD 11/08 Q1013
                        NOSIG=
201605290120 METAR COR EGLL 290120Z AUTO 35004KT 9999 NCD 11/08 Q1013
                        NOSIG=
201605290050 METAR COR EGLL 290050Z AUTO 04004KT 010V080 9999 NCD 12/08
                        Q1013 NOSIG=
201605290020 METAR COR EGLL 290020Z AUTO 05005KT 9999 NCD 12/08 Q1014
                        NOSIG=
201605282350 METAR COR EGLL 282350Z AUTO 04004KT 9999 NCD 13/08 Q1014
                        NOSIG=
201605282320 METAR COR EGLL 282320Z AUTO 05006KT 9999 NCD 13/09 Q1014
                        NOSIG=
201605282250 METAR COR EGLL 282250Z AUTO 06008KT 010V080 9999 NCD 13/09
                        Q1014 NOSIG=
201605282220 METAR COR EGLL 282220Z AUTO 04007KT 9999 NCD 14/09 Q1014
                        NOSIG=
201605282150 METAR COR EGLL 282150Z AUTO 03008KT 360V060 9999 NCD 15/10
                        Q1014 NOSIG=
201605282120 METAR COR EGLL 282120Z AUTO 04009KT 9999 FEW034 15/10 Q1014
                        NOSIG=
201605282050 METAR COR EGLL 282050Z AUTO 04008KT 9999 NCD 16/11 Q1014
                        NOSIG=
201605282020 METAR COR EGLL 282020Z AUTO 03006KT 330V070 9999 NCD 17/10
                        Q1014 NOSIG=
201605281950 METAR COR EGLL 281950Z AUTO 05006KT 9999 NCD 17/10 Q1013
                        NOSIG=
201605281920 METAR COR EGLL 281920Z AUTO 05007KT 9999 FEW043 18/10 Q1013
                        NOSIG=
201605281850 METAR COR EGLL 281850Z AUTO 04006KT 9999 SCT040 18/10 Q1013
                        NOSIG=
201605281820 METAR COR EGLL 281820Z AUTO 05006KT 9999 SCT042 19/10 Q1013
                        NOSIG=
201605281750 METAR COR EGLL 281750Z AUTO 04007KT 9999 FEW043 19/10 Q1013
                        NOSIG=
201605281720 METAR COR EGLL 281720Z AUTO 05008KT 010V070 9999 SCT039 19/10
                        Q1013 NOSIG=
201605281650 METAR COR EGLL 281650Z AUTO 04008KT 330V080 9999 SCT038 20/10
                        Q1013 NOSIG=
201605281620 METAR COR EGLL 281620Z AUTO 07009KT 9999 SCT037 20/10 Q1013
                        NOSIG=
201605281550 METAR COR EGLL 281550Z AUTO 06006KT 010V090 9999 BKN036 20/11
                        Q1013 NOSIG=
201605281520 METAR COR EGLL 281520Z AUTO 04008KT 350V080 9999 FEW037 20/10
                        Q1014 NOSIG=
201605281450 METAR COR EGLL 281450Z AUTO 07008KT 040V110 9999 FEW037 20/10
                        Q1014 NOSIG=
201605281420 METAR EGLL 281420Z AUTO 05008KT 360V110 9999 FEW034 20/10
                        Q1014=
201605281350 METAR COR EGLL 281350Z AUTO 07007KT 020V120 9000 NCD 19/11
                        Q1014 NOSIG=
201605281320 METAR COR EGLL 281320Z AUTO 04007KT 360V080 9999 NCD 19/11
                        Q1015 TEMPO SHRA=
201605281250 METAR COR EGLL 281250Z AUTO 07008KT 010V120 9999 NCD 19/11
                        Q1015 TEMPO SHRA=
201605281220 METAR COR EGLL 281220Z AUTO 07008KT 030V110 9999 NCD 19/10
                        Q1015 TEMPO SHRA=
201605281150 METAR COR EGLL 281150Z AUTO 08009KT 030V110 9999 FEW029 18/11
                        Q1015 TEMPO SHRA=
201605281120 METAR COR EGLL 281120Z AUTO 07007KT 9999 NCD 18/10 Q1015
                        NOSIG=
201605281050 METAR COR EGLL 281050Z AUTO 08007KT 9999 BKN049 17/10 Q1016
                        NOSIG=
201605281020 METAR COR EGLL 281020Z AUTO 08007KT 040V120 9000 BKN048 16/10
                        Q1016 NOSIG=
201605280950 METAR COR EGLL 280950Z AUTO 06006KT 020V090 9000 BKN047 15/09
                        Q1016 NOSIG=
201605280920 METAR COR EGLL 280920Z AUTO 05006KT 020V090 9000 BKN046 14/09
                        Q1016 NOSIG=
201605280850 METAR COR EGLL 280850Z AUTO 07007KT 030V100 9000 BKN047 13/09
                        Q1016 NOSIG=
201605280820 METAR COR EGLL 280820Z AUTO 07007KT 9000 BKN047 13/09 Q1016
                        NOSIG=
201605280750 METAR COR EGLL 280750Z AUTO 06008KT 8000 FEW011 BKN049 13/09
                        Q1016 NOSIG=
201605280720 METAR COR EGLL 280720Z AUTO 08007KT 8000 -RA FEW010 12/10
                        Q1016 NOSIG=
201605280650 METAR COR EGLL 280650Z AUTO 07006KT 040V100 8000 -RA BKN046
                        12/09 Q1016 NOSIG=
201605280620 METAR COR EGLL 280620Z AUTO 05005KT 9000 SCT047 11/09 Q1016
                        NOSIG=
201605280550 METAR COR EGLL 280550Z AUTO 04004KT 020V080 9000 BKN047 11/09
                        Q1016 NOSIG=
201605280520 METAR COR EGLL 280520Z AUTO 06004KT 9000 BKN046 11/09 Q1016
                        NOSIG=
201605280450 METAR COR EGLL 280450Z AUTO 04004KT 9000 BKN044 11/09 Q1016
                        NOSIG=
201605280420 METAR COR EGLL 280420Z AUTO 04003KT 8000 BKN043 10/08 Q1016
                        NOSIG=
201605280350 METAR COR EGLL 280350Z AUTO 04004KT 8000 NCD 10/08 Q1016
                        NOSIG=
201605280320 METAR COR EGLL 280320Z AUTO 05005KT 8000 SCT048 11/09 Q1016
                        NOSIG=
201605280250 METAR COR EGLL 280250Z AUTO 04006KT 7000 SCT044 11/09 Q1016
                        NOSIG=
201605280220 METAR COR EGLL 280220Z AUTO 04005KT 7000 BKN042 11/10 Q1016
                        NOSIG=
201605280150 METAR COR EGLL 280150Z AUTO 05005KT 020V080 7000 BKN046 12/10
                        Q1017 NOSIG=
201605280120 METAR COR EGLL 280120Z AUTO 04005KT 7000 NCD 12/10 Q1017
                        NOSIG=
201605280050 METAR COR EGLL 280050Z AUTO 05004KT 020V100 7000 NCD 12/10
                        Q1017 NOSIG=
201605280020 METAR COR EGLL 280020Z AUTO 06004KT 020V080 7000 NCD 13/10
                        Q1017 NOSIG=
201605272350 METAR COR EGLL 272350Z AUTO 06005KT 020V090 6000 NCD 13/11
                        Q1017 NOSIG=
201605272320 METAR COR EGLL 272320Z AUTO 06007KT 7000 NCD 14/11 Q1017
                        NOSIG=
201605272250 METAR COR EGLL 272250Z AUTO 06006KT 7000 NCD 14/11 Q1017
                        NOSIG=
201605272220 METAR COR EGLL 272220Z AUTO 07005KT 6000 NCD 14/11 Q1017
                        NOSIG=
201605272150 METAR COR EGLL 272150Z AUTO 10008KT 6000 //////CB 14/11 Q1017
                        NOSIG=
201605272120 METAR COR EGLL 272120Z AUTO 10009KT 6000 NCD 15/12 Q1017
                        NOSIG=
201605272050 METAR COR EGLL 272050Z AUTO 10008KT 7000 NCD 15/11 Q1017
                        NOSIG=
201605272020 METAR COR EGLL 272020Z AUTO 09008KT 8000 //////CB 16/11 Q1017
                        NOSIG=
201605271950 METAR COR EGLL 271950Z 09010KT 9999 SCT039 17/11 Q1016 NOSIG=
201605271920 METAR COR EGLL 271920Z 11010KT 9999 SCT030 18/11 Q1016 TEMPO
                        SHRA=
201605271850 METAR COR EGLL 271850Z AUTO 10011KT 9999 -RA BKN033/// BKN048///
                        //////CB 18/12 Q1016 TEMPO SHRA=
201605271820 METAR COR EGLL 271820Z AUTO 10010KT 9999 BKN032 19/12 Q1016
                        NOSIG=
201605271750 METAR COR EGLL 271750Z AUTO 07009KT 040V110 9999 SCT037 20/10
                        Q1015 NOSIG=
201605271720 METAR COR EGLL 271720Z AUTO 08007KT 9999 BKN045 19/10 Q1015
                        NOSIG=
201605271650 METAR COR EGLL 271650Z AUTO 09008KT 050V110 9999 BKN046 21/10
                        Q1015 NOSIG=
201605271620 METAR COR EGLL 271620Z AUTO 05005KT 010V100 9999 BKN049 20/09
                        Q1015 NOSIG=
201605271550 METAR COR EGLL 271550Z AUTO 07006KT 040V110 9999 BKN049 20/09
                        Q1016 NOSIG=
201605271520 METAR COR EGLL 271520Z AUTO 06006KT 020V100 9999 BKN049 20/09
                        Q1016 NOSIG=
201605271450 METAR COR EGLL 271450Z AUTO 07006KT 030V120 9999 BKN049 20/09
                        Q1016 NOSIG=
201605271420 METAR COR EGLL 271420Z AUTO 09006KT 340V140 9999 SCT047 20/09
                        Q1016 NOSIG=
201605271350 METAR COR EGLL 271350Z AUTO 09008KT 050V140 9999 SCT047 20/09
                        Q1016 NOSIG=
201605271320 METAR COR EGLL 271320Z AUTO VRB07KT 9999 FEW045 20/09 Q1016
                        NOSIG=
201605271250 METAR COR EGLL 271250Z AUTO 10008KT 040V130 9999 FEW044 20/08
                        Q1017 NOSIG=
201605271220 METAR COR EGLL 271220Z AUTO 10008KT 060V130 9999 FEW043 19/09
                        Q1017 NOSIG=
201605271150 METAR COR EGLL 271150Z AUTO 08008KT 020V120 9999 NCD 19/09
                        Q1017 NOSIG=
201605271120 METAR COR EGLL 271120Z AUTO 06007KT 020V120 9999 NCD 18/09
                        Q1017 NOSIG=
201605271050 METAR COR EGLL 271050Z AUTO 06009KT 9999 NCD 18/09 Q1017
                        NOSIG=
201605271020 METAR COR EGLL 271020Z AUTO 06007KT 010V090 9999 NCD 18/08
                        Q1017 NOSIG=
201605270950 METAR COR EGLL 270950Z AUTO 06008KT 9999 NCD 16/08 Q1017
                        NOSIG=
201605270920 METAR COR EGLL 270920Z AUTO 07008KT 020V100 9999 NCD 16/08
                        Q1017 NOSIG=
201605270850 METAR COR EGLL 270850Z AUTO 07008KT 020V100 9999 NCD 16/08
                        Q1017 NOSIG=
201605270820 METAR COR EGLL 270820Z AUTO 06009KT 9999 NCD 16/08 Q1017
                        NOSIG=
201605270750 METAR COR EGLL 270750Z AUTO 07008KT 9999 NCD 14/08 Q1017
                        NOSIG=
201605270720 METAR COR EGLL 270720Z AUTO 06007KT 320V090 9999 NCD 13/07
                        Q1017 NOSIG=
201605270650 METAR COR EGLL 270650Z AUTO 08006KT 9999 NCD 12/07 Q1017
                        NOSIG=
201605270620 METAR COR EGLL 270620Z AUTO 08006KT 040V100 9999 NCD 12/07
                        Q1017 NOSIG=
201605270550 METAR COR EGLL 270550Z AUTO 07007KT 9999 NCD 12/08 Q1016
                        NOSIG=
201605270520 METAR COR EGLL 270520Z AUTO 07007KT 9999 NCD 11/08 Q1016
                        NOSIG=
201605270450 METAR COR EGLL 270450Z AUTO 06006KT 9999 NCD 11/08 Q1016
                        NOSIG=
201605270420 METAR COR EGLL 270420Z AUTO 05005KT 9999 -RA NCD 11/09 Q1017
                        NOSIG=
201605270350 METAR COR EGLL 270350Z AUTO VRB03KT 9999 NCD 11/08 Q1017
                        NOSIG=
201605270320 METAR COR EGLL 270320Z AUTO 08004KT 9999 NCD 11/08 Q1017
                        NOSIG=
201605270250 METAR COR EGLL 270250Z AUTO 05004KT 020V080 9999 //////TCU
                        11/09 Q1017 NOSIG=
201605270220 METAR COR EGLL 270220Z AUTO 07004KT 9999 NCD 11/08 Q1016
                        NOSIG=
201605270150 METAR COR EGLL 270150Z AUTO 05004KT 020V080 9999 NCD 11/08
                        Q1016 NOSIG=
201605270120 METAR COR EGLL 270120Z AUTO 07005KT 040V100 9999 NCD 12/08
                        Q1016 NOSIG=
201605270050 METAR COR EGLL 270050Z AUTO 08005KT 040V100 9999 NCD 12/09
                        Q1016 NOSIG=
201605270020 METAR COR EGLL 270020Z AUTO 07006KT 9999 NCD 12/09 Q1016
                        NOSIG=
201605262350 METAR COR EGLL 262350Z AUTO 07006KT 9999 NCD 13/09 Q1016
                        NOSIG=
201605262320 METAR COR EGLL 262320Z AUTO 07005KT 9999 NCD 13/09 Q1016
                        NOSIG=
201605262250 METAR COR EGLL 262250Z AUTO 08006KT 9999 NCD 13/08 Q1016
                        NOSIG=
201605262220 METAR COR EGLL 262220Z AUTO 10009KT 9999 NCD 14/08 Q1016
                        NOSIG=
201605262150 METAR COR EGLL 262150Z AUTO 09010KT 9999 FEW047 14/09 Q1016
                        NOSIG=
201605262120 METAR COR EGLL 262120Z AUTO 09009KT 9999 NCD 15/10 Q1016
                        NOSIG=
201605262050 METAR COR EGLL 262050Z AUTO 09009KT 9999 SCT040 15/10 Q1016
                        NOSIG=
201605262020 METAR COR EGLL 262020Z AUTO 10008KT 9999 BKN045 16/10 Q1015
                        NOSIG=
201605261950 METAR COR EGLL 261950Z AUTO 11008KT 9999 SCT042 17/10 Q1015
                        NOSIG=
201605261920 METAR COR EGLL 261920Z AUTO 11008KT 9999 SCT046 17/10 Q1015
                        NOSIG=
201605261850 METAR COR EGLL 261850Z AUTO 12010KT 9999 BKN044 18/10 Q1015
                        NOSIG=
201605261820 METAR COR EGLL 261820Z AUTO 09009KT 9999 SCT039 19/10 Q1014
                        NOSIG=
201605261750 METAR COR EGLL 261750Z AUTO 30004KT 260V340 9999 NCD 19/06
                        Q1014 NOSIG=
201605261720 METAR COR EGLL 261720Z AUTO VRB02KT 9999 NCD 19/06 Q1014
                        NOSIG=
201605261650 METAR COR EGLL 261650Z AUTO VRB03KT 9999 NCD 19/06 Q1014
                        NOSIG=
201605261620 METAR COR EGLL 261620Z AUTO VRB01KT 9999 NCD 20/06 Q1015
                        NOSIG=
201605261550 METAR COR EGLL 261550Z AUTO VRB03KT 9999 NCD 21/07 Q1015
                        NOSIG=
201605261520 METAR COR EGLL 261520Z AUTO VRB03KT 9999 NCD 20/07 Q1015
                        NOSIG=
201605261450 METAR COR EGLL 261450Z AUTO VRB03KT 9999 SCT049 19/07 Q1015
                        NOSIG=
201605261420 METAR COR EGLL 261420Z AUTO 23004KT 180V290 9999 SCT047 20/08
                        Q1015 NOSIG=
201605261350 METAR COR EGLL 261350Z AUTO 24006KT 170V310 9999 SCT046 19/07
                        Q1015 NOSIG=
201605261320 METAR COR EGLL 261320Z AUTO VRB02KT 9999 FEW042 18/07 Q1016
                        NOSIG=
201605261250 METAR COR EGLL 261250Z AUTO VRB03KT 9999 FEW040 18/08 Q1016
                        NOSIG=
201605261220 METAR COR EGLL 261220Z AUTO 19004KT 090V250 9999 FEW037 18/08
                        Q1016 NOSIG=
201605261150 METAR COR EGLL 261150Z AUTO 23008KT 200V310 9999 SCT035 18/08
                        Q1016 NOSIG=
201605261120 METAR COR EGLL 261120Z AUTO 21007KT 130V270 9999 FEW037 16/07
                        Q1016 NOSIG=
201605261050 METAR COR EGLL 261050Z AUTO 22005KT 150V290 9999 FEW035 16/07
                        Q1016 NOSIG=
201605261020 METAR COR EGLL 261020Z AUTO VRB05KT 9999 NCD 16/07 Q1016
                        NOSIG=
201605260950 METAR COR EGLL 260950Z AUTO VRB04KT 9999 FEW029 15/07 Q1016
                        NOSIG=
201605260920 METAR COR EGLL 260920Z AUTO VRB02KT 9999 BKN026 14/07 Q1016
                        NOSIG=
201605260850 METAR COR EGLL 260850Z AUTO VRB04KT 9999 BKN025 14/07 Q1017
                        NOSIG=
201605260820 METAR COR EGLL 260820Z AUTO VRB03KT 9999 SCT017 13/08 Q1017
                        NOSIG=
201605260750 METAR COR EGLL 260750Z AUTO VRB02KT 9999 FEW016 13/08 Q1017
                        NOSIG=
201605260720 METAR COR EGLL 260720Z AUTO VRB03KT 9999 NCD 12/08 Q1017
                        NOSIG=
201605260650 METAR COR EGLL 260650Z AUTO VRB04KT 9999 FEW012 12/08 Q1017
                        NOSIG=
201605260620 METAR COR EGLL 260620Z AUTO VRB02KT 9999 FEW035 11/09 Q1017
                        NOSIG=
201605260550 METAR COR EGLL 260550Z AUTO VRB02KT 9999 FEW036 09/08 Q1017
                        NOSIG=
201605260520 METAR COR EGLL 260520Z 17003KT 8000 SCT023 09/08 Q1017 NOSIG=
201605260450 METAR COR EGLL 260450Z AUTO VRB02KT 7000 SCT022 BKN038 07/06
                        Q1016 NOSIG=
201605260420 METAR COR EGLL 260420Z AUTO 35001KT 9999 FEW037 08/07 Q1016
                        NOSIG=
201605260350 METAR COR EGLL 260350Z AUTO 34001KT 8000 NCD 07/06 Q1016
                        NOSIG=
201605260320 METAR COR EGLL 260320Z AUTO 34001KT 9999 NCD 08/06 Q1016
                        NOSIG=
201605260250 METAR COR EGLL 260250Z AUTO 33001KT 9999 NCD 09/07 Q1016
                        NOSIG=
201605260220 METAR COR EGLL 260220Z AUTO 36002KT 9999 NCD 09/07 Q1016
                        NOSIG=
201605260150 METAR COR EGLL 260150Z AUTO VRB01KT 9999 FEW036 09/07 Q1016
                        NOSIG=
201605260120 METAR COR EGLL 260120Z AUTO VRB02KT 9999 BKN034 10/08 Q1016
                        NOSIG=
201605260050 METAR COR EGLL 260050Z AUTO VRB03KT 9999 OVC033 10/08 Q1016
                        NOSIG=
201605260020 METAR COR EGLL 260020Z AUTO 36004KT 320V030 9999 OVC033 11/08
                        Q1016 NOSIG=
201605252350 METAR COR EGLL 252350Z AUTO 36004KT 330V030 9999 OVC033 11/08
                        Q1016 NOSIG=
201605252320 METAR COR EGLL 252320Z AUTO 36004KT 320V030 9999 OVC032 11/08
                        Q1016 NOSIG=
201605252250 METAR COR EGLL 252250Z AUTO 36004KT 9999 OVC034 11/08 Q1016
                        NOSIG=
201605252220 METAR COR EGLL 252220Z AUTO 35003KT 9999 OVC036 11/08 Q1016
                        NOSIG=
201605252150 METAR COR EGLL 252150Z AUTO 36003KT 9999 FEW017 OVC037 11/08
                        Q1017 NOSIG=
201605252120 METAR COR EGLL 252120Z AUTO 36004KT 9999 FEW018 OVC042 11/08
                        Q1017 NOSIG=
201605252050 METAR COR EGLL 252050Z AUTO 35003KT 9999 FEW019 OVC040 11/08
                        Q1017 NOSIG=
201605252020 METAR COR EGLL 252020Z AUTO VRB03KT 9999 BKN020 11/07 Q1017
                        NOSIG=
201605251950 METAR COR EGLL 251950Z AUTO 35004KT 9999 BKN018 12/07 Q1016
                        NOSIG=
201605251920 METAR COR EGLL 251920Z AUTO 04002KT 9999 SCT020 OVC033 12/07
                        Q1016 NOSIG=
201605251850 METAR COR EGLL 251850Z AUTO 36004KT 320V030 9999 BKN019 12/08
                        Q1016 NOSIG=
201605251820 METAR COR EGLL 251820Z AUTO 01004KT 330V050 9999 OVC020 12/07
                        Q1016 NOSIG=
201605251750 METAR COR EGLL 251750Z AUTO VRB03KT 9999 OVC020 12/07 Q1016
                        NOSIG=
201605251720 METAR COR EGLL 251720Z AUTO 04004KT 360V080 9999 OVC018 12/08
                        Q1016 NOSIG=
201605251650 METAR COR EGLL 251650Z AUTO VRB03KT 9999 OVC019 12/08 Q1016
                        NOSIG=
201605251620 METAR COR EGLL 251620Z AUTO 03005KT 330V070 9999 OVC018 12/07
                        Q1017 NOSIG=
201605251550 METAR COR EGLL 251550Z AUTO 01004KT 330V060 9999 OVC018 12/07
                        Q1017 NOSIG=
201605251520 METAR COR EGLL 251520Z AUTO 01004KT 320V100 9999 OVC017 12/07
                        Q1017 NOSIG=
201605251450 METAR COR EGLL 251450Z AUTO 36005KT 320V050 9999 OVC017 12/07
                        Q1017 NOSIG=
201605251420 METAR COR EGLL 251420Z AUTO 36006KT 330V050 9999 OVC019 12/07
                        Q1017 NOSIG=
201605251350 METAR COR EGLL 251350Z AUTO 01005KT 320V050 9999 BKN017 OVC033
                        12/08 Q1017 NOSIG=
201605251320 METAR COR EGLL 251320Z AUTO 36006KT 330V040 9999 BKN017 11/07
                        Q1017 NOSIG=
201605251250 METAR COR EGLL 251250Z AUTO 01005KT 320V050 9999 BKN017 12/07
                        Q1017 NOSIG=
201605251220 METAR COR EGLL 251220Z AUTO 35004KT 300V060 9999 OVC017 12/07
                        Q1017 NOSIG=
201605251150 METAR COR EGLL 251150Z AUTO 34007KT 310V010 9999 BKN015 11/07
                        Q1017 NOSIG=
201605251120 METAR COR EGLL 251120Z AUTO 36006KT 320V040 9999 OVC013 11/07
                        Q1017 BECMG BKN015=
201605251050 METAR COR EGLL 251050Z AUTO 35005KT 300V060 9000 -RA BKN010
                        OVC026 11/08 Q1018 NOSIG=
201605251020 METAR COR EGLL 251020Z AUTO 02007KT 340V060 9999 SCT011 BKN023
                        OVC038 11/07 Q1018 TEMPO BKN011=
201605250950 METAR COR EGLL 250950Z AUTO 36007KT 320V030 9999 BKN011 BKN024
                        10/07 Q1018 NOSIG=
201605250920 METAR COR EGLL 250920Z AUTO 02007KT 340V060 9999 SCT016 OVC031
                        11/07 Q1018 TEMPO BKN014=
201605250850 METAR COR EGLL 250850Z AUTO 04006KT 360V070 9999 BKN015 OVC032
                        10/07 Q1019 TEMPO BKN014=
201605250820 METAR COR EGLL 250820Z AUTO 01006KT 340V060 9999 BKN015 OVC028
                        10/06 Q1019 TEMPO BKN014=
201605250750 METAR COR EGLL 250750Z AUTO 02005KT 340V060 9999 BKN015 OVC031
                        10/06 Q1019 TEMPO BKN014=
201605250720 METAR COR EGLL 250720Z AUTO 01007KT 330V060 9999 SCT015 OVC034
                        10/06 Q1019 NOSIG=
201605250650 METAR COR EGLL 250650Z AUTO 01006KT 9999 FEW015 OVC032 09/06
                        Q1018 NOSIG=
201605250620 METAR COR EGLL 250620Z AUTO 02004KT 330V060 9999 FEW016 OVC029
                        09/05 Q1018 NOSIG=
201605250550 METAR COR EGLL 250550Z AUTO 02007KT 340V060 9999 SCT018 SCT034
                        09/05 Q1018 NOSIG=
201605250520 METAR COR EGLL 250520Z AUTO 01006KT 330V040 9999 BKN019 09/05
                        Q1018 NOSIG=
201605250450 METAR COR EGLL 250450Z AUTO 01006KT 340V040 9999 OVC021 09/05
                        Q1018 NOSIG=
201605250420 METAR COR EGLL 250420Z AUTO 03007KT 360V070 9999 OVC024 09/04
                        Q1018 NOSIG=
201605250350 METAR COR EGLL 250350Z AUTO 05007KT 010V070 9999 OVC027 09/04
                        Q1018 NOSIG=
201605250320 METAR COR EGLL 250320Z AUTO 05007KT 020V080 9999 OVC027 09/04
                        Q1019 NOSIG=
201605250250 METAR COR EGLL 250250Z AUTO 04006KT 360V060 9999 OVC027 09/04
                        Q1019 NOSIG=
201605250220 METAR COR EGLL 250220Z AUTO 03006KT 340V070 9999 OVC027 09/04
                        Q1019 NOSIG=
201605250150 METAR COR EGLL 250150Z AUTO 05006KT 9999 OVC029 09/04 Q1019
                        NOSIG=
201605250120 METAR COR EGLL 250120Z AUTO 02004KT 340V050 9999 OVC029 09/04
                        Q1019 NOSIG=
201605250050 METAR COR EGLL 250050Z AUTO 01004KT 340V050 9999 OVC031 09/04
                        Q1019 NOSIG=
201605250020 METAR COR EGLL 250020Z AUTO 04006KT 010V070 9999 OVC032 09/04
                        Q1020 NOSIG=
201605242350 METAR COR EGLL 242350Z AUTO 03005KT 360V060 9999 BKN031 09/04
                        Q1020 NOSIG=
201605242320 METAR COR EGLL 242320Z AUTO 04005KT 9999 BKN032 09/04 Q1020
                        NOSIG=
201605242250 METAR COR EGLL 242250Z AUTO 06007KT 9999 FEW033 09/04 Q1020
                        NOSIG=
201605242220 METAR COR EGLL 242220Z AUTO 05007KT 020V080 9999 NCD 09/04
                        Q1020 NOSIG=
201605242150 METAR COR EGLL 242150Z AUTO 04007KT 010V070 9999 NCD 10/04
                        Q1020 NOSIG=
201605242120 METAR COR EGLL 242120Z AUTO 03006KT 340V050 9999 NCD 10/04
                        Q1020 NOSIG=
201605242050 METAR COR EGLL 242050Z AUTO 04009KT 9999 NCD 11/05 Q1020
                        NOSIG=
201605242020 METAR COR EGLL 242020Z AUTO 05008KT 9999 NCD 12/05 Q1020
                        NOSIG=
201605241950 METAR COR EGLL 241950Z AUTO 04012KT 360V060 9999 NCD 12/05
                        Q1020 NOSIG=
201605241920 METAR COR EGLL 241920Z AUTO 03010KT 360V070 9999 NCD 13/05
                        Q1019 NOSIG=
201605241850 METAR COR EGLL 241850Z AUTO 02010KT 350V060 9999 NCD 14/05
                        Q1019 NOSIG=
201605241820 METAR COR EGLL 241820Z AUTO 04009KT 350V080 9999 SCT049 15/06
                        Q1019 NOSIG=
201605241750 METAR COR EGLL 241750Z AUTO 04010KT 350V080 9999 FEW047 15/05
                        Q1019 NOSIG=
201605241720 METAR COR EGLL 241720Z AUTO 04010KT 9999 SCT046 16/05 Q1019
                        NOSIG=
201605241650 METAR COR EGLL 241650Z AUTO 05009KT 010V090 9999 BKN047 16/05
                        Q1019 NOSIG=
201605241620 METAR COR EGLL 241620Z AUTO 05008KT 020V080 9999 BKN045 16/05
                        Q1020 NOSIG=
201605241550 METAR COR EGLL 241550Z AUTO 05009KT 360V080 9999 BKN046 17/06
                        Q1020 NOSIG=
201605241520 METAR COR EGLL 241520Z AUTO 06008KT 9999 BKN047 16/05 Q1020
                        NOSIG=
201605241450 METAR COR EGLL 241450Z AUTO 05009KT 020V100 9999 BKN043 17/06
                        Q1020 NOSIG=
201605241420 METAR COR EGLL 241420Z AUTO 04008KT 340V080 9999 BKN044 16/06
                        Q1020 NOSIG=
201605241350 METAR COR EGLL 241350Z AUTO 05008KT 010V070 9999 OVC043 16/05
                        Q1020 NOSIG=
201605241320 METAR COR EGLL 241320Z AUTO 04010KT 360V060 9999 BKN044 16/05
                        Q1021 NOSIG=
201605241250 METAR COR EGLL 241250Z AUTO 04009KT 010V070 9999 BKN041 16/05
                        Q1021 NOSIG=
201605241220 METAR COR EGLL 241220Z AUTO 04007KT 350V080 9999 BKN042 15/06
                        Q1021 NOSIG=
201605241150 METAR COR EGLL 241150Z AUTO 05008KT 010V080 9999 BKN040 16/06
                        Q1021 NOSIG=
201605241120 METAR COR EGLL 241120Z AUTO 05009KT 010V080 9999 BKN045 16/05
                        Q1021 NOSIG=
201605241050 METAR COR EGLL 241050Z AUTO 04007KT 360V090 9999 SCT048 16/04
                        Q1022 NOSIG=
201605241020 METAR COR EGLL 241020Z AUTO 03008KT 340V060 9999 FEW049 16/04
                        Q1022 NOSIG=
201605240950 METAR COR EGLL 240950Z AUTO 04008KT 340V080 9999 NCD 15/04
                        Q1022 NOSIG=
201605240920 METAR COR EGLL 240920Z AUTO 06007KT 360V100 9999 NCD 15/04
                        Q1022 NOSIG=
201605240850 METAR COR EGLL 240850Z AUTO 06008KT 030V100 9999 NCD 14/05
                        Q1022 NOSIG=
201605240820 METAR COR EGLL 240820Z AUTO 03007KT 350V070 9999 NCD 14/05
                        Q1022 NOSIG=
201605240750 METAR COR EGLL 240750Z AUTO 05006KT 010V090 9999 NCD 13/06
                        Q1022 NOSIG=
201605240720 METAR COR EGLL 240720Z AUTO VRB03KT 9999 NCD 11/07 Q1023
                        NOSIG=
201605240650 METAR COR EGLL 240650Z AUTO 02004KT 320V060 9999 NCD 10/07
                        Q1023 NOSIG=
201605240620 METAR COR EGLL 240620Z AUTO VRB03KT 9999 FEW003 09/07 Q1023
                        NOSIG=
201605240550 METAR COR EGLL 240550Z AUTO 36004KT 320V050 9999 FEW003 08/07
                        Q1023 TEMPO BKN008=
201605240520 METAR COR EGLL 240520Z AUTO 35004KT 9999 NCD 08/07 Q1022
                        NOSIG=
201605240450 METAR COR EGLL 240450Z AUTO VRB03KT 9999 NCD 08/07 Q1022
                        NOSIG=
201605240420 METAR COR EGLL 240420Z AUTO VRB02KT 9999 NCD 07/06 Q1022
                        NOSIG=
201605240350 METAR COR EGLL 240350Z AUTO VRB03KT 9999 NCD 08/07 Q1022
                        NOSIG=
201605240320 METAR COR EGLL 240320Z AUTO 03004KT 360V060 9999 NCD 08/07
                        Q1022 NOSIG=
201605240250 METAR COR EGLL 240250Z AUTO 04004KT 010V080 9999 NCD 08/07
                        Q1022 NOSIG=
201605240220 METAR COR EGLL 240220Z AUTO 05004KT 020V080 9999 NCD 08/07
                        Q1022 NOSIG=
201605240150 METAR COR EGLL 240150Z AUTO 04004KT 360V080 9999 NCD 09/07
                        Q1022 NOSIG=
201605240120 METAR COR EGLL 240120Z AUTO VRB03KT 9999 NCD 09/08 Q1022
                        NOSIG=
201605240050 METAR COR EGLL 240050Z AUTO 04004KT 9999 NCD 10/08 Q1022
                        NOSIG=
201605240020 METAR COR EGLL 240020Z AUTO 05004KT 010V080 9999 NCD 10/08
                        Q1022 NOSIG=
201605232350 METAR COR EGLL 232350Z AUTO 04004KT 360V060 9999 NCD 10/08
                        Q1022 NOSIG=
201605232320 METAR COR EGLL 232320Z AUTO VRB02KT 9999 NCD 11/08 Q1022
                        NOSIG=
201605232250 METAR COR EGLL 232250Z AUTO 04004KT 360V060 9999 NCD 11/08
                        Q1022 NOSIG=
201605232220 METAR COR EGLL 232220Z AUTO 03006KT 340V060 9999 NCD 12/08
                        Q1022 NOSIG=
201605232150 METAR COR EGLL 232150Z AUTO 03006KT 9999 NCD 13/08 Q1022
                        NOSIG=
201605232120 METAR COR EGLL 232120Z AUTO 04006KT 360V060 9999 NCD 14/07
                        Q1021 NOSIG=
201605232050 METAR COR EGLL 232050Z AUTO 05004KT 020V090 9999 //////CB
                        13/07 Q1021 NOSIG=
201605232020 METAR COR EGLL 232020Z AUTO 03006KT 350V050 9999 -RA //////TCU
                        13/08 Q1021 NOSIG=
201605231950 METAR COR EGLL 231950Z AUTO 02007KT 340V050 9999 //////CB
                        13/07 Q1021 TEMPO SHRA=
201605231920 METAR COR EGLL 231920Z AUTO 01008KT 340V040 9999 //////CB
                        15/07 Q1021 TEMPO SHRA=
201605231850 METAR COR EGLL 231850Z AUTO 01011KT 340V040 9999 //////CB
                        16/07 Q1020 TEMPO SHRA=
201605231820 METAR COR EGLL 231820Z AUTO 01006KT 330V070 9999 //////CB
                        17/07 Q1020 TEMPO SHRA=
201605231750 METAR COR EGLL 231750Z AUTO 33007KT 290V010 9999 //////CB
                        17/07 Q1019 TEMPO SHRA=
201605231720 METAR COR EGLL 231720Z AUTO 31008KT 9999 //////CB 18/05 Q1019
                        TEMPO SHRA=
201605231650 METAR COR EGLL 231650Z AUTO 33005KT 290V020 9999 //////CB
                        17/05 Q1019 TEMPO SHRA=
201605231620 METAR COR EGLL 231620Z 36004KT 9999 VCSH SCT044CB 17/06 Q1019
                        TEMPO SHRA=
201605231550 METAR COR EGLL 231550Z AUTO VRB03KT 9999 -RA FEW020/// SCT039///
                        //////CB 16/07 Q1019 TEMPO SHRA=
201605231520 METAR COR EGLL 231520Z 01008KT 340V090 9999 -SHRA NSC 17/08
                        Q1019 TEMPO SHRA=
201605231450 METAR COR EGLL 231450Z AUTO 34005KT 290V040 9999 //////CB
                        19/07 Q1019 TEMPO SHRA=
201605231420 METAR COR EGLL 231420Z AUTO 31006G18KT 240V020 9999 BKN048
                        19/06 Q1019 NOSIG=
201605231350 METAR COR EGLL 231350Z AUTO 31007KT 280V340 9999 SCT046 17/07
                        Q1019 NOSIG=
201605231320 METAR COR EGLL 231320Z AUTO 33008KT 300V010 9999 BKN046 18/06
                        Q1018 NOSIG=
201605231250 METAR COR EGLL 231250Z AUTO 32006KT 280V010 9999 SCT044 18/07
                        Q1018 NOSIG=
201605231220 METAR COR EGLL 231220Z AUTO 34007KT 280V030 9999 SCT041 18/06
                        Q1018 NOSIG=
201605231150 METAR COR EGLL 231150Z AUTO 31007KT 260V360 9999 SCT040 18/08
                        Q1018 NOSIG=
201605231120 METAR COR EGLL 231120Z AUTO 34006KT 280V030 9999 BKN033 16/07
                        Q1018 NOSIG=
201605231050 METAR COR EGLL 231050Z AUTO 33007KT 290V020 9999 BKN032 17/08
                        Q1018 NOSIG=
201605231020 METAR COR EGLL 231020Z AUTO 34007KT 280V030 9999 FEW029 16/08
                        Q1018 NOSIG=
201605230950 METAR COR EGLL 230950Z AUTO 32008KT 290V030 9999 FEW030 15/08
                        Q1018 NOSIG=
201605230920 METAR COR EGLL 230920Z AUTO 33007KT 290V010 9999 FEW031 15/08
                        Q1017 NOSIG=
201605230850 METAR COR EGLL 230850Z AUTO 31007KT 280V010 9999 NCD 14/07
                        Q1017 NOSIG=
201605230820 METAR COR EGLL 230820Z AUTO 32009KT 280V350 9999 NCD 14/07
                        Q1017 NOSIG=
201605230750 METAR COR EGLL 230750Z AUTO 34007KT 300V010 9999 NCD 14/07
                        Q1017 NOSIG=
201605230720 METAR COR EGLL 230720Z AUTO 31008KT 280V340 9999 NCD 13/07
                        Q1016 NOSIG=
201605230650 METAR COR EGLL 230650Z AUTO 32008KT 280V350 9999 NCD 12/08
                        Q1016 NOSIG=
201605230620 METAR COR EGLL 230620Z AUTO 30007KT 280V340 9999 NCD 11/07
                        Q1016 NOSIG=
201605230550 METAR COR EGLL 230550Z AUTO 29006KT 9999 NCD 11/07 Q1016
                        NOSIG=
201605230520 METAR COR EGLL 230520Z AUTO 30004KT 9999 NCD 10/07 Q1015
                        NOSIG=
201605230450 METAR COR EGLL 230450Z AUTO 29005KT 9999 NCD 09/06 Q1015
                        NOSIG=
201605230420 METAR COR EGLL 230420Z AUTO 29006KT 9999 NCD 09/06 Q1015
                        NOSIG=
201605230350 METAR COR EGLL 230350Z AUTO 29006KT 9999 NCD 09/06 Q1014
                        NOSIG=
201605230320 METAR COR EGLL 230320Z AUTO 29005KT 9999 NCD 09/06 Q1014
                        NOSIG=
201605230250 METAR COR EGLL 230250Z AUTO 28005KT 9999 FEW047 10/06 Q1014
                        NOSIG=
201605230220 METAR COR EGLL 230220Z AUTO 32005KT 280V350 9999 BKN044 11/06
                        Q1014 NOSIG=
201605230150 METAR COR EGLL 230150Z AUTO 31005KT 280V350 9999 NCD 11/07
                        Q1013 NOSIG=
201605230120 METAR COR EGLL 230120Z AUTO 31004KT 9999 NCD 11/08 Q1013
                        NOSIG=
201605230050 METAR COR EGLL 230050Z AUTO 30005KT 9999 NCD 12/09 Q1013
                        NOSIG=
201605230020 METAR COR EGLL 230020Z AUTO 29007KT 9999 NCD 12/09 Q1012
                        NOSIG=
201605222350 METAR COR EGLL 222350Z AUTO 29007KT 9999 FEW040 12/09 Q1012
                        NOSIG=
201605222320 METAR COR EGLL 222320Z AUTO 30005KT 9999 NCD 12/09 Q1012
                        NOSIG=
201605222250 METAR COR EGLL 222250Z AUTO 29006KT 9999 NCD 13/09 Q1012
                        NOSIG=
201605222220 METAR COR EGLL 222220Z AUTO 31005KT 9999 NCD 13/09 Q1012
                        NOSIG=
201605222150 METAR COR EGLL 222150Z AUTO 30005KT 9999 NCD 14/09 Q1011
                        NOSIG=
201605222120 METAR COR EGLL 222120Z AUTO 30005KT 9999 NCD 14/09 Q1011
                        NOSIG=
201605222050 METAR COR EGLL 222050Z AUTO 30004KT 9999 NCD 14/09 Q1011
                        NOSIG=
201605222020 METAR COR EGLL 222020Z AUTO 32004KT 280V350 9999 NCD 14/09
                        Q1010 NOSIG=
201605221950 METAR COR EGLL 221950Z AUTO 33005KT 300V360 9999 FEW026 15/10
                        Q1010 NOSIG=
201605221920 METAR COR EGLL 221920Z AUTO 31004KT 280V340 9999 -RA FEW032
                        14/10 Q1010 NOSIG=
201605221850 METAR COR EGLL 221850Z AUTO 30004KT 9999 NCD 15/10 Q1010
                        NOSIG=
201605221820 METAR COR EGLL 221820Z AUTO 31005KT 9999 NCD 15/09 Q1009
                        NOSIG=
201605221750 METAR COR EGLL 221750Z AUTO 31006KT 9999 NCD 15/07 Q1009
                        NOSIG=
201605221720 METAR COR EGLL 221720Z AUTO 31006KT 9999 //////TCU 15/09
                        Q1009 TEMPO SHRA=
201605221650 METAR COR EGLL 221650Z AUTO 30008KT 9999 //////CB 15/08 Q1008
                        TEMPO SHRA=
201605221620 METAR COR EGLL 221620Z AUTO 30008KT 9999 -RA SCT037/// //////CB
                        16/09 Q1008 TEMPO +SHRA=
201605221550 METAR COR EGLL 221550Z AUTO 29010KT 9999 -RA FEW037/// //////CB
                        16/09 Q1008 TEMPO +SHRA=
201605221520 METAR COR EGLL 221520Z AUTO 27012KT 9999 FEW045 17/09 Q1008
                        TEMPO SHRA=
201605221450 METAR COR EGLL 221450Z AUTO 28009KT 9999 FEW049 17/08 Q1008
                        TEMPO SHRA=
201605221420 METAR COR EGLL 221420Z AUTO VRB04KT 9999 NCD 17/07 Q1007
                        TEMPO +SHRA=
201605221350 METAR COR EGLL 221350Z AUTO 26006KT 210V300 9999 SCT043 18/08
                        Q1007 NOSIG=
201605221320 METAR COR EGLL 221320Z AUTO 29005KT 240V330 9999 SCT041 17/08
                        Q1007 NOSIG=
201605221250 METAR COR EGLL 221250Z AUTO 31004KT 240V040 9999 SCT040 18/08
                        Q1007 NOSIG=
201605221220 METAR COR EGLL 221220Z AUTO 26004KT 190V310 9999 BKN037 17/08
                        Q1007 NOSIG=
201605221150 METAR COR EGLL 221150Z AUTO 25006KT 190V300 9999 BKN033 17/09
                        Q1007 NOSIG=
201605221120 METAR COR EGLL 221120Z AUTO 26006KT 210V300 9999 FEW029 17/08
                        Q1007 NOSIG=
201605221050 METAR COR EGLL 221050Z AUTO 27005KT 210V350 9999 FEW025 16/10
                        Q1007 NOSIG=
201605221020 METAR COR EGLL 221020Z AUTO 28005KT 200V330 9999 SCT022 16/10
                        Q1007 NOSIG=
201605220950 METAR COR EGLL 220950Z AUTO 28006KT 250V310 9999 FEW024 15/10
                        Q1007 NOSIG=
201605220920 METAR COR EGLL 220920Z AUTO 29006KT 260V330 9999 SCT021 15/09
                        Q1007 NOSIG=
201605220850 METAR COR EGLL 220850Z AUTO 25007KT 200V280 9999 SCT018 15/10
                        Q1007 NOSIG=
201605220820 METAR COR EGLL 220820Z AUTO 26006KT 210V300 9999 FEW015 14/10
                        Q1007 NOSIG=
201605220750 METAR COR EGLL 220750Z AUTO 27004KT 210V310 9999 FEW012 13/10
                        Q1007 NOSIG=
201605220720 METAR COR EGLL 220720Z AUTO 25005KT 220V300 9999 SCT008 13/10
                        Q1006 NOSIG=
201605220650 METAR COR EGLL 220650Z AUTO VRB03KT 9999 FEW008 12/10 Q1006
                        NOSIG=
201605220620 METAR COR EGLL 220620Z AUTO 26005KT 9999 FEW007 12/10 Q1006
                        NOSIG=
201605220550 METAR COR EGLL 220550Z AUTO 27005KT 9999 FEW010 11/10 Q1006
                        NOSIG=
201605220520 METAR COR EGLL 220520Z AUTO 28004KT 220V300 9999 NCD 11/09
                        Q1006 NOSIG=
201605220450 METAR COR EGLL 220450Z AUTO 28004KT 9999 FEW016 11/09 Q1006
                        NOSIG=
201605220420 METAR COR EGLL 220420Z AUTO 26003KT 9999 NCD 11/09 Q1006
                        NOSIG=
201605220350 METAR COR EGLL 220350Z AUTO 28004KT 9999 NCD 11/09 Q1006
                        NOSIG=
201605220320 METAR COR EGLL 220320Z AUTO 27004KT 9999 NCD 11/09 Q1006
                        NOSIG=
201605220250 METAR COR EGLL 220250Z AUTO 27002KT 9999 NCD 11/09 Q1006
                        NOSIG=
201605220220 METAR COR EGLL 220220Z AUTO 27004KT 9999 NCD 11/09 Q1006
                        NOSIG=
201605220150 METAR COR EGLL 220150Z AUTO 28005KT 9999 NCD 11/09 Q1006
                        NOSIG=
201605220120 METAR COR EGLL 220120Z AUTO 29004KT 9999 NCD 11/09 Q1006
                        TEMPO BKN012=
201605220050 METAR COR EGLL 220050Z AUTO 28005KT 9999 FEW020 12/09 Q1006
                        TEMPO BKN014=
201605220020 METAR COR EGLL 220020Z AUTO 29007KT 9999 BKN008 12/10 Q1006
                        TEMPO BKN012=
201605212350 METAR COR EGLL 212350Z AUTO 25008KT 9999 FEW020 13/11 Q1006
                        NOSIG=
201605212320 METAR COR EGLL 212320Z AUTO 24009KT 9999 FEW011 13/11 Q1006
                        NOSIG=
201605212250 METAR COR EGLL 212250Z AUTO 23009KT 9999 SCT010 13/11 Q1006
                        TEMPO BKN010=
201605212220 METAR COR EGLL 212220Z AUTO 25010KT 9999 BKN010 14/12 Q1006
                        TEMPO BKN008=
201605212150 METAR COR EGLL 212150Z AUTO 24008KT 190V270 9999 BKN010 14/12
                        Q1006 TEMPO BKN008=
201605212120 METAR COR EGLL 212120Z AUTO 24010KT 9999 SCT011 14/12 Q1006
                        TEMPO BKN011=
201605212050 METAR COR EGLL 212050Z AUTO 22009KT 170V250 9999 SCT045 15/12
                        Q1006 TEMPO BKN014=
201605212020 METAR COR EGLL 212020Z AUTO 22010KT 180V250 9999 FEW014 BKN048
                        15/12 Q1006 TEMPO BKN014=
201605211950 METAR COR EGLL 211950Z AUTO 22011KT 9999 -RA SCT016 BKN045
                        15/13 Q1006 TEMPO BKN014=
201605211920 METAR COR EGLL 211920Z AUTO 19008KT 170V250 9999 -RA NCD
                        15/12 Q1006 TEMPO BKN012=
201605211850 METAR COR EGLL 211850Z AUTO 18007KT 150V220 9999 NCD 16/12
                        Q1006 TEMPO RA BKN012=
201605211820 METAR COR EGLL 211820Z AUTO 17008KT 150V230 9999 NCD 16/13
                        Q1006 TEMPO RA BKN014=
201605211750 METAR COR EGLL 211750Z AUTO 20010KT 150V240 9999 -RA FEW025
                        SCT037 16/12 Q1007 TEMPO RA BKN014=
201605211720 METAR COR EGLL 211720Z AUTO 19011KT 160V220 9999 -RA FEW016
                        16/13 Q1007 TEMPO RA BKN014=
201605211650 METAR COR EGLL 211650Z AUTO 18011KT 9999 -RA SCT012 SCT034
                        15/13 Q1007 TEMPO RA BKN014=
201605211620 METAR COR EGLL 211620Z AUTO 20012KT 160V240 9999 -RA BKN010
                        15/13 Q1008 NOSIG=
201605211550 METAR COR EGLL 211550Z AUTO 20012KT 170V250 9999 -RA BKN013
                        15/13 Q1008 TEMPO RA=
201605211520 METAR COR EGLL 211520Z AUTO 19013KT 170V240 9999 -RA BKN013
                        15/13 Q1008 TEMPO RA=
201605211450 METAR COR EGLL 211450Z AUTO 21015G25KT 7000 -RA BKN015 OVC027
                        15/13 Q1008 NOSIG=
201605211420 METAR COR EGLL 211420Z AUTO 20014KT 170V230 9999 -RA BKN017
                        17/12 Q1008 TEMPO RA BKN014=
201605211350 METAR COR EGLL 211350Z AUTO 20015KT 9999 BKN023 17/11 Q1008
                        TEMPO RA BKN014=
201605211320 METAR COR EGLL 211320Z AUTO 21015KT 9999 BKN022 17/11 Q1008
                        NOSIG=
201605211250 METAR COR EGLL 211250Z AUTO 20014KT 9999 BKN024 17/11 Q1008
                        NOSIG=
201605211220 METAR COR EGLL 211220Z AUTO 20016G28KT 9999 BKN023 18/11
                        Q1008 NOSIG=
201605211150 METAR COR EGLL 211150Z AUTO 21014KT 9999 BKN022 16/11 Q1009
                        NOSIG=
201605211120 METAR COR EGLL 211120Z AUTO 20013KT 150V250 9999 BKN019 16/11
                        Q1009 NOSIG=
201605211050 METAR COR EGLL 211050Z AUTO 20014KT 180V250 9999 BKN018 16/11
                        Q1009 NOSIG=
201605211020 METAR COR EGLL 211020Z AUTO 21013KT 9999 BKN018 16/11 Q1009
                        NOSIG=
201605210950 METAR COR EGLL 210950Z AUTO 21013KT 9999 BKN017 15/11 Q1009
                        NOSIG=
201605210920 METAR COR EGLL 210920Z AUTO 22012KT 9999 OVC015 15/11 Q1009
                        TEMPO RA BKN014=
201605210850 METAR COR EGLL 210850Z AUTO 22012KT 9999 OVC015 15/11 Q1009
                        TEMPO RA BKN014=
201605210820 METAR COR EGLL 210820Z AUTO 21013KT 9999 OVC015 15/11 Q1009
                        TEMPO BKN014=
201605210750 METAR COR EGLL 210750Z AUTO 21012KT 9999 OVC013 15/12 Q1009
                        BECMG BKN016=
201605210720 METAR COR EGLL 210720Z AUTO 21013KT 9999 OVC014 14/12 Q1010
                        BECMG BKN016=
201605210650 METAR COR EGLL 210650Z AUTO 21013KT 9999 OVC014 14/11 Q1010
                        BECMG BKN018=
201605210620 METAR COR EGLL 210620Z AUTO 21012KT 9999 OVC013 14/11 Q1010
                        BECMG BKN015=
201605210550 METAR COR EGLL 210550Z AUTO 22012KT 9999 OVC012 14/11 Q1010
                        TEMPO SCT012 BKN015=
201605210520 METAR COR EGLL 210520Z AUTO 21011KT 9999 OVC011 14/12 Q1010
                        TEMPO SCT011 BKN016=
201605210450 METAR COR EGLL 210450Z AUTO 21012KT 9999 -RA OVC010 14/12
                        Q1010 TEMPO NSW SCT010 BKN015=
201605210420 METAR COR EGLL 210420Z AUTO 21010KT 9999 BKN010 14/12 Q1010
                        BECMG SCT010 BKN015=
201605210350 METAR COR EGLL 210350Z 21009KT 9999 FEW007 BKN012 14/13 Q1010
                        TEMPO BKN008=
201605210320 METAR EGLL 210320Z 20010KT 9999 FEW004 BKN012 13/13 Q1010=
201605210250 METAR COR EGLL 210250Z 18009KT 4000 -RADZ BR FEW003 SCT004
                        BKN008 13/12 Q1010 TEMPO 5000 NSW=
201605210220 METAR COR EGLL 210220Z AUTO 18008KT 4300 HZ OVC004 13/12
                        Q1011 TEMPO 6000 BKN006=
201605210150 METAR COR EGLL 210150Z AUTO 18008KT 9999 OVC006 13/11 Q1011
                        TEMPO SCT006 BKN010=
201605210120 METAR COR EGLL 210120Z AUTO 19010KT 9999 BKN006 13/11 Q1011
                        TEMPO SCT006 BKN010=
201605210050 METAR COR EGLL 210050Z AUTO 20012KT 9000 OVC011 13/11 Q1012
                        TEMPO BKN008=
201605210020 METAR COR EGLL 210020Z AUTO 20012KT 9999 OVC014 13/10 Q1012
                        NOSIG=
201605202350 METAR COR EGLL 202350Z AUTO 20011KT 9999 BKN019 13/10 Q1012
                        TEMPO BKN012=
201605202320 METAR COR EGLL 202320Z AUTO 20012KT 9999 -RA BKN024 13/11
                        Q1012 NOSIG=
201605202250 METAR COR EGLL 202250Z AUTO 19010KT 9999 FEW036 BKN048 13/10
                        Q1013 TEMPO -RA BKN014=
201605202220 METAR COR EGLL 202220Z AUTO 20008KT 170V240 9999 -RA NCD
                        14/10 Q1013 TEMPO -RA BKN014=
201605202150 METAR COR EGLL 202150Z AUTO 20007KT 160V250 9999 NCD 14/10
                        Q1013 TEMPO -RA BKN014=
201605202120 METAR COR EGLL 202120Z AUTO 22011KT 9999 -RA NCD 14/10 Q1014
                        TEMPO -RA BKN013=
201605202050 METAR COR EGLL 202050Z AUTO 21011KT 190V250 9999 NCD 14/09
                        Q1014 TEMPO -RA BKN012=
201605202020 METAR COR EGLL 202020Z AUTO 22010KT 9999 NCD 14/09 Q1014
                        NOSIG=
201605201950 METAR COR EGLL 201950Z AUTO 22010KT 180V250 9999 NCD 14/09
                        Q1015 NOSIG=
201605201920 METAR COR EGLL 201920Z AUTO 22011KT 9999 NCD 15/08 Q1015
                        NOSIG=
201605201850 METAR COR EGLL 201850Z AUTO 22014KT 9999 NCD 15/09 Q1015
                        NOSIG=
201605201820 METAR COR EGLL 201820Z AUTO 22012KT 9999 NCD 15/09 Q1014
                        NOSIG=
201605201750 METAR COR EGLL 201750Z AUTO 21012KT 9999 NCD 16/09 Q1014
                        NOSIG=
201605201720 METAR COR EGLL 201720Z AUTO 21014KT 9999 NCD 17/09 Q1014
                        NOSIG=
201605201650 METAR COR EGLL 201650Z AUTO 20015KT 9999 FEW036 17/08 Q1014
                        NOSIG=
201605201620 METAR COR EGLL 201620Z AUTO 20013KT 170V240 9999 FEW035 18/10
                        Q1014 NOSIG=
201605201550 METAR COR EGLL 201550Z AUTO 22012KT 9999 FEW034 18/10 Q1014
                        NOSIG=
201605201520 METAR COR EGLL 201520Z AUTO 25011KT 220V280 9999 FEW040 18/09
                        Q1014 NOSIG=
201605201450 METAR COR EGLL 201450Z AUTO 24012KT 9999 SCT040 18/09 Q1015
                        NOSIG=
201605201420 METAR COR EGLL 201420Z AUTO 25011KT 9999 SCT040 18/09 Q1015
                        NOSIG=
201605201350 METAR COR EGLL 201350Z AUTO 24010KT 190V300 9999 BKN037 19/10
                        Q1015 NOSIG=
201605201320 METAR COR EGLL 201320Z AUTO 24011KT 9999 SCT035 18/09 Q1015
                        NOSIG=
201605201250 METAR COR EGLL 201250Z AUTO 24011KT 200V270 9999 BKN035 18/09
                        Q1015 NOSIG=
201605201220 METAR COR EGLL 201220Z AUTO 25011KT 210V280 9999 SCT033 18/09
                        Q1015 NOSIG=
201605201150 METAR COR EGLL 201150Z AUTO 24011KT 9999 BKN032 18/09 Q1015
                        NOSIG=
201605201120 METAR COR EGLL 201120Z AUTO 25012KT 220V280 9999 BKN029 17/10
                        Q1016 NOSIG=
201605201050 METAR COR EGLL 201050Z AUTO 26013KT 9999 BKN028 16/10 Q1015
                        NOSIG=
201605201020 METAR COR EGLL 201020Z AUTO 25012KT 9999 BKN028 16/09 Q1015
                        NOSIG=
201605200950 METAR COR EGLL 200950Z AUTO 25012KT 9999 SCT027 16/10 Q1015
                        NOSIG=
201605200920 METAR COR EGLL 200920Z AUTO 25011KT 9999 BKN026 15/09 Q1015
                        NOSIG=
201605200850 METAR COR EGLL 200850Z AUTO 25012KT 9999 SCT025 15/10 Q1015
                        NOSIG=
201605200820 METAR COR EGLL 200820Z AUTO 26012KT 9999 SCT021 15/10 Q1015
                        NOSIG=
201605200750 METAR COR EGLL 200750Z AUTO 25013KT 9999 BKN019 BKN034 14/10
                        Q1015 NOSIG=
201605200720 METAR COR EGLL 200720Z AUTO 25013KT 9999 SCT016 SCT035 14/10
                        Q1014 NOSIG=
201605200650 METAR COR EGLL 200650Z AUTO 25012KT 9999 BKN014 14/11 Q1014
                        BECMG SCT016=
201605200620 METAR COR EGLL 200620Z AUTO 25011KT 9999 SCT015 14/11 Q1014
                        NOSIG=
201605200550 METAR COR EGLL 200550Z AUTO 24010KT 9999 BKN017 14/11 Q1014
                        NOSIG=
201605200520 METAR COR EGLL 200520Z AUTO 23008KT 9999 SCT017 SCT024 13/11
                        Q1013 NOSIG=
201605200450 METAR COR EGLL 200450Z AUTO 24010KT 9999 BKN014 13/11 Q1013
                        BECMG SCT028=
201605200420 METAR COR EGLL 200420Z AUTO 25010KT 9999 BKN012 OVC037 13/11
                        Q1013 BECMG SCT020=
201605200350 METAR COR EGLL 200350Z AUTO 23009KT 9999 BKN012 OVC026 13/11
                        Q1013 BECMG SCT015=
201605200320 METAR COR EGLL 200320Z AUTO 23008KT 9999 SCT012 BKN023 13/11
                        Q1013 TEMPO BKN014=
201605200250 METAR COR EGLL 200250Z AUTO 23008KT 9999 BKN012 OVC024 13/12
                        Q1013 TEMPO SCT015=
201605200220 METAR COR EGLL 200220Z AUTO 22009KT 9999 SCT012 OVC030 13/12
                        Q1013 TEMPO BKN012=
201605200150 METAR COR EGLL 200150Z AUTO 22008KT 9999 FEW008 OVC020 13/12
                        Q1013 TEMPO BKN010=
201605200120 METAR COR EGLL 200120Z AUTO 21008KT 9999 BKN008 13/12 Q1013
                        NOSIG=
201605200050 METAR COR EGLL 200050Z 22006KT 9999 BKN008 13/12 Q1013 TEMPO
                        BKN012=
201605200020 METAR COR EGLL 200020Z 22007KT 9999 BKN009 OVC023 13/12 Q1013
                        TEMPO BKN012=
201605192350 METAR COR EGLL 192350Z AUTO 22009KT 9999 BKN008 OVC019 13/12
                        Q1013 BECMG SCT010=
201605192320 METAR COR EGLL 192320Z 22010KT 9999 OVC009 13/11 Q1013 TEMPO
                        BKN010=
201605192220 METAR EGLL 192220Z AUTO 22009KT 9999 OVC010 13/11 Q1013=
201605192150 METAR COR EGLL 192150Z AUTO 22010KT 180V250 9999 OVC010 13/11
                        Q1013 TEMPO RADZ BKN008=
201605192120 METAR COR EGLL 192120Z AUTO 23011KT 9999 OVC010 13/11 Q1013
                        TEMPO RADZ BKN008=
201605192050 METAR COR EGLL 192050Z AUTO 23013G23KT 9999 OVC011 13/11
                        Q1013 TEMPO RADZ BKN009=
201605192020 METAR COR EGLL 192020Z AUTO 22013KT 9999 OVC013 13/10 Q1013
                        TEMPO RADZ BKN009=
201605191950 METAR COR EGLL 191950Z AUTO 22012KT 9999 OVC015 14/10 Q1013
                        BECMG BKN012=
201605191920 METAR COR EGLL 191920Z AUTO 22011KT 9999 BKN019 14/10 Q1013
                        BECMG BKN012=
201605191850 METAR COR EGLL 191850Z AUTO 21012G22KT 9999 -RA FEW011 BKN021
                        14/09 Q1013 TEMPO BKN014=
201605191820 METAR COR EGLL 191820Z AUTO 22010KT 190V250 9999 BKN030 15/08
                        Q1013 TEMPO BKN014=
201605191750 METAR COR EGLL 191750Z AUTO 22013KT 190V250 9999 BKN035 15/07
                        Q1013 NOSIG=
201605191720 METAR COR EGLL 191720Z AUTO 24014KT 9999 NCD 16/07 Q1013
                        NOSIG=
201605191650 METAR COR EGLL 191650Z AUTO 23014KT 9999 NCD 17/06 Q1012
                        NOSIG=
201605191620 METAR COR EGLL 191620Z AUTO 24015KT 9999 BKN039 18/08 Q1012
                        NOSIG=
201605191550 METAR COR EGLL 191550Z AUTO 22013KT 9999 BKN038 18/10 Q1012
                        NOSIG=
201605191520 METAR COR EGLL 191520Z AUTO 24013KT 9999 BKN041 18/09 Q1013
                        NOSIG=
201605191450 METAR COR EGLL 191450Z AUTO 23013KT 9999 BKN039 18/09 Q1013
                        NOSIG=
201605191420 METAR COR EGLL 191420Z AUTO 24012KT 190V270 9999 BKN038 18/10
                        Q1012 NOSIG=
201605191350 METAR COR EGLL 191350Z AUTO 22008KT 180V250 9999 BKN035 17/10
                        Q1012 NOSIG=
201605191320 METAR COR EGLL 191320Z AUTO 22006KT 170V260 9999 BKN032 17/10
                        Q1013 NOSIG=
201605191250 METAR COR EGLL 191250Z AUTO 22005KT 160V270 9999 OVC027 17/10
                        Q1013 NOSIG=
201605191220 METAR COR EGLL 191220Z AUTO 22005G15KT 180V270 9999 OVC025
                        16/10 Q1013 NOSIG=
201605191150 METAR COR EGLL 191150Z AUTO 26005KT 210V310 9999 OVC024 16/10
                        Q1013 NOSIG=
201605191120 METAR COR EGLL 191120Z AUTO 22007KT 190V260 9999 OVC021 15/10
                        Q1013 NOSIG=
201605191050 METAR COR EGLL 191050Z AUTO 27005KT 220V300 9999 BKN018 15/10
                        Q1013 NOSIG=
201605191020 METAR COR EGLL 191020Z AUTO 28005KT 260V320 9999 OVC016 14/10
                        Q1013 NOSIG=
201605190950 METAR COR EGLL 190950Z AUTO 28005KT 230V310 9999 OVC017 14/10
                        Q1013 NOSIG=
201605190920 METAR COR EGLL 190920Z AUTO 30004KT 240V360 9999 OVC015 13/10
                        Q1013 NOSIG=
201605190850 METAR COR EGLL 190850Z AUTO 29007KT 9999 OVC014 13/10 Q1012
                        BECMG BKN015=
201605190820 METAR COR EGLL 190820Z AUTO 29007KT 9999 OVC013 12/09 Q1012
                        BECMG BKN015=
201605190750 METAR COR EGLL 190750Z AUTO 29005KT 260V330 9999 OVC012 12/09
                        Q1012 BECMG BKN015=
201605190720 METAR COR EGLL 190720Z AUTO 31006KT 280V350 9999 OVC011 12/09
                        Q1011 NOSIG=
201605190650 METAR COR EGLL 190650Z AUTO 29006KT 9999 OVC012 11/09 Q1011
                        NOSIG=
201605190620 METAR COR EGLL 190620Z AUTO 30006KT 9999 BKN013 11/09 Q1010
                        NOSIG=
201605190550 METAR COR EGLL 190550Z AUTO 32005KT 280V360 9999 BKN013 10/08
                        Q1010 NOSIG=
201605190520 METAR COR EGLL 190520Z AUTO 29008KT 9999 BKN016 10/08 Q1010
                        TEMPO BKN014=
201605190450 METAR COR EGLL 190450Z AUTO 29006KT 9999 BKN015 10/08 Q1009
                        TEMPO BKN014=
201605190420 METAR COR EGLL 190420Z AUTO 28005KT 9999 FEW015 10/08 Q1009
                        TEMPO BKN014=
201605190350 METAR COR EGLL 190350Z AUTO VRB03KT 9999 NCD 10/08 Q1008
                        NOSIG=
201605190320 METAR COR EGLL 190320Z AUTO 31006KT 9999 FEW024 10/08 Q1008
                        NOSIG=
201605190250 METAR COR EGLL 190250Z AUTO 32006KT 9999 BKN023 10/08 Q1008
                        NOSIG=
201605190220 METAR COR EGLL 190220Z AUTO 31007KT 9999 OVC024 10/08 Q1007
                        NOSIG=
201605190150 METAR COR EGLL 190150Z AUTO 30007KT 6000 -RA BKN024 10/08
                        Q1007 BECMG 9999 NSW=
201605190120 METAR COR EGLL 190120Z AUTO 30006KT 280V340 9999 BKN025 BKN040
                        10/08 Q1007 NOSIG=
201605190050 METAR COR EGLL 190050Z AUTO 30007KT 9999 FEW030 10/08 Q1006
                        NOSIG=
201605190020 METAR COR EGLL 190020Z AUTO 31007KT 270V340 9999 BKN029 BKN043
                        10/08 Q1006 NOSIG=
201605182350 METAR COR EGLL 182350Z AUTO 31007KT 9999 BKN028 10/09 Q1006
                        NOSIG=
201605182320 METAR COR EGLL 182320Z AUTO 31008KT 9000 -RA FEW021/// BKN029///
                        //////TCU 11/09 Q1006 NOSIG=
201605182250 METAR COR EGLL 182250Z AUTO 30006KT 9999 -RA OVC046 11/09
                        Q1006 TEMPO SHRA=
201605182220 METAR COR EGLL 182220Z AUTO 29007KT 9999 -RA SCT019 BKN036
                        11/10 Q1005 NOSIG=
201605182150 METAR COR EGLL 182150Z AUTO 29006KT 7000 -RA SCT015/// BKN029///
                        //////TCU 11/10 Q1005 RERA TEMPO
                        SHRA=
201605182120 METAR COR EGLL 182120Z AUTO 31006KT 280V340 6000 -RA FEW014
                        BKN022 11/10 Q1005 TEMPO 3500 SHRA=
201605182050 METAR COR EGLL 182050Z AUTO 28007KT 9999 FEW031 BKN047 11/09
                        Q1005 TEMPO SHRA=
201605182020 METAR COR EGLL 182020Z AUTO 29005KT 9999 BKN039 11/09 Q1004
                        NOSIG=
201605181950 METAR COR EGLL 181950Z AUTO 31006KT 9999 FEW039 11/09 Q1004
                        NOSIG=
201605181920 METAR COR EGLL 181920Z AUTO 29008KT 9999 BKN041/// //////CB
                        11/09 Q1003 NOSIG=
201605181850 METAR COR EGLL 181850Z AUTO 30007KT 9999 BKN029/// BKN044///
                        //////TCU 12/09 Q1003 NOSIG=
201605181820 METAR COR EGLL 181820Z AUTO 30007KT 260V330 9999 FEW011 BKN023
                        12/10 Q1003 TEMPO SHRA=
201605181750 METAR COR EGLL 181750Z AUTO 27007KT 9999 SCT048 12/10 Q1003
                        TEMPO SHRA=
201605181720 METAR COR EGLL 181720Z AUTO 28007KT 9999 NCD 12/10 Q1002
                        TEMPO SHRA=
201605181650 METAR COR EGLL 181650Z AUTO 27009KT 9999 -RA BKN039/// //////TCU
                        12/10 Q1002 TEMPO SHRA BKN012CB=
201605181620 METAR COR EGLL 181620Z AUTO 28007KT 9999 -RA BKN039/// //////TCU
                        11/09 Q1002 TEMPO SHRA BKN012=
201605181550 METAR COR EGLL 181550Z AUTO 29006KT 9999 -RA SCT016/// OVC039///
                        //////CB 12/10 Q1002 TEMPO SHRA BKN012=
201605181520 METAR COR EGLL 181520Z AUTO 22009KT 180V250 9999 BKN017///
                        //////CB 13/10 Q1002 TEMPO SHRA BKN012=
201605181450 METAR COR EGLL 181450Z AUTO 20011KT 170V240 9999 -RA FEW018///
                        SCT028/// BKN039/// //////CB 13/10
                        Q1002 TEMPO SHRA BKN012=
201605181420 METAR COR EGLL 181420Z AUTO 19009KT 160V220 9999 SCT018///
                        BKN034/// OVC049/// //////CB 14/10
                        Q1002 TEMPO SHRA BKN012=
201605181350 METAR COR EGLL 181350Z AUTO 20010KT 160V250 9999 BKN016 BKN030
                        14/09 Q1002 TEMPO SHRA BKN012CB=
201605181320 METAR COR EGLL 181320Z AUTO 17009KT 120V250 9999 BKN012 14/10
                        Q1002 TEMPO SHRA SCT012=
201605181250 METAR COR EGLL 181250Z AUTO 17009KT 130V200 9999 SCT008 BKN034
                        14/11 Q1002 TEMPO SHRA BKN012=
201605181220 METAR COR EGLL 181220Z AUTO 20008KT 170V240 9999 BKN010 BKN027
                        12/10 Q1003 TEMPO SHRA BKN015=
201605181150 METAR COR EGLL 181150Z AUTO 21010KT 170V230 9999 FEW010///
                        //////TCU 12/10 Q1003 TEMPO SHRA
                        BKN014=
201605181120 METAR COR EGLL 181120Z AUTO 20008KT 130V240 9999 -RA SCT008///
                        SCT022/// BKN035/// //////CB 12/10
                        Q1003 TEMPO RA BKN014=
201605181050 METAR COR EGLL 181050Z AUTO 19008KT 9999 -RA FEW010/// BKN031///
                        OVC046/// //////CB 12/10 Q1003 TEMPO
                        SHRA BKN014=
201605181020 METAR COR EGLL 181020Z AUTO 20011KT 160V230 5000 -RA BKN007///
                        OVC035/// //////CB 12/11 Q1003 TEMPO
                        4000 RA BKN012=
201605180950 METAR COR EGLL 180950Z AUTO 17011KT 140V210 9999 -RA BKN015///
                        //////CB 12/10 Q1003 TEMPO RA BKN012=
201605180920 METAR COR EGLL 180920Z AUTO 17011KT 9999 -RA BKN015/// //////TCU
                        13/10 Q1004 TEMPO RA BKN012=
201605180850 METAR EGLL 180850Z AUTO 18010KT 150V260 9999 BKN014/// //////TCU
                        13/10 Q1004=
201605180820 METAR COR EGLL 180820Z AUTO 19010KT 160V230 9999 BKN017 BKN039
                        13/10 Q1004 TEMPO RA BKN014=
201605180750 METAR EGLL 180750Z AUTO 20010KT 180V240 9999 -RA BKN014 BKN026
                        OVC039 12/10 Q1005=
201605180720 METAR COR EGLL 180720Z 18010KT 150V230 9999 SCT021 SCT032
                        13/10 Q1005 TEMPO RA BKN014=
201605180650 METAR COR EGLL 180650Z 19009KT 150V230 9999 SCT021 SCT044
                        13/10 Q1005 TEMPO RA BKN014=
201605180620 METAR EGLL 180620Z AUTO 20009KT 160V240 9999 BKN013 12/10
                        Q1006=
201605180550 METAR COR EGLL 180550Z AUTO 19010KT 9999 BKN013 12/10 Q1006
                        TEMPO SCT012=
201605180520 METAR COR EGLL 180520Z AUTO 20011KT 9999 BKN013 12/09 Q1006
                        TEMPO SCT014=
201605180450 METAR COR EGLL 180450Z AUTO 20011KT 9999 BKN015 OVC032 12/09
                        Q1006 TEMPO -RA BKN014=
201605180420 METAR COR EGLL 180420Z AUTO 20012KT 9999 OVC017 12/09 Q1006
                        TEMPO BKN014=
201605180350 METAR COR EGLL 180350Z AUTO 21010KT 9999 BKN018 12/09 Q1007
                        TEMPO BKN014=
201605180320 METAR COR EGLL 180320Z AUTO 21009KT 9999 BKN018 12/09 Q1007
                        TEMPO BKN014=
201605180250 METAR COR EGLL 180250Z AUTO 21009KT 9999 FEW020 12/09 Q1008
                        TEMPO BKN014=
201605180220 METAR COR EGLL 180220Z AUTO 20008KT 9999 FEW016 12/09 Q1008
                        TEMPO BKN014=
201605180150 METAR EGLL 180150Z AUTO 21008KT 9999 FEW013 BKN048 12/09
                        Q1009=
201605180120 METAR COR EGLL 180120Z AUTO 21008KT 9999 FEW013 BKN040 12/09
                        Q1009 TEMPO BKN014=
201605180050 METAR COR EGLL 180050Z AUTO 20008KT 9999 SCT037 12/09 Q1010
                        NOSIG=
201605180020 METAR COR EGLL 180020Z AUTO 21008KT 9999 SCT036 11/09 Q1010
                        NOSIG=
201605172350 METAR COR EGLL 172350Z AUTO 21008KT 9999 FEW041 11/09 Q1010
                        NOSIG=
201605172320 METAR COR EGLL 172320Z AUTO 22008KT 9999 NCD 11/09 Q1011
                        NOSIG=
201605172250 METAR COR EGLL 172250Z AUTO 21009KT 9999 NCD 12/09 Q1011
                        NOSIG=
201605172220 METAR COR EGLL 172220Z AUTO 21008KT 9999 NCD 13/09 Q1012
                        NOSIG=
201605172150 METAR COR EGLL 172150Z AUTO 21011KT 9999 NCD 13/10 Q1012
                        NOSIG=
201605172120 METAR COR EGLL 172120Z AUTO 21009KT 160V250 9999 NCD 13/10
                        Q1012 NOSIG=
201605172050 METAR COR EGLL 172050Z AUTO 21010KT 180V250 9999 FEW043 13/10
                        Q1012 NOSIG=
201605172020 METAR COR EGLL 172020Z AUTO 22008KT 170V260 9999 BKN016 13/10
                        Q1013 TEMPO BKN014=
201605171950 METAR COR EGLL 171950Z AUTO 22009KT 9999 BKN016 13/10 Q1013
                        TEMPO BKN014=
201605171920 METAR COR EGLL 171920Z AUTO 22011KT 9999 OVC017 14/10 Q1013
                        TEMPO BKN014=
201605171850 METAR COR EGLL 171850Z AUTO 22013KT 9999 BKN018 14/10 Q1013
                        TEMPO BKN014=
201605171820 METAR COR EGLL 171820Z AUTO 23012KT 9999 SCT021 14/09 Q1013
                        NOSIG=
201605171750 METAR COR EGLL 171750Z AUTO 24013KT 9999 SCT022 BKN046 14/09
                        Q1014 NOSIG=
201605171720 METAR COR EGLL 171720Z AUTO 23014KT 9999 FEW029 OVC043 15/09
                        Q1014 NOSIG=
201605171650 METAR COR EGLL 171650Z AUTO 24015KT 9999 SCT030 15/09 Q1014
                        NOSIG=
201605171620 METAR COR EGLL 171620Z AUTO 24015KT 9999 SCT031 16/09 Q1014
                        NOSIG=
201605171550 METAR COR EGLL 171550Z AUTO 22014KT 9999 BKN033 OVC047 16/09
                        Q1014 NOSIG=
201605171520 METAR COR EGLL 171520Z AUTO 22011KT 180V250 9999 BKN041 17/08
                        Q1014 NOSIG=
201605171450 METAR EGLL 171450Z AUTO 23008KT 200V290 9999 OVC047 18/07
                        Q1015=
201605171420 METAR COR EGLL 171420Z AUTO 26008KT 9999 OVC047 17/07 Q1015
                        NOSIG=
201605171350 METAR COR EGLL 171350Z AUTO 24009KT 210V290 9999 BKN045 16/07
                        Q1015 NOSIG=
201605171320 METAR COR EGLL 171320Z AUTO 25011KT 9999 BKN043 16/07 Q1016
                        NOSIG=
201605171250 METAR COR EGLL 171250Z AUTO 24009KT 210V280 9999 OVC046 16/07
                        Q1016 NOSIG=
201605171220 METAR COR EGLL 171220Z AUTO 25011KT 9999 OVC041 16/07 Q1016
                        NOSIG=
201605171150 METAR COR EGLL 171150Z AUTO 23011KT 9999 FEW035 OVC043 17/08
                        Q1016 NOSIG=
201605171120 METAR COR EGLL 171120Z AUTO 25012KT 9999 FEW033 OVC045 16/08
                        Q1017 NOSIG=
201605171050 METAR COR EGLL 171050Z AUTO 26009KT 220V290 9999 BKN031 OVC046
                        15/08 Q1017 NOSIG=
201605171020 METAR COR EGLL 171020Z AUTO 26007KT 9999 FEW028 SCT043 16/09
                        Q1017 NOSIG=
201605170950 METAR COR EGLL 170950Z AUTO 26006KT 210V290 9999 NCD 15/09
                        Q1018 NOSIG=
201605170920 METAR COR EGLL 170920Z AUTO 27007KT 220V300 9999 FEW027 14/08
                        Q1018 NOSIG=
201605170850 METAR COR EGLL 170850Z AUTO 25006KT 220V290 9999 BKN042 14/08
                        Q1018 NOSIG=
201605170820 METAR COR EGLL 170820Z AUTO 26005KT 220V290 9999 NCD 13/08
                        Q1018 NOSIG=
201605170750 METAR COR EGLL 170750Z AUTO 28005KT 220V350 9999 NCD 13/07
                        Q1018 NOSIG=
201605170720 METAR COR EGLL 170720Z AUTO 30004KT 260V340 9999 NCD 12/07
                        Q1018 NOSIG=
201605170650 METAR COR EGLL 170650Z AUTO VRB03KT 9999 NCD 11/08 Q1018
                        NOSIG=
201605170620 METAR COR EGLL 170620Z AUTO 28004KT 260V320 9999 NCD 10/07
                        Q1018 NOSIG=
201605170550 METAR COR EGLL 170550Z AUTO VRB03KT 7000 NCD 09/08 Q1018
                        NOSIG=
201605170520 METAR COR EGLL 170520Z AUTO 25004KT 220V280 5000 HZ NCD 08/07
                        Q1018 NOSIG=
201605170450 METAR COR EGLL 170450Z AUTO 29002KT 7000 NCD 08/07 Q1018
                        NOSIG=
201605170420 METAR COR EGLL 170420Z AUTO 29004KT 5000 HZ NCD 08/07 Q1018
                        NOSIG=
201605170350 METAR COR EGLL 170350Z AUTO 27004KT 6000 NCD 08/07 Q1018
                        NOSIG=
201605170320 METAR COR EGLL 170320Z AUTO 27004KT 7000 NCD 08/07 Q1018
                        NOSIG=
201605170250 METAR COR EGLL 170250Z AUTO VRB02KT 9000 NCD 09/08 Q1018
                        NOSIG=
201605170220 METAR COR EGLL 170220Z AUTO 32004KT 290V350 8000 NCD 09/08
                        Q1019 NOSIG=
201605170150 METAR COR EGLL 170150Z AUTO 31004KT 8000 NCD 10/08 Q1019
                        NOSIG=
201605170120 METAR COR EGLL 170120Z AUTO 27007KT 8000 NCD 09/08 Q1019
                        NOSIG=
201605170050 METAR COR EGLL 170050Z AUTO 27005KT 9999 NCD 10/08 Q1019
                        NOSIG=
201605170020 METAR COR EGLL 170020Z AUTO 27006KT 9999 NCD 10/08 Q1019
                        NOSIG=
201605162350 METAR COR EGLL 162350Z AUTO 27006KT 9999 NCD 11/09 Q1019
                        NOSIG=
201605162320 METAR COR EGLL 162320Z AUTO 27007KT 9999 NCD 11/09 Q1019
                        NOSIG=
201605162250 METAR COR EGLL 162250Z AUTO 28006KT 9999 NCD 12/09 Q1019
                        NOSIG=
201605162220 METAR COR EGLL 162220Z AUTO 29007KT 9999 FEW038 13/09 Q1019
                        NOSIG=
201605162150 METAR COR EGLL 162150Z AUTO 24009KT 9999 FEW047 14/07 Q1019
                        NOSIG=
201605162120 METAR COR EGLL 162120Z AUTO 20005KT 140V250 9999 NCD 15/07
                        Q1019 NOSIG=
201605162050 METAR COR EGLL 162050Z AUTO VRB02KT 9999 NCD 15/06 Q1019
                        NOSIG=
201605162020 METAR COR EGLL 162020Z AUTO VRB01KT 9999 NCD 15/06 Q1019
                        NOSIG=
201605161950 METAR COR EGLL 161950Z AUTO VRB02KT 9999 NCD 15/06 Q1019
                        NOSIG=
201605161920 METAR COR EGLL 161920Z AUTO VRB03KT 9999 NCD 16/06 Q1019
                        NOSIG=
201605161850 METAR COR EGLL 161850Z AUTO 36004KT 330V040 9999 NCD 16/06
                        Q1019 NOSIG=
201605161820 METAR COR EGLL 161820Z AUTO 30006KT 270V350 9999 FEW048 16/06
                        Q1019 NOSIG=
201605161750 METAR COR EGLL 161750Z AUTO 32004KT 270V040 9999 FEW047 17/06
                        Q1020 NOSIG=
201605161720 METAR COR EGLL 161720Z AUTO 29005KT 260V330 9999 BKN048 16/06
                        Q1020 NOSIG=
201605161650 METAR COR EGLL 161650Z AUTO 31006KT 280V350 9999 BKN047 16/05
                        Q1020 NOSIG=
201605161620 METAR COR EGLL 161620Z AUTO 32007KT 9999 BKN049 16/05 Q1020
                        NOSIG=
201605161550 METAR COR EGLL 161550Z AUTO 31007KT 260V360 9999 SCT048 17/05
                        Q1020 NOSIG=
201605161520 METAR COR EGLL 161520Z AUTO 30006KT 250V020 9999 BKN049 17/06
                        Q1020 NOSIG=
201605161450 METAR COR EGLL 161450Z AUTO 32006KT 240V020 9999 BKN047 17/06
                        Q1020 NOSIG=
201605161420 METAR COR EGLL 161420Z AUTO 27008KT 210V300 9999 SCT047 17/06
                        Q1020 NOSIG=
201605161350 METAR COR EGLL 161350Z AUTO 27007KT 220V310 9999 SCT042 17/07
                        Q1021 NOSIG=
201605161320 METAR COR EGLL 161320Z AUTO 27007KT 210V300 9999 SCT038 17/07
                        Q1021 NOSIG=
201605161250 METAR COR EGLL 161250Z AUTO 28007KT 230V320 9999 SCT037 17/07
                        Q1021 NOSIG=
201605161220 METAR COR EGLL 161220Z AUTO 24006KT 180V290 9999 SCT036 15/07
                        Q1021 NOSIG=
201605161150 METAR COR EGLL 161150Z AUTO 31004KT 240V010 9999 BKN035 16/07
                        Q1021 NOSIG=
201605161120 METAR COR EGLL 161120Z AUTO 31004KT 260V010 9999 BKN033 14/07
                        Q1021 NOSIG=
201605161050 METAR COR EGLL 161050Z AUTO 26006KT 200V290 9999 BKN033 14/06
                        Q1021 NOSIG=
201605161020 METAR COR EGLL 161020Z AUTO VRB04KT 9999 SCT031 15/07 Q1021
                        NOSIG=
201605160950 METAR COR EGLL 160950Z AUTO 33005KT 300V030 9999 FEW031 14/06
                        Q1022 NOSIG=
201605160920 METAR COR EGLL 160920Z AUTO 31004KT 210V010 9999 NCD 14/06
                        Q1022 NOSIG=
201605160850 METAR COR EGLL 160850Z AUTO 34005KT 280V040 9999 NCD 13/06
                        Q1022 NOSIG=
201605160820 METAR COR EGLL 160820Z AUTO 35004KT 310V060 9999 NCD 12/06
                        Q1022 NOSIG=
201605160750 METAR COR EGLL 160750Z AUTO 02004KT 330V100 9999 NCD 12/07
                        Q1022 NOSIG=
201605160720 METAR COR EGLL 160720Z AUTO 03005KT 340V070 9999 FEW013 11/07
                        Q1022 NOSIG=
201605160650 METAR COR EGLL 160650Z AUTO 02006KT 340V050 9999 FEW012 10/07
                        Q1021 NOSIG=
201605160620 METAR COR EGLL 160620Z AUTO 36007KT 9999 FEW011 10/07 Q1021
                        NOSIG=
201605160550 METAR COR EGLL 160550Z AUTO 35005KT 320V020 9999 NCD 09/07
                        Q1021 NOSIG=
201605160520 METAR COR EGLL 160520Z AUTO 36004KT 9999 FEW040 08/07 Q1021
                        NOSIG=
201605160450 METAR COR EGLL 160450Z VRB03KT CAVOK 08/07 Q1021 NOSIG=
201605160420 METAR COR EGLL 160420Z AUTO 35004KT 9999 NCD 08/07 Q1021
                        NOSIG=
201605160350 METAR COR EGLL 160350Z AUTO VRB02KT 9999 NCD 09/07 Q1021
                        NOSIG=
201605160320 METAR COR EGLL 160320Z AUTO 08002KT 9999 NCD 09/07 Q1021
                        NOSIG=
201605160250 METAR COR EGLL 160250Z AUTO 08002KT 9999 NCD 10/07 Q1021
                        NOSIG=
201605160220 METAR COR EGLL 160220Z AUTO 09002KT 9999 NCD 10/07 Q1021
                        NOSIG=
201605160150 METAR COR EGLL 160150Z AUTO 08003KT 9999 NCD 10/08 Q1021
                        NOSIG=
201605160120 METAR COR EGLL 160120Z AUTO 08004KT 9999 NCD 10/07 Q1021
                        NOSIG=
201605160050 METAR COR EGLL 160050Z AUTO 07005KT 9999 NCD 11/08 Q1021
                        NOSIG=
201605160020 METAR COR EGLL 160020Z AUTO 08006KT 9999 NCD 11/08 Q1021
                        NOSIG=
201605152350 METAR COR EGLL 152350Z AUTO 12005KT 9999 NCD 11/08 Q1021
                        NOSIG=
201605152320 METAR COR EGLL 152320Z AUTO 12006KT 100V160 9999 BKN046 12/07
                        Q1021 NOSIG=
201605152250 METAR COR EGLL 152250Z AUTO 10009KT 9999 BKN044 12/07 Q1021
                        NOSIG=
201605152220 METAR COR EGLL 152220Z AUTO 09004KT 9999 BKN046 13/05 Q1021
                        NOSIG=
201605152150 METAR COR EGLL 152150Z AUTO 09003KT 9999 BKN045 13/05 Q1021
                        NOSIG=
201605152120 METAR COR EGLL 152120Z AUTO 08003KT 9999 SCT046 14/04 Q1021
                        NOSIG=
201605152050 METAR COR EGLL 152050Z AUTO VRB02KT 9999 NCD 14/04 Q1021
                        NOSIG=
201605152020 METAR COR EGLL 152020Z AUTO VRB02KT 9999 NCD 14/04 Q1021
                        NOSIG=
201605151950 METAR COR EGLL 151950Z AUTO VRB03KT 9999 NCD 14/04 Q1021
                        NOSIG=
201605151920 METAR COR EGLL 151920Z AUTO VRB03KT 9999 NCD 15/04 Q1021
                        NOSIG=
201605151850 METAR COR EGLL 151850Z AUTO 33004KT 300V360 9999 NCD 15/04
                        Q1021 NOSIG=
201605151820 METAR COR EGLL 151820Z AUTO 35005KT 320V040 9999 NCD 15/03
                        Q1021 NOSIG=
201605151750 METAR COR EGLL 151750Z AUTO 33004KT 260V060 9999 NCD 15/03
                        Q1021 NOSIG=
201605151720 METAR COR EGLL 151720Z AUTO 33005KT 300V030 9999 NCD 16/04
                        Q1021 NOSIG=
201605151650 METAR COR EGLL 151650Z AUTO 36005KT 280V050 9999 NCD 16/04
                        Q1021 NOSIG=
201605151620 METAR COR EGLL 151620Z AUTO 36006KT 320V030 9999 NCD 15/04
                        Q1021 NOSIG=
201605151550 METAR COR EGLL 151550Z AUTO 34008KT 290V040 9999 NCD 15/03
                        Q1021 NOSIG=
201605151520 METAR COR EGLL 151520Z AUTO 30007KT 250V010 9999 NCD 16/03
                        Q1021 NOSIG=
201605151450 METAR COR EGLL 151450Z AUTO 32008KT 260V010 9999 NCD 16/02
                        Q1021 NOSIG=
201605151420 METAR COR EGLL 151420Z AUTO 33007KT 290V030 9999 NCD 16/02
                        Q1021 NOSIG=
201605151350 METAR COR EGLL 151350Z AUTO 30010KT 9999 NCD 16/02 Q1022
                        NOSIG=
201605151320 METAR COR EGLL 151320Z AUTO 30009KT 240V030 9999 NCD 16/01
                        Q1022 NOSIG=
201605151250 METAR COR EGLL 151250Z AUTO 28010KT 240V330 9999 NCD 16/02
                        Q1022 NOSIG=
201605151220 METAR COR EGLL 151220Z AUTO 30008KT 250V360 9999 NCD 16/03
                        Q1022 NOSIG=
201605151150 METAR COR EGLL 151150Z AUTO 30008KT 240V330 9999 FEW045 16/02
                        Q1022 NOSIG=
201605151120 METAR COR EGLL 151120Z AUTO 29009KT 250V350 9999 SCT044 15/05
                        Q1022 NOSIG=
201605151050 METAR COR EGLL 151050Z AUTO 31008KT 270V340 9999 SCT045 15/04
                        Q1022 NOSIG=
201605151020 METAR COR EGLL 151020Z AUTO 28010KT 9999 SCT044 14/04 Q1022
                        NOSIG=
201605150950 METAR COR EGLL 150950Z AUTO 27007KT 230V320 9999 FEW040 14/05
                        Q1022 NOSIG=
201605150920 METAR COR EGLL 150920Z AUTO 28005KT 220V320 9999 NCD 13/06
                        Q1023 NOSIG=
201605150850 METAR COR EGLL 150850Z AUTO 29006KT 250V330 9999 NCD 12/06
                        Q1023 NOSIG=
201605150820 METAR COR EGLL 150820Z AUTO 27005KT 220V300 9999 FEW035 11/06
                        Q1023 NOSIG=
201605150750 METAR COR EGLL 150750Z AUTO 28004KT 230V320 9999 SCT043 10/06
                        Q1023 NOSIG=
201605150720 METAR COR EGLL 150720Z AUTO 26006KT 230V290 9999 BKN043 09/06
                        Q1023 NOSIG=
201605150650 METAR COR EGLL 150650Z AUTO 28006KT 240V310 9999 NCD 08/05
                        Q1023 NOSIG=
201605150620 METAR COR EGLL 150620Z AUTO 25006KT 9999 NCD 08/05 Q1022
                        NOSIG=
201605150550 METAR COR EGLL 150550Z AUTO 22004KT 170V250 9999 NCD 07/05
                        Q1022 NOSIG=
201605150520 METAR COR EGLL 150520Z AUTO VRB02KT 9999 NCD 07/05 Q1022
                        NOSIG=
201605150450 METAR COR EGLL 150450Z AUTO VRB03KT 9999 NCD 06/04 Q1022
                        NOSIG=
201605150420 METAR COR EGLL 150420Z AUTO VRB03KT 9999 NCD 05/04 Q1022
                        NOSIG=
201605150350 METAR COR EGLL 150350Z AUTO VRB02KT 9999 NCD 06/04 Q1022
                        NOSIG=
201605150320 METAR COR EGLL 150320Z AUTO 22001KT 9999 NCD 06/04 Q1023
                        NOSIG=
201605150250 METAR COR EGLL 150250Z AUTO 18002KT 9999 NCD 05/03 Q1023
                        NOSIG=
201605150220 METAR COR EGLL 150220Z AUTO 14001KT 9999 NCD 07/03 Q1023
                        NOSIG=
201605150150 METAR COR EGLL 150150Z AUTO 17002KT 9999 NCD 07/03 Q1023
                        NOSIG=
201605150120 METAR COR EGLL 150120Z AUTO 18003KT 9999 NCD 07/03 Q1023
                        NOSIG=
201605150050 METAR COR EGLL 150050Z AUTO 18003KT 9999 NCD 08/03 Q1023
                        NOSIG=
201605150020 METAR COR EGLL 150020Z AUTO VRB02KT 7000 NCD 08/03 Q1023
                        NOSIG=
201605142350 METAR COR EGLL 142350Z AUTO 08003KT 9999 NCD 08/03 Q1023
                        NOSIG=
201605142320 METAR COR EGLL 142320Z AUTO 10003KT 9999 NCD 08/03 Q1023
                        NOSIG=
201605142250 METAR COR EGLL 142250Z AUTO 06003KT 9999 NCD 09/03 Q1023
                        NOSIG=
201605142220 METAR COR EGLL 142220Z AUTO 06004KT 9999 NCD 09/03 Q1023
                        NOSIG=
201605142150 METAR COR EGLL 142150Z AUTO 06005KT 9999 NCD 09/03 Q1022
                        NOSIG=
201605142120 METAR COR EGLL 142120Z AUTO 06005KT 9999 NCD 09/03 Q1022
                        NOSIG=
201605142050 METAR COR EGLL 142050Z AUTO 06004KT 9999 NCD 10/02 Q1022
                        NOSIG=
201605142020 METAR COR EGLL 142020Z AUTO VRB03KT 9999 NCD 11/01 Q1022
                        NOSIG=
201605141950 METAR COR EGLL 141950Z AUTO VRB03KT 9999 NCD 11/01 Q1022
                        NOSIG=
201605141920 METAR COR EGLL 141920Z AUTO 36005KT 9999 NCD 12/01 Q1021
                        NOSIG=
201605141850 METAR COR EGLL 141850Z AUTO 34005KT 290V020 9999 NCD 12/01
                        Q1021 NOSIG=
201605141820 METAR COR EGLL 141820Z AUTO 34005KT 300V020 9999 NCD 12/00
                        Q1021 NOSIG=
201605141750 METAR COR EGLL 141750Z AUTO 36007KT 320V040 9999 NCD 13/00
                        Q1021 NOSIG=
201605141720 METAR COR EGLL 141720Z AUTO 01006KT 320V050 9999 NCD 13/01
                        Q1021 NOSIG=
201605141650 METAR COR EGLL 141650Z AUTO 01006KT 320V070 9999 NCD 13/01
                        Q1021 NOSIG=
201605141620 METAR COR EGLL 141620Z AUTO 02006KT 310V060 9999 BKN048 13/01
                        Q1021 NOSIG=
201605141550 METAR COR EGLL 141550Z AUTO 36005KT 300V060 9999 BKN048 13/02
                        Q1021 NOSIG=
201605141520 METAR COR EGLL 141520Z AUTO 01007KT 340V060 9999 BKN049 14/01
                        Q1021 NOSIG=
201605141450 METAR COR EGLL 141450Z AUTO 33006KT 290V030 9999 SCT047 14/02
                        Q1021 NOSIG=
201605141420 METAR COR EGLL 141420Z AUTO 35007KT 300V040 9999 SCT046 12/01
                        Q1021 NOSIG=
201605141350 METAR COR EGLL 141350Z AUTO 34006KT 280V060 9999 BKN045 13/02
                        Q1021 NOSIG=
201605141320 METAR COR EGLL 141320Z AUTO 34007KT 310V020 9999 BKN045 13/01
                        Q1021 NOSIG=
201605141250 METAR COR EGLL 141250Z AUTO 36008KT 310V050 9999 BKN044 12/01
                        Q1020 NOSIG=
201605141220 METAR COR EGLL 141220Z AUTO 01007KT 320V070 9999 SCT043 12/01
                        Q1020 NOSIG=
201605141150 METAR COR EGLL 141150Z AUTO 05006KT 330V130 9999 BKN041 12/01
                        Q1020 NOSIG=
201605141120 METAR COR EGLL 141120Z AUTO 36007KT 320V050 9999 BKN042 12/01
                        Q1020 NOSIG=
201605141050 METAR COR EGLL 141050Z AUTO 04007KT 340V100 9999 BKN041 11/01
                        Q1020 NOSIG=
201605141020 METAR COR EGLL 141020Z AUTO 04008KT 320V090 9999 BKN040 10/01
                        Q1020 NOSIG=
201605140950 METAR COR EGLL 140950Z AUTO 34007KT 290V050 9999 BKN039 10/01
                        Q1020 NOSIG=
201605140920 METAR COR EGLL 140920Z AUTO 03007KT 340V080 9999 BKN039 10/00
                        Q1020 NOSIG=
201605140850 METAR COR EGLL 140850Z AUTO 02007KT 340V070 9999 BKN037 09/M00
                        Q1020 NOSIG=
201605140820 METAR COR EGLL 140820Z AUTO 02008KT 330V050 9999 OVC036 09/01
                        Q1019 NOSIG=
201605140750 METAR COR EGLL 140750Z AUTO 04007KT 350V080 9999 OVC032 08/00
                        Q1019 NOSIG=
201605140720 METAR COR EGLL 140720Z AUTO 03005KT 330V060 9999 OVC030 08/01
                        Q1019 NOSIG=
201605140650 METAR COR EGLL 140650Z AUTO 01008KT 340V050 9999 BKN032 08/02
                        Q1019 NOSIG=
201605140620 METAR COR EGLL 140620Z AUTO 01005KT 330V060 9999 BKN037 07/02
                        Q1019 NOSIG=
201605140550 METAR COR EGLL 140550Z AUTO 02007KT 350V060 9999 BKN038 07/01
                        Q1018 NOSIG=
201605140520 METAR COR EGLL 140520Z AUTO 02006KT 340V050 9999 BKN038 07/02
                        Q1018 NOSIG=
201605140450 METAR COR EGLL 140450Z AUTO 03005KT 350V060 9999 BKN038 08/02
                        Q1018 NOSIG=
201605140420 METAR COR EGLL 140420Z AUTO 01007KT 340V060 9999 FEW029 OVC038
                        08/02 Q1018 NOSIG=
201605140350 METAR COR EGLL 140350Z AUTO 01006KT 340V050 9999 OVC037 08/02
                        Q1018 NOSIG=
201605140320 METAR COR EGLL 140320Z AUTO 03005KT 340V070 9999 OVC037 08/03
                        Q1017 NOSIG=
201605140250 METAR COR EGLL 140250Z AUTO 04008KT 9999 OVC037 08/03 Q1017
                        NOSIG=
201605140220 METAR COR EGLL 140220Z AUTO 05005KT 010V080 9999 SCT026 BKN042
                        08/04 Q1017 NOSIG=
201605140150 METAR COR EGLL 140150Z AUTO 02007KT 350V060 9999 OVC032 08/04
                        Q1017 NOSIG=
201605140120 METAR COR EGLL 140120Z AUTO 03006KT 340V060 9999 OVC020 08/04
                        Q1017 NOSIG=
201605140050 METAR COR EGLL 140050Z AUTO 03008KT 340V060 9999 OVC019 09/04
                        Q1017 NOSIG=
201605140020 METAR COR EGLL 140020Z AUTO 04006KT 340V080 9999 OVC026 09/04
                        Q1017 NOSIG=
201605132350 METAR COR EGLL 132350Z AUTO 04008KT 9999 BKN029 09/03 Q1017
                        NOSIG=
201605132320 METAR COR EGLL 132320Z AUTO 04008KT 010V080 9999 BKN025 09/03
                        Q1017 NOSIG=
201605132250 METAR COR EGLL 132250Z AUTO 05009G19KT 010V070 9999 OVC024
                        09/04 Q1016 NOSIG=
201605132220 METAR COR EGLL 132220Z AUTO 04009G21KT 9999 OVC024 09/04
                        Q1016 NOSIG=
201605132150 METAR COR EGLL 132150Z AUTO 02008KT 340V050 9999 BKN022 09/04
                        Q1016 NOSIG=
201605132120 METAR COR EGLL 132120Z AUTO 04010KT 9999 OVC021 10/05 Q1016
                        NOSIG=
201605132050 METAR COR EGLL 132050Z AUTO 04009KT 9999 OVC021 10/05 Q1015
                        NOSIG=
201605132020 METAR COR EGLL 132020Z AUTO 04009KT 340V080 9999 OVC021 10/05
                        Q1015 NOSIG=
201605131950 METAR COR EGLL 131950Z AUTO 03010KT 9999 OVC020 10/05 Q1015
                        NOSIG=
201605131920 METAR COR EGLL 131920Z AUTO 02009KT 9999 OVC018 10/06 Q1014
                        NOSIG=
201605131850 METAR COR EGLL 131850Z AUTO 03008G18KT 340V070 9999 OVC020
                        11/06 Q1014 NOSIG=
201605131820 METAR COR EGLL 131820Z AUTO 03011KT 350V070 9999 OVC021 11/06
                        Q1014 NOSIG=
201605131750 METAR COR EGLL 131750Z AUTO 02010KT 340V060 9999 OVC020 12/07
                        Q1013 NOSIG=
201605131720 METAR COR EGLL 131720Z AUTO 03011KT 350V050 9999 OVC018 12/07
                        Q1013 NOSIG=
201605131650 METAR COR EGLL 131650Z AUTO 03010KT 350V060 9999 BKN019 13/08
                        Q1012 NOSIG=
201605131620 METAR COR EGLL 131620Z AUTO 03011KT 350V060 9999 BKN021 14/08
                        Q1012 NOSIG=
201605131550 METAR COR EGLL 131550Z AUTO 01011KT 330V040 9999 SCT025 15/08
                        Q1012 NOSIG=
201605131520 METAR COR EGLL 131520Z AUTO 02010KT 350V060 9999 FEW025 16/09
                        Q1011 NOSIG=
201605131450 METAR COR EGLL 131450Z AUTO 01011KT 340V050 9999 FEW026 16/09
                        Q1011 NOSIG=
201605131420 METAR COR EGLL 131420Z AUTO 02011KT 330V050 9999 NCD 16/09
                        Q1011 NOSIG=
201605131350 METAR EGLL 131350Z AUTO 02011KT 340V060 9999 FEW024 17/10
                        Q1011=
201605131320 METAR EGLL 131320Z AUTO 03010KT 340V070 9999 FEW023 16/10
                        Q1011=
201605131250 METAR EGLL 131250Z AUTO 01011KT 330V040 9999 SCT023 17/10
                        Q1011=
201605131220 METAR EGLL 131220Z AUTO 05010KT 360V080 9999 SCT022 17/10
                        Q1010=
201605131150 METAR EGLL 131150Z AUTO 04011KT 360V070 9999 FEW022 16/10
                        Q1010=
201605131120 METAR COR EGLL 131120Z AUTO 03011KT 350V050 9999 FEW022 16/10
                        Q1010 NOSIG=
201605131050 METAR COR EGLL 131050Z AUTO 02010KT 350V060 9999 FEW021 16/10
                        Q1010 NOSIG=
201605131020 METAR COR EGLL 131020Z AUTO 36010KT 9999 BKN019 15/10 Q1010
                        NOSIG=
201605130950 METAR EGLL 130950Z AUTO 01010KT 340V060 9999 BKN017 15/10
                        Q1010=
201605130920 METAR COR EGLL 130920Z AUTO 01011KT 330V040 9999 SCT014 14/10
                        Q1009 NOSIG=
201605130850 METAR COR EGLL 130850Z AUTO 02010KT 340V050 9999 BKN012 13/09
                        Q1009 BECMD SCT012=
201605130820 METAR COR EGLL 130820Z AUTO 02008KT 350V050 9999 OVC012 13/09
                        Q1009 BECMG SCT012=
201605130750 METAR COR EGLL 130750Z AUTO 03009KT 340V060 9999 OVC011 12/09
                        Q1009 BECMG SCT011=
201605130720 METAR COR EGLL 130720Z AUTO 03009KT 350V060 9999 OVC010 12/09
                        Q1008 BECMG SCT010=
201605130650 METAR COR EGLL 130650Z AUTO 03008KT 350V060 9999 OVC010 12/09
                        Q1008 NOSIG=
201605130620 METAR COR EGLL 130620Z AUTO 03008KT 350V060 9999 OVC010 11/09
                        Q1008 NOSIG=
201605130550 METAR COR EGLL 130550Z AUTO 03009KT 330V060 9000 OVC010 11/09
                        Q1008 NOSIG=
201605130520 METAR COR EGLL 130520Z AUTO 02008KT 350V050 8000 OVC009 11/09
                        Q1007 BECMG BKN010=
201605130450 METAR COR EGLL 130450Z AUTO 03010KT 360V070 7000 OVC009 11/09
                        Q1007 NOSIG=
201605130420 METAR COR EGLL 130420Z AUTO 04007KT 360V060 8000 OVC009 11/09
                        Q1007 NOSIG=
201605130350 METAR COR EGLL 130350Z AUTO 02007KT 340V050 8000 OVC009 11/09
                        Q1006 NOSIG=
201605130320 METAR COR EGLL 130320Z AUTO 03007KT 340V060 8000 OVC009 11/09
                        Q1006 NOSIG=
201605130250 METAR COR EGLL 130250Z AUTO 02009KT 330V060 9999 OVC008 11/09
                        Q1006 NOSIG=
201605130220 METAR COR EGLL 130220Z AUTO 02009KT 350V050 9999 OVC007 11/10
                        Q1006 NOSIG=
201605130150 METAR COR EGLL 130150Z AUTO 01007KT 330V050 9999 OVC008 12/10
                        Q1006 NOSIG=
201605130120 METAR COR EGLL 130120Z AUTO 02005KT 330V090 9999 OVC008 12/10
                        Q1006 NOSIG=
201605130050 METAR COR EGLL 130050Z AUTO 02007KT 330V060 9999 OVC009 12/10
                        Q1006 NOSIG=
201605130020 METAR COR EGLL 130020Z AUTO 02009KT 340V050 9999 BKN009 12/10
                        Q1006 NOSIG=
201605122350 METAR COR EGLL 122350Z AUTO 01007KT 350V070 9000 BKN010 12/10
                        Q1006 NOSIG=
201605122320 METAR COR EGLL 122320Z AUTO 02006KT 330V050 9999 BKN010 12/10
                        Q1006 NOSIG=
201605122250 METAR COR EGLL 122250Z AUTO 03006KT 350V060 9999 SCT012 12/10
                        Q1005 BECMG BKN012=
201605122220 METAR COR EGLL 122220Z AUTO 02005KT 340V070 9000 FEW013 13/10
                        Q1005 BECMG BKN010=
201605122150 METAR COR EGLL 122150Z AUTO 02007KT 340V050 9999 NCD 13/10
                        Q1005 NOSIG=
201605122120 METAR COR EGLL 122120Z AUTO 01007KT 350V050 9999 NCD 14/10
                        Q1005 NOSIG=
201605122050 METAR COR EGLL 122050Z AUTO 01008KT 340V050 9999 NCD 15/11
                        Q1004 NOSIG=
201605122020 METAR COR EGLL 122020Z AUTO 02008KT 340V060 9999 NCD 17/12
                        Q1004 NOSIG=
201605121950 METAR COR EGLL 121950Z AUTO 02008KT 340V060 9999 NCD 18/12
                        Q1003 NOSIG=
201605121920 METAR COR EGLL 121920Z AUTO 02008KT 340V060 9999 NCD 19/13
                        Q1003 NOSIG=
201605121850 METAR COR EGLL 121850Z AUTO 02008KT 340V060 9999 NCD 20/13
                        Q1002 NOSIG=
201605121820 METAR COR EGLL 121820Z AUTO 04009KT 350V070 9999 NCD 21/13
                        Q1002 NOSIG=
201605121750 METAR COR EGLL 121750Z AUTO 06012KT 030V090 9999 NCD 22/08
                        Q1002 NOSIG=
201605121720 METAR COR EGLL 121720Z AUTO 06014KT 9999 NCD 22/08 Q1002
                        NOSIG=
201605121650 METAR COR EGLL 121650Z AUTO 06011KT 9999 NCD 23/08 Q1002
                        NOSIG=
201605121620 METAR COR EGLL 121620Z AUTO 07013KT 9999 NCD 23/08 Q1001
                        NOSIG=
201605121550 METAR COR EGLL 121550Z AUTO 06013KT 9999 NCD 23/08 Q1001
                        NOSIG=
201605121520 METAR COR EGLL 121520Z AUTO 06010KT 9999 NCD 23/09 Q1001
                        NOSIG=
201605121450 METAR COR EGLL 121450Z AUTO 06010KT 020V080 9999 NCD 23/08
                        Q1001 NOSIG=
201605121420 METAR COR EGLL 121420Z AUTO 07011KT 040V110 9999 NCD 23/10
                        Q1001 NOSIG=
201605121350 METAR COR EGLL 121350Z AUTO 06009KT 9999 NCD 23/11 Q1001
                        NOSIG=
201605121320 METAR COR EGLL 121320Z AUTO 05010KT 9999 SCT044 22/12 Q1002
                        NOSIG=
201605121250 METAR COR EGLL 121250Z AUTO 06011KT 9999 SCT038 22/12 Q1002
                        NOSIG=
201605121220 METAR COR EGLL 121220Z AUTO 05008KT 9999 BKN032 22/14 Q1002
                        NOSIG=
201605121150 METAR COR EGLL 121150Z AUTO 05009KT 360V080 9999 SCT031 21/14
                        Q1002 NOSIG=
201605121120 METAR COR EGLL 121120Z AUTO 06009KT 9999 SCT031 21/13 Q1002
                        NOSIG=
201605121050 METAR COR EGLL 121050Z AUTO 06010KT 010V090 9999 FEW031 21/13
                        Q1002 NOSIG=
201605121020 METAR COR EGLL 121020Z AUTO 03007KT 330V070 9999 NCD 19/13
                        Q1002 NOSIG=
201605120950 METAR COR EGLL 120950Z AUTO 03007KT 350V070 9999 NCD 17/12
                        Q1002 NOSIG=
201605120920 METAR COR EGLL 120920Z AUTO 03006KT 340V060 9999 NCD 17/12
                        Q1002 NOSIG=
201605120850 METAR COR EGLL 120850Z AUTO 04007KT 350V090 9999 NCD 16/12
                        Q1002 NOSIG=
201605120820 METAR COR EGLL 120820Z AUTO 03007KT 320V100 9999 NCD 16/12
                        Q1002 NOSIG=
201605120750 METAR COR EGLL 120750Z AUTO 03006KT 350V070 9999 NCD 15/11
                        Q1002 NOSIG=
201605120720 METAR COR EGLL 120720Z AUTO 03007KT 350V060 8000 NCD 14/11
                        Q1002 NOSIG=
201605120650 METAR COR EGLL 120650Z AUTO 01005KT 330V050 6000 NCD 13/11
                        Q1002 NOSIG=
201605120620 METAR COR EGLL 120620Z AUTO 36005KT 310V050 4500 HZ FEW007
                        12/11 Q1002 BECMG 5000=
201605120550 METAR COR EGLL 120550Z AUTO 01005KT 330V050 3800 HZ BKN006
                        12/11 Q1002 TEMPO SCT008=
201605120520 METAR COR EGLL 120520Z AUTO 01004KT 320V050 3200 HZ BKN007
                        12/11 Q1002 TEMPO SCT008=
201605120450 METAR COR EGLL 120450Z AUTO 01005KT 2500 HZ BKN006 12/11
                        Q1002 TEMPO SCT006=
201605120420 METAR COR EGLL 120420Z AUTO 36007KT 2500 HZ BKN006 12/11
                        Q1001 TEMPO SCT006=
201605120350 METAR EGLL 120350Z AUTO 02006KT 340V050 2300 HZ BKN005 13/11
                        Q1001=
201605120320 METAR COR EGLL 120320Z AUTO 01007KT 2100 HZ SCT006 14/13
                        Q1001 NOSIG=
201605120250 METAR COR EGLL 120250Z AUTO 36006KT 330V040 2400 BR FEW006
                        14/13 Q1002 NOSIG=
201605120220 METAR COR EGLL 120220Z AUTO 36006KT 2600 BR NCD 14/14 Q1002
                        NOSIG=
201605120150 METAR COR EGLL 120150Z AUTO 33006KT 2300 BR NCD 14/14 Q1002
                        RERA NOSIG=
201605120120 METAR COR EGLL 120120Z AUTO 32007KT 2400 RA FEW013/// BKN047///
                        //////CB 15/14 Q1002 RERA BECMG BR=
201605120050 METAR COR EGLL 120050Z AUTO VRB02KT 2600 BR SCT009/// BKN038///
                        //////CB 14/14 Q1003 TEMPO SHRA BKN009=
201605120020 METAR COR EGLL 120020Z AUTO 29003KT 2200 HZ //////CB 14/13
                        Q1003 NOSIG=
201605112350 METAR COR EGLL 112350Z AUTO 35001KT 2800 HZ FEW008 15/14
                        Q1003 NOSIG=
201605112320 METAR COR EGLL 112320Z AUTO VRB03KT 3300 HZ FEW010 15/14
                        Q1003 NOSIG=
201605112250 METAR COR EGLL 112250Z VRB02KT 4000 HZ NSC 15/14 Q1003 TEMPO
                        6000 NSW=
201605112220 METAR COR EGLL 112220Z VRB02KT 6000 NSC 15/14 Q1003 NOSIG=
201605112150 METAR COR EGLL 112150Z 06004KT 6000 NSC 16/14 Q1003 NOSIG=
201605112120 METAR COR EGLL 112120Z 07005KT 7000 SCT018 16/14 Q1003 NOSIG=
201605112050 METAR EGLL 112050Z AUTO 07006KT 7000 BKN010 16/14 Q1003=
201605112020 METAR COR EGLL 112020Z AUTO 07005KT 6000 SCT012 BKN033 16/15
                        Q1003 NOSIG=
201605111950 METAR COR EGLL 111950Z AUTO 09005KT 7000 SCT016 16/15 Q1003
                        NOSIG=
201605111920 METAR COR EGLL 111920Z AUTO 09007KT 8000 FEW035 17/15 Q1003
                        NOSIG=
201605111850 METAR COR EGLL 111850Z AUTO 09009KT 9999 SCT012/// //////CB
                        18/15 Q1002 NOSIG=
201605111820 METAR COR EGLL 111820Z AUTO 05006KT 360V080 9999 SCT014 19/16
                        Q1002 TEMPO BKN012=
201605111750 METAR COR EGLL 111750Z AUTO 02005KT 350V050 9999 FEW017///
                        //////CB 18/15 Q1002 NOSIG=
201605111720 METAR COR EGLL 111720Z AUTO 04005KT 010V070 9999 FEW018 18/16
                        Q1002 NOSIG=
201605111650 METAR COR EGLL 111650Z AUTO 06004KT 020V080 9999 FEW015///
                        //////CB 18/15 Q1002 NOSIG=
201605111620 METAR COR EGLL 111620Z AUTO 09007KT 9999 -RA SCT013/// BKN026///
                        //////CB 18/15 Q1002 NOSIG=
201605111550 METAR COR EGLL 111550Z AUTO 09004KT 040V130 9999 FEW015///
                        //////CB 18/15 Q1002 TEMPO SHRA=
201605111520 METAR COR EGLL 111520Z AUTO 07004KT 040V100 9999 FEW011///
                        //////CB 18/15 Q1002 TEMPO SHRA=
201605111450 METAR COR EGLL 111450Z AUTO VRB03KT 9999 FEW010/// //////TCU
                        18/16 Q1002 NOSIG=
201605111420 METAR COR EGLL 111420Z AUTO VRB01KT 9999 -RA SCT026/// BKN043///
                        //////TCU 17/15 Q1003 NOSIG=
201605111350 METAR COR EGLL 111350Z AUTO 13005KT 9999 -RA FEW010/// BKN030///
                        //////CB 17/15 Q1003 TEMPO SHRA BKN012=
201605111320 METAR COR EGLL 111320Z AUTO 15005KT 9000 -RA FEW010/// BKN028///
                        BKN045/// //////CB 17/15 Q1003 TEMPO
                        SHRA BKN012=
201605111250 METAR COR EGLL 111250Z AUTO 15004KT 7000 -RA FEW009/// SCT024///
                        //////CB 16/15 Q1003 TEMPO SHRA BKN012=
201605111220 METAR COR EGLL 111220Z AUTO 15006KT 8000 -RA FEW010/// SCT038///
                        //////CB 17/15 Q1003 TEMPO SHRA BKN013=
201605111150 METAR COR EGLL 111150Z AUTO 10008KT 9000 FEW013/// //////CB
                        17/14 Q1003 TEMPO SHRA BKN014=
201605111120 METAR COR EGLL 111120Z 10007KT 8000 SCT013 18/15 Q1003 TEMPO
                        +SHRA BKN012=
201605111050 METAR COR EGLL 111050Z 07007KT 6000 SCT011 BKN020 17/15 Q1003
                        TEMPO SHRA=
201605111020 METAR COR EGLL 111020Z 09007KT 4000 HZ FEW010 BKN020 16/15
                        Q1003 TEMPO 5000 SHRA BKN014=
201605110950 METAR COR EGLL 110950Z 09005KT 8000 2900N HZ SCT007 BKN010
                        16/15 Q1003 TEMPO SHRA=
201605110920 METAR COR EGLL 110920Z 10007KT 2400 BR SCT006 BKN008 16/15
                        Q1003 TEMPO 5000 SCT008 BKN012=
201605110850 METAR COR EGLL 110850Z 10007KT 2200 BR SCT005 BKN006 15/15
                        Q1003 BECMG 6000 SCT008 BKN013=
201605110820 METAR COR EGLL 110820Z 09006KT 2100 BR BKN006 15/15 Q1003
                        BECMG 5000 SCT007 BKN012=
201605110750 METAR COR EGLL 110750Z 09007KT 1800 BR FEW004 BKN005 15/15
                        Q1003 BECMG 5000=
201605110720 METAR COR EGLL 110720Z 11006KT 1200 R09L/P1500 R09R/P1500
                        -RADZ BR FEW003 SCT004 BKN006TCU
                        15/14 Q1003 REDZ BECMG 3800=
201605110650 METAR COR EGLL 110650Z 12006KT 1200 -DZ BR FEW002 BKN003CB
                        15/14 Q1003 REDZ BECMG 3500 BKN005=
201605110620 METAR COR EGLL 110620Z 10005KT 060V130 1600 DZ SCT002 BKN003CB
                        15/14 Q1003 RERA NOSIG=
201605110550 METAR COR EGLL 110550Z 08005KT 2400 RA SCT002CB BKN005 15/14
                        Q1003 REDZ TEMPO BKN003=
201605110520 METAR COR EGLL 110520Z 07005KT 2300 RA BKN003CB 15/14 Q1003
                        RERA TEMPO 1200 +SHRA BKN005=
201605110450 METAR COR EGLL 110450Z VRB03KT 1800 RA BKN002CB 15/14 Q1003
                        TEMPO 1200 -RADZ BKN005=
201605110420 METAR COR EGLL 110420Z 05002KT 1800 RA BKN002 BKN005CB 15/14
                        Q1003 RERA TEMPO 1200 -RADZ BKN005=
201605110350 METAR COR EGLL 110350Z 04003KT 2000 +RA SCT002 BKN015CB OVC030
                        15/14 Q1003 TEMPO 1300 -RADZ BKN002=
201605110320 METAR COR EGLL 110320Z 05003KT 2000 +RA SCT002 BKN017CB 15/14
                        Q1003 TEMPO 1300 -RADZ BKN002=
201605110250 METAR EGLL 110250Z AUTO 04003KT 1500 +RA BKN002/// OVC011///
                        //////CB 15/14 Q1004=
201605110220 METAR COR EGLL 110220Z AUTO VRB03KT 1300 R09L/P1500 RA BKN003///
                        BKN010/// //////CB 15/14 Q1004 TEMPO
                        2000 -RA BKN005=
201605110150 METAR EGLL 110150Z AUTO 04004KT 1300 R09L/P1500 RA BKN002///
                        BKN018/// //////CB 15/14 Q1004=
201605110120 METAR COR EGLL 110120Z AUTO 04004KT 1200 R09L/P1500 RA BKN002///
                        //////CB 15/14 Q1004 TEMPO 2000 -RA
                        BKN005=
201605110050 METAR COR EGLL 110050Z 05003KT 1600 RA BKN004CB OVC027 15/14
                        Q1004 TEMPO 1400 +SHRA BKN005=
201605110020 METAR COR EGLL 110020Z 06004KT 2000 RA BKN003CB 15/14 Q1005
                        REDZ TEMPO BKN005=
201605102350 METAR COR EGLL 102350Z AUTO 05004KT 1800 RADZ BKN007/// //////CB
                        15/14 Q1005 TEMPO SCT007 BKN020=
201605102320 METAR COR EGLL 102320Z AUTO 06004KT 2300 -RADZ SCT006///
                        //////CB 15/14 Q1005 REDZ TEMPO SHRA
                        BKN008=
201605102250 METAR COR EGLL 102250Z AUTO 07004KT 2200 HZ SCT006 16/15
                        Q1005 TEMPO SHRA BKN008=
201605102220 METAR COR EGLL 102220Z AUTO 08005KT 2300 HZ FEW006 OVC043
                        16/15 Q1005 TEMPO SHRA BKN008=
201605102150 METAR COR EGLL 102150Z AUTO 07006KT 3700 HZ FEW007 OVC037
                        16/15 Q1005 TEMPO SHRA BKN012=
201605102120 METAR COR EGLL 102120Z AUTO 09004KT 2700 HZ FEW006/// OVC039///
                        //////TCU 16/15 Q1005 TEMPO SHRA
                        BKN012=
201605102050 METAR COR EGLL 102050Z AUTO 08004KT 3200 HZ OVC034 16/15
                        Q1005 TEMPO 5000 BKN012=
201605102020 METAR COR EGLL 102020Z AUTO 09007KT 3400 HZ FEW010 BKN039
                        16/15 Q1005 TEMPO 5000 BKN012=
201605101950 METAR COR EGLL 101950Z 09009KT 4300 -SHRA FEW026 SCT040 16/15
                        Q1005 TEMPO SHRA BKN012=
201605101920 METAR COR EGLL 101920Z 08007KT 5000 HZ FEW009 SCT032 16/15
                        Q1005 TEMPO 4000 SHRA BKN012=
201605101850 METAR COR EGLL 101850Z 10006KT 4500 -RA FEW007 SCT016 BKN032
                        16/15 Q1005 REDZ TEMPO SHRA BKN012=
201605101820 METAR COR EGLL 101820Z AUTO 08008KT 3700 -RA SCT006/// BKN049///
                        //////CB 16/15 Q1005 TEMPO SHRA BKN012=
201605101750 METAR COR EGLL 101750Z 09007KT 4500 -RA FEW005 BKN016 BKN028
                        16/15 Q1005 TEMPO SHRA=
201605101720 METAR COR EGLL 101720Z 10008KT 5000 -RA SCT008 BKN015 17/15
                        Q1005 TEMPO SHRA=
201605101650 METAR COR EGLL 101650Z 09009KT 6000 VCSH SCT008 BKN018 17/15
                        Q1005 NOSIG=
201605101620 METAR COR EGLL 101620Z 09009KT 7000 VCSH SCT007 SCT011 BKN020
                        16/15 Q1005 TEMPO BKN012=
201605101550 METAR COR EGLL 101550Z 09010KT 6000 SCT007 SCT012 BKN024
                        16/15 Q1005 TEMPO BKN012=
201605101520 METAR COR EGLL 101520Z AUTO 09010KT 5000 -RA SCT007/// BKN017///
                        OVC034/// //////CB 17/15 Q1005 NOSIG=
201605101450 METAR COR EGLL 101450Z 09008KT 6000 FEW005 SCT016 BKN024
                        16/15 Q1005 NOSIG=
201605101420 METAR COR EGLL 101420Z 09008KT 4000 -RA SCT005 BKN007 BKN017
                        16/15 Q1005 TEMPO 9999 NSW SCT007=
201605101350 METAR COR EGLL 101350Z 08008KT 3800 -RA BKN005 BKN011 16/15
                        Q1005 TEMPO 9999 NSW SCT005=
201605101320 METAR COR EGLL 101320Z 10009KT 5000 -RADZ SCT008 BKN012 BKN030
                        16/15 Q1005 NOSIG=
201605101250 METAR COR EGLL 101250Z AUTO 09008KT 9999 SCT004 BKN016 16/16
                        Q1005 REDZ TEMPO 4500 RADZ=
201605101220 METAR COR EGLL 101220Z AUTO 10007KT 3400 DZ BKN007 BKN016
                        16/15 Q1006 BECMG 5000 -RADZ SCT008=
201605101150 METAR COR EGLL 101150Z AUTO 10009KT 4400 -DZ BKN006 OVC019
                        16/15 Q1006 NOSIG=
201605101120 METAR COR EGLL 101120Z AUTO 08010KT 8000 -RA BKN006 OVC049
                        17/15 Q1006 NOSIG=
201605101050 METAR COR EGLL 101050Z AUTO 09008KT 6000 -RA BKN006 OVC026
                        16/15 Q1006 NOSIG=
201605101020 METAR COR EGLL 101020Z AUTO 08007KT 5000 -RADZ BKN005 16/15
                        Q1006 RERA REDZ TEMPO 4000 RADZ=
201605100950 METAR COR EGLL 100950Z AUTO 09005KT 5000 -RADZ BKN005 16/15
                        Q1006 TEMPO 4000 RADZ=
201605100920 METAR COR EGLL 100920Z AUTO 08006KT 3900 -RADZ BKN005 16/15
                        Q1006 TEMPO 2500 RADZ=
201605100850 METAR COR EGLL 100850Z AUTO 07006KT 3500 -DZ OVC005 15/15
                        Q1006 RERA REDZ TEMPO 2500 RADZ=
201605100820 METAR COR EGLL 100820Z AUTO 05006KT 2400 RADZ OVC005 15/14
                        Q1006 NOSIG=
201605100750 METAR COR EGLL 100750Z AUTO 06006KT 5000 -RADZ OVC005 16/14
                        Q1006 NOSIG=
201605100720 METAR COR EGLL 100720Z AUTO 06006KT 030V100 4200 -DZ OVC005
                        15/14 Q1006 NOSIG=
201605100650 METAR COR EGLL 100650Z AUTO 06007KT 3300 -RADZ BKN005 15/14
                        Q1006 NOSIG=
201605100620 METAR COR EGLL 100620Z AUTO 06006KT 3300 -RA BKN006 BKN020
                        OVC044 15/14 Q1006 RERA REDZ TEMPO
                        RADZ=
201605100550 METAR COR EGLL 100550Z AUTO 06006KT 4400 -RADZ BKN009 OVC046
                        15/14 Q1006 TEMPO RADZ=
201605100520 METAR COR EGLL 100520Z AUTO 06007KT 6000 -RA BKN009 15/14
                        Q1006 TEMPO 4500 RA=
201605100450 METAR COR EGLL 100450Z AUTO 07006KT 6000 -RA BKN012 BKN025
                        16/14 Q1006 TEMPO RA=
201605100420 METAR COR EGLL 100420Z AUTO 07005KT 9999 FEW012 BKN023 OVC032
                        16/14 Q1006 TEMPO -RA BKN012=
201605100350 METAR COR EGLL 100350Z AUTO 04003KT 9999 BKN019 BKN037 16/14
                        Q1007 TEMPO -RA BKN014=
201605100320 METAR COR EGLL 100320Z AUTO 07003KT 6000 -RA BKN029 OVC041
                        16/14 Q1007 NOSIG=
201605100250 METAR COR EGLL 100250Z AUTO 07004KT 7000 -RA FEW031 OVC044
                        16/14 Q1007 NOSIG=
201605100220 METAR COR EGLL 100220Z AUTO 07004KT 7000 -RA SCT033 BKN041
                        16/14 Q1007 NOSIG=
201605100150 METAR COR EGLL 100150Z AUTO 07003KT 7000 -RA SCT027 BKN040
                        16/14 Q1008 NOSIG=
201605100120 METAR COR EGLL 100120Z AUTO 07002KT 7000 -RA BKN032 16/14
                        Q1008 NOSIG=
201605100050 METAR COR EGLL 100050Z AUTO 07003KT 7000 -RA FEW033 16/14
                        Q1008 NOSIG=
201605100020 METAR COR EGLL 100020Z AUTO 06005KT 7000 BKN029 16/14 Q1008
                        NOSIG=
201605092350 METAR COR EGLL 092350Z AUTO 06005KT 7000 BKN032 16/14 Q1008
                        NOSIG=
201605092320 METAR COR EGLL 092320Z AUTO 08004KT 6000 -RA SCT034 BKN044
                        16/14 Q1008 NOSIG=
201605092250 METAR COR EGLL 092250Z AUTO 08004KT 7000 -RA BKN037 16/14
                        Q1009 NOSIG=
201605092220 METAR COR EGLL 092220Z AUTO 07006KT 7000 -RA SCT035 17/15
                        Q1009 NOSIG=
201605092150 METAR COR EGLL 092150Z AUTO 08005KT 9999 -RA BKN036 17/15
                        Q1009 NOSIG=
201605092120 METAR COR EGLL 092120Z AUTO 08006KT 9000 -RA BKN039 17/14
                        Q1009 NOSIG=
201605092050 METAR COR EGLL 092050Z AUTO 07004KT 9999 -RA SCT039 17/14
                        Q1009 NOSIG=
201605092020 METAR COR EGLL 092020Z AUTO 07005KT 9999 -RA FEW039 17/14
                        Q1009 NOSIG=
201605091950 METAR COR EGLL 091950Z AUTO 07006KT 9000 BKN039/// //////TCU
                        17/15 Q1008 NOSIG=
201605091920 METAR COR EGLL 091920Z AUTO 05005KT 9000 -RA BKN038/// //////CB
                        17/15 Q1008 TEMPO RA=
201605091850 METAR COR EGLL 091850Z AUTO 06007KT 9000 -RA SCT032/// OVC040///
                        //////CB 17/15 Q1008 TEMPO RA=
201605091820 METAR COR EGLL 091820Z AUTO 12007KT 7000 -RA SCT028/// SCT042///
                        //////CB 17/15 Q1008 TEMPO RA=
201605091750 METAR COR EGLL 091750Z AUTO 09008KT 9999 -RA BKN040/// //////CB
                        18/14 Q1008 TEMPO 4800 +SHRA=
201605091720 METAR COR EGLL 091720Z AUTO 08005KT 9999 -RA FEW025/// BKN039///
                        //////CB 18/14 Q1008 NOSIG=
201605091650 METAR COR EGLL 091650Z AUTO 08009KT 9999 -RA BKN044/// //////CB
                        18/14 Q1008 TEMPO SHRA=
201605091620 METAR COR EGLL 091620Z AUTO 10016KT 9999 -RA FEW039/// BKN049///
                        //////CB 20/12 Q1008 TEMPO SHRA=
201605091550 METAR COR EGLL 091550Z AUTO 10012KT 9999 -RA //////CB 21/11
                        Q1007 TEMPO SHRA=
201605091520 METAR COR EGLL 091520Z AUTO 10011KT 9999 NCD 21/10 Q1007
                        TEMPO SHRA=
201605091450 METAR COR EGLL 091450Z AUTO 10012KT 9999 NCD 22/10 Q1007
                        NOSIG=
201605091420 METAR COR EGLL 091420Z AUTO 10013KT 9999 FEW035 23/10 Q1007
                        NOSIG=
201605091350 METAR COR EGLL 091350Z AUTO 08014KT 9999 NCD 23/10 Q1007
                        NOSIG=
201605091320 METAR COR EGLL 091320Z AUTO 10011KT 9999 NCD 23/10 Q1008
                        NOSIG=
201605091250 METAR COR EGLL 091250Z AUTO 11012KT 9999 NCD 24/10 Q1008
                        NOSIG=
201605091220 METAR COR EGLL 091220Z AUTO 10011KT 9999 NCD 23/10 Q1008
                        NOSIG=
201605091150 METAR COR EGLL 091150Z AUTO 09011KT 060V120 9999 NCD 24/11
                        Q1008 NOSIG=
201605091120 METAR COR EGLL 091120Z AUTO 09011KT 9999 NCD 23/11 Q1008
                        NOSIG=
201605091050 METAR COR EGLL 091050Z AUTO 10011KT 060V130 9999 NCD 23/12
                        Q1008 NOSIG=
201605091020 METAR COR EGLL 091020Z AUTO 11010KT 060V130 9999 NCD 22/12
                        Q1008 NOSIG=
201605090950 METAR COR EGLL 090950Z AUTO 09011KT 9999 NCD 21/12 Q1008
                        NOSIG=
201605090920 METAR COR EGLL 090920Z AUTO 10012KT 9999 NCD 20/11 Q1009
                        NOSIG=
201605090850 METAR COR EGLL 090850Z AUTO 10012KT 9999 NCD 20/11 Q1009
                        NOSIG=
201605090820 METAR COR EGLL 090820Z AUTO 10010KT 9999 NCD 19/11 Q1009
                        NOSIG=
201605090750 METAR COR EGLL 090750Z AUTO 08007KT 9999 NCD 18/11 Q1008
                        NOSIG=
201605090720 METAR COR EGLL 090720Z AUTO 07006KT 9999 FEW029 17/11 Q1008
                        NOSIG=
201605090650 METAR COR EGLL 090650Z AUTO 06007KT 9999 NCD 16/10 Q1008
                        NOSIG=
201605090620 METAR COR EGLL 090620Z AUTO 07006KT 9999 NCD 16/10 Q1008
                        NOSIG=
201605090550 METAR COR EGLL 090550Z AUTO 06006KT 9999 NCD 17/10 Q1008
                        NOSIG=
201605090520 METAR COR EGLL 090520Z AUTO 05004KT 9999 NCD 16/09 Q1008
                        NOSIG=
201605090450 METAR COR EGLL 090450Z AUTO 07004KT 9999 NCD 15/09 Q1008
                        NOSIG=
201605090420 METAR COR EGLL 090420Z AUTO 07005KT 9999 NCD 15/09 Q1008
                        NOSIG=
201605090350 METAR COR EGLL 090350Z AUTO 09007KT 9999 NCD 15/09 Q1007
                        NOSIG=
201605090320 METAR COR EGLL 090320Z AUTO 08007KT 9999 NCD 16/08 Q1007
                        NOSIG=
201605090250 METAR COR EGLL 090250Z AUTO 08006KT 9999 NCD 16/08 Q1007
                        NOSIG=
201605090220 METAR COR EGLL 090220Z AUTO 08007KT 9999 NCD 16/08 Q1007
                        NOSIG=
201605090150 METAR COR EGLL 090150Z AUTO 07007KT 9999 NCD 17/08 Q1007
                        NOSIG=
201605090120 METAR COR EGLL 090120Z AUTO 07007KT 9999 NCD 17/08 Q1007
                        NOSIG=
201605090050 METAR COR EGLL 090050Z AUTO 07007KT 9999 NCD 17/08 Q1007
                        NOSIG=
201605090020 METAR COR EGLL 090020Z AUTO 08007KT 9999 NCD 18/08 Q1007
                        NOSIG=
201605082350 METAR COR EGLL 082350Z AUTO 06007KT 9999 NCD 18/09 Q1007
                        NOSIG=
201605082320 METAR COR EGLL 082320Z AUTO 07005KT 9999 NCD 18/09 Q1007
                        NOSIG=
201605082250 METAR COR EGLL 082250Z AUTO 08008KT 9999 NCD 18/09 Q1007
                        NOSIG=
201605082220 METAR COR EGLL 082220Z AUTO 08007KT 9999 NCD 19/09 Q1007
                        NOSIG=
201605082150 METAR COR EGLL 082150Z AUTO 08007KT 9999 NCD 19/09 Q1007
                        NOSIG=
201605082120 METAR COR EGLL 082120Z AUTO 08007KT 9999 NCD 20/09 Q1007
                        NOSIG=
201605082050 METAR COR EGLL 082050Z AUTO 08008KT 9999 NCD 20/09 Q1007
                        NOSIG=
201605082020 METAR COR EGLL 082020Z AUTO 08007KT 9999 NCD 21/09 Q1007
                        NOSIG=
201605081950 METAR COR EGLL 081950Z AUTO 09008KT 9999 NCD 20/10 Q1007
                        NOSIG=
201605081920 METAR COR EGLL 081920Z AUTO 09010KT 060V120 9999 NCD 21/09
                        Q1007 NOSIG=
201605081850 METAR COR EGLL 081850Z AUTO 09010KT 9999 NCD 22/09 Q1007
                        NOSIG=
201605081820 METAR COR EGLL 081820Z AUTO 09011KT 9999 NCD 23/09 Q1007
                        NOSIG=
201605081750 METAR COR EGLL 081750Z AUTO 12014KT 9999 NCD 24/05 Q1006
                        NOSIG=
201605081720 METAR COR EGLL 081720Z AUTO 12015KT 9999 NCD 25/05 Q1006
                        NOSIG=
201605081650 METAR COR EGLL 081650Z AUTO 13013KT 9999 NCD 25/05 Q1006
                        NOSIG=
201605081620 METAR COR EGLL 081620Z AUTO 13012G22KT 100V160 9999 NCD 26/05
                        Q1006 NOSIG=
201605081550 METAR COR EGLL 081550Z AUTO 15011KT 9999 NCD 26/06 Q1006
                        NOSIG=
201605081520 METAR COR EGLL 081520Z AUTO 13013KT 9999 NCD 26/06 Q1006
                        NOSIG=
201605081450 METAR COR EGLL 081450Z AUTO 14012KT 9999 NCD 26/06 Q1006
                        NOSIG=
201605081420 METAR COR EGLL 081420Z AUTO 17012KT 9999 NCD 26/06 Q1006
                        NOSIG=
201605081350 METAR COR EGLL 081350Z AUTO 14011KT 090V170 9999 NCD 26/08
                        Q1006 NOSIG=
201605081320 METAR COR EGLL 081320Z AUTO 12011KT 100V160 9999 NCD 26/07
                        Q1006 NOSIG=
201605081250 METAR COR EGLL 081250Z AUTO 12014KT 9999 NCD 26/07 Q1006
                        NOSIG=
201605081220 METAR COR EGLL 081220Z AUTO 12015KT 9999 NCD 26/08 Q1006
                        NOSIG=
201605081150 METAR COR EGLL 081150Z AUTO 12016KT 9999 NCD 25/07 Q1006
                        NOSIG=
201605081120 METAR COR EGLL 081120Z AUTO 11014KT 9999 NCD 25/08 Q1006
                        NOSIG=
201605081050 METAR COR EGLL 081050Z AUTO 13013KT 090V150 9999 NCD 25/07
                        Q1007 NOSIG=
201605081020 METAR COR EGLL 081020Z AUTO 11010KT 9999 NCD 25/08 Q1007
                        NOSIG=
201605080950 METAR COR EGLL 080950Z AUTO 12011KT 9999 NCD 24/08 Q1007
                        NOSIG=
201605080920 METAR COR EGLL 080920Z AUTO 09007KT 9999 NCD 23/10 Q1007
                        NOSIG=
201605080850 METAR COR EGLL 080850Z AUTO 10008KT 050V110 9999 NCD 21/11
                        Q1007 NOSIG=
201605080820 METAR COR EGLL 080820Z AUTO 10006KT 9999 NCD 20/11 Q1007
                        NOSIG=
201605080750 METAR COR EGLL 080750Z AUTO 09008KT 9999 NCD 19/10 Q1007
                        NOSIG=
201605080720 METAR COR EGLL 080720Z AUTO 09008KT 9999 NCD 18/10 Q1007
                        NOSIG=
201605080650 METAR COR EGLL 080650Z AUTO 08006KT 9999 NCD 18/10 Q1007
                        NOSIG=
201605080620 METAR COR EGLL 080620Z AUTO 08004KT 050V110 9999 NCD 16/10
                        Q1007 NOSIG=
201605080550 METAR COR EGLL 080550Z AUTO 06004KT 9999 NCD 15/09 Q1007
                        NOSIG=
201605080520 METAR COR EGLL 080520Z AUTO VRB03KT 9999 NCD 14/09 Q1007
                        NOSIG=
201605080450 METAR COR EGLL 080450Z AUTO 04004KT 9999 NCD 13/09 Q1007
                        NOSIG=
201605080420 METAR COR EGLL 080420Z AUTO 03002KT 9999 NCD 13/09 Q1007
                        NOSIG=
201605080350 METAR COR EGLL 080350Z AUTO 06003KT 9999 NCD 14/09 Q1007
                        NOSIG=
201605080320 METAR COR EGLL 080320Z AUTO 07004KT 9999 NCD 14/09 Q1007
                        NOSIG=
201605080250 METAR COR EGLL 080250Z AUTO 07004KT 9999 NCD 14/09 Q1007
                        NOSIG=
201605080220 METAR COR EGLL 080220Z AUTO 07003KT 9999 NCD 14/09 Q1007
                        NOSIG=
201605080150 METAR COR EGLL 080150Z AUTO 05002KT 9999 NCD 14/09 Q1007
                        NOSIG=
201605080120 METAR COR EGLL 080120Z AUTO 05003KT 9999 NCD 15/08 Q1007
                        NOSIG=
201605080050 METAR COR EGLL 080050Z AUTO 03002KT 9999 NCD 15/08 Q1007
                        NOSIG=
201605080020 METAR COR EGLL 080020Z AUTO 11005KT 090V150 9999 NCD 15/08
                        Q1007 NOSIG=
201605072350 METAR COR EGLL 072350Z AUTO 11006KT 9999 NCD 15/08 Q1007
                        NOSIG=
201605072320 METAR COR EGLL 072320Z AUTO 11005KT 9999 NCD 15/09 Q1007
                        NOSIG=
201605072250 METAR COR EGLL 072250Z AUTO 11006KT 9999 NCD 15/09 Q1007
                        NOSIG=
201605072220 METAR COR EGLL 072220Z AUTO 11006KT 9999 NCD 17/09 Q1007
                        NOSIG=
201605072150 METAR COR EGLL 072150Z AUTO 11007KT 9999 NCD 17/08 Q1007
                        NOSIG=
201605072120 METAR COR EGLL 072120Z AUTO 11006KT 9999 NCD 17/09 Q1007
                        NOSIG=
201605072050 METAR COR EGLL 072050Z AUTO 11006KT 9999 NCD 18/08 Q1007
                        NOSIG=
201605072020 METAR COR EGLL 072020Z AUTO 12007KT 9999 NCD 19/08 Q1007
                        NOSIG=
201605071950 METAR COR EGLL 071950Z AUTO 13007KT 9999 NCD 19/08 Q1006
                        NOSIG=
201605071920 METAR COR EGLL 071920Z AUTO 15008KT 9999 NCD 19/08 Q1006
                        NOSIG=
201605071850 METAR COR EGLL 071850Z AUTO 14008KT 9999 NCD 20/08 Q1006
                        NOSIG=
201605071820 METAR COR EGLL 071820Z AUTO 17009KT 9999 NCD 20/08 Q1006
                        NOSIG=
201605071750 METAR COR EGLL 071750Z AUTO 17010KT 9999 NCD 20/08 Q1006
                        NOSIG=
201605071720 METAR COR EGLL 071720Z AUTO 17012KT 9999 NCD 20/08 Q1006
                        NOSIG=
201605071650 METAR COR EGLL 071650Z AUTO 17014KT 9999 NCD 21/06 Q1006
                        NOSIG=
201605071620 METAR COR EGLL 071620Z AUTO 15013KT 9999 NCD 21/08 Q1005
                        NOSIG=
201605071550 METAR COR EGLL 071550Z AUTO 14011KT 9999 NCD 22/10 Q1005
                        NOSIG=
201605071520 METAR COR EGLL 071520Z 14011KT 110V170 9999 FEW050CB 22/11
                        Q1005 NOSIG=
201605071450 METAR COR EGLL 071450Z 14013KT 9999 FEW050CB 22/11 Q1005
                        NOSIG=
201605071420 METAR COR EGLL 071420Z 16010KT 9999 FEW037 FEW050CB 22/10
                        Q1005 NOSIG=
201605071350 METAR COR EGLL 071350Z AUTO 13009KT 080V170 9999 FEW037 22/10
                        Q1006 NOSIG=
201605071320 METAR COR EGLL 071320Z AUTO 14011KT 100V180 9999 FEW045 23/11
                        Q1006 NOSIG=
201605071250 METAR COR EGLL 071250Z AUTO 14009KT 110V180 9999 FEW044 23/12
                        Q1006 NOSIG=
201605071220 METAR COR EGLL 071220Z AUTO 13007KT 9999 FEW047 23/11 Q1006
                        NOSIG=
201605071150 METAR COR EGLL 071150Z AUTO 17008KT 120V200 9999 FEW044 22/11
                        Q1006 NOSIG=
201605071120 METAR COR EGLL 071120Z AUTO 16005KT 120V210 9999 NCD 22/12
                        Q1006 NOSIG=
201605071050 METAR COR EGLL 071050Z AUTO 15007KT 090V190 9999 NCD 22/12
                        Q1006 NOSIG=
201605071020 METAR COR EGLL 071020Z AUTO 13005KT 090V200 9999 NCD 22/12
                        Q1006 NOSIG=
201605070950 METAR COR EGLL 070950Z AUTO VRB03KT 9999 NCD 21/12 Q1007
                        NOSIG=
201605070920 METAR COR EGLL 070920Z AUTO 15004KT 090V190 9999 NCD 20/12
                        Q1007 NOSIG=
201605070850 METAR COR EGLL 070850Z AUTO VRB03KT 9999 NCD 19/11 Q1007
                        NOSIG=
201605070820 METAR COR EGLL 070820Z AUTO 11003KT 8000 NCD 18/11 Q1007
                        NOSIG=
201605070750 METAR COR EGLL 070750Z AUTO VRB03KT 7000 NCD 17/11 Q1007
                        NOSIG=
201605070720 METAR COR EGLL 070720Z AUTO 09003KT 5000 HZ NCD 16/11 Q1007
                        NOSIG=
201605070650 METAR COR EGLL 070650Z 07004KT 040V110 6000 NSC 14/10 Q1007
                        NOSIG=
201605070620 METAR COR EGLL 070620Z AUTO 04003KT 4600 HZ NCD 13/10 Q1007
                        BECMG 7000=
201605070550 METAR COR EGLL 070550Z AUTO VRB03KT 4600 HZ NCD 13/09 Q1007
                        BECMG 6000 NSW=
201605070520 METAR COR EGLL 070520Z AUTO 04002KT 4700 HZ NCD 13/09 Q1007
                        BECMG 5000 HZ=
201605070450 METAR COR EGLL 070450Z AUTO 05002KT 4400 HZ NCD 12/09 Q1006
                        TEMPO 6000 NSW=
201605070420 METAR COR EGLL 070420Z AUTO 05003KT 5000 HZ NCD 13/09 Q1006
                        TEMPO 4800 HZ=
201605070350 METAR COR EGLL 070350Z AUTO VRB02KT 5000 HZ NCD 13/09 Q1007
                        TEMPO 4800 HZ=
201605070320 METAR COR EGLL 070320Z AUTO 07002KT 5000 HZ NCD 13/09 Q1007
                        TEMPO 4800 HZ=
201605070250 METAR COR EGLL 070250Z AUTO 06004KT 5000 HZ NCD 13/09 Q1007
                        TEMPO 4800 HZ=
201605070220 METAR COR EGLL 070220Z AUTO 07003KT 5000 HZ NCD 14/09 Q1007
                        TEMPO 4800 HZ=
201605070150 METAR COR EGLL 070150Z AUTO 07003KT 6000 NCD 14/09 Q1007
                        TEMPO 4800 HZ=
201605070120 METAR COR EGLL 070120Z AUTO 06005KT 6000 NCD 14/09 Q1007
                        TEMPO 4800 HZ=
201605070050 METAR COR EGLL 070050Z AUTO VRB03KT 7000 NCD 14/09 Q1007
                        TEMPO 4800 HZ=
201605070020 METAR COR EGLL 070020Z AUTO 06005KT 7000 NCD 14/09 Q1007
                        TEMPO 4800 HZ=
201605062350 METAR COR EGLL 062350Z AUTO 06004KT 7000 NCD 15/10 Q1008
                        TEMPO 4800 HZ=
201605062320 METAR EGLL 062320Z AUTO 07005KT 7000 NCD 15/10 Q1008=
201605062250 METAR COR EGLL 062250Z AUTO 08005KT 6000 NCD 15/10 Q1008
                        TEMPO 4800 HZ=
201605062220 METAR COR EGLL 062220Z AUTO 08004KT 8000 NCD 15/09 Q1008
                        NOSIG=
201605062150 METAR COR EGLL 062150Z AUTO 08004KT 9000 NCD 15/10 Q1008
                        NOSIG=
201605062120 METAR COR EGLL 062120Z AUTO 09007KT 9999 NCD 15/10 Q1008
                        NOSIG=
201605062050 METAR COR EGLL 062050Z AUTO 09007KT 9999 NCD 16/09 Q1008
                        NOSIG=
201605062020 METAR COR EGLL 062020Z AUTO 09007KT 9999 NCD 17/09 Q1008
                        NOSIG=
201605061950 METAR COR EGLL 061950Z AUTO 10006KT 9999 NCD 19/06 Q1008
                        NOSIG=
201605061920 METAR COR EGLL 061920Z AUTO 15004KT 9999 NCD 20/05 Q1008
                        NOSIG=
201605061850 METAR COR EGLL 061850Z AUTO 16006KT 9999 NCD 20/04 Q1008
                        NOSIG=
201605061820 METAR COR EGLL 061820Z AUTO 16007KT 9999 NCD 21/03 Q1007
                        NOSIG=
201605061750 METAR COR EGLL 061750Z AUTO 10006KT 060V140 9999 NCD 21/05
                        Q1007 NOSIG=
201605061720 METAR COR EGLL 061720Z AUTO 10008KT 9999 NCD 21/06 Q1008
                        NOSIG=
201605061650 METAR COR EGLL 061650Z AUTO 10009KT 9999 NCD 22/04 Q1008
                        NOSIG=
201605061620 METAR COR EGLL 061620Z AUTO 15007KT 130V190 9999 NCD 22/05
                        Q1008 NOSIG=
201605061550 METAR COR EGLL 061550Z AUTO 14004KT 070V180 9999 NCD 23/05
                        Q1008 NOSIG=
201605061520 METAR COR EGLL 061520Z AUTO 15005KT 110V230 9999 NCD 22/05
                        Q1008 NOSIG=
201605061450 METAR COR EGLL 061450Z AUTO 15007KT 110V190 9999 NCD 22/05
                        Q1008 NOSIG=
201605061420 METAR COR EGLL 061420Z AUTO 10005KT 010V130 9999 NCD 23/05
                        Q1008 NOSIG=
201605061350 METAR COR EGLL 061350Z AUTO 10005KT 040V140 9999 NCD 23/05
                        Q1009 NOSIG=
201605061320 METAR COR EGLL 061320Z AUTO VRB06KT 9999 NCD 22/06 Q1009
                        NOSIG=
201605061250 METAR COR EGLL 061250Z AUTO 13008KT 090V190 9999 NCD 21/05
                        Q1009 NOSIG=
201605061220 METAR COR EGLL 061220Z AUTO 13006KT 070V180 9999 NCD 21/04
                        Q1009 NOSIG=
201605061150 METAR COR EGLL 061150Z AUTO 11007KT 090V150 9999 NCD 21/06
                        Q1010 NOSIG=
201605061120 METAR EGLL 061120Z AUTO 14006KT 100V230 9999 NCD 21/07 Q1010=
201605061050 METAR COR EGLL 061050Z AUTO 09008KT 9999 NCD 20/08 Q1010
                        NOSIG=
201605061020 METAR COR EGLL 061020Z AUTO 09006KT 070V140 9999 NCD 20/09
                        Q1011 NOSIG=
201605060950 METAR COR EGLL 060950Z AUTO 08007KT 9999 NCD 19/09 Q1011
                        NOSIG=
201605060920 METAR COR EGLL 060920Z AUTO 10005KT 050V130 9999 NCD 17/08
                        Q1011 NOSIG=
201605060850 METAR COR EGLL 060850Z AUTO 11006KT 080V150 9999 NCD 17/08
                        Q1011 NOSIG=
201605060820 METAR COR EGLL 060820Z AUTO 09004KT 050V130 9999 NCD 16/08
                        Q1012 NOSIG=
201605060750 METAR COR EGLL 060750Z AUTO 07005KT 040V110 9999 NCD 14/08
                        Q1012 NOSIG=
201605060720 METAR COR EGLL 060720Z AUTO 08005KT 050V110 9999 NCD 13/08
                        Q1012 NOSIG=
201605060650 METAR COR EGLL 060650Z AUTO 07005KT 9999 NCD 11/06 Q1012
                        NOSIG=
201605060620 METAR COR EGLL 060620Z AUTO VRB03KT 9999 NCD 10/06 Q1013
                        NOSIG=
201605060550 METAR COR EGLL 060550Z AUTO VRB03KT 9999 NCD 09/05 Q1013
                        NOSIG=
201605060520 METAR COR EGLL 060520Z AUTO 04004KT 9999 NCD 08/05 Q1013
                        NOSIG=
201605060450 METAR COR EGLL 060450Z AUTO 04004KT 9999 NCD 08/04 Q1013
                        NOSIG=
201605060420 METAR COR EGLL 060420Z AUTO 01002KT 9999 NCD 08/05 Q1013
                        NOSIG=
201605060350 METAR COR EGLL 060350Z AUTO VRB02KT 9999 NCD 09/05 Q1013
                        NOSIG=
201605060320 METAR COR EGLL 060320Z AUTO 04003KT 9999 NCD 09/05 Q1013
                        NOSIG=
201605060250 METAR COR EGLL 060250Z AUTO VRB02KT 9999 NCD 09/04 Q1014
                        NOSIG=
201605060220 METAR COR EGLL 060220Z AUTO 05004KT 9999 NCD 09/05 Q1014
                        NOSIG=
201605060150 METAR COR EGLL 060150Z AUTO 04003KT 9999 NCD 10/05 Q1014
                        NOSIG=
201605060120 METAR COR EGLL 060120Z AUTO 04003KT 9999 NCD 10/04 Q1015
                        NOSIG=
201605060050 METAR COR EGLL 060050Z AUTO 05002KT 9999 NCD 10/04 Q1015
                        NOSIG=
201605060020 METAR COR EGLL 060020Z AUTO 07005KT 9999 NCD 11/04 Q1015
                        NOSIG=
201605052350 METAR COR EGLL 052350Z AUTO 07005KT 9999 NCD 11/04 Q1016
                        NOSIG=
201605052320 METAR COR EGLL 052320Z AUTO 07004KT 9999 NCD 11/04 Q1016
                        NOSIG=
201605052250 METAR COR EGLL 052250Z AUTO 08007KT 9999 NCD 11/03 Q1016
                        NOSIG=
201605052220 METAR COR EGLL 052220Z AUTO 08007KT 9999 NCD 12/03 Q1016
                        NOSIG=
201605052150 METAR COR EGLL 052150Z AUTO 08009KT 9999 NCD 12/03 Q1016
                        NOSIG=
201605052120 METAR COR EGLL 052120Z AUTO 08007KT 9999 NCD 12/03 Q1016
                        NOSIG=
201605052050 METAR COR EGLL 052050Z AUTO 10007KT 9999 NCD 13/02 Q1017
                        NOSIG=
201605052020 METAR COR EGLL 052020Z AUTO 09009KT 9999 NCD 14/02 Q1017
                        NOSIG=
201605051950 METAR COR EGLL 051950Z AUTO 08008KT 9999 NCD 14/02 Q1017
                        NOSIG=
201605051920 METAR COR EGLL 051920Z AUTO 09008KT 9999 NCD 14/03 Q1017
                        NOSIG=
201605051850 METAR COR EGLL 051850Z AUTO 09011KT 9999 NCD 16/04 Q1017
                        NOSIG=
201605051820 METAR COR EGLL 051820Z AUTO 09012KT 9999 NCD 18/01 Q1016
                        NOSIG=
201605051750 METAR COR EGLL 051750Z AUTO 12010KT 9999 NCD 18/00 Q1016
                        NOSIG=
201605051720 METAR COR EGLL 051720Z AUTO 12011KT 9999 NCD 19/M00 Q1017
                        NOSIG=
201605051650 METAR COR EGLL 051650Z AUTO 12009KT 060V160 9999 NCD 19/M00
                        Q1017 NOSIG=
201605051620 METAR COR EGLL 051620Z AUTO 11011KT 090V150 9999 NCD 19/00
                        Q1017 NOSIG=
201605051550 METAR COR EGLL 051550Z AUTO 10009KT 9999 NCD 20/01 Q1017
                        NOSIG=
201605051520 METAR COR EGLL 051520Z AUTO 11008KT 080V150 9999 //////TCU
                        20/00 Q1017 NOSIG=
201605051450 METAR COR EGLL 051450Z AUTO 10009KT 9999 NCD 20/01 Q1018
                        NOSIG=
201605051420 METAR COR EGLL 051420Z AUTO 15011KT 9999 NCD 20/02 Q1018
                        NOSIG=
201605051350 METAR COR EGLL 051350Z AUTO 11008KT 080V170 9999 NCD 20/01
                        Q1018 NOSIG=
201605051320 METAR COR EGLL 051320Z AUTO 15009KT 9999 NCD 20/02 Q1019
                        NOSIG=
201605051250 METAR COR EGLL 051250Z AUTO 13010KT 090V160 9999 NCD 20/02
                        Q1019 NOSIG=
201605051220 METAR COR EGLL 051220Z AUTO 16009KT 100V200 9999 NCD 19/02
                        Q1020 NOSIG=
201605051150 METAR COR EGLL 051150Z AUTO 17011KT 120V200 9999 NCD 19/03
                        Q1020 NOSIG=
201605051120 METAR COR EGLL 051120Z AUTO 17009KT 130V210 9999 NCD 19/03
                        Q1020 NOSIG=
201605051050 METAR COR EGLL 051050Z AUTO 14010KT 110V180 9999 NCD 18/03
                        Q1021 NOSIG=
201605051020 METAR COR EGLL 051020Z AUTO 18010KT 9999 NCD 18/04 Q1021
                        NOSIG=
201605050950 METAR COR EGLL 050950Z AUTO 16012KT 9999 NCD 17/04 Q1021
                        NOSIG=
201605050920 METAR COR EGLL 050920Z AUTO 15012KT 9999 NCD 16/04 Q1021
                        NOSIG=
201605050850 METAR COR EGLL 050850Z AUTO 17010KT 9999 NCD 16/04 Q1021
                        NOSIG=
201605050820 METAR COR EGLL 050820Z AUTO 16005KT 130V200 9999 NCD 15/05
                        Q1021 NOSIG=
201605050750 METAR COR EGLL 050750Z AUTO 16005KT 140V220 9999 NCD 14/05
                        Q1022 NOSIG=
201605050720 METAR COR EGLL 050720Z AUTO 15005KT 9999 NCD 12/05 Q1022
                        NOSIG=
201605050650 METAR COR EGLL 050650Z AUTO VRB01KT 9999 NCD 12/05 Q1022
                        NOSIG=
201605050620 METAR COR EGLL 050620Z AUTO 06002KT 9999 NCD 10/04 Q1022
                        NOSIG=
201605050550 METAR COR EGLL 050550Z AUTO 07003KT 9999 NCD 08/03 Q1022
                        NOSIG=
201605050520 METAR COR EGLL 050520Z AUTO 07003KT 9999 NCD 07/02 Q1022
                        NOSIG=
201605050450 METAR COR EGLL 050450Z AUTO 06002KT 9999 NCD 06/01 Q1022
                        NOSIG=
201605050420 METAR COR EGLL 050420Z AUTO 07002KT 9999 NCD 06/01 Q1022
                        NOSIG=
201605050350 METAR COR EGLL 050350Z AUTO VRB02KT 9999 NCD 07/02 Q1022
                        NOSIG=
201605050320 METAR COR EGLL 050320Z AUTO 36002KT 9999 NCD 07/02 Q1022
                        NOSIG=
201605050250 METAR COR EGLL 050250Z AUTO 03001KT 9999 NCD 07/01 Q1022
                        NOSIG=
201605050220 METAR COR EGLL 050220Z AUTO 04001KT 9999 NCD 07/02 Q1022
                        NOSIG=
201605050150 METAR COR EGLL 050150Z AUTO 02002KT 9999 NCD 08/00 Q1023
                        NOSIG=
201605050120 METAR COR EGLL 050120Z AUTO VRB01KT 9999 NCD 08/01 Q1023
                        NOSIG=
201605050050 METAR COR EGLL 050050Z AUTO 17001KT 9999 NCD 08/M01 Q1023
                        NOSIG=
201605050020 METAR COR EGLL 050020Z AUTO 15002KT 9999 NCD 08/M00 Q1023
                        NOSIG=
201605042350 METAR COR EGLL 042350Z AUTO 15003KT 9999 NCD 08/M01 Q1024
                        NOSIG=
201605042320 METAR COR EGLL 042320Z AUTO 16003KT 9999 NCD 08/M00 Q1024
                        NOSIG=
201605042250 METAR COR EGLL 042250Z AUTO 15003KT 9999 NCD 09/M00 Q1024
                        NOSIG=
201605042220 METAR COR EGLL 042220Z AUTO VRB03KT 9999 NCD 10/M01 Q1024
                        NOSIG=
201605042150 METAR COR EGLL 042150Z AUTO 18005KT 130V250 9999 NCD 11/M02
                        Q1024 NOSIG=
201605042120 METAR COR EGLL 042120Z AUTO 18006KT 130V240 9999 NCD 11/M01
                        Q1024 NOSIG=
201605042050 METAR COR EGLL 042050Z AUTO 19007KT 150V240 9999 NCD 12/M00
                        Q1024 NOSIG=
201605042020 METAR COR EGLL 042020Z AUTO 18007KT 150V230 9999 NCD 12/01
                        Q1024 NOSIG=
201605041950 METAR COR EGLL 041950Z AUTO 20008KT 160V230 9999 NCD 13/00
                        Q1024 NOSIG=
201605041920 METAR COR EGLL 041920Z AUTO 21008KT 180V240 9999 NCD 13/00
                        Q1024 NOSIG=
201605041850 METAR COR EGLL 041850Z AUTO 21008KT 150V240 9999 NCD 14/00
                        Q1024 NOSIG=
201605041820 METAR COR EGLL 041820Z AUTO 20008KT 170V230 9999 NCD 15/M00
                        Q1024 NOSIG=
201605041750 METAR COR EGLL 041750Z AUTO 16008KT 130V220 9999 NCD 15/M00
                        Q1024 NOSIG=
201605041720 METAR COR EGLL 041720Z AUTO 16008KT 130V230 9999 NCD 16/01
                        Q1024 NOSIG=
201605041650 METAR COR EGLL 041650Z AUTO 17008KT 130V240 9999 NCD 17/02
                        Q1024 NOSIG=
201605041620 METAR COR EGLL 041620Z AUTO 18010KT 130V240 9999 NCD 16/03
                        Q1024 NOSIG=
201605041550 METAR COR EGLL 041550Z AUTO 21010KT 170V240 9999 NCD 17/03
                        Q1025 NOSIG=
201605041520 METAR COR EGLL 041520Z AUTO 19008G18KT 150V260 9999 NCD 17/03
                        Q1025 NOSIG=
201605041450 METAR COR EGLL 041450Z AUTO 22009KT 180V250 9999 NCD 17/03
                        Q1025 NOSIG=
201605041420 METAR COR EGLL 041420Z AUTO 19010KT 150V240 9999 NCD 17/03
                        Q1025 NOSIG=
201605041350 METAR COR EGLL 041350Z AUTO 21010KT 9999 NCD 17/04 Q1026
                        NOSIG=
201605041320 METAR COR EGLL 041320Z AUTO 21010G21KT 180V250 9999 NCD 17/04
                        Q1026 NOSIG=
201605041250 METAR COR EGLL 041250Z AUTO 22010KT 190V250 9999 FEW049 17/04
                        Q1026 NOSIG=
201605041220 METAR COR EGLL 041220Z AUTO 20010KT 9999 FEW046 17/05 Q1026
                        NOSIG=
201605041150 METAR COR EGLL 041150Z AUTO 21010KT 160V240 9999 FEW045 17/05
                        Q1026 NOSIG=
201605041120 METAR COR EGLL 041120Z AUTO 21009KT 160V250 9999 NCD 16/04
                        Q1027 NOSIG=
201605041050 METAR COR EGLL 041050Z AUTO 21010KT 160V250 9999 NCD 16/04
                        Q1027 NOSIG=
201605041020 METAR COR EGLL 041020Z AUTO 21011KT 9999 NCD 16/04 Q1027
                        NOSIG=
201605040950 METAR COR EGLL 040950Z AUTO 21009KT 160V260 9999 NCD 15/03
                        Q1027 NOSIG=
201605040920 METAR COR EGLL 040920Z AUTO 20006KT 140V240 9999 NCD 15/04
                        Q1027 NOSIG=
201605040850 METAR COR EGLL 040850Z AUTO 19009KT 9999 NCD 14/04 Q1027
                        NOSIG=
201605040820 METAR COR EGLL 040820Z AUTO 17006KT 100V220 9999 NCD 13/04
                        Q1027 NOSIG=
201605040750 METAR COR EGLL 040750Z AUTO 16004KT 120V210 9999 NCD 12/05
                        Q1027 NOSIG=
201605040720 METAR COR EGLL 040720Z AUTO VRB03KT 9999 NCD 11/05 Q1027
                        NOSIG=
201605040650 METAR COR EGLL 040650Z AUTO VRB02KT 9999 NCD 09/04 Q1027
                        NOSIG=
201605040620 METAR COR EGLL 040620Z AUTO VRB03KT 9999 NCD 08/04 Q1028
                        NOSIG=
201605040550 METAR COR EGLL 040550Z AUTO 22004KT 200V260 9999 NCD 07/04
                        Q1028 NOSIG=
201605040520 METAR COR EGLL 040520Z AUTO 21004KT 170V290 9999 NCD 06/03
                        Q1028 NOSIG=
201605040450 METAR COR EGLL 040450Z AUTO VRB03KT 9999 NCD 04/02 Q1028
                        NOSIG=
201605040420 METAR COR EGLL 040420Z AUTO VRB03KT 9999 NCD 05/02 Q1028
                        NOSIG=
201605040350 METAR COR EGLL 040350Z AUTO 14001KT 9999 NCD 05/02 Q1028
                        NOSIG=
201605040320 METAR COR EGLL 040320Z AUTO VRB03KT 9999 NCD 06/03 Q1028
                        NOSIG=
201605040250 METAR COR EGLL 040250Z AUTO VRB02KT 9999 NCD 05/02 Q1028
                        NOSIG=
201605040220 METAR COR EGLL 040220Z AUTO VRB03KT 9999 NCD 06/03 Q1028
                        NOSIG=
201605040150 METAR COR EGLL 040150Z AUTO VRB03KT 9999 NCD 06/03 Q1028
                        NOSIG=
201605040120 METAR COR EGLL 040120Z AUTO 25003KT 9999 NCD 07/03 Q1028
                        NOSIG=
201605040050 METAR COR EGLL 040050Z AUTO 27003KT 9999 NCD 08/03 Q1028
                        NOSIG=
201605040020 METAR COR EGLL 040020Z AUTO 27005KT 9999 NCD 08/03 Q1028
                        NOSIG=
201605032350 METAR COR EGLL 032350Z AUTO 27005KT 9999 NCD 08/03 Q1028
                        NOSIG=
201605032320 METAR COR EGLL 032320Z AUTO 23005KT 9999 NCD 09/03 Q1028
                        NOSIG=
201605032250 METAR COR EGLL 032250Z AUTO 27005KT 9999 NCD 09/04 Q1028
                        NOSIG=
201605032220 METAR COR EGLL 032220Z AUTO 28004KT 9999 NCD 10/04 Q1028
                        NOSIG=
201605032150 METAR COR EGLL 032150Z AUTO 28005KT 9999 NCD 11/03 Q1027
                        NOSIG=
201605032120 METAR COR EGLL 032120Z AUTO 28007KT 9999 NCD 10/04 Q1027
                        NOSIG=
201605032050 METAR COR EGLL 032050Z AUTO 28008KT 9999 NCD 12/03 Q1027
                        NOSIG=
201605032020 METAR COR EGLL 032020Z AUTO 27007KT 9999 NCD 12/03 Q1027
                        NOSIG=
201605031950 METAR COR EGLL 031950Z AUTO 27008KT 9999 NCD 12/03 Q1027
                        NOSIG=
201605031920 METAR COR EGLL 031920Z AUTO 28005KT 9999 NCD 12/03 Q1027
                        NOSIG=
201605031850 METAR COR EGLL 031850Z AUTO 26005KT 220V300 9999 NCD 12/03
                        Q1026 NOSIG=
201605031820 METAR COR EGLL 031820Z AUTO 27006KT 9999 NCD 13/03 Q1026
                        NOSIG=
201605031750 METAR COR EGLL 031750Z AUTO 27008KT 9999 NCD 13/03 Q1026
                        NOSIG=
201605031720 METAR COR EGLL 031720Z AUTO 27009KT 9999 NCD 14/02 Q1026
                        NOSIG=
201605031650 METAR COR EGLL 031650Z AUTO 29007KT 240V330 9999 NCD 14/02
                        Q1026 NOSIG=
201605031620 METAR COR EGLL 031620Z AUTO 30008KT 260V330 9999 NCD 14/02
                        Q1026 NOSIG=
201605031550 METAR COR EGLL 031550Z AUTO 30006KT 260V010 9999 NCD 14/02
                        Q1026 NOSIG=
201605031520 METAR COR EGLL 031520Z AUTO 28009KT 240V320 9999 NCD 14/01
                        Q1026 NOSIG=
201605031450 METAR COR EGLL 031450Z AUTO 30007KT 270V330 9999 NCD 14/01
                        Q1026 NOSIG=
201605031420 METAR COR EGLL 031420Z AUTO 28009KT 240V320 9999 NCD 15/01
                        Q1026 NOSIG=
201605031350 METAR COR EGLL 031350Z AUTO 27009KT 240V330 9999 NCD 14/00
                        Q1026 NOSIG=
201605031320 METAR COR EGLL 031320Z AUTO 28009KT 240V320 9999 NCD 14/01
                        Q1026 NOSIG=
201605031250 METAR COR EGLL 031250Z AUTO 27012KT 220V330 9999 NCD 15/00
                        Q1026 NOSIG=
201605031220 METAR COR EGLL 031220Z AUTO 28011KT 250V320 9999 NCD 15/02
                        Q1026 NOSIG=
201605031150 METAR COR EGLL 031150Z AUTO 26010KT 240V300 9999 BKN048 15/01
                        Q1026 NOSIG=
201605031120 METAR COR EGLL 031120Z AUTO 26010KT 230V300 9999 FEW043 13/02
                        Q1026 NOSIG=
201605031050 METAR COR EGLL 031050Z AUTO 26010KT 230V310 9999 FEW042 14/02
                        Q1026 NOSIG=
201605031020 METAR COR EGLL 031020Z AUTO 29006KT 250V340 9999 FEW039 13/03
                        Q1026 NOSIG=
201605030950 METAR EGLL 030950Z AUTO 27011KT 230V300 9999 FEW040 13/02
                        Q1026=
201605030920 METAR COR EGLL 030920Z AUTO 29007KT 250V340 9999 FEW037 12/03
                        Q1026 NOSIG=
201605030850 METAR COR EGLL 030850Z AUTO 27008KT 240V330 9999 FEW032 11/03
                        Q1026 NOSIG=
201605030820 METAR COR EGLL 030820Z AUTO 31008KT 270V350 9999 FEW031 11/04
                        Q1026 NOSIG=
201605030750 METAR COR EGLL 030750Z AUTO 29006KT 240V010 9999 NCD 10/04
                        Q1026 NOSIG=
201605030720 METAR COR EGLL 030720Z AUTO 28007KT 9999 NCD 09/04 Q1025
                        NOSIG=
201605030650 METAR COR EGLL 030650Z AUTO 29008KT 9999 NCD 08/04 Q1025
                        NOSIG=
201605030620 METAR COR EGLL 030620Z AUTO 27007KT 9999 NCD 07/03 Q1025
                        NOSIG=
201605030550 METAR COR EGLL 030550Z AUTO VRB03KT 9999 NCD 07/03 Q1024
                        NOSIG=
201605030520 METAR COR EGLL 030520Z AUTO 29005KT 9999 NCD 05/03 Q1024
                        NOSIG=
201605030450 METAR COR EGLL 030450Z AUTO 27006KT 9999 NCD 05/03 Q1024
                        NOSIG=
201605030420 METAR COR EGLL 030420Z AUTO 28006KT 9999 NCD 05/03 Q1023
                        NOSIG=
201605030350 METAR COR EGLL 030350Z AUTO 27006KT 9999 NCD 05/03 Q1023
                        NOSIG=
201605030320 METAR COR EGLL 030320Z AUTO 27007KT 9999 NCD 05/03 Q1023
                        NOSIG=
201605030250 METAR COR EGLL 030250Z AUTO 28007KT 9999 NCD 05/03 Q1023
                        NOSIG=
201605030220 METAR COR EGLL 030220Z AUTO 27006KT 9999 NCD 05/04 Q1023
                        NOSIG=
201605030150 METAR COR EGLL 030150Z AUTO 27008KT 9999 NCD 06/04 Q1022
                        NOSIG=
201605030120 METAR COR EGLL 030120Z AUTO 27008KT 9999 NCD 06/04 Q1022
                        NOSIG=
201605030050 METAR COR EGLL 030050Z AUTO 27008KT 9999 NCD 06/05 Q1022
                        NOSIG=
201605030020 METAR COR EGLL 030020Z AUTO 27008KT 9999 NCD 06/05 Q1022
                        NOSIG=
201605022350 METAR COR EGLL 022350Z AUTO 27007KT 9999 NCD 07/05 Q1022
                        NOSIG=
201605022320 METAR COR EGLL 022320Z AUTO 27008KT 9999 NCD 07/05 Q1022
                        NOSIG=
201605022250 METAR COR EGLL 022250Z AUTO 28009KT 9999 NCD 08/05 Q1021
                        NOSIG=
201605022220 METAR COR EGLL 022220Z AUTO 27009KT 9999 NCD 08/05 Q1021
                        NOSIG=
201605022150 METAR COR EGLL 022150Z AUTO 28012KT 9999 FEW048 09/05 Q1021
                        NOSIG=
201605022120 METAR COR EGLL 022120Z AUTO 27014KT 9999 FEW045 10/05 Q1020
                        NOSIG=
201605022050 METAR COR EGLL 022050Z AUTO 27013KT 9999 NCD 10/05 Q1019
                        NOSIG=
201605022020 METAR COR EGLL 022020Z AUTO 27014KT 9999 NCD 11/05 Q1019
                        NOSIG=
201605021950 METAR COR EGLL 021950Z AUTO 26013KT 9999 SCT031 SCT045 11/05
                        Q1019 NOSIG=
201605021920 METAR COR EGLL 021920Z AUTO 27014KT 9999 FEW035 11/05 Q1018
                        NOSIG=
201605021850 METAR COR EGLL 021850Z AUTO 26012KT 9999 BKN025 12/07 Q1018
                        NOSIG=
201605021820 METAR COR EGLL 021820Z AUTO 26013KT 9999 BKN042 12/08 Q1018
                        NOSIG=
201605021750 METAR COR EGLL 021750Z 26013KT 9999 -RA FEW009 BKN040 11/08
                        Q1018 NOSIG=
201605021720 METAR COR EGLL 021720Z 27013KT 9999 FEW009 SCT023 BKN032
                        11/09 Q1017 NOSIG=
201605021650 METAR COR EGLL 021650Z 24015KT 8000 -RA BKN009TCU OVC020
                        13/11 Q1017 RERA BECMG FEW012=
201605021620 METAR COR EGLL 021620Z AUTO 23018KT 9999 OVC017/// //////TCU
                        14/10 Q1017 TEMPO 6000 RA BKN014=
201605021550 METAR COR EGLL 021550Z AUTO 22014G24KT 9999 -RA BKN021 14/10
                        Q1017 NOSIG=
201605021520 METAR COR EGLL 021520Z AUTO 22018KT 9999 -RA SCT027 BKN043
                        15/09 Q1017 NOSIG=
201605021450 METAR COR EGLL 021450Z AUTO 21016KT 9999 FEW026 15/09 Q1018
                        NOSIG=
201605021420 METAR COR EGLL 021420Z AUTO 21015KT 9999 FEW027 16/09 Q1018
                        NOSIG=
201605021350 METAR COR EGLL 021350Z AUTO 22017KT 9999 FEW030 17/09 Q1019
                        NOSIG=
201605021320 METAR COR EGLL 021320Z AUTO 23017KT 9999 SCT031 17/09 Q1019
                        NOSIG=
201605021250 METAR COR EGLL 021250Z AUTO 20016KT 180V240 9999 FEW030 17/09
                        Q1019 NOSIG=
201605021220 METAR COR EGLL 021220Z AUTO 21015KT 9999 NCD 16/09 Q1019
                        NOSIG=
201605021150 METAR COR EGLL 021150Z AUTO 21013G23KT 9999 FEW027 15/09
                        Q1020 NOSIG=
201605021120 METAR COR EGLL 021120Z AUTO 22014G24KT 9999 SCT021 15/09
                        Q1020 NOSIG=
201605021050 METAR COR EGLL 021050Z AUTO 22014KT 9999 BKN018 15/09 Q1020
                        NOSIG=
201605021020 METAR COR EGLL 021020Z AUTO 21014KT 9999 BKN015 14/10 Q1021
                        NOSIG=
201605020950 METAR COR EGLL 020950Z AUTO 22012KT 9999 BKN013 14/10 Q1021
                        BECMG FEW015=
201605020920 METAR COR EGLL 020920Z AUTO 21012KT 9999 BKN011 13/10 Q1021
                        BECMG FEW012=
201605020850 METAR COR EGLL 020850Z AUTO 21010KT 9999 BKN010 13/10 Q1021
                        BECMG FEW012=
201605020820 METAR COR EGLL 020820Z AUTO 21010KT 9999 BKN010 13/10 Q1021
                        BECMG SCT012=
201605020750 METAR COR EGLL 020750Z AUTO 21010KT 9999 -RA BKN009 OVC048
                        13/10 Q1021 BECMG SCT009=
201605020720 METAR COR EGLL 020720Z AUTO 21010KT 9999 BKN008 OVC047 12/10
                        Q1021 BECMG SCT008=
201605020650 METAR COR EGLL 020650Z AUTO 22009KT 9999 OVC007 12/10 Q1021
                        BECMG SCT008 BKN010=
201605020620 METAR COR EGLL 020620Z AUTO 21007KT 9999 OVC006 11/10 Q1022
                        BECMG SCT006 BKN010=
201605020550 METAR COR EGLL 020550Z AUTO 20007KT 170V300 9999 OVC005 11/10
                        Q1022 BECMG SCT006 BKN010=
201605020520 METAR COR EGLL 020520Z AUTO 20008KT 170V250 9000 OVC004 11/10
                        Q1022 BECMG SCT004 BKN007=
201605020450 METAR COR EGLL 020450Z AUTO 19008KT 7000 OVC003 11/10 Q1022
                        TEMPO FEW003 BKN006=
201605020420 METAR COR EGLL 020420Z AUTO 19007KT 6000 OVC003 10/09 Q1022
                        TEMPO FEW003 BKN005=
201605020350 METAR COR EGLL 020350Z AUTO 20007KT 6000 OVC003 10/09 Q1023
                        TEMPO SCT004 BKN005=
201605020320 METAR COR EGLL 020320Z AUTO 20008KT 9000 OVC004 10/09 Q1023
                        TEMPO SCT004 BKN006=
201605020250 METAR COR EGLL 020250Z AUTO 19010KT 9999 OVC004 10/09 Q1023
                        SCT004 BKN006=
201605020220 METAR COR EGLL 020220Z AUTO 19011KT 9999 OVC005 10/09 Q1024
                        NOSIG=
201605020150 METAR COR EGLL 020150Z AUTO 19011KT 9999 OVC006 10/09 Q1024
                        NOSIG=
201605020120 METAR COR EGLL 020120Z AUTO 20010KT 9999 OVC006 10/09 Q1024
                        TEMPO BKN004=
201605020050 METAR COR EGLL 020050Z AUTO 19009KT 9999 OVC007 10/08 Q1024
                        TEMPO BKN004=
201605020020 METAR COR EGLL 020020Z AUTO 20010KT 9999 OVC007 10/08 Q1025
                        NOSIG=
201605012350 METAR COR EGLL 012350Z AUTO 20009KT 9999 OVC007 10/08 Q1025
                        NOSIG=
201605012320 METAR COR EGLL 012320Z AUTO 21010KT 9999 OVC008 10/08 Q1025
                        TEMPO SCT008 BKN010=
201605012250 METAR COR EGLL 012250Z AUTO 21009KT 9999 -RA OVC009 10/08
                        Q1026 TEMPO SCT009 BKN012=
201605012220 METAR COR EGLL 012220Z AUTO 22008KT 9999 -RA BKN012 11/08
                        Q1026 TEMPO BKN009=
201605012150 METAR COR EGLL 012150Z AUTO 22010KT 9999 BKN014 BKN044 11/07
                        Q1026 NOSIG=
201605012120 METAR COR EGLL 012120Z AUTO 22010KT 9999 SCT016 BKN038 11/07
                        Q1026 BECMG BKN010=
201605012050 METAR COR EGLL 012050Z AUTO 22010KT 9999 SCT018 SCT040 11/06
                        Q1026 BECMG BKN012=
201605012020 METAR COR EGLL 012020Z AUTO 21008KT 9999 FEW039 11/06 Q1026
                        BECMG BKN012=
201605011950 METAR COR EGLL 011950Z AUTO 21010KT 9999 FEW024 11/06 Q1026
                        BECMG BKN012=
201605011920 METAR COR EGLL 011920Z AUTO 21010KT 170V230 9999 NCD 12/05
                        Q1026 NOSIG=
201605011850 METAR COR EGLL 011850Z AUTO 21010KT 9999 NCD 12/05 Q1026
                        BECMG BKN014=
201605011820 METAR COR EGLL 011820Z AUTO 22011KT 9999 NCD 13/04 Q1026
                        TEMPO BKN012=
201605011750 METAR COR EGLL 011750Z AUTO 22011KT 9999 NCD 13/05 Q1026
                        NOSIG=
201605011720 METAR COR EGLL 011720Z AUTO 22011KT 9999 NCD 14/04 Q1027
                        NOSIG=
201605011650 METAR COR EGLL 011650Z AUTO 23013KT 9999 FEW043 14/03 Q1027
                        NOSIG=
201605011620 METAR COR EGLL 011620Z AUTO 22011KT 9999 FEW043 15/04 Q1026
                        NOSIG=
201605011550 METAR COR EGLL 011550Z AUTO 22013KT 9999 NCD 15/03 Q1026
                        NOSIG=
201605011520 METAR COR EGLL 011520Z AUTO 22013G23KT 190V250 9999 NCD 16/03
                        Q1026 NOSIG=
201605011450 METAR COR EGLL 011450Z AUTO 23011KT 200V270 9999 NCD 16/01
                        Q1026 NOSIG=
201605011420 METAR COR EGLL 011420Z AUTO 21011KT 9999 NCD 16/00 Q1027
                        NOSIG=
201605011350 METAR COR EGLL 011350Z AUTO 23012KT 180V250 9999 NCD 16/00
                        Q1027 NOSIG=
201605011320 METAR COR EGLL 011320Z AUTO 24013KT 9999 NCD 16/00 Q1027
                        NOSIG=
201605011250 METAR COR EGLL 011250Z AUTO 22010G20KT 180V250 9999 NCD 15/M00
                        Q1027 NOSIG=
201605011220 METAR COR EGLL 011220Z AUTO 21012KT 170V240 9999 NCD 15/M00
                        Q1027 NOSIG=
201605011150 METAR COR EGLL 011150Z AUTO 24012KT 9999 NCD 15/M02 Q1027
                        NOSIG=
201605011120 METAR COR EGLL 011120Z AUTO 24012KT 200V270 9999 NCD 14/M00
                        Q1028 NOSIG=
201605011050 METAR COR EGLL 011050Z AUTO 24009G19KT 200V280 9999 NCD 14/M01
                        Q1028 NOSIG=
201605011020 METAR COR EGLL 011020Z AUTO 22011KT 9999 NCD 13/M02 Q1028
                        NOSIG=
201605010950 METAR COR EGLL 010950Z AUTO 23010KT 190V270 9999 NCD 13/01
                        Q1028 NOSIG=
201605010920 METAR COR EGLL 010920Z AUTO 23007KT 160V270 9999 NCD 12/03
                        Q1028 NOSIG=
201605010850 METAR COR EGLL 010850Z AUTO 21007KT 180V260 9999 NCD 10/04
                        Q1029 NOSIG=
201605010820 METAR COR EGLL 010820Z AUTO 20005KT 130V250 9999 NCD 10/04
                        Q1029 NOSIG=
201605010750 METAR COR EGLL 010750Z AUTO 23004KT 200V290 9999 NCD 09/03
                        Q1029 NOSIG=
201605010720 METAR EGLL 010720Z AUTO 23004KT 170V270 9999 NCD 08/03 Q1029=
201605010650 METAR EGLL 010650Z 23004KT 200V280 9999 VCFG NSC 06/03 Q1029=
201605010620 METAR COR EGLL 010620Z 22004KT 190V270 9999 VCFG NSC 05/03
                        Q1029 NOSIG=
201605010550 METAR COR EGLL 010550Z VRB03KT 9999 VCFG NSC 04/02 Q1028
                        NOSIG=
201605010520 METAR EGLL 010520Z VRB03KT 9999 VCFG NSC 03/02 Q1028=
201605010450 METAR COR EGLL 010450Z 21001KT 9999 VCFG NSC 02/01 Q1028
                        NOSIG=
201605010420 METAR COR EGLL 010420Z AUTO 19003KT 9999 NCD 02/01 Q1028
                        NOSIG=
201605010350 METAR COR EGLL 010350Z AUTO 20003KT 9999 NCD 02/01 Q1028
                        NOSIG=
201605010320 METAR COR EGLL 010320Z AUTO VRB01KT 9999 NCD 02/01 Q1028
                        NOSIG=
201605010250 METAR COR EGLL 010250Z AUTO VRB02KT 9999 NCD 03/01 Q1028
                        NOSIG=
201605010220 METAR COR EGLL 010220Z AUTO VRB02KT 9999 NCD 03/01 Q1027
                        NOSIG=
201605010150 METAR COR EGLL 010150Z AUTO 21002KT 9999 NCD 03/01 Q1027
                        NOSIG=
201605010120 METAR COR EGLL 010120Z AUTO VRB02KT 9999 NCD 04/01 Q1027
                        NOSIG=
201605010050 METAR COR EGLL 010050Z AUTO VRB01KT 9999 NCD 04/02 Q1027
                        NOSIG=
201605010020 METAR COR EGLL 010020Z AUTO 05001KT 9999 NCD 05/02 Q1027
                        NOSIG=

</pre>

</body>
</html>
