##########################################################
# Query made at 12/24/2012 13:51:19 UTC
# Time interval: from 05/01/2012 00:00  to 05/31/2012 23:59  UTC
##########################################################

##########################################################
# EGLL, London / Heathrow Airport (United Kingdom)
# WMO index: 03772
# Latitude 51-29N. Longitude 000-27W. Altitude 24 m.
##########################################################

###################################
#  METAR/SPECI from EGLL
###################################
201205312350 METAR COR EGLL 312350Z 28008KT 9999 FEW021 15/12 Q1019 NOSIG=
201205312320 METAR COR EGLL 312320Z 27007KT 9999 FEW034 15/12 Q1019 NOSIG=
201205312250 METAR COR EGLL 312250Z 27006KT 9999 SCT034 16/12 Q1019 NOSIG=
201205312220 METAR COR EGLL 312220Z 27008KT 9999 SCT020 BKN034 16/12 Q1019
                        NOSIG=
201205312150 METAR COR EGLL 312150Z 27008KT 9999 SCT020 BKN033 16/12 Q1019
                        NOSIG=
201205312120 METAR COR EGLL 312120Z 28007KT 9999 BKN020 OVC035 16/12 Q1019
                        NOSIG=
201205312050 METAR COR EGLL 312050Z 27007KT 9999 FEW021 SCT026 BKN037
                        16/12 Q1019 NOSIG=
201205312020 METAR COR EGLL 312020Z 29006KT 9999 FEW020 BKN030 17/12 Q1019
                        NOSIG=
201205311950 METAR COR EGLL 311950Z 29006KT 9999 FEW021 BKN028 17/12 Q1018
                        NOSIG=
201205311920 METAR COR EGLL 311920Z 29007KT 9999 SCT020 SCT025 17/12 Q1018
                        NOSIG=
201205311850 METAR COR EGLL 311850Z 28009KT 9999 FEW022 SCT025 17/12 Q1018
                        NOSIG=
201205311820 METAR COR EGLL 311820Z 27011KT 9999 SCT032 17/12 Q1018 NOSIG=
201205311750 METAR COR EGLL 311750Z 26015KT 9999 FEW032 17/12 Q1018 NOSIG=
201205311720 METAR COR EGLL 311720Z 27013KT 9999 FEW022 SCT032 17/12 Q1018
                        NOSIG=
201205311650 METAR COR EGLL 311650Z 28012KT 9999 SCT034 SCT036 18/11 Q1018
                        NOSIG=
201205311620 METAR COR EGLL 311620Z 28016KT 9999 FEW029 SCT037 18/11 Q1018
                        NOSIG=
201205311550 METAR COR EGLL 311550Z 28013KT 9999 -RA FEW030 SCT038 18/11
                        Q1018 NOSIG=
201205311520 METAR COR EGLL 311520Z 28012KT 9999 FEW035 SCT048 18/11 Q1018
                        NOSIG=
201205311450 METAR COR EGLL 311450Z 27014KT 9999 SCT032 18/10 Q1018 NOSIG=
201205311420 METAR COR EGLL 311420Z 27016KT 9999 FEW029 18/10 Q1018 NOSIG=
201205311350 METAR COR EGLL 311350Z 28015KT 9999 SCT029 18/11 Q1018 NOSIG=
201205311320 METAR COR EGLL 311320Z 28014KT 9999 SCT028 19/11 Q1018 NOSIG=
201205311250 METAR COR EGLL 311250Z 27016KT 9999 FEW033 19/12 Q1018 NOSIG=
201205311220 METAR COR EGLL 311220Z 27015KT 9999 SCT036 20/12 Q1018 NOSIG=
201205311150 METAR COR EGLL 311150Z 27011KT 9999 SCT028 20/13 Q1019 NOSIG=
201205311120 METAR COR EGLL 311120Z 27011KT 9999 SCT025 19/13 Q1019 NOSIG=
201205311050 METAR EGLL 311050Z 27012KT 9999 SCT022 18/12 Q1019=
201205311020 METAR COR EGLL 311020Z 28010KT 9999 FEW024 18/12 Q1019 NOSIG=
201205310950 METAR COR EGLL 310950Z 28009KT 9999 FEW020 17/12 Q1019 NOSIG=
201205310920 METAR COR EGLL 310920Z 27011KT 9999 FEW018 17/12 Q1019 NOSIG=
201205310850 METAR COR EGLL 310850Z 28009KT 9999 FEW015 16/11 Q1019 NOSIG=
201205310820 METAR COR EGLL 310820Z 27010KT 240V300 9999 SCT015 16/11
                        Q1019 NOSIG=
201205310750 METAR COR EGLL 310750Z 27011KT 9999 FEW015 15/11 Q1019 NOSIG=
201205310720 METAR COR EGLL 310720Z 27008KT CAVOK 15/11 Q1019 NOSIG=
201205310650 METAR COR EGLL 310650Z 27009KT CAVOK 14/11 Q1019 NOSIG=
201205310620 METAR COR EGLL 310620Z 27010KT CAVOK 14/11 Q1019 NOSIG=
201205310550 METAR COR EGLL 310550Z 27009KT CAVOK 14/11 Q1019 NOSIG=
201205310520 METAR COR EGLL 310520Z 26009KT CAVOK 14/11 Q1019 NOSIG=
201205310450 METAR COR EGLL 310450Z 27008KT CAVOK 13/11 Q1019 NOSIG=
201205310420 METAR COR EGLL 310420Z 27007KT CAVOK 13/11 Q1019 NOSIG=
201205310350 METAR COR EGLL 310350Z 27007KT 9999 FEW030 13/11 Q1019 NOSIG=
201205310320 METAR COR EGLL 310320Z 27009KT 9999 FEW031 13/11 Q1019 NOSIG=
201205310250 METAR COR EGLL 310250Z 28007KT 9999 SCT029 13/11 Q1019 NOSIG=
201205310220 METAR COR EGLL 310220Z 28009KT CAVOK 13/11 Q1019 NOSIG=
201205310150 METAR EGLL 310150Z AUTO 27009KT 9999 NCD 14/11 Q1019=
201205310120 METAR EGLL 310120Z AUTO 27009KT 9999 NCD 14/12 Q1019=
201205310050 METAR EGLL 310050Z AUTO 26010KT 9999 NCD 15/12 Q1019=
201205310020 METAR COR EGLL 310020Z 26008KT 9999 FEW049 15/12 Q1019 NOSIG=
201205302350 METAR COR EGLL 302350Z 26008KT 9999 FEW048 16/12 Q1019 NOSIG=
201205302320 METAR COR EGLL 302320Z 26009KT 9999 FEW045 16/13 Q1019 NOSIG=
201205302250 METAR COR EGLL 302250Z 25005KT CAVOK 16/13 Q1018 NOSIG=
201205302220 METAR COR EGLL 302220Z 24007KT CAVOK 17/13 Q1018 NOSIG=
201205302150 METAR COR EGLL 302150Z 23007KT CAVOK 17/13 Q1018 NOSIG=
201205302120 METAR COR EGLL 302120Z 22007KT CAVOK 17/13 Q1018 NOSIG=
201205302050 METAR COR EGLL 302050Z 22009KT 9999 FEW047 18/12 Q1018 NOSIG=
201205302020 METAR COR EGLL 302020Z 20008KT CAVOK 18/12 Q1018 NOSIG=
201205301950 METAR COR EGLL 301950Z 22007KT 180V250 CAVOK 20/12 Q1018
                        NOSIG=
201205301920 METAR COR EGLL 301920Z 22009KT CAVOK 21/12 Q1017 NOSIG=
201205301850 METAR COR EGLL 301850Z 21008KT CAVOK 21/12 Q1017 NOSIG=
201205301820 METAR COR EGLL 301820Z 21009KT CAVOK 22/13 Q1017 NOSIG=
201205301750 METAR COR EGLL 301750Z 20009KT CAVOK 22/13 Q1017 NOSIG=
201205301720 METAR COR EGLL 301720Z 20009KT 170V250 CAVOK 22/13 Q1017
                        NOSIG=
201205301650 METAR COR EGLL 301650Z 19010KT 9999 FEW040 21/15 Q1017 RETS
                        NOSIG=
201205301620 METAR COR EGLL 301620Z 14005KT 060V210 9999 VCTS FEW031 SCT040
                        21/15 Q1018 RESHRA NOSIG=
201205301550 METAR COR EGLL 301550Z 21015KT 9999 3000E SHRA SCT031 19/15
                        Q1018 BECMG 9999 NSW=
201205301520 METAR COR EGLL 301520Z 25010KT CAVOK 26/10 Q1017 TEMPO 4000
                        +SHRA=
201205301450 METAR COR EGLL 301450Z 25005KT 170V290 9999 FEW030 24/13
                        Q1018 NOSIG=
201205301420 METAR COR EGLL 301420Z 26005KT 9999 FEW030 22/15 Q1018 RERA
                        NOSIG=
201205301350 METAR COR EGLL 301350Z 26009KT 210V310 9999 VCSH FEW046 24/10
                        Q1018 NOSIG=
201205301320 METAR COR EGLL 301320Z 26010KT 210V290 9999 FEW046 23/10
                        Q1018 NOSIG=
201205301250 METAR COR EGLL 301250Z 24009KT 190V280 9999 SCT047 24/11
                        Q1018 NOSIG=
201205301220 METAR COR EGLL 301220Z 25008KT 180V310 9999 SCT046 24/11
                        Q1018 NOSIG=
201205301150 METAR COR EGLL 301150Z 28007KT 210V330 9999 SCT040 24/11
                        Q1018 NOSIG=
201205301120 METAR COR EGLL 301120Z 27009KT 230V310 9999 SCT040 24/11
                        Q1018 NOSIG=
201205301050 METAR COR EGLL 301050Z 28008KT 230V320 9999 FEW048 23/11
                        Q1018 NOSIG=
201205301020 METAR COR EGLL 301020Z 26009KT 220V280 9999 FEW036 23/11
                        Q1018 NOSIG=
201205300950 METAR COR EGLL 300950Z 26006KT 210V320 9999 FEW040 21/13
                        Q1018 NOSIG=
201205300920 METAR COR EGLL 300920Z 27006KT 210V300 CAVOK 20/13 Q1018
                        NOSIG=
201205300850 METAR COR EGLL 300850Z 26005KT 230V310 CAVOK 19/13 Q1018
                        NOSIG=
201205300820 METAR COR EGLL 300820Z VRB04KT CAVOK 17/13 Q1018 NOSIG=
201205300750 METAR COR EGLL 300750Z 24004KT 180V290 8000 FEW007 16/12
                        Q1018 NOSIG=
201205300720 METAR COR EGLL 300720Z 24005KT 210V320 5000 HZ SCT004 BKN005
                        15/12 Q1018 BECMG SCT006 BKN012=
201205300650 METAR COR EGLL 300650Z 26004KT 210V320 3400 HZ FEW001 SCT003
                        BKN004 14/12 Q1018 BECMG 8000 NSW
                        SCT007 BKN012=
201205300620 METAR COR EGLL 300620Z 25005KT 190V290 1300 R27L/P1500 R27R/P1500
                        BR BKN001 BKN002 13/12 Q1018 BECMG
                        7000 NSW BKN012=
201205300550 METAR COR EGLL 300550Z VRB03KT 0650 R27L/1100 R27R/1100 FG
                        FEW000 OVC001 13/12 Q1018 BECMG 2000
                        BR BKN006=
201205300520 METAR COR EGLL 300520Z 20004KT 150V240 0500 R27L/1000 R27R/0800
                        FG FEW000 OVC001 13/12 Q1018 BECMG
                        3000 BR BKN006=
201205300450 METAR COR EGLL 300450Z 20005KT 160V250 0550 R27L/0800 FG
                        OVC001 13/12 Q1018 BECMG 2000 BR
                        BKN006=
201205300420 METAR COR EGLL 300420Z 22005KT 180V250 0600 R27L/1000 FG
                        OVC001 13/12 Q1017 BECMG 2000 BR
                        BKN004=
201205300350 METAR COR EGLL 300350Z 18005KT 0650 FG BKN002 13/12 Q1017
                        TEMPO 2000 BR BKN004=
201205300320 METAR COR EGLL 300320Z 19005KT 2300 HZ BKN002 13/12 Q1017
                        NOSIG=
201205300250 METAR EGLL 300250Z 19005KT 160V230 2500 HZ BKN002 13/12 Q1018=
201205300220 METAR COR EGLL 300220Z 18004KT 2800 HZ BKN003 13/12 Q1018
                        NOSIG=
201205300150 METAR COR EGLL 300150Z 22006KT 7000 SCT007 14/12 Q1017 BECMG
                        BKN006=
201205300120 METAR EGLL 300120Z AUTO 16005KT 5000 SCT041/// 14/12 Q1017=
201205300050 METAR EGLL 300050Z AUTO 17005KT 6000 FEW047/// 14/12 Q1018=
201205300020 METAR EGLL 300020Z AUTO 17005KT 7000 BKN039/// 15/13 Q1018=
201205292350 METAR COR EGLL 292350Z 17006KT 9000 SCT041 15/13 Q1018 NOSIG=
201205292320 METAR COR EGLL 292320Z 16006KT 9000 BKN045 16/13 Q1018 NOSIG=
201205292250 METAR COR EGLL 292250Z 16006KT 9000 BKN044 17/13 Q1018 NOSIG=
201205292220 METAR COR EGLL 292220Z 13007KT 9000 BKN041 17/13 Q1018 NOSIG=
201205292150 METAR COR EGLL 292150Z 12007KT 9000 SCT037 17/13 Q1017 NOSIG=
201205292120 METAR COR EGLL 292120Z 10006KT 9000 FEW035 SCT044 17/13 Q1017
                        NOSIG=
201205292050 METAR COR EGLL 292050Z 10007KT 9999 FEW046 17/13 Q1017 NOSIG=
201205292020 METAR COR EGLL 292020Z 12009KT 9999 FEW036TCU 17/13 Q1017
                        NOSIG=
201205291950 METAR COR EGLL 291950Z 10007KT 9999 FEW030 18/13 Q1016 NOSIG=
201205291920 METAR COR EGLL 291920Z 11007KT 9999 FEW030 SCT048 18/14 Q1016
                        NOSIG=
201205291850 METAR COR EGLL 291850Z 12010KT 9999 SCT039 SCT046 19/14 Q1016
                        NOSIG=
201205291820 METAR COR EGLL 291820Z 11009KT 9999 FEW030 SCT036 BKN044
                        20/14 Q1016 NOSIG=
201205291750 METAR COR EGLL 291750Z 07006KT 040V100 9999 SCT038 BKN044
                        21/13 Q1016 NOSIG=
201205291720 METAR COR EGLL 291720Z 03005KT 350V080 9999 BKN040 21/13
                        Q1016 NOSIG=
201205291650 METAR COR EGLL 291650Z 03007KT 330V070 9999 FEW031 BKN035
                        22/13 Q1016 NOSIG=
201205291620 METAR EGLL 291620Z 06007KT 030V090 9999 SCT035 SCT045 22/13
                        Q1016=
201205291550 METAR EGLL 291550Z 04006KT 320V070 9999 BKN039 22/13 Q1016=
201205291520 METAR COR EGLL 291520Z 06007KT 010V090 9999 BKN036 23/13
                        Q1016 NOSIG=
201205291450 METAR COR EGLL 291450Z 34004KT 290V040 9999 BKN036 24/14
                        Q1017 NOSIG=
201205291420 METAR COR EGLL 291420Z VRB03KT 9999 SCT036 22/13 Q1017 NOSIG=
201205291350 METAR COR EGLL 291350Z VRB03KT 9999 SCT036 22/13 Q1017 NOSIG=
201205291320 METAR COR EGLL 291320Z 33004KT 220V020 9999 SCT034 22/13
                        Q1017 NOSIG=
201205291250 METAR COR EGLL 291250Z VRB04KT 9999 FEW038 22/13 Q1017 NOSIG=
201205291220 METAR COR EGLL 291220Z 06004KT 010V160 9999 FEW038 22/13
                        Q1017 NOSIG=
201205291150 METAR COR EGLL 291150Z 01005KT 280V080 9999 FEW038 21/13
                        Q1018 NOSIG=
201205291120 METAR COR EGLL 291120Z VRB04KT 9999 FEW038 20/13 Q1018 NOSIG=
201205291050 METAR COR EGLL 291050Z VRB04KT 9999 FEW038 19/12 Q1018 NOSIG=
201205291020 METAR COR EGLL 291020Z 02005KT 340V060 9999 FEW035 18/12
                        Q1018 NOSIG=
201205290950 METAR COR EGLL 290950Z 36006KT 310V050 9999 SCT035 18/12
                        Q1018 NOSIG=
201205290920 METAR COR EGLL 290920Z 04006KT 340V070 9999 FEW034 18/12
                        Q1018 NOSIG=
201205290850 METAR COR EGLL 290850Z 36007KT 9999 FEW024 18/12 Q1018 NOSIG=
201205290820 METAR COR EGLL 290820Z 02006KT 320V070 CAVOK 18/12 Q1018
                        NOSIG=
201205290750 METAR COR EGLL 290750Z 04006KT 360V080 CAVOK 18/11 Q1018
                        NOSIG=
201205290720 METAR COR EGLL 290720Z 35005KT 300V060 CAVOK 17/11 Q1018
                        NOSIG=
201205290650 METAR COR EGLL 290650Z 35005KT 320V050 CAVOK 17/11 Q1018
                        NOSIG=
201205290620 METAR COR EGLL 290620Z 35005KT 290V020 CAVOK 16/11 Q1018
                        NOSIG=
201205290550 METAR COR EGLL 290550Z VRB03KT CAVOK 15/10 Q1018 NOSIG=
201205290520 METAR COR EGLL 290520Z 31004KT CAVOK 15/11 Q1018 NOSIG=
201205290450 METAR COR EGLL 290450Z 31004KT CAVOK 15/11 Q1018 NOSIG=
201205290420 METAR COR EGLL 290420Z 30005KT CAVOK 14/11 Q1018 NOSIG=
201205290350 METAR COR EGLL 290350Z 29005KT CAVOK 14/11 Q1017 NOSIG=
201205290320 METAR COR EGLL 290320Z 29004KT CAVOK 13/11 Q1017 NOSIG=
201205290250 METAR EGLL 290250Z AUTO 28004KT 9999 NCD 14/11 Q1017=
201205290220 METAR COR EGLL 290220Z 27005KT CAVOK 14/12 Q1017 NOSIG=
201205290150 METAR COR EGLL 290150Z 27005KT CAVOK 15/12 Q1017 NOSIG=
201205290120 METAR EGLL 290120Z AUTO 27005KT 9999 NCD 15/12 Q1017=
201205290050 METAR EGLL 290050Z AUTO 27006KT 9999 NCD 16/12 Q1017=
201205290020 METAR EGLL 290020Z AUTO 27006KT 9999 NCD 16/13 Q1018=
201205282350 METAR EGLL 282350Z 26006KT CAVOK 16/13 Q1018=
201205282320 METAR COR EGLL 282320Z 27006KT CAVOK 17/13 Q1018 NOSIG=
201205282250 METAR COR EGLL 282250Z 27006KT CAVOK 17/13 Q1018 NOSIG=
201205282220 METAR COR EGLL 282220Z 27007KT CAVOK 18/13 Q1018 NOSIG=
201205282150 METAR COR EGLL 282150Z 27008KT CAVOK 19/12 Q1018 NOSIG=
201205282120 METAR COR EGLL 282120Z 27008KT CAVOK 20/12 Q1018 NOSIG=
201205282050 METAR COR EGLL 282050Z 28008KT CAVOK 20/11 Q1017 NOSIG=
201205282020 METAR COR EGLL 282020Z 28007KT CAVOK 21/11 Q1017 NOSIG=
201205281950 METAR EGLL 281950Z 28008KT CAVOK 21/10 Q1017=
201205281920 METAR COR EGLL 281920Z 28010KT CAVOK 22/11 Q1017 NOSIG=
201205281850 METAR COR EGLL 281850Z 28010KT CAVOK 23/11 Q1017 NOSIG=
201205281820 METAR COR EGLL 281820Z 29008KT CAVOK 24/10 Q1017 NOSIG=
201205281750 METAR COR EGLL 281750Z 29008KT 260V340 CAVOK 24/10 Q1017
                        NOSIG=
201205281720 METAR COR EGLL 281720Z 28007KT 250V320 CAVOK 25/10 Q1017
                        NOSIG=
201205281650 METAR COR EGLL 281650Z 30008KT CAVOK 25/09 Q1017 NOSIG=
201205281620 METAR COR EGLL 281620Z 29009KT 250V330 CAVOK 26/10 Q1017
                        NOSIG=
201205281550 METAR COR EGLL 281550Z 28008KT 240V310 9999 FEW048 25/11
                        Q1017 NOSIG=
201205281520 METAR COR EGLL 281520Z 28008KT 240V330 9999 FEW048 26/11
                        Q1017 NOSIG=
201205281450 METAR COR EGLL 281450Z 30006KT 270V350 9999 FEW048 26/12
                        Q1017 NOSIG=
201205281420 METAR COR EGLL 281420Z 31007KT 270V360 9999 FEW045 24/12
                        Q1018 NOSIG=
201205281350 METAR COR EGLL 281350Z 28009KT 240V330 9999 FEW045 25/11
                        Q1018 NOSIG=
201205281320 METAR COR EGLL 281320Z 29009KT 250V320 9999 FEW045 24/12
                        Q1018 NOSIG=
201205281250 METAR COR EGLL 281250Z 26010KT 9999 FEW044 25/11 Q1018 NOSIG=
201205281220 METAR COR EGLL 281220Z 27008KT 9999 FEW044 24/13 Q1018 NOSIG=
201205281150 METAR COR EGLL 281150Z 28008KT 240V320 9999 FEW044 24/13
                        Q1018 NOSIG=
201205281120 METAR COR EGLL 281120Z 29006KT 240V350 CAVOK 24/12 Q1018
                        NOSIG=
201205281050 METAR COR EGLL 281050Z 27007KT 240V330 CAVOK 23/13 Q1018
                        NOSIG=
201205281020 METAR COR EGLL 281020Z 27006KT 210V310 CAVOK 23/13 Q1018
                        NOSIG=
201205280950 METAR COR EGLL 280950Z 26005KT 210V290 CAVOK 22/13 Q1018
                        NOSIG=
201205280920 METAR COR EGLL 280920Z VRB03KT CAVOK 22/12 Q1018 NOSIG=
201205280850 METAR COR EGLL 280850Z VRB03KT 8000 NSC 22/12 Q1018 NOSIG=
201205280820 METAR COR EGLL 280820Z 00000KT 7000 NSC 21/12 Q1018 NOSIG=
201205280750 METAR COR EGLL 280750Z VRB02KT 7000 NSC 20/12 Q1018 NOSIG=
201205280720 METAR COR EGLL 280720Z VRB03KT 7000 NSC 19/12 Q1018 NOSIG=
201205280650 METAR COR EGLL 280650Z 05004KT 020V090 8000 NSC 18/12 Q1018
                        NOSIG=
201205280620 METAR COR EGLL 280620Z 04004KT 010V100 8000 NSC 17/12 Q1018
                        NOSIG=
201205280550 METAR COR EGLL 280550Z VRB02KT CAVOK 16/11 Q1018 NOSIG=
201205280520 METAR COR EGLL 280520Z 36003KT CAVOK 16/11 Q1018 NOSIG=
201205280450 METAR COR EGLL 280450Z 35002KT CAVOK 14/10 Q1018 NOSIG=
201205280420 METAR COR EGLL 280420Z 00000KT CAVOK 14/10 Q1018 NOSIG=
201205280350 METAR COR EGLL 280350Z 05004KT CAVOK 14/10 Q1017 NOSIG=
201205280320 METAR COR EGLL 280320Z 02002KT CAVOK 14/10 Q1018 NOSIG=
201205280250 METAR EGLL 280250Z AUTO 05003KT 9999 NCD 15/10 Q1018=
201205280220 METAR COR EGLL 280220Z 00000KT CAVOK 15/10 Q1018 NOSIG=
201205280150 METAR COR EGLL 280150Z 04003KT CAVOK 15/10 Q1018 NOSIG=
201205280120 METAR EGLL 280120Z AUTO 05002KT 9999 NCD 15/10 Q1018=
201205280050 METAR EGLL 280050Z AUTO 07004KT 9999 NCD 15/09 Q1018=
201205280020 METAR EGLL 280020Z AUTO 00000KT 9999 NCD 15/09 Q1018=
201205272350 METAR COR EGLL 272350Z 00000KT CAVOK 16/09 Q1019 NOSIG=
201205272320 METAR COR EGLL 272320Z 11004KT CAVOK 16/08 Q1019 NOSIG=
201205272250 METAR COR EGLL 272250Z 09006KT CAVOK 17/08 Q1018 NOSIG=
201205272220 METAR COR EGLL 272220Z 11005KT CAVOK 17/09 Q1018 NOSIG=
201205272150 METAR COR EGLL 272150Z 09006KT CAVOK 17/08 Q1018 NOSIG=
201205272120 METAR COR EGLL 272120Z 10007KT CAVOK 18/08 Q1018 NOSIG=
201205272050 METAR COR EGLL 272050Z 10008KT CAVOK 19/08 Q1018 NOSIG=
201205272020 METAR COR EGLL 272020Z 10010KT CAVOK 19/07 Q1018 NOSIG=
201205271950 METAR COR EGLL 271950Z 09010KT CAVOK 20/07 Q1018 NOSIG=
201205271920 METAR COR EGLL 271920Z 09010KT CAVOK 21/08 Q1017 NOSIG=
201205271850 METAR COR EGLL 271850Z 09011KT CAVOK 22/08 Q1017 NOSIG=
201205271820 METAR COR EGLL 271820Z 09012KT CAVOK 23/07 Q1017 NOSIG=
201205271750 METAR COR EGLL 271750Z 09011KT CAVOK 24/07 Q1017 NOSIG=
201205271720 METAR COR EGLL 271720Z 08009KT CAVOK 25/08 Q1017 NOSIG=
201205271650 METAR COR EGLL 271650Z 10012KT CAVOK 25/07 Q1017 NOSIG=
201205271620 METAR COR EGLL 271620Z 09010KT 050V120 CAVOK 25/09 Q1017
                        NOSIG=
201205271550 METAR COR EGLL 271550Z 10011KT CAVOK 25/09 Q1017 NOSIG=
201205271520 METAR COR EGLL 271520Z 09009KT 060V120 CAVOK 26/10 Q1017
                        NOSIG=
201205271450 METAR COR EGLL 271450Z 11009KT 050V160 CAVOK 26/10 Q1017
                        NOSIG=
201205271420 METAR COR EGLL 271420Z 10009KT 070V130 CAVOK 27/10 Q1017
                        NOSIG=
201205271350 METAR COR EGLL 271350Z 07008KT 020V100 CAVOK 26/09 Q1018
                        NOSIG=
201205271320 METAR COR EGLL 271320Z 11011KT CAVOK 27/08 Q1018 NOSIG=
201205271250 METAR COR EGLL 271250Z 09013KT CAVOK 27/08 Q1018 NOSIG=
201205271220 METAR COR EGLL 271220Z 10013KT 070V130 CAVOK 26/07 Q1018
                        NOSIG=
201205271150 METAR COR EGLL 271150Z 08010KT 050V120 CAVOK 26/10 Q1018
                        NOSIG=
201205271120 METAR COR EGLL 271120Z 09011KT 050V110 9999 FEW049 26/09
                        Q1018 NOSIG=
201205271050 METAR COR EGLL 271050Z 09008KT 050V120 CAVOK 25/10 Q1018
                        NOSIG=
201205271020 METAR COR EGLL 271020Z 06006KT 020V110 CAVOK 24/12 Q1018
                        NOSIG=
201205270950 METAR COR EGLL 270950Z 07006KT CAVOK 23/12 Q1019 NOSIG=
201205270920 METAR COR EGLL 270920Z 10006KT 070V130 CAVOK 22/12 Q1019
                        NOSIG=
201205270850 METAR EGLL 270850Z 07005KT 040V100 CAVOK 21/12 Q1019=
201205270820 METAR COR EGLL 270820Z 06006KT 040V100 CAVOK 20/12 Q1019
                        NOSIG=
201205270750 METAR COR EGLL 270750Z 07005KT 030V100 CAVOK 19/12 Q1019
                        NOSIG=
201205270720 METAR COR EGLL 270720Z 06005KT CAVOK 18/11 Q1019 NOSIG=
201205270650 METAR COR EGLL 270650Z 07007KT CAVOK 17/11 Q1019 NOSIG=
201205270620 METAR COR EGLL 270620Z 08004KT 040V100 CAVOK 16/11 Q1019
                        NOSIG=
201205270550 METAR COR EGLL 270550Z 06004KT CAVOK 16/10 Q1019 NOSIG=
201205270520 METAR COR EGLL 270520Z 05004KT 020V080 CAVOK 15/10 Q1019
                        NOSIG=
201205270450 METAR COR EGLL 270450Z 05005KT CAVOK 14/10 Q1019 NOSIG=
201205270420 METAR COR EGLL 270420Z 04004KT CAVOK 14/09 Q1019 NOSIG=
201205270350 METAR COR EGLL 270350Z 05004KT CAVOK 14/09 Q1019 NOSIG=
201205270320 METAR COR EGLL 270320Z VRB02KT CAVOK 14/09 Q1018 NOSIG=
201205270250 METAR COR EGLL 270250Z 06003KT CAVOK 14/09 Q1018 NOSIG=
201205270220 METAR COR EGLL 270220Z 06007KT CAVOK 15/09 Q1018 NOSIG=
201205270150 METAR COR EGLL 270150Z 06006KT CAVOK 15/09 Q1018 NOSIG=
201205270120 METAR EGLL 270120Z AUTO 06006KT 9999 NCD 15/09 Q1019=
201205270050 METAR EGLL 270050Z AUTO VRB03KT 9999 NCD 15/09 Q1019=
201205270020 METAR EGLL 270020Z AUTO 06006KT 9999 NCD 16/09 Q1019=
201205262350 METAR COR EGLL 262350Z 06006KT CAVOK 16/09 Q1019 NOSIG=
201205262320 METAR COR EGLL 262320Z 06006KT CAVOK 17/08 Q1019 NOSIG=
201205262250 METAR COR EGLL 262250Z 06007KT CAVOK 17/08 Q1019 NOSIG=
201205262220 METAR COR EGLL 262220Z 06006KT CAVOK 17/09 Q1019 NOSIG=
201205262150 METAR COR EGLL 262150Z 06007KT CAVOK 18/08 Q1019 NOSIG=
201205262120 METAR COR EGLL 262120Z 07006KT CAVOK 19/08 Q1019 NOSIG=
201205262050 METAR COR EGLL 262050Z 07007KT CAVOK 19/08 Q1019 NOSIG=
201205262020 METAR COR EGLL 262020Z 07006KT CAVOK 20/07 Q1019 NOSIG=
201205261950 METAR COR EGLL 261950Z 07007KT CAVOK 20/07 Q1018 NOSIG=
201205261920 METAR COR EGLL 261920Z 09013KT CAVOK 21/07 Q1018 NOSIG=
201205261850 METAR COR EGLL 261850Z 08010KT CAVOK 21/07 Q1018 NOSIG=
201205261820 METAR COR EGLL 261820Z 10013KT CAVOK 22/06 Q1018 NOSIG=
201205261750 METAR COR EGLL 261750Z 08012KT CAVOK 22/07 Q1019 NOSIG=
201205261720 METAR COR EGLL 261720Z 08012KT CAVOK 23/07 Q1019 NOSIG=
201205261650 METAR COR EGLL 261650Z 08012KT CAVOK 24/06 Q1019 NOSIG=
201205261620 METAR COR EGLL 261620Z 09014KT 070V130 CAVOK 24/05 Q1019
                        NOSIG=
201205261550 METAR COR EGLL 261550Z 10016KT CAVOK 24/06 Q1019 NOSIG=
201205261520 METAR COR EGLL 261520Z 09014KT CAVOK 25/06 Q1019 NOSIG=
201205261450 METAR COR EGLL 261450Z 10016KT CAVOK 25/05 Q1019 NOSIG=
201205261420 METAR COR EGLL 261420Z 10017KT CAVOK 25/05 Q1019 NOSIG=
201205261350 METAR COR EGLL 261350Z 09017KT CAVOK 25/06 Q1019 NOSIG=
201205261320 METAR COR EGLL 261320Z 08016KT 050V110 CAVOK 25/06 Q1019
                        NOSIG=
201205261250 METAR COR EGLL 261250Z 08014KT CAVOK 25/06 Q1019 NOSIG=
201205261220 METAR COR EGLL 261220Z 08015KT CAVOK 25/07 Q1019 NOSIG=
201205261150 METAR COR EGLL 261150Z 09016KT CAVOK 25/06 Q1020 NOSIG=
201205261120 METAR COR EGLL 261120Z 08016KT CAVOK 24/06 Q1020 NOSIG=
201205261050 METAR COR EGLL 261050Z 08016KT CAVOK 24/06 Q1020 NOSIG=
201205261020 METAR COR EGLL 261020Z 09013KT CAVOK 24/07 Q1020 NOSIG=
201205260950 METAR COR EGLL 260950Z 08014KT 050V110 CAVOK 23/08 Q1020
                        NOSIG=
201205260920 METAR COR EGLL 260920Z 09013KT 060V120 CAVOK 22/08 Q1020
                        NOSIG=
201205260850 METAR COR EGLL 260850Z 08012KT CAVOK 22/08 Q1020 NOSIG=
201205260820 METAR COR EGLL 260820Z 07011KT CAVOK 21/11 Q1021 NOSIG=
201205260750 METAR EGLL 260750Z 08010KT CAVOK 20/11 Q1021=
201205260720 METAR EGLL 260720Z 07010KT CAVOK 19/12 Q1021=
201205260650 METAR COR EGLL 260650Z 07009KT CAVOK 18/12 Q1021 NOSIG=
201205260620 METAR COR EGLL 260620Z 07009KT 9000 NSC 17/13 Q1021 NOSIG=
201205260550 METAR COR EGLL 260550Z 07009KT 9000 NSC 16/13 Q1021 NOSIG=
201205260520 METAR COR EGLL 260520Z 07009KT 8000 NSC 15/12 Q1021 NOSIG=
201205260450 METAR EGLL 260450Z 06009KT 8000 NSC 15/12 Q1021=
201205260420 METAR COR EGLL 260420Z 06008KT 8000 NSC 14/12 Q1021 NOSIG=
201205260350 METAR COR EGLL 260350Z 06007KT 8000 NSC 14/12 Q1021 NOSIG=
201205260320 METAR COR EGLL 260320Z 05006KT 020V090 9000 NSC 15/12 Q1021
                        NOSIG=
201205260250 METAR COR EGLL 260250Z 04006KT CAVOK 15/12 Q1021 NOSIG=
201205260220 METAR COR EGLL 260220Z 04005KT CAVOK 15/12 Q1021 NOSIG=
201205260150 METAR COR EGLL 260150Z 04005KT 010V080 CAVOK 16/12 Q1022
                        NOSIG=
201205260120 METAR EGLL 260120Z AUTO 06007KT 9999 NCD 16/12 Q1022=
201205260050 METAR EGLL 260050Z AUTO 06008KT 9999 NCD 16/12 Q1022=
201205260020 METAR EGLL 260020Z AUTO 07008KT 9999 NCD 17/12 Q1022=
201205252350 METAR COR EGLL 252350Z 07008KT CAVOK 17/12 Q1022 NOSIG=
201205252320 METAR COR EGLL 252320Z 07009KT CAVOK 17/12 Q1022 NOSIG=
201205252250 METAR COR EGLL 252250Z 07008KT CAVOK 18/11 Q1022 NOSIG=
201205252220 METAR COR EGLL 252220Z 08010KT CAVOK 18/11 Q1022 NOSIG=
201205252150 METAR COR EGLL 252150Z 07010KT CAVOK 19/11 Q1022 NOSIG=
201205252120 METAR COR EGLL 252120Z 08011KT CAVOK 19/11 Q1022 NOSIG=
201205252050 METAR COR EGLL 252050Z 07013KT CAVOK 19/11 Q1022 NOSIG=
201205252020 METAR COR EGLL 252020Z 07013KT CAVOK 19/10 Q1022 NOSIG=
201205251950 METAR COR EGLL 251950Z 07013KT CAVOK 20/10 Q1021 NOSIG=
201205251920 METAR COR EGLL 251920Z 07013KT CAVOK 21/09 Q1021 NOSIG=
201205251850 METAR COR EGLL 251850Z 07015KT CAVOK 22/08 Q1021 NOSIG=
201205251820 METAR COR EGLL 251820Z 08014KT CAVOK 22/07 Q1021 NOSIG=
201205251750 METAR COR EGLL 251750Z 08015KT CAVOK 23/06 Q1022 TEMPO 09020G30KT=
201205251720 METAR COR EGLL 251720Z 09020KT CAVOK 23/05 Q1022 TEMPO 10020G30KT=
201205251650 METAR EGLL 251650Z 09017KT CAVOK 23/05 Q1022 TEMPO 09020G30KT=
201205251620 METAR COR EGLL 251620Z 07017KT CAVOK 24/05 Q1022 TEMPO 09020G30KT=
201205251550 METAR COR EGLL 251550Z 08014KT CAVOK 24/08 Q1022 TEMPO 09017G27KT=
201205251520 METAR COR EGLL 251520Z 09015KT CAVOK 24/09 Q1022 TEMPO 10018G28KT=
201205251450 METAR COR EGLL 251450Z 09016KT CAVOK 24/08 Q1022 TEMPO 10020G30KT=
201205251420 METAR COR EGLL 251420Z 07015KT CAVOK 25/07 Q1022 TEMPO 08018G28KT=
201205251350 METAR COR EGLL 251350Z 08014KT CAVOK 25/08 Q1023 TEMPO 10020G30KT=
201205251320 METAR COR EGLL 251320Z 09016KT CAVOK 25/08 Q1023 TEMPO 09020G30KT=
201205251250 METAR COR EGLL 251250Z 09016KT CAVOK 25/08 Q1023 TEMPO 10018G30KT=
201205251220 METAR COR EGLL 251220Z 08014KT CAVOK 25/08 Q1023 TEMPO 09017G28KT=
201205251150 METAR COR EGLL 251150Z 10017KT CAVOK 25/09 Q1023 TEMPO 10020G30KT=
201205251120 METAR COR EGLL 251120Z 07013KT CAVOK 25/11 Q1023 TEMPO 08015G25KT=
201205251050 METAR COR EGLL 251050Z 06013KT CAVOK 24/13 Q1023 TEMPO 08015G25KT=
201205251020 METAR COR EGLL 251020Z 06010KT CAVOK 24/13 Q1023 TEMPO 08015G25KT=
201205250950 METAR COR EGLL 250950Z 06011KT 030V100 CAVOK 23/12 Q1023
                        TEMPO 08015G25KT=
201205250920 METAR COR EGLL 250920Z 06010KT 020V090 CAVOK 23/12 Q1023
                        NOSIG=
201205250850 METAR COR EGLL 250850Z 06008KT 030V090 CAVOK 22/12 Q1024
                        NOSIG=
201205250820 METAR COR EGLL 250820Z 07009KT CAVOK 21/12 Q1024 NOSIG=
201205250750 METAR COR EGLL 250750Z 07010KT CAVOK 20/12 Q1024 NOSIG=
201205250720 METAR COR EGLL 250720Z 06006KT CAVOK 19/13 Q1024 NOSIG=
201205250650 METAR COR EGLL 250650Z 06007KT 8000 NSC 18/13 Q1024 NOSIG=
201205250620 METAR COR EGLL 250620Z 07007KT 7000 NSC 17/13 Q1024 NOSIG=
201205250550 METAR COR EGLL 250550Z 06006KT 6000 NSC 17/13 Q1024 NOSIG=
201205250520 METAR COR EGLL 250520Z 06006KT 5000 HZ NSC 16/13 Q1024 BECMG
                        9000=
201205250450 METAR COR EGLL 250450Z 05006KT 5000 HZ NSC 16/14 Q1024 BECMG
                        9000=
201205250420 METAR COR EGLL 250420Z 05005KT 5000 HZ NSC 16/14 Q1024 BECMG
                        8000=
201205250350 METAR COR EGLL 250350Z 05005KT 020V080 5000 HZ NSC 16/14
                        Q1024 BECMG 8000=
201205250320 METAR COR EGLL 250320Z 05005KT 020V080 8000 NSC 17/14 Q1024
                        TEMPO 4500 HZ=
201205250250 METAR COR EGLL 250250Z 05005KT 010V080 8000 NSC 17/15 Q1024
                        TEMPO 4500 HZ=
201205250220 METAR COR EGLL 250220Z 05005KT 8000 NSC 17/15 Q1024 TEMPO
                        4500 HZ=
201205250150 METAR COR EGLL 250150Z 05005KT 020V080 9000 NSC 18/16 Q1024
                        TEMPO 4500 HZ=
201205250120 METAR EGLL 250120Z AUTO 04004KT 4700 HZ FEW017/// 18/16 Q1024=
201205250050 METAR EGLL 250050Z AUTO 04004KT 010V070 4700 HZ FEW017///
                        18/16 Q1025=
201205250020 METAR EGLL 250020Z AUTO 04004KT 5000 FEW017/// 18/16 Q1025=
201205242350 METAR COR EGLL 242350Z 05004KT 9000 FEW016 19/16 Q1025 TEMPO
                        4800 HZ=
201205242320 METAR COR EGLL 242320Z 04004KT 9000 NSC 20/17 Q1025 NOSIG=
201205242250 METAR COR EGLL 242250Z 04005KT 9000 NSC 20/18 Q1025 NOSIG=
201205242220 METAR COR EGLL 242220Z 04005KT 010V070 9999 SCT021 21/18
                        Q1025 NOSIG=
201205242150 METAR COR EGLL 242150Z 05006KT 010V080 9999 SCT024 22/18
                        Q1025 NOSIG=
201205242120 METAR COR EGLL 242120Z 05004KT CAVOK 22/17 Q1025 NOSIG=
201205242050 METAR COR EGLL 242050Z 06005KT CAVOK 22/17 Q1025 NOSIG=
201205242020 METAR COR EGLL 242020Z 06005KT CAVOK 22/16 Q1025 NOSIG=
201205241950 METAR COR EGLL 241950Z 06006KT CAVOK 23/17 Q1025 NOSIG=
201205241920 METAR COR EGLL 241920Z 06006KT 9999 FEW031 24/17 Q1025 NOSIG=
201205241850 METAR COR EGLL 241850Z 07006KT 030V090 9999 FEW032 24/17
                        Q1025 NOSIG=
201205241820 METAR COR EGLL 241820Z 06006KT 9999 FEW035 24/17 Q1025 NOSIG=
201205241750 METAR COR EGLL 241750Z 07007KT 9999 FEW038 25/17 Q1025 NOSIG=
201205241720 METAR COR EGLL 241720Z 06006KT 020V090 9999 FEW038 26/16
                        Q1025 NOSIG=
201205241650 METAR COR EGLL 241650Z 08007KT 040V110 9999 FEW039 26/16
                        Q1025 NOSIG=
201205241620 METAR COR EGLL 241620Z 07007KT 030V100 9999 FEW039 26/17
                        Q1025 NOSIG=
201205241550 METAR COR EGLL 241550Z 06007KT 030V100 9999 FEW040 26/17
                        Q1025 NOSIG=
201205241520 METAR COR EGLL 241520Z 07007KT 030V120 9999 FEW040 26/16
                        Q1025 NOSIG=
201205241450 METAR COR EGLL 241450Z 06007KT 010V090 9999 FEW039 26/16
                        Q1025 NOSIG=
201205241420 METAR COR EGLL 241420Z 06006KT 020V100 CAVOK 26/16 Q1025
                        NOSIG=
201205241350 METAR COR EGLL 241350Z 05006KT 010V110 CAVOK 26/16 Q1025
                        NOSIG=
201205241320 METAR COR EGLL 241320Z 07006KT 020V100 CAVOK 26/16 Q1026
                        NOSIG=
201205241250 METAR COR EGLL 241250Z 02005KT 320V090 CAVOK 25/16 Q1026
                        NOSIG=
201205241220 METAR COR EGLL 241220Z 04004KT 340V110 CAVOK 24/16 Q1026
                        NOSIG=
201205241150 METAR COR EGLL 241150Z VRB03KT CAVOK 24/16 Q1026 NOSIG=
201205241120 METAR COR EGLL 241120Z 08006KT 050V120 CAVOK 23/15 Q1026
                        NOSIG=
201205241050 METAR COR EGLL 241050Z VRB04KT CAVOK 22/15 Q1027 NOSIG=
201205241020 METAR COR EGLL 241020Z 06004KT 360V090 CAVOK 21/15 Q1027
                        NOSIG=
201205240950 METAR COR EGLL 240950Z 02004KT 290V100 9000 NSC 20/15 Q1027
                        NOSIG=
201205240920 METAR COR EGLL 240920Z 02004KT 320V070 7000 NSC 19/14 Q1027
                        NOSIG=
201205240850 METAR COR EGLL 240850Z 03005KT 340V080 6000 NSC 19/14 Q1027
                        NOSIG=
201205240820 METAR COR EGLL 240820Z 04005KT 340V090 6000 SCT015 18/14
                        Q1027 NOSIG=
201205240750 METAR COR EGLL 240750Z 36005KT 340V050 6000 SCT013 17/14
                        Q1027 TEMPO BKN008=
201205240720 METAR COR EGLL 240720Z 01005KT 320V060 6000 FEW014 17/14
                        Q1027 TEMPO BKN006=
201205240650 METAR COR EGLL 240650Z 04006KT 360V080 6000 NSC 17/14 Q1027
                        BECMG BKN006=
201205240620 METAR COR EGLL 240620Z 01005KT 340V080 6000 NSC 16/13 Q1026
                        TEMPO BKN007=
201205240550 METAR COR EGLL 240550Z 02005KT 360V070 7000 NSC 16/13 Q1026
                        TEMPO BKN007=
201205240520 METAR COR EGLL 240520Z 36004KT 330V040 4000 HZ NSC 16/13
                        Q1026 TEMPO BKN007=
201205240450 METAR COR EGLL 240450Z 36004KT 4000 HZ FEW007 16/14 Q1026
                        TEMPO BKN007=
201205240420 METAR COR EGLL 240420Z 01004KT 340V050 4000 HZ BKN008 17/15
                        Q1026 TEMPO SCT008=
201205240350 METAR COR EGLL 240350Z 36004KT 320V030 4000 HZ BKN009 18/15
                        Q1026 NOSIG=
201205240320 METAR COR EGLL 240320Z VRB03KT 4000 HZ BKN006 BKN009 18/16
                        Q1026 NOSIG=
201205240250 METAR EGLL 240250Z NIL=
201205240220 METAR COR EGLL 240220Z VRB03KT 4000 HZ BKN016 17/16 Q1025
                        TEMPO BKN008=
201205240150 METAR COR EGLL 240150Z VRB03KT 5000 HZ BKN015 18/16 Q1025
                        TEMPO 4000 BKN012=
201205240120 METAR EGLL 240120Z AUTO 36003KT 3400 HZ NCD 18/16 Q1025=
201205240050 METAR EGLL 240050Z AUTO 35003KT 3600 HZ NCD 18/16 Q1025=
201205240020 METAR EGLL 240020Z AUTO 31004KT 3800 HZ NCD 18/16 Q1025=
201205232350 METAR COR EGLL 232350Z 31002KT 8000 NSC 19/16 Q1025 NOSIG=
201205232320 METAR COR EGLL 232320Z 32003KT 9000 NSC 19/16 Q1025 NOSIG=
201205232250 METAR COR EGLL 232250Z VRB02KT 9000 NSC 19/16 Q1025 NOSIG=
201205232220 METAR COR EGLL 232220Z 05003KT 9000 NSC 20/16 Q1025 NOSIG=
201205232150 METAR COR EGLL 232150Z 05004KT 9000 NSC 20/16 Q1025 NOSIG=
201205232120 METAR COR EGLL 232120Z 05005KT 9000 NSC 21/17 Q1025 NOSIG=
201205232050 METAR COR EGLL 232050Z 04004KT 9000 NSC 22/16 Q1025 NOSIG=
201205232020 METAR COR EGLL 232020Z 04004KT 9000 NSC 22/16 Q1024 NOSIG=
201205231950 METAR COR EGLL 231950Z 06004KT 9000 NSC 22/17 Q1024 NOSIG=
201205231920 METAR COR EGLL 231920Z 05005KT CAVOK 23/16 Q1024 NOSIG=
201205231850 METAR COR EGLL 231850Z 04005KT 360V070 CAVOK 24/16 Q1023
                        NOSIG=
201205231820 METAR COR EGLL 231820Z 02005KT 330V070 CAVOK 25/16 Q1023
                        NOSIG=
201205231750 METAR COR EGLL 231750Z 01005KT 300V070 CAVOK 25/15 Q1023
                        NOSIG=
201205231720 METAR COR EGLL 231720Z 03005KT 340V080 CAVOK 25/15 Q1023
                        NOSIG=
201205231650 METAR COR EGLL 231650Z 02004KT 330V060 CAVOK 26/15 Q1023
                        NOSIG=
201205231620 METAR COR EGLL 231620Z 33004KT 280V020 CAVOK 26/15 Q1023
                        NOSIG=
201205231550 METAR COR EGLL 231550Z 34005KT 280V050 CAVOK 26/15 Q1023
                        NOSIG=
201205231520 METAR COR EGLL 231520Z 34006KT 280V050 CAVOK 26/15 Q1022
                        NOSIG=
201205231450 METAR COR EGLL 231450Z 34004KT 290V060 CAVOK 26/15 Q1022
                        NOSIG=
201205231420 METAR COR EGLL 231420Z 35005KT 280V050 CAVOK 26/15 Q1022
                        NOSIG=
201205231350 METAR COR EGLL 231350Z 33005KT 270V050 CAVOK 26/15 Q1022
                        NOSIG=
201205231320 METAR COR EGLL 231320Z 34004KT 290V040 CAVOK 26/15 Q1022
                        NOSIG=
201205231250 METAR COR EGLL 231250Z VRB05KT CAVOK 25/15 Q1022 NOSIG=
201205231220 METAR COR EGLL 231220Z 02006KT 330V060 CAVOK 25/15 Q1023
                        NOSIG=
201205231150 METAR COR EGLL 231150Z 01005KT 310V090 CAVOK 24/15 Q1023
                        NOSIG=
201205231120 METAR COR EGLL 231120Z 01005KT 340V100 CAVOK 23/15 Q1023
                        NOSIG=
201205231050 METAR COR EGLL 231050Z 35005KT 290V050 CAVOK 22/14 Q1023
                        NOSIG=
201205231020 METAR COR EGLL 231020Z 34005KT 280V030 CAVOK 21/14 Q1023
                        NOSIG=
201205230950 METAR COR EGLL 230950Z 33005KT 280V040 CAVOK 20/14 Q1023
                        NOSIG=
201205230920 METAR COR EGLL 230920Z 34005KT 300V050 9000 NSC 19/14 Q1023
                        NOSIG=
201205230850 METAR COR EGLL 230850Z 35005KT 260V030 9000 NSC 19/14 Q1023
                        NOSIG=
201205230820 METAR COR EGLL 230820Z 35005KT 290V050 9000 FEW015 18/13
                        Q1023 NOSIG=
201205230750 METAR COR EGLL 230750Z 36006KT 310V040 9000 SCT012 17/13
                        Q1023 NOSIG=
201205230720 METAR COR EGLL 230720Z 32004KT 280V360 9000 BKN012 16/13
                        Q1022 BECMG FEW015=
201205230650 METAR COR EGLL 230650Z 33004KT 290V020 9000 SCT012 16/12
                        Q1022 NOSIG=
201205230620 METAR COR EGLL 230620Z 31005KT 270V340 9000 NSC 15/12 Q1022
                        NOSIG=
201205230550 METAR COR EGLL 230550Z 31005KT 9000 NSC 15/12 Q1022 NOSIG=
201205230520 METAR COR EGLL 230520Z 31004KT 9000 NSC 15/12 Q1022 NOSIG=
201205230450 METAR COR EGLL 230450Z 30004KT 9000 NSC 14/12 Q1021 NOSIG=
201205230420 METAR COR EGLL 230420Z 29006KT CAVOK 14/12 Q1021 NOSIG=
201205230350 METAR COR EGLL 230350Z 29004KT CAVOK 14/12 Q1021 NOSIG=
201205230320 METAR COR EGLL 230320Z 29003KT CAVOK 14/11 Q1021 NOSIG=
201205230250 METAR COR EGLL 230250Z 31004KT CAVOK 14/11 Q1021 NOSIG=
201205230220 METAR COR EGLL 230220Z VRB03KT CAVOK 14/11 Q1021 NOSIG=
201205230150 METAR COR EGLL 230150Z VRB03KT CAVOK 15/11 Q1021 NOSIG=
201205230120 METAR EGLL 230120Z AUTO 33004KT 300V020 9999 NCD 15/12 Q1021=
201205230050 METAR EGLL 230050Z AUTO VRB03KT 9999 NCD 15/12 Q1020=
201205230020 METAR EGLL 230020Z AUTO VRB02KT 9999 NCD 16/12 Q1020=
201205222350 METAR COR EGLL 222350Z 02004KT 340V060 CAVOK 16/13 Q1020
                        NOSIG=
201205222320 METAR COR EGLL 222320Z 05004KT CAVOK 17/14 Q1020 NOSIG=
201205222250 METAR COR EGLL 222250Z 02004KT 330V060 CAVOK 18/15 Q1020
                        NOSIG=
201205222220 METAR COR EGLL 222220Z 36004KT CAVOK 20/15 Q1019 NOSIG=
201205222150 METAR COR EGLL 222150Z 32004KT CAVOK 21/15 Q1019 NOSIG=
201205222120 METAR COR EGLL 222120Z 31004KT CAVOK 21/15 Q1019 NOSIG=
201205222050 METAR COR EGLL 222050Z 32003KT CAVOK 22/15 Q1019 NOSIG=
201205222020 METAR COR EGLL 222020Z VRB02KT CAVOK 22/15 Q1018 NOSIG=
201205221950 METAR COR EGLL 221950Z VRB02KT CAVOK 22/15 Q1018 NOSIG=
201205221920 METAR COR EGLL 221920Z 36004KT 340V050 CAVOK 23/14 Q1017
                        NOSIG=
201205221850 METAR COR EGLL 221850Z 36007KT 320V040 9999 FEW040 23/13
                        Q1017 NOSIG=
201205221820 METAR COR EGLL 221820Z 34006KT 310V010 9999 FEW044 24/13
                        Q1017 NOSIG=
201205221750 METAR COR EGLL 221750Z 35007KT 320V030 9999 FEW044 24/13
                        Q1016 NOSIG=
201205221720 METAR COR EGLL 221720Z 35007KT 310V030 9999 FEW048 25/13
                        Q1016 NOSIG=
201205221650 METAR COR EGLL 221650Z 35007KT 310V020 9999 FEW044 25/13
                        Q1016 NOSIG=
201205221620 METAR COR EGLL 221620Z 34007KT 300V020 9999 FEW044 25/13
                        Q1016 NOSIG=
201205221550 METAR COR EGLL 221550Z 34009KT 300V030 9999 FEW044 25/14
                        Q1016 NOSIG=
201205221520 METAR COR EGLL 221520Z 34007KT 300V030 9999 FEW044 25/14
                        Q1016 NOSIG=
201205221450 METAR COR EGLL 221450Z 36008KT 310V040 9999 FEW045 25/13
                        Q1015 NOSIG=
201205221420 METAR COR EGLL 221420Z 01008KT 330V050 9999 FEW044 25/13
                        Q1015 NOSIG=
201205221350 METAR COR EGLL 221350Z 35007KT 270V040 9999 FEW044 25/14
                        Q1015 NOSIG=
201205221320 METAR COR EGLL 221320Z 34009KT 300V020 9999 FEW040 24/13
                        Q1015 NOSIG=
201205221250 METAR COR EGLL 221250Z 34008KT 290V030 CAVOK 24/14 Q1015
                        NOSIG=
201205221220 METAR COR EGLL 221220Z 35008KT 300V040 CAVOK 23/14 Q1015
                        NOSIG=
201205221150 METAR COR EGLL 221150Z 33007KT 290V020 CAVOK 23/14 Q1015
                        NOSIG=
201205221120 METAR COR EGLL 221120Z 36009KT 320V030 CAVOK 22/13 Q1015
                        NOSIG=
201205221050 METAR COR EGLL 221050Z 36008KT 310V030 CAVOK 21/13 Q1015
                        NOSIG=
201205221020 METAR COR EGLL 221020Z 35006KT 310V050 CAVOK 20/13 Q1014
                        NOSIG=
201205220950 METAR COR EGLL 220950Z 36007KT 320V030 9000 NSC 18/12 Q1014
                        NOSIG=
201205220920 METAR COR EGLL 220920Z 32006KT 280V360 8000 NSC 16/12 Q1014
                        NOSIG=
201205220850 METAR COR EGLL 220850Z 34006KT 270V010 7000 SCT014 15/11
                        Q1014 NOSIG=
201205220820 METAR COR EGLL 220820Z 34006KT 310V050 6000 SCT010 SCT013
                        14/11 Q1014 NOSIG=
201205220750 METAR COR EGLL 220750Z 34005KT 300V020 5000 HZ SCT009 BKN010
                        13/10 Q1014 BECMG 7000 NSW SCT011=
201205220720 METAR COR EGLL 220720Z 35005KT 5000 HZ BKN009 BKN010 13/10
                        Q1014 BECMG 7000 NSW SCT010 BKN013=
201205220650 METAR COR EGLL 220650Z 33006KT 300V040 5000 HZ SCT008 BKN009
                        12/10 Q1013 BECMG 7000 NSW SCT010
                        BKN013=
201205220620 METAR COR EGLL 220620Z 33007KT 300V360 4500 HZ BKN008 12/10
                        Q1013 BECMG 6000 NSW SCT010 BKN012=
201205220550 METAR COR EGLL 220550Z 35006KT 310V010 4200 HZ BKN008 12/10
                        Q1013 BECMG 6000 NSW=
201205220520 METAR COR EGLL 220520Z 34005KT 310V020 4400 HZ BKN008 12/09
                        Q1012 BECMG 6000 NSW=
201205220450 METAR COR EGLL 220450Z 36006KT 320V020 4500 HZ BKN008 12/09
                        Q1012 NOSIG=
201205220420 METAR COR EGLL 220420Z 34005KT 310V020 5000 HZ BKN009 12/09
                        Q1012 TEMPO 4000 BKN012=
201205220350 METAR COR EGLL 220350Z 36005KT 310V030 5000 HZ BKN010 12/10
                        Q1012 TEMPO 4500 HZ BKN007=
201205220320 METAR COR EGLL 220320Z 36005KT 6000 BKN010 12/10 Q1012 TEMPO
                        BKN007=
201205220250 METAR COR EGLL 220250Z 36007KT 300V030 6000 BKN010 12/10
                        Q1012 TEMPO BKN007=
201205220220 METAR COR EGLL 220220Z 34006KT 300V020 6000 BKN011 13/10
                        Q1012 TEMPO BKN007=
201205220150 METAR COR EGLL 220150Z 33006KT 290V010 6000 BKN011 13/10
                        Q1012 TEMPO SCT013=
201205220120 METAR EGLL 220120Z AUTO 35006KT 310V040 6000 BKN013/// 13/10
                        Q1012=
201205220050 METAR EGLL 220050Z AUTO 35006KT 310V020 6000 OVC012/// 13/11
                        Q1012=
201205220020 METAR EGLL 220020Z AUTO 33005KT 300V360 5000 BKN012/// 13/11
                        Q1011=
201205212350 METAR COR EGLL 212350Z 33006KT 310V030 6000 BKN013 13/11
                        Q1011 TEMPO SCT015=
201205212320 METAR COR EGLL 212320Z 32005KT 6000 BKN016 13/11 Q1011 TEMPO
                        BKN010=
201205212250 METAR COR EGLL 212250Z 32006KT 7000 FEW018 13/11 Q1011 TEMPO
                        BKN013=
201205212220 METAR COR EGLL 212220Z 31006KT 7000 BKN018 13/11 Q1011 TEMPO
                        BKN013=
201205212150 METAR COR EGLL 212150Z 32006KT 8000 SCT018 14/11 Q1011 NOSIG=
201205212120 METAR COR EGLL 212120Z 32005KT 8000 NSC 14/11 Q1011 NOSIG=
201205212050 METAR COR EGLL 212050Z 32006KT 280V340 8000 FEW018 14/11
                        Q1011 NOSIG=
201205212020 METAR COR EGLL 212020Z 33006KT 300V020 9000 FEW018 15/11
                        Q1010 NOSIG=
201205211950 METAR COR EGLL 211950Z 34006KT 300V020 9999 FEW019 15/11
                        Q1010 NOSIG=
201205211920 METAR COR EGLL 211920Z 34007KT 9999 FEW020 16/11 Q1010 NOSIG=
201205211850 METAR COR EGLL 211850Z 35007KT 310V020 9999 FEW020 16/11
                        Q1010 NOSIG=
201205211820 METAR COR EGLL 211820Z 33007KT 300V020 9999 FEW021 16/11
                        Q1010 NOSIG=
201205211750 METAR COR EGLL 211750Z 34007KT 300V030 9999 FEW022 16/11
                        Q1010 TEMPO BKN014=
201205211720 METAR COR EGLL 211720Z 34007KT 310V020 9999 FEW022 16/11
                        Q1010 NOSIG=
201205211650 METAR COR EGLL 211650Z 34007KT 300V010 9999 FEW022 16/11
                        Q1010 NOSIG=
201205211620 METAR COR EGLL 211620Z 36007KT 330V060 CAVOK 17/11 Q1009
                        NOSIG=
201205211550 METAR COR EGLL 211550Z 34008KT 290V010 CAVOK 17/11 Q1009
                        NOSIG=
201205211520 METAR COR EGLL 211520Z 35007KT 280V030 9999 FEW020 17/11
                        Q1009 NOSIG=
201205211450 METAR COR EGLL 211450Z 32007KT 280V010 9999 SCT020 16/11
                        Q1010 NOSIG=
201205211420 METAR COR EGLL 211420Z 35008KT 310V050 9999 SCT019 16/11
                        Q1010 NOSIG=
201205211350 METAR EGLL 211350Z 36008KT 330V030 9999 BKN019 15/10 Q1010=
201205211320 METAR COR EGLL 211320Z 34009KT 300V030 9999 BKN017 15/10
                        Q1010 NOSIG=
201205211250 METAR COR EGLL 211250Z 35008KT 290V020 9999 BKN016 15/10
                        Q1009 NOSIG=
201205211220 METAR COR EGLL 211220Z 36007KT 310V040 9999 BKN014 14/10
                        Q1009 BECMG SCT014=
201205211150 METAR COR EGLL 211150Z 36007KT 320V030 9999 BKN014 14/09
                        Q1009 BECMG SCT014=
201205211120 METAR COR EGLL 211120Z 33008KT 300V010 9999 BKN013 14/09
                        Q1009 BECMG SCT013=
201205211050 METAR COR EGLL 211050Z 35009KT 310V020 9999 OVC013 13/09
                        Q1010 BECMG SCT013=
201205211020 METAR COR EGLL 211020Z 36007KT 320V020 9999 BKN012 12/09
                        Q1010 BECMG SCT012=
201205210950 METAR COR EGLL 210950Z 36008KT 320V030 9999 BKN011 12/08
                        Q1009 TEMPO SCT014=
201205210920 METAR COR EGLL 210920Z 35007KT 310V030 9999 BKN011 12/08
                        Q1009 TEMPO SCT013=
201205210850 METAR COR EGLL 210850Z 36007KT 310V030 9999 BKN011 11/08
                        Q1010 TEMPO SCT013=
201205210820 METAR COR EGLL 210820Z 36006KT 310V070 9999 BKN011 11/08
                        Q1009 TEMPO SCT013=
201205210750 METAR COR EGLL 210750Z 36006KT 320V030 9000 SCT009 BKN010
                        11/08 Q1009 TEMPO SCT012=
201205210720 METAR COR EGLL 210720Z 36007KT 320V040 9999 SCT009 BKN010
                        11/08 Q1009 TEMPO SCT012=
201205210650 METAR COR EGLL 210650Z 36006KT 9000 BKN008 BKN010 10/08 Q1009
                        TEMPO SCT008 BKN012=
201205210620 METAR COR EGLL 210620Z 01006KT 330V050 9000 SCT008 BKN009
                        10/07 Q1009 TEMPO SCT012=
201205210550 METAR COR EGLL 210550Z 36006KT 330V040 9000 SCT008 BKN009
                        10/07 Q1009 TEMPO BKN011=
201205210520 METAR COR EGLL 210520Z 01006KT 340V050 9000 BKN008 BKN010
                        09/07 Q1009 TEMPO SCT009 BKN013=
201205210450 METAR COR EGLL 210450Z 02005KT 340V050 9000 BKN008 BKN010
                        09/07 Q1008 TEMPO SCT009 BKN013=
201205210420 METAR COR EGLL 210420Z 01006KT 350V060 9000 BKN009 09/07
                        Q1008 NOSIG=
201205210350 METAR COR EGLL 210350Z 01006KT 330V060 9000 BKN009 09/07
                        Q1009 NOSIG=
201205210320 METAR COR EGLL 210320Z 02007KT 340V070 9999 BKN009 09/07
                        Q1008 NOSIG=
201205210250 METAR COR EGLL 210250Z 36007KT 310V030 9999 BKN008 BKN010
                        09/07 Q1008 NOSIG=
201205210220 METAR COR EGLL 210220Z 36007KT 330V050 9999 BKN009 09/07
                        Q1009 NOSIG=
201205210150 METAR EGLL 210150Z AUTO 02007KT 350V060 9999 OVC010/// 10/07
                        Q1009=
201205210120 METAR EGLL 210120Z AUTO 03008KT 340V070 9999 OVC011/// 10/07
                        Q1009=
201205210050 METAR EGLL 210050Z AUTO 02006KT 340V060 9999 BKN011/// 10/07
                        Q1009=
201205210020 METAR COR EGLL 210020Z 02006KT 340V050 9999 BKN013 10/07
                        Q1009 TEMPO BKN008=
201205202350 METAR COR EGLL 202350Z 01006KT 310V040 9999 OVC012 10/07
                        Q1009 TEMPO BKN008=
201205202320 METAR COR EGLL 202320Z 01008KT 330V050 9999 OVC013 10/07
                        Q1010 TEMPO BKN008=
201205202250 METAR COR EGLL 202250Z 02006KT 340V060 9999 OVC013 10/08
                        Q1010 TEMPO BKN008=
201205202220 METAR COR EGLL 202220Z 02007KT 340V060 9999 OVC012 10/08
                        Q1010 TEMPO BKN008=
201205202150 METAR COR EGLL 202150Z 04007KT 360V070 9999 OVC013 10/07
                        Q1010 TEMPO BKN008=
201205202120 METAR COR EGLL 202120Z 03007KT 9999 BKN013 11/08 Q1010 TEMPO
                        BKN007=
201205202050 METAR COR EGLL 202050Z 03006KT 340V060 9999 BKN011 11/08
                        Q1010 TEMPO BKN007=
201205202020 METAR COR EGLL 202020Z 02007KT 350V070 9999 BKN011 11/08
                        Q1010 TEMPO BKN008=
201205201950 METAR COR EGLL 201950Z 01007KT 340V050 9999 OVC011 11/08
                        Q1010 TEMPO BKN008=
201205201920 METAR COR EGLL 201920Z 03007KT 340V070 9999 BKN011 11/08
                        Q1010 TEMPO BKN008=
201205201850 METAR COR EGLL 201850Z 01007KT 350V070 9999 BKN014 11/08
                        Q1010 TEMPO BKN009=
201205201820 METAR COR EGLL 201820Z 02007KT 9999 BKN014 12/08 Q1010 NOSIG=
201205201750 METAR COR EGLL 201750Z 02007KT 340V060 9999 BKN015 12/08
                        Q1010 TEMPO BKN014=
201205201720 METAR COR EGLL 201720Z 03007KT 340V060 9999 BKN014 12/08
                        Q1009 TEMPO SCT014=
201205201650 METAR COR EGLL 201650Z 01009KT 330V050 9999 BKN014 12/08
                        Q1009 TEMPO SCT014=
201205201620 METAR COR EGLL 201620Z 02005KT 340V080 9999 BKN014 12/08
                        Q1010 TEMPO SCT014=
201205201550 METAR COR EGLL 201550Z 02008KT 340V050 9999 BKN014 12/08
                        Q1010 TEMPO SCT014=
201205201520 METAR COR EGLL 201520Z 01007KT 330V050 9999 OVC014 12/08
                        Q1010 TEMPO SCT014=
201205201450 METAR COR EGLL 201450Z 03008KT 010V070 9999 BKN014 12/08
                        Q1010 TEMPO SCT014=
201205201420 METAR COR EGLL 201420Z 02008KT 340V060 9999 BKN013 12/08
                        Q1010 BECMG SCT014=
201205201350 METAR COR EGLL 201350Z 01008KT 340V050 9999 BKN014 12/08
                        Q1010 BECMG SCT014=
201205201320 METAR COR EGLL 201320Z 03007KT 350V080 9999 BKN013 11/08
                        Q1010 BECMG SCT014=
201205201250 METAR COR EGLL 201250Z 01008KT 340V050 9999 OVC012 11/08
                        Q1010 TEMPO SCT014=
201205201220 METAR COR EGLL 201220Z 01008KT 340V040 9999 OVC012 11/08
                        Q1011 TEMPO SCT014=
201205201150 METAR COR EGLL 201150Z 01007KT 340V050 9999 OVC012 11/08
                        Q1011 TEMPO SCT014=
201205201120 METAR EGLL 201120Z 03006KT 350V080 9999 BKN011 11/07 Q1011=
201205201050 METAR COR EGLL 201050Z 02008KT 350V050 9999 BKN011 11/07
                        Q1011 BECMG SCT014=
201205201020 METAR COR EGLL 201020Z 04007KT 360V060 9999 BKN011 10/07
                        Q1011 BECMG SCT012=
201205200950 METAR COR EGLL 200950Z 04007KT 360V080 9999 OVC010 10/07
                        Q1011 TEMPO SCT013=
201205200920 METAR COR EGLL 200920Z 03007KT 350V060 9999 OVC011 10/07
                        Q1011 TEMPO SCT014=
201205200850 METAR COR EGLL 200850Z 03008KT 360V070 9999 BKN011 10/07
                        Q1011 TEMPO SCT014=
201205200820 METAR COR EGLL 200820Z 04006KT 010V070 9999 BKN012 10/07
                        Q1011 NOSIG=
201205200750 METAR COR EGLL 200750Z 05007KT 020V080 9999 BKN012 10/07
                        Q1012 NOSIG=
201205200720 METAR COR EGLL 200720Z 05007KT 020V080 9999 BKN010 10/07
                        Q1012 NOSIG=
201205200650 METAR COR EGLL 200650Z 05008KT 010V070 9999 SCT010 BKN011
                        09/06 Q1011 NOSIG=
201205200620 METAR COR EGLL 200620Z 06006KT 010V080 9999 FEW010 BKN012
                        09/06 Q1011 TEMPO BKN009=
201205200550 METAR COR EGLL 200550Z 03008KT 9999 FEW009 BKN010 09/06 Q1011
                        TEMPO BKN009=
201205200520 METAR COR EGLL 200520Z 04007KT 010V070 9999 BKN011 09/06
                        Q1011 NOSIG=
201205200450 METAR COR EGLL 200450Z 06007KT 9999 BKN012 09/06 Q1011 NOSIG=
201205200420 METAR COR EGLL 200420Z 05009KT 020V090 9999 BKN012 09/06
                        Q1011 NOSIG=
201205200350 METAR COR EGLL 200350Z 05006KT 360V080 9999 BKN013 09/06
                        Q1011 NOSIG=
201205200320 METAR COR EGLL 200320Z 05007KT 020V090 9999 BKN014 09/06
                        Q1011 NOSIG=
201205200250 METAR COR EGLL 200250Z 04007KT 360V070 9999 BKN014 09/06
                        Q1011 NOSIG=
201205200220 METAR COR EGLL 200220Z 06006KT 030V090 9999 BKN012 09/06
                        Q1012 NOSIG=
201205200150 METAR COR EGLL 200150Z 05006KT 010V080 9999 BKN011 09/06
                        Q1011 NOSIG=
201205200120 METAR EGLL 200120Z AUTO 04008KT 9999 OVC011/// 09/06 Q1012=
201205200050 METAR EGLL 200050Z AUTO 04008KT 010V080 9999 OVC012/// 09/06
                        Q1012=
201205200020 METAR EGLL 200020Z AUTO 06007KT 9999 OVC013/// 09/06 Q1012=
201205192350 METAR COR EGLL 192350Z 05006KT 020V100 9999 BKN014 09/06
                        Q1012 TEMPO SCT014 BKN016=
201205192320 METAR COR EGLL 192320Z 04007KT 360V070 9999 SCT014 09/06
                        Q1012 TEMPO BKN013=
201205192250 METAR COR EGLL 192250Z 05009KT 9999 BKN014 10/07 Q1012 TEMPO
                        SCT014 BKN015=
201205192220 METAR COR EGLL 192220Z 04007KT 360V070 9999 BKN014 10/07
                        Q1012 TEMPO BKN015=
201205192150 METAR COR EGLL 192150Z 04008KT 360V070 9999 BKN014 10/07
                        Q1012 TEMPO BKN015=
201205192120 METAR COR EGLL 192120Z 05008KT 9999 BKN013 11/07 Q1012 TEMPO
                        SCT013 BKN016=
201205192050 METAR COR EGLL 192050Z 05008KT 010V080 9999 BKN013 11/08
                        Q1012 TEMPO SCT013 BKN016=
201205192020 METAR COR EGLL 192020Z 05007KT 010V070 9999 BKN014 12/08
                        Q1012 TEMPO SCT014 BKN018=
201205191950 METAR COR EGLL 191950Z 03007KT 340V060 9999 SCT018 12/08
                        Q1011 TEMPO BKN014=
201205191920 METAR COR EGLL 191920Z 03007KT 360V070 9999 FEW018 12/08
                        Q1011 NOSIG=
201205191850 METAR COR EGLL 191850Z 02007KT 340V070 9999 FEW030 13/09
                        Q1011 NOSIG=
201205191820 METAR COR EGLL 191820Z 02008KT 350V060 9999 FEW037 14/09
                        Q1011 NOSIG=
201205191750 METAR COR EGLL 191750Z 02007KT 340V060 9999 FEW025 SCT031
                        14/09 Q1010 NOSIG=
201205191720 METAR COR EGLL 191720Z 02007KT 340V060 9999 FEW025 SCT031
                        15/09 Q1010 NOSIG=
201205191650 METAR COR EGLL 191650Z 03008KT 350V060 9999 SCT030 15/09
                        Q1010 NOSIG=
201205191620 METAR COR EGLL 191620Z 02005KT 330V060 9999 FEW033 16/09
                        Q1010 NOSIG=
201205191550 METAR COR EGLL 191550Z 36006KT 340V060 9999 FEW030 16/09
                        Q1010 NOSIG=
201205191520 METAR COR EGLL 191520Z 03006KT 340V070 9999 FEW031 SCT046
                        16/09 Q1010 NOSIG=
201205191450 METAR COR EGLL 191450Z 36006KT 330V040 9999 FEW027 SCT038
                        16/09 Q1010 NOSIG=
201205191420 METAR COR EGLL 191420Z 03004KT 340V070 9999 FEW027 SCT035
                        16/08 Q1010 NOSIG=
201205191350 METAR COR EGLL 191350Z VRB02KT 9999 SCT037 16/08 Q1010 NOSIG=
201205191320 METAR COR EGLL 191320Z VRB03KT 9999 SCT033 BKN047 16/09 Q1010
                        NOSIG=
201205191250 METAR COR EGLL 191250Z VRB02KT 9999 BKN030 16/08 Q1010 NOSIG=
201205191220 METAR COR EGLL 191220Z VRB03KT 9999 SCT029 17/09 Q1010 NOSIG=
201205191150 METAR COR EGLL 191150Z VRB02KT 9999 BKN028 16/09 Q1010 NOSIG=
201205191120 METAR COR EGLL 191120Z 32004KT 290V350 9999 FEW028 SCT037
                        BKN049 15/08 Q1010 NOSIG=
201205191050 METAR COR EGLL 191050Z VRB03KT 9999 FEW029 SCT042 BKN046
                        15/08 Q1010 NOSIG=
201205191020 METAR COR EGLL 191020Z VRB03KT 9999 SCT022 BKN044 14/08 Q1010
                        NOSIG=
201205190950 METAR COR EGLL 190950Z 29007KT 240V330 9999 SCT021 BKN048
                        15/09 Q1010 NOSIG=
201205190920 METAR COR EGLL 190920Z 27007KT 230V290 9000 FEW016 SCT021
                        15/09 Q1010 NOSIG=
201205190850 METAR COR EGLL 190850Z 23008KT 210V270 9000 FEW013 SCT015
                        14/10 Q1010 NOSIG=
201205190820 METAR COR EGLL 190820Z 24008KT 210V270 8000 FEW013 SCT022
                        14/10 Q1010 NOSIG=
201205190750 METAR COR EGLL 190750Z 23009KT 6000 SCT010 BKN048 13/09 Q1009
                        NOSIG=
201205190720 METAR COR EGLL 190720Z 22007KT 190V260 6000 FEW009 SCT011
                        BKN047 12/09 Q1009 NOSIG=
201205190650 METAR COR EGLL 190650Z 22007KT 6000 FEW008 SCT010 BKN046
                        12/09 Q1009 NOSIG=
201205190620 METAR COR EGLL 190620Z 21006KT 180V260 6000 FEW008 SCT009
                        BKN045 11/09 Q1008 NOSIG=
201205190550 METAR COR EGLL 190550Z 23007KT 190V270 6000 FEW006 BKN008
                        BKN045 11/09 Q1008 BECMG SCT012=
201205190520 METAR COR EGLL 190520Z 21005KT 180V240 6000 FEW010 BKN045
                        12/10 Q1008 TEMPO BKN010=
201205190450 METAR COR EGLL 190450Z 22005KT 6000 BKN045 12/09 Q1008 TEMPO
                        4500 HZ BKN010=
201205190420 METAR COR EGLL 190420Z 22005KT 5000 HZ BKN044 12/10 Q1008
                        TEMPO 4500 HZ BKN010=
201205190350 METAR COR EGLL 190350Z 24008KT 6000 BKN040 12/10 Q1007 TEMPO
                        BKN010=
201205190320 METAR COR EGLL 190320Z 23009KT 6000 FEW010 BKN040 12/10 Q1007
                        TEMPO BKN010=
201205190250 METAR EGLL 190250Z AUTO 23008KT 7000 FEW026/// OVC037///
                        12/10 Q1007=
201205190220 METAR EGLL 190220Z AUTO 24008KT 7000 SCT030/// BKN034///
                        12/11 Q1007=
201205190150 METAR EGLL 190150Z AUTO 23007KT 7000 SCT005/// BKN035///
                        12/11 Q1007=
201205190120 METAR COR EGLL 190120Z 22006KT 6000 BKN008 12/11 Q1006 BECMG
                        SCT008 BKN013=
201205190050 METAR COR EGLL 190050Z 22007KT 5000 HZ BKN005 12/11 Q1006
                        BECMG 7000 SCT005 BKN010=
201205190020 METAR COR EGLL 190020Z 22006KT 4000 HZ OVC003 12/11 Q1006
                        TEMPO 6000 SCT003 BKN006=
201205182350 METAR COR EGLL 182350Z 21006KT 2400 -DZ OVC003 12/11 Q1006
                        NOSIG=
201205182320 METAR COR EGLL 182320Z 19008KT 4000 HZ OVC003 12/11 Q1006
                        NOSIG=
201205182250 METAR COR EGLL 182250Z 19007KT 8000 BKN005 12/10 Q1006 BECMG
                        BKN003=
201205182220 METAR COR EGLL 182220Z 19007KT 160V250 9999 BKN008 12/10
                        Q1006 TEMPO SCT008 BKN012=
201205182150 METAR COR EGLL 182150Z 18008KT 160V230 9000 BKN010 12/10
                        Q1005 TEMPO SCT010 BKN015=
201205182120 METAR COR EGLL 182120Z 18009KT 9999 BKN016 13/10 Q1005 TEMPO
                        BKN011=
201205182050 METAR COR EGLL 182050Z 18007KT 9999 SCT012 BKN022 12/10 Q1005
                        TEMPO -DZ BKN008=
201205182020 METAR COR EGLL 182020Z 19008KT 9999 SCT011 BKN018 12/11 Q1005
                        TEMPO 5000 -RADZ BKN008=
201205181950 METAR COR EGLL 181950Z 18008KT 150V250 9999 -RA FEW010 BKN015
                        12/11 Q1005 TEMPO 4800 -RADZ BKN008=
201205181920 METAR COR EGLL 181920Z 18009KT 130V270 9999 BKN010 13/11
                        Q1005 TEMPO 4800 -RADZ BKN008=
201205181850 METAR COR EGLL 181850Z 18009KT 9999 -RA SCT012 SCT018 13/11
                        Q1004 TEMPO BKN008=
201205181820 METAR COR EGLL 181820Z 18008KT 9999 -RA BKN012 13/11 Q1004
                        TEMPO SCT012 BKN025=
201205181750 METAR COR EGLL 181750Z 20009G19KT 170V240 9999 BKN014 14/11
                        Q1004 NOSIG=
201205181720 METAR COR EGLL 181720Z 16009KT 090V200 9999 SCT014 BKN033
                        14/11 Q1004 TEMPO BKN014=
201205181650 METAR COR EGLL 181650Z 19007KT 170V230 9999 -SHRA BKN015
                        BKN026 14/11 Q1004 TEMPO BKN012=
201205181620 METAR COR EGLL 181620Z 19007KT 120V250 9999 BKN015 15/10
                        Q1004 TEMPO BKN012=
201205181550 METAR COR EGLL 181550Z 17008KT 140V260 9999 BKN019 14/11
                        Q1004 TEMPO BKN014=
201205181520 METAR COR EGLL 181520Z 16006KT 110V230 9999 FEW018 SCT022
                        BKN046 15/10 Q1004 TEMPO BKN014=
201205181450 METAR COR EGLL 181450Z 18008KT 9999 FEW019 BKN028 14/10 Q1003
                        NOSIG=
201205181420 METAR COR EGLL 181420Z 17007KT 9999 BKN029 15/09 Q1003 NOSIG=
201205181350 METAR COR EGLL 181350Z 16006KT 9999 SCT032 BKN039 15/08 Q1003
                        NOSIG=
201205181320 METAR COR EGLL 181320Z 14007KT 090V160 9999 SCT033 BKN041
                        15/07 Q1003 NOSIG=
201205181250 METAR COR EGLL 181250Z 10006KT 9999 SCT033 BKN037 16/09 Q1003
                        NOSIG=
201205181220 METAR COR EGLL 181220Z 10007KT 9999 SCT033 BKN038 15/08 Q1003
                        NOSIG=
201205181150 METAR COR EGLL 181150Z 10007KT 070V140 9999 FEW032 16/08
                        Q1003 NOSIG=
201205181120 METAR COR EGLL 181120Z 06008KT 020V080 9999 FEW031 16/08
                        Q1003 NOSIG=
201205181050 METAR COR EGLL 181050Z 08007KT 040V120 9999 FEW027 15/08
                        Q1003 NOSIG=
201205181020 METAR COR EGLL 181020Z 07008KT 9999 FEW027 15/08 Q1003 NOSIG=
201205180950 METAR COR EGLL 180950Z 08007KT 9999 FEW027 14/08 Q1003 NOSIG=
201205180920 METAR COR EGLL 180920Z 08007KT 040V110 9999 FEW027 14/08
                        Q1003 NOSIG=
201205180850 METAR COR EGLL 180850Z 07008KT 9999 FEW025 13/08 Q1003 NOSIG=
201205180820 METAR COR EGLL 180820Z 07008KT CAVOK 13/08 Q1003 NOSIG=
201205180750 METAR COR EGLL 180750Z 06008KT CAVOK 13/07 Q1003 NOSIG=
201205180720 METAR COR EGLL 180720Z 07008KT CAVOK 12/07 Q1003 NOSIG=
201205180650 METAR COR EGLL 180650Z 06008KT CAVOK 11/07 Q1003 NOSIG=
201205180620 METAR COR EGLL 180620Z 06007KT CAVOK 11/07 Q1003 NOSIG=
201205180550 METAR COR EGLL 180550Z 06007KT CAVOK 10/06 Q1003 NOSIG=
201205180520 METAR COR EGLL 180520Z 06006KT CAVOK 09/06 Q1003 NOSIG=
201205180450 METAR COR EGLL 180450Z 07007KT CAVOK 09/05 Q1003 NOSIG=
201205180420 METAR COR EGLL 180420Z 06007KT CAVOK 09/05 Q1004 NOSIG=
201205180350 METAR COR EGLL 180350Z 06008KT CAVOK 09/05 Q1004 NOSIG=
201205180320 METAR COR EGLL 180320Z 06007KT CAVOK 09/05 Q1004 NOSIG=
201205180250 METAR EGLL 180250Z AUTO 06008KT 9999 NCD 10/05 Q1004=
201205180220 METAR COR EGLL 180220Z 06008KT CAVOK 10/05 Q1005 NOSIG=
201205180150 METAR COR EGLL 180150Z 06008KT CAVOK 10/05 Q1005 NOSIG=
201205180120 METAR EGLL 180120Z AUTO 07010KT 9999 NCD 10/06 Q1006=
201205180050 METAR EGLL 180050Z AUTO 06009KT 9999 NCD 11/06 Q1006=
201205180020 METAR EGLL 180020Z AUTO 06007KT 9999 NCD 11/06 Q1007=
201205172350 METAR COR EGLL 172350Z 06007KT CAVOK 11/06 Q1007 NOSIG=
201205172320 METAR COR EGLL 172320Z 07007KT CAVOK 10/06 Q1008 NOSIG=
201205172250 METAR COR EGLL 172250Z 06008KT CAVOK 11/05 Q1009 NOSIG=
201205172220 METAR COR EGLL 172220Z 07007KT CAVOK 11/05 Q1009 NOSIG=
201205172150 METAR COR EGLL 172150Z 07007KT CAVOK 11/05 Q1009 NOSIG=
201205172120 METAR COR EGLL 172120Z 08007KT CAVOK 12/05 Q1009 NOSIG=
201205172050 METAR COR EGLL 172050Z 08007KT CAVOK 12/06 Q1010 NOSIG=
201205172020 METAR COR EGLL 172020Z 08009KT CAVOK 12/06 Q1010 NOSIG=
201205171950 METAR COR EGLL 171950Z 09011KT 9999 FEW040 12/05 Q1010 NOSIG=
201205171920 METAR COR EGLL 171920Z 11009KT CAVOK 12/03 Q1010 NOSIG=
201205171850 METAR COR EGLL 171850Z 12011KT CAVOK 12/04 Q1011 NOSIG=
201205171820 METAR COR EGLL 171820Z 11011KT CAVOK 13/03 Q1011 NOSIG=
201205171750 METAR COR EGLL 171750Z 11012KT CAVOK 13/02 Q1011 NOSIG=
201205171720 METAR COR EGLL 171720Z 12010KT CAVOK 13/02 Q1012 NOSIG=
201205171650 METAR COR EGLL 171650Z 13011KT 090V160 CAVOK 14/02 Q1012
                        NOSIG=
201205171620 METAR COR EGLL 171620Z 14008KT 100V200 9999 FEW048 15/02
                        Q1013 NOSIG=
201205171550 METAR COR EGLL 171550Z 14006KT 060V180 9999 FEW048 15/03
                        Q1013 NOSIG=
201205171520 METAR COR EGLL 171520Z 11008KT 050V180 9999 FEW044 15/03
                        Q1014 NOSIG=
201205171450 METAR COR EGLL 171450Z 13005KT 040V190 9999 FEW048 14/03
                        Q1014 NOSIG=
201205171420 METAR COR EGLL 171420Z 15007KT 110V190 9999 FEW048 14/02
                        Q1015 NOSIG=
201205171350 METAR COR EGLL 171350Z 18007KT 130V210 9999 FEW048 14/02
                        Q1015 NOSIG=
201205171320 METAR COR EGLL 171320Z 13007KT 090V160 9999 FEW044 14/02
                        Q1016 NOSIG=
201205171250 METAR COR EGLL 171250Z 12008KT 090V190 9999 FEW048 13/02
                        Q1016 NOSIG=
201205171220 METAR COR EGLL 171220Z 14006KT 090V190 9999 FEW044 13/02
                        Q1017 NOSIG=
201205171150 METAR COR EGLL 171150Z 11007KT CAVOK 13/02 Q1017 NOSIG=
201205171120 METAR COR EGLL 171120Z 14007KT CAVOK 13/02 Q1018 NOSIG=
201205171050 METAR COR EGLL 171050Z 13007KT 090V180 9999 FEW030 13/03
                        Q1018 NOSIG=
201205171020 METAR COR EGLL 171020Z 14007KT 100V190 9999 FEW020 12/03
                        Q1018 NOSIG=
201205170950 METAR COR EGLL 170950Z 15008KT CAVOK 12/03 Q1019 NOSIG=
201205170920 METAR COR EGLL 170920Z 15007KT 9999 FEW030 11/04 Q1019 NOSIG=
201205170850 METAR COR EGLL 170850Z 15006KT 130V190 CAVOK 11/04 Q1019
                        NOSIG=
201205170820 METAR COR EGLL 170820Z 17007KT 9999 FEW020 11/05 Q1020 NOSIG=
201205170750 METAR COR EGLL 170750Z 17007KT 9999 FEW020 10/06 Q1020 NOSIG=
201205170720 METAR COR EGLL 170720Z 16006KT 130V190 CAVOK 10/06 Q1020
                        NOSIG=
201205170650 METAR COR EGLL 170650Z 16005KT 130V190 CAVOK 09/06 Q1020
                        NOSIG=
201205170620 METAR COR EGLL 170620Z 15004KT CAVOK 09/06 Q1020 NOSIG=
201205170550 METAR COR EGLL 170550Z 16004KT CAVOK 08/06 Q1020 NOSIG=
201205170520 METAR COR EGLL 170520Z 16004KT 130V210 CAVOK 07/05 Q1021
                        NOSIG=
201205170450 METAR COR EGLL 170450Z VRB03KT CAVOK 07/05 Q1021 NOSIG=
201205170420 METAR COR EGLL 170420Z 15004KT 090V190 CAVOK 07/05 Q1021
                        NOSIG=
201205170350 METAR COR EGLL 170350Z 15002KT CAVOK 07/05 Q1021 NOSIG=
201205170320 METAR COR EGLL 170320Z 15003KT CAVOK 06/04 Q1022 NOSIG=
201205170250 METAR COR EGLL 170250Z 17003KT CAVOK 06/04 Q1022 NOSIG=
201205170220 METAR COR EGLL 170220Z 00000KT CAVOK 07/05 Q1022 NOSIG=
201205170150 METAR COR EGLL 170150Z VRB02KT CAVOK 07/05 Q1022 NOSIG=
201205170120 METAR EGLL 170120Z AUTO 21004KT 9999 NCD 07/05 Q1023=
201205170050 METAR EGLL 170050Z AUTO 21004KT 9999 NCD 07/05 Q1023=
201205170020 METAR EGLL 170020Z AUTO 20005KT 9999 NCD 08/05 Q1023=
201205162350 METAR COR EGLL 162350Z 22004KT CAVOK 08/05 Q1023 NOSIG=
201205162320 METAR COR EGLL 162320Z 22006KT CAVOK 09/05 Q1024 NOSIG=
201205162250 METAR COR EGLL 162250Z 21007KT CAVOK 10/05 Q1024 NOSIG=
201205162220 METAR COR EGLL 162220Z 21006KT 180V250 CAVOK 10/05 Q1024
                        NOSIG=
201205162150 METAR COR EGLL 162150Z 21007KT 170V240 CAVOK 10/05 Q1024
                        NOSIG=
201205162120 METAR COR EGLL 162120Z 19007KT 170V240 CAVOK 11/05 Q1024
                        NOSIG=
201205162050 METAR COR EGLL 162050Z 20007KT 160V240 CAVOK 12/05 Q1024
                        NOSIG=
201205162020 METAR COR EGLL 162020Z 16007KT 120V190 CAVOK 12/05 Q1024
                        NOSIG=
201205161950 METAR COR EGLL 161950Z VRB03KT CAVOK 12/03 Q1024 NOSIG=
201205161920 METAR COR EGLL 161920Z VRB03KT CAVOK 13/01 Q1024 NOSIG=
201205161850 METAR COR EGLL 161850Z 00000KT CAVOK 13/01 Q1024 NOSIG=
201205161820 METAR COR EGLL 161820Z VRB03KT CAVOK 13/01 Q1024 NOSIG=
201205161750 METAR COR EGLL 161750Z 05004KT CAVOK 14/01 Q1024 NOSIG=
201205161720 METAR COR EGLL 161720Z 35004KT 300V020 CAVOK 14/01 Q1024
                        NOSIG=
201205161650 METAR COR EGLL 161650Z VRB02KT CAVOK 14/02 Q1025 NOSIG=
201205161620 METAR COR EGLL 161620Z 31005KT 260V340 CAVOK 14/01 Q1025
                        NOSIG=
201205161550 METAR COR EGLL 161550Z 29006KT 250V340 CAVOK 14/01 Q1025
                        NOSIG=
201205161520 METAR COR EGLL 161520Z 31005KT 250V360 CAVOK 13/02 Q1025
                        NOSIG=
201205161450 METAR COR EGLL 161450Z 28008KT 240V330 CAVOK 13/00 Q1025
                        NOSIG=
201205161420 METAR COR EGLL 161420Z 29008KT 9999 FEW048 13/01 Q1026 NOSIG=
201205161350 METAR COR EGLL 161350Z 28010KT 9999 FEW048 13/01 Q1026 NOSIG=
201205161320 METAR COR EGLL 161320Z 29010KT 240V340 9999 FEW047 13/02
                        Q1026 NOSIG=
201205161250 METAR COR EGLL 161250Z 29009KT 9999 FEW047 13/02 Q1026 NOSIG=
201205161220 METAR COR EGLL 161220Z 27009KT 9999 FEW047 12/02 Q1026 NOSIG=
201205161150 METAR COR EGLL 161150Z 28011KT 250V320 9999 FEW045 12/02
                        Q1026 NOSIG=
201205161120 METAR COR EGLL 161120Z 27009KT 240V310 9999 FEW045 11/01
                        Q1026 NOSIG=
201205161050 METAR COR EGLL 161050Z 30008KT 280V340 9999 SCT045 12/02
                        Q1026 NOSIG=
201205161020 METAR COR EGLL 161020Z 31005KT 260V340 9999 SCT044 11/01
                        Q1026 NOSIG=
201205160950 METAR COR EGLL 160950Z 31007KT 270V350 9999 SCT043 11/01
                        Q1026 NOSIG=
201205160920 METAR COR EGLL 160920Z 31008KT 270V340 9999 SCT038 10/01
                        Q1026 NOSIG=
201205160850 METAR COR EGLL 160850Z 31008KT 270V360 9999 SCT035 10/02
                        Q1026 NOSIG=
201205160820 METAR COR EGLL 160820Z 31007KT 280V010 9999 FEW029 09/03
                        Q1026 NOSIG=
201205160750 METAR COR EGLL 160750Z 30008KT 9999 FEW020 09/03 Q1026 NOSIG=
201205160720 METAR COR EGLL 160720Z 29007KT CAVOK 08/03 Q1026 NOSIG=
201205160650 METAR COR EGLL 160650Z 29007KT CAVOK 07/02 Q1026 NOSIG=
201205160620 METAR COR EGLL 160620Z 28007KT CAVOK 06/02 Q1026 NOSIG=
201205160550 METAR COR EGLL 160550Z 29006KT CAVOK 05/02 Q1025 NOSIG=
201205160520 METAR COR EGLL 160520Z 29005KT 270V330 CAVOK 04/02 Q1025
                        NOSIG=
201205160450 METAR COR EGLL 160450Z 29004KT CAVOK 04/02 Q1025 NOSIG=
201205160420 METAR COR EGLL 160420Z 28005KT CAVOK 03/01 Q1025 NOSIG=
201205160350 METAR COR EGLL 160350Z 28007KT CAVOK 03/01 Q1025 NOSIG=
201205160320 METAR COR EGLL 160320Z 28006KT CAVOK 03/01 Q1025 NOSIG=
201205160250 METAR COR EGLL 160250Z 28006KT CAVOK 03/02 Q1025 NOSIG=
201205160220 METAR COR EGLL 160220Z 29006KT CAVOK 03/02 Q1024 NOSIG=
201205160150 METAR COR EGLL 160150Z 28006KT CAVOK 04/02 Q1024 NOSIG=
201205160120 METAR EGLL 160120Z AUTO 29004KT 9999 NCD 04/02 Q1024=
201205160050 METAR EGLL 160050Z AUTO 27006KT 9999 NCD 04/02 Q1024=
201205160020 METAR EGLL 160020Z AUTO 29006KT 9999 NCD 04/02 Q1024=
201205152350 METAR COR EGLL 152350Z 29007KT CAVOK 06/03 Q1024 NOSIG=
201205152320 METAR COR EGLL 152320Z 29006KT CAVOK 06/03 Q1024 NOSIG=
201205152250 METAR COR EGLL 152250Z 30004KT CAVOK 07/02 Q1023 NOSIG=
201205152220 METAR COR EGLL 152220Z 31004KT CAVOK 07/03 Q1023 NOSIG=
201205152150 METAR COR EGLL 152150Z 29006KT CAVOK 07/03 Q1023 NOSIG=
201205152120 METAR COR EGLL 152120Z 31006KT 9999 FEW046 08/03 Q1023 NOSIG=
201205152050 METAR COR EGLL 152050Z 29006KT 9999 SCT045 08/04 Q1022 NOSIG=
201205152020 METAR COR EGLL 152020Z 29005KT 9999 FEW045 08/03 Q1022 NOSIG=
201205151950 METAR COR EGLL 151950Z 31004KT 9999 FEW046 08/03 Q1022 NOSIG=
201205151920 METAR COR EGLL 151920Z 34004KT 300V010 9999 FEW045 08/03
                        Q1021 NOSIG=
201205151850 METAR COR EGLL 151850Z 36006KT 9999 FEW023 SCT041 09/03 Q1021
                        NOSIG=
201205151820 METAR COR EGLL 151820Z 33011KT 310V040 9999 FEW030 SCT042
                        09/04 Q1020 NOSIG=
201205151750 METAR COR EGLL 151750Z 32008KT 290V350 9999 SCT025 09/04
                        Q1020 NOSIG=
201205151720 METAR COR EGLL 151720Z 34006KT 300V020 9999 FEW020CB SCT035
                        09/05 Q1019 NOSIG=
201205151650 METAR COR EGLL 151650Z 34008KT 310V030 9999 6000NE SHRA SCT026
                        SCT037CB 09/05 Q1019 TEMPO NSW=
201205151620 METAR COR EGLL 151620Z 34005KT 310V020 9999 FEW017 SCT037CB
                        09/05 Q1018 RESHRA TEMPO 4000 TSGS
                        +SHRA=
201205151550 METAR COR EGLL 151550Z 36015G26KT 9999 5000N SHRA SCT025CB
                        SCT038 11/05 Q1018 TEMPO TSRA=
201205151520 METAR COR EGLL 151520Z 31011KT 9999 SCT030CB 10/04 Q1017
                        TEMPO 33015G30KT 4000 TSGS=
201205151450 METAR COR EGLL 151450Z 31011KT 280V350 9999 SCT030CB SCT043
                        10/05 Q1017 TEMPO 35020G30KT 4000
                        TSGS=
201205151420 METAR COR EGLL 151420Z 35008KT 320V030 9999 5000SE -SHRA
                        SCT027CB SCT039 08/05 Q1017 RESHRA
                        TEMPO 35015G27KT 4000 +SHGS=
201205151350 METAR COR EGLL 151350Z 30006KT 9999 VCSH SCT018CB SCT040
                        08/03 Q1016 RESHGS TEMPO 35020G30KT
                        4000 TSGS=
201205151320 METAR COR EGLL 151320Z 01011KT 9999 VCTS SCT018CB SCT038
                        11/03 Q1015 TEMPO 36020G32KT 4000
                        TSGS=
201205151250 METAR COR EGLL 151250Z 33011KT 9999 FEW036 SCT043 12/04 Q1015
                        TEMPO 33020G30KT 4000 TSGS=
201205151220 METAR COR EGLL 151220Z 31012KT 270V340 9999 FEW033 SCT040
                        12/03 Q1015 TEMPO 33018G30KT 4500
                        +SHRA=
201205151150 METAR COR EGLL 151150Z 33010KT 290V020 9999 FEW025 SCT030
                        10/04 Q1015 TEMPO 33017G27KT SHRA=
201205151120 METAR COR EGLL 151120Z 32012KT 290V350 9999 FEW022 SCT026
                        10/05 Q1015 TEMPO 33017G27KT SHRA=
201205151050 METAR COR EGLL 151050Z 31010KT 9999 SCT019 SCT024 09/05 Q1015
                        TEMPO 32017G27KT SHRA=
201205151020 METAR COR EGLL 151020Z 32011KT 9999 SCT022 SCT030 09/05 Q1014
                        NOSIG=
201205150950 METAR COR EGLL 150950Z 31011KT 9999 -SHRA SCT018 SCT027 07/04
                        Q1014 NOSIG=
201205150920 METAR COR EGLL 150920Z 31011KT 9999 -SHRA FEW016 SCT020 BKN031
                        08/05 Q1013 NOSIG=
201205150850 METAR COR EGLL 150850Z 30009KT 9999 SCT015 SCT034 07/05 Q1013
                        NOSIG=
201205150820 METAR COR EGLL 150820Z 30011KT 9999 SCT015 07/04 Q1013 NOSIG=
201205150750 METAR COR EGLL 150750Z 28009KT 9999 -RA FEW012 SCT025 06/04
                        Q1013 NOSIG=
201205150720 METAR COR EGLL 150720Z 30007KT 9999 -RA BKN020 06/04 Q1013
                        NOSIG=
201205150650 METAR COR EGLL 150650Z 30008KT 9999 -RA SCT011 BKN019 06/04
                        Q1012 RERA NOSIG=
201205150620 METAR COR EGLL 150620Z 29011KT 9000 RA SCT013 SCT019 05/03
                        Q1012 TEMPO BKN012=
201205150550 METAR COR EGLL 150550Z 29013KT 9999 VCSH FEW012 SCT030 06/04
                        Q1012 TEMPO 4000 +SHRA BKN012 SCT018CB=
201205150520 METAR COR EGLL 150520Z 28010KT 9999 SCT045 06/04 Q1012 NOSIG=
201205150450 METAR COR EGLL 150450Z 28006KT 9999 FEW040 05/03 Q1011 NOSIG=
201205150420 METAR COR EGLL 150420Z 27006KT 9999 FEW040 05/03 Q1012 NOSIG=
201205150350 METAR COR EGLL 150350Z 28007KT CAVOK 05/03 Q1012 NOSIG=
201205150320 METAR COR EGLL 150320Z 28007KT 9999 FEW040 05/03 Q1012 NOSIG=
201205150250 METAR COR EGLL 150250Z 27007KT 9999 FEW045 05/03 Q1012 NOSIG=
201205150220 METAR COR EGLL 150220Z 28009KT 9999 FEW045 06/04 Q1012 NOSIG=
201205150150 METAR COR EGLL 150150Z 27009KT 9999 FEW045 07/05 Q1012 NOSIG=
201205150120 METAR EGLL 150120Z AUTO 27008KT 9999 FEW041/// 07/05 Q1012=
201205150050 METAR EGLL 150050Z AUTO 28008KT 9999 NCD 06/05 Q1012=
201205150020 METAR EGLL 150020Z AUTO 29006KT 9999 NCD 06/04 Q1012=
201205142350 METAR COR EGLL 142350Z 26007KT CAVOK 06/04 Q1012 NOSIG=
201205142320 METAR COR EGLL 142320Z 27007KT CAVOK 07/04 Q1012 NOSIG=
201205142250 METAR COR EGLL 142250Z 27007KT CAVOK 07/04 Q1012 NOSIG=
201205142220 METAR COR EGLL 142220Z 28010KT CAVOK 08/04 Q1012 NOSIG=
201205142150 METAR COR EGLL 142150Z 27009KT CAVOK 09/04 Q1012 NOSIG=
201205142120 METAR COR EGLL 142120Z 28011KT 9999 FEW047 10/04 Q1012 NOSIG=
201205142050 METAR COR EGLL 142050Z 28010KT 9999 -SHRA FEW047 10/05 Q1013
                        NOSIG=
201205142020 METAR COR EGLL 142020Z 26011KT 9999 FEW035 FEW046TCU 11/04
                        Q1013 NOSIG=
201205141950 METAR COR EGLL 141950Z 26011KT 9999 FEW046TCU 12/04 Q1012
                        NOSIG=
201205141920 METAR COR EGLL 141920Z 23010KT 9999 FEW049 12/07 Q1012 NOSIG=
201205141850 METAR COR EGLL 141850Z 23010KT 9999 FEW026 12/07 Q1012 NOSIG=
201205141820 METAR COR EGLL 141820Z 22010KT 9999 FEW016 12/08 Q1012 NOSIG=
201205141750 METAR COR EGLL 141750Z 22011KT 9999 SCT016 12/08 Q1012 NOSIG=
201205141720 METAR COR EGLL 141720Z 22013KT 9999 FEW017 12/08 Q1012 NOSIG=
201205141650 METAR EGLL 141650Z 22014KT 9999 FEW017 SCT023 12/08 Q1013=
201205141620 METAR COR EGLL 141620Z 23012KT 9999 SCT017 SCT023 12/08 Q1013
                        NOSIG=
201205141550 METAR COR EGLL 141550Z 23013KT 9999 SCT016 SCT024 12/08 Q1014
                        NOSIG=
201205141520 METAR COR EGLL 141520Z 23010KT 9999 SCT014 BKN018 12/09 Q1014
                        NOSIG=
201205141450 METAR COR EGLL 141450Z 22011KT 9999 SCT011 SCT016 BKN026
                        11/09 Q1014 NOSIG=
201205141420 METAR COR EGLL 141420Z 22010KT 9999 SCT010 SCT016 BKN024
                        11/09 Q1015 NOSIG=
201205141350 METAR COR EGLL 141350Z 22011KT 170V250 9999 -RA SCT010 BKN024
                        11/09 Q1015 TEMPO BKN012=
201205141320 METAR COR EGLL 141320Z 22012KT 9999 -RA FEW010 SCT016 BKN034
                        11/09 Q1015 TEMPO BKN012=
201205141250 METAR COR EGLL 141250Z 20011KT 170V240 9999 -RA FEW010 SCT013
                        BKN037 11/09 Q1015 TEMPO RA SCT007
                        BKN012=
201205141220 METAR COR EGLL 141220Z 22011KT 180V240 9999 -RA SCT010 BKN013
                        10/08 Q1016 TEMPO RA=
201205141150 METAR COR EGLL 141150Z 23011KT 9999 -RA SCT012 BKN014 10/08
                        Q1016 TEMPO RA SCT007 BKN012=
201205141120 METAR COR EGLL 141120Z 24012KT 9999 -RA SCT012 BKN015 10/08
                        Q1016 TEMPO RA SCT007 BKN012=
201205141050 METAR COR EGLL 141050Z 24012KT 9999 -RA BKN015 11/08 Q1017
                        TEMPO RA BKN012=
201205141020 METAR COR EGLL 141020Z 24013KT 9999 -RA SCT014 BKN020 10/08
                        Q1017 TEMPO RA BKN014=
201205140950 METAR COR EGLL 140950Z 24012KT 200V270 9999 -RA SCT013 BKN035
                        10/07 Q1017 TEMPO RA BKN012=
201205140920 METAR COR EGLL 140920Z 24011KT 200V270 9999 -RA FEW015 BKN033
                        10/07 Q1017 TEMPO RA BKN012=
201205140850 METAR COR EGLL 140850Z 24010KT 9999 -RA FEW016 BKN030 BKN038
                        09/06 Q1017 TEMPO RA BKN014=
201205140820 METAR COR EGLL 140820Z 24013KT 9999 -RA FEW020 BKN030 09/06
                        Q1018 NOSIG=
201205140750 METAR COR EGLL 140750Z 24012KT 9999 -RA FEW025 BKN030 10/05
                        Q1018 NOSIG=
201205140720 METAR COR EGLL 140720Z 26012KT 9999 FEW020 09/05 Q1018 NOSIG=
201205140650 METAR COR EGLL 140650Z 26012KT 9999 FEW020 09/04 Q1018 NOSIG=
201205140620 METAR COR EGLL 140620Z 24012KT 9999 FEW016 09/04 Q1018 NOSIG=
201205140550 METAR COR EGLL 140550Z 23013KT CAVOK 08/04 Q1018 NOSIG=
201205140520 METAR COR EGLL 140520Z 23012KT CAVOK 07/03 Q1018 NOSIG=
201205140450 METAR COR EGLL 140450Z 23011KT CAVOK 06/03 Q1018 NOSIG=
201205140420 METAR COR EGLL 140420Z 22008KT CAVOK 06/03 Q1019 NOSIG=
201205140350 METAR COR EGLL 140350Z 21007KT 9999 FEW040 06/03 Q1019 NOSIG=
201205140320 METAR COR EGLL 140320Z 23007KT 9999 FEW040 06/03 Q1019 NOSIG=
201205140250 METAR COR EGLL 140250Z 23008KT 9999 FEW040 06/03 Q1020 NOSIG=
201205140220 METAR COR EGLL 140220Z 23008KT CAVOK 07/03 Q1020 NOSIG=
201205140150 METAR COR EGLL 140150Z 23008KT CAVOK 07/03 Q1020 NOSIG=
201205140120 METAR EGLL 140120Z AUTO 21006KT 9999 NCD 07/04 Q1021=
201205140050 METAR EGLL 140050Z AUTO 21006KT 9999 NCD 07/04 Q1021=
201205140020 METAR EGLL 140020Z AUTO 22009KT 9999 NCD 08/04 Q1022=
201205132350 METAR COR EGLL 132350Z 23010KT CAVOK 08/04 Q1022 NOSIG=
201205132320 METAR COR EGLL 132320Z 23011KT CAVOK 09/04 Q1022 NOSIG=
201205132250 METAR COR EGLL 132250Z 22009KT CAVOK 09/04 Q1023 NOSIG=
201205132220 METAR COR EGLL 132220Z 22009G19KT CAVOK 09/04 Q1023 NOSIG=
201205132150 METAR COR EGLL 132150Z 22010KT CAVOK 10/04 Q1023 NOSIG=
201205132120 METAR COR EGLL 132120Z 23012KT 190V260 CAVOK 11/04 Q1023
                        NOSIG=
201205132050 METAR COR EGLL 132050Z 22011KT CAVOK 11/04 Q1024 NOSIG=
201205132020 METAR COR EGLL 132020Z 22011KT CAVOK 11/04 Q1024 NOSIG=
201205131950 METAR COR EGLL 131950Z 22011KT CAVOK 12/03 Q1024 NOSIG=
201205131920 METAR COR EGLL 131920Z 22014KT CAVOK 13/04 Q1024 NOSIG=
201205131850 METAR COR EGLL 131850Z 23015KT 9999 FEW047 14/03 Q1024 NOSIG=
201205131820 METAR COR EGLL 131820Z 21013KT 180V250 9999 FEW048 14/03
                        Q1024 NOSIG=
201205131750 METAR COR EGLL 131750Z 23013KT CAVOK 15/03 Q1025 NOSIG=
201205131720 METAR COR EGLL 131720Z 23011KT 9999 SCT049 16/04 Q1025 NOSIG=
201205131650 METAR COR EGLL 131650Z 23014KT 9999 BKN048 16/04 Q1026 NOSIG=
201205131620 METAR COR EGLL 131620Z 24014KT CAVOK 16/03 Q1026 NOSIG=
201205131550 METAR COR EGLL 131550Z 24014KT 210V270 CAVOK 16/04 Q1027
                        NOSIG=
201205131520 METAR COR EGLL 131520Z 23012KT 200V260 CAVOK 16/03 Q1027
                        NOSIG=
201205131450 METAR COR EGLL 131450Z 25014KT CAVOK 16/02 Q1027 NOSIG=
201205131420 METAR COR EGLL 131420Z 24013KT 200V270 CAVOK 17/02 Q1028
                        NOSIG=
201205131350 METAR COR EGLL 131350Z 23011KT CAVOK 16/02 Q1028 NOSIG=
201205131320 METAR COR EGLL 131320Z 24013KT CAVOK 16/01 Q1029 NOSIG=
201205131250 METAR COR EGLL 131250Z 22010KT CAVOK 17/02 Q1029 NOSIG=
201205131220 METAR COR EGLL 131220Z 24011KT 210V270 CAVOK 16/02 Q1030
                        NOSIG=
201205131150 METAR COR EGLL 131150Z 27011KT CAVOK 16/01 Q1030 NOSIG=
201205131120 METAR COR EGLL 131120Z 25010KT CAVOK 15/01 Q1031 NOSIG=
201205131050 METAR COR EGLL 131050Z 27010KT CAVOK 14/02 Q1031 NOSIG=
201205131020 METAR COR EGLL 131020Z 26009KT 210V320 CAVOK 14/00 Q1032
                        NOSIG=
201205130950 METAR COR EGLL 130950Z 26007KT 210V350 CAVOK 14/01 Q1032
                        NOSIG=
201205130920 METAR COR EGLL 130920Z 24006KT 190V300 9999 SCT048 15/03
                        Q1032 NOSIG=
201205130850 METAR COR EGLL 130850Z 20005KT 150V250 9999 FEW035 14/04
                        Q1033 NOSIG=
201205130820 METAR COR EGLL 130820Z VRB03KT 9999 FEW024 13/04 Q1033 NOSIG=
201205130750 METAR COR EGLL 130750Z VRB03KT CAVOK 12/04 Q1033 NOSIG=
201205130720 METAR COR EGLL 130720Z 19004KT 160V240 CAVOK 10/04 Q1033
                        NOSIG=
201205130650 METAR COR EGLL 130650Z VRB03KT CAVOK 09/04 Q1034 NOSIG=
201205130620 METAR COR EGLL 130620Z 00000KT CAVOK 08/04 Q1034 NOSIG=
201205130550 METAR COR EGLL 130550Z VRB02KT CAVOK 07/04 Q1034 NOSIG=
201205130520 METAR COR EGLL 130520Z 00000KT CAVOK 06/04 Q1034 NOSIG=
201205130450 METAR COR EGLL 130450Z VRB02KT CAVOK 05/03 Q1034 NOSIG=
201205130420 METAR COR EGLL 130420Z VRB02KT CAVOK 04/03 Q1035 NOSIG=
201205130350 METAR COR EGLL 130350Z 28005KT CAVOK 05/02 Q1035 NOSIG=
201205130320 METAR COR EGLL 130320Z 29004KT 260V330 CAVOK 05/03 Q1035
                        NOSIG=
201205130250 METAR COR EGLL 130250Z 28004KT CAVOK 06/03 Q1035 NOSIG=
201205130220 METAR COR EGLL 130220Z 28004KT CAVOK 06/04 Q1035 NOSIG=
201205130150 METAR COR EGLL 130150Z 28002KT CAVOK 07/04 Q1036 NOSIG=
201205130120 METAR EGLL 130120Z AUTO 28003KT 9999 NCD 07/03 Q1036=
201205130050 METAR EGLL 130050Z AUTO 22003KT 9999 NCD 07/03 Q1036=
201205130020 METAR EGLL 130020Z AUTO 16003KT 9999 NCD 07/03 Q1037=
201205122350 METAR COR EGLL 122350Z 17003KT CAVOK 08/02 Q1037 NOSIG=
201205122320 METAR COR EGLL 122320Z 20003KT CAVOK 09/02 Q1037 NOSIG=
201205122250 METAR COR EGLL 122250Z 16004KT CAVOK 09/02 Q1037 NOSIG=
201205122220 METAR COR EGLL 122220Z VRB03KT CAVOK 09/02 Q1037 NOSIG=
201205122150 METAR COR EGLL 122150Z 15005KT 090V240 CAVOK 09/02 Q1037
                        NOSIG=
201205122120 METAR COR EGLL 122120Z 00000KT CAVOK 11/01 Q1037 NOSIG=
201205122050 METAR COR EGLL 122050Z 01002KT CAVOK 11/01 Q1037 NOSIG=
201205122020 METAR COR EGLL 122020Z 02002KT CAVOK 12/00 Q1037 NOSIG=
201205121950 METAR COR EGLL 121950Z VRB03KT CAVOK 12/01 Q1037 NOSIG=
201205121920 METAR COR EGLL 121920Z 36004KT CAVOK 13/01 Q1037 NOSIG=
201205121850 METAR COR EGLL 121850Z 34004KT 310V020 CAVOK 13/00 Q1037
                        NOSIG=
201205121820 METAR COR EGLL 121820Z 01005KT 330V060 CAVOK 14/00 Q1037
                        NOSIG=
201205121750 METAR COR EGLL 121750Z 03006KT 330V060 CAVOK 14/01 Q1037
                        NOSIG=
201205121720 METAR COR EGLL 121720Z 36004KT 290V060 CAVOK 14/00 Q1037
                        NOSIG=
201205121650 METAR COR EGLL 121650Z 33004KT 260V020 CAVOK 15/00 Q1038
                        NOSIG=
201205121620 METAR COR EGLL 121620Z 34006KT 310V020 CAVOK 14/01 Q1038
                        NOSIG=
201205121550 METAR COR EGLL 121550Z 33007KT 280V020 CAVOK 15/00 Q1038
                        NOSIG=
201205121520 METAR COR EGLL 121520Z 30006KT 260V350 CAVOK 14/M00 Q1038
                        NOSIG=
201205121450 METAR COR EGLL 121450Z 35006KT 320V020 CAVOK 14/00 Q1038
                        NOSIG=
201205121420 METAR COR EGLL 121420Z 36007KT 320V080 CAVOK 14/01 Q1038
                        NOSIG=
201205121350 METAR COR EGLL 121350Z 02008KT 330V070 CAVOK 15/M00 Q1038
                        NOSIG=
201205121320 METAR COR EGLL 121320Z 35006KT 280V080 CAVOK 15/01 Q1038
                        NOSIG=
201205121250 METAR COR EGLL 121250Z 36008KT 310V050 CAVOK 15/00 Q1038
                        NOSIG=
201205121220 METAR COR EGLL 121220Z 35007KT 310V050 CAVOK 15/00 Q1038
                        NOSIG=
201205121150 METAR COR EGLL 121150Z 01007KT 340V070 CAVOK 14/01 Q1038
                        NOSIG=
201205121120 METAR COR EGLL 121120Z 36007KT 300V040 CAVOK 14/00 Q1038
                        NOSIG=
201205121050 METAR COR EGLL 121050Z 35006KT 310V040 9999 FEW046 13/01
                        Q1038 NOSIG=
201205121020 METAR COR EGLL 121020Z 33006KT 290V030 9999 FEW045 13/01
                        Q1038 NOSIG=
201205120950 METAR COR EGLL 120950Z 34008KT 300V020 9999 FEW040 12/01
                        Q1038 NOSIG=
201205120920 METAR COR EGLL 120920Z 35008KT 320V030 9999 FEW033 11/02
                        Q1038 NOSIG=
201205120850 METAR COR EGLL 120850Z 36009KT 320V050 9999 FEW029 12/03
                        Q1038 NOSIG=
201205120820 METAR COR EGLL 120820Z 35008KT 300V030 9999 FEW028 10/03
                        Q1038 NOSIG=
201205120750 METAR COR EGLL 120750Z 36008KT 330V040 9999 FEW028 10/03
                        Q1037 NOSIG=
201205120720 METAR COR EGLL 120720Z 35007KT 310V030 9999 FEW024 09/03
                        Q1037 NOSIG=
201205120650 METAR COR EGLL 120650Z 33006KT 300V360 CAVOK 08/03 Q1037
                        NOSIG=
201205120620 METAR COR EGLL 120620Z 34005KT 310V020 CAVOK 07/02 Q1037
                        NOSIG=
201205120550 METAR COR EGLL 120550Z 32005KT 290V360 CAVOK 06/02 Q1036
                        NOSIG=
201205120520 METAR EGLL 120520Z 31004KT 280V340 CAVOK 06/02 Q1036=
201205120450 METAR COR EGLL 120450Z 31005KT 280V350 CAVOK 05/02 Q1036
                        NOSIG=
201205120420 METAR COR EGLL 120420Z 30004KT CAVOK 05/01 Q1035 NOSIG=
201205120350 METAR COR EGLL 120350Z VRB03KT CAVOK 05/01 Q1035 NOSIG=
201205120320 METAR COR EGLL 120320Z 29005KT CAVOK 05/01 Q1035 NOSIG=
201205120250 METAR COR EGLL 120250Z 29005KT CAVOK 05/01 Q1035 NOSIG=
201205120220 METAR COR EGLL 120220Z 30005KT CAVOK 06/01 Q1035 NOSIG=
201205120150 METAR EGLL 120150Z AUTO 31004KT 290V350 9999 NCD 06/01 Q1034=
201205120120 METAR EGLL 120120Z AUTO 31004KT 9999 NCD 07/01 Q1034=
201205120050 METAR EGLL 120050Z AUTO 29004KT 260V330 9999 NCD 07/01 Q1034=
201205120020 METAR EGLL 120020Z AUTO 30004KT 270V330 9999 NCD 07/01 Q1034=
201205112350 METAR COR EGLL 112350Z 31006KT CAVOK 08/01 Q1034 NOSIG=
201205112320 METAR COR EGLL 112320Z 31006KT 280V340 CAVOK 08/00 Q1033
                        NOSIG=
201205112250 METAR COR EGLL 112250Z 30006KT 270V350 CAVOK 08/00 Q1033
                        NOSIG=
201205112220 METAR COR EGLL 112220Z 32007KT CAVOK 09/01 Q1033 NOSIG=
201205112150 METAR COR EGLL 112150Z 30005KT CAVOK 09/02 Q1032 NOSIG=
201205112120 METAR COR EGLL 112120Z 32005KT CAVOK 10/02 Q1032 NOSIG=
201205112050 METAR COR EGLL 112050Z 33005KT 300V020 CAVOK 10/02 Q1031
                        NOSIG=
201205112020 METAR COR EGLL 112020Z 33007KT 300V010 CAVOK 10/02 Q1031
                        NOSIG=
201205111950 METAR EGLL 111950Z 33007KT 310V010 CAVOK 11/02 Q1030=
201205111920 METAR COR EGLL 111920Z 32009KT 9999 FEW047 12/01 Q1029 NOSIG=
201205111850 METAR COR EGLL 111850Z 32010KT 9999 FEW047 12/02 Q1029 NOSIG=
201205111820 METAR COR EGLL 111820Z 33009KT 300V010 9999 SCT048 13/03
                        Q1028 NOSIG=
201205111750 METAR COR EGLL 111750Z 32009KT 9999 SCT048 13/02 Q1027 NOSIG=
201205111720 METAR COR EGLL 111720Z 33011KT 300V360 9999 SCT046 14/03
                        Q1027 NOSIG=
201205111650 METAR COR EGLL 111650Z 33012KT 300V010 9999 FEW049 14/04
                        Q1026 NOSIG=
201205111620 METAR COR EGLL 111620Z 30011KT 9999 FEW049 15/02 Q1026 NOSIG=
201205111550 METAR COR EGLL 111550Z 29014KT CAVOK 14/02 Q1026 NOSIG=
201205111520 METAR COR EGLL 111520Z 30013KT 270V330 CAVOK 16/03 Q1025
                        NOSIG=
201205111450 METAR COR EGLL 111450Z 30013KT 280V350 9999 FEW040 SCT046
                        16/04 Q1025 NOSIG=
201205111420 METAR COR EGLL 111420Z 28014KT 9999 FEW040 SCT046 15/05 Q1024
                        NOSIG=
201205111350 METAR COR EGLL 111350Z 29010KT 260V330 9999 SCT045 16/05
                        Q1024 NOSIG=
201205111320 METAR COR EGLL 111320Z 29012KT 270V340 9999 SCT045 15/05
                        Q1023 NOSIG=
201205111250 METAR COR EGLL 111250Z 31010KT 260V350 9999 FEW040 BKN045
                        15/05 Q1023 NOSIG=
201205111220 METAR COR EGLL 111220Z 29012KT 9999 FEW037 BKN048 15/06 Q1023
                        NOSIG=
201205111150 METAR COR EGLL 111150Z 28016KT 9999 FEW032 BKN037 15/06 Q1022
                        NOSIG=
201205111120 METAR COR EGLL 111120Z 27015KT 9999 SCT037 BKN043 15/06 Q1022
                        NOSIG=
201205111050 METAR COR EGLL 111050Z 27013KT 9999 SCT034 BKN039 15/06 Q1021
                        NOSIG=
201205111020 METAR COR EGLL 111020Z 26016KT 9999 SCT035 SCT041 14/06 Q1021
                        NOSIG=
201205110950 METAR COR EGLL 110950Z 28015KT 9999 BKN030 15/06 Q1020 NOSIG=
201205110920 METAR COR EGLL 110920Z 27016KT 9999 BKN031 14/06 Q1020 NOSIG=
201205110850 METAR COR EGLL 110850Z 28015KT 9999 BKN031 13/07 Q1020 NOSIG=
201205110820 METAR COR EGLL 110820Z 27013KT 9999 BKN029 13/06 Q1019 NOSIG=
201205110750 METAR COR EGLL 110750Z 26015KT 9999 FEW023 SCT027 13/06 Q1019
                        NOSIG=
201205110720 METAR COR EGLL 110720Z 25016KT 9999 SCT023 SCT027 12/06 Q1018
                        NOSIG=
201205110650 METAR COR EGLL 110650Z 25017KT 9999 FEW026 12/07 Q1018 NOSIG=
201205110620 METAR COR EGLL 110620Z 25014KT 9999 FEW032 12/06 Q1017 NOSIG=
201205110550 METAR COR EGLL 110550Z 25012KT 9999 FEW032 11/06 Q1017 NOSIG=
201205110520 METAR COR EGLL 110520Z 25012KT 9999 FEW028 11/06 Q1017 NOSIG=
201205110450 METAR COR EGLL 110450Z 25012KT 9999 FEW028 11/06 Q1016 NOSIG=
201205110420 METAR COR EGLL 110420Z 27017KT 9999 BKN030 11/06 Q1016 NOSIG=
201205110350 METAR COR EGLL 110350Z 25015KT 220V290 9999 SCT015 BKN035
                        12/09 Q1015 NOSIG=
201205110320 METAR COR EGLL 110320Z 24012KT 9999 SCT015 BKN025 BKN034
                        12/09 Q1015 NOSIG=
201205110250 METAR EGLL 110250Z 23013KT 9999 FEW019 BKN033 12/09 Q1014=
201205110220 METAR COR EGLL 110220Z 23012KT 9999 SCT019 BKN037 13/09 Q1014
                        NOSIG=
201205110150 METAR COR EGLL 110150Z 23015KT 9999 BKN032 13/09 Q1014 NOSIG=
201205110120 METAR EGLL 110120Z AUTO 23014KT 9999 NCD 13/09 Q1014=
201205110050 METAR EGLL 110050Z AUTO 24017KT 9999 BKN018/// 13/10 Q1014=
201205110020 METAR EGLL 110020Z AUTO 24016KT 9999 BKN016/// BKN024///
                        14/10 Q1014=
201205102350 METAR COR EGLL 102350Z 23012KT 9999 SCT014 BKN018 14/11 Q1014
                        TEMPO BKN014=
201205102320 METAR COR EGLL 102320Z 23012KT 9999 SCT015 BKN019 BKN026
                        14/11 Q1013 TEMPO BKN014=
201205102250 METAR COR EGLL 102250Z 23013KT 9999 SCT015 BKN022 14/11 Q1013
                        NOSIG=
201205102220 METAR COR EGLL 102220Z 23013KT 9999 SCT013 SCT020 BKN034
                        14/12 Q1013 NOSIG=
201205102150 METAR COR EGLL 102150Z 23015KT 9999 SCT011 BKN016 14/12 Q1012
                        TEMPO BKN012=
201205102120 METAR EGLL 102120Z 23013KT 9999 BKN010 15/12 Q1012=
201205102050 METAR EGLL 102050Z 23014KT 9999 BKN010 15/12 Q1012=
201205102020 METAR COR EGLL 102020Z 23015KT 9999 BKN012 15/12 Q1012 NOSIG=
201205101950 METAR COR EGLL 101950Z 22014KT 9999 OVC010 15/13 Q1012 NOSIG=
201205101920 METAR COR EGLL 101920Z 23016KT 9999 FEW008 OVC010 15/13 Q1011
                        NOSIG=
201205101850 METAR COR EGLL 101850Z 23017KT 190V250 9999 OVC011 15/13
                        Q1011 TEMPO 23018G28KT=
201205101820 METAR COR EGLL 101820Z 23018G28KT 9999 BKN011 16/13 Q1010
                        NOSIG=
201205101750 METAR COR EGLL 101750Z 23017KT 9999 BKN012 16/13 Q1010 NOSIG=
201205101720 METAR COR EGLL 101720Z 23017KT 9999 BKN011 16/13 Q1010 NOSIG=
201205101650 METAR COR EGLL 101650Z 22014KT 9999 FEW010 BKN012 16/14 Q1010
                        NOSIG=
201205101620 METAR COR EGLL 101620Z 22012G23KT 9999 BKN012 16/14 Q1010
                        NOSIG=
201205101550 METAR COR EGLL 101550Z 22013KT 9999 BKN010 16/14 Q1010 NOSIG=
201205101520 METAR COR EGLL 101520Z 21010KT 160V250 9999 -RADZ FEW008
                        BKN010 16/14 Q1009 TEMPO SCT012=
201205101450 METAR COR EGLL 101450Z 20009KT 160V250 7000 -RADZ FEW008
                        BKN011 15/14 Q1010 RERA REDZ BECMG
                        SCT012=
201205101420 METAR COR EGLL 101420Z 22013KT 6000 -RADZ SCT011 BKN014 16/14
                        Q1010 TEMPO 22015G26KT 4000 RADZ
                        BKN008=
201205101350 METAR COR EGLL 101350Z 22011KT 180V240 5000 -RADZ SCT011
                        BKN014 16/14 Q1009 RERA TEMPO 22014G26KT
                        4000 RADZ BKN008=
201205101320 METAR COR EGLL 101320Z 23012KT 5000 -DZ BKN007 BKN010 16/14
                        Q1010 TEMPO 23015G26KT 4000 RADZ=
201205101250 METAR COR EGLL 101250Z 21009KT 5000 -RADZ FEW007 BKN011 16/14
                        Q1010 TEMPO 22015G26KT 4000 RADZ
                        BKN008=
201205101220 METAR COR EGLL 101220Z 22014KT 9999 VCSH FEW008 BKN010 17/14
                        Q1010 TEMPO 22016G26KT -RA BKN008=
201205101150 METAR COR EGLL 101150Z 22013KT 9999 FEW009 BKN011 16/14 Q1010
                        TEMPO 22015G26KT -RA BKN008=
201205101120 METAR COR EGLL 101120Z 22014KT 9999 BKN010 17/14 Q1010 TEMPO
                        22016G28KT -RA BKN008=
201205101050 METAR EGLL 101050Z 21013KT 180V240 9999 BKN015 17/13 Q1010=
201205101020 METAR COR EGLL 101020Z 21012KT 180V250 9999 BKN017 17/13
                        Q1009 TEMPO 22015G25KT=
201205100950 METAR COR EGLL 100950Z 21011KT 9999 BKN013 17/13 Q1009 TEMPO
                        22015G28KT=
201205100920 METAR COR EGLL 100920Z 22013KT 9999 BKN013 SCT016 17/13 Q1009
                        TEMPO 22015G28KT=
201205100850 METAR COR EGLL 100850Z 22011KT 9999 BKN014 16/13 Q1008 TEMPO
                        22012G26KT=
201205100820 METAR COR EGLL 100820Z 22011KT 9999 BKN011 16/14 Q1008 TEMPO
                        22012G26KT=
201205100750 METAR COR EGLL 100750Z 22010KT 9999 BKN010 16/14 Q1008 TEMPO
                        22015G25KT=
201205100720 METAR COR EGLL 100720Z 21011KT 9999 BKN009 15/14 Q1008 TEMPO
                        22015G25KT BKN012=
201205100650 METAR COR EGLL 100650Z 22014KT 9000 -DZ BKN008 15/13 Q1008
                        TEMPO 22015G25KT NSW BKN012=
201205100620 METAR COR EGLL 100620Z 21011KT 9999 SCT008 BKN013 15/14 Q1007
                        TEMPO 22015G25KT BKN008=
201205100550 METAR COR EGLL 100550Z 21012KT 9999 BKN008 15/14 Q1007 TEMPO
                        22015G25KT BKN012=
201205100520 METAR COR EGLL 100520Z 21013KT 9999 SCT008 BKN010 15/14 Q1007
                        TEMPO 22015G25KT=
201205100450 METAR COR EGLL 100450Z 21010KT 180V240 9999 -RA BKN008 15/14
                        Q1007 TEMPO 21015G25KT=
201205100420 METAR COR EGLL 100420Z 22012KT 9999 -RA BKN008 15/14 Q1007
                        TEMPO 21015G25KT=
201205100350 METAR COR EGLL 100350Z 21010KT 180V250 9999 -RA SCT008 BKN010
                        15/14 Q1006 TEMPO 21015G25KT RA BKN008=
201205100320 METAR COR EGLL 100320Z 20010KT 9999 -RA SCT008 BKN010 15/14
                        Q1006 TEMPO 21015G25KT RA BKN008=
201205100250 METAR COR EGLL 100250Z 22012KT 9999 -RA SCT008 BKN010 15/14
                        Q1006 TEMPO 22015G25KT RA BKN008=
201205100220 METAR COR EGLL 100220Z 22012KT 9999 SCT007 BKN010 15/14 Q1006
                        TEMPO 22016G26KT RA BKN008=
201205100150 METAR EGLL 100150Z AUTO 21011KT 9999 -DZ FEW006/// BKN009///
                        15/14 Q1006=
201205100120 METAR EGLL 100120Z AUTO 21012KT 5000 DZ SCT010/// BKN014///
                        15/14 Q1007=
201205100050 METAR EGLL 100050Z AUTO 21015KT 9000 -RA BKN007/// BKN016///
                        15/14 Q1007=
201205100020 METAR COR EGLL 100020Z 20012KT 9999 -RA BKN010 BKN018 15/14
                        Q1007 TEMPO 4000 RA BKN008=
201205092350 METAR COR EGLL 092350Z 19012KT 9999 -RA SCT008 BKN012 15/14
                        Q1007 TEMPO 4000 +RA BKN008=
201205092320 METAR COR EGLL 092320Z 18011KT 8000 -RA FEW008 SCT010 BKN012
                        15/14 Q1007 TEMPO 4000 RA BKN008=
201205092250 METAR COR EGLL 092250Z 17009KT 9000 -RA BKN010 15/13 Q1008
                        TEMPO 4000 RA BKN008=
201205092220 METAR COR EGLL 092220Z 17010KT 140V230 9999 -RA FEW008 BKN010
                        14/13 Q1008 TEMPO RA BKN008=
201205092150 METAR COR EGLL 092150Z 19011KT 170V230 9000 -RA FEW008 BKN010
                        14/13 Q1009 TEMPO BKN008=
201205092120 METAR COR EGLL 092120Z 18010KT 160V240 9000 -RA BKN010 14/13
                        Q1009 RERA TEMPO BKN008=
201205092050 METAR COR EGLL 092050Z 19012KT 150V240 9000 -RA FEW009 BKN012
                        14/13 Q1009 TEMPO BKN008=
201205092020 METAR COR EGLL 092020Z 19010KT 170V250 9999 -RA FEW008 BKN011
                        14/13 Q1009 TEMPO BKN008=
201205091950 METAR COR EGLL 091950Z 19009KT 150V240 9999 -DZ FEW004 BKN005
                        14/13 Q1009 NOSIG=
201205091920 METAR COR EGLL 091920Z 19009KT 160V240 3500 -DZ FEW004 BKN005
                        14/13 Q1009 TEMPO 2500 RADZ=
201205091850 METAR COR EGLL 091850Z 20009KT 170V250 4000 -DZ BKN008 BKN010
                        14/13 Q1009 TEMPO 2500 DZ=
201205091820 METAR COR EGLL 091820Z 22010KT 9999 SCT014 BKN017 15/12 Q1010
                        BECMG BKN014=
201205091750 METAR COR EGLL 091750Z 22011KT 190V250 9999 SCT014 OVC017
                        15/12 Q1010 BECMG BKN014=
201205091720 METAR COR EGLL 091720Z 22012KT 9999 SCT012 BKN016 15/12 Q1009
                        BECMG BKN014=
201205091650 METAR COR EGLL 091650Z 22013KT 9999 VCSH SCT007 BKN010 15/13
                        Q1010 NOSIG=
201205091620 METAR COR EGLL 091620Z 22013KT 9999 VCSH SCT008 BKN012 15/13
                        Q1010 NOSIG=
201205091550 METAR COR EGLL 091550Z 23012G24KT 9999 VCSH FEW006 BKN009
                        15/13 Q1009 TEMPO SCT009 BKN014=
201205091520 METAR COR EGLL 091520Z 21011KT 190V250 3000 -RADZ OVC007
                        15/13 Q1009 TEMPO 6000 NSW SCT007
                        BKN012=
201205091450 METAR COR EGLL 091450Z 20010KT 7000 -RADZ FEW006 SCT008 BKN010
                        15/13 Q1009 NOSIG=
201205091420 METAR COR EGLL 091420Z 20010KT 170V240 4000 -RADZ FEW006
                        SCT008 BKN010 15/13 Q1009 TEMPO 8000
                        NSW=
201205091350 METAR COR EGLL 091350Z 20009KT 170V230 9999 -DZ FEW006 SCT008
                        BKN011 15/13 Q1009 TEMPO 4000 -DZ
                        BKN008=
201205091320 METAR COR EGLL 091320Z 21011KT 8000 -DZ FEW006 BKN008 15/13
                        Q1009 TEMPO 4000 -RA=
201205091250 METAR COR EGLL 091250Z 23013KT 7000 -DZ SCT008 BKN012 15/13
                        Q1009 TEMPO SCT012=
201205091220 METAR COR EGLL 091220Z 21011KT 9999 VCSH SCT011 BKN014 15/13
                        Q1009 TEMPO BKN012=
201205091150 METAR COR EGLL 091150Z 21008KT 170V240 9999 SCT009 BKN013
                        15/12 Q1008 NOSIG=
201205091120 METAR COR EGLL 091120Z 22011KT 7000 -DZ SCT008 BKN012 15/12
                        Q1008 BECMG SCT012=
201205091050 METAR COR EGLL 091050Z 23012KT 190V250 9999 SCT011 BKN021
                        15/12 Q1008 TEMPO -RA BKN014=
201205091020 METAR COR EGLL 091020Z 22008KT 190V250 9999 SCT009 BKN022
                        15/13 Q1008 NOSIG=
201205090950 METAR COR EGLL 090950Z 22005KT 180V250 8000 SCT007 BKN010
                        14/12 Q1008 NOSIG=
201205090920 METAR COR EGLL 090920Z 19005KT 150V250 6000 SCT004 BKN006
                        13/11 Q1008 TEMPO SCT007 BKN012=
201205090850 METAR COR EGLL 090850Z 14005KT 100V210 6000 SCT004 BKN007
                        12/11 Q1008 TEMPO SCT007 BKN012=
201205090820 METAR COR EGLL 090820Z VRB03KT 5000 HZ FEW003 SCT004 BKN005
                        12/11 Q1008 TEMPO SCT006 BKN012=
201205090750 METAR COR EGLL 090750Z 07004KT 040V120 3600 HZ SCT003 BKN006
                        11/10 Q1007 TEMPO 6000 NSW SCT006
                        BKN012=
201205090720 METAR COR EGLL 090720Z VRB03KT 2700 HZ BKN005 BKN011 11/10
                        Q1007 TEMPO 6000 NSW SCT005 BKN012=
201205090650 METAR COR EGLL 090650Z 02004KT 350V060 2300 -DZ FEW002 BKN006
                        10/09 Q1007 NOSIG=
201205090620 METAR COR EGLL 090620Z 36005KT 2200 -RADZ FEW003 BKN009 11/10
                        Q1007 TEMPO BKN004=
201205090550 METAR COR EGLL 090550Z VRB03KT 2200 -RADZ BR SCT003 BKN011
                        11/10 Q1007 TEMPO BKN004=
201205090520 METAR COR EGLL 090520Z VRB03KT 2300 -RADZ BR SCT003 BKN010
                        11/10 Q1007 TEMPO BKN005=
201205090450 METAR COR EGLL 090450Z VRB02KT 3000 -RA BR FEW003 BKN006
                        11/10 Q1006 TEMPO FEW005 BKN010=
201205090420 METAR COR EGLL 090420Z 00000KT 3800 BR FEW002 SCT005 BKN008
                        11/10 Q1006 TEMPO SCT006 BKN015=
201205090350 METAR COR EGLL 090350Z 20002KT 3200 -DZ FEW002 BKN014 BKN019
                        11/10 Q1007 TEMPO BKN006=
201205090320 METAR COR EGLL 090320Z 22004KT 3500 -DZ SCT004 SCT016 11/10
                        Q1007 BECMG 7000 BKN014=
201205090250 METAR COR EGLL 090250Z 21005KT 3500 -RADZ SCT004 SCT025 BKN030
                        11/10 Q1007 BECMG 9999 NSW BKN014=
201205090220 METAR COR EGLL 090220Z 21005KT 4300 -RADZ SCT004 SCT015 BKN024
                        11/10 Q1007 BECMG 9999 NSW BKN014=
201205090150 METAR COR EGLL 090150Z 21004KT 7000 FEW016 SCT027 BKN038
                        11/10 Q1007 NOSIG=
201205090120 METAR EGLL 090120Z AUTO 19004KT 7000 -RA BKN042/// 11/10
                        Q1007=
201205090050 METAR EGLL 090050Z AUTO 19006KT 9999 BKN042/// 11/10 Q1007=
201205090020 METAR EGLL 090020Z AUTO 18005KT 9999 NCD 11/10 Q1007=
201205082350 METAR COR EGLL 082350Z 21005KT 9999 -RA FEW034 11/10 Q1007
                        NOSIG=
201205082320 METAR COR EGLL 082320Z 22005KT 9999 -RA NSC 12/09 Q1007 NOSIG=
201205082250 METAR COR EGLL 082250Z 23004KT 9999 -RA FEW041 12/09 Q1007
                        NOSIG=
201205082220 METAR COR EGLL 082220Z 23008KT 180V260 CAVOK 13/08 Q1007
                        NOSIG=
201205082150 METAR COR EGLL 082150Z 20008KT 150V250 CAVOK 13/09 Q1007
                        NOSIG=
201205082120 METAR COR EGLL 082120Z 21008KT 170V260 CAVOK 13/09 Q1007
                        NOSIG=
201205082050 METAR COR EGLL 082050Z 21008KT 170V270 CAVOK 13/09 Q1007
                        NOSIG=
201205082020 METAR COR EGLL 082020Z 20007KT 170V230 CAVOK 14/09 Q1007
                        NOSIG=
201205081950 METAR COR EGLL 081950Z 21008KT 180V250 9999 FEW040 14/09
                        Q1006 NOSIG=
201205081920 METAR COR EGLL 081920Z 21007KT 180V240 9999 FEW040 15/09
                        Q1006 NOSIG=
201205081850 METAR COR EGLL 081850Z 20008KT 9999 FEW042 15/09 Q1006 NOSIG=
201205081820 METAR COR EGLL 081820Z 20010KT 180V240 9999 FEW039 16/09
                        Q1006 NOSIG=
201205081750 METAR COR EGLL 081750Z 21009KT 180V250 9999 SCT042 17/09
                        Q1006 NOSIG=
201205081720 METAR COR EGLL 081720Z 20009KT 170V250 9999 FEW040 17/09
                        Q1006 NOSIG=
201205081650 METAR COR EGLL 081650Z 22010KT 9999 FEW039 18/08 Q1006 NOSIG=
201205081620 METAR COR EGLL 081620Z 22010KT 190V250 9999 SCT039 17/09
                        Q1006 NOSIG=
201205081550 METAR COR EGLL 081550Z 23011KT 9999 SCT038 17/09 Q1006 NOSIG=
201205081520 METAR COR EGLL 081520Z 19010KT 160V250 9999 FEW032 SCT038
                        17/10 Q1006 NOSIG=
201205081450 METAR COR EGLL 081450Z 20008KT 160V250 9999 BKN028 17/10
                        Q1006 NOSIG=
201205081420 METAR COR EGLL 081420Z 19011KT 160V240 9999 BKN028 17/10
                        Q1006 NOSIG=
201205081350 METAR COR EGLL 081350Z 19008KT 140V300 9999 FEW025 SCT029
                        16/10 Q1006 NOSIG=
201205081320 METAR COR EGLL 081320Z VRB06KT 9999 SCT026 SCT039 15/10 Q1006
                        NOSIG=
201205081250 METAR COR EGLL 081250Z 20006KT 160V270 9999 FEW027 SCT037
                        16/10 Q1006 NOSIG=
201205081220 METAR EGLL 081220Z 19008KT 140V220 9999 SCT019 BKN028 15/10
                        Q1006=
201205081150 METAR COR EGLL 081150Z 21006KT 130V250 9999 SCT020 BKN023
                        14/10 Q1006 NOSIG=
201205081120 METAR COR EGLL 081120Z 22009KT 9999 BKN020 15/10 Q1007 NOSIG=
201205081050 METAR COR EGLL 081050Z 21007KT 170V240 9999 SCT020 BKN030
                        14/10 Q1007 NOSIG=
201205081020 METAR COR EGLL 081020Z 18009KT 140V310 9999 FEW021 BKN032
                        14/10 Q1007 NOSIG=
201205080950 METAR COR EGLL 080950Z 19009KT 160V230 9999 FEW014 BKN025
                        14/10 Q1007 NOSIG=
201205080920 METAR COR EGLL 080920Z 18008KT 140V250 9999 FEW015 SCT020
                        BKN035 14/10 Q1007 NOSIG=
201205080850 METAR COR EGLL 080850Z 19007KT 150V260 9999 SCT022 BKN039
                        13/10 Q1007 NOSIG=
201205080820 METAR COR EGLL 080820Z 20006KT 160V290 9999 SCT015 BKN027
                        13/10 Q1007 NOSIG=
201205080750 METAR COR EGLL 080750Z 20007KT 170V300 9999 SCT009 BKN016
                        13/10 Q1007 NOSIG=
201205080720 METAR COR EGLL 080720Z 20007KT 170V230 9999 FEW007 SCT014
                        BKN048 12/10 Q1007 NOSIG=
201205080650 METAR EGLL 080650Z 18006KT 150V230 9999 BKN048 12/10 Q1007=
201205080620 METAR COR EGLL 080620Z 16005KT 090V190 9999 BKN048 11/10
                        Q1007 NOSIG=
201205080550 METAR COR EGLL 080550Z 17005KT 140V240 9999 SCT047 11/10
                        Q1007 NOSIG=
201205080520 METAR COR EGLL 080520Z 18004KT 140V230 CAVOK 10/09 Q1007
                        NOSIG=
201205080450 METAR COR EGLL 080450Z 18004KT 130V310 CAVOK 10/09 Q1007
                        NOSIG=
201205080420 METAR COR EGLL 080420Z 18005KT 160V250 9999 -SHRA FEW020
                        10/09 Q1007 NOSIG=
201205080350 METAR COR EGLL 080350Z 18005KT 9999 -SHRA FEW048 10/09 Q1007
                        NOSIG=
201205080320 METAR COR EGLL 080320Z 19007KT 9999 -SHRA SCT048 10/09 Q1008
                        NOSIG=
201205080250 METAR COR EGLL 080250Z 19007KT 9999 -SHRA FEW016 10/09 Q1008
                        NOSIG=
201205080220 METAR EGLL 080220Z 20005KT 9999 -SHRA FEW016 11/09 Q1008=
201205080150 METAR COR EGLL 080150Z 19007KT 9999 -SHRA FEW010 11/09 Q1008
                        NOSIG=
201205080120 METAR EGLL 080120Z AUTO 19008KT 9999 NCD 11/09 Q1009=
201205080050 METAR EGLL 080050Z AUTO 19008KT 9999 NCD 11/09 Q1009=
201205080020 METAR EGLL 080020Z AUTO 18008KT 9999 NCD 11/09 Q1009=
201205072350 METAR COR EGLL 072350Z 19009KT 9999 -SHRA FEW009 11/10 Q1009
                        NOSIG=
201205072320 METAR COR EGLL 072320Z 19009KT 9999 -SHRA SCT009 11/10 Q1010
                        RESHRA NOSIG=
201205072250 METAR COR EGLL 072250Z 19007KT 8000 SHRA SCT009 11/09 Q1010
                        NOSIG=
201205072220 METAR COR EGLL 072220Z 18006KT 9999 -SHRA FEW020 11/09 Q1010
                        TEMPO SHRA=
201205072150 METAR COR EGLL 072150Z 17008KT 140V230 9999 SCT011 11/09
                        Q1010 TEMPO SHRA=
201205072120 METAR COR EGLL 072120Z 17008KT 120V240 9999 FEW012 11/09
                        Q1010 NOSIG=
201205072050 METAR COR EGLL 072050Z 20008KT 180V250 9999 -SHRA SCT038
                        11/09 Q1011 NOSIG=
201205072020 METAR COR EGLL 072020Z 18010KT 160V240 9999 -SHRA SCT049
                        12/09 Q1011 TEMPO SHRA=
201205071950 METAR COR EGLL 071950Z 18010KT 150V230 9999 FEW044 12/09
                        Q1011 TEMPO SHRA=
201205071920 METAR COR EGLL 071920Z 18010KT 150V240 9999 FEW048 13/09
                        Q1011 TEMPO SHRA=
201205071850 METAR COR EGLL 071850Z 18010KT 160V230 9999 FEW030 13/08
                        Q1011 NOSIG=
201205071820 METAR COR EGLL 071820Z 18010KT 150V230 9999 FEW038 13/08
                        Q1011 NOSIG=
201205071750 METAR COR EGLL 071750Z 20012KT 170V240 9999 FEW030 SCT036
                        14/08 Q1011 NOSIG=
201205071720 METAR COR EGLL 071720Z 20011KT 9999 -SHRA FEW016 SCT033 14/09
                        Q1011 NOSIG=
201205071650 METAR COR EGLL 071650Z 20012KT 170V240 9999 SCT025 14/08
                        Q1011 TEMPO SHRA=
201205071620 METAR COR EGLL 071620Z 20011KT 170V240 9999 FEW022 BKN030
                        14/09 Q1011 NOSIG=
201205071550 METAR EGLL 071550Z 19011KT 160V240 9999 SCT024 SCT040 14/09
                        Q1011=
201205071520 METAR COR EGLL 071520Z 19011KT 160V230 9999 SCT025 SCT038
                        14/09 Q1012 NOSIG=
201205071450 METAR COR EGLL 071450Z 18009KT 140V240 9999 FEW010 BKN012
                        13/10 Q1012 BECMG SCT020=
201205071420 METAR COR EGLL 071420Z 16008KT 130V240 9999 BKN010 11/09
                        Q1012 BECMG SCT020=
201205071350 METAR COR EGLL 071350Z 16010KT 9999 BKN010 11/09 Q1013 BECMG
                        SCT010 BKN020=
201205071320 METAR COR EGLL 071320Z 16009KT 9999 -RA BKN012 10/08 Q1013
                        BECMG SCT012 BKN025=
201205071250 METAR COR EGLL 071250Z 17009KT 9999 -RA FEW014 BKN020 10/08
                        Q1013 TEMPO BKN010=
201205071220 METAR COR EGLL 071220Z 20010KT 6000 -RA BKN014 10/07 Q1013
                        NOSIG=
201205071150 METAR COR EGLL 071150Z 14008KT 9999 -RA FEW022 BKN030 11/07
                        Q1013 TEMPO BKN014=
201205071120 METAR COR EGLL 071120Z 14008KT 9999 -RA FEW030 BKN033 11/07
                        Q1014 TEMPO BKN014=
201205071050 METAR COR EGLL 071050Z 15009KT 9999 -RA FEW030 BKN043 10/06
                        Q1014 RERA TEMPO RA BKN014=
201205071020 METAR COR EGLL 071020Z 14009KT 9999 FEW025 BKN045 11/06 Q1014
                        TEMPO RA=
201205070950 METAR COR EGLL 070950Z 15010KT 9999 FEW022 BKN042 11/05 Q1014
                        TEMPO RA=
201205070920 METAR COR EGLL 070920Z 15008KT 9999 -RA FEW022 BKN044 10/05
                        Q1015 TEMPO RA=
201205070850 METAR COR EGLL 070850Z 16008KT 9999 SCT026 BKN048 10/04 Q1015
                        TEMPO RA=
201205070820 METAR COR EGLL 070820Z 14008KT 9999 SCT022 BKN027 10/05 Q1015
                        NOSIG=
201205070750 METAR COR EGLL 070750Z 15007KT 9999 SCT020 10/05 Q1015 NOSIG=
201205070720 METAR COR EGLL 070720Z 13007KT 9999 FEW028 09/05 Q1015 NOSIG=
201205070650 METAR COR EGLL 070650Z 12008KT 9999 FEW029 08/05 Q1015 NOSIG=
201205070620 METAR COR EGLL 070620Z 10006KT 9999 FEW030 07/05 Q1015 NOSIG=
201205070550 METAR COR EGLL 070550Z 08003KT 9000 SCT030 06/04 Q1016 NOSIG=
201205070520 METAR COR EGLL 070520Z 08003KT 9999 BKN029 05/04 Q1016 NOSIG=
201205070450 METAR COR EGLL 070450Z 07003KT 9999 BKN028 05/03 Q1016 NOSIG=
201205070420 METAR COR EGLL 070420Z 05003KT 9999 SCT028 04/03 Q1016 NOSIG=
201205070350 METAR COR EGLL 070350Z 05002KT 9999 FEW028 SCT031 04/03 Q1016
                        NOSIG=
201205070320 METAR COR EGLL 070320Z 07002KT 9999 SCT032 04/03 Q1016 NOSIG=
201205070250 METAR COR EGLL 070250Z 00000KT 9999 SCT032 04/03 Q1016 NOSIG=
201205070220 METAR COR EGLL 070220Z 00000KT 9999 SCT037 04/03 Q1016 NOSIG=
201205070150 METAR COR EGLL 070150Z 00000KT 9999 BKN032 04/03 Q1016 NOSIG=
201205070120 METAR EGLL 070120Z AUTO 00000KT 9999 FEW031/// 04/02 Q1016=
201205070050 METAR EGLL 070050Z AUTO 00000KT 9999 NCD 03/02 Q1017=
201205070020 METAR EGLL 070020Z AUTO 05003KT 9999 NCD 04/02 Q1017=
201205062350 METAR COR EGLL 062350Z 07002KT CAVOK 04/02 Q1017 NOSIG=
201205062320 METAR COR EGLL 062320Z 08003KT CAVOK 04/02 Q1017 NOSIG=
201205062250 METAR COR EGLL 062250Z 07002KT CAVOK 05/03 Q1017 NOSIG=
201205062220 METAR COR EGLL 062220Z 08002KT CAVOK 05/03 Q1017 NOSIG=
201205062150 METAR COR EGLL 062150Z 09003KT 9999 FEW018 06/03 Q1017 NOSIG=
201205062120 METAR COR EGLL 062120Z 11004KT CAVOK 06/03 Q1017 NOSIG=
201205062050 METAR COR EGLL 062050Z 10004KT 9999 FEW020 06/03 Q1016 NOSIG=
201205062020 METAR COR EGLL 062020Z 11004KT 9999 FEW022 06/03 Q1016 NOSIG=
201205061950 METAR COR EGLL 061950Z 11005KT 9999 FEW022 06/03 Q1016 NOSIG=
201205061920 METAR COR EGLL 061920Z 10005KT 9999 FEW022 07/03 Q1016 NOSIG=
201205061850 METAR COR EGLL 061850Z 10004KT 9999 FEW023 08/04 Q1016 NOSIG=
201205061820 METAR COR EGLL 061820Z 08006KT 9999 FEW027 08/04 Q1015 NOSIG=
201205061750 METAR COR EGLL 061750Z 06004KT 020V080 9999 FEW032 09/01
                        Q1015 NOSIG=
201205061720 METAR COR EGLL 061720Z 05004KT 020V080 9999 FEW032 09/01
                        Q1015 NOSIG=
201205061650 METAR COR EGLL 061650Z VRB03KT 9999 FEW032 09/01 Q1015 NOSIG=
201205061620 METAR COR EGLL 061620Z 07004KT 010V100 9999 FEW034 09/01
                        Q1015 NOSIG=
201205061550 METAR COR EGLL 061550Z 05004KT 010V080 9999 FEW035 09/01
                        Q1015 NOSIG=
201205061520 METAR COR EGLL 061520Z 05004KT 360V100 9999 FEW035 09/01
                        Q1015 NOSIG=
201205061450 METAR COR EGLL 061450Z 05004KT 340V100 9999 FEW036 09/01
                        Q1015 NOSIG=
201205061420 METAR COR EGLL 061420Z 07004KT 030V110 9999 FEW036 09/01
                        Q1015 NOSIG=
201205061350 METAR COR EGLL 061350Z 07005KT 9999 FEW032 09/01 Q1015 NOSIG=
201205061320 METAR COR EGLL 061320Z 07007KT 9999 FEW032 09/00 Q1014 NOSIG=
201205061250 METAR COR EGLL 061250Z 07006KT 010V100 9999 FEW032 09/01
                        Q1014 NOSIG=
201205061220 METAR COR EGLL 061220Z 08007KT 9999 FEW027 09/01 Q1014 NOSIG=
201205061150 METAR COR EGLL 061150Z 07005KT 030V110 9999 -RA FEW034 BKN046
                        09/01 Q1014 NOSIG=
201205061120 METAR COR EGLL 061120Z 06006KT 020V090 9999 FEW034 BKN047
                        08/01 Q1014 NOSIG=
201205061050 METAR COR EGLL 061050Z 04007KT 350V090 9999 FEW035 SCT045
                        08/00 Q1014 NOSIG=
201205061020 METAR COR EGLL 061020Z 06008KT 9999 FEW030 SCT046 08/01 Q1014
                        NOSIG=
201205060950 METAR COR EGLL 060950Z 06007KT 9999 FEW024 SCT045 08/02 Q1014
                        NOSIG=
201205060920 METAR COR EGLL 060920Z 06008KT CAVOK 08/01 Q1014 NOSIG=
201205060850 METAR COR EGLL 060850Z 07007KT 020V090 9999 SCT048 07/02
                        Q1013 NOSIG=
201205060820 METAR COR EGLL 060820Z 06008KT 9999 FEW045 07/02 Q1013 NOSIG=
201205060750 METAR COR EGLL 060750Z 06007KT CAVOK 07/02 Q1013 NOSIG=
201205060720 METAR COR EGLL 060720Z 06007KT CAVOK 06/02 Q1013 NOSIG=
201205060650 METAR COR EGLL 060650Z 06005KT CAVOK 06/02 Q1013 NOSIG=
201205060620 METAR COR EGLL 060620Z 04005KT CAVOK 06/02 Q1013 NOSIG=
201205060550 METAR COR EGLL 060550Z 05005KT 010V080 9999 -RA SCT048 05/02
                        Q1012 NOSIG=
201205060520 METAR COR EGLL 060520Z 03004KT 360V060 9999 -RA FEW022 BKN047
                        05/03 Q1012 NOSIG=
201205060450 METAR COR EGLL 060450Z 03004KT 350V070 9999 -RA FEW022 BKN048
                        06/02 Q1012 NOSIG=
201205060420 METAR COR EGLL 060420Z 01004KT 350V050 9999 FEW022 BKN047
                        06/02 Q1012 NOSIG=
201205060350 METAR COR EGLL 060350Z 04005KT 010V070 9999 BKN046 06/02
                        Q1012 NOSIG=
201205060320 METAR COR EGLL 060320Z 05006KT 010V080 9999 BKN046 06/02
                        Q1012 NOSIG=
201205060250 METAR COR EGLL 060250Z 05006KT 030V090 9999 BKN046 06/02
                        Q1012 NOSIG=
201205060220 METAR COR EGLL 060220Z 05005KT 020V080 9999 SCT032 BKN043
                        06/02 Q1012 NOSIG=
201205060150 METAR COR EGLL 060150Z 06005KT 9999 BKN042 06/02 Q1012 NOSIG=
201205060120 METAR EGLL 060120Z AUTO 05006KT 9999 BKN038/// OVC043///
                        06/02 Q1012=
201205060050 METAR EGLL 060050Z AUTO 05006KT 010V070 9999 OVC043/// 06/02
                        Q1012=
201205060020 METAR EGLL 060020Z AUTO 05006KT 360V080 9999 OVC042/// 06/02
                        Q1012=
201205052350 METAR COR EGLL 052350Z 05007KT 9999 BKN047 06/02 Q1012 NOSIG=
201205052320 METAR COR EGLL 052320Z 06008KT 9999 FEW020 BKN044 06/02 Q1012
                        NOSIG=
201205052250 METAR COR EGLL 052250Z 06008KT 9999 FEW022 SCT027 BKN044
                        06/02 Q1012 NOSIG=
201205052220 METAR COR EGLL 052220Z 06010KT 9999 -RA SCT021 SCT027 07/03
                        Q1012 TEMPO -RA BKN014=
201205052150 METAR COR EGLL 052150Z 04007KT 010V080 9999 FEW023 SCT027
                        BKN031 07/03 Q1011 NOSIG=
201205052120 METAR COR EGLL 052120Z 04007KT 020V080 9999 FEW033 BKN040
                        07/03 Q1011 NOSIG=
201205052050 METAR COR EGLL 052050Z 04007KT 010V080 9999 FEW031 BKN041
                        07/02 Q1011 NOSIG=
201205052020 METAR COR EGLL 052020Z 06007KT 9999 SCT032 BKN041 08/01 Q1011
                        NOSIG=
201205051950 METAR COR EGLL 051950Z 05007KT 020V080 9999 SCT031 BKN038
                        08/02 Q1011 NOSIG=
201205051920 METAR COR EGLL 051920Z 06007KT 9999 SCT036 BKN046 08/01 Q1011
                        NOSIG=
201205051850 METAR COR EGLL 051850Z 06007KT 9999 SCT035 BKN046 09/01 Q1010
                        NOSIG=
201205051820 METAR COR EGLL 051820Z 06007KT 010V080 9999 SCT036 BKN043
                        09/01 Q1010 NOSIG=
201205051750 METAR COR EGLL 051750Z 04009KT 360V070 9999 BKN044 10/01
                        Q1010 NOSIG=
201205051720 METAR COR EGLL 051720Z 05006KT 020V090 9999 SCT045 10/00
                        Q1010 NOSIG=
201205051650 METAR COR EGLL 051650Z 05007KT 010V080 9999 FEW045 09/01
                        Q1010 NOSIG=
201205051620 METAR COR EGLL 051620Z 06009KT 020V090 9999 FEW048 09/00
                        Q1010 NOSIG=
201205051550 METAR COR EGLL 051550Z 04007KT 9999 FEW032 09/01 Q1010 NOSIG=
201205051520 METAR COR EGLL 051520Z 04009KT 010V100 9999 FEW028 09/01
                        Q1010 NOSIG=
201205051450 METAR COR EGLL 051450Z 06008KT 020V080 9999 FEW030 09/02
                        Q1010 NOSIG=
201205051420 METAR COR EGLL 051420Z 05007KT 020V090 9999 FEW037 09/02
                        Q1010 NOSIG=
201205051350 METAR COR EGLL 051350Z 05007KT 360V080 9999 FEW025 SCT030
                        09/02 Q1011 NOSIG=
201205051320 METAR COR EGLL 051320Z 06006KT 9999 SCT041 08/02 Q1011 NOSIG=
201205051250 METAR COR EGLL 051250Z 05006KT 020V090 9999 SCT028 08/02
                        Q1011 NOSIG=
201205051220 METAR COR EGLL 051220Z 05007KT 010V090 9999 -RA BKN024 07/03
                        Q1011 NOSIG=
201205051150 METAR COR EGLL 051150Z 06005KT 020V090 9999 -RA SCT024 SCT030
                        07/02 Q1011 NOSIG=
201205051120 METAR COR EGLL 051120Z 05005KT 360V090 9999 -RA SCT025 SCT035
                        07/02 Q1011 NOSIG=
201205051050 METAR COR EGLL 051050Z 06007KT 020V090 9999 FEW030 BKN036
                        07/01 Q1010 NOSIG=
201205051020 METAR COR EGLL 051020Z 07009KT 9999 FEW028 07/01 Q1010 NOSIG=
201205050950 METAR COR EGLL 050950Z 06008KT 020V090 9999 FEW041 07/01
                        Q1010 NOSIG=
201205050920 METAR COR EGLL 050920Z 05008KT 020V080 9999 SCT039 07/01
                        Q1010 NOSIG=
201205050850 METAR COR EGLL 050850Z 06010KT 020V090 9999 FEW039 07/01
                        Q1010 NOSIG=
201205050820 METAR COR EGLL 050820Z 04008KT 360V080 9999 FEW037 06/01
                        Q1010 NOSIG=
201205050750 METAR COR EGLL 050750Z 04008KT 360V080 9999 FEW020 BKN044
                        06/01 Q1009 NOSIG=
201205050720 METAR COR EGLL 050720Z 03008KT 9999 FEW018 BKN043 06/02 Q1009
                        NOSIG=
201205050650 METAR COR EGLL 050650Z 03008KT 9999 FEW016 BKN040 06/02 Q1009
                        NOSIG=
201205050620 METAR COR EGLL 050620Z 03006KT 340V070 9999 FEW016 BKN039
                        06/02 Q1009 NOSIG=
201205050550 METAR COR EGLL 050550Z 03009KT 360V060 9999 FEW015 BKN039
                        06/03 Q1009 NOSIG=
201205050520 METAR COR EGLL 050520Z 03006KT 350V060 9999 FEW016 BKN037
                        06/03 Q1008 TEMPO BKN014=
201205050450 METAR COR EGLL 050450Z 02008KT 340V050 9999 SCT018 SCT037
                        06/03 Q1008 NOSIG=
201205050420 METAR COR EGLL 050420Z 02006KT 340V050 9999 FEW017 SCT027
                        06/03 Q1008 NOSIG=
201205050350 METAR COR EGLL 050350Z 03009G19KT 9999 SCT016 BKN028 06/03
                        Q1008 TEMPO BKN014=
201205050320 METAR COR EGLL 050320Z 03007KT 350V070 9999 FEW016 BKN018
                        07/03 Q1008 TEMPO BKN014=
201205050250 METAR COR EGLL 050250Z 03008KT 350V060 9999 BKN014 07/04
                        Q1008 NOSIG=
201205050220 METAR COR EGLL 050220Z 03008KT 350V060 9999 SCT014 BKN018
                        07/04 Q1008 TEMPO -RA BKN014=
201205050150 METAR COR EGLL 050150Z 04009KT 010V070 9999 SCT013 BKN029
                        07/04 Q1007 TEMPO -RA BKN012=
201205050120 METAR EGLL 050120Z AUTO 05008KT 9999 BKN011/// BKN033///
                        07/05 Q1008=
201205050050 METAR EGLL 050050Z AUTO 05008KT 350V080 9999 BKN010/// BKN019///
                        07/05 Q1008=
201205050020 METAR EGLL 050020Z AUTO 03008KT 9999 -DZ SCT011/// SCT016///
                        07/05 Q1007=
201205042350 METAR COR EGLL 042350Z 04008KT 350V070 9999 SCT014 BKN026
                        08/05 Q1007 TEMPO -RA BKN014=
201205042320 METAR COR EGLL 042320Z 04006KT 010V080 9999 BKN030 BKN034
                        08/05 Q1007 TEMPO -RA BKN012=
201205042250 METAR COR EGLL 042250Z 04006KT 360V070 9999 OVC031 08/05
                        Q1007 TEMPO -RA BKN012=
201205042220 METAR COR EGLL 042220Z 04007KT 360V080 9999 FEW015 BKN034
                        08/05 Q1007 NOSIG=
201205042150 METAR COR EGLL 042150Z 04006KT 360V070 9999 FEW016 BKN033
                        08/05 Q1007 NOSIG=
201205042120 METAR COR EGLL 042120Z 05007KT 9999 SCT017 BKN033 09/05 Q1007
                        NOSIG=
201205042050 METAR EGLL 042050Z 05005KT 010V080 9999 SCT018 BKN032 09/05
                        Q1007=
201205042020 METAR COR EGLL 042020Z 03006KT 330V050 9999 BKN031 09/05
                        Q1007 NOSIG=
201205041950 METAR COR EGLL 041950Z 04004KT 360V080 9999 BKN029 09/04
                        Q1007 NOSIG=
201205041920 METAR COR EGLL 041920Z 05005KT 9999 BKN028 09/04 Q1007 NOSIG=
201205041850 METAR COR EGLL 041850Z 05005KT 9999 SCT028 BKN043 09/04 Q1007
                        NOSIG=
201205041820 METAR COR EGLL 041820Z 05005KT 360V100 9999 BKN018 09/05
                        Q1006 NOSIG=
201205041750 METAR COR EGLL 041750Z 03007KT 340V070 9999 BKN018 09/05
                        Q1006 TEMPO BKN014=
201205041720 METAR COR EGLL 041720Z 05006KT 9999 BKN017 09/05 Q1006 TEMPO
                        BKN014=
201205041650 METAR COR EGLL 041650Z 03006KT 340V050 9999 BKN018 09/05
                        Q1006 NOSIG=
201205041620 METAR EGLL 041620Z 04005KT 010V080 9999 BKN017 09/05 Q1006=
201205041550 METAR COR EGLL 041550Z 04004KT 350V070 9999 BKN017 09/05
                        Q1006 NOSIG=
201205041520 METAR COR EGLL 041520Z 01006KT 340V050 9999 BKN018 09/05
                        Q1006 NOSIG=
201205041450 METAR COR EGLL 041450Z 03006KT 340V070 9999 SCT017 BKN024
                        10/05 Q1006 NOSIG=
201205041420 METAR COR EGLL 041420Z 05006KT 9999 BKN015 BKN019 09/05 Q1006
                        TEMPO BKN014=
201205041350 METAR COR EGLL 041350Z 05006KT 010V080 9999 BKN015 BKN020
                        09/06 Q1007 TEMPO BKN014=
201205041320 METAR COR EGLL 041320Z 02006KT 340V070 9999 BKN015 09/05
                        Q1007 TEMPO BKN013=
201205041250 METAR COR EGLL 041250Z 01006KT 330V050 9999 BKN015 09/05
                        Q1006 TEMPO BKN013=
201205041220 METAR COR EGLL 041220Z 03005KT 350V060 9999 BKN016 08/05
                        Q1007 TEMPO BKN014=
201205041150 METAR COR EGLL 041150Z 02005KT 320V070 9999 -RA BKN014 08/05
                        Q1007 BECMG BKN018=
201205041120 METAR EGLL 041120Z 01005KT 330V050 9999 -RA BKN015 08/05
                        Q1007=
201205041050 METAR COR EGLL 041050Z 01006KT 340V050 9999 -RA BKN015 09/05
                        Q1006 NOSIG=
201205041020 METAR COR EGLL 041020Z 36005KT 9999 BKN013 08/05 Q1006 BECMG
                        SCT013 BKN016=
201205040950 METAR COR EGLL 040950Z 01005KT 330V040 9999 BKN012 08/05
                        Q1006 NOSIG=
201205040920 METAR COR EGLL 040920Z 01006KT 340V050 9999 BKN012 08/06
                        Q1006 NOSIG=
201205040850 METAR COR EGLL 040850Z 04004KT 360V070 9000 -DZ FEW007 BKN010
                        08/06 Q1007 TEMPO BKN008=
201205040820 METAR EGLL 040820Z VRB03KT 9999 FEW009 BKN011 08/05 Q1007=
201205040750 METAR COR EGLL 040750Z 36005KT 9999 SCT009 BKN010 08/05 Q1007
                        TEMPO BKN009=
201205040720 METAR COR EGLL 040720Z 36004KT 330V030 9999 SCT008 BKN011
                        08/05 Q1007 TEMPO BKN008=
201205040650 METAR COR EGLL 040650Z 36005KT 9999 VCSH FEW007 SCT009 BKN011
                        07/05 Q1007 TEMPO BKN008=
201205040620 METAR COR EGLL 040620Z 36005KT 330V040 9999 VCSH FEW008 SCT009
                        BKN011 07/05 Q1007 TEMPO BKN009=
201205040550 METAR COR EGLL 040550Z 36005KT 330V030 9999 FEW007 SCT009
                        BKN010 07/05 Q1007 NOSIG=
201205040520 METAR COR EGLL 040520Z 36005KT 330V030 9999 FEW008 SCT012
                        BKN027 07/05 Q1007 BECMG BKN010=
201205040450 METAR COR EGLL 040450Z 01004KT 330V050 9000 SCT006 BKN008
                        07/06 Q1006 NOSIG=
201205040420 METAR COR EGLL 040420Z 36004KT 330V040 8000 BKN006 07/06
                        Q1006 TEMPO 4000 -DZ=
201205040350 METAR COR EGLL 040350Z 35004KT 9999 FEW004 BKN009 07/06 Q1007
                        NOSIG=
201205040320 METAR COR EGLL 040320Z 35004KT 9999 FEW004 SCT006 BKN009
                        07/06 Q1007 TEMPO 4500 BR=
201205040250 METAR COR EGLL 040250Z 36004KT 320V030 9999 SCT006 BKN010
                        07/06 Q1007 TEMPO 4500 BR BKN008=
201205040220 METAR COR EGLL 040220Z 36005KT 9000 FEW005 SCT010 OVC016
                        07/06 Q1007 BECMG BKN010=
201205040150 METAR COR EGLL 040150Z 36004KT 310V020 9999 FEW006 BKN011
                        07/06 Q1007 TEMPO BKN008=
201205040120 METAR EGLL 040120Z AUTO 36004KT 8000 FEW004/// BKN009///
                        07/06 Q1008=
201205040050 METAR EGLL 040050Z AUTO 36004KT 8000 FEW006/// BKN009///
                        08/06 Q1008=
201205040020 METAR EGLL 040020Z AUTO 36004KT 9999 BKN008/// 08/06 Q1008=
201205032350 METAR COR EGLL 032350Z VRB03KT 9999 BKN008 BKN015 08/06 Q1008
                        NOSIG=
201205032320 METAR COR EGLL 032320Z 36004KT 9999 FEW008 BKN009 08/06 Q1008
                        NOSIG=
201205032250 METAR COR EGLL 032250Z 36005KT 9999 FEW008 OVC010 08/06 Q1009
                        NOSIG=
201205032220 METAR COR EGLL 032220Z 36003KT 9999 SCT008 BKN016 08/06 Q1009
                        BECMG BKN010=
201205032150 METAR COR EGLL 032150Z 35003KT 9999 FEW008 OVC016 08/06 Q1009
                        BECMG BKN010=
201205032120 METAR COR EGLL 032120Z VRB03KT 9999 SCT008 BKN017 08/06 Q1009
                        BECMG BKN010=
201205032050 METAR COR EGLL 032050Z 36005KT 9999 FEW008 BKN010 BKN016
                        08/06 Q1009 NOSIG=
201205032020 METAR COR EGLL 032020Z 02004KT 330V060 9999 SCT008 BKN014
                        08/06 Q1009 NOSIG=
201205031950 METAR COR EGLL 031950Z 36005KT 9999 SCT009 BKN014 08/06 Q1009
                        NOSIG=
201205031920 METAR COR EGLL 031920Z 36004KT 320V040 9999 SCT010 BKN017
                        08/06 Q1009 TEMPO BKN010=
201205031850 METAR COR EGLL 031850Z 01004KT 340V050 9999 FEW008 BKN016
                        08/06 Q1009 TEMPO BKN010=
201205031820 METAR COR EGLL 031820Z VRB03KT 9999 FEW007 BKN015 08/06 Q1009
                        TEMPO SCT006 BKN010=
201205031750 METAR EGLL 031750Z AUTO 01004KT 340V050 7000 SCT005/// OVC015///
                        08/07 Q1010=
201205031720 METAR COR EGLL 031720Z 36004KT 330V040 7000 -DZ FEW006 SCT008
                        BKN014 08/07 Q1010 TEMPO 4000 -DZ
                        BKN008=
201205031650 METAR COR EGLL 031650Z 36004KT 5000 -DZ SCT008 BKN012 08/07
                        Q1010 TEMPO 4000 -DZ BKN008=
201205031620 METAR COR EGLL 031620Z 36004KT 330V030 5000 -DZ FEW008 BKN011
                        09/07 Q1010 TEMPO 4000 -DZ BKN008=
201205031550 METAR COR EGLL 031550Z 35005KT 7000 -DZ FEW009 BKN014 09/07
                        Q1010 TEMPO 4000 -DZ BKN009=
201205031520 METAR COR EGLL 031520Z 36005KT 9999 SCT011 BKN014 09/06 Q1011
                        NOSIG=
201205031450 METAR COR EGLL 031450Z 36005KT 330V060 9999 FEW009 BKN013
                        09/06 Q1011 TEMPO BKN009=
201205031420 METAR COR EGLL 031420Z 02005KT 330V090 9999 FEW011 BKN014
                        09/07 Q1011 NOSIG=
201205031350 METAR COR EGLL 031350Z 03006KT 360V070 9999 SCT011 BKN014
                        09/06 Q1011 NOSIG=
201205031320 METAR COR EGLL 031320Z 02004KT 350V060 9999 BKN010 BKN014
                        09/06 Q1012 TEMPO BKN009=
201205031250 METAR COR EGLL 031250Z 05005KT 010V080 9999 SCT010 BKN012
                        09/07 Q1012 TEMPO BKN009=
201205031220 METAR COR EGLL 031220Z 05006KT 020V080 9999 FEW009 BKN011
                        09/06 Q1012 TEMPO BKN009=
201205031150 METAR COR EGLL 031150Z 01005KT 340V050 9999 SCT009 BKN012
                        09/07 Q1012 TEMPO BKN009=
201205031120 METAR COR EGLL 031120Z 02004KT 340V060 9999 -RA SCT011 BKN014
                        09/07 Q1012 TEMPO BKN009=
201205031050 METAR COR EGLL 031050Z 06006KT 020V090 9999 SCT011 BKN014
                        09/07 Q1012 TEMPO 4000 -DZ BKN009=
201205031020 METAR COR EGLL 031020Z 03006KT 350V070 9999 BKN010 09/07
                        Q1012 TEMPO 4000 -DZ BKN008=
201205030950 METAR COR EGLL 030950Z 03007KT 9999 SCT008 BKN011 08/07 Q1013
                        TEMPO 4000 DZ BKN009=
201205030920 METAR COR EGLL 030920Z 02006KT 350V050 9000 -RA FEW006 SCT008
                        BKN010 08/07 Q1013 TEMPO 4000 DZ
                        BKN008=
201205030850 METAR COR EGLL 030850Z 02005KT 350V050 7000 SCT006 BKN008
                        08/07 Q1013 TEMPO 9999 FEW008 BKN012=
201205030820 METAR COR EGLL 030820Z 03006KT 350V070 4000 -RADZ BKN008
                        BKN010 08/07 Q1013 TEMPO 7000 NSW
                        SCT008 BKN011=
201205030750 METAR COR EGLL 030750Z 02005KT 340V060 7000 BKN008 08/06
                        Q1013 TEMPO BKN011=
201205030720 METAR EGLL 030720Z 03005KT 340V070 9999 FEW009 BKN010 08/06
                        Q1013=
201205030650 METAR COR EGLL 030650Z 03006KT 360V070 9999 BKN010 08/06
                        Q1013 TEMPO -RA BKN008=
201205030620 METAR COR EGLL 030620Z 03007KT 360V070 9999 -RA FEW009 BKN010
                        08/06 Q1013 TEMPO -RA BKN008=
201205030550 METAR COR EGLL 030550Z 03006KT 350V060 9999 BKN010 09/06
                        Q1013 NOSIG=
201205030520 METAR COR EGLL 030520Z 05006KT 010V080 9999 BKN010 09/07
                        Q1013 NOSIG=
201205030450 METAR COR EGLL 030450Z 06006KT 9999 BKN012 09/06 Q1013 NOSIG=
201205030420 METAR COR EGLL 030420Z 06007KT 030V090 9999 SCT011 BKN015
                        09/07 Q1013 BECMG BKN012=
201205030350 METAR COR EGLL 030350Z 04006KT 360V080 9999 OVC009 09/07
                        Q1013 NOSIG=
201205030320 METAR COR EGLL 030320Z 02005KT 330V070 9999 FEW010 BKN012
                        09/07 Q1013 TEMPO BKN008=
201205030250 METAR EGLL 030250Z AUTO 03005KT 350V070 9999 BKN010/// 09/07
                        Q1014=
201205030220 METAR COR EGLL 030220Z 05005KT 360V090 9999 OVC009 09/08
                        Q1014 TEMPO 3000 RA=
201205030150 METAR COR EGLL 030150Z 03005KT 340V080 9999 BKN009 09/08
                        Q1014 TEMPO 3000 RA=
201205030120 METAR EGLL 030120Z AUTO 36004KT 9999 -RA OVC009/// 09/07
                        Q1014=
201205030050 METAR EGLL 030050Z AUTO 01003KT 9999 -DZ FEW010/// OVC012///
                        09/07 Q1015=
201205030020 METAR EGLL 030020Z AUTO 36004KT 330V070 9999 -RA SCT009///
                        BKN016/// 09/07 Q1015=
201205022350 METAR COR EGLL 022350Z 02005KT 350V050 9999 BKN011 BKN022
                        09/07 Q1015 NOSIG=
201205022320 METAR COR EGLL 022320Z 03006KT 340V060 9999 -RA SCT012 BKN025
                        09/07 Q1016 BECMG BKN012=
201205022250 METAR COR EGLL 022250Z 01005KT 9999 -RA SCT010 BKN028 09/08
                        Q1016 TEMPO 4000 RA BKN010=
201205022220 METAR COR EGLL 022220Z 03006KT 350V050 9999 SCT010 BKN030
                        10/08 Q1016 TEMPO 4000 RA BKN010=
201205022150 METAR COR EGLL 022150Z 03006KT 350V070 9999 FEW010 BKN025
                        BKN035 10/08 Q1016 TEMPO 4000 RA
                        BKN010=
201205022120 METAR COR EGLL 022120Z 03006KT 360V070 9999 -RA BKN010 10/08
                        Q1016 TEMPO 4000 RA BKN008=
201205022050 METAR COR EGLL 022050Z 02005KT 330V070 9999 -RA SCT012 SCT024
                        10/08 Q1016 TEMPO 4000 RA BKN012=
201205022020 METAR COR EGLL 022020Z 36006KT 9999 -RA FEW019 10/07 Q1016
                        NOSIG=
201205021950 METAR COR EGLL 021950Z 02006KT 350V050 9999 FEW020 10/07
                        Q1016 TEMPO 4000 RA=
201205021920 METAR COR EGLL 021920Z 01007KT 340V050 9999 -RA FEW039 11/07
                        Q1016 TEMPO 4000 RA=
201205021850 METAR COR EGLL 021850Z 03010KT 360V060 9999 FEW020 12/06
                        Q1016 NOSIG=
201205021820 METAR COR EGLL 021820Z 03008KT 350V070 9999 FEW031 14/07
                        Q1016 NOSIG=
201205021750 METAR COR EGLL 021750Z 36006KT 9999 FEW022 15/07 Q1016 NOSIG=
201205021720 METAR COR EGLL 021720Z 36007KT 330V040 9999 FEW022 15/08
                        Q1016 NOSIG=
201205021650 METAR EGLL 021650Z AUTO 35006KT 310V020 9999 FEW023/// BKN030///
                        14/09 Q1017=
201205021620 METAR COR EGLL 021620Z 34006KT 300V030 9000 BKN021 BKN030
                        14/09 Q1017 NOSIG=
201205021550 METAR COR EGLL 021550Z 35006KT 300V020 9000 BKN020 14/09
                        Q1018 NOSIG=
201205021520 METAR COR EGLL 021520Z 32006KT 290V010 9000 BKN019 13/09
                        Q1018 NOSIG=
201205021450 METAR COR EGLL 021450Z 34006KT 280V020 9999 BKN019 13/08
                        Q1018 NOSIG=
201205021420 METAR COR EGLL 021420Z 35005KT 300V040 9000 BKN016 13/08
                        Q1019 NOSIG=
201205021350 METAR COR EGLL 021350Z 35007KT 300V020 8000 BKN012 11/08
                        Q1019 BECMG BKN015=
201205021320 METAR COR EGLL 021320Z 36008KT 8000 OVC012 11/08 Q1019 NOSIG=
201205021250 METAR COR EGLL 021250Z 34007KT 300V020 8000 OVC013 11/08
                        Q1020 NOSIG=
201205021220 METAR COR EGLL 021220Z 34005KT 310V020 8000 OVC010 11/08
                        Q1020 BECMG BKN015=
201205021150 METAR COR EGLL 021150Z 35005KT 320V030 8000 OVC010 11/08
                        Q1020 NOSIG=
201205021120 METAR EGLL 021120Z 33009KT 290V010 8000 OVC010 10/08 Q1020=
201205021050 METAR COR EGLL 021050Z 33007KT 310V010 9000 OVC009 11/08
                        Q1020 TEMPO BKN014=
201205021020 METAR COR EGLL 021020Z 35006KT 320V030 8000 OVC009 11/08
                        Q1021 TEMPO SCT009 BKN014=
201205020950 METAR COR EGLL 020950Z 35005KT 300V030 8000 OVC009 11/08
                        Q1021 TEMPO SCT009 BKN012=
201205020920 METAR COR EGLL 020920Z 34005KT 300V010 8000 FEW009 OVC011
                        10/08 Q1021 BECMG SCT012 BKN015=
201205020850 METAR COR EGLL 020850Z 36006KT 320V030 9999 FEW009 OVC011
                        10/08 Q1022 BECMG SCT012 BKN016=
201205020820 METAR COR EGLL 020820Z 33006KT 300V030 9999 OVC009 10/08
                        Q1021 BECMG BKN012=
201205020750 METAR COR EGLL 020750Z 35006KT 320V030 9999 OVC009 10/08
                        Q1021 BECMG BKN012=
201205020720 METAR COR EGLL 020720Z 34007KT 310V010 9999 OVC007 10/08
                        Q1021 BECMG BKN012=
201205020650 METAR COR EGLL 020650Z 01006KT 8000 OVC007 10/08 Q1021 TEMPO
                        BKN012=
201205020620 METAR COR EGLL 020620Z 36006KT 330V040 7000 FEW007 BKN008
                        10/08 Q1022 TEMPO BKN012=
201205020550 METAR COR EGLL 020550Z 02005KT 340V060 8000 BKN008 BKN010
                        10/08 Q1022 TEMPO BKN012=
201205020520 METAR COR EGLL 020520Z 36005KT 330V050 7000 BKN009 10/08
                        Q1022 TEMPO BKN012=
201205020450 METAR COR EGLL 020450Z 36006KT 330V040 9000 OVC009 10/08
                        Q1021 NOSIG=
201205020420 METAR COR EGLL 020420Z 36004KT 320V030 7000 OVC011 10/08
                        Q1021 NOSIG=
201205020350 METAR COR EGLL 020350Z 36004KT 320V030 7000 SCT007 OVC014
                        10/09 Q1021 TEMPO BKN007=
201205020320 METAR COR EGLL 020320Z 36004KT 7000 SCT007 OVC010 11/09 Q1021
                        TEMPO BKN007=
201205020250 METAR EGLL 020250Z AUTO 36003KT 7000 BKN006/// 11/09 Q1022=
201205020220 METAR COR EGLL 020220Z 04003KT 7000 OVC006 11/09 Q1021 NOSIG=
201205020150 METAR COR EGLL 020150Z 01005KT 330V070 8000 OVC006 11/09
                        Q1021 NOSIG=
201205020120 METAR EGLL 020120Z AUTO 02006KT 340V050 6000 OVC005/// 11/10
                        Q1022=
201205020050 METAR EGLL 020050Z AUTO 04005KT 350V070 5000 OVC004/// 11/10
                        Q1022=
201205020020 METAR EGLL 020020Z AUTO 36005KT 330V040 4000 HZ OVC004///
                        12/10 Q1021=
201205012350 METAR COR EGLL 012350Z 02005KT 330V050 4000 HZ OVC005 12/10
                        Q1021 NOSIG=
201205012320 METAR COR EGLL 012320Z 36005KT 3500 HZ BKN006 12/11 Q1021
                        NOSIG=
201205012250 METAR COR EGLL 012250Z 35005KT 4000 HZ BKN007 13/11 Q1021
                        NOSIG=
201205012220 METAR COR EGLL 012220Z VRB02KT 5000 HZ BKN009 13/11 Q1021
                        BECMG BKN012=
201205012150 METAR COR EGLL 012150Z VRB03KT 7000 BKN010 14/11 Q1021 NOSIG=
201205012120 METAR COR EGLL 012120Z VRB03KT 7000 BKN009 14/11 Q1021 BECMG
                        BKN012=
201205012050 METAR COR EGLL 012050Z VRB02KT 9000 SCT010 BKN018 15/11 Q1020
                        NOSIG=
201205012020 METAR COR EGLL 012020Z 35003KT 9999 FEW014 SCT017 15/10 Q1020
                        NOSIG=
201205011950 METAR COR EGLL 011950Z 32003KT 9999 FEW043 16/08 Q1019 NOSIG=
201205011920 METAR COR EGLL 011920Z 31003KT 9999 BKN041 16/08 Q1019 NOSIG=
201205011850 METAR COR EGLL 011850Z 30005KT 9999 FEW045 16/08 Q1019 NOSIG=
201205011820 METAR COR EGLL 011820Z 30006KT 9999 SCT038 16/08 Q1018 NOSIG=
201205011750 METAR COR EGLL 011750Z 29005KT 9999 SCT042 17/08 Q1018 NOSIG=
201205011720 METAR COR EGLL 011720Z 25007KT 9999 FEW034 17/08 Q1018 NOSIG=
201205011650 METAR COR EGLL 011650Z 24006KT 210V280 9999 SCT034CB 17/08
                        Q1018 NOSIG=
201205011620 METAR EGLL 011620Z 26007KT 220V300 9999 SCT032CB 17/09 Q1018=
201205011550 METAR COR EGLL 011550Z 25010KT 9999 SCT027CB 17/09 Q1017
                        NOSIG=
201205011520 METAR COR EGLL 011520Z 22008KT 9999 SCT027CB 17/10 Q1017
                        NOSIG=
201205011450 METAR COR EGLL 011450Z 23008KT 200V260 9999 FEW025 17/10
                        Q1017 NOSIG=
201205011420 METAR COR EGLL 011420Z 23010KT 190V260 9999 FEW018 SCT031
                        16/10 Q1017 NOSIG=
201205011350 METAR COR EGLL 011350Z 22011KT 9999 FEW015 BKN031 16/11 Q1017
                        NOSIG=
201205011320 METAR COR EGLL 011320Z 22011KT 180V250 9999 BKN023 16/12
                        Q1017 NOSIG=
201205011250 METAR COR EGLL 011250Z 20009KT 170V250 9999 SCT018 17/12
                        Q1016 NOSIG=
201205011220 METAR COR EGLL 011220Z VRB05KT 9999 BKN015 15/12 Q1016 NOSIG=
201205011150 METAR COR EGLL 011150Z VRB03KT 9999 SCT012 BKN023 16/12 Q1016
                        TEMPO SHRA=
201205011120 METAR COR EGLL 011120Z VRB03KT 9000 BKN013 BKN022 15/12 Q1016
                        TEMPO SHRA=
201205011050 METAR COR EGLL 011050Z 11004KT 070V180 6000 SCT006 BKN009
                        14/12 Q1016 BECMG BKN012=
201205011020 METAR COR EGLL 011020Z 12005KT 080V150 5000 -DZ SCT005 BKN007
                        14/12 Q1015 BECMG BKN012=
201205010950 METAR COR EGLL 010950Z 09007KT 4500 BR SCT005 BKN007 13/12
                        Q1015 BECMG 6000 BKN010=
201205010920 METAR COR EGLL 010920Z 10006KT 3800 -DZ BKN005 BKN008 12/11
                        Q1015 TEMPO 3000 DZ=
201205010850 METAR COR EGLL 010850Z 08006KT 4200 -DZRA SCT004 BKN006 BKN008
                        12/11 Q1015 TEMPO 3000 DZ=
201205010820 METAR COR EGLL 010820Z 08006KT 5000 -RA SCT004 BKN006 BKN008
                        12/10 Q1014 TEMPO 4000=
201205010750 METAR COR EGLL 010750Z 08007KT 6000 -RA FEW004 BKN006 BKN008
                        12/11 Q1014 RERA NOSIG=
201205010720 METAR COR EGLL 010720Z 06006KT 6000 -RA BKN007 BKN016 12/10
                        Q1014 NOSIG=
201205010650 METAR COR EGLL 010650Z 06005KT 8000 -RA FEW005 BKN007 BKN010
                        11/10 Q1013 RERA TEMPO 4000 RA=
201205010620 METAR COR EGLL 010620Z 07006KT 6000 RA FEW007 BKN008 BKN010
                        11/10 Q1013 TEMPO 4000=
201205010550 METAR COR EGLL 010550Z 07009KT 5000 RA FEW006 BKN008 BKN010
                        11/10 Q1013 TEMPO 3000 +RA=
201205010520 METAR COR EGLL 010520Z 06010KT 5000 RA FEW008 BKN011 11/10
                        Q1013 NOSIG=
201205010450 METAR COR EGLL 010450Z 07010KT 3800 +RA FEW008 BKN011 12/11
                        Q1013 NOSIG=
201205010420 METAR COR EGLL 010420Z 06010KT 5000 RA FEW007 SCT008 BKN011
                        12/11 Q1013 TEMPO 4000 BKN008=
201205010350 METAR COR EGLL 010350Z 07009KT 5000 RA SCT008 BKN010 12/11
                        Q1013 TEMPO 4000 BKN008=
201205010320 METAR COR EGLL 010320Z 07011KT 6000 RA SCT008 BKN010 12/10
                        Q1013 TEMPO BKN008=
201205010250 METAR COR EGLL 010250Z 08013KT 9999 -RA BKN012 13/11 Q1013
                        TEMPO RA BKN008=
201205010220 METAR COR EGLL 010220Z 08012KT 9999 BKN014 13/11 Q1012 TEMPO
                        RA BKN008=
201205010150 METAR COR EGLL 010150Z 08012KT 9999 SCT018 13/11 Q1012 TEMPO
                        RA BKN008=
201205010120 METAR EGLL 010120Z AUTO 06010KT 7000 -RA SCT015/// 13/11
                        Q1012 RERA=
201205010050 METAR EGLL 010050Z AUTO 06012KT 9000 -RA BKN013/// 13/11
                        Q1012 RERA=
201205010020 METAR EGLL 010020Z AUTO 06010KT 9999 FEW016/// 13/10 Q1012=