##########################################################
# Query made at 01/13/2020 11:50:36 UTC
# Time interval: from 05/01/2015 00:00  to 05/31/2015 23:59  UTC
##########################################################

##########################################################
# EGLL, London / Heathrow Airport (United Kingdom)
# WMO index: 03772
# Latitude 51-29N. Longitude 000-27W. Altitude 24 m.
##########################################################

###################################
#  METAR/SPECI from EGLL
###################################
201505312350 METAR COR EGLL 312350Z 25008KT CAVOK 09/04 Q1014 NOSIG=
201505312320 METAR EGLL 312320Z 26008KT CAVOK 09/04 Q1014=
201505312250 METAR COR EGLL 312250Z 25010KT CAVOK 09/04 Q1013 NOSIG=
201505312220 METAR COR EGLL 312220Z 26010KT CAVOK 10/04 Q1013 NOSIG=
201505312150 METAR COR EGLL 312150Z 26012KT CAVOK 10/04 Q1013 NOSIG=
201505312120 METAR COR EGLL 312120Z 27009KT CAVOK 11/04 Q1013 NOSIG=
201505312050 METAR COR EGLL 312050Z 28007KT CAVOK 11/02 Q1012 NOSIG=
201505312020 METAR COR EGLL 312020Z 28009KT CAVOK 11/02 Q1011 NOSIG=
201505311950 METAR EGLL 311950Z 28011KT CAVOK 12/02 Q1011 NOSIG=
201505311920 METAR COR EGLL 311920Z 29010KT CAVOK 13/01 Q1010 NOSIG=
201505311850 METAR EGLL 311850Z 29010KT CAVOK 13/01 Q1010 NOSIG=
201505311820 METAR COR EGLL 311820Z 30013KT 9999 FEW043 14/03 Q1009 NOSIG=
201505311750 METAR COR EGLL 311750Z 30012KT 9999 FEW041 14/04 Q1009 NOSIG=
201505311720 METAR COR EGLL 311720Z 28012KT 9999 FEW039 14/05 Q1008 NOSIG=
201505311650 METAR COR EGLL 311650Z 28015KT 9999 SCT032 15/06 Q1008 NOSIG=
201505311620 METAR COR EGLL 311620Z 29014KT 9999 FEW035 SCT040 15/07 Q1008
                        NOSIG=
201505311550 METAR EGLL 311550Z 27016KT 9999 FEW040 SCT042 14/06 Q1007
                        NOSIG=
201505311520 METAR COR EGLL 311520Z 27014KT 9999 SCT033 SCT038 15/08 Q1007
                        NOSIG=
201505311450 METAR EGLL 311450Z 27014KT 9999 SCT028 SCT040 15/08 Q1006
                        NOSIG=
201505311420 METAR COR EGLL 311420Z 28014KT 9999 SCT023 SCT031 15/09 Q1006
                        NOSIG=
201505311350 METAR EGLL 311350Z 27015KT 9999 FEW042 SCT047 15/10 Q1006
                        NOSIG=
201505311320 METAR COR EGLL 311320Z 27017KT 9999 SCT030 16/11 Q1005 NOSIG=
201505311250 METAR EGLL 311250Z 26019KT 9999 FEW012 SCT022 BKN030 16/13
                        Q1005 NOSIG=
201505311220 METAR COR EGLL 311220Z 25011KT 9999 FEW010 SCT015 BKN022
                        15/14 Q1005 NOSIG=
201505311150 METAR COR EGLL 311150Z 27014KT 6000 -RADZ FEW005 SCT008 BKN012
                        14/13 Q1005 RERA BECMG SCT015 BKN025=
201505311120 METAR COR EGLL 311120Z 27016KT 5000 -RA HZ FEW008 SCT010
                        BKN012 15/13 Q1004 RERA BECMG SCT014
                        BKN025=
201505311050 METAR EGLL 311050Z 23012KT 9999 VCSH FEW009 SCT012 BKN016
                        15/13 Q1004 NOSIG=
201505311020 METAR COR EGLL 311020Z 23013KT 9999 -RA FEW008 BKN012 15/13
                        Q1004 BECMG SCT012 BKN018=
201505310950 METAR COR EGLL 310950Z 23013KT 9999 FEW007 SCT010 BKN012
                        15/13 Q1004 BECMG SCT012 BKN018=
201505310920 METAR COR EGLL 310920Z 23012KT 9999 FEW008 BKN011 14/13 Q1004
                        TEMPO RA SCT011 BKN015=
201505310850 METAR COR EGLL 310850Z 22013KT 190V250 9999 -RA FEW007 BKN011
                        14/13 Q1004 NOSIG=
201505310820 METAR COR EGLL 310820Z 22013KT 9999 -RA FEW007 BKN012 14/13
                        Q1004 TEMPO RA=
201505310750 METAR EGLL 310750Z 21011KT 9999 FEW008 BKN012 14/13 Q1004
                        RERA TEMPO RA SCT012 BKN015=
201505310720 METAR COR EGLL 310720Z 21015KT 6000 RA FEW006 SCT011 BKN015
                        14/13 Q1004 RERA TEMPO -RA SCT008
                        BKN012=
201505310650 METAR EGLL 310650Z 20013KT 7000 -RA FEW005 BKN012 13/12 Q1004
                        RERA TEMPO RA SCT010 BKN015=
201505310620 METAR COR EGLL 310620Z 20012KT 9000 -RA FEW006 SCT008 BKN011
                        13/12 Q1005 TEMPO RA SCT011 BKN015=
201505310550 METAR COR EGLL 310550Z 20013KT 7000 -RA FEW006 SCT008 BKN012
                        13/12 Q1005 TEMPO RA BKN015=
201505310520 METAR COR EGLL 310520Z 20013KT 9999 -RA FEW010 SCT015 BKN020
                        13/12 Q1005 TEMPO RA BKN014=
201505310450 METAR COR EGLL 310450Z 20012KT 9999 -RA SCT010 BKN014 12/12
                        Q1006 TEMPO RA BKN015=
201505310420 METAR COR EGLL 310420Z 20010KT 9999 -RA SCT014 SCT020 12/11
                        Q1006 TEMPO RA BKN012=
201505310350 METAR EGLL 310350Z 18009KT 9999 -RA FEW010 SCT014 12/11 Q1007=
201505310320 METAR EGLL 310320Z 17007KT 9999 -RA BKN021 11/10 Q1007=
201505310250 METAR EGLL 310250Z 17008KT 9999 -RA BKN015 11/10 Q1008 TEMPO
                        RA BKN014=
201505310220 METAR COR EGLL 310220Z 17007KT 9999 -RA BKN022 11/10 Q1008
                        TEMPO RA BKN014=
201505310150 METAR EGLL 310150Z 17007KT 9999 -RA BKN028 11/09 Q1009 TEMPO
                        RA BKN014=
201505310120 METAR COR EGLL 310120Z 17008KT 9999 -RA BKN027 11/09 Q1010
                        TEMPO RA BKN014=
201505310050 METAR EGLL 310050Z 18011KT 9999 -RA FEW025 11/09 Q1010 TEMPO
                        RA BKN014=
201505310020 METAR COR EGLL 310020Z 18011KT 9999 -RA SCT048 11/09 Q1011
                        TEMPO RA BKN014=
201505302350 METAR COR EGLL 302350Z 19011KT 9999 BKN031 11/09 Q1011 TEMPO
                        RA BKN014=
201505302320 METAR COR EGLL 302320Z 20012KT 9999 BKN028 12/08 Q1012 TEMPO
                        RA BKN014=
201505302250 METAR COR EGLL 302250Z 19009KT 9999 BKN028 12/07 Q1012 TEMPO
                        RA BKN014=
201505302220 METAR COR EGLL 302220Z 17007KT 9999 SCT028 SCT039 11/07 Q1012
                        TEMPO RA BKN014=
201505302150 METAR EGLL 302150Z 18007KT 150V210 CAVOK 12/06 Q1013 TEMPO
                        RA BKN014=
201505302120 METAR COR EGLL 302120Z 19006KT CAVOK 12/06 Q1013 NOSIG=
201505302050 METAR EGLL 302050Z 21009KT CAVOK 12/05 Q1013 NOSIG=
201505302020 METAR COR EGLL 302020Z 22009KT CAVOK 12/06 Q1013 NOSIG=
201505301950 METAR EGLL 301950Z 21012KT CAVOK 13/05 Q1014 NOSIG=
201505301920 METAR COR EGLL 301920Z 21011KT CAVOK 13/04 Q1013 NOSIG=
201505301850 METAR EGLL 301850Z 22011KT CAVOK 14/03 Q1013 NOSIG=
201505301820 METAR COR EGLL 301820Z 22014KT CAVOK 15/05 Q1013 NOSIG=
201505301750 METAR EGLL 301750Z 22011KT 9999 FEW048 16/06 Q1013 NOSIG=
201505301720 METAR COR EGLL 301720Z 22012KT 9999 FEW048 17/05 Q1014 NOSIG=
201505301650 METAR COR EGLL 301650Z 23013KT 9999 FEW047 17/05 Q1014 NOSIG=
201505301620 METAR COR EGLL 301620Z 23013KT 190V260 CAVOK 17/03 Q1014
                        NOSIG=
201505301550 METAR EGLL 301550Z 27010KT 230V310 CAVOK 18/02 Q1014 NOSIG=
201505301520 METAR COR EGLL 301520Z 25010KT CAVOK 17/02 Q1014 NOSIG=
201505301450 METAR COR EGLL 301450Z 24009KT 210V270 CAVOK 17/02 Q1014
                        NOSIG=
201505301420 METAR COR EGLL 301420Z 25010KT CAVOK 16/01 Q1014 NOSIG=
201505301350 METAR EGLL 301350Z 28009KT 250V320 CAVOK 16/02 Q1015 NOSIG=
201505301320 METAR COR EGLL 301320Z 25008KT CAVOK 15/02 Q1015 NOSIG=
201505301250 METAR EGLL 301250Z 26008KT 230V300 CAVOK 15/03 Q1015 NOSIG=
201505301220 METAR COR EGLL 301220Z 26010KT 210V300 CAVOK 16/03 Q1015
                        NOSIG=
201505301150 METAR EGLL 301150Z 28008KT 240V310 9999 FEW045 15/03 Q1015
                        NOSIG=
201505301120 METAR COR EGLL 301120Z 28010KT 9999 FEW045 14/02 Q1015 NOSIG=
201505301050 METAR COR EGLL 301050Z 26011KT 240V310 9999 FEW045 15/02
                        Q1015 NOSIG=
201505301020 METAR COR EGLL 301020Z 27011KT 9999 FEW039 14/02 Q1015 NOSIG=
201505300950 METAR COR EGLL 300950Z 28008KT 9999 FEW038 14/04 Q1015 NOSIG=
201505300920 METAR COR EGLL 300920Z 27010KT 9999 FEW035 SCT042 13/04 Q1015
                        NOSIG=
201505300850 METAR COR EGLL 300850Z 28009KT 250V320 9999 FEW033 12/05
                        Q1014 NOSIG=
201505300820 METAR COR EGLL 300820Z 30009KT 9999 FEW028 13/06 Q1014 NOSIG=
201505300750 METAR EGLL 300750Z 30008KT CAVOK 12/06 Q1014 NOSIG=
201505300720 METAR COR EGLL 300720Z 28010KT CAVOK 11/06 Q1014 NOSIG=
201505300650 METAR COR EGLL 300650Z 27011KT CAVOK 10/06 Q1013 NOSIG=
201505300620 METAR COR EGLL 300620Z 27010KT CAVOK 10/06 Q1013 NOSIG=
201505300550 METAR COR EGLL 300550Z 28011KT CAVOK 10/06 Q1013 NOSIG=
201505300520 METAR COR EGLL 300520Z 27009KT CAVOK 09/06 Q1013 NOSIG=
201505300450 METAR EGLL 300450Z 26009KT CAVOK 08/06 Q1012 NOSIG=
201505300420 METAR COR EGLL 300420Z 27009KT CAVOK 08/06 Q1012 NOSIG=
201505300350 METAR EGLL 300350Z 27009KT CAVOK 08/06 Q1012 NOSIG=
201505300320 METAR EGLL 300320Z 27008KT CAVOK 07/05 Q1012=
201505300250 METAR COR EGLL 300250Z 27006KT CAVOK 08/05 Q1012 NOSIG=
201505300220 METAR COR EGLL 300220Z 27007KT CAVOK 08/05 Q1012 NOSIG=
201505300150 METAR EGLL 300150Z 27007KT CAVOK 08/05 Q1012 NOSIG=
201505300120 METAR COR EGLL 300120Z 27008KT CAVOK 08/05 Q1012 NOSIG=
201505300050 METAR EGLL 300050Z 27008KT CAVOK 08/05 Q1011 NOSIG=
201505300020 METAR COR EGLL 300020Z 27007KT CAVOK 08/04 Q1011 NOSIG=
201505292350 METAR EGLL 292350Z 25006KT CAVOK 08/03 Q1011 NOSIG=
201505292320 METAR COR EGLL 292320Z 26005KT CAVOK 08/03 Q1011 NOSIG=
201505292250 METAR COR EGLL 292250Z 26006KT CAVOK 08/03 Q1011 NOSIG=
201505292220 METAR COR EGLL 292220Z 28006KT CAVOK 10/03 Q1011 NOSIG=
201505292150 METAR COR EGLL 292150Z 28008KT CAVOK 10/04 Q1011 NOSIG=
201505292120 METAR COR EGLL 292120Z 27007KT CAVOK 10/04 Q1010 NOSIG=
201505292050 METAR EGLL 292050Z 28008KT CAVOK 11/04 Q1010 NOSIG=
201505292020 METAR COR EGLL 292020Z 28006KT 9999 FEW048 10/04 Q1010 NOSIG=
201505291950 METAR COR EGLL 291950Z 29007KT 9999 FEW045 12/04 Q1009 NOSIG=
201505291920 METAR COR EGLL 291920Z 31009KT 9999 FEW040 12/04 Q1009 NOSIG=
201505291850 METAR EGLL 291850Z 31009KT 9999 FEW040 13/03 Q1009 NOSIG=
201505291820 METAR COR EGLL 291820Z 30012KT 9999 -SHRA FEW039 12/04 Q1008
                        NOSIG=
201505291750 METAR EGLL 291750Z 30011KT 9999 FEW040 14/03 Q1008 NOSIG=
201505291720 METAR COR EGLL 291720Z 31012KT 9999 FEW038CB 14/04 Q1007
                        NOSIG=
201505291650 METAR COR EGLL 291650Z 30013KT 9999 FEW025CB 13/04 Q1007
                        NOSIG=
201505291620 METAR COR EGLL 291620Z 31012KT 9999 FEW025CB FEW044 14/07
                        Q1007 NOSIG=
201505291550 METAR COR EGLL 291550Z 31008KT 280V350 9999 SCT025CB 13/06
                        Q1006 NOSIG=
201505291520 METAR COR EGLL 291520Z 25011KT 9999 VCSH FEW019CB 13/09 Q1006
                        NOSIG=
201505291450 METAR COR EGLL 291450Z 27009KT 9999 5000S -SHRA SCT022CB
                        SCT034 11/08 Q1006 RESHRA TEMPO SHRA=
201505291420 METAR COR EGLL 291420Z 25013KT 9999 -SHRA SCT022 13/08 Q1006
                        TEMPO SHRA=
201505291350 METAR COR EGLL 291350Z 25013KT 9999 SCT022 13/08 Q1006 NOSIG=
201505291320 METAR COR EGLL 291320Z 26014KT 9999 SCT017 12/08 Q1006 NOSIG=
201505291250 METAR COR EGLL 291250Z 26015KT 9999 SCT019 12/08 Q1006 NOSIG=
201505291220 METAR COR EGLL 291220Z 25016KT 9999 SCT020 11/08 Q1006 NOSIG=
201505291150 METAR EGLL 291150Z 25016KT 9999 -RA FEW014 11/08 Q1005 NOSIG=
201505291120 METAR COR EGLL 291120Z 24018KT 9999 -RA FEW014 SCT041 12/10
                        Q1006 TEMPO RA=
201505291050 METAR COR EGLL 291050Z 22016KT 8000 -RA FEW014 SCT018 12/10
                        Q1005 TEMPO RA=
201505291020 METAR COR EGLL 291020Z 21016G26KT 180V240 9999 -RA FEW025
                        SCT029 11/09 Q1006 TEMPO RA=
201505290950 METAR EGLL 290950Z 21014G24KT 9999 -RA FEW030 SCT040 11/08
                        Q1006 TEMPO RA=
201505290920 METAR COR EGLL 290920Z 22013KT 170V250 9999 -SHRA FEW030
                        SCT042 12/07 Q1007 TEMPO RA=
201505290850 METAR EGLL 290850Z 22012KT 9999 FEW041 SCT044 12/05 Q1007
                        TEMPO RA=
201505290820 METAR COR EGLL 290820Z 23013KT 9999 FEW041 12/05 Q1008 NOSIG=
201505290750 METAR EGLL 290750Z 22014G24KT 9999 FEW043 13/06 Q1008 NOSIG=
201505290720 METAR COR EGLL 290720Z 23010KT 190V260 9999 FEW024 12/06
                        Q1009 NOSIG=
201505290650 METAR EGLL 290650Z 22010KT 9999 FEW020 11/06 Q1009 NOSIG=
201505290620 METAR COR EGLL 290620Z 23009KT 9999 FEW022 10/06 Q1009 NOSIG=
201505290550 METAR COR EGLL 290550Z 24009KT 9999 FEW023 10/06 Q1010 TEMPO
                        RA BKN014=
201505290520 METAR COR EGLL 290520Z 22007KT CAVOK 09/05 Q1010 NOSIG=
201505290450 METAR COR EGLL 290450Z 23008KT CAVOK 09/05 Q1010 NOSIG=
201505290420 METAR EGLL 290420Z 23008KT 9999 FEW023 09/05 Q1011=
201505290350 METAR COR EGLL 290350Z 23008KT CAVOK 10/05 Q1011 NOSIG=
201505290320 METAR COR EGLL 290320Z 22010KT CAVOK 09/06 Q1011 NOSIG=
201505290250 METAR EGLL 290250Z 23007KT CAVOK 09/05 Q1011 NOSIG=
201505290220 METAR COR EGLL 290220Z 23007KT CAVOK 10/05 Q1012 NOSIG=
201505290150 METAR EGLL 290150Z 24008KT CAVOK 10/05 Q1012 NOSIG=
201505290120 METAR EGLL 290120Z AUTO 23008KT 9999 NCD 10/05 Q1012=
201505290050 METAR EGLL 290050Z AUTO 23008KT 9999 NCD 10/05 Q1013=
201505290020 METAR EGLL 290020Z AUTO 23007KT 9999 NCD 10/05 Q1013=
201505282350 METAR EGLL 282350Z 24008KT CAVOK 11/05 Q1013 NOSIG=
201505282320 METAR COR EGLL 282320Z 25008KT CAVOK 11/04 Q1014 NOSIG=
201505282250 METAR COR EGLL 282250Z 26009KT CAVOK 11/04 Q1014 NOSIG=
201505282220 METAR COR EGLL 282220Z 27008KT CAVOK 11/04 Q1014 NOSIG=
201505282150 METAR COR EGLL 282150Z 27008KT CAVOK 12/04 Q1014 NOSIG=
201505282120 METAR COR EGLL 282120Z 27009KT CAVOK 12/04 Q1014 NOSIG=
201505282050 METAR EGLL 282050Z 27010KT CAVOK 13/04 Q1014 NOSIG=
201505282020 METAR COR EGLL 282020Z 27010KT CAVOK 13/04 Q1014 NOSIG=
201505281950 METAR EGLL 281950Z 27009KT 9999 SCT049 14/04 Q1014 NOSIG=
201505281920 METAR COR EGLL 281920Z 26012KT CAVOK 15/03 Q1014 NOSIG=
201505281850 METAR COR EGLL 281850Z 25010KT CAVOK 15/03 Q1014 NOSIG=
201505281820 METAR COR EGLL 281820Z 26012KT CAVOK 16/02 Q1014 NOSIG=
201505281750 METAR EGLL 281750Z 26014KT CAVOK 16/02 Q1014 NOSIG=
201505281720 METAR COR EGLL 281720Z 26013KT 240V300 CAVOK 16/02 Q1014
                        NOSIG=
201505281650 METAR EGLL 281650Z 28012KT CAVOK 16/02 Q1014 NOSIG=
201505281620 METAR COR EGLL 281620Z 27013KT CAVOK 16/01 Q1014 NOSIG=
201505281550 METAR EGLL 281550Z 25012KT CAVOK 17/01 Q1014 NOSIG=
201505281520 METAR COR EGLL 281520Z 27012KT CAVOK 17/01 Q1014 NOSIG=
201505281450 METAR EGLL 281450Z 28010KT 230V310 CAVOK 17/01 Q1015=
201505281420 METAR COR EGLL 281420Z 28011KT 260V320 CAVOK 16/01 Q1015
                        NOSIG=
201505281350 METAR EGLL 281350Z 27015KT CAVOK 17/00 Q1015 NOSIG=
201505281320 METAR COR EGLL 281320Z 26014KT CAVOK 17/01 Q1015 NOSIG=
201505281250 METAR EGLL 281250Z 28011KT CAVOK 16/02 Q1015 NOSIG=
201505281220 METAR COR EGLL 281220Z 26014KT 230V320 CAVOK 17/00 Q1015
                        NOSIG=
201505281150 METAR EGLL 281150Z 26015KT 240V300 CAVOK 17/01 Q1015 NOSIG=
201505281120 METAR COR EGLL 281120Z 27015KT CAVOK 16/02 Q1015 NOSIG=
201505281050 METAR COR EGLL 281050Z 29013G24KT 260V330 9999 FEW049 16/01
                        Q1015 NOSIG=
201505281020 METAR COR EGLL 281020Z 27014KT 240V320 9999 FEW049 15/03
                        Q1015 NOSIG=
201505280950 METAR COR EGLL 280950Z 29011KT 9999 FEW048 15/02 Q1015 NOSIG=
201505280920 METAR COR EGLL 280920Z 28012KT 250V320 9999 SCT048 15/03
                        Q1015 NOSIG=
201505280850 METAR COR EGLL 280850Z 29010KT 250V320 9999 SCT046 14/03
                        Q1015 NOSIG=
201505280820 METAR COR EGLL 280820Z 26013KT 9999 FEW041 14/03 Q1015 NOSIG=
201505280750 METAR EGLL 280750Z 27014KT 9999 SCT038 14/04 Q1015 NOSIG=
201505280720 METAR COR EGLL 280720Z 29011KT 260V320 9999 SCT036 13/05
                        Q1015 NOSIG=
201505280650 METAR EGLL 280650Z 28015KT 9999 FEW036 13/07 Q1015 NOSIG=
201505280620 METAR COR EGLL 280620Z 29014KT 9999 FEW020 SCT023 13/08 Q1014
                        NOSIG=
201505280550 METAR COR EGLL 280550Z 28013KT 260V320 9999 FEW030 SCT041
                        13/08 Q1014 NOSIG=
201505280520 METAR COR EGLL 280520Z 25013KT 9999 FEW020 SCT033 12/09 Q1014
                        NOSIG=
201505280450 METAR COR EGLL 280450Z 25012KT 9999 FEW027 SCT033 12/09 Q1014
                        NOSIG=
201505280420 METAR COR EGLL 280420Z 25013KT 9999 SCT020 12/09 Q1013 NOSIG=
201505280350 METAR COR EGLL 280350Z 25013KT 9999 SCT020 12/08 Q1013 TEMPO
                        BKN014=
201505280320 METAR COR EGLL 280320Z 24013KT 9999 SCT019 SCT024 12/08 Q1014
                        TEMPO BKN014=
201505280250 METAR COR EGLL 280250Z 24013KT 9999 BKN021 12/08 Q1014 NOSIG=
201505280220 METAR COR EGLL 280220Z 24012KT 9999 SCT019 12/07 Q1014 TEMPO
                        BKN014=
201505280150 METAR COR EGLL 280150Z 24011KT 9999 FEW020 12/07 Q1014 NOSIG=
201505280120 METAR EGLL 280120Z AUTO 24011KT 9999 SCT019 OVC046 12/06
                        Q1015=
201505280050 METAR EGLL 280050Z AUTO 25009KT 9999 FEW045 12/06 Q1015=
201505280020 METAR EGLL 280020Z AUTO 27012KT 9999 NCD 12/06 Q1015=
201505272350 METAR EGLL 272350Z 27010KT 9999 FEW032 13/05 Q1015 NOSIG=
201505272320 METAR COR EGLL 272320Z 27013KT 9999 FEW031 13/07 Q1015 NOSIG=
201505272250 METAR COR EGLL 272250Z 27011KT 9999 SCT031 14/08 Q1016 NOSIG=
201505272220 METAR COR EGLL 272220Z 24013KT 9999 SCT031 SCT034 14/09 Q1016
                        NOSIG=
201505272150 METAR EGLL 272150Z 23010KT 9999 SCT035 13/09 Q1016 NOSIG=
201505272120 METAR COR EGLL 272120Z 22009KT 9999 SCT044 14/09 Q1016 NOSIG=
201505272050 METAR EGLL 272050Z 22010KT CAVOK 14/09 Q1016 NOSIG=
201505272020 METAR COR EGLL 272020Z 21009KT 9999 SCT027 14/09 Q1016 NOSIG=
201505271950 METAR EGLL 271950Z 21010KT 9999 FEW032 14/09 Q1017 NOSIG=
201505271920 METAR COR EGLL 271920Z 22012KT 9999 FEW032 15/09 Q1017 NOSIG=
201505271850 METAR EGLL 271850Z 23012KT CAVOK 16/08 Q1018 NOSIG=
201505271820 METAR COR EGLL 271820Z 23012KT CAVOK 16/08 Q1018 NOSIG=
201505271750 METAR EGLL 271750Z 23012KT CAVOK 17/07 Q1018 NOSIG=
201505271720 METAR COR EGLL 271720Z 22013G23KT CAVOK 18/07 Q1018 NOSIG=
201505271650 METAR COR EGLL 271650Z 22015KT 9999 FEW040 18/07 Q1019 NOSIG=
201505271620 METAR COR EGLL 271620Z 22015KT 9999 FEW040 18/08 Q1019 NOSIG=
201505271550 METAR COR EGLL 271550Z 22014KT 190V260 9999 FEW046 19/08
                        Q1019 NOSIG=
201505271520 METAR COR EGLL 271520Z 24013KT 9999 FEW048 20/06 Q1020 NOSIG=
201505271450 METAR EGLL 271450Z 23012KT 180V270 9999 FEW048 20/06 Q1020
                        NOSIG=
201505271420 METAR COR EGLL 271420Z 24011KT 9999 FEW049 20/05 Q1021 NOSIG=
201505271350 METAR EGLL 271350Z 26011KT 230V290 CAVOK 20/05 Q1021 NOSIG=
201505271320 METAR COR EGLL 271320Z 24009KT CAVOK 20/05 Q1022 NOSIG=
201505271250 METAR COR EGLL 271250Z 28009KT 220V330 CAVOK 19/05 Q1022
                        NOSIG=
201505271220 METAR COR EGLL 271220Z 26008KT 210V310 CAVOK 19/05 Q1023
                        NOSIG=
201505271150 METAR EGLL 271150Z 27008KT 220V350 CAVOK 17/05 Q1023 NOSIG=
201505271120 METAR COR EGLL 271120Z 25009KT 210V280 CAVOK 17/05 Q1024
                        NOSIG=
201505271050 METAR EGLL 271050Z 27008KT 230V320 CAVOK 16/05 Q1024 NOSIG=
201505271020 METAR COR EGLL 271020Z VRB05KT CAVOK 16/05 Q1024 NOSIG=
201505270950 METAR COR EGLL 270950Z VRB03KT CAVOK 15/04 Q1025 NOSIG=
201505270920 METAR COR EGLL 270920Z 29005KT 220V340 9999 FEW033 14/04
                        Q1025 NOSIG=
201505270850 METAR COR EGLL 270850Z VRB04KT 9999 FEW030 13/04 Q1026 NOSIG=
201505270820 METAR COR EGLL 270820Z 35004KT 280V060 9999 FEW028 13/04
                        Q1026 NOSIG=
201505270750 METAR EGLL 270750Z 35004KT 310V070 9999 FEW028 12/05 Q1026
                        NOSIG=
201505270720 METAR COR EGLL 270720Z 33006KT 290V020 CAVOK 12/05 Q1026
                        NOSIG=
201505270650 METAR COR EGLL 270650Z 33007KT 290V010 CAVOK 11/05 Q1026
                        NOSIG=
201505270620 METAR COR EGLL 270620Z 32005KT 290V020 CAVOK 10/05 Q1026
                        NOSIG=
201505270550 METAR EGLL 270550Z 30006KT CAVOK 09/05 Q1026 NOSIG=
201505270520 METAR COR EGLL 270520Z 29006KT CAVOK 09/05 Q1026 NOSIG=
201505270450 METAR EGLL 270450Z 29005KT CAVOK 08/05 Q1026 NOSIG=
201505270420 METAR COR EGLL 270420Z 29006KT CAVOK 08/05 Q1026 NOSIG=
201505270350 METAR COR EGLL 270350Z 27006KT CAVOK 07/04 Q1026 NOSIG=
201505270320 METAR COR EGLL 270320Z 28004KT CAVOK 08/04 Q1026 NOSIG=
201505270250 METAR EGLL 270250Z 28004KT CAVOK 08/04 Q1026 NOSIG=
201505270220 METAR COR EGLL 270220Z 27004KT CAVOK 08/04 Q1027 NOSIG=
201505270150 METAR EGLL 270150Z AUTO VRB03KT 9999 NCD 09/04 Q1027=
201505270120 METAR EGLL 270120Z AUTO 28004KT 9999 NCD 09/05 Q1027=
201505270050 METAR EGLL 270050Z AUTO 28004KT 250V320 9999 NCD 09/05 Q1027=
201505270020 METAR EGLL 270020Z VRB03KT CAVOK 10/05 Q1027=
201505262350 METAR COR EGLL 262350Z 34005KT 310V010 9999 SCT035 11/05
                        Q1027 NOSIG=
201505262320 METAR EGLL 262320Z AUTO 35006KT 9999 SCT034 11/06 Q1027=
201505262250 METAR EGLL 262250Z 32005KT CAVOK 11/06 Q1027 NOSIG=
201505262220 METAR COR EGLL 262220Z 29004KT CAVOK 12/06 Q1026 NOSIG=
201505262150 METAR EGLL 262150Z VRB03KT CAVOK 13/06 Q1026 NOSIG=
201505262120 METAR COR EGLL 262120Z 33005KT CAVOK 14/07 Q1026 NOSIG=
201505262050 METAR EGLL 262050Z 33006KT CAVOK 14/07 Q1026 NOSIG=
201505262020 METAR COR EGLL 262020Z 32005KT CAVOK 15/07 Q1026 NOSIG=
201505261950 METAR COR EGLL 261950Z 35005KT 300V020 9999 FEW040 16/06
                        Q1025 NOSIG=
201505261920 METAR COR EGLL 261920Z 32005KT 280V360 9999 FEW040 16/07
                        Q1025 NOSIG=
201505261850 METAR COR EGLL 261850Z 31006KT 9999 FEW044 16/07 Q1025 NOSIG=
201505261820 METAR COR EGLL 261820Z 32008KT 290V360 9999 FEW044 17/07
                        Q1025 NOSIG=
201505261750 METAR EGLL 261750Z 32009KT 9999 SCT044 17/07 Q1025 NOSIG=
201505261720 METAR COR EGLL 261720Z 34008KT 290V020 9999 SCT044 18/07
                        Q1024 NOSIG=
201505261650 METAR COR EGLL 261650Z 31011KT 280V350 9999 SCT048 18/07
                        Q1024 NOSIG=
201505261620 METAR COR EGLL 261620Z 32008KT 9999 SCT048 19/06 Q1024 NOSIG=
201505261550 METAR EGLL 261550Z 32008KT 290V360 9999 SCT048 18/06 Q1024
                        NOSIG=
201505261520 METAR COR EGLL 261520Z 33007KT 290V010 9999 SCT045 18/06
                        Q1024 NOSIG=
201505261450 METAR COR EGLL 261450Z 33007KT 300V020 9999 SCT045 19/07
                        Q1024 NOSIG=
201505261420 METAR COR EGLL 261420Z VRB07G21KT 9999 SCT045 19/07 Q1024
                        NOSIG=
201505261350 METAR COR EGLL 261350Z 32006KT 280V020 9999 SCT045 19/07
                        Q1024 NOSIG=
201505261320 METAR COR EGLL 261320Z 34008KT 280V020 9999 SCT045 18/06
                        Q1024 NOSIG=
201505261250 METAR EGLL 261250Z 33007KT 280V020 9999 SCT045 18/06 Q1024
                        NOSIG=
201505261220 METAR COR EGLL 261220Z 33008KT 300V030 9999 FEW042 18/06
                        Q1024 NOSIG=
201505261150 METAR COR EGLL 261150Z 30009KT 270V340 9999 FEW041 18/06
                        Q1023 NOSIG=
201505261120 METAR COR EGLL 261120Z 33006KT 270V010 9999 FEW040 17/06
                        Q1023 NOSIG=
201505261050 METAR COR EGLL 261050Z 32007KT 270V020 9999 FEW038 17/06
                        Q1023 NOSIG=
201505261020 METAR COR EGLL 261020Z 33006KT 270V030 9999 FEW037 16/06
                        Q1023 NOSIG=
201505260920 METAR COR EGLL 260920Z 32008KT 280V010 9999 SCT027 15/06
                        Q1023 NOSIG=
201505260850 METAR COR EGLL 260850Z 31009KT 280V340 9999 SCT029 15/07
                        Q1023 NOSIG=
201505260820 METAR COR EGLL 260820Z 32008KT 290V010 9999 FEW028 SCT031
                        14/08 Q1023 NOSIG=
201505260750 METAR COR EGLL 260750Z 30009KT 9999 FEW032 13/08 Q1023 NOSIG=
201505260720 METAR COR EGLL 260720Z 29006KT 9999 FEW037 12/08 Q1023 NOSIG=
201505260650 METAR EGLL 260650Z 30007KT 9999 FEW037 12/08 Q1023 NOSIG=
201505260620 METAR COR EGLL 260620Z 30005KT CAVOK 12/08 Q1022 NOSIG=
201505260550 METAR EGLL 260550Z 30005KT 9999 FEW040 11/07 Q1022 NOSIG=
201505260520 METAR COR EGLL 260520Z 30004KT 9999 FEW040 11/07 Q1022 NOSIG=
201505260450 METAR EGLL 260450Z 29005KT CAVOK 10/07 Q1022 NOSIG=
201505260420 METAR COR EGLL 260420Z 29005KT CAVOK 10/07 Q1022 NOSIG=
201505260350 METAR COR EGLL 260350Z 28006KT CAVOK 10/07 Q1022 NOSIG=
201505260320 METAR COR EGLL 260320Z 28005KT CAVOK 10/07 Q1022 NOSIG=
201505260250 METAR COR EGLL 260250Z 29006KT CAVOK 10/07 Q1022 NOSIG=
201505260220 METAR COR EGLL 260220Z 29006KT CAVOK 10/07 Q1022 NOSIG=
201505260150 METAR EGLL 260150Z 29005KT CAVOK 10/07 Q1022 NOSIG=
201505260120 METAR EGLL 260120Z AUTO 30004KT 9999 NCD 11/07 Q1022=
201505260050 METAR EGLL 260050Z AUTO 29005KT 9999 BKN046 11/07 Q1021=
201505260020 METAR EGLL 260020Z AUTO 30005KT 9999 OVC047 12/07 Q1021=
201505252350 METAR COR EGLL 252350Z 30005KT 9999 BKN048 13/07 Q1021 NOSIG=
201505252320 METAR COR EGLL 252320Z 31003KT 9999 BKN048 13/07 Q1021 NOSIG=
201505252250 METAR COR EGLL 252250Z 31004KT 9999 BKN048 13/07 Q1021 NOSIG=
201505252220 METAR COR EGLL 252220Z 31004KT 280V360 9999 BKN048 13/07
                        Q1021 NOSIG=
201505252150 METAR EGLL 252150Z 33005KT 300V020 9999 BKN048 14/07 Q1021
                        NOSIG=
201505252120 METAR COR EGLL 252120Z 34004KT 290V020 9999 BKN048 14/07
                        Q1021 NOSIG=
201505252050 METAR EGLL 252050Z 33005KT 290V010 9999 SCT045 SCT049 15/07
                        Q1021 NOSIG=
201505252020 METAR COR EGLL 252020Z 35005KT 320V020 9999 BKN045 15/07
                        Q1021 NOSIG=
201505251950 METAR COR EGLL 251950Z 33004KT 300V020 9999 FEW034 BKN042
                        15/07 Q1020 NOSIG=
201505251920 METAR COR EGLL 251920Z 36005KT 9999 BKN044 15/07 Q1020 NOSIG=
201505251850 METAR COR EGLL 251850Z 35006KT 310V010 9999 BKN047 15/07
                        Q1020 NOSIG=
201505251820 METAR COR EGLL 251820Z 34006KT 300V010 9999 BKN048 16/07
                        Q1020 NOSIG=
201505251750 METAR EGLL 251750Z 33006KT 9999 BKN048 16/07 Q1019 NOSIG=
201505251720 METAR COR EGLL 251720Z 33005KT 300V010 9999 BKN048 16/07
                        Q1019 NOSIG=
201505251650 METAR EGLL 251650Z 32008KT 300V360 9999 FEW037 SCT045 16/07
                        Q1019 NOSIG=
201505251620 METAR COR EGLL 251620Z 31006KT 9999 FEW038 SCT044 16/07 Q1019
                        NOSIG=
201505251550 METAR EGLL 251550Z 30007KT 270V340 9999 SCT045 16/07 Q1019
                        NOSIG=
201505251520 METAR COR EGLL 251520Z 30008KT 9999 SCT045 16/06 Q1019 NOSIG=
201505251450 METAR COR EGLL 251450Z 31008KT 290V350 9999 BKN038 16/06
                        Q1019 NOSIG=
201505251420 METAR COR EGLL 251420Z 31006KT 270V340 9999 BKN045 16/06
                        Q1019 NOSIG=
201505251350 METAR COR EGLL 251350Z 32008KT 290V350 9999 BKN043 16/06
                        Q1019 NOSIG=
201505251320 METAR COR EGLL 251320Z 32007KT 290V020 9999 SCT041 16/06
                        Q1019 NOSIG=
201505251250 METAR EGLL 251250Z 34007KT 280V020 9999 BKN043 16/05 Q1019
                        NOSIG=
201505251220 METAR COR EGLL 251220Z 31008KT 260V340 9999 SCT041 16/06
                        Q1019 NOSIG=
201505251150 METAR EGLL 251150Z 32008KT 260V030 9999 FEW041 16/05 Q1019
                        NOSIG=
201505251120 METAR COR EGLL 251120Z 29009KT 260V320 9999 FEW040 16/05
                        Q1019 NOSIG=
201505251050 METAR COR EGLL 251050Z 32007KT 280V010 9999 FEW040 15/05
                        Q1019 NOSIG=
201505251020 METAR COR EGLL 251020Z 32007KT 290V020 9999 SCT037 14/05
                        Q1020 NOSIG=
201505250950 METAR EGLL 250950Z 33007KT 280V030 9999 SCT035 14/05 Q1019
                        NOSIG=
201505250920 METAR COR EGLL 250920Z 34008KT 300V030 9999 FEW032 SCT035
                        15/05 Q1019 NOSIG=
201505250850 METAR EGLL 250850Z 33009KT 300V010 9999 FEW035 SCT040 14/05
                        Q1019 NOSIG=
201505250820 METAR COR EGLL 250820Z 31007KT 280V360 9999 FEW033 13/06
                        Q1020 NOSIG=
201505250750 METAR EGLL 250750Z 31007KT 260V350 9999 FEW041 13/06 Q1020
                        NOSIG=
201505250720 METAR COR EGLL 250720Z 29006KT 9999 BKN040 12/05 Q1020 NOSIG=
201505250650 METAR EGLL 250650Z 30006KT 9999 BKN042 11/05 Q1020 NOSIG=
201505250620 METAR COR EGLL 250620Z 30005KT 270V340 9999 BKN041 11/05
                        Q1020 NOSIG=
201505250550 METAR EGLL 250550Z 30005KT 9999 BKN040 10/05 Q1020 NOSIG=
201505250520 METAR COR EGLL 250520Z 31005KT 9999 SCT041 10/05 Q1020 NOSIG=
201505250450 METAR COR EGLL 250450Z 31003KT CAVOK 10/04 Q1019 NOSIG=
201505250420 METAR COR EGLL 250420Z VRB03KT CAVOK 10/04 Q1020 NOSIG=
201505250350 METAR COR EGLL 250350Z 32004KT CAVOK 09/05 Q1019 NOSIG=
201505250320 METAR COR EGLL 250320Z 31004KT CAVOK 09/05 Q1019 NOSIG=
201505250250 METAR COR EGLL 250250Z 31003KT CAVOK 10/05 Q1019 NOSIG=
201505250220 METAR COR EGLL 250220Z VRB03KT 9999 FEW039 10/05 Q1020 NOSIG=
201505250150 METAR EGLL 250150Z 35003KT 9999 FEW040 11/05 Q1020 NOSIG=
201505250120 METAR EGLL 250120Z AUTO 36005KT 320V040 9999 NCD 11/05 Q1020=
201505250050 METAR EGLL 250050Z AUTO 36005KT 9999 SCT037 11/06 Q1020=
201505250020 METAR EGLL 250020Z AUTO 35007KT 310V020 9999 BKN036 BKN046
                        12/07 Q1020=
201505242350 METAR COR EGLL 242350Z 34006KT 300V020 9999 BKN036 13/08
                        Q1020 NOSIG=
201505242320 METAR COR EGLL 242320Z 35006KT 310V030 9999 BKN029 14/07
                        Q1020 NOSIG=
201505242250 METAR COR EGLL 242250Z 36006KT 320V040 9999 FEW024 BKN034
                        14/08 Q1019 NOSIG=
201505242220 METAR COR EGLL 242220Z 01006KT 330V040 9999 FEW020 BKN035
                        15/10 Q1019 NOSIG=
201505242150 METAR COR EGLL 242150Z 01006KT 340V040 9999 BKN032 16/11
                        Q1019 NOSIG=
201505242120 METAR COR EGLL 242120Z 35004KT 9999 BKN025 16/11 Q1019 NOSIG=
201505242050 METAR EGLL 242050Z 35006KT 9999 SCT019 BKN026 16/11 Q1018
                        NOSIG=
201505242020 METAR COR EGLL 242020Z 30005KT 270V340 9999 SCT024 BKN032
                        17/13 Q1018 NOSIG=
201505241950 METAR COR EGLL 241950Z 27007KT 9999 FEW025 SCT041 17/12 Q1018
                        NOSIG=
201505241920 METAR COR EGLL 241920Z 27007KT 9999 FEW025 17/12 Q1018 NOSIG=
201505241850 METAR COR EGLL 241850Z 27008KT 9999 FEW021 SCT025 18/12 Q1018
                        NOSIG=
201505241820 METAR COR EGLL 241820Z 26008KT 9999 FEW022 SCT025 18/12 Q1018
                        NOSIG=
201505241750 METAR EGLL 241750Z 28006KT 9999 SCT021 SCT025 18/12 Q1018
                        NOSIG=
201505241720 METAR COR EGLL 241720Z 28006KT 250V310 9999 SCT021 SCT023
                        18/12 Q1018 NOSIG=
201505241650 METAR COR EGLL 241650Z 27007KT 9999 FEW019 BKN023 17/13 Q1018
                        NOSIG=
201505241620 METAR COR EGLL 241620Z 27008KT 9999 FEW019 SCT021 BKN028
                        17/13 Q1018 NOSIG=
201505241550 METAR EGLL 241550Z 27011KT 9999 FEW019 SCT023 BKN028 16/13
                        Q1018 NOSIG=
201505241520 METAR COR EGLL 241520Z 30008KT 7000 SCT021 BKN024 16/13 Q1019
                        NOSIG=
201505241450 METAR EGLL 241450Z 28011KT 9999 SCT030 BKN033 18/11 Q1019
                        TEMPO BKN014=
201505241420 METAR COR EGLL 241420Z 28009KT 9999 BKN032 18/11 Q1019 NOSIG=
201505241350 METAR COR EGLL 241350Z 28009KT 9999 BKN034 19/12 Q1019 BECMG
                        BKN014=
201505241320 METAR COR EGLL 241320Z 28010KT 9999 BKN032 19/11 Q1019 BECMG
                        BKN014=
201505241250 METAR EGLL 241250Z 25009KT 210V290 9999 BKN032 19/11 Q1019
                        TEMPO BKN014=
201505241220 METAR COR EGLL 241220Z 24008KT 190V280 9999 SCT031 20/10
                        Q1019 TEMPO BKN014=
201505241150 METAR EGLL 241150Z 26008KT 240V310 9999 SCT030 19/10 Q1019
                        TEMPO BKN014=
201505241120 METAR COR EGLL 241120Z 27006KT 230V360 9999 FEW030 18/10
                        Q1019 TEMPO BKN014=
201505241050 METAR EGLL 241050Z 25008KT 210V270 9999 FEW030 18/09 Q1020
                        TEMPO BKN014=
201505241020 METAR COR EGLL 241020Z 27009KT 240V310 9999 FEW033 18/08
                        Q1020 TEMPO BKN014=
201505240950 METAR EGLL 240950Z 24007KT 200V290 9999 FEW033 18/08 Q1020
                        TEMPO BKN014=
201505240920 METAR COR EGLL 240920Z 26009KT 230V300 9999 FEW036 17/08
                        Q1020 NOSIG=
201505240850 METAR COR EGLL 240850Z 24009KT 190V280 9999 FEW036 17/08
                        Q1020 NOSIG=
201505240820 METAR COR EGLL 240820Z 22010KT CAVOK 16/08 Q1020 NOSIG=
201505240750 METAR COR EGLL 240750Z 21009KT CAVOK 15/08 Q1020 NOSIG=
201505240720 METAR COR EGLL 240720Z 23008KT CAVOK 14/09 Q1020 NOSIG=
201505240650 METAR EGLL 240650Z 22009KT CAVOK 13/09 Q1021 NOSIG=
201505240620 METAR COR EGLL 240620Z 21008KT 170V240 CAVOK 13/09 Q1021
                        NOSIG=
201505240550 METAR COR EGLL 240550Z 23007KT 190V260 CAVOK 12/09 Q1021
                        NOSIG=
201505240520 METAR COR EGLL 240520Z 22007KT 170V250 CAVOK 12/09 Q1021
                        NOSIG=
201505240450 METAR EGLL 240450Z 22005KT 9999 FEW018 12/09 Q1021 NOSIG=
201505240420 METAR COR EGLL 240420Z 20006KT 9999 SCT018 12/08 Q1021 NOSIG=
201505240350 METAR EGLL 240350Z 20005KT 9999 SCT020 12/08 Q1021 NOSIG=
201505240320 METAR COR EGLL 240320Z 20006KT 9999 SCT018 12/07 Q1021 NOSIG=
201505240250 METAR EGLL 240250Z 21006KT 9999 SCT018 SCT022 12/07 Q1022
                        NOSIG=
201505240220 METAR COR EGLL 240220Z 20005KT 9999 FEW018 SCT033 12/07 Q1022
                        NOSIG=
201505240150 METAR COR EGLL 240150Z 18006KT 9999 SCT016 12/07 Q1022 NOSIG=
201505240120 METAR EGLL 240120Z AUTO 18005KT 9999 SCT015 OVC021 12/07
                        Q1022=
201505240050 METAR EGLL 240050Z AUTO 16005KT 9999 BKN014 12/06 Q1023=
201505240020 METAR EGLL 240020Z AUTO 15005KT 9999 BKN019 12/05 Q1023=
201505232350 METAR EGLL 232350Z 15006KT 9999 FEW021 SCT036 12/05 Q1023
                        NOSIG=
201505232320 METAR COR EGLL 232320Z 13008KT 9999 SCT036 13/05 Q1023 NOSIG=
201505232250 METAR EGLL 232250Z 14006KT 9999 SCT022 SCT036 13/06 Q1023
                        NOSIG=
201505232220 METAR COR EGLL 232220Z 12005KT 9999 FEW024 SCT030 BKN038
                        13/06 Q1024 NOSIG=
201505232150 METAR EGLL 232150Z 11007KT 9999 BKN031 12/06 Q1024 NOSIG=
201505232120 METAR COR EGLL 232120Z 12007KT 9999 SCT040 SCT044 12/05 Q1024
                        NOSIG=
201505232050 METAR COR EGLL 232050Z 11008KT 9999 FEW043 13/04 Q1024 NOSIG=
201505232020 METAR COR EGLL 232020Z 12009KT CAVOK 13/05 Q1024 NOSIG=
201505231950 METAR EGLL 231950Z 11009KT CAVOK 13/05 Q1024 NOSIG=
201505231920 METAR COR EGLL 231920Z 11006KT CAVOK 14/05 Q1024 NOSIG=
201505231850 METAR COR EGLL 231850Z 12008KT 9999 FEW040 14/05 Q1024 NOSIG=
201505231820 METAR EGLL 231820Z 11007KT 9999 FEW040 15/05 Q1024=
201505231750 METAR EGLL 231750Z 11007KT 9999 SCT029 15/04 Q1024 NOSIG=
201505231720 METAR COR EGLL 231720Z 09006KT 050V120 9999 BKN028 15/05
                        Q1024 NOSIG=
201505231650 METAR EGLL 231650Z 09007KT 9999 BKN028 15/05 Q1024 NOSIG=
201505231620 METAR COR EGLL 231620Z 10007KT 9999 BKN025 16/06 Q1024 NOSIG=
201505231550 METAR COR EGLL 231550Z 10007KT 9999 BKN025 15/06 Q1024 NOSIG=
201505231520 METAR COR EGLL 231520Z 06006KT 9999 BKN025 15/07 Q1024 NOSIG=
201505231450 METAR COR EGLL 231450Z 06007KT 9999 BKN025 15/08 Q1025 NOSIG=
201505231420 METAR COR EGLL 231420Z 06007KT 9999 SCT012 BKN024 15/10 Q1025
                        NOSIG=
201505231350 METAR COR EGLL 231350Z 08009KT 9999 SCT012 BKN024 14/11 Q1025
                        NOSIG=
201505231320 METAR COR EGLL 231320Z 09011KT 9999 SCT014 BKN021 14/11 Q1025
                        NOSIG=
201505231250 METAR EGLL 231250Z 10011KT 9999 SCT014 BKN019 15/11 Q1025
                        NOSIG=
201505231220 METAR COR EGLL 231220Z 03006KT 340V050 9999 BKN021 17/12
                        Q1024 NOSIG=
201505231150 METAR EGLL 231150Z 01007KT 330V050 9999 SCT021 SCT025 17/12
                        Q1025 NOSIG=
201505231120 METAR COR EGLL 231120Z 05006KT 360V090 9999 SCT021 SCT030
                        17/11 Q1025 NOSIG=
201505231050 METAR EGLL 231050Z 01007KT 320V070 9999 SCT023 SCT033 17/11
                        Q1025 NOSIG=
201505231020 METAR COR EGLL 231020Z 36005KT 300V050 9999 SCT026 SCT033
                        17/11 Q1025 NOSIG=
201505230950 METAR EGLL 230950Z 35005KT 320V030 9999 SCT021 17/11 Q1025
                        NOSIG=
201505230920 METAR COR EGLL 230920Z 36006KT 330V060 9999 FEW021 17/11
                        Q1025 NOSIG=
201505230850 METAR EGLL 230850Z 35006KT 310V050 9999 FEW024 16/10 Q1025
                        NOSIG=
201505230820 METAR COR EGLL 230820Z 36006KT 310V090 9999 FEW024 16/10
                        Q1025 NOSIG=
201505230750 METAR EGLL 230750Z 35005KT 290V050 9999 FEW020 15/10 Q1025
                        NOSIG=
201505230720 METAR COR EGLL 230720Z 34006KT 310V020 9999 FEW020 15/10
                        Q1025 NOSIG=
201505230650 METAR EGLL 230650Z 36004KT 320V050 9999 FEW016 14/10 Q1024
                        NOSIG=
201505230620 METAR COR EGLL 230620Z 02005KT 320V050 9999 FEW014 14/10
                        Q1024 NOSIG=
201505230550 METAR COR EGLL 230550Z 35004KT 290V030 9999 FEW014 13/10
                        Q1024 NOSIG=
201505230520 METAR COR EGLL 230520Z 34004KT 300V030 CAVOK 13/10 Q1024
                        NOSIG=
201505230450 METAR EGLL 230450Z 32005KT 300V360 CAVOK 13/10 Q1024 NOSIG=
201505230420 METAR COR EGLL 230420Z 34004KT 270V040 CAVOK 13/10 Q1024
                        NOSIG=
201505230350 METAR COR EGLL 230350Z 35005KT 300V030 CAVOK 14/10 Q1024
                        NOSIG=
201505230320 METAR COR EGLL 230320Z 33007KT 310V020 CAVOK 14/10 Q1024
                        NOSIG=
201505230250 METAR COR EGLL 230250Z 33005KT 290V010 CAVOK 14/11 Q1024
                        NOSIG=
201505230220 METAR COR EGLL 230220Z 33006KT 290V360 CAVOK 15/11 Q1024
                        NOSIG=
201505230150 METAR EGLL 230150Z 33005KT CAVOK 15/12 Q1024 NOSIG=
201505230120 METAR COR EGLL 230120Z 33005KT 300V020 CAVOK 15/11 Q1024
                        NOSIG=
201505230050 METAR COR EGLL 230050Z 35004KT 300V030 CAVOK 16/11 Q1024
                        NOSIG=
201505230020 METAR COR EGLL 230020Z 35006KT 310V020 9999 FEW041 16/11
                        Q1024 NOSIG=
201505222350 METAR COR EGLL 222350Z 35005KT 310V030 9999 BKN041 16/12
                        Q1024 NOSIG=
201505222320 METAR COR EGLL 222320Z 35005KT 320V040 9999 FEW033 SCT043
                        17/12 Q1024 NOSIG=
201505222250 METAR COR EGLL 222250Z 33006KT 300V020 CAVOK 17/12 Q1024
                        NOSIG=
201505222220 METAR COR EGLL 222220Z 30005KT CAVOK 17/13 Q1024 NOSIG=
201505222150 METAR EGLL 222150Z 30004KT 9999 FEW042 18/13 Q1024 NOSIG=
201505222120 METAR COR EGLL 222120Z 30004KT 9999 FEW044 18/13 Q1024 NOSIG=
201505222050 METAR COR EGLL 222050Z 29004KT 9999 FEW047 17/13 Q1024 NOSIG=
201505222020 METAR COR EGLL 222020Z 29005KT 9999 FEW030 18/12 Q1023 NOSIG=
201505221950 METAR EGLL 221950Z 28005KT 9999 FEW030 18/12 Q1023 NOSIG=
201505221920 METAR COR EGLL 221920Z 28006KT 9999 FEW035 18/12 Q1023 NOSIG=
201505221850 METAR COR EGLL 221850Z 27006KT 9999 FEW030 18/12 Q1023 NOSIG=
201505221820 METAR COR EGLL 221820Z 27006KT 9999 FEW030 18/12 Q1023 NOSIG=
201505221750 METAR EGLL 221750Z 28005KT 240V310 9999 SCT027 18/12 Q1023
                        NOSIG=
201505221720 METAR COR EGLL 221720Z VRB03KT 9999 FEW026 19/12 Q1023 NOSIG=
201505221650 METAR COR EGLL 221650Z VRB05KT 9999 FEW028 19/12 Q1023 NOSIG=
201505221620 METAR COR EGLL 221620Z 25005KT 210V360 9999 FEW025 19/12
                        Q1023 NOSIG=
201505221550 METAR EGLL 221550Z 27007KT 230V300 9999 SCT024 19/12 Q1024
                        NOSIG=
201505221520 METAR EGLL 221520Z 27006KT 240V330 9999 SCT023 SCT030 18/12
                        Q1024 NOSIG=
201505221450 METAR EGLL 221450Z 27008KT 240V300 9999 SCT024 SCT028 18/12
                        Q1024=
201505221420 METAR COR EGLL 221420Z 27008KT 9999 FEW019 SCT023 18/12 Q1024
                        NOSIG=
201505221350 METAR EGLL 221350Z 27008KT 230V300 9999 SCT017 SCT021 17/12
                        Q1024 NOSIG=
201505221320 METAR COR EGLL 221320Z 25009KT 9999 SCT017 17/12 Q1025 NOSIG=
201505221250 METAR COR EGLL 221250Z 26009KT 230V300 9999 SCT017 SCT022
                        17/11 Q1025 NOSIG=
201505221220 METAR COR EGLL 221220Z 25009KT 9999 SCT017 SCT019 17/12 Q1025
                        NOSIG=
201505221150 METAR EGLL 221150Z 27009KT 240V300 9999 SCT018 BKN021 16/11
                        Q1025 NOSIG=
201505221120 METAR COR EGLL 221120Z 24009KT 200V290 9999 SCT018 SCT022
                        16/11 Q1025 NOSIG=
201505221050 METAR EGLL 221050Z 25008KT 220V280 9999 SCT019 SCT022 16/11
                        Q1025 NOSIG=
201505221020 METAR COR EGLL 221020Z 27006KT 200V320 9999 FEW020 SCT035
                        16/10 Q1026 TEMPO BKN012=
201505220950 METAR EGLL 220950Z 27006KT 220V310 9999 FEW036 16/09 Q1026
                        TEMPO BKN012=
201505220920 METAR COR EGLL 220920Z 24007KT 190V290 9999 VCSH FEW033 16/08
                        Q1026 TEMPO BKN012=
201505220850 METAR COR EGLL 220850Z 22006KT 170V260 CAVOK 15/08 Q1026
                        TEMPO BKN012=
201505220820 METAR COR EGLL 220820Z 22005KT 180V270 CAVOK 14/08 Q1026
                        NOSIG=
201505220750 METAR COR EGLL 220750Z 23005KT 190V270 CAVOK 13/08 Q1026
                        NOSIG=
201505220720 METAR COR EGLL 220720Z 18004KT CAVOK 11/07 Q1026 NOSIG=
201505220650 METAR EGLL 220650Z 23005KT 200V270 CAVOK 10/07 Q1026 NOSIG=
201505220620 METAR COR EGLL 220620Z VRB04KT CAVOK 09/07 Q1026 NOSIG=
201505220550 METAR COR EGLL 220550Z 25008KT 200V270 CAVOK 09/07 Q1026
                        NOSIG=
201505220520 METAR COR EGLL 220520Z 22005KT 190V260 CAVOK 08/06 Q1026
                        NOSIG=
201505220450 METAR EGLL 220450Z 25004KT 210V280 CAVOK 08/06 Q1026 NOSIG=
201505220420 METAR COR EGLL 220420Z 25005KT CAVOK 08/06 Q1026 NOSIG=
201505220350 METAR EGLL 220350Z 25005KT CAVOK 08/06 Q1026 NOSIG=
201505220320 METAR COR EGLL 220320Z 24005KT CAVOK 08/06 Q1026 NOSIG=
201505220250 METAR EGLL 220250Z 23006KT CAVOK 08/06 Q1027 NOSIG=
201505220220 METAR COR EGLL 220220Z 24005KT CAVOK 09/06 Q1027 NOSIG=
201505220150 METAR EGLL 220150Z 25006KT CAVOK 09/06 Q1027 NOSIG=
201505220120 METAR COR EGLL 220120Z 26006KT CAVOK 10/06 Q1027 NOSIG=
201505220050 METAR EGLL 220050Z 26007KT CAVOK 10/06 Q1027 NOSIG=
201505220020 METAR COR EGLL 220020Z 26008KT CAVOK 10/06 Q1027 NOSIG=
201505212350 METAR COR EGLL 212350Z 26009KT CAVOK 11/06 Q1027 NOSIG=
201505212320 METAR COR EGLL 212320Z 26009KT CAVOK 11/06 Q1027 NOSIG=
201505212250 METAR EGLL 212250Z 26007KT CAVOK 12/06 Q1027 NOSIG=
201505212220 METAR COR EGLL 212220Z 27009KT CAVOK 12/06 Q1027 NOSIG=
201505212150 METAR EGLL 212150Z 27010KT CAVOK 13/05 Q1027 NOSIG=
201505212120 METAR COR EGLL 212120Z 28010KT CAVOK 14/05 Q1027 NOSIG=
201505212050 METAR EGLL 212050Z 27011KT CAVOK 14/05 Q1027 NOSIG=
201505212020 METAR COR EGLL 212020Z 28009KT CAVOK 14/05 Q1027 NOSIG=
201505211950 METAR COR EGLL 211950Z 27010KT CAVOK 15/05 Q1026 NOSIG=
201505211920 METAR COR EGLL 211920Z 26011KT CAVOK 17/03 Q1026 NOSIG=
201505211850 METAR EGLL 211850Z 27012KT CAVOK 17/02 Q1026 NOSIG=
201505211820 METAR COR EGLL 211820Z 27011KT CAVOK 18/02 Q1026 NOSIG=
201505211750 METAR COR EGLL 211750Z 26012KT CAVOK 19/02 Q1025 NOSIG=
201505211720 METAR COR EGLL 211720Z 26011KT CAVOK 19/01 Q1025 NOSIG=
201505211650 METAR EGLL 211650Z 26013KT CAVOK 19/02 Q1026 NOSIG=
201505211620 METAR COR EGLL 211620Z 27011KT CAVOK 19/01 Q1026 NOSIG=
201505211550 METAR EGLL 211550Z 26012KT CAVOK 20/01 Q1026 NOSIG=
201505211520 METAR COR EGLL 211520Z 27011KT 240V310 CAVOK 19/02 Q1026
                        NOSIG=
201505211450 METAR COR EGLL 211450Z 28012KT CAVOK 19/02 Q1026 NOSIG=
201505211420 METAR COR EGLL 211420Z 26010KT 220V300 CAVOK 19/03 Q1026
                        NOSIG=
201505211350 METAR EGLL 211350Z 27011KT 240V310 CAVOK 19/03 Q1026 NOSIG=
201505211320 METAR COR EGLL 211320Z 24009KT 210V280 CAVOK 19/04 Q1026
                        NOSIG=
201505211250 METAR COR EGLL 211250Z 23009KT 190V260 CAVOK 19/03 Q1026
                        NOSIG=
201505211220 METAR COR EGLL 211220Z 26013KT 9999 FEW048 17/05 Q1026 NOSIG=
201505211150 METAR COR EGLL 211150Z 28009KT 9999 FEW045 18/06 Q1026 NOSIG=
201505211120 METAR COR EGLL 211120Z 25009KT 210V280 9999 FEW040 17/06
                        Q1026 NOSIG=
201505211050 METAR EGLL 211050Z 25007KT 220V290 9999 SCT040 17/06 Q1026
                        NOSIG=
201505211020 METAR COR EGLL 211020Z 29007KT 250V010 9999 FEW035 17/07
                        Q1026 NOSIG=
201505210950 METAR COR EGLL 210950Z 25005KT 170V330 9999 FEW032 16/07
                        Q1026 NOSIG=
201505210920 METAR COR EGLL 210920Z 23006KT 190V280 9999 FEW027 15/07
                        Q1026 NOSIG=
201505210850 METAR EGLL 210850Z 23006KT 200V340 CAVOK 14/07 Q1026 NOSIG=
201505210820 METAR COR EGLL 210820Z 26005KT 220V290 CAVOK 13/07 Q1026
                        NOSIG=
201505210750 METAR EGLL 210750Z 26005KT 220V290 CAVOK 12/06 Q1026 NOSIG=
201505210720 METAR COR EGLL 210720Z VRB03KT CAVOK 11/05 Q1026 NOSIG=
201505210650 METAR EGLL 210650Z 25005KT 200V270 CAVOK 10/05 Q1026 NOSIG=
201505210620 METAR COR EGLL 210620Z 22005KT 180V260 CAVOK 09/05 Q1026
                        NOSIG=
201505210550 METAR EGLL 210550Z 20004KT 160V240 CAVOK 07/04 Q1026 NOSIG=
201505210520 METAR COR EGLL 210520Z 22004KT 190V260 CAVOK 07/04 Q1025
                        NOSIG=
201505210450 METAR COR EGLL 210450Z 19004KT CAVOK 06/04 Q1025 NOSIG=
201505210420 METAR COR EGLL 210420Z 27004KT CAVOK 06/04 Q1025 NOSIG=
201505210350 METAR COR EGLL 210350Z 26005KT CAVOK 06/03 Q1025 NOSIG=
201505210320 METAR COR EGLL 210320Z 28002KT CAVOK 07/03 Q1025 NOSIG=
201505210250 METAR COR EGLL 210250Z VRB02KT CAVOK 06/03 Q1025 NOSIG=
201505210220 METAR COR EGLL 210220Z VRB03KT CAVOK 06/03 Q1025 NOSIG=
201505210150 METAR EGLL 210150Z 27007KT CAVOK 07/04 Q1025 NOSIG=
201505210120 METAR EGLL 210120Z AUTO 27005KT 9999 NCD 07/04 Q1024=
201505210050 METAR EGLL 210050Z AUTO 27007KT 9999 NCD 07/04 Q1024=
201505210020 METAR EGLL 210020Z AUTO 27005KT 9999 NCD 08/05 Q1024=
201505202350 METAR COR EGLL 202350Z 27006KT CAVOK 08/05 Q1024 NOSIG=
201505202320 METAR COR EGLL 202320Z 27004KT CAVOK 09/05 Q1024 NOSIG=
201505202250 METAR EGLL 202250Z 27002KT CAVOK 10/05 Q1024 NOSIG=
201505202220 METAR COR EGLL 202220Z VRB02KT CAVOK 11/04 Q1023 NOSIG=
201505202150 METAR EGLL 202150Z 31003KT CAVOK 11/04 Q1023 NOSIG=
201505202120 METAR COR EGLL 202120Z 31004KT CAVOK 11/04 Q1023 NOSIG=
201505202050 METAR COR EGLL 202050Z 31004KT CAVOK 12/04 Q1023 NOSIG=
201505202020 METAR COR EGLL 202020Z 31003KT 9999 FEW049 12/04 Q1022 NOSIG=
201505201950 METAR EGLL 201950Z 32004KT 9999 FEW046 13/04 Q1022 NOSIG=
201505201920 METAR COR EGLL 201920Z 31004KT 9999 FEW049 13/04 Q1021 NOSIG=
201505201850 METAR EGLL 201850Z 32006KT 280V350 9999 FEW047 14/03 Q1021
                        NOSIG=
201505201820 METAR COR EGLL 201820Z 31009KT 290V350 9999 FEW045 14/03
                        Q1020 NOSIG=
201505201750 METAR EGLL 201750Z 32009KT 9999 FEW045 15/03 Q1020 NOSIG=
201505201720 METAR COR EGLL 201720Z 32009KT 290V360 9999 FEW048 15/03
                        Q1020 NOSIG=
201505201650 METAR EGLL 201650Z 31012KT 270V340 9999 FEW048 15/03 Q1019
                        NOSIG=
201505201620 METAR COR EGLL 201620Z 30011KT 270V330 9999 FEW045 15/04
                        Q1019 NOSIG=
201505201550 METAR EGLL 201550Z 31011KT 9999 FEW043 15/04 Q1019 NOSIG=
201505201520 METAR COR EGLL 201520Z 30010KT 260V340 9999 FEW030 14/04
                        Q1019 NOSIG=
201505201450 METAR EGLL 201450Z 31010KT 270V350 9999 SCT043 14/04 Q1019
                        NOSIG=
201505201420 METAR COR EGLL 201420Z 32009KT 300V360 9999 SCT040 SCT048
                        14/04 Q1018 NOSIG=
201505201350 METAR EGLL 201350Z 29011KT 9999 FEW040 SCT044 15/04 Q1018
                        NOSIG=
201505201320 METAR COR EGLL 201320Z 31009KT 270V350 9999 FEW040 15/04
                        Q1018 NOSIG=
201505201250 METAR EGLL 201250Z 29009KT 260V320 9999 FEW044 14/04 Q1018
                        NOSIG=
201505201220 METAR COR EGLL 201220Z 31008KT 280V350 9999 SCT044 14/03
                        Q1017 NOSIG=
201505201150 METAR EGLL 201150Z 32008KT 290V010 9999 SCT040 13/04 Q1017
                        NOSIG=
201505201120 METAR COR EGLL 201120Z 32009KT 280V360 9999 SCT037 13/04
                        Q1017 NOSIG=
201505201050 METAR EGLL 201050Z 31007KT 270V350 9999 SCT033 12/04 Q1017
                        NOSIG=
201505201020 METAR COR EGLL 201020Z 30008KT 270V340 9999 VCSH SCT030 12/05
                        Q1017 TEMPO SHRA=
201505200950 METAR EGLL 200950Z 31007KT 280V340 9999 VCSH SCT031 12/06
                        Q1016 TEMPO SHRA=
201505200920 METAR COR EGLL 200920Z 28010KT 9999 -SHRA SCT030 SCT037 12/05
                        Q1016 TEMPO SHRA=
201505200850 METAR EGLL 200850Z 30010KT 9999 SCT027 12/04 Q1016 TEMPO
                        SHRA=
201505200820 METAR COR EGLL 200820Z 31010KT 270V350 9999 SCT025 11/04
                        Q1015 NOSIG=
201505200750 METAR EGLL 200750Z 30008KT 270V330 9999 FEW025 11/05 Q1015
                        NOSIG=
201505200720 METAR COR EGLL 200720Z 31009KT 280V350 9999 FEW022 10/05
                        Q1015 NOSIG=
201505200650 METAR EGLL 200650Z 28009KT 9999 FEW020 08/05 Q1014 NOSIG=
201505200620 METAR COR EGLL 200620Z 28008KT CAVOK 08/04 Q1014 NOSIG=
201505200550 METAR EGLL 200550Z 27008KT CAVOK 07/04 Q1014 NOSIG=
201505200520 METAR COR EGLL 200520Z 28007KT CAVOK 06/04 Q1013 NOSIG=
201505200450 METAR COR EGLL 200450Z 27006KT CAVOK 05/03 Q1013 NOSIG=
201505200420 METAR COR EGLL 200420Z 27006KT CAVOK 05/03 Q1013 NOSIG=
201505200350 METAR COR EGLL 200350Z 28006KT CAVOK 05/03 Q1012 NOSIG=
201505200320 METAR COR EGLL 200320Z 26007KT CAVOK 06/03 Q1012 NOSIG=
201505200250 METAR COR EGLL 200250Z 26008KT CAVOK 05/03 Q1012 NOSIG=
201505200220 METAR COR EGLL 200220Z 27008KT CAVOK 05/04 Q1012 NOSIG=
201505200150 METAR EGLL 200150Z AUTO 28008KT 9999 NCD 05/03 Q1011=
201505200120 METAR EGLL 200120Z AUTO 27009KT 9999 NCD 05/04 Q1011=
201505200050 METAR EGLL 200050Z AUTO 27007KT 9999 NCD 06/04 Q1011=
201505200020 METAR EGLL 200020Z AUTO 27007KT 9999 NCD 06/04 Q1011=
201505192350 METAR COR EGLL 192350Z 27008KT CAVOK 06/04 Q1011 NOSIG=
201505192320 METAR COR EGLL 192320Z 27008KT CAVOK 07/04 Q1010 NOSIG=
201505192250 METAR COR EGLL 192250Z 27007KT CAVOK 07/04 Q1010 NOSIG=
201505192220 METAR COR EGLL 192220Z 28008KT CAVOK 08/04 Q1010 NOSIG=
201505192150 METAR EGLL 192150Z 28009KT CAVOK 07/04 Q1010 NOSIG=
201505192120 METAR COR EGLL 192120Z 27014KT CAVOK 08/04 Q1010 NOSIG=
201505192050 METAR COR EGLL 192050Z 27010KT 9999 FEW028TCU SCT032 FEW048CB
                        08/04 Q1009 NOSIG=
201505192020 METAR COR EGLL 192020Z 29008KT 9999 FEW028TCU SCT032 FEW043CB
                        08/05 Q1009 TEMPO SHRA=
201505191950 METAR COR EGLL 191950Z 28006KT 9999 SCT028TCU SCT036 FEW040CB
                        08/05 Q1008 RESHRA REDZ TEMPO SHRA=
201505191920 METAR COR EGLL 191920Z 27013KT 9999 VCSH SCT027 SCT038CB
                        FEW042TCU 10/04 Q1008 TEMPO SHRA=
201505191850 METAR COR EGLL 191850Z 27014KT 9999 FEW027 SCT038CB FEW042TCU
                        10/04 Q1007 TEMPO SHRA=
201505191820 METAR COR EGLL 191820Z 28011KT 9999 SCT027 SCT042CB FEW045TCU
                        10/03 Q1007 NOSIG=
201505191750 METAR COR EGLL 191750Z 28013KT 9999 VCSH SCT042CB SCT047
                        12/05 Q1006 TEMPO SHRA=
201505191720 METAR COR EGLL 191720Z 29011KT 9999 VCTS VCSH SCT039CB SCT045
                        12/05 Q1006 RESHRA TEMPO SHRA=
201505191650 METAR EGLL 191650Z 28011G25KT 9999 SHRA SCT039CB 12/05 Q1005
                        NOSIG=
201505191620 METAR COR EGLL 191620Z 27012KT 240V310 9999 VCSH SCT039CB
                        13/05 Q1005 TEMPO SHRA=
201505191550 METAR COR EGLL 191550Z 29013KT 9999 VCSH SCT039CB 11/04 Q1005
                        RESHRA TEMPO SHRA=
201505191520 METAR COR EGLL 191520Z 26018KT 9999 FEW036CB FEW037TCU SCT042
                        14/05 Q1005 TEMPO SHRA=
201505191450 METAR COR EGLL 191450Z 24012KT 200V260 9999 FEW036CB 13/06
                        Q1005 TEMPO SHRA=
201505191420 METAR COR EGLL 191420Z 27005KT 230V330 9999 VCSH SCT035CB
                        11/05 Q1005 TEMPO SHRA=
201505191350 METAR COR EGLL 191350Z 28012G23KT 250V320 9999 -SHRA SCT035CB
                        SCT047 10/05 Q1006 TEMPO SHRA=
201505191320 METAR COR EGLL 191320Z 26011KT 9999 VCSH SCT031CB 10/05 Q1005
                        RESHRA TEMPO 4000 +SHRA=
201505191250 METAR EGLL 191250Z 28010KT 9999 SCT030CB 10/05 Q1005 RESHRA=
201505191220 METAR COR EGLL 191220Z 25016KT 9999 VCSH SCT040CB 14/04 Q1004
                        TEMPO 3000 +SHRA=
201505191150 METAR COR EGLL 191150Z 24012KT 9999 SCT034CB 13/05 Q1004
                        TEMPO SHRA=
201505191120 METAR COR EGLL 191120Z 24012KT 9999 VCSH SCT034CB 11/05 Q1004
                        RESHRA TEMPO SHRA=
201505191050 METAR COR EGLL 191050Z 28013KT 9999 7000W SHRA FEW032CB SCT036
                        12/04 Q1004 TEMPO 4000 +SHRA=
201505191020 METAR COR EGLL 191020Z 26013KT 9999 -SHRA FEW028CB SCT033
                        13/04 Q1004 TEMPO SHRA=
201505190950 METAR COR EGLL 190950Z 25016KT 9999 VCSH SCT034CB 12/04 Q1004
                        TEMPO SHRA=
201505190920 METAR COR EGLL 190920Z 25015KT 9999 SCT029 SCT047 12/04 Q1004
                        TEMPO SHRA=
201505190850 METAR COR EGLL 190850Z 25015KT 9999 SCT025 SCT042 12/04 Q1004
                        NOSIG=
201505190820 METAR COR EGLL 190820Z 25014KT 9999 SCT024 SCT030 11/04 Q1004
                        NOSIG=
201505190750 METAR COR EGLL 190750Z 25014KT 9999 SCT025 SCT031 11/04 Q1004
                        NOSIG=
201505190720 METAR COR EGLL 190720Z 25015KT 9999 FEW023 SCT027 10/04 Q1004
                        NOSIG=
201505190650 METAR COR EGLL 190650Z 25014KT 9999 FEW021 10/04 Q1003 NOSIG=
201505190620 METAR COR EGLL 190620Z 25014KT 9999 FEW020 09/04 Q1003 NOSIG=
201505190550 METAR EGLL 190550Z 24014KT 9999 FEW020 08/04 Q1003 NOSIG=
201505190520 METAR COR EGLL 190520Z 24014KT 9999 FEW048 08/04 Q1003 NOSIG=
201505190450 METAR EGLL 190450Z 23013KT 9999 FEW026 08/04 Q1003 NOSIG=
201505190420 METAR COR EGLL 190420Z 23012KT CAVOK 07/04 Q1002 NOSIG=
201505190350 METAR COR EGLL 190350Z 24014KT CAVOK 07/04 Q1002 NOSIG=
201505190320 METAR COR EGLL 190320Z 24014KT 9999 FEW035 08/04 Q1003 NOSIG=
201505190250 METAR EGLL 190250Z 24013KT CAVOK 08/05 Q1003 NOSIG=
201505190220 METAR COR EGLL 190220Z 23015KT 9999 FEW034 08/05 Q1003 NOSIG=
201505190150 METAR EGLL 190150Z 23015KT 9999 FEW049 08/04 Q1003 NOSIG=
201505190120 METAR EGLL 190120Z AUTO 23014KT 9999 NCD 08/04 Q1003=
201505190050 METAR EGLL 190050Z AUTO 23013KT 9999 NCD 08/04 Q1003=
201505190020 METAR EGLL 190020Z AUTO 23012KT 9999 NCD 08/04 Q1003=
201505182350 METAR EGLL 182350Z 23013KT CAVOK 08/04 Q1003 NOSIG=
201505182320 METAR COR EGLL 182320Z 24013KT 9999 FEW020 08/04 Q1004 NOSIG=
201505182250 METAR EGLL 182250Z 24012KT 9999 FEW029 08/04 Q1004 NOSIG=
201505182220 METAR COR EGLL 182220Z 23010KT 9999 FEW042 09/04 Q1004 NOSIG=
201505182150 METAR EGLL 182150Z 24013KT 9999 FEW037 09/04 Q1004 NOSIG=
201505182120 METAR COR EGLL 182120Z 25014KT 9999 FEW042 10/04 Q1004 NOSIG=
201505182050 METAR EGLL 182050Z 24015KT 9999 8000NE VCSH FEW020 FEW032TCU
                        10/04 Q1004 TEMPO 6000 SHRA=
201505182020 METAR COR EGLL 182020Z 25016G26KT 9999 6000S VCSH FEW032
                        SCT042 FEW050TCU 11/03 Q1004 TEMPO
                        SHRA=
201505181950 METAR COR EGLL 181950Z 25015KT 9999 FEW032 SCT042 11/03 Q1004
                        NOSIG=
201505181920 METAR COR EGLL 181920Z 25016KT 9999 FEW044 11/02 Q1004 NOSIG=
201505181850 METAR COR EGLL 181850Z 27016KT 9999 FEW046 12/01 Q1004 NOSIG=
201505181820 METAR COR EGLL 181820Z 26019KT 9999 FEW048 13/01 Q1004 NOSIG=
201505181750 METAR COR EGLL 181750Z 25017KT 9999 FEW048 13/03 Q1004 NOSIG=
201505181720 METAR COR EGLL 181720Z 26019KT 9999 FEW048 14/02 Q1004 NOSIG=
201505181650 METAR EGLL 181650Z 26020KT 9999 FEW048 14/02 Q1003 NOSIG=
201505181620 METAR COR EGLL 181620Z 28014KT 9999 SCT047 14/05 Q1003 NOSIG=
201505181550 METAR EGLL 181550Z 26022G34KT 9999 SCT044 15/04 Q1003 NOSIG=
201505181520 METAR COR EGLL 181520Z 27018KT 9999 BKN041 15/04 Q1003 NOSIG=
201505181450 METAR EGLL 181450Z 27016G28KT 9999 SCT034 SCT044 15/06 Q1004
                        NOSIG=
201505181420 METAR COR EGLL 181420Z 28016KT 9999 SCT031 SCT034 14/06 Q1004
                        NOSIG=
201505181350 METAR COR EGLL 181350Z 27018KT 9999 SCT031 SCT034 14/07 Q1004
                        NOSIG=
201505181320 METAR COR EGLL 181320Z 28020KT 9999 SCT032 SCT038 14/07 Q1003
                        NOSIG=
201505181250 METAR EGLL 181250Z 26023G38KT 9999 SCT035 SCT041 15/08 Q1002
                        NOSIG=
201505181220 METAR COR EGLL 181220Z 23020G30KT 9999 SCT024 SCT031 14/10
                        Q1002 NOSIG=
201505181150 METAR COR EGLL 181150Z 22016KT 9999 FEW019 SCT030 14/11 Q1002
                        NOSIG=
201505181120 METAR COR EGLL 181120Z 22013KT 9999 -RA FEW022 SCT040 13/11
                        Q1002 NOSIG=
201505181050 METAR COR EGLL 181050Z 24019KT 9999 -RA SCT011 SCT037 13/12
                        Q1003 TEMPO RA BKN012=
201505181020 METAR COR EGLL 181020Z 22016KT 5000 -RADZ SCT008 BKN011 13/12
                        Q1003 TEMPO 3500 +RA=
201505180950 METAR COR EGLL 180950Z 21015KT 5000 -RADZ SCT008 BKN011 12/11
                        Q1003 TEMPO 3500 +RA=
201505180920 METAR COR EGLL 180920Z 21014KT 9999 -RA FEW008 BKN011 12/11
                        Q1004 TEMPO 4500 RADZ=
201505180850 METAR COR EGLL 180850Z 20013G26KT 9000 -RA SCT008 BKN011
                        12/11 Q1005 TEMPO 4500 RADZ=
201505180820 METAR COR EGLL 180820Z 19012KT 9000 -RA FEW008 BKN010 11/10
                        Q1006 TEMPO 4500 RADZ=
201505180750 METAR COR EGLL 180750Z 19013KT 9999 -RA FEW008 BKN011 11/10
                        Q1006 TEMPO 4800 RADZ=
201505180720 METAR COR EGLL 180720Z 19012KT 9000 -RA FEW009 BKN012 10/09
                        Q1007 TEMPO 4800 RADZ=
201505180650 METAR COR EGLL 180650Z 20012KT 9999 -RA BKN017 10/08 Q1008
                        BECMG RA BKN012=
201505180620 METAR COR EGLL 180620Z 21012KT 9999 -RA BKN018 10/07 Q1009
                        BECMG RA BKN012=
201505180550 METAR COR EGLL 180550Z 20010KT 9999 FEW025 BKN039 10/06 Q1009
                        TEMPO RA BKN014=
201505180520 METAR COR EGLL 180520Z 20010KT 9999 -RA FEW031 BKN041 10/07
                        Q1010 TEMPO RA BKN014=
201505180450 METAR EGLL 180450Z 20009KT 9999 SCT039 10/06 Q1011 TEMPO
                        RA BKN014=
201505180420 METAR COR EGLL 180420Z 21010KT 9999 SCT047 09/06 Q1012 TEMPO
                        BKN012=
201505180350 METAR COR EGLL 180350Z 22007KT 9999 FEW034 09/06 Q1012 NOSIG=
201505180320 METAR COR EGLL 180320Z 22008KT 9999 FEW029 09/06 Q1013 TEMPO
                        BKN014=
201505180250 METAR EGLL 180250Z 21008KT 9999 BKN028 09/07 Q1013 NOSIG=
201505180220 METAR COR EGLL 180220Z 19008KT 9999 BKN028 10/07 Q1014 NOSIG=
201505180150 METAR COR EGLL 180150Z 23007KT 9999 BKN031 10/05 Q1015 NOSIG=
201505180120 METAR EGLL 180120Z AUTO 23006KT 9999 NCD 10/05 Q1015=
201505180050 METAR EGLL 180050Z AUTO 25007KT 9999 FEW033 10/05 Q1016=
201505180020 METAR EGLL 180020Z AUTO 27009KT 9999 BKN030 11/05 Q1017=
201505172350 METAR EGLL 172350Z 27009KT 9999 SCT023 SCT032 11/05 Q1017
                        NOSIG=
201505172320 METAR COR EGLL 172320Z 24009KT 9999 SCT028 SCT032 12/08 Q1017
                        NOSIG=
201505172250 METAR COR EGLL 172250Z 23008KT 9999 BKN032 12/08 Q1018 NOSIG=
201505172220 METAR COR EGLL 172220Z 23009KT 9999 SCT031 BKN045 12/07 Q1018
                        NOSIG=
201505172150 METAR COR EGLL 172150Z 24008KT 190V260 9999 FEW037 BKN047
                        12/07 Q1019 NOSIG=
201505172120 METAR COR EGLL 172120Z 23009KT 9999 SCT029 SCT035 12/07 Q1019
                        NOSIG=
201505172050 METAR COR EGLL 172050Z 22009KT 9999 SCT029 SCT033 13/07 Q1020
                        NOSIG=
201505172020 METAR EGLL 172020Z 23010KT 9999 FEW031 SCT037 13/07 Q1020
                        NOSIG=
201505171950 METAR EGLL 171950Z 21010KT 9999 SCT036 BKN042 13/07 Q1020
                        NOSIG=
201505171920 METAR COR EGLL 171920Z 22010KT 9999 FEW038 SCT048 14/07 Q1020
                        NOSIG=
201505171850 METAR COR EGLL 171850Z 23010KT 9999 FEW038 SCT043 14/06 Q1020
                        NOSIG=
201505171820 METAR COR EGLL 171820Z 24010KT 9999 SCT041 15/05 Q1021 NOSIG=
201505171750 METAR EGLL 171750Z 26011KT 9999 BKN045 15/05 Q1021 NOSIG=
201505171720 METAR COR EGLL 171720Z 27009KT 9999 BKN047 15/05 Q1021 NOSIG=
201505171650 METAR EGLL 171650Z 25008KT 220V290 9999 FEW048 15/04 Q1022
                        NOSIG=
201505171620 METAR COR EGLL 171620Z 26009KT 230V300 9999 SCT046 15/04
                        Q1022 NOSIG=
201505171550 METAR EGLL 171550Z 27009KT 230V300 9999 FEW048 15/05 Q1023
                        NOSIG=
201505171520 METAR COR EGLL 171520Z 27010KT 230V300 9999 FEW048 15/04
                        Q1023 NOSIG=
201505171450 METAR COR EGLL 171450Z 27014KT 9999 FEW045 15/04 Q1024 NOSIG=
201505171420 METAR COR EGLL 171420Z 28013KT 9999 FEW049 16/04 Q1024 NOSIG=
201505171350 METAR COR EGLL 171350Z 26015KT 9999 SCT048 16/04 Q1024 NOSIG=
201505171320 METAR COR EGLL 171320Z 27013KT 9999 SCT048 16/04 Q1024 NOSIG=
201505171250 METAR EGLL 171250Z 28012KT 9999 SCT048 16/05 Q1024 NOSIG=
201505171220 METAR COR EGLL 171220Z 29012KT 260V320 9999 SCT048 16/04
                        Q1025 NOSIG=
201505171150 METAR COR EGLL 171150Z 27012KT 240V310 9999 FEW045 16/04
                        Q1025 NOSIG=
201505171120 METAR COR EGLL 171120Z 28012KT 240V300 9999 FEW042 16/04
                        Q1025 NOSIG=
201505171050 METAR EGLL 171050Z 27011KT 240V310 9999 FEW042 15/04 Q1026
                        NOSIG=
201505171020 METAR COR EGLL 171020Z 27014KT 240V310 9999 FEW040 14/04
                        Q1026 NOSIG=
201505170950 METAR EGLL 170950Z 27013KT 240V310 9999 FEW040 14/04 Q1026
                        NOSIG=
201505170920 METAR COR EGLL 170920Z 27013KT 9999 FEW036 13/04 Q1027 NOSIG=
201505170850 METAR EGLL 170850Z 28011KT 9999 FEW025 13/05 Q1027 NOSIG=
201505170820 METAR COR EGLL 170820Z 27012KT CAVOK 12/05 Q1027 NOSIG=
201505170750 METAR COR EGLL 170750Z 27007KT CAVOK 12/06 Q1027 NOSIG=
201505170720 METAR COR EGLL 170720Z 27008KT CAVOK 10/06 Q1028 NOSIG=
201505170650 METAR EGLL 170650Z 26008KT CAVOK 10/06 Q1028 NOSIG=
201505170620 METAR COR EGLL 170620Z 27007KT CAVOK 09/06 Q1028 NOSIG=
201505170550 METAR COR EGLL 170550Z 27006KT 240V300 CAVOK 08/06 Q1028
                        NOSIG=
201505170520 METAR COR EGLL 170520Z 26007KT 230V300 CAVOK 08/06 Q1028
                        NOSIG=
201505170450 METAR COR EGLL 170450Z 27006KT CAVOK 08/05 Q1027 NOSIG=
201505170420 METAR COR EGLL 170420Z 27006KT CAVOK 08/05 Q1027 NOSIG=
201505170350 METAR EGLL 170350Z 27006KT CAVOK 08/05 Q1027 NOSIG=
201505170320 METAR COR EGLL 170320Z 27006KT CAVOK 08/05 Q1028 NOSIG=
201505170250 METAR EGLL 170250Z 27006KT CAVOK 08/05 Q1028 NOSIG=
201505170220 METAR COR EGLL 170220Z 27007KT CAVOK 08/05 Q1028 NOSIG=
201505170150 METAR EGLL 170150Z 27007KT CAVOK 08/05 Q1028 NOSIG=
201505170120 METAR EGLL 170120Z AUTO 26007KT 9999 NCD 08/04 Q1028=
201505170050 METAR EGLL 170050Z AUTO 27005KT 9999 NCD 09/04 Q1028=
201505170020 METAR EGLL 170020Z AUTO 27005KT 9999 NCD 08/03 Q1028=
201505162350 METAR COR EGLL 162350Z 26007KT CAVOK 09/03 Q1028 NOSIG=
201505162320 METAR COR EGLL 162320Z 26006KT CAVOK 09/03 Q1028 NOSIG=
201505162250 METAR COR EGLL 162250Z 28006KT CAVOK 10/04 Q1028 NOSIG=
201505162220 METAR COR EGLL 162220Z 29006KT CAVOK 10/03 Q1028 NOSIG=
201505162150 METAR EGLL 162150Z 29007KT CAVOK 12/03 Q1028 NOSIG=
201505162120 METAR COR EGLL 162120Z 29007KT CAVOK 13/03 Q1028 NOSIG=
201505162050 METAR EGLL 162050Z 31004KT CAVOK 14/03 Q1027 NOSIG=
201505162020 METAR COR EGLL 162020Z 31005KT CAVOK 14/03 Q1027 NOSIG=
201505161950 METAR COR EGLL 161950Z 30005KT CAVOK 15/02 Q1027 NOSIG=
201505161920 METAR COR EGLL 161920Z 31007KT CAVOK 15/02 Q1027 NOSIG=
201505161850 METAR EGLL 161850Z 31007KT CAVOK 16/02 Q1026 NOSIG=
201505161820 METAR COR EGLL 161820Z 30009KT CAVOK 16/01 Q1026 NOSIG=
201505161750 METAR EGLL 161750Z 30010KT 270V330 CAVOK 17/02 Q1026 NOSIG=
201505161720 METAR COR EGLL 161720Z 31009KT CAVOK 17/03 Q1026 NOSIG=
201505161650 METAR EGLL 161650Z 29008KT CAVOK 17/03 Q1026 NOSIG=
201505161620 METAR COR EGLL 161620Z 31009KT 280V360 CAVOK 17/03 Q1026
                        NOSIG=
201505161550 METAR EGLL 161550Z 30009KT 270V340 CAVOK 18/04 Q1026 NOSIG=
201505161520 METAR COR EGLL 161520Z 30010KT 270V330 CAVOK 18/03 Q1025
                        NOSIG=
201505161450 METAR COR EGLL 161450Z 30011G22KT 260V350 CAVOK 18/04 Q1025
                        NOSIG=
201505161420 METAR COR EGLL 161420Z 28011KT CAVOK 18/04 Q1025 NOSIG=
201505161350 METAR EGLL 161350Z 29008KT 260V320 CAVOK 17/04 Q1025 NOSIG=
201505161320 METAR COR EGLL 161320Z 31009KT 270V360 9999 FEW049 18/05
                        Q1025 NOSIG=
201505161250 METAR COR EGLL 161250Z 31009KT 280V340 9999 FEW046 18/05
                        Q1025 NOSIG=
201505161220 METAR COR EGLL 161220Z 29011KT 9999 FEW044 17/06 Q1024 NOSIG=
201505161150 METAR COR EGLL 161150Z 31011KT 270V340 9999 FEW045 SCT048
                        17/06 Q1024 NOSIG=
201505161120 METAR COR EGLL 161120Z 31011KT 280V340 9999 FEW042 16/06
                        Q1024 NOSIG=
201505161050 METAR COR EGLL 161050Z 30011KT 9999 FEW040 16/06 Q1024 NOSIG=
201505161020 METAR COR EGLL 161020Z 31011KT 260V350 9999 FEW039 SCT041
                        16/06 Q1024 NOSIG=
201505160950 METAR EGLL 160950Z 30012KT 270V330 9999 FEW028 16/06 Q1023
                        NOSIG=
201505160920 METAR COR EGLL 160920Z 29012KT 9999 FEW028 16/05 Q1023 NOSIG=
201505160850 METAR EGLL 160850Z 29011KT 9999 FEW028 16/07 Q1023 NOSIG=
201505160820 METAR COR EGLL 160820Z 30011KT 9999 SCT030 SCT040 15/09 Q1022
                        NOSIG=
201505160750 METAR COR EGLL 160750Z 29010KT 9999 SCT016 SCT042 15/10 Q1022
                        NOSIG=
201505160720 METAR COR EGLL 160720Z 28009KT 9999 BKN012 15/11 Q1022 BECMG
                        SCT012=
201505160650 METAR COR EGLL 160650Z 27011KT 9999 BKN011 14/11 Q1022 BECMG
                        SCT012=
201505160620 METAR COR EGLL 160620Z 27009KT 9999 SCT012 13/11 Q1021 NOSIG=
201505160550 METAR EGLL 160550Z 27009KT 9999 BKN012 13/11 Q1021 BECMG
                        SCT012=
201505160520 METAR COR EGLL 160520Z 25009KT 9999 BKN012 13/10 Q1021 BECMG
                        SCT012=
201505160450 METAR COR EGLL 160450Z 25009KT 9999 BKN012 13/10 Q1021 NOSIG=
201505160420 METAR COR EGLL 160420Z 25011KT 9999 BKN012 13/10 Q1020 NOSIG=
201505160350 METAR EGLL 160350Z 24009KT 9999 BKN011 13/10 Q1020 TEMPO
                        BKN009=
201505160320 METAR COR EGLL 160320Z 24009KT 9999 BKN012 13/10 Q1021 TEMPO
                        BKN009=
201505160250 METAR EGLL 160250Z 23008KT 9999 BKN014 13/10 Q1021 TEMPO
                        BKN009=
201505160220 METAR COR EGLL 160220Z 24008KT 9999 BKN015 12/09 Q1021 BECMG
                        BKN012=
201505160150 METAR EGLL 160150Z 24010KT 9999 BKN016 12/09 Q1021 TEMPO
                        BKN012=
201505160120 METAR EGLL 160120Z AUTO 22007KT 9999 NCD 12/09 Q1021=
201505160050 METAR EGLL 160050Z AUTO 23008KT 9999 BKN047 11/09 Q1021=
201505160020 METAR EGLL 160020Z AUTO 23008KT 9999 NCD 11/09 Q1021=
201505152350 METAR EGLL 152350Z 23009KT CAVOK 11/09 Q1022 NOSIG=
201505152320 METAR COR EGLL 152320Z 22009KT CAVOK 11/09 Q1022 NOSIG=
201505152250 METAR EGLL 152250Z 22009KT 9999 -RA FEW040 11/09 Q1022 NOSIG=
201505152220 METAR COR EGLL 152220Z 23011KT CAVOK 11/09 Q1022 NOSIG=
201505152150 METAR EGLL 152150Z 23011KT 9999 -RA FEW030 12/09 Q1022 NOSIG=
201505152120 METAR COR EGLL 152120Z 23011KT 9999 -RA SCT031 12/09 Q1022
                        NOSIG=
201505152050 METAR COR EGLL 152050Z 23011KT 9999 FEW033 12/09 Q1022 NOSIG=
201505152020 METAR COR EGLL 152020Z 23012KT 9999 FEW035 13/09 Q1022 NOSIG=
201505151950 METAR EGLL 151950Z 22010KT CAVOK 13/09 Q1022 NOSIG=
201505151920 METAR COR EGLL 151920Z 22010KT 9999 FEW036 13/08 Q1022 NOSIG=
201505151850 METAR EGLL 151850Z 23009KT 9999 SCT036 14/07 Q1022 NOSIG=
201505151820 METAR COR EGLL 151820Z 25010KT 9999 FEW035 14/07 Q1022 NOSIG=
201505151750 METAR COR EGLL 151750Z 26010KT 220V290 9999 BKN032 14/07
                        Q1022 NOSIG=
201505151720 METAR COR EGLL 151720Z 25012KT 9999 FEW032 SCT034 14/07 Q1022
                        NOSIG=
201505151650 METAR COR EGLL 151650Z 24010KT 210V270 9999 FEW035 SCT037
                        15/07 Q1022 NOSIG=
201505151620 METAR COR EGLL 151620Z 25009KT 210V290 9999 SCT035 15/06
                        Q1022 NOSIG=
201505151550 METAR COR EGLL 151550Z 24008KT 200V270 9999 SCT035 15/06
                        Q1022 NOSIG=
201505151520 METAR COR EGLL 151520Z 23006KT 180V340 9999 SCT034 15/06
                        Q1022 NOSIG=
201505151450 METAR EGLL 151450Z 24008KT 200V280 9999 BKN033 14/06 Q1023
                        NOSIG=
201505151420 METAR COR EGLL 151420Z 26005KT 220V290 9999 BKN034 14/06
                        Q1023 NOSIG=
201505151350 METAR COR EGLL 151350Z VRB03KT 9999 BKN033 14/06 Q1023 NOSIG=
201505151320 METAR COR EGLL 151320Z 30005KT 240V350 9999 BKN034 13/06
                        Q1023 NOSIG=
201505151250 METAR COR EGLL 151250Z 31006KT 280V350 9999 BKN032 13/05
                        Q1023 NOSIG=
201505151220 METAR COR EGLL 151220Z 30005KT 240V340 9999 BKN031 13/05
                        Q1023 NOSIG=
201505151150 METAR COR EGLL 151150Z 30004KT 240V350 9999 BKN033 12/05
                        Q1023 NOSIG=
201505151120 METAR COR EGLL 151120Z 31006KT 270V360 9999 BKN031 12/05
                        Q1023 NOSIG=
201505151050 METAR EGLL 151050Z 32005KT 260V030 9999 BKN031 11/05 Q1023
                        NOSIG=
201505151020 METAR COR EGLL 151020Z 32005KT 260V030 9999 BKN031 11/05
                        Q1023 NOSIG=
201505150950 METAR COR EGLL 150950Z 33004KT 270V040 9999 BKN027 11/05
                        Q1023 NOSIG=
201505150920 METAR COR EGLL 150920Z 03004KT 310V130 9999 SCT026 11/05
                        Q1022 NOSIG=
201505150850 METAR EGLL 150850Z 02005KT 270V060 9999 SCT024 10/05 Q1022
                        NOSIG=
201505150820 METAR COR EGLL 150820Z 05005KT 360V090 9999 FEW023 10/05
                        Q1022 NOSIG=
201505150750 METAR EGLL 150750Z 04006KT 360V070 9999 FEW020 10/04 Q1021
                        NOSIG=
201505150720 METAR COR EGLL 150720Z 05006KT 360V090 9999 FEW020 09/04
                        Q1021 NOSIG=
201505150650 METAR EGLL 150650Z 06006KT 020V090 9999 FEW031 09/05 Q1021
                        NOSIG=
201505150620 METAR COR EGLL 150620Z 06006KT 9999 FEW020 SCT032 08/06 Q1020
                        NOSIG=
201505150550 METAR EGLL 150550Z 04006KT 9999 BKN032 08/06 Q1020 NOSIG=
201505150520 METAR COR EGLL 150520Z 04006KT 9999 FEW031 08/06 Q1020 NOSIG=
201505150450 METAR COR EGLL 150450Z 04005KT 010V070 9999 BKN030 08/06
                        Q1019 NOSIG=
201505150420 METAR COR EGLL 150420Z 05005KT 9999 FEW022 SCT034 08/06 Q1019
                        NOSIG=
201505150350 METAR COR EGLL 150350Z 03005KT 360V090 9999 SCT025 BKN030
                        08/06 Q1018 NOSIG=
201505150320 METAR COR EGLL 150320Z 03006KT 350V050 9999 BKN030 08/07
                        Q1018 NOSIG=
201505150250 METAR COR EGLL 150250Z 03007KT 350V070 9999 BKN030 08/07
                        Q1018 NOSIG=
201505150220 METAR COR EGLL 150220Z 02007KT 350V060 9000 FEW009 SCT012
                        BKN020 08/07 Q1017 NOSIG=
201505150150 METAR EGLL 150150Z 02006KT 350V050 4000 -DZ BKN010 BKN020
                        08/07 Q1017 REDZ BECMG 9999 SCT010
                        BKN025=
201505150120 METAR EGLL 150120Z AUTO 02006KT 7000 -DZ BKN013 BKN019 08/07
                        Q1016=
201505150050 METAR EGLL 150050Z AUTO 01006KT 340V050 9999 BKN010 BKN020
                        08/07 Q1016=
201505150020 METAR EGLL 150020Z AUTO 03007KT 6000 BKN007 BKN038 08/07
                        Q1016=
201505142350 METAR EGLL 142350Z 03007KT 360V060 5000 -RA FEW007 BKN012
                        08/07 Q1015 BECMG SCT012 BKN025=
201505142320 METAR COR EGLL 142320Z 04007KT 5000 -RA SCT007 BKN012 08/08
                        Q1015 BECMG FEW012 BKN025=
201505142250 METAR EGLL 142250Z 04007KT 010V070 4000 -RA FEW006 BKN009
                        08/08 Q1015 BECMG 9999 SCT012 BKN025=
201505142220 METAR COR EGLL 142220Z 03006KT 360V060 5000 -RA FEW008 BKN010
                        08/08 Q1015 NOSIG=
201505142150 METAR COR EGLL 142150Z 04007KT 4400 -RA FEW007 BKN010 09/08
                        Q1014 BECMG 9999=
201505142120 METAR COR EGLL 142120Z 04008KT 010V070 9000 -RA BKN010 09/07
                        Q1014 NOSIG=
201505142050 METAR COR EGLL 142050Z 04007KT 010V070 9999 -RA BKN010 09/07
                        Q1014 NOSIG=
201505142020 METAR COR EGLL 142020Z 04007KT 010V070 9999 FEW008 BKN011
                        09/07 Q1013 NOSIG=
201505141950 METAR COR EGLL 141950Z 05007KT 010V070 9999 -RA FEW008 BKN011
                        09/07 Q1013 NOSIG=
201505141920 METAR COR EGLL 141920Z 05007KT 010V070 9999 FEW008 BKN012
                        09/07 Q1012 NOSIG=
201505141850 METAR COR EGLL 141850Z 05008KT 9999 -RA FEW008 BKN011 09/07
                        Q1012 NOSIG=
201505141820 METAR COR EGLL 141820Z 05008KT 010V080 9000 -RA FEW007 BKN011
                        09/08 Q1011 NOSIG=
201505141750 METAR EGLL 141750Z 05007KT 020V080 9999 -RA FEW007 BKN010
                        09/08 Q1011 TEMPO BKN009=
201505141720 METAR COR EGLL 141720Z 06009KT 9000 -RA FEW007 BKN010 09/08
                        Q1011 TEMPO BKN009=
201505141650 METAR EGLL 141650Z 06008KT 7000 -RA FEW007 BKN010 09/08 Q1010
                        NOSIG=
201505141620 METAR COR EGLL 141620Z 05006KT 360V080 6000 -RA FEW007 BKN010
                        09/08 Q1010 TEMPO 4500 -RADZ BKN009=
201505141550 METAR EGLL 141550Z 06007KT 6000 -RA FEW007 BKN010 09/08 Q1010
                        NOSIG=
201505141520 METAR COR EGLL 141520Z 06007KT 7000 -RA FEW007 BKN010 09/08
                        Q1010 NOSIG=
201505141450 METAR COR EGLL 141450Z 06008KT 6000 -RA FEW006 SCT008 BKN011
                        09/08 Q1010 NOSIG=
201505141420 METAR COR EGLL 141420Z 07007KT 7000 -RA FEW008 SCT010 BKN014
                        09/08 Q1010 RERA NOSIG=
201505141350 METAR EGLL 141350Z 09009KT 7000 RA FEW008 BKN014 09/08 Q1010
                        TEMPO 4500=
201505141320 METAR COR EGLL 141320Z 11008KT 070V140 6000 RA FEW009 BKN011
                        09/08 Q1010 TEMPO 4500=
201505141250 METAR EGLL 141250Z 08011KT 7000 RA FEW012 SCT016 BKN028 09/08
                        Q1009 TEMPO 4500 BKN012=
201505141220 METAR COR EGLL 141220Z 08015KT 9000 -RA FEW012 SCT020 BKN029
                        09/07 Q1009 TEMPO 4500 RA BKN012=
201505141150 METAR COR EGLL 141150Z 09014KT 9999 -RA FEW012 SCT020 BKN035
                        10/07 Q1009 RERA TEMPO RA BKN012=
201505141120 METAR COR EGLL 141120Z 08014KT 9999 -RA FEW012 BKN035 BKN038
                        10/07 Q1010 BECMG RA=
201505141050 METAR COR EGLL 141050Z 08014KT 9999 -RA OVC041 10/07 Q1010
                        BECMG RA=
201505141020 METAR COR EGLL 141020Z 08014KT 9999 -RA FEW014 BKN042 10/07
                        Q1010 BECMG RA=
201505140950 METAR COR EGLL 140950Z 09012KT 9999 -RA FEW014 BKN042 10/07
                        Q1011 BECMG RA=
201505140920 METAR COR EGLL 140920Z 09012KT 9999 -RA FEW012 BKN049 10/07
                        Q1011 TEMPO RA=
201505140850 METAR EGLL 140850Z 09014KT 9999 -RA FEW014 10/07 Q1012 TEMPO
                        RA=
201505140820 METAR COR EGLL 140820Z 09013KT 9999 FEW016 10/06 Q1012 TEMPO
                        RA=
201505140750 METAR EGLL 140750Z 11012KT 9999 FEW016 10/06 Q1012 NOSIG=
201505140720 METAR COR EGLL 140720Z 10011KT 9999 FEW016 10/06 Q1013 NOSIG=
201505140650 METAR EGLL 140650Z 10012KT 9999 -RA FEW014 09/07 Q1013 NOSIG=
201505140620 METAR COR EGLL 140620Z 11011KT 9999 -RA FEW014 09/07 Q1013
                        NOSIG=
201505140550 METAR EGLL 140550Z 11011KT 9999 FEW013 09/07 Q1014 NOSIG=
201505140520 METAR COR EGLL 140520Z 10011KT 9999 FEW012 09/07 Q1014 NOSIG=
201505140450 METAR EGLL 140450Z 09011KT 9999 FEW012 09/07 Q1014 NOSIG=
201505140420 METAR COR EGLL 140420Z 09013KT 9999 FEW012 09/07 Q1014 NOSIG=
201505140350 METAR COR EGLL 140350Z 09008KT CAVOK 09/07 Q1014 NOSIG=
201505140320 METAR COR EGLL 140320Z 10008KT CAVOK 09/06 Q1015 NOSIG=
201505140250 METAR COR EGLL 140250Z 09008KT CAVOK 09/07 Q1015 NOSIG=
201505140220 METAR COR EGLL 140220Z 07005KT CAVOK 09/07 Q1015 NOSIG=
201505140150 METAR EGLL 140150Z 08007KT CAVOK 09/07 Q1015 NOSIG=
201505140120 METAR EGLL 140120Z AUTO 09007KT 9999 NCD 09/07 Q1016=
201505140050 METAR EGLL 140050Z AUTO 10008KT 9999 NCD 10/07 Q1016=
201505140020 METAR EGLL 140020Z AUTO 08009KT 9999 NCD 10/07 Q1016=
201505132350 METAR EGLL 132350Z 09010KT 9999 SCT048 11/07 Q1017 NOSIG=
201505132320 METAR COR EGLL 132320Z 09010KT 9999 SCT044 11/07 Q1017 NOSIG=
201505132250 METAR COR EGLL 132250Z 10011KT 9999 SCT044 11/07 Q1017 NOSIG=
201505132220 METAR COR EGLL 132220Z 08010KT 9999 SCT046 12/07 Q1017 NOSIG=
201505132150 METAR COR EGLL 132150Z 08010KT 9999 SCT042 12/08 Q1017 NOSIG=
201505132120 METAR COR EGLL 132120Z 09009KT 9999 SCT040 12/07 Q1017 NOSIG=
201505132050 METAR EGLL 132050Z 10011KT 9999 FEW045 12/06 Q1016 NOSIG=
201505132020 METAR COR EGLL 132020Z 10011KT 9999 FEW048 13/05 Q1016 NOSIG=
201505131950 METAR COR EGLL 131950Z 08011KT 050V110 9999 FEW040 15/05
                        Q1016 NOSIG=
201505131920 METAR COR EGLL 131920Z 05007KT 020V080 9999 FEW048 16/04
                        Q1016 NOSIG=
201505131850 METAR EGLL 131850Z 05008KT 020V080 CAVOK 17/04 Q1016 NOSIG=
201505131820 METAR COR EGLL 131820Z 04007KT 360V070 CAVOK 17/03 Q1016
                        NOSIG=
201505131750 METAR EGLL 131750Z 05007KT 020V080 CAVOK 18/03 Q1016 NOSIG=
201505131720 METAR COR EGLL 131720Z 03007KT 330V050 CAVOK 19/03 Q1016
                        NOSIG=
201505131650 METAR EGLL 131650Z 33005KT 260V050 CAVOK 19/01 Q1016 NOSIG=
201505131620 METAR COR EGLL 131620Z 01006KT 340V060 CAVOK 19/01 Q1016
                        NOSIG=
201505131550 METAR EGLL 131550Z VRB03KT CAVOK 20/M01 Q1016 NOSIG=
201505131520 METAR COR EGLL 131520Z 26005KT 210V310 CAVOK 19/M00 Q1016
                        NOSIG=
201505131450 METAR EGLL 131450Z 29005KT 220V360 CAVOK 20/00 Q1017 NOSIG=
201505131420 METAR COR EGLL 131420Z 34004KT 270V040 CAVOK 20/M01 Q1017
                        NOSIG=
201505131350 METAR COR EGLL 131350Z VRB03KT CAVOK 19/M00 Q1017 NOSIG=
201505131320 METAR COR EGLL 131320Z 29005KT 240V360 CAVOK 19/M01 Q1017
                        NOSIG=
201505131250 METAR COR EGLL 131250Z VRB03KT CAVOK 19/M00 Q1017 NOSIG=
201505131220 METAR COR EGLL 131220Z VRB03KT CAVOK 19/00 Q1018 NOSIG=
201505131150 METAR EGLL 131150Z VRB04KT CAVOK 18/01 Q1018 NOSIG=
201505131120 METAR COR EGLL 131120Z VRB05KT CAVOK 18/M00 Q1019 NOSIG=
201505131050 METAR EGLL 131050Z VRB03KT CAVOK 16/01 Q1019 NOSIG=
201505131020 METAR COR EGLL 131020Z 08004KT 360V180 9999 FEW044 17/02
                        Q1019 NOSIG=
201505130950 METAR COR EGLL 130950Z VRB05KT 9999 FEW044 16/03 Q1020 NOSIG=
201505130920 METAR COR EGLL 130920Z VRB04KT 9999 FEW038 15/04 Q1020 NOSIG=
201505130850 METAR EGLL 130850Z VRB03KT 9999 FEW032 14/06 Q1020 NOSIG=
201505130820 METAR COR EGLL 130820Z VRB03KT CAVOK 14/06 Q1021 NOSIG=
201505130750 METAR EGLL 130750Z 07004KT 020V120 CAVOK 12/06 Q1021 NOSIG=
201505130720 METAR COR EGLL 130720Z VRB03KT CAVOK 11/06 Q1021 NOSIG=
201505130650 METAR EGLL 130650Z VRB02KT CAVOK 10/06 Q1021 NOSIG=
201505130620 METAR COR EGLL 130620Z VRB03KT CAVOK 08/05 Q1021 NOSIG=
201505130550 METAR EGLL 130550Z 19004KT 140V230 CAVOK 07/05 Q1021 NOSIG=
201505130520 METAR COR EGLL 130520Z 18004KT 140V210 CAVOK 06/04 Q1021
                        NOSIG=
201505130450 METAR EGLL 130450Z VRB02KT CAVOK 06/04 Q1021 NOSIG=
201505130420 METAR COR EGLL 130420Z 26003KT CAVOK 05/03 Q1021 NOSIG=
201505130350 METAR EGLL 130350Z VRB03KT CAVOK 06/04 Q1022 NOSIG=
201505130320 METAR COR EGLL 130320Z 25005KT CAVOK 07/04 Q1022 NOSIG=
201505130250 METAR EGLL 130250Z 24005KT CAVOK 07/04 Q1022 NOSIG=
201505130220 METAR COR EGLL 130220Z 24005KT CAVOK 07/04 Q1022 NOSIG=
201505130150 METAR COR EGLL 130150Z 24004KT CAVOK 07/04 Q1022 NOSIG=
201505130120 METAR EGLL 130120Z 25005KT CAVOK 08/04 Q1022=
201505130050 METAR EGLL 130050Z 27006KT CAVOK 08/04 Q1022=
201505130020 METAR EGLL 130020Z 27005KT CAVOK 09/04 Q1022=
201505122350 METAR EGLL 122350Z 27006KT CAVOK 08/04 Q1022 NOSIG=
201505122320 METAR COR EGLL 122320Z 28007KT CAVOK 10/03 Q1023 NOSIG=
201505122250 METAR EGLL 122250Z 26008KT CAVOK 11/03 Q1023 NOSIG=
201505122220 METAR COR EGLL 122220Z 26012KT CAVOK 11/03 Q1022 NOSIG=
201505122150 METAR EGLL 122150Z 27009KT CAVOK 11/03 Q1022 NOSIG=
201505122120 METAR COR EGLL 122120Z 27008KT CAVOK 12/03 Q1022 NOSIG=
201505122050 METAR EGLL 122050Z 27010KT CAVOK 12/03 Q1022 NOSIG=
201505122020 METAR COR EGLL 122020Z 27008KT CAVOK 13/01 Q1022 NOSIG=
201505121950 METAR EGLL 121950Z 27009KT CAVOK 13/01 Q1022 NOSIG=
201505121920 METAR COR EGLL 121920Z 27012KT CAVOK 13/M00 Q1021 NOSIG=
201505121850 METAR EGLL 121850Z 26015KT CAVOK 15/M02 Q1021 NOSIG=
201505121820 METAR COR EGLL 121820Z 27015KT CAVOK 15/M01 Q1021 NOSIG=
201505121750 METAR COR EGLL 121750Z 27015KT CAVOK 16/M02 Q1021 NOSIG=
201505121720 METAR COR EGLL 121720Z 27016KT CAVOK 17/01 Q1020 NOSIG=
201505121650 METAR COR EGLL 121650Z 27018KT 240V300 CAVOK 17/02 Q1020
                        NOSIG=
201505121620 METAR COR EGLL 121620Z 26018KT CAVOK 18/03 Q1020 NOSIG=
201505121550 METAR EGLL 121550Z 28018KT CAVOK 18/03 Q1020 NOSIG=
201505121520 METAR COR EGLL 121520Z 28017KT CAVOK 18/04 Q1020 NOSIG=
201505121450 METAR EGLL 121450Z 28017KT CAVOK 17/04 Q1020 NOSIG=
201505121420 METAR EGLL 121420Z 28019KT CAVOK 17/04 Q1020=
201505121350 METAR EGLL 121350Z 27020KT CAVOK 17/04 Q1019=
201505121320 METAR COR EGLL 121320Z 27017G28KT 240V310 9999 FEW048 17/03
                        Q1019 NOSIG=
201505121250 METAR EGLL 121250Z 26018KT 9999 FEW046 16/04 Q1019 NOSIG=
201505121220 METAR COR EGLL 121220Z 26017KT 9999 FEW045 15/05 Q1019 NOSIG=
201505121150 METAR COR EGLL 121150Z 26019KT 9999 SCT042 15/04 Q1019 NOSIG=
201505121120 METAR COR EGLL 121120Z 26018KT 9999 SCT041 15/05 Q1019 NOSIG=
201505121050 METAR EGLL 121050Z 26017KT 9999 FEW038 15/05 Q1019 NOSIG=
201505121020 METAR COR EGLL 121020Z 27012KT 9999 FEW030 14/06 Q1019 NOSIG=
201505120950 METAR COR EGLL 120950Z 26011KT 9999 FEW025 14/06 Q1019 NOSIG=
201505120920 METAR COR EGLL 120920Z 27012KT 9999 FEW020 SCT038 12/07 Q1019
                        NOSIG=
201505120850 METAR COR EGLL 120850Z 29011KT 9999 FEW022 SCT028 11/07 Q1019
                        NOSIG=
201505120820 METAR COR EGLL 120820Z 28014KT 9999 -RA FEW022 SCT028 12/07
                        Q1019 NOSIG=
201505120750 METAR EGLL 120750Z 26012KT 9999 FEW028 12/06 Q1018 NOSIG=
201505120720 METAR COR EGLL 120720Z 25011KT CAVOK 12/06 Q1018 NOSIG=
201505120650 METAR EGLL 120650Z 25010KT CAVOK 12/07 Q1018 NOSIG=
201505120620 METAR COR EGLL 120620Z 25012KT CAVOK 12/07 Q1017 NOSIG=
201505120550 METAR EGLL 120550Z 27011KT CAVOK 12/07 Q1017 NOSIG=
201505120520 METAR COR EGLL 120520Z 25009KT CAVOK 12/08 Q1016 NOSIG=
201505120450 METAR EGLL 120450Z 23007KT CAVOK 11/08 Q1016 NOSIG=
201505120420 METAR COR EGLL 120420Z 23006KT CAVOK 11/08 Q1016 NOSIG=
201505120350 METAR COR EGLL 120350Z 21005KT 170V260 CAVOK 11/08 Q1016
                        NOSIG=
201505120320 METAR COR EGLL 120320Z 21005KT CAVOK 11/08 Q1016 NOSIG=
201505120250 METAR EGLL 120250Z 21004KT CAVOK 11/07 Q1016 NOSIG=
201505120220 METAR COR EGLL 120220Z 23005KT CAVOK 11/07 Q1016 NOSIG=
201505120150 METAR EGLL 120150Z 23005KT CAVOK 11/07 Q1017 NOSIG=
201505120120 METAR EGLL 120120Z 24005KT CAVOK 12/07 Q1017=
201505120050 METAR EGLL 120050Z 21004KT CAVOK 12/07 Q1017=
201505120020 METAR EGLL 120020Z 22004KT CAVOK 12/07 Q1017=
201505112350 METAR EGLL 112350Z 24004KT 220V280 CAVOK 12/07 Q1017 NOSIG=
201505112320 METAR COR EGLL 112320Z 24007KT CAVOK 13/07 Q1017 NOSIG=
201505112250 METAR EGLL 112250Z 24006KT CAVOK 13/07 Q1017 NOSIG=
201505112220 METAR COR EGLL 112220Z 23009KT CAVOK 13/07 Q1018 NOSIG=
201505112150 METAR COR EGLL 112150Z 22009KT CAVOK 13/07 Q1018 NOSIG=
201505112120 METAR COR EGLL 112120Z 22008KT CAVOK 13/07 Q1018 NOSIG=
201505112050 METAR COR EGLL 112050Z 21010KT CAVOK 14/07 Q1017 NOSIG=
201505112020 METAR COR EGLL 112020Z 21011KT CAVOK 14/07 Q1017 NOSIG=
201505111950 METAR COR EGLL 111950Z 22011KT CAVOK 15/08 Q1018 NOSIG=
201505111920 METAR EGLL 111920Z 23013KT CAVOK 16/07 Q1018 NOSIG=
201505111850 METAR EGLL 111850Z 22012KT CAVOK 16/08 Q1017 NOSIG=
201505111820 METAR COR EGLL 111820Z 20012KT CAVOK 17/08 Q1017 NOSIG=
201505111750 METAR EGLL 111750Z 22013KT 9999 FEW033 18/10 Q1017 NOSIG=
201505111720 METAR COR EGLL 111720Z 21012KT 180V250 9999 FEW033 19/10
                        Q1017 NOSIG=
201505111650 METAR COR EGLL 111650Z 22012KT 190V250 9999 FEW032 20/11
                        Q1017 NOSIG=
201505111620 METAR COR EGLL 111620Z 21011KT 9999 FEW032 19/11 Q1018 NOSIG=
201505111550 METAR EGLL 111550Z 21013KT 190V260 9999 FEW033 20/11 Q1017
                        NOSIG=
201505111520 METAR COR EGLL 111520Z 22011KT 190V250 9999 SCT033 21/11
                        Q1017 NOSIG=
201505111450 METAR EGLL 111450Z 24013KT 210V270 9999 FEW031 SCT036 21/11
                        Q1017=
201505111420 METAR COR EGLL 111420Z 23014KT 9999 FEW030 SCT034 20/12 Q1018
                        NOSIG=
201505111350 METAR EGLL 111350Z 25014KT 200V270 9999 SCT031 SCT035 20/12
                        Q1018 NOSIG=
201505111320 METAR COR EGLL 111320Z 23014KT 9999 BKN030 20/12 Q1018 NOSIG=
201505111250 METAR COR EGLL 111250Z 24014KT 9999 SCT030 SCT036 20/12 Q1018
                        NOSIG=
201505111220 METAR COR EGLL 111220Z 25013KT 9999 SCT031 SCT035 20/12 Q1018
                        NOSIG=
201505111150 METAR COR EGLL 111150Z 26014KT 9999 SCT033 20/11 Q1018 NOSIG=
201505111120 METAR COR EGLL 111120Z 24013KT 200V260 9999 SCT032 20/11
                        Q1018 NOSIG=
201505111050 METAR EGLL 111050Z 25013KT 9999 FEW027 SCT033 20/12 Q1018
                        NOSIG=
201505111020 METAR COR EGLL 111020Z 25013KT 9999 FEW027 SCT030 19/11 Q1018
                        NOSIG=
201505110950 METAR COR EGLL 110950Z 25012KT 9999 FEW025 18/11 Q1018 NOSIG=
201505110920 METAR COR EGLL 110920Z 23013KT 9999 FEW024 17/11 Q1018 NOSIG=
201505110850 METAR EGLL 110850Z 23010KT 200V270 9999 FEW020 16/11 Q1018
                        NOSIG=
201505110820 METAR COR EGLL 110820Z 24010KT 9999 FEW018 16/11 Q1018 NOSIG=
201505110750 METAR COR EGLL 110750Z 24010KT 9999 FEW012 15/11 Q1018 NOSIG=
201505110720 METAR COR EGLL 110720Z 22010KT CAVOK 14/11 Q1017 NOSIG=
201505110650 METAR COR EGLL 110650Z 22009KT CAVOK 14/11 Q1018 NOSIG=
201505110620 METAR COR EGLL 110620Z 23008KT CAVOK 13/11 Q1017 NOSIG=
201505110550 METAR COR EGLL 110550Z 21007KT CAVOK 12/10 Q1017 NOSIG=
201505110520 METAR COR EGLL 110520Z VRB05KT CAVOK 11/10 Q1017 NOSIG=
201505110450 METAR EGLL 110450Z VRB03KT CAVOK 11/09 Q1017 NOSIG=
201505110420 METAR COR EGLL 110420Z VRB03KT CAVOK 11/09 Q1017 NOSIG=
201505110350 METAR EGLL 110350Z 20004KT CAVOK 12/09 Q1017=
201505110320 METAR EGLL 110320Z 19003KT CAVOK 12/09 Q1017=
201505110250 METAR COR EGLL 110250Z 18003KT CAVOK 12/09 Q1018 NOSIG=
201505110220 METAR COR EGLL 110220Z 16004KT CAVOK 12/09 Q1018 NOSIG=
201505110150 METAR EGLL 110150Z 16005KT CAVOK 12/09 Q1018 NOSIG=
201505110120 METAR EGLL 110120Z AUTO 15005KT 9999 NCD 12/09 Q1018=
201505110050 METAR EGLL 110050Z AUTO 17005KT 9999 NCD 12/10 Q1019=
201505110020 METAR EGLL 110020Z AUTO 16005KT 9999 NCD 12/09 Q1019=
201505102350 METAR COR EGLL 102350Z 16005KT CAVOK 12/10 Q1019 NOSIG=
201505102320 METAR COR EGLL 102320Z 17004KT CAVOK 12/09 Q1020 NOSIG=
201505102250 METAR EGLL 102250Z 17004KT CAVOK 12/09 Q1020 NOSIG=
201505102220 METAR COR EGLL 102220Z 17005KT 120V220 CAVOK 13/09 Q1020
                        NOSIG=
201505102150 METAR COR EGLL 102150Z 19006KT 150V240 CAVOK 13/09 Q1021
                        NOSIG=
201505102120 METAR COR EGLL 102120Z 20007KT 140V240 CAVOK 14/09 Q1021
                        NOSIG=
201505102050 METAR EGLL 102050Z 19006KT 140V230 CAVOK 14/09 Q1021 NOSIG=
201505102020 METAR COR EGLL 102020Z 21008KT 160V250 CAVOK 14/09 Q1021
                        NOSIG=
201505101950 METAR EGLL 101950Z 21009KT 190V250 CAVOK 15/09 Q1021 NOSIG=
201505101920 METAR COR EGLL 101920Z 19009KT 160V240 CAVOK 15/09 Q1021
                        NOSIG=
201505101850 METAR EGLL 101850Z 19009KT 160V240 CAVOK 16/09 Q1021 NOSIG=
201505101820 METAR COR EGLL 101820Z 19011KT 170V240 CAVOK 16/09 Q1021
                        NOSIG=
201505101750 METAR EGLL 101750Z 19011KT 160V230 9999 FEW034 17/09 Q1021
                        NOSIG=
201505101720 METAR COR EGLL 101720Z 20011KT 9999 FEW033 17/09 Q1021 NOSIG=
201505101650 METAR EGLL 101650Z 18012KT 150V220 9999 FEW035 18/09 Q1021
                        NOSIG=
201505101620 METAR COR EGLL 101620Z 19012KT 170V240 9999 FEW035 18/09
                        Q1021 NOSIG=
201505101550 METAR EGLL 101550Z 19012KT 160V230 9999 FEW034 18/09 Q1022
                        NOSIG=
201505101520 METAR COR EGLL 101520Z 20011G21KT 160V240 9999 FEW033 18/10
                        Q1022 NOSIG=
201505101450 METAR EGLL 101450Z 20010KT 150V240 9999 BKN034 18/10 Q1022
                        NOSIG=
201505101420 METAR COR EGLL 101420Z 20012KT 170V240 9999 BKN035 18/09
                        Q1023 NOSIG=
201505101350 METAR EGLL 101350Z 22011KT 170V260 9999 BKN032 18/09 Q1023
                        NOSIG=
201505101320 METAR COR EGLL 101320Z 19013KT 9999 BKN033 18/09 Q1023 NOSIG=
201505101250 METAR EGLL 101250Z 19013KT 150V240 9999 SCT032 18/09 Q1023
                        NOSIG=
201505101220 METAR COR EGLL 101220Z 20012KT 170V240 9999 SCT033 18/09
                        Q1023 NOSIG=
201505101150 METAR COR EGLL 101150Z 21011KT 160V250 9999 FEW030 SCT033
                        18/08 Q1023 NOSIG=
201505101120 METAR COR EGLL 101120Z 20011KT 160V230 9999 BKN030 17/09
                        Q1024 NOSIG=
201505101050 METAR EGLL 101050Z 23013KT 200V260 9999 BKN029 17/08 Q1024
                        NOSIG=
201505101020 METAR COR EGLL 101020Z 23011KT 9999 BKN029 16/09 Q1024 NOSIG=
201505100950 METAR EGLL 100950Z 22012KT 9999 BKN026 15/09 Q1024 NOSIG=
201505100920 METAR COR EGLL 100920Z 21010KT 9999 SCT025 SCT028 15/08 Q1024
                        NOSIG=
201505100850 METAR EGLL 100850Z 21010KT 180V240 9999 BKN026 15/09 Q1024
                        NOSIG=
201505100820 METAR COR EGLL 100820Z 20009KT 090V240 9999 SCT020 14/09
                        Q1024 NOSIG=
201505100750 METAR EGLL 100750Z 23010KT 9999 BKN017 13/09 Q1024 NOSIG=
201505100720 METAR COR EGLL 100720Z 23010KT 9999 SCT014 SCT020 13/09 Q1024
                        NOSIG=
201505100650 METAR EGLL 100650Z 21009KT 9999 SCT015 12/09 Q1024 NOSIG=
201505100620 METAR COR EGLL 100620Z 22009KT 9999 BKN014 12/09 Q1024 BECMG
                        SCT014 BKN018=
201505100550 METAR EGLL 100550Z 20007KT 160V250 9000 BKN014 11/09 Q1024
                        BECMG SCT014 SCT018=
201505100520 METAR COR EGLL 100520Z 21006KT 170V250 9999 SCT015 11/09
                        Q1024 TEMPO BKN014=
201505100450 METAR COR EGLL 100450Z 20007KT 9000 BKN012 11/10 Q1024 BECMG
                        SCT012 SCT017=
201505100420 METAR COR EGLL 100420Z VRB03KT 8000 BKN012 11/10 Q1023 TEMPO
                        BKN009=
201505100350 METAR EGLL 100350Z 15003KT 7000 BKN010 10/09 Q1024 TEMPO
                        BKN008=
201505100320 METAR COR EGLL 100320Z 16002KT 6000 SCT006 BKN010 10/09 Q1024
                        TEMPO BKN008=
201505100250 METAR COR EGLL 100250Z VRB02KT 6000 SCT002 SCT005 10/09 Q1024
                        TEMPO BKN005=
201505100220 METAR COR EGLL 100220Z 22006KT 2000 BR BKN001 09/08 Q1023
                        BECMG 5000 SCT001 BKN005=
201505100150 METAR COR EGLL 100150Z 21005KT CAVOK 09/06 Q1023 TEMPO 4000
                        BR BKN003=
201505100120 METAR EGLL 100120Z AUTO 18003KT 9999 NCD 09/06 Q1023=
201505100050 METAR EGLL 100050Z AUTO 18004KT 9999 FEW038 08/06 Q1024=
201505100020 METAR EGLL 100020Z AUTO 18003KT 9999 FEW039 08/06 Q1024=
201505092350 METAR COR EGLL 092350Z 24004KT CAVOK 09/05 Q1024 NOSIG=
201505092320 METAR COR EGLL 092320Z 21004KT CAVOK 10/06 Q1023 NOSIG=
201505092250 METAR COR EGLL 092250Z 21003KT CAVOK 10/05 Q1023 NOSIG=
201505092220 METAR COR EGLL 092220Z 22005KT CAVOK 11/05 Q1023 NOSIG=
201505092150 METAR EGLL 092150Z 26009KT CAVOK 11/05 Q1022 NOSIG=
201505092120 METAR COR EGLL 092120Z 28008KT CAVOK 11/04 Q1022 NOSIG=
201505092050 METAR EGLL 092050Z 28010KT 9999 FEW040 12/04 Q1022 NOSIG=
201505092020 METAR COR EGLL 092020Z 27009KT 9999 FEW040 13/03 Q1022 NOSIG=
201505091950 METAR EGLL 091950Z 27012KT 9999 FEW040 14/03 Q1021 NOSIG=
201505091920 METAR COR EGLL 091920Z 27010KT 9999 FEW040 14/04 Q1021 NOSIG=
201505091850 METAR EGLL 091850Z 28009KT 9999 FEW040 15/04 Q1020 NOSIG=
201505091820 METAR COR EGLL 091820Z 28011KT 9999 FEW040 16/04 Q1020 NOSIG=
201505091750 METAR COR EGLL 091750Z 28013KT CAVOK 15/04 Q1020 NOSIG=
201505091720 METAR COR EGLL 091720Z 27013KT CAVOK 16/03 Q1019 NOSIG=
201505091650 METAR COR EGLL 091650Z 27017KT CAVOK 17/03 Q1019 NOSIG=
201505091620 METAR COR EGLL 091620Z 28017KT CAVOK 17/03 Q1018 NOSIG=
201505091550 METAR EGLL 091550Z 27016KT 250V320 CAVOK 17/03 Q1018 NOSIG=
201505091520 METAR COR EGLL 091520Z 28018KT CAVOK 18/03 Q1018 NOSIG=
201505091450 METAR COR EGLL 091450Z 27018KT CAVOK 17/04 Q1017 NOSIG=
201505091420 METAR COR EGLL 091420Z 26021KT 9999 FEW048 17/04 Q1017 NOSIG=
201505091350 METAR COR EGLL 091350Z 26018KT 9999 SCT047 18/04 Q1017 NOSIG=
201505091320 METAR COR EGLL 091320Z 27015KT 9999 SCT041 18/05 Q1016 NOSIG=
201505091250 METAR EGLL 091250Z 28016KT 9999 SCT038 16/07 Q1016 NOSIG=
201505091220 METAR COR EGLL 091220Z 26019KT 9999 FEW038 17/07 Q1016 NOSIG=
201505091150 METAR COR EGLL 091150Z 25016KT 9999 FEW038 SCT047 14/08 Q1016
                        NOSIG=
201505091120 METAR COR EGLL 091120Z 25016KT 9999 BKN049 14/08 Q1015 NOSIG=
201505091050 METAR EGLL 091050Z 24017KT 9999 BKN033 14/07 Q1015 NOSIG=
201505091020 METAR COR EGLL 091020Z 23017KT 9999 BKN033 14/07 Q1015 NOSIG=
201505090950 METAR COR EGLL 090950Z 24016KT 9999 FEW036 SCT044 14/07 Q1015
                        NOSIG=
201505090920 METAR COR EGLL 090920Z 24017KT 9999 BKN032 13/07 Q1015 NOSIG=
201505090850 METAR COR EGLL 090850Z 25017KT 9999 BKN034 14/07 Q1014 NOSIG=
201505090820 METAR COR EGLL 090820Z 24016KT 9999 BKN043 13/07 Q1014 NOSIG=
201505090750 METAR EGLL 090750Z 24016KT 9999 SCT030 SCT034 13/07 Q1014
                        TEMPO SHRA=
201505090720 METAR COR EGLL 090720Z 23014KT 9999 FEW021 BKN029 12/08 Q1014
                        TEMPO SHRA=
201505090650 METAR EGLL 090650Z 24015KT 9999 FEW020 BKN032 12/08 Q1013
                        NOSIG=
201505090620 METAR COR EGLL 090620Z 23015KT 9999 FEW022 12/08 Q1013 NOSIG=
201505090550 METAR EGLL 090550Z 23015KT 9999 FEW037 12/07 Q1013 NOSIG=
201505090520 METAR COR EGLL 090520Z 23016KT 9999 FEW036 BKN038 12/07 Q1013
                        NOSIG=
201505090450 METAR COR EGLL 090450Z 24017KT 9999 SCT029 BKN031 12/06 Q1012
                        NOSIG=
201505090420 METAR COR EGLL 090420Z 25014KT 9999 FEW024 BKN028 12/06 Q1012
                        NOSIG=
201505090350 METAR COR EGLL 090350Z 25015KT 9999 FEW020 BKN022 BKN035
                        12/08 Q1012 NOSIG=
201505090320 METAR COR EGLL 090320Z 24014KT 9999 SCT020 SCT034 12/09 Q1011
                        NOSIG=
201505090250 METAR COR EGLL 090250Z 23015KT 9999 FEW020 SCT035 12/09 Q1011
                        NOSIG=
201505090220 METAR COR EGLL 090220Z 23016KT 9999 SCT021 SCT031 12/09 Q1011
                        NOSIG=
201505090150 METAR EGLL 090150Z 23013KT 9999 FEW018 SCT022 12/10 Q1011
                        NOSIG=
201505090120 METAR EGLL 090120Z AUTO 22014KT 9999 SCT015 SCT033 13/10
                        Q1010=
201505090050 METAR EGLL 090050Z AUTO 21012KT 9999 SCT016 SCT020 BKN041
                        13/10 Q1010=
201505090020 METAR EGLL 090020Z AUTO 21013KT 9999 BKN041 13/10 Q1010=
201505082350 METAR COR EGLL 082350Z 21012KT 9999 BKN038 13/11 Q1010 NOSIG=
201505082320 METAR COR EGLL 082320Z 22011KT 9999 FEW012 SCT022 BKN043
                        13/11 Q1010 TEMPO BKN012=
201505082250 METAR COR EGLL 082250Z 22011KT 9999 SCT018 BKN038 13/11 Q1010
                        TEMPO BKN014=
201505082220 METAR COR EGLL 082220Z 21011KT 9999 SCT016 BKN032 13/11 Q1010
                        TEMPO BKN014=
201505082150 METAR COR EGLL 082150Z 22011KT 9999 FEW009 SCT014 BKN016
                        13/11 Q1010 TEMPO BKN014=
201505082120 METAR COR EGLL 082120Z 20012KT 180V250 9000 -RADZ FEW010
                        SCT016 BKN018 13/11 Q1010 RERA REDZ
                        TEMPO RADZ BKN014=
201505082050 METAR COR EGLL 082050Z 21013KT 180V250 7000 RADZ BKN014 13/11
                        Q1010 NOSIG=
201505082020 METAR COR EGLL 082020Z 21011KT 160V250 9999 BKN016 14/10
                        Q1010 TEMPO RADZ BKN014=
201505081950 METAR EGLL 081950Z 18010KT 150V240 9999 SCT015 SCT021 13/10
                        Q1010 TEMPO RADZ BKN014=
201505081920 METAR COR EGLL 081920Z 18010KT 150V220 9999 FEW015 SCT044
                        14/11 Q1010 TEMPO RADZ BKN014=
201505081850 METAR EGLL 081850Z 18011KT 150V230 9999 FEW016 14/11 Q1010
                        TEMPO DZRA BKN014=
201505081820 METAR COR EGLL 081820Z 19010KT 160V230 9999 FEW031 14/10
                        Q1010 NOSIG=
201505081750 METAR EGLL 081750Z 17011KT 9999 FEW029 SCT048 14/10 Q1010
                        NOSIG=
201505081720 METAR COR EGLL 081720Z 17011KT 9999 FEW043 14/10 Q1011 NOSIG=
201505081650 METAR EGLL 081650Z 17011KT 9999 -SHRA SCT030 14/10 Q1011
                        NOSIG=
201505081620 METAR COR EGLL 081620Z 17011KT 9999 -SHRA SCT035 15/08 Q1011
                        NOSIG=
201505081550 METAR COR EGLL 081550Z 16012KT 9999 -SHRA FEW042 15/07 Q1011
                        NOSIG=
201505081520 METAR COR EGLL 081520Z 14014KT 9999 -SHRA FEW031 SCT049 16/07
                        Q1011 TEMPO SHRA=
201505081450 METAR COR EGLL 081450Z 14011KT 9999 -RA FEW049 16/07 Q1011
                        NOSIG=
201505081420 METAR COR EGLL 081420Z 12008KT CAVOK 16/07 Q1012 NOSIG=
201505081350 METAR EGLL 081350Z 14007KT 100V160 9999 FEW040 17/07 Q1012
                        TEMPO SHRA=
201505081320 METAR COR EGLL 081320Z 13009KT 110V170 9999 -SHRA FEW035
                        17/06 Q1012 TEMPO SHRA=
201505081250 METAR COR EGLL 081250Z 12008KT 9999 FEW042 16/07 Q1012 NOSIG=
201505081220 METAR COR EGLL 081220Z 14008KT 9999 FEW041 16/07 Q1012 NOSIG=
201505081150 METAR COR EGLL 081150Z 14009KT 100V180 CAVOK 16/06 Q1012
                        NOSIG=
201505081120 METAR COR EGLL 081120Z 09006KT 060V130 CAVOK 16/06 Q1013
                        NOSIG=
201505081050 METAR COR EGLL 081050Z 10006KT 070V140 CAVOK 15/06 Q1013
                        NOSIG=
201505081020 METAR COR EGLL 081020Z 10007KT 9999 FEW048 14/05 Q1013 NOSIG=
201505080950 METAR COR EGLL 080950Z 09005KT 070V130 9999 FEW048 14/06
                        Q1014 NOSIG=
201505080920 METAR COR EGLL 080920Z 08004KT 030V120 9999 FEW046 13/07
                        Q1014 NOSIG=
201505080850 METAR EGLL 080850Z 10004KT 050V150 9999 FEW049 12/06 Q1014
                        NOSIG=
201505080820 METAR COR EGLL 080820Z VRB03KT 9999 FEW048 11/07 Q1014 NOSIG=
201505080750 METAR COR EGLL 080750Z VRB03KT 9999 FEW046 11/07 Q1014 NOSIG=
201505080720 METAR COR EGLL 080720Z 11002KT 9999 BKN045 10/07 Q1015 NOSIG=
201505080650 METAR EGLL 080650Z VRB02KT CAVOK 09/07 Q1015 NOSIG=
201505080620 METAR COR EGLL 080620Z 14003KT CAVOK 09/07 Q1015 NOSIG=
201505080550 METAR EGLL 080550Z 00000KT CAVOK 09/07 Q1015 NOSIG=
201505080520 METAR COR EGLL 080520Z VRB02KT CAVOK 09/06 Q1015 NOSIG=
201505080450 METAR EGLL 080450Z 15003KT CAVOK 09/06 Q1015 NOSIG=
201505080420 METAR COR EGLL 080420Z 16004KT CAVOK 08/06 Q1015 NOSIG=
201505080350 METAR COR EGLL 080350Z 14002KT CAVOK 08/06 Q1015 NOSIG=
201505080320 METAR COR EGLL 080320Z 00000KT CAVOK 08/05 Q1015 NOSIG=
201505080250 METAR EGLL 080250Z 00000KT CAVOK 09/06 Q1015 NOSIG=
201505080220 METAR COR EGLL 080220Z 25002KT CAVOK 09/06 Q1016 NOSIG=
201505080150 METAR COR EGLL 080150Z 24004KT CAVOK 09/06 Q1016 NOSIG=
201505080120 METAR EGLL 080120Z AUTO 21005KT 9999 NCD 09/06 Q1016=
201505080050 METAR EGLL 080050Z AUTO 20005KT 9999 NCD 09/05 Q1016=
201505080020 METAR COR EGLL 080020Z AUTO 20005KT 9999 NCD 09/06 Q1016
                        NOSIG=
201505072350 METAR COR EGLL 072350Z 20005KT CAVOK 10/05 Q1016 NOSIG=
201505072320 METAR COR EGLL 072320Z 22003KT CAVOK 10/05 Q1016 NOSIG=
201505072250 METAR COR EGLL 072250Z 23005KT CAVOK 10/05 Q1016 NOSIG=
201505072220 METAR COR EGLL 072220Z 22006KT CAVOK 10/05 Q1016 NOSIG=
201505072150 METAR EGLL 072150Z AUTO 22007KT 9999 NCD 10/05 Q1016=
201505072120 METAR COR EGLL 072120Z 23007KT 180V260 CAVOK 11/04 Q1016
                        NOSIG=
201505072050 METAR EGLL 072050Z 22006KT 190V260 CAVOK 11/04 Q1017 NOSIG=
201505072020 METAR COR EGLL 072020Z 22008KT 180V260 CAVOK 11/04 Q1017
                        NOSIG=
201505071950 METAR COR EGLL 071950Z 22008KT 190V250 CAVOK 12/04 Q1016
                        NOSIG=
201505071920 METAR COR EGLL 071920Z 22010KT CAVOK 12/03 Q1016 NOSIG=
201505071850 METAR EGLL 071850Z 23012KT CAVOK 13/03 Q1016 NOSIG=
201505071820 METAR COR EGLL 071820Z 22011KT 9999 FEW049 14/03 Q1016 NOSIG=
201505071750 METAR COR EGLL 071750Z 23011KT 9999 FEW049 14/04 Q1016 NOSIG=
201505071720 METAR COR EGLL 071720Z 22012KT 9999 FEW049 15/04 Q1015 NOSIG=
201505071650 METAR EGLL 071650Z 25010KT 200V290 9999 FEW044 15/04 Q1015
                        NOSIG=
201505071620 METAR COR EGLL 071620Z 23011KT 9999 FEW049 16/03 Q1015 NOSIG=
201505071550 METAR EGLL 071550Z 23013KT 9999 FEW048 16/04 Q1016 NOSIG=
201505071520 METAR COR EGLL 071520Z 23011KT 190V260 9999 FEW048 16/05
                        Q1016 NOSIG=
201505071450 METAR COR EGLL 071450Z 22014KT 9999 FEW047 16/05 Q1016 NOSIG=
201505071420 METAR COR EGLL 071420Z 22013KT 9999 FEW045 15/05 Q1016 NOSIG=
201505071350 METAR EGLL 071350Z 22013KT 9999 FEW048 16/05 Q1016 NOSIG=
201505071320 METAR COR EGLL 071320Z 23012KT 9999 FEW048 16/05 Q1016 NOSIG=
201505071250 METAR EGLL 071250Z 24012KT 9999 FEW048 16/04 Q1016 NOSIG=
201505071220 METAR COR EGLL 071220Z 21012KT 180V260 9999 FEW047 17/05
                        Q1016 NOSIG=
201505071150 METAR EGLL 071150Z 22013KT 9999 FEW042 17/04 Q1016 NOSIG=
201505071120 METAR COR EGLL 071120Z 22009KT 190V270 9999 FEW035 16/06
                        Q1016 TEMPO SHRA=
201505071050 METAR COR EGLL 071050Z 23010KT 200V270 9999 BKN035 16/07
                        Q1016 TEMPO SHRA=
201505071020 METAR COR EGLL 071020Z 23010KT 190V260 9999 BKN030 14/07
                        Q1016 TEMPO SHRA=
201505070950 METAR EGLL 070950Z 22007KT 160V280 9999 SCT024 SCT029 14/08
                        Q1017 NOSIG=
201505070920 METAR COR EGLL 070920Z 24006KT 210V270 9999 SCT023 SCT027
                        13/07 Q1017 NOSIG=
201505070850 METAR COR EGLL 070850Z 23007KT 200V270 9999 SCT018 SCT027
                        12/07 Q1017 NOSIG=
201505070820 METAR COR EGLL 070820Z 25009KT 220V280 9999 BKN019 11/07
                        Q1017 NOSIG=
201505070750 METAR EGLL 070750Z 25009KT 9999 BKN017 11/07 Q1016 NOSIG=
201505070720 METAR COR EGLL 070720Z 25008KT 9999 BKN016 11/07 Q1016 NOSIG=
201505070650 METAR EGLL 070650Z 25007KT 9999 SCT012 11/07 Q1016 NOSIG=
201505070620 METAR COR EGLL 070620Z 25008KT 9999 FEW013 10/07 Q1016 NOSIG=
201505070550 METAR COR EGLL 070550Z 24007KT 210V280 9999 FEW016 10/07
                        Q1015 NOSIG=
201505070520 METAR COR EGLL 070520Z 24007KT 9999 FEW016 09/07 Q1015 NOSIG=
201505070450 METAR COR EGLL 070450Z 24007KT 9999 FEW016 09/07 Q1015 NOSIG=
201505070420 METAR COR EGLL 070420Z 24009KT 9999 FEW016 09/07 Q1015 NOSIG=
201505070350 METAR COR EGLL 070350Z 25008KT 9999 SCT018 09/06 Q1014 NOSIG=
201505070320 METAR COR EGLL 070320Z 24010KT 9999 FEW017 SCT049 10/06 Q1014
                        NOSIG=
201505070250 METAR EGLL 070250Z 24011KT 9999 SCT018 10/06 Q1014 NOSIG=
201505070220 METAR COR EGLL 070220Z 25009KT 9999 FEW019 SCT040 10/06 Q1013
                        NOSIG=
201505070150 METAR EGLL 070150Z 24009KT 9999 FEW019 10/06 Q1013 NOSIG=
201505070120 METAR EGLL 070120Z AUTO 24009KT 9999 BKN046 10/06 Q1013=
201505070050 METAR EGLL 070050Z AUTO 24011KT 9999 FEW038 SCT046 10/07
                        Q1013=
201505070020 METAR EGLL 070020Z AUTO 25014KT 9999 FEW025 BKN032 11/06
                        Q1012=
201505062350 METAR COR EGLL 062350Z 24013KT 9999 FEW024 BKN034 11/06 Q1012
                        NOSIG=
201505062320 METAR COR EGLL 062320Z 25014KT 9999 FEW024 SCT030 11/06 Q1012
                        NOSIG=
201505062250 METAR COR EGLL 062250Z 25014KT 9999 FEW040 11/06 Q1011 TEMPO
                        SHRA=
201505062220 METAR COR EGLL 062220Z 25015KT 9999 FEW026 11/06 Q1011 NOSIG=
201505062150 METAR EGLL 062150Z 26017KT 9999 SCT029 12/06 Q1011 NOSIG=
201505062120 METAR COR EGLL 062120Z 25017KT 9999 FEW028 12/06 Q1010 NOSIG=
201505062050 METAR COR EGLL 062050Z 25017KT 9999 SCT030 12/06 Q1010 NOSIG=
201505062020 METAR COR EGLL 062020Z 25016KT 9999 SCT032 12/06 Q1009 NOSIG=
201505061950 METAR COR EGLL 061950Z 25018G28KT 9999 FEW033 SCT038 12/06
                        Q1009 NOSIG=
201505061920 METAR COR EGLL 061920Z 25019KT 9999 FEW035 13/06 Q1008 NOSIG=
201505061850 METAR COR EGLL 061850Z 25018KT 9999 FEW030TCU SCT032 13/07
                        Q1008 TEMPO SHRA=
201505061820 METAR COR EGLL 061820Z 25020KT 9999 -SHRA FEW028 SCT030TCU
                        SCT041 13/07 Q1007 RESHRA TEMPO SHRA=
201505061750 METAR COR EGLL 061750Z 26015KT 9999 -SHRA FEW024 SCT030TCU
                        SCT035 13/07 Q1007 RESHRA NOSIG=
201505061720 METAR COR EGLL 061720Z 24023G33KT 9999 FEW033CB SCT035TCU
                        SCT038 14/07 Q1006 TEMPO SHRA=
201505061650 METAR COR EGLL 061650Z 24020G31KT 9999 VCSH FEW028CB SCT031TCU
                        SCT036 13/07 Q1006 TEMPO SHRA=
201505061620 METAR COR EGLL 061620Z 24019KT 9999 VCSH FEW030CB SCT033TCU
                        SCT043 13/08 Q1005 TEMPO SHRA=
201505061550 METAR COR EGLL 061550Z 23024G36KT 9999 -SHRA FEW030CB SCT033TCU
                        SCT040 13/08 Q1004 TEMPO SHRA=
201505061520 METAR COR EGLL 061520Z 24021KT 9999 FEW029TCU SCT033 14/08
                        Q1004 RESHRA TEMPO SHRA=
201505061450 METAR COR EGLL 061450Z 24021G32KT 9999 SHRA FEW029TCU BKN036
                        14/08 Q1004 TEMPO 5000 SHRA=
201505061420 METAR COR EGLL 061420Z 23024KT 9999 FEW019CB FEW024TCU 14/09
                        Q1004 TEMPO 5000 SHRA=
201505061350 METAR COR EGLL 061350Z 24020G30KT 9999 FEW019CB FEW036 13/09
                        Q1003 TEMPO SHRA=
201505061320 METAR COR EGLL 061320Z 24020KT 9999 8000SE VCSH FEW016 SCT019CB
                        12/09 Q1003 RESHRA TEMPO SHRA=
201505061250 METAR EGLL 061250Z 23021G31KT 8000 SHRA FEW018 BKN023CB 12/09
                        Q1003 TEMPO 3000 +SHRA=
201505061220 METAR COR EGLL 061220Z 23019G30KT 9999 -SHRA FEW020 BKN028CB
                        13/08 Q1002 TEMPO 4000 SHRA=
201505061150 METAR EGLL 061150Z 23022G32KT 9999 VCSH FEW021 BKN033 13/07
                        Q1002=
201505061120 METAR COR EGLL 061120Z 23021G32KT 9999 5000W -SHRA SCT032
                        SCT041 13/06 Q1002 TEMPO SHRA=
201505061050 METAR COR EGLL 061050Z 23023G36KT 9999 FEW036 14/06 Q1002
                        TEMPO SHRA=
201505061020 METAR COR EGLL 061020Z 23022KT 9999 FEW030 SCT039 14/06 Q1002
                        NOSIG=
201505060950 METAR EGLL 060950Z 22017G27KT 9999 FEW024 SCT035 13/07 Q1002
                        NOSIG=
201505060920 METAR COR EGLL 060920Z 21022G34KT 9999 -SHRA FEW033 SCT040
                        13/07 Q1001 TEMPO 5000 SHRA=
201505060850 METAR EGLL 060850Z 22021G32KT 9999 SCT031 12/07 Q1001 TEMPO
                        5000 SHRA=
201505060820 METAR COR EGLL 060820Z 22015KT 9999 VCSH FEW024 SCT033 12/07
                        Q1002 TEMPO 5000 SHRA=
201505060750 METAR EGLL 060750Z 21015KT 9999 VCSH FEW019 SCT025 11/08
                        Q1002 TEMPO 5000 SHRA=
201505060720 METAR COR EGLL 060720Z 21013G23KT 9999 SCT025 11/08 Q1002
                        NOSIG=
201505060650 METAR COR EGLL 060650Z 21013KT 9999 FEW022 10/08 Q1002 NOSIG=
201505060620 METAR COR EGLL 060620Z 22014KT 9999 VCSH FEW017 SCT024CB
                        09/07 Q1002 RESHRA NOSIG=
201505060550 METAR EGLL 060550Z 21012KT 9999 FEW025 09/07 Q1002 TEMPO
                        SHRA=
201505060520 METAR COR EGLL 060520Z 22012KT 9999 FEW025CB 08/06 Q1001
                        TEMPO SHRA=
201505060450 METAR EGLL 060450Z 22013KT 9999 FEW025CB 08/06 Q1001 RESHRA
                        NOSIG=
201505060420 METAR COR EGLL 060420Z 21018G28KT 7000 SHRA SCT025 SCT033
                        09/07 Q1001 TEMPO NSW=
201505060350 METAR EGLL 060350Z 19012KT 9999 -SHRA FEW025 SCT030 10/07
                        Q1001 TEMPO SHRA=
201505060320 METAR COR EGLL 060320Z 21014KT 9999 SCT028 10/06 Q1001 TEMPO
                        SHRA=
201505060250 METAR COR EGLL 060250Z 20015KT 9999 FEW021 SCT030 10/07 Q1001
                        TEMPO SHRA=
201505060220 METAR COR EGLL 060220Z 21013G25KT 9999 FEW022 SCT031 11/07
                        Q1001 TEMPO SHRA=
201505060150 METAR EGLL 060150Z 22016KT 9999 -SHRA FEW025 SCT033 11/07
                        Q1002 TEMPO SHRA=
201505060120 METAR EGLL 060120Z AUTO 21015KT 9999 FEW027 BKN044 11/07
                        Q1002=
201505060050 METAR EGLL 060050Z AUTO 22012KT 9999 FEW020/// BKN023///
                        //////CB 11/07 Q1002=
201505060020 METAR EGLL 060020Z AUTO 22012KT 9000 RA SCT021/// SCT030///
                        //////TCU 11/08 Q1002=
201505052350 METAR EGLL 052350Z 21017KT 9999 SCT025 11/07 Q1002 TEMPO
                        SHRA=
201505052320 METAR COR EGLL 052320Z 21016KT 9999 SCT028 11/07 Q1002 TEMPO
                        SHRA=
201505052250 METAR EGLL 052250Z 21014KT 9999 -SHRA SCT025 SCT033 11/08
                        Q1002 TEMPO SHRA=
201505052220 METAR COR EGLL 052220Z 22017KT 190V250 9999 SCT028 SCT046
                        12/07 Q1002 NOSIG=
201505052150 METAR EGLL 052150Z 22016G26KT 9999 FEW027 SCT033 12/07 Q1002
                        NOSIG=
201505052120 METAR COR EGLL 052120Z 22016KT 9999 FEW025 SCT030 12/07 Q1002
                        NOSIG=
201505052050 METAR COR EGLL 052050Z 21017KT 9999 FEW029 SCT033 12/07 Q1001
                        NOSIG=
201505052020 METAR COR EGLL 052020Z 22017KT 9999 FEW031 12/06 Q1001 NOSIG=
201505051950 METAR EGLL 051950Z 22017KT 190V250 9999 FEW037 12/06 Q1001=
201505051920 METAR EGLL 051920Z 22018KT 9999 -SHRA FEW032 SCT038 13/06
                        Q1001=
201505051850 METAR EGLL 051850Z 22020G30KT 9999 FEW031 SCT036 13/06 Q1001=
201505051820 METAR COR EGLL 051820Z 22019G29KT 9999 SCT038 13/06 Q1000
                        NOSIG=
201505051750 METAR COR EGLL 051750Z 22023G33KT 9999 SCT038 14/06 Q1000
                        TEMPO SHRA=
201505051720 METAR COR EGLL 051720Z 22022G34KT 9999 FEW036 SCT040 14/06
                        Q1000 TEMPO SHRA=
201505051650 METAR EGLL 051650Z 22024G37KT 9999 FEW036 SCT040 15/06 Q1000
                        NOSIG=
201505051620 METAR COR EGLL 051620Z 23028G39KT 9999 FEW039 SCT041 15/05
                        Q1000 NOSIG=
201505051550 METAR COR EGLL 051550Z 22026G37KT 9999 SCT042 15/04 Q1000
                        NOSIG=
201505051520 METAR COR EGLL 051520Z 23025G36KT 9999 SCT039 SCT046 15/05
                        Q0999 NOSIG=
201505051450 METAR EGLL 051450Z 22025G36KT 9999 FEW040 SCT046 16/05 Q0999
                        NOSIG=
201505051420 METAR COR EGLL 051420Z 23021KT 9999 SCT038 SCT046 15/06 Q0999
                        NOSIG=
201505051350 METAR COR EGLL 051350Z 23022G33KT 9999 SCT036 SCT046 15/06
                        Q0999 NOSIG=
201505051320 METAR COR EGLL 051320Z 23023G36KT 9999 FEW039 SCT048 15/06
                        Q0998 NOSIG=
201505051250 METAR COR EGLL 051250Z 23023G33KT 9999 FEW040 SCT046 15/05
                        Q0998 NOSIG=
201505051220 METAR COR EGLL 051220Z 24024KT 9999 FEW044 SCT048 15/04 Q0997
                        NOSIG=
201505051150 METAR EGLL 051150Z 23025G36KT 9999 SCT048 15/03 Q0996 NOSIG=
201505051120 METAR COR EGLL 051120Z 24023G34KT 9999 SCT045 15/04 Q0996
                        NOSIG=
201505051050 METAR COR EGLL 051050Z 25018KT 9999 SCT033 13/07 Q0995 NOSIG=
201505051020 METAR COR EGLL 051020Z 25018KT 9999 SCT032 SCT037 13/07 Q0994
                        NOSIG=
201505050950 METAR EGLL 050950Z 25022G37KT 9999 SCT035 BKN046 14/07 Q0993
                        NOSIG=
201505050920 METAR COR EGLL 050920Z 24025G35KT 9999 SCT026 BKN042 14/07
                        Q0992 NOSIG=
201505050850 METAR COR EGLL 050850Z 24025KT 9999 FEW017 BKN021 14/10 Q0991
                        NOSIG=
201505050820 METAR COR EGLL 050820Z 23018G28KT 9999 BKN017 14/11 Q0990
                        NOSIG=
201505050750 METAR EGLL 050750Z 21018G29KT 9999 SCT016 BKN020 15/11 Q0989
                        BECMG 24022G36KT=
201505050720 METAR COR EGLL 050720Z 21016KT 9999 BKN017 15/12 Q0988 NOSIG=
201505050650 METAR EGLL 050650Z 21013KT 9999 BKN016 15/12 Q0988 TEMPO
                        BKN014=
201505050620 METAR COR EGLL 050620Z 20011KT 9999 BKN016 15/13 Q0988 TEMPO
                        BKN014=
201505050550 METAR EGLL 050550Z 20010G20KT 9999 SCT010 BKN014 15/13 Q0988
                        BECMG 21020G35KT SHRA BKN018=
201505050520 METAR COR EGLL 050520Z 20010KT 170V240 9999 -RA SCT010 BKN020
                        15/13 Q0988 NOSIG=
201505050450 METAR COR EGLL 050450Z 20010KT 9999 SCT010 BKN014 15/13 Q0988
                        TEMPO BKN009=
201505050420 METAR COR EGLL 050420Z 20009KT 180V250 9999 BKN015 15/13
                        Q0988 NOSIG=
201505050350 METAR COR EGLL 050350Z 21009KT 9999 FEW017 BKN020 15/14 Q0988
                        NOSIG=
201505050320 METAR COR EGLL 050320Z 18010KT 9999 FEW010 BKN014 15/14 Q0988
                        BECMG SCT014 BKN025=
201505050250 METAR COR EGLL 050250Z 19010KT 9999 SCT014 BKN022 15/14 Q0988
                        NOSIG=
201505050220 METAR COR EGLL 050220Z 18007KT 9999 SCT013 BKN023 14/14 Q0988
                        NOSIG=
201505050150 METAR COR EGLL 050150Z 15007KT 9999 FEW005 SCT008 BKN010
                        14/13 Q0989 BECMG SCT009 BKN014=
201505050120 METAR EGLL 050120Z 13006KT 9000 BKN007 13/13 Q0989=
201505050050 METAR EGLL 050050Z 10006KT 7000 SCT006 BKN008 13/12 Q0990=
201505050020 METAR EGLL 050020Z AUTO 10009KT 2800 -RA SCT004/// BKN012///
                        //////TCU 12/12 Q0990 RERA=
201505042350 METAR COR EGLL 042350Z 10010KT 3600 RA FEW005 SCT008 BKN010
                        12/12 Q0991 BECMG 9999 NSW SCT010=
201505042320 METAR COR EGLL 042320Z 09011KT 5000 -RA FEW006 SCT008 BKN010
                        12/12 Q0991 RERA TEMPO 4500 RADZ
                        BKN007=
201505042250 METAR COR EGLL 042250Z 08012KT 4000 RA FEW006 SCT009 BKN014
                        12/12 Q0992 TEMPO 8000 -RA BKN008=
201505042220 METAR COR EGLL 042220Z 09011KT 5000 RA FEW006 SCT008 BKN014
                        12/12 Q0993 RERA TEMPO 4500 RADZ
                        BKN008=
201505042150 METAR COR EGLL 042150Z 09011KT 5000 RA FEW007 SCT009 BKN015
                        13/12 Q0994 TEMPO 4500 RADZ BKN009=
201505042120 METAR COR EGLL 042120Z 07009KT 9999 -RA FEW012 BKN043 13/11
                        Q0995 TEMPO 4500 RA BKN011=
201505042050 METAR EGLL 042050Z 07007KT 050V110 8000 -RA BKN021 13/11
                        Q0996 RERA TEMPO BKN014=
201505042020 METAR COR EGLL 042020Z 08006KT 9999 RA SCT025 SCT047 13/11
                        Q0997 TEMPO BKN014=
201505041950 METAR EGLL 041950Z 09007KT 9999 RA FEW032 13/11 Q0997 NOSIG=
201505041920 METAR COR EGLL 041920Z 09006KT 9999 -RA SCT035 SCT041 14/10
                        Q0998 TEMPO RA=
201505041850 METAR EGLL 041850Z 09006KT 9999 -RA NSC 14/09 Q0999 TEMPO
                        RA=
201505041820 METAR COR EGLL 041820Z 10006KT CAVOK 14/09 Q0999 TEMPO RA=
201505041750 METAR EGLL 041750Z 11006KT 9999 -RA FEW037 14/10 Q1000 TEMPO
                        RA=
201505041720 METAR COR EGLL 041720Z 13006KT 9999 -RA FEW032 15/09 Q1000
                        TEMPO RA=
201505041650 METAR COR EGLL 041650Z 13006KT 100V170 CAVOK 15/09 Q1001
                        TEMPO RA=
201505041620 METAR COR EGLL 041620Z 15007KT 9999 FEW028 16/09 Q1002 NOSIG=
201505041550 METAR EGLL 041550Z 19006KT 160V230 9999 FEW040 16/08 Q1002
                        NOSIG=
201505041520 METAR COR EGLL 041520Z 19007KT 9999 FEW040 16/08 Q1002 NOSIG=
201505041450 METAR COR EGLL 041450Z 20008KT 9999 FEW040 17/08 Q1003 NOSIG=
201505041420 METAR COR EGLL 041420Z 18010KT 9999 FEW040 17/07 Q1003 NOSIG=
201505041350 METAR COR EGLL 041350Z 19011KT 150V220 9999 FEW040 18/07
                        Q1003 NOSIG=
201505041320 METAR COR EGLL 041320Z 19013KT 160V230 9999 SCT042 SCT049
                        17/07 Q1004 NOSIG=
201505041250 METAR EGLL 041250Z 19011G21KT 170V230 9999 FEW047 19/06 Q1004
                        NOSIG=
201505041220 METAR COR EGLL 041220Z 19013G23KT 160V230 9999 FEW048 18/05
                        Q1004 NOSIG=
201505041150 METAR EGLL 041150Z 20009G19KT 150V240 9999 FEW044 16/05 Q1005
                        NOSIG=
201505041120 METAR COR EGLL 041120Z 20008KT 160V260 9999 FEW044 17/05
                        Q1005 NOSIG=
201505041050 METAR EGLL 041050Z 19009KT 160V240 9999 FEW040 16/05 Q1005
                        NOSIG=
201505041020 METAR COR EGLL 041020Z 22008KT 170V250 9999 FEW040 15/05
                        Q1005 NOSIG=
201505040950 METAR EGLL 040950Z 24008KT 200V270 9999 FEW041 15/05 Q1005
                        NOSIG=
201505040920 METAR COR EGLL 040920Z 22010KT 190V260 9999 FEW039 14/05
                        Q1005 NOSIG=
201505040850 METAR EGLL 040850Z 24010KT 210V270 9999 FEW037 14/05 Q1005
                        NOSIG=
201505040820 METAR COR EGLL 040820Z 25013KT 9999 FEW036 14/05 Q1005 NOSIG=
201505040750 METAR EGLL 040750Z 24011KT 210V280 9999 FEW029 SCT034 13/05
                        Q1005 NOSIG=
201505040720 METAR COR EGLL 040720Z 23011KT 210V270 9999 FEW023 SCT032
                        12/06 Q1005 NOSIG=
201505040650 METAR COR EGLL 040650Z 25011KT 9999 FEW016 SCT035 12/07 Q1005
                        NOSIG=
201505040620 METAR COR EGLL 040620Z 24010KT 9999 FEW020 BKN040 12/08 Q1004
                        NOSIG=
201505040550 METAR COR EGLL 040550Z 24011KT 9999 SCT020 12/08 Q1004 NOSIG=
201505040520 METAR COR EGLL 040520Z 24012KT 9999 SCT023 12/08 Q1003 NOSIG=
201505040450 METAR EGLL 040450Z 24011KT 9999 BKN023 12/08 Q1003 NOSIG=
201505040420 METAR COR EGLL 040420Z 22011KT 9999 FEW030 BKN038 12/09 Q1003
                        NOSIG=
201505040350 METAR COR EGLL 040350Z 23011KT 9999 SCT030 11/09 Q1002 NOSIG=
201505040320 METAR COR EGLL 040320Z 22009KT 9999 SCT026 11/09 Q1002 NOSIG=
201505040250 METAR COR EGLL 040250Z 22009KT 9999 SCT023 12/09 Q1002 NOSIG=
201505040220 METAR COR EGLL 040220Z 22012KT 9999 FEW030 12/09 Q1001 NOSIG=
201505040150 METAR EGLL 040150Z 22010KT 9999 SCT046 12/09 Q1001 NOSIG=
201505040120 METAR COR EGLL 040120Z 23012KT 9999 FEW020 SCT033 BKN038
                        13/09 Q1002 NOSIG=
201505040050 METAR EGLL 040050Z 23013KT 9999 -RA SCT020 SCT030 13/10 Q1002
                        NOSIG=
201505040020 METAR COR EGLL 040020Z 22015KT 9999 FEW020 SCT030 BKN035
                        13/10 Q1002 NOSIG=
201505032350 METAR EGLL 032350Z 22013KT 9999 BKN037 13/09 Q1001 NOSIG=
201505032320 METAR COR EGLL 032320Z 22016KT 180V250 9999 BKN040 13/09
                        Q1001 NOSIG=
201505032250 METAR EGLL 032250Z 23011KT 9999 SCT020 SCT040 13/10 Q1001
                        NOSIG=
201505032220 METAR COR EGLL 032220Z 22014KT 9999 FEW020 SCT030 BKN040
                        13/10 Q1001 NOSIG=
201505032150 METAR COR EGLL 032150Z 23014KT 9999 FEW022 BKN028 14/09 Q1001
                        NOSIG=
201505032120 METAR COR EGLL 032120Z 22015G26KT 9999 FEW023 BKN036 14/10
                        Q1000 NOSIG=
201505032050 METAR COR EGLL 032050Z 22012KT 9999 SCT020 14/10 Q1000 NOSIG=
201505032020 METAR COR EGLL 032020Z 22012KT 9999 FEW022 SCT032 14/10 Q1000
                        NOSIG=
201505031950 METAR COR EGLL 031950Z 23013KT 9999 SCT021 14/10 Q1000 NOSIG=
201505031920 METAR COR EGLL 031920Z 23016KT 9999 -SHRA SCT022 SCT037 15/10
                        Q0999 NOSIG=
201505031850 METAR EGLL 031850Z 22015KT 9999 FEW027 BKN040 15/10 Q0999
                        NOSIG=
201505031820 METAR COR EGLL 031820Z 22017KT 9999 SCT033 BKN039 15/09 Q0999
                        NOSIG=
201505031750 METAR EGLL 031750Z 24020KT 9999 SCT032 SCT037 17/09 Q0998
                        NOSIG=
201505031720 METAR COR EGLL 031720Z 23019KT 9999 SCT033 17/09 Q0998 NOSIG=
201505031650 METAR EGLL 031650Z 22017KT 9999 FEW033 SCT046 17/09 Q0998
                        NOSIG=
201505031620 METAR COR EGLL 031620Z 23018G28KT 9999 FEW035 SCT042 18/09
                        Q0998 NOSIG=
201505031550 METAR EGLL 031550Z 23019KT 9999 SCT032CB 18/10 Q0997 NOSIG=
201505031520 METAR COR EGLL 031520Z 23019KT 9999 SCT035CB 18/10 Q0997
                        NOSIG=
201505031450 METAR COR EGLL 031450Z 23018KT 9999 FEW030 SCT041 19/11 Q0997
                        NOSIG=
201505031420 METAR COR EGLL 031420Z 22019KT 9999 FEW031CB SCT039 19/12
                        Q0996 NOSIG=
201505031350 METAR EGLL 031350Z 22018G28KT 9999 SCT031CB SCT040 20/12
                        Q0996 NOSIG=
201505031320 METAR COR EGLL 031320Z 23015G28KT 9999 SCT025 SCT029 19/12
                        Q0996 NOSIG=
201505031250 METAR COR EGLL 031250Z 23014G25KT 9999 FEW028 SCT032 19/12
                        Q0996 NOSIG=
201505031220 METAR COR EGLL 031220Z 25015KT 9999 SCT022 18/13 Q0996 NOSIG=
201505031150 METAR EGLL 031150Z 23014KT 9999 FEW010 BKN028 16/13 Q0996
                        NOSIG=
201505031120 METAR COR EGLL 031120Z 23013KT 9999 FEW009 BKN013 16/13 Q0996
                        BECMG SCT014=
201505031050 METAR COR EGLL 031050Z 23013KT 9999 SCT009 BKN011 15/13 Q0996
                        BECMG SCT013 BKN020=
201505031020 METAR COR EGLL 031020Z 23014KT 9999 SCT009 BKN010 14/13 Q0995
                        BECMG SCT012 BKN018=
201505030950 METAR EGLL 030950Z 21011KT 180V240 8000 -RADZ FEW008 BKN011
                        14/13 Q0995 BECMG SCT012 BKN018=
201505030920 METAR COR EGLL 030920Z 21012KT 170V250 9999 FEW008 BKN013
                        14/13 Q0995 BECMG SCT012 BKN018=
201505030850 METAR COR EGLL 030850Z 19011KT 170V240 9000 FEW006 SCT008
                        BKN010 14/13 Q0995 BECMG SCT010 BKN015=
201505030820 METAR COR EGLL 030820Z 19010KT 150V220 5000 -RADZ BR FEW006
                        SCT007 BKN011 14/13 Q0995 TEMPO RADZ
                        BKN009=
201505030750 METAR EGLL 030750Z 17008KT 5000 -RADZ BR SCT006 BKN009 13/13
                        Q0995 REDZ BECMG SCT007 BKN012=
201505030720 METAR COR EGLL 030720Z 16010KT 4500 DZ SCT004 SCT006 BKN008
                        13/13 Q0996 BECMG 9999 NSW SCT008
                        BKN012=
201505030650 METAR COR EGLL 030650Z 15009KT 4500 DZ BR FEW003 BKN004 BKN007
                        13/12 Q0996 BECMG 9999 NSW SCT005
                        BKN010=
201505030620 METAR COR EGLL 030620Z 15009KT 6000 FEW003 BKN004 BKN006
                        12/12 Q0996 BECMG SCT004 BKN007=
201505030550 METAR COR EGLL 030550Z 13009KT 9999 FEW005 BKN006 12/11 Q0996
                        TEMPO 4000 RADZ=
201505030520 METAR COR EGLL 030520Z 13009KT 9999 FEW006 BKN007 12/11 Q0997
                        TEMPO 4000 RADZ=
201505030450 METAR EGLL 030450Z 13008KT 9999 SCT006 BKN008 12/11 Q0997
                        TEMPO 4000 RADZ=
201505030420 METAR COR EGLL 030420Z 13008KT 4000 -RADZ SCT005 SCT008 12/11
                        Q0998 TEMPO BKN008=
201505030350 METAR EGLL 030350Z 12008KT 2900 -RADZ FEW003 SCT005 BKN008
                        12/11 Q0999 RERA REDZ NOSIG=
201505030320 METAR COR EGLL 030320Z 12008KT 3700 -RADZ SCT008 BKN011 11/11
                        Q0999 TEMPO BKN008=
201505030250 METAR EGLL 030250Z 10008KT 4000 -RADZ FEW006 SCT008 BKN012
                        11/11 Q0999 TEMPO BKN008=
201505030220 METAR COR EGLL 030220Z 09009KT 2900 BR FEW004 SCT006 BKN011
                        11/10 Q1000 TEMPO BKN006=
201505030150 METAR COR EGLL 030150Z 09009KT 2500 BR SCT004 BKN013 11/10
                        Q1000 TEMPO BKN008=
201505030120 METAR EGLL 030120Z AUTO 10008KT 1900 -RA BKN005 10/10 Q1001
                        REDZ=
201505030050 METAR EGLL 030050Z AUTO 10008KT 4400 HZ BKN007 10/09 Q1002=
201505030020 METAR EGLL 030020Z AUTO 09008KT 5000 OVC008 10/09 Q1002=
201505022350 METAR COR EGLL 022350Z 09008KT 6000 FEW008 BKN011 10/09 Q1002
                        TEMPO 4500 -RADZ BKN008=
201505022320 METAR COR EGLL 022320Z 09009KT 7000 FEW008 BKN011 10/09 Q1003
                        TEMPO 4500 RADZ BKN008=
201505022250 METAR COR EGLL 022250Z 09011KT 7000 BKN011 10/09 Q1003 TEMPO
                        4500 RADZ BKN009=
201505022220 METAR COR EGLL 022220Z 09009KT 7000 -RA FEW010 BKN014 10/08
                        Q1003 TEMPO RA=
201505022150 METAR EGLL 022150Z 09009KT 7000 -RA BKN016 10/08 Q1004 TEMPO
                        BKN014=
201505022120 METAR COR EGLL 022120Z 09009KT 9000 -RA BKN018 10/08 Q1005
                        RERA TEMPO BKN014=
201505022050 METAR EGLL 022050Z 09011KT 9999 BKN020 10/07 Q1005 TEMPO
                        -RA BKN014=
201505022020 METAR COR EGLL 022020Z 09011KT 9999 SCT028 BKN046 10/07 Q1005
                        NOSIG=
201505021950 METAR EGLL 021950Z 09012KT 9999 FEW041 11/07 Q1005 NOSIG=
201505021920 METAR COR EGLL 021920Z 09012KT 9999 FEW029 BKN035 11/07 Q1005
                        NOSIG=
201505021850 METAR COR EGLL 021850Z 09012KT 9999 FEW029 SCT037 BKN040
                        11/07 Q1005 NOSIG=
201505021820 METAR COR EGLL 021820Z 09012KT 9999 BKN031 12/07 Q1006 NOSIG=
201505021750 METAR EGLL 021750Z 09011KT 9999 BKN030 12/07 Q1006 NOSIG=
201505021720 METAR COR EGLL 021720Z 09012KT 9999 BKN031 12/07 Q1006 NOSIG=
201505021650 METAR EGLL 021650Z 09013KT 9999 BKN033 12/07 Q1006 NOSIG=
201505021620 METAR COR EGLL 021620Z 09012KT 9999 BKN034 12/06 Q1007 NOSIG=
201505021550 METAR COR EGLL 021550Z 09012KT 9999 BKN035 12/06 Q1007 NOSIG=
201505021520 METAR EGLL 021520Z 09013KT 9999 BKN036 13/06 Q1007 NOSIG=
201505021450 METAR EGLL 021450Z 14012KT 9999 BKN037 14/05 Q1007 NOSIG=
201505021420 METAR COR EGLL 021420Z 11011KT 9999 BKN038 15/05 Q1007 NOSIG=
201505021350 METAR COR EGLL 021350Z 12011KT 9999 BKN040 15/05 Q1008 NOSIG=
201505021320 METAR COR EGLL 021320Z 09012KT 9999 SCT041 15/06 Q1008 NOSIG=
201505021250 METAR EGLL 021250Z 11012KT 9999 BKN033 14/06 Q1009 NOSIG=
201505021220 METAR COR EGLL 021220Z 10010KT 9999 FEW032 13/06 Q1009 NOSIG=
201505021150 METAR EGLL 021150Z 11011KT 9999 FEW027 SCT041 13/06 Q1010
                        NOSIG=
201505021120 METAR COR EGLL 021120Z 12011KT 070V140 9999 FEW026 13/06
                        Q1010 NOSIG=
201505021050 METAR COR EGLL 021050Z 11013KT 9999 FEW024 SCT043 12/05 Q1010
                        NOSIG=
201505021020 METAR COR EGLL 021020Z 09012KT 9999 BKN022 11/05 Q1010 NOSIG=
201505020950 METAR EGLL 020950Z 11011KT 9999 BKN020 11/06 Q1010 NOSIG=
201505020920 METAR COR EGLL 020920Z 09009KT 9999 SCT019 10/05 Q1011 NOSIG=
201505020850 METAR EGLL 020850Z 09009KT 9999 FEW020 09/05 Q1011 NOSIG=
201505020820 METAR COR EGLL 020820Z 09009KT 9999 SCT041 08/04 Q1011 NOSIG=
201505020750 METAR EGLL 020750Z 09011KT 9999 BKN041 08/04 Q1011 NOSIG=
201505020720 METAR COR EGLL 020720Z 09010KT 9999 BKN042 08/04 Q1011 NOSIG=
201505020650 METAR EGLL 020650Z 10009KT 9999 FEW040 08/04 Q1011 NOSIG=
201505020620 METAR COR EGLL 020620Z 09009KT CAVOK 07/03 Q1011 NOSIG=
201505020550 METAR COR EGLL 020550Z 07004KT 040V100 CAVOK 07/03 Q1012
                        NOSIG=
201505020520 METAR COR EGLL 020520Z 08005KT CAVOK 07/03 Q1011 NOSIG=
201505020450 METAR EGLL 020450Z 07004KT CAVOK 07/03 Q1012 NOSIG=
201505020420 METAR COR EGLL 020420Z 07004KT CAVOK 07/02 Q1012 NOSIG=
201505020350 METAR EGLL 020350Z 05004KT CAVOK 07/02 Q1012 NOSIG=
201505020320 METAR COR EGLL 020320Z 08006KT CAVOK 06/02 Q1012 NOSIG=
201505020250 METAR EGLL 020250Z 05004KT CAVOK 07/02 Q1012 NOSIG=
201505020220 METAR COR EGLL 020220Z 06006KT CAVOK 06/02 Q1012 NOSIG=
201505020150 METAR EGLL 020150Z 06006KT CAVOK 06/02 Q1012 NOSIG=
201505020120 METAR EGLL 020120Z AUTO 07007KT 9999 NCD 05/02 Q1012=
201505020050 METAR EGLL 020050Z AUTO 07006KT 9999 NCD 06/02 Q1012=
201505020020 METAR EGLL 020020Z AUTO 06005KT 9999 NCD 06/02 Q1012=
201505012350 METAR COR EGLL 012350Z 05003KT CAVOK 06/01 Q1013 NOSIG=
201505012320 METAR COR EGLL 012320Z 07005KT CAVOK 06/01 Q1012 NOSIG=
201505012250 METAR EGLL 012250Z 08005KT CAVOK 07/01 Q1012 NOSIG=
201505012220 METAR COR EGLL 012220Z 08006KT CAVOK 07/02 Q1012 NOSIG=
201505012150 METAR COR EGLL 012150Z 10006KT CAVOK 08/01 Q1012 NOSIG=
201505012120 METAR COR EGLL 012120Z 09007KT CAVOK 08/01 Q1012 NOSIG=
201505012050 METAR COR EGLL 012050Z 10009KT CAVOK 08/01 Q1011 NOSIG=
201505012020 METAR COR EGLL 012020Z 10009KT CAVOK 09/01 Q1011 NOSIG=
201505011950 METAR EGLL 011950Z 11010KT CAVOK 09/02 Q1011 NOSIG=
201505011920 METAR COR EGLL 011920Z 11011KT CAVOK 09/02 Q1010 NOSIG=
201505011850 METAR EGLL 011850Z 10009KT CAVOK 10/02 Q1010 NOSIG=
201505011820 METAR COR EGLL 011820Z 09011KT 9999 FEW042 10/02 Q1010 NOSIG=
201505011750 METAR EGLL 011750Z 11011KT 9999 FEW040 SCT049 10/03 Q1010
                        NOSIG=
201505011720 METAR COR EGLL 011720Z 10010KT 9999 FEW048 11/03 Q1009 NOSIG=
201505011650 METAR EGLL 011650Z 10012KT 9999 FEW048 11/02 Q1009 NOSIG=
201505011620 METAR COR EGLL 011620Z 10010KT 070V130 9999 FEW048 12/02
                        Q1009 NOSIG=
201505011550 METAR COR EGLL 011550Z 09009KT 050V120 9999 FEW049 12/01
                        Q1009 NOSIG=
201505011520 METAR COR EGLL 011520Z 09009KT 9999 FEW049 12/01 Q1009 NOSIG=
201505011450 METAR EGLL 011450Z 09009KT 050V120 9999 SCT048 13/01 Q1009
                        NOSIG=
201505011420 METAR COR EGLL 011420Z 09010KT 050V120 9999 SCT049 13/01
                        Q1009 NOSIG=
201505011350 METAR COR EGLL 011350Z 10010KT 070V140 9999 SCT049 13/01
                        Q1009 NOSIG=
201505011320 METAR COR EGLL 011320Z 07009KT 040V110 9999 SCT047 13/02
                        Q1009 NOSIG=
201505011250 METAR EGLL 011250Z 08011KT 9999 SCT043 12/01 Q1009 NOSIG=
201505011220 METAR COR EGLL 011220Z 07012KT 9999 SCT042 12/02 Q1009 NOSIG=
201505011150 METAR COR EGLL 011150Z 08011KT 040V120 9999 SCT042 11/02
                        Q1010 NOSIG=
201505011120 METAR COR EGLL 011120Z 06009KT 9999 SCT038 11/02 Q1010 NOSIG=
201505011050 METAR COR EGLL 011050Z 06010KT 040V100 9999 SCT038 12/02
                        Q1010 NOSIG=
201505011020 METAR COR EGLL 011020Z 09011KT 9999 SCT033 10/01 Q1010 NOSIG=
201505010950 METAR EGLL 010950Z 07011KT 9999 SCT029 10/02 Q1010 NOSIG=
201505010920 METAR COR EGLL 010920Z 07012KT 9999 SCT029 10/02 Q1010 NOSIG=
201505010850 METAR COR EGLL 010850Z 06010KT 030V100 9999 FEW029 09/02
                        Q1010 NOSIG=
201505010820 METAR COR EGLL 010820Z 07012KT 030V100 9999 FEW028 09/02
                        Q1010 NOSIG=
201505010750 METAR COR EGLL 010750Z 06011KT 9999 FEW024 08/02 Q1010 NOSIG=
201505010720 METAR COR EGLL 010720Z 06011KT 9999 FEW016 08/03 Q1010 NOSIG=
201505010650 METAR EGLL 010650Z 06010KT 9999 FEW016 07/03 Q1010 NOSIG=
201505010620 METAR COR EGLL 010620Z 05008KT CAVOK 07/03 Q1010 NOSIG=
201505010550 METAR COR EGLL 010550Z 05006KT 020V090 CAVOK 06/03 Q1010
                        NOSIG=
201505010520 METAR COR EGLL 010520Z 06007KT CAVOK 06/03 Q1010 NOSIG=
201505010450 METAR EGLL 010450Z 05007KT CAVOK 06/03 Q1010 NOSIG=
201505010420 METAR COR EGLL 010420Z 06006KT CAVOK 06/03 Q1010 NOSIG=
201505010350 METAR COR EGLL 010350Z 06007KT CAVOK 06/03 Q1010 NOSIG=
201505010320 METAR COR EGLL 010320Z 06008KT CAVOK 06/03 Q1010 NOSIG=
201505010250 METAR EGLL 010250Z 06007KT CAVOK 06/03 Q1011 NOSIG=
201505010220 METAR COR EGLL 010220Z 06008KT CAVOK 06/03 Q1011 NOSIG=
201505010150 METAR COR EGLL 010150Z 05007KT CAVOK 06/03 Q1011 NOSIG=
201505010120 METAR EGLL 010120Z AUTO 06008KT 9999 NCD 06/03 Q1012=
201505010050 METAR EGLL 010050Z AUTO 06006KT 9999 NCD 07/03 Q1012=
201505010020 METAR EGLL 010020Z AUTO 06006KT 9999 NCD 07/02 Q1012=

</pre>

</body>
</html>
