##########################################################
# Query made at 12/31/2014 10:46:12 UTC
# Time interval: from 05/01/2014 00:00  to 05/31/2014 23:59  UTC
##########################################################

##########################################################
# EGLL, London / Heathrow Airport (United Kingdom)
# WMO index: 03772
# Latitude 51-29N. Longitude 000-27W. Altitude 24 m.
##########################################################

###################################
#  METAR/SPECI from EGLL
###################################
201405312350 METAR COR EGLL 312350Z 29004KT CAVOK 15/11 Q1024 NOSIG=
201405312320 METAR COR EGLL 312320Z 29004KT CAVOK 15/11 Q1024 NOSIG=
201405312250 METAR COR EGLL 312250Z 27005KT 9999 FEW049 15/11 Q1024 NOSIG=
201405312220 METAR COR EGLL 312220Z 28004KT 9999 FEW045 16/10 Q1024 NOSIG=
201405312150 METAR COR EGLL 312150Z 30002KT CAVOK 17/10 Q1024 NOSIG=
201405312120 METAR COR EGLL 312120Z VRB02KT CAVOK 17/10 Q1024 NOSIG=
201405312050 METAR COR EGLL 312050Z 31002KT CAVOK 17/10 Q1024 NOSIG=
201405312020 METAR COR EGLL 312020Z 31003KT CAVOK 17/09 Q1024 NOSIG=
201405311950 METAR COR EGLL 311950Z VRB03KT CAVOK 17/10 Q1024 NOSIG=
201405311920 METAR EGLL 311920Z 29004KT CAVOK 17/10 Q1024=
201405311850 METAR COR EGLL 311850Z 31004KT 280V340 CAVOK 17/10 Q1024
                        NOSIG=
201405311820 METAR COR EGLL 311820Z 32004KT 300V020 CAVOK 18/10 Q1024
                        NOSIG=
201405311750 METAR EGLL 311750Z 31004KT 280V350 CAVOK 18/10 Q1024=
201405311720 METAR COR EGLL 311720Z 29004KT CAVOK 17/10 Q1024 NOSIG=
201405311650 METAR COR EGLL 311650Z 29004KT 250V330 9999 FEW042 18/09
                        Q1024 NOSIG=
201405311620 METAR EGLL 311620Z 29006KT 260V340 9999 FEW041 18/09 Q1024=
201405311550 METAR COR EGLL 311550Z 29004KT 270V330 9999 FEW041 18/09
                        Q1024 NOSIG=
201405311520 METAR COR EGLL 311520Z 31005KT 280V350 9999 FEW041 18/09
                        Q1024 NOSIG=
201405311450 METAR EGLL 311450Z 31004KT 270V360 9999 SCT043 18/08 Q1025=
201405311420 METAR COR EGLL 311420Z 29005KT 250V340 9999 FEW043 19/08
                        Q1025 NOSIG=
201405311350 METAR COR EGLL 311350Z 33004KT 290V040 9999 FEW047 18/08
                        Q1025 NOSIG=
201405311320 METAR COR EGLL 311320Z VRB04KT 9999 SCT047 19/08 Q1025 NOSIG=
201405311250 METAR COR EGLL 311250Z VRB03KT 9999 SCT047 18/07 Q1025 NOSIG=
201405311220 METAR COR EGLL 311220Z VRB03KT 9999 FEW047 18/07 Q1025 NOSIG=
201405311150 METAR COR EGLL 311150Z VRB03KT 9999 FEW043 18/07 Q1025 NOSIG=
201405311120 METAR COR EGLL 311120Z VRB03KT 9999 FEW044 18/08 Q1025 NOSIG=
201405311050 METAR COR EGLL 311050Z VRB02KT 9999 SCT042 17/07 Q1025 NOSIG=
201405311020 METAR COR EGLL 311020Z VRB03KT 9999 BKN041 15/06 Q1026 NOSIG=
201405310950 METAR COR EGLL 310950Z 31004KT 260V340 9999 BKN042 14/06
                        Q1026 NOSIG=
201405310920 METAR EGLL 310920Z 32004KT 9999 BKN041 14/06 Q1026=
201405310850 METAR COR EGLL 310850Z 31005KT 280V340 9999 BKN041 14/08
                        Q1026 NOSIG=
201405310820 METAR COR EGLL 310820Z 30005KT 9999 BKN042 14/07 Q1026 NOSIG=
201405310750 METAR COR EGLL 310750Z VRB03KT 9999 BKN043 15/06 Q1026 NOSIG=
201405310720 METAR EGLL 310720Z VRB02KT 9999 SCT044 14/07 Q1026=
201405310650 METAR COR EGLL 310650Z VRB02KT 9999 FEW045 13/08 Q1026 NOSIG=
201405310620 METAR COR EGLL 310620Z VRB03KT 9999 FEW045 12/08 Q1026 NOSIG=
201405310550 METAR EGLL 310550Z VRB02KT 9999 FEW047 11/08 Q1026=
201405310520 METAR COR EGLL 310520Z 00000KT CAVOK 10/08 Q1025 NOSIG=
201405310450 METAR COR EGLL 310450Z 00000KT CAVOK 10/07 Q1025 NOSIG=
201405310420 METAR COR EGLL 310420Z 00000KT CAVOK 10/07 Q1025 NOSIG=
201405310350 METAR COR EGLL 310350Z 00000KT CAVOK 09/07 Q1025 NOSIG=
201405310320 METAR COR EGLL 310320Z 03003KT CAVOK 09/06 Q1025 NOSIG=
201405310250 METAR COR EGLL 310250Z 04004KT CAVOK 10/07 Q1025 NOSIG=
201405310220 METAR COR EGLL 310220Z 02002KT 9999 FEW043 10/07 Q1025 NOSIG=
201405310150 METAR COR EGLL 310150Z 02003KT CAVOK 10/07 Q1025 NOSIG=
201405310120 METAR EGLL 310120Z AUTO 01002KT 9999 NCD 10/07 Q1025=
201405310050 METAR EGLL 310050Z AUTO 00000KT 9999 NCD 11/08 Q1026=
201405310020 METAR EGLL 310020Z AUTO 00000KT 9999 SCT038 11/08 Q1026=
201405302350 METAR COR EGLL 302350Z VRB02KT 9999 BKN038 11/08 Q1026 NOSIG=
201405302320 METAR COR EGLL 302320Z VRB02KT 9999 BKN038 12/08 Q1026 NOSIG=
201405302250 METAR COR EGLL 302250Z VRB02KT 9999 FEW038 12/08 Q1025 NOSIG=
201405302220 METAR COR EGLL 302220Z VRB02KT 9999 FEW034 12/08 Q1025 NOSIG=
201405302150 METAR COR EGLL 302150Z 02002KT CAVOK 13/08 Q1025 NOSIG=
201405302120 METAR COR EGLL 302120Z VRB02KT CAVOK 13/07 Q1025 NOSIG=
201405302050 METAR COR EGLL 302050Z VRB03KT 9999 SCT038 14/07 Q1025 NOSIG=
201405302020 METAR COR EGLL 302020Z 06004KT 020V090 9999 SCT038 15/07
                        Q1025 NOSIG=
201405301950 METAR COR EGLL 301950Z 05004KT 9999 BKN039 15/07 Q1025 NOSIG=
201405301920 METAR COR EGLL 301920Z 04005KT 010V080 9999 BKN039 15/08
                        Q1025 NOSIG=
201405301850 METAR COR EGLL 301850Z 06004KT 9999 BKN040 15/08 Q1024 NOSIG=
201405301820 METAR COR EGLL 301820Z 06006KT 9999 BKN040 15/08 Q1024 NOSIG=
201405301750 METAR COR EGLL 301750Z 05007KT 020V090 9999 BKN040 15/08
                        Q1024 NOSIG=
201405301720 METAR COR EGLL 301720Z 06006KT 020V080 9999 BKN040 16/08
                        Q1024 NOSIG=
201405301650 METAR COR EGLL 301650Z 05006KT 030V090 9999 BKN040 16/08
                        Q1024 NOSIG=
201405301620 METAR EGLL 301620Z 07006KT 030V100 9999 BKN039 16/08 Q1024=
201405301550 METAR COR EGLL 301550Z 06007KT 9999 BKN037 16/08 Q1024 NOSIG=
201405301520 METAR COR EGLL 301520Z 07006KT 030V100 9999 FEW036 BKN039
                        16/08 Q1024 NOSIG=
201405301450 METAR EGLL 301450Z 06006KT 030V090 9999 FEW033 BKN036 16/09
                        Q1024=
201405301420 METAR COR EGLL 301420Z 08007KT 9999 FEW033 BKN037 16/09 Q1024
                        NOSIG=
201405301350 METAR COR EGLL 301350Z 08005KT 040V120 9999 FEW031 BKN039
                        16/10 Q1024 NOSIG=
201405301320 METAR COR EGLL 301320Z 07006KT 9999 SCT027 SCT038 16/10 Q1024
                        NOSIG=
201405301250 METAR COR EGLL 301250Z 09007KT 9999 SCT018 BKN035 15/11 Q1024
                        NOSIG=
201405301220 METAR COR EGLL 301220Z 08007KT 050V110 9999 FEW016 BKN018
                        15/11 Q1024 NOSIG=
201405301150 METAR COR EGLL 301150Z 07008KT 9999 SCT012 BKN020 14/11 Q1024
                        NOSIG=
201405301120 METAR COR EGLL 301120Z 07008KT 040V100 9999 SCT018 BKN021
                        14/11 Q1023 NOSIG=
201405301050 METAR COR EGLL 301050Z 07008KT 9999 SCT015 BKN021 14/11 Q1023
                        NOSIG=
201405301020 METAR COR EGLL 301020Z 07007KT 9999 SCT019 BKN030 15/11 Q1023
                        NOSIG=
201405300950 METAR COR EGLL 300950Z 06008KT 9999 SCT015 BKN024 14/10 Q1023
                        NOSIG=
201405300920 METAR COR EGLL 300920Z 06007KT 020V090 9999 SCT014 BKN024
                        14/10 Q1023 NOSIG=
201405300850 METAR COR EGLL 300850Z 04007KT 9999 FEW014 BKN025 14/11 Q1023
                        NOSIG=
201405300820 METAR COR EGLL 300820Z 03007KT 340V060 9999 BKN024 14/10
                        Q1022 NOSIG=
201405300750 METAR COR EGLL 300750Z 04006KT 010V080 9999 FEW016 BKN021
                        14/10 Q1022 NOSIG=
201405300720 METAR COR EGLL 300720Z 05006KT 010V070 9999 BKN023 13/10
                        Q1022 NOSIG=
201405300650 METAR COR EGLL 300650Z 04005KT 010V080 9999 FEW011 BKN024
                        13/10 Q1022 NOSIG=
201405300620 METAR COR EGLL 300620Z 05006KT 9999 SCT011 SCT016 BKN024
                        13/10 Q1022 NOSIG=
201405300550 METAR COR EGLL 300550Z 05006KT 9999 FEW010 BKN014 13/10 Q1021
                        BECMG BKN018=
201405300520 METAR EGLL 300520Z 05005KT 9999 FEW010 BKN014 13/10 Q1021=
201405300450 METAR COR EGLL 300450Z 05005KT 020V080 9999 BKN012 13/11
                        Q1021 TEMPO FEW012=
201405300420 METAR COR EGLL 300420Z 04005KT 9999 BKN011 13/11 Q1021 TEMPO
                        FEW011=
201405300350 METAR COR EGLL 300350Z 06005KT 9999 SCT010 BKN025 13/11 Q1021
                        TEMPO BKN010=
201405300320 METAR COR EGLL 300320Z 06004KT 9999 FEW010 BKN027 13/11 Q1020
                        TEMPO BKN010=
201405300250 METAR COR EGLL 300250Z 05005KT 9999 FEW010 BKN026 13/11 Q1020
                        TEMPO BKN010=
201405300220 METAR COR EGLL 300220Z 06007KT 9999 FEW012 BKN023 13/11 Q1020
                        TEMPO BKN012=
201405300150 METAR COR EGLL 300150Z 05007KT 9999 BKN012 13/11 Q1020 NOSIG=
201405300120 METAR EGLL 300120Z AUTO 05005KT 020V080 9000 BKN010 14/11
                        Q1020=
201405300050 METAR EGLL 300050Z AUTO 05004KT 9999 BKN017 14/11 Q1020=
201405300020 METAR EGLL 300020Z AUTO 07005KT 9999 SCT015 OVC018 14/11
                        Q1020=
201405292350 METAR COR EGLL 292350Z 07006KT 9999 FEW014 BKN019 14/11 Q1020
                        TEMPO BKN010=
201405292320 METAR COR EGLL 292320Z 06005KT 9999 FEW015 BKN022 14/11 Q1020
                        TEMPO BKN010=
201405292250 METAR COR EGLL 292250Z 08007KT 9999 FEW015 BKN018 14/12 Q1019
                        TEMPO BKN010=
201405292220 METAR COR EGLL 292220Z 09007KT 9999 FEW015 BKN022 15/12 Q1019
                        NOSIG=
201405292150 METAR COR EGLL 292150Z 10009KT 9999 FEW017 BKN023 15/11 Q1019
                        NOSIG=
201405292120 METAR COR EGLL 292120Z 09010KT 9999 SCT017 BKN023 15/11 Q1019
                        NOSIG=
201405292050 METAR COR EGLL 292050Z 10007KT 9999 FEW015 SCT022 15/12 Q1019
                        NOSIG=
201405292020 METAR COR EGLL 292020Z 10009KT 9999 FEW033 15/12 Q1018 NOSIG=
201405291950 METAR COR EGLL 291950Z 10009KT 9999 FEW042 15/12 Q1018 NOSIG=
201405291920 METAR COR EGLL 291920Z 09010KT 9999 FEW032 16/12 Q1017 NOSIG=
201405291850 METAR COR EGLL 291850Z 09010KT 9999 FEW040CB 16/12 Q1017
                        NOSIG=
201405291820 METAR COR EGLL 291820Z 09008KT 9999 FEW035 16/12 Q1017 NOSIG=
201405291750 METAR COR EGLL 291750Z 09009KT 9999 FEW032 16/12 Q1017 NOSIG=
201405291720 METAR COR EGLL 291720Z 09008KT 9999 FEW028 16/13 Q1016 NOSIG=
201405291650 METAR COR EGLL 291650Z 07005KT 9999 FEW037 SCT046 16/13 Q1016
                        NOSIG=
201405291620 METAR COR EGLL 291620Z 07007KT 9999 SCT028 SCT048 17/12 Q1016
                        NOSIG=
201405291550 METAR COR EGLL 291550Z 10006KT 070V140 9999 VCSH SCT027CB
                        18/12 Q1016 TEMPO SHRA=
201405291520 METAR COR EGLL 291520Z 16005KT 130V200 9999 VCSH FEW033CB
                        18/12 Q1016 TEMPO SHRA=
201405291450 METAR COR EGLL 291450Z 15008KT 9999 VCSH FEW028CB 17/12 Q1016
                        TEMPO SHRA=
201405291420 METAR COR EGLL 291420Z 13008KT 9999 FEW028 17/11 Q1016 TEMPO
                        SHRA=
201405291350 METAR COR EGLL 291350Z 14008KT 9999 FEW049 17/11 Q1015 TEMPO
                        SHRA=
201405291320 METAR COR EGLL 291320Z 14010KT 9999 FEW032 18/10 Q1015 NOSIG=
201405291250 METAR COR EGLL 291250Z 14008KT 9999 SCT032 SCT047 18/11 Q1015
                        NOSIG=
201405291220 METAR COR EGLL 291220Z 12008KT 9999 SCT030 18/11 Q1015 TEMPO
                        SHRA=
201405291150 METAR COR EGLL 291150Z 11008KT 060V150 9999 FEW031 19/12
                        Q1015 TEMPO SHRA=
201405291120 METAR COR EGLL 291120Z 11010KT 070V140 9999 FEW030 19/12
                        Q1015 TEMPO SHRA=
201405291050 METAR COR EGLL 291050Z 10007KT 040V120 9999 FEW025 18/12
                        Q1015 TEMPO SHRA=
201405291020 METAR COR EGLL 291020Z 08008KT 9999 SCT035 17/12 Q1015 NOSIG=
201405290950 METAR COR EGLL 290950Z 11006KT 9999 SCT018 SCT035 16/12 Q1015
                        NOSIG=
201405290920 METAR COR EGLL 290920Z 08007KT 9999 SCT018 BKN024 16/11 Q1014
                        NOSIG=
201405290850 METAR COR EGLL 290850Z 10009KT 9999 SCT018 SCT023 15/11 Q1014
                        NOSIG=
201405290820 METAR COR EGLL 290820Z 06007KT 9999 FEW014 SCT019 15/12 Q1014
                        NOSIG=
201405290750 METAR COR EGLL 290750Z 09007KT 9999 FEW017 BKN019 15/12 Q1014
                        NOSIG=
201405290720 METAR EGLL 290720Z 10007KT 9000 SCT011 SCT017 15/12 Q1014=
201405290650 METAR COR EGLL 290650Z 08005KT 8000 SCT011 15/12 Q1013 TEMPO
                        BKN012=
201405290620 METAR COR EGLL 290620Z 09005KT 7000 FEW008 14/12 Q1013 TEMPO
                        BKN012=
201405290550 METAR COR EGLL 290550Z 07004KT 6000 SCT025 BKN047 14/12 Q1013
                        TEMPO BKN012=
201405290520 METAR COR EGLL 290520Z 09004KT 6000 FEW006 SCT011 13/12 Q1013
                        TEMPO BKN011=
201405290450 METAR COR EGLL 290450Z 09003KT 6000 SCT006 BKN016 13/12 Q1013
                        TEMPO BKN006=
201405290420 METAR COR EGLL 290420Z 08002KT 6000 FEW006 BKN011 13/12 Q1013
                        NOSIG=
201405290350 METAR COR EGLL 290350Z 06003KT 7000 FEW006 SCT013 13/12 Q1013
                        TEMPO BKN012=
201405290320 METAR COR EGLL 290320Z 07002KT 8000 FEW005 SCT012 13/12 Q1013
                        NOSIG=
201405290250 METAR COR EGLL 290250Z 07002KT 9999 FEW007 BKN011 13/12 Q1013
                        NOSIG=
201405290220 METAR COR EGLL 290220Z 08002KT 9999 FEW007 BKN013 13/12 Q1013
                        NOSIG=
201405290150 METAR COR EGLL 290150Z VRB02KT 9999 FEW007 BKN011 13/12 Q1013
                        NOSIG=
201405290120 METAR COR EGLL 290120Z AUTO 07002KT 9999 FEW012 OVC043 13/12
                        Q1012=
201405290050 METAR EGLL 290050Z AUTO 09002KT 9000 SCT014 OVC044 13/12
                        Q1012=
201405290020 METAR EGLL 290020Z AUTO 07002KT 9999 OVC013 13/12 Q1012=
201405282350 METAR COR EGLL 282350Z 08002KT 9999 FEW012 BKN019 13/12 Q1012
                        TEMPO TEMPO BKN012=
201405282320 METAR COR EGLL 282320Z 05003KT 9999 FEW012 13/12 Q1012 BECMG
                        BKN012=
201405282250 METAR COR EGLL 282250Z VRB02KT 9999 FEW012 BKN020 13/12 Q1012
                        BECMG BKN012=
201405282220 METAR COR EGLL 282220Z 08002KT 9000 FEW008 BKN012 13/12 Q1012
                        NOSIG=
201405282150 METAR COR EGLL 282150Z 10003KT 9999 SCT010 BKN017 14/12 Q1012
                        BECMG BKN010=
201405282120 METAR COR EGLL 282120Z 12004KT 100V170 9999 SCT011 BKN017
                        14/12 Q1012 BECMG BKN011=
201405282050 METAR COR EGLL 282050Z 13004KT 9999 FEW012 SCT017 BKN022
                        14/12 Q1012 BECMG BKN012=
201405282020 METAR COR EGLL 282020Z VRB03KT 9999 FEW012 BKN017 14/12 Q1012
                        TEMPO BKN012=
201405281950 METAR COR EGLL 281950Z VRB03KT 9999 FEW012 SCT015 BKN022
                        14/12 Q1012 TEMPO BKN012=
201405281920 METAR COR EGLL 281920Z VRB02KT 9999 FEW011 BKN017 14/12 Q1012
                        BECMG BKN011=
201405281850 METAR COR EGLL 281850Z VRB03KT 9999 SCT016 BKN020 14/12 Q1011
                        TEMPO BKN010=
201405281820 METAR COR EGLL 281820Z 28003KT 9999 SCT017 BKN019 14/12 Q1011
                        TEMPO BKN010=
201405281750 METAR COR EGLL 281750Z 31003KT 9999 SCT014 BKN017 14/12 Q1011
                        TEMPO BKN014=
201405281720 METAR COR EGLL 281720Z 28005KT 230V290 9999 FEW014 SCT017
                        BKN020 14/12 Q1011 TEMPO BKN014=
201405281650 METAR COR EGLL 281650Z VRB03KT 9999 FEW009 SCT012 BKN014
                        14/12 Q1011 TEMPO SCT014 BKN016=
201405281620 METAR COR EGLL 281620Z 27004KT 230V320 9999 SCT012 BKN015
                        14/11 Q1011 BECMG BKN014=
201405281550 METAR COR EGLL 281550Z 29006KT 9999 SCT013 BKN016 15/11 Q1011
                        TEMPO BKN014=
201405281520 METAR COR EGLL 281520Z 29006KT 9999 FEW013 SCT014 BKN017
                        14/11 Q1011 BECMG BKN014=
201405281450 METAR COR EGLL 281450Z 29006KT 9999 FEW013 SCT016 BKN022
                        15/11 Q1011 TEMPO BKN014=
201405281420 METAR COR EGLL 281420Z 30005KT 9999 SCT017 BKN023 14/11 Q1011
                        TEMPO BKN014=
201405281350 METAR COR EGLL 281350Z 32004KT 280V010 9999 SCT018 BKN023
                        14/11 Q1011 TEMPO BKN014=
201405281320 METAR COR EGLL 281320Z 29005KT 9999 FEW012 SCT018 BKN025
                        14/12 Q1011 TEMPO BKN012=
201405281250 METAR COR EGLL 281250Z 29006KT 9999 -RADZ FEW007 BKN011 BKN018
                        13/12 Q1011 TEMPO RADZ BKN009=
201405281220 METAR COR EGLL 281220Z 31007KT 9999 SCT008 BKN010 14/11 Q1011
                        TEMPO RADZ BKN009=
201405281150 METAR COR EGLL 281150Z 31007KT 9999 SCT008 BKN011 14/12 Q1011
                        TEMPO BKN009=
201405281120 METAR COR EGLL 281120Z 30006KT 6000 -DZ FEW004 SCT008 BKN010
                        13/12 Q1011 REDZ NOSIG=
201405281050 METAR COR EGLL 281050Z 29007KT 3000 -DZ FEW004 SCT006 BKN010
                        13/12 Q1011 BECMG 6000 BKN007=
201405281020 METAR COR EGLL 281020Z 29009KT 4700 -RADZ FEW004 SCT007 BKN009
                        13/12 Q1011 BECMG 8000 SCT009 BKN012=
201405280950 METAR COR EGLL 280950Z 29007KT 7000 FEW006 SCT007 BKN012
                        13/11 Q1011 TEMPO BKN009=
201405280920 METAR COR EGLL 280920Z 30008KT 6000 SCT007 BKN009 BKN015
                        13/11 Q1011 BECMG SCT009 BKN015=
201405280850 METAR COR EGLL 280850Z 29008KT 6000 FEW007 SCT008 BKN009
                        12/11 Q1011 TEMPO 4500 RADZ=
201405280820 METAR COR EGLL 280820Z 29008KT 7000 -RADZ SCT007 BKN009 12/11
                        Q1011 BECMG SCT009 BKN012=
201405280750 METAR COR EGLL 280750Z 30007KT 9999 FEW008 BKN012 12/10 Q1011
                        TEMPO BKN009=
201405280720 METAR COR EGLL 280720Z 29007KT 9999 FEW009 BKN012 12/10 Q1011
                        TEMPO BKN009=
201405280650 METAR COR EGLL 280650Z 29006KT 7000 -RADZ FEW008 SCT012 BKN015
                        11/10 Q1011 TEMPO 4800 RADZ BKN009=
201405280620 METAR COR EGLL 280620Z 29007KT 8000 FEW008 SCT011 BKN012
                        11/10 Q1011 TEMPO 4800 RADZ BKN009=
201405280550 METAR COR EGLL 280550Z 29008KT 5000 -RADZ FEW006 SCT007 BKN008
                        11/10 Q1011 NOSIG=
201405280520 METAR COR EGLL 280520Z 30007KT 9999 OVC007 11/10 Q1011 NOSIG=
201405280450 METAR COR EGLL 280450Z 30007KT 9999 OVC007 11/10 Q1011 NOSIG=
201405280420 METAR COR EGLL 280420Z 30006KT 7000 -RA SCT008 BKN010 10/09
                        Q1011 TEMPO BKN008=
201405280350 METAR COR EGLL 280350Z 30005KT 6000 -RADZ BKN008 BKN010 10/09
                        Q1011 NOSIG=
201405280320 METAR COR EGLL 280320Z 29006KT 9000 -DZ OVC008 10/09 Q1011
                        REDZ NOSIG=
201405280250 METAR COR EGLL 280250Z 29006KT 9999 -DZ OVC008 10/09 Q1012
                        REDZ NOSIG=
201405280220 METAR EGLL 280220Z AUTO 29005KT 9999 -DZ BKN009 10/09 Q1012=
201405280150 METAR COR EGLL 280150Z 30006KT 9999 -DZ BKN008 10/08 Q1012
                        REDZ NOSIG=
201405280120 METAR EGLL 280120Z AUTO 30005KT 9999 -DZ OVC008 10/09 Q1013
                        REDZ=
201405280050 METAR EGLL 280050Z AUTO 30005KT 9999 DZ BKN010 10/08 Q1013=
201405280020 METAR EGLL 280020Z AUTO 30006KT 9000 -RA OVC010 10/08 Q1013
                        RERA=
201405272350 METAR COR EGLL 272350Z 30007KT 9999 -RADZ BKN010 10/08 Q1013
                        NOSIG=
201405272320 METAR COR EGLL 272320Z 31005KT 280V340 9999 -RADZ OVC010
                        10/08 Q1014 REDZ NOSIG=
201405272250 METAR COR EGLL 272250Z 33006KT 290V010 9999 DZ OVC011 10/08
                        Q1014 NOSIG=
201405272220 METAR COR EGLL 272220Z 34004KT 290V020 9999 -RA BKN010 11/09
                        Q1014 NOSIG=
201405272150 METAR COR EGLL 272150Z 35006KT 300V040 9999 -RADZ BKN010
                        11/09 Q1014 NOSIG=
201405272120 METAR COR EGLL 272120Z 34005KT 300V020 9999 -RADZ FEW007
                        BKN012 11/09 Q1014 NOSIG=
201405272050 METAR COR EGLL 272050Z 35005KT 280V030 9999 5000SE -RADZ
                        FEW006 BKN012 11/10 Q1014 RERA REDZ
                        TEMP0 RADZ=
201405272020 METAR COR EGLL 272020Z 36007KT 3000 RADZ FEW004 BKN007 11/10
                        Q1014 RERA REDZ NOSIG=
201405271950 METAR COR EGLL 271950Z 35007KT 310V030 3200 RADZ FEW005 BKN007
                        12/10 Q1014 RERA REDZ NOSIG=
201405271920 METAR COR EGLL 271920Z 35007KT 310V020 5000 RADZ FEW006 BKN008
                        12/11 Q1014 RERA REDZ NOSIG=
201405271850 METAR COR EGLL 271850Z 33007KT 290V020 5000 RADZ FEW006 SCT008
                        BKN011 13/11 Q1013 RERA REDZ TEMPO
                        BKN008=
201405271820 METAR COR EGLL 271820Z 33007KT 300V360 5000 RADZ FEW005 SCT008
                        BKN010 13/12 Q1013 RERA REDZ TEMPO
                        BKN008=
201405271750 METAR COR EGLL 271750Z 31006KT 4000 RADZ FEW005 SCT008 BKN012
                        13/11 Q1013 RERA REDZ NOSIG=
201405271720 METAR COR EGLL 271720Z 30006KT 7000 -RADZ FEW006 BKN008 13/11
                        Q1013 NOSIG=
201405271650 METAR COR EGLL 271650Z 30007KT 8000 -RA FEW009 BKN011 13/11
                        Q1014 NOSIG=
201405271620 METAR EGLL 271620Z 31007KT 9999 -RA BKN013 14/11 Q1014=
201405271550 METAR COR EGLL 271550Z 31008KT 9999 BKN014 13/10 Q1014 TEMPO
                        BKN015=
201405271520 METAR COR EGLL 271520Z 31008KT 9999 BKN013 13/10 Q1014 TEMPO
                        BKN015=
201405271450 METAR COR EGLL 271450Z 32008KT 9999 BKN012 13/11 Q1014 NOSIG=
201405271420 METAR COR EGLL 271420Z 32009KT 300V010 9999 BKN012 13/10
                        Q1014 NOSIG=
201405271350 METAR COR EGLL 271350Z 33005KT 290V010 9999 BKN014 13/11
                        Q1014 TEMPO BKN015=
201405271320 METAR COR EGLL 271320Z 33006KT 9999 -RADZ BKN014 13/11 Q1015
                        TEMPO BKN015=
201405271250 METAR COR EGLL 271250Z 32006KT 300V010 9999 BKN015 13/10
                        Q1015 TEMPO BKN014=
201405271220 METAR EGLL 271220Z 32007KT 9999 BKN014 13/10 Q1015=
201405271150 METAR COR EGLL 271150Z 32008KT 290V350 9999 -RA BKN014 13/10
                        Q1015 TEMPO BKN015=
201405271120 METAR COR EGLL 271120Z 34007KT 300V020 9999 -RA BKN018 13/10
                        Q1015 NOSIG=
201405271050 METAR COR EGLL 271050Z 33008KT 300V020 9999 BKN016 13/10
                        Q1015 NOSIG=
201405271020 METAR COR EGLL 271020Z 34007KT 9999 BKN016 14/10 Q1015 NOSIG=
201405270950 METAR COR EGLL 270950Z 34007KT 290V020 9999 BKN015 13/10
                        Q1015 NOSIG=
201405270920 METAR COR EGLL 270920Z 35008KT 9999 SCT016 BKN044 13/10 Q1015
                        TEMPO BKN012=
201405270850 METAR COR EGLL 270850Z 34008KT 310V020 9999 SCT015 BKN044
                        13/11 Q1015 TEMPO BKN012=
201405270820 METAR COR EGLL 270820Z 35008KT 320V030 9999 BKN013 13/11
                        Q1014 TEMPO SCT013=
201405270750 METAR COR EGLL 270750Z 34005KT 310V020 9999 SCT011 BKN020
                        13/11 Q1014 NOSIG=
201405270720 METAR COR EGLL 270720Z 32008KT 280V360 9999 FEW013 13/11
                        Q1014 NOSIG=
201405270650 METAR COR EGLL 270650Z 33007KT 280V010 9999 FEW009 SCT039
                        12/11 Q1014 NOSIG=
201405270620 METAR COR EGLL 270620Z 35005KT 300V020 7000 -DZRA BKN008
                        12/11 Q1015 NOSIG=
201405270550 METAR COR EGLL 270550Z 33005KT 290V360 8000 BKN009 12/10
                        Q1014 NOSIG=
201405270520 METAR COR EGLL 270520Z 31005KT 6000 FEW012 12/10 Q1014 NOSIG=
201405270450 METAR COR EGLL 270450Z 31005KT 5000 -DZ SCT012 SCT030 11/10
                        Q1014 TEMPO BKN012=
201405270420 METAR COR EGLL 270420Z 30006KT 5000 BR SCT030 11/10 Q1014
                        NOSIG=
201405270350 METAR COR EGLL 270350Z 29007KT 4400 BR NSC 11/10 Q1014 BECMG
                        6000 NSW=
201405270320 METAR COR EGLL 270320Z 28006KT 4700 HZ BKN005 11/10 Q1015
                        BECMG 6000 NSW SCT008=
201405270250 METAR COR EGLL 270250Z 29005KT 6000 NSC 11/10 Q1015 NOSIG=
201405270220 METAR COR EGLL 270220Z 31005KT 7000 SCT013 11/10 Q1015 TEMPO
                        BKN012=
201405270150 METAR COR EGLL 270150Z 32004KT 8000 BKN013 12/10 Q1015 NOSIG=
201405270120 METAR EGLL 270120Z AUTO 31004KT 9999 BKN014/// //////TCU
                        12/10 Q1015=
201405270050 METAR EGLL 270050Z AUTO 30005KT 9999 OVC016/// //////CB 12/10
                        Q1015=
201405270020 METAR EGLL 270020Z AUTO 29005KT 9999 OVC017/// //////CB 12/10
                        Q1016=
201405262350 METAR COR EGLL 262350Z 29005KT 9999 BKN018 12/10 Q1016 NOSIG=
201405262320 METAR COR EGLL 262320Z 30004KT 9999 FEW020 SCT048 12/10 Q1016
                        NOSIG=
201405262250 METAR COR EGLL 262250Z 29005KT 270V330 9999 SCT042 SCT048
                        12/11 Q1016 NOSIG=
201405262220 METAR COR EGLL 262220Z 31003KT 9999 SCT045 12/11 Q1016 NOSIG=
201405262150 METAR COR EGLL 262150Z 30005KT 9999 -RA FEW040 SCT045 12/11
                        Q1017 NOSIG=
201405262120 METAR COR EGLL 262120Z VRB03KT 9999 -RA FEW042 BKN046 12/11
                        Q1017 NOSIG=
201405262050 METAR COR EGLL 262050Z 32005KT 300V010 9999 -RA NSC 12/11
                        Q1017 NOSIG=
201405262020 METAR COR EGLL 262020Z 33005KT 300V360 9999 -RA FEW045 12/11
                        Q1017 NOSIG=
201405261950 METAR COR EGLL 261950Z 34005KT 290V030 9999 -SHRA FEW040
                        12/11 Q1017 NOSIG=
201405261920 METAR COR EGLL 261920Z 34005KT 9000 -SHRA FEW012 SCT045 12/11
                        Q1017 NOSIG=
201405261850 METAR COR EGLL 261850Z 34005KT 310V020 9000 -SHRA FEW012
                        SCT043 12/11 Q1017 NOSIG=
201405261820 METAR COR EGLL 261820Z 35005KT 310V030 8000 -SHRA SCT040
                        12/11 Q1017 RESHRA NOSIG=
201405261750 METAR COR EGLL 261750Z 33006KT 290V030 7000 SHRA BKN040 12/11
                        Q1017 TEMPO NSW=
201405261720 METAR COR EGLL 261720Z 33005KT 290V020 9000 -SHRA FEW012
                        SCT040 12/11 Q1017 NOSIG=
201405261650 METAR COR EGLL 261650Z 33006KT 300V010 9999 -SHRA SCT040
                        12/11 Q1017 TEMPO SHRA=
201405261620 METAR COR EGLL 261620Z 34005KT 310V030 8000 -SHRA FEW012
                        BKN039 13/11 Q1017 RESHRA TEMPO SHRA=
201405261550 METAR COR EGLL 261550Z 33005KT 300V360 9999 -SHRA FEW012
                        BKN045 13/11 Q1017 NOSIG=
201405261520 METAR COR EGLL 261520Z 35006KT 320V040 9999 -SHRA SCT032
                        BKN044 13/11 Q1018 NOSIG=
201405261450 METAR COR EGLL 261450Z 33006KT 9999 -SHRA SCT034 BKN042 12/11
                        Q1018 TEMPO SHRA=
201405261420 METAR COR EGLL 261420Z 32007KT 9999 -SHRA BKN034 12/10 Q1018
                        TEMPO SHRA=
201405261350 METAR COR EGLL 261350Z 33005KT 300V020 9999 -SHRA FEW020
                        BKN034 12/10 Q1018 TEMPO SHRA=
201405261320 METAR COR EGLL 261320Z 33006KT 290V360 9999 -SHRA FEW023
                        SCT040 12/10 Q1018 TEMPO SHRA=
201405261250 METAR COR EGLL 261250Z 36005KT 9999 -SHRA FEW023 12/10 Q1018
                        RESHRA TEMPO SHRA=
201405261220 METAR COR EGLL 261220Z 36006KT 320V020 9999 SHRA FEW034 12/10
                        Q1019 TEMPO NSW=
201405261150 METAR COR EGLL 261150Z 35007KT 9999 -SHRA FEW036 12/10 Q1019
                        NOSIG=
201405261120 METAR COR EGLL 261120Z 35005KT 320V040 9999 -SHRA FEW035
                        12/10 Q1019 NOSIG=
201405261050 METAR COR EGLL 261050Z 01005KT 340V050 9999 -SHRA FEW036
                        12/10 Q1019 NOSIG=
201405261020 METAR COR EGLL 261020Z 35004KT 9999 -SHRA FEW036 12/09 Q1019
                        NOSIG=
201405260950 METAR COR EGLL 260950Z 36004KT 330V030 9999 -SHRA SCT044
                        12/09 Q1019 NOSIG=
201405260920 METAR COR EGLL 260920Z 32004KT 9999 -SHRA SCT040 12/09 Q1020
                        NOSIG=
201405260850 METAR COR EGLL 260850Z VRB02KT 9999 -SHRA SCT040 12/09 Q1020
                        NOSIG=
201405260820 METAR COR EGLL 260820Z 36004KT 330V040 CAVOK 12/09 Q1020
                        NOSIG=
201405260750 METAR COR EGLL 260750Z 02004KT 350V060 CAVOK 12/09 Q1020
                        TEMPO SHRA=
201405260720 METAR COR EGLL 260720Z 33003KT 9999 -SHRA FEW049 FEW069TCU
                        11/09 Q1020 TEMPO SHRA=
201405260650 METAR EGLL 260650Z VRB03KT 9999 -SHRA FEW041 SCT049 FEW076TCU
                        11/09 Q1020 RESHRA=
201405260620 METAR COR EGLL 260620Z 33004KT 8000 SHRA FEW032 SCT044 FEW064TCU
                        11/09 Q1020 NOSIG=
201405260550 METAR COR EGLL 260550Z VRB03KT 6000 SHRA FEW035 SCT045 FEW063TCU
                        11/08 Q1020 NOSIG=
201405260520 METAR COR EGLL 260520Z 00000KT 9999 -SHRA FEW040 FEW070TCU
                        11/09 Q1020 TEMPO SHRA=
201405260450 METAR COR EGLL 260450Z VRB02KT 9999 -SHRA FEW080TCU 11/08
                        Q1020 TEMPO SHRA=
201405260420 METAR COR EGLL 260420Z 00000KT 9999 -RA FEW070TCU 10/08 Q1020
                        TEMPO SHRA=
201405260350 METAR COR EGLL 260350Z 09002KT 9999 -RA NSC 10/08 Q1020 TEMPO
                        SHRA=
201405260320 METAR COR EGLL 260320Z 09003KT 9999 NSC 10/07 Q1020 TEMPO
                        SHRA=
201405260250 METAR COR EGLL 260250Z 10002KT CAVOK 10/07 Q1020 TEMPO SHRA=
201405260220 METAR COR EGLL 260220Z 36002KT CAVOK 10/07 Q1020 TEMPO SHRA=
201405260150 METAR COR EGLL 260150Z 00000KT CAVOK 09/06 Q1019 NOSIG=
201405260120 METAR EGLL 260120Z AUTO VRB02KT 9999 NCD 10/06 Q1020=
201405260050 METAR EGLL 260050Z AUTO 00000KT 9999 NCD 10/06 Q1020=
201405260020 METAR EGLL 260020Z AUTO 18003KT 9999 NCD 10/06 Q1020=
201405252350 METAR COR EGLL 252350Z 16002KT CAVOK 10/06 Q1020 NOSIG=
201405252320 METAR COR EGLL 252320Z VRB03KT CAVOK 11/06 Q1020 NOSIG=
201405252250 METAR COR EGLL 252250Z VRB03KT CAVOK 11/06 Q1020 NOSIG=
201405252220 METAR COR EGLL 252220Z 17004KT 150V260 CAVOK 12/06 Q1020
                        NOSIG=
201405252150 METAR COR EGLL 252150Z 19006KT 160V250 CAVOK 12/06 Q1020
                        NOSIG=
201405252120 METAR COR EGLL 252120Z 22006KT 170V260 CAVOK 13/05 Q1020
                        NOSIG=
201405252050 METAR COR EGLL 252050Z 22005KT 180V260 CAVOK 12/05 Q1019
                        NOSIG=
201405252020 METAR COR EGLL 252020Z 22006KT 200V260 CAVOK 14/05 Q1019
                        NOSIG=
201405251950 METAR COR EGLL 251950Z 21008KT 150V250 CAVOK 14/04 Q1019
                        NOSIG=
201405251920 METAR COR EGLL 251920Z 19009KT 160V250 CAVOK 15/05 Q1019
                        NOSIG=
201405251850 METAR COR EGLL 251850Z 20010KT 160V230 CAVOK 15/05 Q1019
                        NOSIG=
201405251820 METAR COR EGLL 251820Z 21010KT 160V250 CAVOK 16/05 Q1018
                        NOSIG=
201405251750 METAR COR EGLL 251750Z 20011KT 160V250 CAVOK 16/05 Q1018
                        NOSIG=
201405251720 METAR COR EGLL 251720Z 21011KT CAVOK 17/05 Q1018 NOSIG=
201405251650 METAR COR EGLL 251650Z 21011KT 170V240 9999 FEW047 16/05
                        Q1018 NOSIG=
201405251620 METAR COR EGLL 251620Z 20012KT 9999 FEW047 16/05 Q1018 NOSIG=
201405251550 METAR COR EGLL 251550Z 19012G22KT 160V230 9999 FEW049 17/05
                        Q1018 NOSIG=
201405251520 METAR COR EGLL 251520Z 19013KT 160V240 CAVOK 17/05 Q1018
                        NOSIG=
201405251450 METAR COR EGLL 251450Z 20012KT 170V240 CAVOK 17/04 Q1018
                        NOSIG=
201405251420 METAR COR EGLL 251420Z 20012KT 170V240 CAVOK 18/04 Q1018
                        NOSIG=
201405251350 METAR COR EGLL 251350Z 19013KT 170V240 9999 FEW048 17/05
                        Q1018 NOSIG=
201405251320 METAR COR EGLL 251320Z 19012KT 160V230 9999 FEW045 17/05
                        Q1018 NOSIG=
201405251250 METAR COR EGLL 251250Z 19015KT 160V220 9999 FEW048 17/05
                        Q1017 NOSIG=
201405251220 METAR COR EGLL 251220Z 19014KT 160V240 9999 FEW048 17/05
                        Q1017 NOSIG=
201405251150 METAR COR EGLL 251150Z 19015KT 160V220 9999 FEW048 17/05
                        Q1017 NOSIG=
201405251120 METAR COR EGLL 251120Z 22013KT 180V240 9999 SCT044 17/05
                        Q1017 NOSIG=
201405251050 METAR COR EGLL 251050Z 19013KT 9999 SCT042 17/06 Q1017 NOSIG=
201405251020 METAR COR EGLL 251020Z 20013KT 9999 SCT045 16/06 Q1017 NOSIG=
201405250950 METAR COR EGLL 250950Z 20013KT 9999 FEW040 16/07 Q1017 NOSIG=
201405250920 METAR COR EGLL 250920Z 20014G24KT 9999 SCT040 16/06 Q1017
                        NOSIG=
201405250850 METAR COR EGLL 250850Z 21011G22KT 9999 FEW030 15/07 Q1017
                        NOSIG=
201405250820 METAR COR EGLL 250820Z 21010KT 180V250 9999 SCT027 15/08
                        Q1017 NOSIG=
201405250750 METAR COR EGLL 250750Z 20010KT 170V240 9999 FEW024 14/08
                        Q1016 NOSIG=
201405250720 METAR COR EGLL 250720Z 20012KT 9999 FEW018 13/08 Q1016 NOSIG=
201405250650 METAR COR EGLL 250650Z 20009KT 170V240 9999 FEW020 13/09
                        Q1016 NOSIG=
201405250620 METAR COR EGLL 250620Z 19009KT 150V220 9999 FEW020 12/09
                        Q1016 NOSIG=
201405250550 METAR COR EGLL 250550Z 17007KT 9999 FEW020 11/09 Q1016 NOSIG=
201405250520 METAR COR EGLL 250520Z 17006KT 140V250 CAVOK 10/08 Q1015
                        NOSIG=
201405250450 METAR COR EGLL 250450Z 17005KT CAVOK 10/08 Q1015 NOSIG=
201405250420 METAR COR EGLL 250420Z 17007KT CAVOK 09/08 Q1015 NOSIG=
201405250350 METAR COR EGLL 250350Z 17008KT CAVOK 10/08 Q1015 NOSIG=
201405250320 METAR COR EGLL 250320Z 18009KT CAVOK 10/08 Q1014 NOSIG=
201405250250 METAR COR EGLL 250250Z 19008KT CAVOK 10/08 Q1014 NOSIG=
201405250220 METAR COR EGLL 250220Z 17006KT 9999 FEW024 10/08 Q1014 NOSIG=
201405250150 METAR COR EGLL 250150Z 17006KT 9999 SCT021 10/08 Q1014 NOSIG=
201405250120 METAR EGLL 250120Z AUTO 16007KT 9999 FEW019 11/09 Q1014=
201405250050 METAR EGLL 250050Z AUTO 17007KT 9999 SCT046 11/09 Q1013=
201405250020 METAR COR EGLL 250020Z AUTO 18007KT 9999 FEW023 11/09 Q1013=
201405242350 METAR COR EGLL 242350Z 18007KT 9999 FEW013 11/09 Q1013 NOSIG=
201405242320 METAR COR EGLL 242320Z 18008KT CAVOK 11/09 Q1013 NOSIG=
201405242250 METAR COR EGLL 242250Z 17007KT 9999 FEW019 11/09 Q1013 NOSIG=
201405242220 METAR COR EGLL 242220Z 17008KT 140V220 9999 FEW019 11/09
                        Q1013 NOSIG=
201405242150 METAR COR EGLL 242150Z 18008KT 130V230 9999 SCT019 SCT033
                        11/08 Q1013 NOSIG=
201405242120 METAR COR EGLL 242120Z 18009KT 140V230 9999 -SHRA FEW032
                        BKN044 11/08 Q1013 NOSIG=
201405242050 METAR COR EGLL 242050Z 18011KT 150V240 9999 -DZ FEW049 11/08
                        Q1012 TEMPO SHRA=
201405242020 METAR COR EGLL 242020Z 19011KT 160V240 9999 FEW049 12/08
                        Q1012 TEMPO SHRA=
201405241950 METAR COR EGLL 241950Z 18011KT 160V230 9999 FEW035 12/08
                        Q1012 TEMPO SHRA=
201405241920 METAR COR EGLL 241920Z 19011KT 160V240 9999 SCT035 12/07
                        Q1011 TEMPO SHRA=
201405241850 METAR COR EGLL 241850Z 19011KT 160V240 9999 FEW031 SCT035
                        13/07 Q1011 TEMPO SHRA=
201405241820 METAR COR EGLL 241820Z 18010KT 160V230 9999 FEW020 13/08
                        Q1010 TEMPO SHRA=
201405241750 METAR COR EGLL 241750Z 18009KT 140V230 9999 SCT024 13/08
                        Q1010 NOSIG=
201405241720 METAR COR EGLL 241720Z 18008KT 130V250 9999 SCT041CB 13/09
                        Q1010 NOSIG=
201405241650 METAR COR EGLL 241650Z 18012KT 160V230 9999 VCSH SCT032CB
                        13/08 Q1010 NOSIG=
201405241620 METAR COR EGLL 241620Z 18011KT 160V230 9999 VCSH SCT030CB
                        SCT039 14/07 Q1010 TEMPO SHRA=
201405241550 METAR COR EGLL 241550Z 15009KT 9999 SCT029 14/08 Q1009 NOSIG=
201405241520 METAR COR EGLL 241520Z 16006KT 9999 SCT020 14/08 Q1009 NOSIG=
201405241450 METAR COR EGLL 241450Z 14005KT 110V170 9999 FEW024 SCT036
                        13/08 Q1009 RESHRA NOSIG=
201405241420 METAR COR EGLL 241420Z 13006KT 030V170 8000 SHRA SCT029 SCT040
                        10/08 Q1010 BECMG NSW=
201405241350 METAR COR EGLL 241350Z 17014KT 9999 -SHRA FEW029 SCT038 BKN048
                        12/08 Q1010 TEMPO SHRA=
201405241320 METAR COR EGLL 241320Z 19011KT 9999 -RA FEW033 SCT037 14/08
                        Q1009 TEMPO SHRA=
201405241250 METAR COR EGLL 241250Z 19009KT 9999 FEW032 SCT038 16/08 Q1009
                        NOSIG=
201405241220 METAR COR EGLL 241220Z 18012KT 140V210 9999 FEW029 SCT036
                        15/07 Q1009 NOSIG=
201405241150 METAR COR EGLL 241150Z 18009KT 150V220 9999 FEW028 16/09
                        Q1009 NOSIG=
201405241120 METAR COR EGLL 241120Z 18010KT 9999 FEW028 SCT044 13/09 Q1009
                        NOSIG=
201405241050 METAR COR EGLL 241050Z 19012KT 150V210 9999 -SHRA SCT026
                        SCT037 14/09 Q1009 NOSIG=
201405241020 METAR COR EGLL 241020Z 20012KT 9999 FEW024 SCT032 14/09 Q1009
                        NOSIG=
201405240950 METAR COR EGLL 240950Z 18010KT 150V210 9999 FEW024 SCT037
                        14/10 Q1009 NOSIG=
201405240920 METAR COR EGLL 240920Z 17009KT 9999 SCT015 14/10 Q1008 NOSIG=
201405240850 METAR COR EGLL 240850Z 15006KT 9999 -RA FEW010 SCT040 13/11
                        Q1008 NOSIG=
201405240820 METAR COR EGLL 240820Z 15007KT 9000 -RA FEW008 BKN013 12/11
                        Q1008 NOSIG=
201405240750 METAR COR EGLL 240750Z 16008KT 9000 -RA FEW005 SCT010 12/11
                        Q1008 TEMPO BKN010=
201405240720 METAR COR EGLL 240720Z 13006KT 7000 -RA FEW005 BKN009 12/11
                        Q1008 NOSIG=
201405240650 METAR COR EGLL 240650Z 12005KT 7000 -RA FEW005 SCT008 BKN018
                        12/11 Q1008 TEMPO RA BKN008=
201405240620 METAR COR EGLL 240620Z 13004KT 7000 -RA FEW010 SCT040 12/11
                        Q1008 RERA TEMPO RA=
201405240550 METAR COR EGLL 240550Z 11004KT 6000 RA FEW020 SCT026 12/11
                        Q1008 NOSIG=
201405240520 METAR COR EGLL 240520Z 12004KT 7000 -RA FEW013 SCT033 12/11
                        Q1008 TEMPO 4500 +RA BKN010=
201405240450 METAR COR EGLL 240450Z 10005KT 8000 -RA SCT019 12/10 Q1008
                        RERA TEMPO 4800 RA BKN014=
201405240420 METAR COR EGLL 240420Z 12004KT 7000 RA SCT034 BKN043 12/10
                        Q1008 TEMPO BKN014=
201405240350 METAR COR EGLL 240350Z 10004KT 9999 -RA BKN046 12/10 Q1008
                        TEMPO RA BKN014=
201405240320 METAR COR EGLL 240320Z 10004KT 9999 -RA NSC 12/10 Q1008 TEMPO
                        RA=
201405240250 METAR COR EGLL 240250Z 10005KT CAVOK 12/09 Q1008 NOSIG=
201405240220 METAR COR EGLL 240220Z 09006KT CAVOK 12/09 Q1008 TEMPO RA=
201405240150 METAR COR EGLL 240150Z 09005KT CAVOK 12/09 Q1008 NOSIG=
201405240120 METAR EGLL 240120Z AUTO 09006KT 9999 NCD 12/09 Q1008=
201405240050 METAR EGLL 240050Z AUTO 09005KT 9999 NCD 12/09 Q1008=
201405240020 METAR EGLL 240020Z AUTO 10004KT 9999 NCD 12/09 Q1008=
201405232350 METAR COR EGLL 232350Z 12006KT CAVOK 12/09 Q1008 NOSIG=
201405232320 METAR COR EGLL 232320Z 13008KT CAVOK 13/09 Q1008 NOSIG=
201405232250 METAR COR EGLL 232250Z 13007KT CAVOK 13/08 Q1008 NOSIG=
201405232220 METAR COR EGLL 232220Z 14006KT CAVOK 13/08 Q1008 NOSIG=
201405232150 METAR COR EGLL 232150Z 14006KT 9999 FEW048 13/08 Q1008 NOSIG=
201405232120 METAR COR EGLL 232120Z 11005KT CAVOK 13/08 Q1008 NOSIG=
201405232050 METAR COR EGLL 232050Z 12004KT CAVOK 12/08 Q1008 NOSIG=
201405232020 METAR COR EGLL 232020Z 14004KT CAVOK 13/08 Q1008 NOSIG=
201405231950 METAR COR EGLL 231950Z 15004KT CAVOK 14/08 Q1007 NOSIG=
201405231920 METAR COR EGLL 231920Z 17005KT 9999 FEW047 15/08 Q1007 NOSIG=
201405231850 METAR EGLL 231850Z 18009KT 9999 FEW044 15/07 Q1007=
201405231820 METAR COR EGLL 231820Z 16010KT 9999 FEW035 SCT042 15/08 Q1007
                        NOSIG=
201405231750 METAR COR EGLL 231750Z 17011KT 9999 FEW041 16/08 Q1007 NOSIG=
201405231720 METAR COR EGLL 231720Z 17011KT 9999 FEW040 16/09 Q1006 NOSIG=
201405231650 METAR COR EGLL 231650Z 16010KT 9999 FEW041 16/09 Q1006 NOSIG=
201405231620 METAR COR EGLL 231620Z 15010KT 130V190 9999 FEW041 14/10
                        Q1006 NOSIG=
201405231550 METAR COR EGLL 231550Z 15009KT 9999 SCT046 14/10 Q1007 NOSIG=
201405231520 METAR COR EGLL 231520Z 16010KT 9999 SCT042 SCT049 12/10 Q1007
                        NOSIG=
201405231450 METAR COR EGLL 231450Z 17009KT 9999 -SHRA SCT040TCU 11/09
                        Q1007 RESHRA NOSIG=
201405231420 METAR COR EGLL 231420Z 18009KT 9999 SHRA BKN043TCU 12/09
                        Q1007 BECMG NSW=
201405231350 METAR COR EGLL 231350Z 17011KT 9999 -SHRA BKN046 12/08 Q1006
                        TEMPO SHRA=
201405231320 METAR COR EGLL 231320Z 17014KT 9999 -SHRA BKN041 12/07 Q1006
                        NOSIG=
201405231250 METAR COR EGLL 231250Z 18014KT 9999 VCSH FEW015 BKN034 12/09
                        Q1006 NOSIG=
201405231220 METAR COR EGLL 231220Z 19016KT 9000 -SHRA SCT035 SCT045 14/09
                        Q1006 NOSIG=
201405231150 METAR COR EGLL 231150Z 16017KT 9999 VCSH SCT033TCU SCT037
                        15/08 Q1005 TEMPO SHRA=
201405231120 METAR COR EGLL 231120Z 16017KT 9999 SCT035TCU SCT046 16/07
                        Q1005 TEMPO SHRA=
201405231050 METAR COR EGLL 231050Z 17017KT 9999 SCT035 16/07 Q1005 NOSIG=
201405231020 METAR COR EGLL 231020Z 17016KT 9999 SCT039 16/07 Q1005 NOSIG=
201405230950 METAR COR EGLL 230950Z 15015KT 9999 SCT043 SCT048 15/08 Q1005
                        NOSIG=
201405230920 METAR COR EGLL 230920Z 16015KT 9999 SCT027 SCT031 15/08 Q1005
                        NOSIG=
201405230850 METAR COR EGLL 230850Z 15014G24KT 9999 SCT028 BKN042 14/08
                        Q1005 NOSIG=
201405230820 METAR COR EGLL 230820Z 15013KT 9999 FEW027 SCT035 BKN040
                        14/08 Q1004 NOSIG=
201405230750 METAR EGLL 230750Z 15011KT 9999 SCT026 BKN035 13/08 Q1004=
201405230720 METAR COR EGLL 230720Z 15012KT 9999 SCT024 BKN031 13/08 Q1004
                        NOSIG=
201405230650 METAR COR EGLL 230650Z 14011KT 9999 SCT028 BKN039 13/08 Q1003
                        NOSIG=
201405230620 METAR COR EGLL 230620Z 13011KT 9999 SCT022 BKN039 12/08 Q1003
                        NOSIG=
201405230550 METAR EGLL 230550Z 13007KT 9999 FEW036 BKN040 12/07 Q1003=
201405230520 METAR COR EGLL 230520Z 17007KT 9999 SCT034 SCT037 12/07 Q1003
                        NOSIG=
201405230450 METAR COR EGLL 230450Z 16013KT 9999 FEW022 SCT025 12/07 Q1003
                        NOSIG=
201405230420 METAR COR EGLL 230420Z 13008KT 9999 FEW024 SCT046 12/08 Q1003
                        NOSIG=
201405230350 METAR COR EGLL 230350Z 16009KT 9999 FEW035 BKN044 12/08 Q1003
                        NOSIG=
201405230320 METAR COR EGLL 230320Z 15010KT 9999 BKN044 12/08 Q1003 NOSIG=
201405230250 METAR EGLL 230250Z 15009KT 9999 FEW031 BKN049 12/09 Q1003=
201405230220 METAR EGLL 230220Z 15009KT 9999 FEW045 12/08 Q1003=
201405230150 METAR COR EGLL 230150Z 15008KT 9999 SCT048 13/08 Q1003 NOSIG=
201405230120 METAR EGLL 230120Z AUTO 16009KT 9999 SCT042 13/09 Q1003=
201405230050 METAR EGLL 230050Z AUTO 16008KT 9999 FEW032 SCT037 13/10
                        Q1003=
201405230020 METAR EGLL 230020Z AUTO 15009KT 9999 SCT028 13/10 Q1003 REDZ=
201405222350 METAR COR EGLL 222350Z 14009KT 9999 FEW023 BKN030 13/10 Q1003
                        NOSIG=
201405222320 METAR COR EGLL 222320Z 15009KT 9999 FEW024 SCT034 13/10 Q1002
                        NOSIG=
201405222250 METAR COR EGLL 222250Z 12010KT 9999 FEW036 13/11 Q1002 NOSIG=
201405222220 METAR COR EGLL 222220Z 11009KT 9999 FEW034 13/11 Q1002 NOSIG=
201405222150 METAR COR EGLL 222150Z 11008KT 9999 -RA SCT041 13/10 Q1002
                        NOSIG=
201405222120 METAR COR EGLL 222120Z 13010KT 9999 -RA FEW036 SCT045 13/10
                        Q1003 TEMPO RA=
201405222050 METAR COR EGLL 222050Z 10007KT 9999 FEW048 13/10 Q1002 TEMPO
                        RA=
201405222020 METAR COR EGLL 222020Z 11006KT CAVOK 13/10 Q1002 NOSIG=
201405221950 METAR COR EGLL 221950Z 12007KT 9999 FEW045 14/10 Q1002 NOSIG=
201405221920 METAR COR EGLL 221920Z 14006KT 9999 FEW045 14/10 Q1002 TEMPO
                        SHRA=
201405221850 METAR COR EGLL 221850Z 16007KT 9999 FEW046 15/10 Q1002 RESHRA
                        NOSIG=
201405221820 METAR COR EGLL 221820Z 15010KT 9999 VCSH FEW047 16/10 Q1002
                        TEMPO SHRA=
201405221750 METAR COR EGLL 221750Z 18009KT 9999 FEW028 16/09 Q1002 NOSIG=
201405221720 METAR COR EGLL 221720Z 18011KT 9999 FEW042 17/08 Q1002 NOSIG=
201405221650 METAR COR EGLL 221650Z 19012KT 9999 FEW041 17/09 Q1002 TEMPO
                        SHRA=
201405221620 METAR COR EGLL 221620Z 18014KT 9999 SCT032 18/09 Q1002 NOSIG=
201405221550 METAR COR EGLL 221550Z 17013KT 9999 FEW031 SCT035 17/10 Q1002
                        NOSIG=
201405221520 METAR COR EGLL 221520Z 17012KT 9999 FEW028 SCT037 16/10 Q1001
                        NOSIG=
201405221450 METAR COR EGLL 221450Z 17015KT 9999 FEW022 SCT027 16/11 Q1001
                        NOSIG=
201405221420 METAR COR EGLL 221420Z 14011KT 9999 FEW035 SCT044 15/12 Q1001
                        NOSIG=
201405221350 METAR COR EGLL 221350Z 16014KT 9999 6000NE -SHRA FEW030CB
                        SCT040 13/10 Q1002 RETS RESHRA NOSIG=
201405221320 METAR COR EGLL 221320Z 18016G29KT 8000 3900SE TSRA FEW012
                        SCT027CB 15/09 Q1001 TEMPO 4000=
201405221250 METAR COR EGLL 221250Z 15015KT 110V180 9999 7000N -SHRA SCT029CB
                        SCT035 17/10 Q1001 TEMPO 4000 TSRA=
201405221220 METAR COR EGLL 221220Z 13013KT 9999 -SHRA FEW031 SCT038 17/11
                        Q1001 TEMPO 4000 TSRA=
201405221150 METAR COR EGLL 221150Z 11008KT 9999 FEW027 SCT043 18/11 Q1001
                        TEMPO 3000 TSRA=
201405221120 METAR COR EGLL 221120Z 12008KT 9999 FEW020 17/10 Q1002 TEMPO
                        SHRA=
201405221050 METAR COR EGLL 221050Z 12008KT 080V150 9999 -SHRA FEW030CB
                        16/11 Q1002 TEMPO SHRA=
201405221020 METAR COR EGLL 221020Z 14005KT 110V170 9999 FEW031 16/10
                        Q1002 TEMPO SHRA=
201405220950 METAR COR EGLL 220950Z 18006KT 140V220 9999 FEW024 16/11
                        Q1002 NOSIG=
201405220920 METAR COR EGLL 220920Z VRB08KT 9999 FEW020 17/11 Q1002 NOSIG=
201405220850 METAR EGLL 220850Z 20010KT 160V250 9999 FEW016 16/11 Q1002=
201405220820 METAR COR EGLL 220820Z 20009KT 170V240 9999 SCT013 15/12
                        Q1002 NOSIG=
201405220750 METAR COR EGLL 220750Z 20008KT 170V240 9999 SCT010 15/12
                        Q1002 NOSIG=
201405220720 METAR COR EGLL 220720Z 20010KT 180V250 9999 SCT010 14/11
                        Q1002 NOSIG=
201405220650 METAR COR EGLL 220650Z 21009KT 180V260 9999 FEW008 14/12
                        Q1002 NOSIG=
201405220620 METAR COR EGLL 220620Z 22008KT 180V250 9999 FEW008 14/12
                        Q1002 NOSIG=
201405220550 METAR COR EGLL 220550Z 21008KT 180V250 9999 FEW008 SCT010
                        13/12 Q1002 TEMPO BKN012=
201405220520 METAR COR EGLL 220520Z 21010KT 9999 SCT008 SCT010 13/11 Q1001
                        TEMPO BKN012=
201405220450 METAR COR EGLL 220450Z 21009KT 9999 FEW005 SCT010 12/11 Q1001
                        NOSIG=
201405220420 METAR COR EGLL 220420Z 22007KT 8000 SCT004 SCT006 BKN011
                        12/11 Q1000 TEMPO BKN006=
201405220350 METAR COR EGLL 220350Z 21008KT 8000 FEW003 SCT004 BKN010
                        12/11 Q1000 TEMPO BKN006=
201405220320 METAR COR EGLL 220320Z 21006KT 8000 FEW003 SCT006 BKN009
                        13/12 Q1000 BECMG SCT009 BKN011=
201405220250 METAR COR EGLL 220250Z 25005KT 7000 FEW004 BKN010 13/12 Q1000
                        TEMPO BKN009=
201405220220 METAR COR EGLL 220220Z 27006KT 6000 -RA FEW004 SCT007 BKN009
                        13/12 Q0999 RERA BECMG SCT009 BKN011=
201405220150 METAR COR EGLL 220150Z VRB02KT 4000 +RA SCT004 BKN006 13/12
                        Q1000 RERA NOSIG=
201405220120 METAR EGLL 220120Z AUTO VRB02KT 1700 +RA SCT004/// BKN010///
                        BKN014/// //////CB 13/11 Q1000=
201405220050 METAR EGLL 220050Z AUTO 08004KT 3200 RA SCT010/// SCT015///
                        BKN019/// //////TCU 13/11 Q1000 RERA
                        REDZ=
201405220020 METAR EGLL 220020Z AUTO 05006KT 010V080 9999 FEW013 SCT018
                        BKN046 13/11 Q1000=
201405212350 METAR COR EGLL 212350Z 05006KT 9999 -RA BKN021 13/11 Q1000
                        TEMPO RA BKN014=
201405212320 METAR COR EGLL 212320Z 05006KT 010V070 9999 -RA FEW020 14/10
                        Q1001 TEMPO RA BKN014=
201405212250 METAR COR EGLL 212250Z 05006KT 010V080 9999 -RA FEW020 14/10
                        Q1001 TEMPO RA BKN014=
201405212220 METAR COR EGLL 212220Z 06007KT 020V080 9999 FEW020 14/10
                        Q1002 TEMPO RA BKN014=
201405212150 METAR COR EGLL 212150Z 06008KT 020V080 9999 FEW021 14/10
                        Q1002 BECMG RA BKN014=
201405212120 METAR COR EGLL 212120Z 06008KT 9999 FEW022 15/10 Q1003 TEMPO
                        RA BKN014=
201405212050 METAR COR EGLL 212050Z 07007KT 9999 FEW020 15/10 Q1003 NOSIG=
201405212020 METAR COR EGLL 212020Z 08010KT CAVOK 15/10 Q1003 NOSIG=
201405211950 METAR COR EGLL 211950Z 06009KT 9999 FEW024 15/10 Q1004 NOSIG=
201405211920 METAR COR EGLL 211920Z 06007KT 9999 FEW024 16/10 Q1004 NOSIG=
201405211850 METAR COR EGLL 211850Z 06008KT 020V090 9999 FEW026 16/10
                        Q1004 NOSIG=
201405211820 METAR EGLL 211820Z 06007KT 9999 FEW029 16/10 Q1005=
201405211750 METAR COR EGLL 211750Z 07009KT 9999 FEW032 17/09 Q1005 NOSIG=
201405211720 METAR COR EGLL 211720Z 06009KT 9999 SCT032 18/10 Q1006 NOSIG=
201405211650 METAR COR EGLL 211650Z 07008KT 9999 FEW035 18/10 Q1006 NOSIG=
201405211620 METAR COR EGLL 211620Z 08009KT 050V110 9999 FEW040 18/10
                        Q1006 NOSIG=
201405211550 METAR COR EGLL 211550Z 08009KT 9999 FEW040 18/09 Q1007 NOSIG=
201405211520 METAR COR EGLL 211520Z 08008KT 9999 FEW040 18/09 Q1007 NOSIG=
201405211450 METAR COR EGLL 211450Z 10011KT 9999 FEW042 18/09 Q1007 NOSIG=
201405211420 METAR COR EGLL 211420Z 10009KT 070V130 9999 FEW044 19/09
                        Q1007 NOSIG=
201405211350 METAR COR EGLL 211350Z 11010KT 9999 FEW041 19/09 Q1008 NOSIG=
201405211320 METAR COR EGLL 211320Z 10008KT 060V120 9999 FEW046 19/09
                        Q1008 NOSIG=
201405211250 METAR COR EGLL 211250Z 11007KT 070V130 9999 FEW044 19/08
                        Q1009 NOSIG=
201405211220 METAR COR EGLL 211220Z 11007KT 060V150 9999 FEW048 19/08
                        Q1009 NOSIG=
201405211150 METAR COR EGLL 211150Z 07006KT 360V120 9999 FEW048 19/07
                        Q1009 NOSIG=
201405211120 METAR COR EGLL 211120Z 12007KT 9999 FEW044 18/07 Q1009 NOSIG=
201405211050 METAR COR EGLL 211050Z 08005KT 030V130 9999 FEW040 18/08
                        Q1010 NOSIG=
201405211020 METAR COR EGLL 211020Z 10005KT 010V140 9999 FEW032 18/08
                        Q1010 NOSIG=
201405210950 METAR COR EGLL 210950Z VRB02KT CAVOK 16/08 Q1010 NOSIG=
201405210920 METAR COR EGLL 210920Z VRB03KT CAVOK 16/07 Q1011 NOSIG=
201405210850 METAR COR EGLL 210850Z VRB03KT CAVOK 16/08 Q1011 NOSIG=
201405210820 METAR COR EGLL 210820Z VRB02KT CAVOK 15/07 Q1011 NOSIG=
201405210750 METAR COR EGLL 210750Z VRB02KT CAVOK 15/09 Q1011 NOSIG=
201405210720 METAR COR EGLL 210720Z VRB02KT CAVOK 14/09 Q1011 NOSIG=
201405210650 METAR COR EGLL 210650Z 00000KT CAVOK 13/10 Q1011 NOSIG=
201405210620 METAR COR EGLL 210620Z VRB02KT 8000 NSC 13/09 Q1011 NOSIG=
201405210550 METAR COR EGLL 210550Z 10002KT 6000 NSC 12/10 Q1011 NOSIG=
201405210520 METAR COR EGLL 210520Z 00000KT 8000 FEW008 10/09 Q1011 NOSIG=
201405210450 METAR COR EGLL 210450Z VRB02KT 8000 NSC 10/09 Q1011 NOSIG=
201405210420 METAR EGLL 210420Z VRB02KT 8000 NSC 09/08 Q1011=
201405210350 METAR COR EGLL 210350Z 29005KT 8000 NSC 09/08 Q1011 NOSIG=
201405210320 METAR COR EGLL 210320Z 27003KT CAVOK 10/08 Q1011 NOSIG=
201405210250 METAR COR EGLL 210250Z 25004KT CAVOK 10/09 Q1011 NOSIG=
201405210220 METAR COR EGLL 210220Z 23004KT CAVOK 11/09 Q1011 NOSIG=
201405210150 METAR COR EGLL 210150Z 20004KT CAVOK 11/09 Q1011 NOSIG=
201405210120 METAR EGLL 210120Z AUTO 21004KT 9999 NCD 12/09 Q1011=
201405210050 METAR EGLL 210050Z AUTO 19004KT 9999 NCD 12/10 Q1011=
201405210020 METAR EGLL 210020Z AUTO 22004KT 9999 NCD 12/10 Q1010=
201405202350 METAR COR EGLL 202350Z 24006KT CAVOK 13/10 Q1010 NOSIG=
201405202320 METAR COR EGLL 202320Z 23005KT CAVOK 13/10 Q1011 NOSIG=
201405202250 METAR COR EGLL 202250Z 24006KT CAVOK 13/10 Q1011 NOSIG=
201405202220 METAR EGLL 202220Z 24008KT CAVOK 13/10 Q1010=
201405202150 METAR COR EGLL 202150Z 21007KT CAVOK 14/11 Q1011 NOSIG=
201405202120 METAR COR EGLL 202120Z 22008KT CAVOK 14/11 Q1010 NOSIG=
201405202050 METAR COR EGLL 202050Z 22008KT 9999 FEW029 14/11 Q1010 NOSIG=
201405202020 METAR COR EGLL 202020Z 22008KT 9999 FEW029 15/12 Q1010 NOSIG=
201405201950 METAR COR EGLL 201950Z 22008KT 9999 FEW029 15/12 Q1010 NOSIG=
201405201920 METAR COR EGLL 201920Z 22009KT 180V250 9999 FEW019 15/12
                        Q1009 NOSIG=
201405201850 METAR COR EGLL 201850Z 21009KT 180V250 9999 FEW045 16/12
                        Q1009 NOSIG=
201405201820 METAR COR EGLL 201820Z 20009KT 170V240 9999 FEW045 16/12
                        Q1009 NOSIG=
201405201750 METAR COR EGLL 201750Z 22010KT 9999 VCSH FEW021 17/12 Q1009
                        NOSIG=
201405201720 METAR COR EGLL 201720Z 18011KT 150V230 9999 FEW023 17/12
                        Q1009 TEMPO 4800 SHRA=
201405201650 METAR COR EGLL 201650Z 19010KT 160V250 9999 FEW024 18/12
                        Q1008 TEMPO SHRA=
201405201620 METAR COR EGLL 201620Z 20012KT 170V240 9999 FEW029 18/12
                        Q1008 TEMPO SHRA=
201405201550 METAR COR EGLL 201550Z 19011KT 9999 SCT029 18/11 Q1008 TEMPO
                        SHRA=
201405201520 METAR COR EGLL 201520Z 15011KT 130V230 9999 SCT032 19/11
                        Q1008 NOSIG=
201405201450 METAR COR EGLL 201450Z 19008KT 130V240 9999 FEW035 19/11
                        Q1008 TEMPO SHRA=
201405201420 METAR COR EGLL 201420Z 18011KT 150V240 9999 SCT036 19/10
                        Q1008 NOSIG=
201405201350 METAR COR EGLL 201350Z 18014KT 9999 SCT037 SCT041 19/10 Q1008
                        TEMPO SHRA=
201405201320 METAR COR EGLL 201320Z 17011KT 140V210 9999 SCT033 SCT042
                        20/11 Q1008 TEMPO SHRA=
201405201250 METAR COR EGLL 201250Z 20010KT 9999 SCT033 20/11 Q1008 TEMPO
                        SHRA=
201405201220 METAR COR EGLL 201220Z 19012KT 150V220 9999 SCT033 20/11
                        Q1008 TEMPO SHRA=
201405201150 METAR COR EGLL 201150Z 17013KT 140V220 9999 SCT031 20/11
                        Q1007 TEMPO SHRA=
201405201120 METAR COR EGLL 201120Z VRB10KT 9999 FEW029 19/12 Q1007 TEMPO
                        SHRA=
201405201050 METAR COR EGLL 201050Z 16010KT 110V180 9999 FEW024 18/12
                        Q1007 NOSIG=
201405201020 METAR COR EGLL 201020Z 15007KT 110V190 9999 FEW024 17/12
                        Q1007 NOSIG=
201405200950 METAR COR EGLL 200950Z 20010KT 170V240 9999 SCT023 18/12
                        Q1007 NOSIG=
201405200920 METAR COR EGLL 200920Z 18012KT 120V210 9999 SCT024 17/11
                        Q1006 NOSIG=
201405200850 METAR COR EGLL 200850Z 16011G21KT 130V210 9999 FEW030 18/12
                        Q1006 NOSIG=
201405200820 METAR COR EGLL 200820Z 17009KT 130V220 9999 FEW030 18/12
                        Q1006 NOSIG=
201405200750 METAR COR EGLL 200750Z 15009KT CAVOK 18/12 Q1006 NOSIG=
201405200720 METAR COR EGLL 200720Z 18009KT 150V250 CAVOK 16/12 Q1006
                        NOSIG=
201405200650 METAR COR EGLL 200650Z 18011G21KT 140V220 CAVOK 16/11 Q1005
                        NOSIG=
201405200620 METAR COR EGLL 200620Z 19011KT 150V220 CAVOK 17/11 Q1005
                        NOSIG=
201405200550 METAR COR EGLL 200550Z 18010KT 150V220 CAVOK 17/11 Q1005
                        NOSIG=
201405200520 METAR COR EGLL 200520Z 15005KT 100V190 9999 FEW035 16/12
                        Q1004 NOSIG=
201405200450 METAR COR EGLL 200450Z 17004KT 120V210 CAVOK 16/12 Q1004
                        NOSIG=
201405200420 METAR COR EGLL 200420Z VRB03KT 9999 FEW035 16/12 Q1003 TEMPO
                        SHRA=
201405200350 METAR COR EGLL 200350Z VRB03KT 9999 FEW035 16/11 Q1002 TEMPO
                        SHRA=
201405200320 METAR COR EGLL 200320Z 01005KT CAVOK 16/11 Q1002 NOSIG=
201405200250 METAR COR EGLL 200250Z 22005KT 190V250 CAVOK 16/11 Q1004
                        NOSIG=
201405200220 METAR EGLL 200220Z AUTO 19005KT 9999 NCD 16/11 Q1004=
201405200150 METAR COR EGLL 200150Z 14004KT 090V160 CAVOK 15/12 Q1004
                        NOSIG=
201405200120 METAR EGLL 200120Z AUTO VRB03KT 9999 NCD 16/12 Q1004=
201405200050 METAR EGLL 200050Z AUTO 11004KT 060V200 9000 NCD 16/12 Q1003=
201405200020 METAR EGLL 200020Z AUTO 07003KT 9999 NCD 15/11 Q1003=
201405192350 METAR COR EGLL 192350Z 08005KT CAVOK 16/11 Q1003 NOSIG=
201405192320 METAR COR EGLL 192320Z 07005KT CAVOK 17/12 Q1003 NOSIG=
201405192250 METAR COR EGLL 192250Z 07005KT CAVOK 17/12 Q1003 NOSIG=
201405192220 METAR COR EGLL 192220Z 08007KT CAVOK 17/12 Q1003 NOSIG=
201405192150 METAR COR EGLL 192150Z 09009KT CAVOK 18/12 Q1003 NOSIG=
201405192120 METAR COR EGLL 192120Z 08007KT CAVOK 19/11 Q1003 NOSIG=
201405192050 METAR COR EGLL 192050Z 09007KT CAVOK 19/12 Q1003 NOSIG=
201405192020 METAR COR EGLL 192020Z 08008KT CAVOK 20/12 Q1003 NOSIG=
201405191950 METAR COR EGLL 191950Z 09009KT CAVOK 21/10 Q1003 NOSIG=
201405191920 METAR COR EGLL 191920Z 12011KT CAVOK 22/10 Q1002 NOSIG=
201405191850 METAR COR EGLL 191850Z 12011KT CAVOK 23/10 Q1002 NOSIG=
201405191820 METAR COR EGLL 191820Z 13010KT CAVOK 23/09 Q1002 NOSIG=
201405191750 METAR COR EGLL 191750Z 13012KT CAVOK 23/09 Q1002 NOSIG=
201405191720 METAR COR EGLL 191720Z 13013KT 100V160 CAVOK 24/09 Q1002
                        NOSIG=
201405191650 METAR COR EGLL 191650Z 12011KT CAVOK 25/09 Q1002 NOSIG=
201405191620 METAR COR EGLL 191620Z 12011KT CAVOK 24/08 Q1002 NOSIG=
201405191550 METAR COR EGLL 191550Z 12012KT CAVOK 25/08 Q1002 NOSIG=
201405191520 METAR COR EGLL 191520Z 13013KT CAVOK 24/09 Q1002 NOSIG=
201405191450 METAR COR EGLL 191450Z 15013KT 120V180 CAVOK 25/08 Q1002
                        NOSIG=
201405191420 METAR COR EGLL 191420Z 14010KT CAVOK 24/08 Q1002 NOSIG=
201405191350 METAR COR EGLL 191350Z 12012KT CAVOK 25/08 Q1002 NOSIG=
201405191320 METAR COR EGLL 191320Z 13012KT CAVOK 25/08 Q1002 NOSIG=
201405191250 METAR COR EGLL 191250Z 12013KT 090V160 CAVOK 25/09 Q1002
                        NOSIG=
201405191220 METAR COR EGLL 191220Z 13012KT CAVOK 24/09 Q1003 NOSIG=
201405191150 METAR COR EGLL 191150Z 15012KT CAVOK 24/09 Q1003 NOSIG=
201405191120 METAR COR EGLL 191120Z 14013KT CAVOK 24/10 Q1003 NOSIG=
201405191050 METAR EGLL 191050Z 15012KT 110V180 CAVOK 24/09 Q1003=
201405191020 METAR COR EGLL 191020Z 15012KT CAVOK 24/10 Q1003 NOSIG=
201405190950 METAR COR EGLL 190950Z 14013KT CAVOK 23/10 Q1003 NOSIG=
201405190920 METAR COR EGLL 190920Z 14013KT CAVOK 23/10 Q1003 NOSIG=
201405190850 METAR EGLL 190850Z 13013KT CAVOK 22/11 Q1003=
201405190820 METAR COR EGLL 190820Z 12009KT CAVOK 22/11 Q1004 NOSIG=
201405190750 METAR COR EGLL 190750Z 12007KT CAVOK 20/12 Q1004 NOSIG=
201405190720 METAR COR EGLL 190720Z 11007KT CAVOK 19/12 Q1004 NOSIG=
201405190650 METAR COR EGLL 190650Z 10006KT 080V170 9000 NSC 18/12 Q1004
                        NOSIG=
201405190620 METAR COR EGLL 190620Z 10005KT 6000 NSC 16/12 Q1004 NOSIG=
201405190550 METAR COR EGLL 190550Z 09006KT 5000 HZ NSC 15/12 Q1004 BECMG
                        NSW=
201405190520 METAR COR EGLL 190520Z 07003KT 4000 HZ NSC 13/11 Q1004 BECMG
                        6000=
201405190450 METAR COR EGLL 190450Z 06003KT 3900 HZ NSC 13/11 Q1004 BECMG
                        5000=
201405190420 METAR COR EGLL 190420Z 07003KT 3500 HZ NSC 13/10 Q1004 BECMG
                        5000=
201405190350 METAR COR EGLL 190350Z 07002KT 4000 HZ NSC 13/11 Q1005 BECMG
                        5000=
201405190320 METAR COR EGLL 190320Z 06004KT 3800 HZ NSC 14/11 Q1005 NOSIG=
201405190250 METAR COR EGLL 190250Z 07004KT 3900 HZ NSC 14/11 Q1005 TEMPO
                        6000=
201405190220 METAR COR EGLL 190220Z 07003KT 4000 HZ NSC 13/10 Q1005 TEMPO
                        6000=
201405190150 METAR COR EGLL 190150Z 07004KT 6000 NSC 13/10 Q1005 TEMPO
                        4500=
201405190120 METAR EGLL 190120Z AUTO VRB02KT 8000 NCD 14/10 Q1006=
201405190050 METAR EGLL 190050Z AUTO 06003KT 9000 NCD 14/09 Q1006=
201405190020 METAR COR EGLL 190020Z AUTO VRB02KT 9999 NCD 14/09 Q1006
                        NOSIG=
201405182350 METAR COR EGLL 182350Z 09004KT CAVOK 14/08 Q1006 NOSIG=
201405182320 METAR EGLL 182320Z 08004KT CAVOK 14/08 Q1007=
201405182250 METAR COR EGLL 182250Z 09004KT CAVOK 14/08 Q1007 NOSIG=
201405182220 METAR COR EGLL 182220Z 10004KT CAVOK 15/08 Q1007 NOSIG=
201405182150 METAR COR EGLL 182150Z 13004KT CAVOK 15/07 Q1007 NOSIG=
201405182120 METAR COR EGLL 182120Z 14005KT 070V190 CAVOK 16/07 Q1007
                        NOSIG=
201405182050 METAR COR EGLL 182050Z 15006KT 110V180 CAVOK 17/07 Q1008
                        NOSIG=
201405182020 METAR COR EGLL 182020Z 18008KT 150V240 CAVOK 18/06 Q1008
                        NOSIG=
201405181950 METAR COR EGLL 181950Z 16006KT 130V220 CAVOK 19/06 Q1008
                        NOSIG=
201405181920 METAR COR EGLL 181920Z 16008KT 100V200 CAVOK 20/04 Q1008
                        NOSIG=
201405181850 METAR COR EGLL 181850Z 18009KT 150V210 CAVOK 20/05 Q1008
                        NOSIG=
201405181820 METAR EGLL 181820Z AUTO 17011KT 9999 NCD 21/07 Q1008=
201405181750 METAR COR EGLL 181750Z 17011G21KT 130V220 CAVOK 21/09 Q1008
                        NOSIG=
201405181720 METAR COR EGLL 181720Z 17011KT 100V210 CAVOK 22/09 Q1008
                        NOSIG=
201405181650 METAR COR EGLL 181650Z 18010KT 150V220 CAVOK 22/09 Q1008
                        NOSIG=
201405181620 METAR COR EGLL 181620Z 19011G22KT 150V240 CAVOK 22/08 Q1008
                        NOSIG=
201405181550 METAR COR EGLL 181550Z 16009KT 120V200 CAVOK 23/07 Q1009
                        NOSIG=
201405181520 METAR COR EGLL 181520Z 18009KT 090V240 CAVOK 23/08 Q1009
                        NOSIG=
201405181450 METAR COR EGLL 181450Z 17008G18KT 100V230 CAVOK 23/09 Q1009
                        NOSIG=
201405181420 METAR COR EGLL 181420Z 17008KT 140V210 CAVOK 23/09 Q1010
                        NOSIG=
201405181350 METAR COR EGLL 181350Z 16009KT 120V250 CAVOK 23/10 Q1010
                        NOSIG=
201405181320 METAR COR EGLL 181320Z 17009KT 130V230 CAVOK 23/10 Q1010
                        NOSIG=
201405181250 METAR COR EGLL 181250Z 21007KT 150V270 CAVOK 23/10 Q1011
                        NOSIG=
201405181220 METAR COR EGLL 181220Z 21008KT 180V250 CAVOK 23/10 Q1011
                        NOSIG=
201405181150 METAR COR EGLL 181150Z 20008KT 150V250 CAVOK 23/10 Q1011
                        NOSIG=
201405181120 METAR COR EGLL 181120Z 15007KT 110V190 9999 FEW048 22/10
                        Q1012 NOSIG=
201405181050 METAR COR EGLL 181050Z 17008KT 120V220 9999 FEW048 22/10
                        Q1012 NOSIG=
201405181020 METAR EGLL 181020Z AUTO 17008KT 130V220 9999 NCD 21/10 Q1013=
201405180950 METAR COR EGLL 180950Z 16010KT CAVOK 20/11 Q1013 NOSIG=
201405180920 METAR COR EGLL 180920Z 15009KT CAVOK 20/11 Q1014 NOSIG=
201405180850 METAR COR EGLL 180850Z 15009KT CAVOK 20/11 Q1014 NOSIG=
201405180820 METAR COR EGLL 180820Z 17007KT 130V200 CAVOK 19/11 Q1014
                        NOSIG=
201405180750 METAR COR EGLL 180750Z 18007KT CAVOK 18/11 Q1015 NOSIG=
201405180720 METAR COR EGLL 180720Z 18008KT CAVOK 17/11 Q1015 NOSIG=
201405180650 METAR COR EGLL 180650Z 15003KT CAVOK 15/11 Q1015 NOSIG=
201405180620 METAR COR EGLL 180620Z VRB03KT 9000 NSC 15/11 Q1015 NOSIG=
201405180550 METAR COR EGLL 180550Z 15003KT 8000 NSC 14/11 Q1015 BECMG
                        9999=
201405180520 METAR COR EGLL 180520Z 15003KT 8000 NSC 12/11 Q1015 BECMG
                        9999=
201405180450 METAR COR EGLL 180450Z VRB02KT 8000 NSC 12/11 Q1015 BECMG
                        9999=
201405180420 METAR COR EGLL 180420Z 18002KT 7000 FEW035 13/11 Q1016 BECMG
                        9999=
201405180350 METAR COR EGLL 180350Z 18003KT 8000 FEW035 12/11 Q1016 NOSIG=
201405180320 METAR COR EGLL 180320Z 00000KT 8000 NSC 13/11 Q1016 NOSIG=
201405180250 METAR COR EGLL 180250Z 00000KT 8000 NSC 13/11 Q1016 NOSIG=
201405180220 METAR COR EGLL 180220Z 16002KT 9000 NSC 13/11 Q1017 NOSIG=
201405180150 METAR COR EGLL 180150Z 18003KT CAVOK 14/11 Q1017 NOSIG=
201405180120 METAR COR EGLL 180120Z 18002KT CAVOK 14/12 Q1017 NOSIG=
201405180050 METAR COR EGLL 180050Z VRB03KT 9999 FEW042 15/12 Q1018 NOSIG=
201405180020 METAR COR EGLL 180020Z VRB02KT CAVOK 15/12 Q1018 NOSIG=
201405172350 METAR COR EGLL 172350Z 22004KT CAVOK 15/12 Q1018 NOSIG=
201405172320 METAR COR EGLL 172320Z 21005KT CAVOK 16/12 Q1019 NOSIG=
201405172250 METAR COR EGLL 172250Z 19006KT CAVOK 16/12 Q1019 NOSIG=
201405172220 METAR EGLL 172220Z 20004KT 9999 FEW042 17/12 Q1019=
201405172150 METAR COR EGLL 172150Z AUTO 21007KT 170V260 9999 SCT042 17/12
                        Q1019 NOSIG=
201405172120 METAR COR EGLL 172120Z 28004KT CAVOK 19/12 Q1019 NOSIG=
201405172050 METAR COR EGLL 172050Z 27004KT CAVOK 20/12 Q1019 NOSIG=
201405172020 METAR COR EGLL 172020Z 28005KT 270V330 CAVOK 20/11 Q1019
                        NOSIG=
201405171950 METAR COR EGLL 171950Z 28005KT CAVOK 20/11 Q1019 NOSIG=
201405171920 METAR COR EGLL 171920Z 28007KT CAVOK 21/11 Q1019 NOSIG=
201405171850 METAR COR EGLL 171850Z 28006KT CAVOK 22/11 Q1019 NOSIG=
201405171820 METAR COR EGLL 171820Z 27006KT CAVOK 22/11 Q1019 NOSIG=
201405171750 METAR COR EGLL 171750Z 25007KT 210V290 9999 FEW044 23/12
                        Q1020 NOSIG=
201405171720 METAR COR EGLL 171720Z 23007KT 9999 FEW044 22/12 Q1020 NOSIG=
201405171650 METAR COR EGLL 171650Z 29006KT 250V320 9999 FEW044 22/11
                        Q1020 NOSIG=
201405171620 METAR COR EGLL 171620Z 25005KT 210V290 9999 FEW048 23/11
                        Q1021 NOSIG=
201405171550 METAR COR EGLL 171550Z 23006KT 200V280 CAVOK 23/12 Q1021
                        NOSIG=
201405171520 METAR COR EGLL 171520Z 24007KT 190V280 9999 FEW048 22/11
                        Q1021 NOSIG=
201405171450 METAR COR EGLL 171450Z 24006KT 210V280 9999 FEW048 23/11
                        Q1021 NOSIG=
201405171420 METAR COR EGLL 171420Z 25006KT 210V320 9999 FEW044 23/12
                        Q1022 NOSIG=
201405171350 METAR COR EGLL 171350Z VRB06KT CAVOK 23/12 Q1022 NOSIG=
201405171320 METAR COR EGLL 171320Z 26007KT 210V300 CAVOK 23/11 Q1022
                        NOSIG=
201405171250 METAR COR EGLL 171250Z 24008G21KT 210V280 9999 FEW044 22/12
                        Q1023 NOSIG=
201405171220 METAR EGLL 171220Z 26006KT 220V310 9999 FEW043 23/12 Q1023=
201405171150 METAR COR EGLL 171150Z VRB05KT 9999 FEW044 23/10 Q1023 NOSIG=
201405171120 METAR COR EGLL 171120Z VRB04KT 9999 FEW044 22/11 Q1024 NOSIG=
201405171050 METAR COR EGLL 171050Z VRB04KT 9999 FEW036 22/12 Q1024 NOSIG=
201405171020 METAR COR EGLL 171020Z VRB03KT 9999 FEW036 21/12 Q1024 NOSIG=
201405170950 METAR COR EGLL 170950Z VRB02KT 9999 FEW038 21/12 Q1024 NOSIG=
201405170920 METAR COR EGLL 170920Z VRB02KT 9999 FEW048 19/12 Q1025 NOSIG=
201405170850 METAR COR EGLL 170850Z 00000KT 9999 FEW048 18/12 Q1025 NOSIG=
201405170820 METAR COR EGLL 170820Z VRB02KT 9999 FEW049 17/11 Q1025 NOSIG=
201405170750 METAR COR EGLL 170750Z 00000KT 9999 FEW049 16/11 Q1025 NOSIG=
201405170720 METAR COR EGLL 170720Z VRB02KT 9999 FEW045 15/11 Q1026 NOSIG=
201405170650 METAR COR EGLL 170650Z 30003KT CAVOK 14/11 Q1026 NOSIG=
201405170620 METAR COR EGLL 170620Z VRB02KT 9000 NSC 14/11 Q1026 NOSIG=
201405170550 METAR COR EGLL 170550Z VRB03KT 9000 NSC 13/11 Q1026 NOSIG=
201405170520 METAR COR EGLL 170520Z VRB02KT 8000 NSC 12/11 Q1026 NOSIG=
201405170450 METAR COR EGLL 170450Z 26003KT CAVOK 12/10 Q1026 NOSIG=
201405170420 METAR COR EGLL 170420Z VRB03KT CAVOK 12/10 Q1026 NOSIG=
201405170350 METAR COR EGLL 170350Z VRB02KT CAVOK 11/09 Q1026 NOSIG=
201405170320 METAR COR EGLL 170320Z 28003KT CAVOK 12/09 Q1026 NOSIG=
201405170250 METAR COR EGLL 170250Z 00000KT CAVOK 12/09 Q1026 NOSIG=
201405170220 METAR COR EGLL 170220Z 26004KT CAVOK 12/09 Q1026 NOSIG=
201405170150 METAR COR EGLL 170150Z 23004KT CAVOK 12/09 Q1027 NOSIG=
201405170120 METAR EGLL 170120Z AUTO 21004KT 9999 NCD 12/09 Q1027=
201405170050 METAR EGLL 170050Z AUTO 20005KT 9999 NCD 13/09 Q1027=
201405170020 METAR EGLL 170020Z AUTO 22004KT 9999 NCD 13/09 Q1027=
201405162350 METAR COR EGLL 162350Z 20005KT CAVOK 14/10 Q1028 NOSIG=
201405162320 METAR COR EGLL 162320Z 21006KT CAVOK 14/10 Q1028 NOSIG=
201405162250 METAR COR EGLL 162250Z 18005KT CAVOK 15/11 Q1028 NOSIG=
201405162220 METAR COR EGLL 162220Z 17005KT CAVOK 15/11 Q1028 NOSIG=
201405162150 METAR COR EGLL 162150Z 17005KT 130V250 CAVOK 16/11 Q1028
                        NOSIG=
201405162120 METAR COR EGLL 162120Z 15005KT 100V180 CAVOK 17/10 Q1028
                        NOSIG=
201405162050 METAR COR EGLL 162050Z 12004KT 100V170 CAVOK 18/09 Q1028
                        NOSIG=
201405162020 METAR COR EGLL 162020Z VRB02KT CAVOK 20/10 Q1028 NOSIG=
201405161950 METAR COR EGLL 161950Z 36003KT CAVOK 20/10 Q1028 NOSIG=
201405161920 METAR COR EGLL 161920Z 36004KT CAVOK 20/10 Q1028 NOSIG=
201405161850 METAR COR EGLL 161850Z VRB03KT CAVOK 21/10 Q1028 NOSIG=
201405161820 METAR COR EGLL 161820Z VRB03KT CAVOK 21/09 Q1028 NOSIG=
201405161750 METAR COR EGLL 161750Z 31004KT 270V340 CAVOK 21/09 Q1028
                        NOSIG=
201405161720 METAR COR EGLL 161720Z 34004KT 290V020 CAVOK 21/09 Q1028
                        NOSIG=
201405161650 METAR EGLL 161650Z 34004KT 280V030 CAVOK 21/09 Q1029=
201405161620 METAR COR EGLL 161620Z VRB04KT CAVOK 21/09 Q1029 NOSIG=
201405161550 METAR COR EGLL 161550Z VRB04KT CAVOK 21/09 Q1029 NOSIG=
201405161520 METAR COR EGLL 161520Z VRB03KT CAVOK 21/09 Q1030 NOSIG=
201405161450 METAR COR EGLL 161450Z VRB04KT CAVOK 21/09 Q1030 NOSIG=
201405161420 METAR COR EGLL 161420Z VRB02KT 9999 FEW049 21/08 Q1030 NOSIG=
201405161350 METAR COR EGLL 161350Z VRB02KT 9999 FEW049 21/09 Q1031 NOSIG=
201405161320 METAR COR EGLL 161320Z VRB02KT CAVOK 20/09 Q1031 NOSIG=
201405161250 METAR COR EGLL 161250Z VRB03KT 9999 FEW048 20/09 Q1031 NOSIG=
201405161220 METAR COR EGLL 161220Z VRB02KT 9999 SCT048 21/09 Q1032 NOSIG=
201405161150 METAR COR EGLL 161150Z VRB04KT 9999 FEW048 20/08 Q1032 NOSIG=
201405161120 METAR COR EGLL 161120Z VRB03KT 9999 FEW046 20/09 Q1032 NOSIG=
201405161050 METAR COR EGLL 161050Z VRB03KT 9999 FEW044 20/09 Q1033 NOSIG=
201405161020 METAR COR EGLL 161020Z VRB03KT 9999 FEW044 19/09 Q1033 NOSIG=
201405160950 METAR COR EGLL 160950Z VRB03KT 9999 FEW044 19/08 Q1033 NOSIG=
201405160920 METAR COR EGLL 160920Z VRB04KT CAVOK 18/08 Q1033 NOSIG=
201405160850 METAR COR EGLL 160850Z VRB03KT CAVOK 17/08 Q1033 NOSIG=
201405160820 METAR COR EGLL 160820Z VRB03KT CAVOK 16/08 Q1033 NOSIG=
201405160750 METAR COR EGLL 160750Z VRB02KT CAVOK 15/08 Q1034 NOSIG=
201405160720 METAR COR EGLL 160720Z VRB03KT CAVOK 14/07 Q1034 NOSIG=
201405160650 METAR COR EGLL 160650Z VRB03KT CAVOK 13/07 Q1034 NOSIG=
201405160620 METAR COR EGLL 160620Z 27004KT 230V300 CAVOK 13/08 Q1034
                        NOSIG=
201405160550 METAR EGLL 160550Z 26004KT CAVOK 12/08 Q1034=
201405160520 METAR COR EGLL 160520Z VRB02KT CAVOK 11/08 Q1034 NOSIG=
201405160450 METAR COR EGLL 160450Z 00000KT CAVOK 09/07 Q1034 NOSIG=
201405160420 METAR COR EGLL 160420Z 00000KT CAVOK 09/07 Q1034 NOSIG=
201405160350 METAR COR EGLL 160350Z 00000KT CAVOK 09/07 Q1035 NOSIG=
201405160320 METAR COR EGLL 160320Z 00000KT CAVOK 09/07 Q1035 NOSIG=
201405160250 METAR COR EGLL 160250Z 18003KT CAVOK 10/08 Q1035 NOSIG=
201405160220 METAR EGLL 160220Z 18003KT CAVOK 10/08 Q1035=
201405160150 METAR EGLL 160150Z AUTO 18002KT 9999 NCD 11/08 Q1035=
201405160120 METAR EGLL 160120Z AUTO 18002KT 9999 NCD 11/08 Q1035=
201405160050 METAR EGLL 160050Z AUTO 16003KT 9999 NCD 11/08 Q1035=
201405160020 METAR COR EGLL 160020Z 16004KT CAVOK 11/07 Q1035 NOSIG=
201405152350 METAR COR EGLL 152350Z 16004KT CAVOK 12/07 Q1036 NOSIG=
201405152320 METAR COR EGLL 152320Z 18003KT CAVOK 12/07 Q1036 NOSIG=
201405152250 METAR COR EGLL 152250Z 21004KT CAVOK 13/07 Q1036 NOSIG=
201405152220 METAR COR EGLL 152220Z 21004KT 180V250 CAVOK 13/08 Q1036
                        NOSIG=
201405152150 METAR COR EGLL 152150Z 18007KT CAVOK 13/08 Q1036 NOSIG=
201405152120 METAR COR EGLL 152120Z 19006KT 170V230 CAVOK 14/10 Q1036
                        NOSIG=
201405152050 METAR COR EGLL 152050Z 18007KT 150V240 CAVOK 15/10 Q1036
                        NOSIG=
201405152020 METAR COR EGLL 152020Z 15006KT 120V200 CAVOK 15/10 Q1035
                        NOSIG=
201405151950 METAR COR EGLL 151950Z 15008KT 9999 FEW045 16/11 Q1035 NOSIG=
201405151920 METAR EGLL 151920Z 15007KT 120V180 CAVOK 17/11 Q1035=
201405151850 METAR COR EGLL 151850Z 16007KT 120V220 9999 FEW037 18/11
                        Q1035 NOSIG=
201405151820 METAR COR EGLL 151820Z 15010KT 100V180 CAVOK 19/11 Q1035
                        NOSIG=
201405151750 METAR COR EGLL 151750Z 03005KT 350V070 CAVOK 21/08 Q1035
                        NOSIG=
201405151720 METAR COR EGLL 151720Z 05005KT 350V100 CAVOK 20/06 Q1035
                        NOSIG=
201405151650 METAR COR EGLL 151650Z 04006KT 340V080 CAVOK 21/06 Q1035
                        NOSIG=
201405151620 METAR COR EGLL 151620Z VRB03KT CAVOK 21/07 Q1035 NOSIG=
201405151550 METAR COR EGLL 151550Z VRB05KT CAVOK 21/07 Q1035 NOSIG=
201405151520 METAR COR EGLL 151520Z 35005KT 300V060 CAVOK 21/06 Q1035
                        NOSIG=
201405151450 METAR COR EGLL 151450Z VRB04KT 9999 FEW049 21/08 Q1035 NOSIG=
201405151420 METAR COR EGLL 151420Z 05005KT 330V100 9999 OVC048 20/08
                        Q1035 NOSIG=
201405151350 METAR COR EGLL 151350Z 36005KT 310V080 9999 FEW048 20/08
                        Q1035 NOSIG=
201405151320 METAR COR EGLL 151320Z 03005KT 330V100 9999 SCT045 19/08
                        Q1035 NOSIG=
201405151250 METAR COR EGLL 151250Z 32007KT 280V340 9999 FEW048 20/09
                        Q1035 NOSIG=
201405151220 METAR COR EGLL 151220Z VRB04KT 9999 SCT044 19/09 Q1036 NOSIG=
201405151150 METAR COR EGLL 151150Z 34005KT 260V040 9999 BKN042 19/08
                        Q1036 NOSIG=
201405151120 METAR COR EGLL 151120Z 06004KT 020V160 9999 FEW041 18/08
                        Q1036 NOSIG=
201405151050 METAR COR EGLL 151050Z 32005KT 280V010 9999 SCT038 18/09
                        Q1036 NOSIG=
201405151020 METAR COR EGLL 151020Z VRB03KT 9999 SCT033 17/09 Q1036 NOSIG=
201405150950 METAR COR EGLL 150950Z 33005KT 260V030 9999 FEW032 17/09
                        Q1036 NOSIG=
201405150920 METAR COR EGLL 150920Z VRB03KT CAVOK 17/09 Q1036 NOSIG=
201405150850 METAR COR EGLL 150850Z VRB03KT CAVOK 16/09 Q1036 NOSIG=
201405150820 METAR EGLL 150820Z VRB02KT CAVOK 15/08 Q1036=
201405150750 METAR COR EGLL 150750Z VRB03KT CAVOK 14/08 Q1036 NOSIG=
201405150720 METAR COR EGLL 150720Z VRB03KT 9999 FEW047 13/08 Q1036 NOSIG=
201405150650 METAR COR EGLL 150650Z 00000KT CAVOK 12/08 Q1036 NOSIG=
201405150620 METAR COR EGLL 150620Z VRB03KT 9999 FEW046 10/08 Q1036 NOSIG=
201405150550 METAR COR EGLL 150550Z 22004KT 190V250 CAVOK 10/08 Q1036
                        NOSIG=
201405150520 METAR COR EGLL 150520Z 21004KT 160V280 CAVOK 10/07 Q1036
                        NOSIG=
201405150450 METAR COR EGLL 150450Z 18003KT CAVOK 09/07 Q1035 NOSIG=
201405150420 METAR COR EGLL 150420Z 22003KT CAVOK 09/06 Q1035 NOSIG=
201405150350 METAR COR EGLL 150350Z 27003KT CAVOK 09/07 Q1035 NOSIG=
201405150320 METAR COR EGLL 150320Z 27004KT CAVOK 09/07 Q1035 NOSIG=
201405150250 METAR COR EGLL 150250Z 18002KT CAVOK 09/06 Q1035 NOSIG=
201405150220 METAR COR EGLL 150220Z 18004KT CAVOK 09/07 Q1035 NOSIG=
201405150150 METAR COR EGLL 150150Z 17004KT CAVOK 09/07 Q1035 NOSIG=
201405150120 METAR EGLL 150120Z AUTO 17004KT 9999 NCD 09/07 Q1035=
201405150050 METAR EGLL 150050Z AUTO 15003KT 9999 NCD 10/07 Q1035=
201405150020 METAR EGLL 150020Z AUTO 14004KT 9999 NCD 10/08 Q1035=
201405142350 METAR COR EGLL 142350Z 09003KT CAVOK 10/08 Q1035 NOSIG=
201405142320 METAR COR EGLL 142320Z 10004KT CAVOK 10/08 Q1035 NOSIG=
201405142250 METAR COR EGLL 142250Z 08004KT CAVOK 11/08 Q1034 NOSIG=
201405142220 METAR COR EGLL 142220Z 09005KT CAVOK 11/07 Q1034 NOSIG=
201405142150 METAR COR EGLL 142150Z 10004KT CAVOK 11/07 Q1034 NOSIG=
201405142120 METAR COR EGLL 142120Z 11006KT CAVOK 13/06 Q1034 NOSIG=
201405142050 METAR COR EGLL 142050Z VRB02KT CAVOK 16/05 Q1033 NOSIG=
201405142020 METAR COR EGLL 142020Z 36002KT CAVOK 16/04 Q1033 NOSIG=
201405141950 METAR COR EGLL 141950Z 36003KT CAVOK 17/04 Q1033 NOSIG=
201405141920 METAR EGLL 141920Z 36004KT CAVOK 17/04 Q1033=
201405141850 METAR EGLL 141850Z 35004KT 330V030 CAVOK 18/03 Q1032=
201405141820 METAR EGLL 141820Z 35005KT 330V030 CAVOK 18/03 Q1032=
201405141750 METAR COR EGLL 141750Z 36005KT 320V030 CAVOK 18/02 Q1032
                        NOSIG=
201405141720 METAR COR EGLL 141720Z 36005KT 300V030 CAVOK 18/03 Q1032
                        NOSIG=
201405141650 METAR COR EGLL 141650Z 36006KT 330V040 CAVOK 19/04 Q1032
                        NOSIG=
201405141620 METAR COR EGLL 141620Z 34006KT 280V030 CAVOK 18/04 Q1032
                        NOSIG=
201405141550 METAR COR EGLL 141550Z 35008KT 320V020 CAVOK 19/05 Q1032
                        NOSIG=
201405141520 METAR COR EGLL 141520Z 35005KT 300V040 CAVOK 18/05 Q1032
                        NOSIG=
201405141450 METAR COR EGLL 141450Z 36006KT 310V040 CAVOK 19/05 Q1032
                        NOSIG=
201405141420 METAR EGLL 141420Z 34009KT 300V020 CAVOK 19/04 Q1032=
201405141350 METAR COR EGLL 141350Z 30009KT 260V340 CAVOK 18/04 Q1032
                        NOSIG=
201405141320 METAR COR EGLL 141320Z 33006KT 280V030 CAVOK 18/04 Q1032
                        NOSIG=
201405141250 METAR COR EGLL 141250Z 33007KT 270V010 9999 SCT049 17/05
                        Q1031 NOSIG=
201405141220 METAR COR EGLL 141220Z 33007KT 280V030 9999 SCT048 17/05
                        Q1031 NOSIG=
201405141150 METAR COR EGLL 141150Z 35008KT 310V040 9999 SCT048 17/05
                        Q1031 NOSIG=
201405141120 METAR COR EGLL 141120Z 34007KT 290V040 9999 FEW048 17/05
                        Q1031 NOSIG=
201405141050 METAR COR EGLL 141050Z 33009KT 300V030 9999 FEW046 17/05
                        Q1031 NOSIG=
201405141020 METAR COR EGLL 141020Z 34007KT 300V020 9999 FEW040 16/05
                        Q1031 NOSIG=
201405140950 METAR COR EGLL 140950Z 34008KT 290V020 9999 FEW040 16/06
                        Q1031 NOSIG=
201405140920 METAR COR EGLL 140920Z 34007KT 290V030 9999 FEW040 15/05
                        Q1031 NOSIG=
201405140850 METAR COR EGLL 140850Z 34008KT 300V020 CAVOK 14/06 Q1030
                        NOSIG=
201405140820 METAR COR EGLL 140820Z 32007KT 290V020 CAVOK 14/06 Q1030
                        NOSIG=
201405140750 METAR COR EGLL 140750Z 31006KT 280V350 CAVOK 13/08 Q1030
                        NOSIG=
201405140720 METAR COR EGLL 140720Z 31006KT 250V330 CAVOK 11/07 Q1030
                        NOSIG=
201405140650 METAR COR EGLL 140650Z 30006KT CAVOK 11/07 Q1030 NOSIG=
201405140620 METAR COR EGLL 140620Z 29005KT CAVOK 10/07 Q1029 NOSIG=
201405140550 METAR COR EGLL 140550Z 28006KT CAVOK 09/07 Q1029 NOSIG=
201405140520 METAR COR EGLL 140520Z 29005KT 270V330 CAVOK 08/06 Q1029
                        NOSIG=
201405140450 METAR COR EGLL 140450Z 28003KT CAVOK 07/06 Q1029 NOSIG=
201405140420 METAR COR EGLL 140420Z 26003KT CAVOK 07/06 Q1028 NOSIG=
201405140350 METAR COR EGLL 140350Z 29003KT CAVOK 07/06 Q1028 NOSIG=
201405140320 METAR COR EGLL 140320Z 29003KT CAVOK 07/06 Q1028 NOSIG=
201405140250 METAR COR EGLL 140250Z 29004KT CAVOK 07/06 Q1028 NOSIG=
201405140220 METAR COR EGLL 140220Z 30003KT CAVOK 07/06 Q1028 NOSIG=
201405140150 METAR COR EGLL 140150Z 30004KT CAVOK 08/06 Q1027 NOSIG=
201405140120 METAR EGLL 140120Z AUTO 28004KT 9999 NCD 08/06 Q1027=
201405140050 METAR EGLL 140050Z AUTO 27006KT 9999 NCD 08/07 Q1027=
201405140020 METAR EGLL 140020Z AUTO 27006KT 9999 NCD 09/07 Q1027=
201405132350 METAR COR EGLL 132350Z 26004KT 9999 FEW045 10/08 Q1027 NOSIG=
201405132320 METAR COR EGLL 132320Z VRB02KT 9999 FEW040 10/08 Q1027 NOSIG=
201405132250 METAR COR EGLL 132250Z 00000KT 9999 FEW039 10/07 Q1027 NOSIG=
201405132220 METAR COR EGLL 132220Z VRB02KT CAVOK 11/07 Q1026 NOSIG=
201405132150 METAR COR EGLL 132150Z 00000KT CAVOK 12/07 Q1026 NOSIG=
201405132120 METAR COR EGLL 132120Z VRB02KT 9999 FEW033 12/07 Q1025 NOSIG=
201405132050 METAR COR EGLL 132050Z 01005KT 340V050 9999 SCT033 12/08
                        Q1025 NOSIG=
201405132020 METAR COR EGLL 132020Z VRB02KT 9999 FEW047CB 12/07 Q1025
                        NOSIG=
201405131950 METAR COR EGLL 131950Z 30003KT 9999 FEW044CB 12/08 Q1024
                        NOSIG=
201405131920 METAR COR EGLL 131920Z 35005KT 290V020 9999 -SHRA FEW044CB
                        13/07 Q1024 TEMPO SHRA=
201405131850 METAR COR EGLL 131850Z 32007KT 260V010 9999 FEW046CB 15/06
                        Q1023 TEMPO SHRA=
201405131820 METAR COR EGLL 131820Z VRB02KT 9999 FEW046 14/07 Q1023 TEMPO
                        SHRA=
201405131750 METAR COR EGLL 131750Z 35004KT 320V020 9999 FEW036 14/06
                        Q1023 NOSIG=
201405131720 METAR EGLL 131720Z 02004KT 310V060 9999 FEW032 14/06 Q1022=
201405131650 METAR EGLL 131650Z 03005KT 330V060 9999 SCT040CB 15/07 Q1022=
201405131620 METAR COR EGLL 131620Z 02007KT 330V080 9999 SCT040CB 16/07
                        Q1022 NOSIG=
201405131550 METAR COR EGLL 131550Z 26005KT 200V320 9999 FEW036CB 16/07
                        Q1021 NOSIG=
201405131520 METAR COR EGLL 131520Z VRB02KT 9999 FEW036 15/06 Q1021 NOSIG=
201405131450 METAR COR EGLL 131450Z VRB03KT 9999 FEW044TCU 14/07 Q1021
                        NOSIG=
201405131420 METAR COR EGLL 131420Z 04005KT 350V080 9999 FEW024 SCT042TCU
                        14/08 Q1021 NOSIG=
201405131350 METAR COR EGLL 131350Z 06004KT 330V090 9999 FEW020TCU 14/09
                        Q1021 NOSIG=
201405131320 METAR COR EGLL 131320Z VRB03KT 9999 SCT036CB 13/09 Q1020
                        RESHRA NOSIG=
201405131250 METAR COR EGLL 131250Z 30004KT 270V360 9999 6000SE SHRA SCT017
                        SCT036CB 11/07 Q1020 RESHRA TEMPO
                        NSW=
201405131220 METAR COR EGLL 131220Z 35006KT 280V050 9999 4000NE SHRA FEW015
                        SCT032CB SCT042 13/09 Q1020 TEMPO
                        NSW=
201405131150 METAR COR EGLL 131150Z 32008KT 290V350 9999 7000N SHRA SCT026CB
                        BKN040 14/08 Q1019 TEMPO NSW=
201405131120 METAR COR EGLL 131120Z 05004KT 360V100 9999 FEW020CB SCT040
                        14/08 Q1019 TEMPO SHRA=
201405131050 METAR COR EGLL 131050Z 30003KT 9999 VCSH FEW020CB SCT040
                        12/07 Q1019 NOSIG=
201405131020 METAR COR EGLL 131020Z 31004KT 9000 VCSH SCT030CB SCT047
                        11/08 Q1019 RESHRA NOSIG=
201405130950 METAR COR EGLL 130950Z 31004KT 270V360 9999 VCSH SCT017 SCT022TCU
                        SCT028 13/08 Q1018 NOSIG=
201405130920 METAR COR EGLL 130920Z 30006KT 270V340 9999 SCT017 SCT023TCU
                        12/08 Q1018 TEMPO SHRA=
201405130850 METAR COR EGLL 130850Z 30004KT 9999 VCSH SCT011 SCT014 11/08
                        Q1017 TEMPO SHRA=
201405130820 METAR COR EGLL 130820Z 30006KT 270V330 9999 SCT011 12/08
                        Q1017 NOSIG=
201405130750 METAR COR EGLL 130750Z 29006KT 9999 SCT011 11/08 Q1017 NOSIG=
201405130720 METAR COR EGLL 130720Z 30005KT 270V340 9999 FEW010 10/08
                        Q1017 NOSIG=
201405130650 METAR COR EGLL 130650Z 29005KT 240V320 9999 FEW010 10/08
                        Q1016 NOSIG=
201405130620 METAR COR EGLL 130620Z 26006KT 9999 FEW009 10/08 Q1016 NOSIG=
201405130550 METAR COR EGLL 130550Z 27007KT 9999 FEW011 09/07 Q1015 NOSIG=
201405130520 METAR COR EGLL 130520Z 27007KT CAVOK 09/07 Q1015 NOSIG=
201405130450 METAR COR EGLL 130450Z 27009KT 9999 FEW012 09/07 Q1015 NOSIG=
201405130420 METAR COR EGLL 130420Z 27008KT CAVOK 09/07 Q1015 NOSIG=
201405130350 METAR COR EGLL 130350Z 26007KT 9999 FEW043 09/07 Q1014 NOSIG=
201405130320 METAR COR EGLL 130320Z 26007KT 9999 FEW044 09/07 Q1014 NOSIG=
201405130250 METAR COR EGLL 130250Z 25007KT 9999 FEW043 09/07 Q1014 NOSIG=
201405130220 METAR COR EGLL 130220Z 27006KT CAVOK 09/07 Q1014 NOSIG=
201405130150 METAR COR EGLL 130150Z 26007KT CAVOK 09/07 Q1014 NOSIG=
201405130120 METAR EGLL 130120Z AUTO 26007KT 9999 NCD 09/07 Q1014=
201405130050 METAR EGLL 130050Z AUTO 26005KT 9999 NCD 09/07 Q1014=
201405130020 METAR EGLL 130020Z AUTO 24005KT 9999 NCD 09/07 Q1014=
201405122350 METAR COR EGLL 122350Z 25007KT CAVOK 09/07 Q1014 NOSIG=
201405122320 METAR COR EGLL 122320Z 21005KT 9999 FEW049 09/08 Q1014 NOSIG=
201405122250 METAR COR EGLL 122250Z 24006KT 9999 FEW042 10/08 Q1014 NOSIG=
201405122220 METAR COR EGLL 122220Z 24002KT 9999 SCT043 10/07 Q1014 NOSIG=
201405122150 METAR COR EGLL 122150Z VRB02KT 9999 FEW041 SCT044 10/07 Q1014
                        TEMPO SHRA=
201405122120 METAR COR EGLL 122120Z 36003KT 9999 FEW031 SCT048 10/07 Q1013
                        RESHRA NOSIG=
201405122050 METAR COR EGLL 122050Z 02005KT 340V050 8000 SHRA BKN031 09/07
                        Q1013 BECMG NSW=
201405122020 METAR COR EGLL 122020Z 01004KT 9999 BKN033 11/07 Q1013 RESHRA
                        NOSIG=
201405121950 METAR COR EGLL 121950Z 34005KT 290V010 9000 4000NW SHRA BKN040CB
                        10/07 Q1012 TEMPO TSRA=
201405121920 METAR COR EGLL 121920Z 29009KT 9999 4000S -SHRA SCT042CB
                        11/07 Q1012 TEMPO 4000 SHRA TSRA=
201405121850 METAR COR EGLL 121850Z 30006KT 9999 FEW048CB 12/07 Q1011
                        TEMPO 4000 SHRA TSRA=
201405121820 METAR COR EGLL 121820Z 32004KT 280V020 9999 VCSH SCT046CB
                        13/07 Q1011 TEMPO 4000 SHRA TSRA=
201405121750 METAR COR EGLL 121750Z 34005KT 310V020 9999 VCSH FEW028CB
                        SCT048 12/07 Q1011 RESHRA TEMPO 4000
                        TSRA=
201405121720 METAR COR EGLL 121720Z 30013KT 9000 4000NW SHRA SCT024CB
                        SCT047 12/07 Q1011 TEMPO NSW=
201405121650 METAR COR EGLL 121650Z 26013KT 9999 VCSH FEW044 15/04 Q1010
                        TEMPO SHRA=
201405121620 METAR COR EGLL 121620Z 27014KT 9999 FEW044 16/05 Q1010 TEMPO
                        SHRA=
201405121550 METAR COR EGLL 121550Z 27016KT 9999 FEW044 15/05 Q1010 TEMPO
                        SHRA=
201405121520 METAR COR EGLL 121520Z 25014KT 220V290 9999 FEW048 16/04
                        Q1010 TEMPO SHRA=
201405121450 METAR COR EGLL 121450Z 26014KT 9999 FEW043 15/05 Q1010 TEMPO
                        SHRA=
201405121420 METAR COR EGLL 121420Z 25012KT 9999 FEW047 16/04 Q1010 TEMPO
                        SHRA=
201405121350 METAR COR EGLL 121350Z 26015KT 9999 FEW047 16/04 Q1010 NOSIG=
201405121320 METAR COR EGLL 121320Z 29012KT 250V320 9999 SCT049 17/04
                        Q1010 NOSIG=
201405121250 METAR COR EGLL 121250Z 27013KT 250V320 9999 SCT049 16/03
                        Q1010 NOSIG=
201405121220 METAR COR EGLL 121220Z 28012KT 250V320 9999 SCT049 17/03
                        Q1010 NOSIG=
201405121150 METAR COR EGLL 121150Z 26013KT 230V320 9999 SCT046 16/04
                        Q1010 NOSIG=
201405121120 METAR COR EGLL 121120Z 29011KT 250V310 9999 SCT044 16/04
                        Q1010 NOSIG=
201405121050 METAR COR EGLL 121050Z 27012KT 240V320 9999 SCT040 15/04
                        Q1010 NOSIG=
201405121020 METAR COR EGLL 121020Z 27013KT 9999 SCT037 15/05 Q1010 NOSIG=
201405120950 METAR COR EGLL 120950Z 27012KT 9999 FEW035 14/05 Q1010 NOSIG=
201405120920 METAR COR EGLL 120920Z 28014KT 9999 FEW030 14/05 Q1010 NOSIG=
201405120850 METAR COR EGLL 120850Z 28012KT 9999 FEW018 13/07 Q1010 NOSIG=
201405120820 METAR COR EGLL 120820Z 27010KT 9999 FEW018 12/07 Q1010 NOSIG=
201405120750 METAR COR EGLL 120750Z 27012KT CAVOK 11/07 Q1010 NOSIG=
201405120720 METAR COR EGLL 120720Z 26012KT CAVOK 10/07 Q1010 NOSIG=
201405120650 METAR COR EGLL 120650Z 26012KT CAVOK 10/07 Q1010 NOSIG=
201405120620 METAR COR EGLL 120620Z 26011KT CAVOK 10/06 Q1010 NOSIG=
201405120550 METAR COR EGLL 120550Z 25010KT CAVOK 10/06 Q1009 NOSIG=
201405120520 METAR COR EGLL 120520Z 25011KT CAVOK 10/07 Q1009 NOSIG=
201405120450 METAR COR EGLL 120450Z 26010KT CAVOK 09/07 Q1009 NOSIG=
201405120420 METAR COR EGLL 120420Z 25011KT CAVOK 10/07 Q1008 NOSIG=
201405120350 METAR COR EGLL 120350Z 26012KT CAVOK 10/07 Q1008 NOSIG=
201405120320 METAR COR EGLL 120320Z 27011KT CAVOK 10/07 Q1008 NOSIG=
201405120250 METAR COR EGLL 120250Z 27011KT CAVOK 10/07 Q1008 NOSIG=
201405120220 METAR COR EGLL 120220Z 26010KT CAVOK 10/07 Q1008 NOSIG=
201405120150 METAR COR EGLL 120150Z 25010KT 9999 FEW026 10/06 Q1008 NOSIG=
201405120120 METAR EGLL 120120Z AUTO 25012KT 9999 NCD 10/06 Q1008=
201405120050 METAR EGLL 120050Z AUTO 25013KT 9999 NCD 10/06 Q1008=
201405120020 METAR EGLL 120020Z AUTO 25013KT 9999 OVC047 10/06 Q1008=
201405112350 METAR COR EGLL 112350Z 25013KT 9999 FEW044 10/06 Q1008 NOSIG=
201405112320 METAR COR EGLL 112320Z 26013KT CAVOK 11/06 Q1008 NOSIG=
201405112250 METAR COR EGLL 112250Z 25014KT 9999 BKN049 11/06 Q1008 NOSIG=
201405112220 METAR COR EGLL 112220Z 25012KT CAVOK 11/06 Q1008 NOSIG=
201405112150 METAR COR EGLL 112150Z 25014KT CAVOK 11/06 Q1008 NOSIG=
201405112120 METAR COR EGLL 112120Z 26014KT CAVOK 11/05 Q1007 NOSIG=
201405112050 METAR COR EGLL 112050Z 26016KT 9999 FEW049 11/05 Q1007 NOSIG=
201405112020 METAR COR EGLL 112020Z 26014KT CAVOK 12/04 Q1007 NOSIG=
201405111950 METAR COR EGLL 111950Z 26016KT CAVOK 12/04 Q1007 NOSIG=
201405111920 METAR COR EGLL 111920Z 27015KT CAVOK 12/03 Q1006 NOSIG=
201405111850 METAR COR EGLL 111850Z 27016KT CAVOK 13/03 Q1006 NOSIG=
201405111820 METAR COR EGLL 111820Z 27019KT 9999 FEW049 13/03 Q1006 NOSIG=
201405111750 METAR COR EGLL 111750Z 26019KT 9999 FEW040 SCT046 14/04 Q1006
                        NOSIG=
201405111720 METAR COR EGLL 111720Z 27020KT 9999 SCT042 14/04 Q1005 NOSIG=
201405111650 METAR COR EGLL 111650Z 27018KT 9999 SCT045 14/04 Q1005 NOSIG=
201405111620 METAR COR EGLL 111620Z 26020G30KT 9999 SCT046 14/04 Q1005
                        NOSIG=
201405111550 METAR COR EGLL 111550Z 26022KT 9999 SCT048 14/03 Q1005 NOSIG=
201405111520 METAR COR EGLL 111520Z 27017KT 9999 SCT043 14/04 Q1005 NOSIG=
201405111450 METAR COR EGLL 111450Z 26019G30KT 9999 FEW043 SCT046 14/05
                        Q1005 NOSIG=
201405111420 METAR COR EGLL 111420Z 26020KT 9999 SCT041 14/05 Q1004 NOSIG=
201405111350 METAR COR EGLL 111350Z 26020KT 9999 SCT038 SCT047 14/05 Q1004
                        NOSIG=
201405111320 METAR COR EGLL 111320Z 26018G28KT 9999 SCT032 SCT036 14/06
                        Q1004 NOSIG=
201405111250 METAR COR EGLL 111250Z 27019KT 9999 SCT031 BKN035 12/06 Q1004
                        NOSIG=
201405111220 METAR COR EGLL 111220Z 27018KT 9999 SCT029 BKN032 12/06 Q1004
                        NOSIG=
201405111150 METAR COR EGLL 111150Z 26016KT 9999 SCT029 BKN034 12/06 Q1004
                        NOSIG=
201405111120 METAR COR EGLL 111120Z 27021KT 9999 SCT029 BKN038 12/06 Q1004
                        NOSIG=
201405111050 METAR COR EGLL 111050Z 27020KT 9999 FEW027 BKN032 12/06 Q1003
                        NOSIG=
201405111020 METAR COR EGLL 111020Z 26018G28KT 9999 BKN028 11/06 Q1003
                        NOSIG=
201405110950 METAR COR EGLL 110950Z 27018KT 9999 BKN026 11/06 Q1003 NOSIG=
201405110920 METAR COR EGLL 110920Z 26019KT 9999 BKN026 11/06 Q1003 NOSIG=
201405110850 METAR COR EGLL 110850Z 26020KT 9999 FEW024 BKN031 11/06 Q1002
                        NOSIG=
201405110820 METAR COR EGLL 110820Z 26017KT 9999 FEW021 BKN030 11/07 Q1002
                        NOSIG=
201405110750 METAR COR EGLL 110750Z 26018KT 9999 -SHRA FEW024 BKN026 10/07
                        Q1002 NOSIG=
201405110720 METAR COR EGLL 110720Z 25019KT 9999 FEW018 BKN028 10/06 Q1001
                        NOSIG=
201405110650 METAR COR EGLL 110650Z 25019KT 9999 FEW018 BKN034 10/06 Q1001
                        NOSIG=
201405110620 METAR COR EGLL 110620Z 25016KT 9999 FEW017 SCT028 BKN041
                        10/06 Q1001 NOSIG=
201405110550 METAR COR EGLL 110550Z 25019KT 9999 -SHRA SCT022 BKN026 10/06
                        Q1001 NOSIG=
201405110520 METAR COR EGLL 110520Z 25018KT 9999 SCT018 BKN024 10/06 Q1001
                        NOSIG=
201405110450 METAR EGLL 110450Z 25019KT 9999 BKN022 10/06 Q1001=
201405110420 METAR EGLL 110420Z 25017KT 9999 BKN023 10/06 Q1001=
201405110350 METAR COR EGLL 110350Z 25018KT 9000 -DZ BKN023 10/05 Q1000
                        NOSIG=
201405110320 METAR COR EGLL 110320Z 25018G28KT 9999 BKN026 10/05 Q1000
                        TEMPO BKN014=
201405110250 METAR COR EGLL 110250Z 24019KT 9999 SCT026 BKN031 10/05 Q1000
                        NOSIG=
201405110220 METAR EGLL 110220Z 24017KT 9999 FEW026 BKN029 10/05 Q1001=
201405110150 METAR COR EGLL 110150Z 25018KT 9999 BKN027 10/05 Q1001 NOSIG=
201405110120 METAR EGLL 110120Z AUTO 25016KT 9999 SCT029 BKN043 10/05
                        Q1001=
201405110050 METAR EGLL 110050Z AUTO 24018KT 9999 SCT028 BKN040 10/05
                        Q1001=
201405110020 METAR EGLL 110020Z AUTO 25019KT 9999 BKN029 11/05 Q1001=
201405102350 METAR EGLL 102350Z 25018KT 9999 BKN029 11/05 Q1001=
201405102320 METAR COR EGLL 102320Z 24018KT 9999 FEW028 BKN030 11/06 Q1001
                        NOSIG=
201405102250 METAR COR EGLL 102250Z 24018KT 9999 -RA SCT029 BKN034 11/06
                        Q1001 NOSIG=
201405102220 METAR COR EGLL 102220Z 25020G30KT 9999 SCT028 BKN034 11/06
                        Q1001 NOSIG=
201405102150 METAR COR EGLL 102150Z 24020G32KT 9999 SCT028 OVC035 11/06
                        Q1001 NOSIG=
201405102120 METAR COR EGLL 102120Z 25022G35KT 9999 SCT030 BKN035 12/06
                        Q1001 NOSIG=
201405102050 METAR COR EGLL 102050Z 24019G33KT 9999 FEW032 SCT043 12/06
                        Q1001 NOSIG=
201405102020 METAR COR EGLL 102020Z 24018KT 9999 FEW035 SCT046 12/06 Q1001
                        NOSIG=
201405101950 METAR COR EGLL 101950Z 24018KT 9999 SCT034 SCT045 12/07 Q1001
                        NOSIG=
201405101920 METAR COR EGLL 101920Z 24016KT 9999 FEW036CB SCT042 12/07
                        Q1001 NOSIG=
201405101850 METAR COR EGLL 101850Z 24016KT 9999 6000SW VCSH SCT036CB
                        SCT042 13/07 Q1001 NOSIG=
201405101820 METAR COR EGLL 101820Z 25017KT 9999 FEW032TCU BKN049 12/08
                        Q1001 NOSIG=
201405101750 METAR COR EGLL 101750Z 25021KT 9999 FEW016 FEW029CB SCT033TCU
                        12/08 Q1001 RESHRA NOSIG=
201405101720 METAR COR EGLL 101720Z 25019KT 9999 7000SW SHRA SCT027CB
                        SCT033TCU BKN038 13/09 Q1001 TEMPO
                        NSW=
201405101650 METAR COR EGLL 101650Z 26021G31KT 9999 -SHRA SCT027CB SCT033
                        12/08 Q1001 TEMPO SHRA=
201405101620 METAR COR EGLL 101620Z 25025G36KT 9999 8000NE -SHRA FEW030CB
                        SCT039 14/08 Q1000 TEMPO SHRA=
201405101550 METAR COR EGLL 101550Z 25024KT 9999 8000S VCSH FEW033CB SCT042
                        14/09 Q1000 TEMPO SHRA=
201405101520 METAR COR EGLL 101520Z 27017KT 9999 -SHRA FEW031CB SCT035
                        14/09 Q1000 TEMPO SHRA=
201405101450 METAR COR EGLL 101450Z 26014KT 9999 VCSH SCT031CB SCT042
                        16/08 Q1000 TEMPO SHRA=
201405101420 METAR COR EGLL 101420Z 24020KT 9999 FEW031CB SCT043 15/09
                        Q1000 TEMPO SHRA=
201405101350 METAR COR EGLL 101350Z 25016KT 9999 FEW029CB SCT043 14/10
                        Q1001 TEMPO SHRA=
201405101320 METAR EGLL 101320Z 24021KT 7000 -SHRA FEW031CB SCT035 BKN049
                        14/10 Q1001 RESHRA=
201405101250 METAR COR EGLL 101250Z 23018KT 9999 FEW036 SCT045 16/07 Q1001
                        TEMPO 26022G36KT SHRA BKN014CB=
201405101220 METAR COR EGLL 101220Z 23016KT 9999 SCT038 SCT042 17/07 Q1001
                        TEMPO SHRA=
201405101150 METAR COR EGLL 101150Z 24020KT 9999 SCT034 17/08 Q1001 TEMPO
                        SHRA=
201405101120 METAR COR EGLL 101120Z 25016KT 9999 FEW030 SCT035 17/09 Q1002
                        TEMPO SHRA=
201405101050 METAR COR EGLL 101050Z 23019KT 9999 -SHRA FEW028 SCT033 16/09
                        Q1002 TEMPO 25022G30KT=
201405101020 METAR COR EGLL 101020Z 24018KT 9999 SCT033 SCT040 17/09 Q1002
                        TEMPO 24020G28KT SHRA=
201405100950 METAR COR EGLL 100950Z 24017KT 9999 SCT034 SCT041 16/10 Q1003
                        NOSIG=
201405100920 METAR COR EGLL 100920Z 23015KT 9999 SCT015 SCT021 16/11 Q1003
                        NOSIG=
201405100850 METAR COR EGLL 100850Z 23014KT 9999 FEW014 SCT021 16/13 Q1003
                        NOSIG=
201405100820 METAR COR EGLL 100820Z 22012G22KT 180V250 9999 SCT014 BKN019
                        14/12 Q1004 NOSIG=
201405100750 METAR COR EGLL 100750Z 22010KT 9999 FEW009 BKN012 13/12 Q1004
                        BECMG SCT012=
201405100720 METAR COR EGLL 100720Z 21012KT 9999 FEW007 BKN009 13/12 Q1004
                        BECMG SCT009 BKN015=
201405100650 METAR COR EGLL 100650Z 20013KT 9999 FEW006 SCT008 BKN012
                        12/11 Q1004 BECMG SCT012 BKN016=
201405100620 METAR COR EGLL 100620Z 20015KT 6000 -RA SCT008 BKN010 12/11
                        Q1005 BECMG NSW FEW008 SCT010 BKN016=
201405100550 METAR COR EGLL 100550Z 20013KT 4800 -RADZ SCT006 BKN010 12/11
                        Q1005 BECMG 9999 NSW SCT010 BKN016=
201405100520 METAR COR EGLL 100520Z 20013G23KT 5000 -RADZ BR BKN006 BKN013
                        11/10 Q1006 REDZ BECMG NSW SCT009
                        BKN015=
201405100450 METAR COR EGLL 100450Z 21012KT 7000 DZ FEW008 BKN010 BKN014
                        11/10 Q1007 TEMPO 4000 RADZ BKN009=
201405100420 METAR COR EGLL 100420Z 20013KT 9999 -RA BKN010 BKN014 11/10
                        Q1007 RERA TEMPO SCT012 BKN016=
201405100350 METAR COR EGLL 100350Z 19011KT 9999 RA BKN011 BKN015 11/10
                        Q1007 TEMPO -RA SCT012 BKN016=
201405100320 METAR COR EGLL 100320Z 19010KT 9999 -RA BKN014 BKN018 11/10
                        Q1008 TEMPO 4800 RADZ BKN009=
201405100250 METAR COR EGLL 100250Z 20011KT 9000 -RA FEW015 SCT028 BKN045
                        11/10 Q1009 RERA BECMG RA BKN012=
201405100220 METAR EGLL 100220Z AUTO 20011KT 7000 RA BKN010/// BKN014///
                        //////TCU 11/10 Q1010=
201405100150 METAR COR EGLL 100150Z 21010KT 9999 -RA FEW013 SCT030 BKN037
                        12/09 Q1011 BECMG RA BKN012=
201405100120 METAR EGLL 100120Z AUTO 21011KT 9999 SCT044 12/09 Q1011=
201405100050 METAR EGLL 100050Z AUTO 21011KT 9999 FEW013 12/09 Q1011=
201405100020 METAR EGLL 100020Z AUTO 21010KT 9999 SCT017/// BKN067///
                        //////TCU 12/09 Q1012=
201405092350 METAR COR EGLL 092350Z 20008KT CAVOK 12/08 Q1012 NOSIG=
201405092320 METAR COR EGLL 092320Z 21008KT CAVOK 12/07 Q1012 NOSIG=
201405092250 METAR COR EGLL 092250Z 22008KT CAVOK 12/07 Q1013 NOSIG=
201405092220 METAR COR EGLL 092220Z 23009KT CAVOK 13/06 Q1013 NOSIG=
201405092150 METAR COR EGLL 092150Z 25010KT CAVOK 13/06 Q1013 NOSIG=
201405092120 METAR COR EGLL 092120Z 24009KT CAVOK 13/06 Q1013 NOSIG=
201405092050 METAR COR EGLL 092050Z 27011KT CAVOK 13/06 Q1014 NOSIG=
201405092020 METAR COR EGLL 092020Z 27015KT CAVOK 13/06 Q1014 NOSIG=
201405091950 METAR COR EGLL 091950Z 27011KT CAVOK 13/05 Q1014 NOSIG=
201405091920 METAR COR EGLL 091920Z 27012KT CAVOK 14/05 Q1014 NOSIG=
201405091850 METAR COR EGLL 091850Z 27016KT 9999 FEW045 14/04 Q1014 NOSIG=
201405091820 METAR COR EGLL 091820Z 26017KT CAVOK 15/04 Q1013 NOSIG=
201405091750 METAR COR EGLL 091750Z 26017KT CAVOK 16/04 Q1013 NOSIG=
201405091720 METAR COR EGLL 091720Z 26018KT 9999 FEW048 16/05 Q1013 NOSIG=
201405091650 METAR COR EGLL 091650Z 27015KT 9999 FEW046 16/05 Q1013 NOSIG=
201405091620 METAR COR EGLL 091620Z 26018KT 9999 FEW047 17/06 Q1013 NOSIG=
201405091550 METAR COR EGLL 091550Z 27019KT 9999 SCT049 17/05 Q1012 NOSIG=
201405091520 METAR COR EGLL 091520Z 27020KT CAVOK 17/05 Q1012 NOSIG=
201405091450 METAR COR EGLL 091450Z 26021KT CAVOK 17/04 Q1012 NOSIG=
201405091420 METAR COR EGLL 091420Z 26021KT CAVOK 17/04 Q1012 NOSIG=
201405091350 METAR COR EGLL 091350Z 25020KT 9999 FEW049 17/04 Q1011 NOSIG=
201405091320 METAR COR EGLL 091320Z 26020KT CAVOK 17/04 Q1011 NOSIG=
201405091250 METAR COR EGLL 091250Z 26023KT 9999 FEW048 17/04 Q1011 NOSIG=
201405091220 METAR COR EGLL 091220Z 26023KT 9999 FEW048 17/05 Q1011 NOSIG=
201405091150 METAR COR EGLL 091150Z 26025G35KT 9999 SCT046 16/05 Q1011
                        NOSIG=
201405091120 METAR COR EGLL 091120Z 27021KT 9999 FEW045 SCT048 15/05 Q1011
                        NOSIG=
201405091050 METAR COR EGLL 091050Z 27021G31KT 240V300 9999 VCSH SCT038
                        SCT045 15/05 Q1011 NOSIG=
201405091020 METAR COR EGLL 091020Z 26023KT 9999 SCT043 16/05 Q1010 NOSIG=
201405090950 METAR COR EGLL 090950Z 27022KT 9999 VCSH SCT040CB 15/07 Q1010
                        NOSIG=
201405090920 METAR COR EGLL 090920Z 27017KT 9999 FEW035 15/07 Q1010 TEMPO
                        SHRA=
201405090850 METAR COR EGLL 090850Z 27019KT 9999 SCT032 15/07 Q1010 NOSIG=
201405090820 METAR COR EGLL 090820Z 25021KT 9999 FEW027 SCT032 14/08 Q1010
                        NOSIG=
201405090750 METAR COR EGLL 090750Z 25020KT 9999 SCT027 14/08 Q1010 NOSIG=
201405090720 METAR COR EGLL 090720Z 25021KT 9999 FEW025 SCT030 13/08 Q1009
                        NOSIG=
201405090650 METAR COR EGLL 090650Z 23016KT 9999 VCSH SCT022 12/08 Q1009
                        TEMPO SHRA=
201405090620 METAR COR EGLL 090620Z 24015KT 9999 FEW022 12/08 Q1010 TEMPO
                        SHRA=
201405090550 METAR EGLL 090550Z 24012KT 9999 SCT025 12/08 Q1009=
201405090520 METAR COR EGLL 090520Z 24014KT 9999 FEW024 12/07 Q1009 NOSIG=
201405090450 METAR COR EGLL 090450Z 24015KT 9999 SCT034 12/08 Q1009 NOSIG=
201405090420 METAR COR EGLL 090420Z 24016KT 9999 FEW025 BKN045 12/07 Q1009
                        NOSIG=
201405090350 METAR EGLL 090350Z AUTO 25015KT 9999 FEW029 BKN044 12/08
                        Q1009=
201405090320 METAR COR EGLL 090320Z 24013KT 9999 FEW023 BKN040 12/08 Q1009
                        NOSIG=
201405090250 METAR COR EGLL 090250Z 23012KT 9999 SCT023 BKN037 12/09 Q1009
                        NOSIG=
201405090220 METAR COR EGLL 090220Z 25013KT 9999 SCT015 SCT035 12/09 Q1009
                        NOSIG=
201405090150 METAR EGLL 090150Z 25011KT 9999 SCT016 SCT020 12/09 Q1009=
201405090120 METAR EGLL 090120Z AUTO 24011KT 9999 FEW019 SCT025 BKN032
                        13/09 Q1009=
201405090050 METAR EGLL 090050Z AUTO 25012KT 9999 SCT032 12/09 Q1009=
201405090020 METAR EGLL 090020Z AUTO 25014KT 9999 FEW016 12/09 Q1009=
201405082350 METAR COR EGLL 082350Z 25013KT 9999 FEW012 13/10 Q1009 NOSIG=
201405082320 METAR COR EGLL 082320Z 25010KT 9999 FEW012 13/10 Q1009 NOSIG=
201405082250 METAR COR EGLL 082250Z 26013KT 9999 SCT014 13/10 Q1009 TEMPO
                        BKN014=
201405082220 METAR COR EGLL 082220Z 26014KT 9999 SCT014 13/10 Q1008 TEMPO
                        BKN014=
201405082150 METAR COR EGLL 082150Z 27010KT 9999 BKN015 13/10 Q1008 TEMPO
                        BKN013=
201405082120 METAR COR EGLL 082120Z 26014KT 9999 BKN015 13/10 Q1008 TEMPO
                        BKN013=
201405082050 METAR COR EGLL 082050Z 26016KT 9999 BKN013 14/11 Q1008 NOSIG=
201405082020 METAR COR EGLL 082020Z 26013KT 9999 BKN015 14/11 Q1007 TEMPO
                        BKN014=
201405081950 METAR COR EGLL 081950Z 26013KT 9999 BKN016 14/11 Q1007 NOSIG=
201405081920 METAR COR EGLL 081920Z 27012KT 9999 BKN017 14/11 Q1007 NOSIG=
201405081850 METAR COR EGLL 081850Z 26017KT 9999 BKN018 15/11 Q1007 NOSIG=
201405081820 METAR COR EGLL 081820Z 26017KT 9999 BKN020 16/12 Q1006 NOSIG=
201405081750 METAR COR EGLL 081750Z 26022KT 9999 SCT020 BKN027 16/12 Q1005
                        NOSIG=
201405081720 METAR COR EGLL 081720Z 27021KT 9999 FEW014 SCT019 BKN026
                        16/13 Q1005 NOSIG=
201405081650 METAR COR EGLL 081650Z 25016G26KT 9999 -SHRA SCT014 BKN016
                        16/14 Q1005 TEMPO BKN014=
201405081620 METAR COR EGLL 081620Z 23014KT 7000 -SHRA SCT009 BKN010 15/14
                        Q1005 TEMPO BKN009=
201405081550 METAR COR EGLL 081550Z 24014KT 8000 VCSH FEW006 BKN010 16/14
                        Q1005 TEMPO 4500 RADZ BKN006=
201405081520 METAR COR EGLL 081520Z 23014KT 6000 BKN007 BKN016 15/13 Q1004
                        TEMPO FEW007 SCT016=
201405081450 METAR COR EGLL 081450Z 23013KT 9999 -SHRA SCT010 BKN013 15/13
                        Q1005 TEMPO BKN009=
201405081420 METAR COR EGLL 081420Z 23013KT 9999 SCT009 BKN011 15/13 Q1005
                        TEMPO BKN009=
201405081350 METAR COR EGLL 081350Z 23012KT 9999 OVC009 15/13 Q1005 BECMG
                        SCT009 BKN012=
201405081320 METAR COR EGLL 081320Z 23013KT 9999 FEW009 OVC010 15/13 Q1005
                        TEMPO 4500 DZ BKN008=
201405081250 METAR COR EGLL 081250Z 23013KT 9999 FEW010 BKN012 15/13 Q1005
                        TEMPO BKN009=
201405081220 METAR COR EGLL 081220Z 22013KT 9999 FEW008 BKN010 14/13 Q1006
                        TEMPO BKN009=
201405081150 METAR COR EGLL 081150Z 22011KT 9999 -RA FEW009 SCT010TCU
                        BKN011 14/12 Q1006 TEMPO BKN009=
201405081120 METAR COR EGLL 081120Z 21012KT 9999 -RA FEW008 SCT009 BKN012
                        13/12 Q1006 TEMPO BKN009=
201405081050 METAR COR EGLL 081050Z 22010KT 9999 -RADZ SCT007 BKN010 13/12
                        Q1007 TEMPO 4800 RADZ BKN008=
201405081020 METAR COR EGLL 081020Z 20011KT 170V230 6000 -RADZ SCT006
                        BKN009 13/12 Q1007 TEMPO SCT008 BKN012=
201405080950 METAR COR EGLL 080950Z 20011KT 160V240 4800 -RADZ SCT006
                        BKN008 12/11 Q1008 TEMPO 7000 SCT008
                        BKN010=
201405080920 METAR COR EGLL 080920Z 20008KT 170V240 9000 -RA SCT007 BKN011
                        12/11 Q1008 TEMPO 4800 RADZ BKN008=
201405080850 METAR COR EGLL 080850Z 19009KT 170V230 9000 -RA SCT006 BKN011
                        12/11 Q1008 RERA TEMPO 4000 RA BKN007=
201405080820 METAR COR EGLL 080820Z 18009KT 150V220 7000 RA FEW005 SCT008
                        BKN011 12/11 Q1009 RERA TEMPO 4500
                        RADZ BKN008=
201405080750 METAR COR EGLL 080750Z 19009KT 160V230 7000 RA FEW008 BKN012
                        11/10 Q1009 TEMPO 4800 RADZ BKN008=
201405080720 METAR COR EGLL 080720Z 20008KT 8000 -RA SCT010 BKN028 11/10
                        Q1010 TEMPO 4800 RA SCT008 BKN012=
201405080650 METAR COR EGLL 080650Z 21008KT 9000 -RA FEW015 BKN031 11/09
                        Q1010 BECMG 4800 RA BKN012=
201405080620 METAR COR EGLL 080620Z 21009KT 9999 -RA BKN031 11/09 Q1010
                        TEMPO BKN014=
201405080550 METAR COR EGLL 080550Z 22009KT 9999 -RA FEW030 BKN040 11/08
                        Q1010 BECMG BKN012=
201405080520 METAR COR EGLL 080520Z 22008KT 9999 BKN037 12/07 Q1010 NOSIG=
201405080450 METAR COR EGLL 080450Z 21009KT 9999 BKN034 11/06 Q1010 TEMPO
                        RA=
201405080420 METAR COR EGLL 080420Z 22010KT 9999 BKN032 11/06 Q1010 NOSIG=
201405080350 METAR COR EGLL 080350Z 22011KT 9999 BKN040 11/06 Q1011 NOSIG=
201405080320 METAR COR EGLL 080320Z 24012KT 9999 BKN035 12/06 Q1011 NOSIG=
201405080250 METAR COR EGLL 080250Z 24012KT 9999 BKN034 12/06 Q1011 NOSIG=
201405080220 METAR COR EGLL 080220Z 24014KT 9999 SCT034 SCT036 12/06 Q1011
                        NOSIG=
201405080150 METAR EGLL 080150Z 24013KT 9999 BKN035 11/07 Q1011=
201405080120 METAR EGLL 080120Z AUTO 24013KT 9999 SCT032 BKN036 12/07
                        Q1011=
201405080050 METAR EGLL 080050Z AUTO 24014KT 9999 OVC034 12/07 Q1011=
201405080020 METAR EGLL 080020Z AUTO 25014KT 9999 FEW024 OVC036 12/07
                        Q1011=
201405072350 METAR COR EGLL 072350Z 24013KT 9999 SCT037 SCT039 12/07 Q1011
                        NOSIG=
201405072320 METAR COR EGLL 072320Z 25014KT 9999 BKN039 12/07 Q1012 NOSIG=
201405072250 METAR COR EGLL 072250Z 26014KT 9999 BKN041 13/06 Q1012 NOSIG=
201405072220 METAR COR EGLL 072220Z 25014KT 9999 FEW037 BKN045 13/07 Q1011
                        NOSIG=
201405072150 METAR COR EGLL 072150Z 25015KT 9999 SCT032 SCT045 13/07 Q1011
                        NOSIG=
201405072120 METAR COR EGLL 072120Z 24014KT 9999 BKN046 13/07 Q1011 NOSIG=
201405072050 METAR COR EGLL 072050Z 25014KT 9999 FEW035 BKN044 13/07 Q1011
                        NOSIG=
201405072020 METAR COR EGLL 072020Z 26012KT 9999 SCT029 SCT036 BKN042
                        14/08 Q1011 NOSIG=
201405071950 METAR COR EGLL 071950Z 27012KT 9999 BKN031 14/07 Q1011 NOSIG=
201405071920 METAR COR EGLL 071920Z 26015KT 9999 BKN046 14/06 Q1011 NOSIG=
201405071850 METAR EGLL 071850Z 27015KT 9999 FEW038 BKN044 14/06 Q1011=
201405071820 METAR COR EGLL 071820Z 27016KT 9999 FEW039 BKN042 14/06 Q1011
                        NOSIG=
201405071750 METAR COR EGLL 071750Z 26020KT 9999 SCT034 SCT042 14/07 Q1010
                        NOSIG=
201405071720 METAR COR EGLL 071720Z 26017KT 9999 BKN033 15/08 Q1010 NOSIG=
201405071650 METAR COR EGLL 071650Z 25019KT 9999 SCT037 16/07 Q1010 NOSIG=
201405071620 METAR COR EGLL 071620Z 27022KT 9999 SCT038 16/07 Q1010 NOSIG=
201405071550 METAR COR EGLL 071550Z 26020KT 9999 SCT045 16/06 Q1009 NOSIG=
201405071520 METAR COR EGLL 071520Z 25017KT 9999 FEW040 16/07 Q1009 NOSIG=
201405071450 METAR COR EGLL 071450Z 23019KT 9999 FEW042 17/07 Q1009 NOSIG=
201405071420 METAR COR EGLL 071420Z 25017KT 9999 FEW040 17/07 Q1009 NOSIG=
201405071350 METAR COR EGLL 071350Z 26017KT 9999 FEW038 SCT044 16/07 Q1009
                        NOSIG=
201405071320 METAR COR EGLL 071320Z 25013KT 220V280 9999 SCT047 16/08
                        Q1009 NOSIG=
201405071250 METAR COR EGLL 071250Z 26018KT 9999 VCSH FEW031 SCT044 14/08
                        Q1010 NOSIG=
201405071220 METAR COR EGLL 071220Z 27016KT 9999 5000NE -SHRA SCT038 SCT044
                        15/07 Q1009 RESHRA NOSIG=
201405071150 METAR COR EGLL 071150Z 25015G25KT 9999 FEW038 15/07 Q1009
                        NOSIG=
201405071120 METAR COR EGLL 071120Z 24013KT 9999 FEW040 SCT043 16/07 Q1009
                        NOSIG=
201405071050 METAR COR EGLL 071050Z 24012KT 9999 FEW032 SCT046 14/07 Q1009
                        NOSIG=
201405071020 METAR COR EGLL 071020Z 27013KT 9999 VCSH FEW030 BKN045 12/07
                        Q1009 NOSIG=
201405070950 METAR COR EGLL 070950Z 26015KT 9999 -SHRA SCT037 BKN045 13/07
                        Q1009 NOSIG=
201405070920 METAR COR EGLL 070920Z 26015KT 9999 SCT032 13/08 Q1009 NOSIG=
201405070850 METAR COR EGLL 070850Z 26016KT 9999 FEW025 SCT037 13/08 Q1009
                        NOSIG=
201405070820 METAR COR EGLL 070820Z 25011KT 9999 FEW025 SCT048 12/08 Q1008
                        NOSIG=
201405070750 METAR COR EGLL 070750Z 27015KT 9999 6000E -SHRA SCT023 SCT032
                        10/08 Q1008 RESHRA NOSIG=
201405070720 METAR COR EGLL 070720Z 25013KT 9999 VCSH SCT023 SCT040 13/07
                        Q1008 NOSIG=
201405070650 METAR COR EGLL 070650Z 25015KT 9999 FEW020 SCT024 13/08 Q1008
                        NOSIG=
201405070620 METAR COR EGLL 070620Z 24013KT 9999 SCT022 12/08 Q1008 NOSIG=
201405070550 METAR COR EGLL 070550Z 25012KT 9999 FEW024 12/08 Q1008 NOSIG=
201405070520 METAR COR EGLL 070520Z 24012KT 9999 FEW022 12/08 Q1007 NOSIG=
201405070450 METAR COR EGLL 070450Z 24012KT 9999 FEW022 12/08 Q1007 NOSIG=
201405070420 METAR COR EGLL 070420Z 24011KT 9999 SCT022 12/09 Q1007 NOSIG=
201405070350 METAR COR EGLL 070350Z 23011KT 9999 SCT023 12/09 Q1006 NOSIG=
201405070320 METAR COR EGLL 070320Z 22009KT 9000 -SHRA FEW019 SCT023 12/09
                        Q1006 NOSIG=
201405070250 METAR COR EGLL 070250Z 21008KT 9999 FEW018 11/09 Q1006 NOSIG=
201405070220 METAR COR EGLL 070220Z 21007KT 9999 FEW019 11/08 Q1007 NOSIG=
201405070150 METAR COR EGLL 070150Z 22007KT CAVOK 11/08 Q1007 NOSIG=
201405070120 METAR EGLL 070120Z AUTO 21008KT 9999 NCD 11/09 Q1007=
201405070050 METAR EGLL 070050Z AUTO 21008KT 9999 NCD 11/09 Q1007=
201405070020 METAR EGLL 070020Z AUTO 22012KT 9999 SCT015 11/08 Q1007=
201405062350 METAR COR EGLL 062350Z 21009KT CAVOK 11/09 Q1007 NOSIG=
201405062320 METAR COR EGLL 062320Z 22008KT CAVOK 12/08 Q1007 NOSIG=
201405062250 METAR COR EGLL 062250Z 23009KT CAVOK 12/08 Q1007 NOSIG=
201405062220 METAR COR EGLL 062220Z 24009KT 9999 FEW045 12/08 Q1007 NOSIG=
201405062150 METAR COR EGLL 062150Z 25008KT 9999 SCT035 SCT047 12/08 Q1007
                        NOSIG=
201405062120 METAR COR EGLL 062120Z 25013KT 9999 FEW026 SCT041 12/08 Q1007
                        NOSIG=
201405062050 METAR COR EGLL 062050Z 28011KT 250V310 9999 BKN028 14/08
                        Q1007 NOSIG=
201405062020 METAR COR EGLL 062020Z 29007KT 9999 BKN037 13/08 Q1006 NOSIG=
201405061950 METAR COR EGLL 061950Z 30006KT 9999 BKN038 14/08 Q1006 NOSIG=
201405061920 METAR COR EGLL 061920Z 26012KT 230V310 9999 FEW044 15/06
                        Q1006 NOSIG=
201405061850 METAR COR EGLL 061850Z 25015KT CAVOK 16/06 Q1005 NOSIG=
201405061820 METAR COR EGLL 061820Z 24013KT CAVOK 16/06 Q1005 NOSIG=
201405061750 METAR COR EGLL 061750Z 25013KT CAVOK 17/05 Q1005 NOSIG=
201405061720 METAR COR EGLL 061720Z 24011KT 210V270 CAVOK 18/05 Q1005
                        NOSIG=
201405061650 METAR COR EGLL 061650Z 25014KT CAVOK 17/05 Q1005 NOSIG=
201405061620 METAR COR EGLL 061620Z 25013KT CAVOK 18/05 Q1005 NOSIG=
201405061550 METAR COR EGLL 061550Z 25013KT CAVOK 18/05 Q1005 NOSIG=
201405061520 METAR COR EGLL 061520Z 25013KT 220V280 CAVOK 18/04 Q1005
                        NOSIG=
201405061450 METAR COR EGLL 061450Z 25011KT CAVOK 17/05 Q1005 NOSIG=
201405061420 METAR COR EGLL 061420Z 26011KT CAVOK 18/05 Q1005 NOSIG=
201405061350 METAR COR EGLL 061350Z 27012KT 9999 FEW049 18/06 Q1006 NOSIG=
201405061320 METAR COR EGLL 061320Z 27014KT 9999 FEW049 19/06 Q1006 NOSIG=
201405061250 METAR COR EGLL 061250Z 25013KT 9999 FEW049 17/06 Q1006 NOSIG=
201405061220 METAR COR EGLL 061220Z 24014KT 9999 SCT042 SCT047 17/05 Q1006
                        NOSIG=
201405061150 METAR COR EGLL 061150Z 25012KT 9999 SCT043 18/07 Q1006 NOSIG=
201405061120 METAR COR EGLL 061120Z 25011KT 9999 SCT040 16/07 Q1006 NOSIG=
201405061050 METAR COR EGLL 061050Z 27012KT 9999 FEW034 SCT040 17/07 Q1007
                        NOSIG=
201405061020 METAR COR EGLL 061020Z 26012KT 9999 FEW031 SCT040 17/07 Q1007
                        NOSIG=
201405060950 METAR COR EGLL 060950Z 26012KT 220V280 9999 SCT031 SCT037
                        16/08 Q1006 NOSIG=
201405060920 METAR COR EGLL 060920Z 26012KT 9999 SCT027 16/08 Q1006 NOSIG=
201405060850 METAR COR EGLL 060850Z 25013KT 9999 SCT027 16/09 Q1006 NOSIG=
201405060820 METAR COR EGLL 060820Z 26013KT 9999 FEW020 SCT027 15/09 Q1006
                        NOSIG=
201405060750 METAR COR EGLL 060750Z 26011KT 9999 FEW012 SCT025 14/10 Q1006
                        NOSIG=
201405060720 METAR COR EGLL 060720Z 23010KT 9999 FEW012 BKN015 14/11 Q1005
                        NOSIG=
201405060650 METAR COR EGLL 060650Z 23011KT 9999 FEW012 BKN018 14/11 Q1005
                        NOSIG=
201405060620 METAR COR EGLL 060620Z 22011KT 9999 -SHRA FEW012 SCT018 13/11
                        Q1005 NOSIG=
201405060550 METAR COR EGLL 060550Z 22008KT 9999 VCSH FEW010 SCT016 BKN020
                        13/11 Q1005 NOSIG=
201405060520 METAR COR EGLL 060520Z 22008KT 180V280 9999 FEW012 BKN014
                        13/11 Q1005 NOSIG=
201405060450 METAR COR EGLL 060450Z 20006KT 9999 BKN014 12/11 Q1005 NOSIG=
201405060420 METAR COR EGLL 060420Z 20006KT 9999 SCT014 SCT036 12/11 Q1005
                        TEMPO BKN012=
201405060350 METAR COR EGLL 060350Z 20006KT 9999 -RA SCT014 SCT017 12/10
                        Q1005 TEMPO BKN012=
201405060320 METAR COR EGLL 060320Z 20005KT 9999 SCT012 SCT015 12/10 Q1005
                        TEMPO BKN012=
201405060250 METAR COR EGLL 060250Z 20004KT 9999 SCT012 12/10 Q1005 TEMPO
                        BKN012=
201405060220 METAR COR EGLL 060220Z 22007KT 9999 -RA FEW012 12/10 Q1005
                        TEMPO BKN012=
201405060150 METAR COR EGLL 060150Z 23006KT 9999 -RA FEW045 12/09 Q1005
                        REDZ NOSIG=
201405060120 METAR EGLL 060120Z AUTO 23007KT 9999 DZ SCT048 13/09 Q1005=
201405060050 METAR EGLL 060050Z AUTO 21005KT 9999 -RA NCD 13/08 Q1005=
201405060020 METAR EGLL 060020Z AUTO 21005KT 9999 NCD 13/08 Q1006=
201405052350 METAR COR EGLL 052350Z 23007KT CAVOK 14/07 Q1006 NOSIG=
201405052320 METAR COR EGLL 052320Z 22007KT CAVOK 14/07 Q1006 NOSIG=
201405052250 METAR COR EGLL 052250Z 19005KT CAVOK 14/07 Q1006 NOSIG=
201405052220 METAR EGLL 052220Z 16006KT CAVOK 14/07 Q1006=
201405052150 METAR COR EGLL 052150Z 18006KT CAVOK 14/07 Q1007 NOSIG=
201405052120 METAR COR EGLL 052120Z 18007KT CAVOK 15/07 Q1007 NOSIG=
201405052050 METAR COR EGLL 052050Z 19007KT CAVOK 15/07 Q1007 NOSIG=
201405052020 METAR COR EGLL 052020Z 16007KT CAVOK 15/07 Q1007 NOSIG=
201405051950 METAR COR EGLL 051950Z 16005KT CAVOK 16/06 Q1007 NOSIG=
201405051920 METAR COR EGLL 051920Z 17006KT CAVOK 16/06 Q1008 NOSIG=
201405051850 METAR COR EGLL 051850Z 16009KT CAVOK 16/06 Q1007 NOSIG=
201405051820 METAR COR EGLL 051820Z 16009KT CAVOK 17/06 Q1008 NOSIG=
201405051750 METAR COR EGLL 051750Z 18009KT CAVOK 17/05 Q1008 NOSIG=
201405051720 METAR COR EGLL 051720Z 18010KT CAVOK 17/05 Q1008 NOSIG=
201405051650 METAR COR EGLL 051650Z 19012KT CAVOK 17/05 Q1009 NOSIG=
201405051620 METAR COR EGLL 051620Z 18013KT CAVOK 17/04 Q1009 NOSIG=
201405051550 METAR COR EGLL 051550Z 18013KT CAVOK 18/04 Q1009 NOSIG=
201405051520 METAR COR EGLL 051520Z 16012KT CAVOK 18/04 Q1010 NOSIG=
201405051450 METAR COR EGLL 051450Z 16014KT CAVOK 18/05 Q1010 NOSIG=
201405051420 METAR COR EGLL 051420Z 16013KT CAVOK 17/05 Q1010 NOSIG=
201405051350 METAR COR EGLL 051350Z 16010KT 140V200 CAVOK 18/05 Q1011
                        NOSIG=
201405051320 METAR COR EGLL 051320Z 18013G23KT CAVOK 18/05 Q1011 NOSIG=
201405051250 METAR COR EGLL 051250Z 20013KT CAVOK 18/05 Q1012 NOSIG=
201405051220 METAR COR EGLL 051220Z 18012KT CAVOK 17/04 Q1012 NOSIG=
201405051150 METAR COR EGLL 051150Z 19014KT CAVOK 17/05 Q1012 NOSIG=
201405051120 METAR COR EGLL 051120Z 16013KT CAVOK 18/06 Q1012 NOSIG=
201405051050 METAR COR EGLL 051050Z 17012KT 9999 FEW039 17/06 Q1013 NOSIG=
201405051020 METAR COR EGLL 051020Z 16012KT 9999 FEW039 16/07 Q1013 NOSIG=
201405050950 METAR COR EGLL 050950Z 17009KT 150V210 CAVOK 16/07 Q1014
                        NOSIG=
201405050920 METAR COR EGLL 050920Z 16009KT CAVOK 15/07 Q1014 NOSIG=
201405050850 METAR COR EGLL 050850Z 16009KT CAVOK 14/07 Q1015 NOSIG=
201405050820 METAR COR EGLL 050820Z 16008KT CAVOK 13/07 Q1015 NOSIG=
201405050750 METAR COR EGLL 050750Z 16008KT CAVOK 12/07 Q1015 NOSIG=
201405050720 METAR COR EGLL 050720Z 15007KT CAVOK 10/06 Q1015 NOSIG=
201405050650 METAR COR EGLL 050650Z 13005KT CAVOK 10/06 Q1016 NOSIG=
201405050620 METAR COR EGLL 050620Z VRB02KT CAVOK 09/05 Q1016 NOSIG=
201405050550 METAR COR EGLL 050550Z VRB02KT CAVOK 07/05 Q1016 NOSIG=
201405050520 METAR COR EGLL 050520Z VRB02KT CAVOK 06/04 Q1016 NOSIG=
201405050450 METAR COR EGLL 050450Z 14005KT CAVOK 05/04 Q1016 NOSIG=
201405050420 METAR COR EGLL 050420Z 13004KT CAVOK 05/03 Q1016 NOSIG=
201405050350 METAR COR EGLL 050350Z 12006KT CAVOK 05/03 Q1016 NOSIG=
201405050320 METAR COR EGLL 050320Z 14005KT CAVOK 05/04 Q1017 NOSIG=
201405050250 METAR COR EGLL 050250Z 14005KT CAVOK 05/04 Q1017 NOSIG=
201405050220 METAR COR EGLL 050220Z 13003KT CAVOK 06/04 Q1018 NOSIG=
201405050150 METAR COR EGLL 050150Z 15003KT CAVOK 07/04 Q1018 NOSIG=
201405050120 METAR EGLL 050120Z AUTO 14004KT 9999 NCD 07/04 Q1018=
201405050050 METAR EGLL 050050Z AUTO 15003KT 9999 NCD 07/05 Q1018=
201405050020 METAR EGLL 050020Z AUTO 15003KT 9999 NCD 08/05 Q1018=
201405042350 METAR COR EGLL 042350Z 17004KT CAVOK 08/05 Q1018 NOSIG=
201405042320 METAR COR EGLL 042320Z 18005KT CAVOK 08/05 Q1019 NOSIG=
201405042250 METAR COR EGLL 042250Z 18005KT CAVOK 09/06 Q1019 NOSIG=
201405042220 METAR COR EGLL 042220Z 22005KT CAVOK 09/06 Q1019 NOSIG=
201405042150 METAR COR EGLL 042150Z 22006KT CAVOK 10/06 Q1019 NOSIG=
201405042120 METAR COR EGLL 042120Z 20007KT CAVOK 10/06 Q1019 NOSIG=
201405042050 METAR COR EGLL 042050Z 20008KT 180V240 CAVOK 11/06 Q1019
                        NOSIG=
201405042020 METAR COR EGLL 042020Z 20009KT 160V250 CAVOK 12/06 Q1019
                        NOSIG=
201405041950 METAR COR EGLL 041950Z 20009KT 180V250 CAVOK 12/06 Q1019
                        NOSIG=
201405041920 METAR COR EGLL 041920Z 20010KT 180V250 CAVOK 13/06 Q1019
                        NOSIG=
201405041850 METAR COR EGLL 041850Z 19009KT CAVOK 14/06 Q1020 NOSIG=
201405041820 METAR COR EGLL 041820Z 19009KT CAVOK 14/06 Q1020 NOSIG=
201405041750 METAR COR EGLL 041750Z 21009KT 180V250 9999 FEW047 15/06
                        Q1020 NOSIG=
201405041720 METAR COR EGLL 041720Z 20008KT 180V240 9999 FEW047 15/06
                        Q1020 NOSIG=
201405041650 METAR COR EGLL 041650Z 20009KT 170V230 9999 FEW048 15/06
                        Q1020 NOSIG=
201405041620 METAR COR EGLL 041620Z 19008KT 9999 FEW048 16/05 Q1021 NOSIG=
201405041550 METAR COR EGLL 041550Z 19007KT 160V260 9999 FEW048 16/05
                        Q1021 NOSIG=
201405041520 METAR COR EGLL 041520Z 19006KT 120V260 9999 FEW048 16/04
                        Q1021 NOSIG=
201405041450 METAR COR EGLL 041450Z 20005KT 160V230 9999 FEW047 16/05
                        Q1021 NOSIG=
201405041420 METAR COR EGLL 041420Z 19008KT 140V240 9999 FEW044 16/05
                        Q1021 NOSIG=
201405041350 METAR COR EGLL 041350Z 21007KT 9999 FEW044 16/05 Q1022 NOSIG=
201405041320 METAR COR EGLL 041320Z 19008KT 130V250 9999 FEW048 16/04
                        Q1022 NOSIG=
201405041250 METAR COR EGLL 041250Z VRB07KT 9999 FEW044 15/04 Q1022 NOSIG=
201405041220 METAR COR EGLL 041220Z VRB04KT 9999 FEW044 16/05 Q1023 NOSIG=
201405041150 METAR COR EGLL 041150Z VRB05KT 9999 FEW040 15/04 Q1023 NOSIG=
201405041120 METAR COR EGLL 041120Z 21005KT 140V260 9999 FEW038 15/05
                        Q1024 NOSIG=
201405041050 METAR COR EGLL 041050Z VRB05KT 9999 FEW038 14/04 Q1024 NOSIG=
201405041020 METAR COR EGLL 041020Z VRB05KT 9999 FEW036 14/04 Q1024 NOSIG=
201405040950 METAR COR EGLL 040950Z 27006KT 220V320 9999 FEW040 13/03
                        Q1025 NOSIG=
201405040920 METAR COR EGLL 040920Z 28006KT 240V320 CAVOK 12/04 Q1025
                        NOSIG=
201405040850 METAR COR EGLL 040850Z 24005KT 180V360 CAVOK 11/04 Q1025
                        NOSIG=
201405040820 METAR COR EGLL 040820Z 23007KT 190V260 CAVOK 11/05 Q1025
                        NOSIG=
201405040750 METAR COR EGLL 040750Z 24007KT CAVOK 10/05 Q1025 NOSIG=
201405040720 METAR COR EGLL 040720Z 22006KT 180V260 CAVOK 09/04 Q1025
                        NOSIG=
201405040650 METAR COR EGLL 040650Z 22005KT CAVOK 08/04 Q1025 NOSIG=
201405040620 METAR COR EGLL 040620Z VRB03KT CAVOK 07/04 Q1025 NOSIG=
201405040550 METAR COR EGLL 040550Z VRB03KT CAVOK 06/04 Q1025 NOSIG=
201405040520 METAR COR EGLL 040520Z VRB03KT CAVOK 05/03 Q1025 NOSIG=
201405040450 METAR COR EGLL 040450Z 16002KT CAVOK 05/03 Q1025 NOSIG=
201405040420 METAR COR EGLL 040420Z 12002KT CAVOK 05/03 Q1025 NOSIG=
201405040350 METAR COR EGLL 040350Z VRB02KT CAVOK 06/03 Q1025 NOSIG=
201405040320 METAR COR EGLL 040320Z 00000KT CAVOK 06/03 Q1026 NOSIG=
201405040250 METAR COR EGLL 040250Z 17003KT CAVOK 06/03 Q1026 NOSIG=
201405040220 METAR COR EGLL 040220Z 18003KT CAVOK 06/03 Q1026 NOSIG=
201405040150 METAR COR EGLL 040150Z 17004KT CAVOK 06/03 Q1026 NOSIG=
201405040120 METAR EGLL 040120Z AUTO 17005KT 9999 NCD 06/03 Q1026=
201405040050 METAR EGLL 040050Z AUTO 16005KT 9999 NCD 07/03 Q1026=
201405040020 METAR EGLL 040020Z AUTO 16004KT 9999 NCD 07/03 Q1026=
201405032350 METAR COR EGLL 032350Z 16004KT CAVOK 07/03 Q1027 NOSIG=
201405032320 METAR COR EGLL 032320Z 16005KT CAVOK 08/03 Q1027 NOSIG=
201405032250 METAR COR EGLL 032250Z 14005KT CAVOK 08/03 Q1027 NOSIG=
201405032220 METAR COR EGLL 032220Z 14004KT CAVOK 09/03 Q1027 NOSIG=
201405032150 METAR COR EGLL 032150Z 11007KT CAVOK 08/03 Q1026 NOSIG=
201405032120 METAR COR EGLL 032120Z 09006KT CAVOK 09/02 Q1026 NOSIG=
201405032050 METAR COR EGLL 032050Z 07005KT CAVOK 11/01 Q1026 NOSIG=
201405032020 METAR COR EGLL 032020Z 07005KT CAVOK 11/01 Q1026 NOSIG=
201405031950 METAR COR EGLL 031950Z 05005KT CAVOK 12/01 Q1026 NOSIG=
201405031920 METAR COR EGLL 031920Z 05004KT 010V090 CAVOK 12/00 Q1026
                        NOSIG=
201405031850 METAR COR EGLL 031850Z VRB03KT CAVOK 13/00 Q1026 NOSIG=
201405031820 METAR COR EGLL 031820Z 36004KT 330V040 CAVOK 13/00 Q1026
                        NOSIG=
201405031750 METAR COR EGLL 031750Z VRB03KT CAVOK 13/00 Q1026 NOSIG=
201405031720 METAR COR EGLL 031720Z VRB03KT CAVOK 14/00 Q1026 NOSIG=
201405031650 METAR COR EGLL 031650Z 31005KT 260V330 CAVOK 14/01 Q1026
                        NOSIG=
201405031620 METAR COR EGLL 031620Z VRB02KT CAVOK 14/01 Q1027 NOSIG=
201405031550 METAR COR EGLL 031550Z VRB04KT CAVOK 14/00 Q1027 NOSIG=
201405031520 METAR COR EGLL 031520Z 02005KT 300V080 CAVOK 14/01 Q1027
                        NOSIG=
201405031450 METAR COR EGLL 031450Z VRB03KT CAVOK 13/01 Q1027 NOSIG=
201405031420 METAR COR EGLL 031420Z VRB05KT CAVOK 14/00 Q1028 NOSIG=
201405031350 METAR COR EGLL 031350Z VRB05KT 9999 FEW049 13/01 Q1028 NOSIG=
201405031320 METAR COR EGLL 031320Z 06005KT 010V130 9999 FEW049 13/02
                        Q1028 NOSIG=
201405031250 METAR COR EGLL 031250Z VRB03KT 9999 FEW048 13/02 Q1028 NOSIG=
201405031220 METAR COR EGLL 031220Z VRB04KT 9999 FEW044 12/01 Q1028 NOSIG=
201405031150 METAR COR EGLL 031150Z VRB04KT 9999 FEW044 12/01 Q1029 NOSIG=
201405031120 METAR COR EGLL 031120Z 10006KT 030V190 9999 FEW040 12/02
                        Q1029 NOSIG=
201405031050 METAR COR EGLL 031050Z 04005KT 350V130 9999 FEW040 11/01
                        Q1029 NOSIG=
201405031020 METAR COR EGLL 031020Z 08006KT 040V120 9999 FEW040 11/01
                        Q1029 NOSIG=
201405030950 METAR COR EGLL 030950Z 06005KT 010V120 9999 FEW040 10/00
                        Q1029 NOSIG=
201405030920 METAR COR EGLL 030920Z 07005KT 360V100 9999 FEW039 10/00
                        Q1029 NOSIG=
201405030850 METAR COR EGLL 030850Z 05007KT 360V100 9999 FEW038 09/00
                        Q1029 NOSIG=
201405030820 METAR COR EGLL 030820Z 06008KT 010V090 9999 FEW036 09/01
                        Q1029 NOSIG=
201405030750 METAR COR EGLL 030750Z VRB03KT 9999 FEW028 09/01 Q1030 NOSIG=
201405030720 METAR COR EGLL 030720Z 02005KT 330V070 CAVOK 07/02 Q1030
                        NOSIG=
201405030650 METAR COR EGLL 030650Z 04004KT 330V070 CAVOK 06/01 Q1030
                        NOSIG=
201405030620 METAR COR EGLL 030620Z VRB03KT CAVOK 05/01 Q1029 NOSIG=
201405030550 METAR COR EGLL 030550Z 35004KT CAVOK 04/01 Q1029 NOSIG=
201405030520 METAR COR EGLL 030520Z 35004KT CAVOK 03/00 Q1029 NOSIG=
201405030450 METAR COR EGLL 030450Z 35003KT CAVOK 03/00 Q1029 NOSIG=
201405030420 METAR COR EGLL 030420Z 01003KT CAVOK 02/M00 Q1029 NOSIG=
201405030350 METAR COR EGLL 030350Z 35004KT 310V030 CAVOK 03/00 Q1029
                        NOSIG=
201405030320 METAR COR EGLL 030320Z 34004KT 300V020 CAVOK 03/00 Q1029
                        NOSIG=
201405030250 METAR COR EGLL 030250Z VRB03KT CAVOK 03/00 Q1029 NOSIG=
201405030220 METAR COR EGLL 030220Z VRB02KT CAVOK 03/00 Q1029 NOSIG=
201405030150 METAR COR EGLL 030150Z 36003KT CAVOK 04/01 Q1029 NOSIG=
201405030120 METAR EGLL 030120Z AUTO VRB03KT 9999 NCD 04/01 Q1029=
201405030050 METAR EGLL 030050Z AUTO 35003KT 9999 NCD 04/01 Q1029=
201405030020 METAR EGLL 030020Z AUTO 01003KT 9999 NCD 05/01 Q1029=
201405022350 METAR COR EGLL 022350Z VRB03KT CAVOK 05/01 Q1030 NOSIG=
201405022320 METAR COR EGLL 022320Z 04005KT CAVOK 06/02 Q1030 NOSIG=
201405022250 METAR COR EGLL 022250Z 05006KT CAVOK 06/02 Q1029 NOSIG=
201405022220 METAR COR EGLL 022220Z 04004KT 350V070 CAVOK 07/02 Q1029
                        NOSIG=
201405022150 METAR COR EGLL 022150Z 04005KT CAVOK 07/02 Q1029 NOSIG=
201405022120 METAR COR EGLL 022120Z 02005KT 350V050 CAVOK 08/03 Q1029
                        NOSIG=
201405022050 METAR COR EGLL 022050Z 02005KT 340V050 CAVOK 08/03 Q1028
                        NOSIG=
201405022020 METAR COR EGLL 022020Z 02004KT 320V050 CAVOK 09/04 Q1028
                        NOSIG=
201405021950 METAR COR EGLL 021950Z 01005KT 340V070 9999 FEW030 10/04
                        Q1028 NOSIG=
201405021920 METAR COR EGLL 021920Z 02005KT 330V050 9999 FEW030 10/04
                        Q1027 NOSIG=
201405021850 METAR COR EGLL 021850Z 02006KT 340V070 9999 FEW030 11/04
                        Q1027 NOSIG=
201405021820 METAR COR EGLL 021820Z 03007KT 360V070 9999 SCT030 11/05
                        Q1027 NOSIG=
201405021750 METAR COR EGLL 021750Z 03005KT 340V060 9999 SCT028 SCT045
                        11/05 Q1027 NOSIG=
201405021720 METAR COR EGLL 021720Z 04006KT 360V060 9999 FEW027 SCT042
                        11/05 Q1026 NOSIG=
201405021650 METAR COR EGLL 021650Z 03005KT 350V060 9999 FEW024 SCT032
                        11/06 Q1026 NOSIG=
201405021620 METAR COR EGLL 021620Z 02005KT 340V060 9999 FEW020 SCT045
                        10/06 Q1026 NOSIG=
201405021550 METAR COR EGLL 021550Z 02006KT 340V050 9999 FEW016 BKN034
                        10/06 Q1026 NOSIG=
201405021520 METAR COR EGLL 021520Z 04008KT 010V070 9999 -SHRA FEW020
                        BKN032 10/06 Q1026 NOSIG=
201405021450 METAR COR EGLL 021450Z 05007KT 9999 SCT023 BKN034 10/06 Q1025
                        NOSIG=
201405021420 METAR COR EGLL 021420Z 03007KT 350V060 9999 SCT031 11/06
                        Q1025 NOSIG=
201405021350 METAR COR EGLL 021350Z 01008KT 340V050 9999 SCT028 SCT048
                        12/06 Q1025 NOSIG=
201405021320 METAR COR EGLL 021320Z 04008KT 010V070 9999 SCT027 SCT048
                        12/06 Q1025 NOSIG=
201405021250 METAR COR EGLL 021250Z 04008KT 010V080 9999 SCT028 SCT045
                        13/07 Q1024 NOSIG=
201405021220 METAR COR EGLL 021220Z 04008KT 350V070 9999 BKN044 12/07
                        Q1024 NOSIG=
201405021150 METAR COR EGLL 021150Z 04008KT 350V070 9999 SCT025 SCT035
                        12/06 Q1024 NOSIG=
201405021120 METAR COR EGLL 021120Z 01009KT 330V060 9999 SCT022 SCT030
                        12/07 Q1024 NOSIG=
201405021050 METAR COR EGLL 021050Z 04007KT 340V080 9999 FEW020 SCT023
                        BKN030 11/06 Q1024 NOSIG=
201405021020 METAR COR EGLL 021020Z 02007KT 340V050 9999 SCT025 BKN029
                        11/07 Q1023 NOSIG=
201405020950 METAR COR EGLL 020950Z 01007KT 340V040 9999 SCT020 SCT027
                        11/07 Q1023 NOSIG=
201405020920 METAR COR EGLL 020920Z 04008KT 350V060 9999 BKN021 11/06
                        Q1023 NOSIG=
201405020850 METAR COR EGLL 020850Z 04007KT 350V080 9999 BKN019 BKN025
                        10/06 Q1022 NOSIG=
201405020820 METAR COR EGLL 020820Z 02005KT 330V050 9999 FEW015 BKN017
                        BKN025 10/06 Q1022 NOSIG=
201405020750 METAR COR EGLL 020750Z 04009KT 360V070 9999 SCT015 BKN017
                        BKN020 10/07 Q1022 NOSIG=
201405020720 METAR COR EGLL 020720Z 03008KT 350V070 9999 SCT009 BKN015
                        10/07 Q1021 TEMPO BKN014=
201405020650 METAR COR EGLL 020650Z 02006KT 340V070 9000 FEW007 BKN009
                        09/08 Q1021 BECMG SCT009 BKN014=
201405020620 METAR COR EGLL 020620Z 02007KT 350V050 9000 BKN009 09/08
                        Q1021 BECMG SCT009 BKN014=
201405020550 METAR COR EGLL 020550Z 02006KT 330V050 8000 BKN008 09/08
                        Q1020 BECMG SCT008 BKN012=
201405020520 METAR COR EGLL 020520Z 01007KT 330V040 7000 BKN006 09/08
                        Q1020 BECMG SCT008 BKN012=
201405020450 METAR COR EGLL 020450Z 02006KT 310V070 9000 BKN008 09/08
                        Q1019 BECMG SCT008 BKN012=
201405020420 METAR COR EGLL 020420Z 01006KT 340V060 8000 FEW004 BKN008
                        09/08 Q1018 BECMG SCT008 BKN012=
201405020350 METAR COR EGLL 020350Z 01008KT 340V040 8000 BKN004 09/08
                        Q1018 BECMG SCT007 BKN012=
201405020320 METAR COR EGLL 020320Z 02007KT 340V050 9999 OVC007 10/08
                        Q1018 BECMG SCT008 BKN015=
201405020250 METAR EGLL 020250Z AUTO 01008KT 7000 SCT006 BKN010 10/08
                        Q1018=
201405020220 METAR COR EGLL 020220Z 01006KT 330V040 9999 FEW009 OVC017
                        10/09 Q1017 TEMPO BKN008=
201405020150 METAR COR EGLL 020150Z 01005KT 340V050 6000 FEW014 BKN027
                        10/09 Q1017 TEMPO BKN010=
201405020120 METAR EGLL 020120Z AUTO 02005KT 340V080 3600 HZ NCD 10/09
                        Q1016=
201405020050 METAR EGLL 020050Z AUTO 04007KT 360V070 3500 HZ SCT024 BKN028
                        11/09 Q1016=
201405020020 METAR EGLL 020020Z AUTO 02005KT 350V050 2900 HZ BKN009 BKN021
                        11/09 Q1016=
201405012350 METAR COR EGLL 012350Z 02006KT 2700 HZ OVC008 11/09 Q1016
                        BECMG 6000 SCT008 BKN016=
201405012320 METAR COR EGLL 012320Z 02007KT 350V050 2000 -RA BKN007 11/10
                        Q1015 BECMG 6000 SCT007 BKN016=
201405012250 METAR COR EGLL 012250Z 01008KT 350V050 2600 -RA BKN008 11/10
                        Q1015 BECMG 6000 SCT008 BKN016=
201405012220 METAR COR EGLL 012220Z 01007KT 2200 HZ VCSH BKN007TCU 11/10
                        Q1014 RESHRA BECMG 6000 SCT008 BKN016=
201405012150 METAR COR EGLL 012150Z 01007KT 2200 SHRA BKN006CB 11/10 Q1014
                        RESHRA BECMG 6000 NSW SCT008 BKN016=
201405012120 METAR COR EGLL 012120Z 01007KT 330V040 2500 -SHRA BKN006CB
                        BKN010 11/10 Q1014 BECMG 6000 SCT010
                        BKN018=
201405012050 METAR EGLL 012050Z 01007KT 340V050 4900 -SHRA SCT009TCU BKN016
                        12/11 Q1013 RESHRA=
201405012020 METAR COR EGLL 012020Z 36005KT 9999 VCSH FEW008CB SCT018
                        BKN041 12/11 Q1013 TEMPO 4000 SHRA
                        BKN012=
201405011950 METAR COR EGLL 011950Z 01004KT 9999 -SHRA SCT048CB 12/10
                        Q1012 TEMPO 4500 +SHRA BKN014=
201405011920 METAR COR EGLL 011920Z 36005KT 9999 VCSH FEW015CB 12/10 Q1012
                        REDZ TEMPO 4000 +SHRA BKN012CB=
201405011850 METAR EGLL 011850Z AUTO 36005KT 9999 DZ SCT038/// SCT046///
                        //////CB 13/11 Q1011 RERA=
201405011820 METAR EGLL 011820Z AUTO 31003KT 9999 SCT039/// OVC044///
                        //////CB 13/11 Q1011 REDZ=
201405011750 METAR EGLL 011750Z AUTO 30004KT 9999 -RA FEW026/// SCT030///
                        //////TCU 12/10 Q1010 RERA=
201405011720 METAR COR EGLL 011720Z 31004KT 9999 7000NE -SHRA FEW009CB
                        SCT010 BKN030 13/11 Q1010 TEMPO 4500
                        TSRA BKN014CB=
201405011650 METAR COR EGLL 011650Z 30004KT 9999 -SHRA FEW009 SCT012CB
                        BKN020 13/11 Q1010 TEMPO 4500 TSRA
                        BKN014CB=
201405011620 METAR COR EGLL 011620Z 30005KT 9999 7000E -SHRA SCT009CB
                        SCT014 BKN025 13/11 Q1010 TEMPO 4500
                        TSRA BKN014CB=
201405011550 METAR COR EGLL 011550Z 23007KT 9999 7000NE -SHRA FEW011 BKN018
                        FEW021CB 13/11 Q1009 TEMPO 4500 TSRA
                        BKN014CB=
201405011520 METAR EGLL 011520Z VRB02KT 9999 FEW029CB SCT039 14/10 Q1009=
201405011450 METAR COR EGLL 011450Z VRB02KT 9999 -SHRA SCT016 SCT028 14/11
                        Q1009 TEMPO 4500 TSRA BKN014CB=
201405011420 METAR COR EGLL 011420Z VRB02KT 9999 -SHRA SCT014 SCT022 13/11
                        Q1009 TEMPO SHRA=
201405011350 METAR COR EGLL 011350Z VRB02KT 9999 -SHRA SCT013 SCT022 13/11
                        Q1009 TEMPO SHRA BKN014=
201405011320 METAR COR EGLL 011320Z VRB03KT 9999 -SHRA SCT015CB SCT025
                        13/11 Q1009 TEMPO SHRA=
201405011250 METAR COR EGLL 011250Z 00000KT 9999 -RA FEW029CB BKN039 13/11
                        Q1009 TEMPO SHRA=
201405011220 METAR COR EGLL 011220Z VRB02KT 8000 -SHRA FEW010CB BKN030
                        13/11 Q1009 TEMPO SHRA=
201405011150 METAR COR EGLL 011150Z VRB04KT 9000 BKN009CB 13/11 Q1009
                        TEMPO SHRA=
201405011120 METAR EGLL 011120Z VRB04KT 8000 FEW007 SCT010 BKN015 13/11
                        Q1009=
201405011050 METAR COR EGLL 011050Z VRB04KT 6000 FEW007 SCT009 BKN020
                        12/11 Q1009 TEMPO BKN014=
201405011020 METAR COR EGLL 011020Z 23004KT 180V290 9000 FEW007 SCT008
                        BKN020 12/11 Q1009 TEMPO BKN014=
201405010950 METAR COR EGLL 010950Z 20006KT 150V250 7000 SCT005 SCT007
                        BKN009 12/11 Q1009 BECMG SCT009 BKN012=
201405010920 METAR COR EGLL 010920Z 19006KT 150V240 5000 -DZRA FEW004
                        SCT007 BKN009 11/11 Q1009 TEMPO 4000
                        DZRA BR=
201405010850 METAR COR EGLL 010850Z 17004KT 130V230 6000 -DZ FEW004 SCT007
                        BKN010 11/10 Q1009 BECMG SCT012=
201405010820 METAR COR EGLL 010820Z 18006KT 140V250 2000 -DZ BR FEW003
                        SCT006 BKN008 11/10 Q1009 BECMG 5000
                        BR SCT008 BKN010=
201405010750 METAR COR EGLL 010750Z 19005KT 150V240 2500 -DZ BR FEW003
                        SCT005 BKN008 11/10 Q1009 BECMG 5000
                        BR SCT006 BKN010=
201405010720 METAR COR EGLL 010720Z 16004KT 120V220 4000 -DZ BR FEW004
                        SCT006 BKN008 11/10 Q1009 BECMG 5000
                        BR SCT008 BKN010=
201405010650 METAR COR EGLL 010650Z 17004KT 140V240 2200 -RADZ BR FEW002
                        SCT004 BKN006 10/10 Q1010 BECMG 5000
                        BR SCT006 BKN010=
201405010620 METAR COR EGLL 010620Z 17004KT 130V220 2000 -DZ BR FEW002
                        BKN004 10/10 Q1010 TEMPO FEW004 BKN006=
201405010550 METAR COR EGLL 010550Z VRB03KT 2000 -DZ BR FEW003 SCT004
                        BKN006 10/10 Q1010 REDZ TEMPO BKN004=
201405010520 METAR COR EGLL 010520Z 16004KT 080V240 1600 DZ BKN003 BKN005
                        10/09 Q1010 REDZ BECMG BR SCT004
                        BKN007=
201405010450 METAR COR EGLL 010450Z 16003KT 1600 +DZ SCT002 SCT013 OVC019
                        10/09 Q1010 TEMPO BKN005=
201405010420 METAR COR EGLL 010420Z 15004KT 2800 BR SCT004 BKN006 10/09
                        Q1010 BECMG 6000 SCT006 BKN010=
201405010350 METAR COR EGLL 010350Z 17003KT 2200 -RA FEW004 SCT006 BKN010
                        10/09 Q1010 REDZ BECMG 5000 RA=
201405010320 METAR COR EGLL 010320Z 18005KT 1500 DZ FEW002 SCT004 BKN010
                        10/09 Q1010 BECMG 5000 RA SCT007
                        BKN012=
201405010250 METAR COR EGLL 010250Z 19004KT 2400 -RA FEW004 SCT006 BKN016
                        10/09 Q1010 TEMPO BKN012=
201405010220 METAR COR EGLL 010220Z 19003KT 4200 -RA FEW016 SCT024 BKN044
                        10/09 Q1011 TEMPO 7000=
201405010150 METAR COR EGLL 010150Z 20004KT 5000 -DZ NSC 10/09 Q1011 REDZ
                        NOSIG=
201405010120 METAR EGLL 010120Z AUTO 21005KT 6000 -RA FEW047/// OVC056///
                        //////TCU 10/08 Q1011 RERA=
201405010050 METAR EGLL 010050Z AUTO 22005KT 7000 -DZ //////TCU 10/08
                        Q1011 RERA REDZ=
201405010020 METAR EGLL 010020Z AUTO 23005KT 8000 NCD 10/08 Q1011=

</pre>

</body>
</html>
