##########################################################
# Query made at 01/13/2020 13:42:09 UTC
# Time interval: from 05/01/2018 00:00  to 05/31/2018 23:59  UTC
##########################################################

##########################################################
# EGLL, London / Heathrow Airport (United Kingdom)
# WMO index: 03772
# Latitude 51-29N. Longitude 000-27W. Altitude 24 m.
##########################################################

###################################
#  METAR/SPECI from EGLL
###################################
201805312350 METAR EGLL 312350Z AUTO 19004KT 8000 FEW010 BKN020 18/17
                        Q1016=
201805312320 METAR EGLL 312320Z AUTO 20004KT 160V260 9999 BKN020 OVC032
                        19/16 Q1016=
201805312250 METAR COR EGLL 312250Z AUTO 23003KT 9999 BKN021 BKN027 OVC032
                        19/16 Q1016 TEMPO BKN014=
201805312220 METAR COR EGLL 312220Z AUTO 21005KT 9000 BKN020 OVC024 19/16
                        Q1016 TEMPO BKN014=
201805312150 METAR COR EGLL 312150Z AUTO 21006KT 9999 BKN019 19/17 Q1016
                        TEMPO BKN014=
201805312120 METAR COR EGLL 312120Z AUTO 22005KT 8000 BKN026 19/17 Q1016
                        TEMPO BKN014=
201805312050 METAR COR EGLL 312050Z AUTO 18006KT 150V210 6000 FEW011 SCT020
                        BKN025 19/17 Q1016 NOSIG=
201805312020 METAR COR EGLL 312020Z AUTO 14006KT 7000 SCT017 BKN024 20/17
                        Q1015 TEMPO BKN014=
201805311950 METAR COR EGLL 311950Z AUTO 10006KT 4200 HZ BKN017/// //////CB
                        20/17 Q1015 NOSIG=
201805311920 METAR COR EGLL 311920Z AUTO 11007KT 4200 HZ SCT018/// BKN039///
                        //////CB 20/17 Q1015 NOSIG=
201805311850 METAR COR EGLL 311850Z AUTO 11007KT 4800 HZ SCT038 20/17
                        Q1014 NOSIG=
201805311820 METAR COR EGLL 311820Z AUTO 10008KT 4500 HZ //////CB 21/17
                        Q1014 NOSIG=
201805311750 METAR COR EGLL 311750Z AUTO 11009KT 6000 SCT034/// //////CB
                        21/17 Q1014 NOSIG=
201805311720 METAR COR EGLL 311720Z AUTO 11009KT 7000 FEW026/// //////CB
                        22/17 Q1014 TEMPO SHRA=
201805311650 METAR COR EGLL 311650Z AUTO 10007KT 9000 BKN026/// BKN030///
                        //////CB 22/17 Q1014 TEMPO SHRA=
201805311620 METAR COR EGLL 311620Z AUTO 07006KT 9999 SCT026/// SCT044///
                        //////CB 22/17 Q1014 TEMPO SHRA=
201805311550 METAR COR EGLL 311550Z AUTO 08006KT 9999 FEW023 SCT028 21/16
                        Q1014 TEMPO SHRA=
201805311520 METAR COR EGLL 311520Z AUTO 08008KT 050V110 9999 FEW034 21/16
                        Q1014 TEMPO SHRA=
201805311450 METAR COR EGLL 311450Z AUTO 09009KT 040V110 9000 SCT022///
                        //////CB 22/17 Q1014 NOSIG=
201805311420 METAR COR EGLL 311420Z AUTO 09009KT 7000 SCT021 SCT030 23/17
                        Q1014 NOSIG=
201805311350 METAR COR EGLL 311350Z 07007KT 040V110 9000 SCT022 23/17
                        Q1015 NOSIG=
201805311320 METAR COR EGLL 311320Z 09007KT 8000 SCT028 22/17 Q1015 NOSIG=
201805311250 METAR COR EGLL 311250Z AUTO 09007KT 9999 SCT024 BKN029 22/16
                        Q1015 NOSIG=
201805311220 METAR COR EGLL 311220Z AUTO 06007KT 010V090 9999 SCT022 SCT026
                        22/16 Q1015 NOSIG=
201805311150 METAR COR EGLL 311150Z AUTO 06005KT 020V130 9000 BKN019 BKN026
                        22/16 Q1015 NOSIG=
201805311120 METAR COR EGLL 311120Z AUTO 06004KT 010V100 9000 SCT017 SCT021
                        21/17 Q1015 NOSIG=
201805311050 METAR COR EGLL 311050Z 05005KT 360V090 8000 SCT015 21/16
                        Q1015 NOSIG=
201805311020 METAR COR EGLL 311020Z AUTO VRB04KT 8000 BKN013 20/16 Q1015
                        NOSIG=
201805310950 METAR COR EGLL 310950Z 05005KT 010V100 7000 SCT010 19/16
                        Q1015 NOSIG=
201805310920 METAR COR EGLL 310920Z AUTO 02004KT 340V100 6000 SCT010 18/16
                        Q1015 NOSIG=
201805310850 METAR COR EGLL 310850Z VRB02KT 5000 HZ SCT006 OVC010 17/16
                        Q1016 NOSIG=
201805310820 METAR EGLL 310820Z AUTO VRB02KT 4700 HZ BKN005 17/16 Q1015=
201805310750 METAR COR EGLL 310750Z AUTO VRB03KT 3900 BR BKN005 17/16
                        Q1015 NOSIG=
201805310720 METAR COR EGLL 310720Z AUTO VRB03KT 3500 BR OVC004 16/16
                        Q1015 BECMG BKN005=
201805310650 METAR COR EGLL 310650Z AUTO VRB03KT 2600 BR OVC003 16/16
                        Q1015 BECMG BKN005=
201805310620 METAR COR EGLL 310620Z AUTO VRB03KT 2600 BR OVC003 16/16
                        Q1015 BECMG BKN005=
201805310550 METAR COR EGLL 310550Z AUTO 08003KT 3400 BR OVC003 16/16
                        Q1014 BECMG BKN005=
201805310520 METAR COR EGLL 310520Z AUTO 09004KT 3200 BR OVC003 16/16
                        Q1014 BECMG BKN005=
201805310450 METAR COR EGLL 310450Z 07003KT 3500 BR OVC004 16/16 Q1014
                        NOSIG=
201805310420 METAR COR EGLL 310420Z AUTO 10005KT 1200 R09L/P1500 BR BKN001
                        OVC005 16/15 Q1014 BECMG 2000=
201805310350 METAR COR EGLL 310350Z AUTO 09006KT 0450 R09L/P1500 FG VV///
                        16/15 Q1014 BECMG 0700=
201805310320 METAR COR EGLL 310320Z AUTO 09006KT 0250 R09L/0650 FG VV///
                        16/15 Q1014 TEMPO 0300=
201805310250 METAR COR EGLL 310250Z AUTO 08004KT 0200 FG VV/// 16/15 Q1014
                        NOSIG=
201805310220 METAR COR EGLL 310220Z AUTO VRB03KT 0100 FG VV/// 16/15 Q1014
                        NOSIG=
201805310150 METAR COR EGLL 310150Z AUTO VRB03KT 0100 R09L/P1500 FG VV///
                        15/15 Q1014 NOSIG=
201805310120 METAR COR EGLL 310120Z AUTO 10003KT 0150 R09L/1300 FG BKN000
                        15/14 Q1014 TEMPO 0400=
201805310050 METAR COR EGLL 310050Z 06003KT 1800 BR FEW001 15/15 Q1014
                        TEMPO 1200=
201805310020 METAR COR EGLL 310020Z 07003KT 2500 BR NSC 15/15 Q1014 TEMPO
                        1200 BR=
201805302350 METAR COR EGLL 302350Z 06003KT 2500 BR NSC 15/15 Q1014 TEMPO
                        1200=
201805302320 METAR COR EGLL 302320Z 01001KT 2500 BR NSC 15/15 Q1014 TEMPO
                        1200=
201805302250 METAR COR EGLL 302250Z AUTO 28002KT 1400 R09L/P1500 BR NCD
                        15/14 Q1014 TEMPO 2000=
201805302220 METAR COR EGLL 302220Z AUTO VRB02KT 1700 HZ NCD 15/14 Q1014
                        BECMG 1400 BR BKN004=
201805302150 METAR COR EGLL 302150Z AUTO 01002KT 3800 HZ NCD 17/15 Q1014
                        BECMG 2500=
201805302120 METAR COR EGLL 302120Z AUTO 03001KT 4400 HZ NCD 17/16 Q1014
                        NOSIG=
201805302050 METAR COR EGLL 302050Z AUTO 01002KT 5000 HZ NCD 17/16 Q1014
                        BECMG 4000=
201805302020 METAR COR EGLL 302020Z AUTO VRB02KT 5000 HZ FEW020 18/16
                        Q1014 BECMG 4000=
201805301950 METAR COR EGLL 301950Z AUTO 35003KT 6000 BKN019 18/16 Q1013
                        NOSIG=
201805301920 METAR COR EGLL 301920Z AUTO 35003KT 6000 FEW021 18/16 Q1013
                        NOSIG=
201805301850 METAR COR EGLL 301850Z AUTO VRB03KT 6000 BKN047 19/16 Q1013
                        NOSIG=
201805301820 METAR COR EGLL 301820Z AUTO 33003KT 6000 FEW021 SCT027 BKN034
                        19/16 Q1013 NOSIG=
201805301750 METAR COR EGLL 301750Z AUTO 33004KT 6000 FEW016 OVC035 19/16
                        Q1013 NOSIG=
201805301720 METAR COR EGLL 301720Z AUTO 33004KT 300V020 7000 FEW015 OVC034
                        19/16 Q1013 NOSIG=
201805301650 METAR COR EGLL 301650Z AUTO VRB03KT 7000 SCT016 OVC034 19/16
                        Q1013 NOSIG=
201805301620 METAR COR EGLL 301620Z AUTO 33004KT 300V360 7000 BKN015 OVC036
                        18/16 Q1013 NOSIG=
201805301550 METAR COR EGLL 301550Z AUTO VRB02KT 7000 -RA BKN015 OVC022
                        19/15 Q1013 NOSIG=
201805301520 METAR COR EGLL 301520Z AUTO VRB02KT 7000 BKN016 OVC024 18/15
                        Q1013 NOSIG=
201805301450 METAR COR EGLL 301450Z AUTO 11002KT 7000 BKN015 OVC032 18/15
                        Q1013 NOSIG=
201805301420 METAR COR EGLL 301420Z AUTO VRB03KT 7000 OVC014 18/15 Q1013
                        NOSIG=
201805301350 METAR COR EGLL 301350Z AUTO VRB02KT 7000 BKN014 OVC019 18/15
                        Q1013 BECMG BKN015=
201805301320 METAR COR EGLL 301320Z AUTO VRB02KT 8000 OVC013 18/15 Q1013
                        BECMG 9999 BKN015=
201805301250 METAR COR EGLL 301250Z AUTO VRB02KT 8000 OVC013 17/14 Q1013
                        BECMG BKN015=
201805301220 METAR COR EGLL 301220Z AUTO VRB02KT 7000 BKN009 OVC020 17/14
                        Q1013 BECMG BKN012=
201805301150 METAR COR EGLL 301150Z AUTO VRB03KT 6000 BKN008 OVC022 16/14
                        Q1014 BECMG BKN010=
201805301120 METAR COR EGLL 301120Z AUTO 05004KT 020V080 6000 OVC006 15/14
                        Q1014 BECMG BKN010=
201805301050 METAR COR EGLL 301050Z AUTO 05004KT 010V080 7000 OVC006 15/13
                        Q1014 BECMG BKN010=
201805301020 METAR COR EGLL 301020Z AUTO VRB03KT 7000 OVC005 15/13 Q1014
                        BECMG BKN010=
201805300950 METAR COR EGLL 300950Z AUTO 07004KT 7000 OVC004 14/13 Q1014
                        BECMG OVC006=
201805300920 METAR COR EGLL 300920Z AUTO 05005KT 020V080 8000 OVC005 14/13
                        Q1013 BECMG BKN010=
201805300850 METAR COR EGLL 300850Z AUTO 06004KT 7000 OVC005 14/13 Q1013
                        BECMG BKN010=
201805300820 METAR COR EGLL 300820Z AUTO 07005KT 040V120 6000 BKN004 OVC009
                        14/13 Q1013 BECMG BKN009=
201805300750 METAR COR EGLL 300750Z AUTO 06004KT 020V090 5000 HZ OVC004
                        14/13 Q1013 TEMPO 3000 BR=
201805300720 METAR COR EGLL 300720Z AUTO 04005KT 020V080 3800 HZ BKN003
                        OVC007 13/13 Q1013 NOSIG=
201805300650 METAR COR EGLL 300650Z AUTO 04006KT 6000 -RA OVC006 13/12
                        Q1013 NOSIG=
201805300620 METAR COR EGLL 300620Z AUTO 04004KT 020V080 9999 BKN006 OVC010
                        14/12 Q1013 NOSIG=
201805300550 METAR COR EGLL 300550Z AUTO 04004KT 9999 OVC007 13/12 Q1013
                        NOSIG=
201805300520 METAR COR EGLL 300520Z AUTO VRB03KT 9999 BKN007 OVC011 13/12
                        Q1013 NOSIG=
201805300450 METAR COR EGLL 300450Z AUTO VRB02KT 9999 BKN006 OVC012 13/13
                        Q1013 NOSIG=
201805300420 METAR COR EGLL 300420Z AUTO 03004KT 340V080 9999 BKN007 OVC012
                        13/12 Q1012 NOSIG=
201805300350 METAR COR EGLL 300350Z AUTO VRB03KT 9999 SCT006/// OVC009///
                        //////TCU 13/13 Q1012 TEMPO BKN006=
201805300320 METAR COR EGLL 300320Z AUTO VRB03KT 6000 -RA OVC004/// //////TCU
                        13/13 Q1012 TEMPO BKN005=
201805300250 METAR EGLL 300250Z AUTO 03004KT 340V060 7000 OVC005/// //////TCU
                        13/13 Q1013=
201805300220 METAR COR EGLL 300220Z AUTO 03004KT 350V060 8000 -RA BKN005///
                        OVC010/// //////TCU 13/13 Q1013 TEMPO
                        4000 RA BKN004=
201805300150 METAR COR EGLL 300150Z AUTO 04004KT 5000 -RA BKN005/// OVC008///
                        //////TCU 13/13 Q1013 TEMPO 4000
                        RA BKN004=
201805300120 METAR EGLL 300120Z AUTO 01004KT 330V050 5000 -RADZ BKN004///
                        OVC010/// //////CB 13/13 Q1013=
201805300050 METAR COR EGLL 300050Z AUTO 36005KT 330V040 4700 -RA OVC003///
                        //////CB 13/13 Q1013 TEMPO +RA OVC005=
201805300020 METAR COR EGLL 300020Z AUTO 04004KT 350V070 3800 -RADZ BKN003///
                        OVC010/// //////CB 14/13 Q1013 TEMPO
                        +RA=
201805292350 METAR COR EGLL 292350Z AUTO 04004KT 6000 -RA BKN004/// OVC008///
                        //////CB 14/13 Q1014 TEMPO 4000 +SHRA
                        BKN005=
201805292320 METAR COR EGLL 292320Z AUTO 02004KT 340V060 5000 HZ OVC004///
                        //////CB 14/13 Q1014 TEMPO 3000 +TSRA=
201805292250 METAR COR EGLL 292250Z AUTO 02005KT 330V070 5000 HZ BKN005///
                        OVC010/// //////CB 14/13 Q1014 TEMPO
                        4000 +SHRA BKN004=
201805292220 METAR COR EGLL 292220Z AUTO 04005KT 360V070 6000 OVC005///
                        //////CB 14/13 Q1014 TEMPO 4000 +SHRA
                        BKN004=
201805292150 METAR COR EGLL 292150Z AUTO 03008KT 340V090 5000 HZ BKN005///
                        OVC008/// //////CB 15/14 Q1014 TEMPO
                        4000 +SHRA BKN004=
201805292120 METAR COR EGLL 292120Z AUTO 01006KT 310V060 5000 HZ BKN005
                        OVC008 15/14 Q1014 TEMPO 4000 +SHRA
                        BKN004=
201805292050 METAR COR EGLL 292050Z AUTO 01006KT 340V070 5000 HZ OVC005
                        15/14 Q1014 TEMPO 4000 +SHRA=
201805292020 METAR COR EGLL 292020Z AUTO 03008KT 340V050 5000 HZ OVC006///
                        //////CB 15/14 Q1014 TEMPO 4000 +SHRA=
201805291950 METAR COR EGLL 291950Z AUTO 03007KT 340V070 5000 HZ BKN006///
                        OVC009/// //////CB 15/14 Q1014 4000
                        +SHRA=
201805291920 METAR COR EGLL 291920Z AUTO 03007KT 340V060 5000 HZ BKN006///
                        OVC010/// //////CB 16/14 Q1014 TEMPO
                        4000 +SHRA=
201805291850 METAR COR EGLL 291850Z AUTO 03008KT 350V070 5000 HZ OVC007///
                        //////CB 16/14 Q1014 TEMPO 4000 +SHRA=
201805291820 METAR EGLL 291820Z AUTO 02007KT 320V070 5000 HZ BKN008///
                        OVC012/// //////CB 16/15 Q1014=
201805291750 METAR COR EGLL 291750Z AUTO 04006KT 350V110 6000 BKN009///
                        OVC049/// //////CB 16/15 Q1015 TEMPO
                        SHRA=
201805291720 METAR COR EGLL 291720Z AUTO 36008KT 5000 HZ BKN008/// //////CB
                        16/15 Q1014 TEMPO 4000 +SHRA=
201805291650 METAR COR EGLL 291650Z AUTO 01008KT 350V050 5000 HZ SCT007///
                        //////CB 16/15 Q1014 RETS TEMPO SHRA
                        BKN008=
201805291620 METAR COR EGLL 291620Z 01006KT 340V060 6000 -TSRA FEW006
                        BKN049CB 16/15 Q1015 RERA TEMPO SHRA
                        BKN008=
201805291550 METAR COR EGLL 291550Z AUTO VRB03KT 4400 RA FEW032/// BKN039///
                        //////CB 16/15 Q1015 TEMPO TS=
201805291520 METAR COR EGLL 291520Z AUTO VRB03KT 7000 -RA BKN047/// //////CB
                        16/15 Q1015 TEMPO SHRA BKN010=
201805291450 METAR COR EGLL 291450Z AUTO VRB03KT 7000 -RA //////CB 16/15
                        Q1015 TEMPO SHRA=
201805291420 METAR COR EGLL 291420Z AUTO 03006KT 340V060 5000 -RA VCTS
                        SCT035/// //////CB 16/15 Q1015 TEMPO
                        SHRA=
201805291350 METAR COR EGLL 291350Z AUTO 01007KT 340V060 5000 -RA VCTS
                        SCT006/// BKN026/// BKN040/// //////CB
                        16/15 Q1015 RERA TEMPO 4000 SHRA
                        BKN008=
201805291320 METAR COR EGLL 291320Z AUTO 02005KT 330V060 3700 RA BKN006///
                        OVC049/// //////CB 16/15 Q1016 TEMPO
                        +TSRA=
201805291250 METAR COR EGLL 291250Z AUTO 02006KT 330V060 6000 -RA BKN010///
                        //////CB 16/15 Q1016 TEMPO 3000 +SHRA
                        BKN008=
201805291220 METAR COR EGLL 291220Z AUTO 01007KT 330V050 9000 -RA BKN010///
                        //////CB 17/14 Q1016 TEMPO 4000 SHRA
                        BKN008=
201805291150 METAR COR EGLL 291150Z AUTO 02007KT 330V070 8000 -RA BKN012///
                        OVC019/// //////TCU 17/14 Q1016 TEMPO
                        SHRA=
201805291120 METAR COR EGLL 291120Z AUTO 01007KT 330V050 9999 BKN013///
                        BKN020/// //////TCU 18/14 Q1016 TEMPO
                        SHRA=
201805291050 METAR COR EGLL 291050Z AUTO 02008KT 350V060 9999 BKN014///
                        //////CB 17/14 Q1017 TEMPO SHRA=
201805291020 METAR COR EGLL 291020Z AUTO 01007KT 350V060 9999 BKN014 17/14
                        Q1017 TEMPO SHRA=
201805290950 METAR COR EGLL 290950Z AUTO 01007KT 330V050 9999 -RA BKN014///
                        BKN046/// //////CB 17/14 Q1017 TEMPO
                        SHRA=
201805290920 METAR COR EGLL 290920Z AUTO 03006KT 350V060 9999 BKN013///
                        //////TCU 16/13 Q1017 TEMPO SHRA=
201805290850 METAR COR EGLL 290850Z AUTO 04008KT 360V080 9999 BKN011 16/13
                        Q1017 TEMPO SHRA=
201805290820 METAR COR EGLL 290820Z AUTO 03007KT 340V100 9000 BKN009 16/13
                        Q1017 BECMG BKN012=
201805290750 METAR COR EGLL 290750Z AUTO 02007KT 320V060 9000 OVC008 15/13
                        Q1017 BECMG BKN010=
201805290720 METAR COR EGLL 290720Z AUTO 03009KT 350V080 8000 BKN007 OVC013
                        15/13 Q1018 BECMG BKN010=
201805290650 METAR COR EGLL 290650Z AUTO 04008KT 350V070 8000 BKN007 OVC013
                        14/13 Q1018 BECMG BKN010=
201805290620 METAR COR EGLL 290620Z AUTO 05008KT 010V080 7000 BKN006 OVC009
                        14/13 Q1018 TEMPO RA=
201805290550 METAR COR EGLL 290550Z AUTO 04007KT 360V070 8000 OVC006 14/13
                        Q1018 TEMPO RA BKN010=
201805290520 METAR COR EGLL 290520Z AUTO 04007KT 350V080 8000 OVC007 14/13
                        Q1018 TEMPO RA BKN010=
201805290450 METAR COR EGLL 290450Z AUTO 03007KT 330V060 7000 BKN006 14/13
                        Q1017 TEMPO RA BKN010=
201805290420 METAR COR EGLL 290420Z AUTO 02006KT 320V070 6000 BKN007 14/12
                        Q1018 NOSIG=
201805290350 METAR COR EGLL 290350Z AUTO 01006KT 340V050 5000 HZ SCT007
                        14/13 Q1018 TEMPO 4000 BR BKN007=
201805290320 METAR COR EGLL 290320Z AUTO 01005KT 340V060 5000 HZ BKN008
                        15/13 Q1018 TEMPO 4000 BR=
201805290250 METAR COR EGLL 290250Z AUTO 02005KT 340V080 5000 HZ OVC007
                        15/13 Q1018 TEMPO 4000 BR=
201805290220 METAR COR EGLL 290220Z AUTO 02005KT 330V080 5000 HZ BKN006
                        15/13 Q1018 TEMPO 4000 BR=
201805290150 METAR COR EGLL 290150Z AUTO 02005KT 350V050 5000 HZ BKN006
                        15/13 Q1018 TEMPO 4000 BR=
201805290120 METAR COR EGLL 290120Z AUTO 01004KT 330V070 5000 HZ BKN007
                        15/13 Q1018 TEMPO 4000 BR=
201805290050 METAR COR EGLL 290050Z AUTO 03006KT 350V060 5000 HZ BKN007
                        15/13 Q1018 TEMPO 4000 BR=
201805290020 METAR COR EGLL 290020Z AUTO 05009KT 020V080 5000 HZ BKN008
                        15/14 Q1019 TEMPO 4000 BR=
201805282350 METAR COR EGLL 282350Z AUTO 05006KT 010V080 5000 HZ SCT008
                        15/14 Q1019 TEMPO 4000 BR BKN008=
201805282320 METAR COR EGLL 282320Z AUTO 01005KT 340V070 7000 NCD 16/14
                        Q1019 NOSIG=
201805282250 METAR COR EGLL 282250Z AUTO 04007KT 9000 NCD 17/14 Q1019
                        NOSIG=
201805282220 METAR COR EGLL 282220Z AUTO 04008KT 010V080 9999 NCD 18/15
                        Q1019 NOSIG=
201805282150 METAR COR EGLL 282150Z AUTO 04006KT 9999 NCD 19/15 Q1019
                        NOSIG=
201805282120 METAR COR EGLL 282120Z AUTO 04006KT 010V070 9999 FEW025 BKN030
                        19/15 Q1019 NOSIG=
201805282050 METAR COR EGLL 282050Z AUTO 02006KT 340V050 9999 NCD 20/16
                        Q1019 NOSIG=
201805282020 METAR COR EGLL 282020Z AUTO 02007KT 340V050 9999 NCD 21/16
                        Q1019 NOSIG=
201805281950 METAR COR EGLL 281950Z AUTO 02006KT 340V070 9999 NCD 22/18
                        Q1018 RETS NOSIG=
201805281920 METAR COR EGLL 281920Z 03007KT 350V060 8000 -TSRA BKN030CB
                        23/18 Q1018 BECMG NSW=
201805281850 METAR COR EGLL 281850Z AUTO 01008KT 330V050 9999 VCTS //////CB
                        24/18 Q1018 TEMPO 3000 +TSRA=
201805281820 METAR COR EGLL 281820Z AUTO 02006KT 330V060 9999 //////CB
                        24/18 Q1018 TEMPO 3000 +TSRA=
201805281750 METAR COR EGLL 281750Z AUTO 01006KT 320V060 9999 FEW033 25/18
                        Q1018 NOSIG=
201805281720 METAR COR EGLL 281720Z AUTO 36007KT 330V030 9999 NCD 24/18
                        Q1018 NOSIG=
201805281650 METAR COR EGLL 281650Z AUTO 36007KT 330V040 9999 NCD 24/17
                        Q1018 NOSIG=
201805281620 METAR COR EGLL 281620Z AUTO 01005KT 330V050 9999 NCD 24/17
                        Q1018 NOSIG=
201805281550 METAR COR EGLL 281550Z AUTO 03005KT 330V080 9999 NCD 23/17
                        Q1018 NOSIG=
201805281520 METAR COR EGLL 281520Z AUTO 02005KT 340V080 9999 NCD 23/16
                        Q1018 NOSIG=
201805281450 METAR COR EGLL 281450Z AUTO 02005KT 330V080 9999 NCD 24/16
                        Q1018 NOSIG=
201805281420 METAR COR EGLL 281420Z AUTO 02005KT 330V070 9999 NCD 24/16
                        Q1018 NOSIG=
201805281350 METAR COR EGLL 281350Z AUTO 05006KT 350V100 9999 NCD 24/17
                        Q1018 NOSIG=
201805281320 METAR COR EGLL 281320Z AUTO 03007KT 350V070 9999 NCD 23/17
                        Q1019 NOSIG=
201805281250 METAR COR EGLL 281250Z AUTO 05006KT 330V100 9000 NCD 22/17
                        Q1019 NOSIG=
201805281220 METAR COR EGLL 281220Z AUTO 36007KT 310V060 8000 NCD 22/16
                        Q1019 NOSIG=
201805281150 METAR COR EGLL 281150Z AUTO 03005KT 330V070 7000 FEW014 21/16
                        Q1019 NOSIG=
201805281120 METAR COR EGLL 281120Z AUTO 36005KT 260V040 7000 BKN013 20/16
                        Q1020 BECMG SCT015=
201805281050 METAR COR EGLL 281050Z AUTO 35005KT 310V060 7000 BKN012 19/16
                        Q1020 BECMG SCT015=
201805281020 METAR COR EGLL 281020Z AUTO 04005KT 010V080 6000 OVC010 19/15
                        Q1020 NOSIG=
201805280950 METAR COR EGLL 280950Z AUTO 02006KT 330V070 4700 HZ OVC007
                        18/15 Q1019 BECMG 6000 NSW BKN010=
201805280920 METAR COR EGLL 280920Z AUTO 02004KT 320V060 4000 HZ OVC006
                        17/15 Q1019 BECMG 5000=
201805280850 METAR COR EGLL 280850Z 04007KT 3700 HZ OVC006 17/15 Q1019
                        NOSIG=
201805280820 METAR COR EGLL 280820Z 36005KT 310V050 3000 HZ OVC005 16/15
                        Q1019 NOSIG=
201805280750 METAR COR EGLL 280750Z 02005KT 320V060 2000 R09R/1400 HZ
                        OVC003 16/15 Q1019 BECMG 3000 BKN005=
201805280720 METAR COR EGLL 280720Z 03004KT 340V050 1500 R09R/1400 HZ
                        BKN002 16/15 Q1019 BECMG BKN004=
201805280650 METAR COR EGLL 280650Z 02005KT 320V060 1400 R09L/P1500 R09R/1300
                        BR BKN002 16/16 Q1018 BECMG BKN004=
201805280620 METAR COR EGLL 280620Z 02005KT 330V060 1500 R09R/1200 HZ
                        BKN002 16/15 Q1018 BECMG BKN004=
201805280550 METAR COR EGLL 280550Z AUTO VRB03KT 1900 R09R/1300 HZ NCD
                        16/15 Q1018 NOSIG=
201805280520 METAR COR EGLL 280520Z AUTO VRB03KT 1600 BR NCD 16/15 Q1018
                        NOSIG=
201805280450 METAR COR EGLL 280450Z AUTO VRB01KT 1500 HZ SCT003 16/15
                        Q1017 NOSIG=
201805280420 METAR COR EGLL 280420Z AUTO 04004KT 350V090 1800 HZ NCD 16/15
                        Q1017 NOSIG=
201805280350 METAR COR EGLL 280350Z AUTO 36005KT 2300 HZ NCD 16/15 Q1017
                        NOSIG=
201805280320 METAR COR EGLL 280320Z AUTO VRB03KT 4000 HZ NCD 16/15 Q1017
                        NOSIG=
201805280250 METAR COR EGLL 280250Z AUTO 31004KT 6000 NCD 16/15 Q1017
                        NOSIG=
201805280220 METAR COR EGLL 280220Z AUTO 26004KT 9999 NCD 16/14 Q1017
                        NOSIG=
201805280150 METAR COR EGLL 280150Z AUTO 27003KT 9999 NCD 17/15 Q1017
                        NOSIG=
201805280120 METAR COR EGLL 280120Z AUTO 31004KT 240V030 9999 NCD 17/15
                        Q1016 NOSIG=
201805280050 METAR COR EGLL 280050Z AUTO 27003KT 9999 NCD 16/15 Q1016
                        NOSIG=
201805280020 METAR COR EGLL 280020Z AUTO 36001KT 9999 NCD 18/15 Q1016
                        NOSIG=
201805272350 METAR COR EGLL 272350Z AUTO 03002KT 9999 NCD 19/15 Q1016
                        NOSIG=
201805272320 METAR COR EGLL 272320Z AUTO 26004KT 230V300 9999 NCD 19/15
                        Q1016 NOSIG=
201805272250 METAR COR EGLL 272250Z AUTO 21005KT 9999 NCD 20/15 Q1016
                        NOSIG=
201805272220 METAR COR EGLL 272220Z AUTO 23005KT 9999 NCD 19/15 Q1016
                        NOSIG=
201805272150 METAR COR EGLL 272150Z AUTO 27007KT 9999 NCD 20/15 Q1016
                        NOSIG=
201805272120 METAR COR EGLL 272120Z 26005KT 9999 FEW050CB 21/15 Q1016
                        RETS NOSIG=
201805272050 METAR COR EGLL 272050Z 21005KT 9999 TS FEW050CB 22/14 Q1016
                        NOSIG=
201805272020 METAR COR EGLL 272020Z AUTO 17006KT 9999 //////CB 23/14 Q1016
                        NOSIG=
201805271950 METAR COR EGLL 271950Z AUTO 17008KT 9999 NCD 23/14 Q1016
                        NOSIG=
201805271920 METAR COR EGLL 271920Z AUTO 18007KT 9999 NCD 24/15 Q1015
                        NOSIG=
201805271850 METAR COR EGLL 271850Z AUTO 20008KT 9999 NCD 24/15 Q1015
                        TEMPO 5000 TSRA=
201805271820 METAR COR EGLL 271820Z AUTO 21009KT 9999 NCD 25/14 Q1015
                        NOSIG=
201805271750 METAR COR EGLL 271750Z AUTO 21009KT 9999 //////CB 25/12 Q1015
                        NOSIG=
201805271720 METAR COR EGLL 271720Z AUTO 20009KT 9999 //////CB 26/13 Q1014
                        NOSIG=
201805271650 METAR COR EGLL 271650Z AUTO 20008KT 9999 //////CB 26/15 Q1014
                        TEMPO 4000 +SHRA=
201805271620 METAR COR EGLL 271620Z AUTO 20009KT 9999 FEW047/// //////CB
                        26/15 Q1014 TEMPO 4000 +SHRA=
201805271550 METAR COR EGLL 271550Z AUTO 19008KT 140V220 9999 SCT045 27/15
                        Q1014 TEMPO 4000 +SHRA=
201805271520 METAR COR EGLL 271520Z AUTO 15005KT 110V220 9999 SCT040 26/16
                        Q1014 TEMPO 4000 +SHRA=
201805271450 METAR COR EGLL 271450Z AUTO 19004KT 110V240 9999 SCT035 BKN043
                        27/17 Q1015 TEMPO 4000 +SHRA=
201805271420 METAR COR EGLL 271420Z AUTO VRB03KT 9999 SCT034 26/17 Q1015
                        TEMPO 4000 +SHRA=
201805271350 METAR COR EGLL 271350Z AUTO VRB03KT 9999 FEW036 26/17 Q1015
                        TEMPO 4000 +SHRA=
201805271320 METAR COR EGLL 271320Z AUTO VRB03KT 9999 NCD 25/17 Q1015
                        TEMPO 4000 +SHRA=
201805271250 METAR COR EGLL 271250Z AUTO VRB03KT 9999 NCD 25/18 Q1015
                        TEMPO 4000 +SHRA=
201805271220 METAR COR EGLL 271220Z AUTO VRB02KT 9999 NCD 23/17 Q1015
                        TEMPO 4000 +SHRA=
201805271150 METAR COR EGLL 271150Z AUTO VRB01KT 9000 -RA FEW035 23/17
                        Q1015 TEMPO 4000 +SHRA=
201805271120 METAR COR EGLL 271120Z AUTO 17004KT 120V220 9999 BKN024 23/17
                        Q1015 NOSIG=
201805271050 METAR COR EGLL 271050Z AUTO 14005KT 080V190 9999 SCT023 23/17
                        Q1016 NOSIG=
201805271020 METAR EGLL 271020Z AUTO 10005KT 050V140 9000 NCD 23/17 Q1016=
201805270950 METAR COR EGLL 270950Z AUTO 12004KT 050V160 9999 NCD 21/16
                        Q1016 NOSIG=
201805270920 METAR COR EGLL 270920Z AUTO VRB03KT 9000 NCD 21/16 Q1016
                        NOSIG=
201805270850 METAR COR EGLL 270850Z AUTO VRB03KT 9999 NCD 20/16 Q1015
                        NOSIG=
201805270820 METAR COR EGLL 270820Z AUTO VRB03KT 9999 NCD 18/15 Q1015
                        NOSIG=
201805270750 METAR COR EGLL 270750Z AUTO VRB03KT 9000 NCD 18/14 Q1015
                        NOSIG=
201805270720 METAR COR EGLL 270720Z AUTO 05004KT 9999 NCD 17/14 Q1015
                        NOSIG=
201805270650 METAR EGLL 270650Z AUTO 06005KT 030V100 9999 NCD 17/14 Q1016=
201805270620 METAR COR EGLL 270620Z AUTO 06006KT 020V080 9999 NCD 16/14
                        Q1015 NOSIG=
201805270550 METAR COR EGLL 270550Z AUTO 06006KT 9000 NCD 16/14 Q1016
                        NOSIG=
201805270520 METAR COR EGLL 270520Z AUTO 06004KT 020V110 8000 NCD 16/14
                        Q1016 NOSIG=
201805270450 METAR COR EGLL 270450Z AUTO 06007KT 8000 NCD 15/14 Q1015
                        NOSIG=
201805270420 METAR COR EGLL 270420Z AUTO 05006KT 020V080 7000 NCD 15/14
                        Q1016 NOSIG=
201805270350 METAR COR EGLL 270350Z AUTO 06004KT 030V090 7000 NCD 15/14
                        Q1016 NOSIG=
201805270320 METAR COR EGLL 270320Z AUTO 05005KT 7000 NCD 15/14 Q1016
                        NOSIG=
201805270250 METAR COR EGLL 270250Z AUTO 05005KT 6000 NCD 15/14 Q1016
                        NOSIG=
201805270220 METAR COR EGLL 270220Z AUTO 05005KT 7000 NCD 15/14 Q1016
                        NOSIG=
201805270150 METAR COR EGLL 270150Z AUTO 05005KT 360V090 7000 NCD 16/15
                        Q1016 NOSIG=
201805270120 METAR COR EGLL 270120Z AUTO 06006KT 020V190 7000 FEW012 16/15
                        Q1016 TEMPO 4000 BR BKN012=
201805270050 METAR COR EGLL 270050Z AUTO 04010KT 360V070 3500 -RA //////TCU
                        17/16 Q1016 RETS RERA BECMG 9999
                        NSW=
201805270020 METAR COR EGLL 270020Z 05006KT 5000 -TSRA FEW035 SCT050CB
                        17/16 Q1017 RETS RERA BECMG 9999
                        NSW=
201805262350 METAR COR EGLL 262350Z 09008KT 040V120 3000 +TSRA SCT020
                        BKN030 BKN045CB 17/16 Q1018 TEMPO
                        TSRA=
201805262320 METAR COR EGLL 262320Z 04005KT 020V080 9999 TS BKN045CB 18/16
                        Q1018 RETS RERA TEMPO 5000 TSRA BKN045CB=
201805262250 METAR COR EGLL 262250Z 09009KT 3800 +TSRA SCT025 BKN045CB
                        18/16 Q1017 TEMPO BKN014CB=
201805262220 METAR COR EGLL 262220Z AUTO 07009KT 8000 -TSRA FEW012CB 19/15
                        Q1018 TEMPO 3000 +TSRA BKN012=
201805262150 METAR COR EGLL 262150Z 05010KT 9999 VCTS FEW060CB 20/15 Q1017
                        TEMPO 7000 TSRA BKN045=
201805262120 METAR COR EGLL 262120Z AUTO 06009KT 9999 NCD 21/15 Q1018
                        NOSIG=
201805262050 METAR COR EGLL 262050Z AUTO 06010KT 9999 NCD 21/15 Q1018
                        NOSIG=
201805262020 METAR COR EGLL 262020Z AUTO 07009KT 9999 NCD 22/16 Q1018
                        NOSIG=
201805261950 METAR COR EGLL 261950Z AUTO 06010KT 9999 NCD 22/16 Q1017
                        NOSIG=
201805261920 METAR COR EGLL 261920Z AUTO 06011KT 9999 NCD 23/15 Q1017
                        NOSIG=
201805261850 METAR COR EGLL 261850Z AUTO 07011KT 9999 NCD 23/15 Q1017
                        NOSIG=
201805261820 METAR EGLL 261820Z AUTO 07013KT 9999 NCD 24/15 Q1017=
201805261750 METAR COR EGLL 261750Z AUTO 08013KT 9999 NCD 24/15 Q1017
                        NOSIG=
201805261720 METAR COR EGLL 261720Z AUTO 07013KT 9999 NCD 25/14 Q1017
                        NOSIG=
201805261650 METAR COR EGLL 261650Z AUTO 06013KT 9999 NCD 25/15 Q1017
                        NOSIG=
201805261620 METAR COR EGLL 261620Z AUTO 06013KT 9999 NCD 25/14 Q1017
                        NOSIG=
201805261550 METAR COR EGLL 261550Z AUTO 07013KT 9999 NCD 26/15 Q1017
                        NOSIG=
201805261520 METAR COR EGLL 261520Z AUTO 08011KT 040V100 9999 NCD 25/15
                        Q1017 NOSIG=
201805261450 METAR COR EGLL 261450Z AUTO 08012KT 050V110 9999 FEW043 26/15
                        Q1017 NOSIG=
201805261420 METAR COR EGLL 261420Z AUTO 08014G26KT 9999 FEW042 25/16
                        Q1017 NOSIG=
201805261350 METAR COR EGLL 261350Z AUTO 09014KT 9999 FEW042 26/16 Q1018
                        NOSIG=
201805261320 METAR COR EGLL 261320Z AUTO 08014KT 9999 FEW044 25/16 Q1018
                        NOSIG=
201805261250 METAR COR EGLL 261250Z AUTO 07013KT 9999 SCT039 SCT046 25/16
                        Q1018 NOSIG=
201805261220 METAR COR EGLL 261220Z AUTO 06010KT 9999 SCT035 25/16 Q1018
                        NOSIG=
201805261150 METAR COR EGLL 261150Z AUTO 07011KT 040V110 9999 FEW034 24/16
                        Q1019 NOSIG=
201805261120 METAR COR EGLL 261120Z AUTO 07009KT 040V100 9999 FEW034 23/17
                        Q1019 NOSIG=
201805261050 METAR COR EGLL 261050Z AUTO 07009KT 030V100 9000 NCD 22/16
                        Q1019 NOSIG=
201805261020 METAR COR EGLL 261020Z AUTO 06010KT 020V090 9000 NCD 21/16
                        Q1019 NOSIG=
201805260950 METAR COR EGLL 260950Z AUTO 04008KT 350V070 8000 SCT014 20/16
                        Q1019 NOSIG=
201805260920 METAR COR EGLL 260920Z AUTO 04008KT 010V080 7000 BKN013 18/15
                        Q1019 BECMG BKN015=
201805260850 METAR COR EGLL 260850Z AUTO 04007KT 020V080 6000 BKN009 17/15
                        Q1019 BECMG BKN012=
201805260820 METAR COR EGLL 260820Z AUTO 04005KT 360V080 4600 HZ BKN006
                        16/15 Q1019 BECMG 5000 BKN010=
201805260750 METAR COR EGLL 260750Z AUTO 03005KT 350V060 2700 -RADZ OVC005
                        15/14 Q1019 BECMG 3000 HZ=
201805260720 METAR COR EGLL 260720Z AUTO 02005KT 350V060 2600 -RADZ OVC006
                        15/14 Q1020 REDZ BECMG 3000 HZ=
201805260650 METAR COR EGLL 260650Z AUTO 04005KT 3400 HZ OVC007 15/14
                        Q1020 NOSIG=
201805260620 METAR COR EGLL 260620Z AUTO 05007KT 020V080 3000 HZ OVC006
                        15/14 Q1020 NOSIG=
201805260550 METAR COR EGLL 260550Z AUTO 05006KT 010V080 3000 HZ BKN006
                        OVC010 15/14 Q1020 TEMPO SHRA=
201805260520 METAR COR EGLL 260520Z AUTO 04005KT 350V070 3100 HZ OVC006
                        15/14 Q1019 TEMPO SHRA=
201805260450 METAR COR EGLL 260450Z AUTO 01004KT 340V050 2400 HZ SCT004
                        OVC008 15/14 Q1019 TEMPO SHRA BKN004=
201805260420 METAR COR EGLL 260420Z AUTO 04006KT 010V070 2400 HZ BKN005
                        OVC012 15/14 Q1019 TEMPO BKN004=
201805260350 METAR COR EGLL 260350Z AUTO 04004KT 340V060 2600 HZ BKN006
                        BKN010 15/14 Q1019 NOSIG=
201805260320 METAR COR EGLL 260320Z 04004KT 020V080 2700 HZ BKN005 15/14
                        Q1019 TEMPO BKN004=
201805260250 METAR COR EGLL 260250Z AUTO 04005KT 010V080 2300 HZ BKN004
                        OVC007 15/14 Q1019 TEMPO BKN005=
201805260220 METAR COR EGLL 260220Z AUTO 04005KT 360V080 2800 HZ OVC005
                        15/14 Q1019 NOSIG=
201805260150 METAR COR EGLL 260150Z AUTO 03004KT 350V060 3300 HZ OVC007
                        15/14 Q1020 NOSIG=
201805260120 METAR COR EGLL 260120Z AUTO 04004KT 3500 HZ BKN009 15/14
                        Q1020 NOSIG=
201805260050 METAR COR EGLL 260050Z AUTO 03004KT 350V050 3600 HZ FEW013
                        15/14 Q1020 TEMPO BKN009=
201805260020 METAR COR EGLL 260020Z AUTO 04004KT 3700 HZ NCD 15/14 Q1020
                        NOSIG=
201805252350 METAR COR EGLL 252350Z AUTO VRB03KT 3900 HZ NCD 15/14 Q1020
                        NOSIG=
201805252320 METAR COR EGLL 252320Z AUTO 36004KT 4300 HZ NCD 15/14 Q1020
                        NOSIG=
201805252250 METAR COR EGLL 252250Z AUTO VRB02KT 4900 HZ NCD 15/14 Q1019
                        NOSIG=
201805252220 METAR COR EGLL 252220Z AUTO 05003KT 5000 HZ NCD 16/14 Q1019
                        BECMG 4000=
201805252150 METAR COR EGLL 252150Z AUTO 05003KT 6000 SCT019 16/14 Q1019
                        TEMPO 4500 HZ=
201805252120 METAR COR EGLL 252120Z AUTO 35003KT 7000 SCT023 16/14 Q1019
                        TEMPO 4500 HZ=
201805252050 METAR COR EGLL 252050Z AUTO VRB03KT 8000 NCD 16/14 Q1019
                        NOSIG=
201805252020 METAR COR EGLL 252020Z AUTO VRB03KT 8000 NCD 17/14 Q1019
                        NOSIG=
201805251950 METAR COR EGLL 251950Z AUTO VRB03KT 9999 NCD 17/14 Q1019
                        NOSIG=
201805251920 METAR COR EGLL 251920Z AUTO VRB02KT 9999 NCD 18/14 Q1019
                        NOSIG=
201805251850 METAR COR EGLL 251850Z AUTO VRB03KT 9999 SCT023 18/14 Q1018
                        NOSIG=
201805251820 METAR COR EGLL 251820Z AUTO VRB03KT 9999 BKN023 18/14 Q1018
                        NOSIG=
201805251750 METAR COR EGLL 251750Z AUTO VRB02KT 9999 BKN021 18/13 Q1018
                        NOSIG=
201805251720 METAR COR EGLL 251720Z AUTO VRB03KT 9999 FEW020 18/14 Q1018
                        NOSIG=
201805251650 METAR COR EGLL 251650Z AUTO 26004KT 200V280 9000 BKN018 17/14
                        Q1018 NOSIG=
201805251620 METAR COR EGLL 251620Z AUTO 29005KT 9999 BKN016 OVC021 17/14
                        Q1018 NOSIG=
201805251550 METAR COR EGLL 251550Z AUTO VRB03KT 9999 OVC014 17/14 Q1018
                        BECMG SCT025=
201805251520 METAR COR EGLL 251520Z AUTO 16004KT 090V210 9000 OVC015 17/14
                        Q1018 NOSIG=
201805251450 METAR COR EGLL 251450Z AUTO 15005KT 100V190 9999 OVC015 17/13
                        Q1018 NOSIG=
201805251420 METAR COR EGLL 251420Z AUTO 18005KT 130V220 9999 BKN015 OVC019
                        17/13 Q1018 NOSIG=
201805251350 METAR COR EGLL 251350Z AUTO 19005KT 110V270 9999 BKN016 OVC020
                        17/13 Q1018 NOSIG=
201805251320 METAR COR EGLL 251320Z AUTO 16004KT 090V230 9999 OVC015 17/13
                        Q1018 NOSIG=
201805251250 METAR COR EGLL 251250Z AUTO 18004KT 100V270 9999 BKN017 OVC022
                        17/13 Q1018 NOSIG=
201805251220 METAR COR EGLL 251220Z AUTO 23005KT 180V300 9999 BKN012 BKN016
                        OVC021 17/13 Q1018 NOSIG=
201805251150 METAR COR EGLL 251150Z AUTO 26005KT 230V310 9000 BKN011 OVC019
                        16/13 Q1018 BECMG BKN015=
201805251120 METAR COR EGLL 251120Z AUTO 28005KT 9000 BKN011 OVC018 16/13
                        Q1018 BECMG BKN015=
201805251050 METAR COR EGLL 251050Z AUTO VRB04KT 9000 OVC011 15/13 Q1018
                        BECMG SCT015=
201805251020 METAR COR EGLL 251020Z AUTO VRB03KT 9000 OVC012 15/12 Q1018
                        BECMG BKN015=
201805250950 METAR COR EGLL 250950Z AUTO VRB02KT 9999 OVC010 15/12 Q1018
                        NOSIG=
201805250920 METAR COR EGLL 250920Z AUTO VRB01KT 9999 OVC011 15/12 Q1018
                        NOSIG=
201805250850 METAR COR EGLL 250850Z AUTO VRB01KT 9999 OVC010 15/12 Q1018
                        NOSIG=
201805250820 METAR COR EGLL 250820Z AUTO VRB03KT 9999 OVC010 14/12 Q1018
                        NOSIG=
201805250750 METAR COR EGLL 250750Z AUTO VRB02KT 9999 BKN009 OVC012 14/12
                        Q1018 BECMG BKN012=
201805250720 METAR COR EGLL 250720Z AUTO 34004KT 290V030 9999 BKN008 OVC012
                        14/12 Q1018 BECMG BKN012=
201805250650 METAR COR EGLL 250650Z AUTO VRB03KT 9999 BKN008 OVC013 13/12
                        Q1018 BECMG BKN012=
201805250620 METAR COR EGLL 250620Z AUTO VRB03KT 9000 BKN007 OVC011 13/12
                        Q1017 NOSIG=
201805250550 METAR COR EGLL 250550Z AUTO VRB03KT 5000 HZ SCT005 BKN008
                        OVC014 13/12 Q1017 TEMPO 4000=
201805250520 METAR COR EGLL 250520Z AUTO VRB03KT 5000 BR BKN006 BKN010
                        OVC019 13/12 Q1017 TEMPO 4000 -RADZ=
201805250450 METAR COR EGLL 250450Z AUTO VRB03KT 5000 -DZ BKN006/// OVC015///
                        //////TCU 13/12 Q1017 TEMPO 4000=
201805250420 METAR COR EGLL 250420Z AUTO VRB03KT 4700 -DZ BKN005 OVC015
                        13/12 Q1017 TEMPO 6000 NSW=
201805250350 METAR COR EGLL 250350Z AUTO VRB03KT 5000 -DZ BKN008 OVC011
                        13/12 Q1017 TEMPO 3000 RADZ=
201805250320 METAR COR EGLL 250320Z AUTO VRB03KT 6000 -RA OVC007/// //////TCU
                        13/12 Q1017 NOSIG=
201805250250 METAR COR EGLL 250250Z AUTO VRB02KT 7000 -RA OVC008 13/12
                        Q1017 NOSIG=
201805250220 METAR COR EGLL 250220Z AUTO 36005KT 9999 -RA OVC009 13/12
                        Q1017 TEMPO BKN010=
201805250150 METAR COR EGLL 250150Z AUTO 35005KT 310V020 9999 -RA BKN010
                        OVC016 13/12 Q1017 TEMPO BKN009=
201805250120 METAR COR EGLL 250120Z AUTO 36005KT 320V020 9999 OVC011 14/12
                        Q1018 TEMPO -SHRA BKN009=
201805250050 METAR COR EGLL 250050Z AUTO 36004KT 320V040 9999 OVC012 14/12
                        Q1018 TEMPO -SHRA BKN009=
201805250020 METAR COR EGLL 250020Z AUTO 36006KT 330V050 9999 BKN011 OVC017
                        14/12 Q1018 NOSIG=
201805242350 METAR COR EGLL 242350Z AUTO 01005KT 330V040 9999 BKN012 BKN024
                        14/11 Q1018 NOSIG=
201805242320 METAR COR EGLL 242320Z AUTO 36004KT 330V030 9999 NCD 14/12
                        Q1018 TEMPO SHRA=
201805242250 METAR COR EGLL 242250Z AUTO 01006KT 340V040 9999 NCD 15/12
                        Q1018 TEMPO SHRA=
201805242220 METAR COR EGLL 242220Z AUTO 01005KT 9999 NCD 16/12 Q1018
                        TEMPO SHRA=
201805242150 METAR COR EGLL 242150Z AUTO 02005KT 340V060 9999 NCD 16/13
                        Q1018 NOSIG=
201805242120 METAR COR EGLL 242120Z AUTO VRB02KT 4700 HZ NCD 16/15 Q1018
                        TEMPO 6000 NSW=
201805242050 METAR COR EGLL 242050Z AUTO 30003KT 4400 HZ NCD 16/15 Q1018
                        NOSIG=
201805242020 METAR COR EGLL 242020Z AUTO 30003KT 4400 HZ NCD 16/14 Q1018
                        TEMPO SHRA=
201805241950 METAR COR EGLL 241950Z AUTO VRB03KT 5000 HZ NCD 16/14 Q1018
                        TEMPO 4000 SHRA=
201805241920 METAR COR EGLL 241920Z AUTO 31004KT 5000 HZ NCD 16/14 Q1018
                        TEMPO 4000 SHRA=
201805241850 METAR COR EGLL 241850Z AUTO 30005KT 6000 NCD 16/14 Q1018
                        TEMPO SHRA=
201805241820 METAR COR EGLL 241820Z AUTO 27006KT 6000 NCD 16/14 Q1018
                        TEMPO SHRA=
201805241750 METAR COR EGLL 241750Z AUTO 27006KT 6000 -RA NCD 16/15 Q1018
                        TEMPO 4000 SHRA=
201805241720 METAR COR EGLL 241720Z AUTO 25006KT 6000 -RA FEW033/// SCT045///
                        //////CB 17/14 Q1018 TEMPO 4000 SHRA=
201805241650 METAR COR EGLL 241650Z AUTO 24006KT 200V260 7000 -RA SCT040///
                        //////CB 17/14 Q1018 TEMPO 4000 SHRA=
201805241620 METAR COR EGLL 241620Z AUTO 24007KT 8000 //////CB 17/14 Q1018
                        TEMPO 4000 SHRA=
201805241550 METAR COR EGLL 241550Z AUTO 23009KT 9000 //////CB 18/14 Q1018
                        TEMPO 4000 SHRA=
201805241520 METAR COR EGLL 241520Z AUTO 26009KT 9000 NCD 18/14 Q1018
                        TEMPO SHRA=
201805241450 METAR COR EGLL 241450Z AUTO 26010KT 9000 NCD 17/14 Q1018
                        NOSIG=
201805241420 METAR COR EGLL 241420Z AUTO 27010KT 8000 NCD 17/14 Q1019
                        NOSIG=
201805241350 METAR COR EGLL 241350Z AUTO 28006KT 8000 NCD 16/13 Q1019
                        TEMPO SHRA=
201805241320 METAR COR EGLL 241320Z AUTO 30005KT 8000 -RA NCD 16/13 Q1019
                        TEMPO 4000 SHRA=
201805241250 METAR COR EGLL 241250Z AUTO 35005KT 310V030 9000 SCT019 17/13
                        Q1020 NOSIG=
201805241220 METAR COR EGLL 241220Z AUTO 04005KT 340V080 9000 BKN019 17/13
                        Q1020 NOSIG=
201805241150 METAR COR EGLL 241150Z AUTO 02006KT 340V060 9000 BKN017 17/13
                        Q1020 NOSIG=
201805241120 METAR COR EGLL 241120Z AUTO 04006KT 360V080 9000 SCT015 16/12
                        Q1020 NOSIG=
201805241050 METAR COR EGLL 241050Z AUTO 03007KT 350V060 8000 BKN011 15/13
                        Q1020 BECMG SCT018=
201805241020 METAR COR EGLL 241020Z AUTO 04009KT 360V070 7000 BKN009 14/12
                        Q1021 BECMG SCT015=
201805240950 METAR COR EGLL 240950Z AUTO 02005KT 340V060 5000 HZ OVC007
                        13/12 Q1021 TEMPO SCT010=
201805240920 METAR COR EGLL 240920Z 03005KT 350V070 5000 HZ BKN008 12/11
                        Q1021 BECMG BKN012=
201805240850 METAR COR EGLL 240850Z 02006KT 340V060 4700 -RA BR BKN007
                        11/11 Q1021 RERA BECMG 6000 NSW SCT007
                        BKN014=
201805240820 METAR COR EGLL 240820Z AUTO 02004KT 330V050 4400 RA BKN008
                        11/10 Q1021 TEMPO 6000 -SHRA SCT008
                        BKN014=
201805240750 METAR COR EGLL 240750Z AUTO 01005KT 330V050 5000 -RADZ SCT008
                        BKN031 BKN049 11/10 Q1021 TEMPO 4000
                        SHRA BKN008=
201805240720 METAR COR EGLL 240720Z AUTO 02004KT 340V060 5000 -RADZ BKN007
                        11/10 Q1021 TEMPO 4000 SHRA SCT007
                        BKN010=
201805240650 METAR COR EGLL 240650Z AUTO 01005KT 320V050 5000 -DZ BKN007
                        11/10 Q1021 TEMPO 4000 SHRA SCT007
                        BKN010=
201805240620 METAR COR EGLL 240620Z AUTO 03005KT 350V060 5000 -DZ BKN007
                        11/10 Q1021 TEMPO 4000 SHRA SCT007
                        BKN010=
201805240550 METAR COR EGLL 240550Z AUTO 03005KT 6000 -RA FEW009 11/10
                        Q1021 TEMPO 4000 SHRA BKN010=
201805240520 METAR COR EGLL 240520Z AUTO 04007KT 6000 -RA NCD 11/10 Q1021
                        TEMPO 4000 SHRA BKN010=
201805240450 METAR COR EGLL 240450Z AUTO 03007KT 350V060 6000 -RA NCD
                        11/10 Q1021 TEMPO 4000 SHRA BKN014=
201805240420 METAR COR EGLL 240420Z AUTO 02006KT 320V070 5000 -RA FEW040///
                        //////TCU 11/10 Q1021 RESHRA TEMPO
                        4000 SHRA=
201805240350 METAR COR EGLL 240350Z 04008KT 360V060 6000 SHRA FEW022 BKN038CB
                        11/10 Q1021 RETS RESHRA TEMPO 4000
                        +SHRA=
201805240320 METAR COR EGLL 240320Z 04006KT 2500 +TSRA FEW010 SCT018CB
                        11/10 Q1022 TEMPO 6000 SHRA BKN010=
201805240250 METAR COR EGLL 240250Z AUTO 03006KT 340V060 4500 RA FEW028///
                        BKN033/// BKN040/// //////CB 11/10
                        Q1021 TEMPO TSRA=
201805240220 METAR COR EGLL 240220Z AUTO 04006KT 360V080 4700 RA SCT022///
                        BKN033/// BKN041/// //////CB 11/10
                        Q1022 TEMPO TSRA=
201805240150 METAR COR EGLL 240150Z AUTO 04005KT 360V070 8000 -RA //////CB
                        11/10 Q1022 TEMPO 3000 +TSRA=
201805240120 METAR COR EGLL 240120Z AUTO 02005KT 330V060 7000 -RA //////TCU
                        11/10 Q1022 TEMPO 4000 +SHRA=
201805240050 METAR COR EGLL 240050Z AUTO 03005KT 350V060 6000 -RA FEW027///
                        BKN039/// //////TCU 11/10 Q1022 RERA
                        TEMPO SHRA=
201805240020 METAR COR EGLL 240020Z AUTO 04008KT 9999 //////TCU 12/09
                        Q1022 TEMPO SHRA=
201805232350 METAR COR EGLL 232350Z AUTO 04008KT 9999 -RA NCD 11/09 Q1023
                        TEMPO SHRA=
201805232320 METAR COR EGLL 232320Z AUTO 04006KT 360V060 9999 NCD 11/09
                        Q1023 TEMPO SHRA=
201805232250 METAR COR EGLL 232250Z AUTO 03006KT 350V050 9999 NCD 12/09
                        Q1023 TEMPO SHRA=
201805232220 METAR COR EGLL 232220Z AUTO 03005KT 340V070 9999 NCD 12/09
                        Q1023 TEMPO SHRA=
201805232150 METAR COR EGLL 232150Z AUTO 02005KT 340V070 9999 NCD 12/09
                        Q1023 NOSIG=
201805232120 METAR COR EGLL 232120Z AUTO 03006KT 340V060 9999 NCD 12/09
                        Q1023 NOSIG=
201805232050 METAR COR EGLL 232050Z AUTO 02007KT 340V050 9999 NCD 13/09
                        Q1023 NOSIG=
201805232020 METAR COR EGLL 232020Z AUTO 03007KT 350V060 9999 NCD 13/09
                        Q1023 NOSIG=
201805231950 METAR COR EGLL 231950Z AUTO 03008KT 350V060 9999 NCD 13/09
                        Q1023 NOSIG=
201805231920 METAR COR EGLL 231920Z AUTO 01006KT 340V050 9999 NCD 14/09
                        Q1022 NOSIG=
201805231850 METAR COR EGLL 231850Z AUTO 01007KT 330V070 9999 NCD 15/10
                        Q1022 NOSIG=
201805231820 METAR COR EGLL 231820Z AUTO 02007KT 340V050 9999 NCD 16/10
                        Q1022 NOSIG=
201805231750 METAR COR EGLL 231750Z AUTO 02007KT 340V060 9999 NCD 16/11
                        Q1022 NOSIG=
201805231720 METAR COR EGLL 231720Z AUTO 02007KT 330V070 9999 NCD 17/11
                        Q1022 NOSIG=
201805231650 METAR COR EGLL 231650Z AUTO 01007KT 330V050 9999 NCD 17/11
                        Q1022 NOSIG=
201805231620 METAR COR EGLL 231620Z AUTO 01008KT 340V070 9999 NCD 17/11
                        Q1022 NOSIG=
201805231550 METAR COR EGLL 231550Z AUTO 02007KT 350V060 9999 FEW033///
                        18/11 Q1022 NOSIG=
201805231520 METAR COR EGLL 231520Z AUTO 05010KT 360V090 9999 FEW032 19/11
                        Q1022 NOSIG=
201805231450 METAR COR EGLL 231450Z AUTO 04009KT 350V080 9999 FEW032 18/10
                        Q1022 NOSIG=
201805231420 METAR COR EGLL 231420Z AUTO 04010KT 360V070 9999 NCD 19/10
                        Q1023 NOSIG=
201805231350 METAR COR EGLL 231350Z AUTO 03009KT 340V060 9999 NCD 18/10
                        Q1023 NOSIG=
201805231320 METAR COR EGLL 231320Z AUTO 03010KT 340V070 9999 NCD 18/10
                        Q1023 NOSIG=
201805231250 METAR COR EGLL 231250Z AUTO 03009KT 350V080 9999 NCD 17/10
                        Q1023 NOSIG=
201805231220 METAR COR EGLL 231220Z AUTO 02010KT 320V080 9999 NCD 17/10
                        Q1023 NOSIG=
201805231150 METAR COR EGLL 231150Z AUTO 03009KT 340V060 9999 NCD 17/10
                        Q1023 NOSIG=
201805231120 METAR COR EGLL 231120Z AUTO 01008KT 340V070 9999 NCD 16/09
                        Q1024 NOSIG=
201805231050 METAR COR EGLL 231050Z AUTO 04011KT 360V060 9999 NCD 16/09
                        Q1024 NOSIG=
201805231020 METAR COR EGLL 231020Z AUTO 36008KT 320V050 9999 FEW019 15/09
                        Q1024 NOSIG=
201805230950 METAR COR EGLL 230950Z 02008KT 320V060 9999 SCT018 14/09
                        Q1024 NOSIG=
201805230920 METAR COR EGLL 230920Z 01008KT 320V050 9999 BKN016 13/09
                        Q1024 NOSIG=
201805230850 METAR COR EGLL 230850Z 36009KT 330V030 9999 BKN016 13/09
                        Q1024 NOSIG=
201805230820 METAR COR EGLL 230820Z 01007KT 340V060 9999 FEW013 BKN016
                        12/08 Q1024 NOSIG=
201805230750 METAR COR EGLL 230750Z 02006KT 330V060 9999 SCT013 BKN016
                        12/08 Q1024 NOSIG=
201805230720 METAR COR EGLL 230720Z AUTO 03006KT 340V060 9999 OVC012 11/08
                        Q1024 BECMG SCT014=
201805230650 METAR COR EGLL 230650Z AUTO 01009KT 340V070 9999 OVC012 11/08
                        Q1024 NOSIG=
201805230620 METAR COR EGLL 230620Z AUTO 01006KT 330V050 9999 OVC011 11/08
                        Q1023 NOSIG=
201805230550 METAR COR EGLL 230550Z AUTO 02008KT 340V060 9999 OVC011 11/08
                        Q1023 NOSIG=
201805230520 METAR COR EGLL 230520Z AUTO 03006KT 340V060 9999 OVC011 11/08
                        Q1023 NOSIG=
201805230450 METAR COR EGLL 230450Z AUTO 01007KT 340V050 9999 OVC011 11/08
                        Q1023 NOSIG=
201805230420 METAR COR EGLL 230420Z AUTO 03006KT 330V070 9999 OVC012 11/08
                        Q1022 NOSIG=
201805230350 METAR COR EGLL 230350Z AUTO 03008KT 350V050 9999 OVC012 11/08
                        Q1022 NOSIG=
201805230320 METAR COR EGLL 230320Z AUTO 03006KT 330V070 9999 OVC012 11/08
                        Q1022 NOSIG=
201805230250 METAR COR EGLL 230250Z AUTO 02007KT 330V060 9999 OVC012 11/08
                        Q1022 NOSIG=
201805230220 METAR COR EGLL 230220Z AUTO 02008KT 340V060 9999 OVC012 11/08
                        Q1022 NOSIG=
201805230150 METAR COR EGLL 230150Z AUTO 03007KT 340V080 9999 OVC012 11/08
                        Q1022 NOSIG=
201805230120 METAR COR EGLL 230120Z AUTO 03008KT 350V060 9999 BKN011 11/08
                        Q1022 NOSIG=
201805230050 METAR COR EGLL 230050Z AUTO 02007KT 350V060 9999 BKN011 OVC017
                        11/08 Q1022 NOSIG=
201805230020 METAR COR EGLL 230020Z AUTO 02005KT 340V050 9999 BKN011 11/08
                        Q1022 TEMPO BKN008=
201805222350 METAR COR EGLL 222350Z AUTO 03004KT 350V080 9999 BKN012 11/08
                        Q1022 TEMPO BKN008=
201805222320 METAR COR EGLL 222320Z AUTO 03004KT 340V070 9999 BKN012 11/09
                        Q1021 TEMPO BKN008=
201805222250 METAR COR EGLL 222250Z AUTO 04007KT 350V060 9999 SCT013 11/09
                        Q1021 BECMG BKN013=
201805222220 METAR COR EGLL 222220Z AUTO 02006KT 330V070 9999 NCD 12/09
                        Q1021 BECMG BKN012=
201805222150 METAR COR EGLL 222150Z AUTO 04006KT 360V070 9999 NCD 12/09
                        Q1021 TEMPO BKN012=
201805222120 METAR COR EGLL 222120Z AUTO 04007KT 350V060 9999 NCD 13/09
                        Q1021 TEMPO BKN012=
201805222050 METAR COR EGLL 222050Z AUTO 04007KT 9999 NCD 14/09 Q1020
                        NOSIG=
201805222020 METAR COR EGLL 222020Z AUTO 04009KT 9999 NCD 15/09 Q1020
                        NOSIG=
201805221950 METAR COR EGLL 221950Z AUTO 03009KT 350V070 9999 NCD 16/09
                        Q1019 NOSIG=
201805221920 METAR COR EGLL 221920Z AUTO 03009KT 340V060 9999 NCD 17/09
                        Q1019 NOSIG=
201805221850 METAR COR EGLL 221850Z AUTO 02010KT 340V050 9999 NCD 18/09
                        Q1019 NOSIG=
201805221820 METAR COR EGLL 221820Z AUTO 01010G21KT 330V050 9999 NCD 19/09
                        Q1018 NOSIG=
201805221750 METAR EGLL 221750Z 02009KT 350V060 9999 FEW040CB 20/09 Q1018=
201805221720 METAR COR EGLL 221720Z 01009KT 330V060 9999 FEW040CB 20/09
                        Q1018 NOSIG=
201805221650 METAR COR EGLL 221650Z 03012KT 9999 FEW040CB 21/09 Q1017
                        NOSIG=
201805221620 METAR COR EGLL 221620Z 03009KT 330V070 9999 FEW040CB 22/09
                        Q1017 NOSIG=
201805221550 METAR COR EGLL 221550Z 03009KT 350V070 9999 FEW040CB 22/09
                        Q1017 NOSIG=
201805221520 METAR EGLL 221520Z 02011KT 340V050 9999 FEW040CB 22/09 Q1017=
201805221450 METAR COR EGLL 221450Z AUTO 03010KT 310V080 9999 NCD 23/10
                        Q1017 NOSIG=
201805221420 METAR COR EGLL 221420Z AUTO 03009KT 330V060 9999 NCD 22/10
                        Q1017 NOSIG=
201805221350 METAR COR EGLL 221350Z AUTO 04010KT 340V080 9999 NCD 22/10
                        Q1016 NOSIG=
201805221320 METAR COR EGLL 221320Z AUTO 02008KT 320V090 9999 NCD 22/11
                        Q1016 NOSIG=
201805221250 METAR COR EGLL 221250Z AUTO 01008KT 320V080 9999 NCD 22/11
                        Q1016 NOSIG=
201805221220 METAR COR EGLL 221220Z AUTO 02008KT 330V070 9999 FEW038 22/12
                        Q1016 NOSIG=
201805221150 METAR COR EGLL 221150Z AUTO 01009KT 330V060 9999 NCD 21/11
                        Q1016 NOSIG=
201805221120 METAR COR EGLL 221120Z AUTO 36010KT 330V040 9999 NCD 21/11
                        Q1016 NOSIG=
201805221050 METAR COR EGLL 221050Z AUTO 03009KT 350V070 9999 NCD 20/10
                        Q1016 NOSIG=
201805221020 METAR COR EGLL 221020Z AUTO 01008KT 330V060 9999 NCD 20/10
                        Q1016 NOSIG=
201805220950 METAR COR EGLL 220950Z AUTO 01008KT 330V060 9999 NCD 19/09
                        Q1016 NOSIG=
201805220920 METAR COR EGLL 220920Z AUTO 04008KT 320V070 9999 NCD 18/09
                        Q1016 NOSIG=
201805220850 METAR COR EGLL 220850Z AUTO 01007KT 330V060 9999 NCD 18/09
                        Q1016 NOSIG=
201805220820 METAR COR EGLL 220820Z AUTO 03007KT 330V070 9999 NCD 17/09
                        Q1016 NOSIG=
201805220750 METAR COR EGLL 220750Z AUTO 03007KT 340V080 9999 NCD 16/09
                        Q1016 NOSIG=
201805220720 METAR COR EGLL 220720Z AUTO 02005KT 330V070 9999 NCD 15/09
                        Q1016 NOSIG=
201805220650 METAR COR EGLL 220650Z AUTO 02006KT 330V060 9999 NCD 14/08
                        Q1016 NOSIG=
201805220620 METAR COR EGLL 220620Z AUTO 01007KT 320V050 9999 NCD 14/09
                        Q1016 NOSIG=
201805220550 METAR COR EGLL 220550Z AUTO 03005KT 340V060 9999 NCD 13/09
                        Q1016 NOSIG=
201805220520 METAR COR EGLL 220520Z AUTO 01004KT 320V070 9999 NCD 12/09
                        Q1015 NOSIG=
201805220450 METAR COR EGLL 220450Z AUTO 36004KT 300V080 9999 NCD 12/09
                        Q1015 NOSIG=
201805220420 METAR COR EGLL 220420Z AUTO 35005KT 300V030 9999 NCD 12/09
                        Q1015 NOSIG=
201805220350 METAR COR EGLL 220350Z AUTO 36005KT 310V050 9999 NCD 13/09
                        Q1015 NOSIG=
201805220320 METAR COR EGLL 220320Z AUTO 34004KT 310V030 9999 NCD 13/10
                        Q1015 NOSIG=
201805220250 METAR COR EGLL 220250Z AUTO 35004KT 310V040 9999 NCD 13/10
                        Q1014 NOSIG=
201805220220 METAR COR EGLL 220220Z AUTO VRB02KT 9999 NCD 13/10 Q1014
                        NOSIG=
201805220150 METAR COR EGLL 220150Z AUTO 36004KT 330V040 9999 NCD 13/10
                        Q1014 NOSIG=
201805220120 METAR COR EGLL 220120Z AUTO VRB03KT 9999 NCD 14/10 Q1014
                        NOSIG=
201805220050 METAR COR EGLL 220050Z AUTO 35004KT 300V030 9999 NCD 14/10
                        Q1014 NOSIG=
201805220020 METAR COR EGLL 220020Z AUTO 36004KT 320V030 9999 NCD 15/10
                        Q1014 NOSIG=
201805212350 METAR COR EGLL 212350Z AUTO 35004KT 310V020 9999 NCD 15/10
                        Q1015 NOSIG=
201805212320 METAR COR EGLL 212320Z AUTO 01005KT 330V040 9999 NCD 16/10
                        Q1015 NOSIG=
201805212250 METAR COR EGLL 212250Z AUTO 02005KT 340V070 9999 NCD 17/10
                        Q1015 NOSIG=
201805212220 METAR COR EGLL 212220Z AUTO 01006KT 9999 NCD 17/11 Q1014
                        NOSIG=
201805212150 METAR COR EGLL 212150Z AUTO 03004KT 340V070 9999 NCD 18/11
                        Q1014 NOSIG=
201805212120 METAR COR EGLL 212120Z AUTO VRB03KT 9999 NCD 18/11 Q1014
                        NOSIG=
201805212050 METAR COR EGLL 212050Z AUTO 36004KT 320V030 9999 NCD 19/11
                        Q1014 NOSIG=
201805212020 METAR COR EGLL 212020Z AUTO 35004KT 9999 NCD 19/11 Q1014
                        NOSIG=
201805211950 METAR COR EGLL 211950Z AUTO 36004KT 9999 //////CB 20/10 Q1014
                        NOSIG=
201805211920 METAR COR EGLL 211920Z AUTO 36005KT 9999 //////CB 20/11 Q1014
                        NOSIG=
201805211850 METAR COR EGLL 211850Z AUTO 36007KT 9999 NCD 21/10 Q1014
                        TEMPO SHRA=
201805211820 METAR COR EGLL 211820Z AUTO 36006KT 320V030 9999 //////CB
                        21/09 Q1014 TEMPO SHRA=
201805211750 METAR COR EGLL 211750Z AUTO 04006KT 340V080 9999 //////CB
                        21/07 Q1014 NOSIG=
201805211720 METAR COR EGLL 211720Z AUTO 05006KT 350V080 9999 //////CB
                        22/10 Q1014 NOSIG=
201805211650 METAR COR EGLL 211650Z AUTO 04006KT 330V090 9999 NCD 22/10
                        Q1014 TEMPO SHRA=
201805211620 METAR COR EGLL 211620Z AUTO 05005KT 010V080 9999 NCD 21/11
                        Q1014 TEMPO SHRA=
201805211550 METAR COR EGLL 211550Z AUTO 06005KT 9999 NCD 21/10 Q1014
                        TEMPO SHRA=
201805211520 METAR COR EGLL 211520Z AUTO 09005KT 350V120 9999 //////CB
                        21/12 Q1014 TEMPO SHRA=
201805211450 METAR COR EGLL 211450Z AUTO 07006KT 030V110 9999 NCD 21/12
                        Q1014 TEMPO SHRA=
201805211420 METAR COR EGLL 211420Z AUTO 07007KT 9999 NCD 22/11 Q1015
                        TEMPO SHRA=
201805211350 METAR COR EGLL 211350Z AUTO 04007KT 020V080 9999 NCD 22/10
                        Q1015 TEMPO SHRA=
201805211320 METAR COR EGLL 211320Z AUTO 04006KT 010V090 9999 NCD 22/10
                        Q1015 TEMPO SHRA=
201805211250 METAR COR EGLL 211250Z AUTO 04005KT 9999 NCD 21/10 Q1015
                        TEMPO SHRA=
201805211220 METAR COR EGLL 211220Z AUTO 05005KT 360V080 9999 NCD 22/10
                        Q1015 TEMPO SHRA=
201805211150 METAR COR EGLL 211150Z AUTO 05004KT 360V110 9999 NCD 22/09
                        Q1015 TEMPO SHRA=
201805211120 METAR COR EGLL 211120Z AUTO VRB03KT 9999 NCD 22/10 Q1016
                        TEMPO SHRA=
201805211050 METAR COR EGLL 211050Z AUTO VRB04KT 9999 NCD 22/10 Q1016
                        TEMPO SHRA=
201805211020 METAR COR EGLL 211020Z AUTO 09004KT 040V140 9999 NCD 21/10
                        Q1016 TEMPO SHRA=
201805210950 METAR COR EGLL 210950Z AUTO VRB03KT 9999 NCD 20/11 Q1016
                        NOSIG=
201805210920 METAR COR EGLL 210920Z AUTO 06004KT 340V110 9999 NCD 20/11
                        Q1017 NOSIG=
201805210850 METAR COR EGLL 210850Z AUTO VRB03KT 9999 NCD 18/11 Q1017
                        NOSIG=
201805210820 METAR COR EGLL 210820Z AUTO 03004KT 330V080 9999 NCD 17/10
                        Q1017 NOSIG=
201805210750 METAR COR EGLL 210750Z AUTO 07004KT 030V110 9000 NCD 16/10
                        Q1017 NOSIG=
201805210720 METAR COR EGLL 210720Z AUTO 06004KT 020V100 8000 NCD 14/10
                        Q1017 NOSIG=
201805210650 METAR COR EGLL 210650Z AUTO VRB03KT 7000 NCD 12/09 Q1017
                        NOSIG=
201805210620 METAR COR EGLL 210620Z AUTO VRB03KT 6000 NCD 11/08 Q1018
                        NOSIG=
201805210550 METAR COR EGLL 210550Z AUTO VRB02KT 6000 NCD 11/08 Q1018
                        NOSIG=
201805210520 METAR COR EGLL 210520Z AUTO VRB03KT 5000 HZ NCD 10/08 Q1018
                        NOSIG=
201805210450 METAR COR EGLL 210450Z AUTO 36003KT 5000 HZ NCD 09/07 Q1018
                        NOSIG=
201805210420 METAR COR EGLL 210420Z AUTO VRB03KT 4400 HZ NCD 09/07 Q1018
                        NOSIG=
201805210350 METAR COR EGLL 210350Z AUTO 05004KT 3700 HZ NCD 09/07 Q1018
                        NOSIG=
201805210320 METAR COR EGLL 210320Z AUTO VRB03KT 3600 HZ NCD 10/08 Q1018
                        NOSIG=
201805210250 METAR COR EGLL 210250Z AUTO 04003KT 4000 HZ NCD 10/08 Q1018
                        NOSIG=
201805210220 METAR COR EGLL 210220Z AUTO 05003KT 2600 HZ NCD 10/08 Q1018
                        NOSIG=
201805210150 METAR COR EGLL 210150Z AUTO 08002KT 2600 HZ NCD 10/08 Q1019
                        TEMPO BKN005=
201805210120 METAR COR EGLL 210120Z AUTO VRB02KT 3100 HZ NCD 10/08 Q1019
                        TEMPO BKN005=
201805210050 METAR COR EGLL 210050Z AUTO 08004KT 3200 HZ NCD 09/07 Q1019
                        TEMPO BKN005=
201805210020 METAR COR EGLL 210020Z AUTO 07003KT 4300 HZ NCD 10/08 Q1019
                        TEMPO 6000 NSW=
201805202350 METAR COR EGLL 202350Z AUTO 10005KT 6000 NCD 10/07 Q1020
                        TEMPO 4000 HZ=
201805202320 METAR COR EGLL 202320Z AUTO 07004KT 7000 NCD 12/07 Q1020
                        NOSIG=
201805202250 METAR COR EGLL 202250Z AUTO 09005KT 8000 NCD 11/07 Q1020
                        NOSIG=
201805202220 METAR COR EGLL 202220Z AUTO 09007KT 9999 NCD 12/07 Q1020
                        NOSIG=
201805202150 METAR COR EGLL 202150Z AUTO 09007KT 9999 NCD 13/08 Q1020
                        NOSIG=
201805202120 METAR COR EGLL 202120Z AUTO 10007KT 9999 NCD 13/09 Q1020
                        NOSIG=
201805202050 METAR COR EGLL 202050Z AUTO 10008KT 9999 NCD 15/10 Q1020
                        NOSIG=
201805202020 METAR COR EGLL 202020Z AUTO 10008KT 9999 NCD 15/09 Q1020
                        NOSIG=
201805201950 METAR COR EGLL 201950Z AUTO 10010KT 9999 NCD 16/09 Q1020
                        NOSIG=
201805201920 METAR COR EGLL 201920Z AUTO 10009KT 9999 NCD 18/08 Q1020
                        NOSIG=
201805201850 METAR COR EGLL 201850Z AUTO 09009KT 9999 NCD 18/08 Q1019
                        NOSIG=
201805201820 METAR COR EGLL 201820Z AUTO 10009KT 9999 NCD 19/07 Q1019
                        NOSIG=
201805201750 METAR COR EGLL 201750Z AUTO 08007KT 050V140 9999 NCD 20/07
                        Q1019 NOSIG=
201805201720 METAR COR EGLL 201720Z AUTO 08006KT 030V110 9999 NCD 20/06
                        Q1019 NOSIG=
201805201650 METAR COR EGLL 201650Z AUTO 07007KT 030V120 9999 NCD 21/07
                        Q1019 NOSIG=
201805201620 METAR COR EGLL 201620Z AUTO 05006KT 020V090 9999 NCD 21/07
                        Q1020 NOSIG=
201805201550 METAR COR EGLL 201550Z AUTO 09004KT 040V160 9999 NCD 21/09
                        Q1020 NOSIG=
201805201520 METAR COR EGLL 201520Z AUTO 09008KT 050V130 9999 NCD 21/09
                        Q1020 NOSIG=
201805201450 METAR COR EGLL 201450Z AUTO 10007KT 050V160 9999 NCD 21/08
                        Q1021 NOSIG=
201805201420 METAR COR EGLL 201420Z AUTO 09004KT 010V170 9999 NCD 21/08
                        Q1021 NOSIG=
201805201350 METAR COR EGLL 201350Z AUTO 13007KT 090V180 9999 NCD 21/08
                        Q1021 NOSIG=
201805201320 METAR COR EGLL 201320Z AUTO 13008KT 080V180 9999 NCD 21/08
                        Q1021 NOSIG=
201805201250 METAR COR EGLL 201250Z AUTO 09005KT 030V180 9999 NCD 20/09
                        Q1022 NOSIG=
201805201220 METAR COR EGLL 201220Z AUTO 13006KT 060V200 9999 NCD 20/08
                        Q1022 NOSIG=
201805201150 METAR COR EGLL 201150Z AUTO 12005KT 070V220 9999 NCD 20/09
                        Q1022 NOSIG=
201805201120 METAR COR EGLL 201120Z AUTO VRB04KT 9999 NCD 19/09 Q1023
                        NOSIG=
201805201050 METAR COR EGLL 201050Z AUTO 08004KT 020V120 9999 NCD 19/09
                        Q1023 NOSIG=
201805201020 METAR COR EGLL 201020Z AUTO 11006KT 040V150 9999 NCD 18/09
                        Q1023 NOSIG=
201805200950 METAR COR EGLL 200950Z AUTO 09005KT 010V120 9999 NCD 18/09
                        Q1023 NOSIG=
201805200920 METAR COR EGLL 200920Z AUTO VRB03KT 9999 NCD 17/09 Q1023
                        NOSIG=
201805200850 METAR COR EGLL 200850Z AUTO VRB03KT 9999 NCD 17/09 Q1023
                        NOSIG=
201805200820 METAR COR EGLL 200820Z AUTO VRB02KT 9999 NCD 16/09 Q1023
                        NOSIG=
201805200750 METAR COR EGLL 200750Z AUTO VRB03KT 9999 NCD 15/09 Q1023
                        NOSIG=
201805200720 METAR COR EGLL 200720Z AUTO VRB03KT 9999 NCD 14/10 Q1023
                        NOSIG=
201805200650 METAR COR EGLL 200650Z AUTO 08002KT 8000 NCD 13/10 Q1023
                        NOSIG=
201805200620 METAR COR EGLL 200620Z AUTO VRB02KT 8000 R09R/1300 NCD 13/09
                        Q1023 NOSIG=
201805200550 METAR COR EGLL 200550Z AUTO 36001KT 7000 R09R/1300 NCD 11/09
                        Q1023 NOSIG=
201805200520 METAR COR EGLL 200520Z 33002KT 7000 R09R/1400 NSC 10/09 Q1023
                        NOSIG=
201805200450 METAR COR EGLL 200450Z AUTO 11001KT 6000 NCD 09/08 Q1023
                        NOSIG=
201805200420 METAR COR EGLL 200420Z AUTO 08002KT 6000 NCD 09/08 Q1023
                        NOSIG=
201805200350 METAR COR EGLL 200350Z AUTO 28002KT 4900 HZ NCD 08/07 Q1023
                        TEMPO 5000=
201805200320 METAR COR EGLL 200320Z AUTO VRB02KT 5000 HZ NCD 08/07 Q1023
                        TEMPO 4000=
201805200250 METAR COR EGLL 200250Z AUTO 18003KT 6000 NCD 08/07 Q1023
                        NOSIG=
201805200220 METAR COR EGLL 200220Z AUTO 16004KT 9000 NCD 10/08 Q1023
                        NOSIG=
201805200150 METAR COR EGLL 200150Z AUTO 16005KT 9000 NCD 10/08 Q1023
                        NOSIG=
201805200120 METAR COR EGLL 200120Z AUTO 17004KT 9000 NCD 10/08 Q1024
                        NOSIG=
201805200050 METAR COR EGLL 200050Z AUTO 17004KT 9999 NCD 11/09 Q1024
                        NOSIG=
201805200020 METAR COR EGLL 200020Z AUTO 15005KT 9999 NCD 11/09 Q1024
                        NOSIG=
201805192350 METAR COR EGLL 192350Z AUTO 14006KT 9999 NCD 12/09 Q1024
                        NOSIG=
201805192320 METAR COR EGLL 192320Z AUTO 15006KT 9999 NCD 13/09 Q1024
                        NOSIG=
201805192250 METAR COR EGLL 192250Z AUTO 14004KT 8000 NCD 13/10 Q1024
                        NOSIG=
201805192220 METAR COR EGLL 192220Z AUTO 13006KT 9999 NCD 14/10 Q1023
                        NOSIG=
201805192150 METAR COR EGLL 192150Z AUTO 13006KT 9999 NCD 14/09 Q1023
                        NOSIG=
201805192120 METAR COR EGLL 192120Z AUTO 11006KT 9999 NCD 15/08 Q1023
                        NOSIG=
201805192050 METAR COR EGLL 192050Z AUTO 11007KT 9999 NCD 15/08 Q1023
                        NOSIG=
201805192020 METAR COR EGLL 192020Z AUTO 10007KT 9999 NCD 16/07 Q1023
                        NOSIG=
201805191950 METAR COR EGLL 191950Z AUTO 09008KT 9999 NCD 17/07 Q1022
                        NOSIG=
201805191920 METAR COR EGLL 191920Z AUTO 11011KT 9999 NCD 17/08 Q1022
                        NOSIG=
201805191850 METAR COR EGLL 191850Z AUTO 11010KT 9999 NCD 19/08 Q1022
                        NOSIG=
201805191820 METAR COR EGLL 191820Z AUTO 11009KT 9999 NCD 20/06 Q1022
                        NOSIG=
201805191750 METAR COR EGLL 191750Z AUTO 06005G15KT 030V110 9999 NCD 21/03
                        Q1022 NOSIG=
201805191720 METAR COR EGLL 191720Z AUTO VRB03KT 9999 NCD 21/03 Q1022
                        NOSIG=
201805191650 METAR COR EGLL 191650Z AUTO 08006KT 050V120 9999 NCD 21/03
                        Q1022 NOSIG=
201805191620 METAR COR EGLL 191620Z AUTO VRB03KT 9999 NCD 21/04 Q1022
                        NOSIG=
201805191550 METAR COR EGLL 191550Z AUTO VRB03KT 9999 NCD 21/04 Q1022
                        NOSIG=
201805191520 METAR COR EGLL 191520Z AUTO VRB03KT 9999 NCD 22/04 Q1022
                        NOSIG=
201805191450 METAR COR EGLL 191450Z AUTO VRB05KT 9999 NCD 21/04 Q1023
                        NOSIG=
201805191420 METAR COR EGLL 191420Z AUTO VRB04KT 9999 NCD 21/05 Q1023
                        NOSIG=
201805191350 METAR COR EGLL 191350Z AUTO 14004KT 070V200 9999 NCD 21/07
                        Q1023 NOSIG=
201805191320 METAR COR EGLL 191320Z AUTO 07006KT 010V130 9999 NCD 20/05
                        Q1023 NOSIG=
201805191250 METAR COR EGLL 191250Z AUTO 08005KT 020V130 9999 NCD 20/05
                        Q1024 NOSIG=
201805191220 METAR COR EGLL 191220Z AUTO VRB04KT 9999 NCD 20/06 Q1024
                        NOSIG=
201805191150 METAR COR EGLL 191150Z AUTO VRB03KT 9999 NCD 19/06 Q1024
                        NOSIG=
201805191120 METAR COR EGLL 191120Z AUTO 06004KT 360V100 9999 NCD 19/06
                        Q1024 NOSIG=
201805191050 METAR COR EGLL 191050Z AUTO 36005KT 270V050 9999 NCD 18/06
                        Q1024 NOSIG=
201805191020 METAR COR EGLL 191020Z AUTO 04005KT 350V070 9999 NCD 18/06
                        Q1024 NOSIG=
201805190950 METAR COR EGLL 190950Z AUTO VRB03KT 9999 NCD 17/07 Q1025
                        NOSIG=
201805190920 METAR COR EGLL 190920Z AUTO VRB04KT 9999 NCD 17/08 Q1025
                        NOSIG=
201805190850 METAR COR EGLL 190850Z AUTO VRB02KT 9999 NCD 16/07 Q1025
                        NOSIG=
201805190820 METAR COR EGLL 190820Z AUTO VRB02KT 9999 NCD 15/08 Q1025
                        NOSIG=
201805190750 METAR COR EGLL 190750Z AUTO VRB02KT 9999 NCD 14/09 Q1025
                        NOSIG=
201805190720 METAR COR EGLL 190720Z AUTO VRB02KT 9999 NCD 13/09 Q1025
                        NOSIG=
201805190650 METAR COR EGLL 190650Z AUTO VRB03KT 9000 NCD 12/08 Q1024
                        NOSIG=
201805190620 METAR COR EGLL 190620Z AUTO 11002KT 9999 NCD 11/08 Q1024
                        NOSIG=
201805190550 METAR COR EGLL 190550Z AUTO VRB01KT 9999 NCD 08/07 Q1024
                        NOSIG=
201805190520 METAR COR EGLL 190520Z AUTO 35001KT 9000 NCD 07/06 Q1024
                        NOSIG=
201805190450 METAR COR EGLL 190450Z AUTO 33001KT 9000 NCD 07/06 Q1024
                        NOSIG=
201805190420 METAR COR EGLL 190420Z AUTO 02001KT 9999 NCD 07/06 Q1024
                        NOSIG=
201805190350 METAR COR EGLL 190350Z AUTO 34001KT 9999 NCD 08/07 Q1024
                        NOSIG=
201805190320 METAR COR EGLL 190320Z AUTO 32002KT 9999 NCD 08/07 Q1024
                        NOSIG=
201805190250 METAR COR EGLL 190250Z AUTO 30002KT 9999 NCD 08/07 Q1024
                        NOSIG=
201805190220 METAR COR EGLL 190220Z AUTO 29003KT 8000 NCD 08/07 Q1024
                        NOSIG=
201805190150 METAR COR EGLL 190150Z AUTO 02001KT 9999 NCD 09/07 Q1024
                        NOSIG=
201805190120 METAR COR EGLL 190120Z AUTO 19002KT 9999 NCD 08/07 Q1024
                        NOSIG=
201805190050 METAR COR EGLL 190050Z AUTO 19003KT 9999 NCD 10/07 Q1024
                        NOSIG=
201805190020 METAR COR EGLL 190020Z AUTO 17003KT 9999 NCD 10/08 Q1024
                        NOSIG=
201805182350 METAR COR EGLL 182350Z AUTO 18003KT 9999 NCD 11/08 Q1024
                        NOSIG=
201805182320 METAR COR EGLL 182320Z AUTO 18004KT 9999 NCD 11/07 Q1024
                        NOSIG=
201805182250 METAR COR EGLL 182250Z AUTO 15004KT 9999 NCD 12/08 Q1024
                        NOSIG=
201805182220 METAR COR EGLL 182220Z AUTO 10005KT 9999 NCD 11/07 Q1024
                        NOSIG=
201805182150 METAR COR EGLL 182150Z AUTO 08004KT 9999 NCD 13/04 Q1024
                        NOSIG=
201805182120 METAR COR EGLL 182120Z AUTO 06004KT 9999 NCD 14/05 Q1024
                        NOSIG=
201805182050 METAR COR EGLL 182050Z AUTO 05004KT 9999 NCD 14/05 Q1024
                        NOSIG=
201805182020 METAR COR EGLL 182020Z AUTO 04004KT 9999 NCD 14/05 Q1024
                        NOSIG=
201805181950 METAR COR EGLL 181950Z AUTO 05005KT 9999 NCD 15/05 Q1024
                        NOSIG=
201805181920 METAR COR EGLL 181920Z AUTO 04005KT 9999 NCD 16/04 Q1024
                        NOSIG=
201805181850 METAR COR EGLL 181850Z AUTO 03004KT 330V070 9999 NCD 16/04
                        Q1024 NOSIG=
201805181820 METAR COR EGLL 181820Z AUTO 35005KT 310V030 9999 NCD 17/03
                        Q1024 NOSIG=
201805181750 METAR COR EGLL 181750Z AUTO 35004KT 280V040 9999 NCD 17/02
                        Q1024 NOSIG=
201805181720 METAR COR EGLL 181720Z AUTO 36004KT 310V080 9999 NCD 17/02
                        Q1024 NOSIG=
201805181650 METAR COR EGLL 181650Z AUTO 01004KT 310V050 9999 NCD 17/02
                        Q1024 NOSIG=
201805181620 METAR EGLL 181620Z AUTO 33004KT 270V060 9999 NCD 18/02 Q1024=
201805181550 METAR COR EGLL 181550Z AUTO 02005KT 320V070 9999 NCD 18/03
                        Q1024 NOSIG=
201805181520 METAR COR EGLL 181520Z AUTO 36005KT 300V050 9999 NCD 18/04
                        Q1024 NOSIG=
201805181450 METAR COR EGLL 181450Z AUTO 02005KT 290V070 9999 NCD 18/02
                        Q1024 NOSIG=
201805181420 METAR COR EGLL 181420Z AUTO VRB03KT 9999 NCD 18/03 Q1024
                        NOSIG=
201805181350 METAR COR EGLL 181350Z AUTO 33004KT 240V030 9999 NCD 17/03
                        Q1025 NOSIG=
201805181320 METAR COR EGLL 181320Z AUTO 34005KT 280V030 9999 NCD 16/04
                        Q1025 NOSIG=
201805181250 METAR COR EGLL 181250Z AUTO VRB06KT 9999 NCD 16/03 Q1025
                        NOSIG=
201805181220 METAR COR EGLL 181220Z AUTO VRB02KT 9999 NCD 16/03 Q1025
                        NOSIG=
201805181150 METAR COR EGLL 181150Z AUTO VRB04KT 9999 NCD 16/05 Q1025
                        NOSIG=
201805181120 METAR COR EGLL 181120Z AUTO VRB03KT 9999 NCD 15/05 Q1026
                        NOSIG=
201805181050 METAR COR EGLL 181050Z AUTO VRB03KT 9999 NCD 14/05 Q1026
                        NOSIG=
201805181020 METAR COR EGLL 181020Z AUTO 34004KT 290V050 9999 NCD 13/05
                        Q1026 NOSIG=
201805180950 METAR COR EGLL 180950Z AUTO VRB04KT 9999 NCD 12/05 Q1026
                        NOSIG=
201805180920 METAR COR EGLL 180920Z AUTO 03004KT 310V080 9999 NCD 12/05
                        Q1026 NOSIG=
201805180850 METAR COR EGLL 180850Z AUTO 01004KT 310V080 9999 NCD 12/05
                        Q1027 NOSIG=
201805180820 METAR COR EGLL 180820Z AUTO 02004KT 340V100 9999 NCD 11/05
                        Q1027 NOSIG=
201805180750 METAR COR EGLL 180750Z AUTO 06004KT 010V110 9999 SCT018 11/05
                        Q1027 NOSIG=
201805180720 METAR COR EGLL 180720Z AUTO VRB03KT 9999 NCD 09/05 Q1027
                        NOSIG=
201805180650 METAR COR EGLL 180650Z AUTO VRB03KT 9999 NCD 09/05 Q1027
                        NOSIG=
201805180620 METAR COR EGLL 180620Z AUTO VRB03KT 9999 NCD 08/05 Q1027
                        NOSIG=
201805180550 METAR COR EGLL 180550Z AUTO VRB03KT 9999 NCD 07/05 Q1027
                        NOSIG=
201805180520 METAR COR EGLL 180520Z AUTO 35003KT 9999 NCD 06/04 Q1026
                        NOSIG=
201805180450 METAR COR EGLL 180450Z AUTO 35004KT 9999 NCD 06/04 Q1026
                        NOSIG=
201805180420 METAR COR EGLL 180420Z AUTO 36003KT 9999 NCD 05/04 Q1026
                        NOSIG=
201805180350 METAR COR EGLL 180350Z AUTO 36003KT 9999 NCD 06/04 Q1026
                        NOSIG=
201805180320 METAR COR EGLL 180320Z AUTO VRB03KT 9999 NCD 06/04 Q1026
                        NOSIG=
201805180250 METAR COR EGLL 180250Z AUTO VRB03KT 9999 NCD 06/04 Q1026
                        NOSIG=
201805180220 METAR COR EGLL 180220Z AUTO 01003KT 9999 NCD 06/04 Q1026
                        NOSIG=
201805180150 METAR COR EGLL 180150Z AUTO 36003KT 9999 NCD 07/04 Q1026
                        NOSIG=
201805180120 METAR COR EGLL 180120Z AUTO VRB03KT 9999 NCD 07/04 Q1027
                        NOSIG=
201805180050 METAR COR EGLL 180050Z AUTO 04004KT 9999 NCD 08/04 Q1027
                        NOSIG=
201805180020 METAR COR EGLL 180020Z AUTO 04005KT 010V090 9999 NCD 08/04
                        Q1027 NOSIG=
201805172350 METAR COR EGLL 172350Z AUTO 04005KT 9999 NCD 08/04 Q1027
                        NOSIG=
201805172320 METAR COR EGLL 172320Z AUTO 05004KT 9999 NCD 09/04 Q1027
                        NOSIG=
201805172250 METAR COR EGLL 172250Z AUTO 04006KT 9999 NCD 09/04 Q1027
                        NOSIG=
201805172220 METAR COR EGLL 172220Z AUTO 04006KT 010V080 9999 NCD 10/04
                        Q1027 NOSIG=
201805172150 METAR COR EGLL 172150Z AUTO 04007KT 9999 FEW026 10/04 Q1027
                        NOSIG=
201805172120 METAR COR EGLL 172120Z AUTO 04006KT 010V070 9999 NCD 11/04
                        Q1027 NOSIG=
201805172050 METAR COR EGLL 172050Z AUTO 04006KT 9999 NCD 11/04 Q1027
                        NOSIG=
201805172020 METAR COR EGLL 172020Z AUTO 04009KT 360V060 9999 NCD 12/05
                        Q1027 NOSIG=
201805171950 METAR COR EGLL 171950Z AUTO 03006KT 340V060 9999 NCD 12/05
                        Q1026 NOSIG=
201805171920 METAR COR EGLL 171920Z AUTO 02008KT 350V050 9999 NCD 13/05
                        Q1026 NOSIG=
201805171850 METAR COR EGLL 171850Z AUTO 01008KT 350V050 9999 NCD 14/05
                        Q1026 NOSIG=
201805171820 METAR COR EGLL 171820Z AUTO 04008KT 360V070 9999 NCD 15/05
                        Q1026 NOSIG=
201805171750 METAR COR EGLL 171750Z AUTO 03008KT 330V060 9999 NCD 16/04
                        Q1026 NOSIG=
201805171720 METAR COR EGLL 171720Z AUTO 03007KT 340V080 9999 NCD 16/04
                        Q1026 NOSIG=
201805171650 METAR COR EGLL 171650Z AUTO 04007KT 360V080 9999 NCD 16/04
                        Q1026 NOSIG=
201805171620 METAR COR EGLL 171620Z AUTO 02007KT 330V060 9999 NCD 17/04
                        Q1026 NOSIG=
201805171550 METAR COR EGLL 171550Z AUTO 03007KT 330V070 9999 NCD 17/04
                        Q1026 NOSIG=
201805171520 METAR COR EGLL 171520Z AUTO 06007KT 010V090 9999 NCD 17/04
                        Q1026 NOSIG=
201805171450 METAR COR EGLL 171450Z AUTO 03007KT 350V090 9999 NCD 17/03
                        Q1026 NOSIG=
201805171420 METAR COR EGLL 171420Z AUTO 01007KT 310V060 9999 NCD 17/04
                        Q1026 NOSIG=
201805171350 METAR COR EGLL 171350Z AUTO 01006KT 310V060 9999 NCD 17/04
                        Q1026 NOSIG=
201805171320 METAR COR EGLL 171320Z AUTO 04006KT 310V090 9999 NCD 17/04
                        Q1027 NOSIG=
201805171250 METAR COR EGLL 171250Z AUTO 04008KT 010V090 9999 NCD 16/04
                        Q1027 NOSIG=
201805171220 METAR COR EGLL 171220Z AUTO 03007KT 330V120 9999 NCD 15/05
                        Q1027 NOSIG=
201805171150 METAR COR EGLL 171150Z AUTO 03006KT 330V080 9999 NCD 15/04
                        Q1027 NOSIG=
201805171120 METAR COR EGLL 171120Z AUTO 04007KT 350V080 9999 NCD 15/04
                        Q1028 NOSIG=
201805171050 METAR COR EGLL 171050Z AUTO 05008KT 010V090 9999 NCD 14/04
                        Q1028 NOSIG=
201805171020 METAR COR EGLL 171020Z AUTO 05009KT 360V080 9999 NCD 14/04
                        Q1028 NOSIG=
201805170950 METAR COR EGLL 170950Z AUTO 03007KT 340V090 9999 NCD 13/04
                        Q1028 NOSIG=
201805170920 METAR COR EGLL 170920Z AUTO 05008KT 010V080 9999 NCD 13/05
                        Q1028 NOSIG=
201805170850 METAR COR EGLL 170850Z AUTO 03007KT 330V060 9999 NCD 12/04
                        Q1028 NOSIG=
201805170820 METAR COR EGLL 170820Z AUTO 05008KT 9999 NCD 11/04 Q1028
                        NOSIG=
201805170750 METAR COR EGLL 170750Z AUTO 05009KT 010V080 9999 NCD 10/05
                        Q1028 NOSIG=
201805170720 METAR COR EGLL 170720Z AUTO 04007KT 350V080 9999 FEW019 09/05
                        Q1028 NOSIG=
201805170650 METAR COR EGLL 170650Z AUTO 04007KT 350V080 9999 FEW016 09/05
                        Q1028 NOSIG=
201805170620 METAR COR EGLL 170620Z AUTO 03008KT 350V090 9999 FEW016 08/05
                        Q1028 NOSIG=
201805170550 METAR COR EGLL 170550Z AUTO 02005KT 350V070 9999 NCD 08/04
                        Q1028 NOSIG=
201805170520 METAR COR EGLL 170520Z AUTO VRB03KT 9999 NCD 07/04 Q1028
                        NOSIG=
201805170450 METAR COR EGLL 170450Z AUTO 03004KT 340V070 9999 NCD 07/04
                        Q1027 NOSIG=
201805170420 METAR COR EGLL 170420Z AUTO 03006KT 340V070 9999 NCD 07/05
                        Q1027 NOSIG=
201805170350 METAR COR EGLL 170350Z AUTO 02005KT 340V070 9999 NCD 07/05
                        Q1027 NOSIG=
201805170320 METAR COR EGLL 170320Z AUTO 03006KT 320V060 9999 NCD 08/05
                        Q1027 NOSIG=
201805170250 METAR COR EGLL 170250Z AUTO 04005KT 350V080 9999 NCD 08/05
                        Q1027 NOSIG=
201805170220 METAR COR EGLL 170220Z AUTO 04006KT 010V080 9999 NCD 08/04
                        Q1028 NOSIG=
201805170150 METAR COR EGLL 170150Z AUTO 03006KT 9999 NCD 08/05 Q1028
                        NOSIG=
201805170120 METAR COR EGLL 170120Z AUTO 03005KT 360V070 9999 NCD 08/04
                        Q1028 NOSIG=
201805170050 METAR COR EGLL 170050Z AUTO 04006KT 9999 NCD 08/05 Q1028
                        NOSIG=
201805170020 METAR COR EGLL 170020Z AUTO 04007KT 350V090 9999 NCD 08/04
                        Q1028 NOSIG=
201805162350 METAR COR EGLL 162350Z AUTO 04007KT 010V080 9999 NCD 08/04
                        Q1028 NOSIG=
201805162320 METAR COR EGLL 162320Z AUTO 04008KT 360V070 9999 NCD 09/04
                        Q1029 NOSIG=
201805162250 METAR COR EGLL 162250Z AUTO 04008KT 020V080 9999 NCD 09/05
                        Q1029 NOSIG=
201805162220 METAR COR EGLL 162220Z AUTO 04007KT 9999 FEW022 09/05 Q1028
                        NOSIG=
201805162150 METAR COR EGLL 162150Z AUTO 04008KT 350V080 9999 SCT020 09/05
                        Q1028 NOSIG=
201805162120 METAR COR EGLL 162120Z AUTO 04009KT 360V070 9999 SCT022 10/05
                        Q1028 NOSIG=
201805162050 METAR COR EGLL 162050Z AUTO 04010KT 010V100 9999 NCD 10/05
                        Q1028 NOSIG=
201805162020 METAR COR EGLL 162020Z AUTO 03008KT 320V060 9999 NCD 10/05
                        Q1027 NOSIG=
201805161950 METAR COR EGLL 161950Z AUTO 03008KT 330V060 9999 NCD 10/05
                        Q1027 NOSIG=
201805161920 METAR COR EGLL 161920Z 02009KT 340V050 9999 FEW025 11/05
                        Q1027 NOSIG=
201805161850 METAR COR EGLL 161850Z AUTO 02008KT 340V050 9999 NCD 11/05
                        Q1027 NOSIG=
201805161820 METAR COR EGLL 161820Z AUTO 02008KT 340V060 9999 NCD 12/06
                        Q1027 NOSIG=
201805161750 METAR COR EGLL 161750Z AUTO 03009KT 350V060 9999 NCD 12/06
                        Q1027 NOSIG=
201805161720 METAR COR EGLL 161720Z AUTO 01010KT 340V050 9999 NCD 13/06
                        Q1026 NOSIG=
201805161650 METAR COR EGLL 161650Z AUTO 02009KT 340V060 9999 FEW029 13/06
                        Q1026 NOSIG=
201805161620 METAR COR EGLL 161620Z AUTO 02009KT 340V050 9999 BKN027 14/07
                        Q1026 NOSIG=
201805161550 METAR COR EGLL 161550Z AUTO 03010KT 340V060 9999 BKN024 BKN030
                        14/07 Q1026 NOSIG=
201805161520 METAR COR EGLL 161520Z AUTO 03011KT 350V060 9999 OVC022 13/08
                        Q1026 NOSIG=
201805161450 METAR COR EGLL 161450Z AUTO 03011KT 350V070 9999 BKN020 OVC026
                        13/08 Q1027 NOSIG=
201805161420 METAR COR EGLL 161420Z AUTO 01010KT 340V050 9999 BKN019 OVC031
                        13/08 Q1027 NOSIG=
201805161350 METAR COR EGLL 161350Z AUTO 03011KT 350V060 9999 BKN020 OVC031
                        14/08 Q1026 NOSIG=
201805161320 METAR COR EGLL 161320Z AUTO 03011KT 340V080 9999 BKN020 14/08
                        Q1026 NOSIG=
201805161250 METAR COR EGLL 161250Z AUTO 03011KT 340V050 9999 BKN021 14/09
                        Q1026 NOSIG=
201805161220 METAR COR EGLL 161220Z AUTO 03009KT 350V080 9999 OVC021 14/08
                        Q1026 NOSIG=
201805161150 METAR COR EGLL 161150Z AUTO 02010KT 320V060 9999 OVC022 14/08
                        Q1026 NOSIG=
201805161120 METAR COR EGLL 161120Z AUTO 03011G22KT 340V070 9999 BKN023
                        15/08 Q1025 NOSIG=
201805161050 METAR COR EGLL 161050Z AUTO 02011KT 340V060 9999 BKN022 15/09
                        Q1025 NOSIG=
201805161020 METAR COR EGLL 161020Z AUTO 03011KT 350V060 9999 BKN018 14/09
                        Q1025 NOSIG=
201805160950 METAR COR EGLL 160950Z AUTO 01010KT 350V060 9999 BKN016 14/10
                        Q1025 NOSIG=
201805160920 METAR COR EGLL 160920Z AUTO 01009KT 340V060 9999 BKN017 15/10
                        Q1024 TEMPO BKN014=
201805160850 METAR COR EGLL 160850Z AUTO 04010KT 350V070 9999 BKN016 15/10
                        Q1024 TEMPO BKN014=
201805160820 METAR COR EGLL 160820Z AUTO 04009KT 350V070 9999 BKN016 15/10
                        Q1024 TEMPO BKN014=
201805160750 METAR COR EGLL 160750Z AUTO 03009KT 350V070 9999 SCT019 15/10
                        Q1024 TEMPO BKN014=
201805160720 METAR COR EGLL 160720Z AUTO 03009KT 340V070 9999 NCD 15/09
                        Q1024 TEMPO BKN012=
201805160650 METAR COR EGLL 160650Z AUTO 03009KT 360V060 9999 NCD 14/08
                        Q1023 TEMPO BKN011=
201805160620 METAR COR EGLL 160620Z AUTO 03008KT 340V070 9999 NCD 14/07
                        Q1023 NOSIG=
201805160550 METAR COR EGLL 160550Z AUTO 03007KT 330V060 9999 NCD 13/03
                        Q1023 NOSIG=
201805160520 METAR COR EGLL 160520Z AUTO 03006KT 350V090 9999 NCD 13/03
                        Q1023 NOSIG=
201805160450 METAR COR EGLL 160450Z AUTO 03004KT 350V100 9999 NCD 12/03
                        Q1022 NOSIG=
201805160420 METAR EGLL 160420Z AUTO 01004KT 330V080 9999 NCD 12/03 Q1022=
201805160350 METAR EGLL 160350Z AUTO VRB03KT 9999 NCD 12/03 Q1022=
201805160320 METAR EGLL 160320Z AUTO VRB02KT 9999 NCD 12/03 Q1022=
201805160250 METAR EGLL 160250Z AUTO VRB02KT 9999 NCD 12/03 Q1021=
201805160220 METAR EGLL 160220Z AUTO VRB03KT 9999 NCD 12/04 Q1021=
201805160150 METAR EGLL 160150Z AUTO VRB03KT 9999 NCD 12/04 Q1021=
201805160120 METAR EGLL 160120Z AUTO 35004KT 310V030 9999 NCD 13/04 Q1021=
201805160050 METAR COR EGLL 160050Z AUTO 36004KT 310V030 9999 NCD 13/03
                        Q1021 NOSIG=
201805160020 METAR COR EGLL 160020Z AUTO 33004KT 300V020 9999 NCD 13/03
                        Q1021 NOSIG=
201805152350 METAR COR EGLL 152350Z AUTO VRB03KT 9999 NCD 13/03 Q1021
                        NOSIG=
201805152320 METAR COR EGLL 152320Z AUTO 36004KT 330V030 9999 NCD 14/04
                        Q1021 NOSIG=
201805152250 METAR COR EGLL 152250Z AUTO 35004KT 320V020 9999 NCD 15/03
                        Q1021 NOSIG=
201805152220 METAR COR EGLL 152220Z AUTO 35004KT 300V020 9999 NCD 15/02
                        Q1021 NOSIG=
201805152150 METAR COR EGLL 152150Z AUTO 03004KT 340V090 9999 NCD 16/M00
                        Q1021 NOSIG=
201805152120 METAR COR EGLL 152120Z AUTO 04004KT 330V080 9999 NCD 16/M02
                        Q1021 NOSIG=
201805152050 METAR COR EGLL 152050Z AUTO 03005KT 340V060 9999 NCD 17/M02
                        Q1020 NOSIG=
201805152020 METAR COR EGLL 152020Z AUTO 03005KT 350V060 9999 NCD 18/M00
                        Q1020 NOSIG=
201805151950 METAR COR EGLL 151950Z AUTO 03006KT 350V060 9999 NCD 18/03
                        Q1020 NOSIG=
201805151920 METAR COR EGLL 151920Z AUTO 03008KT 330V070 9999 NCD 19/07
                        Q1020 NOSIG=
201805151850 METAR COR EGLL 151850Z AUTO 03008KT 340V070 9999 NCD 20/09
                        Q1019 NOSIG=
201805151820 METAR COR EGLL 151820Z AUTO 05010KT 010V070 9999 NCD 21/10
                        Q1019 NOSIG=
201805151750 METAR COR EGLL 151750Z AUTO 04007KT 360V090 9999 NCD 22/10
                        Q1019 NOSIG=
201805151720 METAR COR EGLL 151720Z AUTO 04008KT 340V100 9999 NCD 22/10
                        Q1019 NOSIG=
201805151650 METAR COR EGLL 151650Z AUTO 02007KT 330V060 9999 NCD 22/09
                        Q1019 NOSIG=
201805151620 METAR COR EGLL 151620Z AUTO 01009KT 340V050 9999 NCD 23/10
                        Q1019 NOSIG=
201805151550 METAR COR EGLL 151550Z AUTO 01008KT 300V050 9999 NCD 23/09
                        Q1019 NOSIG=
201805151520 METAR COR EGLL 151520Z AUTO 36008KT 320V040 9999 NCD 23/09
                        Q1019 NOSIG=
201805151450 METAR COR EGLL 151450Z AUTO 36009KT 320V030 9999 NCD 23/09
                        Q1019 NOSIG=
201805151420 METAR COR EGLL 151420Z AUTO 02008KT 330V080 9999 NCD 23/09
                        Q1019 NOSIG=
201805151350 METAR COR EGLL 151350Z AUTO 36007KT 310V060 9999 NCD 23/09
                        Q1019 NOSIG=
201805151320 METAR COR EGLL 151320Z AUTO 36008KT 320V040 9999 NCD 23/09
                        Q1019 NOSIG=
201805151250 METAR COR EGLL 151250Z AUTO 35007KT 290V050 9999 NCD 22/08
                        Q1020 NOSIG=
201805151220 METAR COR EGLL 151220Z AUTO 34008KT 300V020 9999 NCD 22/08
                        Q1020 NOSIG=
201805151150 METAR COR EGLL 151150Z AUTO 01007KT 310V040 9999 NCD 21/07
                        Q1020 NOSIG=
201805151120 METAR COR EGLL 151120Z AUTO 33008KT 300V030 9999 NCD 21/07
                        Q1020 NOSIG=
201805151050 METAR COR EGLL 151050Z AUTO 01008KT 320V060 9999 NCD 20/07
                        Q1020 NOSIG=
201805151020 METAR COR EGLL 151020Z AUTO 34008KT 310V030 9999 NCD 19/06
                        Q1020 NOSIG=
201805150950 METAR COR EGLL 150950Z AUTO 34007KT 300V030 9999 NCD 18/06
                        Q1021 NOSIG=
201805150920 METAR COR EGLL 150920Z AUTO 35007KT 310V030 9999 NCD 18/05
                        Q1021 NOSIG=
201805150850 METAR COR EGLL 150850Z AUTO 36007KT 330V030 9999 NCD 17/05
                        Q1021 NOSIG=
201805150820 METAR COR EGLL 150820Z AUTO 36006KT 310V050 9999 NCD 17/05
                        Q1021 NOSIG=
201805150750 METAR COR EGLL 150750Z AUTO 35006KT 310V020 9999 NCD 16/05
                        Q1021 NOSIG=
201805150720 METAR COR EGLL 150720Z AUTO 36005KT 320V040 9999 NCD 15/05
                        Q1021 NOSIG=
201805150650 METAR COR EGLL 150650Z AUTO 36006KT 310V040 9999 NCD 14/05
                        Q1021 NOSIG=
201805150620 METAR COR EGLL 150620Z AUTO 36005KT 320V050 9999 NCD 12/05
                        Q1021 NOSIG=
201805150550 METAR COR EGLL 150550Z AUTO 31004KT 290V350 9999 NCD 11/05
                        Q1021 NOSIG=
201805150520 METAR COR EGLL 150520Z AUTO 30004KT 9999 NCD 10/04 Q1021
                        NOSIG=
201805150450 METAR COR EGLL 150450Z AUTO 30005KT 9999 NCD 10/04 Q1020
                        NOSIG=
201805150420 METAR COR EGLL 150420Z AUTO 31004KT 9999 NCD 10/04 Q1020
                        NOSIG=
201805150350 METAR COR EGLL 150350Z AUTO 30004KT 9999 NCD 10/04 Q1020
                        NOSIG=
201805150320 METAR COR EGLL 150320Z AUTO 30004KT 9999 NCD 10/04 Q1020
                        NOSIG=
201805150250 METAR COR EGLL 150250Z AUTO 30003KT 9999 NCD 10/04 Q1021
                        NOSIG=
201805150220 METAR COR EGLL 150220Z AUTO 30003KT 9999 NCD 11/04 Q1021
                        NOSIG=
201805150150 METAR COR EGLL 150150Z AUTO 29004KT 9999 NCD 11/04 Q1021
                        NOSIG=
201805150120 METAR COR EGLL 150120Z AUTO 30003KT 9999 NCD 12/04 Q1021
                        NOSIG=
201805150050 METAR COR EGLL 150050Z AUTO 31003KT 9999 NCD 12/04 Q1021
                        NOSIG=
201805150020 METAR COR EGLL 150020Z AUTO VRB03KT 9999 NCD 12/04 Q1021
                        NOSIG=
201805142350 METAR COR EGLL 142350Z AUTO VRB03KT 9999 NCD 12/04 Q1021
                        NOSIG=
201805142320 METAR COR EGLL 142320Z AUTO VRB03KT 9999 NCD 12/03 Q1021
                        NOSIG=
201805142250 METAR COR EGLL 142250Z AUTO VRB03KT 9999 NCD 13/04 Q1021
                        NOSIG=
201805142220 METAR COR EGLL 142220Z AUTO 36003KT 9999 NCD 13/04 Q1021
                        NOSIG=
201805142150 METAR COR EGLL 142150Z AUTO 36005KT 9999 NCD 14/03 Q1021
                        NOSIG=
201805142120 METAR COR EGLL 142120Z AUTO VRB03KT 9999 NCD 15/05 Q1021
                        NOSIG=
201805142050 METAR COR EGLL 142050Z AUTO 04005KT 010V070 9999 NCD 15/05
                        Q1021 NOSIG=
201805142020 METAR COR EGLL 142020Z AUTO 05005KT 010V090 9999 NCD 16/06
                        Q1021 NOSIG=
201805141950 METAR COR EGLL 141950Z AUTO 02005KT 340V050 9999 NCD 17/07
                        Q1020 NOSIG=
201805141920 METAR COR EGLL 141920Z AUTO 03006KT 350V060 9999 NCD 17/08
                        Q1020 NOSIG=
201805141850 METAR COR EGLL 141850Z AUTO 02005KT 330V070 9999 NCD 18/08
                        Q1020 NOSIG=
201805141820 METAR COR EGLL 141820Z AUTO 02005KT 340V060 9999 NCD 18/08
                        Q1020 NOSIG=
201805141750 METAR COR EGLL 141750Z AUTO 03006KT 330V060 9999 NCD 19/07
                        Q1020 NOSIG=
201805141720 METAR COR EGLL 141720Z AUTO 02006KT 340V070 9999 NCD 19/07
                        Q1020 NOSIG=
201805141650 METAR COR EGLL 141650Z AUTO 02008KT 330V060 9999 NCD 20/07
                        Q1020 NOSIG=
201805141620 METAR COR EGLL 141620Z AUTO 36007KT 320V040 9999 NCD 20/07
                        Q1020 NOSIG=
201805141550 METAR COR EGLL 141550Z AUTO 02009KT 330V050 9999 NCD 20/06
                        Q1020 NOSIG=
201805141520 METAR COR EGLL 141520Z AUTO 03009KT 340V070 9999 NCD 20/05
                        Q1020 NOSIG=
201805141450 METAR COR EGLL 141450Z AUTO 01010KT 320V050 9999 NCD 20/04
                        Q1020 NOSIG=
201805141420 METAR COR EGLL 141420Z AUTO 36009KT 310V050 9999 NCD 20/02
                        Q1020 NOSIG=
201805141350 METAR COR EGLL 141350Z AUTO 01009KT 310V060 9999 NCD 20/01
                        Q1020 NOSIG=
201805141320 METAR COR EGLL 141320Z AUTO 02010KT 320V070 9999 NCD 20/01
                        Q1020 NOSIG=
201805141250 METAR COR EGLL 141250Z AUTO 35010KT 310V020 9999 NCD 20/02
                        Q1020 NOSIG=
201805141220 METAR COR EGLL 141220Z AUTO 36011KT 320V030 9999 NCD 19/02
                        Q1020 NOSIG=
201805141150 METAR COR EGLL 141150Z AUTO 35009KT 300V020 9999 NCD 19/02
                        Q1020 NOSIG=
201805141120 METAR COR EGLL 141120Z AUTO 36010KT 320V030 9999 NCD 18/01
                        Q1020 NOSIG=
201805141050 METAR COR EGLL 141050Z AUTO 36010KT 320V060 9999 NCD 18/02
                        Q1020 NOSIG=
201805141020 METAR COR EGLL 141020Z AUTO 36010KT 320V040 9999 NCD 17/02
                        Q1020 NOSIG=
201805140950 METAR COR EGLL 140950Z AUTO 36009KT 310V030 9999 NCD 17/01
                        Q1021 NOSIG=
201805140920 METAR COR EGLL 140920Z AUTO 35009KT 300V030 9999 NCD 16/02
                        Q1021 NOSIG=
201805140850 METAR COR EGLL 140850Z AUTO 36009KT 320V030 9999 NCD 16/02
                        Q1021 NOSIG=
201805140820 METAR COR EGLL 140820Z AUTO 01009KT 340V050 9999 NCD 15/02
                        Q1020 NOSIG=
201805140750 METAR COR EGLL 140750Z AUTO 36008KT 320V030 9999 NCD 14/05
                        Q1020 NOSIG=
201805140720 METAR COR EGLL 140720Z AUTO 36007KT 310V030 9999 NCD 13/04
                        Q1020 NOSIG=
201805140650 METAR COR EGLL 140650Z AUTO 36007KT 320V030 9999 NCD 12/04
                        Q1020 NOSIG=
201805140620 METAR COR EGLL 140620Z AUTO 35005KT 320V020 9999 NCD 11/03
                        Q1020 NOSIG=
201805140550 METAR COR EGLL 140550Z AUTO 33004KT 280V010 9999 NCD 10/04
                        Q1020 NOSIG=
201805140520 METAR COR EGLL 140520Z AUTO VRB03KT 9999 NCD 09/04 Q1020
                        NOSIG=
201805140450 METAR COR EGLL 140450Z AUTO VRB02KT 9999 NCD 08/05 Q1019
                        NOSIG=
201805140420 METAR COR EGLL 140420Z AUTO 31004KT 280V350 9999 NCD 08/05
                        Q1019 NOSIG=
201805140350 METAR COR EGLL 140350Z AUTO VRB02KT 9999 NCD 09/05 Q1019
                        NOSIG=
201805140320 METAR COR EGLL 140320Z AUTO 34004KT 290V030 9999 NCD 10/05
                        Q1019 NOSIG=
201805140250 METAR COR EGLL 140250Z AUTO 34004KT 290V030 9999 NCD 10/05
                        Q1019 NOSIG=
201805140220 METAR COR EGLL 140220Z AUTO 32004KT 9999 NCD 09/06 Q1019
                        NOSIG=
201805140150 METAR COR EGLL 140150Z AUTO 30005KT 9999 NCD 09/06 Q1019
                        NOSIG=
201805140120 METAR COR EGLL 140120Z AUTO 30004KT 9999 NCD 09/06 Q1019
                        NOSIG=
201805140050 METAR COR EGLL 140050Z AUTO 29005KT 9999 NCD 09/06 Q1019
                        NOSIG=
201805140020 METAR COR EGLL 140020Z AUTO 29005KT 9999 NCD 09/06 Q1019
                        NOSIG=
201805132350 METAR COR EGLL 132350Z AUTO 30003KT 9999 NCD 10/07 Q1018
                        NOSIG=
201805132320 METAR COR EGLL 132320Z AUTO 29005KT 9999 NCD 09/07 Q1018
                        NOSIG=
201805132250 METAR COR EGLL 132250Z AUTO VRB03KT 9999 NCD 11/07 Q1018
                        NOSIG=
201805132220 METAR COR EGLL 132220Z AUTO 32003KT 9999 NCD 11/07 Q1018
                        NOSIG=
201805132150 METAR COR EGLL 132150Z AUTO 32002KT 9999 NCD 12/07 Q1018
                        NOSIG=
201805132120 METAR COR EGLL 132120Z AUTO 32002KT 9999 NCD 13/07 Q1018
                        NOSIG=
201805132050 METAR COR EGLL 132050Z AUTO VRB01KT 9999 NCD 14/07 Q1017
                        NOSIG=
201805132020 METAR COR EGLL 132020Z AUTO 35003KT 9999 NCD 15/07 Q1017
                        NOSIG=
201805131950 METAR COR EGLL 131950Z AUTO VRB02KT 9999 NCD 15/06 Q1017
                        NOSIG=
201805131920 METAR COR EGLL 131920Z AUTO 36004KT 330V050 9999 NCD 16/06
                        Q1016 NOSIG=
201805131850 METAR COR EGLL 131850Z AUTO 35004KT 330V030 9999 NCD 16/06
                        Q1016 NOSIG=
201805131820 METAR COR EGLL 131820Z AUTO VRB03KT 9999 NCD 17/06 Q1016
                        NOSIG=
201805131750 METAR COR EGLL 131750Z AUTO 36005KT 320V040 9999 NCD 17/06
                        Q1016 NOSIG=
201805131720 METAR COR EGLL 131720Z AUTO 35004KT 300V040 9999 NCD 17/06
                        Q1016 NOSIG=
201805131650 METAR COR EGLL 131650Z AUTO 01005KT 320V050 9999 SCT048 18/06
                        Q1016 NOSIG=
201805131620 METAR COR EGLL 131620Z AUTO 33004KT 290V030 9999 NCD 18/06
                        Q1016 NOSIG=
201805131550 METAR COR EGLL 131550Z AUTO 36005KT 300V070 9999 NCD 18/06
                        Q1016 NOSIG=
201805131520 METAR COR EGLL 131520Z AUTO 31005KT 260V040 9999 NCD 17/05
                        Q1016 NOSIG=
201805131450 METAR COR EGLL 131450Z AUTO 32004KT 260V050 9999 NCD 17/06
                        Q1016 NOSIG=
201805131420 METAR COR EGLL 131420Z AUTO 31005KT 270V010 9999 NCD 17/06
                        Q1016 NOSIG=
201805131350 METAR COR EGLL 131350Z AUTO VRB04KT 9999 BKN048 17/06 Q1016
                        NOSIG=
201805131320 METAR COR EGLL 131320Z AUTO 32004KT 250V050 9999 FEW048 17/06
                        Q1016 NOSIG=
201805131250 METAR COR EGLL 131250Z AUTO 29004KT 220V020 9999 FEW049 15/05
                        Q1016 NOSIG=
201805131220 METAR COR EGLL 131220Z AUTO 29007KT 230V360 9999 NCD 16/06
                        Q1015 NOSIG=
201805131150 METAR COR EGLL 131150Z AUTO 28005KT 220V300 9999 NCD 15/06
                        Q1015 NOSIG=
201805131120 METAR COR EGLL 131120Z AUTO VRB03KT 9999 NCD 15/06 Q1015
                        NOSIG=
201805131050 METAR COR EGLL 131050Z AUTO 28004KT 220V340 9999 NCD 14/06
                        Q1015 NOSIG=
201805131020 METAR COR EGLL 131020Z AUTO 30004KT 230V340 9999 NCD 14/07
                        Q1015 NOSIG=
201805130950 METAR COR EGLL 130950Z AUTO 30004KT 220V350 9999 NCD 13/07
                        Q1015 NOSIG=
201805130920 METAR COR EGLL 130920Z AUTO 28005KT 240V320 9999 NCD 12/07
                        Q1015 NOSIG=
201805130850 METAR COR EGLL 130850Z AUTO 28005KT 220V310 9999 NCD 12/08
                        Q1014 NOSIG=
201805130820 METAR COR EGLL 130820Z AUTO 28005KT 9999 NCD 11/08 Q1014
                        NOSIG=
201805130750 METAR COR EGLL 130750Z AUTO 27005KT 9999 NCD 11/07 Q1014
                        NOSIG=
201805130720 METAR COR EGLL 130720Z AUTO VRB03KT 9999 NCD 10/08 Q1014
                        NOSIG=
201805130650 METAR COR EGLL 130650Z AUTO 28003KT 9999 NCD 10/08 Q1014
                        NOSIG=
201805130620 METAR COR EGLL 130620Z AUTO 27004KT 8000 NCD 09/09 Q1013
                        NOSIG=
201805130550 METAR COR EGLL 130550Z AUTO VRB03KT 6000 NCD 09/08 Q1013
                        NOSIG=
201805130520 METAR COR EGLL 130520Z AUTO 27004KT 6000 NCD 08/08 Q1013
                        NOSIG=
201805130450 METAR COR EGLL 130450Z AUTO 26004KT 6000 NCD 08/08 Q1013
                        NOSIG=
201805130420 METAR COR EGLL 130420Z AUTO 27005KT 6000 FEW044 08/07 Q1013
                        NOSIG=
201805130350 METAR COR EGLL 130350Z AUTO 28005KT 6000 BKN044 08/07 Q1013
                        TEMPO 4000 BR=
201805130320 METAR COR EGLL 130320Z AUTO 26005KT 6000 BKN044 08/07 Q1013
                        TEMPO 4000 BR=
201805130250 METAR COR EGLL 130250Z AUTO 23005KT 3100 BR SCT044 08/07
                        Q1012 TEMPO 5000=
201805130220 METAR COR EGLL 130220Z AUTO 26005KT 4400 BR SCT044 09/09
                        Q1012 TEMPO 5000=
201805130150 METAR COR EGLL 130150Z AUTO 27003KT 5000 BR NCD 09/09 Q1012
                        TEMPO 4000=
201805130120 METAR COR EGLL 130120Z AUTO 32002KT 6000 NCD 10/09 Q1012
                        NOSIG=
201805130050 METAR COR EGLL 130050Z AUTO 28004KT 6000 SCT043 10/09 Q1012
                        NOSIG=
201805130020 METAR EGLL 130020Z AUTO 27007KT 6000 BKN039 BKN046 10/09
                        Q1012=
201805122350 METAR COR EGLL 122350Z AUTO 27007KT 5000 BR BKN038 10/09
                        Q1013 TEMPO 4000 BKN010=
201805122320 METAR COR EGLL 122320Z AUTO 28006KT 7000 SCT038 10/09 Q1012
                        NOSIG=
201805122250 METAR COR EGLL 122250Z AUTO 25007KT 7000 SCT028 BKN032 10/09
                        Q1013 NOSIG=
201805122220 METAR COR EGLL 122220Z AUTO 26006KT 9999 BKN027 BKN035 10/09
                        Q1012 NOSIG=
201805122150 METAR COR EGLL 122150Z AUTO VRB03KT 9999 NCD 10/09 Q1012
                        NOSIG=
201805122120 METAR COR EGLL 122120Z AUTO VRB03KT 9999 NCD 10/10 Q1012
                        NOSIG=
201805122050 METAR COR EGLL 122050Z AUTO 36003KT 9999 -RA NCD 10/10 Q1012
                        NOSIG=
201805122020 METAR COR EGLL 122020Z AUTO VRB03KT 9999 -RA SCT011 10/10
                        Q1013 NOSIG=
201805121950 METAR COR EGLL 121950Z AUTO VRB02KT 9000 -RA BKN012 BKN040
                        10/10 Q1013 TEMPO FEW012=
201805121920 METAR COR EGLL 121920Z AUTO 29003KT 9999 -RA NCD 11/10 Q1012
                        NOSIG=
201805121850 METAR COR EGLL 121850Z AUTO 29005KT 9999 -RA FEW010 11/10
                        Q1012 TEMPO BKN010=
201805121820 METAR COR EGLL 121820Z AUTO 28007KT 9000 -RA FEW012/// SCT026///
                        BKN039/// //////TCU 11/10 Q1012 TEMPO
                        RA BKN010=
201805121750 METAR COR EGLL 121750Z AUTO 24005KT 210V270 9000 -RA SCT015///
                        SCT027/// BKN036/// //////TCU 11/10
                        Q1012 TEMPO RA BKN012=
201805121720 METAR COR EGLL 121720Z AUTO 22004KT 190V260 9999 -RA BKN038///
                        //////TCU 11/10 Q1012 TEMPO RA=
201805121650 METAR COR EGLL 121650Z AUTO 22008KT 9999 -RA BKN042/// OVC049///
                        //////TCU 11/10 Q1012 TEMPOO RA=
201805121620 METAR COR EGLL 121620Z AUTO 22006KT 9000 -RA FEW018/// BKN040///
                        //////TCU 12/10 Q1012 TEMPO RA=
201805121550 METAR COR EGLL 121550Z AUTO VRB02KT 9999 -RA BKN040 BKN048
                        12/11 Q1012 TEMPO RA=
201805121520 METAR COR EGLL 121520Z AUTO VRB02KT 9000 -RA FEW021 SCT033
                        BKN046 12/11 Q1012 TEMPO RA=
201805121450 METAR COR EGLL 121450Z AUTO 15004KT 100V200 8000 -RA SCT035
                        BKN044 12/10 Q1013 TEMPO RA=
201805121420 METAR COR EGLL 121420Z AUTO 15004KT 120V220 8000 -RA SCT036
                        12/10 Q1013 TEMPO RA=
201805121350 METAR COR EGLL 121350Z AUTO 20004KT 140V270 9999 -RA SCT036///
                        OVC048/// //////TCU 13/10 Q1012 TEMPO
                        RA=
201805121320 METAR COR EGLL 121320Z AUTO VRB02KT 9999 -RA SCT039 BKN046
                        13/09 Q1012 TEMPO RA=
201805121250 METAR COR EGLL 121250Z AUTO VRB03KT 9999 -RA BKN042 13/09
                        Q1013 TEMPO RA=
201805121220 METAR COR EGLL 121220Z AUTO 20004KT 140V270 6000 -RA OVC041
                        14/09 Q1013 TEMPO RA=
201805121150 METAR COR EGLL 121150Z AUTO 22005KT 170V270 9999 FEW026 BKN048
                        14/09 Q1013 TEMPO RA=
201805121120 METAR COR EGLL 121120Z AUTO 17005KT 120V220 9999 NCD 15/09
                        Q1013 NOSIG=
201805121050 METAR COR EGLL 121050Z AUTO VRB05KT 9999 NCD 14/09 Q1013
                        NOSIG=
201805121020 METAR COR EGLL 121020Z AUTO 22005KT 140V270 9999 FEW022 14/09
                        Q1013 NOSIG=
201805120950 METAR COR EGLL 120950Z AUTO VRB03KT 9999 FEW018 13/09 Q1013
                        NOSIG=
201805120920 METAR COR EGLL 120920Z AUTO 20006KT 130V250 9999 SCT017 13/09
                        Q1013 NOSIG=
201805120850 METAR COR EGLL 120850Z AUTO 20006KT 140V270 9999 SCT014 BKN019
                        13/09 Q1013 NOSIG=
201805120820 METAR COR EGLL 120820Z AUTO 20006KT 140V300 9999 BKN013 BKN017
                        13/10 Q1013 BECMG SCT013=
201805120750 METAR COR EGLL 120750Z AUTO 24005KT 200V290 9999 BKN011 13/10
                        Q1013 BECMG SCT011=
201805120720 METAR COR EGLL 120720Z AUTO 24004KT 180V320 9999 SCT011 13/10
                        Q1013 NOSIG=
201805120650 METAR EGLL 120650Z AUTO 21006KT 9000 BKN009 12/10 Q1013=
201805120620 METAR COR EGLL 120620Z AUTO VRB03KT 8000 SCT014 11/10 Q1012
                        TEMPO BKN014=
201805120550 METAR COR EGLL 120550Z AUTO 18006KT 120V230 9000 FEW023 11/10
                        Q1013 NOSIG=
201805120520 METAR COR EGLL 120520Z AUTO 22008KT 180V270 9999 SCT015 SCT022
                        11/10 Q1013 TEMPO BKN012=
201805120450 METAR COR EGLL 120450Z AUTO 21005KT 9999 SCT024 11/09 Q1013
                        TEMPO BKN012=
201805120420 METAR COR EGLL 120420Z AUTO 18005KT 150V240 9999 BKN025 11/09
                        Q1012 TEMPO BKN012=
201805120350 METAR COR EGLL 120350Z AUTO 18004KT 9999 NCD 11/09 Q1012
                        NOSIG=
201805120320 METAR COR EGLL 120320Z AUTO 21004KT 9999 NCD 11/09 Q1012
                        NOSIG=
201805120250 METAR COR EGLL 120250Z AUTO VRB03KT 9999 BKN021 11/09 Q1012
                        NOSIG=
201805120220 METAR COR EGLL 120220Z AUTO 25005KT 9999 BKN020 11/09 Q1012
                        NOSIG=
201805120150 METAR COR EGLL 120150Z AUTO 22005KT 9999 FEW023 SCT037 12/09
                        Q1012 NOSIG=
201805120120 METAR COR EGLL 120120Z AUTO 22004KT 9999 NCD 12/09 Q1012
                        NOSIG=
201805120050 METAR COR EGLL 120050Z AUTO 21005KT 9999 FEW028 13/09 Q1012
                        NOSIG=
201805120020 METAR COR EGLL 120020Z AUTO 19005KT 9999 NCD 13/09 Q1012
                        NOSIG=
201805112350 METAR COR EGLL 112350Z AUTO 20006KT 9999 NCD 13/08 Q1012
                        NOSIG=
201805112320 METAR COR EGLL 112320Z AUTO 21005KT 9999 -RA NCD 13/09 Q1012
                        NOSIG=
201805112250 METAR COR EGLL 112250Z AUTO 16006KT 9999 -RA BKN049 14/07
                        Q1012 NOSIG=
201805112220 METAR COR EGLL 112220Z AUTO 16007KT 9999 -RA BKN047 14/07
                        Q1013 NOSIG=
201805112150 METAR COR EGLL 112150Z AUTO 18007KT 9999 NCD 15/07 Q1012
                        NOSIG=
201805112120 METAR COR EGLL 112120Z AUTO 21008KT 170V240 9999 NCD 15/07
                        Q1012 NOSIG=
201805112050 METAR COR EGLL 112050Z AUTO 14008KT 9999 NCD 15/06 Q1012
                        NOSIG=
201805112020 METAR COR EGLL 112020Z AUTO 13008KT 9999 NCD 15/06 Q1012
                        NOSIG=
201805111950 METAR COR EGLL 111950Z AUTO 13009KT 9999 NCD 15/06 Q1012
                        NOSIG=
201805111920 METAR COR EGLL 111920Z AUTO 13009KT 9999 NCD 15/06 Q1012
                        NOSIG=
201805111850 METAR COR EGLL 111850Z AUTO 13010KT 9999 NCD 16/06 Q1012
                        NOSIG=
201805111820 METAR COR EGLL 111820Z AUTO 13011KT 9999 NCD 16/06 Q1012
                        NOSIG=
201805111750 METAR COR EGLL 111750Z AUTO 13010KT 9999 NCD 16/06 Q1013
                        NOSIG=
201805111720 METAR COR EGLL 111720Z AUTO 14009KT 9999 NCD 16/05 Q1013
                        NOSIG=
201805111650 METAR COR EGLL 111650Z AUTO 15010KT 9999 NCD 16/04 Q1013
                        NOSIG=
201805111620 METAR COR EGLL 111620Z AUTO 16011KT 9999 NCD 16/04 Q1013
                        NOSIG=
201805111550 METAR COR EGLL 111550Z AUTO 16010KT 9999 NCD 16/04 Q1013
                        NOSIG=
201805111520 METAR COR EGLL 111520Z AUTO 16012KT 9999 NCD 16/03 Q1014
                        NOSIG=
201805111450 METAR COR EGLL 111450Z AUTO 17013KT 9999 NCD 16/03 Q1014
                        NOSIG=
201805111420 METAR COR EGLL 111420Z AUTO 17013KT 9999 NCD 17/04 Q1014
                        NOSIG=
201805111350 METAR COR EGLL 111350Z AUTO 17013KT 9999 NCD 17/04 Q1014
                        NOSIG=
201805111320 METAR COR EGLL 111320Z AUTO 17014KT 9999 NCD 17/04 Q1014
                        NOSIG=
201805111250 METAR COR EGLL 111250Z AUTO 18015KT 9999 NCD 17/04 Q1015
                        NOSIG=
201805111220 METAR COR EGLL 111220Z AUTO 17014KT 9999 NCD 17/04 Q1015
                        NOSIG=
201805111150 METAR COR EGLL 111150Z AUTO 18014KT 9999 NCD 17/04 Q1015
                        NOSIG=
201805111120 METAR COR EGLL 111120Z AUTO 17014KT 9999 NCD 17/04 Q1015
                        NOSIG=
201805111050 METAR COR EGLL 111050Z AUTO 19016KT 9999 BKN048 17/05 Q1016
                        NOSIG=
201805111020 METAR COR EGLL 111020Z AUTO 19013KT 9999 BKN045 16/05 Q1016
                        NOSIG=
201805110950 METAR COR EGLL 110950Z AUTO 16013KT 9999 FEW042 16/06 Q1016
                        NOSIG=
201805110920 METAR COR EGLL 110920Z AUTO 16014KT 9999 NCD 15/06 Q1016
                        NOSIG=
201805110850 METAR COR EGLL 110850Z AUTO 16012KT 9999 NCD 14/06 Q1016
                        NOSIG=
201805110820 METAR COR EGLL 110820Z AUTO 15010KT 110V210 9999 NCD 13/06
                        Q1017 NOSIG=
201805110750 METAR COR EGLL 110750Z AUTO 16010KT 140V200 9999 NCD 12/06
                        Q1017 NOSIG=
201805110720 METAR COR EGLL 110720Z AUTO 16009KT 130V210 9999 NCD 10/07
                        Q1017 NOSIG=
201805110650 METAR COR EGLL 110650Z AUTO 16008KT 130V210 9999 NCD 10/07
                        Q1018 NOSIG=
201805110620 METAR COR EGLL 110620Z AUTO 16008KT 130V220 9999 NCD 09/07
                        Q1018 NOSIG=
201805110550 METAR COR EGLL 110550Z AUTO 16007KT 130V200 9999 NCD 08/06
                        Q1018 NOSIG=
201805110520 METAR COR EGLL 110520Z AUTO 17007KT 140V220 9999 NCD 08/06
                        Q1018 NOSIG=
201805110450 METAR COR EGLL 110450Z AUTO 15005KT 110V210 9999 NCD 08/06
                        Q1017 NOSIG=
201805110420 METAR COR EGLL 110420Z AUTO 14006KT 9999 NCD 07/05 Q1017
                        NOSIG=
201805110350 METAR COR EGLL 110350Z AUTO 15005KT 100V180 9999 NCD 07/05
                        Q1018 NOSIG=
201805110320 METAR COR EGLL 110320Z AUTO 14004KT 9999 NCD 08/05 Q1018
                        NOSIG=
201805110250 METAR COR EGLL 110250Z AUTO VRB03KT 9999 NCD 08/06 Q1018
                        NOSIG=
201805110220 METAR COR EGLL 110220Z AUTO 18004KT 9999 NCD 08/06 Q1018
                        NOSIG=
201805110150 METAR COR EGLL 110150Z AUTO 16003KT 9999 NCD 08/06 Q1018
                        NOSIG=
201805110120 METAR COR EGLL 110120Z AUTO 18004KT 9999 NCD 09/06 Q1019
                        NOSIG=
201805110050 METAR COR EGLL 110050Z AUTO 17005KT 9999 NCD 09/06 Q1019
                        NOSIG=
201805110020 METAR COR EGLL 110020Z AUTO 16002KT 9999 NCD 09/05 Q1019
                        NOSIG=
201805102350 METAR COR EGLL 102350Z AUTO 21002KT 9999 NCD 09/05 Q1019
                        NOSIG=
201805102320 METAR COR EGLL 102320Z AUTO 22004KT 9999 NCD 09/05 Q1020
                        NOSIG=
201805102250 METAR COR EGLL 102250Z AUTO 21004KT 9999 NCD 09/04 Q1020
                        NOSIG=
201805102220 METAR COR EGLL 102220Z AUTO 22004KT 9999 NCD 10/04 Q1019
                        NOSIG=
201805102150 METAR COR EGLL 102150Z AUTO 23006KT 9999 NCD 11/03 Q1020
                        NOSIG=
201805102120 METAR COR EGLL 102120Z AUTO 24006KT 9999 NCD 11/04 Q1020
                        NOSIG=
201805102050 METAR COR EGLL 102050Z AUTO 26006KT 9999 NCD 12/04 Q1020
                        NOSIG=
201805102020 METAR COR EGLL 102020Z AUTO 24007KT 9999 NCD 13/04 Q1019
                        NOSIG=
201805101950 METAR COR EGLL 101950Z AUTO 24006KT 9999 NCD 12/04 Q1019
                        NOSIG=
201805101920 METAR COR EGLL 101920Z AUTO 27006KT 230V290 9999 NCD 12/04
                        Q1019 NOSIG=
201805101850 METAR COR EGLL 101850Z AUTO 24007KT 9999 NCD 14/03 Q1019
                        NOSIG=
201805101820 METAR COR EGLL 101820Z AUTO 28006KT 9999 NCD 15/02 Q1018
                        NOSIG=
201805101750 METAR COR EGLL 101750Z AUTO 27005KT 230V320 9999 NCD 16/01
                        Q1018 NOSIG=
201805101720 METAR COR EGLL 101720Z AUTO 30005KT 250V020 9999 NCD 16/02
                        Q1018 NOSIG=
201805101650 METAR COR EGLL 101650Z AUTO 31005KT 250V350 9999 NCD 17/01
                        Q1018 NOSIG=
201805101620 METAR COR EGLL 101620Z AUTO 29007KT 9999 NCD 16/01 Q1018
                        NOSIG=
201805101550 METAR COR EGLL 101550Z AUTO 29005KT 240V320 9999 NCD 17/02
                        Q1018 NOSIG=
201805101520 METAR COR EGLL 101520Z AUTO 28008KT 230V310 9999 NCD 16/02
                        Q1018 NOSIG=
201805101450 METAR COR EGLL 101450Z AUTO 26010KT 230V310 9999 NCD 17/03
                        Q1017 NOSIG=
201805101420 METAR COR EGLL 101420Z AUTO 29008KT 9999 NCD 15/02 Q1017
                        NOSIG=
201805101350 METAR COR EGLL 101350Z AUTO VRB09KT 9999 NCD 15/03 Q1017
                        NOSIG=
201805101320 METAR COR EGLL 101320Z AUTO 28011KT 240V310 9999 NCD 15/03
                        Q1017 NOSIG=
201805101250 METAR EGLL 101250Z AUTO 30009KT 260V330 9999 NCD 16/03 Q1017=
201805101220 METAR COR EGLL 101220Z AUTO 30008KT 280V020 9999 NCD 16/04
                        Q1016 NOSIG=
201805101150 METAR COR EGLL 101150Z AUTO 31009KT 9999 SCT049 15/04 Q1016
                        NOSIG=
201805101120 METAR COR EGLL 101120Z AUTO 28012KT 260V320 9999 SCT045 15/05
                        Q1016 NOSIG=
201805101050 METAR COR EGLL 101050Z AUTO 29009KT 260V340 9999 SCT045 15/04
                        Q1015 NOSIG=
201805101020 METAR COR EGLL 101020Z AUTO 29011KT 250V330 9999 SCT043 14/04
                        Q1015 NOSIG=
201805100950 METAR COR EGLL 100950Z AUTO 30011KT 9999 SCT038 13/05 Q1015
                        NOSIG=
201805100920 METAR COR EGLL 100920Z AUTO 30009KT 260V340 9999 SCT033 13/06
                        Q1015 NOSIG=
201805100850 METAR COR EGLL 100850Z AUTO 29011KT 9999 BKN031 12/06 Q1014
                        NOSIG=
201805100820 METAR COR EGLL 100820Z AUTO 30009KT 9999 NCD 12/06 Q1014
                        NOSIG=
201805100750 METAR COR EGLL 100750Z AUTO 28011KT 9999 FEW023 11/06 Q1013
                        NOSIG=
201805100720 METAR COR EGLL 100720Z AUTO 29011KT 9999 FEW020 11/07 Q1013=
201805100650 METAR COR EGLL 100650Z AUTO 29009KT 250V330 9999 FEW017 10/07
                        Q1013 NOSIG=
201805100620 METAR COR EGLL 100620Z AUTO 28008KT 260V320 9999 FEW020 10/08
                        Q1012 NOSIG=
201805100550 METAR COR EGLL 100550Z AUTO 29009KT 9999 BKN049 10/08 Q1012
                        NOSIG=
201805100520 METAR COR EGLL 100520Z AUTO 29009KT 9999 FEW045 10/07 Q1011
                        NOSIG=
201805100450 METAR COR EGLL 100450Z AUTO 30008KT 9999 SCT017 BKN038 BKN047
                        10/08 Q1011 NOSIG=
201805100420 METAR COR EGLL 100420Z AUTO 28010KT 9999 -RA SCT014 BKN024
                        10/09 Q1010 NOSIG=
201805100350 METAR COR EGLL 100350Z AUTO 26009KT 8000 -RA BKN009 BKN023
                        BKN032 10/10 Q1010 TEMPO RA=
201805100320 METAR COR EGLL 100320Z AUTO 25008KT 9999 -RA SCT025/// BKN031///
                        OVC043/// //////TCU 11/10 Q1009 NOSIG=
201805100250 METAR COR EGLL 100250Z AUTO 24007KT 9999 -RA SCT033/// OVC043///
                        //////CB 11/10 Q1009 TEMPO RA=
201805100220 METAR COR EGLL 100220Z AUTO 24008KT 9999 -RA FEW013 SCT042
                        11/10 Q1009 NOSIG=
201805100150 METAR COR EGLL 100150Z AUTO 24009KT 9999 -RA BKN014/// BKN018///
                        //////TCU 11/09 Q1009 TEMPO RA=
201805100120 METAR COR EGLL 100120Z AUTO 24009KT 9999 -RA SCT016/// //////CB
                        11/09 Q1008 TEMPO RA=
201805100050 METAR EGLL 100050Z AUTO 24009KT 9999 -RA SCT038 12/08 Q1008=
201805100020 METAR COR EGLL 100020Z AUTO 24008KT 9999 SCT039 11/08 Q1008
                        TEMPO RA=
201805092350 METAR COR EGLL 092350Z AUTO 25009KT 9999 NCD 11/08 Q1008
                        NOSIG=
201805092320 METAR COR EGLL 092320Z AUTO 24009KT 9999 NCD 12/08 Q1009
                        NOSIG=
201805092250 METAR COR EGLL 092250Z AUTO 24011KT 9999 NCD 12/08 Q1009
                        NOSIG=
201805092220 METAR COR EGLL 092220Z AUTO 27006KT 9999 NCD 12/09 Q1009
                        NOSIG=
201805092150 METAR COR EGLL 092150Z AUTO 27008KT 9999 NCD 12/08 Q1008
                        NOSIG=
201805092120 METAR COR EGLL 092120Z AUTO 26010KT 9999 NCD 13/09 Q1008
                        NOSIG=
201805092050 METAR COR EGLL 092050Z AUTO 25011KT 9999 NCD 13/09 Q1008
                        NOSIG=
201805092020 METAR COR EGLL 092020Z AUTO 26009KT 9999 NCD 14/08 Q1008
                        NOSIG=
201805091950 METAR COR EGLL 091950Z AUTO 25011KT 9999 NCD 14/08 Q1008
                        NOSIG=
201805091920 METAR COR EGLL 091920Z AUTO 26012KT 9999 NCD 15/08 Q1007
                        NOSIG=
201805091850 METAR COR EGLL 091850Z AUTO 24010KT 9999 NCD 15/08 Q1007
                        NOSIG=
201805091820 METAR COR EGLL 091820Z AUTO 24010KT 9999 NCD 16/08 Q1007
                        NOSIG=
201805091750 METAR COR EGLL 091750Z AUTO 24012KT 9999 NCD 16/08 Q1007
                        NOSIG=
201805091720 METAR COR EGLL 091720Z AUTO 25014KT 9999 NCD 17/08 Q1007
                        NOSIG=
201805091650 METAR COR EGLL 091650Z AUTO 26012KT 9999 BKN049 18/08 Q1007
                        NOSIG=
201805091620 METAR COR EGLL 091620Z AUTO 26009KT 9999 NCD 18/08 Q1007
                        NOSIG=
201805091550 METAR COR EGLL 091550Z AUTO 27009KT 9999 NCD 19/07 Q1007
                        NOSIG=
201805091520 METAR COR EGLL 091520Z AUTO 22005KT 160V320 9999 NCD 20/07
                        Q1007 NOSIG=
201805091450 METAR COR EGLL 091450Z AUTO 25008G19KT 200V290 9999 NCD 19/07
                        Q1007 NOSIG=
201805091420 METAR COR EGLL 091420Z AUTO 26009KT 210V300 9999 NCD 20/06
                        Q1007 NOSIG=
201805091350 METAR COR EGLL 091350Z AUTO 26011KT 9999 NCD 20/06 Q1008
                        NOSIG=
201805091320 METAR COR EGLL 091320Z AUTO 23008KT 160V280 9999 NCD 20/07
                        Q1008 NOSIG=
201805091250 METAR COR EGLL 091250Z AUTO VRB05KT 9999 NCD 19/07 Q1008
                        NOSIG=
201805091220 METAR COR EGLL 091220Z AUTO 25006KT 180V300 9999 NCD 18/08
                        Q1008 NOSIG=
201805091150 METAR COR EGLL 091150Z AUTO 27009KT 230V300 9999 SCT046 19/08
                        Q1009 NOSIG=
201805091120 METAR COR EGLL 091120Z AUTO 26007KT 210V300 9999 SCT043 18/07
                        Q1009 NOSIG=
201805091050 METAR COR EGLL 091050Z AUTO 26006KT 200V300 9999 BKN040 17/08
                        Q1009 NOSIG=
201805091020 METAR COR EGLL 091020Z AUTO 27006KT 220V320 9999 SCT032 17/08
                        Q1009 NOSIG=
201805090950 METAR COR EGLL 090950Z AUTO VRB06KT 9999 SCT035 16/09 Q1010
                        NOSIG=
201805090920 METAR COR EGLL 090920Z AUTO 27007KT 220V310 9999 NCD 16/09
                        Q1010 NOSIG=
201805090850 METAR COR EGLL 090850Z AUTO 26006KT 180V300 9999 NCD 15/09
                        Q1010 NOSIG=
201805090820 METAR COR EGLL 090820Z AUTO VRB03KT 9999 NCD 15/09 Q1010
                        NOSIG=
201805090750 METAR COR EGLL 090750Z AUTO VRB03KT 9999 NCD 14/10 Q1010
                        NOSIG=
201805090720 METAR COR EGLL 090720Z AUTO VRB03KT 9999 NCD 13/10 Q1010
                        NOSIG=
201805090650 METAR COR EGLL 090650Z AUTO VRB03KT 9999 NCD 11/09 Q1010
                        NOSIG=
201805090620 METAR COR EGLL 090620Z AUTO VRB02KT 9999 NCD 11/09 Q1010
                        NOSIG=
201805090550 METAR COR EGLL 090550Z AUTO 24004KT 200V290 9000 NCD 10/09
                        Q1011 NOSIG=
201805090520 METAR COR EGLL 090520Z AUTO 24004KT 210V280 8000 NCD 09/08
                        Q1011 NOSIG=
201805090450 METAR COR EGLL 090450Z AUTO 29004KT 8000 NCD 08/08 Q1011
                        NOSIG=
201805090420 METAR COR EGLL 090420Z AUTO 28005KT 7000 NCD 08/07 Q1010
                        NOSIG=
201805090350 METAR COR EGLL 090350Z AUTO 27005KT 7000 NCD 08/07 Q1011
                        NOSIG=
201805090320 METAR COR EGLL 090320Z AUTO 28004KT 7000 NCD 09/08 Q1010
                        NOSIG=
201805090250 METAR COR EGLL 090250Z AUTO 30004KT 8000 NCD 09/08 Q1010
                        NOSIG=
201805090220 METAR COR EGLL 090220Z AUTO 28004KT 8000 NCD 09/07 Q1010
                        NOSIG=
201805090150 METAR COR EGLL 090150Z AUTO 27005KT 8000 NCD 09/07 Q1010
                        NOSIG=
201805090120 METAR COR EGLL 090120Z AUTO 26004KT 9000 NCD 09/07 Q1010
                        NOSIG=
201805090050 METAR COR EGLL 090050Z AUTO 29005KT 9000 NCD 10/08 Q1010
                        NOSIG=
201805090020 METAR COR EGLL 090020Z AUTO 28005KT 9999 NCD 09/08 Q1011
                        NOSIG=
201805082350 METAR COR EGLL 082350Z AUTO 27006KT 9999 NCD 10/08 Q1011
                        NOSIG=
201805082320 METAR COR EGLL 082320Z AUTO 29005KT 9999 FEW032 11/08 Q1011
                        NOSIG=
201805082250 METAR COR EGLL 082250Z AUTO 28007KT 9999 BKN030 12/08 Q1011
                        NOSIG=
201805082220 METAR COR EGLL 082220Z AUTO 28006KT 9999 SCT025 SCT034 12/08
                        Q1011 NOSIG=
201805082150 METAR COR EGLL 082150Z AUTO 28009KT 9999 FEW032 12/08 Q1011
                        NOSIG=
201805082120 METAR COR EGLL 082120Z AUTO 27009KT 9999 NCD 13/08 Q1010
                        NOSIG=
201805082050 METAR COR EGLL 082050Z AUTO 27010KT 9999 NCD 14/10 Q1010
                        NOSIG=
201805082020 METAR COR EGLL 082020Z AUTO 28009KT 9999 FEW030 15/10 Q1010
                        NOSIG=
201805081950 METAR COR EGLL 081950Z AUTO 27010KT 9999 NCD 15/11 Q1010
                        NOSIG=
201805081920 METAR COR EGLL 081920Z AUTO 27011KT 9999 NCD 16/11 Q1010
                        NOSIG=
201805081850 METAR COR EGLL 081850Z AUTO 27012KT 9999 NCD 16/11 Q1009
                        NOSIG=
201805081820 METAR COR EGLL 081820Z AUTO 27014KT 9999 NCD 18/12 Q1009
                        NOSIG=
201805081750 METAR COR EGLL 081750Z AUTO 28014KT 9999 NCD 19/12 Q1009
                        NOSIG=
201805081720 METAR COR EGLL 081720Z AUTO 29014KT 9999 NCD 20/12 Q1008
                        NOSIG=
201805081650 METAR COR EGLL 081650Z AUTO 29012KT 260V320 9999 NCD 22/10
                        Q1008 NOSIG=
201805081620 METAR COR EGLL 081620Z AUTO 27013KT 9999 NCD 22/11 Q1008
                        NOSIG=
201805081550 METAR COR EGLL 081550Z AUTO 27014KT 9999 NCD 24/08 Q1008
                        NOSIG=
201805081520 METAR COR EGLL 081520Z AUTO 28016KT 9999 NCD 24/09 Q1007
                        NOSIG=
201805081450 METAR COR EGLL 081450Z AUTO 25011KT 9999 NCD 24/13 Q1007
                        NOSIG=
201805081420 METAR COR EGLL 081420Z AUTO 25009KT 220V280 9999 NCD 25/13
                        Q1008 NOSIG=
201805081350 METAR COR EGLL 081350Z AUTO 27010KT 250V320 9999 NCD 24/14
                        Q1008 NOSIG=
201805081320 METAR COR EGLL 081320Z AUTO 25012KT 9999 NCD 25/13 Q1008
                        NOSIG=
201805081250 METAR COR EGLL 081250Z AUTO 28011KT 9999 NCD 25/12 Q1008
                        NOSIG=
201805081220 METAR COR EGLL 081220Z AUTO 23011KT 200V260 9999 NCD 25/13
                        Q1008 NOSIG=
201805081150 METAR COR EGLL 081150Z AUTO 25011KT 210V270 9999 NCD 25/12
                        Q1008 NOSIG=
201805081120 METAR COR EGLL 081120Z AUTO 24007KT 170V310 9999 NCD 25/12
                        Q1008 NOSIG=
201805081050 METAR COR EGLL 081050Z AUTO 26006KT 190V300 9999 NCD 24/12
                        Q1009 NOSIG=
201805081020 METAR COR EGLL 081020Z AUTO 25006KT 190V310 9999 NCD 23/13
                        Q1009 NOSIG=
201805080950 METAR COR EGLL 080950Z AUTO 28006KT 9999 NCD 22/13 Q1010
                        NOSIG=
201805080920 METAR COR EGLL 080920Z AUTO 25005KT 170V310 9999 NCD 21/12
                        Q1010 NOSIG=
201805080850 METAR COR EGLL 080850Z AUTO 24005KT 170V310 9999 NCD 20/11
                        Q1010 NOSIG=
201805080820 METAR COR EGLL 080820Z AUTO 22005KT 180V290 9999 NCD 20/10
                        Q1010 NOSIG=
201805080750 METAR COR EGLL 080750Z AUTO 20004KT 120V260 9999 NCD 19/11
                        Q1010 NOSIG=
201805080720 METAR COR EGLL 080720Z AUTO VRB03KT 9999 NCD 17/12 Q1011
                        NOSIG=
201805080650 METAR COR EGLL 080650Z AUTO 20004KT 130V250 9000 NCD 16/13
                        Q1011 NOSIG=
201805080620 METAR COR EGLL 080620Z AUTO 20004KT 140V240 8000 NCD 14/11
                        Q1011 NOSIG=
201805080550 METAR COR EGLL 080550Z AUTO VRB03KT 7000 NCD 14/11 Q1011
                        NOSIG=
201805080520 METAR COR EGLL 080520Z AUTO VRB02KT 6000 NCD 13/10 Q1011
                        NOSIG=
201805080450 METAR COR EGLL 080450Z AUTO VRB01KT 9999 NCD 11/10 Q1011
                        NOSIG=
201805080420 METAR COR EGLL 080420Z AUTO VRB01KT 9999 NCD 11/10 Q1011
                        NOSIG=
201805080350 METAR COR EGLL 080350Z AUTO 04002KT 8000 NCD 12/10 Q1011
                        BECMG 6000=
201805080320 METAR COR EGLL 080320Z AUTO 03001KT 9999 NCD 12/10 Q1012
                        NOSIG=
201805080250 METAR COR EGLL 080250Z AUTO 01002KT 9999 NCD 13/11 Q1012
                        NOSIG=
201805080220 METAR COR EGLL 080220Z AUTO 05001KT 9999 NCD 15/11 Q1012
                        NOSIG=
201805080150 METAR COR EGLL 080150Z AUTO 11002KT 9999 NCD 15/12 Q1012
                        NOSIG=
201805080120 METAR COR EGLL 080120Z AUTO 12002KT 9999 NCD 15/12 Q1013
                        NOSIG=
201805080050 METAR COR EGLL 080050Z AUTO 10002KT 9999 NCD 16/12 Q1013
                        NOSIG=
201805080020 METAR COR EGLL 080020Z AUTO VRB01KT 9999 NCD 17/12 Q1013=
201805072350 METAR COR EGLL 072350Z AUTO VRB02KT 9999 NCD 16/11 Q1014
                        NOSIG=
201805072320 METAR COR EGLL 072320Z AUTO 09003KT 9999 NCD 17/11 Q1014
                        NOSIG=
201805072250 METAR COR EGLL 072250Z AUTO 09003KT 9999 NCD 17/11 Q1014
                        NOSIG=
201805072220 METAR COR EGLL 072220Z AUTO 11003KT 9999 NCD 18/11 Q1014
                        NOSIG=
201805072150 METAR COR EGLL 072150Z AUTO 09003KT 9999 NCD 19/10 Q1015
                        NOSIG=
201805072120 METAR COR EGLL 072120Z AUTO 10004KT 9999 NCD 20/10 Q1015
                        NOSIG=
201805072050 METAR COR EGLL 072050Z AUTO 10005KT 9999 NCD 21/10 Q1015
                        NOSIG=
201805072020 METAR COR EGLL 072020Z AUTO 09006KT 9999 NCD 19/09 Q1014
                        NOSIG=
201805071950 METAR COR EGLL 071950Z AUTO 10006KT 9999 NCD 20/09 Q1014
                        NOSIG=
201805071920 METAR COR EGLL 071920Z AUTO 09008KT 9999 NCD 21/09 Q1014
                        NOSIG=
201805071850 METAR COR EGLL 071850Z AUTO 09008KT 9999 NCD 22/08 Q1014
                        NOSIG=
201805071820 METAR COR EGLL 071820Z AUTO 09008KT 9999 NCD 23/08 Q1014
                        NOSIG=
201805071750 METAR COR EGLL 071750Z AUTO 09010KT 9999 NCD 24/08 Q1014
                        NOSIG=
201805071720 METAR COR EGLL 071720Z AUTO 11008KT 9999 NCD 26/08 Q1014
                        NOSIG=
201805071650 METAR COR EGLL 071650Z AUTO 08009KT 9999 NCD 26/09 Q1015
                        NOSIG=
201805071620 METAR COR EGLL 071620Z AUTO 09006KT 060V120 9999 NCD 26/08
                        Q1015 NOSIG=
201805071550 METAR COR EGLL 071550Z AUTO 09005KT 050V120 9999 NCD 27/09
                        Q1015 NOSIG=
201805071520 METAR COR EGLL 071520Z AUTO 13004KT 040V200 9999 NCD 27/08
                        Q1015 NOSIG=
201805071450 METAR COR EGLL 071450Z AUTO VRB02KT 9999 NCD 27/08 Q1015
                        NOSIG=
201805071420 METAR COR EGLL 071420Z AUTO VRB03KT 9999 NCD 27/06 Q1016
                        NOSIG=
201805071350 METAR COR EGLL 071350Z AUTO 12006KT 070V160 9999 NCD 27/06
                        Q1016 NOSIG=
201805071320 METAR COR EGLL 071320Z AUTO 09005KT 040V140 9999 NCD 27/07
                        Q1016 NOSIG=
201805071250 METAR COR EGLL 071250Z AUTO 11005KT 020V160 9999 NCD 26/08
                        Q1017 NOSIG=
201805071220 METAR COR EGLL 071220Z AUTO 10005KT 010V150 9999 NCD 26/08
                        Q1017 NOSIG=
201805071150 METAR COR EGLL 071150Z AUTO 09006KT 050V120 9999 NCD 26/09
                        Q1017 NOSIG=
201805071120 METAR COR EGLL 071120Z AUTO 12004KT 010V160 9999 NCD 25/09
                        Q1018 NOSIG=
201805071050 METAR COR EGLL 071050Z AUTO 09005KT 040V120 9999 NCD 25/09
                        Q1018 NOSIG=
201805071020 METAR COR EGLL 071020Z AUTO 07004KT 360V120 9999 NCD 24/08
                        Q1018 NOSIG=
201805070950 METAR COR EGLL 070950Z AUTO 04004KT 350V080 9999 NCD 23/08
                        Q1019 NOSIG=
201805070920 METAR COR EGLL 070920Z AUTO VRB03KT 9999 NCD 22/08 Q1019
                        NOSIG=
201805070850 METAR COR EGLL 070850Z AUTO VRB03KT 9999 NCD 21/09 Q1019
                        NOSIG=
201805070820 METAR COR EGLL 070820Z AUTO VRB03KT 9999 NCD 19/09 Q1019
                        NOSIG=
201805070750 METAR COR EGLL 070750Z AUTO VRB02KT 9000 NCD 18/10 Q1019
                        NOSIG=
201805070720 METAR COR EGLL 070720Z AUTO VRB02KT 8000 NCD 17/10 Q1019
                        NOSIG=
201805070650 METAR COR EGLL 070650Z AUTO VRB01KT 7000 NCD 16/10 Q1019
                        NOSIG=
201805070620 METAR COR EGLL 070620Z AUTO VRB02KT 7000 NCD 14/09 Q1019
                        NOSIG=
201805070550 METAR COR EGLL 070550Z AUTO 07001KT 8000 NCD 13/09 Q1019
                        NOSIG=
201805070520 METAR COR EGLL 070520Z AUTO 02002KT 8000 NCD 11/08 Q1019
                        NOSIG=
201805070450 METAR COR EGLL 070450Z AUTO 05001KT 8000 NCD 12/08 Q1019
                        NOSIG=
201805070420 METAR COR EGLL 070420Z AUTO VRB02KT 9000 NCD 12/09 Q1019
                        NOSIG=
201805070350 METAR COR EGLL 070350Z AUTO 02001KT 9000 NCD 11/08 Q1019
                        NOSIG=
201805070320 METAR COR EGLL 070320Z AUTO 02002KT 9000 NCD 12/08 Q1019
                        NOSIG=
201805070250 METAR COR EGLL 070250Z AUTO 36002KT 9000 NCD 12/08 Q1019
                        NOSIG=
201805070220 METAR COR EGLL 070220Z AUTO VRB02KT 8000 NCD 13/07 Q1019
                        NOSIG=
201805070150 METAR COR EGLL 070150Z AUTO 08002KT 9000 NCD 14/07 Q1020
                        NOSIG=
201805070120 METAR COR EGLL 070120Z AUTO VRB01KT 9000 NCD 14/07 Q1020
                        NOSIG=
201805070050 METAR COR EGLL 070050Z AUTO 05003KT 9000 NCD 14/06 Q1020
                        NOSIG=
201805070020 METAR COR EGLL 070020Z AUTO 05002KT 9999 NCD 15/06 Q1020
                        NOSIG=
201805062350 METAR COR EGLL 062350Z AUTO 06002KT 9000 NCD 16/06 Q1020
                        NOSIG=
201805062320 METAR COR EGLL 062320Z AUTO 07003KT 9999 NCD 16/06 Q1020
                        NOSIG=
201805062250 METAR COR EGLL 062250Z AUTO 07004KT 9000 NCD 16/07 Q1020
                        NOSIG=
201805062220 METAR COR EGLL 062220Z AUTO 08005KT 9999 NCD 16/06 Q1020
                        NOSIG=
201805062150 METAR COR EGLL 062150Z AUTO 09005KT 9999 NCD 17/06 Q1020
                        NOSIG=
201805062120 METAR COR EGLL 062120Z AUTO 10005KT 9999 NCD 16/07 Q1020
                        NOSIG=
201805062050 METAR COR EGLL 062050Z AUTO 09006KT 9999 NCD 17/07 Q1020
                        NOSIG=
201805062020 METAR COR EGLL 062020Z AUTO 08006KT 9999 NCD 19/08 Q1020
                        NOSIG=
201805061950 METAR COR EGLL 061950Z AUTO 09007KT 9999 NCD 19/09 Q1020
                        NOSIG=
201805061920 METAR COR EGLL 061920Z AUTO 10006KT 9999 NCD 21/09 Q1019
                        NOSIG=
201805061850 METAR COR EGLL 061850Z AUTO 09008KT 9999 NCD 21/10 Q1019
                        NOSIG=
201805061820 METAR COR EGLL 061820Z AUTO 11006KT 9999 NCD 23/09 Q1019
                        NOSIG=
201805061750 METAR COR EGLL 061750Z AUTO 13007KT 9999 NCD 24/10 Q1019
                        NOSIG=
201805061720 METAR COR EGLL 061720Z AUTO 08005KT 9999 NCD 24/10 Q1019
                        NOSIG=
201805061650 METAR COR EGLL 061650Z AUTO 07006KT 040V100 9999 NCD 25/09
                        Q1019 NOSIG=
201805061620 METAR COR EGLL 061620Z AUTO VRB03KT 9999 NCD 25/08 Q1019
                        NOSIG=
201805061550 METAR COR EGLL 061550Z AUTO VRB02KT 9999 NCD 25/09 Q1020
                        NOSIG=
201805061520 METAR COR EGLL 061520Z AUTO VRB03KT 9999 NCD 25/10 Q1020
                        NOSIG=
201805061450 METAR COR EGLL 061450Z AUTO VRB03KT 9999 NCD 25/08 Q1020
                        NOSIG=
201805061420 METAR COR EGLL 061420Z AUTO 18004KT 110V240 9999 NCD 25/07
                        Q1021 NOSIG=
201805061350 METAR COR EGLL 061350Z AUTO 14005KT 110V180 9999 NCD 25/07
                        Q1021 NOSIG=
201805061320 METAR COR EGLL 061320Z AUTO 08005KT 020V130 9999 NCD 25/08
                        Q1021 NOSIG=
201805061250 METAR COR EGLL 061250Z AUTO 14006KT 070V190 9999 NCD 24/07
                        Q1022 NOSIG=
201805061220 METAR COR EGLL 061220Z AUTO 14005KT 070V180 9999 NCD 23/09
                        Q1022 NOSIG=
201805061150 METAR COR EGLL 061150Z AUTO 10006KT 030V140 9999 NCD 23/07
                        Q1022 NOSIG=
201805061120 METAR COR EGLL 061120Z AUTO 08007KT 9999 NCD 22/08 Q1022
                        NOSIG=
201805061050 METAR COR EGLL 061050Z AUTO 09008KT 060V130 9999 NCD 22/08
                        Q1023 NOSIG=
201805061020 METAR COR EGLL 061020Z AUTO 09006KT 040V120 9999 NCD 21/09
                        Q1023 NOSIG=
201805060950 METAR COR EGLL 060950Z AUTO 07004KT 020V120 9999 NCD 21/09
                        Q1023 NOSIG=
201805060920 METAR COR EGLL 060920Z AUTO 07005KT 040V110 9999 NCD 19/09
                        Q1023 NOSIG=
201805060850 METAR COR EGLL 060850Z AUTO VRB03KT 9999 NCD 18/09 Q1024
                        NOSIG=
201805060820 METAR COR EGLL 060820Z AUTO 07004KT 030V120 9999 NCD 17/08
                        Q1024 NOSIG=
201805060750 METAR COR EGLL 060750Z AUTO VRB03KT 9999 NCD 15/08 Q1024
                        NOSIG=
201805060720 METAR COR EGLL 060720Z AUTO VRB03KT 9999 NCD 14/08 Q1024
                        NOSIG=
201805060650 METAR COR EGLL 060650Z AUTO VRB02KT 9999 NCD 13/07 Q1024
                        NOSIG=
201805060620 METAR COR EGLL 060620Z AUTO VRB02KT 9999 NCD 12/07 Q1024
                        NOSIG=
201805060550 METAR COR EGLL 060550Z AUTO 35002KT 9000 NCD 10/07 Q1024
                        NOSIG=
201805060520 METAR COR EGLL 060520Z AUTO VRB01KT 9000 NCD 09/06 Q1024
                        NOSIG=
201805060450 METAR COR EGLL 060450Z AUTO 04001KT 9000 NCD 09/05 Q1024
                        NOSIG=
201805060420 METAR COR EGLL 060420Z AUTO VRB01KT 9999 NCD 09/06 Q1024
                        NOSIG=
201805060350 METAR COR EGLL 060350Z AUTO 01005KT 9999 NCD 09/06 Q1024
                        NOSIG=
201805060320 METAR COR EGLL 060320Z AUTO 01004KT 9999 NCD 10/06 Q1024
                        NOSIG=
201805060250 METAR COR EGLL 060250Z AUTO 35003KT 9999 NCD 10/06 Q1024
                        NOSIG=
201805060220 METAR COR EGLL 060220Z AUTO 35003KT 9999 NCD 10/06 Q1024
                        NOSIG=
201805060150 METAR COR EGLL 060150Z AUTO 36003KT 9000 NCD 09/06 Q1024
                        NOSIG=
201805060120 METAR COR EGLL 060120Z AUTO VRB02KT 9999 NCD 10/06 Q1024
                        NOSIG=
201805060050 METAR COR EGLL 060050Z AUTO 05003KT 9999 NCD 10/05 Q1025
                        NOSIG=
201805060020 METAR COR EGLL 060020Z AUTO 05003KT 9999 NCD 12/06 Q1025
                        NOSIG=
201805052350 METAR COR EGLL 052350Z AUTO 05001KT 9999 NCD 13/05 Q1025
                        NOSIG=
201805052320 METAR COR EGLL 052320Z AUTO 02001KT 9999 NCD 13/05 Q1025
                        NOSIG=
201805052250 METAR COR EGLL 052250Z AUTO VRB02KT 9999 NCD 13/05 Q1025
                        NOSIG=
201805052220 METAR COR EGLL 052220Z AUTO 09005KT 9999 NCD 14/05 Q1025
                        NOSIG=
201805052150 METAR COR EGLL 052150Z AUTO 09004KT 9999 NCD 13/05 Q1025
                        NOSIG=
201805052120 METAR COR EGLL 052120Z AUTO 10007KT 9999 NCD 13/06 Q1025
                        NOSIG=
201805052050 METAR COR EGLL 052050Z AUTO 10008KT 9999 NCD 15/05 Q1025
                        NOSIG=
201805052020 METAR COR EGLL 052020Z AUTO 12009KT 9999 NCD 16/05 Q1024
                        NOSIG=
201805051950 METAR COR EGLL 051950Z AUTO 10006KT 9999 NCD 16/06 Q1024
                        NOSIG=
201805051920 METAR COR EGLL 051920Z AUTO 09008KT 9999 NCD 16/07 Q1024
                        NOSIG=
201805051850 METAR COR EGLL 051850Z AUTO 10009KT 9999 NCD 18/07 Q1024
                        NOSIG=
201805051820 METAR COR EGLL 051820Z AUTO 11009KT 9999 NCD 19/07 Q1024
                        NOSIG=
201805051750 METAR COR EGLL 051750Z AUTO 09008KT 9999 NCD 20/07 Q1023
                        NOSIG=
201805051720 METAR COR EGLL 051720Z AUTO 12008KT 9999 NCD 21/07 Q1023
                        NOSIG=
201805051650 METAR COR EGLL 051650Z AUTO 10008KT 060V140 9999 NCD 21/07
                        Q1023 NOSIG=
201805051620 METAR COR EGLL 051620Z AUTO 08006KT 9999 NCD 22/07 Q1023
                        NOSIG=
201805051550 METAR COR EGLL 051550Z AUTO 10006KT 040V150 9999 NCD 22/06
                        Q1024 NOSIG=
201805051520 METAR COR EGLL 051520Z AUTO 09004KT 040V130 9999 NCD 22/07
                        Q1024 NOSIG=
201805051450 METAR COR EGLL 051450Z AUTO 08006KT 320V130 9999 NCD 22/05
                        Q1024 NOSIG=
201805051420 METAR COR EGLL 051420Z AUTO 12006KT 080V170 9999 NCD 22/05
                        Q1024 NOSIG=
201805051350 METAR COR EGLL 051350Z AUTO 10007KT 070V130 9999 NCD 22/04
                        Q1024 NOSIG=
201805051320 METAR COR EGLL 051320Z AUTO 12006KT 050V160 9999 NCD 22/05
                        Q1025 NOSIG=
201805051250 METAR COR EGLL 051250Z AUTO 10006KT 060V150 9999 NCD 21/04
                        Q1025 NOSIG=
201805051220 METAR COR EGLL 051220Z AUTO 10007KT 040V160 9999 NCD 21/04
                        Q1025 NOSIG=
201805051150 METAR COR EGLL 051150Z AUTO 11006KT 080V180 9999 NCD 21/04
                        Q1025 NOSIG=
201805051120 METAR COR EGLL 051120Z AUTO 11005KT 070V190 9999 NCD 20/04
                        Q1025 NOSIG=
201805051050 METAR COR EGLL 051050Z AUTO 11005KT 030V150 9999 NCD 20/04
                        Q1026 NOSIG=
201805051020 METAR COR EGLL 051020Z AUTO 06005KT 020V100 9999 NCD 19/04
                        Q1026 NOSIG=
201805050950 METAR COR EGLL 050950Z AUTO 10006KT 050V140 9999 NCD 18/04
                        Q1026 NOSIG=
201805050920 METAR COR EGLL 050920Z AUTO 09007KT 9999 NCD 18/06 Q1026
                        NOSIG=
201805050850 METAR COR EGLL 050850Z AUTO 10006KT 060V130 9999 NCD 17/06
                        Q1026 NOSIG=
201805050820 METAR COR EGLL 050820Z AUTO 10004KT 050V130 9999 NCD 16/07
                        Q1026 NOSIG=
201805050750 METAR COR EGLL 050750Z AUTO 10006KT 9999 NCD 15/06 Q1026
                        NOSIG=
201805050720 METAR COR EGLL 050720Z AUTO 09003KT 9999 NCD 14/07 Q1026
                        NOSIG=
201805050650 METAR COR EGLL 050650Z AUTO VRB01KT 9999 NCD 12/08 Q1026
                        NOSIG=
201805050620 METAR COR EGLL 050620Z AUTO VRB02KT 9999 NCD 11/07 Q1026
                        NOSIG=
201805050550 METAR COR EGLL 050550Z AUTO VRB02KT 9999 NCD 10/07 Q1026
                        NOSIG=
201805050520 METAR COR EGLL 050520Z AUTO 02002KT 9999 NCD 09/07 Q1026
                        NOSIG=
201805050450 METAR COR EGLL 050450Z AUTO 35001KT 9999 NCD 08/06 Q1026
                        NOSIG=
201805050420 METAR COR EGLL 050420Z AUTO 03001KT 9999 NCD 09/06 Q1025
                        NOSIG=
201805050350 METAR COR EGLL 050350Z AUTO 09002KT 9999 NCD 10/06 Q1025
                        NOSIG=
201805050320 METAR COR EGLL 050320Z AUTO 10002KT 9999 NCD 09/06 Q1025
                        NOSIG=
201805050250 METAR COR EGLL 050250Z AUTO 06002KT 9999 NCD 09/07 Q1025
                        NOSIG=
201805050220 METAR EGLL 050220Z AUTO VRB02KT 9999 NCD 09/06 Q1025=
201805050150 METAR COR EGLL 050150Z AUTO 10001KT 9999 NCD 09/06 Q1025
                        NOSIG=
201805050120 METAR COR EGLL 050120Z AUTO VRB02KT 9999 NCD 11/06 Q1026
                        NOSIG=
201805050050 METAR COR EGLL 050050Z AUTO 04001KT 9999 NCD 11/06 Q1026
                        NOSIG=
201805050020 METAR COR EGLL 050020Z AUTO 07002KT 9999 NCD 11/05 Q1026
                        NOSIG=
201805042350 METAR EGLL 042350Z AUTO VRB02KT 9999 NCD 12/05 Q1026=
201805042320 METAR COR EGLL 042320Z AUTO 20002KT 9999 NCD 12/05 Q1026
                        NOSIG=
201805042250 METAR COR EGLL 042250Z AUTO 17003KT 9999 NCD 12/05 Q1025
                        NOSIG=
201805042220 METAR COR EGLL 042220Z AUTO 18005KT 9999 NCD 13/06 Q1025
                        NOSIG=
201805042150 METAR COR EGLL 042150Z AUTO 17006KT 9999 NCD 14/07 Q1025
                        NOSIG=
201805042120 METAR COR EGLL 042120Z AUTO 15009KT 9999 NCD 14/07 Q1025
                        NOSIG=
201805042050 METAR COR EGLL 042050Z AUTO 15009KT 110V210 9999 FEW043 16/09
                        Q1024 NOSIG=
201805042020 METAR COR EGLL 042020Z AUTO 05004KT 010V080 9999 BKN043 17/10
                        Q1024 NOSIG=
201805041950 METAR COR EGLL 041950Z AUTO 01004KT 330V040 9999 BKN046 17/10
                        Q1024 NOSIG=
201805041920 METAR COR EGLL 041920Z AUTO 36004KT 320V020 9999 NCD 18/10
                        Q1024 NOSIG=
201805041850 METAR COR EGLL 041850Z AUTO 32004KT 290V350 9999 BKN045 18/10
                        Q1024 NOSIG=
201805041820 METAR COR EGLL 041820Z AUTO VRB02KT 9999 BKN047 19/10 Q1023
                        NOSIG=
201805041750 METAR COR EGLL 041750Z AUTO VRB03KT 9999 NCD 19/09 Q1023
                        NOSIG=
201805041720 METAR COR EGLL 041720Z AUTO 32004KT 270V360 9999 SCT044 19/09
                        Q1023 NOSIG=
201805041650 METAR COR EGLL 041650Z AUTO 31005KT 270V030 9999 FEW043 18/09
                        Q1023 NOSIG=
201805041620 METAR COR EGLL 041620Z AUTO VRB03KT 9999 BKN041 19/09 Q1023
                        NOSIG=
201805041550 METAR COR EGLL 041550Z AUTO 29006KT 250V340 9999 BKN043 19/09
                        Q1023 NOSIG=
201805041520 METAR COR EGLL 041520Z AUTO 29007KT 9999 OVC046 18/09 Q1023
                        NOSIG=
201805041450 METAR COR EGLL 041450Z AUTO 32007KT 290V360 9999 OVC046 18/09
                        Q1023 NOSIG=
201805041420 METAR COR EGLL 041420Z AUTO VRB03KT 9999 BKN045 19/09 Q1023
                        NOSIG=
201805041350 METAR COR EGLL 041350Z AUTO 34004KT 300V040 9999 BKN045 19/08
                        Q1023 NOSIG=
201805041320 METAR COR EGLL 041320Z AUTO 26004KT 200V360 9999 BKN043 18/08
                        Q1023 NOSIG=
201805041250 METAR COR EGLL 041250Z AUTO 03004KT 310V070 9999 SCT042 19/09
                        Q1023 NOSIG=
201805041220 METAR COR EGLL 041220Z AUTO 33005KT 270V030 9999 FEW042 18/08
                        Q1023 NOSIG=
201805041150 METAR COR EGLL 041150Z AUTO 17006KT 080V220 9999 FEW039 18/08
                        Q1023 NOSIG=
201805041120 METAR COR EGLL 041120Z AUTO VRB05KT 9999 FEW038 18/08 Q1023
                        NOSIG=
201805041050 METAR COR EGLL 041050Z AUTO 24006KT 190V290 9999 NCD 17/08
                        Q1024 NOSIG=
201805041020 METAR COR EGLL 041020Z AUTO 21006KT 170V270 9999 NCD 16/08
                        Q1024 NOSIG=
201805040950 METAR COR EGLL 040950Z AUTO 26004KT 200V310 9999 NCD 16/08
                        Q1024 NOSIG=
201805040920 METAR COR EGLL 040920Z AUTO VRB04KT 9999 NCD 15/07 Q1024
                        NOSIG=
201805040850 METAR COR EGLL 040850Z AUTO 22004KT 150V290 9999 NCD 14/07
                        Q1023 NOSIG=
201805040820 METAR COR EGLL 040820Z AUTO 23005KT 190V250 9999 NCD 14/07
                        Q1023 NOSIG=
201805040750 METAR COR EGLL 040750Z AUTO VRB03KT 9999 NCD 13/07 Q1023
                        NOSIG=
201805040720 METAR COR EGLL 040720Z AUTO 19004KT 160V260 9999 NCD 12/07
                        Q1023 NOSIG=
201805040650 METAR COR EGLL 040650Z AUTO 18004KT 120V230 9999 NCD 11/07
                        Q1023 NOSIG=
201805040620 METAR COR EGLL 040620Z AUTO 17005KT 140V210 9999 NCD 11/07
                        Q1023 NOSIG=
201805040550 METAR COR EGLL 040550Z AUTO VRB03KT 9999 NCD 10/07 Q1023
                        NOSIG=
201805040520 METAR COR EGLL 040520Z AUTO 17004KT 130V210 9999 NCD 09/07
                        Q1023 NOSIG=
201805040450 METAR COR EGLL 040450Z AUTO VRB03KT 9999 NCD 09/07 Q1022
                        NOSIG=
201805040420 METAR EGLL 040420Z AUTO VRB03KT 9999 NCD 09/06 Q1022=
201805040350 METAR COR EGLL 040350Z AUTO VRB02KT 9999 NCD 10/07 Q1022
                        NOSIG=
201805040320 METAR COR EGLL 040320Z AUTO 26003KT 9999 NCD 10/07 Q1022
                        NOSIG=
201805040250 METAR COR EGLL 040250Z AUTO 20002KT 9999 NCD 10/07 Q1022
                        NOSIG=
201805040220 METAR COR EGLL 040220Z AUTO 21003KT 9999 NCD 11/07 Q1022
                        NOSIG=
201805040150 METAR COR EGLL 040150Z AUTO 21004KT 9999 NCD 11/07 Q1022
                        NOSIG=
201805040120 METAR COR EGLL 040120Z AUTO 20005KT 9999 NCD 11/07 Q1022
                        NOSIG=
201805040050 METAR COR EGLL 040050Z AUTO 21003KT 9999 NCD 11/07 Q1022
                        NOSIG=
201805040020 METAR COR EGLL 040020Z AUTO 21003KT 9999 NCD 11/07 Q1022
                        NOSIG=
201805032350 METAR COR EGLL 032350Z AUTO 20003KT 9999 NCD 11/07 Q1022
                        NOSIG=
201805032320 METAR COR EGLL 032320Z AUTO 21004KT 9999 NCD 11/06 Q1021
                        NOSIG=
201805032250 METAR COR EGLL 032250Z AUTO 23005KT 9999 NCD 12/06 Q1021
                        NOSIG=
201805032220 METAR COR EGLL 032220Z AUTO 22006KT 9999 NCD 12/06 Q1021
                        NOSIG=
201805032150 METAR COR EGLL 032150Z AUTO 23009KT 190V260 9999 NCD 12/06
                        Q1021 NOSIG=
201805032120 METAR COR EGLL 032120Z AUTO 22009KT 9999 NCD 13/06 Q1021
                        NOSIG=
201805032050 METAR COR EGLL 032050Z AUTO 22008KT 180V250 9999 SCT049 13/06
                        Q1021 NOSIG=
201805032020 METAR COR EGLL 032020Z AUTO 26003KT 9999 NCD 13/05 Q1021
                        NOSIG=
201805031950 METAR COR EGLL 031950Z AUTO 29004KT 9999 NCD 14/06 Q1021
                        NOSIG=
201805031920 METAR COR EGLL 031920Z AUTO 27007KT 9999 NCD 15/05 Q1020
                        NOSIG=
201805031850 METAR COR EGLL 031850Z AUTO 27009KT 9999 NCD 15/04 Q1020
                        NOSIG=
201805031820 METAR COR EGLL 031820Z AUTO 28009KT 9999 NCD 15/04 Q1020
                        NOSIG=
201805031750 METAR COR EGLL 031750Z AUTO 27009KT 9999 NCD 15/05 Q1019
                        NOSIG=
201805031720 METAR COR EGLL 031720Z AUTO 27009KT 9999 NCD 16/04 Q1019
                        NOSIG=
201805031650 METAR COR EGLL 031650Z AUTO 28008KT 250V320 9999 NCD 17/05
                        Q1019 NOSIG=
201805031620 METAR COR EGLL 031620Z AUTO 27007KT 230V300 9999 NCD 16/04
                        Q1019 NOSIG=
201805031550 METAR COR EGLL 031550Z AUTO 25008KT 210V300 9999 NCD 17/05
                        Q1019 NOSIG=
201805031520 METAR COR EGLL 031520Z AUTO 26010KT 9999 NCD 16/05 Q1019
                        NOSIG=
201805031450 METAR COR EGLL 031450Z AUTO 27010KT 230V290 9999 NCD 16/04
                        Q1019 NOSIG=
201805031420 METAR COR EGLL 031420Z AUTO 27006KT 200V340 9999 NCD 16/05
                        Q1019 NOSIG=
201805031350 METAR COR EGLL 031350Z AUTO 27009KT 9999 NCD 15/05 Q1019
                        NOSIG=
201805031320 METAR COR EGLL 031320Z AUTO 27008KT 230V310 9999 NCD 15/05
                        Q1020 NOSIG=
201805031250 METAR COR EGLL 031250Z AUTO 19005KT 130V280 9999 NCD 16/04
                        Q1020 NOSIG=
201805031220 METAR COR EGLL 031220Z AUTO 16005KT 110V230 9999 SCT049 15/04
                        Q1020 NOSIG=
201805031150 METAR COR EGLL 031150Z AUTO 23005KT 180V340 9999 FEW048 15/04
                        Q1020 NOSIG=
201805031120 METAR COR EGLL 031120Z AUTO 23006KT 200V280 9999 NCD 14/05
                        Q1020 NOSIG=
201805031050 METAR COR EGLL 031050Z AUTO 25005KT 200V280 9999 NCD 13/06
                        Q1020 NOSIG=
201805031020 METAR COR EGLL 031020Z AUTO 23004KT 160V290 9999 NCD 13/06
                        Q1020 NOSIG=
201805030950 METAR COR EGLL 030950Z AUTO VRB03KT 9999 NCD 13/07 Q1020
                        NOSIG=
201805030920 METAR COR EGLL 030920Z AUTO VRB02KT 9999 NCD 12/06 Q1020
                        NOSIG=
201805030850 METAR COR EGLL 030850Z AUTO VRB03KT 9999 NCD 11/07 Q1019
                        NOSIG=
201805030820 METAR COR EGLL 030820Z AUTO VRB02KT 9999 NCD 09/06 Q1019
                        NOSIG=
201805030750 METAR COR EGLL 030750Z AUTO VRB02KT 9999 NCD 09/06 Q1019
                        NOSIG=
201805030720 METAR COR EGLL 030720Z AUTO 26004KT 230V290 9999 NCD 08/06
                        Q1019 NOSIG=
201805030650 METAR COR EGLL 030650Z AUTO 28005KT 9999 NCD 07/06 Q1019
                        NOSIG=
201805030620 METAR COR EGLL 030620Z AUTO 27004KT 210V300 9999 NCD 06/06
                        Q1019 NOSIG=
201805030550 METAR COR EGLL 030550Z AUTO VRB03KT 9999 NCD 05/04 Q1018
                        NOSIG=
201805030520 METAR COR EGLL 030520Z 22004KT 9999 NSC 04/03 Q1017 NOSIG=
201805030450 METAR COR EGLL 030450Z 20003KT 9000 NSC 04/03 Q1017 NOSIG=
201805030420 METAR COR EGLL 030420Z AUTO 22002KT 9999 NCD 04/04 Q1017
                        NOSIG=
201805030350 METAR COR EGLL 030350Z AUTO VRB02KT 9999 NCD 04/04 Q1016
                        NOSIG=
201805030320 METAR COR EGLL 030320Z AUTO 19003KT 9999 NCD 05/04 Q1016
                        NOSIG=
201805030250 METAR COR EGLL 030250Z AUTO 26002KT 9999 NCD 05/04 Q1016
                        NOSIG=
201805030220 METAR COR EGLL 030220Z AUTO 27004KT 9999 NCD 04/03 Q1016
                        NOSIG=
201805030150 METAR COR EGLL 030150Z AUTO 27005KT 9999 NCD 04/03 Q1016
                        NOSIG=
201805030120 METAR COR EGLL 030120Z AUTO 27006KT 9999 NCD 04/03 Q1015
                        NOSIG=
201805030050 METAR COR EGLL 030050Z AUTO 28006KT 9999 NCD 05/04 Q1015
                        NOSIG=
201805030020 METAR COR EGLL 030020Z AUTO 28007KT 9999 NCD 05/03 Q1015
                        NOSIG=
201805022350 METAR COR EGLL 022350Z AUTO 27005KT 9999 NCD 05/03 Q1014
                        NOSIG=
201805022320 METAR COR EGLL 022320Z AUTO 28005KT 9999 NCD 06/03 Q1014
                        NOSIG=
201805022250 METAR COR EGLL 022250Z AUTO 28006KT 9999 NCD 06/03 Q1014
                        NOSIG=
201805022220 METAR COR EGLL 022220Z AUTO 28007KT 9999 NCD 07/03 Q1013
                        NOSIG=
201805022150 METAR COR EGLL 022150Z AUTO 28007KT 9999 NCD 07/03 Q1013
                        NOSIG=
201805022120 METAR COR EGLL 022120Z AUTO 28007KT 9999 NCD 08/04 Q1013
                        NOSIG=
201805022050 METAR COR EGLL 022050Z AUTO 27006KT 9999 NCD 09/04 Q1012
                        NOSIG=
201805022020 METAR COR EGLL 022020Z AUTO 28004KT 9999 NCD 09/04 Q1012
                        NOSIG=
201805021950 METAR COR EGLL 021950Z AUTO 30004KT 9999 NCD 10/04 Q1012
                        NOSIG=
201805021920 METAR COR EGLL 021920Z 29004KT 9999 FEW040 10/04 Q1011 NOSIG=
201805021850 METAR COR EGLL 021850Z 30007KT 9999 FEW040 11/04 Q1011 NOSIG=
201805021820 METAR COR EGLL 021820Z 29007KT 9999 FEW040 12/04 Q1010 NOSIG=
201805021750 METAR COR EGLL 021750Z AUTO 31009KT 9999 FEW044 12/05 Q1009
                        NOSIG=
201805021720 METAR COR EGLL 021720Z AUTO 30008KT 270V340 9999 FEW034 12/05
                        Q1009 NOSIG=
201805021650 METAR COR EGLL 021650Z AUTO 30011KT 260V320 9999 FEW033 SCT043
                        13/06 Q1008 NOSIG=
201805021620 METAR EGLL 021620Z AUTO 32008KT 280V340 9999 SCT029 BKN034
                        13/06 Q1007=
201805021550 METAR EGLL 021550Z AUTO 30007KT 270V340 9999 -RA //////CB
                        12/07 Q1007=
201805021520 METAR COR EGLL 021520Z AUTO 31009KT 9999 FEW023/// SCT040///
                        //////CB 11/06 Q1006 TEMPO SHRA=
201805021450 METAR COR EGLL 021450Z AUTO 30012KT 280V340 9999 FEW028 13/08
                        Q1005 TEMPO SHRA=
201805021420 METAR COR EGLL 021420Z AUTO 30008KT 270V330 9999 SCT042///
                        BKN049/// //////CB 11/09 Q1005 RESHGR
                        RESHRA RERA NOSIG=
201805021350 METAR COR EGLL 021350Z 29019G31KT 4000 SHRA SCT020 BKN030TCU
                        10/08 Q1005 RERA TEMPO 9999 NSW=
201805021320 METAR COR EGLL 021320Z AUTO 27011KT 9999 FEW028 14/09 Q1003
                        TEMPO SHRA=
201805021250 METAR COR EGLL 021250Z AUTO 25011KT 9999 SCT015 SCT029 13/11
                        Q1003 TEMPO SHRA=
201805021220 METAR COR EGLL 021220Z 22011KT 9999 FEW010 SCT022 12/11 Q1003
                        TEMPO SHRA=
201805021150 METAR COR EGLL 021150Z 21012KT 5000 -RADZ BKN009 BKN018 10/09
                        Q1003 RERA BECMG 9999 NSW SCT020=
201805021120 METAR COR EGLL 021120Z 20015KT 7000 RA BKN009 OVC018 10/09
                        Q1002 BECMG 9999 NSW SCT025=
201805021050 METAR COR EGLL 021050Z 19014KT 7000 -RA BKN009 OVC019 10/09
                        Q1002 TEMPO 4000 RA BKN010=
201805021020 METAR EGLL 021020Z 19015KT 9000 -RA BKN010 OVC016 10/09 Q1002=
201805020950 METAR COR EGLL 020950Z AUTO 19017G28KT 9999 -RA BKN010///
                        BKN016/// OVC025/// //////CB 10/09
                        Q1003 RERA TEMPO 4000 +RA BKN009=
201805020920 METAR COR EGLL 020920Z AUTO 19016KT 5000 -RADZ BKN010 OVC019
                        10/08 Q1003 TEMPO 4000 RA BKN009=
201805020850 METAR COR EGLL 020850Z AUTO 19015KT 9999 -RA BKN011 OVC018
                        10/08 Q1003 TEMPO 4000 RA BKN009=
201805020820 METAR COR EGLL 020820Z AUTO 19016KT 5000 -RADZ BKN011 OVC017
                        09/08 Q1003 TEMPO 4000 RA BKN009=
201805020750 METAR COR EGLL 020750Z AUTO 19014KT 9999 -RA OVC013 09/08
                        Q1003 TEMPO RA BKN009=
201805020720 METAR COR EGLL 020720Z AUTO 19014KT 9999 -RA OVC014 09/07
                        Q1003 TEMPO RA BKN009=
201805020650 METAR COR EGLL 020650Z AUTO 19015KT 9999 -RA OVC016 09/07
                        Q1004 TEMPO RA BKN012=
201805020620 METAR COR EGLL 020620Z AUTO 19016KT 9999 -RA OVC016 09/07
                        Q1004 TEMPO BKN012=
201805020550 METAR COR EGLL 020550Z 19015KT 9999 8000W -RA OVC017 09/07
                        Q1004 TEMPO BKN012=
201805020520 METAR COR EGLL 020520Z AUTO 19015KT 9999 -RA BKN019 09/06
                        Q1004 TEMPO BKN012=
201805020450 METAR COR EGLL 020450Z AUTO 19014KT 9999 BKN020 09/07 Q1004
                        TEMPO BKN012=
201805020420 METAR COR EGLL 020420Z AUTO 19013KT 9999 -RA FEW021 SCT025
                        09/07 Q1004 TEMPO BKN012=
201805020350 METAR COR EGLL 020350Z AUTO 19015KT 9999 -RA SCT023 BKN045
                        09/07 Q1004 NOSIG=
201805020320 METAR COR EGLL 020320Z AUTO 20014KT 9999 -RA FEW027 OVC049
                        09/06 Q1005 NOSIG=
201805020250 METAR COR EGLL 020250Z AUTO 20014KT 9999 NCD 10/06 Q1005
                        NOSIG=
201805020220 METAR COR EGLL 020220Z AUTO 20012KT 9999 NCD 10/06 Q1005
                        NOSIG=
201805020150 METAR COR EGLL 020150Z AUTO 21013KT 9999 NCD 10/06 Q1006
                        NOSIG=
201805020120 METAR COR EGLL 020120Z AUTO 20012KT 9999 NCD 10/06 Q1006
                        NOSIG=
201805020050 METAR COR EGLL 020050Z AUTO 19011KT 9999 NCD 10/05 Q1006
                        NOSIG=
201805020020 METAR COR EGLL 020020Z AUTO 19010KT 9999 NCD 09/05 Q1007
                        NOSIG=
201805012350 METAR COR EGLL 012350Z AUTO 17009KT 9999 NCD 09/04 Q1007
                        NOSIG=
201805012320 METAR COR EGLL 012320Z AUTO 18009KT 9999 SCT049 09/04 Q1007
                        NOSIG=
201805012250 METAR COR EGLL 012250Z AUTO 18010KT 170V240 9999 SCT047 09/04
                        Q1008 NOSIG=
201805012220 METAR COR EGLL 012220Z AUTO 18010KT 170V240 9999 NCD 09/04
                        Q1008 NOSIG=
201805012150 METAR COR EGLL 012150Z AUTO 18011KT 160V230 9999 NCD 09/04
                        Q1008 NOSIG=
201805012120 METAR COR EGLL 012120Z AUTO 18010KT 150V240 9999 NCD 09/04
                        Q1008 NOSIG=
201805012050 METAR COR EGLL 012050Z AUTO 18009KT 150V220 9999 NCD 09/04
                        Q1009 NOSIG=
201805012020 METAR COR EGLL 012020Z AUTO 18011KT 160V240 9999 NCD 09/04
                        Q1009 NOSIG=
201805011950 METAR COR EGLL 011950Z AUTO 19011KT 160V240 9999 NCD 09/04
                        Q1009 NOSIG=
201805011920 METAR COR EGLL 011920Z AUTO 21012KT 9999 NCD 10/04 Q1009
                        NOSIG=
201805011850 METAR COR EGLL 011850Z AUTO 22015G26KT 9999 FEW040 10/04
                        Q1009 NOSIG=
201805011820 METAR COR EGLL 011820Z AUTO 22012KT 9999 NCD 10/05 Q1009
                        NOSIG=
201805011750 METAR COR EGLL 011750Z AUTO 22011KT 9999 NCD 10/05 Q1009
                        NOSIG=
201805011720 METAR COR EGLL 011720Z AUTO 24016KT 9999 -RA SCT039 BKN047
                        09/05 Q1009 NOSIG=
201805011650 METAR COR EGLL 011650Z AUTO 22015G25KT 9999 FEW044 11/04
                        Q1009 TEMPO SHRA=
201805011620 METAR COR EGLL 011620Z AUTO 22017KT 9999 SCT044 12/05 Q1009
                        TEMPO SHRA=
201805011550 METAR EGLL 011550Z AUTO 22009KT 180V260 9999 FEW042 11/08
                        Q1009=
201805011520 METAR COR EGLL 011520Z AUTO 26016KT 9999 -RA FEW023 BKN037
                        BKN045 09/06 Q1010 RESHRA TEMPO SHRA=
201805011450 METAR COR EGLL 011450Z AUTO 22015KT 9999 NCD 13/04 Q1009
                        TEMPO SHRA=
201805011420 METAR COR EGLL 011420Z AUTO 21016G27KT 9999 -RA NCD 12/04
                        Q1010 TEMPO SHRA=
201805011350 METAR COR EGLL 011350Z AUTO 22015KT 9999 NCD 13/04 Q1010
                        TEMPO SHRA=
201805011320 METAR COR EGLL 011320Z AUTO 20014KT 9999 NCD 14/04 Q1010
                        TEMPO SHRA=
201805011250 METAR COR EGLL 011250Z AUTO 23010KT 9999 NCD 14/03 Q1010
                        NOSIG=
201805011220 METAR COR EGLL 011220Z AUTO 24014KT 9999 NCD 14/03 Q1010
                        NOSIG=
201805011150 METAR COR EGLL 011150Z AUTO 23010KT 190V250 9999 NCD 13/01
                        Q1010 NOSIG=
201805011120 METAR COR EGLL 011120Z AUTO 24011KT 9999 NCD 13/01 Q1010
                        NOSIG=
201805011050 METAR COR EGLL 011050Z AUTO 22010KT 180V250 9999 FEW044 13/04
                        Q1010 NOSIG=
201805011020 METAR COR EGLL 011020Z AUTO 26008KT 200V290 9999 FEW041 12/03
                        Q1010 NOSIG=
201805010950 METAR COR EGLL 010950Z AUTO 25007KT 210V310 9999 NCD 11/03
                        Q1010 NOSIG=
201805010920 METAR COR EGLL 010920Z AUTO 23006KT 190V280 9999 NCD 11/02
                        Q1011 NOSIG=
201805010850 METAR COR EGLL 010850Z AUTO 24007KT 190V280 9999 NCD 10/01
                        Q1011 NOSIG=
201805010820 METAR COR EGLL 010820Z AUTO 24005KT 190V290 9999 NCD 09/02
                        Q1011 NOSIG=
201805010750 METAR COR EGLL 010750Z AUTO 24007KT 9999 NCD 08/02 Q1011
                        NOSIG=
201805010720 METAR COR EGLL 010720Z AUTO 27007KT 9999 NCD 07/02 Q1011
                        NOSIG=
201805010650 METAR COR EGLL 010650Z AUTO 26006KT 230V300 9999 NCD 05/01
                        Q1010 NOSIG=
201805010620 METAR COR EGLL 010620Z AUTO 24007KT 9999 NCD 04/01 Q1010
                        NOSIG=
201805010550 METAR COR EGLL 010550Z AUTO 26007KT 9999 NCD 02/00 Q1010
                        NOSIG=
201805010520 METAR COR EGLL 010520Z AUTO 25007KT 9999 NCD 02/M00 Q1010
                        NOSIG=
201805010450 METAR COR EGLL 010450Z AUTO 26005KT 9999 NCD 02/M00 Q1010
                        NOSIG=
201805010420 METAR COR EGLL 010420Z AUTO 26006KT 9999 NCD 02/M00 Q1010
                        NOSIG=
201805010350 METAR COR EGLL 010350Z AUTO 27007KT 9999 NCD 02/00 Q1009
                        NOSIG=
201805010320 METAR COR EGLL 010320Z AUTO 27007KT 9999 NCD 02/00 Q1009
                        NOSIG=
201805010250 METAR COR EGLL 010250Z AUTO 28007KT 9999 NCD 02/00 Q1009
                        NOSIG=
201805010220 METAR COR EGLL 010220Z AUTO 27007KT 9999 NCD 02/01 Q1009
                        NOSIG=
201805010150 METAR COR EGLL 010150Z AUTO 27007KT 9999 NCD 03/01 Q1009
                        NOSIG=
201805010120 METAR COR EGLL 010120Z AUTO 27007KT 9999 NCD 04/02 Q1009
                        NOSIG=
201805010050 METAR COR EGLL 010050Z AUTO 27007KT 9999 NCD 04/02 Q1009
                        NOSIG=
201805010020 METAR COR EGLL 010020Z AUTO 27007KT 9999 NCD 04/01 Q1009
                        NOSIG=

</pre>

</body>
</html>
