##########################################################
# Query made at 12/27/2012 10:38:54 UTC
# Time interval: from 05/01/2009 00:00  to 05/31/2009 23:59  UTC
##########################################################

##########################################################
# EGLL, London / Heathrow Airport (United Kingdom)
# WMO index: 03772
# Latitude 51-29N. Longitude 000-27W. Altitude 24 m.
##########################################################

###################################
#  METAR/SPECI from EGLL
###################################
200905312350 METAR COR EGLL 312350Z 04006KT CAVOK 16/11 Q1026 NOSIG=
200905312320 METAR COR EGLL 312320Z 04006KT 010V070 CAVOK 17/11 Q1026
                        NOSIG=
200905312250 METAR COR EGLL 312250Z 04005KT 010V080 CAVOK 17/12 Q1026
                        NOSIG=
200905312220 METAR EGLL 312220Z 04006KT CAVOK 18/12 Q1026=
200905312150 METAR COR EGLL 312150Z 04007KT 360V070 CAVOK 19/11 Q1026
                        NOSIG=
200905312120 METAR COR EGLL 312120Z 05007KT 010V080 CAVOK 19/11 Q1025
                        NOSIG=
200905312050 METAR COR EGLL 312050Z 05006KT CAVOK 20/11 Q1025 NOSIG=
200905312020 METAR COR EGLL 312020Z 06010KT 9999 FEW041 20/11 Q1025 NOSIG=
200905311950 METAR EGLL 311950Z 06010KT 9999 FEW045 21/11 Q1025=
200905311920 METAR COR EGLL 311920Z 05008KT 010V080 CAVOK 21/10 Q1025
                        NOSIG=
200905311850 METAR EGLL 311850Z 05009KT CAVOK 22/10 Q1024=
200905311820 METAR COR EGLL 311820Z 06009KT 030V090 CAVOK 22/09 Q1024
                        NOSIG=
200905311750 METAR COR EGLL 311750Z 06011KT 030V090 CAVOK 23/09 Q1024
                        NOSIG=
200905311720 METAR COR EGLL 311720Z 06011KT CAVOK 24/09 Q1024 NOSIG=
200905311650 METAR COR EGLL 311650Z 07012KT CAVOK 24/09 Q1024 NOSIG=
200905311620 METAR COR EGLL 311620Z 06013KT CAVOK 24/09 Q1024 NOSIG=
200905311550 METAR COR EGLL 311550Z 06011KT CAVOK 25/09 Q1024 NOSIG=
200905311520 METAR COR EGLL 311520Z 07011KT 030V100 CAVOK 25/09 Q1024
                        NOSIG=
200905311450 METAR COR EGLL 311450Z 05010KT 010V090 CAVOK 26/10 Q1024
                        NOSIG=
200905311420 METAR COR EGLL 311420Z 06010KT 020V100 CAVOK 26/11 Q1024
                        NOSIG=
200905311350 METAR COR EGLL 311350Z 05011KT 010V080 9999 FEW049 24/11
                        Q1024 NOSIG=
200905311320 METAR COR EGLL 311320Z 04009KT 360V080 9999 SCT044 24/12
                        Q1024 NOSIG=
200905311250 METAR COR EGLL 311250Z 05010KT 010V080 9999 SCT042 24/12
                        Q1025 NOSIG=
200905311220 METAR COR EGLL 311220Z 03008KT 330V080 9999 FEW045 24/12
                        Q1025 NOSIG=
200905311150 METAR COR EGLL 311150Z 02009KT 340V060 9999 FEW041 23/12
                        Q1025 NOSIG=
200905311120 METAR COR EGLL 311120Z 04008KT 360V070 9999 FEW041 23/11
                        Q1025 NOSIG=
200905311050 METAR COR EGLL 311050Z 01007KT 310V070 9999 FEW045 22/11
                        Q1025 NOSIG=
200905311020 METAR COR EGLL 311020Z 04009KT 350V080 9999 FEW045 22/11
                        Q1025 NOSIG=
200905310950 METAR COR EGLL 310950Z 05008KT 350V090 CAVOK 21/11 Q1026
                        NOSIG=
200905310920 METAR COR EGLL 310920Z 03006KT CAVOK 20/11 Q1026 NOSIG=
200905310850 METAR COR EGLL 310850Z 03006KT 340V090 CAVOK 19/11 Q1026
                        NOSIG=
200905310820 METAR COR EGLL 310820Z 03005KT 340V080 CAVOK 18/11 Q1026
                        NOSIG=
200905310750 METAR COR EGLL 310750Z 03005KT 350V070 CAVOK 17/11 Q1026
                        NOSIG=
200905310720 METAR COR EGLL 310720Z 03005KT 360V070 CAVOK 16/11 Q1026
                        NOSIG=
200905310650 METAR COR EGLL 310650Z 02005KT 310V070 CAVOK 14/10 Q1026
                        NOSIG=
200905310620 METAR EGLL 310620Z 02006KT CAVOK 14/10 Q1026=
200905310550 METAR COR EGLL 310550Z 02006KT CAVOK 13/10 Q1026 NOSIG=
200905310520 METAR COR EGLL 310520Z 03006KT 360V060 CAVOK 12/09 Q1026
                        NOSIG=
200905310450 METAR COR EGLL 310450Z 01004KT 310V070 CAVOK 11/09 Q1026
                        NOSIG=
200905310420 METAR COR EGLL 310420Z 01004KT 330V070 CAVOK 11/09 Q1026
                        NOSIG=
200905310350 METAR COR EGLL 310350Z 03004KT 350V060 CAVOK 11/09 Q1026
                        NOSIG=
200905310320 METAR COR EGLL 310320Z 02004KT 340V050 CAVOK 11/09 Q1026
                        NOSIG=
200905310250 METAR COR EGLL 310250Z 03004KT CAVOK 12/09 Q1026 NOSIG=
200905310220 METAR COR EGLL 310220Z 36004KT 340V050 CAVOK 12/09 Q1026
                        NOSIG=
200905310150 METAR COR EGLL 310150Z 03005KT 350V060 CAVOK 12/10 Q1026
                        NOSIG=
200905310120 METAR COR EGLL 310120Z 03005KT CAVOK 12/10 Q1026 NOSIG=
200905310050 METAR COR EGLL 310050Z 03005KT CAVOK 13/09 Q1026 NOSIG=
200905310020 METAR COR EGLL 310020Z 04005KT CAVOK 13/09 Q1026 NOSIG=
200905302350 METAR COR EGLL 302350Z 03006KT CAVOK 13/09 Q1026 NOSIG=
200905302320 METAR COR EGLL 302320Z 02004KT 330V060 CAVOK 14/09 Q1026
                        NOSIG=
200905302250 METAR COR EGLL 302250Z 03005KT 360V070 CAVOK 15/09 Q1026
                        NOSIG=
200905302220 METAR COR EGLL 302220Z 04005KT 360V070 CAVOK 16/08 Q1026
                        NOSIG=
200905302150 METAR COR EGLL 302150Z 05007KT CAVOK 16/08 Q1026 NOSIG=
200905302120 METAR COR EGLL 302120Z 05006KT CAVOK 16/08 Q1026 NOSIG=
200905302050 METAR COR EGLL 302050Z 06007KT CAVOK 16/08 Q1026 NOSIG=
200905302020 METAR COR EGLL 302020Z 07008KT CAVOK 17/07 Q1026 NOSIG=
200905301950 METAR COR EGLL 301950Z 07009KT CAVOK 17/08 Q1025 NOSIG=
200905301920 METAR COR EGLL 301920Z 08010KT CAVOK 17/07 Q1025 NOSIG=
200905301850 METAR COR EGLL 301850Z 07010KT CAVOK 19/04 Q1025 NOSIG=
200905301820 METAR COR EGLL 301820Z 07010KT CAVOK 19/05 Q1025 NOSIG=
200905301750 METAR COR EGLL 301750Z 08012KT CAVOK 20/04 Q1025 NOSIG=
200905301720 METAR COR EGLL 301720Z 09013KT CAVOK 20/04 Q1025 NOSIG=
200905301650 METAR COR EGLL 301650Z 07010KT CAVOK 21/06 Q1025 NOSIG=
200905301620 METAR COR EGLL 301620Z 09012KT CAVOK 21/05 Q1025 NOSIG=
200905301550 METAR COR EGLL 301550Z 06010KT CAVOK 22/04 Q1025 NOSIG=
200905301520 METAR COR EGLL 301520Z 09012KT CAVOK 22/03 Q1025 NOSIG=
200905301450 METAR COR EGLL 301450Z 08012KT 040V120 CAVOK 22/03 Q1025
                        NOSIG=
200905301420 METAR COR EGLL 301420Z 10012KT CAVOK 23/05 Q1025 NOSIG=
200905301350 METAR COR EGLL 301350Z 09012KT CAVOK 23/05 Q1025 NOSIG=
200905301320 METAR COR EGLL 301320Z 10012KT CAVOK 22/06 Q1025 NOSIG=
200905301250 METAR COR EGLL 301250Z 10013KT CAVOK 23/06 Q1025 NOSIG=
200905301220 METAR COR EGLL 301220Z 10013KT CAVOK 23/06 Q1025 NOSIG=
200905301150 METAR COR EGLL 301150Z 09013KT CAVOK 22/06 Q1025 NOSIG=
200905301120 METAR COR EGLL 301120Z 08013KT CAVOK 23/06 Q1026 NOSIG=
200905301050 METAR COR EGLL 301050Z 08011KT 040V110 CAVOK 22/07 Q1026
                        NOSIG=
200905301020 METAR COR EGLL 301020Z 09012KT 050V120 CAVOK 22/07 Q1026
                        NOSIG=
200905300950 METAR COR EGLL 300950Z 07010KT 040V110 9999 FEW048 21/08
                        Q1026 NOSIG=
200905300920 METAR COR EGLL 300920Z 09009KT 060V120 9999 FEW044 21/09
                        Q1026 NOSIG=
200905300850 METAR COR EGLL 300850Z 10010KT CAVOK 20/09 Q1027 NOSIG=
200905300820 METAR COR EGLL 300820Z 08007KT 030V120 CAVOK 19/10 Q1027
                        NOSIG=
200905300750 METAR COR EGLL 300750Z 08009KT CAVOK 18/10 Q1027 NOSIG=
200905300720 METAR COR EGLL 300720Z 09008KT CAVOK 17/11 Q1027 NOSIG=
200905300650 METAR COR EGLL 300650Z 08008KT CAVOK 16/11 Q1027 NOSIG=
200905300620 METAR COR EGLL 300620Z 07006KT 040V120 CAVOK 15/11 Q1027
                        NOSIG=
200905300550 METAR COR EGLL 300550Z 05004KT CAVOK 14/10 Q1027 NOSIG=
200905300520 METAR COR EGLL 300520Z 05004KT 020V090 CAVOK 13/10 Q1027
                        NOSIG=
200905300450 METAR COR EGLL 300450Z 05004KT CAVOK 12/10 Q1027 NOSIG=
200905300420 METAR COR EGLL 300420Z 06007KT CAVOK 11/10 Q1027 NOSIG=
200905300350 METAR COR EGLL 300350Z 06008KT CAVOK 11/10 Q1027 NOSIG=
200905300320 METAR COR EGLL 300320Z 06006KT CAVOK 11/09 Q1027 NOSIG=
200905300250 METAR COR EGLL 300250Z 06006KT CAVOK 11/09 Q1027 NOSIG=
200905300220 METAR COR EGLL 300220Z 06008KT CAVOK 11/09 Q1027 NOSIG=
200905300150 METAR COR EGLL 300150Z 07007KT CAVOK 12/09 Q1027 NOSIG=
200905300120 METAR COR EGLL 300120Z 06007KT CAVOK 12/08 Q1027 NOSIG=
200905300050 METAR COR EGLL 300050Z 07006KT CAVOK 12/09 Q1028 NOSIG=
200905300020 METAR COR EGLL 300020Z 07008KT CAVOK 13/08 Q1028 NOSIG=
200905292350 METAR COR EGLL 292350Z 07006KT 040V110 CAVOK 13/08 Q1028
                        NOSIG=
200905292320 METAR COR EGLL 292320Z 07009KT CAVOK 13/07 Q1028 NOSIG=
200905292250 METAR COR EGLL 292250Z 07009KT CAVOK 14/06 Q1028 NOSIG=
200905292220 METAR COR EGLL 292220Z 07008KT CAVOK 14/06 Q1028 NOSIG=
200905292150 METAR COR EGLL 292150Z 08009KT CAVOK 15/07 Q1028 NOSIG=
200905292120 METAR COR EGLL 292120Z 08010KT CAVOK 15/07 Q1028 NOSIG=
200905292050 METAR COR EGLL 292050Z 09009KT CAVOK 15/07 Q1028 NOSIG=
200905292020 METAR COR EGLL 292020Z 09010KT CAVOK 16/04 Q1028 NOSIG=
200905291950 METAR COR EGLL 291950Z 09010KT CAVOK 17/03 Q1028 NOSIG=
200905291920 METAR COR EGLL 291920Z 10012KT CAVOK 17/01 Q1028 NOSIG=
200905291850 METAR COR EGLL 291850Z 10012KT CAVOK 19/03 Q1028 NOSIG=
200905291820 METAR COR EGLL 291820Z 10013KT CAVOK 19/05 Q1028 NOSIG=
200905291750 METAR COR EGLL 291750Z 09013KT 9999 FEW048 20/08 Q1028 NOSIG=
200905291720 METAR COR EGLL 291720Z 10014KT 9999 FEW048 21/09 Q1028 NOSIG=
200905291650 METAR COR EGLL 291650Z 08013KT 9999 FEW044 21/10 Q1029 NOSIG=
200905291620 METAR COR EGLL 291620Z 10012KT 060V120 9999 FEW044 22/11
                        Q1029 NOSIG=
200905291550 METAR COR EGLL 291550Z 10012KT 9999 FEW044 22/11 Q1029 NOSIG=
200905291520 METAR COR EGLL 291520Z 10014KT 9999 FEW044 22/11 Q1030 NOSIG=
200905291450 METAR COR EGLL 291450Z 09014KT 9999 FEW044 22/12 Q1030 NOSIG=
200905291420 METAR COR EGLL 291420Z 09015KT 9999 FEW042 23/11 Q1030 NOSIG=
200905291350 METAR COR EGLL 291350Z 09014KT 9999 FEW042 23/12 Q1030 NOSIG=
200905291320 METAR COR EGLL 291320Z 10014KT 9999 FEW047 24/12 Q1030 NOSIG=
200905291250 METAR COR EGLL 291250Z 08012KT 9999 FEW047 24/12 Q1030 NOSIG=
200905291220 METAR COR EGLL 291220Z 09013KT 050V120 9999 SCT043 24/13
                        Q1031 NOSIG=
200905291150 METAR COR EGLL 291150Z 09011KT 9999 SCT042 24/12 Q1031 NOSIG=
200905291120 METAR COR EGLL 291120Z 08011KT 9999 SCT040 24/13 Q1031 NOSIG=
200905291050 METAR COR EGLL 291050Z 10010KT 070V140 9999 SCT040 23/13
                        Q1031 NOSIG=
200905291020 METAR COR EGLL 291020Z 09007KT 030V120 9999 FEW032 SCT040
                        23/13 Q1031 NOSIG=
200905290950 METAR COR EGLL 290950Z 10011KT 9999 SCT032 23/14 Q1032 NOSIG=
200905290920 METAR COR EGLL 290920Z 09011KT 060V120 9999 SCT031 22/14
                        Q1032 NOSIG=
200905290850 METAR COR EGLL 290850Z 10010KT 9999 SCT029 23/14 Q1032 NOSIG=
200905290820 METAR COR EGLL 290820Z 09007KT 050V120 9999 FEW028 22/14
                        Q1032 NOSIG=
200905290750 METAR COR EGLL 290750Z 08005KT 040V110 CAVOK 20/14 Q1032
                        NOSIG=
200905290720 METAR COR EGLL 290720Z VRB03KT 9000 NSC 19/15 Q1032 NOSIG=
200905290650 METAR COR EGLL 290650Z 10004KT 9000 NSC 18/15 Q1032 NOSIG=
200905290620 METAR COR EGLL 290620Z VRB02KT 9000 NSC 17/15 Q1032 NOSIG=
200905290550 METAR COR EGLL 290550Z VRB02KT 9000 NSC 16/15 Q1032 NOSIG=
200905290520 METAR COR EGLL 290520Z 00000KT 9999 2200SW VCFG NSC 14/13
                        Q1032 NOSIG=
200905290450 METAR COR EGLL 290450Z 00000KT 9999 1400S R09L/P1500 PRFG
                        NSC 13/13 Q1032 NOSIG=
200905290420 METAR COR EGLL 290420Z 00000KT 9999 2000S VCFG NSC 13/12
                        Q1032 NOSIG=
200905290350 METAR COR EGLL 290350Z 00000KT 9999 VCFG NSC 13/12 Q1032
                        NOSIG=
200905290320 METAR COR EGLL 290320Z 00000KT CAVOK 13/12 Q1032 NOSIG=
200905290250 METAR COR EGLL 290250Z 00000KT CAVOK 13/12 Q1032 NOSIG=
200905290220 METAR COR EGLL 290220Z 00000KT CAVOK 13/12 Q1032 NOSIG=
200905290150 METAR COR EGLL 290150Z 02002KT 9999 FEW042 14/13 Q1032 NOSIG=
200905290120 METAR COR EGLL 290120Z VRB02KT 9999 FEW046 14/14 Q1032 NOSIG=
200905290050 METAR COR EGLL 290050Z 00000KT 9999 FEW044 15/14 Q1032 NOSIG=
200905290020 METAR COR EGLL 290020Z 03002KT 9999 FEW044 15/14 Q1032 NOSIG=
200905282350 METAR COR EGLL 282350Z 00000KT 9000 FEW040 15/14 Q1032 NOSIG=
200905282320 METAR COR EGLL 282320Z 00000KT 9000 NSC 16/14 Q1032 NOSIG=
200905282250 METAR COR EGLL 282250Z VRB02KT 9999 FEW040 16/14 Q1032 NOSIG=
200905282220 METAR COR EGLL 282220Z 00000KT 9999 FEW042 18/15 Q1032 NOSIG=
200905282150 METAR COR EGLL 282150Z 21005KT 180V260 9999 FEW042 18/15
                        Q1032 NOSIG=
200905282120 METAR COR EGLL 282120Z VRB02KT 9999 FEW040 19/14 Q1031 NOSIG=
200905282050 METAR COR EGLL 282050Z 01002KT 9999 FEW044 19/14 Q1031 NOSIG=
200905282020 METAR COR EGLL 282020Z 35003KT 9999 FEW042 20/13 Q1031 NOSIG=
200905281950 METAR COR EGLL 281950Z 35003KT 9999 SCT034 21/13 Q1031 NOSIG=
200905281920 METAR COR EGLL 281920Z VRB03KT 9999 SCT044 21/13 Q1031 NOSIG=
200905281850 METAR COR EGLL 281850Z 35003KT 9999 SCT044 21/13 Q1031 NOSIG=
200905281820 METAR COR EGLL 281820Z VRB03KT 9999 SCT041 22/13 Q1031 NOSIG=
200905281750 METAR COR EGLL 281750Z VRB03KT 9999 SCT036 BKN041 21/13 Q1031
                        NOSIG=
200905281720 METAR COR EGLL 281720Z VRB03KT 9999 SCT036 SCT049 22/13 Q1031
                        NOSIG=
200905281650 METAR COR EGLL 281650Z VRB02KT 9999 SCT035 SCT047 22/13 Q1031
                        NOSIG=
200905281620 METAR COR EGLL 281620Z VRB03KT 9999 SCT034 BKN042 22/13 Q1031
                        NOSIG=
200905281550 METAR COR EGLL 281550Z 27004KT 170V320 9999 SCT035 BKN041
                        22/13 Q1031 NOSIG=
200905281520 METAR COR EGLL 281520Z 31005KT 250V020 9999 BKN034 BKN039
                        22/13 Q1031 NOSIG=
200905281450 METAR COR EGLL 281450Z 30005KT 240V330 9999 OVC035 21/13
                        Q1031 NOSIG=
200905281420 METAR COR EGLL 281420Z 30004KT 250V010 9999 SCT032 BKN039
                        21/13 Q1031 NOSIG=
200905281350 METAR COR EGLL 281350Z 31004KT 270V350 9999 SCT029 BKN038
                        21/13 Q1031 NOSIG=
200905281320 METAR EGLL 281320Z 31004KT 260V350 9999 SCT032 BKN038 21/13
                        Q1031=
200905281250 METAR COR EGLL 281250Z 27006KT 210V320 9999 SCT028 BKN033
                        21/13 Q1031 NOSIG=
200905281220 METAR EGLL 281220Z 29007KT 250V330 9999 SCT027 BKN034 20/13
                        Q1031=
200905281150 METAR COR EGLL 281150Z 26008KT 220V310 9999 SCT027 BKN032
                        21/13 Q1031 NOSIG=
200905281120 METAR COR EGLL 281120Z 26006KT 220V290 9999 BKN026 20/13
                        Q1031 NOSIG=
200905281050 METAR COR EGLL 281050Z 27007KT 230V310 9999 SCT023 BKN030
                        20/13 Q1030 NOSIG=
200905281020 METAR COR EGLL 281020Z 28006KT 9999 SCT024 BKN028 19/13 Q1030
                        NOSIG=
200905280950 METAR COR EGLL 280950Z 28005KT 230V320 9999 SCT021 BKN026
                        18/13 Q1030 NOSIG=
200905280920 METAR COR EGLL 280920Z 30005KT 250V330 9999 BKN020 19/13
                        Q1029 NOSIG=
200905280850 METAR EGLL 280850Z 29009KT 9999 SCT020 SCT026 18/12 Q1029=
200905280820 METAR COR EGLL 280820Z 29006KT 250V330 9999 BKN018 17/13
                        Q1029 NOSIG=
200905280750 METAR COR EGLL 280750Z 29007KT 9999 BKN017 17/13 Q1029 NOSIG=
200905280720 METAR COR EGLL 280720Z 28007KT 9999 BKN021 16/13 Q1028 NOSIG=
200905280650 METAR COR EGLL 280650Z 28008KT 9999 BKN020 16/13 Q1028 NOSIG=
200905280620 METAR COR EGLL 280620Z 27009KT 9999 BKN020 15/12 Q1028 TEMPO
                        BKN014=
200905280550 METAR COR EGLL 280550Z 26009KT 9999 BKN021 15/12 Q1027 TEMPO
                        BKN012=
200905280520 METAR COR EGLL 280520Z 27008KT 9999 FEW018 BKN021 14/12 Q1027
                        TEMPO BKN012=
200905280450 METAR COR EGLL 280450Z 26007KT 9999 BKN021 14/12 Q1026 TEMPO
                        BKN012=
200905280420 METAR COR EGLL 280420Z 27007KT 9999 BKN024 14/12 Q1026 NOSIG=
200905280350 METAR COR EGLL 280350Z 27004KT 9999 FEW023 BKN026 14/12 Q1026
                        NOSIG=
200905280320 METAR COR EGLL 280320Z 27009KT 9999 BKN024 14/12 Q1026 NOSIG=
200905280250 METAR COR EGLL 280250Z 25009KT 9999 FEW027 14/12 Q1025 NOSIG=
200905280220 METAR COR EGLL 280220Z 26006KT CAVOK 14/12 Q1025 NOSIG=
200905280150 METAR COR EGLL 280150Z 26008KT 9999 FEW034 14/12 Q1025 NOSIG=
200905280120 METAR COR EGLL 280120Z 26008KT 9999 FEW012 BKN034 15/12 Q1025
                        TEMPO BKN012=
200905280050 METAR COR EGLL 280050Z 26008KT 9999 SCT012 BKN030 15/13 Q1025
                        TEMPO BKN012=
200905280020 METAR COR EGLL 280020Z 26007KT 9999 BKN011 BKN032 15/13 Q1025
                        NOSIG=
200905272350 METAR COR EGLL 272350Z 27007KT 9999 BKN012 15/13 Q1024 NOSIG=
200905272320 METAR COR EGLL 272320Z 27009KT 9999 BKN010 BKN034 15/13 Q1024
                        NOSIG=
200905272250 METAR COR EGLL 272250Z 27010KT 9999 SCT010 BKN034 15/13 Q1024
                        TEMPO BKN012=
200905272220 METAR COR EGLL 272220Z 27011KT 9999 SCT011 BKN036 15/12 Q1023
                        TEMPO BKN012=
200905272150 METAR COR EGLL 272150Z 27011KT 9999 SCT011 SCT035 15/12 Q1023
                        TEMPO BKN012=
200905272120 METAR COR EGLL 272120Z 27011KT 9999 BKN012 BKN041 15/13 Q1023
                        TEMPO BKN017=
200905272050 METAR COR EGLL 272050Z 26012KT 9999 SCT012 SCT034 15/13 Q1022
                        TEMPO BKN012=
200905272020 METAR COR EGLL 272020Z 26012KT 9999 BKN013 15/12 Q1022 TEMPO
                        BKN017=
200905271950 METAR COR EGLL 271950Z 27012KT 9999 SCT017 16/13 Q1021 TEMPO
                        BKN012=
200905271920 METAR COR EGLL 271920Z 26013KT 9999 SCT017 16/13 Q1021 TEMPO
                        BKN012=
200905271850 METAR COR EGLL 271850Z 26015KT 9999 BKN017 16/13 Q1021 TEMPO
                        BKN012=
200905271820 METAR COR EGLL 271820Z 26016KT 9999 BKN019 16/13 Q1020 NOSIG=
200905271750 METAR COR EGLL 271750Z 27019KT 9999 SCT016 SCT030 16/13 Q1020
                        NOSIG=
200905271720 METAR COR EGLL 271720Z 27018KT 9999 BKN015 16/13 Q1020 NOSIG=
200905271650 METAR COR EGLL 271650Z 27015KT 9999 BKN015 BKN019 16/13 Q1020
                        NOSIG=
200905271620 METAR COR EGLL 271620Z 25014KT 9999 SCT014 BKN021 16/13 Q1019
                        TEMPO BKN012=
200905271550 METAR COR EGLL 271550Z 23012KT 9999 SCT011 BKN016 15/12 Q1019
                        TEMPO BKN011=
200905271520 METAR COR EGLL 271520Z 22013KT 9999 SCT010 BKN013 14/12 Q1019
                        NOSIG=
200905271450 METAR COR EGLL 271450Z 23015KT 9999 SCT009 BKN011 14/11 Q1019
                        TEMPO 23015G25KT=
200905271420 METAR COR EGLL 271420Z 22016KT 9999 BKN010 13/11 Q1020 TEMPO
                        22016G26KT=
200905271350 METAR COR EGLL 271350Z 22015G25KT 9999 FEW010 BKN011 13/10
                        Q1020 TEMPO 22015KT=
200905271320 METAR COR EGLL 271320Z 21014KT 9999 BKN011 13/10 Q1020 NOSIG=
200905271250 METAR COR EGLL 271250Z 22018KT 9999 -RA SCT012 BKN017 13/10
                        Q1021 TEMPO 22018G28KT RADZ BKN012=
200905271220 METAR COR EGLL 271220Z 21016G26KT 9999 -RA FEW011 BKN014
                        12/10 Q1021 TEMPO 21015KT RADZ BKN015=
200905271150 METAR COR EGLL 271150Z 21015KT 9999 -RA BKN016 12/09 Q1021
                        TEMPO RA BKN012=
200905271120 METAR COR EGLL 271120Z 21014KT 9999 -RA FEW015 SCT020 BKN044
                        12/09 Q1021 TEMPO RA BKN012=
200905271050 METAR COR EGLL 271050Z 22016G29KT 9999 -RA FEW016 SCT023
                        BKN046 12/09 Q1022 TEMPO RA BKN012=
200905271020 METAR COR EGLL 271020Z 21015KT 9999 -RA FEW016 SCT022 12/10
                        Q1022 TEMPO RA BKN012=
200905270950 METAR COR EGLL 270950Z 21013KT 9999 -RA FEW012 SCT021 BKN040
                        12/10 Q1022 TEMPO RA BKN012=
200905270920 METAR COR EGLL 270920Z 20012KT 8000 -RA SCT033 BKN040 12/10
                        Q1023 TEMPO 4500 RA BKN012=
200905270850 METAR COR EGLL 270850Z 21009KT 9999 -RA FEW033 BKN042 11/09
                        Q1023 TEMPO RA BKN012=
200905270820 METAR COR EGLL 270820Z 22012KT 9999 -RA FEW038 BKN048 11/09
                        Q1023 TEMPO RA BKN012=
200905270750 METAR COR EGLL 270750Z 23012KT 9999 -RA FEW037 BKN041 11/08
                        Q1023 TEMPO RA BKN012=
200905270720 METAR COR EGLL 270720Z 24013KT 9999 -RA FEW043 12/08 Q1023
                        BECMG RA BKN012=
200905270650 METAR COR EGLL 270650Z 23013KT 9999 FEW020 12/07 Q1023 NOSIG=
200905270620 METAR COR EGLL 270620Z 23013KT CAVOK 11/07 Q1023 NOSIG=
200905270550 METAR COR EGLL 270550Z 24012KT CAVOK 11/07 Q1023 NOSIG=
200905270520 METAR COR EGLL 270520Z 24011KT CAVOK 10/07 Q1023 NOSIG=
200905270450 METAR COR EGLL 270450Z 24011KT CAVOK 10/07 Q1023 NOSIG=
200905270420 METAR COR EGLL 270420Z 24010KT CAVOK 10/07 Q1023 NOSIG=
200905270350 METAR COR EGLL 270350Z 24009KT CAVOK 09/06 Q1023 NOSIG=
200905270320 METAR COR EGLL 270320Z 23007KT 200V260 CAVOK 09/06 Q1023
                        NOSIG=
200905270250 METAR COR EGLL 270250Z 24007KT CAVOK 09/06 Q1023 NOSIG=
200905270220 METAR COR EGLL 270220Z 23006KT CAVOK 09/06 Q1023 NOSIG=
200905270150 METAR COR EGLL 270150Z 25007KT CAVOK 09/06 Q1024 NOSIG=
200905270120 METAR EGLL 270120Z AUTO 25008KT 9999NDV NCD 09/06 Q1024=
200905270050 METAR EGLL 270050Z AUTO 27008KT 9999NDV NCD 10/07 Q1023=
200905270020 METAR EGLL 270020Z AUTO 27009KT 9999NDV NCD 09/07 Q1023=
200905262350 METAR COR EGLL 262350Z 26009KT CAVOK 10/07 Q1023 NOSIG=
200905262320 METAR COR EGLL 262320Z 27010KT CAVOK 10/07 Q1023 NOSIG=
200905262250 METAR COR EGLL 262250Z 27011KT CAVOK 11/06 Q1023 NOSIG=
200905262220 METAR COR EGLL 262220Z 26011KT CAVOK 11/06 Q1023 NOSIG=
200905262150 METAR COR EGLL 262150Z 26012KT CAVOK 11/06 Q1022 NOSIG=
200905262120 METAR COR EGLL 262120Z 27012KT CAVOK 12/06 Q1022 NOSIG=
200905262050 METAR COR EGLL 262050Z 27013KT CAVOK 12/06 Q1022 NOSIG=
200905262020 METAR COR EGLL 262020Z 27013KT CAVOK 12/06 Q1021 NOSIG=
200905261950 METAR COR EGLL 261950Z 27015KT 9999 FEW042 13/06 Q1021 NOSIG=
200905261920 METAR COR EGLL 261920Z 27015KT 9999 FEW045 14/06 Q1020 NOSIG=
200905261850 METAR COR EGLL 261850Z 28014KT 9999 FEW044 14/06 Q1020 NOSIG=
200905261820 METAR COR EGLL 261820Z 27015KT 9999 FEW043 15/06 Q1019 NOSIG=
200905261750 METAR COR EGLL 261750Z 27014KT 9999 FEW043 15/06 Q1019 NOSIG=
200905261720 METAR COR EGLL 261720Z 27010KT 9999 FEW048CB 14/07 Q1019
                        TEMPO SHRA=
200905261650 METAR COR EGLL 261650Z 28014KT 9999 VCSH SCT048CB 16/05 Q1018
                        TEMPO SHRA=
200905261620 METAR COR EGLL 261620Z 28013KT 9999 -RA FEW048 16/03 Q1018
                        NOSIG=
200905261550 METAR COR EGLL 261550Z 29014KT CAVOK 17/02 Q1017 NOSIG=
200905261520 METAR COR EGLL 261520Z 29013KT CAVOK 16/02 Q1017 NOSIG=
200905261450 METAR COR EGLL 261450Z 30014KT CAVOK 16/02 Q1017 NOSIG=
200905261420 METAR COR EGLL 261420Z 29014KT CAVOK 17/02 Q1017 NOSIG=
200905261350 METAR COR EGLL 261350Z 28017KT CAVOK 17/03 Q1016 NOSIG=
200905261320 METAR COR EGLL 261320Z 28014KT CAVOK 17/04 Q1016 NOSIG=
200905261250 METAR COR EGLL 261250Z 29016KT 9999 SCT049 17/03 Q1016 NOSIG=
200905261220 METAR COR EGLL 261220Z 30012KT 9999 SCT047 16/04 Q1015 NOSIG=
200905261150 METAR COR EGLL 261150Z 29013KT 9999 SCT041 16/06 Q1015 NOSIG=
200905261120 METAR COR EGLL 261120Z 31012KT 280V340 9999 SCT038 15/06
                        Q1014 NOSIG=
200905261050 METAR COR EGLL 261050Z 30012KT 280V350 9999 SCT035 15/05
                        Q1014 NOSIG=
200905261020 METAR COR EGLL 261020Z 31012KT 280V340 9999 SCT035 14/06
                        Q1013 NOSIG=
200905260950 METAR COR EGLL 260950Z 30012KT 280V340 9999 FEW028 13/06
                        Q1013 NOSIG=
200905260920 METAR COR EGLL 260920Z 30010KT 260V320 9999 FEW024 13/07
                        Q1013 NOSIG=
200905260850 METAR COR EGLL 260850Z 29009KT 9999 SCT041 12/08 Q1012 NOSIG=
200905260820 METAR COR EGLL 260820Z 30009KT 9999 FEW016 BKN040 12/08 Q1012
                        NOSIG=
200905260750 METAR COR EGLL 260750Z 30008KT 9999 -RA FEW019 BKN040 12/10
                        Q1011 NOSIG=
200905260720 METAR COR EGLL 260720Z 31010KT 9999 -RA FEW014 BKN038 12/10
                        Q1011 NOSIG=
200905260650 METAR COR EGLL 260650Z 27008KT 8000 -RA FEW008 SCT019 BKN032
                        12/11 Q1010 RERA TEMPO RA BKN012=
200905260620 METAR COR EGLL 260620Z 27009KT 6000 RA FEW022 BKN040 12/10
                        Q1010 TEMPO BKN014=
200905260550 METAR COR EGLL 260550Z 27007KT 7000 RA SCT013 BKN045 12/10
                        Q1010 TEMPO BKN013=
200905260520 METAR COR EGLL 260520Z 27008KT 9999 -RA FEW031 BKN047 12/10
                        Q1009 TEMPO RA=
200905260450 METAR COR EGLL 260450Z 27007KT 9999 -DZ SCT031 BKN035 12/10
                        Q1009 NOSIG=
200905260420 METAR COR EGLL 260420Z 29006KT 9999 -RA BKN030 12/10 Q1009
                        NOSIG=
200905260350 METAR COR EGLL 260350Z 30004KT 270V340 9999 RA BKN030 12/10
                        Q1008 BECMG NSW=
200905260320 METAR COR EGLL 260320Z 30007KT 9999 RA BKN025 BKN030 12/10
                        Q1008 BECMG NSW=
200905260250 METAR COR EGLL 260250Z 31007KT 4900 -RA SCT011 SCT029 13/11
                        Q1008 BECMG 6000=
200905260220 METAR COR EGLL 260220Z 31007KT 6000 DZ BKN012 14/12 Q1008
                        BECMG SCT012=
200905260150 METAR COR EGLL 260150Z 31004KT 7000 -RA FEW027 SCT030 15/13
                        Q1008 TEMPO 4000 RA=
200905260120 METAR EGLL 260120Z AUTO 29006KT 9999NDV -DZ BKN030/// 15/13
                        Q1008=
200905260050 METAR EGLL 260050Z AUTO 30008KT 9999NDV -DZ FEW045/// 16/13
                        Q1008=
200905260020 METAR EGLL 260020Z AUTO 28012KT 6000NDV -RA SCT009/// 16/15
                        Q1008=
200905252350 METAR COR EGLL 252350Z 26005KT 220V280 9000 SHRA FEW045 17/15
                        Q1008 TEMPO 4000 BKN014=
200905252320 METAR COR EGLL 252320Z 22006KT 9999 -SHRA FEW019 18/16 Q1009
                        TEMPO 4000 SHRA BKN014=
200905252250 METAR COR EGLL 252250Z 18009KT 9999 -RA SCT035 18/16 Q1010
                        TEMPO SHRA TS=
200905252220 METAR COR EGLL 252220Z 18009KT 9999 SCT034 19/16 Q1010 TEMPO
                        SHRA=
200905252150 METAR COR EGLL 252150Z 21007KT 160V250 9999 SCT038 SCT047
                        19/16 Q1010 TEMPO SHRA=
200905252120 METAR COR EGLL 252120Z 18007KT 140V250 9999 SCT045 19/16
                        Q1010 TEMPO SHRA=
200905252050 METAR COR EGLL 252050Z 16008KT 120V230 9999 FEW041 20/15
                        Q1011 TEMPO SHRA=
200905252020 METAR COR EGLL 252020Z 17005KT 120V230 CAVOK 20/15 Q1010
                        NOSIG=
200905251950 METAR COR EGLL 251950Z 18007KT 140V230 CAVOK 21/15 Q1010
                        NOSIG=
200905251920 METAR COR EGLL 251920Z VRB04KT CAVOK 20/15 Q1010 NOSIG=
200905251850 METAR COR EGLL 251850Z 07004KT CAVOK 21/14 Q1010 NOSIG=
200905251820 METAR COR EGLL 251820Z 08005KT 050V120 9999 -RA NSC 21/15
                        Q1010 TEMPO SHRA=
200905251750 METAR COR EGLL 251750Z 11007KT 070V200 9999 FEW036 22/14
                        Q1011 NOSIG=
200905251720 METAR COR EGLL 251720Z 20005KT 140V310 9999 FEW040 23/14
                        Q1011 NOSIG=
200905251650 METAR COR EGLL 251650Z 18005KT 140V230 9999 FEW040 23/14
                        Q1011 NOSIG=
200905251620 METAR COR EGLL 251620Z VRB04KT 9999 FEW040 23/14 Q1012 NOSIG=
200905251550 METAR COR EGLL 251550Z 17005KT 130V240 9999 FEW040 22/13
                        Q1012 NOSIG=
200905251520 METAR COR EGLL 251520Z VRB03KT 9999 FEW040 23/13 Q1012 NOSIG=
200905251450 METAR COR EGLL 251450Z VRB04KT 9999 FEW044 23/13 Q1013 NOSIG=
200905251420 METAR COR EGLL 251420Z 30004KT 240V010 9999 FEW040 23/13
                        Q1013 NOSIG=
200905251350 METAR COR EGLL 251350Z VRB05KT CAVOK 22/13 Q1013 NOSIG=
200905251320 METAR COR EGLL 251320Z 21006KT 140V260 CAVOK 21/13 Q1014
                        NOSIG=
200905251250 METAR COR EGLL 251250Z VRB03KT CAVOK 21/13 Q1014 NOSIG=
200905251220 METAR COR EGLL 251220Z 09004KT 040V180 CAVOK 21/13 Q1014
                        NOSIG=
200905251150 METAR COR EGLL 251150Z VRB03KT CAVOK 19/12 Q1014 NOSIG=
200905251120 METAR COR EGLL 251120Z 11006KT 060V160 9999 FEW022 19/12
                        Q1015 NOSIG=
200905251050 METAR COR EGLL 251050Z 14005KT 110V180 CAVOK 19/12 Q1015
                        NOSIG=
200905251020 METAR COR EGLL 251020Z 07007KT CAVOK 18/11 Q1014 NOSIG=
200905250950 METAR COR EGLL 250950Z 06007KT 020V080 CAVOK 17/11 Q1014
                        NOSIG=
200905250920 METAR COR EGLL 250920Z 08009KT 9999 -RA FEW035 16/10 Q1014
                        TEMPO SHRA=
200905250850 METAR COR EGLL 250850Z 07008KT 9999 FEW048 16/10 Q1016 TEMPO
                        SHRA=
200905250820 METAR COR EGLL 250820Z 08009KT 9999 SCT041 16/10 Q1017 TEMPO
                        SHRA=
200905250750 METAR COR EGLL 250750Z 08008KT 9999 SCT042 16/09 Q1018 TEMPO
                        SHRA=
200905250720 METAR COR EGLL 250720Z 09005KT 9999 BKN048 15/09 Q1018 NOSIG=
200905250650 METAR COR EGLL 250650Z 08005KT 9999 FEW038 BKN043 15/09 Q1018
                        NOSIG=
200905250620 METAR COR EGLL 250620Z 06004KT CAVOK 14/08 Q1018 NOSIG=
200905250550 METAR COR EGLL 250550Z 07006KT 9999 FEW039 14/08 Q1018 NOSIG=
200905250520 METAR COR EGLL 250520Z 06004KT CAVOK 14/08 Q1017 NOSIG=
200905250450 METAR COR EGLL 250450Z 07004KT CAVOK 12/08 Q1018 NOSIG=
200905250420 METAR COR EGLL 250420Z 06003KT CAVOK 12/07 Q1019 NOSIG=
200905250350 METAR COR EGLL 250350Z 07003KT CAVOK 12/08 Q1019 NOSIG=
200905250320 METAR COR EGLL 250320Z 06004KT CAVOK 12/09 Q1018 NOSIG=
200905250250 METAR COR EGLL 250250Z 07005KT CAVOK 13/09 Q1019 NOSIG=
200905250220 METAR COR EGLL 250220Z 07006KT CAVOK 14/09 Q1019 NOSIG=
200905250150 METAR COR EGLL 250150Z 08007KT CAVOK 14/09 Q1019 NOSIG=
200905250120 METAR COR EGLL 250120Z 09007KT CAVOK 13/09 Q1020 NOSIG=
200905250050 METAR COR EGLL 250050Z 09007KT CAVOK 13/09 Q1019 NOSIG=
200905250020 METAR COR EGLL 250020Z 10008KT CAVOK 14/09 Q1019 NOSIG=
200905242350 METAR COR EGLL 242350Z 08007KT CAVOK 15/09 Q1020 NOSIG=
200905242320 METAR COR EGLL 242320Z 09009KT CAVOK 15/09 Q1020 NOSIG=
200905242250 METAR COR EGLL 242250Z 09009KT CAVOK 16/09 Q1020 NOSIG=
200905242220 METAR EGLL 242220Z 09006KT CAVOK 17/10 Q1020=
200905242150 METAR COR EGLL 242150Z 11006KT CAVOK 18/10 Q1020 NOSIG=
200905242120 METAR COR EGLL 242120Z 14006KT 9999 FEW045 18/10 Q1020 NOSIG=
200905242050 METAR COR EGLL 242050Z 14007KT 9999 FEW042 19/10 Q1019 NOSIG=
200905242020 METAR COR EGLL 242020Z 14007KT 9999 FEW040 20/10 Q1019 NOSIG=
200905241950 METAR COR EGLL 241950Z 13008KT 9999 FEW040 21/10 Q1019 NOSIG=
200905241920 METAR COR EGLL 241920Z 13008KT 9999 FEW045 22/11 Q1019 NOSIG=
200905241850 METAR COR EGLL 241850Z 11008KT CAVOK 22/10 Q1019 NOSIG=
200905241820 METAR COR EGLL 241820Z 12008KT CAVOK 23/10 Q1019 NOSIG=
200905241750 METAR COR EGLL 241750Z 12009KT CAVOK 23/10 Q1019 NOSIG=
200905241720 METAR COR EGLL 241720Z VRB03KT CAVOK 24/06 Q1019 NOSIG=
200905241650 METAR COR EGLL 241650Z VRB03KT CAVOK 25/06 Q1019 NOSIG=
200905241620 METAR COR EGLL 241620Z VRB04KT CAVOK 25/07 Q1019 NOSIG=
200905241550 METAR COR EGLL 241550Z VRB02KT CAVOK 25/07 Q1019 NOSIG=
200905241520 METAR COR EGLL 241520Z VRB04KT CAVOK 25/06 Q1019 NOSIG=
200905241450 METAR COR EGLL 241450Z 13005KT 050V190 CAVOK 24/06 Q1019
                        NOSIG=
200905241420 METAR COR EGLL 241420Z VRB04KT CAVOK 24/07 Q1019 NOSIG=
200905241350 METAR COR EGLL 241350Z VRB03KT CAVOK 24/07 Q1019 NOSIG=
200905241320 METAR COR EGLL 241320Z VRB04KT CAVOK 23/07 Q1020 NOSIG=
200905241250 METAR COR EGLL 241250Z 32004KT 260V060 CAVOK 23/07 Q1020
                        NOSIG=
200905241220 METAR COR EGLL 241220Z VRB02KT CAVOK 22/08 Q1020 NOSIG=
200905241150 METAR COR EGLL 241150Z VRB04KT CAVOK 22/08 Q1020 NOSIG=
200905241120 METAR COR EGLL 241120Z VRB04KT CAVOK 21/08 Q1020 NOSIG=
200905241050 METAR COR EGLL 241050Z VRB04KT CAVOK 21/08 Q1020 NOSIG=
200905241020 METAR EGLL 241020Z 01004KT 300V100 CAVOK 20/08 Q1020=
200905240950 METAR COR EGLL 240950Z 06004KT 350V100 CAVOK 19/08 Q1020
                        NOSIG=
200905240920 METAR EGLL 240920Z VRB05KT CAVOK 19/07 Q1020=
200905240850 METAR COR EGLL 240850Z 04005KT 350V080 CAVOK 18/08 Q1020
                        NOSIG=
200905240820 METAR COR EGLL 240820Z 05006KT 340V100 CAVOK 17/08 Q1020
                        NOSIG=
200905240750 METAR COR EGLL 240750Z 06005KT 010V100 CAVOK 16/08 Q1021
                        NOSIG=
200905240720 METAR COR EGLL 240720Z 04006KT 360V070 CAVOK 15/08 Q1020
                        NOSIG=
200905240650 METAR COR EGLL 240650Z 05005KT 010V070 CAVOK 14/08 Q1020
                        NOSIG=
200905240620 METAR COR EGLL 240620Z 03004KT 350V070 CAVOK 13/08 Q1020
                        NOSIG=
200905240550 METAR COR EGLL 240550Z VRB03KT CAVOK 12/07 Q1019 NOSIG=
200905240520 METAR COR EGLL 240520Z VRB03KT CAVOK 11/07 Q1019 NOSIG=
200905240450 METAR EGLL 240450Z 01004KT 330V050 CAVOK 11/07 Q1019=
200905240420 METAR COR EGLL 240420Z 36004KT CAVOK 10/07 Q1018 NOSIG=
200905240350 METAR COR EGLL 240350Z VRB03KT CAVOK 10/07 Q1018 NOSIG=
200905240320 METAR COR EGLL 240320Z 31002KT CAVOK 10/07 Q1018 NOSIG=
200905240250 METAR COR EGLL 240250Z 31003KT CAVOK 11/07 Q1018 NOSIG=
200905240220 METAR COR EGLL 240220Z 31003KT CAVOK 10/07 Q1018 NOSIG=
200905240150 METAR COR EGLL 240150Z 29003KT CAVOK 11/08 Q1018 NOSIG=
200905240120 METAR COR EGLL 240120Z VRB03KT CAVOK 12/08 Q1018 NOSIG=
200905240050 METAR COR EGLL 240050Z 25003KT CAVOK 11/08 Q1018 NOSIG=
200905240020 METAR COR EGLL 240020Z 19004KT 170V230 CAVOK 12/08 Q1018
                        NOSIG=
200905232350 METAR COR EGLL 232350Z 27007KT CAVOK 12/08 Q1018 NOSIG=
200905232320 METAR COR EGLL 232320Z 27004KT CAVOK 12/08 Q1018 NOSIG=
200905232250 METAR COR EGLL 232250Z VRB03KT CAVOK 14/08 Q1018 NOSIG=
200905232220 METAR COR EGLL 232220Z 22004KT CAVOK 14/09 Q1018 NOSIG=
200905232150 METAR COR EGLL 232150Z 21007KT CAVOK 15/09 Q1017 NOSIG=
200905232120 METAR COR EGLL 232120Z 21007KT CAVOK 15/08 Q1017 NOSIG=
200905232050 METAR COR EGLL 232050Z 19008KT CAVOK 16/07 Q1017 NOSIG=
200905232020 METAR COR EGLL 232020Z 18006KT CAVOK 17/06 Q1017 NOSIG=
200905231950 METAR COR EGLL 231950Z 19007KT CAVOK 18/05 Q1016 NOSIG=
200905231920 METAR COR EGLL 231920Z 19008KT 170V230 CAVOK 19/04 Q1016
                        NOSIG=
200905231850 METAR COR EGLL 231850Z 19007KT CAVOK 19/03 Q1016 NOSIG=
200905231820 METAR COR EGLL 231820Z 19006KT 140V220 CAVOK 20/03 Q1016
                        NOSIG=
200905231750 METAR COR EGLL 231750Z 21005KT 150V270 CAVOK 21/02 Q1016
                        NOSIG=
200905231720 METAR COR EGLL 231720Z 23005KT 150V300 CAVOK 20/01 Q1016
                        NOSIG=
200905231650 METAR COR EGLL 231650Z 21005KT 180V260 CAVOK 20/00 Q1016
                        NOSIG=
200905231620 METAR EGLL 231620Z 22007KT 190V250 CAVOK 21/00 Q1016=
200905231550 METAR COR EGLL 231550Z 18005KT 120V240 CAVOK 20/00 Q1016
                        NOSIG=
200905231520 METAR COR EGLL 231520Z 20005KT 130V260 CAVOK 20/00 Q1015
                        NOSIG=
200905231450 METAR COR EGLL 231450Z 13005KT 090V190 CAVOK 20/M00 Q1015
                        NOSIG=
200905231420 METAR COR EGLL 231420Z 16005KT 120V230 CAVOK 20/00 Q1016
                        NOSIG=
200905231350 METAR COR EGLL 231350Z 20007KT 150V240 CAVOK 20/01 Q1016
                        NOSIG=
200905231320 METAR COR EGLL 231320Z 22007G17KT 180V260 CAVOK 20/02 Q1017
                        NOSIG=
200905231250 METAR COR EGLL 231250Z 21009KT 150V260 CAVOK 20/01 Q1017
                        NOSIG=
200905231220 METAR COR EGLL 231220Z 20008KT 150V250 CAVOK 20/02 Q1017
                        NOSIG=
200905231150 METAR COR EGLL 231150Z 19009KT 130V240 CAVOK 20/02 Q1018
                        NOSIG=
200905231120 METAR COR EGLL 231120Z 20010KT 160V250 CAVOK 20/04 Q1018
                        NOSIG=
200905231050 METAR COR EGLL 231050Z 18010KT CAVOK 20/04 Q1018 NOSIG=
200905231020 METAR COR EGLL 231020Z 20007KT 160V220 CAVOK 20/06 Q1018
                        NOSIG=
200905230950 METAR COR EGLL 230950Z 19013KT CAVOK 19/07 Q1019 NOSIG=
200905230920 METAR COR EGLL 230920Z 17011KT 130V200 CAVOK 18/08 Q1018
                        NOSIG=
200905230850 METAR COR EGLL 230850Z 14013KT CAVOK 18/09 Q1018 NOSIG=
200905230820 METAR COR EGLL 230820Z 16006KT 120V200 9999 FEW028 17/10
                        Q1018 NOSIG=
200905230750 METAR EGLL 230750Z 12008KT 090V160 9999 FEW028 17/10 Q1018
                        NOSIG=
200905230720 METAR COR EGLL 230720Z 12006KT 090V150 CAVOK 16/10 Q1018
                        NOSIG=
200905230650 METAR COR EGLL 230650Z 09005KT 050V120 CAVOK 14/09 Q1018
                        NOSIG=
200905230620 METAR COR EGLL 230620Z VRB03KT CAVOK 13/09 Q1018 NOSIG=
200905230550 METAR COR EGLL 230550Z VRB03KT CAVOK 12/09 Q1018 NOSIG=
200905230520 METAR COR EGLL 230520Z 17004KT 130V220 CAVOK 10/08 Q1018
                        NOSIG=
200905230450 METAR COR EGLL 230450Z 17003KT CAVOK 09/08 Q1018 NOSIG=
200905230420 METAR COR EGLL 230420Z VRB03KT CAVOK 09/07 Q1018 NOSIG=
200905230350 METAR COR EGLL 230350Z 17003KT CAVOK 09/07 Q1018 NOSIG=
200905230320 METAR COR EGLL 230320Z 16002KT CAVOK 09/07 Q1019 NOSIG=
200905230250 METAR COR EGLL 230250Z 17004KT CAVOK 10/08 Q1019 NOSIG=
200905230220 METAR COR EGLL 230220Z 17003KT CAVOK 10/08 Q1019 NOSIG=
200905230150 METAR COR EGLL 230150Z 00000KT CAVOK 11/08 Q1019 NOSIG=
200905230120 METAR COR EGLL 230120Z 22004KT CAVOK 12/09 Q1019 NOSIG=
200905230050 METAR COR EGLL 230050Z 26003KT CAVOK 12/09 Q1019 NOSIG=
200905230020 METAR COR EGLL 230020Z 24004KT 210V280 CAVOK 13/09 Q1019
                        NOSIG=
200905222350 METAR EGLL 222350Z NIL=
200905222320 METAR COR EGLL 222320Z 27005KT 9999 BKN042 13/09 Q1019 NOSIG=
200905222250 METAR COR EGLL 222250Z 27006KT 9999 BKN043 14/09 Q1019 NOSIG=
200905222220 METAR COR EGLL 222220Z 25008KT 9999 SCT042 15/09 Q1019 NOSIG=
200905222150 METAR COR EGLL 222150Z 25007KT 9999 BKN042 15/09 Q1019 NOSIG=
200905222120 METAR EGLL 222120Z 25007KT 9999 BKN043 15/09 Q1019=
200905222050 METAR COR EGLL 222050Z 26009KT 9999 BKN045 15/09 Q1019 NOSIG=
200905222020 METAR COR EGLL 222020Z 24010KT 9999 BKN045 16/08 Q1018 NOSIG=
200905221950 METAR COR EGLL 221950Z 24010KT 9999 BKN045 16/08 Q1018 NOSIG=
200905221920 METAR COR EGLL 221920Z 25009KT 9999 BKN047 17/08 Q1018 NOSIG=
200905221850 METAR COR EGLL 221850Z 25011KT 9999 SCT039 BKN045 17/08 Q1018
                        NOSIG=
200905221820 METAR COR EGLL 221820Z 22011KT 9999 SCT040 BKN045 17/08 Q1017
                        NOSIG=
200905221750 METAR COR EGLL 221750Z 22011KT 9999 FEW046 17/08 Q1017 NOSIG=
200905221720 METAR COR EGLL 221720Z 21010KT 9999 FEW046 18/08 Q1017 NOSIG=
200905221650 METAR COR EGLL 221650Z 25008KT 220V290 9999 FEW048 19/07
                        Q1017 NOSIG=
200905221620 METAR COR EGLL 221620Z 25010KT 220V290 9999 FEW049 19/06
                        Q1017 NOSIG=
200905221550 METAR COR EGLL 221550Z 27012KT 9999 BKN049 19/06 Q1017 NOSIG=
200905221520 METAR COR EGLL 221520Z 28009KT 230V310 9999 FEW048 19/06
                        Q1017 NOSIG=
200905221450 METAR COR EGLL 221450Z 27012KT CAVOK 20/06 Q1017 NOSIG=
200905221420 METAR COR EGLL 221420Z 25012KT 220V280 9999 SCT049 20/06
                        Q1017 NOSIG=
200905221350 METAR COR EGLL 221350Z 25011KT 9999 SCT046 20/06 Q1017 NOSIG=
200905221320 METAR COR EGLL 221320Z 27009KT 9999 SCT044 18/06 Q1017 NOSIG=
200905221250 METAR EGLL 221250Z 28011KT 9999 SCT040 17/06 Q1017=
200905221220 METAR COR EGLL 221220Z 26012KT 9999 FEW040 SCT049 17/07 Q1017
                        NOSIG=
200905221150 METAR COR EGLL 221150Z 26011KT 200V290 9999 FEW039 SCT046
                        18/06 Q1017 NOSIG=
200905221120 METAR COR EGLL 221120Z 26011KT 230V290 9999 FEW039 SCT048
                        17/06 Q1017 NOSIG=
200905221050 METAR COR EGLL 221050Z 28008KT 9999 SCT039 17/06 Q1017 NOSIG=
200905221020 METAR COR EGLL 221020Z 26011KT 230V290 9999 SCT037 17/06
                        Q1017 NOSIG=
200905220950 METAR COR EGLL 220950Z 27010KT 230V300 9999 SCT035 16/07
                        Q1017 NOSIG=
200905220920 METAR COR EGLL 220920Z 26011KT 9999 FEW025 15/07 Q1017 NOSIG=
200905220850 METAR COR EGLL 220850Z 28009KT 240V320 9999 FEW022 15/08
                        Q1017 NOSIG=
200905220820 METAR COR EGLL 220820Z 27010KT 9999 FEW019 13/08 Q1017 NOSIG=
200905220750 METAR COR EGLL 220750Z 27011KT 9999 FEW017 13/07 Q1017 NOSIG=
200905220720 METAR COR EGLL 220720Z 27011KT 9999 FEW017 12/07 Q1017 NOSIG=
200905220650 METAR COR EGLL 220650Z 26011KT 9999 FEW015 12/08 Q1017 NOSIG=
200905220620 METAR COR EGLL 220620Z 26012KT 9999 FEW016 11/07 Q1017 NOSIG=
200905220550 METAR COR EGLL 220550Z 26008KT CAVOK 10/07 Q1016 NOSIG=
200905220520 METAR COR EGLL 220520Z 24009KT CAVOK 09/07 Q1016 NOSIG=
200905220450 METAR COR EGLL 220450Z 26008KT CAVOK 09/07 Q1016 NOSIG=
200905220420 METAR COR EGLL 220420Z 27005KT CAVOK 09/07 Q1016 TEMPO BKN014=
200905220350 METAR COR EGLL 220350Z 27005KT CAVOK 09/07 Q1015 NOSIG=
200905220320 METAR COR EGLL 220320Z 25008KT CAVOK 09/07 Q1015 NOSIG=
200905220250 METAR COR EGLL 220250Z 24007KT CAVOK 09/07 Q1015 NOSIG=
200905220220 METAR COR EGLL 220220Z 26006KT CAVOK 09/07 Q1015 NOSIG=
200905220150 METAR COR EGLL 220150Z 24007KT CAVOK 09/07 Q1015 NOSIG=
200905220120 METAR COR EGLL 220120Z 26007KT CAVOK 10/07 Q1015 NOSIG=
200905220050 METAR COR EGLL 220050Z 27008KT CAVOK 10/07 Q1015 NOSIG=
200905220020 METAR COR EGLL 220020Z 28008KT CAVOK 10/07 Q1015 NOSIG=
200905212350 METAR COR EGLL 212350Z 28007KT CAVOK 10/07 Q1015 NOSIG=
200905212320 METAR COR EGLL 212320Z 28009KT CAVOK 11/06 Q1015 NOSIG=
200905212250 METAR COR EGLL 212250Z 28010KT CAVOK 11/06 Q1015 NOSIG=
200905212220 METAR COR EGLL 212220Z 27011KT CAVOK 11/06 Q1015 NOSIG=
200905212150 METAR COR EGLL 212150Z 27010KT CAVOK 12/06 Q1015 NOSIG=
200905212120 METAR COR EGLL 212120Z 26009KT CAVOK 13/05 Q1015 NOSIG=
200905212050 METAR COR EGLL 212050Z 27008KT CAVOK 13/04 Q1015 NOSIG=
200905212020 METAR COR EGLL 212020Z 27007KT CAVOK 13/04 Q1015 NOSIG=
200905211950 METAR COR EGLL 211950Z 28008KT CAVOK 14/05 Q1014 NOSIG=
200905211920 METAR COR EGLL 211920Z 29010KT CAVOK 15/06 Q1014 NOSIG=
200905211850 METAR COR EGLL 211850Z 29009KT CAVOK 16/06 Q1014 NOSIG=
200905211820 METAR COR EGLL 211820Z 28012KT CAVOK 17/06 Q1014 NOSIG=
200905211750 METAR COR EGLL 211750Z 28011KT 9999 FEW048 17/06 Q1013 NOSIG=
200905211720 METAR COR EGLL 211720Z 28012KT CAVOK 18/05 Q1013 NOSIG=
200905211650 METAR COR EGLL 211650Z 28012KT 9999 FEW045 18/05 Q1013 NOSIG=
200905211620 METAR COR EGLL 211620Z 28010KT CAVOK 18/06 Q1013 NOSIG=
200905211550 METAR COR EGLL 211550Z 28012KT CAVOK 18/05 Q1013 NOSIG=
200905211520 METAR COR EGLL 211520Z 26012KT 230V310 CAVOK 19/04 Q1013
                        NOSIG=
200905211450 METAR COR EGLL 211450Z 25012G24KT 210V310 CAVOK 19/03 Q1014
                        NOSIG=
200905211420 METAR COR EGLL 211420Z 26012KT 230V300 CAVOK 19/04 Q1014
                        NOSIG=
200905211350 METAR COR EGLL 211350Z 27014KT CAVOK 19/04 Q1014 NOSIG=
200905211320 METAR COR EGLL 211320Z 28012KT 9999 FEW048 19/05 Q1014 NOSIG=
200905211250 METAR COR EGLL 211250Z 27012KT 9999 FEW045 19/05 Q1014 NOSIG=
200905211220 METAR COR EGLL 211220Z 27014KT 9999 FEW042 18/07 Q1014 NOSIG=
200905211150 METAR COR EGLL 211150Z 26009KT 200V320 9999 SCT042 18/06
                        Q1014 NOSIG=
200905211120 METAR COR EGLL 211120Z 27011KT 230V290 9999 FEW041 17/07
                        Q1014 NOSIG=
200905211050 METAR COR EGLL 211050Z 26012KT 9999 FEW035 17/07 Q1014 NOSIG=
200905211020 METAR COR EGLL 211020Z 26011KT 9999 FEW035 16/06 Q1014 NOSIG=
200905210950 METAR COR EGLL 210950Z 27012KT 9999 SCT037 17/07 Q1014 NOSIG=
200905210920 METAR COR EGLL 210920Z 25013KT 9999 FEW030 16/07 Q1014 NOSIG=
200905210850 METAR COR EGLL 210850Z 27009KT 230V300 9999 SCT018 14/09
                        Q1015 NOSIG=
200905210820 METAR COR EGLL 210820Z 23009KT 170V280 9999 SCT015 SCT042
                        14/09 Q1015 NOSIG=
200905210750 METAR COR EGLL 210750Z 24010KT 9999 SCT013 BKN041 13/09 Q1015
                        NOSIG=
200905210720 METAR COR EGLL 210720Z 25010KT 9999 SCT011 SCT045 12/09 Q1015
                        NOSIG=
200905210650 METAR COR EGLL 210650Z 24007KT 9000 FEW011 12/09 Q1015 NOSIG=
200905210620 METAR COR EGLL 210620Z 22007KT 190V260 9000 FEW010 11/09
                        Q1015 NOSIG=
200905210550 METAR COR EGLL 210550Z 21005KT 170V240 9000 NSC 10/08 Q1015
                        NOSIG=
200905210520 METAR COR EGLL 210520Z 20006KT 160V270 9000 NSC 09/08 Q1015
                        NOSIG=
200905210450 METAR COR EGLL 210450Z 20005KT 160V260 9000 NSC 09/08 Q1015
                        NOSIG=
200905210420 METAR COR EGLL 210420Z 20005KT 170V230 9000 NSC 09/08 Q1015
                        NOSIG=
200905210350 METAR COR EGLL 210350Z 19004KT 9000 NSC 09/07 Q1015 NOSIG=
200905210320 METAR COR EGLL 210320Z VRB02KT CAVOK 09/07 Q1015 NOSIG=
200905210250 METAR EGLL 210250Z 23004KT 200V270 CAVOK 09/07 Q1016=
200905210220 METAR COR EGLL 210220Z 25005KT CAVOK 09/08 Q1016 NOSIG=
200905210150 METAR COR EGLL 210150Z 23004KT CAVOK 10/07 Q1016 NOSIG=
200905210120 METAR COR EGLL 210120Z 20004KT CAVOK 10/08 Q1016 NOSIG=
200905210050 METAR COR EGLL 210050Z 25006KT CAVOK 10/08 Q1016 NOSIG=
200905210020 METAR COR EGLL 210020Z 23005KT CAVOK 11/08 Q1016 NOSIG=
200905202350 METAR COR EGLL 202350Z 22005KT CAVOK 11/08 Q1016 NOSIG=
200905202320 METAR COR EGLL 202320Z 21004KT CAVOK 11/08 Q1017 NOSIG=
200905202250 METAR COR EGLL 202250Z 21005KT CAVOK 12/08 Q1017 NOSIG=
200905202220 METAR COR EGLL 202220Z 20006KT CAVOK 12/08 Q1017 NOSIG=
200905202150 METAR COR EGLL 202150Z 20007KT CAVOK 12/08 Q1017 NOSIG=
200905202120 METAR COR EGLL 202120Z 21008KT CAVOK 13/08 Q1017 NOSIG=
200905202050 METAR COR EGLL 202050Z 21008KT CAVOK 14/07 Q1017 NOSIG=
200905202020 METAR COR EGLL 202020Z 21008KT CAVOK 15/06 Q1017 NOSIG=
200905201950 METAR COR EGLL 201950Z 21009KT CAVOK 16/06 Q1017 NOSIG=
200905201920 METAR COR EGLL 201920Z 21009KT 160V240 CAVOK 16/08 Q1017
                        NOSIG=
200905201850 METAR COR EGLL 201850Z 21008KT 180V250 CAVOK 17/07 Q1017
                        NOSIG=
200905201820 METAR COR EGLL 201820Z 22008KT 190V250 9999 FEW048 17/07
                        Q1017 NOSIG=
200905201750 METAR COR EGLL 201750Z 19009KT 150V240 9999 FEW048 18/06
                        Q1017 NOSIG=
200905201720 METAR COR EGLL 201720Z 20009KT 170V240 9999 FEW048 18/06
                        Q1017 NOSIG=
200905201650 METAR COR EGLL 201650Z 20007KT 140V250 9999 FEW042 18/07
                        Q1017 NOSIG=
200905201620 METAR EGLL 201620Z 20011KT 170V240 9999 FEW043 18/07 Q1017=
200905201550 METAR COR EGLL 201550Z 19009KT 160V220 9999 SCT045 18/07
                        Q1018 NOSIG=
200905201520 METAR COR EGLL 201520Z 18009KT 160V230 9999 SCT046 18/08
                        Q1018 NOSIG=
200905201450 METAR COR EGLL 201450Z 19009KT 160V240 9999 SCT044 18/08
                        Q1018 NOSIG=
200905201420 METAR COR EGLL 201420Z 19011KT 160V240 9999 SCT041 18/08
                        Q1018 NOSIG=
200905201350 METAR COR EGLL 201350Z 19011KT 150V240 9999 SCT041 18/07
                        Q1019 NOSIG=
200905201320 METAR COR EGLL 201320Z 19011KT 150V230 9999 SCT039 18/07
                        Q1019 NOSIG=
200905201250 METAR EGLL 201250Z 21009G19KT 170V250 9999 SCT038 17/07 Q1019=
200905201220 METAR COR EGLL 201220Z 20008KT 160V250 9999 BKN035 17/08
                        Q1019 NOSIG=
200905201150 METAR COR EGLL 201150Z 21010G20KT 180V250 9999 FEW036 SCT041
                        17/08 Q1020 NOSIG=
200905201120 METAR COR EGLL 201120Z 21011KT 160V250 9999 FEW035 SCT046
                        17/07 Q1020 NOSIG=
200905201050 METAR COR EGLL 201050Z 21011KT 160V240 9999 FEW035 SCT045
                        16/07 Q1020 NOSIG=
200905201020 METAR COR EGLL 201020Z 21009KT 160V250 9999 FEW034 SCT046
                        16/07 Q1020 NOSIG=
200905200950 METAR COR EGLL 200950Z 25010KT 9999 FEW032 SCT037 16/07 Q1020
                        NOSIG=
200905200920 METAR COR EGLL 200920Z 21010KT 9999 SCT031 16/08 Q1020 NOSIG=
200905200850 METAR COR EGLL 200850Z 21011KT 170V240 9999 FEW024 15/08
                        Q1021 NOSIG=
200905200820 METAR COR EGLL 200820Z 23010KT 190V260 9999 SCT024 14/08
                        Q1021 NOSIG=
200905200750 METAR COR EGLL 200750Z 23010KT 190V260 9999 SCT023 14/09
                        Q1021 NOSIG=
200905200720 METAR COR EGLL 200720Z 23009KT 9999 SCT015 13/09 Q1021 NOSIG=
200905200650 METAR COR EGLL 200650Z 21008KT 190V250 9999 SCT010 12/09
                        Q1021 NOSIG=
200905200620 METAR COR EGLL 200620Z 21008KT 160V240 9999 SCT009 11/09
                        Q1021 NOSIG=
200905200550 METAR COR EGLL 200550Z 21006KT 180V250 8000 NSC 11/09 Q1020
                        NOSIG=
200905200520 METAR EGLL 200520Z 20004KT 140V280 8000 FEW013 09/08 Q1020=
200905200450 METAR COR EGLL 200450Z 18004KT 100V280 8000 FEW012 08/08
                        Q1020 TEMPO BKN012=
200905200420 METAR COR EGLL 200420Z 18004KT 150V260 8000 NSC 08/07 Q1020
                        TEMPO BKN012=
200905200350 METAR COR EGLL 200350Z 16005KT 8000 NSC 08/07 Q1020 TEMPO
                        BKN012=
200905200320 METAR COR EGLL 200320Z 20005KT 9000 FEW013 09/08 Q1020 TEMPO
                        BKN012=
200905200250 METAR COR EGLL 200250Z 21004KT 9000 FEW015 09/08 Q1020 TEMPO
                        BKN012=
200905200220 METAR COR EGLL 200220Z 21006KT 9000 FEW016 09/08 Q1020 TEMPO
                        BKN012=
200905200150 METAR COR EGLL 200150Z 20006KT 9000 FEW016 09/08 Q1020 TEMPO
                        BKN012=
200905200120 METAR COR EGLL 200120Z 20007KT CAVOK 09/08 Q1020 NOSIG=
200905200050 METAR COR EGLL 200050Z 20005KT CAVOK 09/08 Q1020 NOSIG=
200905200020 METAR COR EGLL 200020Z 20005KT CAVOK 09/08 Q1020 NOSIG=
200905192350 METAR COR EGLL 192350Z 21007KT CAVOK 10/08 Q1020 NOSIG=
200905192320 METAR COR EGLL 192320Z 21006KT CAVOK 10/07 Q1020 NOSIG=
200905192250 METAR COR EGLL 192250Z 20006KT CAVOK 10/07 Q1020 NOSIG=
200905192220 METAR COR EGLL 192220Z 19007KT CAVOK 10/07 Q1019 NOSIG=
200905192150 METAR COR EGLL 192150Z 20007KT CAVOK 11/07 Q1019 NOSIG=
200905192120 METAR COR EGLL 192120Z 21008KT CAVOK 12/07 Q1019 NOSIG=
200905192050 METAR COR EGLL 192050Z 21008KT CAVOK 12/07 Q1019 NOSIG=
200905192020 METAR COR EGLL 192020Z 22009KT CAVOK 13/06 Q1019 NOSIG=
200905191950 METAR COR EGLL 191950Z 23010KT 9999 FEW048 14/06 Q1018 NOSIG=
200905191920 METAR COR EGLL 191920Z 23012KT 9999 FEW047 14/07 Q1018 NOSIG=
200905191850 METAR COR EGLL 191850Z 22013KT 9999 FEW047 15/06 Q1017 NOSIG=
200905191820 METAR COR EGLL 191820Z 22014KT 9999 7000NW FEW049 15/06 Q1017
                        NOSIG=
200905191750 METAR COR EGLL 191750Z 22015KT 9999 SCT046 16/06 Q1017 NOSIG=
200905191720 METAR COR EGLL 191720Z 22014KT 9999 FEW042 16/06 Q1017 NOSIG=
200905191650 METAR EGLL 191650Z 22015KT 9999 SCT040 16/06 Q1017=
200905191620 METAR COR EGLL 191620Z 22017KT 9999 SCT040 16/07 Q1017 NOSIG=
200905191550 METAR COR EGLL 191550Z 22018G30KT 9999 FEW042 SCT048 16/06
                        Q1017 NOSIG=
200905191520 METAR COR EGLL 191520Z 22017KT 9999 SCT039 BKN044 17/07 Q1016
                        NOSIG=
200905191450 METAR COR EGLL 191450Z 23019G29KT 9999 BKN041 17/06 Q1016
                        NOSIG=
200905191420 METAR COR EGLL 191420Z 20016KT 9999 BKN031 17/08 Q1016 NOSIG=
200905191350 METAR COR EGLL 191350Z 21016G30KT 180V250 9999 FEW026 SCT040
                        16/08 Q1016 NOSIG=
200905191320 METAR COR EGLL 191320Z 21017KT 180V240 9999 VCSH FEW026CB
                        SCT030 16/09 Q1017 TEMPO SHRA=
200905191250 METAR COR EGLL 191250Z 20017KT 180V240 9999 SCT032CB 16/09
                        Q1016 TEMPO SHRA=
200905191220 METAR COR EGLL 191220Z 20015KT 170V240 9999 6000W -SHRA SCT038CB
                        SCT044 16/07 Q1016 NOSIG=
200905191150 METAR COR EGLL 191150Z 20012KT 180V240 9999 FEW038 BKN048
                        15/07 Q1016 NOSIG=
200905191120 METAR COR EGLL 191120Z 20014KT 170V240 9999 FEW032 SCT038
                        15/07 Q1016 TEMPO SHRA=
200905191050 METAR EGLL 191050Z 20013KT 170V240 9999 FEW028 SCT040 15/09
                        Q1017=
200905191020 METAR COR EGLL 191020Z 20012KT 180V240 9999 FEW015 SCT027
                        BKN039 14/10 Q1017 TEMPO SHRA=
200905190950 METAR COR EGLL 190950Z 18014KT 9999 FEW026 BKN038 16/09 Q1016
                        TEMPO SHRA=
200905190920 METAR COR EGLL 190920Z 18012KT 160V220 9999 FEW018CB BKN024
                        15/10 Q1016 TEMPO SHRA=
200905190850 METAR COR EGLL 190850Z 19010KT 160V260 9999 FEW020CB SCT025
                        14/10 Q1017 TEMPO SHRA=
200905190820 METAR COR EGLL 190820Z 19012KT 170V230 9999 VCSH SCT020 14/10
                        Q1017 TEMPO SHRA=
200905190750 METAR COR EGLL 190750Z 19011KT 9999 FEW012 BKN016 13/09 Q1017
                        TEMPO SHRA=
200905190720 METAR COR EGLL 190720Z 20011KT 170V230 9999 BKN012 14/10
                        Q1017 TEMPO SHRA SCT018=
200905190650 METAR COR EGLL 190650Z 18008KT 150V220 9999 FEW010 BKN016
                        13/10 Q1017 NOSIG=
200905190620 METAR COR EGLL 190620Z 17006KT 140V220 9999 FEW020 11/10
                        Q1017 NOSIG=
200905190550 METAR COR EGLL 190550Z 17006KT 120V210 9999 FEW015 11/09
                        Q1017 NOSIG=
200905190520 METAR COR EGLL 190520Z 15007KT 110V210 9999 FEW015 11/09
                        Q1017 NOSIG=
200905190450 METAR COR EGLL 190450Z 16004KT 130V230 9999 FEW019 11/09
                        Q1017 NOSIG=
200905190420 METAR COR EGLL 190420Z 18006KT 9999 FEW017 SCT024 BKN028
                        11/09 Q1017 NOSIG=
200905190350 METAR COR EGLL 190350Z 18006KT 9999 FEW034 BKN040 11/09 Q1017
                        NOSIG=
200905190320 METAR COR EGLL 190320Z 18007KT 9999 FEW048 11/09 Q1017 NOSIG=
200905190250 METAR COR EGLL 190250Z 17007KT CAVOK 11/09 Q1017 NOSIG=
200905190220 METAR COR EGLL 190220Z 18007KT 9999 -RA SCT048 11/09 Q1017
                        NOSIG=
200905190150 METAR COR EGLL 190150Z 18008KT 9999 SCT043 11/09 Q1017 NOSIG=
200905190120 METAR COR EGLL 190120Z 18008KT CAVOK 11/09 Q1017 NOSIG=
200905190050 METAR COR EGLL 190050Z 19006KT CAVOK 10/08 Q1017 NOSIG=
200905190020 METAR COR EGLL 190020Z 19006KT 9999 FEW018 10/08 Q1017 NOSIG=
200905182350 METAR COR EGLL 182350Z 18006KT 9999 SCT019 10/08 Q1017 TEMPO=
200905182320 METAR COR EGLL 182320Z 18006KT CAVOK 10/08 Q1017 NOSIG=
200905182250 METAR COR EGLL 182250Z 21007KT CAVOK 10/08 Q1017 NOSIG=
200905182220 METAR COR EGLL 182220Z 20009KT 9999 FEW020 11/08 Q1017 NOSIG=
200905182150 METAR COR EGLL 182150Z 20010KT 160V240 CAVOK 11/08 Q1016
                        NOSIG=
200905182120 METAR COR EGLL 182120Z 21010KT CAVOK 11/08 Q1016 NOSIG=
200905182050 METAR COR EGLL 182050Z 20010KT CAVOK 12/07 Q1016 NOSIG=
200905182020 METAR COR EGLL 182020Z 21010KT CAVOK 12/07 Q1016 NOSIG=
200905181950 METAR COR EGLL 181950Z 22012KT 9999 FEW032 13/07 Q1015 NOSIG=
200905181920 METAR COR EGLL 181920Z 21013KT 9999 FEW036 13/07 Q1015 NOSIG=
200905181850 METAR COR EGLL 181850Z 22015G25KT 9999 FEW032 14/07 Q1014
                        BECMG 21012KT=
200905181820 METAR COR EGLL 181820Z 22018KT 9999 FEW034 14/06 Q1014 NOSIG=
200905181750 METAR EGLL 181750Z 22018KT 9999 FEW035 15/06 Q1014=
200905181720 METAR COR EGLL 181720Z 23019KT 9999 SCT040 15/06 Q1014 NOSIG=
200905181650 METAR COR EGLL 181650Z 23019G29KT 9999 FEW036 SCT042 16/06
                        Q1014 NOSIG=
200905181620 METAR COR EGLL 181620Z 22018KT 9999 FEW034 SCT043 15/06 Q1014
                        NOSIG=
200905181550 METAR EGLL 181550Z 22017KT 9999 FEW038 SCT044 16/07 Q1014=
200905181520 METAR COR EGLL 181520Z 22020G31KT 9999 SCT033 16/07 Q1013
                        NOSIG=
200905181450 METAR COR EGLL 181450Z 21018G28KT 180V240 9999 FEW022 SCT034
                        16/07 Q1013 NOSIG=
200905181420 METAR COR EGLL 181420Z 21016G27KT 9999 FEW017 SCT030 16/08
                        Q1013 NOSIG=
200905181350 METAR COR EGLL 181350Z 22021KT 9999 BKN029CB 15/08 Q1013
                        TEMPO SHRA=
200905181320 METAR COR EGLL 181320Z 21017KT 180V250 9999 SCT028 SCT040
                        15/07 Q1013 NOSIG=
200905181250 METAR COR EGLL 181250Z 21018KT 9999 SCT028 SCT040 15/07 Q1013
                        NOSIG=
200905181220 METAR COR EGLL 181220Z 21019G31KT 180V240 9999 8000SW -SHRA
                        SCT031 SCT038 15/07 Q1012 TEMPO SHRA=
200905181150 METAR COR EGLL 181150Z 21018KT 180V240 9999 SCT031 SCT035
                        16/08 Q1012 TEMPO 22018G28KT SHRA=
200905181120 METAR COR EGLL 181120Z 21016G26KT 9999 VCSH SCT021 SCT032
                        15/08 Q1012 TEMPO SHRA=
200905181050 METAR COR EGLL 181050Z 22017KT 9999 FEW024 SCT032 15/07 Q1012
                        TEMPO SHRA=
200905181020 METAR COR EGLL 181020Z 22019KT 9999 SCT033 SCT045 14/06 Q1012
                        TEMPO SHRA=
200905180950 METAR COR EGLL 180950Z 22016G26KT 190V250 9999 SCT035 15/07
                        Q1011 TEMPO SHRA=
200905180920 METAR COR EGLL 180920Z 22016G26KT 180V250 9999 FEW022 SCT026
                        14/07 Q1011 TEMPO SHRA=
200905180850 METAR COR EGLL 180850Z 21015G26KT 9999 FEW018 SCT025 13/08
                        Q1011 TEMPO SHRA=
200905180820 METAR COR EGLL 180820Z 22017G29KT 9999 SCT024 SCT030 14/08
                        Q1011 TEMPO SHRA=
200905180750 METAR COR EGLL 180750Z 21016G27KT 9999 7000NW VCSH SCT020
                        SCT030 13/08 Q1011 TEMPO SHRA=
200905180720 METAR COR EGLL 180720Z 21014KT 9999 SCT024 13/08 Q1011 TEMPO
                        SHRA=
200905180650 METAR COR EGLL 180650Z 21013KT 9999 FEW017 SCT025 12/08 Q1011
                        TEMPO SHRA=
200905180620 METAR COR EGLL 180620Z 20013KT 180V240 9999 FEW021 11/08
                        Q1011 NOSIG=
200905180550 METAR COR EGLL 180550Z 20012KT 9999 FEW026 11/08 Q1010 NOSIG=
200905180520 METAR COR EGLL 180520Z 20009G20KT 9999 FEW030 10/08 Q1010
                        NOSIG=
200905180450 METAR COR EGLL 180450Z 20009KT CAVOK 10/08 Q1010 NOSIG=
200905180420 METAR COR EGLL 180420Z 19011KT 9999 FEW025 10/08 Q1010 NOSIG=
200905180350 METAR COR EGLL 180350Z 19009KT 9999 FEW033 10/08 Q1010 NOSIG=
200905180320 METAR COR EGLL 180320Z 20009KT 9999 FEW026 10/08 Q1010 NOSIG=
200905180250 METAR COR EGLL 180250Z 20009KT 9999 FEW021 10/08 Q1009 NOSIG=
200905180220 METAR COR EGLL 180220Z 21008KT 9999 FEW025 11/08 Q1009 NOSIG=
200905180150 METAR COR EGLL 180150Z 20008KT 9999 FEW016 SCT039 11/09 Q1009
                        NOSIG=
200905180120 METAR COR EGLL 180120Z 20010KT 9000 -RA FEW017 SCT048 11/09
                        Q1009 NOSIG=
200905180050 METAR COR EGLL 180050Z 20009KT 9999 SCT020 11/09 Q1009 NOSIG=
200905180020 METAR COR EGLL 180020Z 19010KT 9999 SCT020 11/09 Q1009 NOSIG=
200905172350 METAR COR EGLL 172350Z 19010KT 9999 FEW018 SCT024 11/09 Q1009
                        NOSIG=
200905172320 METAR COR EGLL 172320Z 18007KT 9999 SCT020 BKN030 11/09 Q1009
                        NOSIG=
200905172250 METAR COR EGLL 172250Z 19006KT 9999 FEW020 11/09 Q1009 NOSIG=
200905172220 METAR COR EGLL 172220Z 21008KT 9999 SCT023 11/09 Q1009 NOSIG=
200905172150 METAR COR EGLL 172150Z 20009KT 160V230 9999 FEW020 11/09
                        Q1009 NOSIG=
200905172120 METAR COR EGLL 172120Z 20012KT 170V250 9999 FEW020 11/09
                        Q1009 NOSIG=
200905172050 METAR COR EGLL 172050Z 20011KT 170V230 9999 SCT019 11/09
                        Q1008 NOSIG=
200905172020 METAR COR EGLL 172020Z 20011KT 180V240 9999 SCT019 12/09
                        Q1008 NOSIG=
200905171950 METAR COR EGLL 171950Z 19011KT 160V240 9999 FEW020 SCT024
                        12/09 Q1008 NOSIG=
200905171920 METAR COR EGLL 171920Z 20013KT 180V240 9999 FEW022 SCT039
                        13/09 Q1008 NOSIG=
200905171850 METAR COR EGLL 171850Z 20013KT 9999 SCT019 SCT027 13/09 Q1007
                        NOSIG=
200905171820 METAR COR EGLL 171820Z 19012KT 170V240 9999 SCT016 SCT029
                        13/09 Q1007 NOSIG=
200905171750 METAR EGLL 171750Z 20014KT 160V230 9999 -SHRA FEW021 SCT027
                        13/09 Q1007=
200905171720 METAR COR EGLL 171720Z 20017G27KT 9999 FEW023 SCT033 13/09
                        Q1007 NOSIG=
200905171650 METAR COR EGLL 171650Z 20018KT 9999 SCT022 14/09 Q1006 NOSIG=
200905171620 METAR COR EGLL 171620Z 20018KT 9999 SCT017 SCT030 14/09 Q1006
                        TEMPO SHRA=
200905171550 METAR COR EGLL 171550Z 19015KT 170V230 9999 FEW015 SCT023
                        BKN027 13/10 Q1006 TEMPO SHRA=
200905171520 METAR COR EGLL 171520Z 19017KT 150V230 9999 6000S -SHRA SCT016
                        BKN020 12/09 Q1006 TEMPO SHRA=
200905171450 METAR COR EGLL 171450Z 19017KT 160V230 9999 -RA SCT017 BKN026
                        12/09 Q1006 TEMPO SHRA=
200905171420 METAR COR EGLL 171420Z 19019KT 9999 -SHRA FEW021 BKN031 12/09
                        Q1006 TEMPO SHRA=
200905171350 METAR COR EGLL 171350Z 19016KT 9999 -SHRA FEW027 BKN035 13/07
                        Q1006 TEMPO SHRA=
200905171320 METAR COR EGLL 171320Z 20017KT 9999 FEW029 BKN035 14/07 Q1006
                        TEMPO SHRA=
200905171250 METAR COR EGLL 171250Z 20017KT 9999 FEW031 SCT038 14/07 Q1006
                        NOSIG=
200905171220 METAR COR EGLL 171220Z 20013KT 170V240 9999 FEW029 SCT036
                        14/06 Q1006 NOSIG=
200905171150 METAR COR EGLL 171150Z 22015KT 9999 SCT032 14/06 Q1006 NOSIG=
200905171120 METAR COR EGLL 171120Z 22014KT 9999 SCT026 13/07 Q1005 NOSIG=
200905171050 METAR EGLL 171050Z 23015KT 9999 SCT026 13/08 Q1005=
200905171020 METAR COR EGLL 171020Z 22013KT 180V250 9999 FEW016 SCT024
                        12/08 Q1005 NOSIG=
200905170950 METAR COR EGLL 170950Z 17009KT 130V210 9999 -RA FEW024 SCT039
                        11/08 Q1005 TEMPO RA=
200905170920 METAR COR EGLL 170920Z 18019KT 8000 -RA FEW016 BKN030 11/08
                        Q1005 RERA TEMPO RA=
200905170850 METAR COR EGLL 170850Z 16011KT 9000 -RA SCT017 SCT022 12/09
                        Q1005 TEMPO RA=
200905170820 METAR COR EGLL 170820Z 15011KT 9999 -SHRA FEW020 SCT026 12/09
                        Q1005 TEMPO RA=
200905170750 METAR EGLL 170750Z 16012KT 9999 VCSH FEW018 SCT030 12/08
                        Q1005=
200905170720 METAR EGLL 170720Z 15011KT 9999 FEW016 12/08 Q1006 TEMPO
                        RA=
200905170650 METAR COR EGLL 170650Z 14010KT CAVOK 12/08 Q1006 BECMG BKN020=
200905170620 METAR COR EGLL 170620Z 15008KT CAVOK 11/08 Q1006 NOSIG=
200905170550 METAR COR EGLL 170550Z 13007KT 9999 FEW040 10/08 Q1006 NOSIG=
200905170520 METAR COR EGLL 170520Z 13008KT 9999 FEW035 10/08 Q1006 NOSIG=
200905170450 METAR COR EGLL 170450Z 11007KT 9999 FEW035 10/07 Q1006 NOSIG=
200905170420 METAR COR EGLL 170420Z 15005KT 9999 -RA FEW030 SCT040 10/07
                        Q1007 NOSIG=
200905170350 METAR COR EGLL 170350Z 10006KT 9999 FEW032 SCT045 10/07 Q1007
                        NOSIG=
200905170320 METAR COR EGLL 170320Z 11007KT 9999 SCT032 10/07 Q1007 NOSIG=
200905170250 METAR COR EGLL 170250Z 11007KT 9999 SCT033 09/07 Q1008 NOSIG=
200905170220 METAR COR EGLL 170220Z 11009KT 9999 SCT034 09/06 Q1008 NOSIG=
200905170150 METAR COR EGLL 170150Z 12006KT 9999 FEW034 08/06 Q1008 NOSIG=
200905170120 METAR COR EGLL 170120Z 13004KT CAVOK 08/06 Q1009 NOSIG=
200905170050 METAR COR EGLL 170050Z 16003KT CAVOK 09/06 Q1009 NOSIG=
200905170020 METAR COR EGLL 170020Z 16004KT CAVOK 09/06 Q1009 NOSIG=
200905162350 METAR COR EGLL 162350Z 17004KT CAVOK 09/06 Q1009 NOSIG=
200905162320 METAR COR EGLL 162320Z 15004KT 120V190 CAVOK 09/06 Q1009
                        NOSIG=
200905162250 METAR COR EGLL 162250Z 18005KT CAVOK 09/06 Q1009 NOSIG=
200905162220 METAR COR EGLL 162220Z 19005KT CAVOK 10/06 Q1009 NOSIG=
200905162150 METAR COR EGLL 162150Z 21008KT 160V250 CAVOK 10/06 Q1009
                        NOSIG=
200905162120 METAR COR EGLL 162120Z 20009KT 160V250 CAVOK 11/05 Q1009
                        NOSIG=
200905162050 METAR COR EGLL 162050Z 21010KT 180V240 CAVOK 11/05 Q1009
                        NOSIG=
200905162020 METAR COR EGLL 162020Z 22009KT CAVOK 11/05 Q1009 NOSIG=
200905161950 METAR COR EGLL 161950Z 22011KT 9999 FEW040 12/04 Q1009 NOSIG=
200905161920 METAR COR EGLL 161920Z 22009KT 190V250 9999 FEW040 13/04
                        Q1009 NOSIG=
200905161850 METAR COR EGLL 161850Z 23013KT CAVOK 14/04 Q1008 NOSIG=
200905161820 METAR COR EGLL 161820Z 22016KT 9999 FEW046 14/03 Q1008 NOSIG=
200905161750 METAR COR EGLL 161750Z 21014KT 180V240 9999 FEW046 14/05
                        Q1008 NOSIG=
200905161720 METAR COR EGLL 161720Z 21015KT 9999 FEW038 SCT046 14/06 Q1008
                        NOSIG=
200905161650 METAR COR EGLL 161650Z 20016KT 9999 FEW038 SCT043 15/06 Q1007
                        TEMPO 21018G28KT=
200905161620 METAR COR EGLL 161620Z 20016KT 160V240 9999 SCT042 BKN047
                        15/05 Q1007 TEMPO 21018G28KT=
200905161550 METAR COR EGLL 161550Z 22020G31KT 9999 FEW044 16/05 Q1007
                        NOSIG=
200905161520 METAR COR EGLL 161520Z 21017G27KT 9999 FEW044 15/05 Q1007
                        NOSIG=
200905161450 METAR COR EGLL 161450Z 23023G35KT 9999 BKN044 16/05 Q1007
                        NOSIG=
200905161420 METAR COR EGLL 161420Z 21015KT 180V250 9999 FEW042 SCT048
                        16/05 Q1006 TEMPO 21018G28KT=
200905161350 METAR COR EGLL 161350Z 22019G29KT 9999 -SHRA FEW038 15/06
                        Q1006 NOSIG=
200905161320 METAR COR EGLL 161320Z 21015KT 9999 FEW028 14/09 Q1006 TEMPO
                        21018G28KT=
200905161250 METAR COR EGLL 161250Z 22018G28KT 9999 -SHRA FEW029 SCT035
                        13/08 Q1006 RERA NOSIG=
200905161220 METAR COR EGLL 161220Z 22018KT 190V250 9999 SCT039 15/05
                        Q1005 TEMPO 22018G28KT=
200905161150 METAR COR EGLL 161150Z 21018G28KT 9999 SCT042 15/06 Q1005
                        NOSIG=
200905161120 METAR COR EGLL 161120Z 22019KT 9999 FEW038 15/06 Q1005 TEMPO
                        21018G28KT=
200905161050 METAR COR EGLL 161050Z 20018KT 9999 FEW032 SCT038 15/06 Q1004
                        TEMPO 20018G28KT=
200905161020 METAR COR EGLL 161020Z 21017G29KT 180V240 9999 SCT036 SCT045
                        15/07 Q1004 NOSIG=
200905160950 METAR COR EGLL 160950Z 20015KT 9999 BKN039 15/07 Q1004 TEMPO
                        21018G28KT=
200905160920 METAR COR EGLL 160920Z 21016KT 9999 FEW029 SCT032 14/06 Q1004
                        TEMPO 21018G28KT=
200905160850 METAR COR EGLL 160850Z 21017G27KT 9999 FEW027 SCT029 14/07
                        Q1004 NOSIG=
200905160820 METAR COR EGLL 160820Z 22015KT 9999 FEW024 SCT030 14/08 Q1003
                        TEMPO 22016G26KT=
200905160750 METAR COR EGLL 160750Z 21014KT 9999 FEW010 SCT018 13/09 Q1003
                        TEMPO 21015G25KT=
200905160720 METAR COR EGLL 160720Z 21010KT 9999 SCT021 12/10 Q1003 NOSIG=
200905160650 METAR COR EGLL 160650Z 18008KT 140V290 9999 FEW006 SCT047
                        11/10 Q1003 NOSIG=
200905160620 METAR COR EGLL 160620Z 17009KT 110V220 7000 -DZ SCT008 BKN013
                        11/09 Q1003 TEMPO 4000 DZ BKN008=
200905160550 METAR COR EGLL 160550Z 16009KT 120V220 8000 -DZ OVC008 10/09
                        Q1003 TEMPO 4000 DZ=
200905160520 METAR COR EGLL 160520Z 16010KT 8000 -DZ BKN007 10/09 Q1003
                        TEMPO 4000 DZ=
200905160450 METAR COR EGLL 160450Z 16010KT 140V210 8000 -RA SCT006 BKN010
                        09/08 Q1003 TEMPO 4000 RA BKN006=
200905160420 METAR COR EGLL 160420Z 16009KT 7000 -DZ BKN008 10/08 Q1003
                        TEMPO 4000 RADZ=
200905160350 METAR COR EGLL 160350Z 17009KT 9999 FEW008 BKN011 10/08 Q1003
                        TEMPO 4000 RA BKN008=
200905160320 METAR COR EGLL 160320Z 16007KT 9999 FEW015 BKN020 10/07 Q1004
                        BECMG BKN012=
200905160250 METAR COR EGLL 160250Z 16007KT 9999 SCT024 BKN027 09/07 Q1004
                        BECMG BKN012=
200905160220 METAR COR EGLL 160220Z 16007KT 9999 BKN025 BKN033 09/06 Q1004
                        NOSIG=
200905160150 METAR COR EGLL 160150Z 16005KT 9999 SCT033 BKN042 09/06 Q1004
                        NOSIG=
200905160120 METAR COR EGLL 160120Z 17005KT 9999 SCT030 BKN045 08/06 Q1004
                        NOSIG=
200905160050 METAR COR EGLL 160050Z 19005KT 9999 BKN042 08/05 Q1005 NOSIG=
200905160020 METAR COR EGLL 160020Z 20006KT 9999 BKN045 08/05 Q1005 NOSIG=
200905152350 METAR COR EGLL 152350Z 21007KT CAVOK 08/05 Q1005 NOSIG=
200905152320 METAR COR EGLL 152320Z 22010KT 9999 SCT036 09/05 Q1005 NOSIG=
200905152250 METAR COR EGLL 152250Z 22010KT 9999 FEW026 SCT030 BKN034
                        09/06 Q1005 NOSIG=
200905152220 METAR COR EGLL 152220Z 22011KT 9999 BKN029 09/06 Q1004 NOSIG=
200905152150 METAR COR EGLL 152150Z 22010KT 9999 SCT027 BKN048 10/07 Q1004
                        NOSIG=
200905152120 METAR COR EGLL 152120Z 24014KT 9999 SCT029 BKN047 10/07 Q1004
                        NOSIG=
200905152050 METAR COR EGLL 152050Z 24016KT 9999 FEW023 10/08 Q1004 NOSIG=
200905152020 METAR COR EGLL 152020Z 24014KT 9999 FEW020 SCT040 11/08 Q1003
                        NOSIG=
200905151950 METAR COR EGLL 151950Z 25017KT 9999 FEW012 SCT028 11/08 Q1003
                        NOSIG=
200905151920 METAR COR EGLL 151920Z 27018KT 9999 SCT022 SCT048 11/09 Q1002
                        RERA NOSIG=
200905151850 METAR COR EGLL 151850Z 22009KT 180V260 6000 2500E RA SCT006
                        BKN013 11/10 Q1002 BECMG NSW SCT013=
200905151820 METAR COR EGLL 151820Z 19009KT 150V240 2500 -RA OVC016 11/09
                        Q1001 BECMG 9999 NSW=
200905151750 METAR COR EGLL 151750Z 20010KT 9999 BKN019 12/08 Q1001 NOSIG=
200905151720 METAR COR EGLL 151720Z 20010G20KT 170V240 9999 FEW025 SCT031
                        BKN042 12/08 Q1001 NOSIG=
200905151650 METAR COR EGLL 151650Z 21011KT 9999 FEW021 SCT029 13/08 Q1001
                        NOSIG=
200905151620 METAR COR EGLL 151620Z 22014KT 9999 FEW027 BKN044 14/08 Q1001
                        NOSIG=
200905151550 METAR COR EGLL 151550Z 21014KT 9999 FEW029 SCT035 BKN045
                        14/07 Q1001 NOSIG=
200905151520 METAR COR EGLL 151520Z 20015KT 9999 FEW032 BKN045 14/07 Q1001
                        NOSIG=
200905151450 METAR COR EGLL 151450Z 20013KT 180V240 9999 FEW025 SCT040
                        15/07 Q1001 NOSIG=
200905151420 METAR COR EGLL 151420Z 21013KT 180V250 9999 FEW022 BKN027
                        14/08 Q1001 NOSIG=
200905151350 METAR COR EGLL 151350Z 21014KT 9999 SCT021 BKN035 14/08 Q1001
                        NOSIG=
200905151320 METAR COR EGLL 151320Z 20015KT 9999 SCT018 SCT025 14/09 Q1001
                        NOSIG=
200905151250 METAR COR EGLL 151250Z 20014KT 9999 FEW013 BKN029 14/10 Q1001
                        NOSIG=
200905151220 METAR COR EGLL 151220Z 18013KT 9000 VCSH FEW011 BKN020 13/11
                        Q1001 RERA NOSIG=
200905151150 METAR COR EGLL 151150Z 16009KT 130V200 9999 VCSH FEW021 SCT045
                        16/10 Q1001 NOSIG=
200905151120 METAR COR EGLL 151120Z 17012G23KT 120V200 9999 FEW018 SCT029
                        15/10 Q1001 NOSIG=
200905151050 METAR COR EGLL 151050Z 19011KT 170V240 9999 FEW020 SCT031
                        15/10 Q1001 NOSIG=
200905151020 METAR COR EGLL 151020Z 20010G20KT 160V240 9999 FEW022 SCT031
                        BKN040 15/10 Q1001 NOSIG=
200905150950 METAR COR EGLL 150950Z 19011KT 9999 SCT019 SCT028 14/09 Q1001
                        NOSIG=
200905150920 METAR COR EGLL 150920Z 19010KT 9999 SCT015 BKN028 14/10 Q1001
                        NOSIG=
200905150850 METAR COR EGLL 150850Z 20009KT 110V230 9999 SCT009 BKN028
                        14/11 Q1001 NOSIG=
200905150820 METAR COR EGLL 150820Z 20008KT 160V240 8000 SCT009 BKN023
                        13/11 Q1002 NOSIG=
200905150750 METAR COR EGLL 150750Z 20010KT 170V250 7000 FEW009 BKN026
                        13/11 Q1002 NOSIG=
200905150720 METAR COR EGLL 150720Z 21010KT 7000 SCT008 SCT028 13/11 Q1002
                        TEMPO BKN008=
200905150650 METAR COR EGLL 150650Z 20008KT 170V250 6000 FEW006 BKN008
                        13/11 Q1002 BECMG BKN012=
200905150620 METAR COR EGLL 150620Z 21009KT 180V240 6000 SCT006 BKN010
                        13/11 Q1002 TEMPO BKN006=
200905150550 METAR COR EGLL 150550Z 21008KT 180V260 3800 BR FEW010 SCT018
                        13/12 Q1002 TEMPO BKN009=
200905150520 METAR COR EGLL 150520Z 21006KT 120V240 3400 BR FEW014 SCT024
                        13/12 Q1002 TEMPO BKN009=
200905150450 METAR COR EGLL 150450Z 22007KT 190V250 3400 BR FEW008 SCT011
                        13/12 Q1002 TEMPO BKN005=
200905150420 METAR COR EGLL 150420Z 21006KT 2900 BR FEW005 SCT010 13/12
                        Q1002 TEMPO BKN005=
200905150350 METAR COR EGLL 150350Z 21004KT 170V230 2500 BR BKN005 13/12
                        Q1002 NOSIG=
200905150320 METAR COR EGLL 150320Z 23005KT 2300 BR BKN006 13/12 Q1002
                        NOSIG=
200905150250 METAR COR EGLL 150250Z 00000KT 1900 R09L/1400 BR BKN005 13/12
                        Q1002 NOSIG=
200905150220 METAR COR EGLL 150220Z 36003KT 1900 -RA SCT004 BKN006 13/12
                        Q1002 NOSIG=
200905150150 METAR EGLL 150150Z 00000KT 1900 BR BKN006 13/12 Q1003=
200905150120 METAR COR EGLL 150120Z 00000KT 1800 BR BKN006 13/12 Q1003
                        TEMPO RA=
200905150050 METAR COR EGLL 150050Z 06002KT 1800 R09L/1500 -SHRA FEW004
                        BKN009 13/12 Q1003 RERA TEMPO RA
                        BKN010=
200905150020 METAR COR EGLL 150020Z 07004KT 1600 R09L/1500 RA FEW004 BKN010
                        13/12 Q1003 TEMPO BKN008=
200905142350 METAR COR EGLL 142350Z 07004KT 1700 R09L/1500 SHRA FEW005
                        BKN010 13/12 Q1004 BECMG -SHRA=
200905142320 METAR COR EGLL 142320Z 08006KT 1500 R09L/1400 SHRA FEW006
                        BKN010 13/12 Q1004 RERA TEMPO 1200
                        +SHRA BKN008=
200905142250 METAR COR EGLL 142250Z 10003KT 1300 R09L/1500 SHRA FEW005
                        SCT010 13/12 Q1004 TEMPO +SHRA BKN007=
200905142220 METAR COR EGLL 142220Z 12008KT 2100 SHRA FEW009 SCT025 13/12
                        Q1004 TEMPO +SHRA BKN010=
200905142150 METAR COR EGLL 142150Z 11009KT 2800 -SHRA SCT030 13/12 Q1004
                        TEMPO SHRA BKN012=
200905142120 METAR COR EGLL 142120Z 11010KT 3700 -SHRA BKN013 BKN027 14/12
                        Q1005 TEMPO SHRA=
200905142050 METAR COR EGLL 142050Z 10008KT 5000 HZ SCT024 SCT030 14/12
                        Q1005 TEMPO 3000 SHRA=
200905142020 METAR COR EGLL 142020Z 11010KT 6000 -DZ SCT017 15/12 Q1005
                        TEMPO 3000 SHRA BKN012=
200905141950 METAR COR EGLL 141950Z 05006KT 020V090 5000 HZ FEW019 SCT029
                        16/12 Q1005 TEMPO 2500 +SHRA BKN012=
200905141920 METAR COR EGLL 141920Z AUTO 04006KT 5000NDV NCD 16/12 Q1005
                        TEMPO 2000 +SHRA BKN012=
200905141850 METAR COR EGLL 141850Z 03005KT 340V060 6000 NSC 17/12 Q1005
                        TEMPO SHRA=
200905141820 METAR COR EGLL 141820Z 03006KT 350V050 7000 BKN035 17/12
                        Q1005 TEMPO SHRA=
200905141750 METAR COR EGLL 141750Z 01005KT 330V050 7000 NSC 17/12 Q1005
                        TEMPO SHRA=
200905141720 METAR COR EGLL 141720Z 35005KT 310V060 7000 SCT025 BKN049
                        18/12 Q1005 TEMPO SHRA=
200905141650 METAR COR EGLL 141650Z 36005KT 320V050 9000 FEW036 18/12
                        Q1006 NOSIG=
200905141620 METAR COR EGLL 141620Z 34005KT 300V020 8000 SCT036 18/11
                        Q1006 NOSIG=
200905141550 METAR COR EGLL 141550Z 35004KT 320V030 9000 SCT036 BKN044
                        18/10 Q1006 NOSIG=
200905141520 METAR COR EGLL 141520Z VRB02KT 9999 BKN040 18/10 Q1006 NOSIG=
200905141450 METAR COR EGLL 141450Z VRB03KT 9999 SCT036 BKN040 18/10 Q1006
                        NOSIG=
200905141420 METAR COR EGLL 141420Z VRB03KT 9000 SCT031 BKN038 18/10 Q1007
                        NOSIG=
200905141350 METAR COR EGLL 141350Z VRB03KT 9000 BKN030 18/10 Q1007 NOSIG=
200905141320 METAR COR EGLL 141320Z VRB03KT 9000 BKN031 17/10 Q1007 NOSIG=
200905141250 METAR COR EGLL 141250Z VRB03KT 9000 BKN030 18/10 Q1007 NOSIG=
200905141220 METAR COR EGLL 141220Z VRB03KT 9000 BKN030 17/10 Q1008 NOSIG=
200905141150 METAR COR EGLL 141150Z VRB03KT 9000 SCT027 BKN029 17/10 Q1008
                        NOSIG=
200905141120 METAR COR EGLL 141120Z VRB03KT 9999 SCT025 BKN028 17/10 Q1008
                        NOSIG=
200905141050 METAR COR EGLL 141050Z 09005KT 050V160 9000 SCT023 BKN028
                        17/10 Q1008 NOSIG=
200905141020 METAR COR EGLL 141020Z 10005KT 050V150 9999 BKN023 BKN028
                        17/10 Q1008 NOSIG=
200905140950 METAR COR EGLL 140950Z 08006KT 9000 BKN023 17/11 Q1008 NOSIG=
200905140920 METAR COR EGLL 140920Z 08007KT 040V140 9000 BKN020 17/11
                        Q1008 NOSIG=
200905140850 METAR COR EGLL 140850Z 07006KT 030V100 8000 BKN018 16/10
                        Q1008 NOSIG=
200905140820 METAR COR EGLL 140820Z 06005KT 020V080 6000 FEW015 BKN017
                        15/11 Q1009 NOSIG=
200905140750 METAR COR EGLL 140750Z VRB03KT 6000 FEW014 BKN018 14/11 Q1009
                        TEMPO 9999=
200905140720 METAR COR EGLL 140720Z 08005KT 050V150 4900 HZ FEW015 BKN018
                        14/11 Q1009 BECMG 8000 NSW=
200905140650 METAR COR EGLL 140650Z VRB02KT 2200 HZ BKN020 14/11 Q1009
                        NOSIG=
200905140620 METAR COR EGLL 140620Z 05004KT 2000 BR BKN020 13/11 Q1009
                        TEMPO BKN007=
200905140550 METAR COR EGLL 140550Z 36004KT 320V050 2200 HZ SCT006 OVC018
                        13/11 Q1009 TEMPO BKN007=
200905140520 METAR COR EGLL 140520Z VRB03KT 2100 BR FEW006 OVC018 13/11
                        Q1009 TEMPO BKN007=
200905140450 METAR COR EGLL 140450Z VRB02KT 2100 HZ SCT007 OVC017 12/11
                        Q1009 TEMPO BKN007=
200905140420 METAR COR EGLL 140420Z VRB02KT 2200 BR BKN007 OVC014 12/11
                        Q1009 NOSIG=
200905140350 METAR COR EGLL 140350Z 25003KT 2800 BR SCT008 OVC013 12/11
                        Q1010 BECMG BKN006=
200905140320 METAR EGLL 140320Z 28004KT 2500 BR FEW004 OVC015 12/11 Q1010=
200905140250 METAR COR EGLL 140250Z 27004KT 2900 BR FEW004 OVC013 12/10
                        Q1010 BECMG BKN005=
200905140150 METAR EGLL 140150Z 27004KT 3400 BR OVC013 12/10 Q1010=
200905140120 METAR COR EGLL 140120Z 27003KT 3800 BR SCT006 OVC012 12/10
                        Q1010 TEMPO BKN006=
200905140050 METAR COR EGLL 140050Z 25004KT 4000 BR FEW006 BKN011 12/10
                        Q1011 TEMPO BKN006=
200905140020 METAR COR EGLL 140020Z 26005KT 3500 BR FEW004 BKN006 12/11
                        Q1011 TEMPO BKN004=
200905132350 METAR COR EGLL 132350Z 23005KT 3800 BR BKN006 12/11 Q1011
                        NOSIG=
200905132320 METAR COR EGLL 132320Z 20004KT 3800 BR BKN010 12/11 Q1011
                        TEMPO 5000=
200905132250 METAR COR EGLL 132250Z VRB02KT 4000 BR BKN009 13/11 Q1011
                        TEMPO BKN010=
200905132220 METAR COR EGLL 132220Z 14004KT 5000 BR BKN009 13/11 Q1011
                        TEMPO BKN010=
200905132150 METAR COR EGLL 132150Z 12003KT 5000 BR BKN009 BKN017 13/11
                        Q1011 TEMPO BKN010=
200905132120 METAR COR EGLL 132120Z 11004KT 5000 BR BKN009 13/11 Q1011
                        TEMPO BKN010=
200905132050 METAR COR EGLL 132050Z 09005KT 5000 BR BKN007 BKN016 13/11
                        Q1012 TEMPO BKN010=
200905132020 METAR COR EGLL 132020Z 09005KT 4800 HZ BKN007 OVC017 13/11
                        Q1012 NOSIG=
200905131950 METAR COR EGLL 131950Z 10005KT 4700 HZ OVC008 13/11 Q1012
                        NOSIG=
200905131920 METAR COR EGLL 131920Z 10006KT 4000 HZ BKN009 13/11 Q1012
                        NOSIG=
200905131850 METAR COR EGLL 131850Z 09007KT 4800 HZ BKN009 BKN020 13/11
                        Q1012 NOSIG=
200905131820 METAR COR EGLL 131820Z 09007KT 4900 HZ BKN008 13/11 Q1012
                        NOSIG=
200905131750 METAR COR EGLL 131750Z 08007KT 3900 HZ BKN008 13/11 Q1012
                        NOSIG=
200905131720 METAR COR EGLL 131720Z 08009KT 4000 HZ BKN009 13/11 Q1012
                        TEMPO BKN010=
200905131650 METAR COR EGLL 131650Z 08010KT 3500 HZ BKN008 13/11 Q1012
                        TEMPO BKN010=
200905131620 METAR COR EGLL 131620Z 09009KT 3000 HZ FEW008 OVC010 13/11
                        Q1012 REDZ NOSIG=
200905131550 METAR COR EGLL 131550Z 09010KT 3000 R09L/1300 HZ OVC009 13/11
                        Q1013 TEMPO BKN010=
200905131520 METAR COR EGLL 131520Z 08009KT 3800 HZ OVC011 13/11 Q1013
                        NOSIG=
200905131450 METAR COR EGLL 131450Z 09010KT 3800 HZ OVC010 14/11 Q1013
                        NOSIG=
200905131420 METAR COR EGLL 131420Z 09011KT 3900 HZ OVC010 13/11 Q1013
                        NOSIG=
200905131350 METAR COR EGLL 131350Z 09012KT 4100 HZ BKN010 13/11 Q1013
                        TEMPO 5000=
200905131320 METAR COR EGLL 131320Z 08012KT 4200 HZ OVC010 13/11 Q1014
                        BECMG 5000=
200905131250 METAR COR EGLL 131250Z 09011KT 3800 HZ SCT007 BKN010 13/11
                        Q1014 TEMPO 5000=
200905131220 METAR COR EGLL 131220Z 08010KT 3600 HZ BKN007 13/12 Q1014
                        TEMPO 5000 SCT007 BKN010=
200905131150 METAR COR EGLL 131150Z 09012KT 3400 HZ OVC007 13/12 Q1014
                        TEMPO 5000 SCT007 BKN010=
200905131120 METAR COR EGLL 131120Z 09011KT 2800 BR OVC006 13/12 Q1014
                        TEMPO 5000 BKN010=
200905131050 METAR COR EGLL 131050Z 08010KT 2300 R09L/1400 -RADZ OVC006
                        13/12 Q1014 TEMPO 5000 SCT006 BKN010=
200905131020 METAR COR EGLL 131020Z 09010KT 2100 R09L/1300 -DZ OVC006
                        12/11 Q1014 TEMPO 5000 SCT006 BKN010=
200905130950 METAR COR EGLL 130950Z 09010KT 1900 R09L/1200 DZ OVC006 12/11
                        Q1014 TEMPO 5000 NSW BKN010=
200905130920 METAR COR EGLL 130920Z 09011KT 2500 R09L/1400 BR FEW005 OVC008
                        12/11 Q1014 RERA REDZ BECMG 6000
                        NSW SCT008 BKN012=
200905130850 METAR COR EGLL 130850Z 09010KT 1900 R09L/1300 RADZ FEW006
                        BKN007 12/11 Q1014 BECMG 5000 NSW
                        BKN012=
200905130820 METAR COR EGLL 130820Z 07008KT 3000 R09L/1500 DZ FEW009 OVC011
                        12/10 Q1014 BECMG 7000 NSW=
200905130750 METAR COR EGLL 130750Z 06007KT 3600 -RADZ OVC009 12/10 Q1014
                        TEMPO 5000 RADZ=
200905130720 METAR COR EGLL 130720Z 06009KT 3200 R09L/1500 -RADZ BKN009
                        12/10 Q1014 TEMPO 5000 RADZ=
200905130650 METAR COR EGLL 130650Z 06009KT 4500 -DZ OVC010 11/10 Q1015
                        TEMPO 6000 DZ BKN007=
200905130620 METAR COR EGLL 130620Z 07009KT 6000 OVC011 11/09 Q1015 TEMPO
                        4000 - RA BKN008=
200905130550 METAR COR EGLL 130550Z 06010KT 8000 BKN011 11/09 Q1015 TEMPO
                        4000 - RA BKN008=
200905130520 METAR COR EGLL 130520Z 06009KT 7000 BKN013 11/09 Q1015 NOSIG=
200905130450 METAR COR EGLL 130450Z 05007KT 9999 BKN014 11/09 Q1015 NOSIG=
200905130420 METAR COR EGLL 130420Z 06008KT 9999 BKN014 11/08 Q1015 NOSIG=
200905130350 METAR COR EGLL 130350Z 06009KT 9999 OVC017 11/08 Q1015 BECMG
                        BKN012=
200905130320 METAR COR EGLL 130320Z 05008KT 020V080 9999 SCT022 BKN040
                        12/07 Q1015 NOSIG=
200905130250 METAR COR EGLL 130250Z 05010KT 020V080 9999 FEW022 BKN040
                        12/07 Q1016 NOSIG=
200905130220 METAR COR EGLL 130220Z 06009KT 9999 OVC029 12/07 Q1016 NOSIG=
200905130150 METAR COR EGLL 130150Z 06009KT 9999 BKN030 12/07 Q1016 NOSIG=
200905130120 METAR COR EGLL 130120Z 05008KT 9999 BKN032 12/07 Q1016 NOSIG=
200905130050 METAR COR EGLL 130050Z 04010KT 9999 SCT048 12/07 Q1017 NOSIG=
200905130020 METAR COR EGLL 130020Z 05009KT 020V080 9999 FEW036 BKN047
                        12/07 Q1017 NOSIG=
200905122350 METAR COR EGLL 122350Z 05009KT 020V080 9999 BKN047 12/07
                        Q1017 NOSIG=
200905122320 METAR COR EGLL 122320Z 05007KT 9999 BKN044 12/07 Q1017 NOSIG=
200905122250 METAR COR EGLL 122250Z 05008KT 020V090 9999 BKN045 12/06
                        Q1018 NOSIG=
200905122220 METAR COR EGLL 122220Z 05009KT 9999 BKN044 12/06 Q1018 NOSIG=
200905122150 METAR COR EGLL 122150Z 05008KT 020V080 9999 BKN044 12/06
                        Q1018 NOSIG=
200905122120 METAR COR EGLL 122120Z 05011KT 9999 BKN045 12/06 Q1018 NOSIG=
200905122050 METAR COR EGLL 122050Z 05012KT 010V080 9999 BKN043 13/06
                        Q1018 NOSIG=
200905122020 METAR COR EGLL 122020Z 05010KT 010V070 9999 SCT047 13/06
                        Q1018 NOSIG=
200905121950 METAR COR EGLL 121950Z 06012KT 9999 SCT048 14/05 Q1018 NOSIG=
200905121920 METAR COR EGLL 121920Z 04009KT 360V080 9999 SCT048 14/05
                        Q1018 NOSIG=
200905121850 METAR COR EGLL 121850Z 06011KT 9999 BKN048 15/04 Q1018 NOSIG=
200905121820 METAR COR EGLL 121820Z 06013KT CAVOK 14/03 Q1018 NOSIG=
200905121750 METAR COR EGLL 121750Z 06012KT CAVOK 15/04 Q1018 NOSIG=
200905121720 METAR COR EGLL 121720Z 06015KT CAVOK 15/03 Q1018 NOSIG=
200905121650 METAR COR EGLL 121650Z 06014KT CAVOK 16/03 Q1019 TEMPO 06015G25KT=
200905121620 METAR COR EGLL 121620Z 06015KT CAVOK 16/03 Q1019 TEMPO 06015G25KT=
200905121550 METAR COR EGLL 121550Z 06013KT CAVOK 16/02 Q1019 TEMPO 06015G25KT=
200905121520 METAR COR EGLL 121520Z 06016KT CAVOK 17/01 Q1019 TEMPO 06016G26KT=
200905121450 METAR COR EGLL 121450Z 07016G26KT CAVOK 16/01 Q1019 NOSIG=
200905121420 METAR COR EGLL 121420Z 07014KT CAVOK 17/M00 Q1019 TEMPO 07015G25KT=
200905121350 METAR COR EGLL 121350Z 07017KT CAVOK 16/M03 Q1019 TEMPO 07017G27KT=
200905121320 METAR COR EGLL 121320Z 06017KT CAVOK 17/00 Q1019 TEMPO 06017G27KT=
200905121250 METAR COR EGLL 121250Z 06015KT 9999 FEW049 17/03 Q1019 TEMPO
                        06016G26KT=
200905121220 METAR COR EGLL 121220Z 06014G24KT 030V090 9999 FEW047 16/04
                        Q1019 NOSIG=
200905121150 METAR COR EGLL 121150Z 06017KT 9999 FEW042 16/04 Q1019 TEMPO
                        06018G28KT=
200905121120 METAR COR EGLL 121120Z 07017KT 9999 FEW040 16/05 Q1020 NOSIG=
200905121050 METAR COR EGLL 121050Z 06014KT 9999 SCT034 SCT041 15/05 Q1020
                        NOSIG=
200905121020 METAR COR EGLL 121020Z 05012KT 020V090 9999 SCT029 BKN045
                        14/06 Q1020 NOSIG=
200905120950 METAR COR EGLL 120950Z 04012KT 360V070 9999 FEW026 BKN038
                        14/06 Q1020 NOSIG=
200905120920 METAR COR EGLL 120920Z 04011KT 9999 FEW025 13/06 Q1021 NOSIG=
200905120850 METAR COR EGLL 120850Z 05011KT 010V080 9999 BKN024 11/05
                        Q1021 NOSIG=
200905120820 METAR COR EGLL 120820Z 04011KT 010V070 9999 BKN024 10/04
                        Q1021 NOSIG=
200905120750 METAR COR EGLL 120750Z 05010KT 010V080 9999 BKN022 09/04
                        Q1022 NOSIG=
200905120720 METAR COR EGLL 120720Z 06010KT 9999 FEW021 BKN026 09/04 Q1022
                        NOSIG=
200905120650 METAR COR EGLL 120650Z 05010KT 010V070 9999 BKN021 09/04
                        Q1021 NOSIG=
200905120620 METAR COR EGLL 120620Z 05010KT 010V090 9999 SCT021 BKN040
                        08/03 Q1021 NOSIG=
200905120550 METAR COR EGLL 120550Z 05009KT 360V080 9999 SCT021 BKN035
                        08/02 Q1022 NOSIG=
200905120520 METAR COR EGLL 120520Z 05011KT 9999 SCT021 SCT035 07/02 Q1022
                        NOSIG=
200905120450 METAR COR EGLL 120450Z 04012KT 9999 BKN021 07/02 Q1021 NOSIG=
200905120420 METAR COR EGLL 120420Z 05009KT 010V080 9999 BKN022 07/02
                        Q1022 NOSIG=
200905120350 METAR COR EGLL 120350Z 05010KT 9999 BKN023 07/02 Q1022 NOSIG=
200905120320 METAR COR EGLL 120320Z 06010KT 9999 BKN022 07/02 Q1022 NOSIG=
200905120250 METAR COR EGLL 120250Z 05010KT 010V090 9999 BKN023 07/02
                        Q1022 NOSIG=
200905120220 METAR COR EGLL 120220Z 06010KT 9999 BKN023 08/02 Q1022 NOSIG=
200905120150 METAR COR EGLL 120150Z 06010KT 9999 BKN023 08/02 Q1022 NOSIG=
200905120120 METAR COR EGLL 120120Z 06011KT 9999 BKN024 08/02 Q1022 NOSIG=
200905120050 METAR COR EGLL 120050Z 06011KT 9999 BKN024 08/02 Q1023 NOSIG=
200905120020 METAR COR EGLL 120020Z 06011KT 9999 SCT024 08/02 Q1023 NOSIG=
200905112350 METAR COR EGLL 112350Z 06012G22KT 9999 FEW023 08/02 Q1023
                        NOSIG=
200905112320 METAR COR EGLL 112320Z 06013KT 9999 FEW024 08/02 Q1023 NOSIG=
200905112250 METAR COR EGLL 112250Z 06013KT CAVOK 08/02 Q1023 NOSIG=
200905112220 METAR COR EGLL 112220Z 06015KT CAVOK 08/03 Q1023 NOSIG=
200905112150 METAR COR EGLL 112150Z 06013G23KT CAVOK 09/03 Q1023 NOSIG=
200905112120 METAR COR EGLL 112120Z 06014KT CAVOK 09/03 Q1022 NOSIG=
200905112050 METAR COR EGLL 112050Z 06017KT CAVOK 09/03 Q1022 NOSIG=
200905112020 METAR COR EGLL 112020Z 06013KT CAVOK 10/03 Q1022 NOSIG=
200905111950 METAR COR EGLL 111950Z 05015KT CAVOK 11/03 Q1022 NOSIG=
200905111920 METAR COR EGLL 111920Z 06015KT CAVOK 11/03 Q1022 NOSIG=
200905111850 METAR COR EGLL 111850Z 06015KT CAVOK 12/02 Q1021 NOSIG=
200905111820 METAR COR EGLL 111820Z 05015KT CAVOK 13/02 Q1021 NOSIG=
200905111750 METAR COR EGLL 111750Z 06014KT CAVOK 14/02 Q1021 NOSIG=
200905111720 METAR COR EGLL 111720Z 07016KT CAVOK 14/01 Q1021 NOSIG=
200905111650 METAR COR EGLL 111650Z 06015KT 360V090 CAVOK 15/02 Q1021
                        NOSIG=
200905111620 METAR COR EGLL 111620Z 07013KT CAVOK 16/02 Q1021 NOSIG=
200905111550 METAR COR EGLL 111550Z 05013G25KT CAVOK 16/02 Q1021 NOSIG=
200905111520 METAR COR EGLL 111520Z 06013KT 020V080 CAVOK 17/02 Q1021
                        TEMPO 06015G25KT=
200905111450 METAR COR EGLL 111450Z 05012KT CAVOK 17/03 Q1021 TEMPO 06015G25KT=
200905111420 METAR COR EGLL 111420Z 05013G23KT 020V080 CAVOK 17/02 Q1021
                        NOSIG=
200905111350 METAR COR EGLL 111350Z 05015KT 010V080 CAVOK 17/03 Q1021
                        TEMPO 06015G25KT=
200905111320 METAR COR EGLL 111320Z 05014KT CAVOK 17/02 Q1022 TEMPO 06015G25KT=
200905111250 METAR COR EGLL 111250Z 06015G25KT CAVOK 17/03 Q1022 NOSIG=
200905111220 METAR COR EGLL 111220Z 06013KT CAVOK 16/02 Q1022 TEMPO 07016G26KT=
200905111150 METAR COR EGLL 111150Z 07014KT 9999 FEW048 16/04 Q1022 TEMPO
                        07016G26KT=
200905111120 METAR COR EGLL 111120Z 05013KT 360V080 9999 FEW044 15/04
                        Q1022 TEMPO 06017G27KT=
200905111050 METAR COR EGLL 111050Z 06013KT 010V090 9999 FEW040 15/04
                        Q1022 TEMPO 06017G27KT=
200905111020 METAR COR EGLL 111020Z 06014KT 020V090 9999 FEW040 15/05
                        Q1022 TEMPO 06016G26KT=
200905110950 METAR COR EGLL 110950Z 05012KT 9999 FEW040 14/04 Q1022 TEMPO
                        06015G25KT=
200905110920 METAR COR EGLL 110920Z 05013G23KT 9999 FEW030 14/05 Q1022
                        NOSIG=
200905110850 METAR COR EGLL 110850Z 06014KT 020V080 9999 FEW030 13/05
                        Q1022 BECMG 06015G25KT=
200905110820 METAR COR EGLL 110820Z 05013KT 010V080 9999 FEW028 12/05
                        Q1022 BECMG 06015G25KT=
200905110750 METAR COR EGLL 110750Z 06011KT 010V080 9999 FEW025 12/05
                        Q1022 NOSIG=
200905110720 METAR EGLL 110720Z 05011KT 020V090 CAVOK 11/05 Q1021=
200905110650 METAR COR EGLL 110650Z 04012KT 010V080 CAVOK 10/05 Q1021
                        NOSIG=
200905110620 METAR COR EGLL 110620Z 05011KT 9999 FEW020 09/05 Q1021 NOSIG=
200905110550 METAR COR EGLL 110550Z 05011KT CAVOK 09/05 Q1021 NOSIG=
200905110520 METAR COR EGLL 110520Z 04009KT 010V080 CAVOK 08/05 Q1021
                        NOSIG=
200905110450 METAR COR EGLL 110450Z 05007KT 010V070 CAVOK 08/05 Q1021
                        NOSIG=
200905110420 METAR COR EGLL 110420Z 04008KT CAVOK 08/04 Q1021 NOSIG=
200905110350 METAR COR EGLL 110350Z 04008KT 010V070 CAVOK 09/04 Q1021
                        NOSIG=
200905110320 METAR COR EGLL 110320Z 05008KT CAVOK 09/04 Q1021 NOSIG=
200905110250 METAR COR EGLL 110250Z 04008KT 360V070 CAVOK 09/05 Q1021
                        NOSIG=
200905110220 METAR COR EGLL 110220Z 05009KT CAVOK 09/05 Q1021 NOSIG=
200905110150 METAR COR EGLL 110150Z 05008KT CAVOK 10/04 Q1020 NOSIG=
200905110120 METAR COR EGLL 110120Z 05008KT CAVOK 10/04 Q1020 NOSIG=
200905110050 METAR COR EGLL 110050Z 05007KT CAVOK 10/04 Q1020 NOSIG=
200905110020 METAR COR EGLL 110020Z 04008KT 010V070 CAVOK 11/04 Q1021
                        NOSIG=
200905102350 METAR COR EGLL 102350Z 06009KT CAVOK 11/04 Q1021 NOSIG=
200905102320 METAR COR EGLL 102320Z 06008KT CAVOK 11/03 Q1021 NOSIG=
200905102250 METAR COR EGLL 102250Z 06010KT CAVOK 11/03 Q1021 NOSIG=
200905102220 METAR COR EGLL 102220Z 05010KT CAVOK 12/03 Q1020 NOSIG=
200905102150 METAR COR EGLL 102150Z 06013KT CAVOK 12/04 Q1020 NOSIG=
200905102120 METAR COR EGLL 102120Z 07009KT CAVOK 12/05 Q1020 NOSIG=
200905102050 METAR COR EGLL 102050Z 07009KT CAVOK 13/05 Q1020 NOSIG=
200905102020 METAR COR EGLL 102020Z 07011KT CAVOK 14/05 Q1019 NOSIG=
200905101950 METAR COR EGLL 101950Z 08013KT CAVOK 14/04 Q1019 NOSIG=
200905101920 METAR COR EGLL 101920Z 09012KT CAVOK 14/04 Q1019 NOSIG=
200905101850 METAR COR EGLL 101850Z 08012KT CAVOK 15/05 Q1018 NOSIG=
200905101820 METAR COR EGLL 101820Z 09011KT CAVOK 16/05 Q1018 NOSIG=
200905101750 METAR COR EGLL 101750Z 09012KT CAVOK 17/03 Q1018 NOSIG=
200905101720 METAR COR EGLL 101720Z 07010KT CAVOK 17/04 Q1018 NOSIG=
200905101650 METAR COR EGLL 101650Z 07009KT CAVOK 18/04 Q1018 NOSIG=
200905101620 METAR EGLL 101620Z 08010KT CAVOK 18/04 Q1018=
200905101550 METAR COR EGLL 101550Z 07009KT 030V110 CAVOK 19/04 Q1018
                        NOSIG=
200905101520 METAR COR EGLL 101520Z 08009KT 040V110 CAVOK 19/04 Q1018
                        NOSIG=
200905101450 METAR COR EGLL 101450Z 06008KT 020V080 CAVOK 19/04 Q1018
                        NOSIG=
200905101420 METAR COR EGLL 101420Z 07005KT 350V140 CAVOK 19/04 Q1018
                        NOSIG=
200905101350 METAR COR EGLL 101350Z 07007KT 020V120 CAVOK 19/05 Q1018
                        NOSIG=
200905101320 METAR COR EGLL 101320Z VRB06KT CAVOK 19/05 Q1018 NOSIG=
200905101250 METAR COR EGLL 101250Z 08007KT 040V110 CAVOK 18/05 Q1019
                        NOSIG=
200905101220 METAR COR EGLL 101220Z 07007KT 360V140 9999 FEW047 19/05
                        Q1019 NOSIG=
200905101150 METAR COR EGLL 101150Z 09006KT 050V130 9999 FEW048 17/06
                        Q1019 NOSIG=
200905101120 METAR COR EGLL 101120Z VRB04KT 9999 BKN048 18/06 Q1019 NOSIG=
200905101050 METAR COR EGLL 101050Z 12007KT 070V170 9999 SCT045 18/05
                        Q1019 NOSIG=
200905101020 METAR COR EGLL 101020Z 14008KT 100V170 9999 FEW045 17/05
                        Q1019 NOSIG=
200905100950 METAR COR EGLL 100950Z 09008KT 050V150 9999 FEW040 17/05
                        Q1019 NOSIG=
200905100920 METAR COR EGLL 100920Z 10006KT 060V150 9999 FEW038 16/06
                        Q1019 NOSIG=
200905100850 METAR COR EGLL 100850Z 06006KT 040V140 CAVOK 15/07 Q1019
                        NOSIG=
200905100820 METAR COR EGLL 100820Z 07005KT CAVOK 14/07 Q1019 NOSIG=
200905100750 METAR COR EGLL 100750Z 07005KT 040V110 CAVOK 13/07 Q1019
                        NOSIG=
200905100720 METAR COR EGLL 100720Z 12003KT CAVOK 12/07 Q1019 NOSIG=
200905100650 METAR COR EGLL 100650Z 09003KT CAVOK 11/07 Q1019 NOSIG=
200905100620 METAR COR EGLL 100620Z 10003KT CAVOK 10/07 Q1019 NOSIG=
200905100550 METAR COR EGLL 100550Z 00000KT CAVOK 09/07 Q1018 NOSIG=
200905100520 METAR COR EGLL 100520Z 00000KT CAVOK 07/06 Q1018 NOSIG=
200905100450 METAR COR EGLL 100450Z 05002KT CAVOK 06/05 Q1018 NOSIG=
200905100420 METAR COR EGLL 100420Z VRB02KT CAVOK 05/04 Q1018 NOSIG=
200905100350 METAR COR EGLL 100350Z 00000KT CAVOK 06/05 Q1018 NOSIG=
200905100320 METAR COR EGLL 100320Z 00000KT CAVOK 06/05 Q1018 NOSIG=
200905100250 METAR COR EGLL 100250Z 36002KT CAVOK 07/05 Q1018 NOSIG=
200905100220 METAR COR EGLL 100220Z 35002KT CAVOK 07/05 Q1018 NOSIG=
200905100150 METAR COR EGLL 100150Z 00000KT CAVOK 07/06 Q1018 NOSIG=
200905100120 METAR COR EGLL 100120Z 00000KT CAVOK 08/06 Q1018 NOSIG=
200905100050 METAR COR EGLL 100050Z VRB02KT CAVOK 08/06 Q1018 NOSIG=
200905100020 METAR COR EGLL 100020Z 19005KT CAVOK 09/06 Q1018 NOSIG=
200905092350 METAR COR EGLL 092350Z 27003KT CAVOK 09/06 Q1018 NOSIG=
200905092320 METAR COR EGLL 092320Z 25005KT CAVOK 10/06 Q1018 NOSIG=
200905092250 METAR COR EGLL 092250Z 21004KT CAVOK 10/06 Q1018 NOSIG=
200905092220 METAR COR EGLL 092220Z 25007KT 9999 SCT037 11/06 Q1017 NOSIG=
200905092150 METAR COR EGLL 092150Z 23008KT 9999 FEW040 11/06 Q1017 NOSIG=
200905092120 METAR COR EGLL 092120Z 23008KT CAVOK 12/06 Q1017 NOSIG=
200905092050 METAR COR EGLL 092050Z 22009KT 9999 FEW042 13/06 Q1017 NOSIG=
200905092020 METAR COR EGLL 092020Z 22008KT CAVOK 13/06 Q1016 NOSIG=
200905091950 METAR COR EGLL 091950Z 24008KT CAVOK 14/06 Q1016 NOSIG=
200905091920 METAR COR EGLL 091920Z 26006KT CAVOK 14/04 Q1016 NOSIG=
200905091850 METAR COR EGLL 091850Z 27008KT CAVOK 15/04 Q1016 NOSIG=
200905091820 METAR COR EGLL 091820Z 27007KT CAVOK 15/04 Q1015 NOSIG=
200905091750 METAR COR EGLL 091750Z 26008KT CAVOK 15/04 Q1015 NOSIG=
200905091720 METAR COR EGLL 091720Z 28009KT 240V310 CAVOK 15/04 Q1015
                        NOSIG=
200905091650 METAR COR EGLL 091650Z 27010KT CAVOK 16/03 Q1015 NOSIG=
200905091620 METAR COR EGLL 091620Z 25010KT 210V280 CAVOK 16/03 Q1015
                        NOSIG=
200905091550 METAR COR EGLL 091550Z 26009KT CAVOK 16/03 Q1015 NOSIG=
200905091520 METAR COR EGLL 091520Z 26010KT 220V300 CAVOK 16/02 Q1015
                        NOSIG=
200905091450 METAR COR EGLL 091450Z 25011KT 200V300 CAVOK 17/02 Q1015
                        NOSIG=
200905091420 METAR COR EGLL 091420Z 24011KT 200V280 CAVOK 16/01 Q1015
                        NOSIG=
200905091350 METAR COR EGLL 091350Z 25010G20KT 9999 SCT049 17/02 Q1015
                        NOSIG=
200905091320 METAR EGLL 091320Z 26012KT 220V290 9999 FEW048 16/03 Q1015=
200905091250 METAR COR EGLL 091250Z 26009KT 210V290 9999 SCT047 16/04
                        Q1015 NOSIG=
200905091220 METAR COR EGLL 091220Z 26011KT 200V300 9999 SCT045 15/04
                        Q1015 NOSIG=
200905091150 METAR COR EGLL 091150Z 26010KT 220V290 9999 SCT038 15/04
                        Q1015 NOSIG=
200905091120 METAR COR EGLL 091120Z 25008KT 200V300 9999 FEW034 SCT040
                        14/05 Q1016 NOSIG=
200905091050 METAR COR EGLL 091050Z 26012KT 9999 SCT034 14/05 Q1016 NOSIG=
200905091020 METAR COR EGLL 091020Z 23007KT 180V260 9999 SCT030 13/05
                        Q1016 NOSIG=
200905090950 METAR COR EGLL 090950Z 21009KT 170V260 9999 FEW024 SCT032
                        12/05 Q1016 NOSIG=
200905090920 METAR COR EGLL 090920Z 22008KT 170V270 CAVOK 12/05 Q1016
                        NOSIG=
200905090850 METAR COR EGLL 090850Z 22007KT 190V260 CAVOK 11/05 Q1017
                        NOSIG=
200905090820 METAR COR EGLL 090820Z 24006KT 190V270 CAVOK 11/06 Q1017
                        NOSIG=
200905090750 METAR COR EGLL 090750Z 23007KT 190V260 CAVOK 10/06 Q1017
                        NOSIG=
200905090720 METAR COR EGLL 090720Z 23008KT 200V260 9999 FEW035 10/06
                        Q1017 NOSIG=
200905090650 METAR COR EGLL 090650Z 22006KT 9999 FEW035 09/06 Q1017 NOSIG=
200905090620 METAR COR EGLL 090620Z 20007KT CAVOK 09/06 Q1017 NOSIG=
200905090550 METAR COR EGLL 090550Z 20007KT 170V250 CAVOK 08/06 Q1017
                        NOSIG=
200905090520 METAR COR EGLL 090520Z 21006KT 180V240 CAVOK 08/06 Q1017
                        NOSIG=
200905090450 METAR COR EGLL 090450Z 20005KT CAVOK 08/05 Q1017 NOSIG=
200905090420 METAR COR EGLL 090420Z 19005KT 170V240 CAVOK 07/05 Q1017
                        NOSIG=
200905090350 METAR COR EGLL 090350Z 19005KT CAVOK 08/05 Q1017 NOSIG=
200905090320 METAR COR EGLL 090320Z 19005KT CAVOK 08/05 Q1017 NOSIG=
200905090250 METAR COR EGLL 090250Z 18005KT CAVOK 08/06 Q1017 NOSIG=
200905090220 METAR COR EGLL 090220Z 20005KT CAVOK 08/06 Q1017 NOSIG=
200905090150 METAR COR EGLL 090150Z 22004KT CAVOK 08/06 Q1017 NOSIG=
200905090120 METAR COR EGLL 090120Z 19006KT CAVOK 08/06 Q1017 NOSIG=
200905090050 METAR COR EGLL 090050Z 23005KT CAVOK 09/06 Q1017 NOSIG=
200905090020 METAR COR EGLL 090020Z 19005KT CAVOK 09/06 Q1017 NOSIG=
200905082350 METAR COR EGLL 082350Z 21004KT CAVOK 10/06 Q1017 NOSIG=
200905082320 METAR COR EGLL 082320Z 20006KT CAVOK 10/06 Q1017 NOSIG=
200905082250 METAR COR EGLL 082250Z 19005KT CAVOK 10/06 Q1017 NOSIG=
200905082220 METAR COR EGLL 082220Z 26005KT CAVOK 10/05 Q1017 NOSIG=
200905082150 METAR EGLL 082150Z 27007KT 9999 FEW035 10/05 Q1017=
200905082120 METAR COR EGLL 082120Z 27007KT CAVOK 11/04 Q1017 NOSIG=
200905082050 METAR COR EGLL 082050Z 27008KT 9999 FEW039 11/04 Q1017 NOSIG=
200905082020 METAR COR EGLL 082020Z 27007KT 9999 FEW041 12/04 Q1016 NOSIG=
200905081950 METAR COR EGLL 081950Z 28009KT 9999 FEW046 12/04 Q1016 NOSIG=
200905081920 METAR COR EGLL 081920Z 27011KT 9999 FEW044 13/05 Q1016 NOSIG=
200905081850 METAR COR EGLL 081850Z 26015KT 9999 FEW044 14/05 Q1015 NOSIG=
200905081820 METAR COR EGLL 081820Z 26014KT 9999 FEW043 14/04 Q1015 NOSIG=
200905081750 METAR COR EGLL 081750Z 26013KT 9999 SCT045 15/05 Q1014 NOSIG=
200905081720 METAR COR EGLL 081720Z 24016KT 9999 FEW047 15/05 Q1014 NOSIG=
200905081650 METAR COR EGLL 081650Z 25017KT 9999 FEW044 15/04 Q1014 NOSIG=
200905081620 METAR COR EGLL 081620Z 26020KT 9999 FEW047 15/04 Q1013 TEMPO
                        27020G30KT=
200905081550 METAR COR EGLL 081550Z 26019KT 9999 FEW046 16/04 Q1013 TEMPO
                        26019G29KT=
200905081520 METAR COR EGLL 081520Z 25019KT CAVOK 16/03 Q1013 TEMPO 26019G29KT=
200905081450 METAR COR EGLL 081450Z 24021G31KT CAVOK 16/02 Q1012 NOSIG=
200905081420 METAR COR EGLL 081420Z 25020KT CAVOK 15/01 Q1012 TEMPO 26020G30KT=
200905081350 METAR COR EGLL 081350Z 26018KT 9999 FEW049 15/02 Q1012 TEMPO
                        27018G28KT=
200905081320 METAR COR EGLL 081320Z 25021KT 9999 SCT049 16/02 Q1012 TEMPO
                        27021G31KT=
200905081250 METAR COR EGLL 081250Z 25021KT 9999 SCT042 15/02 Q1011 TEMPO
                        26021G31KT=
200905081220 METAR COR EGLL 081220Z 26021KT 9999 SCT039 13/03 Q1011 TEMPO
                        26021G31KT=
200905081150 METAR COR EGLL 081150Z 25018KT 9999 FEW033 13/04 Q1011 TEMPO
                        27019G29KT=
200905081120 METAR COR EGLL 081120Z 26019KT 9999 SCT034 12/06 Q1010 TEMPO
                        26019G29KT=
200905081050 METAR COR EGLL 081050Z 24015KT 9999 SCT030 12/06 Q1010 NOSIG=
200905081020 METAR EGLL 081020Z 23013KT 200V260 CAVOK 10/06 Q1010=
200905080950 METAR COR EGLL 080950Z 23010KT 200V260 9999 FEW024 SCT040
                        09/06 Q1010 NOSIG=
200905080920 METAR COR EGLL 080920Z 27023KT 9999 -RA SCT024 BKN038 09/05
                        Q1010 NOSIG=
200905080850 METAR COR EGLL 080850Z 25018G28KT 9999 -RA SCT024 BKN044
                        10/06 Q1009 NOSIG=
200905080820 METAR COR EGLL 080820Z 23014KT 9999 -RA FEW035 BKN041 10/07
                        Q1009 NOSIG=
200905080750 METAR COR EGLL 080750Z 25013KT 9999 -RA FEW035 BKN042 11/06
                        Q1008 NOSIG=
200905080720 METAR COR EGLL 080720Z 23015KT 9999 -RA BKN045 11/05 Q1008
                        NOSIG=
200905080650 METAR COR EGLL 080650Z 22013KT 9999 FEW030 12/06 Q1008 NOSIG=
200905080620 METAR COR EGLL 080620Z 22010KT 9999 FEW022 11/07 Q1008 NOSIG=
200905080550 METAR COR EGLL 080550Z 21009KT 9999 FEW021 11/07 Q1008 NOSIG=
200905080520 METAR COR EGLL 080520Z 21010KT 180V260 9999 FEW023 10/06
                        Q1008 NOSIG=
200905080450 METAR COR EGLL 080450Z 22010KT 9999 FEW021 SCT036 10/06 Q1008
                        NOSIG=
200905080420 METAR COR EGLL 080420Z 22012KT 9999 FEW040 SCT048 10/06 Q1008
                        NOSIG=
200905080350 METAR COR EGLL 080350Z 22012KT 9999 SCT047 11/07 Q1008 NOSIG=
200905080320 METAR COR EGLL 080320Z 21012KT 9999 FEW022 SCT033 11/07 Q1008
                        NOSIG=
200905080250 METAR COR EGLL 080250Z 21010KT 9999 FEW021 SCT024 BKN032
                        10/07 Q1008 NOSIG=
200905080220 METAR COR EGLL 080220Z 21009KT 9999 SCT031 BKN043 10/06 Q1008
                        NOSIG=
200905080150 METAR COR EGLL 080150Z 20009KT 9999 BKN048 10/06 Q1008 NOSIG=
200905080120 METAR COR EGLL 080120Z 22010KT 9999 BKN049 10/06 Q1008 NOSIG=
200905080050 METAR COR EGLL 080050Z 22011KT 9999 BKN048 11/06 Q1009 NOSIG=
200905080020 METAR COR EGLL 080020Z 23012KT 9999 SCT047 11/06 Q1009 NOSIG=
200905072350 METAR COR EGLL 072350Z 24016KT 9999 FEW020 11/07 Q1009 NOSIG=
200905072320 METAR COR EGLL 072320Z 23017KT 9999 FEW020 12/07 Q1009 NOSIG=
200905072250 METAR COR EGLL 072250Z 22010G20KT 9999 FEW013 12/09 Q1009
                        NOSIG=
200905072220 METAR COR EGLL 072220Z 22013KT 9999 FEW015 12/09 Q1009 NOSIG=
200905072150 METAR COR EGLL 072150Z 21013KT 9999 BKN013 12/09 Q1009 NOSIG=
200905072120 METAR COR EGLL 072120Z 21013KT 9999 BKN014 12/09 Q1009 NOSIG=
200905072050 METAR COR EGLL 072050Z 21013KT 9999 OVC014 12/09 Q1010 NOSIG=
200905072020 METAR COR EGLL 072020Z 22014KT 9999 OVC013 13/09 Q1010 NOSIG=
200905071950 METAR COR EGLL 071950Z 21012KT 9999 BKN013 13/09 Q1010 NOSIG=
200905071920 METAR COR EGLL 071920Z 21012KT 9999 BKN012 13/10 Q1010 NOSIG=
200905071850 METAR COR EGLL 071850Z 22010KT 9999 OVC012 13/10 Q1011 NOSIG=
200905071820 METAR COR EGLL 071820Z 20013KT 9999 OVC013 13/10 Q1011 TEMPO
                        BKN016=
200905071750 METAR COR EGLL 071750Z 21014KT 9999 BKN020 14/10 Q1011 NOSIG=
200905071720 METAR COR EGLL 071720Z 22015KT 9999 SCT019 BKN026 14/09 Q1011
                        NOSIG=
200905071650 METAR COR EGLL 071650Z 21013KT 9999 SCT019 BKN027 15/10 Q1012
                        NOSIG=
200905071620 METAR COR EGLL 071620Z 21014KT 9999 FEW021 BKN024 16/10 Q1012
                        NOSIG=
200905071550 METAR COR EGLL 071550Z 22014KT 9999 SCT023 SCT028 16/10 Q1012
                        NOSIG=
200905071520 METAR COR EGLL 071520Z 21010KT 9999 SCT021 BKN028 15/10 Q1012
                        NOSIG=
200905071450 METAR COR EGLL 071450Z 22011KT 9999 FEW015 BKN018 14/10 Q1013
                        NOSIG=
200905071420 METAR EGLL 071420Z 23013KT 9999 FEW017 BKN020 14/10 Q1013=
200905071350 METAR COR EGLL 071350Z 21014KT 9999 SCT016 BKN021 14/10 Q1013
                        NOSIG=
200905071320 METAR COR EGLL 071320Z 22013KT 9999 BKN017 15/10 Q1014 NOSIG=
200905071250 METAR COR EGLL 071250Z 22013KT 180V250 9999 SCT018 BKN028
                        15/10 Q1014 NOSIG=
200905071220 METAR COR EGLL 071220Z 22011KT 190V260 9999 SCT017 BKN024
                        15/10 Q1014 NOSIG=
200905071150 METAR COR EGLL 071150Z 22009KT 180V250 9999 BKN023 14/09
                        Q1014 NOSIG=
200905071120 METAR COR EGLL 071120Z 23009KT 170V280 9999 SCT017 BKN022
                        14/09 Q1014 NOSIG=
200905071050 METAR COR EGLL 071050Z 26009KT 220V290 9999 FEW024 BKN027
                        14/09 Q1015 NOSIG=
200905071020 METAR COR EGLL 071020Z 27011KT 9999 BKN014 13/09 Q1015 BECMG
                        BKN018=
200905070950 METAR COR EGLL 070950Z 26010KT 9999 BKN017 13/09 Q1015 NOSIG=
200905070920 METAR COR EGLL 070920Z 23011KT 190V260 9999 SCT015 BKN020
                        14/09 Q1015 TEMPO BKN014=
200905070850 METAR COR EGLL 070850Z 23010KT 180V260 9999 BKN016 13/09
                        Q1015 TEMPO BKN014=
200905070820 METAR COR EGLL 070820Z 24014KT 9999 BKN017 13/08 Q1015 NOSIG=
200905070750 METAR COR EGLL 070750Z 25012KT 9999 BKN018 13/08 Q1015 NOSIG=
200905070720 METAR COR EGLL 070720Z 25013KT 9999 BKN017 13/08 Q1015 TEMPO
                        BKN014=
200905070650 METAR COR EGLL 070650Z 23010KT 9999 BKN018 12/08 Q1014 TEMPO
                        BKN014=
200905070620 METAR COR EGLL 070620Z 22010KT 9999 BKN022 11/08 Q1014 TEMPO
                        BKN014=
200905070550 METAR COR EGLL 070550Z 21010KT 9999 BKN024 11/07 Q1014 NOSIG=
200905070520 METAR COR EGLL 070520Z 21009KT 180V250 9999 BKN025 10/07
                        Q1014 NOSIG=
200905070450 METAR COR EGLL 070450Z 22008KT 9999 FEW032 10/07 Q1014 NOSIG=
200905070420 METAR COR EGLL 070420Z 22007KT CAVOK 10/07 Q1014 NOSIG=
200905070350 METAR COR EGLL 070350Z 21008KT CAVOK 10/07 Q1014 NOSIG=
200905070320 METAR COR EGLL 070320Z 22010KT 9999 FEW032 10/07 Q1014 NOSIG=
200905070250 METAR COR EGLL 070250Z 23014KT 9999 BKN032 10/07 Q1014 NOSIG=
200905070220 METAR EGLL 070220Z 23014KT 9999 BKN019 11/07 Q1015=
200905070150 METAR COR EGLL 070150Z 24015KT 9999 BKN017 11/08 Q1015 NOSIG=
200905070120 METAR EGLL 070120Z 23014KT 9999 FEW013 BKN017 12/07 Q1015=
200905070050 METAR COR EGLL 070050Z 23011KT 9999 FEW012 BKN028 12/09 Q1015
                        NOSIG=
200905070020 METAR COR EGLL 070020Z 22013KT 9999 SCT018 12/09 Q1015 NOSIG=
200905062350 METAR COR EGLL 062350Z 22012KT 9999 FEW013 12/10 Q1015 TEMPO
                        BKN009=
200905062320 METAR COR EGLL 062320Z 21009KT 9999 SCT018 12/10 Q1015 TEMPO
                        BKN009=
200905062250 METAR COR EGLL 062250Z 22011KT 9999 FEW032 13/10 Q1016 NOSIG=
200905062220 METAR COR EGLL 062220Z 23012KT 9999 SCT032 14/10 Q1016 NOSIG=
200905062150 METAR COR EGLL 062150Z 23010KT 9999 FEW020 14/11 Q1016 NOSIG=
200905062120 METAR COR EGLL 062120Z 22011KT 9999 FEW030 15/11 Q1016 NOSIG=
200905062050 METAR EGLL 062050Z 22010KT 9999 SCT024 15/11 Q1016=
200905062020 METAR COR EGLL 062020Z 22010KT 190V250 9999 SCT021 BKN027
                        15/11 Q1016 NOSIG=
200905061950 METAR COR EGLL 061950Z 26007KT 230V300 9999 SCT021 SCT030
                        16/11 Q1016 NOSIG=
200905061920 METAR COR EGLL 061920Z 25009KT 9999 FEW028 SCT035 16/10 Q1016
                        NOSIG=
200905061850 METAR COR EGLL 061850Z 27009KT 9999 SCT031 BKN043 16/10 Q1016
                        NOSIG=
200905061820 METAR COR EGLL 061820Z 28012KT 9999 SCT028 BKN048 16/10 Q1016
                        NOSIG=
200905061750 METAR COR EGLL 061750Z 27013KT 9999 FEW032 17/10 Q1016 NOSIG=
200905061720 METAR COR EGLL 061720Z 27014KT 9999 FEW032 17/10 Q1016 NOSIG=
200905061650 METAR COR EGLL 061650Z 26015KT 9999 FEW032 SCT036 17/10 Q1017
                        NOSIG=
200905061620 METAR COR EGLL 061620Z 26016KT 9999 SCT035 SCT042 18/10 Q1017
                        NOSIG=
200905061550 METAR COR EGLL 061550Z 26018KT 9999 FEW035 SCT042 19/09 Q1017
                        NOSIG=
200905061520 METAR COR EGLL 061520Z 27015KT 9999 BKN046 19/09 Q1017 NOSIG=
200905061450 METAR COR EGLL 061450Z 26016KT 9999 SCT042 20/07 Q1017 NOSIG=
200905061420 METAR COR EGLL 061420Z 25014KT 9999 SCT042 20/08 Q1017 NOSIG=
200905061350 METAR COR EGLL 061350Z 26014KT 9999 SCT036 19/09 Q1018 NOSIG=
200905061320 METAR COR EGLL 061320Z 25015KT 9999 FEW030 19/09 Q1018 NOSIG=
200905061250 METAR COR EGLL 061250Z 26016KT 9999 FEW030 19/09 Q1018 NOSIG=
200905061220 METAR COR EGLL 061220Z 26016KT 9999 SCT029 19/09 Q1018 NOSIG=
200905061150 METAR COR EGLL 061150Z 26016KT 9999 SCT030 18/09 Q1018 NOSIG=
200905061120 METAR COR EGLL 061120Z 25018KT 9999 FEW020 SCT025 18/09 Q1018
                        NOSIG=
200905061050 METAR COR EGLL 061050Z 27016KT 9999 SCT027 18/09 Q1018 NOSIG=
200905061020 METAR COR EGLL 061020Z 27016KT 9999 SCT026 17/09 Q1019 NOSIG=
200905060950 METAR COR EGLL 060950Z 27015KT 9999 SCT023 BKN027 16/09 Q1019
                        NOSIG=
200905060920 METAR COR EGLL 060920Z 27016KT 9999 FEW025 SCT030 16/09 Q1018
                        NOSIG=
200905060850 METAR COR EGLL 060850Z 27015KT 9999 SCT022 SCT026 14/09 Q1018
                        NOSIG=
200905060820 METAR COR EGLL 060820Z 28014KT 9999 SCT021 BKN025 14/09 Q1018
                        NOSIG=
200905060750 METAR COR EGLL 060750Z 27016KT 9999 BKN023 14/09 Q1018 NOSIG=
200905060720 METAR COR EGLL 060720Z 27017KT 9999 FEW020 13/09 Q1018 NOSIG=
200905060650 METAR COR EGLL 060650Z 27017KT 9999 FEW021 13/08 Q1018 NOSIG=
200905060620 METAR EGLL 060620Z 26017KT 9999 FEW021 12/08 Q1018=
200905060550 METAR COR EGLL 060550Z 26015KT 9999 FEW021 12/08 Q1017 NOSIG=
200905060520 METAR EGLL 060520Z 26014KT 9999 FEW021 12/08 Q1017=
200905060450 METAR COR EGLL 060450Z 26013KT 9999 FEW021 12/08 Q1017 NOSIG=
200905060420 METAR COR EGLL 060420Z 26014KT 9999 FEW008 SCT025 12/08 Q1017
                        NOSIG=
200905060350 METAR EGLL 060350Z 26015KT 9999 FEW024 12/08 Q1017=
200905060320 METAR COR EGLL 060320Z 27017KT 9999 SCT025 12/08 Q1017 NOSIG=
200905060250 METAR EGLL 060250Z 26016KT 9999 SCT025 12/08 Q1017=
200905060220 METAR COR EGLL 060220Z 26018KT 9999 BKN024 12/08 Q1017 NOSIG=
200905060150 METAR COR EGLL 060150Z 26017KT 9999 BKN024 12/08 Q1017 NOSIG=
200905060120 METAR COR EGLL 060120Z 26017KT 9999 BKN026 12/08 Q1018 NOSIG=
200905060050 METAR COR EGLL 060050Z 26014KT 9999 BKN027 12/08 Q1018 NOSIG=
200905060020 METAR COR EGLL 060020Z 26015KT 9999 FEW023 BKN026 13/08 Q1018
                        NOSIG=
200905052350 METAR COR EGLL 052350Z 25015KT 9999 BKN025 12/08 Q1018 NOSIG=
200905052320 METAR COR EGLL 052320Z 26014KT 9999 BKN025 12/08 Q1019 NOSIG=
200905052250 METAR COR EGLL 052250Z 25013KT 9999 BKN024 12/07 Q1019 NOSIG=
200905052220 METAR COR EGLL 052220Z 26014KT 9999 FEW023 12/07 Q1019 NOSIG=
200905052150 METAR COR EGLL 052150Z 26013KT CAVOK 12/07 Q1019 NOSIG=
200905052120 METAR COR EGLL 052120Z 25014KT CAVOK 12/07 Q1019 NOSIG=
200905052050 METAR COR EGLL 052050Z 25015KT CAVOK 12/07 Q1020 NOSIG=
200905052020 METAR COR EGLL 052020Z 26017KT 9999 FEW032 12/06 Q1020 NOSIG=
200905051950 METAR COR EGLL 051950Z 26020KT 9999 FEW032 13/07 Q1020 NOSIG=
200905051920 METAR COR EGLL 051920Z 27018KT 9999 FEW032 14/08 Q1019 NOSIG=
200905051850 METAR COR EGLL 051850Z 27014KT 9999 FEW032 15/08 Q1019 NOSIG=
200905051820 METAR COR EGLL 051820Z 26015KT 9999 FEW038 16/08 Q1019 NOSIG=
200905051750 METAR COR EGLL 051750Z 26017KT 9999 FEW035 16/08 Q1019 NOSIG=
200905051720 METAR COR EGLL 051720Z 27017KT 9999 SCT033 17/09 Q1019 NOSIG=
200905051650 METAR COR EGLL 051650Z 26020KT 9999 SCT033 SCT037 17/09 Q1020
                        NOSIG=
200905051620 METAR COR EGLL 051620Z 26020KT 9999 SCT033 SCT042 17/09 Q1020
                        NOSIG=
200905051550 METAR COR EGLL 051550Z 27015KT 9999 BKN035 17/09 Q1020 NOSIG=
200905051520 METAR COR EGLL 051520Z 27015KT 9999 BKN035 17/09 Q1020 NOSIG=
200905051450 METAR COR EGLL 051450Z 26016KT 9999 BKN035 17/09 Q1020 NOSIG=
200905051420 METAR COR EGLL 051420Z 27015KT 9999 SCT035 BKN038 17/09 Q1021
                        NOSIG=
200905051350 METAR COR EGLL 051350Z 25018KT 9999 FEW034 SCT038 18/09 Q1021
                        NOSIG=
200905051320 METAR COR EGLL 051320Z 26018KT 9999 SCT038 19/09 Q1021 NOSIG=
200905051250 METAR COR EGLL 051250Z 27015KT 9999 FEW042 19/09 Q1021 NOSIG=
200905051220 METAR COR EGLL 051220Z 28013KT 250V310 9999 FEW033 20/09
                        Q1021 NOSIG=
200905051150 METAR COR EGLL 051150Z 27014KT 9999 FEW029 18/09 Q1022 NOSIG=
200905051120 METAR COR EGLL 051120Z 26013KT 9999 SCT027 17/10 Q1022 NOSIG=
200905051050 METAR COR EGLL 051050Z 28012KT 9999 BKN024 18/10 Q1022 NOSIG=
200905051020 METAR COR EGLL 051020Z 27013KT 9999 BKN023 16/10 Q1023 NOSIG=
200905050950 METAR COR EGLL 050950Z 27013KT 9999 BKN022 16/10 Q1023 NOSIG=
200905050920 METAR COR EGLL 050920Z 28012KT 9999 BKN020 15/10 Q1023 NOSIG=
200905050850 METAR COR EGLL 050850Z 27011KT 9999 BKN018 15/10 Q1023 NOSIG=
200905050820 METAR COR EGLL 050820Z 27011KT 9999 BKN019 14/10 Q1023 NOSIG=
200905050750 METAR COR EGLL 050750Z 27011KT 9999 SCT019 SCT025 14/10 Q1023
                        NOSIG=
200905050720 METAR COR EGLL 050720Z 26011KT 9999 SCT022 SCT027 14/10 Q1023
                        NOSIG=
200905050650 METAR COR EGLL 050650Z 26010KT 9999 SCT024 13/10 Q1023 NOSIG=
200905050620 METAR COR EGLL 050620Z 25010KT 9999 SCT021 13/10 Q1022 NOSIG=
200905050550 METAR COR EGLL 050550Z 26008KT 9999 FEW017 BKN019 12/10 Q1022
                        NOSIG=
200905050520 METAR COR EGLL 050520Z 24006KT 210V270 9999 BKN017 12/09
                        Q1022 TEMPO BKN014=
200905050450 METAR COR EGLL 050450Z 25006KT 9999 BKN020 12/09 Q1022 TEMPO
                        BKN014=
200905050420 METAR COR EGLL 050420Z 23005KT 9999 BKN018 11/09 Q1022 TEMPO
                        BKN014=
200905050350 METAR COR EGLL 050350Z 23005KT 9999 SCT021 SCT025 11/09 Q1022
                        TEMPO BKN014=
200905050320 METAR COR EGLL 050320Z 23005KT 9999 BKN019 11/09 Q1021 TEMPO
                        BKN014=
200905050250 METAR COR EGLL 050250Z 24006KT 9999 FEW020 11/09 Q1021 NOSIG=
200905050220 METAR COR EGLL 050220Z 24005KT 9999 FEW013 SCT025 12/09 Q1021
                        TEMPO BKN013=
200905050150 METAR COR EGLL 050150Z 24008KT 9999 SCT013 SCT039 12/09 Q1022
                        TEMPO BKN013=
200905050120 METAR COR EGLL 050120Z 25007KT 9999 SCT014 BKN039 12/09 Q1022
                        TEMPO BKN014=
200905050050 METAR COR EGLL 050050Z 26009KT 9999 BKN013 12/09 Q1022 NOSIG=
200905050020 METAR COR EGLL 050020Z 26009KT 9999 BKN014 12/09 Q1022 NOSIG=
200905042350 METAR COR EGLL 042350Z 26010KT 9999 BKN014 12/09 Q1022 NOSIG=
200905042320 METAR COR EGLL 042320Z 26011KT 9999 BKN014 12/09 Q1022 NOSIG=
200905042250 METAR COR EGLL 042250Z 25014KT 9999 BKN015 12/08 Q1022 BECMG
                        BKN013=
200905042220 METAR COR EGLL 042220Z 25012KT 9999 BKN016 12/08 Q1023 BECMG
                        BKN014=
200905042150 METAR COR EGLL 042150Z 25010KT 9999 SCT018 BKN030 12/08 Q1023
                        BECMG BKN014=
200905042120 METAR COR EGLL 042120Z 25011KT 9999 FEW018 BKN032 12/08 Q1023
                        BECMG BKN014=
200905042050 METAR COR EGLL 042050Z 26013KT 9999 BKN020 12/08 Q1023 NOSIG=
200905042020 METAR COR EGLL 042020Z 26016KT 9999 BKN020 12/07 Q1023 NOSIG=
200905041950 METAR COR EGLL 041950Z 25014KT 9999 SCT024 SCT031 12/07 Q1023
                        NOSIG=
200905041920 METAR COR EGLL 041920Z 24012KT 9999 OVC025 12/07 Q1023 NOSIG=
200905041850 METAR COR EGLL 041850Z 25013KT 9999 BKN026 12/06 Q1024 NOSIG=
200905041820 METAR COR EGLL 041820Z 26017KT 9999 BKN030 12/06 Q1024 NOSIG=
200905041750 METAR COR EGLL 041750Z 25015KT 9999 BKN032 13/05 Q1024 NOSIG=
200905041720 METAR COR EGLL 041720Z 26012KT 9999 BKN034 13/05 Q1024 NOSIG=
200905041650 METAR COR EGLL 041650Z 26014KT 9999 BKN035 12/04 Q1024 NOSIG=
200905041620 METAR EGLL 041620Z 27014KT 9999 FEW036 BKN040 12/04 Q1025=
200905041550 METAR COR EGLL 041550Z 25014KT 9999 FEW035 BKN038 12/05 Q1025
                        NOSIG=
200905041520 METAR COR EGLL 041520Z 27013KT 9999 BKN035 12/06 Q1025 NOSIG=
200905041450 METAR COR EGLL 041450Z 28011KT 9999 FEW034 BKN041 12/05 Q1025
                        NOSIG=
200905041420 METAR COR EGLL 041420Z 27011KT 9999 FEW032 BKN039 13/05 Q1026
                        NOSIG=
200905041350 METAR COR EGLL 041350Z 27012KT 9999 -DZ SCT035 BKN046 12/05
                        Q1026 NOSIG=
200905041320 METAR COR EGLL 041320Z 27011KT 9999 SCT038 12/06 Q1026 NOSIG=
200905041250 METAR COR EGLL 041250Z 27011KT 9999 -RA SCT035 13/06 Q1026
                        NOSIG=
200905041220 METAR COR EGLL 041220Z 27009KT 240V300 9999 SCT033 13/04
                        Q1027 NOSIG=
200905041150 METAR COR EGLL 041150Z 28010KT 9999 FEW030 12/06 Q1027 NOSIG=
200905041120 METAR COR EGLL 041120Z 29010KT 9999 -RA FEW019 SCT041 12/06
                        Q1027 NOSIG=
200905041050 METAR COR EGLL 041050Z 27010KT 250V310 9999 -RA FEW036 SCT046
                        12/05 Q1027 NOSIG=
200905041020 METAR COR EGLL 041020Z 27010KT 9999 -RA FEW042 12/04 Q1028
                        NOSIG=
200905040950 METAR COR EGLL 040950Z 27009KT 9999 FEW032 13/03 Q1028 NOSIG=
200905040920 METAR COR EGLL 040920Z 25008KT 9999 FEW035 12/04 Q1028 NOSIG=
200905040850 METAR COR EGLL 040850Z 27009KT CAVOK 11/03 Q1028 NOSIG=
200905040820 METAR COR EGLL 040820Z 24008KT CAVOK 11/03 Q1029 NOSIG=
200905040750 METAR COR EGLL 040750Z 27006KT 230V300 CAVOK 09/03 Q1029
                        NOSIG=
200905040720 METAR COR EGLL 040720Z 26006KT 230V300 CAVOK 08/03 Q1029
                        NOSIG=
200905040650 METAR COR EGLL 040650Z 25006KT CAVOK 07/03 Q1029 NOSIG=
200905040620 METAR COR EGLL 040620Z 26004KT 230V290 CAVOK 07/02 Q1029
                        NOSIG=
200905040550 METAR COR EGLL 040550Z 24006KT CAVOK 06/02 Q1029 NOSIG=
200905040520 METAR COR EGLL 040520Z 25006KT CAVOK 06/02 Q1029 NOSIG=
200905040450 METAR COR EGLL 040450Z 27005KT CAVOK 05/02 Q1028 NOSIG=
200905040420 METAR COR EGLL 040420Z 27006KT CAVOK 05/01 Q1029 NOSIG=
200905040350 METAR COR EGLL 040350Z 27006KT CAVOK 04/01 Q1028 NOSIG=
200905040320 METAR COR EGLL 040320Z 27006KT CAVOK 04/01 Q1029 NOSIG=
200905040250 METAR COR EGLL 040250Z 26004KT CAVOK 04/00 Q1029 NOSIG=
200905040220 METAR COR EGLL 040220Z 26004KT CAVOK 05/00 Q1029 NOSIG=
200905040150 METAR COR EGLL 040150Z 26005KT CAVOK 05/01 Q1029 NOSIG=
200905040120 METAR COR EGLL 040120Z 27004KT CAVOK 07/01 Q1029 NOSIG=
200905040050 METAR COR EGLL 040050Z 30003KT CAVOK 06/M00 Q1029 NOSIG=
200905040020 METAR COR EGLL 040020Z VRB03KT CAVOK 07/00 Q1029 NOSIG=
200905032350 METAR COR EGLL 032350Z VRB02KT CAVOK 07/M00 Q1029 NOSIG=
200905032320 METAR COR EGLL 032320Z 31004KT 280V350 CAVOK 08/M00 Q1029
                        NOSIG=
200905032250 METAR EGLL 032250Z 32004KT CAVOK 08/M00 Q1029=
200905032220 METAR COR EGLL 032220Z 31004KT CAVOK 08/M00 Q1029 NOSIG=
200905032150 METAR COR EGLL 032150Z 32005KT 290V360 CAVOK 09/M01 Q1029
                        NOSIG=
200905032120 METAR COR EGLL 032120Z 35004KT CAVOK 10/M01 Q1029 NOSIG=
200905032050 METAR COR EGLL 032050Z 35004KT CAVOK 10/M01 Q1029 NOSIG=
200905032020 METAR COR EGLL 032020Z 35004KT CAVOK 11/M01 Q1029 NOSIG=
200905031950 METAR COR EGLL 031950Z 32004KT 280V360 CAVOK 11/M01 Q1028
                        NOSIG=
200905031920 METAR COR EGLL 031920Z 34005KT 310V010 CAVOK 12/M01 Q1028
                        NOSIG=
200905031850 METAR COR EGLL 031850Z 34006KT 290V020 CAVOK 12/M01 Q1028
                        NOSIG=
200905031820 METAR COR EGLL 031820Z 32008KT 280V010 CAVOK 13/M01 Q1028
                        NOSIG=
200905031750 METAR EGLL 031750Z 31009KT 290V350 CAVOK 14/M01 Q1027=
200905031720 METAR COR EGLL 031720Z 31008KT 280V340 CAVOK 13/M02 Q1027
                        NOSIG=
200905031650 METAR COR EGLL 031650Z 32010KT 280V360 CAVOK 14/M03 Q1027
                        NOSIG=
200905031620 METAR COR EGLL 031620Z 34010KT 310V020 CAVOK 14/00 Q1027
                        NOSIG=
200905031550 METAR COR EGLL 031550Z 34009G19KT 280V020 CAVOK 14/01 Q1027
                        NOSIG=
200905031520 METAR COR EGLL 031520Z 34009KT 300V010 CAVOK 15/00 Q1027
                        NOSIG=
200905031450 METAR COR EGLL 031450Z 30009KT 240V350 CAVOK 15/00 Q1027
                        NOSIG=
200905031420 METAR COR EGLL 031420Z 29010KT 260V330 CAVOK 15/01 Q1027
                        NOSIG=
200905031350 METAR COR EGLL 031350Z 29011KT 270V340 CAVOK 15/01 Q1027
                        NOSIG=
200905031320 METAR COR EGLL 031320Z 31010KT CAVOK 15/02 Q1027 NOSIG=
200905031250 METAR COR EGLL 031250Z 31008KT 270V030 CAVOK 15/01 Q1027
                        NOSIG=
200905031220 METAR COR EGLL 031220Z 31009KT 270V350 9999 SCT046 15/01
                        Q1027 NOSIG=
200905031150 METAR COR EGLL 031150Z 32008KT 9999 SCT044 15/02 Q1027 NOSIG=
200905031120 METAR COR EGLL 031120Z 30011KT 270V340 9999 SCT043 14/03
                        Q1027 NOSIG=
200905031050 METAR COR EGLL 031050Z 30011KT 270V350 9999 SCT042 14/03
                        Q1027 NOSIG=
200905031020 METAR COR EGLL 031020Z 30010KT 270V340 9999 BKN039 14/03
                        Q1027 NOSIG=
200905030950 METAR COR EGLL 030950Z 31009KT 280V340 9999 SCT040 14/03
                        Q1027 NOSIG=
200905030920 METAR COR EGLL 030920Z 31011KT 280V340 9999 FEW027 SCT034
                        13/04 Q1027 NOSIG=
200905030850 METAR COR EGLL 030850Z 29012KT 9999 SCT027 SCT034 13/05 Q1026
                        NOSIG=
200905030820 METAR EGLL 030820Z 28010KT 9999 SCT020 SCT035 12/06 Q1026=
200905030750 METAR COR EGLL 030750Z 29012KT 9999 FEW019 SCT024 BKN043
                        12/07 Q1026 NOSIG=
200905030720 METAR COR EGLL 030720Z 28012KT 9999 FEW020 12/07 Q1026 NOSIG=
200905030650 METAR COR EGLL 030650Z 26010KT 9999 FEW020 11/07 Q1026 NOSIG=
200905030620 METAR COR EGLL 030620Z 27008KT CAVOK 10/06 Q1026 NOSIG=
200905030550 METAR COR EGLL 030550Z 27009KT 9999 FEW040 10/06 Q1026 NOSIG=
200905030520 METAR COR EGLL 030520Z 26009KT CAVOK 10/05 Q1026 NOSIG=
200905030450 METAR COR EGLL 030450Z 26009KT CAVOK 10/05 Q1026 NOSIG=
200905030420 METAR COR EGLL 030420Z 27009KT CAVOK 10/04 Q1026 NOSIG=
200905030350 METAR COR EGLL 030350Z 27008KT CAVOK 10/05 Q1026 NOSIG=
200905030320 METAR COR EGLL 030320Z 27009KT CAVOK 10/05 Q1026 NOSIG=
200905030250 METAR COR EGLL 030250Z 27008KT CAVOK 10/05 Q1026 NOSIG=
200905030220 METAR COR EGLL 030220Z 27008KT CAVOK 10/05 Q1026 NOSIG=
200905030150 METAR COR EGLL 030150Z 26009KT CAVOK 10/05 Q1026 NOSIG=
200905030120 METAR COR EGLL 030120Z 27010KT CAVOK 11/04 Q1027 NOSIG=
200905030050 METAR COR EGLL 030050Z 27008KT CAVOK 11/04 Q1027 NOSIG=
200905030020 METAR COR EGLL 030020Z 27010KT CAVOK 11/05 Q1027 NOSIG=
200905022350 METAR COR EGLL 022350Z 27007KT CAVOK 12/05 Q1027 NOSIG=
200905022320 METAR COR EGLL 022320Z 27007KT CAVOK 12/06 Q1027 NOSIG=
200905022250 METAR COR EGLL 022250Z 27008KT CAVOK 12/06 Q1027 NOSIG=
200905022220 METAR COR EGLL 022220Z 27007KT CAVOK 12/06 Q1027 NOSIG=
200905022150 METAR COR EGLL 022150Z 28008KT CAVOK 12/06 Q1027 NOSIG=
200905022120 METAR COR EGLL 022120Z 26010KT CAVOK 13/06 Q1027 NOSIG=
200905022050 METAR COR EGLL 022050Z 24010KT CAVOK 14/05 Q1027 NOSIG=
200905022020 METAR EGLL 022020Z 25010KT CAVOK 15/05 Q1027=
200905021950 METAR COR EGLL 021950Z 26010KT CAVOK 15/05 Q1027 NOSIG=
200905021920 METAR COR EGLL 021920Z 27009KT CAVOK 15/05 Q1027 NOSIG=
200905021850 METAR COR EGLL 021850Z 27010KT CAVOK 15/05 Q1027 NOSIG=
200905021820 METAR COR EGLL 021820Z 27008KT CAVOK 16/05 Q1027 NOSIG=
200905021750 METAR COR EGLL 021750Z 31006KT 280V340 CAVOK 16/04 Q1027
                        NOSIG=
200905021720 METAR COR EGLL 021720Z 28006KT 250V340 CAVOK 17/05 Q1027
                        NOSIG=
200905021650 METAR COR EGLL 021650Z 28007KT 230V340 CAVOK 17/05 Q1027
                        NOSIG=
200905021620 METAR COR EGLL 021620Z 27006KT 230V320 CAVOK 17/05 Q1027
                        NOSIG=
200905021550 METAR COR EGLL 021550Z 27007KT 200V310 CAVOK 17/05 Q1027
                        NOSIG=
200905021520 METAR COR EGLL 021520Z 29007KT 260V330 CAVOK 17/05 Q1028
                        NOSIG=
200905021450 METAR EGLL 021450Z 28007KT 240V320 CAVOK 18/05 Q1028=
200905021420 METAR COR EGLL 021420Z 29005KT 240V020 CAVOK 16/04 Q1028
                        NOSIG=
200905021350 METAR COR EGLL 021350Z VRB07KT 9999 FEW049 17/04 Q1028 NOSIG=
200905021320 METAR COR EGLL 021320Z VRB06KT 9999 FEW048 18/05 Q1028 NOSIG=
200905021250 METAR COR EGLL 021250Z 27007KT 230V320 9999 FEW047 18/05
                        Q1028 NOSIG=
200905021220 METAR COR EGLL 021220Z 28007KT 230V020 9999 SCT045 18/04
                        Q1028 NOSIG=
200905021150 METAR COR EGLL 021150Z 26006KT 200V330 9999 FEW042 17/04
                        Q1029 NOSIG=
200905021120 METAR COR EGLL 021120Z 26007KT 210V330 9999 FEW038 16/06
                        Q1029 NOSIG=
200905021050 METAR COR EGLL 021050Z 29006KT 250V320 9999 SCT025 16/07
                        Q1029 NOSIG=
200905021020 METAR COR EGLL 021020Z 27007KT 230V300 9999 FEW028 15/08
                        Q1029 NOSIG=
200905020950 METAR COR EGLL 020950Z 27007KT 230V320 CAVOK 15/08 Q1029
                        NOSIG=
200905020920 METAR COR EGLL 020920Z 25006KT 210V300 CAVOK 14/08 Q1029
                        NOSIG=
200905020850 METAR EGLL 020850Z 32005KT 280V010 9999 FEW018 13/08 Q1029=
200905020820 METAR COR EGLL 020820Z 29006KT 250V320 9999 SCT013 12/08
                        Q1029 NOSIG=
200905020750 METAR COR EGLL 020750Z 25007KT 230V300 9999 SCT010 11/08
                        Q1029 NOSIG=
200905020720 METAR COR EGLL 020720Z 26007KT 8000 SCT010 11/08 Q1029 NOSIG=
200905020650 METAR COR EGLL 020650Z 27006KT 9000 SCT009 10/08 Q1029 NOSIG=
200905020620 METAR COR EGLL 020620Z 26006KT 9000 SCT008 09/08 Q1028 NOSIG=
200905020550 METAR COR EGLL 020550Z 26007KT 8000 NSC 09/07 Q1028 NOSIG=
200905020520 METAR COR EGLL 020520Z 25006KT 220V280 8000 NSC 09/07 Q1028
                        NOSIG=
200905020450 METAR COR EGLL 020450Z 27007KT 9000 NSC 08/06 Q1028 NOSIG=
200905020420 METAR COR EGLL 020420Z 26006KT CAVOK 08/06 Q1028 NOSIG=
200905020350 METAR COR EGLL 020350Z 27005KT 9999 FEW008 09/07 Q1027 NOSIG=
200905020320 METAR COR EGLL 020320Z 27006KT 9000 FEW008 09/08 Q1027 NOSIG=
200905020250 METAR COR EGLL 020250Z 27006KT CAVOK 11/09 Q1027 NOSIG=
200905020220 METAR COR EGLL 020220Z 26007KT 9999 FEW013 11/09 Q1027 NOSIG=
200905020150 METAR COR EGLL 020150Z 24007KT 9999 FEW030 11/09 Q1027 NOSIG=
200905020120 METAR COR EGLL 020120Z 24006KT 9999 SCT027 12/10 Q1026 NOSIG=
200905020050 METAR COR EGLL 020050Z 23008KT 9999 FEW014 BKN042 12/10 Q1026
                        NOSIG=
200905020020 METAR COR EGLL 020020Z 22007KT 9999 BKN040 12/10 Q1026 NOSIG=
200905012350 METAR COR EGLL 012350Z 23006KT 9999 FEW023 SCT041 11/09 Q1026
                        NOSIG=
200905012320 METAR COR EGLL 012320Z 22006KT 9999 FEW022 11/09 Q1026 NOSIG=
200905012250 METAR COR EGLL 012250Z 23008KT 9999 FEW019 12/09 Q1026 NOSIG=
200905012220 METAR COR EGLL 012220Z 24007KT CAVOK 12/09 Q1026 NOSIG=
200905012150 METAR COR EGLL 012150Z 23010G20KT 190V250 9999 FEW032 13/09
                        Q1026 NOSIG=
200905012120 METAR COR EGLL 012120Z 25011KT 9999 FEW030 13/08 Q1026 NOSIG=
200905012050 METAR COR EGLL 012050Z 25011KT 9999 FEW030 13/08 Q1026 NOSIG=
200905012020 METAR COR EGLL 012020Z 25013KT CAVOK 14/08 Q1025 NOSIG=
200905011950 METAR COR EGLL 011950Z 24011KT CAVOK 14/08 Q1025 NOSIG=
200905011920 METAR COR EGLL 011920Z 23014KT 9999 FEW040 15/08 Q1024 NOSIG=
200905011850 METAR COR EGLL 011850Z 22012KT 9999 FEW044 16/08 Q1024 NOSIG=
200905011820 METAR COR EGLL 011820Z 25014KT 9999 FEW048 17/04 Q1024 NOSIG=
200905011750 METAR COR EGLL 011750Z 25013KT CAVOK 17/02 Q1023 NOSIG=
200905011720 METAR COR EGLL 011720Z 25014KT CAVOK 18/02 Q1023 NOSIG=
200905011650 METAR COR EGLL 011650Z 25013KT CAVOK 19/03 Q1023 NOSIG=
200905011620 METAR COR EGLL 011620Z 27012KT 9999 FEW040 19/06 Q1023 NOSIG=
200905011550 METAR COR EGLL 011550Z 27013KT CAVOK 19/07 Q1023 NOSIG=
200905011520 METAR COR EGLL 011520Z 27014KT 9999 FEW043 19/07 Q1023 NOSIG=
200905011450 METAR COR EGLL 011450Z 24012KT 9999 SCT031 19/10 Q1023 NOSIG=
200905011420 METAR COR EGLL 011420Z 21011G21KT 180V250 9999 SCT030 SCT045
                        18/10 Q1023 NOSIG=
200905011350 METAR COR EGLL 011350Z 20011KT 9999 SCT031 SCT041 18/11 Q1023
                        NOSIG=
200905011320 METAR EGLL 011320Z 18010KT 150V250 9999 SCT032 18/10 Q1023=
200905011250 METAR COR EGLL 011250Z 18011KT 150V220 9999 SCT038 18/10
                        Q1023 NOSIG=
200905011220 METAR COR EGLL 011220Z 19010KT 160V230 9999 SCT037 19/09
                        Q1023 NOSIG=
200905011150 METAR COR EGLL 011150Z 19011KT 9999 FEW039 19/08 Q1023 NOSIG=
200905011120 METAR COR EGLL 011120Z 19010G21KT 170V230 9999 SCT038 18/09
                        Q1023 NOSIG=
200905011050 METAR COR EGLL 011050Z 20012G22KT 180V240 9999 SCT038 19/09
                        Q1023 NOSIG=
200905011020 METAR COR EGLL 011020Z 21011KT 160V240 9999 FEW035 19/09
                        Q1023 NOSIG=
200905010950 METAR COR EGLL 010950Z 19007KT 130V230 9999 SCT036 18/09
                        Q1023 NOSIG=
200905010920 METAR EGLL 010920Z 20007KT 170V270 9999 FEW028 17/09 Q1023=
200905010850 METAR COR EGLL 010850Z 21007KT 140V250 9999 FEW028 16/09
                        Q1023 NOSIG=
200905010820 METAR EGLL 010820Z 19005KT 080V230 9999 FEW028 16/09 Q1023=
200905010750 METAR COR EGLL 010750Z 19004KT 110V240 CAVOK 15/09 Q1023
                        NOSIG=
200905010720 METAR COR EGLL 010720Z VRB03KT CAVOK 14/10 Q1023 NOSIG=
200905010650 METAR COR EGLL 010650Z VRB03KT CAVOK 13/10 Q1023 NOSIG=
200905010620 METAR COR EGLL 010620Z 17004KT 140V210 CAVOK 12/10 Q1022
                        NOSIG=
200905010550 METAR COR EGLL 010550Z VRB03KT 8000 NSC 11/09 Q1022 NOSIG=
200905010520 METAR COR EGLL 010520Z 14004KT 110V190 9999 FEW044 10/09
                        Q1022 NOSIG=
200905010450 METAR COR EGLL 010450Z 00000KT 9999 FEW044 10/09 Q1022 NOSIG=
200905010420 METAR COR EGLL 010420Z 08002KT 9999 FEW041 10/09 Q1022 NOSIG=
200905010350 METAR COR EGLL 010350Z 00000KT 9999 FEW044 11/09 Q1022 NOSIG=
200905010320 METAR COR EGLL 010320Z 00000KT 9999 FEW037 11/09 Q1022 NOSIG=
200905010250 METAR COR EGLL 010250Z 00000KT CAVOK 11/09 Q1021 NOSIG=
200905010220 METAR COR EGLL 010220Z 05002KT CAVOK 11/09 Q1021 NOSIG=
200905010150 METAR COR EGLL 010150Z 00000KT CAVOK 12/09 Q1021 NOSIG=
200905010120 METAR COR EGLL 010120Z 27002KT CAVOK 12/10 Q1021 NOSIG=
200905010050 METAR COR EGLL 010050Z 21002KT CAVOK 12/09 Q1021 NOSIG=
200905010020 METAR COR EGLL 010020Z 20002KT CAVOK 12/09 Q1021 NOSIG=

# No short TAF reports from EGLL in databse.

###################################
#  large TAF from EGLL
###################################
200905312259 TAF EGLL 312259Z 0100/0206 05010KT CAVOK=
200905311700 TAF EGLL 311700Z 3118/0124 05009KT 9999 FEW045
                      PROB30 0103/0106 8000=
200905311101 TAF EGLL 311101Z 3112/0118 05009KT 9999 FEW045
                      PROB30 0103/0106 8000=
200905310500 TAF EGLL 310500Z 3106/0112 05009KT CAVOK
                      PROB30 0103/0106 8000=
200905302255 TAF EGLL 302255Z 3100/0106 05009KT CAVOK
                      PROB30 3103/3106 8000
                      PROB30 0103/0106 8000=
200905301701 TAF EGLL 301701Z 3018/3124 05009KT CAVOK
                      PROB30 3103/3106 8000=
200905301059 TAF EGLL 301059Z 3012/3118 06011KT CAVOK
                      PROB30 3103/3106 8000=
200905300500 TAF EGLL 300500Z 3006/3112 07008KT CAVOK
                      PROB30 3103/3107 8000=
200905292300 TAF EGLL 292300Z 3000/3106 07008KT CAVOK=
200905291659 TAF EGLL 291659Z 2918/3024 09008KT CAVOK=
200905291055 TAF EGLL 291055Z 2912/3018 10012KT 9999 SCT030=
200905290652 TAF AMD EGLL 290652Z 2906/3012 VRB05KT 9000 FEW040
                      BECMG 2906/2909 10010KT 9999=
200905290456 TAF EGLL 290456Z 2906/3012 VRB05KT 9999 FEW040
                      BECMG 2908/2911 10010KT=
200905282303 TAF EGLL 282303Z 2900/3006 VRB05KT 9999 FEW040
                      PROB40 2902/2906 8000
                      BECMG 2908/2911 10010KT=
200905281701 TAF EGLL 281701Z 2818/2924 VRB05KT 9999 SCT035
                      PROB40 2902/2906 8000
                      BECMG 2906/2909 10010KT=
200905281100 TAF EGLL 281100Z 2812/2918 28010KT 9999 SCT025
                      BECMG 2819/2822 18006KT
                      BECMG 2823/2902 8000
                      PROB30 2903/2906 4000 BR
                      BECMG 2906/2909 10010KT 9999=
200905280459 TAF EGLL 280459Z 2806/2912 29010KT 9999 BKN030
                      PROB30 TEMPO 2806/2808 BKN012
                      BECMG 2819/2822 12004KT 6000
                      TEMPO 2900/2907 3000 BR
                      BECMG 2907/2910 9999=
200905272259 TAF EGLL 272259Z 2800/2906 25010KT 9999 SCT012 BKN030
                      TEMPO 2800/2808 BKN012
                      PROB30 TEMPO 2800/2807 7000 -DZ BKN008
                      BECMG 2808/2811 31007KT
                      BECMG 2819/2822 6000
                      TEMPO 2900/2906 3000 BR=
200905271659 TAF EGLL 271659Z 2718/2824 25010KT 9999 SCT012 BKN030
                      TEMPO 2718/2808 BKN012
                      PROB30 TEMPO 2722/2807 7000 -DZ BKN008
                      BECMG 2808/2811 31007KT=
200905271104 TAF EGLL 271104Z 2712/2818 22016G26KT 9999 SCT012 BKN025
                      TEMPO 2712/2808 6000 -RADZ BKN012
                      PROB40 TEMPO 2712/2716 4000 RA BKN008
                      BECMG 2715/2718 25010KT
                      PROB40 TEMPO 2716/2806 BKN008=
200905270501 TAF EGLL 270501Z 2706/2812 21012KT CAVOK
                      BECMG 2707/2710 8000 -RA BKN014
                      PROB40 TEMPO 2709/2718 22016G26KT 4000 RA
                       BKN009
                      BECMG 2717/2720 27010KT 9999 NSW SCT018
                      TEMPO 2718/2808 BKN012
                      PROB30 TEMPO 2718/2807 8000 -DZ BKN008=
200905262302 TAF EGLL 262302Z 2700/2806 27010KT CAVOK
                      BECMG 2708/2711 21012KT -RA BKN018
                      PROB40 TEMPO 2710/2718 22016G26KT 4000 RA
                       BKN012
                      BECMG 2717/2720 27010KT
                      TEMPO 2718/2806 BKN012
                      PROB40 2718/2806 8000 -DZ BKN008=
200905261658 TAF EGLL 261658Z 2618/2724 29014G24KT 9999 SCT045
                      PROB30 TEMPO 2618/2619 8000 SHRA
                      BECMG 2619/2622 22010KT
                      BECMG 2709/2711 23015G25KT 7000 -RA
                      PROB30 2710/2718 4000 RA SCT008 BKN012
                      BECMG 2717/2720 24010KT
                      PROB40 2718/2724 9999 NSW=
200905261101 TAF EGLL 261101Z 2612/2718 29014G24KT 9999 SCT045
                      PROB30 TEMPO 2615/2619 8000 SHRA
                      BECMG 2619/2622 22010KT
                      BECMG 2708/2710 23015G25KT 7000 -RA
                      PROB30 2709/2717 4000 RA SCT008 BKN012=
200905260502 TAF EGLL 260502Z 2606/2712 28010KT 9999 SCT035
                      PROB30 TEMPO 2606/2608 8000 RA BKN014
                      TEMPO 2608/2619 29015G25KT
                      BECMG 2619/2622 22010KT
                      TEMPO 2709/2712 23015G25KT 8000 RA BKN014=
200905260309 TAF AMD EGLL 260309Z 2603/2706 30010KT 9999 SCT030
                      TEMPO 2603/2610 4000 RA BKN014
                      TEMPO 2610/2619 29015G25KT
                      BECMG 2619/2622 23008KT=
200905252300 TAF AMD EGLL 260309Z 2603/2706 30010KT 9999 SCT030
                      TEMPO 2603/2610 4000 RA BKN014
                      TEMPO 2610/2619 29015G25KT
                      BECMG 2619/2622 23008KT=
200905252259 TAF EGLL 252259Z 2600/2706 VRB06KT 9999 SCT030
                      PROB40 TEMPO 2600/2602 3000 SHRA TSRA BKN014
                       SCT040CB
                      BECMG 2601/2604 29010KT
                      TEMPO 2602/2610 5000 RA BKN014
                      TEMPO 2610/2619 29015G25KT
                      BECMG 2619/2622 23008KT=
200905252150 TAF AMD EGLL 252150Z 2521/2624 VRB05KT 9999 SCT045
                      PROB40 TEMPO 2521/2602 2000 +TSRA BKN014CB
                       BECMG 2601/2604 29010KT
                      TEMPO 2602/2610 5000 RA BKN014
                      PROB30 2610/2619 29015G25KT=
200905251703 TAF EGLL 251703Z 2518/2624 VRB05KT 9999 SCT045
                      PROB30 TEMPO 2518/2522 5000 +TSRA
                      BECMG 2522/2601 5000 BR
                      PROB40 2600/2609 RA BKN012
                      BECMG 2602/2604 27010KT
                      BECMG 2609/2611 9999 NSW
                      PROB30 2610/2619 29015G25KT=
200905251107 TAF EGLL 251107Z 2512/2618 VRB05KT 9999 SCT045
                      PROB30 TEMPO 2514/2522 5000 +TSRA
                      BECMG 2521/2601 28010KT
                      BECMG 2522/2602 5000 BR
                      PROB40 2600/2612 RA BKN012
                      BECMG 2610/2613 9999 NSW
                      PROB30 2610/2618 29015G25KT=
200905250504 TAF EGLL 250504Z 2506/2612 08008KT 9999 SCT040
                      TEMPO 2508/2524 8000 SHRA
                      PROB40 TEMPO 2508/2519 18015G25KT 2000 +TSRA
                       BECMG 2521/2524 30010KT
                      TEMPO 2600/2612 5000 RA BR BKN012=
200905242306 TAF EGLL 242306Z 2500/2606 09008KT CAVOK
                      PROB40 TEMPO 2516/2524 16015G25KT 5000 TSRA
                       BKN035CB
                      BECMG 2523/2602 32012KT BKN030
                      TEMPO 2600/2606 8000 BKN010=
200905241634 TAF EGLL 241634Z 2418/2524 08005KT CAVOK
                      PROB30 2502/2509 8000
                      PROB30 TEMPO 2513/2521 8000 TSRA BKN045CB
                       PROB30 2521/2524 6000=
200905241045 TAF EGLL 241045Z 2412/2518 08005KT CAVOK
                      PROB30 2502/2509 8000
                      PROB30 TEMPO 2513/2518 8000 TSRA BKN045CB=
200905240505 TAF EGLL 240505Z 2406/2512 03005KT CAVOK=
200905232259 TAF EGLL 232259Z 2400/2506 30005KT CAVOK
                      PROB30 2404/2407 9000
                      BECMG 2405/2408 02010KT
                      BECMG 2417/2420 09006KT=
200905231703 TAF EGLL 231703Z 2318/2424 19010KT CAVOK
                      BECMG 2319/2323 26007KT
                      PROB30 2403/2407 9000
                      BECMG 2409/2412 02010KT
                      BECMG 2416/2419 VRB05KT=
200905231101 TAF EGLL 231101Z 2312/2418 19010KT CAVOK
                      BECMG 2321/2324 25007KT
                      PROB30 2403/2407 9000
                      BECMG 2409/2412 02010KT=
200905230456 TAF EGLL 230456Z 2306/2412 18005KT 9999 FEW040
                      BECMG 2400/2404 02010KT=
200905222303 TAF EGLL 222303Z 2300/2406 18005KT 9999 FEW040
                      PROB40 2303/2307 8000
                      BECMG 2400/2404 02010KT=
200905221703 TAF EGLL 221703Z 2218/2324 26010KT 9999 SCT040
                      BECMG 2218/2221 20006KT
                      BECMG 2302/2305 7000
                      BECMG 2306/2308 CAVOK=
200905221102 TAF EGLL 221102Z 2212/2318 26012KT 9999 SCT040
                      BECMG 2218/2221 20006KT
                      BECMG 2302/2305 7000
                      BECMG 2306/2308 CAVOK=
200905220504 TAF EGLL 220504Z 2206/2312 27012KT 9999 SCT040
                      BECMG 2218/2221 21006KT
                      BECMG 2302/2305 7000
                      BECMG 2306/2308 CAVOK=
200905212302 TAF EGLL 212302Z 2200/2306 26010KT 9999 SCT045
                      PROB30 2205/2208 9000 BKN014
                      BECMG 2302/2305 7000=
200905211705 TAF EGLL 211705Z 2118/2224 27009KT 9999 SCT040
                      PROB30 2204/2208 9000 BKN012=
200905211100 TAF EGLL 211100Z 2112/2218 26010KT 9999 SCT040
                      PROB30 TEMPO 2112/2115 8000 SHRA
                      PROB30 2201/2208 7000 BKN007=
200905210500 TAF EGLL 210500Z 2106/2212 24010KT 9999 SCT035
                      PROB30 2106/2107 8000 BKN012
                      PROB30 TEMPO 2111/2116 7000 SHRA
                      PROB30 2200/2207 8000 BKN009=
200905202258 TAF EGLL 202258Z 2100/2206 20006KT 9999 SCT040
                      PROB40 2100/2107 8000 BKN008
                      BECMG 2111/2114 26012KT
                      PROB30 TEMPO 2112/2119 7000 SHRA
                      PROB30 2200/2206 8000 BKN008=
200905201655 TAF EGLL 201655Z 2018/2124 22008KT 9999 SCT035
                      TEMPO 2103/2107 7000 BKN008
                      BECMG 2111/2114 28013KT
                      PROB30 TEMPO 2112/2118 7000 SHRA=
200905201055 TAF EGLL 201055Z 2012/2118 22010KT 9999 SCT035
                      PROB30 TEMPO 2103/2107 7000 BKN008
                      BECMG 2111/2114 28013KT
                      PROB30 TEMPO 2112/2118 7000 SHRA=
200905200503 TAF EGLL 200503Z 2006/2112 20009KT 9999 FEW025
                      PROB30 TEMPO 2006/2007 9000 BKN012
                      PROB30 2103/2107 7000 BKN006=
200905192300 TAF EGLL 192300Z 2000/2106 20007KT 9999 FEW030
                      PROB30 2003/2007 7000 BKN006
                      PROB30 2103/2106 7000 BKN006=
200905191701 TAF EGLL 191701Z 1918/2024 20010KT 9999 SCT030
                      TEMPO 1918/1920 22016G26KT
                      PROB30 2003/2007 7000 BKN006=
200905191053 TAF EGLL 191053Z 1912/2018 22016G27KT 9999 SCT030
                      TEMPO 1912/1916 7000 SHRA
                      BECMG 1918/1921 21012KT
                      PROB30 2003/2007 7000 BKN006=
200905190500 TAF EGLL 190500Z 1906/2012 19008KT 9999 SCT035
                      TEMPO 1906/1916 7000 SHRA
                      PROB30 TEMPO 1907/1913 3000 +SHRA BKN014CB
                       PROB40
                      TEMPO 1910/1919 19015G25KT
                      PROB30 2003/2007 7000 BKN006=
200905182306 TAF EGLL 182306Z 1900/2006 19008KT 9999 SCT035
                      TEMPO 1903/1916 7000 SHRA
                      PROB30 TEMPO 1907/1913 3000 +SHRA BKN014CB
                       PROB40
                      TEMPO 1910/1919 19015G25KT
                      PROB30 2003/2006 7000 BKN006=
200905181658 TAF EGLL 181658Z 1818/1924 22015G25KT 9999 SCT035
                      BECMG 1818/1821 18009KT
                      TEMPO 1904/1918 7000 SHRA
                      PROB30 TEMPO 1907/1916 19015G25KT 3000 +SHRA
                       BKN014CB=
200905181055 TAF EGLL 181055Z 1812/1918 22017G27KT 9999 SCT035
                      PROB30 TEMPO 1812/1817 7000 SHRA
                      BECMG 1818/1821 18009KT
                      TEMPO 1907/1917 7000 SHRA
                      PROB30 TEMPO 1909/1916 19015G25KT 3000 +SHRA
                       BKN014CB=
200905180457 TAF EGLL 180457Z 1806/1912 20010KT 9999 SCT025
                      BECMG 1808/1811 21017G27KT
                      PROB30 TEMPO 1811/1817 7000 SHRA
                      BECMG 1818/1821 19010KT
                      PROB40 TEMPO 1907/1912 7000 SHRA
                      PROB30 TEMPO 1909/1912 19015G25KT 3000 +SHRA
                       BKN014TCU=
200905172300 TAF EGLL 172300Z 1800/1906 19010KT 9999 SCT025
                      PROB30 TEMPO 1800/1802 3000 +SHRA BKN014CB
                       BECMG 1807/1810 21016G26KT
                      PROB30 TEMPO 1811/1817 7000 SHRA
                      BECMG 1818/1821 19010KT=
200905171701 TAF EGLL 171701Z 1718/1824 19010KT 9999 SCT030
                      PROB40 TEMPO 1718/1819 21015G25KT 8000 SHRA
                       PROB30
                      TEMPO 1723/1801 4000 +SHRA BKN014CB=
200905171058 TAF EGLL 171058Z 1712/1818 22015G25KT 9999 SCT030
                      PROB40 TEMPO 1712/1818 8000 SHRA
                      BECMG 1719/1721 19010KT
                      PROB30 TEMPO 1721/1807 19015G25KT
                      BECMG 1807/1810 22016G28KT=
200905170504 TAF EGLL 170504Z 1706/1812 11005KT 9999 FEW014 SCT030
                      BECMG 1707/1709 16015KT 8000 RA
                      PROB30 TEMPO 1707/1710 4000 +RA BKN014
                      BECMG 1709/1712 22015G25KT 9999 NSW
                      PROB40 TEMPO 1712/1812 8000 SHRA=
200905162257 TAF EGLL 162257Z 1700/1806 16006KT 9999 SCT045
                      BECMG 1707/1709 16015G25KT 8000 RA BKN014
                       PROB30
                      TEMPO 1707/1710 4000 +RA
                      BECMG 1709/1712 22015G25KT 9999 NSW FEW014
                       SCT035
                      PROB40 TEMPO 1712/1806 8000 SHRA
                      BECMG 1718/1721 18008KT=
200905161703 TAF EGLL 161703Z 1618/1724 21017G27KT 9999 SCT040
                      BECMG 1619/1622 18008KT
                      TEMPO 1708/1711 17016G26KT 7000 SHRA BKN014TCU
                       BECMG 1710/1713 21018G28KT
                      BECMG 1719/1722 22008KT=
200905161059 TAF EGLL 161059Z 1612/1718 21018G28KT 9999 SCT035
                      PROB30 TEMPO 1612/1614 6000 SHRA
                      BECMG 1619/1622 18008KT
                      TEMPO 1708/1711 18015G25KT 6000 SHRA BKN014
                       BECMG 1710/1713 21018G28KT=
200905160458 TAF EGLL 160458Z 1606/1712 17008KT 8000 -RA SCT008 BKN014
                      BECMG 1606/1609 21018G28KT 9999 NSW SCT025
                       TEMPO 1606/1607 3000 RA BKN008
                      PROB30 TEMPO 1609/1614 6000 SHRA
                      BECMG 1619/1622 16008KT
                      TEMPO 1708/1712 18015G25KT 6000 SHRA BKN014=
200905152302 TAF EGLL 152302Z 1600/1706 20010KT 9999 SCT035
                      BECMG 1603/1606 6000 -RA BKN012
                      PROB30 TEMPO 1604/1607 4000 RADZ BKN008
                      BECMG 1606/1608 9999 NSW SCT030
                      BECMG 1608/1611 22018G28KT
                      PROB30 TEMPO 1608/1615 8000 SHRA
                      BECMG 1619/1622 18008KT=
200905151823 TAF AMD EGLL 151823Z 1518/1624 21015KT 9999 SCT025
                      PROB30 TEMPO 1518/1522 4500 SHRA BKN014
                      PROB40 1602/1610 4000 RA BKN008
                      BECMG 1607/1610 21016G26KT
                      BECMG 1617/1620 19012KT
                      PROB30 1621/1624 7000 -RA BKN014=
200905151658 TAF EGLL 151658Z 1518/1624 21015KT 9999 SCT025
                      PROB30 TEMPO 1518/1522 6000 SHRA BKN014
                      PROB40 1602/1610 4000 RA BKN008
                      BECMG 1607/1610 21016G26KT
                      BECMG 1617/1620 19012KT
                      PROB30 1621/1624 7000 -RA BKN014=
200905151131 TAF AMD EGLL 151131Z 1512/1618 19015KT 9999 SCT025
                      PROB30 TEMPO 1512/1521 6000 SHRA
                      PROB40 1602/1609 4000 RA BKN008
                      BECMG 1607/1610 21016G26KT=
200905151059 TAF EGLL 151059Z 1512/1618 19012KT 9999 SCT025
                      PROB30 TEMPO 1512/1521 6000 SHRA
                      PROB40 1602/1609 4000 RA BKN008
                      BECMG 1607/1610 21016G26KT=
200905150829 TAF COR EGLL 150829Z 1508/1612 20012KT 7000 BKN026
                      BECMG 1508/1510 9999
                      PROB30 TEMPO 1508/1510 BKN010
                      PROB30 TEMPO 1512/1520 6000 SHRA
                      PROB40 1520/1607 4000 RA BKN008
                      BECMG 1607/1610 21016G26KT=
200905150757 TAF AMD EGLL 150757Z 1508/1612 20012KT 7000 BKN026
                      PROB30 TEMPO 1508/1510 BKN010
                      PROB30 TEMPO 1512/1520 6000 SHRA
                      PROB40 1520/1607 4000 RA BKN008
                      BECMG 1607/1610 21016G26KT=
200905150504 TAF EGLL 150504Z 1506/1612 20012KT 3000 BR BKN005
                      TEMPO 1506/1508 SCT005
                      BECMG 1507/1510 7000 NSW BKN012
                      BECMG 1510/1512 9999 SCT025
                      PROB30 TEMPO 1512/1520 6000 SHRA
                      TEMPO 1520/1607 4000 RA BKN008
                      BECMG 1607/1610 21016G26KT=
200905142304 TAF EGLL 142304Z 1500/1606 VRB05KT 6000 BR FEW010 BKN025
                      TEMPO 1500/1606 4000 SHRA BKN014
                      PROB30 TEMPO 1500/1507 1400 +SHRA TSRA
                      PROB40 1500/1509 BKN007
                      PROB30 TEMPO 1500/1507 BKN004
                      BECMG 1506/1510 20012KT 9999 NSW=
200905141702 TAF EGLL 141702Z 1418/1524 09006KT 9999 BKN025
                      TEMPO 1418/1524 6000 SHRA BKN014
                      PROB30 TEMPO 1420/1507 3500 +SHRA TSRA
                      TEMPO 1422/1509 BKN007
                      PROB30 TEMPO 1502/1507 BKN004
                      BECMG 1506/1509 20013KT=
200905141105 TAF EGLL 141105Z 1412/1518 09006KT 9999 BKN025
                      TEMPO 1412/1518 6000 SHRA BKN014
                      PROB30 TEMPO 1413/1506 3500 +SHRA TSRA
                      TEMPO 1422/1509 BKN007
                      PROB30 TEMPO 1502/1507 BKN004
                      BECMG 1506/1509 20013KT=
200905140625 TAF AMD EGLL 140625Z 1406/1512 VRB05KT 3000 BR BKN008
                      TEMPO 1406/1408 FEW008 BKN018
                      BECMG 1408/1412 9999 NSW SCT020
                      TEMPO 1412/1512 6000 SHRA BKN012
                      PROB30 TEMPO 1415/1503 4000 +TSRA
                      BECMG 1422/1502 3000 BR BKN007
                      PROB40 1502/1507 BKN003
                      BECMG 1508/1511 9999 NSW SCT018=
200905140505 TAF EGLL 140505Z 1406/1512 VRB05KT 3000 BR BKN010
                      TEMPO 1406/1409 BKN005
                      BECMG 1408/1412 9999 NSW SCT020
                      TEMPO 1412/1512 6000 SHRA BKN012
                      PROB30 TEMPO 1415/1503 4000 +TSRA
                      BECMG 1422/1502 3000 BR BKN007
                      PROB40 1502/1507 BKN003
                      BECMG 1508/1511 9999 NSW SCT018=
200905132304 TAF EGLL 132304Z 1400/1506 09006KT 5000 BR BKN010
                      PROB40 1400/1409 3000 BKN007
                      PROB30 TEMPO 1402/1408 1400 BKN003
                      BECMG 1409/1412 9999 NSW BKN020
                      TEMPO 1412/1506 6000 SHRA BKN012
                      PROB30 TEMPO 1418/1506 +TSRA
                      PROB40 1500/1506 3000 BR BKN003=
200905131705 TAF EGLL 131705Z 1318/1424 07006KT 3500 BR BKN010
                      TEMPO 1318/1409 1400 BKN007
                      PROB30 TEMPO 1402/1408 BKN003
                      BECMG 1409/1412 9999 NSW SCT020
                      TEMPO 1412/1424 6000 SHRA=
200905131553 TAF AMD EGLL 131553Z 1315/1418 10006KT 4000 HZ BKN009
                      TEMPO 1315/1320 BKN012
                      TEMPO 1320/1410 1200 BR BKN005
                      PROB30 TEMPO 1402/1408 BKN002
                      BECMG 1409/1412 9999 SCT020
                      TEMPO 1412/1418 6000 SHRA=
200905131510 TAF AMD EGLL 131510Z 1315/1418 10006KT 4000 HZ BKN010
                      PROB30 TEMPO 1315/1320 6000 NSW BKN015
                      TEMPO 1320/1410 1200 BR BKN005
                      BECMG 1409/1412 9999 SCT020
                      TEMPO 1412/1418 6000 SHRA=
200905131106 TAF EGLL 131106Z 1312/1418 10006KT 3000 -DZ BR BKN006
                      BECMG 1312/1315 6000 NSW SCT008 BKN014
                      PROB30 1314/1320 BKN015
                      TEMPO 1320/1410 2000 BR BKN005
                      BECMG 1409/1412 9999 SCT020
                      TEMPO 1412/1418 6000 SHRA=
200905130902 TAF AMD EGLL 130902Z 1309/1412 07008KT 7000 -RADZ SCT007 BKN012
                       TEMPO 1309/1311 2000 RADZ BR BKN007
                      TEMPO 1311/1319 9999 NSW SCT010 BKN020
                      PROB40 1403/1408 4000 BR BKN005
                      BECMG 1408/1411 9999 NSW FEW010 BKN025=
200905130506 TAF EGLL 130506Z 1306/1412 07008KT 9999 BKN010
                      PROB30 1306/1309 4000 -RA BR BKN006
                      BECMG 1309/1312 SCT010 BKN020
                      PROB30 TEMPO 1312/1318 6000 SHRA
                      BECMG 1400/1403 8000 BKN010
                      PROB40 1403/1408 4000 BR BKN005
                      BECMG 1408/1411 9999 FEW010 BKN025=
200905130324 TAF AMD EGLL 130324Z 1303/1406 06010KT 9999 BKN035
                      BECMG 1303/1306 BKN010
                      PROB30 1304/1309 5000 BR -RA BKN006
                      BECMG 1309/1312 SCT010 BKN020
                      PROB30 TEMPO 1312/1318 6000 SHRA
                      PROB40 1400/1406 5000 BR BKN005=
200905122300 TAF AMD EGLL 130324Z 1303/1406 06010KT 9999 BKN035
                      BECMG 1303/1306 BKN010
                      PROB30 1304/1309 5000 BR -RA BKN006
                      BECMG 1309/1312 SCT010 BKN020
                      PROB30 TEMPO 1312/1318 6000 SHRA
                      PROB40 1400/1406 5000 BR BKN005=
200905122256 TAF EGLL 122256Z 1300/1406 06010KT 9999 BKN035
                      BECMG 1301/1304 BKN010
                      PROB30 1302/1309 5000 BR -RA BKN006
                      BECMG 1309/1312 SCT010 BKN020
                      PROB30 TEMPO 1312/1318 6000 SHRA
                      PROB40 1400/1406 5000 BR BKN005=
200905121852 TAF AMD EGLL 121852Z 1218/1324 06012KT 9999 SCT030
                      TEMPO 1218/1224 06015G25KT
                      BECMG 1300/1303 BKN010
                      PROB40 1302/1308 3000 BR -RADZ BKN007
                      BECMG 1312/1315 SCT018
                      PROB40 TEMPO 1312/1324 6000 SHRA=
200905121702 TAF EGLL 121702Z 1218/1324 06012KT 9999 SCT030
                      TEMPO 1218/1224 06015G25KT
                      BECMG 1300/1303 BKN010
                      PROB40 1302/1308 3000 BR -RADZ BKN007
                      BECMG 1309/1312 BKN014
                      BECMG 1312/1315 SCT018
                      PROB40 TEMPO 1312/1324 6000 SHRA=
200905121106 TAF EGLL 121106Z 1212/1318 06012KT 9999 SCT025
                      TEMPO 1212/1221 06016G26KT
                      PROB40 1220/1309 7000 RA
                      BECMG 1300/1304 BKN010
                      PROB30 TEMPO 1302/1308 3000 BR -RADZ BKN007
                       BECMG 1309/1312 BKN014
                      BECMG 1312/1315 BKN018=
200905120458 TAF EGLL 120458Z 1206/1312 05012KT 9999 SCT025
                      TEMPO 1206/1219 06016G26KT
                      PROB40 1218/1309 7000 RA
                      BECMG 1300/1304 BKN012
                      PROB30 1302/1308 3000 BR -RADZ BKN007
                      BECMG 1303/1306 11010KT
                      BECMG 1309/1312 BKN020=
200905112255 TAF EGLL 112255Z 1200/1306 05015KT 9999 FEW025
                      TEMPO 1207/1221 06017G27KT
                      PROB40 1217/1306 7000 RA
                      BECMG 1300/1303 BKN012
                      PROB30 1302/1306 3000 BR -RADZ BKN007
                      BECMG 1303/1306 11010KT=
200905111705 TAF EGLL 111705Z 1118/1224 05012KT 9999 FEW030
                      TEMPO 1118/1224 06015G25KT
                      PROB40 1220/1224 7000 RA=
200905111101 TAF EGLL 111101Z 1112/1218 06016G27KT 9999 FEW030
                      TEMPO 1120/1208 05013KT=
200905110458 TAF EGLL 110458Z 1106/1212 06010KT 9999 FEW040
                      BECMG 1107/1110 06016G27KT=
200905102259 TAF EGLL 102259Z 1100/1206 06010KT 9999 FEW040
                      BECMG 1107/1110 06016G27KT=
200905101656 TAF EGLL 101656Z 1018/1124 06010KT 9999 FEW040
                      BECMG 1108/1110 06016G27KT=
200905101057 TAF EGLL 101057Z 1012/1118 09010KT 9999 FEW040
                      BECMG 1109/1112 06016G27KT=
200905100457 TAF EGLL 100457Z 1006/1112 VRB03KT 9999 FEW040
                      PROB40 1006/1008 7000
                      BECMG 1013/1015 09010KT
                      BECMG 1110/1112 06015G25KT=
200905092255 TAF EGLL 092255Z 1000/1106 VRB04KT 9999 FEW040
                      PROB40 1002/1007 4000 BR
                      BECMG 1003/1007 07010KT=
200905091653 TAF EGLL 091653Z 0918/1024 25007KT 9999 FEW040
                      PROB40 1002/1008 5000 BR
                      BECMG 1003/1007 07010KT=
200905091055 TAF EGLL 091055Z 0912/1018 22010KT 9999 SCT030
                      BECMG 1000/1003 VRB03KT
                      PROB40 1002/1008 5000 BR
                      BECMG 1006/1010 09010KT=
200905090502 TAF EGLL 090502Z 0906/1012 22008KT 9999 FEW045
                      PROB40 1002/1008 5000 BR=
200905082300 TAF EGLL 082300Z 0900/1006 21008KT 9999 FEW045
                      PROB30 1000/1006 7000=
200905081700 TAF EGLL 081700Z 0818/0924 25016G26KT 9999 SCT035
                      BECMG 0818/0821 22008KT
                      PROB30 0921/0924 8000=
200905081058 TAF EGLL 081058Z 0812/0918 25017G27KT 9999 SCT035
                      BECMG 0819/0822 21008KT=
200905080501 TAF EGLL 080501Z 0806/0912 22011KT 9999 SCT035
                      TEMPO 0806/0811 6000 SHRA
                      BECMG 0810/0813 26018G28KT
                      BECMG 0819/0822 22008KT=
200905072257 TAF EGLL 072257Z 0800/0906 24014KT 9999 SCT025
                      TEMPO 0805/0812 6000 SHRA
                      TEMPO 0805/0820 26020G30KT
                      BECMG 0821/0824 18008KT=
200905071656 TAF EGLL 071656Z 0718/0824 23010KT 9999 BKN025
                      PROB40 0719/0807 BKN014
                      BECMG 0806/0809 24015G25KT
                      TEMPO 0806/0816 7000 SHRA
                      PROB30 TEMPO 0807/0813 26023G35KT 3000 +SHRA
                       BKN014CB
                      BECMG 0818/0821 25010KT=
200905071056 TAF EGLL 071056Z 0712/0818 23010KT 9999 BKN025
                      PROB40 0721/0806 BKN014
                      BECMG 0806/0809 24015G25KT
                      TEMPO 0806/0816 7000 SHRA
                      PROB30 TEMPO 0807/0813 26023G35KT 3000 +SHRA
                       BKN014CB=
200905070505 TAF EGLL 070505Z 0706/0812 23013KT 9999 SCT018 BKN040
                      TEMPO 0706/0710 8000 -RA BKN012
                      TEMPO 0720/0806 BKN012
                      TEMPO 0806/0810 21020G30KT 4000 +SHRA BKN012=
200905070424 TAF AMD EGLL 070424Z 0704/0806 24012KT 9999 SCT015
                      TEMPO 0706/0710 8000 -RA BKN012
                      TEMPO 0720/0806 BKN012=
200905062301 TAF EGLL 062301Z 0700/0806 24012KT 9999 SCT015 BKN040
                      PROB30 0700/0706 BKN008
                      BECMG 0704/0707 8000 -RA BKN012
                      PROB30 TEMPO 0706/0709 4000 -RADZ BKN008
                       BECMG 0708/0711 9999 NSW SCT025
                      TEMPO 0720/0806 BKN012=
200905062300 TAF AMD EGLL 070424Z 0704/0806 24012KT 9999 SCT015
                      TEMPO 0706/0710 8000 -RA BKN012
                      TEMPO 0720/0806 BKN012=
200905061703 TAF EGLL 061703Z 0618/0724 24015KT 9999 SCT035
                      PROB30 0622/0704 BKN008
                      BECMG 0704/0707 8000 -RA BKN014
                      BECMG 0707/0710 9999 NSW SCT025
                      TEMPO 0720/0724 BKN014=
200905061056 TAF EGLL 061056Z 0612/0718 25015KT 9999 SCT025
                      PROB30 0622/0704 BKN008
                      BECMG 0704/0707 8000 -RA BKN014
                      BECMG 0707/0710 9999 NSW SCT025=
200905060504 TAF EGLL 060504Z 0606/0712 25015KT 9999 BKN020
                      PROB30 0606/0609 BKN012
                      BECMG 0621/0624 BKN012
                      PROB40 TEMPO 0704/0710 6000 -RADZ BKN009
                       BECMG 0709/0712 SCT020=
200905052305 TAF EGLL 052305Z 0600/0706 25013KT 9999 BKN020
                      PROB40 0600/0609 BKN012
                      BECMG 0608/0611 25017G27KT
                      BECMG 0619/0622 BKN012
                      PROB40 TEMPO 0704/0706 6000 RADZ BKN009=
200905051710 TAF EGLL 051710Z 0518/0624 25016KT 9999 SCT035
                      PROB40 0522/0609 BKN012=
200905051056 TAF EGLL 051056Z 0512/0618 26015G25KT 9999 SCT024
                      BECMG 0518/0521 24010KT
                      PROB40 0522/0609 BKN012
                      BECMG 0611/0614 26015G25KT=
200905050504 TAF EGLL 050504Z 0506/0612 26010KT 9999 SCT014 BKN018
                      PROB40 0506/0509 8000 -RA BKN014
                      PROB30 TEMPO 0506/0508 BKN009
                      BECMG 0510/0513 26015G25KT
                      BECMG 0517/0520 26010KT
                      PROB40 0522/0609 BKN010=
200905042303 TAF EGLL 042303Z 0500/0606 26010KT 9999 SCT014 BKN018
                      PROB40 0500/0509 8000 -RA BKN014
                      PROB30 TEMPO 0500/0508 BKN009
                      BECMG 0510/0513 26015G25KT
                      BECMG 0517/0520 26010KT
                      PROB40 0522/0606 BKN010=
200905041656 TAF EGLL 041656Z 0418/0524 26010KT 9999 SCT018 BKN040
                      PROB40 0419/0509 8000 -RA BKN014
                      PROB30 TEMPO 0423/0508 BKN009
                      BECMG 0510/0513 26015G25KT
                      BECMG 0517/0520 26010KT
                      TEMPO 0522/0524 BKN012=
200905041055 TAF EGLL 041055Z 0412/0518 26010KT 9999 SCT018 BKN040
                      PROB40 0418/0509 8000 -RA BKN014
                      PROB30 TEMPO 0423/0508 BKN009
                      BECMG 0510/0514 26015G25KT=
200905040458 TAF EGLL 040458Z 0406/0512 26004KT CAVOK
                      BECMG 0409/0412 BKN040
                      BECMG 0414/0418 26014KT
                      PROB40 0417/0509 8000 -RA BKN014
                      PROB30 TEMPO 0423/0508 BKN009=
200905032300 TAF EGLL 032300Z 0400/0506 27005KT CAVOK
                      BECMG 0410/0413 BKN045
                      BECMG 0413/0417 26015KT
                      PROB40 0418/0506 8000 -RA BKN014
                      PROB30 TEMPO 0423/0506 BKN009=
200905031659 TAF EGLL 031659Z 0318/0424 32010KT 9999 FEW040
                      BECMG 0401/0404 26008KT
                      BECMG 0418/0421 BKN012
                      PROB40 TEMPO 0418/0424 6000 -RADZ=
200905031101 TAF EGLL 031101Z 0312/0418 32012KT 9999 SCT035
                      BECMG 0401/0404 26008KT
                      TEMPO 0416/0418 7000 -RA BKN014=
200905030500 TAF EGLL 030500Z 0306/0412 30012KT 9999 SCT035
                      BECMG 0402/0404 24008KT=
200905022255 TAF EGLL 022255Z 0300/0406 28008KT 9999 SCT035
                      PROB30 0303/0306 7000 RA=
200905021700 TAF EGLL 021700Z 0218/0324 26007KT 9999 SCT045
                      PROB30 0303/0305 7000 RA BKN014 OVC045=
200905021058 TAF EGLL 021058Z 0212/0318 26007KT 9999 SCT045
                      PROB30 0303/0305 7000 RA BKN014 OVC045=
200905020500 TAF EGLL 020500Z 0206/0312 28006KT 9999 SCT030
                      PROB30 0206/0208 8000 BKN014
                      TEMPO 0302/0305 7000 RA
                      PROB30 TEMPO 0303/0305 BKN014=
200905012257 TAF EGLL 012257Z 0200/0306 24006KT 9999 SCT030
                      PROB40 0200/0207 8000 BKN014
                      PROB30 0202/0206 4000 BR BKN006
                      PROB30 TEMPO 0302/0306 7000 SHRA=
200905011657 TAF EGLL 011657Z 0118/0224 22010KT 9999 SCT025 BKN040
                      BECMG 0121/0124 8000 BKN010
                      PROB30 0200/0205 3000 -RADZ BR BKN004
                      BECMG 0205/0208 28008KT 9999 SCT020=
200905011057 TAF EGLL 011057Z 0112/0218 21010KT 9999 SCT040
                      BECMG 0121/0124 8000 BKN010
                      PROB30 0200/0205 3000 RADZ BR BKN004
                      BECMG 0205/0208 27008KT 9999 SCT020=
200905010503 TAF EGLL 010503Z 0106/0212 VRB04KT 9999 FEW045
                      PROB30 0106/0108 8000
                      BECMG 0110/0113 24010KT
                      BECMG 0121/0124 8000 BKN010
                      PROB30 0200/0205 BKN004
                      BECMG 0204/0207 9999 FEW010=
