##########################################################
# Query made at 01/13/2020 14:23:47 UTC
# Time interval: from 05/01/2019 00:00  to 05/31/2019 23:59  UTC
##########################################################

##########################################################
# EGLL, London / Heathrow Airport (United Kingdom)
# WMO index: 03772
# Latitude 51-29N. Longitude 000-27W. Altitude 24 m.
##########################################################

###################################
#  METAR/SPECI from EGLL
###################################
201905312350 METAR COR EGLL 312350Z AUTO 23004KT 9999 NCD 13/11 Q1022
                        NOSIG=
201905312320 METAR COR EGLL 312320Z AUTO 21005KT 9999 NCD 14/11 Q1022
                        NOSIG=
201905312250 METAR COR EGLL 312250Z AUTO 22006KT 9999 NCD 14/11 Q1022
                        NOSIG=
201905312220 METAR COR EGLL 312220Z AUTO 22007KT 190V260 9999 NCD 14/11
                        Q1022 NOSIG=
201905312150 METAR COR EGLL 312150Z AUTO 23009KT 170V270 9999 NCD 15/11
                        Q1022 NOSIG=
201905312120 METAR COR EGLL 312120Z AUTO 21009KT 180V250 9999 NCD 16/11
                        Q1022 NOSIG=
201905312050 METAR COR EGLL 312050Z AUTO 23009KT 9999 NCD 16/12 Q1022
                        NOSIG=
201905312020 METAR COR EGLL 312020Z AUTO 23008KT 190V260 9999 NCD 16/12
                        Q1022 NOSIG=
201905311950 METAR COR EGLL 311950Z AUTO 25008KT 9999 NCD 17/12 Q1022
                        NOSIG=
201905311920 METAR COR EGLL 311920Z AUTO 25010KT 9999 NCD 18/12 Q1022
                        NOSIG=
201905311850 METAR COR EGLL 311850Z AUTO 23011KT 9999 FEW027 18/12 Q1022
                        NOSIG=
201905311820 METAR COR EGLL 311820Z AUTO 24011KT 9999 NCD 19/12 Q1022
                        NOSIG=
201905311750 METAR COR EGLL 311750Z AUTO 24009G19KT 200V270 9999 NCD 19/12
                        Q1022 NOSIG=
201905311720 METAR COR EGLL 311720Z AUTO 25011KT 9999 FEW028 19/12 Q1022
                        NOSIG=
201905311650 METAR COR EGLL 311650Z AUTO 24011KT 200V270 9999 BKN028 20/12
                        Q1023 NOSIG=
201905311620 METAR COR EGLL 311620Z AUTO 21011KT 180V260 9999 BKN028 19/11
                        Q1023 NOSIG=
201905311550 METAR COR EGLL 311550Z AUTO 22011KT 180V250 9999 BKN028 OVC032
                        19/11 Q1023 NOSIG=
201905311520 METAR COR EGLL 311520Z AUTO 22011KT 180V250 9999 OVC027 19/12
                        Q1023 NOSIG=
201905311450 METAR COR EGLL 311450Z AUTO 23011KT 190V260 9999 SCT027 OVC032
                        19/12 Q1023 NOSIG=
201905311420 METAR COR EGLL 311420Z AUTO 19010KT 170V240 9999 BKN029 OVC035
                        19/12 Q1023 NOSIG=
201905311350 METAR COR EGLL 311350Z AUTO 22009KT 170V250 9999 OVC030 19/12
                        Q1024 NOSIG=
201905311320 METAR COR EGLL 311320Z AUTO 21010KT 180V240 9999 OVC028 19/12
                        Q1024 NOSIG=
201905311250 METAR COR EGLL 311250Z AUTO 22009KT 190V270 9999 OVC030 19/11
                        Q1024 NOSIG=
201905311220 METAR COR EGLL 311220Z AUTO 24010KT 9999 BKN029 OVC038 19/12
                        Q1024 NOSIG=
201905311150 METAR COR EGLL 311150Z AUTO 23012KT 9999 BKN024 OVC033 18/12
                        Q1024 NOSIG=
201905311120 METAR COR EGLL 311120Z AUTO 23011KT 9999 FEW026 BKN030 OVC037
                        18/12 Q1024 NOSIG=
201905311050 METAR COR EGLL 311050Z AUTO 21011KT 170V250 9999 OVC026 18/12
                        Q1024 NOSIG=
201905311020 METAR COR EGLL 311020Z AUTO 23008KT 190V270 9999 BKN029 OVC040
                        19/11 Q1024 NOSIG=
201905310950 METAR COR EGLL 310950Z AUTO 23010KT 9999 OVC030 18/11 Q1024
                        NOSIG=
201905310920 METAR COR EGLL 310920Z AUTO 24010KT 200V270 9999 OVC028 18/11
                        Q1024 NOSIG=
201905310850 METAR COR EGLL 310850Z AUTO 23009KT 9999 BKN031 OVC039 18/11
                        Q1024 NOSIG=
201905310820 METAR COR EGLL 310820Z AUTO 22009KT 9999 FEW024 BKN029 18/12
                        Q1024 NOSIG=
201905310750 METAR COR EGLL 310750Z AUTO 23009KT 9999 OVC032 17/12 Q1024
                        NOSIG=
201905310720 METAR COR EGLL 310720Z AUTO 23009KT 9999 BKN034 OVC041 17/12
                        Q1024 NOSIG=
201905310650 METAR COR EGLL 310650Z AUTO 23008KT 9999 OVC034 16/12 Q1024
                        NOSIG=
201905310620 METAR COR EGLL 310620Z AUTO 22009KT 9999 OVC033 16/12 Q1024
                        NOSIG=
201905310550 METAR COR EGLL 310550Z AUTO 22007KT 9999 OVC033 16/12 Q1024
                        NOSIG=
201905310520 METAR COR EGLL 310520Z AUTO 23008KT 9999 OVC031 16/11 Q1024
                        NOSIG=
201905310450 METAR COR EGLL 310450Z AUTO 21006KT 9999 OVC030 15/11 Q1024
                        NOSIG=
201905310420 METAR COR EGLL 310420Z AUTO 21006KT 190V260 9999 OVC032 15/11
                        Q1024 NOSIG=
201905310350 METAR COR EGLL 310350Z AUTO 21006KT 9999 OVC033 15/11 Q1024
                        NOSIG=
201905310320 METAR COR EGLL 310320Z AUTO 21006KT 9999 OVC032 15/11 Q1024
                        NOSIG=
201905310250 METAR COR EGLL 310250Z AUTO 23007KT 9999 OVC029 15/11 Q1024
                        NOSIG=
201905310220 METAR COR EGLL 310220Z AUTO 25006KT 9999 OVC029 15/11 Q1024
                        NOSIG=
201905310150 METAR COR EGLL 310150Z AUTO 24006KT 9999 OVC032 15/11 Q1024
                        NOSIG=
201905310120 METAR COR EGLL 310120Z AUTO 25007KT 9999 BKN032 15/11 Q1024
                        NOSIG=
201905310050 METAR COR EGLL 310050Z AUTO 25008KT 9999 FEW034 15/11 Q1024
                        NOSIG=
201905310020 METAR COR EGLL 310020Z AUTO 25007KT 9999 NCD 15/11 Q1024
                        NOSIG=
201905302350 METAR COR EGLL 302350Z AUTO 26008KT 9999 SCT036 16/10 Q1024
                        NOSIG=
201905302320 METAR COR EGLL 302320Z AUTO 26009KT 9999 BKN037 16/10 Q1024
                        NOSIG=
201905302250 METAR COR EGLL 302250Z AUTO 27009KT 9999 OVC037 17/11 Q1024
                        NOSIG=
201905302220 METAR COR EGLL 302220Z AUTO 28010KT 9999 OVC039 17/11 Q1024
                        NOSIG=
201905302150 METAR COR EGLL 302150Z AUTO 29011KT 9999 OVC040 17/11 Q1024
                        NOSIG=
201905302120 METAR COR EGLL 302120Z AUTO 29009KT 9999 FEW030 BKN039 18/11
                        Q1024 NOSIG=
201905302050 METAR COR EGLL 302050Z AUTO 23011KT 9999 FEW026 SCT031 BKN037
                        19/14 Q1023 NOSIG=
201905302020 METAR COR EGLL 302020Z AUTO 22010KT 9999 BKN045 19/14 Q1023
                        NOSIG=
201905301950 METAR COR EGLL 301950Z AUTO 23009KT 190V250 9999 BKN048 19/14
                        Q1023 NOSIG=
201905301920 METAR COR EGLL 301920Z AUTO 22009KT 180V250 9999 BKN048 20/14
                        Q1022 NOSIG=
201905301850 METAR COR EGLL 301850Z AUTO 24011KT 9999 BKN048 20/13 Q1022
                        NOSIG=
201905301820 METAR COR EGLL 301820Z AUTO 24011KT 9999 BKN047 21/13 Q1022
                        NOSIG=
201905301750 METAR COR EGLL 301750Z AUTO 25012KT 9999 BKN044 22/12 Q1022
                        NOSIG=
201905301720 METAR COR EGLL 301720Z AUTO 25015KT 9999 BKN042 22/12 Q1022
                        NOSIG=
201905301650 METAR COR EGLL 301650Z AUTO 27014KT 9999 BKN043 22/12 Q1022
                        NOSIG=
201905301620 METAR COR EGLL 301620Z AUTO 27014KT 9999 BKN046 23/12 Q1022
                        NOSIG=
201905301550 METAR COR EGLL 301550Z AUTO 27014KT 9999 BKN046 22/12 Q1022
                        NOSIG=
201905301520 METAR COR EGLL 301520Z AUTO 27014KT 9999 BKN042 23/12 Q1022
                        NOSIG=
201905301450 METAR COR EGLL 301450Z AUTO 25016KT 9999 BKN040 24/13 Q1022
                        NOSIG=
201905301420 METAR COR EGLL 301420Z AUTO 27015KT 9999 BKN039 23/13 Q1022
                        NOSIG=
201905301350 METAR COR EGLL 301350Z AUTO 26014KT 9999 BKN039 BKN046 23/13
                        Q1022 NOSIG=
201905301320 METAR COR EGLL 301320Z AUTO 25015KT 9999 BKN036 23/13 Q1022
                        NOSIG=
201905301250 METAR COR EGLL 301250Z AUTO 26017KT 9999 BKN036 22/13 Q1021
                        NOSIG=
201905301220 METAR COR EGLL 301220Z AUTO 24013KT 9999 BKN032 23/14 Q1021
                        NOSIG=
201905301150 METAR EGLL 301150Z AUTO 25013KT 9999 BKN032 OVC042 21/14
                        Q1021=
201905301120 METAR COR EGLL 301120Z AUTO 25013G23KT 9999 BKN032 22/13
                        Q1021 NOSIG=
201905301050 METAR COR EGLL 301050Z AUTO 26015KT 9999 BKN032 BKN039 22/13
                        Q1021 NOSIG=
201905301020 METAR COR EGLL 301020Z AUTO 24013KT 9999 BKN030 22/14 Q1021
                        NOSIG=
201905300950 METAR COR EGLL 300950Z AUTO 25014KT 9999 BKN027 20/13 Q1021
                        NOSIG=
201905300920 METAR COR EGLL 300920Z AUTO 24013KT 9999 FEW026 20/13 Q1021
                        NOSIG=
201905300850 METAR COR EGLL 300850Z AUTO 25013KT 9999 NCD 18/13 Q1021
                        NOSIG=
201905300820 METAR COR EGLL 300820Z AUTO 26014KT 9999 BKN046 18/13 Q1021
                        NOSIG=
201905300750 METAR COR EGLL 300750Z AUTO 24010KT 9999 NCD 18/13 Q1020
                        NOSIG=
201905300720 METAR COR EGLL 300720Z AUTO 25012KT 9999 FEW018 17/13 Q1020
                        NOSIG=
201905300650 METAR COR EGLL 300650Z AUTO 24010KT 9999 SCT014 BKN018 16/13
                        Q1020 NOSIG=
201905300620 METAR COR EGLL 300620Z AUTO 24009KT 200V260 9999 BKN014 16/13
                        Q1020 BECMG BKN016=
201905300550 METAR COR EGLL 300550Z AUTO 24009KT 200V260 9999 OVC014 15/13
                        Q1019 BECMG BKN016=
201905300520 METAR COR EGLL 300520Z AUTO 23009KT 9999 BKN015 OVC019 15/13
                        Q1019 TEMPO BKN014=
201905300450 METAR COR EGLL 300450Z AUTO 25010KT 9999 BKN014 OVC018 15/13
                        Q1019 TEMPO BKN018=
201905300420 METAR COR EGLL 300420Z AUTO 24011KT 9999 OVC014 15/13 Q1019
                        TEMPO BKN016=
201905300350 METAR COR EGLL 300350Z AUTO 24010KT 9999 OVC015 15/13 Q1019
                        TEMPO BKN014=
201905300320 METAR COR EGLL 300320Z AUTO 24011KT 9999 OVC015 15/13 Q1019
                        TEMPO BKN014=
201905300250 METAR COR EGLL 300250Z AUTO 24009KT 9999 BKN015 15/13 Q1019
                        TEMPO BKN014=
201905300220 METAR COR EGLL 300220Z AUTO 23008KT 9999 OVC013 15/13 Q1019
                        TEMPO BKN016=
201905300150 METAR COR EGLL 300150Z AUTO 24010KT 9999 BKN016 15/13 Q1019
                        TEMPO BKN014=
201905300120 METAR COR EGLL 300120Z AUTO 24009KT 9999 BKN017 15/14 Q1018
                        TEMPO BKN014=
201905300050 METAR COR EGLL 300050Z AUTO 24010KT 9999 OVC016 15/14 Q1018
                        TEMPO BKN012=
201905300020 METAR COR EGLL 300020Z AUTO 23011KT 9999 OVC014 15/14 Q1018
                        TEMPO BKN018=
201905292350 METAR COR EGLL 292350Z AUTO 23009KT 9999 BKN016 OVC020 15/14
                        Q1018 TEMPO BKN012=
201905292320 METAR COR EGLL 292320Z AUTO 22009KT 9999 SCT015 OVC020 15/14
                        Q1018 TEMPO BKN012=
201905292250 METAR COR EGLL 292250Z AUTO 23009KT 9999 OVC020 15/14 Q1018
                        TEMPO BKN012=
201905292220 METAR COR EGLL 292220Z AUTO 22007KT 190V260 9999 BKN022 15/14
                        Q1018 TEMPO BKN012=
201905292150 METAR COR EGLL 292150Z AUTO 22010KT 9000 BKN010 BKN023 OVC028
                        15/14 Q1018 NOSIG=
201905292120 METAR COR EGLL 292120Z AUTO 22010KT 180V250 9000 SCT013 BKN017
                        15/14 Q1018 TEMPO BKN013=
201905292050 METAR COR EGLL 292050Z AUTO 22009KT 8000 FEW020 BKN025 15/14
                        Q1017 TEMPO BKN010=
201905292020 METAR COR EGLL 292020Z AUTO 22009KT 8000 BKN006 BKN010 OVC035
                        15/14 Q1017 TEMPO SCT006 BKN010=
201905291950 METAR COR EGLL 291950Z AUTO 22009KT 180V250 7000 BKN005 BKN010
                        OVC030 15/14 Q1017 TEMPO SCT005 BKN010=
201905291920 METAR COR EGLL 291920Z AUTO 22008KT 4800 BR BKN005 OVC010
                        14/14 Q1017 RERA REDZ TEMPO 6000
                        -RA SCT005 BKN010=
201905291850 METAR COR EGLL 291850Z AUTO 20009KT 180V240 4200 -DZ OVC004
                        14/13 Q1017 BECMG 6000 BKN006=
201905291820 METAR EGLL 291820Z AUTO 21011KT 170V250 5000 -DZ OVC004 13/13
                        Q1017=
201905291750 METAR COR EGLL 291750Z AUTO 20011KT 170V240 9999 -RA OVC004
                        13/13 Q1017 TEMPO BKN006=
201905291720 METAR COR EGLL 291720Z AUTO 20011KT 170V230 9999 OVC006 13/12
                        Q1017 NOSIG=
201905291650 METAR COR EGLL 291650Z AUTO 19013KT 150V230 9999 BKN007 OVC016
                        12/12 Q1018 NOSIG=
201905291620 METAR COR EGLL 291620Z AUTO 19013KT 170V240 9999 -RA BKN008
                        OVC021 12/11 Q1018 RERA REDZ TEMPO
                        BKN010=
201905291550 METAR COR EGLL 291550Z 19012KT 160V250 4000 RADZ BKN007 OVC025
                        12/11 Q1018 TEMPO 9999 -RADZ=
201905291520 METAR COR EGLL 291520Z AUTO 19013KT 170V230 9999 -RA BKN009
                        OVC018 12/11 Q1018 TEMPO RADZ=
201905291450 METAR COR EGLL 291450Z AUTO 19013KT 170V230 9999 -RA BKN009
                        OVC014 12/11 Q1019 TEMPO RADZ=
201905291420 METAR COR EGLL 291420Z AUTO 19010KT 140V240 9999 FEW008 SCT013
                        BKN017 11/11 Q1019 TEMPO RADZ BKN008=
201905291350 METAR COR EGLL 291350Z 20010KT 170V250 6000 -RADZ SCT008
                        BKN013 BKN026 11/11 Q1019 RERA REDZ
                        TEMPO RADZ BKN008=
201905291320 METAR COR EGLL 291320Z 21012KT 6000 -RADZ SCT011 BKN016 BKN023
                        12/10 Q1020 RERA REDZ TEMPO RADZ
                        BKN010=
201905291250 METAR COR EGLL 291250Z AUTO 22013KT 9999 -RA BKN016 BKN022
                        OVC044 13/10 Q1020 BECMG BKN010=
201905291220 METAR COR EGLL 291220Z AUTO 23013KT 9999 -RA BKN026 BKN032
                        13/08 Q1020 BECMG BKN010=
201905291150 METAR COR EGLL 291150Z AUTO 23012KT 9999 -RA FEW022/// SCT037///
                        BKN049/// //////TCU 14/07 Q1020 BECMG
                        BKN010=
201905291120 METAR COR EGLL 291120Z AUTO 23014KT 9999 NCD 15/04 Q1020
                        BECMG BKN010=
201905291050 METAR COR EGLL 291050Z AUTO 23012KT 9999 NCD 15/05 Q1019
                        NOSIG=
201905291020 METAR COR EGLL 291020Z AUTO 23011KT 210V270 9999 NCD 15/06
                        Q1019 NOSIG=
201905290950 METAR COR EGLL 290950Z AUTO 23009KT 190V270 9999 NCD 15/07
                        Q1019 NOSIG=
201905290920 METAR COR EGLL 290920Z AUTO 21009KT 170V250 9999 NCD 15/07
                        Q1019 NOSIG=
201905290850 METAR COR EGLL 290850Z AUTO 21008KT 190V250 9999 NCD 14/07
                        Q1019 NOSIG=
201905290820 METAR EGLL 290820Z AUTO 21007KT 170V250 9999 NCD 13/07 Q1019=
201905290750 METAR COR EGLL 290750Z AUTO 21007KT 190V260 9999 NCD 13/07
                        Q1019 NOSIG=
201905290720 METAR COR EGLL 290720Z AUTO 21007KT 9999 NCD 12/07 Q1019
                        NOSIG=
201905290650 METAR COR EGLL 290650Z AUTO 23007KT 190V260 9999 NCD 12/08
                        Q1019 NOSIG=
201905290620 METAR COR EGLL 290620Z AUTO 23007KT 200V270 9999 FEW010 12/09
                        Q1019 NOSIG=
201905290550 METAR COR EGLL 290550Z AUTO 22007KT 180V260 9999 BKN010 12/10
                        Q1019 NOSIG=
201905290520 METAR COR EGLL 290520Z AUTO VRB03KT 9999 FEW011 11/09 Q1019
                        NOSIG=
201905290450 METAR COR EGLL 290450Z AUTO VRB03KT 9999 NCD 10/09 Q1019
                        NOSIG=
201905290420 METAR COR EGLL 290420Z AUTO 16003KT 9999 NCD 10/08 Q1018
                        NOSIG=
201905290350 METAR COR EGLL 290350Z AUTO 14003KT 9999 NCD 10/08 Q1018
                        NOSIG=
201905290320 METAR COR EGLL 290320Z AUTO 16003KT 9999 NCD 10/09 Q1019
                        NOSIG=
201905290250 METAR COR EGLL 290250Z AUTO 12004KT 9999 FEW048 09/08 Q1019
                        NOSIG=
201905290220 METAR COR EGLL 290220Z AUTO 09003KT 9999 FEW049 10/08 Q1019
                        NOSIG=
201905290150 METAR COR EGLL 290150Z AUTO VRB03KT 9999 SCT043 11/09 Q1019
                        NOSIG=
201905290120 METAR COR EGLL 290120Z AUTO 35004KT 9999 BKN040 11/09 Q1019
                        NOSIG=
201905290050 METAR COR EGLL 290050Z AUTO 32005KT 300V360 9999 SCT047 11/09
                        Q1018 NOSIG=
201905290020 METAR COR EGLL 290020Z AUTO 16003KT 9999 NCD 11/09 Q1018
                        NOSIG=
201905282350 METAR COR EGLL 282350Z AUTO 16004KT 9999 NCD 10/08 Q1018
                        NOSIG=
201905282320 METAR COR EGLL 282320Z AUTO 15004KT 9999 NCD 10/08 Q1018
                        NOSIG=
201905282250 METAR COR EGLL 282250Z AUTO 15004KT 130V210 9999 NCD 11/08
                        Q1018 NOSIG=
201905282220 METAR COR EGLL 282220Z AUTO 14006KT 110V200 9999 NCD 10/07
                        Q1018 NOSIG=
201905282150 METAR COR EGLL 282150Z AUTO 15004KT 090V240 9999 NCD 11/07
                        Q1018 NOSIG=
201905282120 METAR COR EGLL 282120Z AUTO 06003KT 9999 NCD 11/06 Q1018
                        NOSIG=
201905282050 METAR COR EGLL 282050Z AUTO VRB02KT 9999 NCD 11/06 Q1018
                        NOSIG=
201905282020 METAR COR EGLL 282020Z AUTO 06002KT 9999 NCD 14/06 Q1017
                        NOSIG=
201905281950 METAR COR EGLL 281950Z AUTO 09003KT 9999 NCD 14/07 Q1017
                        NOSIG=
201905281920 METAR COR EGLL 281920Z AUTO 09003KT 9999 NCD 14/07 Q1017
                        NOSIG=
201905281850 METAR COR EGLL 281850Z AUTO 07005KT 9999 NCD 15/07 Q1016
                        NOSIG=
201905281820 METAR COR EGLL 281820Z AUTO 04005KT 9999 NCD 15/07 Q1016
                        NOSIG=
201905281750 METAR COR EGLL 281750Z AUTO 02006KT 340V060 9999 NCD 16/07
                        Q1016 NOSIG=
201905281720 METAR COR EGLL 281720Z AUTO 02007KT 340V060 9999 NCD 16/07
                        Q1015 NOSIG=
201905281650 METAR COR EGLL 281650Z AUTO 04004KT 350V080 9999 FEW044 16/06
                        Q1015 NOSIG=
201905281620 METAR COR EGLL 281620Z AUTO 36006KT 320V030 9999 FEW037 16/07
                        Q1015 NOSIG=
201905281550 METAR COR EGLL 281550Z AUTO 04006KT 330V080 9999 FEW035///
                        //////TCU 15/07 Q1015 TEMPO SHRA=
201905281520 METAR COR EGLL 281520Z AUTO 35006KT 300V020 9999 NCD 16/08
                        Q1015 TEMPO SHRA=
201905281450 METAR COR EGLL 281450Z AUTO 34007KT 310V030 9999 -RA FEW039///
                        SCT045/// //////TCU 15/09 Q1014 TEMPO
                        SHRA=
201905281420 METAR COR EGLL 281420Z AUTO 05009KT 010V090 9999 -RA BKN038///
                        BKN046/// //////CB 14/09 Q1014 TEMPO
                        SHRA=
201905281350 METAR COR EGLL 281350Z AUTO 30007KT 260V340 9999 SCT046///
                        //////TCU 18/06 Q1013 TEMPO SHRA=
201905281320 METAR COR EGLL 281320Z AUTO 30009KT 270V360 9999 NCD 16/07
                        Q1013 TEMPO SHRA=
201905281250 METAR COR EGLL 281250Z AUTO 32008KT 270V010 9999 SCT041///
                        //////TCU 16/06 Q1013 TEMPO SHRA=
201905281220 METAR COR EGLL 281220Z AUTO 28007KT 240V010 9999 FEW036///
                        //////CB 17/08 Q1013 TEMPO SHRA=
201905281150 METAR COR EGLL 281150Z AUTO 30007KT 270V350 9999 //////CB
                        14/08 Q1013 TEMPO SHRA=
201905281120 METAR COR EGLL 281120Z AUTO 35008KT 300V020 9999 -RA SCT034
                        15/08 Q1012 TEMPO SHRA=
201905281050 METAR COR EGLL 281050Z AUTO 34005KT 280V030 9999 SCT034 16/07
                        Q1012 TEMPO SHRA=
201905281020 METAR COR EGLL 281020Z AUTO 32009KT 280V010 9999 FEW034 15/07
                        Q1012 TEMPO SHRA=
201905280950 METAR COR EGLL 280950Z AUTO 31008KT 280V340 9999 FEW031 15/07
                        Q1011 TEMPO SHRA=
201905280920 METAR COR EGLL 280920Z AUTO 31008KT 280V350 9999 FEW029 15/07
                        Q1011 TEMPO SHRA=
201905280850 METAR COR EGLL 280850Z AUTO 33007KT 300V010 9999 BKN025 BKN036
                        14/07 Q1011 NOSIG=
201905280820 METAR COR EGLL 280820Z AUTO 33008KT 290V020 9999 BKN023 14/08
                        Q1011 NOSIG=
201905280750 METAR COR EGLL 280750Z AUTO 31006KT 250V010 9999 SCT019 13/08
                        Q1011 NOSIG=
201905280720 METAR COR EGLL 280720Z AUTO 30006KT 270V330 9999 FEW018 12/08
                        Q1010 NOSIG=
201905280650 METAR COR EGLL 280650Z AUTO 29006KT 270V330 9999 NCD 11/08
                        Q1010 NOSIG=
201905280620 METAR COR EGLL 280620Z AUTO 30006KT 270V330 9999 NCD 11/08
                        Q1010 NOSIG=
201905280550 METAR COR EGLL 280550Z AUTO 30007KT 9999 NCD 10/08 Q1010
                        NOSIG=
201905280520 METAR COR EGLL 280520Z AUTO 29005KT 9999 NCD 10/08 Q1009
                        NOSIG=
201905280450 METAR COR EGLL 280450Z AUTO 30004KT 9999 NCD 09/08 Q1009
                        NOSIG=
201905280420 METAR COR EGLL 280420Z AUTO 28005KT 9999 NCD 09/08 Q1009
                        NOSIG=
201905280350 METAR COR EGLL 280350Z AUTO 29006KT 9999 NCD 08/07 Q1009
                        NOSIG=
201905280320 METAR COR EGLL 280320Z AUTO 29006KT 9999 FEW048 09/08 Q1009
                        NOSIG=
201905280250 METAR COR EGLL 280250Z AUTO 28007KT 9999 FEW046 09/08 Q1009
                        NOSIG=
201905280220 METAR COR EGLL 280220Z AUTO 28007KT 9999 NCD 09/08 Q1008
                        NOSIG=
201905280150 METAR COR EGLL 280150Z AUTO 27008KT 9999 NCD 10/08 Q1008
                        NOSIG=
201905280120 METAR COR EGLL 280120Z AUTO 27008KT 9999 BKN047 10/08 Q1008
                        NOSIG=
201905280050 METAR COR EGLL 280050Z AUTO 28008KT 9999 BKN037 10/08 Q1008
                        NOSIG=
201905280020 METAR COR EGLL 280020Z AUTO 29008KT 9999 NCD 10/09 Q1008
                        NOSIG=
201905272350 METAR COR EGLL 272350Z AUTO 28007KT 9999 -RA //////TCU 10/09
                        Q1008 NOSIG=
201905272320 METAR COR EGLL 272320Z AUTO 27010KT 9999 //////TCU 10/08
                        Q1008 TEMPO SHRA=
201905272250 METAR COR EGLL 272250Z AUTO 28012KT 9999 //////TCU 11/08
                        Q1008 TEMPO SHRA=
201905272220 METAR COR EGLL 272220Z AUTO 27011KT 9999 -RA SCT046/// //////TCU
                        12/10 Q1008 TEMPO SHRA=
201905272150 METAR COR EGLL 272150Z AUTO 27016KT 9999 -RA NCD 13/08 Q1008
                        TEMPO SHRA=
201905272120 METAR COR EGLL 272120Z AUTO 27014KT 9999 NCD 14/08 Q1009
                        TEMPO SHRA=
201905272050 METAR COR EGLL 272050Z AUTO 27014KT 9999 -RA NCD 14/08 Q1009
                        TEMPO SHRA=
201905272020 METAR COR EGLL 272020Z AUTO 27013KT 9999 NCD 14/07 Q1009
                        NOSIG=
201905271950 METAR COR EGLL 271950Z AUTO 27014KT 9999 //////CB 15/07 Q1008
                        NOSIG=
201905271920 METAR COR EGLL 271920Z AUTO 27013KT 9999 NCD 16/07 Q1008
                        NOSIG=
201905271850 METAR COR EGLL 271850Z AUTO 27012KT 9999 NCD 16/07 Q1008
                        NOSIG=
201905271820 METAR COR EGLL 271820Z AUTO 26014KT 9999 NCD 17/06 Q1008
                        NOSIG=
201905271750 METAR COR EGLL 271750Z AUTO 27013KT 9999 NCD 17/07 Q1008
                        NOSIG=
201905271720 METAR COR EGLL 271720Z AUTO 27015KT 9999 FEW046 18/07 Q1009
                        NOSIG=
201905271650 METAR COR EGLL 271650Z AUTO 29011KT 260V320 9999 NCD 18/07
                        Q1009 NOSIG=
201905271620 METAR COR EGLL 271620Z AUTO 28012KT 250V310 9999 NCD 17/07
                        Q1009 NOSIG=
201905271550 METAR COR EGLL 271550Z AUTO 27016KT 9999 NCD 18/06 Q1009
                        NOSIG=
201905271520 METAR COR EGLL 271520Z AUTO 28013KT 9999 NCD 17/06 Q1010
                        NOSIG=
201905271450 METAR COR EGLL 271450Z AUTO 27017KT 9999 NCD 18/06 Q1010
                        NOSIG=
201905271420 METAR COR EGLL 271420Z AUTO 27017KT 9999 NCD 18/05 Q1010
                        NOSIG=
201905271350 METAR COR EGLL 271350Z AUTO 27016KT 9999 NCD 18/06 Q1010
                        NOSIG=
201905271320 METAR COR EGLL 271320Z AUTO 28014KT 9999 NCD 17/07 Q1010
                        NOSIG=
201905271250 METAR COR EGLL 271250Z AUTO 28012KT 9999 NCD 17/07 Q1010
                        NOSIG=
201905271220 METAR COR EGLL 271220Z AUTO 29011KT 9999 BKN042 17/07 Q1010
                        NOSIG=
201905271150 METAR COR EGLL 271150Z AUTO 28012KT 9999 SCT043 17/06 Q1010
                        NOSIG=
201905271120 METAR COR EGLL 271120Z AUTO 28012KT 9999 SCT041 18/07 Q1010
                        NOSIG=
201905271050 METAR COR EGLL 271050Z AUTO 26014KT 9999 SCT038 18/07 Q1011
                        NOSIG=
201905271020 METAR COR EGLL 271020Z AUTO 26016KT 9999 FEW039 SCT046 18/07
                        Q1011 NOSIG=
201905270950 METAR COR EGLL 270950Z AUTO 27015KT 9999 FEW034 17/08 Q1011
                        NOSIG=
201905270920 METAR COR EGLL 270920Z AUTO 27013KT 240V310 9999 NCD 16/08
                        Q1012 NOSIG=
201905270850 METAR COR EGLL 270850Z AUTO 27010KT 230V290 9999 NCD 15/08
                        Q1012 NOSIG=
201905270820 METAR COR EGLL 270820Z AUTO 27011KT 9999 NCD 13/08 Q1012
                        NOSIG=
201905270750 METAR COR EGLL 270750Z AUTO 26010KT 9999 NCD 13/09 Q1012
                        NOSIG=
201905270720 METAR COR EGLL 270720Z AUTO 27010KT 9999 NCD 12/08 Q1012
                        NOSIG=
201905270650 METAR COR EGLL 270650Z AUTO 27009KT 9999 NCD 12/09 Q1012
                        NOSIG=
201905270620 METAR COR EGLL 270620Z AUTO 27009KT 9999 NCD 12/09 Q1012
                        NOSIG=
201905270550 METAR COR EGLL 270550Z AUTO 27011KT 9999 NCD 11/09 Q1012
                        NOSIG=
201905270520 METAR COR EGLL 270520Z AUTO 26009KT 9999 NCD 11/08 Q1012
                        NOSIG=
201905270450 METAR COR EGLL 270450Z AUTO 27008KT 9999 NCD 10/08 Q1012
                        NOSIG=
201905270420 METAR COR EGLL 270420Z AUTO 27006KT 9999 NCD 10/08 Q1012
                        NOSIG=
201905270350 METAR COR EGLL 270350Z AUTO 26005KT 9999 NCD 10/08 Q1011
                        NOSIG=
201905270320 METAR COR EGLL 270320Z AUTO 26007KT 9999 NCD 11/08 Q1011
                        NOSIG=
201905270250 METAR COR EGLL 270250Z AUTO 27008KT 9999 NCD 10/07 Q1011
                        NOSIG=
201905270220 METAR COR EGLL 270220Z AUTO 27008KT 9999 NCD 10/07 Q1012
                        NOSIG=
201905270150 METAR COR EGLL 270150Z AUTO 28006KT 9999 NCD 10/07 Q1012
                        NOSIG=
201905270120 METAR COR EGLL 270120Z AUTO 27008KT 9999 NCD 11/08 Q1012
                        NOSIG=
201905270050 METAR COR EGLL 270050Z AUTO 28008KT 9999 NCD 11/08 Q1012
                        NOSIG=
201905270020 METAR COR EGLL 270020Z AUTO 28006KT 9999 NCD 11/08 Q1012
                        NOSIG=
201905262350 METAR COR EGLL 262350Z AUTO 28006KT 9999 FEW045 12/09 Q1012
                        NOSIG=
201905262320 METAR COR EGLL 262320Z AUTO 28003KT 9999 FEW044 12/09 Q1012
                        NOSIG=
201905262250 METAR COR EGLL 262250Z AUTO VRB02KT 9999 NCD 13/09 Q1012
                        NOSIG=
201905262220 METAR COR EGLL 262220Z AUTO VRB02KT 9999 NCD 14/09 Q1012
                        NOSIG=
201905262150 METAR COR EGLL 262150Z AUTO 31004KT 9999 NCD 15/10 Q1012
                        NOSIG=
201905262120 METAR COR EGLL 262120Z AUTO 29006KT 9999 NCD 16/11 Q1012
                        NOSIG=
201905262050 METAR COR EGLL 262050Z AUTO 30006KT 260V320 9999 BKN041 17/11
                        Q1012 NOSIG=
201905262020 METAR COR EGLL 262020Z AUTO 29006KT 9999 BKN041/// //////CB
                        17/11 Q1011 NOSIG=
201905261950 METAR COR EGLL 261950Z AUTO 27012KT 9999 -RA SCT025/// //////CB
                        18/13 Q1011 NOSIG=
201905261920 METAR COR EGLL 261920Z AUTO 24010KT 9999 FEW028/// //////CB
                        18/13 Q1011 TEMPO SHRA=
201905261850 METAR COR EGLL 261850Z AUTO 26011KT 9999 NCD 19/13 Q1011
                        TEMPO SHRA=
201905261820 METAR COR EGLL 261820Z AUTO 27012KT 9999 FEW038 19/14 Q1011
                        NOSIG=
201905261750 METAR COR EGLL 261750Z AUTO 26013KT 9999 BKN031/// //////TCU
                        19/13 Q1011 NOSIG=
201905261720 METAR COR EGLL 261720Z AUTO 26014KT 9999 FEW028 BKN034 OVC046
                        19/13 Q1011 NOSIG=
201905261650 METAR COR EGLL 261650Z AUTO 26013KT 9999 SCT026 BKN030 19/13
                        Q1011 NOSIG=
201905261620 METAR COR EGLL 261620Z AUTO 27014KT 9999 BKN024 BKN030 19/14
                        Q1011 NOSIG=
201905261550 METAR COR EGLL 261550Z AUTO 26014KT 9999 BKN023 19/14 Q1011
                        NOSIG=
201905261520 METAR COR EGLL 261520Z AUTO 27016KT 9999 SCT025 BKN030 OVC036
                        19/14 Q1012 NOSIG=
201905261450 METAR COR EGLL 261450Z AUTO 26015KT 9999 SCT023 OVC028 19/14
                        Q1012 NOSIG=
201905261420 METAR COR EGLL 261420Z 27010KT 9999 BKN018 OVC030 19/15 Q1012
                        NOSIG=
201905261350 METAR COR EGLL 261350Z AUTO 26016KT 9999 BKN018 OVC031 19/14
                        Q1012 NOSIG=
201905261320 METAR COR EGLL 261320Z AUTO 25015KT 9999 SCT017 BKN021 BKN026
                        19/14 Q1012 NOSIG=
201905261250 METAR COR EGLL 261250Z AUTO 25015KT 9000 -RA BKN020 BKN027
                        OVC049 19/15 Q1013 NOSIG=
201905261220 METAR COR EGLL 261220Z AUTO 25014KT 9999 SCT024 BKN033 20/14
                        Q1013 NOSIG=
201905261150 METAR COR EGLL 261150Z AUTO 25013KT 9999 BKN024 20/13 Q1013
                        NOSIG=
201905261120 METAR COR EGLL 261120Z AUTO 25014KT 9999 BKN023 20/13 Q1013
                        NOSIG=
201905261050 METAR COR EGLL 261050Z AUTO 26014KT 9999 BKN020 20/13 Q1014
                        NOSIG=
201905261020 METAR COR EGLL 261020Z AUTO 26014KT 9999 BKN017 18/13 Q1014
                        NOSIG=
201905260950 METAR COR EGLL 260950Z AUTO 25014KT 9999 BKN018 19/13 Q1014
                        NOSIG=
201905260920 METAR COR EGLL 260920Z AUTO 25013KT 9999 BKN018 18/13 Q1014
                        NOSIG=
201905260850 METAR COR EGLL 260850Z AUTO 25012KT 9999 BKN016 18/13 Q1014
                        NOSIG=
201905260820 METAR COR EGLL 260820Z AUTO 25012KT 9999 SCT016 17/12 Q1014
                        NOSIG=
201905260750 METAR COR EGLL 260750Z AUTO 25012KT 9999 BKN015 17/12 Q1015
                        NOSIG=
201905260720 METAR COR EGLL 260720Z 24011KT 9999 FEW013 16/12 Q1015 TEMPO
                        BKN013=
201905260650 METAR COR EGLL 260650Z 27012KT 9999 SCT012 16/12 Q1015 NOSIG=
201905260620 METAR COR EGLL 260620Z AUTO 24010KT 9999 FEW015 15/12 Q1015
                        NOSIG=
201905260550 METAR COR EGLL 260550Z AUTO 25008KT 9999 NCD 15/12 Q1015
                        NOSIG=
201905260520 METAR COR EGLL 260520Z AUTO 24009KT 9999 NCD 14/12 Q1015
                        NOSIG=
201905260450 METAR COR EGLL 260450Z AUTO 24008KT 9999 NCD 14/12 Q1015
                        NOSIG=
201905260420 METAR COR EGLL 260420Z AUTO 24007KT 9999 NCD 14/12 Q1015
                        NOSIG=
201905260350 METAR COR EGLL 260350Z AUTO 25008KT 9999 NCD 15/12 Q1015
                        NOSIG=
201905260320 METAR COR EGLL 260320Z AUTO 24006KT 9999 NCD 15/12 Q1016
                        NOSIG=
201905260250 METAR COR EGLL 260250Z AUTO 25008KT 9999 NCD 15/11 Q1016
                        NOSIG=
201905260220 METAR COR EGLL 260220Z AUTO 25009KT 9999 NCD 16/11 Q1016
                        NOSIG=
201905260150 METAR COR EGLL 260150Z AUTO 26008KT 9999 NCD 16/11 Q1016
                        NOSIG=
201905260120 METAR COR EGLL 260120Z AUTO 26008KT 9999 NCD 16/11 Q1016
                        NOSIG=
201905260050 METAR COR EGLL 260050Z AUTO 26008KT 9999 NCD 16/11 Q1017
                        NOSIG=
201905260020 METAR COR EGLL 260020Z AUTO 26007KT 9999 NCD 17/11 Q1017
                        NOSIG=
201905252350 METAR COR EGLL 252350Z AUTO 26008KT 9999 NCD 17/11 Q1017
                        NOSIG=
201905252320 METAR EGLL 252320Z AUTO 27009KT 9999 NCD 18/11 Q1017=
201905252250 METAR COR EGLL 252250Z AUTO 27008KT 9999 NCD 18/11 Q1017
                        NOSIG=
201905252220 METAR COR EGLL 252220Z AUTO 27009KT 9999 NCD 19/11 Q1017
                        NOSIG=
201905252150 METAR COR EGLL 252150Z AUTO 27007KT 9999 NCD 19/11 Q1017
                        NOSIG=
201905252120 METAR COR EGLL 252120Z AUTO 27008KT 9999 NCD 19/11 Q1017
                        NOSIG=
201905252050 METAR COR EGLL 252050Z AUTO 28007KT 9999 NCD 19/11 Q1017
                        NOSIG=
201905252020 METAR COR EGLL 252020Z AUTO 28007KT 9999 NCD 20/11 Q1017
                        NOSIG=
201905251950 METAR COR EGLL 251950Z AUTO 28007KT 9999 NCD 20/11 Q1017
                        NOSIG=
201905251920 METAR COR EGLL 251920Z AUTO 28010KT 9999 NCD 20/11 Q1017
                        NOSIG=
201905251850 METAR COR EGLL 251850Z AUTO 28010KT 9999 NCD 21/10 Q1017
                        NOSIG=
201905251820 METAR COR EGLL 251820Z AUTO 28009KT 9999 NCD 21/10 Q1017
                        NOSIG=
201905251750 METAR COR EGLL 251750Z AUTO 28009KT 9999 NCD 22/08 Q1017
                        NOSIG=
201905251720 METAR COR EGLL 251720Z AUTO 31007KT 9999 NCD 22/08 Q1017
                        NOSIG=
201905251650 METAR COR EGLL 251650Z AUTO 31006KT 270V340 9999 NCD 22/09
                        Q1017 NOSIG=
201905251620 METAR COR EGLL 251620Z AUTO 31008KT 280V340 9999 NCD 23/07
                        Q1017 NOSIG=
201905251550 METAR COR EGLL 251550Z AUTO 30008KT 260V010 9999 NCD 24/07
                        Q1017 NOSIG=
201905251520 METAR COR EGLL 251520Z AUTO 30008KT 260V340 9999 NCD 23/07
                        Q1017 NOSIG=
201905251450 METAR COR EGLL 251450Z AUTO 30007KT 270V340 9999 NCD 23/08
                        Q1017 NOSIG=
201905251420 METAR COR EGLL 251420Z AUTO 30008KT 250V360 9999 NCD 23/09
                        Q1017 NOSIG=
201905251350 METAR COR EGLL 251350Z AUTO 26012KT 9999 NCD 22/08 Q1018
                        NOSIG=
201905251320 METAR COR EGLL 251320Z AUTO 27010KT 240V300 9999 NCD 22/09
                        Q1018 NOSIG=
201905251250 METAR COR EGLL 251250Z AUTO 30008KT 260V340 9999 NCD 23/09
                        Q1018 NOSIG=
201905251220 METAR COR EGLL 251220Z AUTO 28008KT 250V310 9999 SCT045 21/10
                        Q1018 NOSIG=
201905251150 METAR EGLL 251150Z AUTO 27007KT 200V330 9999 SCT039 BKN048
                        21/10 Q1018=
201905251120 METAR COR EGLL 251120Z AUTO 32006KT 280V020 9999 BKN038 20/11
                        Q1019 NOSIG=
201905251050 METAR COR EGLL 251050Z AUTO 28009KT 250V340 9999 SCT038 BKN047
                        20/11 Q1019 NOSIG=
201905251020 METAR COR EGLL 251020Z AUTO 29007KT 260V320 9999 BKN031 20/11
                        Q1019 NOSIG=
201905250950 METAR COR EGLL 250950Z AUTO 27009KT 220V300 9999 SCT028 SCT037
                        BKN049 19/12 Q1019 NOSIG=
201905250920 METAR COR EGLL 250920Z AUTO 29007KT 240V340 9999 SCT025 18/12
                        Q1019 NOSIG=
201905250850 METAR COR EGLL 250850Z AUTO 30007KT 270V330 9999 FEW024 BKN048
                        17/11 Q1020 NOSIG=
201905250820 METAR COR EGLL 250820Z AUTO 30006KT 9999 BKN033 16/11 Q1020
                        NOSIG=
201905250750 METAR COR EGLL 250750Z AUTO 31006KT 280V340 9999 BKN030 BKN037
                        16/11 Q1019 NOSIG=
201905250720 METAR COR EGLL 250720Z AUTO 29005KT 9999 BKN032 16/11 Q1019
                        NOSIG=
201905250650 METAR COR EGLL 250650Z AUTO 31004KT 270V340 9999 FEW043 15/11
                        Q1019 NOSIG=
201905250620 METAR COR EGLL 250620Z AUTO 29005KT 270V340 9999 NCD 15/10
                        Q1019 NOSIG=
201905250550 METAR COR EGLL 250550Z AUTO 30004KT 260V330 9999 SCT048 15/10
                        Q1019 NOSIG=
201905250520 METAR COR EGLL 250520Z AUTO 30004KT 9999 FEW049 14/10 Q1019
                        NOSIG=
201905250450 METAR COR EGLL 250450Z AUTO 29004KT 9999 FEW048 14/10 Q1019
                        NOSIG=
201905250420 METAR COR EGLL 250420Z AUTO 30003KT 9999 BKN049 14/10 Q1019
                        NOSIG=
201905250350 METAR COR EGLL 250350Z AUTO 29004KT 9999 -RA BKN048 14/10
                        Q1019 NOSIG=
201905250320 METAR COR EGLL 250320Z AUTO 31004KT 9999 BKN049 15/10 Q1019
                        NOSIG=
201905250250 METAR COR EGLL 250250Z AUTO 32005KT 9999 NCD 15/10 Q1019
                        NOSIG=
201905250220 METAR COR EGLL 250220Z AUTO 31004KT 9999 NCD 15/10 Q1019
                        NOSIG=
201905250150 METAR COR EGLL 250150Z AUTO 30003KT 9999 NCD 15/10 Q1019
                        NOSIG=
201905250120 METAR COR EGLL 250120Z AUTO VRB03KT 9999 NCD 16/10 Q1019
                        NOSIG=
201905250050 METAR COR EGLL 250050Z AUTO VRB03KT 9999 NCD 16/11 Q1019
                        NOSIG=
201905250020 METAR COR EGLL 250020Z AUTO 32003KT 9999 NCD 16/11 Q1018
                        NOSIG=
201905242350 METAR EGLL 242350Z AUTO 31003KT 9999 NCD 16/11 Q1018=
201905242320 METAR COR EGLL 242320Z AUTO 30004KT 9999 NCD 16/11 Q1018
                        NOSIG=
201905242250 METAR COR EGLL 242250Z AUTO 31004KT 280V340 9999 NCD 16/11
                        Q1018 NOSIG=
201905242220 METAR COR EGLL 242220Z AUTO 32004KT 9999 SCT048 17/11 Q1018
                        NOSIG=
201905242150 METAR COR EGLL 242150Z AUTO 32003KT 9999 NCD 18/11 Q1018
                        NOSIG=
201905242120 METAR COR EGLL 242120Z AUTO 29005KT 9999 NCD 18/11 Q1018
                        NOSIG=
201905242050 METAR COR EGLL 242050Z AUTO 30006KT 9999 NCD 18/11 Q1018
                        NOSIG=
201905242020 METAR COR EGLL 242020Z AUTO 31007KT 9999 SCT048/// //////CB
                        19/11 Q1018 NOSIG=
201905241950 METAR COR EGLL 241950Z AUTO 31006KT 270V330 9999 FEW039///
                        //////CB 19/11 Q1017 NOSIG=
201905241920 METAR COR EGLL 241920Z AUTO 28008KT 9999 //////CB 19/11 Q1017
                        NOSIG=
201905241850 METAR COR EGLL 241850Z AUTO 27007KT 9999 //////CB 19/11 Q1017
                        NOSIG=
201905241820 METAR COR EGLL 241820Z AUTO 28006KT 240V310 9999 NCD 19/10
                        Q1017 NOSIG=
201905241750 METAR COR EGLL 241750Z AUTO 29006KT 9999 NCD 20/10 Q1017
                        NOSIG=
201905241720 METAR COR EGLL 241720Z AUTO 30006KT 270V340 9999 NCD 19/09
                        Q1017 NOSIG=
201905241650 METAR COR EGLL 241650Z AUTO 30008KT 270V330 9999 NCD 20/10
                        Q1017 NOSIG=
201905241620 METAR COR EGLL 241620Z AUTO 32007KT 270V020 9999 NCD 20/09
                        Q1017 NOSIG=
201905241550 METAR COR EGLL 241550Z AUTO 31009KT 280V360 9999 NCD 20/09
                        Q1017 NOSIG=
201905241520 METAR COR EGLL 241520Z AUTO 29009KT 9999 NCD 21/09 Q1017
                        NOSIG=
201905241450 METAR COR EGLL 241450Z AUTO 31006KT 270V340 9999 NCD 21/09
                        Q1017 NOSIG=
201905241420 METAR COR EGLL 241420Z AUTO 31007KT 9999 NCD 20/09 Q1017
                        NOSIG=
201905241350 METAR COR EGLL 241350Z AUTO 29009KT 260V320 9999 NCD 20/09
                        Q1017 NOSIG=
201905241320 METAR COR EGLL 241320Z AUTO 32007KT 270V350 9999 NCD 20/08
                        Q1017 NOSIG=
201905241250 METAR COR EGLL 241250Z AUTO 31008KT 250V010 9999 NCD 22/08
                        Q1017 NOSIG=
201905241220 METAR COR EGLL 241220Z AUTO 31006KT 270V340 9999 FEW048 21/08
                        Q1017 NOSIG=
201905241150 METAR COR EGLL 241150Z AUTO 32006KT 270V020 9999 SCT047 21/08
                        Q1017 NOSIG=
201905241120 METAR COR EGLL 241120Z AUTO 32006KT 290V030 9999 SCT046 21/08
                        Q1017 NOSIG=
201905241050 METAR COR EGLL 241050Z AUTO 31007KT 270V360 9999 BKN045 20/07
                        Q1018 NOSIG=
201905241020 METAR COR EGLL 241020Z AUTO 33005KT 260V030 9999 BKN044 20/08
                        Q1018 NOSIG=
201905240950 METAR COR EGLL 240950Z AUTO 29005KT 230V020 9999 FEW042 19/08
                        Q1018 NOSIG=
201905240920 METAR COR EGLL 240920Z AUTO 32006KT 270V010 9999 FEW037 18/09
                        Q1018 NOSIG=
201905240850 METAR COR EGLL 240850Z AUTO 31004KT 250V040 9999 NCD 18/09
                        Q1018 NOSIG=
201905240820 METAR COR EGLL 240820Z AUTO 01004KT 290V050 9999 NCD 17/09
                        Q1018 NOSIG=
201905240750 METAR COR EGLL 240750Z AUTO 32005KT 280V010 9999 NCD 16/09
                        Q1018 NOSIG=
201905240720 METAR COR EGLL 240720Z AUTO 36005KT 320V040 9999 NCD 15/09
                        Q1017 NOSIG=
201905240650 METAR COR EGLL 240650Z AUTO 35004KT 270V030 9999 NCD 14/09
                        Q1017 NOSIG=
201905240620 METAR COR EGLL 240620Z AUTO 32004KT 280V360 9999 NCD 13/09
                        Q1017 NOSIG=
201905240550 METAR COR EGLL 240550Z AUTO VRB03KT 9999 NCD 13/09 Q1017
                        NOSIG=
201905240520 METAR COR EGLL 240520Z AUTO VRB03KT 9999 NCD 12/08 Q1017
                        NOSIG=
201905240450 METAR COR EGLL 240450Z AUTO 29003KT 9999 NCD 11/08 Q1017
                        NOSIG=
201905240420 METAR COR EGLL 240420Z AUTO 30003KT 9999 NCD 11/08 Q1017
                        NOSIG=
201905240350 METAR COR EGLL 240350Z AUTO 31004KT 9999 NCD 11/08 Q1016=
201905240320 METAR COR EGLL 240320Z AUTO 30004KT 9999 NCD 12/08 Q1016
                        NOSIG=
201905240250 METAR COR EGLL 240250Z AUTO 30003KT 9999 NCD 12/07 Q1016
                        NOSIG=
201905240220 METAR COR EGLL 240220Z AUTO 30003KT 9999 NCD 12/08 Q1016
                        NOSIG=
201905240150 METAR COR EGLL 240150Z AUTO 30003KT 9999 NCD 12/08 Q1016
                        NOSIG=
201905240120 METAR COR EGLL 240120Z AUTO 29004KT 9999 NCD 12/08 Q1016
                        NOSIG=
201905240050 METAR COR EGLL 240050Z AUTO 30003KT 9999 NCD 12/09 Q1016
                        NOSIG=
201905240020 METAR COR EGLL 240020Z AUTO 29004KT 9999 NCD 13/09 Q1015
                        NOSIG=
201905232350 METAR COR EGLL 232350Z AUTO 27007KT 9999 NCD 13/09 Q1015
                        NOSIG=
201905232320 METAR COR EGLL 232320Z AUTO 29004KT 9999 NCD 14/08 Q1015
                        NOSIG=
201905232250 METAR COR EGLL 232250Z AUTO 27005KT 9999 NCD 15/08 Q1015
                        NOSIG=
201905232220 METAR COR EGLL 232220Z AUTO 26004KT 9999 NCD 16/05 Q1015
                        NOSIG=
201905232150 METAR COR EGLL 232150Z AUTO 23005KT 9999 NCD 16/04 Q1015
                        NOSIG=
201905232120 METAR COR EGLL 232120Z AUTO 22005KT 190V250 9999 NCD 17/04
                        Q1015 NOSIG=
201905232050 METAR COR EGLL 232050Z AUTO 22007KT 9999 NCD 17/04 Q1015
                        NOSIG=
201905232020 METAR COR EGLL 232020Z AUTO 22008KT 9999 NCD 18/04 Q1015
                        NOSIG=
201905231950 METAR COR EGLL 231950Z AUTO 22009KT 9999 NCD 19/03 Q1015
                        NOSIG=
201905231920 METAR COR EGLL 231920Z AUTO 22008KT 9999 NCD 20/02 Q1015
                        NOSIG=
201905231850 METAR COR EGLL 231850Z AUTO 22010KT 9999 NCD 20/02 Q1014
                        NOSIG=
201905231820 METAR COR EGLL 231820Z AUTO 22009KT 190V250 9999 NCD 21/02
                        Q1014 NOSIG=
201905231750 METAR COR EGLL 231750Z AUTO 22010KT 9999 NCD 21/03 Q1014
                        NOSIG=
201905231720 METAR COR EGLL 231720Z AUTO 22013KT 9999 NCD 22/03 Q1014
                        NOSIG=
201905231650 METAR COR EGLL 231650Z AUTO 22011KT 9999 NCD 23/04 Q1014
                        NOSIG=
201905231620 METAR COR EGLL 231620Z AUTO 19010KT 9999 NCD 23/05 Q1014
                        NOSIG=
201905231550 METAR COR EGLL 231550Z AUTO 22010KT 180V280 9999 NCD 23/05
                        Q1014 NOSIG=
201905231520 METAR COR EGLL 231520Z AUTO 20008KT 160V240 9999 NCD 24/04
                        Q1014 NOSIG=
201905231450 METAR COR EGLL 231450Z AUTO 22011KT 190V260 9999 NCD 24/03
                        Q1014 NOSIG=
201905231420 METAR COR EGLL 231420Z AUTO 22008KT 180V270 9999 NCD 24/05
                        Q1015 NOSIG=
201905231350 METAR COR EGLL 231350Z AUTO 25008KT 180V310 9999 NCD 24/07
                        Q1015 NOSIG=
201905231320 METAR COR EGLL 231320Z AUTO 23007KT 160V280 9999 NCD 23/07
                        Q1015 NOSIG=
201905231250 METAR COR EGLL 231250Z AUTO 20007KT 160V250 9999 NCD 22/07
                        Q1015 NOSIG=
201905231220 METAR COR EGLL 231220Z AUTO 19006KT 130V260 9999 NCD 22/07
                        Q1016 NOSIG=
201905231150 METAR COR EGLL 231150Z AUTO 20007KT 150V240 9999 NCD 22/06
                        Q1016 NOSIG=
201905231120 METAR COR EGLL 231120Z AUTO 22006KT 160V260 9999 NCD 22/06
                        Q1016 NOSIG=
201905231050 METAR COR EGLL 231050Z AUTO VRB05KT 9999 NCD 21/05 Q1017
                        NOSIG=
201905231020 METAR COR EGLL 231020Z AUTO VRB06KT 9999 NCD 21/05 Q1017
                        NOSIG=
201905230950 METAR COR EGLL 230950Z AUTO VRB05KT 9999 NCD 19/06 Q1017
                        NOSIG=
201905230920 METAR COR EGLL 230920Z AUTO 27005KT 200V330 9999 NCD 19/07
                        Q1017 NOSIG=
201905230850 METAR COR EGLL 230850Z AUTO 21005KT 140V300 9999 NCD 17/07
                        Q1017 NOSIG=
201905230820 METAR COR EGLL 230820Z AUTO 26004KT 210V320 9999 NCD 17/08
                        Q1017 NOSIG=
201905230750 METAR COR EGLL 230750Z AUTO VRB03KT 9999 NCD 15/07 Q1017
                        NOSIG=
201905230720 METAR COR EGLL 230720Z AUTO 24004KT 190V270 9999 NCD 15/07
                        Q1018 NOSIG=
201905230650 METAR COR EGLL 230650Z AUTO 27005KT 9999 SCT049 13/07 Q1018
                        NOSIG=
201905230620 METAR COR EGLL 230620Z AUTO 23006KT 9999 NCD 12/07 Q1018
                        NOSIG=
201905230550 METAR COR EGLL 230550Z AUTO 22006KT 190V260 9999 NCD 11/07
                        Q1018 NOSIG=
201905230520 METAR COR EGLL 230520Z AUTO 22005KT 9999 NCD 10/06 Q1018
                        NOSIG=
201905230450 METAR COR EGLL 230450Z AUTO 21004KT 9999 NCD 10/06 Q1018
                        NOSIG=
201905230420 METAR COR EGLL 230420Z AUTO 21004KT 9999 NCD 10/06 Q1018
                        NOSIG=
201905230350 METAR COR EGLL 230350Z AUTO 21003KT 9999 NCD 10/06 Q1018
                        NOSIG=
201905230320 METAR COR EGLL 230320Z AUTO 21004KT 9999 NCD 10/06 Q1018
                        NOSIG=
201905230250 METAR COR EGLL 230250Z AUTO 22003KT 9999 NCD 10/06 Q1018
                        NOSIG=
201905230220 METAR COR EGLL 230220Z AUTO 20004KT 9999 NCD 10/06 Q1018
                        NOSIG=
201905230150 METAR COR EGLL 230150Z AUTO 21004KT 9999 NCD 11/06 Q1018
                        NOSIG=
201905230120 METAR COR EGLL 230120Z AUTO 22005KT 9999 NCD 11/05 Q1018
                        NOSIG=
201905230050 METAR COR EGLL 230050Z AUTO 21004KT 9999 NCD 11/05 Q1018
                        NOSIG=
201905230020 METAR COR EGLL 230020Z AUTO 21006KT 9999 NCD 12/05 Q1018
                        NOSIG=
201905222350 METAR COR EGLL 222350Z AUTO 22006KT 9999 NCD 12/05 Q1018
                        NOSIG=
201905222320 METAR COR EGLL 222320Z AUTO 22005KT 9999 NCD 13/05 Q1018
                        NOSIG=
201905222250 METAR COR EGLL 222250Z AUTO 21005KT 9999 NCD 13/05 Q1018
                        NOSIG=
201905222220 METAR COR EGLL 222220Z AUTO 21006KT 9999 NCD 14/04 Q1019
                        NOSIG=
201905222150 METAR COR EGLL 222150Z AUTO 22007KT 9999 NCD 15/04 Q1019
                        NOSIG=
201905222120 METAR COR EGLL 222120Z AUTO 22007KT 9999 NCD 15/05 Q1019
                        NOSIG=
201905222050 METAR COR EGLL 222050Z AUTO 23007KT 9999 NCD 16/05 Q1018
                        NOSIG=
201905222020 METAR COR EGLL 222020Z AUTO 23008KT 200V260 9999 NCD 17/05
                        Q1018 NOSIG=
201905221950 METAR COR EGLL 221950Z AUTO 22008KT 9999 NCD 18/05 Q1018
                        NOSIG=
201905221920 METAR COR EGLL 221920Z AUTO 22010KT 9999 NCD 19/05 Q1018
                        NOSIG=
201905221850 METAR COR EGLL 221850Z AUTO 22010KT 9999 NCD 19/06 Q1018
                        NOSIG=
201905221820 METAR COR EGLL 221820Z AUTO 23010KT 190V250 9999 NCD 20/06
                        Q1018 NOSIG=
201905221750 METAR COR EGLL 221750Z AUTO 23010KT 9999 NCD 20/06 Q1018
                        NOSIG=
201905221720 METAR COR EGLL 221720Z AUTO 24010KT 9999 NCD 20/06 Q1018
                        NOSIG=
201905221650 METAR COR EGLL 221650Z AUTO 24009KT 180V270 9999 NCD 20/05
                        Q1018 NOSIG=
201905221620 METAR COR EGLL 221620Z AUTO 26009KT 9999 NCD 21/05 Q1018
                        NOSIG=
201905221550 METAR COR EGLL 221550Z AUTO 26010KT 230V290 9999 NCD 21/04
                        Q1019 NOSIG=
201905221520 METAR COR EGLL 221520Z AUTO 24011KT 9999 NCD 21/04 Q1019
                        NOSIG=
201905221450 METAR COR EGLL 221450Z AUTO 24008KT 200V270 9999 NCD 21/04
                        Q1019 NOSIG=
201905221420 METAR COR EGLL 221420Z AUTO 23009KT 190V270 9999 NCD 21/04
                        Q1019 NOSIG=
201905221350 METAR COR EGLL 221350Z AUTO 26008KT 200V300 9999 NCD 21/04
                        Q1019 NOSIG=
201905221320 METAR EGLL 221320Z AUTO VRB06G16KT 9999 NCD 21/05 Q1019=
201905221250 METAR COR EGLL 221250Z AUTO 24005KT 160V290 9999 NCD 20/05
                        Q1020 NOSIG=
201905221220 METAR COR EGLL 221220Z AUTO 22007KT 160V300 9999 NCD 19/04
                        Q1020 NOSIG=
201905221150 METAR COR EGLL 221150Z AUTO 24009KT 200V270 9999 NCD 20/04
                        Q1020 NOSIG=
201905221120 METAR EGLL 221120Z AUTO 20005KT 140V260 9999 NCD 20/04 Q1020=
201905221050 METAR COR EGLL 221050Z AUTO 21005KT 180V270 9999 NCD 19/03
                        Q1020 NOSIG=
201905221020 METAR COR EGLL 221020Z AUTO VRB03KT 9999 NCD 18/04 Q1020
                        NOSIG=
201905220950 METAR COR EGLL 220950Z AUTO VRB02KT 9999 NCD 18/04 Q1021
                        NOSIG=
201905220920 METAR COR EGLL 220920Z AUTO VRB03KT 9999 NCD 16/05 Q1021
                        NOSIG=
201905220850 METAR COR EGLL 220850Z AUTO VRB02KT 9999 NCD 16/04 Q1021
                        NOSIG=
201905220820 METAR COR EGLL 220820Z AUTO VRB03KT 9999 NCD 16/04 Q1021
                        NOSIG=
201905220750 METAR COR EGLL 220750Z AUTO VRB03KT 9999 NCD 15/05 Q1021
                        NOSIG=
201905220720 METAR COR EGLL 220720Z AUTO VRB03KT 9999 NCD 14/04 Q1021
                        NOSIG=
201905220650 METAR COR EGLL 220650Z AUTO VRB03KT 9999 NCD 14/04 Q1021
                        NOSIG=
201905220620 METAR COR EGLL 220620Z AUTO VRB03KT 9999 NCD 13/04 Q1020
                        NOSIG=
201905220550 METAR COR EGLL 220550Z AUTO 36002KT 9999 NCD 12/04 Q1020
                        NOSIG=
201905220520 METAR COR EGLL 220520Z AUTO VRB02KT 9999 NCD 12/03 Q1020
                        NOSIG=
201905220450 METAR COR EGLL 220450Z AUTO 03001KT 9999 NCD 11/03 Q1020
                        NOSIG=
201905220420 METAR COR EGLL 220420Z AUTO VRB02KT 9999 NCD 11/03 Q1020
                        NOSIG=
201905220350 METAR COR EGLL 220350Z AUTO VRB02KT 9999 NCD 11/03 Q1020
                        NOSIG=
201905220320 METAR COR EGLL 220320Z AUTO VRB03KT 9999 NCD 11/03 Q1020
                        NOSIG=
201905220250 METAR COR EGLL 220250Z AUTO VRB01KT 9999 NCD 11/03 Q1020
                        NOSIG=
201905220220 METAR COR EGLL 220220Z AUTO VRB02KT 9999 NCD 11/04 Q1020
                        NOSIG=
201905220150 METAR COR EGLL 220150Z AUTO 27003KT 9999 NCD 12/04 Q1020
                        NOSIG=
201905220120 METAR COR EGLL 220120Z AUTO VRB02KT 9999 NCD 12/05 Q1020
                        NOSIG=
201905220050 METAR COR EGLL 220050Z AUTO 28005KT 9999 NCD 10/05 Q1020
                        NOSIG=
201905220020 METAR COR EGLL 220020Z AUTO 27003KT 9999 NCD 12/05 Q1020
                        NOSIG=
201905212350 METAR COR EGLL 212350Z AUTO VRB02KT 9999 NCD 12/05 Q1020
                        NOSIG=
201905212320 METAR COR EGLL 212320Z AUTO VRB03KT 9999 NCD 13/05 Q1020
                        NOSIG=
201905212250 METAR COR EGLL 212250Z AUTO 35004KT 310V020 9999 NCD 14/06
                        Q1020 NOSIG=
201905212220 METAR COR EGLL 212220Z AUTO 35004KT 9999 NCD 14/06 Q1020
                        NOSIG=
201905212150 METAR COR EGLL 212150Z AUTO 35003KT 9999 NCD 16/06 Q1020
                        NOSIG=
201905212120 METAR COR EGLL 212120Z AUTO 36003KT 9999 NCD 16/06 Q1020
                        NOSIG=
201905212050 METAR COR EGLL 212050Z AUTO 36004KT 320V040 9999 NCD 17/06
                        Q1020 NOSIG=
201905212020 METAR COR EGLL 212020Z AUTO VRB03KT 9999 NCD 17/06 Q1019
                        NOSIG=
201905211950 METAR COR EGLL 211950Z AUTO 32004KT 290V350 9999 NCD 18/06
                        Q1019 NOSIG=
201905211920 METAR COR EGLL 211920Z AUTO VRB03KT 9999 NCD 18/06 Q1019
                        NOSIG=
201905211850 METAR COR EGLL 211850Z AUTO 33005KT 280V020 9999 NCD 19/06
                        Q1019 NOSIG=
201905211820 METAR COR EGLL 211820Z AUTO 34006KT 280V030 9999 NCD 20/05
                        Q1019 NOSIG=
201905211750 METAR COR EGLL 211750Z AUTO 35007KT 310V030 9999 NCD 20/05
                        Q1018 NOSIG=
201905211720 METAR COR EGLL 211720Z AUTO VRB05KT 9999 NCD 19/05 Q1018
                        NOSIG=
201905211650 METAR COR EGLL 211650Z AUTO 31007KT 9999 NCD 20/05 Q1018
                        NOSIG=
201905211620 METAR COR EGLL 211620Z AUTO 30007KT 280V350 9999 NCD 20/05
                        Q1018 NOSIG=
201905211550 METAR COR EGLL 211550Z AUTO 32007KT 290V010 9999 NCD 20/05
                        Q1018 NOSIG=
201905211520 METAR COR EGLL 211520Z AUTO 33006KT 300V010 9999 NCD 21/06
                        Q1018 NOSIG=
201905211450 METAR COR EGLL 211450Z AUTO 31008KT 270V340 9999 NCD 21/05
                        Q1018 NOSIG=
201905211420 METAR COR EGLL 211420Z AUTO 33006KT 260V020 9999 NCD 20/06
                        Q1018 NOSIG=
201905211350 METAR COR EGLL 211350Z AUTO 31007KT 270V340 9999 NCD 19/06
                        Q1018 NOSIG=
201905211320 METAR COR EGLL 211320Z AUTO 31007KT 260V010 9999 NCD 19/06
                        Q1018 NOSIG=
201905211250 METAR COR EGLL 211250Z AUTO 32005KT 270V030 9999 NCD 20/06
                        Q1018 NOSIG=
201905211220 METAR EGLL 211220Z AUTO 33008KT 280V030 9999 FEW048 19/06
                        Q1018=
201905211150 METAR COR EGLL 211150Z AUTO 33008KT 290V030 9999 NCD 19/06
                        Q1018 NOSIG=
201905211120 METAR COR EGLL 211120Z AUTO 29009KT 270V330 9999 NCD 18/06
                        Q1018 NOSIG=
201905211050 METAR COR EGLL 211050Z AUTO 32007KT 280V010 9999 NCD 18/06
                        Q1018 NOSIG=
201905211020 METAR COR EGLL 211020Z AUTO 29007KT 250V350 9999 NCD 18/05
                        Q1018 NOSIG=
201905210950 METAR COR EGLL 210950Z AUTO 31007KT 260V040 9999 NCD 17/07
                        Q1018 NOSIG=
201905210920 METAR COR EGLL 210920Z AUTO 33007KT 280V020 9999 NCD 17/06
                        Q1019 NOSIG=
201905210850 METAR COR EGLL 210850Z AUTO 31006KT 260V010 9999 NCD 16/07
                        Q1019 NOSIG=
201905210820 METAR COR EGLL 210820Z AUTO 33006KT 290V010 9999 NCD 15/07
                        Q1019 NOSIG=
201905210750 METAR COR EGLL 210750Z AUTO 32006KT 290V010 9999 NCD 14/07
                        Q1019 NOSIG=
201905210720 METAR COR EGLL 210720Z AUTO 35005KT 280V040 9999 NCD 14/08
                        Q1018 NOSIG=
201905210650 METAR COR EGLL 210650Z AUTO VRB02KT 9999 NCD 13/07 Q1018
                        NOSIG=
201905210620 METAR COR EGLL 210620Z AUTO VRB03KT 9999 NCD 12/07 Q1018
                        NOSIG=
201905210550 METAR COR EGLL 210550Z AUTO VRB03KT 9999 NCD 11/07 Q1017
                        NOSIG=
201905210520 METAR COR EGLL 210520Z AUTO VRB03KT 9999 NCD 11/07 Q1017
                        NOSIG=
201905210450 METAR COR EGLL 210450Z AUTO 30003KT 9999 NCD 10/07 Q1017
                        NOSIG=
201905210420 METAR COR EGLL 210420Z AUTO 30004KT 9999 NCD 10/07 Q1017
                        NOSIG=
201905210350 METAR COR EGLL 210350Z AUTO 30004KT 9999 NCD 10/07 Q1017
                        NOSIG=
201905210320 METAR COR EGLL 210320Z AUTO 27003KT 9999 NCD 10/07 Q1017
                        NOSIG=
201905210250 METAR COR EGLL 210250Z AUTO VRB03KT 9999 NCD 10/07 Q1016
                        NOSIG=
201905210220 METAR COR EGLL 210220Z AUTO VRB02KT 9999 NCD 11/07 Q1016
                        NOSIG=
201905210150 METAR COR EGLL 210150Z AUTO 36004KT 310V030 9999 NCD 11/07
                        Q1016 NOSIG=
201905210120 METAR COR EGLL 210120Z AUTO 32004KT 290V350 9999 NCD 11/08
                        Q1016 NOSIG=
201905210050 METAR COR EGLL 210050Z AUTO 32004KT 9999 NCD 12/08 Q1016
                        NOSIG=
201905210020 METAR COR EGLL 210020Z AUTO 30004KT 9999 NCD 12/08 Q1016
                        NOSIG=
201905202350 METAR COR EGLL 202350Z AUTO VRB03KT 9999 NCD 13/08 Q1016
                        NOSIG=
201905202320 METAR COR EGLL 202320Z AUTO VRB03KT 9999 NCD 13/08 Q1016
                        NOSIG=
201905202250 METAR COR EGLL 202250Z AUTO 30003KT 9999 NCD 13/08 Q1015
                        NOSIG=
201905202220 METAR COR EGLL 202220Z AUTO 31002KT 9999 NCD 14/08 Q1015
                        NOSIG=
201905202150 METAR COR EGLL 202150Z AUTO 32002KT 9999 NCD 16/08 Q1015
                        NOSIG=
201905202120 METAR COR EGLL 202120Z AUTO 32002KT 9999 NCD 16/08 Q1015
                        NOSIG=
201905202050 METAR COR EGLL 202050Z AUTO 31004KT 9999 NCD 16/08 Q1015
                        NOSIG=
201905202020 METAR COR EGLL 202020Z AUTO 31003KT 9999 NCD 17/08 Q1014
                        NOSIG=
201905201950 METAR COR EGLL 201950Z AUTO 31003KT 9999 NCD 17/07 Q1014
                        NOSIG=
201905201920 METAR COR EGLL 201920Z AUTO VRB02KT 9999 NCD 18/08 Q1014
                        NOSIG=
201905201850 METAR COR EGLL 201850Z AUTO VRB03KT 9999 NCD 18/08 Q1014
                        NOSIG=
201905201820 METAR EGLL 201820Z AUTO 36005KT 320V030 9999 NCD 19/08 Q1013=
201905201750 METAR EGLL 201750Z AUTO 31007KT 9999 NCD 19/08 Q1013=
201905201720 METAR COR EGLL 201720Z AUTO 31007KT 290V360 9999 NCD 19/08
                        Q1013 NOSIG=
201905201650 METAR COR EGLL 201650Z AUTO 33004KT 270V010 9999 NCD 19/07
                        Q1013 NOSIG=
201905201620 METAR COR EGLL 201620Z AUTO 34005KT 300V020 9999 NCD 20/08
                        Q1013 NOSIG=
201905201550 METAR COR EGLL 201550Z AUTO 36005KT 280V030 9999 NCD 19/08
                        Q1013 NOSIG=
201905201520 METAR COR EGLL 201520Z AUTO 33005KT 290V020 9999 FEW049 20/08
                        Q1013 NOSIG=
201905201450 METAR COR EGLL 201450Z AUTO 01005KT 310V060 9999 FEW048 20/08
                        Q1013 NOSIG=
201905201420 METAR COR EGLL 201420Z AUTO 31005KT 260V020 9999 SCT046 19/08
                        Q1013 TEMPO SHRA=
201905201350 METAR COR EGLL 201350Z AUTO 31006KT 270V340 9999 FEW045 18/09
                        Q1013 NOSIG=
201905201320 METAR COR EGLL 201320Z AUTO 32006KT 280V360 9999 NCD 18/09
                        Q1013 TEMPO SHRA=
201905201250 METAR COR EGLL 201250Z AUTO 33006KT 290V010 9999 FEW045 18/09
                        Q1013 TEMPO SHRA=
201905201220 METAR COR EGLL 201220Z AUTO 28005KT 240V360 9999 SCT043 18/09
                        Q1013 TEMPO SHRA=
201905201150 METAR COR EGLL 201150Z AUTO 32006KT 270V010 9999 FEW047 17/09
                        Q1013 TEMPO SHRA=
201905201120 METAR COR EGLL 201120Z AUTO 34006KT 260V050 9999 SCT037 19/08
                        Q1013 TEMPO SHRA=
201905201050 METAR COR EGLL 201050Z AUTO 33007KT 280V020 9999 FEW036 SCT044
                        18/09 Q1013 NOSIG=
201905201020 METAR COR EGLL 201020Z AUTO 33006KT 280V030 9999 SCT032 BKN041
                        17/10 Q1013 NOSIG=
201905200950 METAR COR EGLL 200950Z AUTO 36006KT 310V050 9999 FEW031 17/10
                        Q1013 NOSIG=
201905200920 METAR COR EGLL 200920Z AUTO 32005KT 290V040 9999 NCD 17/11
                        Q1013 NOSIG=
201905200850 METAR COR EGLL 200850Z AUTO 32005KT 270V010 9999 NCD 16/11
                        Q1013 NOSIG=
201905200820 METAR COR EGLL 200820Z AUTO 01005KT 290V060 9999 NCD 15/11
                        Q1012 NOSIG=
201905200750 METAR COR EGLL 200750Z AUTO 36005KT 310V020 9999 NCD 15/11
                        Q1012 NOSIG=
201905200720 METAR COR EGLL 200720Z AUTO 35004KT 310V020 9999 NCD 14/10
                        Q1012 NOSIG=
201905200650 METAR COR EGLL 200650Z AUTO 35004KT 300V040 9999 NCD 13/11
                        Q1012 NOSIG=
201905200620 METAR COR EGLL 200620Z 32005KT 300V360 CAVOK 13/11 Q1012
                        NOSIG=
201905200550 METAR COR EGLL 200550Z 32005KT 290V360 CAVOK 13/11 Q1011
                        NOSIG=
201905200520 METAR COR EGLL 200520Z VRB03KT CAVOK 13/11 Q1011 NOSIG=
201905200450 METAR COR EGLL 200450Z 33004KT 300V030 9999 NSC 12/11 Q1011
                        NOSIG=
201905200420 METAR COR EGLL 200420Z VRB02KT 9999 NSC 12/11 Q1011 NOSIG=
201905200350 METAR COR EGLL 200350Z VRB02KT 9999 NSC 12/11 Q1011 NOSIG=
201905200320 METAR EGLL 200320Z VRB03KT CAVOK 13/10 Q1011=
201905200250 METAR COR EGLL 200250Z 32003KT CAVOK 13/10 Q1011 NOSIG=
201905200220 METAR COR EGLL 200220Z AUTO VRB03KT 8000 NCD 13/11 Q1011
                        NOSIG=
201905200150 METAR COR EGLL 200150Z VRB03KT 9999 NSC 13/11 Q1011 NOSIG=
201905200120 METAR COR EGLL 200120Z 03004KT 350V080 9999 NSC 13/11 Q1011
                        NOSIG=
201905200050 METAR COR EGLL 200050Z AUTO 01004KT 320V040 9999 NCD 13/11
                        Q1011 NOSIG=
201905200020 METAR COR EGLL 200020Z AUTO 01004KT 330V050 9999 NCD 13/11
                        Q1011 NOSIG=
201905192350 METAR COR EGLL 192350Z VRB03KT 9999 NSC 14/11 Q1011 NOSIG=
201905192320 METAR COR EGLL 192320Z AUTO VRB02KT 9999 NCD 14/10 Q1011
                        NOSIG=
201905192250 METAR COR EGLL 192250Z AUTO VRB03KT 9999 NCD 14/10 Q1011
                        NOSIG=
201905192220 METAR COR EGLL 192220Z AUTO VRB03KT 9999 NCD 14/10 Q1011
                        NOSIG=
201905192150 METAR COR EGLL 192150Z AUTO VRB03KT 9999 NCD 15/10 Q1011
                        NOSIG=
201905192120 METAR COR EGLL 192120Z AUTO VRB02KT 9999 NCD 16/09 Q1011
                        NOSIG=
201905192050 METAR COR EGLL 192050Z AUTO VRB03KT 9999 NCD 16/08 Q1011
                        NOSIG=
201905192020 METAR COR EGLL 192020Z AUTO 04003KT 9999 //////CB 16/09 Q1011
                        NOSIG=
201905191950 METAR COR EGLL 191950Z AUTO 05003KT 9999 //////CB 17/09 Q1010
                        NOSIG=
201905191920 METAR COR EGLL 191920Z AUTO VRB03KT 9999 //////CB 17/09 Q1010
                        NOSIG=
201905191850 METAR COR EGLL 191850Z AUTO 03004KT 340V080 9999 NCD 17/09
                        Q1010 NOSIG=
201905191820 METAR COR EGLL 191820Z AUTO VRB03KT 9999 FEW042 17/10 Q1010
                        NOSIG=
201905191750 METAR COR EGLL 191750Z AUTO VRB01KT 9999 FEW041 18/11 Q1009
                        NOSIG=
201905191720 METAR COR EGLL 191720Z AUTO 16003KT 9999 SCT040 17/11 Q1009
                        NOSIG=
201905191650 METAR COR EGLL 191650Z AUTO 08003KT 9999 -RA BKN038 17/11
                        Q1009 TEMPO SHRA=
201905191620 METAR COR EGLL 191620Z AUTO VRB01KT 9999 BKN040 BKN047 17/10
                        Q1010 NOSIG=
201905191550 METAR COR EGLL 191550Z AUTO 12005KT 080V150 9999 SCT041 18/10
                        Q1010 NOSIG=
201905191520 METAR COR EGLL 191520Z AUTO 10006KT 050V130 9999 BKN037 18/11
                        Q1010 NOSIG=
201905191450 METAR COR EGLL 191450Z AUTO VRB04KT 9999 FEW037 18/10 Q1010
                        NOSIG=
201905191420 METAR COR EGLL 191420Z AUTO VRB03KT 9999 FEW033 17/10 Q1010
                        TEMPO SHRA=
201905191350 METAR COR EGLL 191350Z AUTO 06004KT 300V100 9999 FEW032 17/10
                        Q1010 TEMPO SHRA=
201905191320 METAR COR EGLL 191320Z AUTO 07005KT 040V110 9999 SCT032 16/11
                        Q1010 TEMPO SHRA=
201905191250 METAR COR EGLL 191250Z AUTO 07006KT 030V090 9999 NCD 17/10
                        Q1010 TEMPO SHRA=
201905191220 METAR COR EGLL 191220Z AUTO 02004KT 310V070 9999 NCD 17/10
                        Q1010 TEMPO SHRA=
201905191150 METAR COR EGLL 191150Z AUTO VRB03KT 9999 NCD 16/10 Q1010
                        NOSIG=
201905191120 METAR COR EGLL 191120Z AUTO 02005KT 310V090 9999 NCD 16/10
                        Q1010 NOSIG=
201905191050 METAR COR EGLL 191050Z AUTO 36005KT 290V050 9999 NCD 15/10
                        Q1010 NOSIG=
201905191020 METAR COR EGLL 191020Z AUTO 35005KT 310V030 9999 NCD 15/10
                        Q1010 NOSIG=
201905190950 METAR COR EGLL 190950Z AUTO 36004KT 330V080 9999 NCD 15/10
                        Q1010 NOSIG=
201905190920 METAR COR EGLL 190920Z AUTO VRB03KT 9999 NCD 14/10 Q1010
                        NOSIG=
201905190850 METAR COR EGLL 190850Z AUTO VRB03KT 9999 NCD 14/11 Q1010
                        NOSIG=
201905190820 METAR COR EGLL 190820Z AUTO VRB03KT 9000 NCD 13/11 Q1010
                        NOSIG=
201905190750 METAR COR EGLL 190750Z AUTO VRB03KT 8000 NCD 12/11 Q1009
                        NOSIG=
201905190720 METAR COR EGLL 190720Z AUTO 35003KT 7000 NCD 12/11 Q1009
                        NOSIG=
201905190650 METAR COR EGLL 190650Z AUTO VRB02KT 6000 NCD 12/10 Q1009
                        NOSIG=
201905190620 METAR COR EGLL 190620Z AUTO 35002KT 6000 NCD 11/10 Q1009
                        NOSIG=
201905190550 METAR COR EGLL 190550Z AUTO VRB02KT 6000 NCD 10/09 Q1009
                        NOSIG=
201905190520 METAR COR EGLL 190520Z VRB02KT 7000 NSC 10/09 Q1009 NOSIG=
201905190450 METAR COR EGLL 190450Z 36002KT 7000 NSC 09/09 Q1009 NOSIG=
201905190420 METAR COR EGLL 190420Z 34003KT 7000 NSC 09/08 Q1009 TEMPO
                        4000 BR=
201905190350 METAR COR EGLL 190350Z AUTO 01002KT 6000 NCD 09/08 Q1009
                        TEMPO 4000 BR=
201905190320 METAR COR EGLL 190320Z 03002KT 6000 NSC 09/08 Q1009 NOSIG=
201905190250 METAR COR EGLL 190250Z 01003KT 5000 HZ NSC 09/08 Q1009 TEMPO
                        4000 BR=
201905190220 METAR COR EGLL 190220Z AUTO 36002KT 5000 HZ NCD 09/08 Q1009
                        BECMG 4000 BR=
201905190150 METAR COR EGLL 190150Z VRB03KT 6000 NSC 10/09 Q1008 BECMG
                        4000 BR=
201905190120 METAR COR EGLL 190120Z AUTO VRB02KT 9000 NCD 10/08 Q1008
                        NOSIG=
201905190050 METAR COR EGLL 190050Z AUTO 36003KT 9999 NCD 10/08 Q1008
                        NOSIG=
201905190020 METAR COR EGLL 190020Z AUTO 02004KT 350V060 9999 NCD 10/09
                        Q1008 NOSIG=
201905182350 METAR COR EGLL 182350Z AUTO 01003KT 9999 NCD 11/09 Q1009
                        NOSIG=
201905182320 METAR COR EGLL 182320Z AUTO 02002KT 9999 NCD 10/08 Q1009
                        NOSIG=
201905182250 METAR COR EGLL 182250Z AUTO 04002KT 9999 NCD 12/09 Q1009
                        NOSIG=
201905182220 METAR COR EGLL 182220Z AUTO 06002KT 9999 NCD 12/09 Q1008
                        NOSIG=
201905182150 METAR COR EGLL 182150Z AUTO VRB02KT 9999 NCD 13/09 Q1008
                        NOSIG=
201905182120 METAR COR EGLL 182120Z AUTO 36003KT 9999 NCD 13/09 Q1008
                        NOSIG=
201905182050 METAR COR EGLL 182050Z AUTO 02002KT 9999 NCD 14/10 Q1008
                        NOSIG=
201905182020 METAR COR EGLL 182020Z AUTO VRB02KT 9999 NCD 14/10 Q1008
                        NOSIG=
201905181950 METAR COR EGLL 181950Z AUTO VRB03KT 9999 NCD 14/09 Q1008
                        NOSIG=
201905181920 METAR COR EGLL 181920Z AUTO VRB02KT 9999 //////TCU 15/09
                        Q1008 NOSIG=
201905181850 METAR COR EGLL 181850Z AUTO 36005KT 330V030 9999 NCD 15/09
                        Q1008 NOSIG=
201905181820 METAR COR EGLL 181820Z AUTO 35004KT 320V020 9999 NCD 15/09
                        Q1007 NOSIG=
201905181750 METAR COR EGLL 181750Z AUTO 34006KT 300V020 9999 BKN048 16/10
                        Q1007 NOSIG=
201905181720 METAR COR EGLL 181720Z AUTO 32005KT 290V360 9999 NCD 16/09
                        Q1007 NOSIG=
201905181650 METAR COR EGLL 181650Z AUTO 33004KT 270V030 9999 //////CB
                        16/09 Q1007 NOSIG=
201905181620 METAR COR EGLL 181620Z AUTO 31004KT 9999 //////TCU 16/09
                        Q1006 TEMPO SHRA=
201905181550 METAR COR EGLL 181550Z AUTO 30006KT 9999 //////CB 16/08 Q1006
                        NOSIG=
201905181520 METAR COR EGLL 181520Z AUTO 29006KT 9999 FEW049/// //////CB
                        17/09 Q1006 NOSIG=
201905181450 METAR COR EGLL 181450Z AUTO 32005KT 290V360 9999 SCT037///
                        //////CB 17/08 Q1006 NOSIG=
201905181420 METAR COR EGLL 181420Z AUTO VRB02KT 9999 //////TCU 19/09
                        Q1006 NOSIG=
201905181350 METAR COR EGLL 181350Z AUTO VRB02KT 9999 BKN036 17/09 Q1006
                        NOSIG=
201905181320 METAR COR EGLL 181320Z AUTO 14005KT 110V180 9999 BKN034 17/09
                        Q1006 NOSIG=
201905181250 METAR COR EGLL 181250Z AUTO 13006KT 9999 SCT031 BKN047 16/09
                        Q1006 NOSIG=
201905181220 METAR COR EGLL 181220Z AUTO VRB02KT 9999 BKN034 16/08 Q1006
                        NOSIG=
201905181150 METAR COR EGLL 181150Z AUTO VRB01KT 9999 BKN035 15/08 Q1006
                        NOSIG=
201905181120 METAR COR EGLL 181120Z AUTO VRB03KT 9999 SCT034 BKN046 17/09
                        Q1006 NOSIG=
201905181050 METAR COR EGLL 181050Z AUTO VRB03KT 9999 FEW032 BKN040 15/09
                        Q1006 NOSIG=
201905181020 METAR COR EGLL 181020Z AUTO VRB03KT 9999 FEW026 BKN040 OVC047
                        15/09 Q1006 NOSIG=
201905180950 METAR COR EGLL 180950Z AUTO VRB02KT 9999 FEW024 SCT029 OVC037
                        14/09 Q1006 NOSIG=
201905180920 METAR COR EGLL 180920Z AUTO VRB01KT 9999 FEW022 BKN038 OVC046
                        14/09 Q1006 NOSIG=
201905180850 METAR COR EGLL 180850Z AUTO VRB02KT 9999 SCT019 SCT025 BKN040
                        14/09 Q1006 NOSIG=
201905180820 METAR COR EGLL 180820Z AUTO VRB02KT 9999 FEW018 BKN030 14/09
                        Q1006 NOSIG=
201905180750 METAR COR EGLL 180750Z AUTO VRB02KT 9999 BKN030 13/09 Q1006
                        NOSIG=
201905180720 METAR COR EGLL 180720Z AUTO VRB02KT 9000 OVC029 13/10 Q1006
                        NOSIG=
201905180650 METAR COR EGLL 180650Z AUTO VRB02KT 9000 FEW012 BKN028 12/10
                        Q1006 TEMPO BKN012=
201905180620 METAR COR EGLL 180620Z AUTO 01003KT 8000 BKN028 11/10 Q1006
                        NOSIG=
201905180550 METAR COR EGLL 180550Z AUTO VRB02KT 7000 BKN028 11/10 Q1006
                        NOSIG=
201905180520 METAR COR EGLL 180520Z AUTO VRB02KT 7000 FEW017 BKN028 10/10
                        Q1006 NOSIG=
201905180450 METAR COR EGLL 180450Z AUTO 35002KT 7000 FEW009 SCT013 BKN028
                        10/10 Q1006 TEMPO BKN009=
201905180420 METAR COR EGLL 180420Z AUTO VRB02KT 7000 SCT007 BKN028 10/09
                        Q1006 TEMPO BKN007=
201905180350 METAR COR EGLL 180350Z AUTO 10002KT 5000 BR SCT029 BKN047
                        10/09 Q1006 NOSIG=
201905180320 METAR COR EGLL 180320Z AUTO VRB02KT 5000 BR BKN045 09/09
                        Q1006 NOSIG=
201905180250 METAR COR EGLL 180250Z AUTO VRB03KT 7000 BKN042 10/09 Q1006
                        NOSIG=
201905180220 METAR COR EGLL 180220Z AUTO VRB02KT 7000 NCD 10/09 Q1006
                        NOSIG=
201905180150 METAR COR EGLL 180150Z AUTO VRB03KT 7000 BKN038 10/10 Q1006
                        TEMPO -SHRA BKN012=
201905180120 METAR COR EGLL 180120Z AUTO 36004KT 8000 BKN037 11/10 Q1006
                        TEMPO -SHRA BKN012=
201905180050 METAR COR EGLL 180050Z AUTO 36004KT 8000 OVC027 11/10 Q1007
                        TEMPO BKN012=
201905180020 METAR COR EGLL 180020Z AUTO 36004KT 320V020 9000 BKN027 11/10
                        Q1007 TEMPO BKN012=
201905172350 METAR COR EGLL 172350Z AUTO 36004KT 9000 BKN027 11/10 Q1007
                        NOSIG=
201905172320 METAR COR EGLL 172320Z AUTO VRB03KT 9000 BKN024 11/10 Q1007
                        NOSIG=
201905172250 METAR COR EGLL 172250Z AUTO VRB03KT 9999 FEW030 11/10 Q1007
                        NOSIG=
201905172220 METAR COR EGLL 172220Z AUTO 04005KT 9999 FEW020 SCT030 11/10
                        Q1007 TEMPO BKN014=
201905172150 METAR COR EGLL 172150Z AUTO 02004KT 340V060 9999 FEW016 SCT023
                        BKN035 11/10 Q1007 TEMPO BKN014=
201905172120 METAR COR EGLL 172120Z AUTO 02004KT 330V060 9999 BKN011 OVC036
                        11/10 Q1007 TEMPO SCT011=
201905172050 METAR COR EGLL 172050Z AUTO 01004KT 340V060 9999 -RA BKN010
                        OVC026 11/10 Q1007 TEMPO SCT010=
201905172020 METAR COR EGLL 172020Z AUTO 02005KT 340V060 9999 FEW011 BKN023
                        11/11 Q1007 TEMPO BKN011=
201905171950 METAR COR EGLL 171950Z AUTO 02005KT 340V070 9999 SCT009///
                        BKN019/// OVC024/// 12/10 Q1007 TEMPO
                        BKN010=
201905171920 METAR COR EGLL 171920Z AUTO 04005KT 010V070 6000 -RA FEW008
                        SCT011 OVC019 11/11 Q1007 TEMPO 3000
                        -RADZ BKN011=
201905171850 METAR COR EGLL 171850Z AUTO 04005KT 360V080 5000 -RA FEW011
                        SCT015 BKN021 12/11 Q1007 TEMPO 3000
                        -RADZ BKN011=
201905171820 METAR COR EGLL 171820Z AUTO 05005KT 010V080 9999 SCT010 BKN014
                        BKN021 12/10 Q1007 TEMPO BKN010=
201905171750 METAR COR EGLL 171750Z AUTO 04004KT 9999 -RA FEW009 OVC021
                        12/10 Q1007 TEMPO BKN010=
201905171720 METAR COR EGLL 171720Z AUTO 05006KT 010V080 2900 HZ FEW010
                        SCT017 OVC022 12/10 Q1007 TEMPO BKN010=
201905171650 METAR COR EGLL 171650Z AUTO 06008KT 9999 SCT014 BKN018 OVC025
                        13/10 Q1007 TEMPO BKN014=
201905171620 METAR COR EGLL 171620Z AUTO 07007KT 030V110 9999 BKN016 OVC025
                        13/10 Q1007 NOSIG=
201905171550 METAR COR EGLL 171550Z AUTO 06007KT 9999 -RA BKN018 OVC028
                        13/10 Q1007 NOSIG=
201905171520 METAR COR EGLL 171520Z AUTO 04004KT 360V090 9999 SCT018 BKN024
                        OVC029 13/10 Q1008 NOSIG=
201905171450 METAR COR EGLL 171450Z AUTO 05004KT 010V070 9999 SCT019 BKN024
                        OVC028 13/10 Q1008 NOSIG=
201905171420 METAR COR EGLL 171420Z AUTO 04007KT 9999 FEW021 OVC027 14/09
                        Q1008 NOSIG=
201905171350 METAR COR EGLL 171350Z AUTO 05007KT 010V070 9999 BKN022 OVC026
                        13/10 Q1008 NOSIG=
201905171320 METAR COR EGLL 171320Z AUTO 06007KT 020V090 9999 BKN024 OVC029
                        14/09 Q1008 NOSIG=
201905171250 METAR COR EGLL 171250Z AUTO 05009KT 020V080 9999 BKN028 OVC034
                        14/09 Q1008 NOSIG=
201905171220 METAR COR EGLL 171220Z AUTO 06006KT 020V090 9999 BKN027 BKN037
                        OVC043 15/08 Q1008 NOSIG=
201905171150 METAR COR EGLL 171150Z AUTO 07007KT 040V120 9999 SCT025 OVC030
                        14/09 Q1008 NOSIG=
201905171120 METAR COR EGLL 171120Z AUTO 06009KT 030V100 9999 BKN022 OVC042
                        14/09 Q1008 NOSIG=
201905171050 METAR COR EGLL 171050Z AUTO 05007KT 020V090 9999 BKN022 BKN027
                        OVC031 14/09 Q1008 NOSIG=
201905171020 METAR COR EGLL 171020Z AUTO 04006KT 330V080 9999 BKN022 BKN029
                        OVC036 14/09 Q1008 NOSIG=
201905170950 METAR COR EGLL 170950Z AUTO 03007KT 350V060 9999 SCT022 SCT029
                        BKN034 13/09 Q1008 NOSIG=
201905170920 METAR COR EGLL 170920Z AUTO 03008KT 350V070 9999 SCT019 SCT025
                        BKN031 14/09 Q1009 NOSIG=
201905170850 METAR COR EGLL 170850Z AUTO 04009KT 360V060 9999 SCT016 BKN035
                        14/09 Q1009 NOSIG=
201905170820 METAR COR EGLL 170820Z AUTO 05008KT 9999 SCT016 BKN030 13/09
                        Q1009 TEMPO BKN014=
201905170750 METAR COR EGLL 170750Z AUTO 04008KT 010V080 9999 OVC016 12/08
                        Q1009 TEMPO BKN014=
201905170720 METAR COR EGLL 170720Z AUTO 04007KT 360V080 9999 OVC018 12/08
                        Q1010 NOSIG=
201905170650 METAR COR EGLL 170650Z AUTO 04008KT 010V070 9999 BKN019 OVC027
                        12/08 Q1010 NOSIG=
201905170620 METAR COR EGLL 170620Z AUTO 03007KT 360V060 9999 FEW022 BKN028
                        OVC042 11/08 Q1010 NOSIG=
201905170550 METAR COR EGLL 170550Z AUTO 03007KT 350V070 9999 OVC030 11/08
                        Q1010 NOSIG=
201905170520 METAR COR EGLL 170520Z AUTO 03007KT 350V060 9999 OVC034 11/08
                        Q1010 NOSIG=
201905170450 METAR COR EGLL 170450Z AUTO 02006KT 340V060 9999 OVC033 10/08
                        Q1010 NOSIG=
201905170420 METAR COR EGLL 170420Z AUTO 02006KT 330V060 9999 OVC035 10/08
                        Q1011 NOSIG=
201905170350 METAR COR EGLL 170350Z AUTO 01004KT 330V070 9999 OVC037 10/07
                        Q1011 NOSIG=
201905170320 METAR COR EGLL 170320Z AUTO 02004KT 320V050 9999 OVC040 10/07
                        Q1011 NOSIG=
201905170250 METAR COR EGLL 170250Z AUTO 02005KT 330V060 9999 BKN037 OVC048
                        09/07 Q1011 NOSIG=
201905170220 METAR COR EGLL 170220Z AUTO 03005KT 350V060 9999 BKN039 09/06
                        Q1012 NOSIG=
201905170150 METAR COR EGLL 170150Z AUTO 36004KT 330V040 9999 BKN016 09/06
                        Q1012 TEMPO BKN014=
201905170120 METAR COR EGLL 170120Z AUTO 04006KT 010V090 9999 BKN015 09/06
                        Q1013 TEMPO BKN012=
201905170050 METAR COR EGLL 170050Z AUTO 04004KT 360V070 9999 SCT015 09/06
                        Q1013 NOSIG=
201905170020 METAR COR EGLL 170020Z AUTO 05005KT 9999 NCD 09/06 Q1013
                        NOSIG=
201905162350 METAR COR EGLL 162350Z AUTO 05007KT 020V080 9999 NCD 10/05
                        Q1014 NOSIG=
201905162320 METAR COR EGLL 162320Z AUTO 05007KT 9999 NCD 10/05 Q1014
                        NOSIG=
201905162250 METAR COR EGLL 162250Z AUTO 06007KT 9999 NCD 11/05 Q1014
                        NOSIG=
201905162220 METAR COR EGLL 162220Z AUTO 05005KT 9999 NCD 11/05 Q1015
                        NOSIG=
201905162150 METAR COR EGLL 162150Z AUTO 05006KT 020V080 9999 NCD 11/04
                        Q1015 NOSIG=
201905162120 METAR COR EGLL 162120Z AUTO 05005KT 9999 NCD 12/03 Q1015
                        NOSIG=
201905162050 METAR COR EGLL 162050Z AUTO 05007KT 9999 NCD 12/03 Q1015
                        NOSIG=
201905162020 METAR COR EGLL 162020Z AUTO 06008KT 9999 NCD 13/03 Q1015
                        NOSIG=
201905161950 METAR COR EGLL 161950Z AUTO 06008KT 9999 NCD 13/02 Q1015
                        NOSIG=
201905161920 METAR COR EGLL 161920Z AUTO 07008KT 040V100 9999 NCD 13/02
                        Q1015 NOSIG=
201905161850 METAR COR EGLL 161850Z AUTO 06010KT 020V090 9999 NCD 14/02
                        Q1015 NOSIG=
201905161820 METAR COR EGLL 161820Z AUTO 08009KT 9999 NCD 14/02 Q1015
                        NOSIG=
201905161750 METAR COR EGLL 161750Z AUTO 06008KT 020V090 9999 NCD 15/01
                        Q1016 NOSIG=
201905161720 METAR COR EGLL 161720Z AUTO 08012KT 9999 NCD 15/00 Q1016
                        NOSIG=
201905161650 METAR COR EGLL 161650Z AUTO 09015KT 9999 NCD 16/M01 Q1016
                        NOSIG=
201905161620 METAR COR EGLL 161620Z AUTO 06013KT 9999 NCD 17/00 Q1016
                        NOSIG=
201905161550 METAR COR EGLL 161550Z AUTO 08011KT 9999 NCD 17/02 Q1016
                        NOSIG=
201905161520 METAR COR EGLL 161520Z AUTO 07010KT 030V100 9999 NCD 17/02
                        Q1017 NOSIG=
201905161450 METAR COR EGLL 161450Z AUTO 08011KT 040V110 9999 NCD 18/01
                        Q1017 NOSIG=
201905161420 METAR COR EGLL 161420Z AUTO 08011KT 030V110 9999 NCD 18/01
                        Q1017 NOSIG=
201905161350 METAR COR EGLL 161350Z AUTO 07008KT 020V130 9999 NCD 17/03
                        Q1018 NOSIG=
201905161320 METAR COR EGLL 161320Z AUTO 08011KT 040V110 9999 NCD 17/03
                        Q1018 NOSIG=
201905161250 METAR COR EGLL 161250Z AUTO 08011KT 9999 NCD 18/03 Q1018
                        NOSIG=
201905161220 METAR COR EGLL 161220Z AUTO 07010KT 030V090 9999 NCD 16/04
                        Q1019 NOSIG=
201905161150 METAR COR EGLL 161150Z AUTO 09009KT 050V120 9999 NCD 18/05
                        Q1019 NOSIG=
201905161120 METAR COR EGLL 161120Z AUTO 08008KT 030V120 9999 NCD 17/05
                        Q1019 NOSIG=
201905161050 METAR COR EGLL 161050Z AUTO 08009KT 030V130 9999 NCD 18/04
                        Q1019 NOSIG=
201905161020 METAR COR EGLL 161020Z AUTO 09010KT 050V130 9999 NCD 17/04
                        Q1020 NOSIG=
201905160950 METAR COR EGLL 160950Z AUTO 10008KT 050V140 9999 NCD 17/04
                        Q1020 NOSIG=
201905160920 METAR COR EGLL 160920Z AUTO 11008KT 050V140 9999 NCD 16/06
                        Q1020 NOSIG=
201905160850 METAR COR EGLL 160850Z AUTO 09007KT 040V120 9999 NCD 15/07
                        Q1020 NOSIG=
201905160820 METAR COR EGLL 160820Z AUTO 10008KT 9999 NCD 14/08 Q1021
                        NOSIG=
201905160750 METAR COR EGLL 160750Z AUTO 07007KT 9999 NCD 14/08 Q1021
                        NOSIG=
201905160720 METAR COR EGLL 160720Z AUTO 07007KT 9999 NCD 12/08 Q1021
                        NOSIG=
201905160650 METAR COR EGLL 160650Z AUTO 07006KT 9999 NCD 11/08 Q1021
                        NOSIG=
201905160620 METAR COR EGLL 160620Z AUTO 07006KT 9999 NCD 10/07 Q1021
                        NOSIG=
201905160550 METAR COR EGLL 160550Z AUTO 05004KT 9999 NCD 09/07 Q1021
                        NOSIG=
201905160520 METAR COR EGLL 160520Z AUTO VRB03KT 9999 NCD 08/06 Q1021
                        NOSIG=
201905160450 METAR COR EGLL 160450Z AUTO VRB03KT 9999 NCD 08/05 Q1021
                        NOSIG=
201905160420 METAR COR EGLL 160420Z AUTO 04004KT 9999 NCD 08/05 Q1021
                        NOSIG=
201905160350 METAR COR EGLL 160350Z AUTO 04004KT 9999 NCD 08/05 Q1021
                        NOSIG=
201905160320 METAR COR EGLL 160320Z AUTO 04004KT 9999 NCD 08/05 Q1021
                        NOSIG=
201905160250 METAR COR EGLL 160250Z AUTO 04004KT 9999 NCD 08/05 Q1022
                        NOSIG=
201905160220 METAR COR EGLL 160220Z AUTO 04005KT 9999 NCD 09/06 Q1022
                        NOSIG=
201905160150 METAR COR EGLL 160150Z AUTO 04004KT 9999 NCD 09/06 Q1022
                        NOSIG=
201905160120 METAR COR EGLL 160120Z AUTO 04004KT 9999 NCD 09/06 Q1022
                        NOSIG=
201905160050 METAR COR EGLL 160050Z AUTO 05006KT 9999 NCD 09/06 Q1023
                        NOSIG=
201905160020 METAR COR EGLL 160020Z AUTO 05004KT 9999 NCD 10/05 Q1023
                        NOSIG=
201905152350 METAR COR EGLL 152350Z AUTO 05004KT 9999 NCD 10/05 Q1023
                        NOSIG=
201905152320 METAR COR EGLL 152320Z AUTO 06003KT 9999 NCD 09/05 Q1024
                        NOSIG=
201905152250 METAR COR EGLL 152250Z AUTO 09004KT 9999 NCD 09/05 Q1024
                        NOSIG=
201905152220 METAR COR EGLL 152220Z AUTO 09005KT 9999 NCD 10/05 Q1024
                        NOSIG=
201905152150 METAR COR EGLL 152150Z AUTO 11007KT 9999 NCD 11/05 Q1024
                        NOSIG=
201905152120 METAR COR EGLL 152120Z AUTO 10007KT 9999 NCD 11/04 Q1024
                        NOSIG=
201905152050 METAR COR EGLL 152050Z AUTO 11007KT 9999 NCD 12/03 Q1024
                        NOSIG=
201905152020 METAR COR EGLL 152020Z AUTO 11009KT 9999 NCD 13/02 Q1024
                        NOSIG=
201905151950 METAR COR EGLL 151950Z AUTO 09009KT 9999 NCD 13/03 Q1024
                        NOSIG=
201905151920 METAR COR EGLL 151920Z AUTO 10011KT 9999 NCD 14/05 Q1024
                        NOSIG=
201905151850 METAR COR EGLL 151850Z AUTO 10011KT 9999 NCD 15/06 Q1023
                        NOSIG=
201905151820 METAR COR EGLL 151820Z AUTO 10011KT 9999 NCD 16/06 Q1023
                        NOSIG=
201905151750 METAR COR EGLL 151750Z AUTO 11009KT 9999 NCD 17/06 Q1023
                        NOSIG=
201905151720 METAR COR EGLL 151720Z AUTO 11009KT 9999 NCD 18/06 Q1024
                        NOSIG=
201905151650 METAR COR EGLL 151650Z AUTO 11008KT 9999 NCD 19/06 Q1024
                        NOSIG=
201905151620 METAR COR EGLL 151620Z AUTO 11010KT 060V130 9999 NCD 19/06
                        Q1024 NOSIG=
201905151550 METAR COR EGLL 151550Z AUTO 10008KT 040V130 9999 NCD 19/06
                        Q1024 NOSIG=
201905151520 METAR COR EGLL 151520Z AUTO 08006KT 030V140 9999 NCD 20/07
                        Q1024 NOSIG=
201905151450 METAR COR EGLL 151450Z AUTO 10008KT 070V130 9999 NCD 19/05
                        Q1024 NOSIG=
201905151420 METAR COR EGLL 151420Z AUTO 09006KT 060V120 9999 NCD 20/04
                        Q1025 NOSIG=
201905151350 METAR COR EGLL 151350Z AUTO 11007KT 040V150 9999 NCD 20/04
                        Q1025 NOSIG=
201905151320 METAR COR EGLL 151320Z AUTO VRB05KT 9999 NCD 20/03 Q1025
                        NOSIG=
201905151250 METAR COR EGLL 151250Z AUTO 11007KT 070V150 9999 NCD 19/04
                        Q1026 NOSIG=
201905151220 METAR COR EGLL 151220Z AUTO 11006KT 060V150 9999 NCD 18/04
                        Q1026 NOSIG=
201905151150 METAR COR EGLL 151150Z AUTO VRB06KT 9999 NCD 19/04 Q1026
                        NOSIG=
201905151120 METAR COR EGLL 151120Z AUTO 09007KT 050V120 9999 NCD 18/06
                        Q1026 NOSIG=
201905151050 METAR COR EGLL 151050Z AUTO 07006KT 030V120 9999 NCD 18/06
                        Q1027 NOSIG=
201905151020 METAR COR EGLL 151020Z AUTO VRB05KT 9999 NCD 17/05 Q1027
                        NOSIG=
201905150950 METAR COR EGLL 150950Z AUTO 08005KT 350V130 9999 NCD 17/08
                        Q1027 NOSIG=
201905150920 METAR COR EGLL 150920Z AUTO 09005KT 060V140 9999 NCD 16/07
                        Q1027 NOSIG=
201905150850 METAR COR EGLL 150850Z AUTO 11006KT 9999 NCD 15/08 Q1028
                        NOSIG=
201905150820 METAR COR EGLL 150820Z AUTO 09007KT 050V110 9999 NCD 14/09
                        Q1028 NOSIG=
201905150750 METAR COR EGLL 150750Z AUTO 09006KT 040V130 9999 NCD 13/09
                        Q1028 NOSIG=
201905150720 METAR COR EGLL 150720Z AUTO 09005KT 050V120 9999 NCD 12/08
                        Q1028 NOSIG=
201905150650 METAR COR EGLL 150650Z AUTO 08005KT 030V110 9999 NCD 11/08
                        Q1028 NOSIG=
201905150620 METAR COR EGLL 150620Z AUTO 06004KT 9999 NCD 10/07 Q1028
                        NOSIG=
201905150550 METAR COR EGLL 150550Z AUTO 04004KT 010V080 9999 NCD 09/06
                        Q1028 NOSIG=
201905150520 METAR COR EGLL 150520Z AUTO 04004KT 9999 NCD 08/06 Q1028
                        NOSIG=
201905150450 METAR COR EGLL 150450Z AUTO 03003KT 9999 NCD 07/05 Q1028
                        NOSIG=
201905150420 METAR COR EGLL 150420Z AUTO 04004KT 9999 NCD 07/05 Q1028
                        NOSIG=
201905150350 METAR COR EGLL 150350Z AUTO 04004KT 9999 NCD 07/05 Q1028
                        NOSIG=
201905150320 METAR COR EGLL 150320Z AUTO 05004KT 9999 NCD 08/05 Q1029
                        NOSIG=
201905150250 METAR COR EGLL 150250Z AUTO 04004KT 9999 NCD 08/05 Q1029
                        NOSIG=
201905150220 METAR COR EGLL 150220Z AUTO 04005KT 9999 NCD 08/05 Q1029
                        NOSIG=
201905150150 METAR COR EGLL 150150Z AUTO 05004KT 9999 NCD 09/05 Q1029
                        NOSIG=
201905150120 METAR COR EGLL 150120Z AUTO 04004KT 9999 NCD 08/06 Q1029
                        NOSIG=
201905150050 METAR COR EGLL 150050Z AUTO 05003KT 9999 NCD 08/06 Q1029
                        NOSIG=
201905150020 METAR COR EGLL 150020Z AUTO VRB03KT 9999 NCD 08/06 Q1029
                        NOSIG=
201905142350 METAR COR EGLL 142350Z AUTO 10006KT 9999 NCD 08/04 Q1029
                        NOSIG=
201905142320 METAR COR EGLL 142320Z AUTO 10006KT 9999 NCD 08/03 Q1030
                        NOSIG=
201905142250 METAR COR EGLL 142250Z AUTO 08006KT 9999 NCD 09/M00 Q1030
                        NOSIG=
201905142220 METAR COR EGLL 142220Z AUTO 07006KT 9999 NCD 11/M03 Q1030
                        NOSIG=
201905142150 METAR COR EGLL 142150Z AUTO 07006KT 9999 NCD 11/M00 Q1030
                        NOSIG=
201905142120 METAR COR EGLL 142120Z AUTO 08006KT 9999 NCD 11/02 Q1030
                        NOSIG=
201905142050 METAR COR EGLL 142050Z AUTO 08009KT 9999 NCD 11/02 Q1030
                        NOSIG=
201905142020 METAR COR EGLL 142020Z AUTO 08006KT 9999 NCD 13/01 Q1030
                        NOSIG=
201905141950 METAR COR EGLL 141950Z AUTO 07007KT 9999 NCD 13/02 Q1030
                        NOSIG=
201905141920 METAR COR EGLL 141920Z AUTO 07009KT 9999 NCD 14/02 Q1030
                        NOSIG=
201905141850 METAR COR EGLL 141850Z AUTO 08011KT 9999 NCD 15/01 Q1030
                        NOSIG=
201905141820 METAR COR EGLL 141820Z AUTO 07011KT 9999 NCD 16/02 Q1030
                        NOSIG=
201905141750 METAR COR EGLL 141750Z AUTO 09013KT 9999 NCD 16/03 Q1031
                        NOSIG=
201905141720 METAR COR EGLL 141720Z AUTO 07010KT 9999 NCD 17/04 Q1031
                        NOSIG=
201905141650 METAR COR EGLL 141650Z AUTO 08009KT 050V120 9999 NCD 17/04
                        Q1031 NOSIG=
201905141620 METAR COR EGLL 141620Z AUTO 10011KT 050V120 9999 NCD 17/02
                        Q1031 NOSIG=
201905141550 METAR COR EGLL 141550Z AUTO 08010KT 9999 NCD 18/03 Q1031
                        NOSIG=
201905141520 METAR COR EGLL 141520Z AUTO 10011KT 060V130 9999 NCD 18/02
                        Q1031 NOSIG=
201905141450 METAR COR EGLL 141450Z AUTO 08012KT 9999 NCD 18/05 Q1032
                        NOSIG=
201905141420 METAR COR EGLL 141420Z AUTO 08012KT 040V110 9999 NCD 18/04
                        Q1032 NOSIG=
201905141350 METAR COR EGLL 141350Z AUTO 09011KT 9999 NCD 18/04 Q1033
                        NOSIG=
201905141320 METAR COR EGLL 141320Z AUTO 10010G24KT 060V150 9999 NCD 18/04
                        Q1033 NOSIG=
201905141250 METAR COR EGLL 141250Z AUTO 09011KT 050V120 9999 NCD 18/05
                        Q1033 NOSIG=
201905141220 METAR COR EGLL 141220Z AUTO 10010KT 070V130 9999 NCD 17/05
                        Q1034 NOSIG=
201905141150 METAR COR EGLL 141150Z AUTO 10011G22KT 060V140 9999 NCD 17/05
                        Q1034 NOSIG=
201905141120 METAR COR EGLL 141120Z AUTO 10009KT 9999 NCD 17/05 Q1034
                        NOSIG=
201905141050 METAR COR EGLL 141050Z AUTO 11012KT 070V140 9999 NCD 17/02
                        Q1035 NOSIG=
201905141020 METAR COR EGLL 141020Z AUTO 11013KT 070V130 9999 NCD 16/03
                        Q1035 NOSIG=
201905140950 METAR COR EGLL 140950Z AUTO 08011KT 050V110 9999 NCD 16/05
                        Q1035 NOSIG=
201905140920 METAR COR EGLL 140920Z AUTO 10010KT 060V130 9999 NCD 15/06
                        Q1035 NOSIG=
201905140850 METAR COR EGLL 140850Z AUTO 09010KT 9999 NCD 15/06 Q1035
                        NOSIG=
201905140820 METAR COR EGLL 140820Z AUTO 09009KT 060V130 9999 NCD 14/05
                        Q1036 NOSIG=
201905140750 METAR COR EGLL 140750Z AUTO 09009KT 9999 NCD 13/06 Q1036
                        NOSIG=
201905140720 METAR COR EGLL 140720Z AUTO 09009KT 9999 NCD 12/06 Q1036
                        NOSIG=
201905140650 METAR COR EGLL 140650Z AUTO 09006KT 060V120 9999 NCD 11/07
                        Q1036 NOSIG=
201905140620 METAR COR EGLL 140620Z AUTO 06004KT 010V090 9999 NCD 10/07
                        Q1036 NOSIG=
201905140550 METAR COR EGLL 140550Z AUTO VRB03KT 9999 NCD 09/06 Q1036
                        NOSIG=
201905140520 METAR COR EGLL 140520Z AUTO VRB01KT 9999 NCD 08/06 Q1036
                        NOSIG=
201905140450 METAR COR EGLL 140450Z AUTO VRB03KT 9999 NCD 07/05 Q1036
                        NOSIG=
201905140420 METAR COR EGLL 140420Z AUTO 03002KT 9999 NCD 06/05 Q1036
                        NOSIG=
201905140350 METAR COR EGLL 140350Z AUTO 04003KT 9999 NCD 06/05 Q1036
                        NOSIG=
201905140320 METAR COR EGLL 140320Z AUTO 05002KT 9999 NCD 07/05 Q1036
                        NOSIG=
201905140250 METAR COR EGLL 140250Z AUTO 07003KT 9999 NCD 07/05 Q1036
                        NOSIG=
201905140220 METAR COR EGLL 140220Z AUTO 04004KT 9999 NCD 08/05 Q1037
                        NOSIG=
201905140150 METAR COR EGLL 140150Z AUTO 05005KT 9999 NCD 08/05 Q1037
                        NOSIG=
201905140120 METAR COR EGLL 140120Z AUTO 05005KT 9999 NCD 08/05 Q1037
                        NOSIG=
201905140050 METAR COR EGLL 140050Z AUTO 05004KT 9999 NCD 08/05 Q1037
                        NOSIG=
201905140020 METAR COR EGLL 140020Z AUTO 04003KT 9999 NCD 08/04 Q1037
                        NOSIG=
201905132350 METAR COR EGLL 132350Z AUTO 05004KT 9999 NCD 08/02 Q1038
                        NOSIG=
201905132320 METAR COR EGLL 132320Z AUTO 05003KT 9999 NCD 08/03 Q1038
                        NOSIG=
201905132250 METAR COR EGLL 132250Z AUTO 07004KT 9999 NCD 09/04 Q1038
                        NOSIG=
201905132220 METAR COR EGLL 132220Z AUTO 07004KT 9999 NCD 09/03 Q1038
                        NOSIG=
201905132150 METAR COR EGLL 132150Z AUTO 07003KT 9999 NCD 10/02 Q1038
                        NOSIG=
201905132120 METAR COR EGLL 132120Z AUTO 07004KT 9999 NCD 09/02 Q1038
                        NOSIG=
201905132050 METAR COR EGLL 132050Z AUTO 08004KT 9999 NCD 10/01 Q1038
                        NOSIG=
201905132020 METAR COR EGLL 132020Z AUTO 08004KT 050V110 9999 NCD 10/02
                        Q1038 NOSIG=
201905131950 METAR COR EGLL 131950Z AUTO 09005KT 9999 NCD 11/01 Q1038
                        NOSIG=
201905131920 METAR COR EGLL 131920Z AUTO 08006KT 9999 NCD 12/M01 Q1038
                        NOSIG=
201905131850 METAR COR EGLL 131850Z AUTO 07007KT 9999 NCD 13/00 Q1038
                        NOSIG=
201905131820 METAR COR EGLL 131820Z AUTO 08010KT 9999 NCD 14/01 Q1038
                        NOSIG=
201905131750 METAR COR EGLL 131750Z AUTO 08010KT 9999 NCD 15/02 Q1038
                        NOSIG=
201905131720 METAR COR EGLL 131720Z AUTO 11012KT 9999 NCD 15/02 Q1038
                        NOSIG=
201905131650 METAR COR EGLL 131650Z AUTO 10011KT 050V120 9999 NCD 16/02
                        Q1038 NOSIG=
201905131620 METAR COR EGLL 131620Z AUTO 09011KT 9999 NCD 16/02 Q1038
                        NOSIG=
201905131550 METAR COR EGLL 131550Z AUTO 10011KT 060V130 9999 NCD 17/03
                        Q1038 NOSIG=
201905131520 METAR COR EGLL 131520Z AUTO 11010KT 9999 NCD 17/04 Q1038
                        NOSIG=
201905131450 METAR COR EGLL 131450Z AUTO 12009KT 070V140 9999 NCD 17/03
                        Q1039 NOSIG=
201905131420 METAR COR EGLL 131420Z AUTO 09008KT 050V120 9999 NCD 17/03
                        Q1039 NOSIG=
201905131350 METAR COR EGLL 131350Z AUTO 09009KT 060V130 9999 NCD 17/03
                        Q1039 NOSIG=
201905131320 METAR COR EGLL 131320Z AUTO 10009KT 060V130 9999 NCD 17/03
                        Q1039 NOSIG=
201905131250 METAR COR EGLL 131250Z AUTO 11008KT 9999 NCD 17/02 Q1039
                        NOSIG=
201905131220 METAR COR EGLL 131220Z AUTO 12011KT 9999 NCD 17/02 Q1040
                        NOSIG=
201905131150 METAR COR EGLL 131150Z AUTO 10007KT 050V160 9999 NCD 16/01
                        Q1040 NOSIG=
201905131120 METAR COR EGLL 131120Z AUTO 11010KT 060V140 9999 NCD 16/03
                        Q1040 NOSIG=
201905131050 METAR COR EGLL 131050Z AUTO 10008KT 060V140 9999 NCD 15/03
                        Q1040 NOSIG=
201905131020 METAR COR EGLL 131020Z AUTO 11007KT 070V140 9999 NCD 15/03
                        Q1040 NOSIG=
201905130950 METAR COR EGLL 130950Z AUTO 10006KT 060V140 9999 NCD 14/03
                        Q1040 NOSIG=
201905130920 METAR COR EGLL 130920Z AUTO 10007KT 040V140 9999 NCD 14/05
                        Q1041 NOSIG=
201905130850 METAR COR EGLL 130850Z AUTO 10008KT 9999 NCD 13/06 Q1041
                        NOSIG=
201905130820 METAR COR EGLL 130820Z AUTO 10007KT 060V130 9999 FEW025 12/06
                        Q1041 NOSIG=
201905130750 METAR COR EGLL 130750Z AUTO 10004KT 360V140 9999 NCD 12/06
                        Q1041 NOSIG=
201905130720 METAR COR EGLL 130720Z AUTO 09004KT 070V140 9999 NCD 11/06
                        Q1040 NOSIG=
201905130650 METAR COR EGLL 130650Z AUTO VRB03KT 9999 NCD 10/06 Q1040
                        NOSIG=
201905130620 METAR COR EGLL 130620Z AUTO 04003KT 9999 NCD 09/06 Q1040
                        NOSIG=
201905130550 METAR COR EGLL 130550Z AUTO VRB03KT 9999 NCD 07/05 Q1040
                        NOSIG=
201905130520 METAR COR EGLL 130520Z AUTO 01003KT 9999 NCD 06/04 Q1040
                        NOSIG=
201905130450 METAR COR EGLL 130450Z AUTO 01003KT 9999 NCD 06/04 Q1040
                        NOSIG=
201905130420 METAR COR EGLL 130420Z AUTO 36004KT 9999 NCD 06/04 Q1040
                        NOSIG=
201905130350 METAR COR EGLL 130350Z AUTO VRB01KT 9999 NCD 06/04 Q1040
                        NOSIG=
201905130320 METAR COR EGLL 130320Z AUTO 02002KT 9999 NCD 06/04 Q1040
                        NOSIG=
201905130250 METAR COR EGLL 130250Z AUTO 03002KT 9999 NCD 06/04 Q1040
                        NOSIG=
201905130220 METAR COR EGLL 130220Z AUTO VRB02KT 9999 NCD 06/03 Q1040
                        NOSIG=
201905130150 METAR COR EGLL 130150Z AUTO 07002KT 9999 NCD 07/04 Q1040
                        NOSIG=
201905130120 METAR COR EGLL 130120Z AUTO 07002KT 9999 NCD 07/03 Q1040
                        NOSIG=
201905130050 METAR COR EGLL 130050Z AUTO 07002KT 9999 NCD 07/03 Q1040
                        NOSIG=
201905130020 METAR COR EGLL 130020Z AUTO 08003KT 9999 NCD 07/02 Q1040
                        NOSIG=
201905122350 METAR COR EGLL 122350Z AUTO 09002KT 9999 NCD 07/02 Q1040
                        NOSIG=
201905122320 METAR COR EGLL 122320Z AUTO 07002KT 9999 NCD 07/02 Q1040
                        NOSIG=
201905122250 METAR COR EGLL 122250Z AUTO 10004KT 080V150 9999 NCD 08/02
                        Q1040 NOSIG=
201905122220 METAR COR EGLL 122220Z AUTO 10004KT 9999 NCD 08/02 Q1040
                        NOSIG=
201905122150 METAR COR EGLL 122150Z AUTO 11007KT 9999 NCD 07/02 Q1039
                        NOSIG=
201905122120 METAR COR EGLL 122120Z AUTO 11008KT 9999 NCD 08/04 Q1039
                        NOSIG=
201905122050 METAR COR EGLL 122050Z AUTO 11008KT 9999 NCD 10/04 Q1039
                        NOSIG=
201905122020 METAR COR EGLL 122020Z AUTO 10009KT 9999 NCD 10/04 Q1039
                        NOSIG=
201905121950 METAR COR EGLL 121950Z AUTO 11010KT 9999 NCD 11/04 Q1039
                        NOSIG=
201905121920 METAR COR EGLL 121920Z AUTO 11010KT 9999 NCD 12/04 Q1038
                        NOSIG=
201905121850 METAR COR EGLL 121850Z AUTO 10011KT 9999 NCD 13/05 Q1038
                        NOSIG=
201905121820 METAR COR EGLL 121820Z AUTO 10011KT 9999 NCD 15/05 Q1037
                        NOSIG=
201905121750 METAR COR EGLL 121750Z AUTO 09011KT 050V120 9999 NCD 16/04
                        Q1037 NOSIG=
201905121720 METAR COR EGLL 121720Z AUTO VRB04KT 9999 NCD 15/01 Q1037
                        NOSIG=
201905121650 METAR COR EGLL 121650Z AUTO 06007KT 030V090 9999 NCD 16/01
                        Q1037 NOSIG=
201905121620 METAR COR EGLL 121620Z AUTO 08004KT 360V130 9999 NCD 17/01
                        Q1037 NOSIG=
201905121550 METAR COR EGLL 121550Z AUTO VRB02KT 9999 NCD 17/00 Q1037
                        NOSIG=
201905121520 METAR COR EGLL 121520Z AUTO 07005KT 010V140 9999 NCD 15/00
                        Q1037 NOSIG=
201905121450 METAR COR EGLL 121450Z AUTO VRB05KT 9999 NCD 18/02 Q1037
                        NOSIG=
201905121420 METAR COR EGLL 121420Z AUTO VRB03KT 9999 NCD 16/00 Q1037
                        NOSIG=
201905121350 METAR COR EGLL 121350Z AUTO 09004KT 040V220 9999 NCD 16/01
                        Q1037 NOSIG=
201905121320 METAR COR EGLL 121320Z AUTO VRB03KT 9999 NCD 17/01 Q1037
                        NOSIG=
201905121250 METAR COR EGLL 121250Z AUTO VRB03KT 9999 NCD 15/01 Q1037
                        NOSIG=
201905121220 METAR COR EGLL 121220Z AUTO VRB02KT 9999 NCD 17/02 Q1036
                        NOSIG=
201905121150 METAR COR EGLL 121150Z AUTO 35004KT 310V050 9999 NCD 16/03
                        Q1036 NOSIG=
201905121120 METAR COR EGLL 121120Z AUTO VRB04KT 9999 NCD 14/02 Q1036
                        NOSIG=
201905121050 METAR COR EGLL 121050Z AUTO VRB05KT 9999 FEW049 15/04 Q1036
                        NOSIG=
201905121020 METAR COR EGLL 121020Z AUTO VRB02KT 9999 FEW045 15/04 Q1036
                        NOSIG=
201905120950 METAR COR EGLL 120950Z AUTO 02004KT 330V080 9999 NCD 14/05
                        Q1036 NOSIG=
201905120920 METAR COR EGLL 120920Z AUTO 06004KT 360V120 9999 NCD 14/05
                        Q1036 NOSIG=
201905120850 METAR COR EGLL 120850Z AUTO 03004KT 360V060 9999 NCD 13/06
                        Q1036 NOSIG=
201905120820 METAR COR EGLL 120820Z AUTO 06004KT 350V100 9999 NCD 12/06
                        Q1036 NOSIG=
201905120750 METAR COR EGLL 120750Z AUTO VRB02KT 9999 NCD 11/06 Q1036
                        NOSIG=
201905120720 METAR COR EGLL 120720Z AUTO VRB02KT 9999 NCD 10/06 Q1035
                        NOSIG=
201905120650 METAR COR EGLL 120650Z AUTO VRB02KT 9999 NCD 09/06 Q1035
                        NOSIG=
201905120620 METAR COR EGLL 120620Z AUTO VRB02KT 9999 NCD 07/05 Q1035
                        NOSIG=
201905120550 METAR COR EGLL 120550Z AUTO VRB03KT 9999 NCD 07/05 Q1035
                        NOSIG=
201905120520 METAR COR EGLL 120520Z AUTO 31003KT 9999 NCD 06/05 Q1034
                        NOSIG=
201905120450 METAR COR EGLL 120450Z AUTO 34002KT 9999 NCD 06/04 Q1034
                        NOSIG=
201905120420 METAR COR EGLL 120420Z AUTO 33003KT 9999 NCD 05/04 Q1033
                        NOSIG=
201905120350 METAR COR EGLL 120350Z AUTO VRB03KT 9000 NCD 06/05 Q1033
                        NOSIG=
201905120320 METAR COR EGLL 120320Z AUTO 32003KT 9999 NCD 06/05 Q1033
                        NOSIG=
201905120250 METAR COR EGLL 120250Z AUTO 35003KT 9999 NCD 07/06 Q1032
                        NOSIG=
201905120220 METAR COR EGLL 120220Z AUTO 34004KT 320V020 9999 NCD 06/05
                        Q1032 NOSIG=
201905120150 METAR COR EGLL 120150Z AUTO 35003KT 9999 NCD 07/06 Q1032
                        NOSIG=
201905120120 METAR COR EGLL 120120Z AUTO 32004KT 9000 NCD 07/05 Q1032
                        NOSIG=
201905120050 METAR COR EGLL 120050Z VRB02KT 5000 HZ NSC 07/06 Q1031 NOSIG=
201905120020 METAR COR EGLL 120020Z AUTO 36003KT 9999 NCD 08/06 Q1031
                        NOSIG=
201905112350 METAR COR EGLL 112350Z AUTO VRB02KT 9999 NCD 08/06 Q1031
                        NOSIG=
201905112320 METAR COR EGLL 112320Z AUTO 36004KT 9999 NCD 08/07 Q1030
                        NOSIG=
201905112250 METAR COR EGLL 112250Z AUTO 36004KT 9999 NCD 09/07 Q1030
                        NOSIG=
201905112220 METAR COR EGLL 112220Z AUTO 34004KT 9999 NCD 10/08 Q1030
                        NOSIG=
201905112150 METAR COR EGLL 112150Z AUTO VRB03KT 9999 NCD 12/07 Q1029
                        NOSIG=
201905112120 METAR COR EGLL 112120Z AUTO 36002KT 9999 NCD 11/07 Q1029
                        NOSIG=
201905112050 METAR COR EGLL 112050Z AUTO VRB02KT 9999 NCD 12/08 Q1028
                        NOSIG=
201905112020 METAR COR EGLL 112020Z AUTO 36003KT 9999 NCD 12/06 Q1028
                        NOSIG=
201905111950 METAR COR EGLL 111950Z AUTO VRB01KT 9999 NCD 12/06 Q1028
                        NOSIG=
201905111920 METAR COR EGLL 111920Z VRB02KT 9999 -RA FEW030 SCT044 11/06
                        Q1027 NOSIG=
201905111850 METAR COR EGLL 111850Z AUTO 35006KT 320V030 9999 -RA BKN044
                        13/06 Q1027 NOSIG=
201905111820 METAR COR EGLL 111820Z AUTO 30005KT 9999 FEW043/// //////CB
                        13/04 Q1026 TEMPO SHRA=
201905111750 METAR COR EGLL 111750Z AUTO 35007KT 320V030 9999 NCD 14/03
                        Q1026 TEMPO SHRA=
201905111720 METAR COR EGLL 111720Z AUTO 01006KT 320V050 9999 FEW049///
                        //////CB 15/04 Q1025 NOSIG=
201905111650 METAR COR EGLL 111650Z AUTO 01006KT 320V060 9999 NCD 15/04
                        Q1025 TEMPO SHRA=
201905111620 METAR COR EGLL 111620Z AUTO 36005KT 320V080 9999 NCD 15/04
                        Q1024 NOSIG=
201905111550 METAR EGLL 111550Z AUTO 02007KT 340V060 9999 NCD 15/04 Q1024=
201905111520 METAR COR EGLL 111520Z AUTO 32008KT 280V360 9999 //////TCU
                        16/02 Q1023 NOSIG=
201905111450 METAR COR EGLL 111450Z AUTO 01009KT 330V040 9999 //////TCU
                        16/04 Q1023 NOSIG=
201905111420 METAR COR EGLL 111420Z AUTO 34007KT 280V030 9999 //////CB
                        16/04 Q1022 NOSIG=
201905111350 METAR COR EGLL 111350Z AUTO 32008KT 280V010 9999 FEW042///
                        //////TCU 15/05 Q1022 NOSIG=
201905111320 METAR EGLL 111320Z AUTO 35006KT 300V020 9999 //////CB 14/05
                        Q1022=
201905111250 METAR COR EGLL 111250Z AUTO 33008KT 300V010 9999 -RA FEW047
                        13/03 Q1021 NOSIG=
201905111220 METAR COR EGLL 111220Z AUTO 35008KT 280V030 9999 BKN041///
                        //////CB 14/05 Q1020 TEMPO SHRA=
201905111150 METAR COR EGLL 111150Z AUTO 36007KT 310V050 9999 FEW034///
                        //////CB 15/06 Q1020 TEMPO SHRA=
201905111120 METAR COR EGLL 111120Z AUTO 32005KT 280V030 9999 FEW036///
                        //////CB 13/07 Q1020 TEMPO SHRA=
201905111050 METAR COR EGLL 111050Z AUTO 36008KT 310V040 9999 -RA SCT031///
                        BKN045/// //////CB 13/07 Q1019 TEMPO
                        SHRA=
201905111020 METAR COR EGLL 111020Z AUTO 01006KT 300V050 9999 FEW025 SCT034
                        13/07 Q1019 TEMPO SHRA=
201905110950 METAR COR EGLL 110950Z AUTO 36004KT 290V070 9999 SCT021///
                        BKN026/// BKN030/// //////TCU 12/08
                        Q1019 NOSIG=
201905110920 METAR COR EGLL 110920Z AUTO 36007KT 320V050 9999 FEW017 BKN023
                        BKN029 11/08 Q1018 NOSIG=
201905110850 METAR COR EGLL 110850Z AUTO 36007KT 9999 BKN016 BKN024 11/08
                        Q1018 NOSIG=
201905110820 METAR COR EGLL 110820Z AUTO 02005KT 340V060 9999 -RA SCT014///
                        BKN022/// BKN032/// //////TCU 10/08
                        Q1017 NOSIG=
201905110750 METAR COR EGLL 110750Z AUTO 01004KT 320V050 9999 SCT012 BKN016
                        10/08 Q1017 BECMG BKN020=
201905110720 METAR COR EGLL 110720Z AUTO 36004KT 320V050 8000 BKN011 OVC016
                        10/08 Q1016 BECMG BKN018=
201905110650 METAR COR EGLL 110650Z AUTO VRB03KT 8000 BKN009 OVC036 10/08
                        Q1016 BECMG BKN014=
201905110620 METAR COR EGLL 110620Z AUTO 36004KT 320V050 6000 SCT008 OVC013
                        10/08 Q1015 BECMG BKN015=
201905110550 METAR COR EGLL 110550Z AUTO 36004KT 330V040 5000 HZ BKN007
                        OVC012 09/08 Q1014 BECMG SCT007 BKN012=
201905110520 METAR COR EGLL 110520Z AUTO VRB03KT 4000 HZ OVC007 09/08
                        Q1014 TEMPO 5000 SCT007 BKN010=
201905110450 METAR COR EGLL 110450Z 01004KT 330V050 3500 BR BKN006 09/08
                        Q1013 TEMPO SCT006 BKN010=
201905110420 METAR COR EGLL 110420Z 36004KT 330V040 3000 BR BKN005 09/08
                        Q1013 NOSIG=
201905110350 METAR COR EGLL 110350Z 34004KT 300V030 3500 BR BKN005 09/08
                        Q1012 TEMPO SCT005=
201905110320 METAR COR EGLL 110320Z AUTO VRB03KT 3100 BR NCD 08/08 Q1012
                        NOSIG=
201905110250 METAR COR EGLL 110250Z AUTO 35004KT 3600 BR NCD 09/08 Q1011
                        NOSIG=
201905110220 METAR COR EGLL 110220Z AUTO VRB03KT 5000 BR NCD 09/08 Q1011
                        BECMG 4000=
201905110150 METAR COR EGLL 110150Z AUTO VRB02KT 6000 NCD 09/08 Q1011
                        TEMPO 4000 BR=
201905110120 METAR COR EGLL 110120Z AUTO 30005KT 9999 NCD 09/08 Q1011
                        NOSIG=
201905110050 METAR COR EGLL 110050Z AUTO 29004KT 9999 SCT045 10/09 Q1011
                        NOSIG=
201905110020 METAR COR EGLL 110020Z AUTO 29002KT 9999 NCD 10/09 Q1011
                        NOSIG=
201905102350 METAR COR EGLL 102350Z AUTO 28004KT 9999 SCT042 11/09 Q1010
                        NOSIG=
201905102320 METAR COR EGLL 102320Z AUTO VRB01KT 9999 BKN049 10/09 Q1010
                        NOSIG=
201905102250 METAR COR EGLL 102250Z AUTO 14003KT 9999 SCT045 10/09 Q1010
                        NOSIG=
201905102220 METAR COR EGLL 102220Z AUTO 24006KT 9999 -RA FEW032/// BKN039///
                        //////CB 11/09 Q1010 NOSIG=
201905102150 METAR COR EGLL 102150Z AUTO 22007KT 5000 -RA BKN035/// //////CB
                        11/09 Q1010 NOSIG=
201905102120 METAR COR EGLL 102120Z AUTO 23007KT 9999 SCT036/// BKN048///
                        //////TCU 12/08 Q1010 NOSIG=
201905102050 METAR COR EGLL 102050Z AUTO 22008KT 9999 NCD 12/07 Q1010
                        NOSIG=
201905102020 METAR COR EGLL 102020Z AUTO 20008KT 180V240 9999 SCT048 12/07
                        Q1009 NOSIG=
201905101950 METAR COR EGLL 101950Z AUTO 19007KT 150V220 9999 NCD 12/06
                        Q1009 NOSIG=
201905101920 METAR COR EGLL 101920Z AUTO 21008KT 180V240 9999 FEW049 13/06
                        Q1009 NOSIG=
201905101850 METAR COR EGLL 101850Z AUTO 21007KT 180V240 9999 NCD 14/06
                        Q1009 NOSIG=
201905101820 METAR COR EGLL 101820Z AUTO 15005KT 100V190 9999 NCD 14/06
                        Q1009 NOSIG=
201905101750 METAR COR EGLL 101750Z AUTO 17006KT 130V210 9999 NCD 15/06
                        Q1009 NOSIG=
201905101720 METAR COR EGLL 101720Z AUTO 14007KT 110V190 9999 NCD 15/06
                        Q1009 NOSIG=
201905101650 METAR COR EGLL 101650Z AUTO 20006KT 150V250 9999 NCD 15/06
                        Q1009 NOSIG=
201905101620 METAR COR EGLL 101620Z AUTO 17006KT 130V230 9999 NCD 14/06
                        Q1009 NOSIG=
201905101550 METAR COR EGLL 101550Z AUTO 20007KT 160V230 9999 NCD 14/06
                        Q1009 NOSIG=
201905101520 METAR COR EGLL 101520Z AUTO 20007KT 140V240 9999 NCD 14/06
                        Q1009 NOSIG=
201905101450 METAR COR EGLL 101450Z AUTO 16006KT 110V190 9999 NCD 14/05
                        Q1009 NOSIG=
201905101420 METAR COR EGLL 101420Z AUTO 19006KT 140V220 9999 NCD 15/06
                        Q1009 NOSIG=
201905101350 METAR COR EGLL 101350Z AUTO 17005KT 130V230 9999 NCD 15/07
                        Q1009 NOSIG=
201905101320 METAR COR EGLL 101320Z AUTO 21008KT 170V240 9000 -RA FEW028
                        SCT045 13/07 Q1009 NOSIG=
201905101250 METAR COR EGLL 101250Z AUTO 22007KT 170V260 9999 -RA NCD
                        13/07 Q1009 NOSIG=
201905101220 METAR COR EGLL 101220Z AUTO 27005KT 220V330 9999 FEW033///
                        //////TCU 14/07 Q1009 NOSIG=
201905101150 METAR COR EGLL 101150Z AUTO 30005KT 220V010 9999 FEW030 14/07
                        Q1009 NOSIG=
201905101120 METAR COR EGLL 101120Z AUTO VRB03KT 9999 FEW024 13/08 Q1010
                        NOSIG=
201905101050 METAR COR EGLL 101050Z AUTO VRB02KT 9999 FEW017 13/09 Q1010
                        NOSIG=
201905101020 METAR COR EGLL 101020Z AUTO 27004KT 220V320 9999 SCT009 BKN012
                        11/08 Q1010 BECMG FEW012=
201905100950 METAR COR EGLL 100950Z 22005KT 140V300 9999 BKN008 10/08
                        Q1010 BECMG BKN012=
201905100920 METAR COR EGLL 100920Z 23005KT 160V300 8000 SCT006 BKN008
                        OVC012 09/08 Q1010 BECMG BKN012=
201905100850 METAR COR EGLL 100850Z 21005KT 160V300 7000 FEW004 BKN006
                        OVC009 09/08 Q1010 BECMG BKN009=
201905100820 METAR COR EGLL 100820Z 23005KT 200V280 5000 BR BKN004 OVC007
                        08/08 Q1009 BECMG BKN005=
201905100750 METAR COR EGLL 100750Z VRB03KT 5000 BR BKN004 OVC005 08/08
                        Q1009 BECMG BKN005=
201905100720 METAR COR EGLL 100720Z VRB01KT 4000 BR BKN004 OVC005 08/07
                        Q1009 BECMG 6000 BKN005=
201905100650 METAR COR EGLL 100650Z VRB03KT 5000 2000SW BR SCT002 BKN003
                        OVC006 07/07 Q1009 TEMPO SCT003 BKN006=
201905100620 METAR COR EGLL 100620Z 30003KT 5000 2000W BR BKN002 OVC005
                        07/07 Q1009 TEMPO 3000 SCT002 BKN005=
201905100550 METAR COR EGLL 100550Z 27004KT 6000 BKN005 OVC009 07/07 Q1009
                        TEMPO 4000 BKN004=
201905100520 METAR COR EGLL 100520Z 23006KT 6000 BKN006 07/07 Q1008 TEMPO
                        4000 BR SCT006=
201905100450 METAR COR EGLL 100450Z 22004KT 180V250 3000 BR BKN003 OVC008
                        07/07 Q1008 TEMPO 2000=
201905100420 METAR COR EGLL 100420Z 21004KT 0600 R27R/1400 R27L/P1500
                        FG BKN001 06/06 Q1008 TEMPO 1000
                        BR SCT001=
201905100350 METAR COR EGLL 100350Z VRB02KT 1500 BR VCFG NSC 06/06 Q1007
                        TEMPO 0700 FG=
201905100320 METAR COR EGLL 100320Z 25002KT 2000 BR NSC 06/06 Q1007 TEMPO
                        1200 MIFG=
201905100250 METAR COR EGLL 100250Z 28002KT 2000 BR NSC 06/06 Q1007 TEMPO
                        1200 MIFG=
201905100220 METAR COR EGLL 100220Z 31003KT 3000 BR FEW007 06/06 Q1007
                        NOSIG=
201905100150 METAR COR EGLL 100150Z VRB02KT 4000 BR NSC 06/06 Q1007 NOSIG=
201905100120 METAR COR EGLL 100120Z 29004KT 5000 BR NSC 06/06 Q1006 BECMG
                        3000=
201905100050 METAR COR EGLL 100050Z 27004KT 5000 BR NSC 06/06 Q1006 BECMG
                        4000=
201905100020 METAR COR EGLL 100020Z 28005KT 7000 NSC 07/07 Q1006 TEMPO
                        4000 BR=
201905092350 METAR COR EGLL 092350Z 28005KT 7000 FEW007 07/07 Q1006 TEMPO
                        4000 BR=
201905092320 METAR COR EGLL 092320Z AUTO 27006KT 7000 FEW007/// //////CB
                        08/07 Q1005 NOSIG=
201905092250 METAR COR EGLL 092250Z AUTO 28007KT 9999 -RA FEW013/// //////TCU
                        09/08 Q1005 NOSIG=
201905092220 METAR COR EGLL 092220Z AUTO 26008KT 9999 SCT015/// SCT045///
                        //////TCU 09/09 Q1005 RERA NOSIG=
201905092150 METAR COR EGLL 092150Z AUTO 27004KT 210V320 4500 RA FEW012///
                        SCT020/// BKN026/// //////CB 10/09
                        Q1005 TEMPO 6000 NSW BKN012=
201905092120 METAR COR EGLL 092120Z AUTO 27006KT 6000 -RA FEW014 SCT019
                        BKN025 10/09 Q1004 TEMPO BKN012=
201905092050 METAR COR EGLL 092050Z AUTO 27006KT 8000 FEW015/// BKN025///
                        BKN029/// //////CB 10/09 Q1004 TEMPO
                        SHRA BKN012=
201905092020 METAR COR EGLL 092020Z AUTO 27006KT 7000 FEW012/// SCT029///
                        BKN043/// //////CB 10/09 Q1004 TEMPO
                        SHRA BKN012=
201905091950 METAR COR EGLL 091950Z AUTO 27006KT 7000 FEW013/// SCT040///
                        BKN048/// //////CB 10/09 Q1003 TEMPO
                        SHRA BKN013=
201905091920 METAR COR EGLL 091920Z AUTO 28006KT 6000 -RA FEW009/// SCT021///
                        BKN035/// //////TCU 10/10 Q1003 TEMPO
                        4000 RA BKN010=
201905091850 METAR COR EGLL 091850Z AUTO 27006KT 8000 -RA FEW014/// BKN025///
                        OVC032/// //////TCU 10/09 Q1002 RERA
                        TEMPO 4000 RA BKN014=
201905091820 METAR COR EGLL 091820Z 27007KT 230V310 3000 R27L/1300 RA
                        BR FEW008 BKN012 OVC042 10/10 Q1002
                        TEMPO 6000 -RA SCT012 BKN016=
201905091750 METAR COR EGLL 091750Z AUTO 32004KT 280V020 9999 -RA SCT019///
                        BKN026/// BKN033/// //////CB 11/09
                        Q1001 TEMPO SHRA=
201905091720 METAR COR EGLL 091720Z AUTO 29007KT 9999 -RA FEW027/// SCT032///
                        BKN040/// //////CB 11/09 Q1001 TEMPO
                        SHRA=
201905091650 METAR COR EGLL 091650Z AUTO 31005KT 270V340 9999 -RA BKN024///
                        BKN033/// //////TCU 12/08 Q1001 TEMPO
                        SHRA=
201905091620 METAR COR EGLL 091620Z AUTO 33006KT 300V020 9999 FEW021///
                        SCT025/// BKN030/// //////CB 12/09
                        Q1000 TEMPO SHRA=
201905091550 METAR COR EGLL 091550Z AUTO 33005KT 290V040 9999 FEW022///
                        SCT028/// BKN034/// //////CB 13/09
                        Q1000 TEMPO SHRA=
201905091520 METAR COR EGLL 091520Z AUTO 35006KT 310V020 9999 SCT019///
                        SCT024/// BKN028/// //////CB 13/09
                        Q1000 TEMPO SHRA=
201905091450 METAR COR EGLL 091450Z AUTO 33006KT 290V020 9999 BKN016///
                        BKN026/// BKN035/// //////CB 13/10
                        Q0999 TEMPO SHRA=
201905091420 METAR COR EGLL 091420Z AUTO 36004KT 9000 -RA SCT014/// BKN024///
                        BKN036/// //////CB 12/11 Q0999 RERA
                        TEMPO SHRA=
201905091350 METAR COR EGLL 091350Z AUTO 27012KT 3000 +RA BKN017/// BKN029///
                        //////CB 12/11 Q0998 TEMPO SHRA=
201905091320 METAR COR EGLL 091320Z AUTO 28006KT 250V330 9999 FEW020///
                        SCT045/// //////CB 14/11 Q0998 TEMPO
                        SHRA=
201905091250 METAR COR EGLL 091250Z AUTO 29008KT 9999 FEW018/// BKN044///
                        //////CB 12/09 Q0997 TEMPO SHRA=
201905091220 METAR COR EGLL 091220Z AUTO 27009KT 9999 -RA FEW015/// BKN026///
                        BKN039/// //////CB 12/10 Q0997 RERA
                        TEMPO SHRA=
201905091150 METAR COR EGLL 091150Z AUTO 25009KT 220V280 9999 SCT024///
                        SCT036/// //////CB 14/11 Q0996 TEMPO
                        SHRA=
201905091120 METAR COR EGLL 091120Z AUTO 24009KT 9999 -RA FEW014/// //////CB
                        14/11 Q0996 TEMPO SHRA=
201905091050 METAR COR EGLL 091050Z AUTO 25008KT 220V290 7000 -RA FEW010///
                        SCT023/// BKN044/// //////CB 13/11
                        Q0996 TEMPO SHRA=
201905091020 METAR COR EGLL 091020Z AUTO 25006KT 200V310 9999 -RA FEW008///
                        SCT015/// //////CB 13/10 Q0996 TEMPO
                        SHRA=
201905090950 METAR COR EGLL 090950Z AUTO VRB06KT 9999 FEW013/// //////TCU
                        12/10 Q0996 TEMPO 7000 SHRA BKN013=
201905090920 METAR COR EGLL 090920Z AUTO 29005KT 9999 -RA SCT011 BKN017
                        BKN029 12/10 Q0996 TEMPO SHRA BKN012=
201905090850 METAR COR EGLL 090850Z AUTO 28004KT 240V310 9999 SCT010 BKN014
                        11/10 Q0996 NOSIG=
201905090820 METAR COR EGLL 090820Z AUTO 29004KT 9999 NCD 11/10 Q0995
                        NOSIG=
201905090750 METAR COR EGLL 090750Z AUTO 27007KT 9999 FEW010 11/10 Q0995
                        NOSIG=
201905090720 METAR COR EGLL 090720Z AUTO 30004KT 260V340 9999 FEW007 12/10
                        Q0995 NOSIG=
201905090650 METAR COR EGLL 090650Z AUTO 28004KT 9999 NCD 10/10 Q0994
                        NOSIG=
201905090620 METAR COR EGLL 090620Z AUTO VRB02KT 9999 NCD 09/09 Q0994
                        NOSIG=
201905090550 METAR COR EGLL 090550Z VRB01KT CAVOK 08/08 Q0994 NOSIG=
201905090520 METAR COR EGLL 090520Z VRB02KT 7000 NSC 06/06 Q0994 NOSIG=
201905090450 METAR COR EGLL 090450Z VRB01KT 7000 R27L/1400 NSC 05/05 Q0993
                        NOSIG=
201905090420 METAR COR EGLL 090420Z AUTO VRB03KT 8000 NCD 07/06 Q0993
                        NOSIG=
201905090350 METAR COR EGLL 090350Z 31001KT 7000 NSC 07/07 Q0993 TEMPO
                        4000 BR=
201905090320 METAR COR EGLL 090320Z 25002KT 7000 NSC 07/07 Q0993 TEMPO
                        4000 BR=
201905090250 METAR COR EGLL 090250Z 02001KT 8000 NSC 06/06 Q0993 TEMPO
                        4000 BR=
201905090220 METAR COR EGLL 090220Z 00000KT 8000 FEW024 07/06 Q0993 TEMPO
                        4000 BR=
201905090150 METAR COR EGLL 090150Z 19002KT 8000 NSC 07/06 Q0992 TEMPO
                        4000 BR=
201905090120 METAR COR EGLL 090120Z AUTO 19002KT 9000 NCD 08/08 Q0992
                        NOSIG=
201905090050 METAR COR EGLL 090050Z AUTO 17003KT 9000 NCD 08/08 Q0992
                        NOSIG=
201905090020 METAR COR EGLL 090020Z AUTO 18004KT 8000 NCD 08/08 Q0992
                        NOSIG=
201905082350 METAR COR EGLL 082350Z AUTO 17004KT 8000 NCD 08/08 Q0992
                        NOSIG=
201905082320 METAR COR EGLL 082320Z AUTO 20006KT 160V230 9000 FEW021 09/08
                        Q0992 NOSIG=
201905082250 METAR COR EGLL 082250Z AUTO 22004KT 9000 FEW027 09/08 Q0992
                        NOSIG=
201905082220 METAR COR EGLL 082220Z AUTO 20006KT 9999 NCD 10/09 Q0992
                        NOSIG=
201905082150 METAR EGLL 082150Z AUTO 18009KT 150V220 9999 NCD 10/09 Q0992=
201905082120 METAR COR EGLL 082120Z AUTO 21008KT 180V240 9999 NCD 11/09
                        Q0992 TEMPO SHRA=
201905082050 METAR COR EGLL 082050Z AUTO 21009KT 180V240 9999 FEW044 12/09
                        Q0992 TEMPO SHRA=
201905082020 METAR COR EGLL 082020Z AUTO 21008KT 9999 FEW041 11/09 Q0992
                        TEMPO SHRA=
201905081950 METAR COR EGLL 081950Z AUTO 21009KT 9999 //////CB 11/09 Q0992
                        TEMPO SHRA=
201905081920 METAR COR EGLL 081920Z AUTO 22009KT 9999 //////TCU 12/09
                        Q0992 TEMPO SHRA=
201905081850 METAR COR EGLL 081850Z AUTO 23009KT 9999 FEW037/// SCT048///
                        //////CB 12/09 Q0992 TEMPO SHRA=
201905081820 METAR COR EGLL 081820Z AUTO 25015KT 220V300 9999 -RA SCT026///
                        BKN032/// BKN038/// //////TCU 13/09
                        Q0992 TEMPO SHRA=
201905081750 METAR COR EGLL 081750Z AUTO 23007KT 190V260 9999 -RA FEW033///
                        SCT045/// //////CB 13/09 Q0991 TEMPO
                        SHRA=
201905081720 METAR COR EGLL 081720Z AUTO 25006KT 9999 FEW037/// SCT045///
                        //////CB 12/10 Q0991 TEMPO SHRA=
201905081650 METAR COR EGLL 081650Z AUTO 31005KT 280V340 9000 -RA VCTS
                        SCT025/// BKN034/// BKN041/// //////CB
                        12/09 Q0991 TEMPO 3000 +SHRA=
201905081620 METAR COR EGLL 081620Z AUTO 25011KT 230V290 6000 -RA FEW007///
                        SCT015/// BKN024/// //////CB 12/09
                        Q0991 TEMPO 3000 +SHRA=
201905081550 METAR COR EGLL 081550Z AUTO 23011KT 9999 -RA VCTS FEW032///
                        SCT042/// //////CB 14/10 Q0991 RETS
                        TEMPO 3000 +SHRA=
201905081520 METAR COR EGLL 081520Z 21012KT 9999 TS FEW030CB 14/09 Q0991
                        TEMPO 3000 +SHRA SHGS=
201905081450 METAR COR EGLL 081450Z AUTO 24010KT 9999 //////CB 13/09 Q0991
                        TEMPO 4000 SHRA SHGS=
201905081420 METAR COR EGLL 081420Z AUTO 23010KT 9999 -RA FEW015/// //////CB
                        11/08 Q0991 RESHRA TEMPO 3000 +SHRA
                        SHGS=
201905081350 METAR COR EGLL 081350Z 27019G30KT 5000 SHRA FEW016CB SCT032
                        12/07 Q0992 RESHGS RESHRA TEMPO 3000
                        +SHRA=
201905081320 METAR COR EGLL 081320Z AUTO 22017KT 9999 //////CB 14/09 Q0991
                        TEMPO 4000 +SHRA=
201905081250 METAR COR EGLL 081250Z AUTO 22016KT 9999 FEW030/// SCT037///
                        //////CB 14/10 Q0991 TEMPO 4000 +SHRA=
201905081220 METAR COR EGLL 081220Z AUTO 22008KT 170V250 9999 FEW043///
                        //////CB 13/11 Q0991 TEMPO 4000 +SHRA=
201905081150 METAR COR EGLL 081150Z AUTO 23014KT 9999 -RA SCT013/// SCT023///
                        BKN036/// //////CB 10/08 Q0991 RESHRA
                        RERA TEMPO 4000 +SHRA=
201905081120 METAR COR EGLL 081120Z AUTO 23008KT 180V260 9999 FEW013///
                        SCT021/// BKN034/// //////CB 12/10
                        Q0991 RERA TEMPO 7000 SHRA=
201905081050 METAR COR EGLL 081050Z AUTO 23012KT 190V260 5000 -RA FEW016///
                        SCT023/// BKN034/// //////CB 11/10
                        Q0992 TEMPO SHRA=
201905081020 METAR COR EGLL 081020Z AUTO 19011KT 160V240 9999 -RA SCT013///
                        SCT019/// BKN032/// //////CB 10/09
                        Q0992 RERA TEMPO SHRA=
201905080950 METAR COR EGLL 080950Z AUTO 19012KT 160V240 9000 -RA SCT008///
                        BKN012/// BKN018/// //////CB 10/10
                        Q0992 TEMPO 4000 RA BKN015=
201905080920 METAR COR EGLL 080920Z AUTO 18013KT 7000 -RA BKN009/// BKN014///
                        //////CB 10/10 Q0992 TEMPO 4000 SHRA
                        SCT009 BKN015=
201905080850 METAR COR EGLL 080850Z AUTO 19012KT 160V240 9999 -RA BKN010///
                        //////CB 11/10 Q0992 TEMPO SHRA SCT010
                        BKN015=
201905080820 METAR COR EGLL 080820Z AUTO 18010KT 9999 -RA SCT011/// BKN017///
                        BKN043/// //////TCU 11/10 Q0992 TEMPO
                        SHRA BKN014=
201905080750 METAR COR EGLL 080750Z 14009KT 4000 -RA FEW004TCU BKN006
                        10/10 Q0993 RERA BECMG 21014KT 9999
                        NSW SCT006 BKN010=
201905080720 METAR COR EGLL 080720Z 11009KT 4300 RA FEW004TCU BKN005 09/09
                        Q0993 REDZ BECMG 6000 -RA SCT005
                        BKN010=
201905080650 METAR COR EGLL 080650Z 10009KT 3800 RADZ BKN006TCU 09/09
                        Q0994 BECMG 6000 -RA SCT006 BKN010=
201905080620 METAR COR EGLL 080620Z AUTO 10010KT 4400 -RADZ SCT006 BKN009
                        09/08 Q0994 TEMPO RA=
201905080550 METAR COR EGLL 080550Z AUTO 10010KT 5000 -RA OVC008 09/08
                        Q0995 TEMPO RA BKN010=
201905080520 METAR COR EGLL 080520Z AUTO 11009KT 9000 -RA BKN010 OVC018
                        08/08 Q0996 TEMPO RA BKN009=
201905080450 METAR COR EGLL 080450Z AUTO 11010KT 8000 -RA BKN012/// BKN017///
                        OVC026/// //////TCU 08/08 Q0997 TEMPO
                        RA=
201905080420 METAR COR EGLL 080420Z AUTO 11011KT 8000 -RA FEW016 BKN023
                        08/08 Q0997 TEMPO RA BKN012=
201905080350 METAR COR EGLL 080350Z AUTO 11009KT 9000 -RA BKN028 09/08
                        Q0998 TEMPO RA BKN012=
201905080320 METAR COR EGLL 080320Z AUTO 11008KT 8000 -RA BKN031 09/08
                        Q0999 TEMPO RA BKN012=
201905080250 METAR COR EGLL 080250Z AUTO 12009KT 7000 -RA FEW007 SCT014
                        BKN035 09/08 Q1000 TEMPO RA BKN012=
201905080220 METAR COR EGLL 080220Z AUTO 11007KT 9999 -RA BKN041 09/07
                        Q1001 TEMPO RA BKN012=
201905080150 METAR COR EGLL 080150Z AUTO 11008KT 9999 -RA FEW048 09/07
                        Q1002 TEMPO RA=
201905080120 METAR COR EGLL 080120Z AUTO 13008KT 9999 -RA FEW040 09/07
                        Q1003 TEMPO RA=
201905080050 METAR COR EGLL 080050Z AUTO 14009KT 9999 -RA FEW037 SCT046
                        10/06 Q1003 TEMPO RA=
201905080020 METAR COR EGLL 080020Z AUTO 15011KT 9999 -RA FEW047 11/04
                        Q1004 TEMPO RA=
201905072350 METAR COR EGLL 072350Z AUTO 15010KT 9999 -RA FEW047 11/03
                        Q1005 TEMPO RA=
201905072320 METAR COR EGLL 072320Z AUTO 13009KT 9999 NCD 11/02 Q1005
                        TEMPO RA=
201905072250 METAR COR EGLL 072250Z AUTO 11007KT 9999 NCD 11/02 Q1006
                        TEMPO RA=
201905072220 METAR COR EGLL 072220Z AUTO 12008KT 9999 NCD 11/02 Q1006
                        NOSIG=
201905072150 METAR COR EGLL 072150Z AUTO 13007KT 9999 NCD 11/02 Q1007
                        NOSIG=
201905072120 METAR COR EGLL 072120Z AUTO 13008KT 9999 NCD 11/02 Q1008
                        NOSIG=
201905072050 METAR COR EGLL 072050Z AUTO 13007KT 100V160 9999 NCD 11/02
                        Q1008 NOSIG=
201905072020 METAR COR EGLL 072020Z AUTO 15007KT 130V200 9999 NCD 12/02
                        Q1008 NOSIG=
201905071950 METAR COR EGLL 071950Z AUTO 15006KT 9999 NCD 12/02 Q1009
                        NOSIG=
201905071920 METAR COR EGLL 071920Z AUTO VRB08KT 9999 NCD 12/02 Q1009
                        NOSIG=
201905071850 METAR COR EGLL 071850Z AUTO 19010KT 150V230 9999 NCD 13/01
                        Q1009 NOSIG=
201905071820 METAR COR EGLL 071820Z AUTO 19010KT 150V240 9999 NCD 13/02
                        Q1009 NOSIG=
201905071750 METAR COR EGLL 071750Z AUTO 18011KT 9999 NCD 14/02 Q1010
                        NOSIG=
201905071720 METAR COR EGLL 071720Z AUTO 18013G26KT 9999 NCD 14/00 Q1010
                        NOSIG=
201905071650 METAR COR EGLL 071650Z AUTO 19010KT 160V230 9999 NCD 14/02
                        Q1010 NOSIG=
201905071620 METAR COR EGLL 071620Z AUTO 20011KT 9999 NCD 15/03 Q1011
                        NOSIG=
201905071550 METAR EGLL 071550Z AUTO 19009KT 160V230 9999 NCD 14/03 Q////=
201905071520 METAR EGLL 071520Z AUTO 19009KT 150V250 9999 NCD 14/04 Q1011=
201905071450 METAR COR EGLL 071450Z AUTO 20009KT 160V230 9999 FEW045 14/04
                        Q1012 NOSIG=
201905071420 METAR COR EGLL 071420Z AUTO 19010KT 130V220 9999 NCD 14/03
                        Q1012 NOSIG=
201905071350 METAR COR EGLL 071350Z AUTO 19011KT 160V240 9999 NCD 16/03
                        Q1013 NOSIG=
201905071320 METAR COR EGLL 071320Z AUTO 20007KT 170V250 9999 FEW049 14/03
                        Q1013 NOSIG=
201905071250 METAR COR EGLL 071250Z AUTO 21006KT 120V270 9999 NCD 15/02
                        Q1013 NOSIG=
201905071220 METAR COR EGLL 071220Z AUTO 21007KT 150V270 9999 FEW049 14/02
                        Q1014 NOSIG=
201905071150 METAR COR EGLL 071150Z AUTO VRB07G17KT 9999 NCD 14/01 Q1014
                        NOSIG=
201905071120 METAR COR EGLL 071120Z AUTO 22006G16KT 160V310 9999 NCD 14/01
                        Q1015 NOSIG=
201905071050 METAR COR EGLL 071050Z AUTO 21008KT 160V280 9999 NCD 14/01
                        Q1015 NOSIG=
201905071020 METAR COR EGLL 071020Z AUTO 22007KT 160V270 9999 NCD 13/01
                        Q1015 NOSIG=
201905070950 METAR COR EGLL 070950Z AUTO 20007KT 120V260 9999 NCD 13/01
                        Q1015 NOSIG=
201905070920 METAR COR EGLL 070920Z AUTO 22008KT 190V250 9999 NCD 13/02
                        Q1016 NOSIG=
201905070850 METAR COR EGLL 070850Z AUTO 22007KT 160V270 9999 NCD 12/03
                        Q1016 NOSIG=
201905070820 METAR COR EGLL 070820Z AUTO 20006G16KT 150V260 9999 NCD 11/04
                        Q1016 NOSIG=
201905070750 METAR COR EGLL 070750Z AUTO 19004KT 130V250 9999 NCD 10/04
                        Q1017 NOSIG=
201905070720 METAR COR EGLL 070720Z AUTO 20004KT 150V250 9999 NCD 09/04
                        Q1017 NOSIG=
201905070650 METAR COR EGLL 070650Z AUTO 21005KT 140V240 9999 NCD 09/04
                        Q1017 NOSIG=
201905070620 METAR COR EGLL 070620Z AUTO 22004KT 180V260 9999 NCD 07/04
                        Q1017 NOSIG=
201905070550 METAR COR EGLL 070550Z AUTO 21004KT 170V240 9999 NCD 07/05
                        Q1017 NOSIG=
201905070520 METAR COR EGLL 070520Z AUTO 21003KT 9999 NCD 06/04 Q1017
                        NOSIG=
201905070450 METAR COR EGLL 070450Z AUTO 24002KT 9999 NCD 06/03 Q1017
                        NOSIG=
201905070420 METAR COR EGLL 070420Z AUTO 22004KT 160V280 9999 NCD 06/04
                        Q1018 NOSIG=
201905070350 METAR COR EGLL 070350Z AUTO 21004KT 9999 NCD 07/04 Q1018
                        NOSIG=
201905070320 METAR COR EGLL 070320Z AUTO 19004KT 9999 NCD 06/04 Q1018
                        NOSIG=
201905070250 METAR COR EGLL 070250Z AUTO 21004KT 9999 NCD 07/04 Q1019
                        NOSIG=
201905070220 METAR COR EGLL 070220Z AUTO 22004KT 9999 NCD 07/04 Q1019
                        NOSIG=
201905070150 METAR COR EGLL 070150Z AUTO 22004KT 9999 NCD 07/03 Q1019
                        NOSIG=
201905070120 METAR COR EGLL 070120Z AUTO 21004KT 9999 NCD 08/04 Q1019
                        NOSIG=
201905070050 METAR COR EGLL 070050Z AUTO 21005KT 9999 NCD 08/04 Q1019
                        NOSIG=
201905070020 METAR COR EGLL 070020Z AUTO 23004KT 9999 SCT043 09/04 Q1019
                        NOSIG=
201905062350 METAR COR EGLL 062350Z AUTO 22005KT 9999 BKN041 09/04 Q1019
                        NOSIG=
201905062320 METAR COR EGLL 062320Z AUTO 23005KT 9999 SCT041 BKN048 09/04
                        Q1020 NOSIG=
201905062250 METAR COR EGLL 062250Z AUTO 22005KT 9999 BKN048 09/03 Q1020
                        NOSIG=
201905062220 METAR COR EGLL 062220Z AUTO 22005KT 9999 NCD 10/03 Q1020
                        NOSIG=
201905062150 METAR COR EGLL 062150Z AUTO 22005KT 180V260 9999 NCD 10/03
                        Q1020 NOSIG=
201905062120 METAR EGLL 062120Z AUTO VRB03KT 9999 NCD 09/03 Q1020=
201905062050 METAR COR EGLL 062050Z AUTO 24004KT 9999 NCD 09/03 Q1020
                        NOSIG=
201905062020 METAR COR EGLL 062020Z AUTO 28004KT 9999 NCD 09/03 Q1020
                        NOSIG=
201905061950 METAR COR EGLL 061950Z AUTO 28005KT 9999 NCD 09/02 Q1020
                        NOSIG=
201905061920 METAR COR EGLL 061920Z AUTO 27005KT 9999 NCD 09/03 Q1020
                        NOSIG=
201905061850 METAR EGLL 061850Z AUTO 28005KT 9999 NCD 10/02 Q1020=
201905061820 METAR COR EGLL 061820Z AUTO 27006KT 240V300 9999 NCD 10/02
                        Q1020 NOSIG=
201905061750 METAR COR EGLL 061750Z AUTO 27006KT 9999 NCD 10/02 Q1021
                        NOSIG=
201905061720 METAR COR EGLL 061720Z AUTO 27008KT 9999 NCD 11/02 Q1021
                        NOSIG=
201905061650 METAR COR EGLL 061650Z AUTO 26008KT 9999 NCD 11/01 Q1021
                        NOSIG=
201905061620 METAR COR EGLL 061620Z AUTO 29007KT 230V320 9999 NCD 12/01
                        Q1021 NOSIG=
201905061550 METAR COR EGLL 061550Z AUTO 28009KT 9999 NCD 11/01 Q1021
                        NOSIG=
201905061520 METAR COR EGLL 061520Z AUTO 28010KT 9999 NCD 12/01 Q1021
                        NOSIG=
201905061450 METAR COR EGLL 061450Z AUTO 29009KT 260V320 9999 NCD 11/M01
                        Q1021 NOSIG=
201905061420 METAR COR EGLL 061420Z AUTO 29008KT 250V320 9999 NCD 12/M01
                        Q1022 NOSIG=
201905061350 METAR COR EGLL 061350Z AUTO 29008KT 9999 NCD 11/M01 Q1022
                        NOSIG=
201905061320 METAR COR EGLL 061320Z AUTO 29009KT 260V330 9999 NCD 11/M01
                        Q1022 NOSIG=
201905061250 METAR COR EGLL 061250Z AUTO 29008KT 270V340 9999 NCD 11/M02
                        Q1022 NOSIG=
201905061220 METAR COR EGLL 061220Z AUTO 31005KT 270V360 9999 NCD 11/M01
                        Q1022 NOSIG=
201905061150 METAR COR EGLL 061150Z AUTO 30007KT 270V330 9999 NCD 11/M01
                        Q1022 NOSIG=
201905061120 METAR COR EGLL 061120Z AUTO 28009KT 9999 NCD 10/M00 Q1022
                        NOSIG=
201905061050 METAR COR EGLL 061050Z AUTO 29009KT 9999 NCD 10/M01 Q1022
                        NOSIG=
201905061020 METAR COR EGLL 061020Z AUTO 30010KT 9999 BKN048 10/M01 Q1022
                        NOSIG=
201905060950 METAR COR EGLL 060950Z AUTO 30007KT 270V340 9999 BKN048 10/M01
                        Q1022 NOSIG=
201905060920 METAR COR EGLL 060920Z AUTO 28009KT 9999 FEW043 10/M01 Q1022
                        NOSIG=
201905060850 METAR COR EGLL 060850Z AUTO 26008KT 220V300 9999 NCD 10/01
                        Q1022 NOSIG=
201905060820 METAR COR EGLL 060820Z AUTO 30006KT 260V340 9999 NCD 09/02
                        Q1022 NOSIG=
201905060750 METAR COR EGLL 060750Z AUTO 29006KT 250V330 9999 NCD 08/02
                        Q1022 NOSIG=
201905060720 METAR COR EGLL 060720Z AUTO 30005KT 270V330 9999 NCD 07/02
                        Q1023 NOSIG=
201905060650 METAR COR EGLL 060650Z AUTO 29006KT 9999 NCD 07/02 Q1023
                        NOSIG=
201905060620 METAR COR EGLL 060620Z AUTO 30007KT 9999 NCD 07/02 Q1023
                        NOSIG=
201905060550 METAR COR EGLL 060550Z AUTO 29006KT 9999 NCD 06/02 Q1023
                        NOSIG=
201905060520 METAR COR EGLL 060520Z AUTO 27006KT 9999 NCD 04/01 Q1023
                        NOSIG=
201905060450 METAR COR EGLL 060450Z AUTO 27006KT 9999 NCD 05/02 Q1023
                        NOSIG=
201905060420 METAR COR EGLL 060420Z AUTO 29004KT 9999 NCD 06/01 Q1023
                        NOSIG=
201905060350 METAR COR EGLL 060350Z AUTO 29004KT 9999 NCD 06/01 Q1023
                        NOSIG=
201905060320 METAR COR EGLL 060320Z AUTO 29005KT 9999 NCD 07/01 Q1023
                        NOSIG=
201905060250 METAR COR EGLL 060250Z AUTO 29005KT 9999 SCT043 07/01 Q1023
                        NOSIG=
201905060220 METAR COR EGLL 060220Z AUTO 28004KT 9999 FEW039 07/01 Q1023
                        NOSIG=
201905060150 METAR COR EGLL 060150Z AUTO 31004KT 9999 BKN039 07/01 Q1023
                        NOSIG=
201905060120 METAR COR EGLL 060120Z AUTO 32004KT 290V360 9999 NCD 08/00
                        Q1023 NOSIG=
201905060050 METAR COR EGLL 060050Z AUTO 31004KT 9999 NCD 08/01 Q1023
                        NOSIG=
201905060020 METAR COR EGLL 060020Z AUTO VRB03KT 9999 NCD 08/01 Q1023
                        NOSIG=
201905052350 METAR COR EGLL 052350Z AUTO 29008KT 260V320 9999 NCD 09/02
                        Q1023 NOSIG=
201905052320 METAR COR EGLL 052320Z AUTO 24006KT 9999 NCD 09/02 Q1023
                        NOSIG=
201905052250 METAR COR EGLL 052250Z AUTO 23006KT 9999 NCD 09/02 Q1023
                        NOSIG=
201905052220 METAR COR EGLL 052220Z AUTO 21006KT 9999 NCD 09/02 Q1023
                        NOSIG=
201905052150 METAR COR EGLL 052150Z AUTO 22007KT 9999 NCD 10/01 Q1024
                        NOSIG=
201905052120 METAR COR EGLL 052120Z AUTO 22008KT 9999 NCD 10/01 Q1024
                        NOSIG=
201905052050 METAR COR EGLL 052050Z AUTO 24007KT 9999 NCD 10/01 Q1024
                        NOSIG=
201905052020 METAR COR EGLL 052020Z AUTO 25008KT 9999 NCD 10/00 Q1024
                        NOSIG=
201905051950 METAR COR EGLL 051950Z AUTO 24007KT 9999 NCD 10/01 Q1024
                        NOSIG=
201905051920 METAR COR EGLL 051920Z AUTO 29004KT 240V330 9999 NCD 10/M00
                        Q1024 NOSIG=
201905051850 METAR COR EGLL 051850Z AUTO 32003KT 9999 NCD 10/00 Q1024
                        NOSIG=
201905051820 METAR COR EGLL 051820Z AUTO 29005KT 9999 NCD 11/M00 Q1024
                        NOSIG=
201905051750 METAR COR EGLL 051750Z AUTO 28004KT 9999 NCD 11/M00 Q1025
                        NOSIG=
201905051720 METAR COR EGLL 051720Z AUTO VRB03KT 9999 NCD 11/M01 Q1025
                        NOSIG=
201905051650 METAR COR EGLL 051650Z AUTO 30004KT 260V350 9999 NCD 11/M01
                        Q1025 NOSIG=
201905051620 METAR COR EGLL 051620Z AUTO 30004KT 250V020 9999 NCD 12/M01
                        Q1025 NOSIG=
201905051550 METAR COR EGLL 051550Z AUTO VRB02KT 9999 NCD 11/M01 Q1025
                        NOSIG=
201905051520 METAR COR EGLL 051520Z AUTO 35005KT 310V060 9999 NCD 12/00
                        Q1026 NOSIG=
201905051450 METAR COR EGLL 051450Z AUTO 01004KT 290V060 9999 NCD 11/M01
                        Q1026 NOSIG=
201905051420 METAR COR EGLL 051420Z AUTO 35006KT 310V070 9999 NCD 11/M01
                        Q1026 NOSIG=
201905051350 METAR EGLL 051350Z AUTO 33005KT 280V030 9999 SCT049 11/M01
                        Q1026=
201905051320 METAR COR EGLL 051320Z AUTO 33005KT 280V030 9999 NCD 11/M01
                        Q1026 NOSIG=
201905051250 METAR COR EGLL 051250Z AUTO 01006KT 320V060 9999 BKN048 11/M01
                        Q1026 NOSIG=
201905051220 METAR COR EGLL 051220Z AUTO 01007KT 310V050 9999 NCD 10/M01
                        Q1026 NOSIG=
201905051150 METAR COR EGLL 051150Z AUTO 36007KT 320V050 9999 NCD 11/M01
                        Q1027 NOSIG=
201905051120 METAR COR EGLL 051120Z AUTO 36005KT 320V060 9999 NCD 10/M02
                        Q1027 NOSIG=
201905051050 METAR COR EGLL 051050Z AUTO 35007KT 310V030 9999 NCD 10/M01
                        Q1027 NOSIG=
201905051020 METAR COR EGLL 051020Z AUTO 35007KT 300V050 9999 SCT046 09/M01
                        Q1027 NOSIG=
201905050950 METAR COR EGLL 050950Z AUTO 03007KT 340V090 9999 NCD 10/M01
                        Q1027 NOSIG=
201905050920 METAR COR EGLL 050920Z AUTO 03006KT 340V080 9999 FEW040 10/01
                        Q1027 NOSIG=
201905050850 METAR COR EGLL 050850Z AUTO 01007KT 330V050 9999 NCD 09/01
                        Q1027 NOSIG=
201905050820 METAR COR EGLL 050820Z AUTO 36006KT 320V050 9999 NCD 08/01
                        Q1027 NOSIG=
201905050750 METAR COR EGLL 050750Z AUTO 35006KT 300V040 9999 NCD 08/02
                        Q1027 NOSIG=
201905050720 METAR COR EGLL 050720Z AUTO 34006KT 310V020 9999 NCD 07/02
                        Q1027 NOSIG=
201905050650 METAR COR EGLL 050650Z AUTO 33006KT 300V010 9999 NCD 06/01
                        Q1027 NOSIG=
201905050620 METAR COR EGLL 050620Z AUTO 33005KT 300V030 9999 NCD 05/01
                        Q1027 NOSIG=
201905050550 METAR COR EGLL 050550Z AUTO 32006KT 290V010 9999 NCD 04/01
                        Q1026 NOSIG=
201905050520 METAR COR EGLL 050520Z AUTO 31004KT 280V340 9999 NCD 02/01
                        Q1026 NOSIG=
201905050450 METAR COR EGLL 050450Z AUTO 31004KT 9999 NCD 02/00 Q1026
                        NOSIG=
201905050420 METAR COR EGLL 050420Z AUTO VRB03KT 9999 NCD 03/00 Q1026
                        NOSIG=
201905050350 METAR COR EGLL 050350Z AUTO 32004KT 9999 NCD 03/01 Q1026
                        NOSIG=
201905050320 METAR COR EGLL 050320Z AUTO VRB03KT 9999 NCD 03/01 Q1026
                        NOSIG=
201905050250 METAR COR EGLL 050250Z AUTO VRB03KT 9999 NCD 04/01 Q1026
                        NOSIG=
201905050220 METAR COR EGLL 050220Z AUTO VRB03KT 9999 NCD 04/01 Q1026
                        NOSIG=
201905050150 METAR COR EGLL 050150Z AUTO VRB03KT 9999 NCD 04/01 Q1026
                        NOSIG=
201905050120 METAR COR EGLL 050120Z AUTO 32004KT 9999 NCD 04/01 Q1026
                        NOSIG=
201905050050 METAR COR EGLL 050050Z AUTO 31005KT 9999 NCD 04/02 Q1026
                        NOSIG=
201905050020 METAR COR EGLL 050020Z AUTO 31004KT 9999 NCD 04/02 Q1026
                        NOSIG=
201905042350 METAR COR EGLL 042350Z AUTO 31004KT 9999 NCD 04/02 Q1026
                        NOSIG=
201905042320 METAR COR EGLL 042320Z AUTO 32004KT 9999 NCD 05/02 Q1025
                        NOSIG=
201905042250 METAR COR EGLL 042250Z AUTO 36005KT 9999 NCD 05/02 Q1025
                        NOSIG=
201905042220 METAR COR EGLL 042220Z AUTO 31004KT 9999 NCD 05/02 Q1025
                        NOSIG=
201905042150 METAR COR EGLL 042150Z AUTO VRB02KT 9999 NCD 04/01 Q1025
                        NOSIG=
201905042120 METAR COR EGLL 042120Z AUTO 34004KT 280V030 9999 NCD 06/02
                        Q1025 NOSIG=
201905042050 METAR COR EGLL 042050Z AUTO 36004KT 9999 NCD 06/02 Q1024
                        NOSIG=
201905042020 METAR COR EGLL 042020Z AUTO 36006KT 310V030 9999 NCD 07/02
                        Q1024 NOSIG=
201905041950 METAR COR EGLL 041950Z AUTO 01007KT 340V060 9999 NCD 08/01
                        Q1024 NOSIG=
201905041920 METAR COR EGLL 041920Z AUTO 36008KT 330V060 9999 NCD 08/01
                        Q1024 NOSIG=
201905041850 METAR COR EGLL 041850Z AUTO 36008KT 320V040 9999 -RA FEW033
                        08/01 Q1023 NOSIG=
201905041820 METAR COR EGLL 041820Z AUTO 35006KT 310V040 9999 FEW045 08/03
                        Q1023 NOSIG=
201905041750 METAR COR EGLL 041750Z AUTO 03009G19KT 360V060 9999 -RA SCT032///
                        //////CB 09/02 Q1023 TEMPO SHRA=
201905041720 METAR COR EGLL 041720Z AUTO 33008KT 310V030 9999 NCD 08/03
                        Q1022 TEMPO SHRA=
201905041650 METAR COR EGLL 041650Z AUTO 04008KT 310V060 9999 FEW039 09/02
                        Q1022 TEMPO SHRA=
201905041620 METAR COR EGLL 041620Z AUTO 35010KT 310V030 9999 FEW042///
                        //////TCU 10/01 Q1021 TEMPO SHRA=
201905041550 METAR COR EGLL 041550Z AUTO 34009KT 300V030 9999 //////CB
                        10/03 Q1021 TEMPO SHRA=
201905041520 METAR COR EGLL 041520Z AUTO 36009KT 310V040 9999 -RA FEW041///
                        //////CB 08/03 Q1021 TEMPO SHRA=
201905041450 METAR COR EGLL 041450Z AUTO 01010KT 330V050 9999 FEW045///
                        //////TCU 10/01 Q1021 TEMPO SHRA=
201905041420 METAR COR EGLL 041420Z AUTO 36011KT 330V040 9999 FEW009///
                        //////TCU 09/05 Q1021 TEMPO SHRA=
201905041350 METAR COR EGLL 041350Z AUTO 02013G33KT 330V060 9999 FEW036///
                        SCT046/// //////TCU 10/01 Q1021 TEMPO
                        TSRA=
201905041320 METAR COR EGLL 041320Z AUTO 02010G21KT 340V060 9999 -RA SCT024///
                        BKN043/// //////TCU 09/02 Q1021 TEMPO
                        SHRA=
201905041250 METAR COR EGLL 041250Z AUTO 36009KT 320V050 9999 SCT046///
                        //////TCU 11/M01 Q1020 TEMPO SHRA=
201905041220 METAR COR EGLL 041220Z AUTO 02011KT 340V050 9999 NCD 11/M01
                        Q1019 TEMPO SHRA=
201905041150 METAR COR EGLL 041150Z AUTO 01010KT 330V050 9999 NCD 10/M02
                        Q1019 TEMPO SHRA=
201905041120 METAR COR EGLL 041120Z AUTO 36010G20KT 300V050 9999 NCD 10/M02
                        Q1019 NOSIG=
201905041050 METAR COR EGLL 041050Z AUTO 36012KT 300V030 9999 SCT048 10/M02
                        Q1019 NOSIG=
201905041020 METAR COR EGLL 041020Z AUTO 36011KT 330V040 9999 SCT046 10/M02
                        Q1019 NOSIG=
201905040950 METAR COR EGLL 040950Z AUTO 01011G22KT 330V060 9999 FEW046
                        10/M01 Q1019 NOSIG=
201905040920 METAR COR EGLL 040920Z AUTO 02010KT 340V050 9999 FEW042 09/M00
                        Q1018 NOSIG=
201905040850 METAR COR EGLL 040850Z AUTO 03011KT 340V060 9999 SCT035 09/00
                        Q1018 NOSIG=
201905040820 METAR COR EGLL 040820Z AUTO 36011KT 320V030 9999 SCT032 08/01
                        Q1018 NOSIG=
201905040750 METAR COR EGLL 040750Z AUTO 36011KT 9999 FEW028 07/01 Q1018
                        NOSIG=
201905040720 METAR COR EGLL 040720Z AUTO 36007KT 320V040 9999 NCD 07/02
                        Q1017 NOSIG=
201905040650 METAR COR EGLL 040650Z AUTO 36006KT 330V040 9999 SCT048 06/01
                        Q1017 NOSIG=
201905040620 METAR COR EGLL 040620Z AUTO 36008KT 9999 NCD 06/01 Q1017
                        NOSIG=
201905040550 METAR COR EGLL 040550Z AUTO 36009KT 9999 NCD 05/01 Q1017
                        NOSIG=
201905040520 METAR COR EGLL 040520Z AUTO 36007KT 320V030 9999 NCD 05/02
                        Q1016 NOSIG=
201905040450 METAR COR EGLL 040450Z AUTO 36008KT 330V040 9999 NCD 05/02
                        Q1016 NOSIG=
201905040420 METAR COR EGLL 040420Z AUTO 36005KT 320V050 9999 NCD 05/02
                        Q1016 NOSIG=
201905040350 METAR COR EGLL 040350Z AUTO 36004KT 330V030 9999 NCD 05/02
                        Q1015 NOSIG=
201905040320 METAR COR EGLL 040320Z AUTO 35004KT 310V030 9999 NCD 05/03
                        Q1015 NOSIG=
201905040250 METAR COR EGLL 040250Z AUTO VRB03KT 9999 FEW041 06/03 Q1015
                        NOSIG=
201905040220 METAR COR EGLL 040220Z AUTO 35004KT 310V040 9999 BKN034 BKN044
                        06/03 Q1015 NOSIG=
201905040150 METAR COR EGLL 040150Z AUTO 35004KT 320V030 9999 -RA SCT032
                        BKN042 06/03 Q1015 NOSIG=
201905040120 METAR COR EGLL 040120Z AUTO 01005KT 330V040 9999 -RA SCT026
                        SCT037 BKN045 06/03 Q1015 NOSIG=
201905040050 METAR COR EGLL 040050Z AUTO 05006KT 010V080 9999 -RA SCT028
                        BKN035 OVC048 06/02 Q1015 NOSIG=
201905040020 METAR COR EGLL 040020Z AUTO 03005KT 350V050 9999 -RA OVC046
                        07/03 Q1015 NOSIG=
201905032350 METAR COR EGLL 032350Z AUTO 03005KT 320V060 9999 OVC041 07/03
                        Q1015 NOSIG=
201905032320 METAR COR EGLL 032320Z AUTO 03005KT 350V070 9999 BKN040 07/03
                        Q1015 NOSIG=
201905032250 METAR COR EGLL 032250Z AUTO 04005KT 350V070 9999 FEW045 07/03
                        Q1015 NOSIG=
201905032220 METAR COR EGLL 032220Z AUTO 05005KT 9999 BKN037 OVC048 07/03
                        Q1015 NOSIG=
201905032150 METAR COR EGLL 032150Z AUTO 05006KT 010V080 9999 SCT034 07/03
                        Q1015 NOSIG=
201905032120 METAR COR EGLL 032120Z AUTO 05007KT 9999 FEW025 BKN030 OVC046
                        07/03 Q1015 NOSIG=
201905032050 METAR COR EGLL 032050Z AUTO 05008KT 010V080 9999 -RA BKN012
                        OVC020 07/05 Q1015 TEMPO SCT012 BKN020=
201905032020 METAR COR EGLL 032020Z AUTO 04008KT 360V070 9999 BKN012 OVC020
                        07/05 Q1014 TEMPO SCT012 BKN020=
201905031950 METAR COR EGLL 031950Z AUTO 04005KT 340V070 9999 BKN011 08/06
                        Q1014 TEMPO SCT011 BKN030=
201905031920 METAR COR EGLL 031920Z AUTO 02006KT 340V060 9999 SCT012 BKN031
                        BKN040 08/06 Q1014 TEMPO BKN010=
201905031850 METAR COR EGLL 031850Z AUTO 02007KT 350V050 9999 SCT011 SCT016
                        BKN028 09/07 Q1014 TEMPO BKN010=
201905031820 METAR COR EGLL 031820Z AUTO 36007G17KT 310V040 9999 FEW014///
                        SCT023/// //////TCU 10/08 Q1014 NOSIG=
201905031750 METAR COR EGLL 031750Z AUTO 35004KT 310V060 9999 -RA FEW034///
                        OVC047/// //////TCU 10/08 Q1013 NOSIG=
201905031720 METAR COR EGLL 031720Z AUTO 34008KT 310V020 9999 BKN032///
                        BKN043/// //////CB 10/08 Q1013 TEMPO
                        SHRA=
201905031650 METAR COR EGLL 031650Z 36009KT 320V030 9999 -SHRA SCT028CB
                        BKN037 11/08 Q1013 TEMPO SHRA=
201905031620 METAR COR EGLL 031620Z AUTO 27010KT 230V310 9999 //////CB
                        13/08 Q1013 TEMPO SHRA=
201905031550 METAR COR EGLL 031550Z AUTO 26010KT 9999 NCD 14/08 Q1013
                        TEMPO SHRA=
201905031520 METAR COR EGLL 031520Z AUTO 27007KT 9999 NCD 13/07 Q1013
                        NOSIG=
201905031450 METAR COR EGLL 031450Z 24007KT 200V260 9999 SCT025TCU 11/08
                        Q1013 RERA NOSIG=
201905031420 METAR COR EGLL 031420Z AUTO 31009KT 6000 -RA FEW027/// BKN033///
                        BKN043/// //////CB 11/08 Q1014 TEMPO
                        SHRA=
201905031350 METAR COR EGLL 031350Z AUTO 27005KT 190V340 9999 SCT033///
                        //////CB 15/07 Q1014 TEMPO SHRA=
201905031320 METAR COR EGLL 031320Z AUTO 29005KT 230V010 9999 SCT032 BKN040
                        16/08 Q1014 NOSIG=
201905031250 METAR COR EGLL 031250Z AUTO 25006KT 210V300 9999 FEW030 SCT036
                        BKN047 14/07 Q1014 NOSIG=
201905031220 METAR COR EGLL 031220Z AUTO 28007KT 250V320 9999 SCT020 SCT025
                        BKN034 13/08 Q1015 NOSIG=
201905031150 METAR COR EGLL 031150Z AUTO 23005KT 200V270 9999 BKN018 12/08
                        Q1015 NOSIG=
201905031120 METAR COR EGLL 031120Z AUTO 23005KT 160V270 9999 FEW018 12/08
                        Q1015 NOSIG=
201905031050 METAR COR EGLL 031050Z AUTO 22005KT 190V260 9999 NCD 11/08
                        Q1015 NOSIG=
201905031020 METAR COR EGLL 031020Z AUTO VRB03KT 9999 FEW026 SCT035 11/08
                        Q1015 NOSIG=
201905030950 METAR COR EGLL 030950Z AUTO VRB03KT 9999 SCT014 BKN023 BKN030
                        10/07 Q1015 NOSIG=
201905030920 METAR COR EGLL 030920Z AUTO VRB03KT 9999 BKN011 BKN018 OVC032
                        11/08 Q1016 BECMG BKN015=
201905030850 METAR COR EGLL 030850Z AUTO VRB03KT 9999 BKN011 BKN018 BKN025
                        10/08 Q1016 NOSIG=
201905030820 METAR COR EGLL 030820Z AUTO 31004KT 290V360 9999 BKN009 BKN014
                        OVC021 10/08 Q1016 BECMG BKN014=
201905030750 METAR COR EGLL 030750Z AUTO VRB03KT 9999 BKN008 OVC020 10/08
                        Q1016 TEMPO BKN010=
201905030720 METAR COR EGLL 030720Z AUTO 35004KT 9000 BKN008 BKN016 OVC020
                        09/08 Q1016 TEMPO BKN010=
201905030650 METAR COR EGLL 030650Z AUTO VRB03KT 8000 FEW006 BKN010 OVC018
                        09/08 Q1016 NOSIG=
201905030620 METAR COR EGLL 030620Z AUTO VRB03KT 9000 BKN010 OVC014 09/08
                        Q1016 NOSIG=
201905030550 METAR COR EGLL 030550Z AUTO VRB02KT 9000 OVC010 08/07 Q1015
                        NOSIG=
201905030520 METAR COR EGLL 030520Z AUTO VRB02KT 8000 OVC012 08/07 Q1015
                        NOSIG=
201905030450 METAR COR EGLL 030450Z AUTO 32002KT 7000 OVC012 08/07 Q1015
                        NOSIG=
201905030420 METAR COR EGLL 030420Z AUTO VRB02KT 7000 BKN011 08/07 Q1015
                        NOSIG=
201905030350 METAR COR EGLL 030350Z AUTO VRB03KT 8000 BKN010 08/07 Q1015
                        TEMPO SCT010=
201905030320 METAR COR EGLL 030320Z AUTO VRB03KT 9000 BKN008 OVC017 08/07
                        Q1015 TEMPO SCT008=
201905030250 METAR COR EGLL 030250Z AUTO 32003KT 9999 BKN008 BKN011 OVC016
                        08/07 Q1015 TEMPO FEW008 SCT011 BKN016=
201905030220 METAR COR EGLL 030220Z AUTO VRB02KT 8000 BKN009 BKN013 08/07
                        Q1015 TEMPO FEW009 SCT013=
201905030150 METAR COR EGLL 030150Z AUTO VRB02KT 9000 SCT010 08/07 Q1015
                        TEMPO BKN010=
201905030120 METAR COR EGLL 030120Z AUTO 31003KT 8000 NCD 08/07 Q1015
                        NOSIG=
201905030050 METAR COR EGLL 030050Z AUTO 30002KT 9999 NCD 08/08 Q1015
                        NOSIG=
201905030020 METAR COR EGLL 030020Z AUTO VRB02KT 9999 SCT023 08/07 Q1015
                        NOSIG=
201905022350 METAR COR EGLL 022350Z AUTO VRB02KT 9999 BKN024 08/07 Q1015
                        NOSIG=
201905022320 METAR COR EGLL 022320Z AUTO 28003KT 9999 NCD 08/08 Q1015
                        NOSIG=
201905022250 METAR EGLL 022250Z AUTO 31003KT 9999 NCD 08/08 Q1015=
201905022220 METAR COR EGLL 022220Z AUTO 32003KT 9999 NCD 08/08 Q1014
                        NOSIG=
201905022150 METAR COR EGLL 022150Z AUTO 31004KT 270V330 9999 NCD 09/08
                        Q1014 NOSIG=
201905022120 METAR COR EGLL 022120Z AUTO 31003KT 9999 NCD 09/08 Q1014
                        NOSIG=
201905022050 METAR COR EGLL 022050Z AUTO 31002KT 9999 SCT038 09/08 Q1014
                        NOSIG=
201905022020 METAR COR EGLL 022020Z AUTO 32003KT 9999 NCD 09/08 Q1014
                        NOSIG=
201905021950 METAR COR EGLL 021950Z AUTO 31003KT 9999 NCD 10/08 Q1014
                        NOSIG=
201905021920 METAR COR EGLL 021920Z AUTO 30007KT 9999 BKN048 11/08 Q1014
                        NOSIG=
201905021850 METAR COR EGLL 021850Z AUTO 29006KT 9999 NCD 11/08 Q1013
                        NOSIG=
201905021820 METAR COR EGLL 021820Z AUTO 28006KT 9999 //////CB 11/09 Q1013
                        NOSIG=
201905021750 METAR COR EGLL 021750Z AUTO 27009KT 9999 -RA FEW044/// //////CB
                        10/09 Q1013 NOSIG=
201905021720 METAR COR EGLL 021720Z AUTO 28008KT 9999 -RA SCT044/// //////CB
                        11/09 Q1013 NOSIG=
201905021650 METAR COR EGLL 021650Z AUTO 27010KT 9999 -RA BKN039/// //////CB
                        10/09 Q1013 RESHRA TEMPO SHRA=
201905021620 METAR COR EGLL 021620Z 28009KT 4000 SHRA BKN032CB OVC041
                        10/08 Q1013 RESHRA TEMPO 9999 NSW=
201905021550 METAR COR EGLL 021550Z AUTO 31011KT 9999 -RA BKN036/// BKN047///
                        //////CB 14/07 Q1012 TEMPO SHRA=
201905021520 METAR COR EGLL 021520Z AUTO 28010KT 9999 FEW048/// //////CB
                        15/06 Q1012 TEMPO SHRA=
201905021450 METAR COR EGLL 021450Z AUTO 28010KT 9999 FEW037/// SCT043///
                        //////CB 16/06 Q1013 TEMPO SHRA=
201905021420 METAR COR EGLL 021420Z AUTO 29011KT 9999 FEW041/// //////CB
                        16/05 Q1013 TEMPO 8000 SHRA=
201905021350 METAR COR EGLL 021350Z AUTO 29010KT 9999 SCT041 16/06 Q1013
                        TEMPO 8000 SHRA=
201905021320 METAR COR EGLL 021320Z AUTO 29009KT 9999 FEW039 14/06 Q1013
                        TEMPO 8000 SHRA=
201905021250 METAR COR EGLL 021250Z AUTO 28011KT 9999 FEW039 14/06 Q1013
                        TEMPO 8000 SHRA=
201905021220 METAR COR EGLL 021220Z AUTO 30009KT 9999 SCT036 15/06 Q1014
                        NOSIG=
201905021150 METAR COR EGLL 021150Z AUTO 29010KT 9999 FEW035 14/05 Q1014
                        TEMPO 8000 SHRA=
201905021120 METAR COR EGLL 021120Z AUTO 30009KT 9999 FEW038 14/06 Q1014
                        TEMPO 8000 SHRA=
201905021050 METAR COR EGLL 021050Z AUTO 29010KT 260V330 9999 SCT037 15/05
                        Q1014 TEMPO 8000 SHRA=
201905021020 METAR COR EGLL 021020Z AUTO 31008KT 270V350 9999 SCT035 15/05
                        Q1014 NOSIG=
201905020950 METAR COR EGLL 020950Z AUTO 31009KT 260V330 9999 SCT032 14/06
                        Q1014 NOSIG=
201905020920 METAR COR EGLL 020920Z AUTO 29009KT 250V010 9999 FEW032 14/06
                        Q1014 NOSIG=
201905020850 METAR COR EGLL 020850Z AUTO 30007KT 250V320 9999 NCD 13/06
                        Q1014 NOSIG=
201905020820 METAR COR EGLL 020820Z AUTO 32008KT 280V360 9999 NCD 13/06
                        Q1015 NOSIG=
201905020750 METAR COR EGLL 020750Z AUTO 32006KT 280V020 9999 FEW025 12/07
                        Q1015 NOSIG=
201905020720 METAR COR EGLL 020720Z AUTO 28006KT 9999 SCT046 11/07 Q1015
                        NOSIG=
201905020650 METAR COR EGLL 020650Z AUTO 30004KT 270V360 9999 BKN045 10/07
                        Q1015 NOSIG=
201905020620 METAR COR EGLL 020620Z AUTO 30004KT 9999 BKN040 09/07 Q1015
                        NOSIG=
201905020550 METAR COR EGLL 020550Z AUTO 29004KT 7000 SCT033 SCT044 09/08
                        Q1015 NOSIG=
201905020520 METAR COR EGLL 020520Z AUTO 29005KT 7000 FEW049 09/08 Q1015
                        NOSIG=
201905020450 METAR COR EGLL 020450Z AUTO 29007KT 7000 NCD 09/08 Q1015
                        NOSIG=
201905020420 METAR COR EGLL 020420Z AUTO 29005KT 9000 SCT026 09/08 Q1014
                        NOSIG=
201905020350 METAR COR EGLL 020350Z AUTO 29005KT 9999 FEW037 SCT046 09/08
                        Q1014 NOSIG=
201905020320 METAR COR EGLL 020320Z AUTO 29006KT 9999 FEW037 SCT046 09/08
                        Q1015 NOSIG=
201905020250 METAR COR EGLL 020250Z AUTO 27007KT 9999 NCD 10/08 Q1015
                        NOSIG=
201905020220 METAR COR EGLL 020220Z AUTO 27007KT 9999 NCD 10/08 Q1015
                        NOSIG=
201905020150 METAR COR EGLL 020150Z AUTO 27007KT 9999 NCD 10/08 Q1015
                        NOSIG=
201905020120 METAR COR EGLL 020120Z AUTO 27007KT 9999 BKN048 11/08 Q1015
                        NOSIG=
201905020050 METAR COR EGLL 020050Z AUTO 27008KT 9999 BKN044 11/08 Q1015
                        NOSIG=
201905020020 METAR COR EGLL 020020Z AUTO 27005KT 9999 SCT032 BKN038 BKN044
                        11/08 Q1015 NOSIG=
201905012350 METAR COR EGLL 012350Z AUTO 27005KT 9999 FEW030 BKN043 11/08
                        Q1016 NOSIG=
201905012320 METAR COR EGLL 012320Z AUTO 26002KT 9999 SCT029 BKN040 BKN046
                        11/08 Q1016 NOSIG=
201905012250 METAR COR EGLL 012250Z AUTO 31002KT 9999 -RA OVC029 12/08
                        Q1016 NOSIG=
201905012220 METAR COR EGLL 012220Z AUTO 30004KT 9999 SCT032 BKN044 11/08
                        Q1016 NOSIG=
201905012150 METAR COR EGLL 012150Z AUTO 30005KT 9999 NCD 12/07 Q1017
                        NOSIG=
201905012120 METAR COR EGLL 012120Z AUTO 29004KT 9999 NCD 12/08 Q1017
                        NOSIG=
201905012050 METAR COR EGLL 012050Z AUTO 28007KT 9999 NCD 12/08 Q1017
                        NOSIG=
201905012020 METAR COR EGLL 012020Z AUTO 28006KT 9999 NCD 12/08 Q1017
                        NOSIG=
201905011950 METAR COR EGLL 011950Z AUTO 28006KT 9999 NCD 12/08 Q1017
                        NOSIG=
201905011920 METAR COR EGLL 011920Z AUTO 30005KT 9999 NCD 12/08 Q1017
                        NOSIG=
201905011850 METAR COR EGLL 011850Z AUTO 30005KT 260V330 9999 -RA FEW040
                        12/08 Q1017 NOSIG=
201905011820 METAR COR EGLL 011820Z AUTO 29008KT 9999 -RA NCD 13/07 Q1017
                        NOSIG=
201905011750 METAR COR EGLL 011750Z AUTO 29009KT 260V320 9999 NCD 13/06
                        Q1017 NOSIG=
201905011720 METAR COR EGLL 011720Z AUTO 29010KT 9999 NCD 14/07 Q1017
                        NOSIG=
201905011650 METAR COR EGLL 011650Z AUTO 30011KT 9999 NCD 15/07 Q1016
                        NOSIG=
201905011620 METAR COR EGLL 011620Z AUTO 30007KT 9999 NCD 16/08 Q1016
                        NOSIG=
201905011550 METAR COR EGLL 011550Z AUTO 27006KT 220V290 9999 NCD 17/06
                        Q1016 NOSIG=
201905011520 METAR COR EGLL 011520Z AUTO 27007KT 250V320 9999 NCD 17/06
                        Q1016 NOSIG=
201905011450 METAR COR EGLL 011450Z AUTO 28007KT 210V330 9999 FEW047 17/06
                        Q1017 NOSIG=
201905011420 METAR COR EGLL 011420Z AUTO 27007KT 230V310 9999 FEW045 17/06
                        Q1017 NOSIG=
201905011350 METAR COR EGLL 011350Z AUTO 21005KT 170V260 9999 FEW042 17/06
                        Q1017 NOSIG=
201905011320 METAR COR EGLL 011320Z AUTO VRB04G17KT 9999 FEW042 17/07
                        Q1017 NOSIG=
201905011250 METAR COR EGLL 011250Z AUTO 25006KT 190V300 9999 NCD 16/07
                        Q1018 NOSIG=
201905011220 METAR COR EGLL 011220Z AUTO 22008KT 190V280 9999 NCD 17/07
                        Q1018 NOSIG=
201905011150 METAR COR EGLL 011150Z AUTO VRB04KT 9999 FEW038 SCT047 16/07
                        Q1018 NOSIG=
201905011120 METAR COR EGLL 011120Z AUTO 24005KT 200V300 9999 FEW049 16/07
                        Q1018 NOSIG=
201905011050 METAR COR EGLL 011050Z AUTO 21004KT 150V250 9999 FEW046 15/06
                        Q1018 NOSIG=
201905011020 METAR COR EGLL 011020Z AUTO VRB04KT 9999 NCD 15/07 Q1019
                        NOSIG=
201905010950 METAR COR EGLL 010950Z AUTO 29004KT 220V010 9999 NCD 14/07
                        Q1019 NOSIG=
201905010920 METAR COR EGLL 010920Z AUTO 24004KT 190V320 9999 NCD 14/07
                        Q1019 NOSIG=
201905010850 METAR COR EGLL 010850Z AUTO 23004KT 160V320 9999 NCD 13/08
                        Q1019 NOSIG=
201905010820 METAR COR EGLL 010820Z AUTO 24005KT 200V270 9000 NCD 11/08
                        Q1019 NOSIG=
201905010750 METAR COR EGLL 010750Z AUTO 24004KT 8000 NCD 10/08 Q1019
                        NOSIG=
201905010720 METAR COR EGLL 010720Z AUTO VRB03KT 7000 NCD 09/08 Q1019
                        NOSIG=
201905010650 METAR COR EGLL 010650Z AUTO 21004KT 170V240 6000 NCD 09/07
                        Q1019 NOSIG=
201905010620 METAR COR EGLL 010620Z AUTO 21006KT 180V260 6000 NCD 09/07
                        Q1019 NOSIG=
201905010550 METAR COR EGLL 010550Z AUTO 22005KT 200V270 6000 NCD 08/07
                        Q1019 NOSIG=
201905010520 METAR COR EGLL 010520Z 23004KT 190V260 7000 NSC 07/06 Q1019
                        NOSIG=
201905010450 METAR COR EGLL 010450Z 26005KT 7000 FEW026 07/06 Q1019 NOSIG=
201905010420 METAR COR EGLL 010420Z VRB02KT 6000 NSC 06/05 Q1019 NOSIG=
201905010350 METAR COR EGLL 010350Z AUTO 00000KT 6000 NCD 07/06 Q1019
                        NOSIG=
201905010320 METAR COR EGLL 010320Z AUTO 07001KT 8000 NCD 07/06 Q1020
                        NOSIG=
201905010250 METAR COR EGLL 010250Z AUTO 25002KT 9000 NCD 07/06 Q1020
                        NOSIG=
201905010220 METAR COR EGLL 010220Z AUTO 26003KT 7000 NCD 07/06 Q1020
                        NOSIG=
201905010150 METAR COR EGLL 010150Z AUTO VRB03KT 8000 NCD 07/06 Q1020
                        NOSIG=
201905010120 METAR COR EGLL 010120Z AUTO 16002KT 8000 NCD 07/06 Q1021
                        NOSIG=
201905010050 METAR COR EGLL 010050Z AUTO 18003KT 9999 NCD 08/06 Q1021
                        NOSIG=
201905010020 METAR COR EGLL 010020Z AUTO 16003KT 9999 NCD 09/06 Q1021
                        NOSIG=

</pre>

</body>
</html>
