##########################################################
# Query made at 01/13/2020 13:22:52 UTC
# Time interval: from 11/01/2017 00:00  to 12/01/2017 23:59  UTC
##########################################################

##########################################################
# EGLL, London / Heathrow Airport (United Kingdom)
# WMO index: 03772
# Latitude 51-29N. Longitude 000-27W. Altitude 24 m.
##########################################################

###################################
#  METAR/SPECI from EGLL
###################################
201712012350 METAR COR EGLL 012350Z AUTO VRB02KT 9999 NCD 03/00 Q1027
                        NOSIG=
201712012320 METAR COR EGLL 012320Z AUTO 35004KT 300V030 9999 NCD 03/01
                        Q1026 NOSIG=
201712012250 METAR COR EGLL 012250Z AUTO 33004KT 280V020 9999 NCD 04/01
                        Q1026 NOSIG=
201712012220 METAR COR EGLL 012220Z AUTO 35004KT 300V020 9999 NCD 04/01
                        Q1026 NOSIG=
201712012150 METAR COR EGLL 012150Z AUTO 35005KT 9999 NCD 04/01 Q1026
                        NOSIG=
201712012120 METAR COR EGLL 012120Z AUTO 36006KT 9999 NCD 04/01 Q1026
                        NOSIG=
201712012050 METAR COR EGLL 012050Z AUTO 36006KT 320V050 9999 FEW016 SCT040
                        04/01 Q1026 NOSIG=
201712012020 METAR COR EGLL 012020Z AUTO 36007KT 9999 BKN016 05/01 Q1026
                        NOSIG=
201712011950 METAR COR EGLL 011950Z AUTO 36006KT 300V030 9999 SCT017 05/01
                        Q1026 NOSIG=
201712011920 METAR COR EGLL 011920Z AUTO 35006KT 280V030 9999 SCT018 BKN045
                        05/01 Q1025 NOSIG=
201712011850 METAR COR EGLL 011850Z AUTO 36006KT 310V020 9999 BKN018 BKN038
                        05/02 Q1025 NOSIG=
201712011820 METAR COR EGLL 011820Z AUTO 35004KT 310V020 9999 SCT048 05/01
                        Q1025 NOSIG=
201712011750 METAR COR EGLL 011750Z AUTO 35006KT 320V020 9999 FEW018 05/01
                        Q1025 NOSIG=
201712011720 METAR COR EGLL 011720Z AUTO 35006KT 320V030 9999 FEW023 05/01
                        Q1025 NOSIG=
201712011650 METAR COR EGLL 011650Z AUTO 35007KT 300V030 9999 SCT023 SCT032
                        BKN041 05/01 Q1024 NOSIG=
201712011620 METAR EGLL 011620Z AUTO 34005KT 310V020 9999 SCT023 BKN047
                        05/01 Q1024=
201712011550 METAR EGLL 011550Z AUTO 33006KT 300V010 9999 SCT025 06/01
                        Q1024=
201712011520 METAR COR EGLL 011520Z AUTO 35006KT 310V020 9999 FEW025 SCT030
                        06/01 Q1023 NOSIG=
201712011450 METAR COR EGLL 011450Z AUTO 35007KT 310V030 9999 FEW029 06/00
                        Q1023 NOSIG=
201712011420 METAR COR EGLL 011420Z AUTO 01007KT 340V040 9999 NCD 06/M00
                        Q1023 NOSIG=
201712011350 METAR COR EGLL 011350Z AUTO 02009KT 330V050 9999 NCD 07/M01
                        Q1023 NOSIG=
201712011320 METAR COR EGLL 011320Z AUTO 01009KT 340V060 9999 NCD 07/M01
                        Q1022 NOSIG=
201712011250 METAR COR EGLL 011250Z AUTO 02009KT 340V060 9999 NCD 07/M01
                        Q1022 NOSIG=
201712011220 METAR COR EGLL 011220Z AUTO 03008KT 350V060 9999 NCD 06/M00
                        Q1022 NOSIG=
201712011150 METAR COR EGLL 011150Z AUTO 01007KT 340V050 9999 NCD 06/01
                        Q1022 NOSIG=
201712011120 METAR COR EGLL 011120Z AUTO 36009KT 330V040 9999 FEW025 05/01
                        Q1022 NOSIG=
201712011050 METAR COR EGLL 011050Z AUTO 01010KT 330V050 9999 FEW026 SCT042
                        05/01 Q1022 NOSIG=
201712011020 METAR COR EGLL 011020Z AUTO 36009KT 320V030 9999 FEW026 SCT043
                        BKN049 04/01 Q1021 NOSIG=
201712010950 METAR COR EGLL 010950Z AUTO 36008KT 330V040 9999 FEW025 SCT034
                        04/01 Q1021 NOSIG=
201712010920 METAR COR EGLL 010920Z AUTO 01008KT 340V050 9999 FEW021 03/01
                        Q1020 NOSIG=
201712010850 METAR COR EGLL 010850Z AUTO 36010KT 330V040 9999 BKN020 BKN039
                        03/01 Q1020 NOSIG=
201712010820 METAR COR EGLL 010820Z AUTO 36009KT 320V030 9999 -RA SCT019
                        BKN027 BKN035 03/01 Q1019 NOSIG=
201712010750 METAR COR EGLL 010750Z AUTO 35009KT 310V030 9999 FEW020 SCT025
                        BKN034 04/00 Q1019 NOSIG=
201712010720 METAR COR EGLL 010720Z AUTO 35009KT 300V020 9999 -RA SCT020
                        BKN027 BKN036 03/00 Q1018 NOSIG=
201712010650 METAR EGLL 010650Z AUTO 34007KT 280V030 9999 -RA SCT020 BKN028
                        BKN036 03/00 Q1018=
201712010620 METAR COR EGLL 010620Z AUTO 34008KT 300V020 9999 -RA FEW029
                        SCT037 03/00 Q1017 TEMPO BKN012=
201712010550 METAR COR EGLL 010550Z AUTO 34008KT 300V020 9999 -RA FEW018
                        SCT029 BKN042 03/00 Q1017 TEMPO BKN012=
201712010520 METAR COR EGLL 010520Z AUTO 33009KT 9999 SCT039 BKN048 03/M00
                        Q1016 TEMPO -SHRA BKN012=
201712010450 METAR COR EGLL 010450Z AUTO 34007KT 310V020 9999 SCT017 BKN046
                        03/M00 Q1016 TEMPO BKN012=
201712010420 METAR COR EGLL 010420Z AUTO 35007KT 310V030 9999 BKN016 03/M00
                        Q1016 TEMPO BKN012=
201712010350 METAR COR EGLL 010350Z AUTO 35008KT 310V030 9999 BKN016 03/M00
                        Q1015 TEMPO BKN012=
201712010320 METAR COR EGLL 010320Z AUTO 36010KT 310V030 9999 BKN015 OVC021
                        03/M00 Q1015 NOSIG=
201712010250 METAR COR EGLL 010250Z AUTO 36008KT 310V040 9999 BKN017 OVC021
                        03/M00 Q1015 NOSIG=
201712010220 METAR COR EGLL 010220Z AUTO 35008KT 300V020 9999 BKN018 OVC022
                        03/M00 Q1015 NOSIG=
201712010150 METAR COR EGLL 010150Z AUTO 34009KT 310V010 9999 BKN017 OVC021
                        03/M00 Q1014 NOSIG=
201712010120 METAR EGLL 010120Z AUTO 34005KT 280V030 9999 BKN018 OVC025
                        03/M01 Q1014=
201712010050 METAR COR EGLL 010050Z AUTO 34006KT 310V030 9999 OVC019 03/M01
                        Q1014 NOSIG=
201712010020 METAR COR EGLL 010020Z AUTO 35008KT 310V030 9999 BKN019 OVC025
                        03/M01 Q1014 NOSIG=
201711302350 METAR COR EGLL 302350Z AUTO 35007KT 290V030 9999 BKN019 03/M01
                        Q1014 NOSIG=
201711302320 METAR COR EGLL 302320Z AUTO 34008G21KT 300V030 9999 BKN019
                        OVC024 03/M01 Q1013 TEMPO BKN012=
201711302250 METAR COR EGLL 302250Z AUTO 33007KT 300V020 9999 BKN021 03/M01
                        Q1013 TEMPO BKN012=
201711302220 METAR COR EGLL 302220Z AUTO 32008KT 290V010 9999 BKN020 OVC027
                        03/M01 Q1013 TEMPO BKN012=
201711302150 METAR COR EGLL 302150Z AUTO 32006KT 290V030 9999 BKN020 03/M01
                        Q1013 TEMPO BKN012=
201711302120 METAR COR EGLL 302120Z AUTO 32008KT 300V010 9999 BKN020 OVC026
                        03/M01 Q1013 TEMPO BKN012=
201711302050 METAR COR EGLL 302050Z AUTO 32010KT 300V010 9999 OVC020 03/M01
                        Q1013 TEMPO BKN012=
201711302020 METAR COR EGLL 302020Z AUTO 33009KT 300V010 9999 BKN022 03/M02
                        Q1012 TEMPO 5000 -SHRASN BKN012=
201711301950 METAR COR EGLL 301950Z AUTO 34007KT 300V020 9999 BKN022 03/M02
                        Q1012 NOSIG=
201711301920 METAR COR EGLL 301920Z AUTO 32009KT 300V360 9999 BKN025 03/M02
                        Q1012 NOSIG=
201711301850 METAR COR EGLL 301850Z AUTO 32008KT 280V360 9999 BKN028 OVC032
                        03/M03 Q1012 NOSIG=
201711301820 METAR EGLL 301820Z AUTO 32008KT 290V350 9999 BKN031 OVC038
                        03/M03 Q1012=
201711301750 METAR COR EGLL 301750Z AUTO 31009KT 9999 BKN035 OVC044 03/M03
                        Q1012 NOSIG=
201711301720 METAR COR EGLL 301720Z AUTO 32008KT 280V350 9999 OVC035 03/M03
                        Q1011 NOSIG=
201711301650 METAR EGLL 301650Z AUTO 30008KT 9999 BKN036 03/M03 Q1011=
201711301620 METAR COR EGLL 301620Z AUTO 31007KT 290V350 9999 BKN040 03/M03
                        Q1011 NOSIG=
201711301550 METAR COR EGLL 301550Z AUTO 31007KT 9999 BKN037 03/M03 Q1011
                        NOSIG=
201711301520 METAR COR EGLL 301520Z AUTO 32010KT 9999 OVC037 03/M03 Q1011
                        NOSIG=
201711301450 METAR EGLL 301450Z AUTO 32010KT 9999 SCT034 04/M03 Q1011=
201711301420 METAR EGLL 301420Z AUTO 32011G21KT 290V350 9999 FEW035 04/M04
                        Q1011=
201711301350 METAR COR EGLL 301350Z AUTO 32011KT 290V350 9999 NCD 04/M04
                        Q1011 NOSIG=
201711301320 METAR COR EGLL 301320Z AUTO 33009G19KT 300V010 9999 NCD 04/M04
                        Q1011 NOSIG=
201711301250 METAR EGLL 301250Z AUTO 32012G22KT 9999 NCD 04/M03 Q1011=
201711301220 METAR COR EGLL 301220Z AUTO 32008KT 280V350 9999 NCD 04/M03
                        Q1011 NOSIG=
201711301150 METAR COR EGLL 301150Z AUTO 32010KT 290V360 9999 NCD 03/M04
                        Q1011 NOSIG=
201711301120 METAR COR EGLL 301120Z AUTO 31010KT 9999 NCD 04/M04 Q1011
                        NOSIG=
201711301050 METAR COR EGLL 301050Z AUTO 32010KT 280V350 9999 NCD 03/M04
                        Q1012 NOSIG=
201711301020 METAR COR EGLL 301020Z AUTO 31009KT 280V350 9999 NCD 03/M04
                        Q1012 NOSIG=
201711300950 METAR COR EGLL 300950Z AUTO 31010KT 9999 NCD 02/M04 Q1012
                        NOSIG=
201711300920 METAR COR EGLL 300920Z AUTO 31009KT 9999 NCD 02/M04 Q1012
                        NOSIG=
201711300850 METAR COR EGLL 300850Z AUTO 30007KT 9999 NCD 01/M04 Q1012
                        NOSIG=
201711300820 METAR COR EGLL 300820Z AUTO 29006KT 9999 NCD 01/M04 Q1012
                        NOSIG=
201711300750 METAR COR EGLL 300750Z AUTO 30007KT 9999 NCD 01/M03 Q1012
                        NOSIG=
201711300720 METAR COR EGLL 300720Z AUTO 30006KT 9999 NCD 01/M03 Q1012
                        NOSIG=
201711300650 METAR COR EGLL 300650Z AUTO 28006KT 9999 NCD 01/M03 Q1012
                        NOSIG=
201711300620 METAR COR EGLL 300620Z AUTO 28006KT 9999 NCD 00/M03 Q1012
                        NOSIG=
201711300550 METAR EGLL 300550Z AUTO 28007KT 9999 NCD M00/M03 Q1012=
201711300520 METAR COR EGLL 300520Z AUTO 29005KT 9999 NCD M00/M03 Q1012
                        NOSIG=
201711300450 METAR COR EGLL 300450Z AUTO 27005KT 9999 NCD M00/M03 Q1012
                        NOSIG=
201711300420 METAR COR EGLL 300420Z AUTO 27004KT 9999 NCD M00/M03 Q1012
                        NOSIG=
201711300350 METAR COR EGLL 300350Z AUTO 29006KT 9999 NCD 00/M03 Q1013
                        NOSIG=
201711300320 METAR COR EGLL 300320Z AUTO 29006KT 9999 NCD 00/M03 Q1013
                        NOSIG=
201711300250 METAR COR EGLL 300250Z AUTO 29007KT 9999 NCD 01/M02 Q1013
                        NOSIG=
201711300220 METAR COR EGLL 300220Z AUTO 29007KT 9999 NCD 01/M02 Q1013
                        NOSIG=
201711300150 METAR EGLL 300150Z AUTO 28005KT 9999 NCD 01/M02 Q1013=
201711300120 METAR COR EGLL 300120Z AUTO 30005KT 9999 NCD 01/M02 Q1013
                        NOSIG=
201711300050 METAR COR EGLL 300050Z AUTO 30006KT 9999 NCD 01/M02 Q1013
                        NOSIG=
201711300020 METAR COR EGLL 300020Z AUTO 31005KT 270V360 9999 NCD 02/M01
                        Q1014 NOSIG=
201711292350 METAR COR EGLL 292350Z AUTO 31005KT 280V360 9999 NCD 02/M01
                        Q1014 NOSIG=
201711292320 METAR COR EGLL 292320Z AUTO 32006KT 280V010 9999 NCD 03/M01
                        Q1014 NOSIG=
201711292250 METAR COR EGLL 292250Z AUTO 32007KT 290V350 9999 NCD 03/M00
                        Q1014 NOSIG=
201711292220 METAR COR EGLL 292220Z AUTO 32009KT 9999 NCD 03/00 Q1014
                        NOSIG=
201711292150 METAR COR EGLL 292150Z AUTO 32007KT 300V360 9999 NCD 04/01
                        Q1014 NOSIG=
201711292120 METAR COR EGLL 292120Z AUTO 32007KT 290V360 9999 FEW020 SCT029
                        04/01 Q1014 NOSIG=
201711292050 METAR COR EGLL 292050Z AUTO 34006KT 290V030 9999 BKN019 05/01
                        Q1014 NOSIG=
201711292020 METAR EGLL 292020Z AUTO 34007KT 300V030 9999 BKN019 05/01
                        Q1013=
201711291950 METAR COR EGLL 291950Z AUTO 34007KT 310V040 9999 BKN019 05/01
                        Q1013 NOSIG=
201711291920 METAR COR EGLL 291920Z AUTO 34006KT 290V030 9999 OVC020 05/02
                        Q1013 NOSIG=
201711291850 METAR COR EGLL 291850Z AUTO 34008KT 290V020 9999 BKN020 BKN025
                        05/02 Q1013 NOSIG=
201711291820 METAR COR EGLL 291820Z AUTO 35009KT 310V040 9999 BKN020 06/02
                        Q1012 NOSIG=
201711291750 METAR COR EGLL 291750Z AUTO 35006KT 310V030 9999 BKN021 06/02
                        Q1012 NOSIG=
201711291720 METAR COR EGLL 291720Z AUTO 34005KT 290V020 9999 BKN022 BKN029
                        06/02 Q1012 NOSIG=
201711291650 METAR EGLL 291650Z AUTO 33006KT 300V030 9999 BKN023 06/02
                        Q1012=
201711291620 METAR EGLL 291620Z AUTO 36007KT 310V040 9999 BKN022 06/02
                        Q1011=
201711291550 METAR COR EGLL 291550Z AUTO 34006KT 310V020 9999 BKN022 06/02
                        Q1011 NOSIG=
201711291520 METAR COR EGLL 291520Z AUTO 36007KT 300V030 9999 BKN022 06/02
                        Q1011 NOSIG=
201711291450 METAR COR EGLL 291450Z AUTO 35009KT 310V030 9999 BKN022 06/02
                        Q1010 NOSIG=
201711291420 METAR COR EGLL 291420Z AUTO 35006KT 300V030 9999 BKN021 OVC028
                        06/02 Q1010 NOSIG=
201711291350 METAR COR EGLL 291350Z AUTO 35007KT 300V020 9999 BKN022 07/02
                        Q1010 NOSIG=
201711291320 METAR COR EGLL 291320Z AUTO 34007KT 280V020 9999 BKN020 OVC027
                        06/02 Q1010 NOSIG=
201711291250 METAR COR EGLL 291250Z AUTO 35007KT 260V040 9999 OVC019 06/01
                        Q1010 NOSIG=
201711291220 METAR COR EGLL 291220Z AUTO 33008KT 300V020 9999 BKN019 06/01
                        Q1010 NOSIG=
201711291150 METAR COR EGLL 291150Z AUTO 33008KT 290V010 9999 OVC019 05/01
                        Q1010 NOSIG=
201711291120 METAR COR EGLL 291120Z AUTO 34007KT 290V020 9999 OVC019 05/01
                        Q1010 NOSIG=
201711291050 METAR COR EGLL 291050Z AUTO 34007KT 290V010 9999 OVC020 05/01
                        Q1010 NOSIG=
201711291020 METAR COR EGLL 291020Z AUTO 32009KT 9999 BKN019 OVC035 05/01
                        Q1010 NOSIG=
201711290950 METAR COR EGLL 290950Z AUTO 32008KT 290V020 9999 BKN020 OVC025
                        04/00 Q1010 NOSIG=
201711290920 METAR COR EGLL 290920Z AUTO 32010KT 9999 BKN021 04/00 Q1010
                        NOSIG=
201711290850 METAR COR EGLL 290850Z AUTO 32008KT 270V350 9999 FEW037 03/M00
                        Q1010 NOSIG=
201711290820 METAR COR EGLL 290820Z AUTO 31006KT 280V340 9999 FEW033 03/M00
                        Q1009 NOSIG=
201711290750 METAR COR EGLL 290750Z AUTO 31006KT 9999 NCD 02/M00 Q1009
                        NOSIG=
201711290720 METAR COR EGLL 290720Z AUTO 31006KT 280V350 9999 NCD 02/M00
                        Q1009 NOSIG=
201711290650 METAR COR EGLL 290650Z AUTO 31007KT 270V350 9999 NCD 02/M00
                        Q1009 NOSIG=
201711290620 METAR COR EGLL 290620Z AUTO 31007KT 9999 NCD 02/M00 Q1009
                        NOSIG=
201711290550 METAR COR EGLL 290550Z AUTO 30007KT 9999 NCD 02/M00 Q1009
                        NOSIG=
201711290520 METAR COR EGLL 290520Z AUTO 31006KT 290V350 9999 NCD 02/M00
                        Q1009 NOSIG=
201711290450 METAR COR EGLL 290450Z AUTO 31005KT 260V350 9999 NCD 02/M00
                        Q1009 NOSIG=
201711290420 METAR COR EGLL 290420Z AUTO 31007KT 9999 NCD 02/M00 Q1009
                        NOSIG=
201711290350 METAR COR EGLL 290350Z AUTO 31005KT 9999 FEW034 02/M00 Q1009
                        NOSIG=
201711290320 METAR COR EGLL 290320Z AUTO 32006KT 290V360 9999 NCD 02/M00
                        Q1009 NOSIG=
201711290250 METAR COR EGLL 290250Z AUTO 31006KT 290V350 9999 NCD 02/M00
                        Q1009 NOSIG=
201711290220 METAR COR EGLL 290220Z AUTO 31007KT 9999 NCD 02/M00 Q1009
                        NOSIG=
201711290150 METAR COR EGLL 290150Z AUTO 31006KT 9999 NCD 03/M00 Q1009
                        NOSIG=
201711290120 METAR COR EGLL 290120Z AUTO 31006KT 9999 NCD 03/M00 Q1009
                        NOSIG=
201711290050 METAR COR EGLL 290050Z AUTO 31007KT 9999 NCD 03/M00 Q1009
                        NOSIG=
201711290020 METAR COR EGLL 290020Z AUTO 31006KT 9999 NCD 03/M00 Q1009
                        NOSIG=
201711282350 METAR COR EGLL 282350Z AUTO 31005KT 9999 NCD 03/M00 Q1009
                        NOSIG=
201711282320 METAR COR EGLL 282320Z AUTO 30005KT 9999 NCD 03/00 Q1009
                        NOSIG=
201711282250 METAR COR EGLL 282250Z AUTO 31006KT 9999 NCD 03/00 Q1009
                        NOSIG=
201711282220 METAR COR EGLL 282220Z AUTO 30006KT 9999 NCD 03/00 Q1009
                        NOSIG=
201711282150 METAR COR EGLL 282150Z AUTO 30006KT 9999 FEW031 04/01 Q1009
                        NOSIG=
201711282120 METAR COR EGLL 282120Z AUTO 30005KT 9999 FEW027 SCT038 04/01
                        Q1009 NOSIG=
201711282050 METAR COR EGLL 282050Z AUTO 31005KT 9999 SCT033 04/01 Q1009=
201711282020 METAR COR EGLL 282020Z AUTO 32006KT 9999 SCT028 04/00 Q1009
                        NOSIG=
201711281950 METAR COR EGLL 281950Z AUTO 30005KT 9999 BKN029 05/00 Q1009
                        NOSIG=
201711281920 METAR COR EGLL 281920Z AUTO 31005KT 270V350 9999 BKN029 OVC042
                        05/00 Q1009 NOSIG=
201711281850 METAR COR EGLL 281850Z AUTO 31005KT 280V350 9999 BKN035 04/M00
                        Q1008 NOSIG=
201711281820 METAR COR EGLL 281820Z AUTO 30004KT 270V330 9999 NCD 04/M00
                        Q1008 NOSIG=
201711281750 METAR COR EGLL 281750Z AUTO 30005KT 9999 NCD 05/00 Q1008
                        NOSIG=
201711281720 METAR COR EGLL 281720Z AUTO 32006KT 9999 SCT042 05/00 Q1008
                        NOSIG=
201711281650 METAR COR EGLL 281650Z AUTO 30005KT 9999 BKN038 BKN046 06/00
                        Q1008 NOSIG=
201711281620 METAR COR EGLL 281620Z AUTO 31005KT 9999 FEW034 BKN041 06/00
                        Q1008 NOSIG=
201711281550 METAR COR EGLL 281550Z AUTO 30005KT 9999 BKN042 06/M00 Q1008
                        NOSIG=
201711281520 METAR COR EGLL 281520Z AUTO 32007KT 280V030 9999 NCD 06/M01
                        Q1008 NOSIG=
201711281450 METAR COR EGLL 281450Z AUTO 31008KT 9999 NCD 07/M01 Q1008
                        NOSIG=
201711281420 METAR COR EGLL 281420Z AUTO 32010KT 280V350 9999 FEW039 07/M01
                        Q1008 NOSIG=
201711281350 METAR COR EGLL 281350Z AUTO 31010KT 280V350 9999 NCD 07/M01
                        Q1008 NOSIG=
201711281320 METAR COR EGLL 281320Z AUTO 30006KT 270V340 9999 NCD 07/01
                        Q1008 NOSIG=
201711281250 METAR COR EGLL 281250Z AUTO 30010KT 9999 FEW023 SCT028 07/02
                        Q1008 NOSIG=
201711281220 METAR COR EGLL 281220Z AUTO 30006KT 9999 NCD 06/02 Q1008
                        NOSIG=
201711281150 METAR COR EGLL 281150Z AUTO 30009KT 9999 FEW021 07/02 Q1009
                        NOSIG=
201711281120 METAR COR EGLL 281120Z AUTO 30008KT 9999 NCD 06/02 Q1009
                        NOSIG=
201711281050 METAR COR EGLL 281050Z AUTO 31007KT 9999 NCD 06/03 Q1009
                        NOSIG=
201711281020 METAR COR EGLL 281020Z AUTO 30009KT 9999 FEW016 06/03 Q1009
                        NOSIG=
201711280950 METAR COR EGLL 280950Z AUTO 31005KT 270V340 9999 SCT015 06/03
                        Q1009 NOSIG=
201711280920 METAR COR EGLL 280920Z AUTO 30005KT 9999 BKN016 BKN040 06/03
                        Q1009 NOSIG=
201711280850 METAR COR EGLL 280850Z AUTO 30004KT 280V350 9999 BKN017 05/03
                        Q1008 NOSIG=
201711280820 METAR COR EGLL 280820Z AUTO 30004KT 9999 -RA BKN016 OVC031
                        05/04 Q1008 NOSIG=
201711280750 METAR COR EGLL 280750Z AUTO 27006KT 9999 FEW019 SCT027 BKN032
                        04/03 Q1008 NOSIG=
201711280720 METAR COR EGLL 280720Z AUTO 27006KT 9999 FEW019 BKN049 04/03
                        Q1008 NOSIG=
201711280650 METAR COR EGLL 280650Z AUTO 28006KT 9999 FEW043 04/02 Q1008
                        NOSIG=
201711280620 METAR COR EGLL 280620Z AUTO 28005KT 9999 NCD 03/02 Q1008
                        NOSIG=
201711280550 METAR COR EGLL 280550Z AUTO 27007KT 9999 FEW033 04/02 Q1008
                        NOSIG=
201711280520 METAR COR EGLL 280520Z AUTO 27008KT 9999 -RA FEW031 BKN041
                        04/03 Q1008 NOSIG=
201711280450 METAR COR EGLL 280450Z AUTO 27007KT 9999 BKN038 04/03 Q1008
                        NOSIG=
201711280420 METAR COR EGLL 280420Z AUTO 25006KT 9999 BKN047/// 04/02
                        Q1008 NOSIG=
201711280350 METAR COR EGLL 280350Z AUTO 26006KT 9999 NCD 04/02 Q1008
                        NOSIG=
201711280320 METAR COR EGLL 280320Z AUTO 27007KT 9999 NCD 03/01 Q1008
                        NOSIG=
201711280250 METAR COR EGLL 280250Z AUTO 26005KT 9999 NCD 04/02 Q1009
                        NOSIG=
201711280220 METAR COR EGLL 280220Z AUTO 27007KT 9999 NCD 04/02 Q1009
                        NOSIG=
201711280150 METAR COR EGLL 280150Z AUTO 27008KT 9999 NCD 04/02 Q1009
                        NOSIG=
201711280120 METAR COR EGLL 280120Z AUTO 27007KT 9999 NCD 04/02 Q1009
                        NOSIG=
201711280050 METAR COR EGLL 280050Z AUTO 27008KT 9999 NCD 03/02 Q1009
                        NOSIG=
201711280020 METAR COR EGLL 280020Z AUTO 27008KT 9999 NCD 05/02 Q1009
                        NOSIG=
201711272350 METAR COR EGLL 272350Z AUTO 27008KT 9999 NCD 04/02 Q1010
                        NOSIG=
201711272320 METAR COR EGLL 272320Z AUTO 27009KT 9999 NCD 05/03 Q1010
                        NOSIG=
201711272250 METAR COR EGLL 272250Z AUTO 27011KT 9999 NCD 06/03 Q1009
                        NOSIG=
201711272220 METAR COR EGLL 272220Z AUTO 27010KT 9999 NCD 06/03 Q1009
                        NOSIG=
201711272150 METAR COR EGLL 272150Z AUTO 27012KT 9999 SCT042 07/03 Q1009
                        NOSIG=
201711272120 METAR COR EGLL 272120Z AUTO 27012KT 9999 NCD 06/03 Q1010
                        NOSIG=
201711272050 METAR COR EGLL 272050Z AUTO 27011KT 9999 NCD 07/03 Q1010
                        NOSIG=
201711272020 METAR COR EGLL 272020Z AUTO 27010KT 9999 NCD 07/03 Q1010
                        NOSIG=
201711271950 METAR COR EGLL 271950Z AUTO 28009KT 9999 NCD 07/03 Q1010
                        NOSIG=
201711271920 METAR COR EGLL 271920Z AUTO 27010KT 9999 NCD 07/04 Q1010
                        NOSIG=
201711271850 METAR COR EGLL 271850Z AUTO 27012KT 9999 NCD 07/04 Q1010
                        NOSIG=
201711271820 METAR COR EGLL 271820Z AUTO 28012KT 9999 -RA SCT037 08/04
                        Q1010 NOSIG=
201711271750 METAR COR EGLL 271750Z AUTO 27010KT 9999 -RA SCT046 08/05
                        Q1010 NOSIG=
201711271720 METAR COR EGLL 271720Z AUTO 28009KT 9999 NCD 08/05 Q1010
                        TEMPO SHRA=
201711271650 METAR COR EGLL 271650Z AUTO 28010KT 9999 NCD 08/05 Q1011
                        NOSIG=
201711271620 METAR COR EGLL 271620Z AUTO 28011KT 9999 SCT033/// SCT046///
                        07/05 Q1011 NOSIG=
201711271550 METAR COR EGLL 271550Z AUTO 28017KT 5000 -RA FEW025 BKN037
                        BKN046 08/05 Q1011 RERA NOSIG=
201711271520 METAR COR EGLL 271520Z AUTO 26015KT 9999 FEW046 10/04 Q1011
                        TEMPO SHRA=
201711271450 METAR COR EGLL 271450Z AUTO 25012KT 9999 NCD 10/04 Q1011
                        TEMPO SHRA=
201711271420 METAR COR EGLL 271420Z AUTO 26013KT 9999 NCD 10/05 Q1011
                        TEMPO SHRA=
201711271350 METAR COR EGLL 271350Z AUTO 26015KT 9999 NCD 10/05 Q1011
                        NOSIG=
201711271320 METAR COR EGLL 271320Z AUTO 26015KT 9999 NCD 10/05 Q1011
                        NOSIG=
201711271250 METAR COR EGLL 271250Z AUTO 26014KT 9999 NCD 10/06 Q1012
                        NOSIG=
201711271220 METAR COR EGLL 271220Z AUTO 26013KT 9999 NCD 10/06 Q1012
                        NOSIG=
201711271150 METAR COR EGLL 271150Z AUTO 26015KT 9999 NCD 10/06 Q1013
                        NOSIG=
201711271120 METAR COR EGLL 271120Z AUTO 26014KT 9999 NCD 10/06 Q1013
                        NOSIG=
201711271050 METAR COR EGLL 271050Z AUTO 25014KT 9999 NCD 10/07 Q1013
                        NOSIG=
201711271020 METAR COR EGLL 271020Z AUTO 26015KT 9999 FEW020 SCT036 10/07
                        Q1013 NOSIG=
201711270950 METAR COR EGLL 270950Z AUTO 25015KT 9999 FEW020 10/08 Q1013
                        NOSIG=
201711270920 METAR COR EGLL 270920Z AUTO 24015KT 9999 NCD 11/08 Q1013
                        NOSIG=
201711270850 METAR COR EGLL 270850Z AUTO 24013KT 9999 NCD 10/08 Q1014
                        NOSIG=
201711270820 METAR COR EGLL 270820Z AUTO 24014KT 9999 -RA FEW035/// SCT044///
                        //////TCU 10/08 Q1014 RERA NOSIG=
201711270750 METAR COR EGLL 270750Z AUTO 25016KT 5000 -RA SCT015 BKN022
                        BKN036 10/08 Q1014 RERA REDZ NOSIG=
201711270720 METAR COR EGLL 270720Z AUTO 24018KT 9999 -RA BKN017 10/08
                        Q1014 NOSIG=
201711270650 METAR COR EGLL 270650Z AUTO 24017KT 9999 -RA BKN019 10/07
                        Q1014 TEMPO 6000 RA BKN014=
201711270620 METAR COR EGLL 270620Z AUTO 24016G26KT 9999 -RA BKN019 10/07
                        Q1014 NOSIG=
201711270550 METAR COR EGLL 270550Z AUTO 23016KT 9999 BKN019 10/07 Q1015
                        NOSIG=
201711270520 METAR COR EGLL 270520Z AUTO 23016G26KT 9999 BKN019 09/07
                        Q1015 TEMPO 6000 RA BKN014=
201711270450 METAR COR EGLL 270450Z AUTO 23015KT 9999 SCT019 BKN023 09/07
                        Q1016 NOSIG=
201711270420 METAR COR EGLL 270420Z AUTO 23016KT 9999 -RA SCT024 BKN040
                        BKN048 09/06 Q1017 NOSIG=
201711270350 METAR COR EGLL 270350Z AUTO 23015KT 9999 -RA SCT022 SCT038TCU
                        08/06 Q1017 NOSIG=
201711270320 METAR COR EGLL 270320Z AUTO 23012KT 9999 -RA FEW022 SCT038
                        BKN046TCU 08/06 Q1018 NOSIG=
201711270250 METAR COR EGLL 270250Z AUTO 23014KT 9999 -RA SCT020 BKN045
                        08/06 Q1019 NOSIG=
201711270220 METAR COR EGLL 270220Z AUTO 22011KT 9999 -RA FEW021 SCT041
                        08/06 Q1019 NOSIG=
201711270150 METAR COR EGLL 270150Z AUTO 23013KT 9999 -RA FEW039 08/06
                        Q1020 NOSIG=
201711270120 METAR COR EGLL 270120Z AUTO 23011KT 9999 BKN040 07/05 Q1020
                        NOSIG=
201711270050 METAR COR EGLL 270050Z AUTO 21009KT 9999 FEW042 06/05 Q1021
                        TEMPO BKN014=
201711270020 METAR COR EGLL 270020Z AUTO 21006KT 9999 FEW015 SCT037 06/05
                        Q1021 TEMPO BKN014=
201711262350 METAR COR EGLL 262350Z AUTO 21007KT 9999 FEW016 SCT031 05/04
                        Q1022 TEMPO BKN014=
201711262320 METAR COR EGLL 262320Z AUTO 21006KT 9999 FEW033 SCT047 05/04
                        Q1023 TEMPO BKN014=
201711262250 METAR COR EGLL 262250Z AUTO 20006KT 9999 -RA SCT028 BKN033
                        05/04 Q1023 NOSIG=
201711262220 METAR COR EGLL 262220Z AUTO 22007KT 7000 -RA BKN028 05/03
                        Q1023 NOSIG=
201711262150 METAR COR EGLL 262150Z AUTO 22009KT 9999 SCT039 BKN047 04/03
                        Q1024 NOSIG=
201711262120 METAR COR EGLL 262120Z AUTO 23010KT 9999 NCD 05/03 Q1024
                        NOSIG=
201711262050 METAR COR EGLL 262050Z AUTO 23008KT 9999 NCD 05/02 Q1024
                        NOSIG=
201711262020 METAR COR EGLL 262020Z AUTO 23008KT 9999 NCD 04/02 Q1025
                        NOSIG=
201711261950 METAR COR EGLL 261950Z AUTO 22007KT 9999 NCD 04/02 Q1025
                        NOSIG=
201711261920 METAR COR EGLL 261920Z AUTO 23007KT 9999 NCD 05/02 Q1025
                        NOSIG=
201711261850 METAR COR EGLL 261850Z AUTO 24008KT 9999 NCD 05/02 Q1025
                        NOSIG=
201711261820 METAR COR EGLL 261820Z AUTO 24007KT 9999 NCD 05/01 Q1025
                        NOSIG=
201711261750 METAR COR EGLL 261750Z AUTO 23007KT 9999 NCD 06/02 Q1025
                        NOSIG=
201711261720 METAR EGLL 261720Z AUTO 26007KT 9999 NCD 06/02 Q1025=
201711261650 METAR COR EGLL 261650Z AUTO 27008KT 9999 NCD 05/02 Q1025
                        NOSIG=
201711261620 METAR COR EGLL 261620Z AUTO 27010KT 9999 NCD 06/02 Q1025
                        NOSIG=
201711261550 METAR COR EGLL 261550Z AUTO 27010KT 9999 NCD 06/02 Q1025
                        NOSIG=
201711261520 METAR COR EGLL 261520Z AUTO 27011KT 9999 NCD 07/02 Q1025
                        NOSIG=
201711261450 METAR COR EGLL 261450Z AUTO 27013KT 9999 NCD 07/02 Q1025
                        NOSIG=
201711261420 METAR EGLL 261420Z AUTO 27015KT 9999 FEW037 08/01 Q1025=
201711261350 METAR COR EGLL 261350Z AUTO 28013KT 9999 NCD 08/01 Q1025
                        NOSIG=
201711261320 METAR COR EGLL 261320Z AUTO 28012KT 9999 NCD 08/01 Q1025
                        NOSIG=
201711261250 METAR COR EGLL 261250Z AUTO 28012KT 9999 FEW031 SCT043 08/01
                        Q1025 NOSIG=
201711261220 METAR COR EGLL 261220Z AUTO 28011KT 9999 SCT044 08/01 Q1025
                        NOSIG=
201711261150 METAR COR EGLL 261150Z AUTO 28011KT 9999 NCD 07/01 Q1025
                        NOSIG=
201711261120 METAR COR EGLL 261120Z AUTO 26013KT 9999 NCD 06/01 Q1025
                        NOSIG=
201711261050 METAR COR EGLL 261050Z AUTO 27012KT 9999 NCD 06/01 Q1025
                        NOSIG=
201711261020 METAR EGLL 261020Z AUTO 28011KT 9999 NCD 05/01 Q1025=
201711260950 METAR COR EGLL 260950Z AUTO 27012KT 9999 NCD 04/01 Q1025
                        NOSIG=
201711260920 METAR COR EGLL 260920Z AUTO 26012KT 9999 NCD 04/01 Q1024
                        NOSIG=
201711260850 METAR COR EGLL 260850Z AUTO 27010KT 9999 NCD 03/01 Q1024
                        NOSIG=
201711260820 METAR COR EGLL 260820Z AUTO 27008KT 9999 NCD 02/00 Q1024
                        NOSIG=
201711260750 METAR COR EGLL 260750Z AUTO 27008KT 9999 NCD 02/M00 Q1024
                        NOSIG=
201711260720 METAR COR EGLL 260720Z AUTO 27011KT 9999 NCD 02/00 Q1023
                        NOSIG=
201711260650 METAR COR EGLL 260650Z AUTO 27008KT 9999 NCD 02/00 Q1023
                        NOSIG=
201711260620 METAR COR EGLL 260620Z AUTO 27009KT 9999 NCD 02/00 Q1023
                        NOSIG=
201711260550 METAR COR EGLL 260550Z AUTO 27008KT 9999 NCD 02/00 Q1022
                        NOSIG=
201711260520 METAR EGLL 260520Z AUTO 27007KT 9999 NCD 02/00 Q1022=
201711260450 METAR COR EGLL 260450Z AUTO 27009KT 9999 NCD 02/00 Q1022
                        NOSIG=
201711260420 METAR COR EGLL 260420Z AUTO 26009KT 9999 NCD 02/00 Q1022
                        NOSIG=
201711260350 METAR EGLL 260350Z AUTO 27009KT 9999 NCD 02/00 Q1022=
201711260320 METAR COR EGLL 260320Z AUTO 27009KT 9999 NCD 02/00 Q1022
                        NOSIG=
201711260250 METAR COR EGLL 260250Z AUTO 27010KT 9999 NCD 02/00 Q1022
                        NOSIG=
201711260220 METAR EGLL 260220Z AUTO 27010KT 9999 NCD 02/00 Q1022=
201711260150 METAR COR EGLL 260150Z AUTO 27009KT 9999 NCD 02/00 Q1022
                        NOSIG=
201711260120 METAR COR EGLL 260120Z AUTO 27011KT 9999 NCD 02/00 Q1021
                        NOSIG=
201711260050 METAR COR EGLL 260050Z AUTO 27010KT 9999 NCD 02/00 Q1021
                        NOSIG=
201711260020 METAR COR EGLL 260020Z AUTO 27010KT 9999 NCD 02/00 Q1021
                        NOSIG=
201711252350 METAR COR EGLL 252350Z AUTO 27010KT 9999 NCD 02/00 Q1021
                        NOSIG=
201711252320 METAR COR EGLL 252320Z AUTO 27011KT 9999 NCD 03/00 Q1021
                        NOSIG=
201711252250 METAR COR EGLL 252250Z AUTO 27011KT 9999 NCD 03/00 Q1021
                        NOSIG=
201711252220 METAR COR EGLL 252220Z AUTO 26010KT 9999 NCD 04/00 Q1021
                        NOSIG=
201711252150 METAR EGLL 252150Z AUTO 26009KT 9999 NCD 04/00 Q1021=
201711252120 METAR COR EGLL 252120Z AUTO 27008KT 9999 NCD 04/00 Q1020
                        NOSIG=
201711252050 METAR COR EGLL 252050Z AUTO 27008KT 9999 NCD 04/00 Q1020
                        NOSIG=
201711252020 METAR COR EGLL 252020Z AUTO 26010KT 9999 NCD 03/00 Q1020
                        NOSIG=
201711251950 METAR COR EGLL 251950Z AUTO 27011KT 9999 NCD 04/00 Q1020
                        NOSIG=
201711251920 METAR COR EGLL 251920Z AUTO 26009KT 9999 NCD 04/00 Q1020
                        NOSIG=
201711251850 METAR COR EGLL 251850Z AUTO 25008KT 9999 NCD 04/00 Q1020
                        NOSIG=
201711251820 METAR COR EGLL 251820Z AUTO 27008KT 9999 NCD 04/00 Q1019
                        NOSIG=
201711251750 METAR COR EGLL 251750Z 29009KT 9999 NSC 04/01 Q1019 NOSIG=
201711251720 METAR COR EGLL 251720Z AUTO 28009KT 9999 NCD 05/01 Q1018
                        NOSIG=
201711251650 METAR COR EGLL 251650Z AUTO 28011KT 9999 NCD 05/00 Q1018
                        NOSIG=
201711251620 METAR EGLL 251620Z AUTO 27009KT 9999 FEW035 05/01 Q1018 NOSIG=
201711251550 METAR COR EGLL 251550Z AUTO 28012KT 9999 SCT034 06/00 Q1018
                        NOSIG=
201711251520 METAR COR EGLL 251520Z AUTO 28009KT 9999 SCT033 06/01 Q1018
                        NOSIG=
201711251450 METAR COR EGLL 251450Z AUTO 28013KT 9999 SCT033 07/00 Q1017
                        NOSIG=
201711251420 METAR COR EGLL 251420Z AUTO 29013KT 9999 BKN031 BKN039 07/00
                        Q1017 NOSIG=
201711251350 METAR COR EGLL 251350Z AUTO 28012KT 9999 SCT034 07/00 Q1017
                        NOSIG=
201711251320 METAR COR EGLL 251320Z AUTO 28014KT 9999 FEW032 07/01 Q1017
                        NOSIG=
201711251250 METAR COR EGLL 251250Z AUTO 29012KT 9999 NCD 07/00 Q1017
                        NOSIG=
201711251220 METAR COR EGLL 251220Z AUTO 28013KT 9999 NCD 07/01 Q1017
                        NOSIG=
201711251150 METAR COR EGLL 251150Z AUTO 29011KT 9999 NCD 06/01 Q1017
                        NOSIG=
201711251120 METAR COR EGLL 251120Z AUTO 27013KT 9999 NCD 05/01 Q1016
                        NOSIG=
201711251050 METAR COR EGLL 251050Z AUTO 26015KT 9999 NCD 05/01 Q1016
                        NOSIG=
201711251020 METAR COR EGLL 251020Z AUTO 28008KT 9999 NCD 04/01 Q1016
                        NOSIG=
201711250950 METAR COR EGLL 250950Z AUTO 27012KT 9999 NCD 03/01 Q1016
                        NOSIG=
201711250920 METAR COR EGLL 250920Z AUTO 27009KT 9999 NCD 02/01 Q1016
                        NOSIG=
201711250850 METAR COR EGLL 250850Z AUTO 27007KT 9999 NCD 02/01 Q1015
                        NOSIG=
201711250820 METAR COR EGLL 250820Z AUTO 28008KT 9999 NCD 01/00 Q1015
                        NOSIG=
201711250750 METAR EGLL 250750Z AUTO 27008KT 9999 NCD 01/00 Q1015=
201711250720 METAR COR EGLL 250720Z AUTO 29006KT 9999 NCD 02/01 Q1014
                        NOSIG=
201711250650 METAR COR EGLL 250650Z AUTO 27006KT 9999 NCD 02/01 Q1014
                        NOSIG=
201711250620 METAR COR EGLL 250620Z AUTO 28006KT 9999 NCD 02/00 Q1014
                        NOSIG=
201711250550 METAR COR EGLL 250550Z AUTO 28003KT 9999 NCD 02/01 Q1013
                        NOSIG=
201711250520 METAR COR EGLL 250520Z AUTO 27005KT 9999 NCD 02/00 Q1013
                        NOSIG=
201711250450 METAR COR EGLL 250450Z AUTO 26004KT 230V290 9999 SCT043 01/M00
                        Q1013 NOSIG=
201711250420 METAR COR EGLL 250420Z 27004KT 9999 -RA SCT043 00/M01 Q1013
                        RERA NOSIG=
201711250350 METAR COR EGLL 250350Z AUTO 28003KT 7000 NCD M01/M01 Q1013
                        NOSIG=
201711250320 METAR COR EGLL 250320Z AUTO 28005KT 7000 NCD M01/M01 Q1013
                        NOSIG=
201711250250 METAR COR EGLL 250250Z AUTO 27004KT 7000 NCD M00/M01 Q1013
                        NOSIG=
201711250220 METAR COR EGLL 250220Z AUTO 27004KT 2900 BR NCD M00/M01 Q1012
                        BECMG 6000=
201711250150 METAR COR EGLL 250150Z AUTO 25003KT 6000 NCD M00/M01 Q1012
                        NOSIG=
201711250120 METAR COR EGLL 250120Z AUTO 28004KT 6000 NCD M00/M01 Q1013
                        NOSIG=
201711250050 METAR COR EGLL 250050Z AUTO 28003KT 6000 NCD 01/00 Q1013
                        NOSIG=
201711250020 METAR COR EGLL 250020Z VRB01KT 6000 NSC 01/00 Q1013 NOSIG=
201711242350 METAR COR EGLL 242350Z 28003KT 6000 NSC 01/00 Q1013 NOSIG=
201711242320 METAR COR EGLL 242320Z AUTO 29002KT 6000 NCD 02/01 Q1013
                        NOSIG=
201711242250 METAR COR EGLL 242250Z AUTO 30004KT 280V340 7000 NCD 02/01
                        Q1013 BECMG 5000 BR=
201711242220 METAR COR EGLL 242220Z AUTO 28001KT 6000 NCD 01/01 Q1013
                        BECMG 5000 BR=
201711242150 METAR COR EGLL 242150Z AUTO VRB01KT 7000 NCD 02/00 Q1013
                        BECMG 9000=
201711242120 METAR COR EGLL 242120Z AUTO 35001KT 8000 NCD 03/01 Q1013
                        NOSIG=
201711242050 METAR COR EGLL 242050Z AUTO 30002KT 8000 NCD 03/01 Q1013
                        BECMG 9000=
201711242020 METAR COR EGLL 242020Z AUTO 29004KT 9999 NCD 03/01 Q1013
                        NOSIG=
201711241950 METAR COR EGLL 241950Z AUTO VRB03KT 9999 NCD 04/01 Q1013
                        NOSIG=
201711241920 METAR COR EGLL 241920Z AUTO 29003KT 9999 NCD 04/01 Q1013
                        NOSIG=
201711241850 METAR COR EGLL 241850Z AUTO 31003KT 9999 NCD 05/02 Q1013
                        NOSIG=
201711241820 METAR COR EGLL 241820Z AUTO 29003KT 9999 NCD 05/02 Q1013
                        NOSIG=
201711241750 METAR COR EGLL 241750Z AUTO 32002KT 9999 NCD 06/02 Q1012
                        NOSIG=
201711241720 METAR COR EGLL 241720Z AUTO VRB01KT 9999 NCD 06/01 Q1012
                        NOSIG=
201711241650 METAR COR EGLL 241650Z AUTO VRB02KT 9999 NCD 06/00 Q1012
                        NOSIG=
201711241620 METAR COR EGLL 241620Z AUTO 31003KT 9999 NCD 06/01 Q1012
                        NOSIG=
201711241550 METAR COR EGLL 241550Z AUTO 29003KT 9999 NCD 07/02 Q1012
                        NOSIG=
201711241520 METAR COR EGLL 241520Z AUTO 30004KT 9999 NCD 07/02 Q1012
                        NOSIG=
201711241450 METAR EGLL 241450Z AUTO VRB03KT 9999 NCD 07/02 Q1012=
201711241420 METAR COR EGLL 241420Z AUTO VRB03KT 9999 NCD 07/01 Q1012
                        NOSIG=
201711241350 METAR COR EGLL 241350Z AUTO VRB03KT 9999 NCD 07/02 Q1012
                        NOSIG=
201711241320 METAR COR EGLL 241320Z AUTO VRB03KT 9999 NCD 08/01 Q1012
                        NOSIG=
201711241250 METAR COR EGLL 241250Z AUTO VRB03KT 9999 NCD 08/01 Q1012
                        NOSIG=
201711241220 METAR COR EGLL 241220Z AUTO VRB02KT 9999 NCD 08/02 Q1012
                        NOSIG=
201711241150 METAR COR EGLL 241150Z AUTO VRB01KT 9999 NCD 07/02 Q1012
                        NOSIG=
201711241120 METAR COR EGLL 241120Z AUTO VRB02KT 9999 NCD 07/02 Q1012
                        NOSIG=
201711241050 METAR COR EGLL 241050Z AUTO VRB02KT 9999 NCD 07/02 Q1012
                        NOSIG=
201711241020 METAR COR EGLL 241020Z AUTO VRB02KT 9999 NCD 07/03 Q1012
                        NOSIG=
201711240950 METAR COR EGLL 240950Z AUTO 27003KT 9999 NCD 07/03 Q1011
                        NOSIG=
201711240920 METAR COR EGLL 240920Z AUTO 28004KT 9999 NCD 06/03 Q1011
                        NOSIG=
201711240850 METAR COR EGLL 240850Z AUTO 30005KT 9999 NCD 07/04 Q1010
                        NOSIG=
201711240820 METAR COR EGLL 240820Z AUTO 30003KT 9999 NCD 06/04 Q1010
                        NOSIG=
201711240750 METAR COR EGLL 240750Z AUTO 28005KT 9999 NCD 06/04 Q1010
                        NOSIG=
201711240720 METAR COR EGLL 240720Z AUTO 27004KT 9999 NCD 06/04 Q1009
                        NOSIG=
201711240650 METAR COR EGLL 240650Z AUTO 28004KT 230V300 9999 NCD 07/04
                        Q1009 NOSIG=
201711240620 METAR COR EGLL 240620Z AUTO 26005KT 9999 NCD 06/04 Q1009
                        NOSIG=
201711240550 METAR COR EGLL 240550Z AUTO 27005KT 9999 BKN049 06/04 Q1008
                        NOSIG=
201711240520 METAR COR EGLL 240520Z AUTO 27004KT 9999 FEW048 05/03 Q1008
                        NOSIG=
201711240450 METAR COR EGLL 240450Z AUTO 27005KT 9999 NCD 06/04 Q1007
                        NOSIG=
201711240420 METAR COR EGLL 240420Z AUTO 28005KT 9999 NCD 06/04 Q1007
                        NOSIG=
201711240350 METAR COR EGLL 240350Z AUTO 26005KT 9999 NCD 06/03 Q1007
                        NOSIG=
201711240320 METAR COR EGLL 240320Z AUTO 27004KT 9999 NCD 06/04 Q1006
                        NOSIG=
201711240250 METAR COR EGLL 240250Z AUTO 27004KT 9999 NCD 07/04 Q1006
                        NOSIG=
201711240220 METAR COR EGLL 240220Z AUTO 24005KT 9999 NCD 07/04 Q1006
                        NOSIG=
201711240150 METAR COR EGLL 240150Z AUTO 23003KT 9999 NCD 07/04 Q1006
                        NOSIG=
201711240120 METAR COR EGLL 240120Z AUTO 28004KT 9999 NCD 07/04 Q1006
                        NOSIG=
201711240050 METAR COR EGLL 240050Z AUTO 24004KT 9999 NCD 08/04 Q1006
                        NOSIG=
201711240020 METAR COR EGLL 240020Z AUTO 27004KT 9999 NCD 07/04 Q1006
                        NOSIG=
201711232350 METAR COR EGLL 232350Z AUTO 23006KT 9999 NCD 07/04 Q1006
                        NOSIG=
201711232320 METAR COR EGLL 232320Z AUTO 19006KT 9999 NCD 08/04 Q1006
                        NOSIG=
201711232250 METAR COR EGLL 232250Z AUTO 23007KT 9999 NCD 08/03 Q1006
                        NOSIG=
201711232220 METAR COR EGLL 232220Z AUTO 27006KT 9999 NCD 08/03 Q1006
                        NOSIG=
201711232150 METAR COR EGLL 232150Z AUTO 24008KT 9999 -RA NCD 09/04 Q1007
                        NOSIG=
201711232120 METAR COR EGLL 232120Z AUTO 23008KT 9999 NCD 09/04 Q1007
                        NOSIG=
201711232050 METAR COR EGLL 232050Z AUTO 26008KT 9999 FEW036 08/03 Q1007
                        NOSIG=
201711232020 METAR COR EGLL 232020Z AUTO 27008KT 9999 -RA BKN041 09/04
                        Q1006 NOSIG=
201711231950 METAR COR EGLL 231950Z AUTO 25009KT 9999 FEW043 09/03 Q1006
                        NOSIG=
201711231920 METAR COR EGLL 231920Z AUTO 24011KT 9999 NCD 09/03 Q1006
                        NOSIG=
201711231850 METAR COR EGLL 231850Z AUTO 23009KT 9999 BKN046 09/03 Q1005
                        NOSIG=
201711231820 METAR COR EGLL 231820Z AUTO 23010KT 9999 NCD 10/03 Q1005
                        NOSIG=
201711231750 METAR COR EGLL 231750Z AUTO 25013KT 9999 BKN044 10/03 Q1005
                        NOSIG=
201711231720 METAR COR EGLL 231720Z AUTO 24012KT 9999 OVC043 10/03 Q1004
                        NOSIG=
201711231650 METAR COR EGLL 231650Z AUTO 24014KT 9999 BKN049 11/02 Q1004
                        NOSIG=
201711231620 METAR COR EGLL 231620Z AUTO 23013KT 9999 NCD 11/02 Q1003
                        NOSIG=
201711231550 METAR COR EGLL 231550Z AUTO 24013KT 9999 FEW048 11/02 Q1003
                        NOSIG=
201711231520 METAR COR EGLL 231520Z AUTO 24017KT 9999 BKN046 12/02 Q1002
                        NOSIG=
201711231450 METAR COR EGLL 231450Z AUTO 24018KT 9999 BKN047 12/02 Q1002
                        NOSIG=
201711231420 METAR COR EGLL 231420Z AUTO 24018KT 9999 NCD 12/02 Q1001
                        NOSIG=
201711231350 METAR COR EGLL 231350Z AUTO 24019G29KT 9999 NCD 12/01 Q1001
                        NOSIG=
201711231320 METAR COR EGLL 231320Z AUTO 24018G29KT 9999 SCT043 12/02
                        Q1001 NOSIG=
201711231250 METAR COR EGLL 231250Z AUTO 24019KT 9999 BKN044 11/02 Q1000
                        NOSIG=
201711231220 METAR COR EGLL 231220Z AUTO 24019KT 9999 NCD 11/02 Q1000
                        NOSIG=
201711231150 METAR COR EGLL 231150Z AUTO 24018KT 9999 NCD 11/03 Q1000
                        NOSIG=
201711231120 METAR COR EGLL 231120Z AUTO 23016G26KT 9999 NCD 11/03 Q0999
                        NOSIG=
201711231050 METAR COR EGLL 231050Z AUTO 23016G26KT 9999 NCD 10/03 Q0999
                        NOSIG=
201711231020 METAR COR EGLL 231020Z AUTO 24014KT 9999 NCD 10/03 Q0999
                        NOSIG=
201711230950 METAR COR EGLL 230950Z AUTO 25014KT 9999 NCD 09/03 Q0998
                        NOSIG=
201711230920 METAR COR EGLL 230920Z AUTO 25015KT 9999 NCD 09/03 Q0997
                        NOSIG=
201711230850 METAR EGLL 230850Z AUTO 26016KT 9999 NCD 09/04 Q0996=
201711230820 METAR COR EGLL 230820Z AUTO 27018KT 9999 FEW042 09/04 Q0995
                        NOSIG=
201711230750 METAR COR EGLL 230750Z AUTO 27020KT 9999 FEW027 SCT032 BKN040
                        10/05 Q0994 NOSIG=
201711230720 METAR COR EGLL 230720Z AUTO 27022KT 9999 SCT019/// BKN027///
                        BKN032/// //////CB 11/08 Q0992 RERA
                        NOSIG=
201711230650 METAR COR EGLL 230650Z AUTO 23014KT 9999 BKN027 13/10 Q0990
                        BECMG 23016G26KT=
201711230620 METAR COR EGLL 230620Z AUTO 24016KT 9999 FEW024 SCT030 13/10
                        Q0990 NOSIG=
201711230550 METAR COR EGLL 230550Z AUTO 24015KT 9999 SCT018 BKN023 BKN030
                        13/10 Q0989 NOSIG=
201711230520 METAR COR EGLL 230520Z AUTO 24012KT 9999 SCT017 BKN022 13/10
                        Q0988 NOSIG=
201711230450 METAR COR EGLL 230450Z AUTO 22012KT 9999 SCT020 BKN025 13/11
                        Q0987 NOSIG=
201711230420 METAR COR EGLL 230420Z AUTO 22012KT 9999 //////TCU 13/11
                        Q0987 NOSIG=
201711230350 METAR COR EGLL 230350Z AUTO 21014KT 9999 FEW021/// //////TCU
                        13/11 Q0986 NOSIG=
201711230320 METAR COR EGLL 230320Z AUTO 21015KT 9999 -RA SCT015/// BKN024///
                        BKN036/// //////CB 13/11 Q0986 TEMPO
                        BKN014=
201711230250 METAR COR EGLL 230250Z AUTO 21016KT 8000 -RA SCT018/// BKN025///
                        BKN037/// //////CB 13/11 Q0986 TEMPO
                        4000 +RA=
201711230220 METAR COR EGLL 230220Z AUTO 20018KT 9000 -RA SCT032/// BKN046///
                        //////TCU 14/11 Q0987 TEMPO 4000
                        +RA=
201711230150 METAR COR EGLL 230150Z AUTO 20025KT 9999 -RA SCT032/// //////CB
                        15/10 Q0987 TEMPO 4000 +SHRA=
201711230120 METAR COR EGLL 230120Z AUTO 20022KT 9999 -RA BKN031/// //////CB
                        15/09 Q0987 TEMPO 20025G35KT RA=
201711230050 METAR COR EGLL 230050Z AUTO 20022KT 9999 SCT031 15/10 Q0987
                        TEMPO 20025G35KT RA=
201711230020 METAR COR EGLL 230020Z AUTO 20024G34KT 9999 -RA BKN032///
                        BKN044/// //////TCU 15/09 Q0988 TEMPO
                        RA=
201711222350 METAR COR EGLL 222350Z AUTO 20025G36KT 9999 BKN034 BKN046
                        15/09 Q0988 TEMPO RA=
201711222320 METAR COR EGLL 222320Z AUTO 20023G35KT 9999 BKN033/// //////TCU
                        15/09 Q0989 TEMPO RA=
201711222250 METAR COR EGLL 222250Z AUTO 20020KT 9999 BKN034 15/10 Q0989
                        NOSIG=
201711222220 METAR COR EGLL 222220Z AUTO 21020G33KT 9999 -RA SCT032///
                        BKN042/// //////TCU 15/10 Q0989 NOSIG=
201711222150 METAR COR EGLL 222150Z AUTO 20020KT 9999 SCT026 BKN031 15/10
                        Q0990 TEMPO RA=
201711222120 METAR COR EGLL 222120Z AUTO 21022KT 9999 BKN026 OVC043 15/09
                        Q0990 TEMPO RA=
201711222050 METAR COR EGLL 222050Z AUTO 21022G34KT 9999 BKN032 15/09
                        Q0990 TEMPO RA=
201711222020 METAR COR EGLL 222020Z AUTO 20024G37KT 9999 SCT037 16/08
                        Q0991 TEMPO RA=
201711221950 METAR COR EGLL 221950Z AUTO 20021KT 180V240 9999 BKN042 BKN048
                        16/07 Q0991 TEMPO RA=
201711221920 METAR COR EGLL 221920Z AUTO 20020G30KT 9999 SCT047 15/07
                        Q0991 NOSIG=
201711221850 METAR COR EGLL 221850Z AUTO 20017KT 9999 NCD 15/07 Q0992
                        NOSIG=
201711221820 METAR COR EGLL 221820Z AUTO 19017G27KT 160V230 9999 NCD 14/06
                        Q0992 NOSIG=
201711221750 METAR COR EGLL 221750Z AUTO 19018KT 9999 NCD 14/06 Q0993
                        NOSIG=
201711221720 METAR COR EGLL 221720Z AUTO 19016KT 9999 NCD 14/06 Q0993
                        NOSIG=
201711221650 METAR COR EGLL 221650Z AUTO 19016KT 9999 NCD 14/07 Q0994
                        NOSIG=
201711221620 METAR COR EGLL 221620Z AUTO 19016KT 160V230 9999 SCT042 13/08
                        Q0994 NOSIG=
201711221550 METAR COR EGLL 221550Z AUTO 19016KT 9999 BKN037 14/09 Q0995
                        NOSIG=
201711221520 METAR EGLL 221520Z AUTO 19015G28KT 160V240 9999 BKN024 OVC039
                        14/09 Q0995=
201711221450 METAR COR EGLL 221450Z AUTO 19015G25KT 170V230 9999 BKN024
                        OVC039 14/09 Q0996 NOSIG=
201711221420 METAR COR EGLL 221420Z AUTO 20016KT 180V240 9999 BKN025 BKN030
                        OVC042 14/09 Q0996 NOSIG=
201711221350 METAR COR EGLL 221350Z AUTO 20016KT 9999 BKN024 BKN028 OVC033
                        15/09 Q0997 NOSIG=
201711221320 METAR COR EGLL 221320Z AUTO 20016G28KT 9999 OVC024 15/10
                        Q0997 NOSIG=
201711221250 METAR COR EGLL 221250Z AUTO 20014KT 9999 BKN024 BKN030 OVC039
                        15/10 Q0997 NOSIG=
201711221220 METAR COR EGLL 221220Z AUTO 20014KT 170V230 9999 BKN024 BKN030
                        OVC037 14/10 Q0998 NOSIG=
201711221150 METAR COR EGLL 221150Z AUTO 21017KT 9999 BKN024 OVC039 14/10
                        Q0999 NOSIG=
201711221120 METAR COR EGLL 221120Z AUTO 20015KT 9999 BKN024 OVC035 14/09
                        Q0999 NOSIG=
201711221050 METAR COR EGLL 221050Z AUTO 21016G26KT 9999 BKN024 15/09
                        Q1000 NOSIG=
201711221020 METAR COR EGLL 221020Z AUTO 21017KT 9999 SCT028 SCT042 15/09
                        Q1000 NOSIG=
201711220950 METAR COR EGLL 220950Z AUTO 20018KT 9999 FEW026 SCT032 BKN039
                        15/10 Q1000 NOSIG=
201711220920 METAR COR EGLL 220920Z AUTO 21017KT 9999 SCT026 BKN035 14/10
                        Q1000 NOSIG=
201711220850 METAR COR EGLL 220850Z AUTO 20014KT 170V240 9999 SCT025 BKN029
                        BKN043 14/10 Q1000 NOSIG=
201711220820 METAR COR EGLL 220820Z AUTO 21014KT 180V240 9999 SCT018 BKN024
                        BKN029 14/10 Q1000 NOSIG=
201711220750 METAR COR EGLL 220750Z AUTO 22014KT 9999 BKN021 BKN025 OVC044
                        14/10 Q1001 NOSIG=
201711220720 METAR COR EGLL 220720Z AUTO 22013KT 9999 BKN019 OVC023 14/10
                        Q1001 NOSIG=
201711220650 METAR COR EGLL 220650Z AUTO 21012KT 9999 BKN021 BKN031 OVC041
                        14/10 Q1001 NOSIG=
201711220620 METAR COR EGLL 220620Z AUTO 22014KT 9999 SCT020 BKN025 BKN035
                        14/10 Q1001 NOSIG=
201711220550 METAR COR EGLL 220550Z AUTO 22012KT 9999 FEW023 SCT036 13/10
                        Q1001 NOSIG=
201711220520 METAR COR EGLL 220520Z AUTO 22014KT 9999 BKN022 BKN031 14/10
                        Q1002 NOSIG=
201711220450 METAR COR EGLL 220450Z AUTO 23011KT 9999 BKN022 14/10 Q1002
                        NOSIG=
201711220420 METAR COR EGLL 220420Z AUTO 23014KT 9999 OVC024 14/09 Q1002
                        NOSIG=
201711220350 METAR COR EGLL 220350Z AUTO 22016KT 9999 BKN027 14/09 Q1002
                        NOSIG=
201711220320 METAR COR EGLL 220320Z AUTO 23016KT 9999 BKN021 14/10 Q1003
                        NOSIG=
201711220250 METAR COR EGLL 220250Z AUTO 23014KT 9999 OVC021 14/10 Q1003
                        NOSIG=
201711220220 METAR COR EGLL 220220Z AUTO 22016KT 9999 BKN021 14/10 Q1003
                        NOSIG=
201711220150 METAR COR EGLL 220150Z AUTO 23017KT 9999 BKN019 BKN023 14/11
                        Q1004 NOSIG=
201711220120 METAR EGLL 220120Z AUTO 22014KT 9999 BKN018 14/11 Q1004=
201711220050 METAR EGLL 220050Z AUTO 23015KT 9999 BKN019 14/10 Q1004=
201711220020 METAR COR EGLL 220020Z AUTO 22015KT 9999 SCT019 SCT042 14/11
                        Q1004 TEMPO RA BKN014=
201711212350 METAR COR EGLL 212350Z AUTO 23016KT 9999 BKN019 14/10 Q1005
                        TEMPO RA BKN014=
201711212320 METAR COR EGLL 212320Z AUTO 23016KT 9999 BKN024 BKN039 14/10
                        Q1005 TEMPO RA BKN014=
201711212250 METAR COR EGLL 212250Z AUTO 23014KT 9999 FEW023 BKN030 14/10
                        Q1005 NOSIG=
201711212220 METAR COR EGLL 212220Z AUTO 23015KT 9999 FEW022 BKN027 BKN032
                        14/10 Q1005 NOSIG=
201711212150 METAR COR EGLL 212150Z AUTO 22016KT 9999 SCT021 BKN034 14/10
                        Q1005 NOSIG=
201711212120 METAR COR EGLL 212120Z AUTO 23015KT 9999 BKN020 14/10 Q1005
                        NOSIG=
201711212050 METAR COR EGLL 212050Z AUTO 23015KT 9999 BKN023 BKN036 14/10
                        Q1005 NOSIG=
201711212020 METAR COR EGLL 212020Z AUTO 23014KT 9999 FEW023 SCT040 BKN049
                        14/10 Q1006 NOSIG=
201711211950 METAR COR EGLL 211950Z AUTO 22014KT 9999 SCT020 BKN033 BKN043
                        14/10 Q1006 NOSIG=
201711211920 METAR COR EGLL 211920Z AUTO 23014KT 9999 SCT019 BKN035 14/10
                        Q1007 NOSIG=
201711211850 METAR COR EGLL 211850Z AUTO 22013KT 9999 FEW021 BKN038 13/10
                        Q1007 NOSIG=
201711211820 METAR COR EGLL 211820Z AUTO 22013KT 9999 FEW021 SCT045 13/10
                        Q1007 NOSIG=
201711211750 METAR COR EGLL 211750Z AUTO 22012KT 9999 BKN020 BKN045 13/10
                        Q1007 NOSIG=
201711211720 METAR COR EGLL 211720Z AUTO 23012KT 9999 BKN019 13/10 Q1008
                        NOSIG=
201711211650 METAR COR EGLL 211650Z AUTO 23012KT 9999 SCT018 13/10 Q1008
                        NOSIG=
201711211620 METAR COR EGLL 211620Z AUTO 22010KT 9999 BKN020 OVC048 13/10
                        Q1008 NOSIG=
201711211550 METAR COR EGLL 211550Z AUTO 22010KT 9999 BKN021 OVC045 13/09
                        Q1008 NOSIG=
201711211520 METAR COR EGLL 211520Z AUTO 23009KT 180V250 9999 BKN022 OVC044
                        13/09 Q1008 NOSIG=
201711211450 METAR COR EGLL 211450Z AUTO 23013KT 9999 SCT025 OVC044 13/09
                        Q1009 NOSIG=
201711211420 METAR COR EGLL 211420Z AUTO 23012KT 9999 BKN043 14/09 Q1009
                        NOSIG=
201711211350 METAR COR EGLL 211350Z AUTO 22012KT 9999 FEW021 SCT028 13/09
                        Q1009 NOSIG=
201711211320 METAR COR EGLL 211320Z AUTO 24012KT 9999 BKN020 OVC026 13/09
                        Q1010 NOSIG=
201711211250 METAR COR EGLL 211250Z AUTO 24012KT 9999 OVC020 13/09 Q1010
                        NOSIG=
201711211220 METAR COR EGLL 211220Z AUTO 24013KT 9999 OVC021 13/09 Q1010
                        NOSIG=
201711211150 METAR COR EGLL 211150Z AUTO 24014KT 9999 SCT020 OVC025 13/09
                        Q1011 NOSIG=
201711211120 METAR EGLL 211120Z AUTO 24012KT 9999 OVC018 13/10 Q1011=
201711211050 METAR COR EGLL 211050Z AUTO 24013KT 9999 BKN027 13/09 Q1012
                        NOSIG=
201711211020 METAR COR EGLL 211020Z AUTO 23012KT 9999 SCT019 13/09 Q1012
                        NOSIG=
201711210950 METAR COR EGLL 210950Z AUTO 23010KT 9999 SCT018 12/10 Q1012
                        NOSIG=
201711210920 METAR COR EGLL 210920Z AUTO 23011KT 9999 BKN015 12/10 Q1012
                        NOSIG=
201711210850 METAR COR EGLL 210850Z AUTO 23011KT 9999 BKN015 12/10 Q1012
                        NOSIG=
201711210820 METAR COR EGLL 210820Z AUTO 24010KT 9999 OVC014 12/10 Q1012
                        BECMG BKN015=
201711210750 METAR COR EGLL 210750Z AUTO 24012KT 9999 BKN012 OVC018 12/10
                        Q1012 BECMG BKN015=
201711210720 METAR COR EGLL 210720Z AUTO 24012KT 9999 OVC011 12/10 Q1012
                        BECMG SCT011 BKN018=
201711210650 METAR COR EGLL 210650Z AUTO 25011KT 9999 BKN012 12/10 Q1012
                        BECMG SCT012 BKN020=
201711210620 METAR COR EGLL 210620Z AUTO 23010KT 9999 SCT013 OVC023 12/10
                        Q1012 TEMPO BKN013=
201711210550 METAR EGLL 210550Z AUTO 23010KT 9999 SCT012 OVC021 12/10
                        Q1012=
201711210520 METAR COR EGLL 210520Z AUTO 23009KT 9999 BKN012 OVC020 12/10
                        Q1012 BECMG SCT012 BKN022=
201711210450 METAR COR EGLL 210450Z AUTO 22009KT 9999 FEW014 BKN022 12/10
                        Q1012 TEMPO BKN014=
201711210420 METAR COR EGLL 210420Z AUTO 23009KT 9999 SCT013 BKN022 BKN049
                        12/10 Q1012 TEMPO BKN013=
201711210350 METAR COR EGLL 210350Z AUTO 24010KT 9999 BKN013 BKN019 OVC046
                        13/10 Q1012 BECMG SCT013 BKN020=
201711210320 METAR COR EGLL 210320Z AUTO 25011KT 9999 OVC012 13/11 Q1012
                        NOSIG=
201711210250 METAR COR EGLL 210250Z AUTO 25012KT 9999 OVC012 13/11 Q1012
                        NOSIG=
201711210220 METAR COR EGLL 210220Z AUTO 25013KT 9999 OVC011 13/11 Q1012
                        NOSIG=
201711210150 METAR COR EGLL 210150Z AUTO 25014KT 9999 OVC011 13/11 Q1013
                        NOSIG=
201711210120 METAR COR EGLL 210120Z AUTO 25013KT 9999 OVC011 13/11 Q1013
                        NOSIG=
201711210050 METAR COR EGLL 210050Z AUTO 25013KT 9999 OVC010 13/11 Q1013
                        TEMPO BKN008=
201711210020 METAR COR EGLL 210020Z AUTO 25013KT 9999 BKN010 OVC033 13/11
                        Q1013 TEMPO BKN008=
201711202350 METAR COR EGLL 202350Z AUTO 25012KT 9999 OVC010 13/11 Q1013
                        TEMPO BKN008=
201711202320 METAR EGLL 202320Z AUTO 25011KT 9999 BKN009 OVC013 13/11
                        Q1013=
201711202250 METAR COR EGLL 202250Z AUTO 25011KT 9999 OVC009 13/11 Q1013
                        TEMPO BKN011=
201711202220 METAR COR EGLL 202220Z AUTO 25010KT 9999 OVC010 13/11 Q1013
                        BECMG BKN008=
201711202150 METAR COR EGLL 202150Z AUTO 24009KT 9999 OVC010 13/11 Q1013
                        BECMG BKN008=
201711202120 METAR EGLL 202120Z AUTO 24009KT 9999 OVC011 13/11 Q1013=
201711202050 METAR COR EGLL 202050Z AUTO 24009KT 9999 OVC011 13/11 Q1013
                        TEMPO BKN009=
201711202020 METAR COR EGLL 202020Z AUTO 24010KT 9999 OVC010 13/11 Q1013
                        TEMPO BKN008=
201711201950 METAR COR EGLL 201950Z AUTO 24009KT 9999 -RA OVC009 13/11
                        Q1013 TEMPO BKN011=
201711201920 METAR COR EGLL 201920Z AUTO 25010KT 9999 BKN008 OVC012 13/11
                        Q1013 NOSIG=
201711201850 METAR COR EGLL 201850Z AUTO 24011KT 9999 BKN008 OVC014 13/11
                        Q1013 TEMPO SCT008=
201711201820 METAR COR EGLL 201820Z AUTO 24013KT 9999 BKN011 OVC017 13/11
                        Q1013 BECMG BKN008=
201711201750 METAR COR EGLL 201750Z AUTO 24012KT 9999 BKN011 OVC019 13/11
                        Q1013 NOSIG=
201711201720 METAR COR EGLL 201720Z AUTO 24012KT 9999 BKN015 OVC020 13/11
                        Q1013 BECMG BKN012=
201711201650 METAR COR EGLL 201650Z AUTO 24012KT 9999 OVC014 13/11 Q1013
                        NOSIG=
201711201620 METAR COR EGLL 201620Z AUTO 25013KT 9999 BKN010 OVC016 12/11
                        Q1013 NOSIG=
201711201550 METAR COR EGLL 201550Z AUTO 24010KT 8000 -RA SCT008 BKN011
                        OVC024 12/11 Q1013 REDZ TEMPO BKN008=
201711201520 METAR COR EGLL 201520Z AUTO 24011KT 3400 DZ BKN011/// BKN016///
                        OVC020/// 12/11 Q1013 TEMPO 5000
                        -DZ BKN008=
201711201450 METAR COR EGLL 201450Z AUTO 25011KT 9999 OVC013 12/10 Q1013
                        TEMPO SCT013=
201711201420 METAR COR EGLL 201420Z AUTO 24014KT 9999 SCT012 OVC017 12/10
                        Q1013 NOSIG=
201711201350 METAR COR EGLL 201350Z AUTO 24012KT 9999 BKN012 OVC017 12/10
                        Q1014 NOSIG=
201711201320 METAR COR EGLL 201320Z AUTO 24010KT 4800 -RADZ BKN011 OVC020
                        12/10 Q1014 TEMPO 9999 NSW=
201711201250 METAR COR EGLL 201250Z AUTO 24013KT 9999 -RA OVC015 12/09
                        Q1014 TEMPO 4000 -RADZ BKN012=
201711201220 METAR COR EGLL 201220Z AUTO 24012KT 9999 BKN017 OVC029 12/09
                        Q1015 BECMG BKN014=
201711201150 METAR COR EGLL 201150Z AUTO 25017KT 9999 SCT018 BKN029 13/09
                        Q1015 NOSIG=
201711201120 METAR COR EGLL 201120Z AUTO 25015KT 9999 BKN018 12/09 Q1015
                        NOSIG=
201711201050 METAR COR EGLL 201050Z AUTO 25015KT 9999 OVC017 12/09 Q1015
                        NOSIG=
201711201020 METAR COR EGLL 201020Z AUTO 25015KT 9999 OVC018 12/08 Q1016
                        NOSIG=
201711200950 METAR COR EGLL 200950Z AUTO 25012KT 9999 BKN019 OVC023 11/08
                        Q1016 NOSIG=
201711200920 METAR COR EGLL 200920Z AUTO 24014KT 9999 SCT021 11/08 Q1016
                        NOSIG=
201711200850 METAR COR EGLL 200850Z AUTO 24013KT 9999 BKN021 11/08 Q1016
                        NOSIG=
201711200820 METAR COR EGLL 200820Z AUTO 24012KT 9999 OVC023 10/08 Q1016
                        NOSIG=
201711200750 METAR COR EGLL 200750Z AUTO 23011KT 9999 -RA BKN025 BKN044
                        10/08 Q1016 NOSIG=
201711200720 METAR COR EGLL 200720Z AUTO 22008KT 190V250 9999 FEW026 BKN032
                        09/08 Q1016 NOSIG=
201711200650 METAR COR EGLL 200650Z AUTO 21009KT 180V250 9999 FEW028 BKN032
                        09/08 Q1017 NOSIG=
201711200620 METAR COR EGLL 200620Z AUTO 20008KT 7000 -RA BKN031/// //////TCU
                        08/08 Q1017 NOSIG=
201711200550 METAR COR EGLL 200550Z AUTO 21008KT 6000 -RA BKN028/// OVC044///
                        //////TCU 08/07 Q1018 TEMPO BKN014=
201711200520 METAR COR EGLL 200520Z AUTO 20006KT 170V240 6000 -RA SCT017///
                        BKN026/// OVC033/// //////TCU 08/07
                        Q1018 RERA TEMPO BKN014=
201711200450 METAR COR EGLL 200450Z AUTO 21004KT 180V250 9999 OVC026///
                        //////TCU 07/06 Q1018 TEMPO 4800
                        -RA=
201711200420 METAR COR EGLL 200420Z AUTO 25005KT 220V300 9999 FEW014 SCT019
                        BKN025 07/06 Q1018 TEMPO -RA BKN014=
201711200350 METAR COR EGLL 200350Z AUTO 22005KT 9999 FEW020 SCT027 OVC032
                        07/06 Q1019 TEMPO BKN014=
201711200320 METAR COR EGLL 200320Z AUTO 21006KT 9000 -RA SCT015 SCT019
                        BKN025 07/06 Q1019 TEMPO BKN014=
201711200250 METAR COR EGLL 200250Z AUTO 21005KT 9999 BKN035 OVC046 07/04
                        Q1019 NOSIG=
201711200220 METAR COR EGLL 200220Z AUTO 22003KT 9999 OVC042 06/04 Q1020
                        NOSIG=
201711200150 METAR COR EGLL 200150Z AUTO 20004KT 9999 SCT015 OVC042 06/03
                        Q1020 TEMPO BKN014=
201711200120 METAR COR EGLL 200120Z AUTO 22003KT 9999 BKN014 OVC040 06/03
                        Q1021 TEMPO BKN016=
201711200050 METAR EGLL 200050Z AUTO 19004KT 9999 VCTS BKN017/// BKN036///
                        OVC047/// //////CB 06/03 Q1021=
201711200020 METAR COR EGLL 200020Z AUTO 19004KT 9999 SCT018 BKN036 OVC045
                        05/03 Q1022 NOSIG=
201711192350 METAR COR EGLL 192350Z AUTO 20004KT 9999 FEW036 OVC046 05/03
                        Q1022 NOSIG=
201711192320 METAR COR EGLL 192320Z AUTO 22006KT 9999 FEW037 BKN045 05/03
                        Q1023 NOSIG=
201711192250 METAR COR EGLL 192250Z AUTO 21006KT 190V250 9999 SCT043 05/03
                        Q1023 NOSIG=
201711192220 METAR COR EGLL 192220Z AUTO 21007KT 180V260 9999 FEW043 05/02
                        Q1023 NOSIG=
201711192150 METAR COR EGLL 192150Z AUTO 22006KT 190V260 9999 NCD 05/02
                        Q1023 NOSIG=
201711192120 METAR COR EGLL 192120Z AUTO 22007KT 190V270 9999 NCD 04/02
                        Q1023 NOSIG=
201711192050 METAR COR EGLL 192050Z AUTO 23006KT 9999 NCD 04/02 Q1024
                        NOSIG=
201711192020 METAR COR EGLL 192020Z AUTO 24006KT 210V270 9999 NCD 05/02
                        Q1024 NOSIG=
201711191950 METAR COR EGLL 191950Z AUTO 24005KT 9999 NCD 05/02 Q1024
                        NOSIG=
201711191920 METAR COR EGLL 191920Z AUTO 25007KT 9999 NCD 05/02 Q1024
                        NOSIG=
201711191850 METAR COR EGLL 191850Z AUTO 24006KT 9999 NCD 05/03 Q1024
                        NOSIG=
201711191820 METAR COR EGLL 191820Z AUTO 24006KT 9999 NCD 05/02 Q1024
                        NOSIG=
201711191750 METAR COR EGLL 191750Z AUTO 28005KT 9999 NCD 06/02 Q1024
                        NOSIG=
201711191720 METAR COR EGLL 191720Z AUTO 28005KT 9999 NCD 07/02 Q1024
                        NOSIG=
201711191650 METAR COR EGLL 191650Z AUTO VRB03KT 9999 NCD 07/02 Q1024
                        NOSIG=
201711191620 METAR COR EGLL 191620Z AUTO 29006KT 9999 NCD 07/02 Q1024
                        NOSIG=
201711191550 METAR EGLL 191550Z AUTO 28006KT 9999 NCD 07/02 Q1024=
201711191520 METAR EGLL 191520Z AUTO 29005KT 9999 NCD 07/01 Q1024=
201711191450 METAR COR EGLL 191450Z AUTO 27006KT 9999 NCD 08/01 Q1024
                        NOSIG=
201711191420 METAR COR EGLL 191420Z AUTO 27007KT 9999 NCD 07/01 Q1024
                        NOSIG=
201711191350 METAR COR EGLL 191350Z AUTO 25005KT 220V300 9999 NCD 08/01
                        Q1024 NOSIG=
201711191320 METAR COR EGLL 191320Z AUTO 27005KT 210V310 9999 NCD 08/01
                        Q1024 NOSIG=
201711191250 METAR COR EGLL 191250Z AUTO 29004KT 240V010 9999 NCD 08/01
                        Q1024 NOSIG=
201711191220 METAR COR EGLL 191220Z AUTO 31004KT 260V350 9999 NCD 07/01
                        Q1024 NOSIG=
201711191150 METAR COR EGLL 191150Z AUTO 30005KT 280V360 9999 NCD 07/02
                        Q1024 NOSIG=
201711191120 METAR COR EGLL 191120Z AUTO 29005KT 9999 NCD 06/02 Q1024
                        NOSIG=
201711191050 METAR COR EGLL 191050Z AUTO 29003KT 9999 NCD 05/01 Q1024
                        NOSIG=
201711191020 METAR COR EGLL 191020Z AUTO VRB03KT 9999 NCD 05/01 Q1024
                        NOSIG=
201711190950 METAR COR EGLL 190950Z AUTO 29004KT 9999 NCD 05/02 Q1024
                        NOSIG=
201711190920 METAR COR EGLL 190920Z AUTO 31004KT 9999 NCD 05/02 Q1024
                        NOSIG=
201711190850 METAR COR EGLL 190850Z AUTO 29004KT 9999 NCD 05/02 Q1024
                        NOSIG=
201711190820 METAR COR EGLL 190820Z AUTO 29005KT 9999 NCD 04/02 Q1024
                        NOSIG=
201711190750 METAR COR EGLL 190750Z AUTO 29005KT 9999 NCD 04/02 Q1023
                        NOSIG=
201711190720 METAR COR EGLL 190720Z AUTO 29006KT 9999 NCD 03/02 Q1023
                        NOSIG=
201711190650 METAR COR EGLL 190650Z AUTO 28004KT 9999 NCD 04/02 Q1023
                        NOSIG=
201711190620 METAR COR EGLL 190620Z AUTO 30003KT 9999 NCD 03/02 Q1023
                        NOSIG=
201711190550 METAR COR EGLL 190550Z AUTO 28004KT 260V330 9999 NCD 03/02
                        Q1022 NOSIG=
201711190520 METAR COR EGLL 190520Z AUTO 28004KT 9999 NCD 03/02 Q1022
                        NOSIG=
201711190450 METAR COR EGLL 190450Z AUTO 29003KT 9999 NCD 03/02 Q1022
                        NOSIG=
201711190420 METAR COR EGLL 190420Z AUTO 29003KT 9999 NCD 03/02 Q1022
                        NOSIG=
201711190350 METAR COR EGLL 190350Z AUTO 29003KT 9999 NCD 03/02 Q1022
                        NOSIG=
201711190320 METAR COR EGLL 190320Z AUTO 29004KT 9999 NCD 04/03 Q1022
                        NOSIG=
201711190250 METAR COR EGLL 190250Z AUTO 30004KT 9999 FEW042/// //////CB
                        05/03 Q1022 NOSIG=
201711190220 METAR COR EGLL 190220Z AUTO 29005KT 9999 OVC040 06/04 Q1022
                        NOSIG=
201711190150 METAR COR EGLL 190150Z AUTO 31004KT 9999 BKN041 05/04 Q1022
                        NOSIG=
201711190120 METAR COR EGLL 190120Z AUTO 29005KT 9999 BKN042 05/04 Q1022
                        NOSIG=
201711190050 METAR COR EGLL 190050Z AUTO 29005KT 9999 BKN043 04/04 Q1021
                        NOSIG=
201711190020 METAR COR EGLL 190020Z AUTO 27005KT 9999 FEW040 05/04 Q1021
                        NOSIG=
201711182350 METAR COR EGLL 182350Z AUTO 28005KT 9999 FEW039 05/04 Q1021
                        NOSIG=
201711182320 METAR COR EGLL 182320Z AUTO 28004KT 9999 NCD 05/05 Q1021
                        NOSIG=
201711182250 METAR COR EGLL 182250Z AUTO 29003KT 9999 NCD 07/05 Q1021
                        NOSIG=
201711182220 METAR COR EGLL 182220Z AUTO 28006KT 9999 NCD 07/05 Q1021
                        NOSIG=
201711182150 METAR COR EGLL 182150Z AUTO 28005KT 9999 NCD 08/06 Q1021
                        NOSIG=
201711182120 METAR COR EGLL 182120Z AUTO 28005KT 9999 NCD 07/06 Q1021
                        NOSIG=
201711182050 METAR COR EGLL 182050Z AUTO 27007KT 9999 NCD 08/06 Q1021
                        NOSIG=
201711182020 METAR COR EGLL 182020Z AUTO 27006KT 9999 FEW033 08/06 Q1021
                        NOSIG=
201711181950 METAR COR EGLL 181950Z AUTO 27006KT 9999 BKN032 08/06 Q1021
                        NOSIG=
201711181920 METAR COR EGLL 181920Z AUTO 28007KT 9999 SCT031 BKN041 08/06
                        Q1020 NOSIG=
201711181850 METAR COR EGLL 181850Z AUTO 27006KT 9999 BKN030 OVC044 08/06
                        Q1020 NOSIG=
201711181820 METAR COR EGLL 181820Z AUTO 27006KT 9999 SCT025 BKN029 OVC038
                        08/06 Q1021 NOSIG=
201711181750 METAR COR EGLL 181750Z AUTO 29004KT 9999 -RA BKN023/// OVC032///
                        //////TCU 08/07 Q1021 RERA NOSIG=
201711181720 METAR COR EGLL 181720Z AUTO VRB02KT 9000 -RA BKN019 OVC031
                        08/07 Q1021 NOSIG=
201711181650 METAR COR EGLL 181650Z AUTO 36004KT 310V020 6000 -RA BKN016///
                        OVC028/// //////TCU 08/07 Q1021 NOSIG=
201711181620 METAR COR EGLL 181620Z AUTO 36005KT 320V020 7000 -RA FEW005
                        BKN012 BKN016 08/07 Q1021 TEMPO RADZ=
201711181550 METAR COR EGLL 181550Z 36007KT 330V040 3500 -RADZ FEW003
                        SCT004 BKN006 09/08 Q1021 RERA REDZ
                        TEMPO RADZ BKN004=
201711181520 METAR COR EGLL 181520Z AUTO 31006KT 280V350 2100 DZ OVC005
                        09/08 Q1020 NOSIG=
201711181450 METAR COR EGLL 181450Z AUTO 26008KT 3200 -RADZ OVC006 09/08
                        Q1020 TEMPO RADZ=
201711181420 METAR COR EGLL 181420Z AUTO 25008KT 5000 -RADZ BKN006 OVC009
                        09/08 Q1021 TEMPO 3500 RADZ=
201711181350 METAR COR EGLL 181350Z AUTO 25009KT 4600 -RADZ BKN007 OVC011
                        09/08 Q1021 NOSIG=
201711181320 METAR COR EGLL 181320Z AUTO 25009KT 6000 -RA OVC008 08/07
                        Q1021 NOSIG=
201711181250 METAR COR EGLL 181250Z AUTO 24008KT 8000 -RA OVC008 08/07
                        Q1022 TEMPO BKN010=
201711181220 METAR COR EGLL 181220Z AUTO 24008KT 6000 -RA OVC008 08/07
                        Q1022 TEMPO BKN010=
201711181150 METAR COR EGLL 181150Z AUTO 25010KT 3700 -RADZ OVC010 08/06
                        Q1022 TEMPO 6000 -RADZ=
201711181120 METAR COR EGLL 181120Z AUTO 24011KT 9999 OVC011 08/06 Q1023
                        NOSIG=
201711181050 METAR COR EGLL 181050Z AUTO 23010KT 9999 OVC013 09/05 Q1023
                        NOSIG=
201711181020 METAR COR EGLL 181020Z AUTO 24011KT 9999 FEW015 BKN022 BKN032
                        09/05 Q1023 TEMPO BKN014=
201711180950 METAR COR EGLL 180950Z AUTO 24010KT 9999 BKN020 09/05 Q1023
                        TEMPO BKN014=
201711180920 METAR COR EGLL 180920Z AUTO 24009KT 9999 BKN025 OVC035 08/04
                        Q1024 TEMPO BKN014=
201711180850 METAR COR EGLL 180850Z AUTO 24008KT 9999 BKN025 OVC032 07/04
                        Q1024 NOSIG=
201711180820 METAR COR EGLL 180820Z AUTO 24009KT 9999 BKN026 OVC034 06/04
                        Q1024 NOSIG=
201711180750 METAR COR EGLL 180750Z AUTO 23008KT 9999 SCT029 BKN034 06/03
                        Q1024 NOSIG=
201711180720 METAR COR EGLL 180720Z AUTO 21008KT 9999 SCT028 BKN035 06/03
                        Q1024 NOSIG=
201711180650 METAR COR EGLL 180650Z AUTO 21006KT 180V240 9999 SCT019 SCT023
                        OVC030 06/03 Q1024 NOSIG=
201711180620 METAR COR EGLL 180620Z AUTO 23006KT 9999 BKN022 OVC030 05/02
                        Q1024 NOSIG=
201711180550 METAR COR EGLL 180550Z AUTO 23006KT 9999 BKN030 OVC036 05/02
                        Q1024 NOSIG=
201711180520 METAR COR EGLL 180520Z AUTO 26008KT 9999 OVC034 05/02 Q1025
                        NOSIG=
201711180450 METAR COR EGLL 180450Z AUTO 25008KT 9999 BKN037 05/02 Q1025
                        NOSIG=
201711180420 METAR COR EGLL 180420Z AUTO 25003KT 9999 FEW043 04/01 Q1025
                        NOSIG=
201711180350 METAR COR EGLL 180350Z AUTO 26006KT 9999 BKN038 05/02 Q1025
                        NOSIG=
201711180320 METAR COR EGLL 180320Z AUTO 25007KT 9999 OVC038 06/02 Q1025
                        NOSIG=
201711180250 METAR COR EGLL 180250Z AUTO 26007KT 9999 OVC038 06/02 Q1026
                        NOSIG=
201711180220 METAR COR EGLL 180220Z AUTO 27007KT 9999 OVC037 05/02 Q1026
                        NOSIG=
201711180150 METAR COR EGLL 180150Z AUTO 27007KT 9999 OVC038 06/02 Q1026
                        NOSIG=
201711180120 METAR COR EGLL 180120Z AUTO 27005KT 9999 OVC039 06/01 Q1026
                        NOSIG=
201711180050 METAR COR EGLL 180050Z AUTO 27006KT 9999 BKN041 06/02 Q1026
                        NOSIG=
201711180020 METAR COR EGLL 180020Z AUTO 27007KT 9999 OVC041 06/02 Q1027
                        NOSIG=
201711172350 METAR COR EGLL 172350Z AUTO 25007KT 9999 OVC040 06/02 Q1027
                        NOSIG=
201711172320 METAR COR EGLL 172320Z AUTO 27006KT 9999 OVC041 06/02 Q1027
                        NOSIG=
201711172250 METAR COR EGLL 172250Z AUTO 28007KT 9999 OVC038 06/02 Q1027
                        NOSIG=
201711172220 METAR COR EGLL 172220Z AUTO 26008KT 9999 OVC038 06/02 Q1027
                        NOSIG=
201711172150 METAR COR EGLL 172150Z 25008KT 9999 OVC039 06/01 Q1027 NOSIG=
201711172120 METAR COR EGLL 172120Z AUTO 27005KT 250V310 9999 OVC038 06/01
                        Q1028 NOSIG=
201711172050 METAR COR EGLL 172050Z AUTO 27005KT 9999 BKN038 06/01 Q1028
                        NOSIG=
201711172020 METAR COR EGLL 172020Z AUTO 29005KT 9999 BKN037 06/01 Q1028
                        NOSIG=
201711171950 METAR COR EGLL 171950Z AUTO 28004KT 9999 NCD 05/01 Q1028
                        NOSIG=
201711171920 METAR COR EGLL 171920Z AUTO 28007KT 9999 NCD 06/01 Q1028
                        NOSIG=
201711171850 METAR COR EGLL 171850Z AUTO 29005KT 9999 NCD 07/01 Q1028
                        NOSIG=
201711171820 METAR COR EGLL 171820Z AUTO 29005KT 9999 NCD 06/01 Q1028
                        NOSIG=
201711171750 METAR COR EGLL 171750Z AUTO 26006KT 9999 NCD 07/01 Q1028
                        NOSIG=
201711171720 METAR COR EGLL 171720Z AUTO 29003KT 9999 NCD 06/01 Q1029
                        NOSIG=
201711171650 METAR COR EGLL 171650Z AUTO VRB02KT 9999 NCD 07/00 Q1028
                        NOSIG=
201711171620 METAR COR EGLL 171620Z AUTO VRB02KT 9999 NCD 08/00 Q1028
                        NOSIG=
201711171550 METAR COR EGLL 171550Z AUTO 31004KT 9999 NCD 08/00 Q1028
                        NOSIG=
201711171520 METAR EGLL 171520Z AUTO 29006KT 9999 NCD 08/M00 Q1028 NOSIG=
201711171450 METAR COR EGLL 171450Z AUTO 29005KT 220V020 9999 FEW037 09/00
                        Q1028 NOSIG=
201711171420 METAR COR EGLL 171420Z AUTO 36004KT 310V040 9999 BKN033 10/02
                        Q1028 NOSIG=
201711171350 METAR COR EGLL 171350Z AUTO 29005KT 220V340 9999 OVC032 09/02
                        Q1029 NOSIG=
201711171320 METAR COR EGLL 171320Z AUTO 28004KT 230V360 9999 BKN034 10/02
                        Q1029 NOSIG=
201711171250 METAR COR EGLL 171250Z AUTO VRB03KT 9999 NCD 09/01 Q1030
                        NOSIG=
201711171220 METAR COR EGLL 171220Z AUTO 27004KT 230V300 9999 NCD 09/01
                        Q1030 NOSIG=
201711171150 METAR COR EGLL 171150Z AUTO VRB02KT 9999 NCD 09/02 Q1030
                        NOSIG=
201711171120 METAR COR EGLL 171120Z AUTO VRB02KT 9999 NCD 08/03 Q1030
                        NOSIG=
201711171050 METAR COR EGLL 171050Z AUTO VRB02KT 9999 NCD 06/02 Q1030
                        NOSIG=
201711171020 METAR EGLL 171020Z AUTO VRB03KT 9999 NCD 06/02 Q1030=
201711170950 METAR COR EGLL 170950Z AUTO VRB03KT 8000 NCD 05/02 Q1030
                        NOSIG=
201711170920 METAR COR EGLL 170920Z AUTO VRB02KT 9999 NCD 04/02 Q1030
                        NOSIG=
201711170850 METAR COR EGLL 170850Z AUTO 29003KT 9000 NCD 03/02 Q1030
                        NOSIG=
201711170820 METAR COR EGLL 170820Z 30003KT CAVOK 02/01 Q1030 NOSIG=
201711170750 METAR COR EGLL 170750Z 32003KT CAVOK 01/01 Q1030 NOSIG=
201711170720 METAR COR EGLL 170720Z VRB01KT CAVOK 01/00 Q1030 NOSIG=
201711170650 METAR COR EGLL 170650Z AUTO VRB01KT 9999 NCD 01/00 Q1030
                        NOSIG=
201711170620 METAR COR EGLL 170620Z VRB02KT CAVOK 01/01 Q1030 NOSIG=
201711170550 METAR COR EGLL 170550Z 29001KT CAVOK 01/01 Q1030 NOSIG=
201711170520 METAR COR EGLL 170520Z AUTO 28002KT 9999 NCD 01/00 Q1030
                        NOSIG=
201711170450 METAR COR EGLL 170450Z AUTO 26003KT 9999 NCD 02/01 Q1029
                        NOSIG=
201711170420 METAR COR EGLL 170420Z VRB01KT CAVOK 02/01 Q1029 NOSIG=
201711170350 METAR COR EGLL 170350Z AUTO 30001KT 9999 NCD 02/01 Q1029
                        NOSIG=
201711170320 METAR COR EGLL 170320Z AUTO 30002KT 9999 NCD 03/01 Q1029
                        NOSIG=
201711170250 METAR COR EGLL 170250Z AUTO 29002KT 9999 NCD 03/01 Q1029
                        NOSIG=
201711170220 METAR COR EGLL 170220Z AUTO 26002KT 9999 NCD 04/01 Q1029
                        NOSIG=
201711170150 METAR COR EGLL 170150Z AUTO 36001KT 9999 NCD 04/02 Q1029
                        NOSIG=
201711170120 METAR COR EGLL 170120Z AUTO 01001KT 9999 NCD 04/02 Q1029
                        NOSIG=
201711170050 METAR COR EGLL 170050Z AUTO VRB02KT 9999 NCD 04/02 Q1029
                        NOSIG=
201711170020 METAR COR EGLL 170020Z AUTO VRB03KT 9999 NCD 04/02 Q1028
                        NOSIG=
201711162350 METAR COR EGLL 162350Z AUTO VRB03KT 9999 NCD 05/02 Q1028
                        NOSIG=
201711162320 METAR COR EGLL 162320Z AUTO 35003KT 9999 NCD 06/03 Q1028
                        NOSIG=
201711162250 METAR COR EGLL 162250Z AUTO VRB03KT 9999 NCD 07/03 Q1028
                        NOSIG=
201711162220 METAR COR EGLL 162220Z AUTO VRB03KT 9999 NCD 07/04 Q1028
                        NOSIG=
201711162150 METAR COR EGLL 162150Z AUTO VRB03KT 9999 NCD 08/04 Q1027
                        NOSIG=
201711162120 METAR COR EGLL 162120Z AUTO 35003KT 9999 NCD 08/04 Q1027
                        NOSIG=
201711162050 METAR COR EGLL 162050Z AUTO 36004KT 320V030 9999 BKN047 09/05
                        Q1027 NOSIG=
201711162020 METAR COR EGLL 162020Z AUTO VRB03KT 9999 BKN045 10/05 Q1026
                        NOSIG=
201711161950 METAR COR EGLL 161950Z AUTO VRB03KT 9999 BKN040 10/05 Q1026
                        NOSIG=
201711161920 METAR COR EGLL 161920Z AUTO VRB02KT 9999 OVC036 10/05 Q1026
                        NOSIG=
201711161850 METAR COR EGLL 161850Z AUTO VRB03KT 9999 OVC034 09/06 Q1026
                        NOSIG=
201711161820 METAR COR EGLL 161820Z AUTO VRB03KT 9999 -RA OVC031 10/06
                        Q1025 NOSIG=
201711161750 METAR COR EGLL 161750Z AUTO 36008KT 310V020 9999 -RA OVC026
                        10/05 Q1025 NOSIG=
201711161720 METAR COR EGLL 161720Z AUTO 36008KT 330V030 9999 OVC022 11/06
                        Q1024 TEMPO -RA BKN014=
201711161650 METAR COR EGLL 161650Z AUTO 36007KT 9999 OVC021 11/07 Q1024
                        TEMPO -RA BKN014=
201711161620 METAR COR EGLL 161620Z AUTO 27010KT 9999 BKN025 OVC033 13/07
                        Q1023 TEMPO -RA BKN014=
201711161550 METAR EGLL 161550Z AUTO 27009KT 9999 FEW030 BKN038 13/07
                        Q1023=
201711161520 METAR EGLL 161520Z AUTO 27009KT 9999 FEW032 BKN049 13/07
                        Q1022=
201711161450 METAR COR EGLL 161450Z AUTO 26010KT 9999 BKN044 13/07 Q1022
                        TEMPO -RA BKN014=
201711161420 METAR COR EGLL 161420Z AUTO 24009KT 9999 FEW043 BKN049 14/08
                        Q1022 NOSIG=
201711161350 METAR COR EGLL 161350Z AUTO 24010KT 220V280 9999 NCD 14/08
                        Q1022 NOSIG=
201711161320 METAR COR EGLL 161320Z AUTO 25011KT 9999 NCD 14/08 Q1022
                        NOSIG=
201711161250 METAR COR EGLL 161250Z AUTO 25012KT 9999 FEW030 14/08 Q1022
                        NOSIG=
201711161220 METAR COR EGLL 161220Z AUTO 24011KT 9999 FEW037 14/08 Q1022
                        NOSIG=
201711161150 METAR COR EGLL 161150Z AUTO 26010KT 9999 NCD 13/09 Q1022
                        NOSIG=
201711161120 METAR COR EGLL 161120Z AUTO 24009KT 9999 NCD 13/09 Q1022
                        NOSIG=
201711161050 METAR COR EGLL 161050Z AUTO 24008KT 9999 FEW033 13/09 Q1022
                        NOSIG=
201711161020 METAR COR EGLL 161020Z AUTO 23008KT 190V260 9999 SCT034 BKN041
                        12/09 Q1023 NOSIG=
201711160950 METAR COR EGLL 160950Z AUTO 23007KT 9999 BKN038 11/09 Q1023
                        NOSIG=
201711160920 METAR COR EGLL 160920Z AUTO 24007KT 9999 SCT039 11/09 Q1022
                        NOSIG=
201711160850 METAR COR EGLL 160850Z AUTO 23007KT 9999 SCT038 OVC046 10/09
                        Q1022 NOSIG=
201711160820 METAR COR EGLL 160820Z AUTO 22005KT 9999 BKN047 10/09 Q1022
                        NOSIG=
201711160750 METAR COR EGLL 160750Z AUTO 21006KT 180V260 7000 NCD 10/09
                        Q1022 NOSIG=
201711160720 METAR COR EGLL 160720Z AUTO 23006KT 8000 NCD 10/09 Q1022
                        NOSIG=
201711160650 METAR COR EGLL 160650Z AUTO 24006KT 6000 NCD 10/09 Q1022
                        NOSIG=
201711160620 METAR COR EGLL 160620Z AUTO 20006KT 170V240 4600 HZ NCD 10/09
                        Q1021 BECMG 6000=
201711160550 METAR COR EGLL 160550Z AUTO VRB03KT 3500 BR NCD 10/09 Q1021
                        BECMG 6000=
201711160520 METAR COR EGLL 160520Z AUTO 21004KT 180V240 4100 BR NCD 10/09
                        Q1021 BECMG 6000=
201711160450 METAR COR EGLL 160450Z AUTO 22004KT 190V260 3600 BR NCD 10/09
                        Q1022 BECMG 5000=
201711160420 METAR COR EGLL 160420Z AUTO 22003KT 3700 BR SCT031 BKN037
                        10/09 Q1022 BECMG 5000=
201711160350 METAR COR EGLL 160350Z AUTO 21004KT 2800 BR NCD 10/09 Q1021
                        BECMG 5000=
201711160320 METAR COR EGLL 160320Z AUTO VRB03KT 3300 BR NCD 10/09 Q1021
                        BECMG 5000=
201711160250 METAR COR EGLL 160250Z AUTO 18005KT 3000 BR FEW045 10/09
                        Q1022 BECMG 5000=
201711160220 METAR COR EGLL 160220Z AUTO 21004KT 3200 BR SCT020 SCT030
                        BKN039 10/09 Q1022 BECMG 5000=
201711160150 METAR COR EGLL 160150Z AUTO 20003KT 3100 BR SCT027 OVC031
                        10/09 Q1022 NOSIG=
201711160120 METAR COR EGLL 160120Z AUTO 22003KT 2700 BR FEW007 BKN039
                        OVC048 10/09 Q1023 NOSIG=
201711160050 METAR COR EGLL 160050Z AUTO 22002KT 2500 BR BKN042 10/09
                        Q1023 NOSIG=
201711160020 METAR COR EGLL 160020Z AUTO 22002KT 3500 HZ OVC044 10/09
                        Q1023 TEMPO 2500 BR=
201711152350 METAR COR EGLL 152350Z AUTO 22002KT 3500 HZ OVC044 10/09
                        Q1023 TEMPO 2500 BR=
201711152320 METAR COR EGLL 152320Z AUTO 22004KT 4500 HZ OVC045 10/09
                        Q1023 TEMPO 2500 BR=
201711152250 METAR COR EGLL 152250Z AUTO 24005KT 4800 BR BKN046 10/09
                        Q1023 TEMPO 2500=
201711152220 METAR COR EGLL 152220Z AUTO VRB03KT 2600 BR SCT046 09/09
                        Q1023 TEMPO 2000=
201711152150 METAR COR EGLL 152150Z AUTO 24004KT 200V280 3700 BR SCT025
                        10/09 Q1023 TEMPO 2000=
201711152120 METAR COR EGLL 152120Z AUTO 24005KT 210V290 4500 BR SCT024
                        SCT047 10/09 Q1023 TEMPO 6000=
201711152050 METAR COR EGLL 152050Z AUTO 21004KT 150V250 3800 BR SCT027
                        10/09 Q1023 TEMPO 6000=
201711152020 METAR COR EGLL 152020Z 23004KT 170V270 4100 BR FEW029 SCT042
                        10/09 Q1023 NOSIG=
201711151950 METAR EGLL 151950Z 21005KT 140V240 3900 BR FEW004 SCT039
                        BKN046 10/09 Q1024=
201711151920 METAR COR EGLL 151920Z 25005KT 220V280 3800 BR FEW003 SCT004
                        OVC030 10/10 Q1024 TEMPO BKN003=
201711151850 METAR COR EGLL 151850Z 23004KT 180V270 3800 BR SCT004 BKN040
                        OVC047 10/09 Q1024 TEMPO BKN004=
201711151820 METAR COR EGLL 151820Z 21005KT 170V260 3000 BR SCT002 BKN040
                        10/09 Q1024 TEMPO BKN004=
201711151750 METAR COR EGLL 151750Z 22005KT 180V260 3500 BR SCT002 SCT007
                        BKN048 10/09 Q1024 TEMPO 2500 BKN004=
201711151720 METAR COR EGLL 151720Z 24007KT 3500 BR BKN003 10/09 Q1024
                        TEMPO SCT003 BKN008=
201711151650 METAR COR EGLL 151650Z 21005KT 180V260 4000 BR BKN003 10/09
                        Q1024 NOSIG=
201711151620 METAR COR EGLL 151620Z AUTO 20006KT 150V250 6000 SCT003 BKN008
                        OVC040 10/09 Q1024 TEMPO SCT008 BKN040=
201711151550 METAR COR EGLL 151550Z AUTO 20005KT 160V240 8000 BKN007 OVC041
                        11/10 Q1024 TEMPO SCT007=
201711151520 METAR COR EGLL 151520Z AUTO 23006KT 160V270 8000 BKN008 OVC043
                        12/10 Q1024 TEMPO BKN004=
201711151450 METAR COR EGLL 151450Z VRB03KT 7000 BKN008 11/10 Q1024 NOSIG=
201711151420 METAR COR EGLL 151420Z 20004KT 170V240 8000 BKN007 12/10
                        Q1024 TEMPO SCT007 BKN040=
201711151350 METAR COR EGLL 151350Z VRB03KT 7000 BKN007 11/10 Q1024 NOSIG=
201711151320 METAR COR EGLL 151320Z 26004KT 220V280 4000 BR FEW002 BKN004
                        10/10 Q1025 BECMG 6000 NSW BKN006=
201711151250 METAR COR EGLL 151250Z 27005KT 3500 HZ SCT002 BKN003 10/09
                        Q1025 TEMPO BKN002=
201711151220 METAR COR EGLL 151220Z AUTO VRB03KT 3300 HZ OVC002 11/10
                        Q1025 BECMG 5000 BKN003=
201711151150 METAR COR EGLL 151150Z AUTO VRB03KT 2700 HZ BKN002 OVC007
                        11/10 Q1025 BECMG 4000 BKN003=
201711151120 METAR COR EGLL 151120Z AUTO VRB02KT 2400 HZ OVC002/// 10/10
                        Q1025 BECMG 4000 BKN003=
201711151050 METAR COR EGLL 151050Z AUTO VRB02KT 2700 HZ OVC002 11/10
                        Q1025 BECMG 4000 BKN003=
201711151020 METAR COR EGLL 151020Z AUTO VRB02KT 2600 BR OVC002 10/10
                        Q1025 BECMG 4000 BKN003=
201711150950 METAR COR EGLL 150950Z AUTO VRB03KT 2400 BR OVC002 10/10
                        Q1025 TEMPO BKN003=
201711150920 METAR EGLL 150920Z AUTO 28004KT 240V320 4000 BR BKN003 OVC006
                        10/10 Q1025=
201711150850 METAR COR EGLL 150850Z AUTO 27004KT 220V320 5000 BR OVC003
                        10/10 Q1025 TEMPO 3000 -RADZ=
201711150820 METAR COR EGLL 150820Z AUTO 26004KT 230V290 6000 OVC004 10/10
                        Q1025 TEMPO 4000 -RADZ=
201711150750 METAR COR EGLL 150750Z AUTO 28004KT 7000 OVC004 10/09 Q1024
                        TEMPO 4000 -RADZ=
201711150720 METAR COR EGLL 150720Z AUTO VRB03KT 4000 BR OVC005 10/09
                        Q1024 TEMPO -RADZ BKN003=
201711150650 METAR COR EGLL 150650Z AUTO 21004KT 160V240 6000 OVC004 10/09
                        Q1024 TEMPO 3000 -RADZ=
201711150620 METAR COR EGLL 150620Z AUTO VRB03KT 6000 SCT002 OVC031 10/09
                        Q1024 TEMPO 3000 -RADZ BKN003=
201711150550 METAR COR EGLL 150550Z AUTO 23004KT 200V260 6000 SCT004 BKN008
                        BKN027 10/09 Q1024 REDZ TEMPO 2500
                        -RADZ BKN003=
201711150520 METAR COR EGLL 150520Z AUTO 21004KT 130V240 2500 DZ SCT007
                        BKN021 OVC026 10/09 Q1024 TEMPO BKN004=
201711150450 METAR COR EGLL 150450Z AUTO 22004KT 7000 -RA OVC008 10/09
                        Q1024 REDZ TEMPO 3000 -RADZ BKN004=
201711150420 METAR COR EGLL 150420Z AUTO 22003KT 9999 -RA OVC007 10/09
                        Q1024 TEMPO 3000 -RADZ BKN004=
201711150350 METAR COR EGLL 150350Z AUTO 20005KT 9999 OVC007 10/09 Q1023
                        TEMPO 4000 -RADZ BKN004=
201711150320 METAR COR EGLL 150320Z AUTO 20005KT 9999 FEW007 OVC011 10/09
                        Q1023 BECMG BKN007=
201711150250 METAR COR EGLL 150250Z AUTO 21004KT 9999 BKN013 OVC017 10/09
                        Q1023 BECMG BKN009=
201711150220 METAR COR EGLL 150220Z AUTO VRB02KT 9999 OVC014 10/09 Q1024
                        TEMPO BKN009=
201711150150 METAR COR EGLL 150150Z AUTO 22003KT 9999 BKN015 OVC020 10/09
                        Q1024 BECMG BKN010=
201711150120 METAR COR EGLL 150120Z AUTO 23004KT 9999 BKN017 OVC048 10/09
                        Q1024 TEMPO BKN010=
201711150050 METAR COR EGLL 150050Z AUTO 23006KT 8000 -RA OVC017 10/09
                        Q1024 BECMG BKN010=
201711150020 METAR COR EGLL 150020Z AUTO 24006KT 9999 BKN016 OVC042 10/09
                        Q1024 BECMG BKN010=
201711142350 METAR COR EGLL 142350Z AUTO 24006KT 9999 FEW018 SCT030 BKN039
                        10/08 Q1024 TEMPO BKN010=
201711142320 METAR COR EGLL 142320Z AUTO 23006KT 9999 FEW021 BKN041 10/08
                        Q1024 TEMPO BKN010=
201711142250 METAR COR EGLL 142250Z AUTO 23007KT 9999 FEW019 OVC041 11/08
                        Q1024 NOSIG=
201711142220 METAR COR EGLL 142220Z AUTO 24009KT 9999 OVC043 11/09 Q1024
                        NOSIG=
201711142150 METAR COR EGLL 142150Z AUTO 24009KT 9999 SCT014 OVC042 11/09
                        Q1024 TEMPO BKN014=
201711142120 METAR COR EGLL 142120Z AUTO 24009KT 9999 OVC015 11/09 Q1024
                        BECMG BKN013=
201711142050 METAR COR EGLL 142050Z AUTO 24007KT 9999 BKN015 OVC037 11/09
                        Q1024 TEMPO BKN014=
201711142020 METAR COR EGLL 142020Z AUTO 24007KT 9999 BKN014 OVC037 11/09
                        Q1024 TEMPO SCT014=
201711141950 METAR COR EGLL 141950Z AUTO 25008KT 9999 BKN013 11/09 Q1024
                        TEMPO BKN015=
201711141920 METAR COR EGLL 141920Z AUTO 24008KT 9999 BKN012 OVC036 11/09
                        Q1024 TEMPO SCT012=
201711141850 METAR COR EGLL 141850Z AUTO 24008KT 9999 BKN012 OVC020 11/09
                        Q1024 BECMG SCT012=
201711141820 METAR COR EGLL 141820Z AUTO 24007KT 9999 -RA BKN009 OVC018
                        10/09 Q1024 TEMPO SCT012=
201711141750 METAR COR EGLL 141750Z AUTO 24008KT 9999 BKN010 OVC018 11/09
                        Q1024 TEMPO SCT010=
201711141720 METAR EGLL 141720Z AUTO 24007KT 9999 -RA BKN007 BKN013 OVC018
                        11/09 Q1023=
201711141650 METAR EGLL 141650Z AUTO 25008KT 9999 -RA BKN006 OVC012 11/09
                        Q1023=
201711141620 METAR COR EGLL 141620Z AUTO 25008KT 8000 BKN005 OVC009 10/09
                        Q1023 NOSIG=
201711141550 METAR COR EGLL 141550Z AUTO 25009KT 9999 BKN008 OVC012 11/09
                        Q1023 TEMPO 4500 -DZ=
201711141520 METAR COR EGLL 141520Z AUTO 24009KT 200V270 9999 OVC011 11/09
                        Q1023 TEMPO -DZ BKN007=
201711141450 METAR COR EGLL 141450Z AUTO 24008KT 9999 OVC011 11/08 Q1023
                        NOSIG=
201711141420 METAR COR EGLL 141420Z AUTO 24008KT 9999 OVC012 11/08 Q1023
                        NOSIG=
201711141350 METAR EGLL 141350Z AUTO 24009KT 9999 OVC012 11/08 Q1023=
201711141320 METAR COR EGLL 141320Z AUTO 25009KT 9999 BKN012 OVC023 11/08
                        Q1023 NOSIG=
201711141250 METAR COR EGLL 141250Z AUTO 26009KT 9999 SCT012 OVC021 11/08
                        Q1024 BECMG BKN012=
201711141220 METAR COR EGLL 141220Z AUTO 26009KT 9999 BKN022 OVC038 11/08
                        Q1024 BECMG BKN012=
201711141150 METAR COR EGLL 141150Z AUTO 26010KT 9999 FEW014 OVC021 11/08
                        Q1024 BECMG BKN012=
201711141120 METAR COR EGLL 141120Z AUTO 26010KT 9999 FEW014 BKN022 11/07
                        Q1024 BECMG BKN012=
201711141050 METAR COR EGLL 141050Z AUTO 25008KT 9999 OVC023 11/07 Q1024
                        TEMPO BKN014=
201711141020 METAR COR EGLL 141020Z AUTO 26007KT 230V290 9999 BKN022 OVC049
                        10/07 Q1024 TEMPO BKN014=
201711140950 METAR COR EGLL 140950Z AUTO 26008KT 9999 BKN014 BKN031 10/07
                        Q1024 TEMPO SCT014=
201711140920 METAR COR EGLL 140920Z AUTO 25007KT 9999 BKN014 09/06 Q1024
                        TEMPO BKN015=
201711140850 METAR COR EGLL 140850Z AUTO 24009KT 9999 NCD 09/06 Q1023
                        NOSIG=
201711140820 METAR COR EGLL 140820Z AUTO 24009KT 9999 SCT048 09/06 Q1023
                        NOSIG=
201711140750 METAR COR EGLL 140750Z AUTO 24008KT 9999 OVC045 08/05 Q1023
                        NOSIG=
201711140720 METAR COR EGLL 140720Z AUTO 24009KT 9999 BKN039 OVC046 08/05
                        Q1023 NOSIG=
201711140650 METAR COR EGLL 140650Z AUTO 25009KT 9999 BKN034 OVC042 09/05
                        Q1023 NOSIG=
201711140620 METAR EGLL 140620Z AUTO 24008KT 9999 BKN042 08/05 Q1023=
201711140550 METAR COR EGLL 140550Z AUTO 22006KT 9999 NCD 07/04 Q1023
                        NOSIG=
201711140520 METAR COR EGLL 140520Z AUTO 22008KT 9999 -RA NCD 07/04 Q1023
                        NOSIG=
201711140450 METAR COR EGLL 140450Z AUTO 22007KT 9999 -RA NCD 07/03 Q1023
                        NOSIG=
201711140420 METAR COR EGLL 140420Z AUTO 23008KT 9999 FEW027 07/03 Q1023
                        NOSIG=
201711140350 METAR COR EGLL 140350Z AUTO 23008KT 9999 NCD 07/03 Q1024
                        NOSIG=
201711140320 METAR COR EGLL 140320Z AUTO 23007KT 9999 NCD 06/03 Q1024
                        NOSIG=
201711140250 METAR COR EGLL 140250Z AUTO 23007KT 9999 NCD 06/03 Q1024
                        NOSIG=
201711140220 METAR COR EGLL 140220Z AUTO 22008KT 9999 NCD 06/02 Q1024
                        NOSIG=
201711140150 METAR COR EGLL 140150Z AUTO 24007KT 9999 NCD 06/02 Q1025
                        NOSIG=
201711140120 METAR COR EGLL 140120Z AUTO 23006KT 9999 NCD 06/02 Q1025
                        NOSIG=
201711140050 METAR COR EGLL 140050Z AUTO 22005KT 9999 NCD 06/02 Q1025
                        NOSIG=
201711140020 METAR COR EGLL 140020Z AUTO 21005KT 9999 FEW027 05/02 Q1025
                        NOSIG=
201711132350 METAR COR EGLL 132350Z AUTO 22004KT 9999 NCD 05/02 Q1025
                        NOSIG=
201711132320 METAR COR EGLL 132320Z AUTO 21005KT 9999 NCD 05/02 Q1026
                        NOSIG=
201711132250 METAR COR EGLL 132250Z AUTO 22007KT 180V250 9999 NCD 05/02
                        Q1026=
201711132220 METAR COR EGLL 132220Z AUTO 23006KT 190V260 9999 NCD 05/02
                        Q1026 NOSIG=
201711132150 METAR COR EGLL 132150Z AUTO 23005KT 9999 NCD 05/02 Q1026
                        NOSIG=
201711132120 METAR COR EGLL 132120Z AUTO 25008KT 9999 NCD 05/02 Q1026
                        NOSIG=
201711132050 METAR COR EGLL 132050Z AUTO 25008KT 9999 NCD 05/01 Q1026
                        NOSIG=
201711132020 METAR COR EGLL 132020Z AUTO 24006KT 9999 NCD 06/01 Q1026
                        NOSIG=
201711131950 METAR COR EGLL 131950Z AUTO 26006KT 9999 NCD 05/01 Q1027
                        NOSIG=
201711131920 METAR COR EGLL 131920Z AUTO 28005KT 9999 NCD 05/01 Q1027
                        NOSIG=
201711131850 METAR COR EGLL 131850Z AUTO 29004KT 9999 NCD 06/00 Q1027
                        NOSIG=
201711131820 METAR COR EGLL 131820Z AUTO 29004KT 9999 NCD 06/01 Q1027
                        NOSIG=
201711131750 METAR COR EGLL 131750Z AUTO 31004KT 9999 NCD 07/01 Q1027
                        NOSIG=
201711131720 METAR COR EGLL 131720Z AUTO 30004KT 9999 NCD 07/01 Q1027
                        NOSIG=
201711131650 METAR COR EGLL 131650Z AUTO 30004KT 9999 NCD 07/01 Q1027
                        NOSIG=
201711131620 METAR COR EGLL 131620Z AUTO 31004KT 9999 NCD 07/01 Q1027
                        NOSIG=
201711131550 METAR COR EGLL 131550Z AUTO 30005KT 9999 NCD 07/01 Q1027
                        NOSIG=
201711131520 METAR COR EGLL 131520Z AUTO 29005KT 9999 NCD 07/01 Q1026
                        NOSIG=
201711131450 METAR COR EGLL 131450Z AUTO 29004KT 9999 NCD 07/01 Q1026
                        NOSIG=
201711131420 METAR COR EGLL 131420Z AUTO 30006KT 270V340 9999 NCD 07/01
                        Q1026 NOSIG=
201711131350 METAR COR EGLL 131350Z AUTO 30006KT 9999 NCD 07/01 Q1026
                        NOSIG=
201711131320 METAR COR EGLL 131320Z AUTO 30006KT 260V330 9999 NCD 07/01
                        Q1027 NOSIG=
201711131250 METAR COR EGLL 131250Z AUTO 30007KT 9999 NCD 07/01 Q1027
                        NOSIG=
201711131220 METAR COR EGLL 131220Z AUTO 31007KT 280V340 9999 NCD 07/01
                        Q1027 NOSIG=
201711131150 METAR COR EGLL 131150Z AUTO 34004KT 290V030 9999 NCD 07/01
                        Q1027 NOSIG=
201711131120 METAR COR EGLL 131120Z AUTO 32006KT 300V360 9999 NCD 07/01
                        Q1027 NOSIG=
201711131050 METAR COR EGLL 131050Z AUTO VRB03KT 9999 NCD 07/01 Q1027
                        NOSIG=
201711131020 METAR COR EGLL 131020Z AUTO 36005KT 320V030 9999 NCD 06/00
                        Q1027 NOSIG=
201711130950 METAR COR EGLL 130950Z AUTO 32005KT 300V360 9999 NCD 06/00
                        Q1027 NOSIG=
201711130920 METAR COR EGLL 130920Z AUTO 35005KT 290V040 9999 NCD 05/M00
                        Q1026 NOSIG=
201711130850 METAR COR EGLL 130850Z AUTO 33005KT 300V020 9999 NCD 04/M00
                        Q1026 NOSIG=
201711130820 METAR COR EGLL 130820Z AUTO 31005KT 9999 NCD 03/M01 Q1026
                        NOSIG=
201711130750 METAR COR EGLL 130750Z AUTO 32004KT 290V350 9999 NCD 03/M01
                        Q1026 NOSIG=
201711130720 METAR COR EGLL 130720Z AUTO 31004KT 280V350 9999 NCD 03/M01
                        Q1025 NOSIG=
201711130650 METAR COR EGLL 130650Z AUTO 30004KT 9999 NCD 03/M01 Q1025
                        NOSIG=
201711130620 METAR COR EGLL 130620Z AUTO 29005KT 9999 NCD 03/M01 Q1025
                        NOSIG=
201711130550 METAR COR EGLL 130550Z AUTO 30005KT 9999 NCD 02/M01 Q1025
                        NOSIG=
201711130520 METAR COR EGLL 130520Z AUTO 30005KT 9999 NCD 03/M01 Q1024
                        NOSIG=
201711130450 METAR COR EGLL 130450Z AUTO 30004KT 260V010 9999 NCD 03/M01
                        Q1024 NOSIG=
201711130420 METAR COR EGLL 130420Z AUTO VRB02KT 9999 NCD 03/M01 Q1024
                        NOSIG=
201711130350 METAR COR EGLL 130350Z AUTO 31004KT 270V020 9999 NCD 03/M01
                        Q1024 NOSIG=
201711130320 METAR COR EGLL 130320Z AUTO 32005KT 270V010 9999 NCD 03/M01
                        Q1023 NOSIG=
201711130250 METAR COR EGLL 130250Z AUTO 32006KT 280V020 9999 NCD 03/M01
                        Q1023 NOSIG=
201711130220 METAR COR EGLL 130220Z AUTO 31007KT 280V350 9999 NCD 03/M01
                        Q1023 NOSIG=
201711130150 METAR COR EGLL 130150Z AUTO 32007KT 290V350 9999 NCD 04/M01
                        Q1023 NOSIG=
201711130120 METAR COR EGLL 130120Z AUTO 32007KT 290V350 9999 NCD 04/M01
                        Q1022 NOSIG=
201711130050 METAR COR EGLL 130050Z AUTO 32006KT 290V010 9999 NCD 04/M01
                        Q1022 NOSIG=
201711130020 METAR COR EGLL 130020Z AUTO 32007KT 290V360 9999 NCD 04/M01
                        Q1022 NOSIG=
201711122350 METAR COR EGLL 122350Z AUTO 33007KT 290V020 9999 NCD 04/M01
                        Q1022 NOSIG=
201711122320 METAR COR EGLL 122320Z AUTO 33008KT 300V010 9999 NCD 05/M01
                        Q1021 NOSIG=
201711122250 METAR COR EGLL 122250Z AUTO 33010KT 310V010 9999 NCD 05/M01
                        Q1021 NOSIG=
201711122220 METAR COR EGLL 122220Z AUTO 33011KT 9999 NCD 06/M00 Q1020
                        NOSIG=
201711122150 METAR COR EGLL 122150Z AUTO 32010KT 9999 NCD 06/M00 Q1020
                        NOSIG=
201711122120 METAR COR EGLL 122120Z AUTO 31008KT 9999 BKN035 06/M00 Q1020
                        NOSIG=
201711122050 METAR COR EGLL 122050Z AUTO 32009KT 290V010 9999 SCT039 06/M00
                        Q1019 NOSIG=
201711122020 METAR COR EGLL 122020Z AUTO 32009KT 280V360 9999 SCT040 06/M00
                        Q1019 NOSIG=
201711121950 METAR COR EGLL 121950Z AUTO 32010KT 9999 BKN040 07/M00 Q1018
                        NOSIG=
201711121920 METAR COR EGLL 121920Z AUTO 31010KT 280V360 9999 BKN039 07/M00
                        Q1018 NOSIG=
201711121850 METAR COR EGLL 121850Z AUTO 31011KT 9999 OVC040 07/M00 Q1017
                        NOSIG=
201711121820 METAR COR EGLL 121820Z AUTO 31010KT 9999 BKN042 07/M00 Q1017
                        NOSIG=
201711121750 METAR COR EGLL 121750Z AUTO 31009KT 9999 BKN043 07/M00 Q1016
                        NOSIG=
201711121720 METAR COR EGLL 121720Z AUTO 30008KT 9999 SCT043 07/M00 Q1015
                        NOSIG=
201711121650 METAR COR EGLL 121650Z AUTO 31007KT 9999 NCD 07/M00 Q1015
                        NOSIG=
201711121620 METAR COR EGLL 121620Z AUTO 31008KT 250V330 9999 NCD 07/00
                        Q1014 NOSIG=
201711121550 METAR COR EGLL 121550Z AUTO 32009KT 290V360 9999 NCD 08/M00
                        Q1013 NOSIG=
201711121520 METAR COR EGLL 121520Z AUTO 32010KT 290V010 9999 FEW044 08/M00
                        Q1013 NOSIG=
201711121450 METAR COR EGLL 121450Z AUTO 32011KT 290V360 9999 FEW047 08/M00
                        Q1012 NOSIG=
201711121420 METAR EGLL 121420Z AUTO 32011G22KT 290V350 9999 FEW041 08/M00
                        Q1012=
201711121350 METAR COR EGLL 121350Z AUTO 33009KT 290V360 9999 SCT030 BKN042
                        08/01 Q1011 NOSIG=
201711121320 METAR COR EGLL 121320Z AUTO 32011KT 280V010 9999 SCT032 BKN043
                        08/02 Q1011 NOSIG=
201711121250 METAR COR EGLL 121250Z AUTO 32011KT 9999 BKN029 08/02 Q1011
                        NOSIG=
201711121220 METAR COR EGLL 121220Z AUTO 30014KT 280V350 9999 SCT031 BKN045
                        08/02 Q1010 NOSIG=
201711121150 METAR COR EGLL 121150Z AUTO 31012G22KT 280V340 9999 FEW030
                        08/02 Q1010 NOSIG=
201711121120 METAR COR EGLL 121120Z AUTO 30013KT 9999 SCT028 08/03 Q1010
                        NOSIG=
201711121050 METAR COR EGLL 121050Z AUTO 30012KT 9999 SCT025 BKN031 07/03
                        Q1010 NOSIG=
201711121020 METAR COR EGLL 121020Z AUTO 30012KT 9999 BKN023 07/04 Q1009
                        NOSIG=
201711120950 METAR COR EGLL 120950Z AUTO 31011KT 260V340 9999 SCT026 07/04
                        Q1009 NOSIG=
201711120920 METAR COR EGLL 120920Z AUTO 31009KT 260V360 9999 NCD 07/04
                        Q1009 NOSIG=
201711120850 METAR COR EGLL 120850Z AUTO 30009KT 9999 FEW022 07/04 Q1009
                        NOSIG=
201711120820 METAR COR EGLL 120820Z AUTO 30007KT 9999 FEW035 07/04 Q1009
                        NOSIG=
201711120750 METAR COR EGLL 120750Z AUTO 31008KT 280V350 9999 FEW034 07/04
                        Q1008 NOSIG=
201711120720 METAR COR EGLL 120720Z AUTO 30007KT 9999 NCD 07/05 Q1008
                        NOSIG=
201711120650 METAR COR EGLL 120650Z 31006KT 280V350 9999 FEW016 SCT024
                        07/05 Q1008 NOSIG=
201711120620 METAR COR EGLL 120620Z 30007KT 7000 -RA SCT008 SCT014 BKN020
                        07/06 Q1008 NOSIG=
201711120550 METAR COR EGLL 120550Z 29007KT 9999 FEW006 SCT010 BKN046
                        07/06 Q1008 TEMPO BKN012=
201711120520 METAR COR EGLL 120520Z 27007KT 9000 FEW006 SCT010 BKN017
                        07/06 Q1008 NOSIG=
201711120450 METAR COR EGLL 120450Z AUTO 27006KT 8000 -RA BKN004 BKN008
                        OVC034 07/06 Q1008 BECMG BKN012=
201711120420 METAR COR EGLL 120420Z AUTO 29006KT 4100 -DZ SCT005 BKN008
                        OVC032 07/06 Q1008 TEMPO 9999 NSW
                        BKN012=
201711120350 METAR COR EGLL 120350Z AUTO 28007KT 6000 -RA SCT008/// BKN012///
                        BKN022/// //////TCU 07/06 Q1008 TEMPO
                        BKN012=
201711120320 METAR COR EGLL 120320Z AUTO 28006KT 9000 -RA BKN013/// BKN023///
                        BKN029/// //////TCU 07/05 Q1009 TEMPO
                        BKN009=
201711120250 METAR COR EGLL 120250Z AUTO 25004KT 8000 -RA SCT015/// BKN023///
                        BKN029/// //////TCU 07/05 Q1009 TEMPO
                        RA=
201711120220 METAR COR EGLL 120220Z AUTO 28004KT 9999 -RA FEW029/// BKN036///
                        //////TCU 07/05 Q1009 TEMPO RA=
201711120150 METAR COR EGLL 120150Z AUTO 26003KT 9000 -RA FEW038 07/05
                        Q1010 NOSIG=
201711120120 METAR COR EGLL 120120Z AUTO 24006KT 9000 -RA SCT030 BKN040
                        BKN048 08/06 Q1010 NOSIG=
201711120050 METAR COR EGLL 120050Z AUTO 24005KT 6000 -RA FEW025 BKN029
                        BKN044 08/07 Q1010 NOSIG=
201711120020 METAR COR EGLL 120020Z AUTO 22003KT 6000 -RA BKN041 08/07
                        Q1011 NOSIG=
201711112350 METAR COR EGLL 112350Z AUTO 27003KT 9999 BKN043 08/06 Q1011
                        NOSIG=
201711112320 METAR COR EGLL 112320Z AUTO 27003KT 6000 OVC046 08/06 Q1011
                        NOSIG=
201711112250 METAR COR EGLL 112250Z AUTO 28003KT 9000 BKN046 09/06 Q1012
                        NOSIG=
201711112220 METAR COR EGLL 112220Z AUTO VRB02KT 9999 OVC048 09/06 Q1012
                        NOSIG=
201711112150 METAR COR EGLL 112150Z AUTO VRB02KT 9999 NCD 09/06 Q1012
                        NOSIG=
201711112120 METAR COR EGLL 112120Z AUTO 32003KT 9999 NCD 09/06 Q1012
                        NOSIG=
201711112050 METAR COR EGLL 112050Z AUTO 29004KT 9999 OVC049 09/06 Q1012
                        NOSIG=
201711112020 METAR COR EGLL 112020Z AUTO 30004KT 9999 NCD 09/06 Q1012
                        NOSIG=
201711111950 METAR COR EGLL 111950Z AUTO 29004KT 9999 NCD 09/07 Q1012
                        NOSIG=
201711111920 METAR COR EGLL 111920Z AUTO 28004KT 9999 NCD 09/07 Q1012
                        NOSIG=
201711111850 METAR COR EGLL 111850Z AUTO 29004KT 9999 NCD 09/06 Q1013
                        NOSIG=
201711111820 METAR COR EGLL 111820Z AUTO 29003KT 9999 SCT048 09/06 Q1013=
201711111750 METAR COR EGLL 111750Z AUTO 31003KT 9999 OVC044 09/07 Q1012
                        NOSIG=
201711111720 METAR COR EGLL 111720Z AUTO 29004KT 9999 BKN044 10/07 Q1012
                        NOSIG=
201711111650 METAR COR EGLL 111650Z AUTO 27006KT 9999 BKN037 10/07 Q1012
                        NOSIG=
201711111620 METAR COR EGLL 111620Z AUTO 30004KT 9999 BKN031 BKN040 10/07
                        Q1012 NOSIG=
201711111550 METAR COR EGLL 111550Z AUTO 31004KT 9999 BKN031 10/07 Q1012
                        NOSIG=
201711111520 METAR COR EGLL 111520Z AUTO 31006KT 270V350 9999 BKN027 10/07
                        Q1012 NOSIG=
201711111450 METAR COR EGLL 111450Z AUTO 31004KT 9999 SCT017 09/06 Q1011
                        NOSIG=
201711111420 METAR COR EGLL 111420Z AUTO 36006KT 330V040 9999 SCT012 OVC018
                        09/07 Q1011 NOSIG=
201711111350 METAR COR EGLL 111350Z AUTO 35004KT 300V020 9999 SCT010 OVC015
                        09/07 Q1011 TEMPO BKN014=
201711111320 METAR COR EGLL 111320Z AUTO 36003KT 9999 SCT008 BKN011 OVC045
                        09/08 Q1011 BECMG SCT011=
201711111250 METAR COR EGLL 111250Z AUTO 36004KT 9999 BKN008 BKN011 OVC039
                        09/08 Q1011 BECMG FEW008 SCT011=
201711111220 METAR COR EGLL 111220Z AUTO 35004KT 320V030 4100 -RA BKN006
                        OVC035 09/08 Q1011 BECMG 8000 NSW
                        SCT008 BKN012=
201711111150 METAR COR EGLL 111150Z VRB03KT 8000 BKN008 BKN028 09/08 Q1010
                        TEMPO SCT008 BKN012=
201711111120 METAR COR EGLL 111120Z 04004KT 360V060 5000 -RA SCT005 BKN008
                        09/08 Q1010 TEMPO SCT008 BKN012=
201711111050 METAR COR EGLL 111050Z 05004KT 020V090 6000 -RA SCT005 BKN008
                        OVC028 09/08 Q1010 TEMPO SCT008 BKN012=
201711111020 METAR COR EGLL 111020Z 06006KT 020V080 7000 -RA SCT004 BKN007
                        OVC027 09/08 Q1010 TEMPO SCT007 BKN013=
201711110950 METAR COR EGLL 110950Z 06005KT 3500 -RADZ BKN005 OVC013 09/09
                        Q1010 TEMPO 6000 NSW SCT005 BKN010=
201711110920 METAR COR EGLL 110920Z VRB03KT 3800 -RADZ FEW004 BKN006 OVC014
                        10/09 Q1010 TEMPO 6000 SCT006 BKN010=
201711110850 METAR COR EGLL 110850Z 03004KT 3500 -RADZ SCT004 OVC015 10/10
                        Q1009 TEMPO BKN006=
201711110820 METAR COR EGLL 110820Z VRB02KT 3500 -RADZ OVC013 10/10 Q1009
                        TEMPO BKN006=
201711110750 METAR COR EGLL 110750Z VRB01KT 4000 -RADZ SCT011 BKN014 10/10
                        Q1009 TEMPO BKN006=
201711110720 METAR COR EGLL 110720Z VRB02KT 3800 -RADZ BKN012 09/09 Q1009
                        TEMPO BKN006=
201711110650 METAR COR EGLL 110650Z 03004KT 340V060 9000 -RA FEW006 BKN012
                        10/09 Q1009 TEMPO 4000 -RADZ BKN006=
201711110620 METAR COR EGLL 110620Z VRB03KT 6000 -RA SCT008 BKN013 OVC024
                        09/09 Q1009 TEMPO BKN008=
201711110550 METAR COR EGLL 110550Z VRB02KT 6000 -RA SCT004 BKN010 BKN014
                        09/08 Q1009 TEMPO 4000 RA BKN004=
201711110520 METAR COR EGLL 110520Z 06004KT 350V120 4400 -RADZ FEW002
                        BKN014 08/08 Q1010 TEMPO BKN006=
201711110450 METAR COR EGLL 110450Z VRB02KT 2800 RA SCT003 BKN008 OVC013
                        08/08 Q1010 NOSIG=
201711110420 METAR COR EGLL 110420Z VRB03KT 3900 RA FEW003 SCT009 BKN012
                        08/08 Q1011 RERA TEMPO BKN006=
201711110350 METAR COR EGLL 110350Z AUTO 15003KT 4400 RA OVC003TCU 08/07
                        Q1012 NOSIG=
201711110320 METAR COR EGLL 110320Z AUTO 14003KT 5000 -RA OVC003 07/07
                        Q1013 RERA NOSIG=
201711110250 METAR COR EGLL 110250Z AUTO 14003KT 4800 -RA OVC003 07/07
                        Q1013 NOSIG=
201711110220 METAR COR EGLL 110220Z AUTO 16004KT 4000 -RADZ SCT002 OVC006
                        07/06 Q1014 RERA TEMPO 3000 RA BKN002=
201711110150 METAR COR EGLL 110150Z AUTO 17004KT 3200 RA SCT003 BKN008
                        OVC018 07/06 Q1015 TEMPO 4000 RA
                        BKN012=
201711110120 METAR COR EGLL 110120Z AUTO 20004KT 5000 -RA SCT015 BKN021
                        BKN026 07/06 Q1016 TEMPO 4000 RA
                        BKN012=
201711110050 METAR COR EGLL 110050Z AUTO 23006KT 8000 -RA BKN024 OVC031
                        07/06 Q1017 TEMPO 4000 RA BKN012=
201711110020 METAR COR EGLL 110020Z AUTO 23008KT 9999 -RA BKN030 OVC039
                        08/05 Q1017 BECMG 4500 RA=
201711102350 METAR COR EGLL 102350Z AUTO 23008KT 9999 -RA BKN035 08/05
                        Q1018 NOSIG=
201711102320 METAR COR EGLL 102320Z AUTO 23009KT 9999 -RA OVC040 08/04
                        Q1018 NOSIG=
201711102250 METAR COR EGLL 102250Z AUTO 24008KT 9999 BKN049 08/03 Q1019
                        NOSIG=
201711102220 METAR COR EGLL 102220Z AUTO 24010KT 9999 NCD 08/03 Q1019
                        NOSIG=
201711102150 METAR COR EGLL 102150Z AUTO 25010KT 9999 NCD 08/03 Q1020
                        NOSIG=
201711102120 METAR COR EGLL 102120Z AUTO 25010KT 9999 NCD 08/03 Q1020
                        NOSIG=
201711102050 METAR COR EGLL 102050Z AUTO 24008KT 9999 NCD 08/03 Q1020
                        NOSIG=
201711102020 METAR COR EGLL 102020Z AUTO 26008KT 9999 NCD 08/02 Q1020
                        NOSIG=
201711101950 METAR COR EGLL 101950Z AUTO 26008KT 9999 NCD 08/02 Q1021
                        NOSIG=
201711101920 METAR COR EGLL 101920Z AUTO 27009KT 9999 NCD 08/02 Q1021
                        NOSIG=
201711101850 METAR COR EGLL 101850Z AUTO 27008KT 9999 NCD 09/02 Q1021
                        NOSIG=
201711101820 METAR COR EGLL 101820Z AUTO 25009KT 9999 NCD 08/02 Q1021
                        NOSIG=
201711101750 METAR COR EGLL 101750Z AUTO 27007KT 220V280 9999 NCD 09/01
                        Q1021 NOSIG=
201711101720 METAR COR EGLL 101720Z AUTO 27008KT 9999 NCD 09/01 Q1021
                        NOSIG=
201711101650 METAR COR EGLL 101650Z AUTO 28008KT 9999 NCD 09/01 Q1021
                        NOSIG=
201711101620 METAR COR EGLL 101620Z AUTO 29006KT 9999 NCD 11/00 Q1021
                        NOSIG=
201711101550 METAR COR EGLL 101550Z AUTO 30006KT 9999 NCD 11/00 Q1021
                        NOSIG=
201711101520 METAR EGLL 101520Z AUTO 30010KT 9999 NCD 11/00 Q1021 NOSIG=
201711101450 METAR COR EGLL 101450Z AUTO 30010KT 9999 NCD 11/M00 Q1021
                        NOSIG=
201711101420 METAR COR EGLL 101420Z AUTO 32010KT 9999 SCT046 12/00 Q1020
                        NOSIG=
201711101350 METAR COR EGLL 101350Z AUTO 30008KT 270V340 9999 FEW043 12/02
                        Q1020 NOSIG=
201711101320 METAR COR EGLL 101320Z AUTO 32009G19KT 290V360 9999 FEW043
                        12/01 Q1020 NOSIG=
201711101250 METAR COR EGLL 101250Z AUTO 32010KT 9999 NCD 12/01 Q1020
                        NOSIG=
201711101220 METAR COR EGLL 101220Z AUTO 31012KT 280V350 9999 NCD 12/02
                        Q1020 NOSIG=
201711101150 METAR COR EGLL 101150Z AUTO 31012KT 280V340 9999 NCD 12/03
                        Q1020 NOSIG=
201711101120 METAR COR EGLL 101120Z AUTO 31015G25KT 9999 BKN046 12/03
                        Q1020 NOSIG=
201711101050 METAR COR EGLL 101050Z AUTO 31009KT 280V020 9999 NCD 12/03
                        Q1020 NOSIG=
201711101020 METAR EGLL 101020Z AUTO 31010KT 280V340 9999 FEW042 BKN048
                        12/04 Q1019=
201711100950 METAR COR EGLL 100950Z AUTO 32011G21KT 9999 FEW021 SCT032
                        BKN043 12/06 Q1019 NOSIG=
201711100920 METAR COR EGLL 100920Z AUTO 29010KT 9999 FEW027 SCT049 13/09
                        Q1019 NOSIG=
201711100850 METAR COR EGLL 100850Z AUTO 28012KT 9999 SCT025 BKN030 BKN040
                        12/10 Q1018 NOSIG=
201711100820 METAR COR EGLL 100820Z AUTO 26013KT 9999 BKN037 BKN045 11/10
                        Q1018 NOSIG=
201711100750 METAR COR EGLL 100750Z AUTO 26010KT 9999 SCT019 BKN029 BKN041
                        11/09 Q1018 NOSIG=
201711100720 METAR COR EGLL 100720Z AUTO 25011KT 9999 FEW020 SCT024 BKN045
                        11/09 Q1018 NOSIG=
201711100650 METAR COR EGLL 100650Z AUTO 26010KT 9999 SCT020 10/09 Q1017
                        TEMPO BKN012=
201711100620 METAR COR EGLL 100620Z AUTO 25011KT 9999 FEW011 SCT039 10/09
                        Q1018 TEMPO BKN010=
201711100550 METAR COR EGLL 100550Z AUTO 26011KT 4900 HZ SCT011 BKN028
                        10/08 Q1018 TEMPO BKN010=
201711100520 METAR COR EGLL 100520Z AUTO 27011KT 9999 BKN011 BKN034 10/08
                        Q1018 TEMPO BKN008=
201711100450 METAR COR EGLL 100450Z AUTO 26011KT 9999 OVC010 10/07 Q1018
                        TEMPO BKN008=
201711100420 METAR COR EGLL 100420Z AUTO 24009KT 9999 BKN014 09/06 Q1018
                        NOSIG=
201711100350 METAR COR EGLL 100350Z AUTO 24009KT 9999 BKN019 09/05 Q1018
                        NOSIG=
201711100320 METAR COR EGLL 100320Z AUTO 25009KT 9999 NCD 09/05 Q1019
                        NOSIG=
201711100250 METAR COR EGLL 100250Z AUTO 24007KT 9999 NCD 09/05 Q1020
                        NOSIG=
201711100220 METAR COR EGLL 100220Z AUTO 27007KT 9999 NCD 09/05 Q1021
                        NOSIG=
201711100150 METAR COR EGLL 100150Z AUTO 26008KT 9999 NCD 09/05 Q1021
                        NOSIG=
201711100120 METAR COR EGLL 100120Z AUTO 27009KT 9999 NCD 09/06 Q1021
                        NOSIG=
201711100050 METAR COR EGLL 100050Z AUTO 27009KT 9999 NCD 09/06 Q1021
                        NOSIG=
201711100020 METAR COR EGLL 100020Z AUTO 27009KT 9999 BKN038 09/06 Q1022
                        NOSIG=
201711092350 METAR COR EGLL 092350Z AUTO 27008KT 9999 BKN040 10/07 Q1022
                        NOSIG=
201711092320 METAR COR EGLL 092320Z AUTO 26009KT 9999 BKN024 10/08 Q1022
                        NOSIG=
201711092250 METAR COR EGLL 092250Z AUTO 27004KT 9999 FEW020 OVC025 11/07
                        Q1023 NOSIG=
201711092220 METAR COR EGLL 092220Z AUTO 27005KT 9999 BKN030 11/07 Q1023
                        NOSIG=
201711092150 METAR COR EGLL 092150Z AUTO 27003KT 9999 BKN031 11/06 Q1023
                        NOSIG=
201711092120 METAR COR EGLL 092120Z AUTO 32003KT 9999 BKN029 12/07 Q1023
                        NOSIG=
201711092050 METAR COR EGLL 092050Z AUTO VRB03KT 9999 BKN028 11/07 Q1023
                        NOSIG=
201711092020 METAR COR EGLL 092020Z AUTO 30003KT 9999 SCT026 BKN032 12/08
                        Q1024 NOSIG=
201711091950 METAR COR EGLL 091950Z AUTO VRB01KT 9999 NCD 12/08 Q1023
                        NOSIG=
201711091920 METAR COR EGLL 091920Z AUTO 36004KT 330V040 9999 NCD 12/08
                        Q1023 NOSIG=
201711091850 METAR COR EGLL 091850Z AUTO 32006KT 290V020 9999 FEW021 13/10
                        Q1023 NOSIG=
201711091820 METAR COR EGLL 091820Z AUTO 27008KT 9999 NCD 13/10 Q1023
                        NOSIG=
201711091750 METAR COR EGLL 091750Z AUTO 27008KT 9999 NCD 13/10 Q1023
                        NOSIG=
201711091720 METAR COR EGLL 091720Z AUTO 27008KT 9999 NCD 12/10 Q1023
                        NOSIG=
201711091650 METAR COR EGLL 091650Z AUTO 27007KT 9999 NCD 12/10 Q1022
                        NOSIG=
201711091620 METAR COR EGLL 091620Z AUTO 27007KT 9999 NCD 12/10 Q1023
                        NOSIG=
201711091550 METAR COR EGLL 091550Z AUTO 28008KT 9999 NCD 13/10 Q1023
                        NOSIG=
201711091520 METAR COR EGLL 091520Z AUTO 26010KT 9999 NCD 13/10 Q1023
                        NOSIG=
201711091450 METAR COR EGLL 091450Z AUTO 27010KT 9999 NCD 13/10 Q1023
                        NOSIG=
201711091420 METAR COR EGLL 091420Z AUTO 28007KT 9999 BKN043 14/10 Q1023
                        NOSIG=
201711091350 METAR COR EGLL 091350Z AUTO 29006KT 9999 SCT044 14/10 Q1023
                        NOSIG=
201711091320 METAR COR EGLL 091320Z AUTO 29005KT 9999 BKN034 13/10 Q1023
                        NOSIG=
201711091250 METAR COR EGLL 091250Z AUTO 28006KT 9999 SCT042 BKN049 13/09
                        Q1023 NOSIG=
201711091220 METAR COR EGLL 091220Z AUTO 28007KT 9999 SCT045 12/09 Q1023
                        NOSIG=
201711091150 METAR EGLL 091150Z AUTO 27008KT 9999 FEW045 12/09 Q1023=
201711091120 METAR COR EGLL 091120Z AUTO 26007KT 230V300 9999 NCD 11/08
                        Q1023 NOSIG=
201711091050 METAR COR EGLL 091050Z AUTO 25009KT 9999 FEW049 10/08 Q1024
                        NOSIG=
201711091020 METAR COR EGLL 091020Z AUTO 25007KT 210V300 9999 OVC045 09/07
                        Q1024 NOSIG=
201711090950 METAR EGLL 090950Z AUTO 24007KT 9999 BKN040 08/06 Q1024=
201711090920 METAR COR EGLL 090920Z AUTO 23006KT 200V260 9999 OVC037 08/06
                        Q1024 NOSIG=
201711090850 METAR COR EGLL 090850Z AUTO 22005KT 170V250 9999 FEW008 OVC041
                        07/05 Q1024 TEMPO BKN008=
201711090820 METAR COR EGLL 090820Z AUTO 22005KT 190V250 9999 BKN008 BKN037
                        OVC046 06/05 Q1023 NOSIG=
201711090750 METAR EGLL 090750Z AUTO 21006KT 180V240 9999 BKN009 BKN033
                        OVC048 06/04 Q1023=
201711090720 METAR COR EGLL 090720Z AUTO 22006KT 170V250 9999 OVC009 05/04
                        Q1023 NOSIG=
201711090650 METAR COR EGLL 090650Z AUTO 22004KT 180V250 9999 OVC009 05/04
                        Q1023 NOSIG=
201711090620 METAR COR EGLL 090620Z AUTO 21005KT 140V290 9999 BKN013 BKN018
                        OVC034 05/03 Q1024 TEMPO BKN008=
201711090550 METAR COR EGLL 090550Z AUTO VRB03KT 9999 BKN023 BKN031 04/03
                        Q1024 BECMG BKN014=
201711090520 METAR COR EGLL 090520Z AUTO 22004KT 9999 -RA SCT033 BKN040
                        04/03 Q1024 NOSIG=
201711090450 METAR COR EGLL 090450Z AUTO 24005KT 9999 -RA NCD 04/02 Q1024
                        NOSIG=
201711090420 METAR COR EGLL 090420Z AUTO 22004KT 9999 NCD 03/02 Q1024
                        NOSIG=
201711090350 METAR COR EGLL 090350Z AUTO 20003KT 9999 NCD 03/02 Q1024
                        NOSIG=
201711090320 METAR COR EGLL 090320Z AUTO 21002KT 9999 NCD 03/02 Q1024
                        NOSIG=
201711090250 METAR COR EGLL 090250Z AUTO 21003KT 9999 NCD 03/02 Q1024
                        NOSIG=
201711090220 METAR COR EGLL 090220Z AUTO 21004KT 9999 NCD 02/02 Q1025
                        NOSIG=
201711090150 METAR COR EGLL 090150Z AUTO 20004KT 9000 NCD 02/01 Q1025
                        NOSIG=
201711090120 METAR COR EGLL 090120Z AUTO 19005KT 9999 NCD 02/02 Q1025
                        NOSIG=
201711090050 METAR COR EGLL 090050Z 22003KT CAVOK 02/01 Q1025 NOSIG=
201711090020 METAR COR EGLL 090020Z 22002KT CAVOK 02/01 Q1025 NOSIG=
201711082350 METAR COR EGLL 082350Z AUTO 28002KT 9999 NCD 02/01 Q1025
                        NOSIG=
201711082320 METAR COR EGLL 082320Z AUTO 24002KT 9999 NCD 03/02 Q1025
                        NOSIG=
201711082250 METAR COR EGLL 082250Z AUTO 26004KT 9999 NCD 04/02 Q1025
                        NOSIG=
201711082220 METAR COR EGLL 082220Z AUTO 26003KT 9999 NCD 03/01 Q1026
                        NOSIG=
201711082150 METAR COR EGLL 082150Z AUTO 29004KT 9999 NCD 04/01 Q1026
                        NOSIG=
201711082120 METAR COR EGLL 082120Z AUTO 29004KT 9999 NCD 06/02 Q1026
                        NOSIG=
201711082050 METAR COR EGLL 082050Z AUTO 28004KT 9999 NCD 06/02 Q1026
                        NOSIG=
201711082020 METAR COR EGLL 082020Z AUTO 28005KT 9999 NCD 06/02 Q1026
                        NOSIG=
201711081950 METAR COR EGLL 081950Z AUTO 27005KT 9999 NCD 06/02 Q1025
                        NOSIG=
201711081920 METAR COR EGLL 081920Z AUTO VRB01KT 9999 NCD 07/02 Q1025
                        NOSIG=
201711081850 METAR COR EGLL 081850Z AUTO 30004KT 9999 NCD 07/02 Q1025
                        NOSIG=
201711081820 METAR COR EGLL 081820Z AUTO 31004KT 9999 NCD 08/02 Q1025
                        NOSIG=
201711081750 METAR COR EGLL 081750Z AUTO 30004KT 9999 NCD 08/02 Q1025
                        NOSIG=
201711081720 METAR EGLL 081720Z AUTO 31004KT 9999 NCD 08/02 Q1025=
201711081650 METAR COR EGLL 081650Z AUTO 30003KT 9999 NCD 09/02 Q1024
                        NOSIG=
201711081620 METAR COR EGLL 081620Z AUTO 32004KT 290V360 9999 NCD 09/02
                        Q1024 NOSIG=
201711081550 METAR COR EGLL 081550Z AUTO VRB03KT 9999 FEW036 10/02 Q1024
                        NOSIG=
201711081520 METAR COR EGLL 081520Z AUTO 33006KT 300V020 9999 SCT034 10/03
                        Q1024 NOSIG=
201711081450 METAR COR EGLL 081450Z AUTO 36007KT 310V030 9999 BKN033 10/03
                        Q1024 NOSIG=
201711081420 METAR COR EGLL 081420Z AUTO 32005KT 290V010 9999 BKN047 09/04
                        Q1024 NOSIG=
201711081350 METAR COR EGLL 081350Z AUTO 36006KT 320V020 9999 BKN033 OVC045
                        09/04 Q1023 NOSIG=
201711081320 METAR COR EGLL 081320Z AUTO 35005KT 310V020 9999 SCT033 BKN047
                        09/04 Q1023 NOSIG=
201711081250 METAR COR EGLL 081250Z AUTO 36006KT 290V040 9999 SCT032 OVC046
                        09/04 Q1023 NOSIG=
201711081220 METAR EGLL 081220Z AUTO 36007KT 310V040 9999 BKN031 OVC044
                        09/04 Q1023=
201711081150 METAR COR EGLL 081150Z AUTO 34007KT 310V020 9999 OVC029 09/04
                        Q1023 NOSIG=
201711081120 METAR COR EGLL 081120Z AUTO 36008KT 320V030 9999 BKN030 09/04
                        Q1023 NOSIG=
201711081050 METAR COR EGLL 081050Z AUTO 36007KT 300V040 9999 SCT039 BKN045
                        09/04 Q1023 NOSIG=
201711081020 METAR COR EGLL 081020Z AUTO 34006KT 290V030 9999 BKN039 08/04
                        Q1023 NOSIG=
201711080950 METAR COR EGLL 080950Z AUTO 36005KT 310V050 9999 BKN045 07/04
                        Q1022 NOSIG=
201711080920 METAR COR EGLL 080920Z AUTO 34005KT 300V040 9999 OVC043 07/04
                        Q1022 NOSIG=
201711080850 METAR COR EGLL 080850Z AUTO VRB03KT 9999 SCT035 BKN044 07/04
                        Q1022 NOSIG=
201711080820 METAR COR EGLL 080820Z AUTO VRB03KT 9999 SCT035 BKN045 06/04
                        Q1022 NOSIG=
201711080750 METAR COR EGLL 080750Z AUTO 33004KT 300V360 9999 BKN035 06/04
                        Q1022 NOSIG=
201711080720 METAR COR EGLL 080720Z AUTO 33005KT 300V020 9999 FEW040 06/04
                        Q1021 NOSIG=
201711080650 METAR COR EGLL 080650Z AUTO 35005KT 310V020 9999 NCD 06/04
                        Q1021 NOSIG=
201711080620 METAR COR EGLL 080620Z AUTO 35004KT 300V030 9999 BKN049 06/04
                        Q1020 NOSIG=
201711080550 METAR COR EGLL 080550Z AUTO 33004KT 280V350 9999 NCD 06/04
                        Q1020 NOSIG=
201711080520 METAR COR EGLL 080520Z AUTO VRB02KT 9999 NCD 06/04 Q1020
                        NOSIG=
201711080450 METAR COR EGLL 080450Z AUTO 30004KT 9999 BKN049 06/04 Q1020
                        NOSIG=
201711080420 METAR COR EGLL 080420Z AUTO 30004KT 9999 OVC046 06/04 Q1019
                        NOSIG=
201711080350 METAR COR EGLL 080350Z AUTO 31004KT 9999 BKN047 06/04 Q1019
                        NOSIG=
201711080320 METAR COR EGLL 080320Z AUTO 30004KT 9999 SCT046 06/04 Q1019
                        NOSIG=
201711080250 METAR COR EGLL 080250Z AUTO 31004KT 9999 FEW045 06/04 Q1019
                        NOSIG=
201711080220 METAR COR EGLL 080220Z AUTO 32004KT 290V020 9999 FEW042 06/04
                        Q1019 NOSIG=
201711080150 METAR COR EGLL 080150Z AUTO 34005KT 300V030 9999 NCD 06/04
                        Q1019 NOSIG=
201711080120 METAR COR EGLL 080120Z AUTO 35006KT 300V020 9999 FEW020 06/04
                        Q1018 NOSIG=
201711080050 METAR COR EGLL 080050Z AUTO 35006KT 300V030 9999 -RA NCD
                        06/04 Q1018 NOSIG=
201711080020 METAR COR EGLL 080020Z AUTO 01007KT 330V050 9999 -RA FEW047
                        06/04 Q1018 NOSIG=
201711072350 METAR COR EGLL 072350Z AUTO 36006KT 330V030 9999 -RA FEW042
                        06/04 Q1018 NOSIG=
201711072320 METAR COR EGLL 072320Z AUTO 36004KT 330V030 9999 -RA SCT010
                        SCT017 BKN035 06/05 Q1018 NOSIG=
201711072250 METAR COR EGLL 072250Z AUTO 35006KT 290V020 9999 -RA BKN015
                        BKN019 OVC043 06/05 Q1018 TEMPO BKN012=
201711072220 METAR COR EGLL 072220Z AUTO 34007KT 300V040 9999 -RA BKN037
                        OVC046 07/05 Q1017 NOSIG=
201711072150 METAR COR EGLL 072150Z AUTO 33008KT 300V010 9999 -RA OVC034
                        07/05 Q1017 NOSIG=
201711072120 METAR COR EGLL 072120Z AUTO 32008KT 290V360 9999 -RA OVC031
                        07/05 Q1017 NOSIG=
201711072050 METAR COR EGLL 072050Z AUTO 31009KT 9000 -RA SCT012 BKN016
                        BKN022 07/06 Q1017 RERA NOSIG=
201711072020 METAR COR EGLL 072020Z AUTO 31009KT 5000 -RA BKN011 OVC016
                        08/06 Q1016 TEMPO SCT011=
201711071950 METAR COR EGLL 071950Z AUTO 31007KT 5000 -RA BKN009 OVC025
                        08/07 Q1016 RERA TEMPO 4000 RA=
201711071920 METAR COR EGLL 071920Z AUTO 32009KT 6000 -RA SCT009/// SCT013///
                        BKN018/// //////TCU 09/07 Q1015 TEMPO
                        4500 RA BKN008=
201711071850 METAR COR EGLL 071850Z AUTO 32011KT 6000 -RA FEW007/// SCT012///
                        BKN017/// //////TCU 09/08 Q1015 RERA
                        TEMPO 4000 RADZ SCT007 BKN012=
201711071820 METAR COR EGLL 071820Z AUTO 16007KT 120V180 6000 -RA FEW013///
                        BKN018/// OVC047/// //////TCU 10/09
                        Q1015 TEMPO 4000 RADZ BKN010=
201711071750 METAR COR EGLL 071750Z AUTO 18009G19KT 140V220 9000 -RA SCT021///
                        BKN038/// OVC045/// //////TCU 10/09
                        Q1015 TEMPO RA BKN008=
201711071720 METAR COR EGLL 071720Z AUTO 16008KT 140V200 9999 FEW018///
                        SCT035/// BKN042/// //////CB 11/09
                        Q1015 TEMPO RA BKN012=
201711071650 METAR COR EGLL 071650Z AUTO 16009KT 120V200 9999 -RA SCT043
                        10/09 Q1015 TEMPO RA BKN012=
201711071620 METAR COR EGLL 071620Z AUTO 17008KT 150V230 9999 -RA FEW017
                        SCT047 11/09 Q1015 TEMPO RA BKN012=
201711071550 METAR COR EGLL 071550Z AUTO 16007KT 140V210 9999 -RA SCT015
                        BKN043 11/09 Q1015 TEMPO BKN012=
201711071520 METAR COR EGLL 071520Z AUTO 17010G21KT 9999 SCT015 BKN025
                        11/09 Q1015 TEMPO BKN014=
201711071450 METAR COR EGLL 071450Z AUTO 18010KT 150V220 9999 SCT014 BKN027
                        11/09 Q1015 TEMPO BKN014=
201711071420 METAR COR EGLL 071420Z AUTO 17009KT 130V240 9999 -RA BKN011
                        BKN019 OVC048 10/09 Q1015 TEMPO SCT011
                        BKN020=
201711071350 METAR COR EGLL 071350Z AUTO 18009KT 130V230 9999 -RA BKN010
                        OVC032 10/09 Q1016 TEMPO SCT010 BKN020=
201711071320 METAR COR EGLL 071320Z AUTO 17011KT 130V230 9999 BKN010 OVC043
                        10/09 Q1016 TEMPO SCT010 BKN018=
201711071250 METAR COR EGLL 071250Z AUTO 17012KT 150V220 6000 -RA BKN013
                        BKN024 BKN034 10/09 Q1016 TEMPO SCT013
                        BKN024=
201711071220 METAR COR EGLL 071220Z AUTO 17013KT 160V230 9999 -RA SCT018
                        BKN026 BKN032 11/08 Q1017 TEMPO BKN012=
201711071150 METAR COR EGLL 071150Z AUTO 18014KT 150V230 9999 BKN023 BKN031
                        OVC047 11/07 Q1017 TEMPO BKN014=
201711071120 METAR COR EGLL 071120Z AUTO 18013KT 150V230 9999 -RA BKN027
                        BKN039 BKN047 11/08 Q1017 TEMPO BKN014=
201711071050 METAR COR EGLL 071050Z AUTO 19012KT 160V230 9999 -RA SCT030
                        BKN038 12/08 Q1017 TEMPO BKN014=
201711071020 METAR COR EGLL 071020Z AUTO 18011KT 150V230 9999 BKN037 12/08
                        Q1018 TEMPO BKN014=
201711070950 METAR COR EGLL 070950Z AUTO 17010KT 140V220 9999 NCD 12/07
                        Q1018 NOSIG=
201711070920 METAR EGLL 070920Z AUTO 16008KT 130V220 9999 NCD 11/07 Q1018=
201711070850 METAR COR EGLL 070850Z AUTO 15008KT 110V220 9999 NCD 11/07
                        Q1018 NOSIG=
201711070820 METAR COR EGLL 070820Z AUTO 17006KT 150V240 9999 FEW040 OVC047
                        10/07 Q1019 NOSIG=
201711070750 METAR COR EGLL 070750Z AUTO 17005KT 130V230 9999 NCD 10/07
                        Q1019 NOSIG=
201711070720 METAR COR EGLL 070720Z AUTO 18007KT 140V230 9999 NCD 10/07
                        Q1018 NOSIG=
201711070650 METAR COR EGLL 070650Z AUTO 17010KT 140V210 9999 NCD 10/07
                        Q1018 NOSIG=
201711070620 METAR COR EGLL 070620Z AUTO 17008KT 150V220 9999 NCD 10/07
                        Q1019 NOSIG=
201711070550 METAR COR EGLL 070550Z AUTO 17006KT 9999 NCD 10/07 Q1019
                        NOSIG=
201711070520 METAR COR EGLL 070520Z AUTO 18009KT 9999 NCD 10/07 Q1019
                        NOSIG=
201711070450 METAR COR EGLL 070450Z AUTO 18007KT 9999 NCD 09/07 Q1019
                        NOSIG=
201711070420 METAR COR EGLL 070420Z AUTO 17008KT 9999 NCD 09/07 Q1019
                        NOSIG=
201711070350 METAR COR EGLL 070350Z AUTO 18009KT 9999 NCD 09/07 Q1020
                        NOSIG=
201711070320 METAR COR EGLL 070320Z AUTO 17010KT 9999 NCD 09/08 Q1020
                        NOSIG=
201711070250 METAR COR EGLL 070250Z AUTO 16011KT 9999 OVC047 09/08 Q1020
                        NOSIG=
201711070220 METAR COR EGLL 070220Z AUTO 17010KT 9999 OVC045 09/07 Q1021
                        NOSIG=
201711070150 METAR COR EGLL 070150Z AUTO 17012KT 9999 SCT041 OVC047 09/07
                        Q1021 NOSIG=
201711070120 METAR COR EGLL 070120Z AUTO 16014KT 9999 OVC049 09/06 Q1021
                        NOSIG=
201711070050 METAR COR EGLL 070050Z AUTO 15010KT 9999 OVC046 09/06 Q1021
                        NOSIG=
201711070020 METAR COR EGLL 070020Z AUTO 16009KT 9999 OVC046 09/06 Q1022
                        NOSIG=
201711062350 METAR COR EGLL 062350Z AUTO 17008KT 9999 OVC044 08/05 Q1022
                        NOSIG=
201711062320 METAR COR EGLL 062320Z AUTO 17007KT 9999 OVC042 08/05 Q1023
                        NOSIG=
201711062250 METAR COR EGLL 062250Z AUTO 16006KT 9999 OVC042 08/05 Q1023
                        NOSIG=
201711062220 METAR COR EGLL 062220Z AUTO 16006KT 9999 OVC041 07/05 Q1023
                        NOSIG=
201711062150 METAR COR EGLL 062150Z AUTO 16007KT 100V190 9999 OVC041 07/04
                        Q1023 NOSIG=
201711062120 METAR COR EGLL 062120Z AUTO 16007KT 130V200 9999 BKN045 07/04
                        Q1023 NOSIG=
201711062050 METAR COR EGLL 062050Z AUTO 17006KT 130V230 9999 SCT042 06/04
                        Q1024 NOSIG=
201711062020 METAR COR EGLL 062020Z AUTO 17005KT 120V250 9999 NCD 06/04
                        Q1024 NOSIG=
201711061950 METAR COR EGLL 061950Z AUTO 17006KT 080V220 9999 NCD 06/04
                        Q1024 NOSIG=
201711061920 METAR COR EGLL 061920Z AUTO 17006KT 9999 NCD 06/04 Q1024
                        NOSIG=
201711061850 METAR COR EGLL 061850Z AUTO 16006KT 130V230 9999 NCD 06/04
                        Q1024 NOSIG=
201711061820 METAR COR EGLL 061820Z AUTO 18008KT 9999 NCD 07/04 Q1024
                        NOSIG=
201711061750 METAR COR EGLL 061750Z AUTO 18008KT 160V230 9999 NCD 08/04
                        Q1024 NOSIG=
201711061720 METAR COR EGLL 061720Z AUTO 18007KT 110V220 9999 NCD 08/04
                        Q1024 NOSIG=
201711061650 METAR COR EGLL 061650Z AUTO 19006KT 140V250 9999 NCD 09/04
                        Q1024 NOSIG=
201711061620 METAR COR EGLL 061620Z AUTO 21007KT 170V240 9999 NCD 10/04
                        Q1024 NOSIG=
201711061550 METAR COR EGLL 061550Z AUTO 22007KT 9999 NCD 10/04 Q1024
                        NOSIG=
201711061520 METAR COR EGLL 061520Z AUTO 22007KT 180V250 9999 FEW033 11/04
                        Q1024 NOSIG=
201711061450 METAR COR EGLL 061450Z AUTO 23008KT 180V260 9999 NCD 11/04
                        Q1025 NOSIG=
201711061420 METAR COR EGLL 061420Z AUTO 21007KT 160V260 9999 FEW032 11/04
                        Q1025 NOSIG=
201711061350 METAR COR EGLL 061350Z AUTO 23007KT 180V270 9999 NCD 12/04
                        Q1025 NOSIG=
201711061320 METAR COR EGLL 061320Z AUTO 23006KT 190V260 9999 NCD 11/04
                        Q1025 NOSIG=
201711061250 METAR COR EGLL 061250Z AUTO 20006G17KT 150V260 9999 NCD 11/05
                        Q1025 NOSIG=
201711061220 METAR COR EGLL 061220Z AUTO 21005KT 140V260 9999 NCD 10/05
                        Q1026 NOSIG=
201711061150 METAR COR EGLL 061150Z AUTO 20005KT 130V260 9999 NCD 10/05
                        Q1026 NOSIG=
201711061120 METAR COR EGLL 061120Z AUTO 21005KT 150V260 9999 NCD 10/04
                        Q1026 NOSIG=
201711061050 METAR COR EGLL 061050Z AUTO 24006KT 9999 NCD 08/04 Q1026
                        NOSIG=
201711061020 METAR COR EGLL 061020Z AUTO 24004KT 170V290 9999 NCD 08/04
                        Q1027 NOSIG=
201711060950 METAR COR EGLL 060950Z AUTO 22004KT 150V300 9999 NCD 06/04
                        Q1027 NOSIG=
201711060920 METAR COR EGLL 060920Z AUTO 23004KT 140V310 9000 NCD 04/04
                        Q1027 NOSIG=
201711060850 METAR COR EGLL 060850Z 23005KT 5000 BR NSC 03/03 Q1026 NOSIG=
201711060820 METAR COR EGLL 060820Z 18005KT 140V230 4000 BR BCFG FEW000
                        01/01 Q1026 BECMG 6000 NSW=
201711060750 METAR COR EGLL 060750Z VRB03KT 3600 R27L/0275 BCFG NSC M01/M01
                        Q1026 TEMPO 0800 FG=
201711060720 METAR EGLL 060720Z 31002KT 4000 1700SW BR PRFG NSC M00/M00
                        Q1026=
201711060650 METAR COR EGLL 060650Z 00000KT 4300 R27L/1400 BR VCFG NSC
                        00/M00 Q1026 TEMPO 0800 FG=
201711060620 METAR COR EGLL 060620Z AUTO VRB02KT 3900 BR NCD 01/01 Q1025
                        TEMPO 1200 MIFG=
201711060550 METAR COR EGLL 060550Z AUTO VRB01KT 2700 BR NCD 00/M00 Q1025
                        NOSIG=
201711060520 METAR COR EGLL 060520Z 28001KT 2500 BR NSC 02/02 Q1025 TEMPO
                        1200 MIFG=
201711060450 METAR COR EGLL 060450Z AUTO 31001KT 2700 BR NCD 01/01 Q1025
                        NOSIG=
201711060420 METAR COR EGLL 060420Z AUTO 26001KT 2000 BR NCD 02/02 Q1025
                        NOSIG=
201711060350 METAR COR EGLL 060350Z AUTO 27002KT 3800 BR NCD 02/01 Q1025
                        NOSIG=
201711060320 METAR COR EGLL 060320Z AUTO 28004KT 3800 BR NCD 02/02 Q1025
                        NOSIG=
201711060250 METAR COR EGLL 060250Z AUTO 28002KT 4800 BR NCD 02/02 Q1025
                        NOSIG=
201711060220 METAR COR EGLL 060220Z AUTO 29004KT 5000 BR NCD 02/02 Q1025
                        BECMG 4000=
201711060150 METAR COR EGLL 060150Z AUTO 30003KT 5000 BR NCD 02/01 Q1025
                        BECMG 4000 BR=
201711060120 METAR COR EGLL 060120Z AUTO 29004KT 5000 HZ NCD 03/02 Q1024
                        BECMG 4000 BR=
201711060050 METAR COR EGLL 060050Z AUTO 29004KT 6000 NCD 03/03 Q1024
                        TEMPO 4000 BR=
201711060020 METAR COR EGLL 060020Z AUTO 29005KT 8000 NCD 04/03 Q1024
                        NOSIG=
201711052350 METAR COR EGLL 052350Z AUTO 29003KT 8000 NCD 02/01 Q1023
                        NOSIG=
201711052320 METAR COR EGLL 052320Z AUTO 28003KT 7000 NCD 03/02 Q1023
                        NOSIG=
201711052250 METAR COR EGLL 052250Z AUTO 30002KT 8000 NCD 05/03 Q1023
                        NOSIG=
201711052220 METAR COR EGLL 052220Z AUTO VRB03KT 9999 NCD 05/03 Q1022
                        NOSIG=
201711052150 METAR COR EGLL 052150Z AUTO 31004KT 9999 NCD 06/03 Q1022
                        NOSIG=
201711052120 METAR COR EGLL 052120Z AUTO 31005KT 9999 NCD 06/04 Q1022
                        NOSIG=
201711052050 METAR COR EGLL 052050Z AUTO 31006KT 9999 NCD 06/04 Q1021
                        NOSIG=
201711052020 METAR COR EGLL 052020Z AUTO 30006KT 9999 NCD 07/04 Q1021
                        NOSIG=
201711051950 METAR COR EGLL 051950Z AUTO 30006KT 9999 NCD 07/04 Q1021
                        NOSIG=
201711051920 METAR COR EGLL 051920Z AUTO 30006KT 9999 SCT045 07/04 Q1020
                        NOSIG=
201711051850 METAR COR EGLL 051850Z AUTO 29005KT 9999 NCD 08/04 Q1020
                        NOSIG=
201711051820 METAR COR EGLL 051820Z AUTO 30004KT 9999 SCT046 08/04 Q1020
                        NOSIG=
201711051750 METAR COR EGLL 051750Z AUTO 31004KT 9999 FEW043 08/03 Q1019
                        NOSIG=
201711051720 METAR COR EGLL 051720Z AUTO 31004KT 9999 NCD 08/03 Q1018
                        NOSIG=
201711051650 METAR COR EGLL 051650Z AUTO 30006KT 9999 FEW045 09/03 Q1018
                        NOSIG=
201711051620 METAR COR EGLL 051620Z AUTO 31007KT 9999 SCT042 09/03 Q1017
                        NOSIG=
201711051550 METAR COR EGLL 051550Z AUTO 31006KT 270V360 9999 SCT043 09/03
                        Q1017 NOSIG=
201711051520 METAR COR EGLL 051520Z AUTO 31007KT 290V350 9999 FEW034 BKN040
                        10/03 Q1016 NOSIG=
201711051450 METAR EGLL 051450Z AUTO 32007KT 280V030 9999 BKN031 BKN041
                        10/03 Q1016=
201711051420 METAR COR EGLL 051420Z AUTO 31010KT 280V350 9999 SCT030 BKN037
                        10/03 Q1015 NOSIG=
201711051350 METAR COR EGLL 051350Z AUTO 30010KT 270V340 9999 BKN029 10/03
                        Q1015 NOSIG=
201711051320 METAR COR EGLL 051320Z AUTO 29012KT 9999 SCT029 BKN035 11/04
                        Q1015 NOSIG=
201711051250 METAR COR EGLL 051250Z AUTO 29011KT 9999 FEW028 SCT036 10/04
                        Q1014 NOSIG=
201711051220 METAR COR EGLL 051220Z AUTO 30010KT 9999 SCT026 BKN032 10/04
                        Q1014 NOSIG=
201711051150 METAR COR EGLL 051150Z AUTO 30010KT 9999 BKN025 10/04 Q1014
                        NOSIG=
201711051120 METAR COR EGLL 051120Z AUTO 29010KT 9999 FEW025 09/04 Q1014
                        NOSIG=
201711051050 METAR COR EGLL 051050Z AUTO 28009KT 9999 FEW025 09/04 Q1014
                        NOSIG=
201711051020 METAR COR EGLL 051020Z AUTO 28010KT 9999 NCD 08/04 Q1013
                        NOSIG=
201711050950 METAR COR EGLL 050950Z AUTO 28011KT 9999 NCD 07/03 Q1013
                        NOSIG=
201711050920 METAR COR EGLL 050920Z AUTO 27010KT 9999 NCD 07/03 Q1013
                        NOSIG=
201711050850 METAR COR EGLL 050850Z AUTO 27008KT 9999 FEW045 06/03 Q1013
                        NOSIG=
201711050820 METAR COR EGLL 050820Z AUTO 27008KT 9999 NCD 05/03 Q1012
                        NOSIG=
201711050750 METAR COR EGLL 050750Z AUTO 27008KT 9999 NCD 04/02 Q1012
                        NOSIG=
201711050720 METAR COR EGLL 050720Z AUTO 27007KT 9999 NCD 04/02 Q1012
                        NOSIG=
201711050650 METAR COR EGLL 050650Z AUTO 27007KT 9999 NCD 04/02 Q1011
                        NOSIG=
201711050620 METAR COR EGLL 050620Z AUTO 27007KT 9999 NCD 03/02 Q1011
                        NOSIG=
201711050550 METAR COR EGLL 050550Z AUTO 27009KT 9999 NCD 03/02 Q1010
                        NOSIG=
201711050520 METAR COR EGLL 050520Z AUTO 27008KT 9999 NCD 04/02 Q1010
                        NOSIG=
201711050450 METAR COR EGLL 050450Z AUTO 27008KT 9999 NCD 04/02 Q1010
                        NOSIG=
201711050420 METAR COR EGLL 050420Z AUTO 27007KT 9999 NCD 05/03 Q1010
                        NOSIG=
201711050350 METAR COR EGLL 050350Z AUTO 27006KT 9999 NCD 04/03 Q1009
                        NOSIG=
201711050320 METAR COR EGLL 050320Z AUTO 27007KT 9000 NCD 05/04 Q1009
                        NOSIG=
201711050250 METAR COR EGLL 050250Z AUTO 29006KT 9999 FEW037/// //////TCU
                        05/03 Q1009 NOSIG=
201711050220 METAR COR EGLL 050220Z AUTO 28009KT 9999 -RA FEW032 06/04
                        Q1009 NOSIG=
201711050150 METAR COR EGLL 050150Z AUTO 26009KT 9999 //////TCU 05/03
                        Q1009 TEMPO SHRA=
201711050120 METAR COR EGLL 050120Z AUTO 27008KT 9999 NCD 05/03 Q1009
                        TEMPO SHRA=
201711050050 METAR COR EGLL 050050Z AUTO 27009KT 9000 NCD 06/04 Q1009
                        NOSIG=
201711050020 METAR COR EGLL 050020Z AUTO 27009KT 9000 NCD 06/04 Q1009
                        NOSIG=
201711042350 METAR COR EGLL 042350Z AUTO 27008KT 9000 NCD 06/03 Q1008
                        NOSIG=
201711042320 METAR COR EGLL 042320Z AUTO 27008KT 7000 NCD 06/03 Q1008
                        NOSIG=
201711042250 METAR COR EGLL 042250Z AUTO 27011KT 8000 NCD 07/04 Q1008
                        NOSIG=
201711042220 METAR COR EGLL 042220Z AUTO 27010KT 8000 NCD 06/04 Q1008
                        NOSIG=
201711042150 METAR COR EGLL 042150Z AUTO 27008KT 9000 NCD 06/04 Q1008
                        NOSIG=
201711042120 METAR COR EGLL 042120Z AUTO 28007KT 9999 NCD 06/04 Q1008
                        NOSIG=
201711042050 METAR COR EGLL 042050Z AUTO 28008KT 9999 NCD 07/04 Q1008
                        NOSIG=
201711042020 METAR COR EGLL 042020Z AUTO 28010KT 9999 NCD 08/04 Q1008
                        NOSIG=
201711041950 METAR COR EGLL 041950Z AUTO 28009KT 9999 NCD 08/04 Q1007
                        NOSIG=
201711041920 METAR COR EGLL 041920Z AUTO 29009KT 9999 NCD 09/05 Q1007
                        NOSIG=
201711041850 METAR COR EGLL 041850Z AUTO 28008KT 9999 NCD 09/06 Q1007
                        NOSIG=
201711041820 METAR COR EGLL 041820Z AUTO 27007KT 9999 NCD 10/06 Q1007
                        NOSIG=
201711041750 METAR COR EGLL 041750Z AUTO 28008KT 9999 SCT047 10/06 Q1006
                        NOSIG=
201711041720 METAR COR EGLL 041720Z AUTO 29006KT 270V330 9999 FEW043 10/06
                        Q1006 NOSIG=
201711041650 METAR COR EGLL 041650Z AUTO 31007KT 280V340 9999 SCT030 BKN040
                        BKN046 11/06 Q1006 NOSIG=
201711041620 METAR COR EGLL 041620Z AUTO 29006KT 9999 -RA FEW036/// SCT043///
                        //////TCU 11/07 Q1005 NOSIG=
201711041550 METAR COR EGLL 041550Z AUTO 30007KT 270V340 9999 -RA FEW025
                        SCT037 BKN048 11/07 Q1005 NOSIG=
201711041520 METAR COR EGLL 041520Z AUTO 30007KT 9999 -RA FEW022 SCT027
                        BKN033 12/08 Q1004 NOSIG=
201711041450 METAR COR EGLL 041450Z AUTO 29007KT 9999 FEW038 SCT046 13/08
                        Q1004 NOSIG=
201711041420 METAR COR EGLL 041420Z AUTO 30007KT 9999 SCT049 13/08 Q1004
                        NOSIG=
201711041350 METAR COR EGLL 041350Z AUTO 31009KT 9999 FEW018 BKN049 13/09
                        Q1003 NOSIG=
201711041320 METAR COR EGLL 041320Z AUTO 31008KT 9999 SCT018 SCT024 BKN043
                        13/10 Q1003 NOSIG=
201711041250 METAR COR EGLL 041250Z AUTO 30008KT 9999 SCT014 BKN022 OVC037
                        12/10 Q1003 NOSIG=
201711041220 METAR COR EGLL 041220Z AUTO 30009KT 9999 BKN011 BKN015 OVC033
                        12/10 Q1003 BECMG SCT012=
201711041150 METAR COR EGLL 041150Z AUTO 30010KT 9999 -RA BKN010 13/11
                        Q1002 BECMG SCT012=
201711041120 METAR COR EGLL 041120Z AUTO 29010KT 9999 -RA SCT009 BKN012
                        13/12 Q1002 BECMG SCT012 BKN018=
201711041050 METAR COR EGLL 041050Z AUTO 27009KT 9999 -RA SCT009 BKN015
                        14/12 Q1002 TEMPO -RA BKN009=
201711041020 METAR COR EGLL 041020Z AUTO 26009KT 8000 -RA BKN008 OVC015
                        14/12 Q1001 BECMG BKN010=
201711040950 METAR COR EGLL 040950Z AUTO 24008KT 6000 -RA BKN007 BKN010
                        OVC042 13/13 Q1001 RERA REDZ TEMPO
                        3000 RADZ=
201711040920 METAR COR EGLL 040920Z AUTO 22007KT 3100 RA SCT005 BKN010
                        BKN014 13/12 Q1001 TEMPO 2500 RADZ
                        BKN004=
201711040850 METAR COR EGLL 040850Z AUTO 18005KT 3500 -RADZ SCT005 BKN008
                        13/12 Q1001 RERA TEMPO 2500 RADZ
                        BKN004=
201711040820 METAR COR EGLL 040820Z AUTO 17005KT 3600 RA BKN007/// BKN012///
                        OVC048/// //////TCU 13/12 Q1002 REDZ
                        TEMPO 2500 BKN004=
201711040750 METAR COR EGLL 040750Z AUTO 16005KT 4000 HZ BKN009/// OVC033///
                        //////CB 13/12 Q1002 TEMPO 2500 RA
                        BKN004=
201711040720 METAR COR EGLL 040720Z AUTO 15005KT 4300 HZ BKN011/// BKN018///
                        OVC026/// //////TCU 12/12 Q1002 TEMPO
                        2500 RA BKN008=
201711040650 METAR COR EGLL 040650Z AUTO 14005KT 4500 BR SCT017/// BKN022///
                        //////CB 12/12 Q1002 TEMPO RA BKN012=
201711040620 METAR COR EGLL 040620Z 14005KT 4400 BR SCT009 SCT013 BKN018
                        12/12 Q1002 TEMPO BKN012=
201711040550 METAR COR EGLL 040550Z 11003KT 4200 BR FEW007 BKN009 12/12
                        Q1003 TEMPO BKN012=
201711040520 METAR COR EGLL 040520Z 06002KT 3900 BR BKN009 12/12 Q1003
                        TEMPO BKN010=
201711040450 METAR COR EGLL 040450Z 05003KT 2700 BR BKN010 12/12 Q1003
                        BECMG 3500=
201711040420 METAR COR EGLL 040420Z 06002KT 2600 BR SCT011 BKN048 12/11
                        Q1004 TEMPO BKN010=
201711040350 METAR COR EGLL 040350Z 08003KT 2600 -RA BKN048 12/11 Q1004
                        RERA NOSIG=
201711040320 METAR COR EGLL 040320Z 13003KT 2700 RA FEW021 BKN041 12/12
                        Q1005 TEMPO NSW=
201711040250 METAR EGLL 040250Z 14005KT 2700 RA FEW004 SCT032 BKN040 12/12
                        Q1006=
201711040220 METAR EGLL 040220Z AUTO 13004KT 1400 R09R/P1500 -RA NCD 12/12
                        Q1006 RERA=
201711040150 METAR COR EGLL 040150Z AUTO 13004KT 2500 RA NCD 12/12 Q1006
                        TEMPO BKN012=
201711040120 METAR COR EGLL 040120Z AUTO 13005KT 2200 -RA NCD 12/11 Q1007
                        TEMPO BKN008=
201711040050 METAR EGLL 040050Z 14004KT 3300 -RA NSC 12/11 Q1007=
201711040020 METAR COR EGLL 040020Z 13004KT 3200 -RA NSC 11/10 Q1008 TEMPO
                        RA BKN012=
201711032350 METAR COR EGLL 032350Z 13005KT 3300 -RA NSC 11/10 Q1008 TEMPO
                        2800 RA BKN012=
201711032320 METAR COR EGLL 032320Z 11004KT 3600 -RA NSC 11/10 Q1009 TEMPO
                        RA BKN012=
201711032250 METAR COR EGLL 032250Z AUTO VRB03KT 3500 -RA NCD 11/10 Q1009
                        TEMPO RA BKN012=
201711032220 METAR COR EGLL 032220Z AUTO VRB03KT 4300 HZ FEW010 11/10
                        Q1009 TEMPO RA BKN012=
201711032150 METAR COR EGLL 032150Z AUTO 17004KT 120V250 3600 HZ NCD 11/09
                        Q1010 TEMPO BKN012=
201711032120 METAR COR EGLL 032120Z AUTO 20005KT 140V250 3500 HZ SCT011
                        10/09 Q1010 TEMPO BKN012=
201711032050 METAR COR EGLL 032050Z AUTO 19004KT 140V240 4100 HZ NCD 11/09
                        Q1010 NOSIG=
201711032020 METAR COR EGLL 032020Z AUTO 20004KT 140V240 4600 HZ NCD 10/09
                        Q1010 NOSIG=
201711031950 METAR COR EGLL 031950Z AUTO VRB03KT 4700 HZ NCD 10/09 Q1011
                        TEMPO 5000=
201711031920 METAR COR EGLL 031920Z AUTO VRB03KT 5000 HZ NCD 11/09 Q1011
                        TEMPO 4000 BR=
201711031850 METAR COR EGLL 031850Z AUTO VRB03KT 7000 NCD 11/09 Q1011
                        NOSIG=
201711031820 METAR COR EGLL 031820Z AUTO 22004KT 190V260 7000 NCD 11/09
                        Q1011 NOSIG=
201711031750 METAR COR EGLL 031750Z AUTO 18005KT 130V300 8000 NCD 12/09
                        Q1011 NOSIG=
201711031720 METAR COR EGLL 031720Z AUTO 21005KT 150V260 8000 NCD 12/09
                        Q1011 NOSIG=
201711031650 METAR COR EGLL 031650Z AUTO 22005KT 140V270 8000 NCD 11/09
                        Q1011 NOSIG=
201711031620 METAR COR EGLL 031620Z AUTO 27004KT 230V320 7000 SCT016 12/09
                        Q1011 NOSIG=
201711031550 METAR EGLL 031550Z AUTO 24006KT 190V270 9000 SCT019 12/09
                        Q1012=
201711031520 METAR COR EGLL 031520Z AUTO 23006KT 9999 NCD 13/09 Q1012
                        NOSIG=
201711031450 METAR COR EGLL 031450Z AUTO 23005KT 9000 NCD 14/09 Q1012
                        NOSIG=
201711031420 METAR COR EGLL 031420Z AUTO 22005KT 130V270 9000 NCD 14/10
                        Q1012 NOSIG=
201711031350 METAR COR EGLL 031350Z AUTO VRB03KT 6000 SCT026 14/10 Q1012
                        NOSIG=
201711031320 METAR COR EGLL 031320Z AUTO 26004KT 210V300 6000 BKN021 13/10
                        Q1013 NOSIG=
201711031250 METAR COR EGLL 031250Z AUTO 22004KT 160V260 7000 FEW022 BKN027
                        13/10 Q1013 NOSIG=
201711031220 METAR COR EGLL 031220Z AUTO 22004KT 160V260 5000 HZ BKN029
                        12/09 Q1013 NOSIG=
201711031150 METAR COR EGLL 031150Z VRB03KT 5000 HZ FEW004 SCT031 11/09
                        Q1014 NOSIG=
201711031120 METAR COR EGLL 031120Z 17004KT 130V270 5000 1000SW R27L/P1500
                        HZ FEW008 11/10 Q1014 NOSIG=
201711031050 METAR COR EGLL 031050Z VRB03KT 2000 0900SW R27R/P1500 R27L/P1500
                        BR BCFG SCT001 10/09 Q1015 BECMG
                        4000 HZ=
201711031020 METAR COR EGLL 031020Z VRB02KT 1400 0800SW R27R/P1500 R27L/1200
                        BR BCFG SCT001 10/09 Q1015 BECMG
                        3000=
201711030950 METAR COR EGLL 030950Z VRB01KT 0700 R27R/1000 R27L/0650 FG
                        SCT001 09/09 Q1015 BECMG 2000 BR=
201711030920 METAR COR EGLL 030920Z 03001KT 0200 R27R/0325 R27L/1300 FG
                        VV/// 09/08 Q1015 BECMG 1000 BR SCT003=
201711030850 METAR COR EGLL 030850Z VRB01KT 0200 R27R/0350 R27L/1200 FG
                        VV/// 08/08 Q1015 BECMG 0600=
201711030820 METAR COR EGLL 030820Z 01001KT 0200 R27R/0350 R27L/0250 FG
                        VV/// 08/07 Q1015 BECMG 0600=
201711030750 METAR COR EGLL 030750Z AUTO VRB02KT 0100 R27R/0200 R27L/0225
                        FG VV/// 07/07 Q1015 TEMPO 0600=
201711030720 METAR COR EGLL 030720Z 33001KT 0300 R27R/0275 R27L/0225 FG
                        VV/// 07/06 Q1015 TEMPO 0600=
201711030650 METAR COR EGLL 030650Z VRB03KT 0300 R27R/P1500 R27L/0350
                        FG VV/// 06/06 Q1015 NOSIG=
201711030620 METAR COR EGLL 030620Z VRB02KT 3700 0900SW R27R/P1500 R27L/0275
                        BR PRFG NSC 07/06 Q1015 TEMPO 0500
                        FG BKN001=
201711030550 METAR COR EGLL 030550Z 05001KT 4400 R27L/0400 BR BCFG NSC
                        07/07 Q1015 TEMPO 0800 FG BKN001=
201711030520 METAR COR EGLL 030520Z 00000KT 4500 BR BCFG NSC 08/07 Q1015
                        TEMPO 1200 BCFG=
201711030450 METAR COR EGLL 030450Z 05001KT 4400 R27L/1400 BCFG NSC 08/07
                        Q1015 TEMPO 1200 BCFG=
201711030420 METAR COR EGLL 030420Z 15001KT 4500 HZ FEW048 08/07 Q1016
                        TEMPO 1200 PRFG=
201711030350 METAR COR EGLL 030350Z AUTO 15001KT 3300 HZ BKN048 09/08
                        Q1016 TEMPO 2000 BR=
201711030320 METAR COR EGLL 030320Z AUTO 16001KT 3700 HZ BKN049 09/08
                        Q1016 NOSIG=
201711030250 METAR COR EGLL 030250Z AUTO VRB02KT 4700 HZ OVC049 10/09
                        Q1016 NOSIG=
201711030220 METAR COR EGLL 030220Z AUTO VRB02KT 5000 HZ OVC049 10/09
                        Q1016 TEMPO 4000 BR=
201711030150 METAR COR EGLL 030150Z AUTO 18004KT 5000 HZ NCD 10/09 Q1016
                        TEMPO 4000 BR=
201711030120 METAR COR EGLL 030120Z AUTO 20004KT 5000 HZ NCD 10/09 Q1016
                        NOSIG=
201711030050 METAR COR EGLL 030050Z AUTO 14003KT 5000 HZ NCD 10/09 Q1017
                        TEMPO 4000 BR=
201711030020 METAR COR EGLL 030020Z AUTO 15003KT 6000 OVC049 10/09 Q1017
                        TEMPO 4000 BR=
201711022350 METAR COR EGLL 022350Z AUTO 15003KT 6000 OVC049 10/09 Q1017
                        TEMPO 4500 BR=
201711022320 METAR COR EGLL 022320Z AUTO VRB02KT 7000 NCD 10/09 Q1017
                        NOSIG=
201711022250 METAR COR EGLL 022250Z AUTO VRB03KT 7000 NCD 10/09 Q1017
                        NOSIG=
201711022220 METAR COR EGLL 022220Z AUTO VRB01KT 7000 NCD 10/09 Q1017
                        NOSIG=
201711022150 METAR COR EGLL 022150Z AUTO VRB02KT 8000 NCD 11/08 Q1017
                        NOSIG=
201711022120 METAR COR EGLL 022120Z AUTO 05003KT 8000 NCD 11/09 Q1017
                        NOSIG=
201711022050 METAR COR EGLL 022050Z AUTO 06003KT 8000 NCD 11/09 Q1017
                        NOSIG=
201711022020 METAR COR EGLL 022020Z AUTO 06003KT 9000 NCD 11/09 Q1017
                        NOSIG=
201711021950 METAR COR EGLL 021950Z AUTO 05003KT 8000 NCD 11/09 Q1017
                        NOSIG=
201711021920 METAR COR EGLL 021920Z AUTO VRB02KT 8000 NCD 11/09 Q1017
                        NOSIG=
201711021850 METAR COR EGLL 021850Z AUTO 36003KT 9000 NCD 12/09 Q1017
                        NOSIG=
201711021820 METAR COR EGLL 021820Z AUTO 36003KT 9000 FEW017 12/09 Q1017
                        NOSIG=
201711021750 METAR COR EGLL 021750Z AUTO 36002KT 9999 SCT015 12/09 Q1017
                        NOSIG=
201711021720 METAR COR EGLL 021720Z AUTO VRB02KT 9999 BKN014 12/09 Q1016
                        NOSIG=
201711021650 METAR COR EGLL 021650Z AUTO 31003KT 9000 NCD 11/09 Q1016
                        NOSIG=
201711021620 METAR COR EGLL 021620Z AUTO 30003KT 9000 NCD 12/09 Q1016
                        NOSIG=
201711021550 METAR COR EGLL 021550Z AUTO 32003KT 9999 OVC048 12/09 Q1016
                        NOSIG=
201711021520 METAR COR EGLL 021520Z AUTO 27004KT 210V330 9999 OVC046 12/09
                        Q1016 NOSIG=
201711021450 METAR COR EGLL 021450Z AUTO 17004KT 120V210 9999 OVC044 12/09
                        Q1016 NOSIG=
201711021420 METAR COR EGLL 021420Z AUTO VRB03KT 9000 OVC043 13/09 Q1016
                        NOSIG=
201711021350 METAR COR EGLL 021350Z VRB03KT 9000 FEW030 BKN044 13/09 Q1016=
201711021320 METAR COR EGLL 021320Z AUTO VRB02KT 9999 SCT023 OVC032 12/09
                        Q1016 NOSIG=
201711021250 METAR COR EGLL 021250Z AUTO VRB02KT 9999 FEW023 OVC047 12/09
                        Q1016 NOSIG=
201711021220 METAR COR EGLL 021220Z AUTO 25004KT 200V310 8000 OVC045 12/09
                        Q1016 NOSIG=
201711021150 METAR EGLL 021150Z AUTO VRB03KT 9000 FEW032 BKN039 11/08
                        Q1016=
201711021120 METAR COR EGLL 021120Z AUTO VRB03KT 8000 BKN023 OVC043 10/08
                        Q1016 NOSIG=
201711021050 METAR COR EGLL 021050Z AUTO VRB03KT 7000 SCT025 BKN030 10/08
                        Q1016 NOSIG=
201711021020 METAR COR EGLL 021020Z AUTO VRB03KT 6000 BKN030 08/07 Q1016
                        NOSIG=
201711020950 METAR COR EGLL 020950Z AUTO VRB03KT 4400 BR BKN026 BKN033
                        BKN039 07/07 Q1016 BECMG 6000 NSW=
201711020920 METAR COR EGLL 020920Z AUTO VRB03KT 2900 BR SCT003 BKN023
                        BKN029 06/06 Q1016 TEMPO BKN003=
201711020850 METAR COR EGLL 020850Z VRB02KT 2600 BR SCT003 BKN006 06/06
                        Q1016 TEMPO 1400 BKN003=
201711020820 METAR COR EGLL 020820Z 28004KT 2400 0500W R27R/P1500 R27L/P1500
                        BCFG SCT001 SCT005 06/05 Q1015 TEMPO
                        0800 FG BKN002=
201711020750 METAR COR EGLL 020750Z VRB02KT 1700 0300NE R27R/P1500 R27L/P1500
                        BCFG SCT004 SCT036 05/05 Q1015 TEMPO
                        0800 FG BKN002=
201711020720 METAR COR EGLL 020720Z 27003KT 0200 R27R/0700 R27L/0650 FG
                        BKN001 BKN033 04/04 Q1015 BECMG 1200
                        BR SCT001=
201711020650 METAR COR EGLL 020650Z 27005KT 0400 R27R/0450 R27L/0400 BCFG
                        BKN001 04/03 Q1015 BECMG 0800 FG=
201711020620 METAR COR EGLL 020620Z 28003KT 0800 R27R/P1500 R27L/0400
                        FG SCT001 04/03 Q1015 TEMPO 0400
                        FG=
201711020550 METAR EGLL 020550Z AUTO 29003KT 0350 R27L/1400 FG FEW001
                        04/04 Q1015=
201711020520 METAR COR EGLL 020520Z AUTO VRB02KT 1600 BR NCD 04/04 Q1014
                        TEMPO 4000 BR=
201711020450 METAR COR EGLL 020450Z AUTO VRB02KT 6000 NCD 04/04 Q1014
                        TEMPO 4000 BR=
201711020420 METAR COR EGLL 020420Z AUTO VRB02KT 4600 BR NCD 04/04 Q1014
                        TEMPO 2000 BR=
201711020350 METAR COR EGLL 020350Z AUTO 31002KT 6000 NCD 05/04 Q1014
                        BECMG 4000 BR=
201711020320 METAR COR EGLL 020320Z AUTO VRB01KT 2000 BR NCD 05/04 Q1014
                        TEMPO 4000 BR=
201711020250 METAR COR EGLL 020250Z AUTO VRB01KT 3900 BR NCD 05/05 Q1014
                        NOSIG=
201711020220 METAR EGLL 020220Z AUTO 25002KT 0250 FG NCD 05/05 Q1014=
201711020150 METAR COR EGLL 020150Z AUTO 29002KT 5000 BR NCD 06/05 Q1015
                        TEMPO 4000 BR=
201711020120 METAR COR EGLL 020120Z AUTO 28004KT 0500 FG NCD 06/05 Q1015
                        TEMPO 4000 BR=
201711020050 METAR COR EGLL 020050Z AUTO 28004KT 0350 FG NCD 06/06 Q1015
                        TEMPO 4000 BR=
201711020020 METAR EGLL 020020Z AUTO 27004KT 4100 HZ NCD 07/06 Q1015=
201711012350 METAR EGLL 012350Z AUTO 29001KT 1600 HZ NCD 07/06 Q1015=
201711012320 METAR EGLL 012320Z AUTO 28003KT 8000 NCD 08/07 Q1015=
201711012250 METAR COR EGLL 012250Z AUTO VRB03KT 6000 NCD 09/07 Q1015
                        TEMPO 4000 BR=
201711012220 METAR COR EGLL 012220Z AUTO 29003KT 9999 NCD 09/07 Q1015
                        NOSIG=
201711012150 METAR COR EGLL 012150Z AUTO 25006KT 9999 NCD 10/07 Q1015
                        NOSIG=
201711012120 METAR COR EGLL 012120Z AUTO 28004KT 250V310 9999 NCD 09/07
                        Q1015 NOSIG=
201711012050 METAR COR EGLL 012050Z AUTO 24006KT 9999 NCD 10/07 Q1016
                        NOSIG=
201711012020 METAR COR EGLL 012020Z AUTO 24006KT 9999 NCD 10/07 Q1016
                        NOSIG=
201711011950 METAR COR EGLL 011950Z 25006KT CAVOK 10/07 Q1016 NOSIG=
201711011920 METAR COR EGLL 011920Z 23007KT CAVOK 11/08 Q1016 NOSIG=
201711011850 METAR COR EGLL 011850Z AUTO 22006KT 180V260 9999 NCD 11/08
                        Q1016 NOSIG=
201711011820 METAR COR EGLL 011820Z AUTO 19008KT 160V230 9999 NCD 12/08
                        Q1016 NOSIG=
201711011750 METAR COR EGLL 011750Z AUTO 20008KT 170V230 9999 NCD 12/08
                        Q1017 NOSIG=
201711011720 METAR COR EGLL 011720Z AUTO 23006KT 190V260 9999 NCD 13/08
                        Q1016 NOSIG=
201711011650 METAR COR EGLL 011650Z AUTO 22007KT 180V260 9999 NCD 12/07
                        Q1016 NOSIG=
201711011620 METAR COR EGLL 011620Z AUTO 20004KT 160V240 9999 NCD 13/07
                        Q1017 NOSIG=
201711011550 METAR COR EGLL 011550Z AUTO 18004KT 110V280 9999 NCD 14/07
                        Q1017 NOSIG=
201711011520 METAR COR EGLL 011520Z AUTO 18006KT 150V230 9999 NCD 15/07
                        Q1017 NOSIG=
201711011450 METAR COR EGLL 011450Z AUTO 19006G16KT 160V240 9999 NCD 15/07
                        Q1017 NOSIG=
201711011420 METAR COR EGLL 011420Z AUTO 22006KT 180V260 9999 NCD 15/06
                        Q1018 NOSIG=
201711011350 METAR COR EGLL 011350Z AUTO 20006KT 150V230 9999 NCD 16/07
                        Q1018 NOSIG=
201711011320 METAR COR EGLL 011320Z AUTO 19007KT 160V240 9999 NCD 16/06
                        Q1018 NOSIG=
201711011250 METAR COR EGLL 011250Z AUTO 17006KT 130V220 9999 NCD 15/07
                        Q1019 NOSIG=
201711011220 METAR COR EGLL 011220Z AUTO 17004KT 120V240 9999 NCD 14/10
                        Q1019 NOSIG=
201711011150 METAR COR EGLL 011150Z AUTO 16004KT 110V230 9999 NCD 14/10
                        Q1020 NOSIG=
201711011120 METAR COR EGLL 011120Z AUTO VRB05KT 9999 NCD 13/10 Q1020
                        NOSIG=
201711011050 METAR COR EGLL 011050Z AUTO 19005KT 140V230 9999 NCD 13/10
                        Q1020 NOSIG=
201711011020 METAR COR EGLL 011020Z AUTO 22005KT 160V250 9999 NCD 12/10
                        Q1021 NOSIG=
201711010950 METAR COR EGLL 010950Z AUTO 22005KT 9999 NCD 11/10 Q1021
                        NOSIG=
201711010920 METAR COR EGLL 010920Z AUTO 22005KT 190V260 9999 NCD 10/09
                        Q1021 NOSIG=
201711010850 METAR COR EGLL 010850Z AUTO 24006KT 8000 NCD 10/09 Q1021
                        NOSIG=
201711010820 METAR COR EGLL 010820Z AUTO 24004KT 9000 NCD 10/09 Q1021
                        NOSIG=
201711010750 METAR COR EGLL 010750Z 24005KT 7000 VCFG NSC 09/08 Q1021
                        NOSIG=
201711010720 METAR COR EGLL 010720Z 25006KT 6000 VCFG NSC 08/07 Q1021
                        NOSIG=
201711010650 METAR COR EGLL 010650Z 23006KT 5000 BR NSC 08/07 Q1021 NOSIG=
201711010620 METAR COR EGLL 010620Z AUTO VRB03KT 5000 BR NCD 08/07 Q1021
                        TEMPO NOSIG=
201711010550 METAR COR EGLL 010550Z AUTO 17002KT 3900 BR NCD 07/07 Q1021
                        TEMPO 6000 NSW=
201711010520 METAR COR EGLL 010520Z AUTO 18002KT 4800 BR NCD 07/07 Q1021
                        TEMPO 6000 NSW=
201711010450 METAR COR EGLL 010450Z AUTO 18004KT 6000 NCD 08/07 Q1021
                        TEMPO 4000 BR=
201711010420 METAR COR EGLL 010420Z AUTO 19002KT 7000 NCD 08/07 Q1021
                        TEMPO 4000 BR=
201711010350 METAR COR EGLL 010350Z AUTO 17004KT 8000 NCD 08/07 Q1021
                        TEMPO 4000 BR=
201711010320 METAR COR EGLL 010320Z AUTO 18003KT 8000 NCD 08/08 Q1022
                        TEMPO 4000 BR=
201711010250 METAR COR EGLL 010250Z AUTO 20004KT 9999 NCD 09/08 Q1022
                        TEMPO 4000 BR=
201711010220 METAR COR EGLL 010220Z AUTO 21004KT 9999 NCD 09/08 Q1022
                        TEMPO 4000 BR=
201711010150 METAR COR EGLL 010150Z AUTO 21005KT 9999 NCD 09/08 Q1022
                        NOSIG=
201711010120 METAR COR EGLL 010120Z AUTO 21004KT 9999 NCD 09/08 Q1022
                        NOSIG=
201711010050 METAR COR EGLL 010050Z AUTO 22004KT 9999 NCD 09/08 Q1022
                        NOSIG=
201711010020 METAR COR EGLL 010020Z AUTO 22004KT 9999 NCD 09/08 Q1023
                        NOSIG=

</pre>

</body>
</html>
