##########################################################
# Query made at 01/13/2020 12:44:40 UTC
# Time interval: from 11/01/2016 00:00  to 12/01/2016 23:59  UTC
##########################################################

##########################################################
# EGLL, London / Heathrow Airport (United Kingdom)
# WMO index: 03772
# Latitude 51-29N. Longitude 000-27W. Altitude 24 m.
##########################################################

###################################
#  METAR/SPECI from EGLL
###################################
201612012350 METAR COR EGLL 012350Z AUTO VRB02KT 9999 OVC038 04/03 Q1028
                        NOSIG=
201612012320 METAR COR EGLL 012320Z AUTO VRB03KT 9999 OVC038 04/03 Q1028
                        NOSIG=
201612012250 METAR COR EGLL 012250Z 28003KT 9999 BKN037 04/02 Q1028 NOSIG=
201612012220 METAR COR EGLL 012220Z VRB03KT 9999 BKN037 03/02 Q1028 NOSIG=
201612012150 METAR COR EGLL 012150Z VRB02KT 9999 SCT036 03/02 Q1028 NOSIG=
201612012120 METAR COR EGLL 012120Z AUTO 30004KT 9000 BKN035 03/02 Q1028
                        NOSIG=
201612012050 METAR COR EGLL 012050Z 29004KT 9999 FEW036 03/02 Q1028 NOSIG=
201612012020 METAR COR EGLL 012020Z AUTO 29005KT 8000 FEW036 02/01 Q1028
                        NOSIG=
201612011950 METAR COR EGLL 011950Z AUTO 30003KT 9999 NCD 03/02 Q1028
                        NOSIG=
201612011920 METAR COR EGLL 011920Z AUTO 30004KT 9000 NCD 04/02 Q1028
                        NOSIG=
201612011850 METAR COR EGLL 011850Z AUTO 30004KT 9999 NCD 04/02 Q1028
                        NOSIG=
201612011820 METAR COR EGLL 011820Z AUTO 29004KT 9999 NCD 04/02 Q1029
                        NOSIG=
201612011750 METAR COR EGLL 011750Z AUTO 28005KT 9999 NCD 04/02 Q1029
                        NOSIG=
201612011720 METAR COR EGLL 011720Z AUTO 29005KT 9999 NCD 04/02 Q1029
                        NOSIG=
201612011650 METAR COR EGLL 011650Z AUTO 29005KT 9999 NCD 05/02 Q1029
                        NOSIG=
201612011620 METAR COR EGLL 011620Z AUTO 30004KT 9999 SCT033 06/03 Q1029
                        NOSIG=
201612011550 METAR COR EGLL 011550Z AUTO 28007KT 9999 NCD 05/02 Q1029
                        NOSIG=
201612011520 METAR COR EGLL 011520Z AUTO 28006KT 9999 NCD 07/03 Q1029
                        NOSIG=
201612011450 METAR COR EGLL 011450Z AUTO 27007KT 9999 FEW028 07/03 Q1030
                        NOSIG=
201612011420 METAR COR EGLL 011420Z AUTO 27008KT 9999 NCD 07/03 Q1030
                        NOSIG=
201612011350 METAR EGLL 011350Z AUTO 27005KT 9999 NCD 07/03 Q1030=
201612011320 METAR COR EGLL 011320Z AUTO 27007KT 9999 NCD 07/02 Q1030
                        NOSIG=
201612011250 METAR COR EGLL 011250Z AUTO 27005KT 230V300 9999 NCD 06/02
                        Q1030 NOSIG=
201612011220 METAR COR EGLL 011220Z AUTO 26004KT 210V290 9999 NCD 06/01
                        Q1030 NOSIG=
201612011150 METAR COR EGLL 011150Z AUTO 26005KT 220V300 9999 NCD 05/00
                        Q1031 NOSIG=
201612011120 METAR COR EGLL 011120Z AUTO 27005KT 210V310 9999 NCD 04/M00
                        Q1031 NOSIG=
201612011050 METAR COR EGLL 011050Z AUTO 25004KT 220V300 9999 NCD 03/M01
                        Q1031 NOSIG=
201612011020 METAR COR EGLL 011020Z AUTO 29003KT 9999 NCD 02/M02 Q1032
                        TEMPO BKN004=
201612010950 METAR COR EGLL 010950Z AUTO 30003KT 9999 NCD 01/M03 Q1032
                        TEMPO BKN003=
201612010920 METAR COR EGLL 010920Z AUTO VRB03KT 9999 NCD M00/M04 Q1032
                        TEMPO BKN003=
201612010850 METAR COR EGLL 010850Z AUTO 27006KT 9999 NCD M01/M04 Q1032
                        NOSIG=
201612010820 METAR COR EGLL 010820Z AUTO 29004KT 9999 NCD M01/M05 Q1032
                        TEMPO BKN005=
201612010750 METAR COR EGLL 010750Z AUTO 27004KT 9999 NCD M03/M06 Q1032
                        NOSIG=
201612010720 METAR COR EGLL 010720Z AUTO 29004KT 9999 NCD M02/M05 Q1032
                        NOSIG=
201612010650 METAR COR EGLL 010650Z AUTO 28005KT 9999 NCD M03/M06 Q1032
                        NOSIG=
201612010620 METAR COR EGLL 010620Z AUTO 27004KT 9999 NCD M03/M06 Q1032
                        NOSIG=
201612010550 METAR COR EGLL 010550Z AUTO 30002KT 9999 NCD M02/M04 Q1032
                        NOSIG=
201612010520 METAR COR EGLL 010520Z AUTO 27005KT 9000 NCD M02/M04 Q1032
                        NOSIG=
201612010450 METAR COR EGLL 010450Z AUTO 26004KT 9999 NCD M03/M05 Q1032
                        NOSIG=
201612010420 METAR EGLL 010420Z AUTO 28003KT 9999 NCD M02/M04 Q1032=
201612010350 METAR COR EGLL 010350Z AUTO 25001KT 9000 NCD M02/M04 Q1032
                        NOSIG=
201612010320 METAR COR EGLL 010320Z AUTO 26001KT 8000 NCD M02/M04 Q1032
                        NOSIG=
201612010250 METAR COR EGLL 010250Z AUTO 29002KT 9000 NCD M02/M03 Q1033
                        NOSIG=
201612010220 METAR COR EGLL 010220Z AUTO 28004KT 9000 NCD M02/M04 Q1033
                        NOSIG=
201612010150 METAR COR EGLL 010150Z AUTO 27004KT 9999 NCD M02/M04 Q1033
                        NOSIG=
201612010120 METAR COR EGLL 010120Z AUTO 29003KT 9999 NCD M02/M04 Q1033
                        NOSIG=
201612010050 METAR COR EGLL 010050Z AUTO 27004KT 7000 NCD M02/M04 Q1033
                        NOSIG=
201612010020 METAR COR EGLL 010020Z AUTO 27004KT 7000 NCD M02/M03 Q1033
                        NOSIG=
201611302350 METAR COR EGLL 302350Z AUTO 27004KT 7000 NCD M02/M03 Q1033
                        NOSIG=
201611302320 METAR COR EGLL 302320Z AUTO 27003KT 7000 NCD M01/M02 Q1034
                        NOSIG=
201611302250 METAR COR EGLL 302250Z AUTO 27005KT 8000 NCD M01/M03 Q1034
                        NOSIG=
201611302220 METAR COR EGLL 302220Z AUTO 28004KT 8000 NCD M02/M04 Q1034
                        NOSIG=
201611302150 METAR COR EGLL 302150Z AUTO 28004KT 8000 NCD M01/M03 Q1034
                        NOSIG=
201611302120 METAR COR EGLL 302120Z AUTO 29005KT 7000 NCD 00/M02 Q1034
                        NOSIG=
201611302050 METAR COR EGLL 302050Z AUTO 28006KT 8000 NCD 01/M02 Q1034
                        NOSIG=
201611302020 METAR COR EGLL 302020Z AUTO 29003KT 8000 NCD 01/M01 Q1034
                        NOSIG=
201611301950 METAR COR EGLL 301950Z AUTO 27004KT 9000 NCD 01/M02 Q1034
                        NOSIG=
201611301920 METAR COR EGLL 301920Z AUTO 28004KT 9000 NCD 02/M01 Q1034
                        NOSIG=
201611301850 METAR COR EGLL 301850Z AUTO 25005KT 9000 NCD 02/M02 Q1034
                        NOSIG=
201611301820 METAR COR EGLL 301820Z 28005KT CAVOK 03/M02 Q1034 NOSIG=
201611301750 METAR COR EGLL 301750Z AUTO 26005KT 9000 NCD 03/M01 Q1034
                        NOSIG=
201611301720 METAR COR EGLL 301720Z AUTO 28003KT 8000 NCD 04/M01 Q1034
                        NOSIG=
201611301650 METAR COR EGLL 301650Z AUTO 29005KT 9999 NCD 04/M01 Q1034
                        NOSIG=
201611301620 METAR COR EGLL 301620Z AUTO 30003KT 9999 NCD 04/M01 Q1034
                        NOSIG=
201611301550 METAR COR EGLL 301550Z AUTO 27006KT 9999 NCD 05/M01 Q1033
                        NOSIG=
201611301520 METAR COR EGLL 301520Z AUTO 28005KT 9999 NCD 06/M01 Q1034
                        NOSIG=
201611301450 METAR COR EGLL 301450Z AUTO 29003KT 9999 NCD 06/M01 Q1034
                        NOSIG=
201611301420 METAR COR EGLL 301420Z AUTO 27004KT 9999 NCD 07/M01 Q1034
                        NOSIG=
201611301350 METAR COR EGLL 301350Z AUTO 23005KT 9999 NCD 06/M01 Q1034
                        NOSIG=
201611301320 METAR COR EGLL 301320Z AUTO 26004KT 230V290 9999 NCD 06/M01
                        Q1034 NOSIG=
201611301250 METAR COR EGLL 301250Z AUTO 24004KT 210V290 9999 NCD 05/M01
                        Q1035 NOSIG=
201611301220 METAR COR EGLL 301220Z AUTO VRB03KT 9999 NCD 04/M01 Q1035
                        NOSIG=
201611301150 METAR COR EGLL 301150Z AUTO VRB03KT 9999 NCD 03/M01 Q1035
                        NOSIG=
201611301120 METAR COR EGLL 301120Z AUTO 24004KT 210V290 9999 NCD 02/M01
                        Q1035 NOSIG=
201611301050 METAR COR EGLL 301050Z AUTO VRB03KT 9999 NCD 01/M01 Q1036
                        NOSIG=
201611301020 METAR COR EGLL 301020Z AUTO VRB03KT 9999 NCD M00/M02 Q1036
                        NOSIG=
201611300950 METAR COR EGLL 300950Z AUTO 27003KT 8000 NCD M01/M02 Q1036
                        NOSIG=
201611300920 METAR COR EGLL 300920Z AUTO VRB03KT 8000 NCD M02/M03 Q1036
                        NOSIG=
201611300850 METAR COR EGLL 300850Z AUTO VRB02KT 8000 NCD M03/M03 Q1036
                        NOSIG=
201611300820 METAR COR EGLL 300820Z AUTO VRB02KT 8000 NCD M03/M04 Q1035
                        NOSIG=
201611300750 METAR COR EGLL 300750Z AUTO 31002KT 8000 NCD M04/M04 Q1035
                        NOSIG=
201611300720 METAR COR EGLL 300720Z AUTO VRB02KT 8000 NCD M04/M04 Q1035
                        NOSIG=
201611300650 METAR COR EGLL 300650Z AUTO 27004KT 8000 NCD M03/M04 Q1035
                        NOSIG=
201611300620 METAR COR EGLL 300620Z AUTO 22004KT 7000 NCD M04/M04 Q1035
                        TEMPO 4000 BR=
201611300550 METAR COR EGLL 300550Z AUTO VRB02KT 8000 NCD M04/M04 Q1035
                        TEMPO 4000 BR=
201611300520 METAR COR EGLL 300520Z AUTO VRB01KT 7000 NCD M04/M04 Q1035
                        TEMPO 4000 BR=
201611300450 METAR COR EGLL 300450Z AUTO VRB02KT 6000 NCD M04/M04 Q1035
                        TEMPO 4000 BR=
201611300420 METAR COR EGLL 300420Z AUTO 28003KT 6000 NCD M04/M04 Q1035
                        TEMPO 4000 BR=
201611300350 METAR COR EGLL 300350Z AUTO VRB02KT 7000 NCD M03/M04 Q1035
                        NOSIG=
201611300320 METAR COR EGLL 300320Z AUTO VRB02KT 6000 NCD M03/M03 Q1034
                        NOSIG=
201611300250 METAR COR EGLL 300250Z AUTO VRB01KT 7000 NCD M03/M04 Q1035
                        NOSIG=
201611300220 METAR COR EGLL 300220Z AUTO VRB01KT 7000 NCD M03/M03 Q1035
                        NOSIG=
201611300150 METAR COR EGLL 300150Z AUTO VRB02KT 7000 NCD M02/M03 Q1034
                        NOSIG=
201611300120 METAR COR EGLL 300120Z AUTO VRB02KT 8000 NCD M02/M03 Q1034
                        NOSIG=
201611300050 METAR COR EGLL 300050Z AUTO VRB02KT 7000 NCD M03/M03 Q1035
                        NOSIG=
201611300020 METAR COR EGLL 300020Z AUTO 36003KT 9000 NCD M01/M02 Q1035
                        NOSIG=
201611292350 METAR COR EGLL 292350Z AUTO VRB02KT 8000 NCD M01/M02 Q1034
                        NOSIG=
201611292320 METAR COR EGLL 292320Z AUTO 18005KT 9999 NCD M02/M03 Q1035
                        NOSIG=
201611292250 METAR COR EGLL 292250Z AUTO 36001KT 9000 NCD M02/M03 Q1035
                        NOSIG=
201611292220 METAR COR EGLL 292220Z AUTO 36003KT 9999 NCD M01/M02 Q1035
                        NOSIG=
201611292150 METAR COR EGLL 292150Z AUTO 36003KT 9999 NCD 00/M02 Q1035
                        NOSIG=
201611292120 METAR COR EGLL 292120Z AUTO 36005KT 9999 NCD 00/M02 Q1035
                        NOSIG=
201611292050 METAR COR EGLL 292050Z AUTO 36004KT 9999 NCD 00/M02 Q1035
                        NOSIG=
201611292020 METAR COR EGLL 292020Z AUTO 36005KT 9000 NCD 00/M02 Q1034
                        NOSIG=
201611291950 METAR COR EGLL 291950Z AUTO VRB01KT 9999 NCD 01/M03 Q1034
                        NOSIG=
201611291920 METAR COR EGLL 291920Z AUTO VRB03KT 9999 NCD 01/M03 Q1034
                        NOSIG=
201611291850 METAR COR EGLL 291850Z AUTO 06002KT 9999 NCD 02/M04 Q1034
                        NOSIG=
201611291820 METAR COR EGLL 291820Z AUTO VRB02KT 9999 NCD 03/M04 Q1034
                        NOSIG=
201611291750 METAR COR EGLL 291750Z AUTO 06002KT 9999 NCD 03/M04 Q1034
                        NOSIG=
201611291720 METAR COR EGLL 291720Z AUTO 07003KT 9999 NCD 04/M05 Q1034
                        NOSIG=
201611291650 METAR COR EGLL 291650Z AUTO 05002KT 9999 NCD 04/M05 Q1034
                        NOSIG=
201611291620 METAR COR EGLL 291620Z AUTO 09003KT 9999 NCD 04/M05 Q1034
                        NOSIG=
201611291550 METAR COR EGLL 291550Z AUTO 08003KT 9999 NCD 04/M06 Q1034
                        NOSIG=
201611291520 METAR COR EGLL 291520Z AUTO 09004KT 9999 NCD 05/M05 Q1034
                        NOSIG=
201611291450 METAR COR EGLL 291450Z AUTO 11005KT 9999 NCD 06/M06 Q1033
                        NOSIG=
201611291420 METAR COR EGLL 291420Z AUTO 10006KT 9999 NCD 07/M06 Q1033
                        NOSIG=
201611291350 METAR COR EGLL 291350Z AUTO 10007KT 9999 NCD 07/M06 Q1034
                        NOSIG=
201611291320 METAR COR EGLL 291320Z AUTO 10007KT 9999 NCD 07/M05 Q1034
                        NOSIG=
201611291250 METAR COR EGLL 291250Z AUTO 07004KT 040V110 9999 NCD 07/M02
                        Q1034 NOSIG=
201611291220 METAR COR EGLL 291220Z AUTO 06005KT 9999 NCD 06/M00 Q1034
                        NOSIG=
201611291150 METAR COR EGLL 291150Z AUTO 07005KT 9999 NCD 06/00 Q1034
                        NOSIG=
201611291120 METAR COR EGLL 291120Z AUTO 06005KT 9999 NCD 05/00 Q1034
                        NOSIG=
201611291050 METAR COR EGLL 291050Z AUTO 05004KT 9999 NCD 04/00 Q1035
                        NOSIG=
201611291020 METAR COR EGLL 291020Z AUTO 02004KT 350V060 9999 NCD 03/M00
                        Q1035 NOSIG=
201611290950 METAR COR EGLL 290950Z AUTO 02004KT 9999 NCD 02/M00 Q1035
                        NOSIG=
201611290920 METAR COR EGLL 290920Z AUTO VRB02KT 9999 NCD 01/M01 Q1034
                        NOSIG=
201611290850 METAR COR EGLL 290850Z AUTO 36004KT 340V040 9999 NCD 00/M01
                        Q1034 NOSIG=
201611290820 METAR COR EGLL 290820Z AUTO VRB01KT 9999 NCD M00/M02 Q1034
                        NOSIG=
201611290750 METAR COR EGLL 290750Z AUTO 35002KT 9000 NCD M01/M02 Q1034
                        NOSIG=
201611290720 METAR COR EGLL 290720Z AUTO 35002KT 9999 NCD M01/M02 Q1034
                        NOSIG=
201611290650 METAR COR EGLL 290650Z AUTO 01003KT 9999 NCD M01/M02 Q1033
                        NOSIG=
201611290620 METAR COR EGLL 290620Z AUTO 01003KT 9999 NCD M01/M02 Q1033
                        NOSIG=
201611290550 METAR COR EGLL 290550Z AUTO 36003KT 9999 NCD M01/M02 Q1033
                        NOSIG=
201611290520 METAR COR EGLL 290520Z AUTO 36004KT 9999 NCD M01/M02 Q1033
                        NOSIG=
201611290450 METAR COR EGLL 290450Z AUTO 36003KT 9999 NCD M00/M02 Q1032
                        NOSIG=
201611290420 METAR COR EGLL 290420Z AUTO 01003KT 9999 NCD M00/M02 Q1032
                        NOSIG=
201611290350 METAR COR EGLL 290350Z AUTO VRB02KT 9999 NCD M01/M02 Q1033
                        NOSIG=
201611290320 METAR COR EGLL 290320Z AUTO 02003KT 9999 NCD M00/M02 Q1033
                        NOSIG=
201611290250 METAR COR EGLL 290250Z AUTO 02004KT 9999 NCD 00/M02 Q1033
                        NOSIG=
201611290220 METAR COR EGLL 290220Z AUTO 01002KT 9999 NCD 00/M02 Q1033
                        NOSIG=
201611290150 METAR COR EGLL 290150Z AUTO VRB02KT 9999 NCD 00/M02 Q1033
                        NOSIG=
201611290120 METAR COR EGLL 290120Z AUTO 03004KT 9999 NCD 01/M01 Q1033
                        NOSIG=
201611290050 METAR COR EGLL 290050Z AUTO 04003KT 9999 NCD 01/M01 Q1033
                        NOSIG=
201611290020 METAR COR EGLL 290020Z AUTO 04004KT 9999 NCD 01/M01 Q1032
                        NOSIG=
201611282350 METAR COR EGLL 282350Z AUTO 04004KT 9999 NCD 02/M01 Q1033
                        NOSIG=
201611282320 METAR COR EGLL 282320Z AUTO VRB03KT 9999 NCD 02/M01 Q1033
                        NOSIG=
201611282250 METAR COR EGLL 282250Z AUTO 04005KT 9999 NCD 02/M01 Q1033
                        NOSIG=
201611282220 METAR COR EGLL 282220Z AUTO 04004KT 9999 NCD 03/M01 Q1033
                        NOSIG=
201611282150 METAR COR EGLL 282150Z AUTO 04003KT 9999 NCD 03/M01 Q1033
                        NOSIG=
201611282120 METAR COR EGLL 282120Z AUTO 06005KT 9999 NCD 03/M01 Q1032
                        NOSIG=
201611282050 METAR COR EGLL 282050Z AUTO 05007KT 9999 NCD 03/M00 Q1032
                        NOSIG=
201611282020 METAR COR EGLL 282020Z AUTO 06007KT 9999 NCD 04/M00 Q1032
                        NOSIG=
201611281950 METAR COR EGLL 281950Z AUTO 06007KT 9999 NCD 04/M00 Q1032
                        NOSIG=
201611281920 METAR COR EGLL 281920Z AUTO 06008KT 9999 NCD 05/00 Q1032
                        NOSIG=
201611281850 METAR COR EGLL 281850Z AUTO 06008KT 9999 NCD 05/00 Q1032
                        NOSIG=
201611281820 METAR COR EGLL 281820Z AUTO 06006KT 9999 NCD 05/00 Q1032
                        NOSIG=
201611281750 METAR COR EGLL 281750Z AUTO 06008KT 9999 FEW032 06/00 Q1032
                        NOSIG=
201611281720 METAR COR EGLL 281720Z 07010KT 9999 FEW034 06/M00 Q1031 NOSIG=
201611281650 METAR COR EGLL 281650Z 07008KT 050V110 9999 FEW034 06/M00
                        Q1031 NOSIG=
201611281620 METAR COR EGLL 281620Z AUTO 08009KT 9999 SCT036 06/M01 Q1031
                        NOSIG=
201611281550 METAR COR EGLL 281550Z AUTO 09011KT 9999 NCD 06/M01 Q1031
                        NOSIG=
201611281520 METAR EGLL 281520Z AUTO 09011KT 9999 NCD 06/M01 Q1031=
201611281450 METAR COR EGLL 281450Z AUTO 09014KT 9999 NCD 07/M01 Q1031
                        NOSIG=
201611281420 METAR COR EGLL 281420Z AUTO 09013KT 9999 NCD 08/M01 Q1031
                        NOSIG=
201611281350 METAR COR EGLL 281350Z AUTO 10013KT 9999 NCD 08/M01 Q1031
                        NOSIG=
201611281320 METAR COR EGLL 281320Z AUTO 10015KT 9999 NCD 08/M02 Q1031
                        NOSIG=
201611281250 METAR COR EGLL 281250Z AUTO 09010KT 9999 NCD 09/M02 Q1031
                        NOSIG=
201611281220 METAR COR EGLL 281220Z AUTO 10015KT 9999 NCD 08/M03 Q1031
                        NOSIG=
201611281150 METAR COR EGLL 281150Z AUTO 09014KT 9999 NCD 08/M04 Q1031
                        NOSIG=
201611281120 METAR COR EGLL 281120Z AUTO 10012KT 9999 NCD 08/M03 Q1031
                        NOSIG=
201611281050 METAR COR EGLL 281050Z AUTO 10011KT 9999 NCD 08/M02 Q1031
                        NOSIG=
201611281020 METAR COR EGLL 281020Z AUTO 10012KT 9999 NCD 08/M00 Q1031
                        NOSIG=
201611280950 METAR COR EGLL 280950Z AUTO 09011KT 9999 NCD 07/02 Q1030
                        NOSIG=
201611280920 METAR COR EGLL 280920Z AUTO 08008KT 9999 NCD 07/02 Q1030
                        NOSIG=
201611280850 METAR COR EGLL 280850Z AUTO 06006KT 9999 NCD 06/03 Q1029
                        NOSIG=
201611280820 METAR COR EGLL 280820Z AUTO 05005KT 9999 FEW024 06/03 Q1029
                        NOSIG=
201611280750 METAR COR EGLL 280750Z AUTO 06005KT 9999 SCT024 06/03 Q1029
                        NOSIG=
201611280720 METAR COR EGLL 280720Z AUTO 06006KT 9999 NCD 06/03 Q1028
                        NOSIG=
201611280650 METAR COR EGLL 280650Z AUTO 06007KT 9999 FEW029 BKN040 07/02
                        Q1028 NOSIG=
201611280620 METAR COR EGLL 280620Z AUTO 05006KT 9999 OVC040 07/02 Q1027
                        NOSIG=
201611280550 METAR COR EGLL 280550Z AUTO 03005KT 340V070 9999 OVC040 07/02
                        Q1027 NOSIG=
201611280520 METAR COR EGLL 280520Z AUTO 03005KT 350V060 9999 OVC042 07/01
                        Q1027 NOSIG=
201611280450 METAR COR EGLL 280450Z AUTO 03005KT 350V080 9999 OVC043 07/01
                        Q1027 NOSIG=
201611280420 METAR COR EGLL 280420Z AUTO 02005KT 340V060 9999 OVC042 07/01
                        Q1027 NOSIG=
201611280350 METAR COR EGLL 280350Z AUTO 02005KT 350V050 9999 OVC040 07/01
                        Q1027 NOSIG=
201611280320 METAR COR EGLL 280320Z AUTO 02006KT 350V060 9999 OVC042 07/01
                        Q1027 NOSIG=
201611280250 METAR COR EGLL 280250Z AUTO 03005KT 9999 OVC043 07/01 Q1027
                        NOSIG=
201611280220 METAR COR EGLL 280220Z AUTO 03006KT 360V060 9999 OVC039 07/01
                        Q1027 NOSIG=
201611280150 METAR COR EGLL 280150Z AUTO 03005KT 9999 OVC038 07/01 Q1027
                        NOSIG=
201611280120 METAR EGLL 280120Z AUTO 03005KT 360V060 9999 OVC038 07/02
                        Q1027=
201611280050 METAR EGLL 280050Z AUTO 03006KT 9999 OVC039 07/01 Q1027=
201611280020 METAR COR EGLL 280020Z AUTO 04006KT 9999 OVC039 07/01 Q1027
                        NOSIG=
201611272350 METAR COR EGLL 272350Z AUTO 05006KT 360V080 9999 OVC040 07/01
                        Q1027 NOSIG=
201611272320 METAR COR EGLL 272320Z AUTO 04007KT 010V070 9999 OVC041 07/02
                        Q1027 NOSIG=
201611272250 METAR COR EGLL 272250Z AUTO 05006KT 9999 OVC042 07/03 Q1027
                        NOSIG=
201611272220 METAR COR EGLL 272220Z AUTO 05006KT 9999 OVC044 07/03 Q1027
                        NOSIG=
201611272150 METAR COR EGLL 272150Z AUTO 04007KT 9999 OVC041 07/03 Q1027
                        NOSIG=
201611272120 METAR COR EGLL 272120Z AUTO 04007KT 360V070 9999 FEW033 OVC041
                        07/04 Q1027 NOSIG=
201611272050 METAR COR EGLL 272050Z AUTO 02004KT 340V050 9999 OVC039 06/03
                        Q1027 NOSIG=
201611272020 METAR COR EGLL 272020Z AUTO 03005KT 9999 BKN043 06/03 Q1026
                        NOSIG=
201611271950 METAR COR EGLL 271950Z AUTO 03004KT 9999 FEW043 06/03 Q1026
                        NOSIG=
201611271920 METAR COR EGLL 271920Z AUTO 02004KT 340V050 9999 FEW040 07/02
                        Q1026 NOSIG=
201611271850 METAR COR EGLL 271850Z AUTO 04005KT 360V070 9999 BKN038 08/02
                        Q1026 NOSIG=
201611271820 METAR COR EGLL 271820Z AUTO 04006KT 360V070 9999 OVC040 08/03
                        Q1026 NOSIG=
201611271750 METAR COR EGLL 271750Z AUTO 03008KT 9999 OVC038 08/04 Q1026
                        NOSIG=
201611271720 METAR COR EGLL 271720Z AUTO 03006KT 350V080 9999 OVC033 08/04
                        Q1026 NOSIG=
201611271650 METAR COR EGLL 271650Z AUTO 03005KT 9999 OVC035 08/04 Q1025
                        NOSIG=
201611271620 METAR COR EGLL 271620Z AUTO 04006KT 010V080 9999 OVC032 08/04
                        Q1025 NOSIG=
201611271550 METAR COR EGLL 271550Z AUTO 04006KT 010V070 9999 BKN022 08/04
                        Q1025 NOSIG=
201611271520 METAR COR EGLL 271520Z AUTO 03004KT 340V060 9999 BKN031 08/04
                        Q1025 NOSIG=
201611271450 METAR COR EGLL 271450Z AUTO 05005KT 010V080 9999 FEW027 08/03
                        Q1025 NOSIG=
201611271420 METAR COR EGLL 271420Z 05006KT 360V070 9999 SCT034 08/03
                        Q1025 NOSIG=
201611271350 METAR COR EGLL 271350Z AUTO 06008KT 9999 OVC021 08/03 Q1025
                        NOSIG=
201611271320 METAR COR EGLL 271320Z AUTO 07009KT 9999 OVC022 08/04 Q1025
                        NOSIG=
201611271250 METAR COR EGLL 271250Z AUTO 06009KT 9999 OVC027 08/03 Q1025
                        NOSIG=
201611271220 METAR COR EGLL 271220Z AUTO 06010KT 9999 OVC021 08/04 Q1025
                        NOSIG=
201611271150 METAR COR EGLL 271150Z AUTO 05006KT 9999 OVC030 08/05 Q1025
                        NOSIG=
201611271120 METAR COR EGLL 271120Z AUTO 05005KT 010V080 9999 OVC029 08/05
                        Q1025 NOSIG=
201611271050 METAR COR EGLL 271050Z AUTO 04005KT 360V070 9999 OVC032 08/05
                        Q1025 NOSIG=
201611271020 METAR COR EGLL 271020Z AUTO 04006KT 010V090 9999 OVC029 08/05
                        Q1025 NOSIG=
201611270950 METAR COR EGLL 270950Z AUTO 04006KT 010V080 9999 OVC028 08/05
                        Q1025 NOSIG=
201611270920 METAR COR EGLL 270920Z AUTO 04006KT 360V070 9000 OVC025 07/05
                        Q1025 NOSIG=
201611270850 METAR COR EGLL 270850Z AUTO 03005KT 360V070 7000 OVC026 07/06
                        Q1025 NOSIG=
201611270820 METAR COR EGLL 270820Z AUTO 04005KT 5000 HZ OVC025 07/06
                        Q1024 NOSIG=
201611270750 METAR COR EGLL 270750Z AUTO 04005KT 360V070 4100 BR FEW004
                        OVC027 07/06 Q1024 BECMG 6000=
201611270720 METAR COR EGLL 270720Z AUTO 02004KT 350V060 4000 BR SCT005
                        OVC024 06/06 Q1024 TEMPO BKN006=
201611270650 METAR COR EGLL 270650Z AUTO 02005KT 350V050 4400 BR OVC024
                        06/06 Q1023 TEMPO BKN005=
201611270620 METAR COR EGLL 270620Z AUTO VRB02KT 4000 BR FEW004/// BKN022///
                        06/06 Q1023 BECMG 5000=
201611270550 METAR COR EGLL 270550Z 02003KT 4000 BR FEW004 BKN022 06/06
                        Q1023 BECMG 5000=
201611270520 METAR COR EGLL 270520Z VRB02KT 3100 BR SCT003 SCT007 06/06
                        Q1023 REDZ TEMPO 2000 -DZ BKN004=
201611270450 METAR COR EGLL 270450Z 35002KT 1700 DZ FEW001 SCT003 BKN005
                        06/05 Q1023 TEMPO 4000 BR=
201611270420 METAR COR EGLL 270420Z VRB03KT 1600 DZ FEW001 BKN003 BKN009
                        06/05 Q1023 TEMPO 3000 BR SCT003
                        BKN005=
201611270350 METAR COR EGLL 270350Z 36003KT 2000 DZ SCT003 BKN005 06/05
                        Q1023 TEMPO BKN003=
201611270320 METAR COR EGLL 270320Z VRB02KT 6000 BKN006 06/05 Q1023 TEMPO
                        4000 BR BKN004=
201611270250 METAR COR EGLL 270250Z AUTO VRB02KT 7000 OVC005 06/05 Q1023
                        TEMPO 4000 BR BKN004=
201611270220 METAR COR EGLL 270220Z AUTO 03004KT 350V070 9000 BKN004 05/04
                        Q1023 TEMPO SCT004 BKN006=
201611270150 METAR COR EGLL 270150Z AUTO VRB02KT 9999 BKN018 05/04 Q1023
                        BECMG BKN006=
201611270120 METAR COR EGLL 270120Z AUTO 03002KT 9999 BKN018 05/04 Q1022
                        BECMG BKN008=
201611270050 METAR COR EGLL 270050Z AUTO VRB02KT 9000 BKN017 05/04 Q1022
                        TEMPO BKN010=
201611270020 METAR COR EGLL 270020Z AUTO VRB01KT 9999 BKN016 05/04 Q1022
                        BECMG 6000 BKN006=
201611262350 METAR COR EGLL 262350Z AUTO VRB02KT 9999 BKN015 06/04 Q1022
                        BECMG 6000 BKN006=
201611262320 METAR COR EGLL 262320Z AUTO VRB03KT 9999 BKN013 06/05 Q1022
                        TEMPO FEW008 BKN015=
201611262250 METAR COR EGLL 262250Z 05005KT 9999 SCT008 SCT019 06/05 Q1022
                        NOSIG=
201611262220 METAR COR EGLL 262220Z 05006KT 360V090 9999 SCT007 BKN009
                        06/05 Q1022 TEMPO SCT007 BKN012=
201611262150 METAR COR EGLL 262150Z AUTO 05005KT 9999 BKN006 OVC019 06/05
                        Q1022 TEMPO SCT006=
201611262120 METAR COR EGLL 262120Z AUTO 04007KT 360V060 9999 BKN006 06/05
                        Q1021 TEMPO SCT006=
201611262050 METAR COR EGLL 262050Z AUTO 04006KT 9999 FEW021 06/05 Q1021
                        BECMG BKN008=
201611262020 METAR COR EGLL 262020Z AUTO 03006KT 350V060 9999 FEW017 06/05
                        Q1021 NOSIG=
201611261950 METAR COR EGLL 261950Z AUTO 04005KT 9000 BKN022 06/05 Q1021
                        NOSIG=
201611261920 METAR COR EGLL 261920Z AUTO 04005KT 8000 FEW023 06/06 Q1021
                        NOSIG=
201611261850 METAR COR EGLL 261850Z AUTO 03004KT 8000 BKN020 07/06 Q1021
                        NOSIG=
201611261820 METAR COR EGLL 261820Z AUTO VRB03KT 9000 BKN020 06/05 Q1021
                        NOSIG=
201611261750 METAR COR EGLL 261750Z AUTO VRB03KT 9000 NCD 06/05 Q1020
                        NOSIG=
201611261720 METAR COR EGLL 261720Z AUTO VRB03KT 9999 FEW020/// 07/05
                        Q1020 NOSIG=
201611261650 METAR COR EGLL 261650Z VRB03KT 9999 FEW020 07/05 Q1020 NOSIG=
201611261620 METAR COR EGLL 261620Z VRB03KT 9999 SCT021 08/05 Q1020 NOSIG=
201611261550 METAR COR EGLL 261550Z 04004KT 010V070 9999 FEW015 SCT021
                        08/06 Q1020 NOSIG=
201611261520 METAR COR EGLL 261520Z AUTO 08005KT 9999 SCT018 09/06 Q1020
                        NOSIG=
201611261450 METAR COR EGLL 261450Z AUTO 07006KT 9999 FEW021 08/05 Q1020
                        NOSIG=
201611261420 METAR COR EGLL 261420Z AUTO 06006KT 9999 SCT016 08/05 Q1020
                        NOSIG=
201611261350 METAR COR EGLL 261350Z 06007KT 020V090 9999 SCT017 09/06
                        Q1020 NOSIG=
201611261320 METAR COR EGLL 261320Z 07009KT 9999 SCT016 09/06 Q1020 NOSIG=
201611261250 METAR COR EGLL 261250Z 05007KT 020V080 9999 SCT016 09/06
                        Q1020 NOSIG=
201611261220 METAR COR EGLL 261220Z 04005KT 9999 BKN014 08/06 Q1021 BECMG
                        SCT016=
201611261150 METAR COR EGLL 261150Z 05006KT 010V080 9999 FEW011 BKN015
                        08/05 Q1021 NOSIG=
201611261120 METAR COR EGLL 261120Z 03004KT 320V080 9999 BKN016 07/05
                        Q1021 NOSIG=
201611261050 METAR COR EGLL 261050Z AUTO 02004KT 350V060 9999 FEW005 06/05
                        Q1021 NOSIG=
201611261020 METAR COR EGLL 261020Z AUTO 04004KT 020V090 8000 BKN003 06/05
                        Q1021 TEMPO SCT006=
201611260950 METAR COR EGLL 260950Z 03005KT 350V060 7000 SCT004 05/04
                        Q1021 NOSIG=
201611260920 METAR COR EGLL 260920Z 03005KT 4900 BR SCT003 04/04 Q1021
                        BECMG 9000 BKN004=
201611260850 METAR COR EGLL 260850Z 03004KT 3600 BR SCT002 04/04 Q1021
                        BECMG 7000 BKN004=
201611260820 METAR COR EGLL 260820Z AUTO 02004KT 340V070 5000 BR FEW003
                        03/03 Q1021 TEMPO 4000 BKN003=
201611260750 METAR COR EGLL 260750Z AUTO 04004KT 6000 NCD 03/03 Q1021
                        NOSIG=
201611260720 METAR COR EGLL 260720Z 03004KT 350V050 6000 FEW001 04/03
                        Q1021 TEMPO 4500 BR=
201611260650 METAR COR EGLL 260650Z 02005KT 4700 BR FEW000 SCT001 03/03
                        Q1021 TEMPO BKN002=
201611260620 METAR COR EGLL 260620Z 02004KT 4300 BR FEW001 SCT002 02/02
                        Q1021 TEMPO 1500 BKN002=
201611260550 METAR COR EGLL 260550Z VRB02KT 8000 NSC 03/03 Q1021 NOSIG=
201611260520 METAR COR EGLL 260520Z AUTO VRB01KT 5000 BR NCD 02/02 Q1021
                        NOSIG=
201611260450 METAR COR EGLL 260450Z AUTO 01003KT 5000 BR NCD 02/02 Q1021
                        NOSIG=
201611260420 METAR COR EGLL 260420Z AUTO 02002KT 6000 NCD 02/02 Q1021
                        NOSIG=
201611260350 METAR COR EGLL 260350Z AUTO VRB01KT 8000 NCD 03/03 Q1021
                        NOSIG=
201611260320 METAR COR EGLL 260320Z VRB01KT CAVOK 03/03 Q1021 NOSIG=
201611260250 METAR COR EGLL 260250Z VRB02KT CAVOK 03/03 Q1021 NOSIG=
201611260220 METAR COR EGLL 260220Z AUTO VRB02KT 9999 NCD 03/03 Q1021
                        NOSIG=
201611260150 METAR COR EGLL 260150Z AUTO VRB03KT 9999 NCD 03/03 Q1021
                        NOSIG=
201611260120 METAR COR EGLL 260120Z AUTO VRB03KT 9999 NCD 03/03 Q1021
                        NOSIG=
201611260050 METAR COR EGLL 260050Z AUTO 36004KT 9999 NCD 04/04 Q1021
                        NOSIG=
201611260020 METAR COR EGLL 260020Z AUTO 35004KT 9999 NCD 05/05 Q1021
                        NOSIG=
201611252350 METAR COR EGLL 252350Z AUTO 04004KT 360V080 9999 NCD 05/05
                        Q1021 NOSIG=
201611252320 METAR COR EGLL 252320Z AUTO 06005KT 9999 NCD 06/04 Q1021
                        NOSIG=
201611252250 METAR COR EGLL 252250Z AUTO 06005KT 9999 NCD 06/04 Q1021
                        NOSIG=
201611252220 METAR COR EGLL 252220Z AUTO 05007KT 9999 NCD 06/04 Q1021
                        NOSIG=
201611252150 METAR COR EGLL 252150Z AUTO 05007KT 9999 NCD 06/04 Q1021
                        NOSIG=
201611252120 METAR COR EGLL 252120Z AUTO 05008KT 9999 NCD 06/04 Q1021
                        NOSIG=
201611252050 METAR COR EGLL 252050Z AUTO 05007KT 9999 NCD 07/04 Q1021
                        NOSIG=
201611252020 METAR COR EGLL 252020Z AUTO 05007KT 010V080 9999 NCD 07/04
                        Q1021 NOSIG=
201611251950 METAR COR EGLL 251950Z AUTO 05007KT 020V090 9999 NCD 07/04
                        Q1021 NOSIG=
201611251920 METAR COR EGLL 251920Z AUTO 05008KT 360V080 9999 NCD 07/04
                        Q1021 NOSIG=
201611251850 METAR COR EGLL 251850Z AUTO 05008KT 360V080 9999 NCD 07/04
                        Q1021 NOSIG=
201611251820 METAR COR EGLL 251820Z AUTO 06008KT 9999 NCD 07/04 Q1021
                        NOSIG=
201611251750 METAR EGLL 251750Z AUTO 05009KT 9999 NCD 08/04 Q1021=
201611251720 METAR COR EGLL 251720Z AUTO 05008KT 9999 NCD 08/03 Q1021
                        NOSIG=
201611251650 METAR COR EGLL 251650Z AUTO 05008KT 9999 NCD 09/03 Q1021
                        NOSIG=
201611251620 METAR COR EGLL 251620Z AUTO 05008KT 9999 NCD 09/03 Q1020
                        NOSIG=
201611251550 METAR COR EGLL 251550Z AUTO 05009KT 9999 NCD 09/02 Q1020
                        NOSIG=
201611251520 METAR COR EGLL 251520Z AUTO 05010KT 9999 NCD 10/02 Q1020
                        NOSIG=
201611251450 METAR COR EGLL 251450Z AUTO 06010KT 020V080 9999 NCD 10/02
                        Q1020 NOSIG=
201611251420 METAR COR EGLL 251420Z AUTO 05010KT 9999 NCD 11/02 Q1021
                        NOSIG=
201611251350 METAR COR EGLL 251350Z AUTO 05011KT 020V090 9999 NCD 11/02
                        Q1021 NOSIG=
201611251320 METAR COR EGLL 251320Z AUTO 06011KT 9999 NCD 11/02 Q1021
                        NOSIG=
201611251250 METAR COR EGLL 251250Z AUTO 06011KT 9999 NCD 11/02 Q1021
                        NOSIG=
201611251220 METAR COR EGLL 251220Z AUTO 06011KT 030V090 9999 NCD 10/02
                        Q1021 NOSIG=
201611251150 METAR COR EGLL 251150Z AUTO 05009KT 020V080 9999 NCD 10/02
                        Q1022 NOSIG=
201611251120 METAR COR EGLL 251120Z AUTO 05010KT 9999 NCD 09/02 Q1022
                        NOSIG=
201611251050 METAR COR EGLL 251050Z AUTO 05009KT 010V080 9999 NCD 08/02
                        Q1022 NOSIG=
201611251020 METAR COR EGLL 251020Z AUTO 05009KT 020V090 9999 NCD 08/02
                        Q1022 NOSIG=
201611250950 METAR COR EGLL 250950Z AUTO 05010KT 9999 NCD 08/02 Q1022
                        NOSIG=
201611250920 METAR COR EGLL 250920Z AUTO 05007KT 010V090 9999 NCD 07/02
                        Q1022 NOSIG=
201611250850 METAR COR EGLL 250850Z AUTO 05008KT 360V070 9999 NCD 06/02
                        Q1022 NOSIG=
201611250820 METAR COR EGLL 250820Z AUTO 05006KT 360V080 9999 NCD 06/02
                        Q1022 NOSIG=
201611250750 METAR COR EGLL 250750Z AUTO 05006KT 020V080 9999 NCD 06/02
                        Q1022 NOSIG=
201611250720 METAR COR EGLL 250720Z AUTO 06007KT 030V100 9999 NCD 06/02
                        Q1022 NOSIG=
201611250650 METAR COR EGLL 250650Z AUTO 04006KT 020V080 9999 NCD 06/03
                        Q1022 NOSIG=
201611250620 METAR COR EGLL 250620Z AUTO 04005KT 010V080 9999 NCD 06/03
                        Q1022 NOSIG=
201611250550 METAR COR EGLL 250550Z AUTO 04005KT 010V080 9999 NCD 06/03
                        Q1022 NOSIG=
201611250520 METAR COR EGLL 250520Z AUTO 04007KT 9999 NCD 06/03 Q1022
                        NOSIG=
201611250450 METAR COR EGLL 250450Z AUTO 04008KT 020V080 9999 NCD 06/03
                        Q1022 NOSIG=
201611250420 METAR COR EGLL 250420Z AUTO 04007KT 020V090 9999 NCD 06/03
                        Q1022 NOSIG=
201611250350 METAR COR EGLL 250350Z AUTO 06009KT 9999 NCD 06/03 Q1022
                        NOSIG=
201611250320 METAR COR EGLL 250320Z AUTO 04007KT 010V080 9999 NCD 06/03
                        Q1022 NOSIG=
201611250250 METAR COR EGLL 250250Z AUTO 03008KT 350V060 9999 NCD 06/03
                        Q1023 NOSIG=
201611250220 METAR COR EGLL 250220Z AUTO 04008KT 360V070 9999 NCD 07/03
                        Q1023 NOSIG=
201611250150 METAR COR EGLL 250150Z AUTO 04008KT 360V080 9999 NCD 07/03
                        Q1023 NOSIG=
201611250120 METAR COR EGLL 250120Z AUTO 04008KT 9999 NCD 07/04 Q1023
                        NOSIG=
201611250050 METAR COR EGLL 250050Z AUTO 04010KT 360V060 9999 NCD 07/04
                        Q1023 NOSIG=
201611250020 METAR COR EGLL 250020Z AUTO 05009KT 9999 NCD 07/04 Q1023
                        NOSIG=
201611242350 METAR COR EGLL 242350Z AUTO 05009KT 9999 NCD 07/04 Q1024
                        NOSIG=
201611242320 METAR COR EGLL 242320Z AUTO 05007KT 9999 NCD 07/04 Q1024
                        NOSIG=
201611242250 METAR COR EGLL 242250Z AUTO 04009KT 010V080 9999 NCD 07/04
                        Q1024 NOSIG=
201611242220 METAR COR EGLL 242220Z AUTO 06008KT 020V080 9999 NCD 08/04
                        Q1023 NOSIG=
201611242150 METAR COR EGLL 242150Z AUTO 05009KT 9999 NCD 08/04 Q1023
                        NOSIG=
201611242120 METAR COR EGLL 242120Z AUTO 05010KT 9999 NCD 08/04 Q1023
                        NOSIG=
201611242050 METAR COR EGLL 242050Z AUTO 05010KT 9999 FEW020 08/04 Q1023
                        NOSIG=
201611242020 METAR COR EGLL 242020Z AUTO 05009KT 020V090 9999 FEW020 08/04
                        Q1023 NOSIG=
201611241950 METAR COR EGLL 241950Z AUTO 05008KT 9999 BKN020 08/04 Q1024
                        NOSIG=
201611241920 METAR COR EGLL 241920Z AUTO 05011KT 020V080 9999 BKN022 09/04
                        Q1024 NOSIG=
201611241850 METAR COR EGLL 241850Z AUTO 06010KT 020V090 9999 BKN020 09/05
                        Q1024 NOSIG=
201611241820 METAR COR EGLL 241820Z AUTO 06012KT 9999 BKN021 09/05 Q1024
                        NOSIG=
201611241750 METAR COR EGLL 241750Z AUTO 06011KT 9999 BKN021 09/05 Q1024
                        NOSIG=
201611241720 METAR COR EGLL 241720Z AUTO 05010KT 9999 BKN020 09/05 Q1023
                        NOSIG=
201611241650 METAR COR EGLL 241650Z AUTO 06007KT 9999 BKN020 09/05 Q1023
                        NOSIG=
201611241620 METAR COR EGLL 241620Z AUTO 06014KT 9999 BKN021 10/05 Q1023
                        NOSIG=
201611241550 METAR COR EGLL 241550Z AUTO 06012KT 030V090 9999 OVC017 10/06
                        Q1023 NOSIG=
201611241520 METAR COR EGLL 241520Z AUTO 05012KT 9999 OVC017 10/06 Q1023
                        NOSIG=
201611241450 METAR COR EGLL 241450Z 06012KT 9999 FEW018 BKN022 10/07 Q1022
                        NOSIG=
201611241420 METAR COR EGLL 241420Z 05013KT 9999 FEW016 BKN026 10/08 Q1022
                        NOSIG=
201611241350 METAR COR EGLL 241350Z 05011KT 010V080 9999 FEW016 SCT025
                        10/08 Q1023 NOSIG=
201611241320 METAR COR EGLL 241320Z 05011KT 9999 SCT016 SCT026 10/08 Q1023
                        NOSIG=
201611241250 METAR COR EGLL 241250Z 05010KT 9999 SCT020 SCT026 10/08 Q1023
                        NOSIG=
201611241220 METAR COR EGLL 241220Z 05011KT 9999 BKN020 10/08 Q1023 NOSIG=
201611241150 METAR COR EGLL 241150Z 05011G22KT 9999 SCT018 SCT021 10/08
                        Q1023 NOSIG=
201611241120 METAR COR EGLL 241120Z AUTO 05011KT 020V090 9999 OVC015 10/08
                        Q1023 NOSIG=
201611241050 METAR COR EGLL 241050Z AUTO 05009KT 9999 OVC014 10/08 Q1024
                        BECMG BKN018=
201611241020 METAR COR EGLL 241020Z AUTO 05011KT 9999 OVC015 10/08 Q1024
                        NOSIG=
201611240950 METAR COR EGLL 240950Z AUTO 05012KT 9999 OVC014 10/08 Q1024
                        BECMG BKN018=
201611240920 METAR COR EGLL 240920Z AUTO 06010KT 9999 OVC015 10/08 Q1024
                        NOSIG=
201611240850 METAR COR EGLL 240850Z AUTO 05009KT 010V070 9999 OVC014 10/08
                        Q1023 BECMG BKN018=
201611240820 METAR COR EGLL 240820Z AUTO 05011G21KT 9999 OVC015 10/08
                        Q1023 TEMPO BKN014=
201611240750 METAR COR EGLL 240750Z AUTO 05010KT 020V080 9999 OVC014 10/08
                        Q1023 BECMG BKN018=
201611240720 METAR COR EGLL 240720Z AUTO 06010KT 9999 OVC015 10/08 Q1022
                        NOSIG=
201611240650 METAR COR EGLL 240650Z AUTO 06011KT 9999 OVC015 10/08 Q1022
                        NOSIG=
201611240620 METAR COR EGLL 240620Z AUTO 06010KT 9999 BKN015 10/08 Q1022
                        NOSIG=
201611240550 METAR COR EGLL 240550Z 06011KT 9999 BKN016 10/08 Q1022 TEMPO
                        BKN014=
201611240520 METAR COR EGLL 240520Z AUTO 06010KT 020V080 9999 OVC014 10/08
                        Q1022 BECMG BKN016=
201611240450 METAR COR EGLL 240450Z AUTO 06010KT 030V090 9999 OVC015 10/08
                        Q1022 TEMPO BKN014=
201611240420 METAR COR EGLL 240420Z AUTO 06010KT 9999 OVC014 10/09 Q1022
                        BECMG BKN016=
201611240350 METAR COR EGLL 240350Z AUTO 06010KT 9999 BKN013 OVC037 10/09
                        Q1022 TEMPO BKN015=
201611240320 METAR COR EGLL 240320Z AUTO 06011KT 9999 BKN013 OVC036 10/09
                        Q1022 TEMPO SCT013=
201611240250 METAR COR EGLL 240250Z AUTO 05009KT 9999 BKN013 OVC035 10/09
                        Q1022 TEMPO SCT013=
201611240220 METAR COR EGLL 240220Z AUTO 05010KT 9999 BKN013 10/09 Q1021
                        TEMPO SCT013=
201611240150 METAR COR EGLL 240150Z AUTO 05010KT 9999 BKN013 BKN035 10/09
                        Q1021 TEMPO SCT013=
201611240120 METAR COR EGLL 240120Z AUTO 05009KT 9999 BKN013 OVC034 10/09
                        Q1021 NOSIG=
201611240050 METAR COR EGLL 240050Z AUTO 05009KT 9999 BKN013 10/09 Q1021
                        NOSIG=
201611240020 METAR COR EGLL 240020Z AUTO 05011KT 010V080 9999 OVC012 10/09
                        Q1021 NOSIG=
201611232350 METAR COR EGLL 232350Z AUTO 05011KT 020V090 9999 OVC011 10/08
                        Q1021 NOSIG=
201611232320 METAR COR EGLL 232320Z AUTO 06010KT 010V080 9999 OVC011 10/08
                        Q1021 NOSIG=
201611232250 METAR COR EGLL 232250Z AUTO 05009KT 9999 OVC011 09/08 Q1021
                        NOSIG=
201611232220 METAR COR EGLL 232220Z AUTO 04009KT 9999 OVC011 09/08 Q1021
                        NOSIG=
201611232150 METAR COR EGLL 232150Z AUTO 04009KT 010V080 9999 OVC012 09/08
                        Q1021 NOSIG=
201611232120 METAR COR EGLL 232120Z AUTO 05009KT 9999 OVC012 09/08 Q1021
                        NOSIG=
201611232050 METAR COR EGLL 232050Z AUTO 06009KT 9999 BKN013 09/08 Q1021
                        TEMPO BKN015=
201611232020 METAR COR EGLL 232020Z AUTO 04009KT 9999 BKN014 OVC022 09/07
                        Q1020 TEMPO SCT014=
201611231950 METAR COR EGLL 231950Z AUTO 05008KT 020V080 9999 BKN015 09/07
                        Q1020 TEMPO BKN014=
201611231920 METAR COR EGLL 231920Z AUTO 05009KT 9999 BKN015 OVC025 09/07
                        Q1020 TEMPO BKN014=
201611231850 METAR COR EGLL 231850Z 04008KT 9999 SCT016 BKN038 09/08 Q1020
                        TEMPO BKN014=
201611231820 METAR COR EGLL 231820Z AUTO 04008KT 9999 FEW014 BKN024 09/08
                        Q1019 TEMPO BKN014=
201611231750 METAR COR EGLL 231750Z AUTO 04009KT 9999 SCT019 BKN033 09/08
                        Q1019 NOSIG=
201611231720 METAR COR EGLL 231720Z AUTO 04008KT 350V070 8000 FEW011 BKN020
                        09/08 Q1019 NOSIG=
201611231650 METAR COR EGLL 231650Z AUTO 04008KT 9999 FEW010 SCT017 BKN037
                        09/08 Q1019 NOSIG=
201611231620 METAR COR EGLL 231620Z AUTO 04007KT 360V060 9999 FEW029 OVC039
                        09/08 Q1018 NOSIG=
201611231550 METAR COR EGLL 231550Z AUTO 03007KT 360V070 9999 OVC039 09/08
                        Q1018 NOSIG=
201611231520 METAR COR EGLL 231520Z AUTO 02006KT 350V050 9999 SCT021 BKN039
                        09/08 Q1018 NOSIG=
201611231450 METAR COR EGLL 231450Z AUTO 03005KT 350V060 9999 BKN021 10/08
                        Q1018 NOSIG=
201611231420 METAR COR EGLL 231420Z AUTO 04006KT 360V080 9999 SCT020 10/08
                        Q1018 NOSIG=
201611231350 METAR COR EGLL 231350Z AUTO 04007KT 010V070 9999 BKN023 10/08
                        Q1018 NOSIG=
201611231320 METAR COR EGLL 231320Z AUTO 05005KT 010V080 9999 BKN025 10/08
                        Q1018 NOSIG=
201611231250 METAR COR EGLL 231250Z AUTO 06006KT 020V090 9999 FEW028 10/08
                        Q1017 NOSIG=
201611231220 METAR COR EGLL 231220Z AUTO 03005KT 350V050 9999 FEW001 09/08
                        Q1018 NOSIG=
201611231150 METAR COR EGLL 231150Z AUTO 03005KT 9999 NCD 09/08 Q1017
                        NOSIG=
201611231120 METAR COR EGLL 231120Z AUTO 04006KT 010V080 9000 NCD 08/08
                        Q1017 NOSIG=
201611231050 METAR COR EGLL 231050Z AUTO 05006KT 8000 FEW007 08/07 Q1017
                        NOSIG=
201611231020 METAR COR EGLL 231020Z AUTO 04005KT 010V070 6000 FEW007 08/07
                        Q1018 NOSIG=
201611230950 METAR COR EGLL 230950Z AUTO 05005KT 360V080 6000 FEW007 08/07
                        Q1017 NOSIG=
201611230920 METAR COR EGLL 230920Z AUTO 03004KT 350V060 6000 FEW006 BKN044
                        07/07 Q1017 NOSIG=
201611230850 METAR COR EGLL 230850Z AUTO 04005KT 6000 FEW023 BKN036 07/07
                        Q1017 NOSIG=
201611230820 METAR COR EGLL 230820Z AUTO 02004KT 6000 FEW022 BKN035 06/06
                        Q1016 NOSIG=
201611230750 METAR COR EGLL 230750Z AUTO VRB03KT 6000 FEW002 OVC040 06/06
                        Q1016 NOSIG=
201611230720 METAR COR EGLL 230720Z 36004KT 320V020 6000 FEW002 BKN041
                        06/06 Q1016 TEMPO BKN003=
201611230650 METAR COR EGLL 230650Z VRB03KT 9000 3000W BR MIFG SCT001
                        BKN041 06/06 Q1016 TEMPO 4500 BKN003=
201611230620 METAR COR EGLL 230620Z 36003KT 9000 4000W BR MIFG FEW001
                        BKN035 05/05 Q1015 TEMPO 4800 BKN004=
201611230550 METAR COR EGLL 230550Z VRB02KT 9999 4000NW MIFG BR FEW001
                        SCT045 05/05 Q1015 TEMPO 4800 BKN003=
201611230520 METAR EGLL 230520Z 33001KT 9999 FEW002 SCT042 04/04 Q1015=
201611230450 METAR COR EGLL 230450Z 35003KT 9999 FEW003 05/05 Q1014 TEMPO
                        4800 BR BKN004=
201611230420 METAR COR EGLL 230420Z AUTO VRB02KT 9999 SCT037 05/05 Q1014
                        NOSIG=
201611230350 METAR COR EGLL 230350Z AUTO VRB03KT 9999 BKN035 05/05 Q1013
                        NOSIG=
201611230320 METAR COR EGLL 230320Z AUTO 35003KT 9999 FEW037 05/05 Q1013
                        NOSIG=
201611230250 METAR COR EGLL 230250Z AUTO VRB02KT 9999 FEW032 05/05 Q1013
                        NOSIG=
201611230220 METAR COR EGLL 230220Z AUTO 36003KT 9999 FEW033 05/05 Q1013
                        NOSIG=
201611230150 METAR COR EGLL 230150Z AUTO VRB02KT 9999 FEW046 06/06 Q1013
                        NOSIG=
201611230120 METAR COR EGLL 230120Z AUTO VRB02KT 9999 BKN044 06/06 Q1012
                        NOSIG=
201611230050 METAR COR EGLL 230050Z AUTO 17001KT 9999 OVC042 07/07 Q1012
                        NOSIG=
201611230020 METAR COR EGLL 230020Z AUTO 14003KT 9999 FEW044 06/06 Q1012
                        TEMPO 4000 BR=
201611222350 METAR COR EGLL 222350Z AUTO 15003KT 9999 NCD 06/06 Q1012
                        NOSIG=
201611222320 METAR COR EGLL 222320Z AUTO 14004KT 9999 NCD 06/06 Q1011
                        NOSIG=
201611222250 METAR COR EGLL 222250Z AUTO 16003KT 9999 NCD 07/07 Q1011
                        NOSIG=
201611222220 METAR COR EGLL 222220Z AUTO VRB03KT 9999 NCD 07/07 Q1010
                        NOSIG=
201611222150 METAR COR EGLL 222150Z AUTO 22004KT 9999 FEW038 08/06 Q1010
                        NOSIG=
201611222120 METAR COR EGLL 222120Z AUTO 21006KT 9999 BKN033 OVC048 09/06
                        Q1010 NOSIG=
201611222050 METAR COR EGLL 222050Z AUTO 21006KT 180V260 9999 -RA SCT018
                        BKN031 09/06 Q1010 NOSIG=
201611222020 METAR COR EGLL 222020Z AUTO 21006KT 9999 SCT020 SCT045 09/06
                        Q1009 NOSIG=
201611221950 METAR COR EGLL 221950Z AUTO 21007KT 170V240 9999 BKN023 BKN037
                        09/06 Q1009 NOSIG=
201611221920 METAR COR EGLL 221920Z AUTO 18008KT 150V220 9999 BKN023 BKN036
                        09/06 Q1008 NOSIG=
201611221850 METAR COR EGLL 221850Z AUTO 20007KT 9999 BKN025 BKN046 09/06
                        Q1008 NOSIG=
201611221820 METAR COR EGLL 221820Z AUTO 20009KT 150V220 9999 SCT027 BKN044
                        09/06 Q1007 NOSIG=
201611221750 METAR COR EGLL 221750Z AUTO 19008KT 160V220 9999 BKN031 10/06
                        Q1007 NOSIG=
201611221720 METAR COR EGLL 221720Z AUTO 19008KT 180V240 9999 BKN030 10/06
                        Q1007 NOSIG=
201611221650 METAR COR EGLL 221650Z AUTO 20009KT 160V230 9999 BKN030 10/05
                        Q1006 NOSIG=
201611221620 METAR COR EGLL 221620Z AUTO 21010KT 9999 BKN031 10/05 Q1005
                        NOSIG=
201611221550 METAR COR EGLL 221550Z AUTO 21011KT 190V250 9999 BKN030 11/05
                        Q1005 NOSIG=
201611221520 METAR COR EGLL 221520Z AUTO 20010KT 9999 BKN030 11/05 Q1004
                        NOSIG=
201611221450 METAR COR EGLL 221450Z AUTO 21012KT 9999 SCT032 BKN045 11/05
                        Q1003 NOSIG=
201611221420 METAR COR EGLL 221420Z AUTO 22012KT 9999 SCT035 11/05 Q1002
                        NOSIG=
201611221350 METAR COR EGLL 221350Z AUTO 22015G26KT 9999 BKN035 12/05
                        Q1002 NOSIG=
201611221320 METAR COR EGLL 221320Z AUTO 21013KT 9999 BKN035 12/06 Q1002
                        NOSIG=
201611221250 METAR COR EGLL 221250Z AUTO 23013KT 9999 SCT029 BKN045 11/06
                        Q1002 NOSIG=
201611221220 METAR COR EGLL 221220Z AUTO 21013KT 170V250 9999 SCT029 BKN044
                        11/06 Q1001 NOSIG=
201611221150 METAR COR EGLL 221150Z AUTO 22014KT 180V250 9999 BKN028 OVC044
                        11/06 Q1001 NOSIG=
201611221120 METAR COR EGLL 221120Z AUTO 23013KT 9999 FEW016 BKN025 11/07
                        Q1000 NOSIG=
201611221050 METAR COR EGLL 221050Z AUTO 22017KT 9999 -RA BKN022 OVC038
                        10/07 Q1000 NOSIG=
201611221020 METAR COR EGLL 221020Z AUTO 21015KT 170V240 9999 -RA BKN023
                        11/06 Q0999 NOSIG=
201611220950 METAR COR EGLL 220950Z AUTO 21016KT 9999 SCT026 BKN045 10/06
                        Q0999 NOSIG=
201611220920 METAR COR EGLL 220920Z AUTO 20014KT 170V240 9999 SCT023 BKN042
                        10/06 Q0998 NOSIG=
201611220850 METAR COR EGLL 220850Z AUTO 20013KT 170V240 9999 FEW027 BKN045
                        10/06 Q0997 NOSIG=
201611220820 METAR COR EGLL 220820Z AUTO 20015KT 9999 FEW030 09/06 Q0996
                        NOSIG=
201611220750 METAR COR EGLL 220750Z AUTO 20012KT 9999 FEW033 09/06 Q0995
                        NOSIG=
201611220720 METAR COR EGLL 220720Z AUTO 20014KT 9999 FEW029 SCT043 09/06
                        Q0995 NOSIG=
201611220650 METAR COR EGLL 220650Z AUTO 20014KT 9999 BKN029 09/07 Q0994
                        NOSIG=
201611220620 METAR COR EGLL 220620Z 20012KT 9999 -RA SCT011 BKN024 OVC037
                        09/08 Q0993 NOSIG=
201611220550 METAR COR EGLL 220550Z AUTO 20014KT 9999 -RA BKN011 BKN037
                        09/09 Q0992 TEMPO FEW011 BKN024=
201611220520 METAR COR EGLL 220520Z AUTO 20015KT 9999 -RA FEW018 BKN030
                        09/08 Q0991 TEMPO BKN014=
201611220450 METAR COR EGLL 220450Z AUTO 19016KT 9999 -RA FEW021/// //////TCU
                        10/07 Q0990 NOSIG=
201611220420 METAR COR EGLL 220420Z AUTO 19019KT 9999 SCT019/// //////TCU
                        10/07 Q0989 TEMPO SHRA=
201611220350 METAR COR EGLL 220350Z AUTO 17019KT 9999 BKN013/// BKN025///
                        //////CB 10/08 Q0988 TEMPO SCT013=
201611220320 METAR COR EGLL 220320Z AUTO 16014KT 9999 -RA BKN013 09/09
                        Q0987 TEMPO FEW013 BKN016=
201611220250 METAR COR EGLL 220250Z AUTO 15012KT 6000 -RA BKN014/// //////TCU
                        09/09 Q0988 TEMPO 4500 SHRA=
201611220220 METAR COR EGLL 220220Z AUTO 14010KT 9999 -RA BKN011 09/08
                        Q0988 TEMPO SCT012=
201611220150 METAR COR EGLL 220150Z AUTO 16011KT 9999 -RA SCT013 BKN030
                        09/07 Q0988 TEMPO SHRA BKN013=
201611220120 METAR COR EGLL 220120Z AUTO 17011KT 9999 SCT022 BKN043 09/07
                        Q0988 TEMPO SHRA=
201611220050 METAR COR EGLL 220050Z AUTO 18015KT 8000 -RA FEW013/// BKN025///
                        BKN039/// //////CB 10/08 Q0988 TEMPO
                        SHRA=
201611220020 METAR COR EGLL 220020Z AUTO 20014KT 9999 -RA BKN015/// BKN027///
                        //////TCU 10/08 Q0988 RERA REDZ TEMPO
                        SHRA=
201611212350 METAR COR EGLL 212350Z AUTO 17008KT 130V200 9999 -RA BKN022///
                        //////TCU 11/08 Q0987 TEMPO SHRA=
201611212320 METAR COR EGLL 212320Z 15010KT 9999 -RA BKN023CB BKN041 11/08
                        Q0987 TEMPO SHRA=
201611212250 METAR COR EGLL 212250Z 16011KT 9999 -RA FEW025TCU 11/09 Q0987
                        TEMPO SHRA=
201611212220 METAR COR EGLL 212220Z 15009KT 9999 FEW022CB 11/09 Q0987
                        TEMPO SHRA=
201611212150 METAR COR EGLL 212150Z AUTO 14006KT 9999 -RA SCT020/// BKN035///
                        //////TCU 11/10 Q0987 TEMPO SHRA=
201611212120 METAR COR EGLL 212120Z AUTO 15006KT 9999 SCT019/// SCT038///
                        //////CB 10/08 Q0987 TEMPO SHRA=
201611212050 METAR COR EGLL 212050Z AUTO 14008KT 9999 SCT024/// BKN039///
                        //////TCU 10/09 Q0987 TEMPO SHRA=
201611212020 METAR COR EGLL 212020Z AUTO 17008KT 9999 SCT023/// //////TCU
                        11/09 Q0987 TEMPO SHRA=
201611211950 METAR COR EGLL 211950Z AUTO 15006KT 9999 SCT025/// //////CB
                        10/09 Q0987 TEMPO SHRA=
201611211920 METAR COR EGLL 211920Z AUTO 15006KT 9999 FEW023/// //////TCU
                        10/09 Q0987 TEMPO SHRA=
201611211850 METAR COR EGLL 211850Z AUTO 17007KT 9999 SCT021 11/10 Q0987
                        TEMPO SHRA=
201611211820 METAR COR EGLL 211820Z AUTO 19012KT 9999 FEW021 SCT041 11/10
                        Q0987 NOSIG=
201611211750 METAR COR EGLL 211750Z 17011KT 9999 -SHRA FEW015CB BKN020
                        BKN036 11/10 Q0987 RESHRA TEMPO SHRA=
201611211720 METAR COR EGLL 211720Z 15009KT 9999 -RA FEW015CB SCT025 BKN035
                        11/09 Q0986 TEMPO SHRA=
201611211650 METAR COR EGLL 211650Z 16010KT 8000 -SHRA FEW023CB SCT025
                        BKN039 11/10 Q0986 RESHRA TEMPO SHRA=
201611211620 METAR COR EGLL 211620Z 15008KT 9999 -RA FEW022 SCT042 11/09
                        Q0986 TEMPO SHRA=
201611211550 METAR COR EGLL 211550Z 17010KT 9999 FEW025 BKN034 11/09 Q0986
                        TEMPO SHRA=
201611211520 METAR COR EGLL 211520Z 17012KT 9999 FEW023 11/09 Q0986 TEMPO
                        SHRA=
201611211450 METAR COR EGLL 211450Z 18013KT 9999 FEW020 SCT025 11/10 Q0986
                        TEMPO SHRA=
201611211420 METAR COR EGLL 211420Z 20015KT 9999 SCT019 BKN022 12/10 Q0986
                        RESHRA TEMPO SHRA=
201611211350 METAR COR EGLL 211350Z AUTO 19011KT 4900 RA BKN006/// BKN024///
                        //////CB 12/12 Q0985 RESHRA BECMG
                        FEW006 SCT020=
201611211320 METAR COR EGLL 211320Z AUTO 13011KT 8000 -RA BKN009/// OVC021///
                        //////CB 12/12 Q0985 RERA BECMG FEW009
                        SCT020=
201611211250 METAR EGLL 211250Z 11011KT 4200 +RA FEW009 BKN015 12/12 Q0985
                        RESHRA RERA=
201611211220 METAR COR EGLL 211220Z AUTO 08010KT 9999 -RA OVC011 12/12
                        Q0986 TEMPO RA=
201611211150 METAR COR EGLL 211150Z AUTO 08009KT 9999 -RA BKN011/// //////CB
                        11/11 Q0987 TEMPO RA=
201611211120 METAR COR EGLL 211120Z AUTO 08009KT 7000 -RA BKN012/// //////CB
                        11/11 Q0987 RERA TEMPO SHRA BKN016=
201611211050 METAR COR EGLL 211050Z AUTO 09009KT 7000 -RA SCT012/// SCT016///
                        //////TCU 10/10 Q0988 RERA TEMPO
                        SHRA=
201611211020 METAR COR EGLL 211020Z AUTO 09010KT 6000 -RA FEW004/// BKN012///
                        //////CB 10/10 Q0989 TEMPO 4000 -RADZ=
201611210950 METAR COR EGLL 210950Z AUTO 07008KT 5000 BR SCT003 BKN014
                        09/09 Q0989 BECMG SCT014 BKN018=
201611210920 METAR COR EGLL 210920Z 07009KT 5000 BR BKN004 08/08 Q0989
                        TEMPO 4500 -RADZ=
201611210850 METAR EGLL 210850Z 07008KT 5000 -RADZ BKN004 08/08 Q0990
                        RERA REDZ=
201611210820 METAR COR EGLL 210820Z 06008KT 4500 RADZ FEW003 BKN004 07/07
                        Q0990 RERA REDZ BECMG 6000 -RADZ
                        BKN006=
201611210750 METAR COR EGLL 210750Z 06009KT 6000 -RADZ BKN005 07/07 Q0990
                        RERA REDZ NOSIG=
201611210720 METAR COR EGLL 210720Z 07009KT 4500 RADZ FEW003 BKN004 07/07
                        Q0990 RERA REDZ BECMG 6000 -RADZ
                        BKN006=
201611210650 METAR COR EGLL 210650Z 07009KT 4000 RADZ BKN004 06/06 Q0991
                        BECMG 7000 -RA SCT005 BKN008=
201611210620 METAR COR EGLL 210620Z 06007KT 5000 RADZ BKN006 06/06 Q0991
                        BECMG SCT007 BKN010=
201611210550 METAR EGLL 210550Z 07008KT 9000 -RA BKN007 06/06 Q0991=
201611210520 METAR COR EGLL 210520Z 06008KT 9999 BKN007 06/06 Q0991 TEMPO
                        SCT007 BKN010=
201611210450 METAR COR EGLL 210450Z 07007KT 8000 -RADZ BKN007 06/06 Q0991
                        TEMPO BKN010=
201611210420 METAR COR EGLL 210420Z 06010KT 8000 -RA BKN006 06/06 Q0992
                        TEMPO FEW006 BKN010=
201611210350 METAR COR EGLL 210350Z 06009KT 6000 -RA BKN005 OVC016 06/06
                        Q0992 RERA REDZ TEMPO SCT005 BKN013=
201611210320 METAR COR EGLL 210320Z AUTO 07008KT 3900 RA BKN004/// //////TCU
                        06/06 Q0992 TEMPO FEW004 BKN010=
201611210250 METAR COR EGLL 210250Z AUTO 06007KT 5000 -RA BKN004/// BKN020///
                        //////TCU 05/05 Q0992 RERA REDZ TEMPO
                        FEW004 BKN009=
201611210220 METAR COR EGLL 210220Z AUTO 06007KT 2800 -RADZ BKN003///
                        OVC026/// //////TCU 05/05 Q0993 REDZ
                        TEMPO FEW003 BKN010=
201611210150 METAR COR EGLL 210150Z AUTO 06008KT 2600 -RADZ BKN005 OVC026
                        05/05 Q0993 TEMPO FEW005 BKN025=
201611210120 METAR COR EGLL 210120Z AUTO 06008KT 5000 -DZ BKN006 OVC029
                        05/05 Q0993 TEMPO RA=
201611210050 METAR COR EGLL 210050Z 07010KT 6000 -RA SCT006 BKN035 05/05
                        Q0993 RERA TEMPO RA BKN006=
201611210020 METAR COR EGLL 210020Z 06008KT 5000 RA SCT006 BKN040 05/05
                        Q0994 RERA TEMPO 6000 -RA BKN012=
201611202350 METAR COR EGLL 202350Z 06007KT 4600 RA FEW008 BKN023 05/05
                        Q0994 TEMPO 6000 -RA BKN012=
201611202320 METAR COR EGLL 202320Z 06008KT 5000 -RA BKN025 BKN035 05/05
                        Q0995 TEMPO RA BKN012=
201611202250 METAR COR EGLL 202250Z 06007KT 6000 -RA SCT012 BKN028 05/05
                        Q0995 NOSIG=
201611202220 METAR COR EGLL 202220Z 07007KT 9000 -RA FEW018 BKN034 06/04
                        Q0995 NOSIG=
201611202150 METAR COR EGLL 202150Z 06004KT 8000 -RA FEW018 BKN035 06/04
                        Q0995 NOSIG=
201611202120 METAR COR EGLL 202120Z AUTO 08004KT 9999 BKN016/// //////TCU
                        06/04 Q0995 NOSIG=
201611202050 METAR COR EGLL 202050Z AUTO 07004KT 9999 BKN015 06/04 Q0995
                        NOSIG=
201611202020 METAR COR EGLL 202020Z AUTO 08004KT 9999 BKN017 06/03 Q0995
                        NOSIG=
201611201950 METAR COR EGLL 201950Z AUTO 08003KT 9999 BKN014 06/03 Q0995
                        TEMPO BKN 018=
201611201920 METAR COR EGLL 201920Z 08003KT 9999 BKN016 06/03 Q0995 NOSIG=
201611201850 METAR COR EGLL 201850Z VRB02KT 9999 BKN016 06/03 Q0996 NOSIG=
201611201820 METAR COR EGLL 201820Z 21004KT 150V260 9999 BKN017 06/03
                        Q0996 NOSIG=
201611201750 METAR COR EGLL 201750Z VRB02KT 9999 BKN016 06/03 Q0995 NOSIG=
201611201720 METAR COR EGLL 201720Z AUTO 28004KT 230V320 9999 OVC013 06/03
                        Q0995 TEMPO BKN018=
201611201650 METAR COR EGLL 201650Z 29004KT 9999 BKN015 06/03 Q0995 NOSIG=
201611201620 METAR COR EGLL 201620Z 24008KT 210V290 9999 BKN017 06/03
                        Q0995 NOSIG=
201611201550 METAR COR EGLL 201550Z 25008KT 9999 FEW018 BKN023 06/04 Q0995
                        NOSIG=
201611201520 METAR COR EGLL 201520Z 23009KT 200V260 9999 BKN020 06/05
                        Q0994 NOSIG=
201611201450 METAR COR EGLL 201450Z AUTO 24010KT 9999 OVC013 06/05 Q0994
                        BECMG BKN015=
201611201420 METAR COR EGLL 201420Z AUTO 25009KT 9999 OVC013 06/04 Q0993
                        BECMG BKN016=
201611201350 METAR EGLL 201350Z AUTO 25011KT 9999 OVC013 06/05 Q0993=
201611201320 METAR COR EGLL 201320Z 26013KT 9999 BKN015 06/05 Q0992 NOSIG=
201611201250 METAR COR EGLL 201250Z 26013KT 9999 BKN015 06/05 Q0991 NOSIG=
201611201220 METAR COR EGLL 201220Z 27013KT 9999 BKN014 06/05 Q0990 BECMG
                        SCT018=
201611201150 METAR COR EGLL 201150Z 27016KT 9999 BKN012 06/05 Q0989 NOSIG=
201611201120 METAR COR EGLL 201120Z 27015KT 9999 FEW009 BKN012 06/06 Q0988
                        NOSIG=
201611201050 METAR COR EGLL 201050Z 28015KT 9999 -RA FEW007 BKN010 06/06
                        Q0987 NOSIG=
201611201020 METAR COR EGLL 201020Z 27015KT 5000 -DZ BKN007 06/05 Q0986
                        BECMG BKN012=
201611200950 METAR COR EGLL 200950Z 27016KT 3000 -RADZ SCT006 OVC010 07/06
                        Q0984 TEMPO 7000=
201611200920 METAR COR EGLL 200920Z 27015KT 2600 -DZ OVC006 07/06 Q0983
                        TEMPO 8000 BKN010=
201611200850 METAR EGLL 200850Z AUTO 28014KT 6000 OVC006 08/07 Q0981=
201611200820 METAR COR EGLL 200820Z AUTO 27015KT 9999 OVC006 08/07 Q0979
                        BECMG BKN012=
201611200750 METAR COR EGLL 200750Z AUTO 30010KT 9999 OVC009 09/08 Q0976
                        BECMG BKN012=
201611200720 METAR COR EGLL 200720Z AUTO 31010KT 9999 BKN007 09/08 Q0974
                        TEMPO BKN010=
201611200650 METAR COR EGLL 200650Z AUTO 35008KT 320V030 9999 -RA BKN006///
                        OVC023/// //////TCU 09/08 Q0972 NOSIG=
201611200620 METAR COR EGLL 200620Z AUTO 03009KT 9000 -RA FEW005/// BKN016///
                        //////CB 09/08 Q0970 RERA BECMG BKN008=
201611200550 METAR COR EGLL 200550Z AUTO 05010KT 3900 RA BKN016/// //////TCU
                        09/08 Q0970 BECMG BKN008=
201611200520 METAR COR EGLL 200520Z AUTO 06011KT 8000 -RA BKN010/// BKN022///
                        OVC040/// //////CB 09/08 Q0972 TEMPO
                        RA=
201611200450 METAR COR EGLL 200450Z AUTO 09011KT 8000 -RA BKN010/// //////CB
                        09/08 Q0973 TEMPO 4000 +RA BKN008=
201611200420 METAR COR EGLL 200420Z AUTO 10013KT 9999 -RA BKN009/// OVC024///
                        //////TCU 09/08 Q0974 TEMPO RA=
201611200350 METAR COR EGLL 200350Z AUTO 11013KT 6000 -RA BKN010/// BKN022///
                        //////TCU 09/08 Q0976 RERA REDZ TEMPO
                        RA=
201611200320 METAR COR EGLL 200320Z AUTO 12012KT 9000 -RA BKN008/// //////CB
                        08/07 Q0977 TEMPO RA=
201611200250 METAR COR EGLL 200250Z AUTO 11015KT 9999 -RA OVC010/// //////TCU
                        08/07 Q0979 TEMPO RA=
201611200220 METAR COR EGLL 200220Z AUTO 10016KT 7000 -RA BKN012/// OVC024///
                        //////CB 07/07 Q0980 TEMPO RA=
201611200150 METAR COR EGLL 200150Z AUTO 10016KT 7000 -RA BKN010/// OVC026///
                        //////CB 07/06 Q0982 TEMPO RA BKN008=
201611200120 METAR COR EGLL 200120Z AUTO 10014KT 9000 -RA BKN014/// OVC027///
                        //////TCU 07/06 Q0984 TEMPO 14017G27KT
                        4000 +RA BKN009=
201611200050 METAR COR EGLL 200050Z AUTO 12015KT 9999 -RA BKN012/// BKN025///
                        //////CB 07/06 Q0986 TEMPO 14017G27KT
                        4000 +RA BKN009=
201611200020 METAR COR EGLL 200020Z AUTO 13013KT 9000 -RA BKN014/// OVC027///
                        //////CB 08/06 Q0988 TEMPO 14015G25KT
                        4000 +RA BKN009=
201611192350 METAR COR EGLL 192350Z AUTO 12011KT 9999 -RA BKN010/// OVC025///
                        //////CB 07/06 Q0989 TEMPO 4000 +RA
                        BKN008=
201611192320 METAR COR EGLL 192320Z AUTO 10009KT 9000 -RA BKN013/// OVC026///
                        //////TCU 06/06 Q0990 BECMG RA=
201611192250 METAR COR EGLL 192250Z AUTO 09009KT 9000 -RA BKN009/// BKN021///
                        //////TCU 06/06 Q0991 BECMG RA=
201611192220 METAR COR EGLL 192220Z AUTO 10009KT 9000 -RA BKN011/// BKN026///
                        //////TCU 06/06 Q0992 TEMPO RA=
201611192150 METAR COR EGLL 192150Z AUTO 10007KT 9999 -RA BKN013/// BKN027///
                        //////TCU 06/05 Q0994 RERA TEMPO
                        RA=
201611192120 METAR COR EGLL 192120Z AUTO 10008KT 4900 RA BKN016/// OVC036///
                        //////TCU 06/05 Q0994 TEMPO 8000=
201611192050 METAR COR EGLL 192050Z AUTO 11006KT 9999 -RA BKN022/// //////CB
                        06/05 Q0995 TEMPO RA=
201611192020 METAR COR EGLL 192020Z AUTO 13006KT 8000 -RA SCT018/// BKN025///
                        //////CB 06/05 Q0996 TEMPO RA=
201611191950 METAR COR EGLL 191950Z AUTO 14007KT 9999 -RA BKN023 06/05
                        Q0997 TEMPO RA=
201611191920 METAR COR EGLL 191920Z AUTO 14008KT 9999 -RA SCT029 BKN039
                        06/05 Q0998 TEMPO RA=
201611191850 METAR COR EGLL 191850Z AUTO 14006KT 9999 -RA FEW034 BKN045
                        06/05 Q0998 NOSIG=
201611191820 METAR COR EGLL 191820Z AUTO 16007KT 130V220 9999 -RA BKN034
                        BKN047 06/04 Q0999 TEMPO RA=
201611191750 METAR COR EGLL 191750Z AUTO 15008KT 130V200 9999 -RA SCT037
                        06/03 Q0999 TEMPO RA=
201611191720 METAR COR EGLL 191720Z AUTO 15006KT 100V230 9999 FEW038 06/03
                        Q1000 NOSIG=
201611191650 METAR COR EGLL 191650Z AUTO 17007KT 140V240 9999 BKN042 06/03
                        Q1000 NOSIG=
201611191620 METAR COR EGLL 191620Z AUTO 19009KT 170V240 9999 NCD 06/03
                        Q1000 NOSIG=
201611191550 METAR COR EGLL 191550Z AUTO 18010KT 150V230 9999 NCD 07/03
                        Q1000 NOSIG=
201611191520 METAR COR EGLL 191520Z AUTO 19008KT 150V250 9999 FEW025 07/03
                        Q1001 NOSIG=
201611191450 METAR COR EGLL 191450Z AUTO 18008KT 150V220 9999 FEW027 07/03
                        Q1001 NOSIG=
201611191420 METAR COR EGLL 191420Z AUTO 19009KT 9999 FEW031 08/02 Q1001
                        NOSIG=
201611191350 METAR COR EGLL 191350Z AUTO 21009KT 170V230 9999 NCD 08/02
                        Q1002 NOSIG=
201611191320 METAR COR EGLL 191320Z AUTO 21007KT 170V250 9999 NCD 08/03
                        Q1002 NOSIG=
201611191250 METAR COR EGLL 191250Z AUTO 23007KT 9999 NCD 07/03 Q1002
                        NOSIG=
201611191220 METAR COR EGLL 191220Z AUTO 22010KT 9999 NCD 07/03 Q1003
                        NOSIG=
201611191150 METAR COR EGLL 191150Z AUTO 22010KT 9999 NCD 07/03 Q1003
                        NOSIG=
201611191120 METAR COR EGLL 191120Z AUTO 24010KT 9999 NCD 06/03 Q1003
                        NOSIG=
201611191050 METAR COR EGLL 191050Z AUTO 24010KT 9999 NCD 06/03 Q1004
                        NOSIG=
201611191020 METAR COR EGLL 191020Z AUTO 23007KT 9999 NCD 06/03 Q1004
                        NOSIG=
201611190950 METAR COR EGLL 190950Z AUTO 25007KT 210V270 9999 NCD 05/03
                        Q1003 NOSIG=
201611190920 METAR COR EGLL 190920Z AUTO 24007KT 210V270 9999 NCD 04/03
                        Q1003 NOSIG=
201611190850 METAR COR EGLL 190850Z AUTO 23006KT 200V260 9999 NCD 03/02
                        Q1003 NOSIG=
201611190820 METAR COR EGLL 190820Z AUTO 24007KT 9999 NCD 02/01 Q1003
                        NOSIG=
201611190750 METAR COR EGLL 190750Z AUTO 24007KT 9999 NCD 02/01 Q1002
                        NOSIG=
201611190720 METAR COR EGLL 190720Z AUTO 25008KT 9999 NCD 02/01 Q1002
                        NOSIG=
201611190650 METAR COR EGLL 190650Z AUTO 27008KT 9999 NCD 02/01 Q1002
                        NOSIG=
201611190620 METAR COR EGLL 190620Z AUTO 25008KT 9999 NCD 02/01 Q1002
                        NOSIG=
201611190550 METAR COR EGLL 190550Z AUTO 24008KT 9999 NCD 02/01 Q1002
                        NOSIG=
201611190520 METAR COR EGLL 190520Z AUTO 24007KT 9999 NCD 02/01 Q1001
                        NOSIG=
201611190450 METAR COR EGLL 190450Z AUTO 23006KT 9999 NCD 01/01 Q1001
                        NOSIG=
201611190420 METAR COR EGLL 190420Z AUTO 24006KT 9999 NCD 01/01 Q1001
                        NOSIG=
201611190350 METAR COR EGLL 190350Z AUTO 23006KT 9999 NCD 02/01 Q1001
                        NOSIG=
201611190320 METAR COR EGLL 190320Z AUTO 23006KT 9999 NCD 02/01 Q1000
                        NOSIG=
201611190250 METAR EGLL 190250Z AUTO 23007KT 9999 NCD 02/01 Q1000 NOSIG=
201611190220 METAR EGLL 190220Z AUTO 22006KT 9999 NCD 02/01 Q1000 NOSIG=
201611190150 METAR COR EGLL 190150Z AUTO 20006KT 9999 NCD 02/01 Q1000
                        NOSIG=
201611190120 METAR COR EGLL 190120Z AUTO 21004KT 9999 NCD 02/01 Q1000
                        NOSIG=
201611190050 METAR COR EGLL 190050Z VRB02KT CAVOK 02/01 Q1000 NOSIG=
201611190020 METAR COR EGLL 190020Z AUTO 25004KT 9999 NCD 02/01 Q1000
                        NOSIG=
201611182350 METAR EGLL 182350Z AUTO 24005KT 9999 NCD 02/01 Q0999 NOSIG=
201611182320 METAR COR EGLL 182320Z AUTO 26006KT 9999 NCD 03/01 Q0999
                        NOSIG=
201611182250 METAR COR EGLL 182250Z AUTO 23007KT 9999 NCD 03/02 Q0999
                        NOSIG=
201611182220 METAR COR EGLL 182220Z AUTO 25009KT 9999 NCD 04/02 Q0999
                        NOSIG=
201611182150 METAR COR EGLL 182150Z AUTO 25008KT 9999 NCD 04/02 Q0999
                        NOSIG=
201611182120 METAR COR EGLL 182120Z AUTO 21008KT 180V240 9999 NCD 04/02
                        Q0999 NOSIG=
201611182050 METAR COR EGLL 182050Z AUTO 21009KT 9999 NCD 04/02 Q0999
                        NOSIG=
201611182020 METAR COR EGLL 182020Z AUTO 21009KT 9999 NCD 04/02 Q0999
                        NOSIG=
201611181950 METAR COR EGLL 181950Z AUTO 23009KT 9999 NCD 04/02 Q0998
                        NOSIG=
201611181920 METAR COR EGLL 181920Z AUTO 22009KT 9999 NCD 04/02 Q0998
                        NOSIG=
201611181850 METAR COR EGLL 181850Z AUTO 22008KT 180V250 9999 NCD 04/02
                        Q0998 NOSIG=
201611181820 METAR COR EGLL 181820Z AUTO 23008KT 9999 NCD 04/02 Q0998
                        NOSIG=
201611181750 METAR COR EGLL 181750Z AUTO 22008KT 9999 NCD 05/02 Q0998
                        NOSIG=
201611181720 METAR COR EGLL 181720Z AUTO 21008KT 9999 NCD 05/01 Q0998
                        NOSIG=
201611181650 METAR COR EGLL 181650Z AUTO 22008KT 9999 NCD 05/01 Q0998
                        NOSIG=
201611181620 METAR COR EGLL 181620Z AUTO 23009KT 9999 NCD 05/01 Q0998
                        NOSIG=
201611181550 METAR COR EGLL 181550Z AUTO 24011KT 9999 NCD 06/01 Q0998
                        NOSIG=
201611181520 METAR COR EGLL 181520Z AUTO 24015KT 9999 NCD 06/02 Q0997
                        NOSIG=
201611181450 METAR COR EGLL 181450Z AUTO 24011KT 9999 FEW022 07/02 Q0997
                        NOSIG=
201611181420 METAR COR EGLL 181420Z AUTO 24010KT 9999 SCT023 07/02 Q0996
                        NOSIG=
201611181350 METAR COR EGLL 181350Z AUTO 25011KT 9999 FEW027 08/03 Q0996
                        NOSIG=
201611181320 METAR COR EGLL 181320Z AUTO 24015KT 9999 SCT025 08/02 Q0996
                        NOSIG=
201611181250 METAR COR EGLL 181250Z AUTO 25011KT 9999 NCD 07/02 Q0996
                        NOSIG=
201611181220 METAR COR EGLL 181220Z AUTO 25012KT 9999 NCD 07/03 Q0996
                        NOSIG=
201611181150 METAR COR EGLL 181150Z AUTO 24010KT 9999 NCD 06/02 Q0996
                        NOSIG=
201611181120 METAR COR EGLL 181120Z AUTO 24009KT 9999 NCD 06/02 Q0996
                        NOSIG=
201611181050 METAR COR EGLL 181050Z AUTO 24010KT 9999 NCD 06/02 Q0995
                        NOSIG=
201611181020 METAR COR EGLL 181020Z AUTO 24011KT 9999 NCD 06/02 Q0995
                        NOSIG=
201611180950 METAR COR EGLL 180950Z AUTO 24011KT 9999 NCD 06/03 Q0994
                        NOSIG=
201611180920 METAR COR EGLL 180920Z AUTO 23010KT 9999 NCD 05/02 Q0995
                        NOSIG=
201611180850 METAR COR EGLL 180850Z AUTO 23010KT 9999 NCD 04/02 Q0995
                        NOSIG=
201611180820 METAR COR EGLL 180820Z AUTO 22008KT 9999 NCD 04/02 Q0994
                        NOSIG=
201611180750 METAR COR EGLL 180750Z AUTO 23008KT 9999 NCD 03/02 Q0994
                        NOSIG=
201611180720 METAR COR EGLL 180720Z AUTO 23010KT 9999 NCD 03/02 Q0993
                        NOSIG=
201611180650 METAR COR EGLL 180650Z AUTO 24010KT 9999 NCD 04/02 Q0994
                        NOSIG=
201611180620 METAR COR EGLL 180620Z AUTO 24012KT 9999 NCD 04/02 Q0994
                        NOSIG=
201611180550 METAR COR EGLL 180550Z AUTO 23010KT 9999 NCD 04/02 Q0993
                        NOSIG=
201611180520 METAR COR EGLL 180520Z AUTO 23010KT 210V270 9999 FEW033 04/02
                        Q0993 NOSIG=
201611180450 METAR COR EGLL 180450Z AUTO 23008KT 9999 FEW033 04/02 Q0993
                        NOSIG=
201611180420 METAR COR EGLL 180420Z AUTO 23008KT 9999 NCD 04/02 Q0993
                        NOSIG=
201611180350 METAR COR EGLL 180350Z AUTO 24011KT 9999 NCD 04/02 Q0993
                        NOSIG=
201611180320 METAR COR EGLL 180320Z AUTO 24012KT 9999 FEW047 05/02 Q0993
                        NOSIG=
201611180250 METAR COR EGLL 180250Z AUTO 26011KT 9999 NCD 04/02 Q0993
                        NOSIG=
201611180220 METAR COR EGLL 180220Z AUTO 24009KT 9999 NCD 04/03 Q0992
                        NOSIG=
201611180150 METAR COR EGLL 180150Z AUTO 24010KT 9999 NCD 04/03 Q0992
                        NOSIG=
201611180120 METAR COR EGLL 180120Z AUTO 25013KT 9999 -RA SCT017 BKN036
                        05/03 Q0992 NOSIG=
201611180050 METAR COR EGLL 180050Z AUTO 27013KT 9999 -RA BKN018 OVC034
                        06/04 Q0992 TEMPO SHRA=
201611180020 METAR COR EGLL 180020Z AUTO 24010KT 9999 BKN037 07/04 Q0992
                        TEMPO SHRA=
201611172350 METAR COR EGLL 172350Z AUTO 24008KT 9999 NCD 07/03 Q0992
                        TEMPO SHRA=
201611172320 METAR COR EGLL 172320Z AUTO 22008KT 180V250 9999 NCD 07/03
                        Q0992 NOSIG=
201611172250 METAR COR EGLL 172250Z AUTO 23010KT 9999 -RA SCT031 BKN047
                        07/04 Q0993 NOSIG=
201611172220 METAR COR EGLL 172220Z AUTO 23010KT 9999 -RA BKN032 07/04
                        Q0993 TEMPO SHRA=
201611172150 METAR COR EGLL 172150Z AUTO 21007KT 180V250 9999 FEW039 07/04
                        Q0993 TEMPO SHRA=
201611172120 METAR COR EGLL 172120Z AUTO 22007KT 190V250 9999 NCD 07/03
                        Q0994 TEMPO SHRA=
201611172050 METAR COR EGLL 172050Z AUTO 24009KT 9999 NCD 07/03 Q0994
                        NOSIG=
201611172020 METAR COR EGLL 172020Z AUTO 24012KT 9999 FEW042 07/03 Q0995
                        NOSIG=
201611171950 METAR COR EGLL 171950Z AUTO 24011KT 9999 FEW032 08/04 Q0995
                        NOSIG=
201611171920 METAR COR EGLL 171920Z AUTO 25011KT 9999 FEW026 08/04 Q0995
                        NOSIG=
201611171850 METAR COR EGLL 171850Z AUTO 25013KT 9999 BKN027 BKN044 09/05
                        Q0995 NOSIG=
201611171820 METAR COR EGLL 171820Z AUTO 26014KT 9999 SCT031 BKN048 09/05
                        Q0995 NOSIG=
201611171750 METAR COR EGLL 171750Z AUTO 25015KT 9999 BKN039 09/05 Q0995
                        NOSIG=
201611171720 METAR COR EGLL 171720Z AUTO 25019G29KT 8000 -RA FEW024///
                        OVC039/// //////CB 09/05 Q0995 NOSIG=
201611171650 METAR COR EGLL 171650Z AUTO 25020KT 9999 -RA FEW027 OVC037
                        09/05 Q0995 TEMPO SHRA=
201611171620 METAR COR EGLL 171620Z AUTO 25022G36KT 7000 -RA BKN033///
                        //////TCU 10/06 Q0995 TEMPO SHRA=
201611171550 METAR COR EGLL 171550Z AUTO 24016KT 9999 FEW035 10/06 Q0995
                        TEMPO SHRA=
201611171520 METAR COR EGLL 171520Z AUTO 24016KT 9999 FEW032 11/06 Q0995
                        NOSIG=
201611171450 METAR COR EGLL 171450Z AUTO 25014G24KT 210V280 9999 -RA FEW023
                        SCT036 12/07 Q0995 NOSIG=
201611171420 METAR COR EGLL 171420Z AUTO 24026G42KT 9999 -RA BKN023///
                        //////CB 12/08 Q0995 NOSIG=
201611171350 METAR COR EGLL 171350Z AUTO 23022G36KT 9999 BKN029/// //////CB
                        13/07 Q0995 TEMPO SHRA=
201611171320 METAR COR EGLL 171320Z AUTO 23021KT 9999 SCT029 13/07 Q0996
                        TEMPO SHRA=
201611171250 METAR COR EGLL 171250Z AUTO 23018KT 9999 BKN025 13/08 Q0997
                        TEMPO SHRA=
201611171220 METAR COR EGLL 171220Z AUTO 22016KT 9999 BKN024 12/08 Q0997
                        NOSIG=
201611171150 METAR COR EGLL 171150Z AUTO 22016G26KT 9999 SCT018 BKN035
                        12/08 Q0998 NOSIG=
201611171120 METAR COR EGLL 171120Z AUTO 23015KT 9999 BKN016 BKN029 11/08
                        Q0999 NOSIG=
201611171050 METAR EGLL 171050Z AUTO 21014KT 9999 BKN018 11/07 Q1000=
201611171020 METAR COR EGLL 171020Z 21012KT 9999 SCT022 10/06 Q1001 NOSIG=
201611170950 METAR COR EGLL 170950Z AUTO 22012KT 9999 -RA SCT020 BKN028
                        09/06 Q1002 NOSIG=
201611170920 METAR COR EGLL 170920Z AUTO 21008KT 190V260 9999 FEW040 08/05
                        Q1003 NOSIG=
201611170850 METAR COR EGLL 170850Z AUTO 20009G19KT 9999 NCD 08/05 Q1003
                        NOSIG=
201611170820 METAR COR EGLL 170820Z AUTO 21009KT 9999 FEW048 07/04 Q1004
                        NOSIG=
201611170750 METAR COR EGLL 170750Z AUTO 23008KT 9999 NCD 07/04 Q1004
                        NOSIG=
201611170720 METAR COR EGLL 170720Z AUTO 23009KT 200V260 9999 FEW043 07/05
                        Q1005 NOSIG=
201611170650 METAR COR EGLL 170650Z AUTO 23011KT 9999 SCT034 BKN042 07/05
                        Q1005 NOSIG=
201611170620 METAR COR EGLL 170620Z AUTO 22010KT 9999 BKN039 07/05 Q1005
                        NOSIG=
201611170550 METAR COR EGLL 170550Z AUTO 22008KT 9999 BKN032 07/06 Q1006
                        NOSIG=
201611170520 METAR COR EGLL 170520Z AUTO 22008G19KT 9999 SCT038 07/06
                        Q1006 NOSIG=
201611170450 METAR COR EGLL 170450Z AUTO 22009KT 180V250 9999 -RA BKN030
                        08/06 Q1007 NOSIG=
201611170420 METAR COR EGLL 170420Z AUTO 23010KT 9999 -RA BKN028 08/06
                        Q1007 NOSIG=
201611170350 METAR COR EGLL 170350Z AUTO 23007KT 9999 BKN030 08/06 Q1008
                        NOSIG=
201611170320 METAR COR EGLL 170320Z AUTO 23009KT 9999 -RA BKN034 08/06
                        Q1008 NOSIG=
201611170250 METAR COR EGLL 170250Z AUTO 24007KT 9999 OVC041 08/06 Q1008
                        NOSIG=
201611170220 METAR EGLL 170220Z AUTO 23007KT 9999 BKN047 08/06 Q1009=
201611170150 METAR COR EGLL 170150Z AUTO 24008KT 9999 BKN049 08/06 Q1009
                        NOSIG=
201611170120 METAR COR EGLL 170120Z AUTO 24008KT 9999 NCD 08/06 Q1009
                        NOSIG=
201611170050 METAR COR EGLL 170050Z AUTO 24008KT 9999 NCD 08/07 Q1010
                        NOSIG=
201611170020 METAR COR EGLL 170020Z AUTO 24008KT 9999 NCD 08/06 Q1010
                        NOSIG=
201611162350 METAR COR EGLL 162350Z AUTO 24008KT 9999 SCT042 09/06 Q1010
                        NOSIG=
201611162320 METAR COR EGLL 162320Z AUTO 24009KT 9999 OVC042 09/07 Q1011
                        NOSIG=
201611162250 METAR COR EGLL 162250Z AUTO 25010KT 9999 OVC041 09/08 Q1011
                        NOSIG=
201611162220 METAR COR EGLL 162220Z AUTO 25010KT 9999 BKN048 10/07 Q1011
                        NOSIG=
201611162150 METAR COR EGLL 162150Z AUTO 25010KT 9999 NCD 10/08 Q1011
                        NOSIG=
201611162120 METAR COR EGLL 162120Z AUTO 24010KT 9999 NCD 10/08 Q1012
                        NOSIG=
201611162050 METAR COR EGLL 162050Z AUTO 26010KT 9999 NCD 10/08 Q1012
                        NOSIG=
201611162020 METAR COR EGLL 162020Z AUTO 25010KT 9999 BKN049 10/09 Q1012
                        NOSIG=
201611161950 METAR COR EGLL 161950Z AUTO 25011KT 9999 FEW026 10/09 Q1012
                        NOSIG=
201611161920 METAR COR EGLL 161920Z AUTO 25010KT 9999 -RA BKN045/// //////CB
                        10/09 Q1012 NOSIG=
201611161850 METAR COR EGLL 161850Z AUTO 26009KT 9999 -RA FEW012/// BKN036///
                        //////CB 10/10 Q1012 NOSIG=
201611161820 METAR EGLL 161820Z AUTO 27011KT 7000 -RA BKN011/// BKN024///
                        //////TCU 10/09 Q1013 RERA REDZ=
201611161750 METAR COR EGLL 161750Z AUTO 28010KT 6000 -RA FEW010/// BKN022///
                        //////CB 11/09 Q1013 TEMPO SHRA=
201611161720 METAR COR EGLL 161720Z AUTO 24013KT 9999 BKN034/// //////TCU
                        11/10 Q1013 TEMPO SHRA=
201611161650 METAR COR EGLL 161650Z AUTO 23011KT 9999 -RA FEW021/// BKN034///
                        BKN049/// //////CB 11/10 Q1013 TEMPO
                        SHRA=
201611161620 METAR COR EGLL 161620Z AUTO 24016KT 9999 -RA FEW023/// BKN033///
                        //////TCU 12/09 Q1013 TEMPO SHRA=
201611161550 METAR COR EGLL 161550Z AUTO 24014KT 9999 FEW030 BKN047 13/08
                        Q1013 TEMPO SHRA=
201611161520 METAR COR EGLL 161520Z AUTO 23012KT 9999 SCT026 13/08 Q1013
                        TEMPO SHRA=
201611161450 METAR COR EGLL 161450Z AUTO 24013KT 9999 SCT023 13/09 Q1013
                        TEMPO SHRA=
201611161420 METAR COR EGLL 161420Z AUTO 24016KT 9999 FEW024 BKN035 13/09
                        Q1013 NOSIG=
201611161350 METAR COR EGLL 161350Z AUTO 24017KT 9999 FEW024 SCT030 14/09
                        Q1014 NOSIG=
201611161320 METAR COR EGLL 161320Z AUTO 24015KT 9999 BKN025 13/09 Q1015
                        NOSIG=
201611161250 METAR COR EGLL 161250Z AUTO 25015KT 9999 SCT024 13/08 Q1015
                        NOSIG=
201611161220 METAR COR EGLL 161220Z AUTO 26016KT 9999 FEW022 13/09 Q1015
                        NOSIG=
201611161150 METAR COR EGLL 161150Z AUTO 25013KT 9999 NCD 13/09 Q1015
                        NOSIG=
201611161120 METAR COR EGLL 161120Z AUTO 26014KT 9999 FEW023 12/08 Q1016
                        NOSIG=
201611161050 METAR COR EGLL 161050Z AUTO 25014KT 9999 NCD 12/09 Q1016
                        NOSIG=
201611161020 METAR COR EGLL 161020Z AUTO 25013KT 9999 NCD 12/09 Q1016
                        NOSIG=
201611160950 METAR COR EGLL 160950Z AUTO 26013KT 9999 NCD 12/09 Q1016
                        NOSIG=
201611160920 METAR COR EGLL 160920Z AUTO 26013KT 9999 NCD 12/09 Q1016
                        NOSIG=
201611160850 METAR COR EGLL 160850Z AUTO 25015KT 9999 NCD 12/09 Q1016
                        NOSIG=
201611160820 METAR COR EGLL 160820Z AUTO 25015KT 9999 NCD 12/09 Q1016
                        NOSIG=
201611160750 METAR COR EGLL 160750Z AUTO 26015KT 9999 NCD 12/10 Q1016
                        NOSIG=
201611160720 METAR COR EGLL 160720Z AUTO 25014KT 9999 FEW015 12/10 Q1016
                        NOSIG=
201611160650 METAR COR EGLL 160650Z AUTO 24010KT 9999 BKN007 13/12 Q1016
                        BECMG FEW010=
201611160620 METAR COR EGLL 160620Z AUTO 23010KT 6000 -RA BKN008 13/12
                        Q1017 BECMG BKN010=
201611160550 METAR COR EGLL 160550Z AUTO 23011KT 9999 -RA BKN009 13/12
                        Q1017 BECMG BKN010=
201611160520 METAR COR EGLL 160520Z AUTO 24010KT 9999 BKN008 13/12 Q1017
                        BECMG BKN010=
201611160450 METAR COR EGLL 160450Z AUTO 23010KT 9999 OVC006 13/12 Q1017
                        TEMPO 4000 -RADZ=
201611160420 METAR COR EGLL 160420Z AUTO 23010KT 7000 OVC007 13/12 Q1017
                        TEMPO 4000 -RADZ=
201611160350 METAR COR EGLL 160350Z AUTO 23010KT 9999 OVC006 13/12 Q1018
                        TEMPO 4000 -RADZ=
201611160320 METAR COR EGLL 160320Z AUTO 23011KT 9999 OVC008 13/12 Q1018
                        TEMPO 4000 -RADZ=
201611160250 METAR COR EGLL 160250Z AUTO 24009KT 9999 BKN005 13/12 Q1019
                        TEMPO 4000 -RADZ=
201611160220 METAR COR EGLL 160220Z AUTO 23008KT 9999 BKN007 13/12 Q1019
                        TEMPO 4000 -RADZ=
201611160150 METAR COR EGLL 160150Z AUTO 24010KT 9999 -RA OVC010 13/12
                        Q1019 TEMPO 4000 -RADZ BKN009=
201611160120 METAR COR EGLL 160120Z AUTO 24009KT 9999 OVC009 13/12 Q1020
                        TEMPO BKN010=
201611160050 METAR COR EGLL 160050Z AUTO 25008KT 9999 OVC009 13/12 Q1020
                        TEMPO BKN010=
201611160020 METAR COR EGLL 160020Z AUTO 24008KT 9999 OVC008 13/12 Q1021
                        TEMPO BKN010=
201611152350 METAR COR EGLL 152350Z AUTO 25009KT 9999 OVC009 13/12 Q1021
                        TEMPO BKN010=
201611152320 METAR COR EGLL 152320Z AUTO 24009KT 9999 OVC008 13/12 Q1022
                        TEMPO 4000 -RADZ=
201611152250 METAR COR EGLL 152250Z AUTO 25010KT 9999 OVC007 13/12 Q1022
                        TEMPO 4000 -RADZ=
201611152220 METAR COR EGLL 152220Z AUTO 24008KT 5000 HZ OVC006 13/12
                        Q1022 TEMPO 4000 -RADZ=
201611152150 METAR COR EGLL 152150Z AUTO 25010KT 9999 -RA BKN007 13/12
                        Q1023 TEMPO 4000 -RADZ=
201611152120 METAR COR EGLL 152120Z AUTO 25011KT 6000 -RA OVC009 14/12
                        Q1023 TEMPO 4000 -RADZ=
201611152050 METAR COR EGLL 152050Z AUTO 25011KT 9999 OVC008 13/12 Q1023
                        TEMPO 4000 -RADZ=
201611152020 METAR COR EGLL 152020Z AUTO 25010KT 9999 OVC008 13/12 Q1024
                        TEMPO 4000 -RADZ=
201611151950 METAR COR EGLL 151950Z AUTO 25009KT 9999 BKN007 13/12 Q1024
                        TEMPO 4000 -RADZ=
201611151920 METAR COR EGLL 151920Z AUTO 26010KT 9000 BKN006 13/12 Q1024
                        TEMPO 4000 -RADZ=
201611151850 METAR COR EGLL 151850Z AUTO 27009KT 9999 -RA BKN007 OVC016
                        13/12 Q1024 NOSIG=
201611151820 METAR COR EGLL 151820Z AUTO 26009KT 9000 -RA OVC009 14/12
                        Q1024 TEMPO 4000=
201611151750 METAR COR EGLL 151750Z AUTO 25009KT 9999 OVC010 14/13 Q1024
                        TEMPO 4000 -DZ OVC008=
201611151720 METAR COR EGLL 151720Z AUTO 27008KT 9999 OVC010 14/13 Q1025
                        TEMPO 4000 -DZ OVC007=
201611151650 METAR COR EGLL 151650Z AUTO 27009KT 7000 OVC007 14/13 Q1025
                        TEMPO 3000 -RADZ=
201611151620 METAR COR EGLL 151620Z AUTO 27011KT 3300 HZ OVC010 14/13
                        Q1025 TEMPO 5000 -DZ=
201611151550 METAR COR EGLL 151550Z AUTO 28007KT 9999 OVC010 15/13 Q1025
                        BECMG -DZ OVC008=
201611151520 METAR COR EGLL 151520Z AUTO 27010KT 9999 OVC011 15/13 Q1025
                        TEMPO -DZ BKN008=
201611151450 METAR COR EGLL 151450Z AUTO 27008KT 9999 BKN012 15/13 Q1025
                        TEMPO 6000 -DZ BKN008=
201611151420 METAR COR EGLL 151420Z AUTO 26007KT 9999 -RA BKN012 OVC049
                        16/13 Q1025 TEMPO SCT012=
201611151350 METAR COR EGLL 151350Z AUTO 27009KT 9999 BKN011 OVC039 15/13
                        Q1026 TEMPO BKN015=
201611151320 METAR COR EGLL 151320Z AUTO 27010KT 9999 OVC011 15/13 Q1026
                        TEMPO BKN015=
201611151250 METAR COR EGLL 151250Z AUTO 26008KT 9999 BKN009 15/13 Q1026
                        TEMPO BKN010=
201611151220 METAR COR EGLL 151220Z AUTO 26008KT 9999 BKN010 16/13 Q1026
                        TEMPO BKN010=
201611151150 METAR COR EGLL 151150Z AUTO 30006KT 9999 BKN010 15/13 Q1026
                        NOSIG=
201611151120 METAR COR EGLL 151120Z 30007KT 9999 BKN010 16/13 Q1026 NOSIG=
201611151050 METAR COR EGLL 151050Z 28008KT 9999 FEW008 BKN009 15/13 Q1026
                        TEMPO BKN010=
201611151020 METAR COR EGLL 151020Z 27009KT 9999 FEW007 BKN009 14/13 Q1027
                        TEMPO BKN010=
201611150950 METAR COR EGLL 150950Z 26009KT 9999 BKN009 14/13 Q1026 TEMPO
                        BKN010=
201611150920 METAR COR EGLL 150920Z 25010KT 9999 BKN008 14/13 Q1026 NOSIG=
201611150850 METAR COR EGLL 150850Z 24010KT 9999 BKN008 14/12 Q1026 NOSIG=
201611150820 METAR EGLL 150820Z 23008KT 9999 BKN008 14/12 Q1026=
201611150750 METAR COR EGLL 150750Z 22006KT 9999 BKN008 13/12 Q1026 NOSIG=
201611150720 METAR COR EGLL 150720Z 23007KT 200V270 9999 BKN008 13/12
                        Q1026 NOSIG=
201611150650 METAR COR EGLL 150650Z AUTO 25009KT 9999 OVC007 13/12 Q1026
                        NOSIG=
201611150620 METAR COR EGLL 150620Z AUTO 24009KT 9999 BKN006 13/12 Q1025
                        NOSIG=
201611150550 METAR COR EGLL 150550Z AUTO 26007KT 9999 OVC007 13/12 Q1025
                        NOSIG=
201611150520 METAR COR EGLL 150520Z AUTO 24007KT 9999 OVC007 13/12 Q1025
                        NOSIG=
201611150450 METAR COR EGLL 150450Z AUTO 24007KT 9999 OVC006 13/12 Q1026
                        NOSIG=
201611150420 METAR COR EGLL 150420Z AUTO 26008KT 9999 OVC006 13/12 Q1026
                        NOSIG=
201611150350 METAR COR EGLL 150350Z AUTO 25009KT 8000 OVC006 13/12 Q1026
                        NOSIG=
201611150320 METAR COR EGLL 150320Z AUTO 25007KT 9000 OVC007 13/12 Q1026
                        NOSIG=
201611150250 METAR COR EGLL 150250Z AUTO 25007KT 9000 OVC006 13/12 Q1026
                        NOSIG=
201611150220 METAR COR EGLL 150220Z AUTO 26008KT 8000 OVC006 13/12 Q1026
                        NOSIG=
201611150150 METAR COR EGLL 150150Z AUTO 26007KT 8000 OVC006 13/12 Q1026
                        NOSIG=
201611150120 METAR COR EGLL 150120Z AUTO 26008KT 7000 OVC006 13/12 Q1026
                        NOSIG=
201611150050 METAR COR EGLL 150050Z AUTO 27009KT 7000 OVC006 13/12 Q1026
                        NOSIG=
201611150020 METAR COR EGLL 150020Z AUTO 27010KT 6000 BKN006 12/11 Q1026
                        NOSIG=
201611142350 METAR COR EGLL 142350Z AUTO 27009KT 6000 BKN006 12/11 Q1027
                        NOSIG=
201611142320 METAR COR EGLL 142320Z AUTO 27008KT 7000 OVC007 13/11 Q1027
                        NOSIG=
201611142250 METAR COR EGLL 142250Z AUTO 27014KT 7000 OVC006 12/11 Q1027
                        NOSIG=
201611142220 METAR COR EGLL 142220Z AUTO 26013KT 7000 OVC006 12/11 Q1027
                        NOSIG=
201611142150 METAR COR EGLL 142150Z AUTO 27013KT 8000 OVC006 13/11 Q1027
                        NOSIG=
201611142120 METAR COR EGLL 142120Z AUTO 27013KT 7000 OVC006 12/11 Q1027
                        NOSIG=
201611142050 METAR COR EGLL 142050Z AUTO 26010KT 9000 OVC007 13/11 Q1027
                        NOSIG=
201611142020 METAR COR EGLL 142020Z AUTO 26010KT 9999 OVC007 13/11 Q1027
                        NOSIG=
201611141950 METAR COR EGLL 141950Z AUTO 26008KT 9999 OVC007 13/11 Q1027
                        NOSIG=
201611141920 METAR COR EGLL 141920Z AUTO 27010KT 9999 OVC007 12/11 Q1027
                        NOSIG=
201611141850 METAR COR EGLL 141850Z AUTO 27011KT 9999 OVC008 12/11 Q1027
                        NOSIG=
201611141820 METAR COR EGLL 141820Z AUTO 27011KT 9999 OVC008 12/11 Q1027
                        NOSIG=
201611141750 METAR COR EGLL 141750Z AUTO 26010KT 9999 OVC008 12/11 Q1028
                        TEMPO BKN010=
201611141720 METAR COR EGLL 141720Z AUTO 25010KT 9999 OVC008 12/11 Q1028
                        TEMPO BKN010=
201611141650 METAR COR EGLL 141650Z AUTO 24011KT 9999 OVC009 12/11 Q1028
                        TEMPO BKN011=
201611141620 METAR COR EGLL 141620Z AUTO 23009KT 8000 -RA OVC010 12/11
                        Q1028 NOSIG=
201611141550 METAR COR EGLL 141550Z AUTO 23009KT 6000 OVC011 12/11 Q1028
                        TEMPO SCT011 BKN015=
201611141520 METAR COR EGLL 141520Z AUTO 24010KT 9999 OVC012 12/10 Q1028
                        NOSIG=
201611141450 METAR COR EGLL 141450Z AUTO 23008KT 9999 OVC011 12/10 Q1028
                        TEMPO SCT011 BKN015=
201611141420 METAR COR EGLL 141420Z AUTO 23010KT 9999 OVC011 12/10 Q1028
                        TEMPO SCT011 BKN015=
201611141350 METAR COR EGLL 141350Z AUTO 24010KT 9999 BKN011 12/10 Q1029
                        TEMPO SCT011 BKN016=
201611141320 METAR COR EGLL 141320Z AUTO 23010KT 9999 FEW035 BKN047 12/10
                        Q1029 NOSIG=
201611141250 METAR COR EGLL 141250Z AUTO 23010KT 9999 -RA FEW035 BKN046
                        11/10 Q1029 TEMPO BKN012=
201611141220 METAR COR EGLL 141220Z AUTO 22009KT 9999 FEW008 OVC048 11/10
                        Q1030 TEMPO BKN014=
201611141150 METAR COR EGLL 141150Z 23007KT 7000 -RADZ FEW009 SCT012 BKN018
                        11/10 Q1030 TEMPO BKN012=
201611141120 METAR EGLL 141120Z AUTO 22008KT 9999 -RA BKN012 11/09 Q1030=
201611141050 METAR COR EGLL 141050Z AUTO 22005KT 180V260 9999 OVC013 11/09
                        Q1031 TEMPO SCT014 BKN016=
201611141020 METAR COR EGLL 141020Z AUTO 22008KT 190V250 9999 OVC013 10/08
                        Q1031 BECMG SCT014 BKN017=
201611140950 METAR COR EGLL 140950Z AUTO 21007KT 180V260 9999 BKN013 10/08
                        Q1030 TEMPO SCT016=
201611140920 METAR COR EGLL 140920Z AUTO 20008KT 9999 FEW014 09/08 Q1030
                        TEMPO BKN013=
201611140850 METAR COR EGLL 140850Z AUTO 19008KT 170V240 9999 NCD 09/07
                        Q1030 TEMPO BKN011=
201611140820 METAR COR EGLL 140820Z AUTO 21006KT 9999 NCD 08/07 Q1031
                        TEMPO BKN011=
201611140750 METAR EGLL 140750Z AUTO 20007KT 180V240 9999 -RA NCD 08/07
                        Q1030=
201611140720 METAR COR EGLL 140720Z AUTO 21007KT 170V260 9999 -RA FEW034
                        07/06 Q1030 NOSIG=
201611140650 METAR COR EGLL 140650Z AUTO 20007KT 160V230 9999 -RA FEW010
                        07/06 Q1030 TEMPO BKN006=
201611140620 METAR COR EGLL 140620Z AUTO 18004KT 150V280 9999 -RA NCD
                        07/06 Q1030 NOSIG=
201611140550 METAR COR EGLL 140550Z AUTO 18003KT 9999 NCD 07/06 Q1030
                        NOSIG=
201611140520 METAR COR EGLL 140520Z AUTO 18003KT 9999 NCD 07/06 Q1030
                        NOSIG=
201611140450 METAR COR EGLL 140450Z AUTO 17003KT 9999 SCT048 06/06 Q1031
                        NOSIG=
201611140420 METAR COR EGLL 140420Z AUTO 16003KT 9999 BKN047 06/06 Q1031
                        NOSIG=
201611140350 METAR COR EGLL 140350Z AUTO 25002KT 9999 SCT048 06/05 Q1031
                        NOSIG=
201611140320 METAR COR EGLL 140320Z AUTO 22002KT 9999 -RA NCD 06/06 Q1031
                        NOSIG=
201611140250 METAR COR EGLL 140250Z AUTO VRB03KT 9000 NCD 06/05 Q1031
                        NOSIG=
201611140220 METAR COR EGLL 140220Z AUTO 19002KT 9000 NCD 06/05 Q1031
                        NOSIG=
201611140150 METAR COR EGLL 140150Z AUTO 17002KT 9000 -RA NCD 06/05 Q1031
                        NOSIG=
201611140120 METAR COR EGLL 140120Z AUTO 18003KT 8000 NCD 05/05 Q1031
                        NOSIG=
201611140050 METAR COR EGLL 140050Z AUTO 18004KT 8000 NCD 05/05 Q1031
                        NOSIG=
201611140020 METAR COR EGLL 140020Z AUTO VRB02KT 9000 NCD 05/04 Q1031
                        NOSIG=
201611132350 METAR COR EGLL 132350Z AUTO 25002KT 9000 NCD 05/04 Q1031
                        NOSIG=
201611132320 METAR COR EGLL 132320Z AUTO 27003KT 8000 NCD 05/04 Q1031
                        NOSIG=
201611132250 METAR COR EGLL 132250Z AUTO 28002KT 8000 NCD 05/04 Q1031
                        NOSIG=
201611132220 METAR COR EGLL 132220Z AUTO 29001KT 8000 NCD 05/04 Q1031
                        NOSIG=
201611132150 METAR COR EGLL 132150Z AUTO 30003KT 6000 NCD 06/04 Q1031
                        NOSIG=
201611132120 METAR COR EGLL 132120Z AUTO 31001KT 6000 NCD 06/05 Q1031
                        NOSIG=
201611132050 METAR COR EGLL 132050Z AUTO 08001KT 8000 NCD 06/05 Q1031
                        NOSIG=
201611132020 METAR COR EGLL 132020Z AUTO 32002KT 9999 NCD 06/04 Q1031
                        NOSIG=
201611131950 METAR COR EGLL 131950Z AUTO 30002KT 9999 NCD 07/04 Q1031
                        NOSIG=
201611131920 METAR COR EGLL 131920Z AUTO 29003KT 9999 NCD 06/05 Q1031
                        NOSIG=
201611131850 METAR COR EGLL 131850Z AUTO 28002KT 9999 NCD 06/05 Q1030
                        NOSIG=
201611131820 METAR COR EGLL 131820Z AUTO 30003KT 9999 NCD 07/05 Q1030
                        NOSIG=
201611131750 METAR COR EGLL 131750Z AUTO 30003KT 9999 NCD 08/05 Q1030
                        NOSIG=
201611131720 METAR COR EGLL 131720Z AUTO 32001KT 9999 NCD 07/05 Q1030
                        NOSIG=
201611131650 METAR COR EGLL 131650Z AUTO VRB02KT 9999 NCD 09/05 Q1029
                        NOSIG=
201611131620 METAR COR EGLL 131620Z AUTO 35003KT 9999 NCD 09/05 Q1029
                        NOSIG=
201611131550 METAR COR EGLL 131550Z AUTO VRB03KT 9999 NCD 10/05 Q1029
                        NOSIG=
201611131520 METAR COR EGLL 131520Z AUTO 33005KT 290V010 9999 NCD 10/05
                        Q1028 NOSIG=
201611131450 METAR COR EGLL 131450Z AUTO 33007KT 9999 NCD 11/05 Q1028
                        NOSIG=
201611131420 METAR COR EGLL 131420Z AUTO 33007KT 300V010 9999 FEW024 11/05
                        Q1028 NOSIG=
201611131350 METAR COR EGLL 131350Z AUTO 35007KT 320V030 9999 FEW023 11/06
                        Q1028 NOSIG=
201611131320 METAR COR EGLL 131320Z AUTO 33006KT 290V040 9999 FEW022 11/06
                        Q1028 NOSIG=
201611131250 METAR COR EGLL 131250Z AUTO 33007KT 300V360 9999 FEW021 11/06
                        Q1028 NOSIG=
201611131220 METAR COR EGLL 131220Z AUTO 32007KT 290V010 9999 FEW018 10/06
                        Q1028 NOSIG=
201611131150 METAR COR EGLL 131150Z AUTO 32007KT 290V360 9999 FEW017 10/06
                        Q1028 NOSIG=
201611131120 METAR COR EGLL 131120Z AUTO 34005KT 310V030 9999 FEW017 10/06
                        Q1027 NOSIG=
201611131050 METAR COR EGLL 131050Z AUTO 35005KT 300V020 9999 SCT016 09/06
                        Q1027 NOSIG=
201611131020 METAR COR EGLL 131020Z AUTO 35006KT 320V040 9999 FEW015 09/06
                        Q1027 NOSIG=
201611130950 METAR COR EGLL 130950Z AUTO 34005KT 280V030 9999 NCD 09/06
                        Q1027 NOSIG=
201611130920 METAR COR EGLL 130920Z AUTO 30004KT 9999 NCD 08/06 Q1026
                        NOSIG=
201611130850 METAR COR EGLL 130850Z AUTO 30004KT 9999 NCD 07/06 Q1026
                        NOSIG=
201611130820 METAR COR EGLL 130820Z AUTO 30003KT 9999 NCD 07/06 Q1026
                        NOSIG=
201611130750 METAR COR EGLL 130750Z AUTO 30003KT 5000 BR NCD 05/05 Q1025
                        NOSIG=
201611130720 METAR COR EGLL 130720Z AUTO 30002KT 8000 NCD 06/06 Q1025
                        NOSIG=
201611130650 METAR COR EGLL 130650Z AUTO 30003KT 7000 NCD 07/06 Q1024
                        NOSIG=
201611130620 METAR COR EGLL 130620Z AUTO 29005KT 7000 NCD 07/06 Q1024
                        NOSIG=
201611130550 METAR COR EGLL 130550Z AUTO 28004KT 7000 NCD 06/06 Q1024
                        NOSIG=
201611130520 METAR COR EGLL 130520Z AUTO 28003KT 7000 NCD 07/06 Q1024
                        NOSIG=
201611130450 METAR COR EGLL 130450Z AUTO 30002KT 8000 NCD 07/06 Q1023
                        NOSIG=
201611130420 METAR COR EGLL 130420Z AUTO 32003KT 9999 NCD 07/06 Q1023
                        NOSIG=
201611130350 METAR COR EGLL 130350Z AUTO 30004KT 9999 NCD 07/06 Q1022
                        NOSIG=
201611130320 METAR COR EGLL 130320Z AUTO 32005KT 9999 NCD 07/06 Q1022
                        NOSIG=
201611130250 METAR COR EGLL 130250Z AUTO 31005KT 9000 NCD 07/06 Q1021
                        NOSIG=
201611130220 METAR COR EGLL 130220Z AUTO 33004KT 8000 NCD 08/07 Q1021
                        NOSIG=
201611130150 METAR EGLL 130150Z AUTO 33007KT 9000 NCD 08/07 Q1021=
201611130120 METAR EGLL 130120Z AUTO 33005KT 9999 FEW030 09/07 Q1021=
201611130050 METAR EGLL 130050Z AUTO 34005KT 300V030 9000 FEW031 SCT040
                        09/07 Q1020=
201611130020 METAR EGLL 130020Z AUTO 32005KT 290V360 9000 BKN047 09/08
                        Q1020=
201611122350 METAR EGLL 122350Z AUTO 32004KT 280V340 9999 FEW034 BKN047
                        09/08 Q1020=
201611122320 METAR COR EGLL 122320Z AUTO 31004KT 9999 BKN046 09/08 Q1019
                        NOSIG=
201611122250 METAR COR EGLL 122250Z AUTO 32005KT 9999 FEW046 09/08 Q1019
                        NOSIG=
201611122220 METAR COR EGLL 122220Z AUTO 31004KT 9999 NCD 09/08 Q1019
                        NOSIG=
201611122150 METAR COR EGLL 122150Z AUTO VRB03KT 9999 BKN040 10/09 Q1019
                        NOSIG=
201611122120 METAR COR EGLL 122120Z AUTO 31004KT 9000 OVC038 10/09 Q1018
                        NOSIG=
201611122050 METAR COR EGLL 122050Z AUTO 29004KT 9000 OVC035 10/10 Q1018
                        NOSIG=
201611122020 METAR COR EGLL 122020Z 29003KT 9000 BKN033 10/10 Q1018 NOSIG=
201611121950 METAR COR EGLL 121950Z VRB03KT 9000 BKN030 10/10 Q1017 NOSIG=
201611121920 METAR COR EGLL 121920Z VRB02KT 9999 BKN027 10/10 Q1017 NOSIG=
201611121850 METAR COR EGLL 121850Z AUTO VRB03KT 5000 BR FEW008 OVC023
                        10/10 Q1017 NOSIG=
201611121820 METAR COR EGLL 121820Z VRB02KT 4500 -RADZ BR FEW001 SCT003
                        BKN005 11/10 Q1016 TEMPO FEW005 BKN020=
201611121750 METAR COR EGLL 121750Z VRB02KT 6000 SCT003 BKN007 10/10 Q1016
                        TEMPO BKN003=
201611121720 METAR COR EGLL 121720Z VRB02KT 2900 BR SCT002 BKN004 10/10
                        Q1016 NOSIG=
201611121650 METAR COR EGLL 121650Z VRB02KT 3600 -DZ BR FEW003 BKN005
                        11/10 Q1015 TEMPO BKN003=
201611121620 METAR COR EGLL 121620Z VRB01KT 4000 -DZ FEW003 BKN005 10/10
                        Q1015 TEMPO BKN003=
201611121550 METAR COR EGLL 121550Z 08001KT 4200 -RADZ SCT003 BKN005 11/10
                        Q1015 REDZ TEMPO BKN003=
201611121520 METAR COR EGLL 121520Z AUTO VRB01KT 3800 -RADZ OVC003 11/10
                        Q1015 REDZ TEMPO SCT003 BKN005=
201611121450 METAR COR EGLL 121450Z AUTO 10002KT 4100 -DZ OVC007 11/10
                        Q1014 TEMPO 9999 NSW=
201611121420 METAR COR EGLL 121420Z 15003KT 9000 BKN008 11/10 Q1014 NOSIG=
201611121350 METAR COR EGLL 121350Z 14005KT 9999 FEW004 SCT008 BKN011
                        11/10 Q1014 TEMPO BKN008=
201611121320 METAR COR EGLL 121320Z 15005KT 7000 -RA FEW004 SCT006 BKN011
                        11/10 Q1014 TEMPO BKN008=
201611121250 METAR COR EGLL 121250Z 15006KT 4400 -RADZ FEW004 SCT006 BKN009
                        10/09 Q1014 TEMPO RADZ=
201611121220 METAR COR EGLL 121220Z 15006KT 4200 -RADZ FEW004 SCT006 BKN008
                        10/09 Q1014 TEMPO RADZ=
201611121150 METAR COR EGLL 121150Z 15008KT 5000 -RADZ FEW005 SCT006 BKN008
                        10/09 Q1015 TEMPO 3000 RADZ=
201611121120 METAR COR EGLL 121120Z 16007KT 7000 -RA FEW005 SCT007 BKN009
                        10/09 Q1015 TEMPO 4000 RADZ BKN008=
201611121050 METAR COR EGLL 121050Z 16007KT 7000 -RA FEW006 SCT009 BKN010
                        10/09 Q1015 TEMPO 4000 RADZ BKN008=
201611121020 METAR COR EGLL 121020Z 15008KT 9000 -RA FEW007 SCT009 BKN011
                        09/08 Q1015 TEMPO 4500 -RADZ BKN008=
201611120950 METAR COR EGLL 120950Z 16009KT 9999 -RA FEW009 SCT011 BKN013
                        09/08 Q1015 NOSIG=
201611120920 METAR COR EGLL 120920Z AUTO 13008KT 7000 -RA BKN008/// //////TCU
                        09/08 Q1015 TEMPO RA=
201611120850 METAR COR EGLL 120850Z AUTO 15007KT 7000 -RA OVC009/// //////TCU
                        09/08 Q1016 TEMPO RA=
201611120820 METAR COR EGLL 120820Z AUTO 16009KT 8000 -RA OVC011 09/08
                        Q1015 TEMPO RA=
201611120750 METAR COR EGLL 120750Z AUTO 15008KT 9999 -RA BKN016 09/07
                        Q1015 TEMPO RA BKN014=
201611120720 METAR COR EGLL 120720Z AUTO 14008KT 9000 -RA BKN015/// //////TCU
                        09/07 Q1015 TEMPO RA BKN014=
201611120650 METAR COR EGLL 120650Z AUTO 14008KT 9999 -RA BKN016 BKN033
                        09/07 Q1015 TEMPO RA BKN014=
201611120620 METAR COR EGLL 120620Z AUTO 14009KT 9999 -RA SCT018 BKN048
                        09/07 Q1016 TEMPO RA=
201611120550 METAR COR EGLL 120550Z AUTO 15009KT 9999 BKN017 09/06 Q1016
                        TEMPO RA=
201611120520 METAR COR EGLL 120520Z AUTO 14010KT 9999 OVC020 08/06 Q1016
                        TEMPO RA=
201611120450 METAR COR EGLL 120450Z AUTO 13009KT 9999 BKN026 08/05 Q1017
                        NOSIG=
201611120420 METAR COR EGLL 120420Z AUTO 13007KT 9999 BKN034 07/05 Q1017
                        NOSIG=
201611120350 METAR COR EGLL 120350Z AUTO 13007KT 9999 BKN044 07/05 Q1018
                        NOSIG=
201611120320 METAR COR EGLL 120320Z AUTO 13007KT 9999 FEW044 07/04 Q1018
                        NOSIG=
201611120250 METAR COR EGLL 120250Z AUTO 13006KT 9999 FEW029 06/04 Q1019
                        NOSIG=
201611120220 METAR COR EGLL 120220Z AUTO 13006KT 9999 BKN025 06/04 Q1019
                        NOSIG=
201611120150 METAR COR EGLL 120150Z AUTO 14004KT 9999 SCT027 05/04 Q1019
                        NOSIG=
201611120120 METAR COR EGLL 120120Z AUTO 14004KT 6000 BKN037 04/03 Q1020
                        TEMPO 6000 NSW=
201611120050 METAR COR EGLL 120050Z AUTO 13004KT 5000 HZ FEW039 04/03
                        Q1020 NOSIG=
201611120020 METAR COR EGLL 120020Z AUTO 13004KT 6000 NCD 04/03 Q1020
                        NOSIG=
201611112350 METAR COR EGLL 112350Z AUTO 14003KT 7000 FEW029 05/04 Q1021
                        NOSIG=
201611112320 METAR COR EGLL 112320Z AUTO 13005KT 7000 FEW031 05/03 Q1021
                        NOSIG=
201611112250 METAR COR EGLL 112250Z AUTO 13004KT 4700 HZ NCD 05/03 Q1021
                        TEMPO 6000=
201611112220 METAR COR EGLL 112220Z AUTO 16004KT 6000 NCD 05/03 Q1022
                        NOSIG=
201611112150 METAR COR EGLL 112150Z AUTO 16004KT 8000 FEW026 05/03 Q1022
                        NOSIG=
201611112120 METAR COR EGLL 112120Z AUTO 13008KT 7000 FEW027 05/03 Q1022
                        NOSIG=
201611112050 METAR COR EGLL 112050Z AUTO 14005KT 8000 SCT027 06/03 Q1022
                        NOSIG=
201611112020 METAR COR EGLL 112020Z AUTO 13006KT 9000 FEW033 06/03 Q1022
                        NOSIG=
201611111950 METAR COR EGLL 111950Z AUTO 17004KT 9999 NCD 06/03 Q1022
                        NOSIG=
201611111920 METAR COR EGLL 111920Z AUTO 17004KT 060V220 9999 NCD 06/03
                        Q1023 NOSIG=
201611111850 METAR COR EGLL 111850Z AUTO 15005KT 9999 NCD 07/03 Q1023
                        NOSIG=
201611111820 METAR COR EGLL 111820Z AUTO 16006KT 9999 NCD 07/03 Q1023
                        NOSIG=
201611111750 METAR COR EGLL 111750Z AUTO 17003KT 9999 NCD 08/03 Q1023
                        NOSIG=
201611111720 METAR COR EGLL 111720Z AUTO 17005KT 9999 NCD 08/03 Q1023
                        NOSIG=
201611111650 METAR COR EGLL 111650Z AUTO 17004KT 9999 NCD 08/03 Q1023
                        NOSIG=
201611111620 METAR COR EGLL 111620Z AUTO 15004KT 9999 NCD 09/03 Q1023
                        NOSIG=
201611111550 METAR COR EGLL 111550Z AUTO 14003KT 9999 NCD 09/03 Q1023
                        NOSIG=
201611111520 METAR COR EGLL 111520Z AUTO 17003KT 9999 NCD 09/03 Q1023
                        NOSIG=
201611111450 METAR COR EGLL 111450Z AUTO 16003KT 9999 NCD 10/03 Q1023
                        NOSIG=
201611111420 METAR COR EGLL 111420Z AUTO 19004KT 9999 NCD 10/03 Q1023
                        NOSIG=
201611111350 METAR COR EGLL 111350Z AUTO 18004KT 130V210 9999 NCD 10/03
                        Q1023 NOSIG=
201611111320 METAR COR EGLL 111320Z AUTO VRB03KT 9999 FEW027 10/03 Q1023
                        NOSIG=
201611111250 METAR COR EGLL 111250Z AUTO VRB03KT 9999 FEW015 10/03 Q1023
                        NOSIG=
201611111220 METAR COR EGLL 111220Z AUTO VRB02KT 9999 NCD 10/03 Q1023
                        NOSIG=
201611111150 METAR COR EGLL 111150Z AUTO VRB02KT 9999 NCD 09/05 Q1023
                        NOSIG=
201611111120 METAR COR EGLL 111120Z AUTO VRB01KT 9999 NCD 09/05 Q1023
                        NOSIG=
201611111050 METAR COR EGLL 111050Z AUTO VRB02KT 9999 NCD 08/04 Q1023
                        NOSIG=
201611111020 METAR COR EGLL 111020Z AUTO VRB01KT 9999 NCD 07/04 Q1023
                        NOSIG=
201611110950 METAR COR EGLL 110950Z AUTO 30004KT 270V340 9999 NCD 06/04
                        Q1022 NOSIG=
201611110920 METAR COR EGLL 110920Z AUTO VRB02KT 9999 NCD 06/04 Q1022
                        NOSIG=
201611110850 METAR COR EGLL 110850Z AUTO VRB01KT 9999 NCD 06/04 Q1021
                        NOSIG=
201611110820 METAR COR EGLL 110820Z AUTO 09002KT 9999 FEW033 05/04 Q1021
                        NOSIG=
201611110750 METAR COR EGLL 110750Z AUTO VRB02KT 9999 SCT031 05/03 Q1021
                        NOSIG=
201611110720 METAR COR EGLL 110720Z AUTO VRB03KT 9999 OVC031 04/03 Q1020
                        NOSIG=
201611110650 METAR COR EGLL 110650Z AUTO VRB03KT 9999 OVC031 03/03 Q1020
                        NOSIG=
201611110620 METAR COR EGLL 110620Z AUTO 30004KT 280V010 9999 BKN035 03/02
                        Q1020 NOSIG=
201611110550 METAR COR EGLL 110550Z AUTO VRB02KT 9999 SCT036 03/02 Q1019
                        NOSIG=
201611110520 METAR COR EGLL 110520Z AUTO 30004KT 9999 FEW038 03/02 Q1018
                        NOSIG=
201611110450 METAR COR EGLL 110450Z AUTO 30005KT 9999 NCD 03/02 Q1018
                        NOSIG=
201611110420 METAR COR EGLL 110420Z AUTO 31004KT 9999 FEW033 03/02 Q1017
                        NOSIG=
201611110350 METAR COR EGLL 110350Z AUTO 31005KT 9999 NCD 04/02 Q1017
                        NOSIG=
201611110320 METAR COR EGLL 110320Z AUTO 30005KT 9999 NCD 04/02 Q1017
                        NOSIG=
201611110250 METAR COR EGLL 110250Z AUTO 30005KT 9999 FEW018 04/03 Q1016
                        NOSIG=
201611110220 METAR COR EGLL 110220Z AUTO 29004KT 9999 NCD 04/03 Q1016
                        NOSIG=
201611110150 METAR COR EGLL 110150Z AUTO 29005KT 9999 SCT028 05/03 Q1015
                        NOSIG=
201611110120 METAR COR EGLL 110120Z AUTO 31005KT 9999 OVC026 06/03 Q1015
                        NOSIG=
201611110050 METAR COR EGLL 110050Z AUTO 31006KT 9999 OVC028 06/04 Q1014
                        NOSIG=
201611110020 METAR COR EGLL 110020Z AUTO 31006KT 9999 OVC030 06/04 Q1014
                        NOSIG=
201611102350 METAR COR EGLL 102350Z AUTO 31006KT 9999 BKN031 06/04 Q1014
                        NOSIG=
201611102320 METAR COR EGLL 102320Z AUTO 31006KT 9999 FEW031 06/04 Q1013
                        NOSIG=
201611102250 METAR COR EGLL 102250Z AUTO 31005KT 9999 BKN027 06/04 Q1012
                        NOSIG=
201611102220 METAR COR EGLL 102220Z AUTO 31008KT 9999 FEW025 06/04 Q1012
                        NOSIG=
201611102150 METAR COR EGLL 102150Z AUTO 30008KT 9999 SCT022 BKN030 07/05
                        Q1011 NOSIG=
201611102120 METAR COR EGLL 102120Z AUTO 30008KT 9999 -RA SCT021 BKN028
                        06/05 Q1011 NOSIG=
201611102050 METAR COR EGLL 102050Z AUTO 29004KT 220V010 9999 -RA BKN026///
                        //////TCU 06/05 Q1010 TEMPO SHRA=
201611102020 METAR COR EGLL 102020Z AUTO 30005KT 9999 SCT034/// //////TCU
                        06/04 Q1010 NOSIG=
201611101950 METAR COR EGLL 101950Z AUTO 30006KT 9999 -RA BKN038 07/04
                        Q1010 NOSIG=
201611101920 METAR COR EGLL 101920Z AUTO 28007KT 9999 BKN036 07/04 Q1009
                        NOSIG=
201611101850 METAR COR EGLL 101850Z AUTO 28009KT 9999 FEW043 07/04 Q1009
                        TEMPO SHRA=
201611101820 METAR COR EGLL 101820Z AUTO 28010KT 9999 BKN040 07/04 Q1009
                        TEMPO SHRA=
201611101750 METAR COR EGLL 101750Z AUTO 29010KT 9999 NCD 07/04 Q1008
                        TEMPO SHRA=
201611101720 METAR COR EGLL 101720Z AUTO 29009KT 9999 NCD 07/04 Q1008
                        TEMPO SHRA=
201611101650 METAR COR EGLL 101650Z AUTO 27007KT 9999 NCD 07/04 Q1007
                        NOSIG=
201611101620 METAR COR EGLL 101620Z AUTO 31005KT 9999 NCD 08/05 Q1007
                        NOSIG=
201611101550 METAR COR EGLL 101550Z AUTO 30006KT 9999 FEW018/// //////TCU
                        08/05 Q1007 TEMPO SHRA=
201611101520 METAR COR EGLL 101520Z AUTO 30014KT 6000 -RA SCT020/// BKN033///
                        //////CB 09/06 Q1007 TEMPO SHRA=
201611101450 METAR COR EGLL 101450Z AUTO 27012KT 9999 FEW031 11/05 Q1006
                        TEMPO SHRA=
201611101420 METAR COR EGLL 101420Z AUTO 29012KT 9999 //////CB 11/05 Q1006
                        NOSIG=
201611101350 METAR COR EGLL 101350Z AUTO 27012KT 9999 SCT029/// SCT044///
                        //////CB 11/06 Q1006 NOSIG=
201611101320 METAR COR EGLL 101320Z AUTO 29010KT 9999 SCT033 BKN049 11/06
                        Q1006 NOSIG=
201611101250 METAR COR EGLL 101250Z AUTO 28009KT 9999 FEW024 11/07 Q1006
                        NOSIG=
201611101220 METAR COR EGLL 101220Z AUTO 27012KT 9999 BKN022 11/07 Q1006
                        NOSIG=
201611101150 METAR COR EGLL 101150Z AUTO 27013KT 9999 FEW022 10/07 Q1006
                        NOSIG=
201611101120 METAR COR EGLL 101120Z AUTO 27011KT 9999 NCD 10/07 Q1006
                        NOSIG=
201611101050 METAR COR EGLL 101050Z AUTO 26011KT 9999 NCD 09/07 Q1006
                        NOSIG=
201611101020 METAR COR EGLL 101020Z AUTO 27012KT 9999 NCD 08/07 Q1006
                        NOSIG=
201611100950 METAR COR EGLL 100950Z AUTO 27011KT 9999 FEW023 BKN036 08/06
                        Q1006 NOSIG=
201611100920 METAR COR EGLL 100920Z AUTO 26008KT 9999 -RA BKN044 07/06
                        Q1006 NOSIG=
201611100850 METAR COR EGLL 100850Z AUTO 24004KT 200V270 9999 NCD 06/05
                        Q1006 NOSIG=
201611100820 METAR COR EGLL 100820Z AUTO 22004KT 180V260 9999 NCD 06/05
                        Q1006 NOSIG=
201611100750 METAR COR EGLL 100750Z AUTO 22005KT 9999 NCD 05/04 Q1006
                        NOSIG=
201611100720 METAR COR EGLL 100720Z AUTO 22004KT 180V250 9999 NCD 05/04
                        Q1006 NOSIG=
201611100650 METAR COR EGLL 100650Z AUTO 23005KT 9999 SCT048 05/04 Q1006
                        NOSIG=
201611100620 METAR COR EGLL 100620Z AUTO 23006KT 210V270 9999 NCD 04/04
                        Q1006 NOSIG=
201611100550 METAR COR EGLL 100550Z AUTO 21004KT 9999 NCD 04/04 Q1006
                        NOSIG=
201611100520 METAR COR EGLL 100520Z AUTO VRB02KT 9999 NCD 03/03 Q1006
                        NOSIG=
201611100450 METAR COR EGLL 100450Z AUTO 22004KT 9999 NCD 04/04 Q1006
                        NOSIG=
201611100420 METAR COR EGLL 100420Z AUTO 26004KT 9999 NCD 04/03 Q1006
                        NOSIG=
201611100350 METAR COR EGLL 100350Z AUTO 23004KT 9999 NCD 04/04 Q1006
                        NOSIG=
201611100320 METAR COR EGLL 100320Z AUTO 25003KT 9999 NCD 04/04 Q1006
                        NOSIG=
201611100250 METAR COR EGLL 100250Z AUTO 27005KT 9999 NCD 04/04 Q1006
                        NOSIG=
201611100220 METAR COR EGLL 100220Z AUTO 27007KT 9999 NCD 04/03 Q1006
                        NOSIG=
201611100150 METAR COR EGLL 100150Z AUTO 27007KT 9999 NCD 03/03 Q1006
                        NOSIG=
201611100120 METAR COR EGLL 100120Z AUTO 27007KT 9999 SCT038 03/03 Q1006
                        NOSIG=
201611100050 METAR COR EGLL 100050Z AUTO 25008KT 9999 BKN037 04/03 Q1006
                        NOSIG=
201611100020 METAR COR EGLL 100020Z AUTO 27006KT 9999 BKN039 04/03 Q1006
                        NOSIG=
201611092350 METAR COR EGLL 092350Z AUTO 28006KT 9999 FEW043 03/03 Q1006
                        NOSIG=
201611092320 METAR COR EGLL 092320Z AUTO 26006KT 9999 NCD 04/03 Q1006
                        NOSIG=
201611092250 METAR COR EGLL 092250Z AUTO 28006KT 9999 FEW038 04/03 Q1006
                        NOSIG=
201611092220 METAR COR EGLL 092220Z AUTO 27007KT 9999 BKN041 05/04 Q1006
                        NOSIG=
201611092150 METAR COR EGLL 092150Z AUTO 27007KT 9999 BKN039 05/04 Q1005
                        NOSIG=
201611092120 METAR COR EGLL 092120Z AUTO 29007KT 9999 FEW043 06/05 Q1005
                        NOSIG=
201611092050 METAR COR EGLL 092050Z AUTO 28008KT 9999 FEW040 06/04 Q1005
                        NOSIG=
201611092020 METAR COR EGLL 092020Z AUTO 29006KT 9999 FEW041 06/05 Q1005
                        NOSIG=
201611091950 METAR COR EGLL 091950Z AUTO 28007KT 9999 FEW038 06/05 Q1004
                        NOSIG=
201611091920 METAR COR EGLL 091920Z AUTO 28009KT 9999 -RA BKN029 07/05
                        Q1004 NOSIG=
201611091850 METAR COR EGLL 091850Z AUTO 28008KT 9999 BKN030 BKN043 07/06
                        Q1004 NOSIG=
201611091820 METAR COR EGLL 091820Z AUTO 27008KT 9999 BKN031 06/05 Q1004
                        NOSIG=
201611091750 METAR COR EGLL 091750Z AUTO 28006KT 9999 FEW028 BKN035 07/06
                        Q1003 NOSIG=
201611091720 METAR COR EGLL 091720Z AUTO 28009KT 9999 -RA FEW018 BKN033
                        07/06 Q1003 NOSIG=
201611091650 METAR COR EGLL 091650Z AUTO 28007KT 9999 -RA SCT023/// BKN044///
                        //////TCU 08/05 Q1003 TEMPO SHRA=
201611091620 METAR COR EGLL 091620Z AUTO 29008KT 9999 BKN039 08/05 Q1003
                        TEMPO SHRA=
201611091550 METAR COR EGLL 091550Z AUTO 29012KT 9999 -RA SCT031 BKN046
                        08/05 Q1002 NOSIG=
201611091520 METAR COR EGLL 091520Z AUTO 29011KT 9999 FEW037 09/05 Q1002
                        TEMPO SHRA=
201611091450 METAR COR EGLL 091450Z AUTO 30011KT 9999 FEW022 09/05 Q1001
                        TEMPO SHRA=
201611091420 METAR COR EGLL 091420Z AUTO 29013KT 9999 FEW020 BKN043 09/05
                        Q1001 NOSIG=
201611091350 METAR COR EGLL 091350Z AUTO 30011KT 9999 BKN019 08/05 Q1001
                        NOSIG=
201611091320 METAR COR EGLL 091320Z AUTO 30016KT 9999 BKN022 08/04 Q1001
                        NOSIG=
201611091250 METAR COR EGLL 091250Z AUTO 31010KT 280V340 9999 BKN019 08/04
                        Q1000 NOSIG=
201611091220 METAR COR EGLL 091220Z AUTO 30013KT 9999 BKN019 08/05 Q1000
                        NOSIG=
201611091150 METAR COR EGLL 091150Z AUTO 30010KT 9999 OVC015 08/05 Q1000
                        TEMPO BKN012=
201611091120 METAR COR EGLL 091120Z AUTO 30008KT 9999 BKN010 07/05 Q0999
                        TEMPO SCT010 BKN018=
201611091050 METAR COR EGLL 091050Z AUTO 29007KT 9999 SCT007 BKN014 06/06
                        Q0999 TEMPO SCT008 BKN018=
201611091020 METAR COR EGLL 091020Z AUTO 29007KT 9999 SCT005 OVC018 06/06
                        Q0999 TEMPO BKN010=
201611090950 METAR COR EGLL 090950Z 29008KT 9999 FEW004 BKN006 06/06 Q0998
                        TEMPO SCT006 BKN010=
201611090920 METAR COR EGLL 090920Z AUTO 32004KT 300V010 9999 FEW005 OVC021
                        07/06 Q0998 TEMPO SCT004 BKN006=
201611090850 METAR COR EGLL 090850Z 34005KT 310V010 9000 -RA FEW010 BKN026
                        06/06 Q0998 RERA TEMPO SCT004 BKN006=
201611090820 METAR COR EGLL 090820Z 33007KT 300V020 6000 RA FEW004 BKN008
                        06/06 Q0997 RERA TEMPO BKN010=
201611090750 METAR COR EGLL 090750Z 35006KT 8000 -RA FEW006 SCT020 BKN028
                        06/06 Q0996 RERA TEMPO BKN006=
201611090720 METAR COR EGLL 090720Z 02006KT 340V050 7000 RA FEW003 SCT006
                        BKN027 06/06 Q0995 RERA TEMPO BKN006=
201611090650 METAR COR EGLL 090650Z 02007KT 6000 RA FEW004 SCT008 BKN029
                        06/06 Q0995 TEMPO BKN008=
201611090620 METAR COR EGLL 090620Z 05007KT 020V080 7000 -RA FEW005 BKN020
                        BKN032 06/06 Q0994 TEMPO BKN008=
201611090550 METAR COR EGLL 090550Z 05008KT 5000 -RA SCT005 BKN012 BKN024
                        06/06 Q0994 RERA TEMPO 4000 RA BKN006=
201611090520 METAR COR EGLL 090520Z 06009KT 4900 RA FEW003 SCT013 BKN023
                        06/05 Q0994 TEMPO 5000 -RA BKN006=
201611090450 METAR COR EGLL 090450Z 06011KT 4900 RA SCT004 BKN019 06/05
                        Q0994 TEMPO 5000 -RA BKN006=
201611090420 METAR COR EGLL 090420Z 06009KT 5000 -RA SCT004 BKN022 05/05
                        Q0995 TEMPO 4000 RA BKN006=
201611090350 METAR COR EGLL 090350Z 08009KT 6000 -RA SCT004 BKN036 05/05
                        Q0995 TEMPO 4000 RA BKN008=
201611090320 METAR COR EGLL 090320Z 09011KT 5000 -RA SCT004 BKN016 05/05
                        Q0996 RERA TEMPO 4000 RA BKN006=
201611090250 METAR COR EGLL 090250Z 09011KT 5000 RA SCT005 BKN016 05/05
                        Q0996 TEMPO 4000 BKN005=
201611090220 METAR COR EGLL 090220Z AUTO 09011KT 7000 -RA SCT004/// BKN014///
                        //////CB 05/04 Q0997 TEMPO RA BKN006=
201611090150 METAR COR EGLL 090150Z AUTO 10011KT 8000 -RA SCT004/// BKN016///
                        OVC034/// //////TCU 05/04 Q0997 TEMPO
                        RA BKN008=
201611090120 METAR COR EGLL 090120Z AUTO 10010KT 8000 -RA FEW005 BKN021
                        05/04 Q0998 TEMPO RA BKN008=
201611090050 METAR COR EGLL 090050Z 09008KT 7000 -RA FEW018 BKN026 05/04
                        Q0999 TEMPO 4000 RA BKN010=
201611090020 METAR COR EGLL 090020Z AUTO 11007KT 9000 -RA OVC020 04/04
                        Q1000 NOSIG=
201611082350 METAR COR EGLL 082350Z AUTO 10007KT 9999 -RA OVC021 04/04
                        Q1001 TEMPO RA BKN014=
201611082320 METAR COR EGLL 082320Z AUTO 10006KT 9999 -RA OVC025 04/03
                        Q1001 TEMPO RA BKN014=
201611082250 METAR COR EGLL 082250Z AUTO 11006KT 9999 -RA OVC026 04/03
                        Q1002 TEMPO RA BKN014=
201611082220 METAR COR EGLL 082220Z AUTO 13006KT 9999 -RA BKN020 04/03
                        Q1002 TEMPO RA BKN014=
201611082150 METAR COR EGLL 082150Z AUTO 13005KT 9999 -RA BKN021 OVC036
                        04/02 Q1003 TEMPO RA BKN014=
201611082120 METAR COR EGLL 082120Z AUTO 11004KT 090V150 9999 -RA SCT022
                        OVC039 05/02 Q1003 TEMPO RA BKN014=
201611082050 METAR COR EGLL 082050Z AUTO 13004KT 9999 -RA BKN024 05/01
                        Q1004 NOSIG=
201611082020 METAR COR EGLL 082020Z AUTO 14004KT 9999 -RA BKN026 OVC043
                        05/01 Q1005 NOSIG=
201611081950 METAR COR EGLL 081950Z AUTO 13004KT 9999 BKN043 05/00 Q1005
                        NOSIG=
201611081920 METAR COR EGLL 081920Z AUTO 14006KT 9999 FEW028 BKN047 05/00
                        Q1005 NOSIG=
201611081850 METAR COR EGLL 081850Z AUTO 15005KT 9999 SCT047 05/00 Q1006
                        NOSIG=
201611081820 METAR COR EGLL 081820Z AUTO 16006KT 9999 NCD 05/00 Q1007
                        NOSIG=
201611081750 METAR COR EGLL 081750Z AUTO 17005KT 130V230 9999 FEW047 05/01
                        Q1007 NOSIG=
201611081720 METAR COR EGLL 081720Z AUTO 16005KT 110V210 9999 BKN048 05/01
                        Q1007 NOSIG=
201611081650 METAR COR EGLL 081650Z AUTO 17005KT 140V200 9999 NCD 05/01
                        Q1008 NOSIG=
201611081620 METAR COR EGLL 081620Z AUTO 17004KT 130V240 9999 NCD 05/00
                        Q1008 NOSIG=
201611081550 METAR COR EGLL 081550Z AUTO 20004KT 150V250 9999 NCD 06/00
                        Q1008 NOSIG=
201611081520 METAR COR EGLL 081520Z AUTO 22004KT 160V270 9999 NCD 06/01
                        Q1009 NOSIG=
201611081450 METAR COR EGLL 081450Z AUTO 27007KT 9999 NCD 06/01 Q1009
                        NOSIG=
201611081420 METAR COR EGLL 081420Z AUTO 28007KT 9999 NCD 06/01 Q1009
                        NOSIG=
201611081350 METAR COR EGLL 081350Z AUTO 28007KT 9999 NCD 06/01 Q1010
                        NOSIG=
201611081320 METAR COR EGLL 081320Z AUTO 28005KT 9999 NCD 05/01 Q1010
                        NOSIG=
201611081250 METAR COR EGLL 081250Z AUTO 29005KT 250V310 9999 NCD 05/01
                        Q1010 NOSIG=
201611081220 METAR COR EGLL 081220Z AUTO 27007KT 240V320 9999 NCD 05/01
                        Q1011 NOSIG=
201611081150 METAR COR EGLL 081150Z AUTO 28007KT 9999 NCD 04/01 Q1011
                        NOSIG=
201611081120 METAR COR EGLL 081120Z AUTO 27006KT 9999 NCD 04/01 Q1011
                        NOSIG=
201611081050 METAR COR EGLL 081050Z AUTO 27006KT 9999 NCD 04/01 Q1012
                        NOSIG=
201611081020 METAR COR EGLL 081020Z AUTO 26006KT 9999 NCD 04/02 Q1012
                        NOSIG=
201611080950 METAR COR EGLL 080950Z AUTO 27006KT 9999 NCD 04/02 Q1012
                        NOSIG=
201611080920 METAR COR EGLL 080920Z AUTO 27005KT 9999 NCD 02/01 Q1012
                        NOSIG=
201611080850 METAR COR EGLL 080850Z AUTO 27004KT 7000 NCD 01/00 Q1012
                        NOSIG=
201611080820 METAR COR EGLL 080820Z AUTO 28004KT 8000 NCD 00/M00 Q1012
                        NOSIG=
201611080750 METAR COR EGLL 080750Z AUTO 29004KT 7000 NCD M00/M01 Q1012
                        NOSIG=
201611080720 METAR COR EGLL 080720Z AUTO 28003KT 7000 NCD M01/M01 Q1012
                        TEMPO 4500 BR=
201611080650 METAR COR EGLL 080650Z AUTO 28005KT 7000 NCD M00/M01 Q1012
                        TEMPO 4500 BR=
201611080620 METAR COR EGLL 080620Z AUTO 29005KT 7000 FEW045 M00/M00 Q1012
                        NOSIG=
201611080550 METAR COR EGLL 080550Z AUTO 28004KT 6000 NCD M00/M00 Q1012
                        NOSIG=
201611080520 METAR COR EGLL 080520Z AUTO 27005KT 6000 NCD M01/M01 Q1012
                        TEMPO 4500 BR=
201611080450 METAR COR EGLL 080450Z 27006KT 6000 NSC M01/M01 Q1013 TEMPO
                        4500 BR=
201611080420 METAR COR EGLL 080420Z AUTO 27005KT 6000 NCD M00/M01 Q1013
                        TEMPO 4500 BR=
201611080350 METAR COR EGLL 080350Z AUTO 28005KT 8000 NCD 00/M00 Q1013
                        NOSIG=
201611080320 METAR COR EGLL 080320Z AUTO 29004KT 9000 NCD 01/M00 Q1013
                        NOSIG=
201611080250 METAR COR EGLL 080250Z AUTO 29005KT 9000 NCD 01/00 Q1013
                        NOSIG=
201611080220 METAR COR EGLL 080220Z AUTO 29005KT 9999 NCD 01/00 Q1013
                        NOSIG=
201611080150 METAR COR EGLL 080150Z AUTO 29005KT 9999 NCD 02/01 Q1013
                        NOSIG=
201611080120 METAR COR EGLL 080120Z AUTO 30005KT 9999 NCD 02/01 Q1013
                        NOSIG=
201611080050 METAR COR EGLL 080050Z AUTO 30005KT 9999 NCD 02/01 Q1013
                        NOSIG=
201611080020 METAR COR EGLL 080020Z AUTO 30004KT 9999 NCD 02/01 Q1014
                        NOSIG=
201611072350 METAR COR EGLL 072350Z AUTO 30005KT 9999 NCD 02/01 Q1014
                        NOSIG=
201611072320 METAR COR EGLL 072320Z AUTO 31006KT 9999 NCD 02/01 Q1014
                        NOSIG=
201611072250 METAR COR EGLL 072250Z AUTO 31005KT 9999 NCD 02/01 Q1014
                        NOSIG=
201611072220 METAR COR EGLL 072220Z AUTO 31004KT 9999 NCD 03/01 Q1014
                        NOSIG=
201611072150 METAR COR EGLL 072150Z AUTO 31005KT 9999 NCD 03/01 Q1014
                        NOSIG=
201611072120 METAR COR EGLL 072120Z AUTO 31004KT 9999 NCD 03/01 Q1014
                        NOSIG=
201611072050 METAR COR EGLL 072050Z AUTO 31004KT 9999 NCD 03/01 Q1014
                        NOSIG=
201611072020 METAR COR EGLL 072020Z AUTO 31004KT 9999 NCD 03/01 Q1014
                        NOSIG=
201611071950 METAR COR EGLL 071950Z AUTO 30005KT 9999 FEW023 04/01 Q1014
                        NOSIG=
201611071920 METAR COR EGLL 071920Z AUTO 31004KT 9999 FEW026 04/01 Q1014
                        NOSIG=
201611071850 METAR COR EGLL 071850Z AUTO 31004KT 9999 NCD 04/01 Q1014
                        NOSIG=
201611071820 METAR COR EGLL 071820Z AUTO 31004KT 9999 NCD 05/01 Q1014
                        NOSIG=
201611071750 METAR COR EGLL 071750Z AUTO 32005KT 300V360 9999 NCD 05/02
                        Q1014 NOSIG=
201611071720 METAR COR EGLL 071720Z AUTO 32004KT 290V350 9999 NCD 06/02
                        Q1014 NOSIG=
201611071650 METAR COR EGLL 071650Z AUTO 34005KT 310V020 9999 FEW030 06/02
                        Q1014 NOSIG=
201611071620 METAR COR EGLL 071620Z AUTO 35005KT 310V030 9999 FEW030 SCT047
                        07/02 Q1013 NOSIG=
201611071550 METAR COR EGLL 071550Z AUTO 35006KT 300V020 9999 FEW028 SCT044
                        07/02 Q1013 NOSIG=
201611071520 METAR COR EGLL 071520Z AUTO 36006KT 310V030 9999 BKN028 08/02
                        Q1013 NOSIG=
201611071450 METAR COR EGLL 071450Z AUTO 36008KT 320V040 9999 BKN028 08/02
                        Q1013 NOSIG=
201611071420 METAR COR EGLL 071420Z AUTO 36009KT 320V030 9999 BKN028 08/02
                        Q1013 NOSIG=
201611071350 METAR COR EGLL 071350Z AUTO 01007KT 330V050 9999 OVC026 08/02
                        Q1013 NOSIG=
201611071320 METAR COR EGLL 071320Z AUTO 01008KT 330V040 9999 BKN027 08/02
                        Q1013 NOSIG=
201611071250 METAR COR EGLL 071250Z AUTO 01009KT 330V050 9999 OVC025 08/02
                        Q1013 NOSIG=
201611071220 METAR COR EGLL 071220Z AUTO 01007KT 310V050 9999 BKN022 08/03
                        Q1013 NOSIG=
201611071150 METAR COR EGLL 071150Z AUTO 36010KT 320V040 9999 BKN022 08/03
                        Q1013 NOSIG=
201611071120 METAR COR EGLL 071120Z AUTO 36010KT 320V030 9999 BKN021 08/03
                        Q1013 NOSIG=
201611071050 METAR COR EGLL 071050Z AUTO 01010KT 330V050 9999 SCT020 08/03
                        Q1012 NOSIG=
201611071020 METAR COR EGLL 071020Z AUTO 36011KT 9999 BKN019 07/03 Q1012
                        NOSIG=
201611070950 METAR COR EGLL 070950Z AUTO 36009KT 330V030 9999 FEW020 07/03
                        Q1012 NOSIG=
201611070920 METAR COR EGLL 070920Z AUTO 36011KT 9999 FEW020 06/03 Q1012
                        NOSIG=
201611070850 METAR COR EGLL 070850Z AUTO 35010KT 320V020 9999 FEW017 06/03
                        Q1011 NOSIG=
201611070820 METAR COR EGLL 070820Z AUTO 36010KT 320V030 9999 FEW018 06/03
                        Q1011 NOSIG=
201611070750 METAR COR EGLL 070750Z AUTO 36009KT 320V030 9999 FEW029 05/03
                        Q1011 NOSIG=
201611070720 METAR COR EGLL 070720Z AUTO 35008KT 310V030 9999 FEW017 05/03
                        Q1011 NOSIG=
201611070650 METAR COR EGLL 070650Z AUTO 35008KT 310V020 9999 -RA SCT012
                        SCT041 05/03 Q1010 NOSIG=
201611070620 METAR COR EGLL 070620Z 34009KT 310V020 9999 FEW017 05/03
                        Q1010 NOSIG=
201611070550 METAR EGLL 070550Z 34009KT 300V020 9999 FEW015 05/03 Q1010=
201611070520 METAR COR EGLL 070520Z 35008KT 300V020 9999 FEW016 05/03
                        Q1010 NOSIG=
201611070450 METAR COR EGLL 070450Z AUTO 35009KT 310V020 9999 SCT017 BKN031
                        06/03 Q1009 NOSIG=
201611070420 METAR COR EGLL 070420Z AUTO 35008KT 310V020 9999 SCT016 06/03
                        Q1009 NOSIG=
201611070350 METAR COR EGLL 070350Z AUTO 35008KT 310V020 9999 BKN015 06/03
                        Q1009 NOSIG=
201611070320 METAR COR EGLL 070320Z AUTO 34009KT 310V010 9999 BKN015 06/03
                        Q1008 NOSIG=
201611070250 METAR COR EGLL 070250Z AUTO 35010KT 9999 BKN016 06/03 Q1008
                        NOSIG=
201611070220 METAR COR EGLL 070220Z AUTO 35009KT 320V020 9999 BKN016 06/03
                        Q1008 NOSIG=
201611070150 METAR COR EGLL 070150Z AUTO 35010KT 320V030 9999 -RA BKN013
                        06/03 Q1008 TEMPO SCT020=
201611070120 METAR COR EGLL 070120Z AUTO 35009KT 320V030 9999 BKN016 BKN037
                        06/03 Q1008 NOSIG=
201611070050 METAR COR EGLL 070050Z AUTO 35009KT 310V040 9999 BKN017 06/03
                        Q1008 NOSIG=
201611070020 METAR COR EGLL 070020Z AUTO 35009KT 320V030 9999 OVC018 06/03
                        Q1008 NOSIG=
201611062350 METAR COR EGLL 062350Z AUTO 35011KT 310V010 9999 BKN018 06/03
                        Q1008 NOSIG=
201611062320 METAR COR EGLL 062320Z AUTO 35008KT 300V040 9999 -RA OVC018
                        06/03 Q1007 NOSIG=
201611062250 METAR COR EGLL 062250Z 34009KT 310V020 9999 SCT020 06/03
                        Q1007 TEMPO SHRA=
201611062220 METAR COR EGLL 062220Z 34010KT 310V010 9999 SCT020 06/03
                        Q1007 TEMPO SHRA=
201611062150 METAR COR EGLL 062150Z 34008KT 310V020 9999 BKN022 06/03
                        Q1007 NOSIG=
201611062120 METAR COR EGLL 062120Z 34008KT 300V020 9999 -RA BKN021 05/03
                        Q1007 NOSIG=
201611062050 METAR COR EGLL 062050Z 34008KT 300V010 9999 BKN022 05/03
                        Q1007 TEMPO SHRA=
201611062020 METAR COR EGLL 062020Z AUTO 33008KT 300V010 9999 BKN020 OVC035
                        05/03 Q1007 TEMPO SHRA=
201611061950 METAR COR EGLL 061950Z AUTO 33007KT 300V360 9999 BKN035 05/03
                        Q1007 TEMPO SHRA=
201611061920 METAR COR EGLL 061920Z AUTO 32007KT 9999 FEW020 SCT037 04/03
                        Q1007 TEMPO SHRA=
201611061850 METAR COR EGLL 061850Z AUTO 32007KT 9999 SCT037 05/03 Q1006
                        TEMPO SHRA=
201611061820 METAR COR EGLL 061820Z AUTO 32005KT 280V360 9999 FEW017 SCT037
                        04/03 Q1006 NOSIG=
201611061750 METAR COR EGLL 061750Z AUTO 30005KT 9999 FEW019 BKN031 04/03
                        Q1006 NOSIG=
201611061720 METAR COR EGLL 061720Z AUTO 31006KT 9999 SCT010 BKN032 04/03
                        Q1006 TEMPO BKN012=
201611061650 METAR COR EGLL 061650Z 31006KT 9999 -RA BKN012 04/03 Q1006
                        BECMG SCT012 BKN016=
201611061620 METAR COR EGLL 061620Z AUTO 32005KT 290V360 9999 -RA BKN011///
                        //////TCU 04/03 Q1006 BECMG SCT011
                        BKN016=
201611061550 METAR COR EGLL 061550Z AUTO 34010KT 300V020 9000 -RA BKN015///
                        OVC028/// //////TCU 06/03 Q1005 RERA
                        TEMPO BKN012=
201611061520 METAR COR EGLL 061520Z AUTO 31008KT 9999 BKN025/// //////TCU
                        07/02 Q1005 TEMPO RA BKN012=
201611061450 METAR COR EGLL 061450Z AUTO 31007KT 9999 OVC027 07/01 Q1005
                        TEMPO RA BKN014=
201611061420 METAR COR EGLL 061420Z AUTO 32007KT 290V360 9999 BKN028 07/01
                        Q1005 TEMPO RA BKN014=
201611061350 METAR COR EGLL 061350Z AUTO 31008KT 280V350 9999 OVC029 07/01
                        Q1005 TEMPO SHRA=
201611061320 METAR COR EGLL 061320Z AUTO 31009KT 9999 BKN028 07/01 Q1005
                        TEMPO SHRA=
201611061250 METAR COR EGLL 061250Z AUTO 31012KT 9999 FEW028 07/01 Q1005
                        NOSIG=
201611061220 METAR COR EGLL 061220Z AUTO 32011KT 9999 FEW027 07/01 Q1005
                        NOSIG=
201611061150 METAR COR EGLL 061150Z AUTO 33010KT 300V360 9999 FEW026 07/01
                        Q1005 NOSIG=
201611061120 METAR COR EGLL 061120Z AUTO 33010KT 290V360 9999 FEW027 07/01
                        Q1006 NOSIG=
201611061050 METAR COR EGLL 061050Z AUTO 33009KT 290V350 9999 NCD 06/00
                        Q1006 NOSIG=
201611061020 METAR COR EGLL 061020Z AUTO 32011KT 290V360 9999 NCD 06/00
                        Q1006 NOSIG=
201611060950 METAR COR EGLL 060950Z AUTO 32009KT 300V360 9999 NCD 05/00
                        Q1006 NOSIG=
201611060920 METAR COR EGLL 060920Z AUTO 32008KT 290V350 9999 NCD 05/M00
                        Q1006 NOSIG=
201611060850 METAR COR EGLL 060850Z AUTO 31008KT 9999 NCD 04/M00 Q1006
                        NOSIG=
201611060820 METAR COR EGLL 060820Z AUTO 31007KT 9999 NCD 03/M01 Q1006
                        NOSIG=
201611060750 METAR COR EGLL 060750Z AUTO 31008KT 9999 NCD 02/M01 Q1006
                        NOSIG=
201611060720 METAR COR EGLL 060720Z AUTO 31006KT 9999 NCD 02/M01 Q1006
                        NOSIG=
201611060650 METAR COR EGLL 060650Z AUTO 30007KT 9999 //////CB 02/M01
                        Q1006 NOSIG=
201611060620 METAR COR EGLL 060620Z AUTO 30007KT 9999 NCD 02/M01 Q1006
                        NOSIG=
201611060550 METAR COR EGLL 060550Z AUTO 29006KT 9999 NCD 02/M01 Q1006
                        NOSIG=
201611060520 METAR COR EGLL 060520Z AUTO 29005KT 9999 NCD 02/M01 Q1006
                        NOSIG=
201611060450 METAR COR EGLL 060450Z AUTO 28006KT 9999 NCD 02/M01 Q1006
                        NOSIG=
201611060420 METAR COR EGLL 060420Z AUTO 29006KT 9999 NCD 02/M01 Q1006
                        NOSIG=
201611060350 METAR COR EGLL 060350Z AUTO 30006KT 9999 NCD 02/M01 Q1007
                        NOSIG=
201611060320 METAR COR EGLL 060320Z AUTO 29005KT 9999 NCD 02/M01 Q1007
                        NOSIG=
201611060250 METAR COR EGLL 060250Z AUTO 30006KT 9999 NCD 02/M01 Q1007
                        NOSIG=
201611060220 METAR COR EGLL 060220Z AUTO 30006KT 9999 NCD 03/M01 Q1007
                        NOSIG=
201611060150 METAR COR EGLL 060150Z AUTO 29007KT 9999 NCD 03/M01 Q1007
                        NOSIG=
201611060120 METAR COR EGLL 060120Z AUTO 29007KT 9999 NCD 03/M01 Q1007
                        NOSIG=
201611060050 METAR COR EGLL 060050Z AUTO 29007KT 9999 NCD 03/M01 Q1008
                        NOSIG=
201611060020 METAR EGLL 060020Z AUTO 29007KT 9999 NCD 03/M00 Q1008=
201611052350 METAR COR EGLL 052350Z AUTO 30006KT 9999 NCD 03/M00 Q1008
                        NOSIG=
201611052320 METAR COR EGLL 052320Z AUTO 29006KT 9999 NCD 04/M00 Q1008
                        NOSIG=
201611052250 METAR COR EGLL 052250Z AUTO 30007KT 9999 NCD 04/00 Q1008
                        NOSIG=
201611052220 METAR COR EGLL 052220Z AUTO 31007KT 9999 NCD 04/00 Q1008
                        NOSIG=
201611052150 METAR COR EGLL 052150Z AUTO 31008KT 9999 NCD 04/00 Q1008
                        NOSIG=
201611052120 METAR COR EGLL 052120Z AUTO 31008KT 9999 NCD 05/01 Q1008
                        NOSIG=
201611052050 METAR COR EGLL 052050Z AUTO 31007KT 280V340 9999 NCD 05/01
                        Q1008 NOSIG=
201611052020 METAR COR EGLL 052020Z AUTO 31006KT 280V340 9999 NCD 05/01
                        Q1008 NOSIG=
201611051950 METAR COR EGLL 051950Z AUTO 31006KT 9999 FEW035 05/01 Q1008
                        NOSIG=
201611051920 METAR COR EGLL 051920Z AUTO 31006KT 9999 NCD 05/01 Q1008
                        NOSIG=
201611051850 METAR COR EGLL 051850Z AUTO 31006KT 9999 NCD 05/01 Q1008
                        NOSIG=
201611051820 METAR COR EGLL 051820Z 32007KT 9999 FEW037 06/01 Q1007 NOSIG=
201611051750 METAR COR EGLL 051750Z AUTO 31007KT 9999 BKN032 OVC049 07/02
                        Q1007 NOSIG=
201611051720 METAR COR EGLL 051720Z AUTO 31006KT 9999 BKN035 07/02 Q1007
                        NOSIG=
201611051650 METAR COR EGLL 051650Z AUTO 32007KT 290V350 9999 BKN036 07/02
                        Q1007 NOSIG=
201611051620 METAR COR EGLL 051620Z AUTO 31006KT 290V350 9999 SCT037 07/02
                        Q1007 NOSIG=
201611051550 METAR COR EGLL 051550Z AUTO 31007KT 280V340 9999 FEW039 08/02
                        Q1006 NOSIG=
201611051520 METAR COR EGLL 051520Z AUTO 32008KT 290V360 9999 SCT032 OVC048
                        08/02 Q1006 NOSIG=
201611051450 METAR COR EGLL 051450Z AUTO 32009KT 9999 BKN032 08/02 Q1006
                        NOSIG=
201611051420 METAR COR EGLL 051420Z AUTO 32010KT 9999 BKN032 09/02 Q1006
                        NOSIG=
201611051350 METAR COR EGLL 051350Z AUTO 33011KT 9999 BKN030 09/03 Q1006
                        NOSIG=
201611051320 METAR COR EGLL 051320Z AUTO 32009KT 280V360 9999 BKN029 09/03
                        Q1006 NOSIG=
201611051250 METAR COR EGLL 051250Z AUTO 33011KT 9999 BKN026 09/04 Q1006
                        NOSIG=
201611051220 METAR COR EGLL 051220Z AUTO 33009KT 290V010 9999 BKN022 09/04
                        Q1005 NOSIG=
201611051150 METAR COR EGLL 051150Z 33009KT 300V360 9999 SCT017 08/04
                        Q1005 NOSIG=
201611051120 METAR COR EGLL 051120Z 32008KT 290V350 9999 FEW013 SCT028
                        08/05 Q1006 NOSIG=
201611051050 METAR COR EGLL 051050Z AUTO 31008KT 290V360 9999 OVC015 07/05
                        Q1006 NOSIG=
201611051020 METAR COR EGLL 051020Z AUTO 31008KT 280V340 9999 BKN012 07/05
                        Q1005 BECMG SCT015=
201611050950 METAR EGLL 050950Z AUTO 31008KT 9999 FEW015 BKN021 07/05
                        Q1005=
201611050920 METAR COR EGLL 050920Z AUTO 29006KT 9999 BKN023 OVC044 06/05
                        Q1005 NOSIG=
201611050850 METAR COR EGLL 050850Z AUTO 30007KT 9999 OVC023 05/04 Q1005
                        NOSIG=
201611050820 METAR COR EGLL 050820Z AUTO 28006KT 9999 OVC023 05/04 Q1005
                        NOSIG=
201611050750 METAR COR EGLL 050750Z 28007KT 9999 SCT025 04/04 Q1005 NOSIG=
201611050720 METAR COR EGLL 050720Z 28007KT 9999 SCT030 04/03 Q1004 NOSIG=
201611050650 METAR COR EGLL 050650Z 28006KT 9999 FEW030 03/03 Q1004 NOSIG=
201611050620 METAR COR EGLL 050620Z AUTO 27004KT 8000 OVC028 04/03 Q1004
                        NOSIG=
201611050550 METAR COR EGLL 050550Z AUTO 27006KT 9000 OVC029 03/03 Q1004
                        NOSIG=
201611050520 METAR COR EGLL 050520Z AUTO 27006KT 8000 BKN027 03/03 Q1004
                        NOSIG=
201611050450 METAR COR EGLL 050450Z 27005KT 8000 SCT025 BKN032 03/03 Q1004
                        NOSIG=
201611050420 METAR COR EGLL 050420Z 26003KT 8000 BKN031 02/02 Q1004 NOSIG=
201611050350 METAR COR EGLL 050350Z 28004KT 9000 FEW030 02/02 Q1004 NOSIG=
201611050320 METAR COR EGLL 050320Z 26004KT 9000 NSC 02/02 Q1004 NOSIG=
201611050250 METAR COR EGLL 050250Z 25002KT 8000 FEW047 02/02 Q1005 NOSIG=
201611050220 METAR COR EGLL 050220Z 21003KT 8000 NSC 02/02 Q1005 NOSIG=
201611050150 METAR COR EGLL 050150Z AUTO 20005KT 9000 NCD 03/02 Q1005
                        NOSIG=
201611050120 METAR EGLL 050120Z AUTO 24004KT 9000 NCD 02/02 Q1005=
201611050050 METAR COR EGLL 050050Z AUTO 27005KT 7000 NCD 03/03 Q1005
                        NOSIG=
201611050020 METAR COR EGLL 050020Z AUTO 27005KT 7000 NCD 04/03 Q1005
                        NOSIG=
201611042350 METAR COR EGLL 042350Z AUTO 29004KT 8000 NCD 04/04 Q1005
                        NOSIG=
201611042320 METAR COR EGLL 042320Z AUTO 29004KT 9000 NCD 04/03 Q1005
                        NOSIG=
201611042250 METAR COR EGLL 042250Z AUTO 28005KT 7000 NCD 05/04 Q1006
                        NOSIG=
201611042220 METAR COR EGLL 042220Z 31003KT 8000 NSC 04/04 Q1006 NOSIG=
201611042150 METAR COR EGLL 042150Z 31002KT 8000 NSC 05/05 Q1006 NOSIG=
201611042120 METAR COR EGLL 042120Z 32002KT 8000 NSC 05/05 Q1006 NOSIG=
201611042050 METAR COR EGLL 042050Z AUTO VRB03KT 8000 NCD 05/04 Q1006
                        NOSIG=
201611042020 METAR COR EGLL 042020Z AUTO 30004KT 9999 NCD 07/06 Q1005
                        NOSIG=
201611041950 METAR COR EGLL 041950Z AUTO 30004KT 9999 NCD 07/06 Q1005
                        NOSIG=
201611041920 METAR COR EGLL 041920Z AUTO 30004KT 9999 NCD 07/07 Q1005
                        NOSIG=
201611041850 METAR COR EGLL 041850Z AUTO 30005KT 9000 FEW047 08/07 Q1006
                        NOSIG=
201611041820 METAR COR EGLL 041820Z AUTO 30004KT 9999 BKN038 08/08 Q1006
                        NOSIG=
201611041750 METAR COR EGLL 041750Z AUTO 30005KT 9999 FEW007 BKN033 09/08
                        Q1006 NOSIG=
201611041720 METAR COR EGLL 041720Z 29004KT 9000 -RA FEW007 09/08 Q1006
                        NOSIG=
201611041650 METAR COR EGLL 041650Z AUTO 29004KT 260V330 9999 -RA SCT008///
                        BKN041/// //////TCU 09/08 Q1006 NOSIG=
201611041620 METAR COR EGLL 041620Z AUTO 20004KT 150V260 9999 -RA OVC036///
                        //////TCU 09/08 Q1006 NOSIG=
201611041550 METAR COR EGLL 041550Z 21006KT 9999 -RA FEW009 BKN035 09/08
                        Q1006 NOSIG=
201611041520 METAR COR EGLL 041520Z 23004KT 160V290 9000 -RA FEW009 SCT015
                        BKN025 09/08 Q1006 NOSIG=
201611041450 METAR EGLL 041450Z 27004KT 7000 -RA FEW009 SCT015 BKN028
                        09/08 Q1007=
201611041420 METAR COR EGLL 041420Z VRB02KT 7000 -RA FEW010 BKN033 BKN047
                        09/09 Q1007 TEMPO 4500 RA BKN010=
201611041350 METAR COR EGLL 041350Z VRB03KT 6000 -RA SCT006 BKN027 OVC046
                        10/09 Q1008 TEMPO RA SCT005 BKN008=
201611041320 METAR COR EGLL 041320Z 30003KT 9999 -RA FEW008 SCT025 BKN042
                        10/09 Q1008 TEMPO 4500 RA BKN010=
201611041250 METAR COR EGLL 041250Z AUTO 28005KT 9999 -RA SCT014/// OVC035///
                        //////TCU 10/08 Q1008 TEMPO 4500
                        RA BKN012=
201611041220 METAR COR EGLL 041220Z AUTO 23004KT 170V310 9999 -RA SCT018///
                        OVC034/// //////TCU 10/08 Q1009 TEMPO
                        BKN012=
201611041150 METAR COR EGLL 041150Z 24006KT 210V270 9999 FEW020 BKN047
                        11/08 Q1009 TEMPO -RA BKN012=
201611041120 METAR EGLL 041120Z 22004KT 180V250 9999 FEW020 11/08 Q1010=
201611041050 METAR COR EGLL 041050Z 22005KT 180V250 9999 FEW030 11/08
                        Q1010 NOSIG=
201611041020 METAR COR EGLL 041020Z AUTO 21006KT 9999 OVC048 10/07 Q1010
                        NOSIG=
201611040950 METAR COR EGLL 040950Z AUTO 22006KT 9999 NCD 10/07 Q1011
                        TEMPO -RADZ BKN012=
201611040920 METAR COR EGLL 040920Z AUTO 23007KT 190V250 9999 NCD 10/07
                        Q1011 NOSIG=
201611040850 METAR COR EGLL 040850Z AUTO 23005KT 190V260 9999 NCD 09/07
                        Q1011 NOSIG=
201611040820 METAR COR EGLL 040820Z AUTO 21006KT 9999 NCD 09/06 Q1011
                        NOSIG=
201611040750 METAR COR EGLL 040750Z AUTO 21006KT 180V240 9999 NCD 08/06
                        Q1011 NOSIG=
201611040720 METAR COR EGLL 040720Z AUTO 22004KT 190V260 9999 NCD 08/06
                        Q1012 NOSIG=
201611040650 METAR COR EGLL 040650Z AUTO 21006KT 170V260 9999 NCD 08/06
                        Q1012 NOSIG=
201611040620 METAR COR EGLL 040620Z AUTO 22005KT 180V290 9999 NCD 08/06
                        Q1012 NOSIG=
201611040550 METAR COR EGLL 040550Z AUTO 21004KT 9999 NCD 07/06 Q1012
                        NOSIG=
201611040520 METAR COR EGLL 040520Z AUTO 19004KT 9999 NCD 07/06 Q1012
                        NOSIG=
201611040450 METAR COR EGLL 040450Z AUTO 20004KT 9999 BKN036 08/06 Q1013
                        NOSIG=
201611040420 METAR COR EGLL 040420Z AUTO 21003KT 9999 OVC038 07/06 Q1013
                        NOSIG=
201611040350 METAR COR EGLL 040350Z AUTO 20004KT 9999 OVC041 07/05 Q1013
                        NOSIG=
201611040320 METAR COR EGLL 040320Z AUTO 20004KT 9999 OVC047 07/05 Q1014
                        NOSIG=
201611040250 METAR COR EGLL 040250Z AUTO 21004KT 9999 NCD 08/05 Q1014
                        NOSIG=
201611040220 METAR COR EGLL 040220Z AUTO 21004KT 9999 NCD 08/05 Q1014
                        NOSIG=
201611040150 METAR COR EGLL 040150Z AUTO 20005KT 9999 NCD 08/05 Q1015
                        NOSIG=
201611040120 METAR COR EGLL 040120Z AUTO 21005KT 9999 OVC049 08/05 Q1015
                        NOSIG=
201611040050 METAR COR EGLL 040050Z AUTO 20005KT 9999 NCD 07/05 Q1015
                        NOSIG=
201611040020 METAR COR EGLL 040020Z AUTO 20004KT 9999 FEW033 08/05 Q1016
                        NOSIG=
201611032350 METAR COR EGLL 032350Z AUTO 23004KT 9999 -RA SCT033 BKN040
                        08/05 Q1016 NOSIG=
201611032320 METAR COR EGLL 032320Z AUTO 26004KT 9999 -RA BKN034 08/05
                        Q1016 NOSIG=
201611032250 METAR COR EGLL 032250Z AUTO 19004KT 130V250 9999 NCD 08/05
                        Q1016 NOSIG=
201611032220 METAR COR EGLL 032220Z AUTO 21007KT 170V250 9999 FEW039 08/05
                        Q1017 NOSIG=
201611032150 METAR COR EGLL 032150Z AUTO 22006KT 190V260 9999 NCD 08/05
                        Q1017 NOSIG=
201611032120 METAR COR EGLL 032120Z AUTO 22009KT 9999 NCD 08/05 Q1017
                        NOSIG=
201611032050 METAR COR EGLL 032050Z AUTO 22010KT 9999 -RA FEW030 BKN035
                        08/06 Q1018 NOSIG=
201611032020 METAR COR EGLL 032020Z AUTO 23010KT 9999 -RA BKN035/// //////TCU
                        09/06 Q1018 NOSIG=
201611031950 METAR COR EGLL 031950Z AUTO 21008KT 9999 NCD 09/06 Q1018
                        NOSIG=
201611031920 METAR COR EGLL 031920Z AUTO 21009KT 180V240 9999 FEW032 09/06
                        Q1018 NOSIG=
201611031850 METAR COR EGLL 031850Z AUTO 21007KT 9999 BKN026 BKN039 10/06
                        Q1018 NOSIG=
201611031820 METAR COR EGLL 031820Z AUTO 22008KT 9999 SCT030 BKN035 09/05
                        Q1018 NOSIG=
201611031750 METAR COR EGLL 031750Z AUTO 21008KT 170V250 9999 BKN032 10/05
                        Q1018 NOSIG=
201611031720 METAR COR EGLL 031720Z AUTO 22006KT 9999 SCT032 BKN048 10/05
                        Q1018 NOSIG=
201611031650 METAR COR EGLL 031650Z AUTO 24006KT 190V260 9999 BKN033 BKN048
                        10/05 Q1019 NOSIG=
201611031620 METAR COR EGLL 031620Z AUTO 26005KT 210V290 9999 FEW036 BKN047
                        10/04 Q1019 NOSIG=
201611031550 METAR COR EGLL 031550Z AUTO 25008KT 230V290 9999 BKN035 11/04
                        Q1019 NOSIG=
201611031520 METAR COR EGLL 031520Z AUTO 25007KT 9999 OVC039 11/04 Q1019
                        NOSIG=
201611031450 METAR COR EGLL 031450Z AUTO 24008KT 9999 BKN041 11/04 Q1019
                        NOSIG=
201611031420 METAR COR EGLL 031420Z AUTO 24010KT 9999 SCT033 11/04 Q1020
                        NOSIG=
201611031350 METAR COR EGLL 031350Z AUTO 25010KT 9999 SCT034 11/04 Q1020
                        NOSIG=
201611031320 METAR COR EGLL 031320Z AUTO 24009KT 9999 SCT029 11/05 Q1021
                        NOSIG=
201611031250 METAR COR EGLL 031250Z AUTO 25009KT 9999 FEW030 12/04 Q1021
                        NOSIG=
201611031220 METAR COR EGLL 031220Z AUTO 22007KT 180V250 9999 NCD 11/04
                        Q1021 NOSIG=
201611031150 METAR COR EGLL 031150Z AUTO 23006KT 180V260 9999 NCD 10/04
                        Q1022 NOSIG=
201611031120 METAR COR EGLL 031120Z AUTO 21005KT 150V260 9999 NCD 10/04
                        Q1022 NOSIG=
201611031050 METAR COR EGLL 031050Z AUTO 21005KT 180V250 9999 NCD 08/04
                        Q1022 NOSIG=
201611031020 METAR COR EGLL 031020Z AUTO 21004KT 180V240 9999 NCD 07/04
                        Q1023 NOSIG=
201611030950 METAR COR EGLL 030950Z AUTO VRB03KT 9999 NCD 06/04 Q1023
                        NOSIG=
201611030920 METAR COR EGLL 030920Z AUTO VRB02KT 9999 NCD 04/04 Q1023
                        NOSIG=
201611030850 METAR COR EGLL 030850Z AUTO 00000KT 7000 NCD 03/03 Q1023
                        NOSIG=
201611030820 METAR COR EGLL 030820Z AUTO VRB03KT 7000 NCD 03/02 Q1023
                        NOSIG=
201611030750 METAR COR EGLL 030750Z AUTO 17004KT 8000 NCD 02/02 Q1023
                        NOSIG=
201611030720 METAR COR EGLL 030720Z AUTO 18004KT 160V220 8000 NCD 03/02
                        Q1023 NOSIG=
201611030650 METAR COR EGLL 030650Z AUTO VRB03KT 7000 NCD 02/02 Q1023
                        NOSIG=
201611030620 METAR COR EGLL 030620Z AUTO VRB02KT 9999 NCD 02/02 Q1023
                        NOSIG=
201611030550 METAR COR EGLL 030550Z AUTO 31001KT 9000 NCD 02/01 Q1023
                        NOSIG=
201611030520 METAR COR EGLL 030520Z AUTO 32002KT 9000 NCD 02/02 Q1023
                        NOSIG=
201611030450 METAR COR EGLL 030450Z 31002KT 9000 NSC 02/02 Q1024 NOSIG=
201611030420 METAR COR EGLL 030420Z 25001KT 9999 FEW002 02/02 Q1023 NOSIG=
201611030350 METAR COR EGLL 030350Z AUTO 27003KT 9999 NCD 02/01 Q1023
                        NOSIG=
201611030320 METAR COR EGLL 030320Z AUTO 30002KT 8000 NCD 02/02 Q1024
                        TEMPO 4500 BR=
201611030250 METAR COR EGLL 030250Z AUTO 27002KT 8000 NCD 02/01 Q1024
                        NOSIG=
201611030220 METAR COR EGLL 030220Z AUTO 26002KT 9999 NCD 02/01 Q1024
                        NOSIG=
201611030150 METAR COR EGLL 030150Z AUTO 33001KT 9999 NCD 02/02 Q1024
                        NOSIG=
201611030120 METAR COR EGLL 030120Z AUTO VRB02KT 9999 NCD 02/02 Q1024
                        NOSIG=
201611030050 METAR COR EGLL 030050Z AUTO 30002KT 9999 NCD 02/01 Q1024
                        NOSIG=
201611030020 METAR COR EGLL 030020Z AUTO 28003KT 9999 NCD 03/02 Q1025
                        NOSIG=
201611022350 METAR COR EGLL 022350Z AUTO 27004KT 9999 NCD 02/01 Q1025
                        NOSIG=
201611022320 METAR COR EGLL 022320Z AUTO 29004KT 9999 NCD 02/01 Q1025
                        NOSIG=
201611022250 METAR COR EGLL 022250Z AUTO VRB02KT 9999 NCD 03/02 Q1025
                        NOSIG=
201611022220 METAR COR EGLL 022220Z AUTO VRB02KT 9999 NCD 04/02 Q1025
                        NOSIG=
201611022150 METAR COR EGLL 022150Z AUTO 31003KT 9999 NCD 04/02 Q1025
                        NOSIG=
201611022120 METAR COR EGLL 022120Z AUTO 29005KT 9999 NCD 04/02 Q1025
                        NOSIG=
201611022050 METAR COR EGLL 022050Z AUTO VRB03KT 9999 NCD 05/03 Q1025
                        NOSIG=
201611022020 METAR COR EGLL 022020Z AUTO 29003KT 9999 NCD 05/02 Q1024
                        NOSIG=
201611021950 METAR COR EGLL 021950Z AUTO 31002KT 9999 NCD 06/02 Q1025
                        NOSIG=
201611021920 METAR COR EGLL 021920Z AUTO 31003KT 9999 NCD 06/02 Q1025
                        NOSIG=
201611021850 METAR COR EGLL 021850Z AUTO 31003KT 9999 NCD 07/02 Q1025
                        NOSIG=
201611021820 METAR COR EGLL 021820Z AUTO 31003KT 9999 NCD 07/02 Q1025
                        NOSIG=
201611021750 METAR COR EGLL 021750Z AUTO 30003KT 9999 NCD 08/02 Q1025
                        NOSIG=
201611021720 METAR COR EGLL 021720Z AUTO 31003KT 9999 NCD 08/02 Q1024
                        NOSIG=
201611021650 METAR COR EGLL 021650Z AUTO 31004KT 9999 NCD 08/02 Q1024
                        NOSIG=
201611021620 METAR COR EGLL 021620Z AUTO 31004KT 9999 NCD 09/02 Q1024
                        NOSIG=
201611021550 METAR COR EGLL 021550Z AUTO 31006KT 280V350 9999 NCD 10/02
                        Q1024 NOSIG=
201611021520 METAR COR EGLL 021520Z AUTO 30006KT 9999 NCD 10/02 Q1024
                        NOSIG=
201611021450 METAR COR EGLL 021450Z AUTO 32007KT 280V020 9999 NCD 10/01
                        Q1024 NOSIG=
201611021420 METAR COR EGLL 021420Z AUTO 35005KT 310V030 9999 NCD 11/01
                        Q1024 NOSIG=
201611021350 METAR COR EGLL 021350Z AUTO 33006KT 290V010 9999 NCD 11/01
                        Q1024 NOSIG=
201611021320 METAR COR EGLL 021320Z AUTO 34005KT 300V030 9999 NCD 11/02
                        Q1024 NOSIG=
201611021250 METAR COR EGLL 021250Z AUTO 34005KT 290V030 9999 NCD 10/02
                        Q1024 NOSIG=
201611021220 METAR COR EGLL 021220Z AUTO 33007KT 290V020 9999 NCD 10/02
                        Q1025 NOSIG=
201611021150 METAR COR EGLL 021150Z AUTO 33007KT 280V010 9999 NCD 10/02
                        Q1025 NOSIG=
201611021120 METAR COR EGLL 021120Z AUTO 32006KT 290V040 9999 FEW022 09/02
                        Q1025 NOSIG=
201611021050 METAR COR EGLL 021050Z AUTO 33006KT 280V010 9999 FEW017 09/03
                        Q1025 NOSIG=
201611021020 METAR COR EGLL 021020Z AUTO 32005KT 290V030 9999 FEW018 08/04
                        Q1025 NOSIG=
201611020950 METAR COR EGLL 020950Z AUTO 32005KT 9999 NCD 07/04 Q1025
                        NOSIG=
201611020920 METAR COR EGLL 020920Z AUTO 31006KT 270V340 9999 NCD 06/04
                        Q1025 NOSIG=
201611020850 METAR COR EGLL 020850Z AUTO 30006KT 8000 NCD 06/04 Q1025
                        NOSIG=
201611020820 METAR COR EGLL 020820Z AUTO 29006KT 6000 NCD 05/04 Q1025
                        NOSIG=
201611020750 METAR COR EGLL 020750Z 29004KT 5000 BR NSC 04/04 Q1025 NOSIG=
201611020720 METAR COR EGLL 020720Z 29005KT 5000 BR FEW030 04/03 Q1025
                        TEMPO 4000=
201611020650 METAR COR EGLL 020650Z 31004KT 4200 BR FEW001 03/03 Q1024
                        BECMG 6000 NSW=
201611020620 METAR COR EGLL 020620Z AUTO 29005KT 1500 BR VV/// 03/03 Q1024
                        TEMPO 1200 MIFG=
201611020550 METAR COR EGLL 020550Z AUTO 29006KT 0500 R27L/P1500 FG VV///
                        03/03 Q1024 TEMPO 1200 BR=
201611020520 METAR COR EGLL 020520Z AUTO 29007KT 3300 BR NCD 04/03 Q1024
                        NOSIG=
201611020450 METAR COR EGLL 020450Z 28005KT 5000 BR NSC 04/03 Q1024 TEMPO
                        4000=
201611020420 METAR COR EGLL 020420Z 29006KT 6000 FEW034 04/04 Q1024 NOSIG=
201611020350 METAR COR EGLL 020350Z AUTO 30004KT 5000 BR SCT031 04/04
                        Q1024 TEMPO 4500 BR=
201611020320 METAR COR EGLL 020320Z AUTO 29004KT 6000 NCD 04/03 Q1025
                        TEMPO 4500 BR=
201611020250 METAR COR EGLL 020250Z AUTO 29004KT 9999 NCD 04/04 Q1025
                        NOSIG=
201611020220 METAR COR EGLL 020220Z AUTO 28003KT 9999 FEW035 05/04 Q1025
                        NOSIG=
201611020150 METAR COR EGLL 020150Z AUTO 28004KT 9999 BKN034 05/04 Q1025
                        NOSIG=
201611020120 METAR COR EGLL 020120Z AUTO 32003KT 9999 BKN035 05/04 Q1025
                        NOSIG=
201611020050 METAR COR EGLL 020050Z AUTO 30004KT 9999 NCD 05/04 Q1025
                        NOSIG=
201611020020 METAR COR EGLL 020020Z AUTO 28003KT 9999 FEW044 06/04 Q1025
                        NOSIG=
201611012350 METAR COR EGLL 012350Z AUTO 31003KT 9999 SCT044 06/04 Q1025
                        NOSIG=
201611012320 METAR COR EGLL 012320Z AUTO 35003KT 9999 BKN046 07/04 Q1025
                        NOSIG=
201611012250 METAR COR EGLL 012250Z AUTO VRB03KT 9999 BKN047 08/05 Q1025
                        NOSIG=
201611012220 METAR COR EGLL 012220Z AUTO VRB03KT 9999 OVC045 09/05 Q1025
                        NOSIG=
201611012150 METAR COR EGLL 012150Z AUTO VRB03KT 9999 OVC036 09/05 Q1025
                        NOSIG=
201611012120 METAR COR EGLL 012120Z AUTO 01004KT 340V050 9999 OVC032 09/05
                        Q1025 NOSIG=
201611012050 METAR COR EGLL 012050Z AUTO 03005KT 360V060 9999 OVC032 10/06
                        Q1025 NOSIG=
201611012020 METAR COR EGLL 012020Z AUTO 01004KT 320V040 9999 BKN031 OVC046
                        09/06 Q1025 NOSIG=
201611011950 METAR COR EGLL 011950Z AUTO 03004KT 340V060 9999 SCT022 BKN030
                        10/06 Q1025 NOSIG=
201611011920 METAR COR EGLL 011920Z AUTO 04006KT 350V070 9999 OVC021 10/06
                        Q1025 NOSIG=
201611011850 METAR COR EGLL 011850Z AUTO 03007KT 9999 OVC016 10/07 Q1025
                        NOSIG=
201611011820 METAR COR EGLL 011820Z AUTO 03006KT 350V060 9999 OVC012 10/07
                        Q1025 BECMG BKN015=
201611011750 METAR COR EGLL 011750Z AUTO 03008KT 9999 OVC011 11/08 Q1025
                        BECMG BKN015=
201611011720 METAR COR EGLL 011720Z AUTO 04007KT 9999 BKN010 OVC032 11/09
                        Q1024 BECMG BKN015=
201611011650 METAR COR EGLL 011650Z AUTO 03006KT 350V060 9999 BKN011 OVC029
                        11/09 Q1024 BECMG SCT012=
201611011620 METAR COR EGLL 011620Z 03008KT 360V060 9999 BKN011 11/09
                        Q1024 BECMG BKN015=
201611011550 METAR COR EGLL 011550Z 03005KT 350V070 9999 BKN009 BKN018
                        11/10 Q1024 BECMG SCT010=
201611011520 METAR COR EGLL 011520Z 02005KT 340V060 9999 3600S -RADZ SCT006
                        BKN014 11/10 Q1023 BECMG BKN015=
201611011450 METAR COR EGLL 011450Z 02007KT 340V060 6000 -RA BKN007 BKN010
                        12/10 Q1023 BECMG SCT010 BKN020=
201611011420 METAR COR EGLL 011420Z 02005KT 340V070 9999 BKN009 BKN020
                        12/10 Q1023 BECMG SCT010=
201611011350 METAR COR EGLL 011350Z 03005KT 340V060 8000 SCT009 BKN020
                        12/10 Q1023 TEMPO BKN012=
201611011320 METAR COR EGLL 011320Z 02005KT 340V060 7000 SCT010 BKN013
                        12/10 Q1024 NOSIG=
201611011250 METAR COR EGLL 011250Z 04005KT 350V070 6000 SCT011 BKN022
                        12/10 Q1024 TEMPO BKN010=
201611011220 METAR COR EGLL 011220Z 03007KT 350V070 5000 HZ OVC008 12/10
                        Q1024 TEMPO BKN010=
201611011150 METAR COR EGLL 011150Z 04006KT 350V070 4700 HZ SCT007 BKN008
                        11/10 Q1024 BECMG 6000 NSW BKN010=
201611011120 METAR COR EGLL 011120Z 03006KT 340V060 4200 BR OVC005 11/10
                        Q1024 BECMG 6000 NSW=
201611011050 METAR COR EGLL 011050Z 02005KT 340V060 4200 BR SCT005 BKN007
                        10/10 Q1024 BECMG 5000=
201611011020 METAR COR EGLL 011020Z 36006KT 330V040 3100 BR FEW002 SCT003
                        BKN004 10/10 Q1024 BECMG 4000 BKN005=
201611010950 METAR COR EGLL 010950Z 35004KT 320V030 1900 BR FEW001 BKN002
                        OVC003 10/09 Q1024 BECMG 3000=
201611010920 METAR COR EGLL 010920Z 36006KT 320V030 1800 BR SCT001 OVC002
                        09/09 Q1024 TEMPO BKN003=
201611010850 METAR COR EGLL 010850Z VRB02KT 1200 R09L/1400 R09R/1200 BR
                        SCT001 OVC002 08/08 Q1024 NOSIG=
201611010820 METAR COR EGLL 010820Z VRB02KT 2400 BR BKN002 07/07 Q1024
                        TEMPO 1200=
201611010750 METAR COR EGLL 010750Z VRB03KT 1500 BR BCFG FEW003 07/06
                        Q1023 TEMPO BKN003=
201611010720 METAR COR EGLL 010720Z VRB02KT 1800 R09R/0350 BR BCFG FEW001
                        06/06 Q1023 TEMPO 0500 FG BKN001=
201611010650 METAR COR EGLL 010650Z 28002KT 1300 R09L/P1500 R09R/0600
                        BR BCFG NSC 06/06 Q1023 TEMPO 0500
                        FG BKN001=
201611010620 METAR COR EGLL 010620Z 29002KT 0400 R09L/0375 R09R/0900 FG
                        BKN001 07/07 Q1023 TEMPO 0200=
201611010550 METAR COR EGLL 010550Z 27003KT 0400 R09L/0375 R09R/0375 FG
                        BKN001 07/07 Q1023 TEMPO 0200=
201611010520 METAR COR EGLL 010520Z 30003KT 0300 R09R/0450 FG BKN001 07/07
                        Q1023 NOSIG=
201611010450 METAR COR EGLL 010450Z 26002KT 0400 R09R/0375 FG BKN001 06/06
                        Q1023 BECMG 0300=
201611010420 METAR COR EGLL 010420Z 27002KT 1200 R09R/0350 BR BCFG BKN001
                        07/06 Q1023 BECMG 0300 FG=
201611010350 METAR COR EGLL 010350Z 28001KT 2300 BR SCT001 06/06 Q1024
                        BECMG 0300 FG BKN001=
201611010320 METAR COR EGLL 010320Z 29002KT 2300 BR FEW001 06/06 Q1024
                        BECMG 0500 FG=
201611010250 METAR COR EGLL 010250Z 30001KT 1300 R09R/1400 BR FEW001 07/07
                        Q1024 BECMG 0500 FG=
201611010220 METAR COR EGLL 010220Z AUTO 29001KT 1200 R09R/0400 BR FEW001
                        08/07 Q1024 BECMG 0300 FG=
201611010150 METAR COR EGLL 010150Z AUTO 26002KT 0200 R09R/1400 FG NCD
                        07/07 Q1024 BECMG 0500 FG=
201611010120 METAR COR EGLL 010120Z AUTO 32001KT 1300 R09R/0900 BR NCD
                        08/07 Q1024 BECMG 0500 FG=
201611010050 METAR COR EGLL 010050Z VRB02KT 2100 BR BCFG NSC 08/07 Q1024
                        BECMG 0500 FG=
201611010020 METAR COR EGLL 010020Z 36001KT 2100 BR BCFG NSC 09/08 Q1024
                        BECMG 0500 FG=

</pre>

</body>
</html>
