##########################################################
# Query made at 12/31/2014 11:04:54 UTC
# Time interval: from 11/01/2014 00:00  to 12/01/2014 23:59  UTC
##########################################################

##########################################################
# EGLL, London / Heathrow Airport (United Kingdom)
# WMO index: 03772
# Latitude 51-29N. Longitude 000-27W. Altitude 24 m.
##########################################################

###################################
#  METAR/SPECI from EGLL
###################################
201412012350 METAR COR EGLL 012350Z VRB03KT 7000 BKN011 06/04 Q1014 NOSIG=
201412012320 METAR COR EGLL 012320Z VRB03KT 7000 FEW009 BKN011 06/04 Q1014
                        TEMPO BKN009=
201412012250 METAR EGLL 012250Z 36004KT 330V030 9000 BKN012 06/04 Q1014
                        NOSIG=
201412012220 METAR COR EGLL 012220Z 35004KT 310V040 6000 FEW009 BKN011
                        06/05 Q1014 TEMPO BKN009=
201412012150 METAR EGLL 012150Z 01004KT 330V050 6000 FEW008 BKN011 06/04
                        Q1014 NOSIG=
201412012120 METAR COR EGLL 012120Z 35005KT 320V040 7000 OVC010 06/04
                        Q1014 NOSIG=
201412012050 METAR EGLL 012050Z 01004KT 330V080 6000 OVC010 06/04 Q1014
                        NOSIG=
201412012020 METAR COR EGLL 012020Z VRB03KT 7000 OVC010 07/04 Q1014 NOSIG=
201412011950 METAR EGLL 011950Z 04004KT 7000 OVC010 07/04 Q1014 NOSIG=
201412011920 METAR COR EGLL 011920Z 05006KT 7000 BKN011 07/04 Q1014 NOSIG=
201412011850 METAR EGLL 011850Z 07005KT 7000 OVC010 07/04 Q1014 TEMPO
                        OVC008=
201412011820 METAR COR EGLL 011820Z 04004KT 340V060 7000 OVC010 07/04
                        Q1014 TEMPO OVC008=
201412011750 METAR COR EGLL 011750Z 06005KT 020V090 8000 OVC011 07/04
                        Q1014 TEMPO OVC009=
201412011720 METAR COR EGLL 011720Z 03006KT 340V070 8000 OVC011 07/04
                        Q1013 TEMPO BKN009=
201412011650 METAR COR EGLL 011650Z 03006KT 350V070 7000 OVC011 07/04
                        Q1013 TEMPO BKN009=
201412011620 METAR COR EGLL 011620Z 05006KT 8000 OVC012 07/04 Q1013 NOSIG=
201412011550 METAR EGLL 011550Z 05007KT 8000 OVC013 07/04 Q1013 NOSIG=
201412011520 METAR COR EGLL 011520Z 01006KT 330V030 8000 OVC014 07/04
                        Q1013 NOSIG=
201412011450 METAR EGLL 011450Z 02004KT 330V050 9000 OVC014 07/04 Q1013
                        NOSIG=
201412011420 METAR COR EGLL 011420Z 03005KT 340V060 8000 OVC015 07/04
                        Q1013 TEMPO BKN014=
201412011350 METAR EGLL 011350Z 01005KT 330V050 9000 BKN016 07/04 Q1013
                        TEMPO BKN014=
201412011320 METAR COR EGLL 011320Z 02005KT 340V060 9000 BKN016 07/04
                        Q1013 TEMPO BKN014=
201412011250 METAR EGLL 011250Z 03006KT 340V050 9000 BKN017 07/04 Q1014
                        NOSIG=
201412011220 METAR COR EGLL 011220Z 03005KT 350V070 9000 BKN017 08/04
                        Q1014 NOSIG=
201412011150 METAR COR EGLL 011150Z 05006KT 010V080 9000 BKN017 08/04
                        Q1014 NOSIG=
201412011120 METAR COR EGLL 011120Z 04007KT 360V080 9000 BKN017 07/04
                        Q1014 NOSIG=
201412011050 METAR EGLL 011050Z 03006KT 340V060 9000 BKN017 07/04 Q1014
                        TEMPO BKN014=
201412011020 METAR COR EGLL 011020Z 05009KT 9999 BKN017 08/04 Q1015 TEMPO
                        BKN014=
201412010950 METAR EGLL 010950Z 05008KT 020V080 9999 BKN017 08/04 Q1015
                        TEMPO BKN014=
201412010920 METAR COR EGLL 010920Z 04006KT 330V070 9999 BKN017 07/04
                        Q1014 TEMPO BKN014=
201412010850 METAR EGLL 010850Z 03008KT 340V060 9999 BKN017 07/04 Q1014
                        TEMPO BKN014=
201412010820 METAR COR EGLL 010820Z 04007KT 9999 BKN018 07/04 Q1014 NOSIG=
201412010750 METAR EGLL 010750Z 04006KT 360V070 9999 BKN018 07/04 Q1014
                        NOSIG=
201412010720 METAR COR EGLL 010720Z 03008KT 340V070 9999 BKN018 07/04
                        Q1014 NOSIG=
201412010650 METAR EGLL 010650Z 06008KT 9999 BKN017 08/04 Q1014 NOSIG=
201412010620 METAR COR EGLL 010620Z 04007KT 340V070 9999 BKN017 08/04
                        Q1014 NOSIG=
201412010550 METAR EGLL 010550Z 05008KT 020V080 9999 SCT017 BKN021 08/05
                        Q1013 NOSIG=
201412010520 METAR COR EGLL 010520Z 04008KT 010V080 9999 BKN018 08/05
                        Q1013 NOSIG=
201412010450 METAR EGLL 010450Z 05007KT 010V080 8000 SCT018 BKN020 08/05
                        Q1014 TEMPO BKN014=
201412010420 METAR COR EGLL 010420Z 04008KT 9000 SCT016 BKN018 08/05 Q1014
                        TEMPO BKN014=
201412010350 METAR EGLL 010350Z 04006KT 8000 BKN017 08/05 Q1014 TEMPO
                        BKN014=
201412010320 METAR COR EGLL 010320Z 03006KT 350V080 6000 BKN019 08/05
                        Q1014 TEMPO BKN014=
201412010250 METAR COR EGLL 010250Z 03007KT 7000 BKN013 08/06 Q1014 NOSIG=
201412010220 METAR COR EGLL 010220Z 03007KT 350V060 8000 SCT013 BKN018
                        08/06 Q1014 TEMPO BKN013=
201412010150 METAR COR EGLL 010150Z 04009KT 9999 BKN013 09/06 Q1014 NOSIG=
201412010120 METAR COR EGLL 010120Z 03008KT 350V070 9999 SCT013 BKN018
                        09/06 Q1014 TEMPO BKN013=
201412010050 METAR EGLL 010050Z 02007KT 350V050 9999 SCT015 BKN019 09/07
                        Q1014 TEMPO BKN014=
201412010020 METAR COR EGLL 010020Z 03008KT 8000 -RADZ SCT014 BKN019 10/07
                        Q1014 TEMPO BKN014=
201411302350 METAR COR EGLL 302350Z 01006KT 350V050 8000 -RA FEW012 SCT016
                        BKN023 10/08 Q1014 TEMPO BKN014=
201411302320 METAR COR EGLL 302320Z 01008KT 340V050 9999 BKN026 10/08
                        Q1014 NOSIG=
201411302250 METAR COR EGLL 302250Z 02007KT 350V050 9999 FEW015 BKN028
                        10/08 Q1014 TEMPO BKN014=
201411302220 METAR COR EGLL 302220Z 36008KT 330V030 9999 BKN016 11/08
                        Q1014 TEMPO BKN014=
201411302150 METAR EGLL 302150Z 36006KT 320V040 9999 BKN018 10/08 Q1014
                        NOSIG=
201411302120 METAR COR EGLL 302120Z 34006KT 310V040 9999 FEW018 BKN035
                        10/07 Q1014 NOSIG=
201411302050 METAR EGLL 302050Z 01006KT 320V040 9999 SCT018 BKN040 10/07
                        Q1014 NOSIG=
201411302020 METAR COR EGLL 302020Z 35005KT 320V030 9999 BKN018 BKN041
                        11/07 Q1014 NOSIG=
201411301950 METAR EGLL 301950Z 36007KT 9999 SCT019 BKN043 11/07 Q1014
                        NOSIG=
201411301920 METAR COR EGLL 301920Z 33005KT 9999 FEW021 BKN043 10/07 Q1014
                        NOSIG=
201411301850 METAR EGLL 301850Z 33005KT 310V010 9999 BKN037 10/07 Q1014
                        NOSIG=
201411301820 METAR COR EGLL 301820Z 34004KT 9999 BKN030 BKN036 10/08 Q1014
                        NOSIG=
201411301750 METAR EGLL 301750Z 32004KT 290V350 9999 BKN032 10/07 Q1014
                        NOSIG=
201411301720 METAR COR EGLL 301720Z 32005KT 9999 FEW028 BKN034 10/07 Q1014
                        NOSIG=
201411301650 METAR COR EGLL 301650Z 33004KT 300V020 9999 FEW021 BKN028
                        10/07 Q1014 NOSIG=
201411301620 METAR COR EGLL 301620Z 33004KT 290V360 9999 BKN021 11/07
                        Q1014 NOSIG=
201411301550 METAR COR EGLL 301550Z 33008KT 300V010 9999 BKN023 11/07
                        Q1014 NOSIG=
201411301520 METAR COR EGLL 301520Z 33007KT 9999 BKN024 11/07 Q1014 NOSIG=
201411301450 METAR EGLL 301450Z 33009KT 9999 FEW022 BKN030 12/08 Q1014
                        NOSIG=
201411301420 METAR COR EGLL 301420Z 33007KT 300V360 9999 SCT020 SCT028
                        12/08 Q1014 NOSIG=
201411301350 METAR EGLL 301350Z 35007KT 310V030 9999 FEW020 12/08 Q1013
                        NOSIG=
201411301320 METAR COR EGLL 301320Z 33007KT 290V020 9999 FEW018 12/08
                        Q1013 NOSIG=
201411301250 METAR EGLL 301250Z 31007KT 9999 FEW015 12/08 Q1014 NOSIG=
201411301220 METAR COR EGLL 301220Z 32007KT 290V360 9999 FEW014 12/08
                        Q1014 NOSIG=
201411301150 METAR EGLL 301150Z 32007KT 290V350 9999 FEW008 11/09 Q1014
                        NOSIG=
201411301120 METAR COR EGLL 301120Z 31006KT 9000 FEW008 11/09 Q1014 NOSIG=
201411301050 METAR EGLL 301050Z 31004KT 270V350 8000 FEW004 10/09 Q1014
                        TEMPO BKN012=
201411301020 METAR COR EGLL 301020Z 28004KT 4800 BR FEW003 SCT005 09/09
                        Q1015 BECMG 8000 BKN012=
201411300950 METAR EGLL 300950Z VRB03KT 2900 BR FEW002 BKN003 09/08 Q1015
                        BECMG 5000 BKN006=
201411300920 METAR COR EGLL 300920Z 30004KT 1100 R27L/1200 R27R/1400 BR
                        BCFG BKN001 08/08 Q1015 BECMG 3000
                        BKN004=
201411300850 METAR COR EGLL 300850Z 28004KT 1600 BR BCFG FEW001 BKN002
                        08/08 Q1014 BECMG 5000 BKN005=
201411300820 METAR COR EGLL 300820Z 29003KT 2600 BR SCT002 BKN004 08/07
                        Q1014 BECMG 5000 BKN006=
201411300750 METAR COR EGLL 300750Z 27003KT 2400 BR SCT002 BKN005 07/07
                        Q1014 BECMG 5000=
201411300720 METAR COR EGLL 300720Z 29003KT 2400 BR FEW002 BKN005 07/07
                        Q1014 BECMG 5000=
201411300650 METAR COR EGLL 300650Z VRB02KT 2300 BR FEW001 BKN005 07/06
                        Q1014 BECMG 5000=
201411300620 METAR COR EGLL 300620Z VRB03KT 2000 BR BCFG SCT002 BKN006
                        07/07 Q1014 BECMG 5000 BR=
201411300550 METAR COR EGLL 300550Z 19004KT 150V210 1600 BR BCFG BKN002
                        OVC006 07/06 Q1014 TEMPO 0600 FG=
201411300520 METAR COR EGLL 300520Z 18003KT 1100 R27R/P1500 BR PRFG SCT002
                        BKN003 06/06 Q1014 TEMPO 0600 FG
                        BKN002=
201411300450 METAR COR EGLL 300450Z VRB02KT 1200 R27R/P1500 BR BCFG SCT002
                        BKN004 06/06 Q1014 TEMPO 600 FG BKN002=
201411300420 METAR COR EGLL 300420Z VRB02KT 1500 R27R/1400 BR BCFG BKN002
                        BKN004 06/05 Q1014 TEMPO 0400 FG
                        VV///=
201411300350 METAR EGLL 300350Z VRB03KT 0200 R27R/0350 FG VV/// 05/05
                        Q1013 TEMPO 0400=
201411300320 METAR COR EGLL 300320Z 31003KT 0100 R27R/0250 FG VV/// 05/05
                        Q1013 TEMPO 0200=
201411300250 METAR COR EGLL 300250Z VRB03KT 0200 R27R/1300 FG BKN001 05/05
                        Q1013 NOSIG=
201411300220 METAR EGLL 300220Z AUTO 26003KT 0800 R27R/0275 FG SCT002
                        04/04 Q1013=
201411300150 METAR EGLL 300150Z AUTO 28003KT 1200 R27R/P1500 BR FEW003
                        05/05 Q1013=
201411300120 METAR EGLL 300120Z AUTO VRB02KT 2200 R27R/1400 BR NCD 06/05
                        Q1013=
201411300050 METAR EGLL 300050Z 00000KT 1900 BR NSC 06/05 Q1012 TEMPO
                        1200 PRFG=
201411300020 METAR COR EGLL 300020Z 00000KT 2500 BR NSC 06/05 Q1013 TEMPO
                        1400 MIFG=
201411292350 METAR COR EGLL 292350Z 35002KT 2500 BR NSC 06/05 Q1013 TEMPO
                        1400 MIFG=
201411292320 METAR COR EGLL 292320Z VRB02KT 2800 BR NSC 07/06 Q1013 TEMPO
                        1400 MIFG=
201411292250 METAR COR EGLL 292250Z VRB02KT 2800 BR NSC 07/07 Q1013 TEMPO
                        1400 MIFG=
201411292220 METAR COR EGLL 292220Z 11005KT 080V150 2500 BR NSC 07/06
                        Q1013 TEMPO 1400 MIFG=
201411292150 METAR EGLL 292150Z 00000KT 4500 BR NSC 08/07 Q1013 TEMPO
                        1400 MIFG=
201411292120 METAR COR EGLL 292120Z 00000KT 3200 BR NSC 08/07 Q1012 TEMPO
                        1400 MIFG=
201411292050 METAR COR EGLL 292050Z VRB02KT 3800 HZ NSC 09/07 Q1012 NOSIG=
201411292020 METAR COR EGLL 292020Z 10005KT 4000 BR NSC 08/06 Q1012 NOSIG=
201411291950 METAR EGLL 291950Z VRB02KT 4600 HZ NSC 09/08 Q1013 NOSIG=
201411291920 METAR COR EGLL 291920Z 00000KT 4500 HZ NSC 09/08 Q1013 NOSIG=
201411291850 METAR EGLL 291850Z VRB02KT 6000 NSC 09/08 Q1012 NOSIG=
201411291820 METAR COR EGLL 291820Z VRB03KT 7000 NSC 10/08 Q1012 NOSIG=
201411291750 METAR EGLL 291750Z 08005KT 8000 NSC 10/08 Q1012 NOSIG=
201411291720 METAR COR EGLL 291720Z 05004KT 8000 NSC 11/08 Q1012 NOSIG=
201411291650 METAR EGLL 291650Z 04004KT 8000 NSC 11/09 Q1011 NOSIG=
201411291620 METAR COR EGLL 291620Z 07004KT 9000 NSC 12/09 Q1011 NOSIG=
201411291550 METAR EGLL 291550Z VRB03KT CAVOK 12/09 Q1011 NOSIG=
201411291520 METAR COR EGLL 291520Z VRB03KT CAVOK 13/09 Q1010 NOSIG=
201411291450 METAR EGLL 291450Z 09005KT 8000 NSC 13/10 Q1010 NOSIG=
201411291420 METAR COR EGLL 291420Z 10006KT 8000 NSC 13/10 Q1010 NOSIG=
201411291350 METAR EGLL 291350Z 08005KT CAVOK 13/09 Q1010 NOSIG=
201411291320 METAR COR EGLL 291320Z 09007KT CAVOK 13/10 Q1010 NOSIG=
201411291250 METAR EGLL 291250Z 10005KT 9000 NSC 12/09 Q1010 NOSIG=
201411291220 METAR COR EGLL 291220Z 09005KT 9000 NSC 12/09 Q1010 NOSIG=
201411291150 METAR EGLL 291150Z 08005KT 9000 NSC 12/09 Q1010 NOSIG=
201411291120 METAR COR EGLL 291120Z 08005KT 9000 NSC 12/09 Q1010 NOSIG=
201411291050 METAR COR EGLL 291050Z 08006KT CAVOK 11/09 Q1010 NOSIG=
201411291020 METAR COR EGLL 291020Z 09005KT CAVOK 11/09 Q1010 NOSIG=
201411290950 METAR EGLL 290950Z 07004KT 8000 NSC 11/08 Q1010 NOSIG=
201411290920 METAR COR EGLL 290920Z 09006KT 7000 NSC 10/08 Q1010 NOSIG=
201411290850 METAR EGLL 290850Z 10004KT 7000 NSC 10/08 Q1010 NOSIG=
201411290820 METAR COR EGLL 290820Z 09006KT 7000 NSC 10/08 Q1010 NOSIG=
201411290750 METAR COR EGLL 290750Z 08007KT 7000 NSC 10/08 Q1009 NOSIG=
201411290720 METAR COR EGLL 290720Z 07002KT 7000 NSC 10/08 Q1009 NOSIG=
201411290650 METAR EGLL 290650Z 07002KT 8000 NSC 10/08 Q1009 NOSIG=
201411290620 METAR COR EGLL 290620Z 08005KT 9000 NSC 10/08 Q1009 NOSIG=
201411290550 METAR COR EGLL 290550Z 08007KT 9000 NSC 11/08 Q1008 NOSIG=
201411290520 METAR COR EGLL 290520Z 08008KT 9000 NSC 11/09 Q1008 NOSIG=
201411290450 METAR COR EGLL 290450Z 08007KT 9000 NSC 11/09 Q1008 NOSIG=
201411290420 METAR COR EGLL 290420Z 08005KT 9000 NSC 11/09 Q1008 NOSIG=
201411290350 METAR EGLL 290350Z 07005KT 9000 NSC 11/09 Q1008 NOSIG=
201411290320 METAR COR EGLL 290320Z 08006KT 9000 NSC 11/09 Q1007 NOSIG=
201411290250 METAR EGLL 290250Z 08006KT 9000 NSC 11/09 Q1007 NOSIG=
201411290220 METAR EGLL 290220Z AUTO 08006KT 9000 NCD 11/09 Q1007=
201411290150 METAR EGLL 290150Z AUTO 07005KT 9000 NCD 11/09 Q1007=
201411290120 METAR EGLL 290120Z AUTO 06006KT 8000 NCD 11/10 Q1007=
201411290050 METAR COR EGLL 290050Z 06006KT 8000 NSC 11/10 Q1007 NOSIG=
201411290020 METAR COR EGLL 290020Z 06004KT 8000 NSC 11/10 Q1007 NOSIG=
201411282350 METAR COR EGLL 282350Z 06005KT 6000 NSC 11/10 Q1006 TEMPO
                        4800 HZ=
201411282320 METAR COR EGLL 282320Z 09005KT 6000 NSC 11/10 Q1007 NOSIG=
201411282250 METAR EGLL 282250Z 05005KT 360V080 7000 -RA NSC 11/10 Q1006
                        NOSIG=
201411282220 METAR COR EGLL 282220Z 08006KT 060V120 7000 -RA NSC 12/10
                        Q1006 NOSIG=
201411282150 METAR COR EGLL 282150Z 07010KT 7000 -RA NSC 12/10 Q1006 NOSIG=
201411282120 METAR COR EGLL 282120Z 06007KT 8000 NSC 12/10 Q1006 NOSIG=
201411282050 METAR COR EGLL 282050Z 07007KT 8000 NSC 11/10 Q1006 NOSIG=
201411282020 METAR COR EGLL 282020Z 06006KT 9000 -RA NSC 11/09 Q1006 NOSIG=
201411281950 METAR COR EGLL 281950Z 07005KT CAVOK 11/09 Q1006 NOSIG=
201411281920 METAR COR EGLL 281920Z 06006KT 9000 NSC 11/09 Q1005 NOSIG=
201411281850 METAR EGLL 281850Z 07007KT CAVOK 11/09 Q1005 NOSIG=
201411281820 METAR COR EGLL 281820Z 06007KT CAVOK 11/09 Q1004 NOSIG=
201411281750 METAR EGLL 281750Z 06008KT CAVOK 11/09 Q1004 NOSIG=
201411281720 METAR COR EGLL 281720Z 07007KT CAVOK 11/09 Q1004 NOSIG=
201411281650 METAR EGLL 281650Z 06006KT CAVOK 11/09 Q1004 NOSIG=
201411281620 METAR EGLL 281620Z AUTO 06008KT 9999 NCD 11/09 Q1003=
201411281550 METAR EGLL 281550Z 06007KT CAVOK 11/09 Q1003 NOSIG=
201411281520 METAR COR EGLL 281520Z 07006KT 9999 FEW018 12/09 Q1003 NOSIG=
201411281450 METAR EGLL 281450Z 08009KT 9999 FEW018 12/09 Q1003 NOSIG=
201411281420 METAR COR EGLL 281420Z 07007KT 9999 FEW013 12/09 Q1002 NOSIG=
201411281350 METAR EGLL 281350Z 09010KT 9999 BKN013 12/09 Q1002 BECMG
                        SCT013=
201411281320 METAR COR EGLL 281320Z 07008KT 7000 BKN013 12/09 Q1002 BECMG
                        SCT013=
201411281250 METAR EGLL 281250Z 09009KT 6000 BKN012 11/09 Q1002 BECMG
                        SCT012=
201411281220 METAR COR EGLL 281220Z 09010KT 6000 SCT009 BKN011 11/09 Q1002
                        NOSIG=
201411281150 METAR EGLL 281150Z 08010KT 5000 HZ SCT008 BKN010 11/09 Q1002
                        BECMG NSW=
201411281120 METAR COR EGLL 281120Z 09011KT 5000 HZ SCT008 BKN010 11/10
                        Q1002 BECMG NSW=
201411281050 METAR EGLL 281050Z 09012KT 4900 HZ SCT008 BKN010 11/10 Q1002
                        BECMG 6000 NSW=
201411281020 METAR COR EGLL 281020Z 09010KT 4500 HZ SCT006 BKN008 11/10
                        Q1002 BECMG 6000 NSW SCT008 BKN010=
201411280950 METAR EGLL 280950Z 09012KT 3700 HZ SCT006 BKN008 11/10 Q1002
                        BECMG 5000 BKN010=
201411280920 METAR COR EGLL 280920Z 09007KT 6000 BKN009 11/09 Q1002 BECMG
                        BKN010=
201411280850 METAR COR EGLL 280850Z 10011KT 7000 BKN011 11/09 Q1002 TEMPO
                        SCT011 BKN015=
201411280820 METAR COR EGLL 280820Z 10012KT 7000 BKN012 11/09 Q1002 TEMPO
                        BKN016=
201411280750 METAR COR EGLL 280750Z 09009KT 8000 FEW012 BKN014 11/09 Q1002
                        TEMPO BKN016=
201411280720 METAR COR EGLL 280720Z 09008KT 9000 FEW014 BKN018 11/09 Q1002
                        TEMPO BKN014=
201411280650 METAR EGLL 280650Z 08007KT 9000 BKN018 11/09 Q1002 NOSIG=
201411280620 METAR COR EGLL 280620Z 08006KT 7000 BKN019 11/09 Q1002 NOSIG=
201411280550 METAR EGLL 280550Z 08007KT 7000 BKN019 10/09 Q1002 TEMPO
                        BKN014=
201411280520 METAR COR EGLL 280520Z 09007KT 7000 FEW008 BKN019 10/09 Q1002
                        TEMPO BKN012=
201411280450 METAR EGLL 280450Z 08006KT 7000 SCT011 BKN019 10/09 Q1002
                        TEMPO BKN012=
201411280420 METAR COR EGLL 280420Z 09008KT 7000 BKN011 10/09 Q1002 TEMPO
                        SCT011=
201411280350 METAR EGLL 280350Z 08008KT 7000 BKN014 10/09 Q1002 TEMPO
                        SCT014=
201411280320 METAR COR EGLL 280320Z 08009KT 5000 HZ FEW014 BKN018 10/09
                        Q1002 TEMPO BKN014=
201411280250 METAR EGLL 280250Z 07005KT 040V100 5000 HZ FEW010 BKN015
                        10/09 Q1002 TEMPO BKN012=
201411280220 METAR EGLL 280220Z AUTO 06004KT 5000 BKN013 10/09 Q1002=
201411280150 METAR EGLL 280150Z AUTO 08005KT 5000 BKN016 10/09 Q1001=
201411280120 METAR EGLL 280120Z AUTO 07005KT 5000 BKN015 10/09 Q1002=
201411280050 METAR COR EGLL 280050Z 09006KT 6000 FEW018 10/09 Q1001 TEMPO
                        BKN012=
201411280020 METAR COR EGLL 280020Z 08006KT 6000 FEW012 10/09 Q1001 TEMPO
                        BKN010=
201411272350 METAR COR EGLL 272350Z 09007KT 6000 BKN012 10/09 Q1002 TEMPO
                        SCT012=
201411272320 METAR COR EGLL 272320Z 10006KT 6000 FEW011 09/08 Q1002 TEMPO
                        BKN010=
201411272250 METAR EGLL 272250Z 10007KT 6000 NSC 09/09 Q1001 TEMPO BKN012=
201411272220 METAR COR EGLL 272220Z 10007KT 7000 NSC 09/08 Q1001 TEMPO
                        BKN012=
201411272150 METAR EGLL 272150Z 09007KT 7000 FEW017 09/08 Q1002 NOSIG=
201411272120 METAR COR EGLL 272120Z 10005KT 7000 FEW017 10/08 Q1002 TEMPO
                        BKN012=
201411272050 METAR EGLL 272050Z 09006KT 8000 NSC 09/08 Q1002 TEMPO BKN012=
201411272020 METAR COR EGLL 272020Z 10005KT 9000 FEW044 10/09 Q1002 NOSIG=
201411271950 METAR COR EGLL 271950Z 10006KT 9000 SCT044 11/09 Q1002 TEMPO
                        BKN014=
201411271920 METAR COR EGLL 271920Z 10005KT 9000 SCT030 SCT036 10/09 Q1002
                        TEMPO BKN014=
201411271850 METAR EGLL 271850Z 09006KT 9000 NSC 10/08 Q1002 TEMPO BKN014=
201411271820 METAR COR EGLL 271820Z 09006KT 9999 FEW011 10/09 Q1001 TEMPO
                        BKN014=
201411271750 METAR COR EGLL 271750Z 09006KT 9999 SCT011 10/08 Q1002 TEMPO
                        BKN012=
201411271720 METAR COR EGLL 271720Z 08005KT 9999 SCT012 SCT020 11/08 Q1002
                        TEMPO BKN014=
201411271650 METAR COR EGLL 271650Z 08003KT 9999 SCT014 SCT019 10/08 Q1002
                        TEMPO BKN014=
201411271620 METAR COR EGLL 271620Z 06004KT 9999 SCT015 SCT023 10/08 Q1002
                        NOSIG=
201411271550 METAR COR EGLL 271550Z 07003KT 9999 BKN018 10/07 Q1002 NOSIG=
201411271520 METAR COR EGLL 271520Z 08003KT 9999 FEW015 BKN023 10/08 Q1002
                        NOSIG=
201411271450 METAR COR EGLL 271450Z 09003KT 9999 SCT015 SCT026 10/08 Q1002
                        NOSIG=
201411271420 METAR COR EGLL 271420Z 10003KT 9999 FEW012 SCT030 10/08 Q1002
                        NOSIG=
201411271350 METAR COR EGLL 271350Z 10002KT 9999 FEW032 10/08 Q1002 NOSIG=
201411271320 METAR COR EGLL 271320Z VRB02KT 9999 FEW012 BKN035 10/07 Q1002
                        NOSIG=
201411271250 METAR EGLL 271250Z VRB02KT 9999 FEW012 BKN038 10/07 Q1002
                        NOSIG=
201411271220 METAR COR EGLL 271220Z VRB04KT 9999 FEW013 SCT039 11/07 Q1003
                        NOSIG=
201411271150 METAR EGLL 271150Z VRB05KT 9999 FEW010 10/08 Q1003 NOSIG=
201411271120 METAR COR EGLL 271120Z 21006KT 160V250 9999 FEW008 10/08
                        Q1003 NOSIG=
201411271050 METAR COR EGLL 271050Z VRB05KT 9999 FEW007 10/08 Q1003 NOSIG=
201411271020 METAR COR EGLL 271020Z 21006KT 140V250 9999 FEW007 SCT008
                        09/07 Q1003 TEMPO BKN012=
201411270950 METAR EGLL 270950Z 20006KT 180V250 9999 FEW007 SCT010 09/08
                        Q1003 TEMPO BKN012=
201411270920 METAR COR EGLL 270920Z 24009KT 9999 FEW004 SCT005 09/08 Q1004
                        NOSIG=
201411270850 METAR COR EGLL 270850Z 20007KT 170V250 6000 FEW003 SCT004
                        BKN006 09/08 Q1004 TEMPO 4000 BR
                        BKN004=
201411270820 METAR COR EGLL 270820Z 22006KT 190V260 6000 FEW002 SCT003
                        BKN005 09/08 Q1003 TEMPO 3000 BR
                        BKN004=
201411270750 METAR EGLL 270750Z 26005KT 4000 BR FEW002 SCT003 BKN004 09/08
                        Q1003 TEMPO 6000 NSW=
201411270720 METAR COR EGLL 270720Z 25006KT 4000 BR FEW001 SCT002 BKN003
                        09/08 Q1003 TEMPO 6000 NSW=
201411270650 METAR COR EGLL 270650Z 27005KT 3700 BR SCT002 BKN003 08/08
                        Q1003 NOSIG=
201411270620 METAR COR EGLL 270620Z 27006KT 4000 BR FEW001 BKN002 09/08
                        Q1003 NOSIG=
201411270550 METAR EGLL 270550Z 25005KT 4000 BR FEW001 BKN002 09/08 Q1003
                        NOSIG=
201411270520 METAR COR EGLL 270520Z 26003KT 4000 BR FEW001 BKN002 BKN005
                        09/08 Q1003 NOSIG=
201411270450 METAR EGLL 270450Z 28003KT 2900 BR FEW001 BKN002 09/09 Q1004
                        NOSIG=
201411270420 METAR COR EGLL 270420Z 27005KT 2600 -RA BR FEW001 BKN002
                        09/09 Q1004 NOSIG=
201411270350 METAR EGLL 270350Z VRB02KT 2900 -RA BR FEW001 BKN002 09/09
                        Q1004 NOSIG=
201411270320 METAR COR EGLL 270320Z 05002KT 3300 -RA BR SCT002 BKN003
                        09/09 Q1004 NOSIG=
201411270250 METAR COR EGLL 270250Z VRB02KT 3800 -RA FEW001 SCT002 BKN004
                        09/09 Q1005 RERA NOSIG=
201411270220 METAR EGLL 270220Z AUTO 33002KT 3300 -RA OVC001/// //////TCU
                        09/09 Q1005 RERA=
201411270150 METAR EGLL 270150Z AUTO 00000KT 1800 +RA BKN002 09/09 Q1005
                        REDZ=
201411270120 METAR EGLL 270120Z AUTO VRB02KT 2300 +DZ OVC002 09/09 Q1005
                        RERA=
201411270050 METAR EGLL 270050Z 04003KT 2200 -RADZ BR FEW001 SCT003 BKN005
                        09/09 Q1006 TEMPO BKN003=
201411270020 METAR COR EGLL 270020Z 01002KT 2000 -RADZ BR FEW002 BKN003
                        09/09 Q1006 NOSIG=
201411262350 METAR EGLL 262350Z VRB02KT 2100 -RADZ BR FEW002 BKN003 09/09
                        Q1007 TEMPO 1400 DZ=
201411262320 METAR COR EGLL 262320Z VRB03KT 3000 BR FEW002 BKN003 09/09
                        Q1007 TEMPO 1200 DZ=
201411262250 METAR COR EGLL 262250Z 04003KT 3000 -RA BR FEW001 BKN002
                        09/09 Q1007 NOSIG=
201411262220 METAR COR EGLL 262220Z 01003KT 2000 -RADZ FEW001 BKN002 09/09
                        Q1007 NOSIG=
201411262150 METAR COR EGLL 262150Z VRB02KT 2000 -RADZ BKN002 10/09 Q1008
                        TEMPO 1400=
201411262120 METAR COR EGLL 262120Z 04003KT 2000 -RA BKN002 10/09 Q1008
                        TEMPO 1400 RA=
201411262050 METAR COR EGLL 262050Z 04003KT 1900 -RA BKN002 10/09 Q1008
                        TEMPO 1400=
201411262020 METAR COR EGLL 262020Z VRB02KT 1400 -RA BKN002 OVC003 10/09
                        Q1008 TEMPO 1800=
201411261950 METAR EGLL 261950Z 06002KT 1600 BR BKN002 OVC003 09/09 Q1008
                        TEMPO 1400=
201411261920 METAR COR EGLL 261920Z 04003KT 1900 BR FEW002 BKN003 09/09
                        Q1009 TEMPO 1400=
201411261850 METAR EGLL 261850Z 00000KT 2000 BR FEW002 BKN003 09/09 Q1009
                        TEMPO 1400=
201411261820 METAR COR EGLL 261820Z VRB02KT 1900 BR FEW002 BKN003 09/09
                        Q1009 TEMPO 1400=
201411261750 METAR COR EGLL 261750Z VRB02KT 1700 BR FEW003 SCT004 BKN005
                        09/09 Q1009 TEMPO 1400=
201411261720 METAR COR EGLL 261720Z 00000KT 2800 BR SCT003 BKN004 09/09
                        Q1009 TEMPO 1400=
201411261650 METAR COR EGLL 261650Z VRB02KT 3500 HZ SCT003 BKN004 10/09
                        Q1009 TEMPO 1400=
201411261620 METAR COR EGLL 261620Z VRB03KT 2600 BR FEW002 BKN003 BKN004
                        10/09 Q1009 TEMPO 1400=
201411261550 METAR COR EGLL 261550Z 35003KT 2400 BR FEW002 BKN003 BKN004
                        10/09 Q1009 TEMPO 1400=
201411261520 METAR COR EGLL 261520Z 35002KT 2200 BR FEW002 BKN003 10/09
                        Q1009 TEMPO 1400=
201411261450 METAR COR EGLL 261450Z 02002KT 2000 BR FEW002 BKN003 09/09
                        Q1010 TEMPO 1400=
201411261420 METAR COR EGLL 261420Z VRB02KT 1900 BR FEW002 SCT003 BKN004
                        09/09 Q1010 TEMPO 1400=
201411261350 METAR COR EGLL 261350Z 00000KT 1600 BR FEW001 SCT002 BKN003
                        09/09 Q1010 TEMPO 1400 DZ=
201411261320 METAR COR EGLL 261320Z 02002KT 2000 BR FEW001 SCT002 BKN003
                        09/09 Q1010 NOSIG=
201411261250 METAR EGLL 261250Z VRB02KT 2000 BR FEW002 SCT003 BKN004 09/09
                        Q1011 NOSIG=
201411261220 METAR COR EGLL 261220Z VRB02KT 2200 BR SCT003 BKN004 09/09
                        Q1011 NOSIG=
201411261150 METAR EGLL 261150Z VRB02KT 2000 BR SCT003 BKN004 09/08 Q1011
                        TEMPO NOSIG=
201411261120 METAR COR EGLL 261120Z 00000KT 2000 BR FEW002 SCT003 BKN004
                        09/08 Q1011 NOSIG=
201411261050 METAR COR EGLL 261050Z VRB02KT 1400 R09L/P1500 R09R/P1500
                        -DZ BR FEW002 SCT003 BKN004 09/08
                        Q1011 BECMG 1800=
201411261020 METAR COR EGLL 261020Z VRB02KT 1500 -DZ BR FEW002 SCT003
                        BKN004 09/08 Q1012 TEMPO SCT004 BKN005=
201411260950 METAR EGLL 260950Z 07003KT 1500 BR FEW002 SCT003 BKN008 09/08
                        Q1012 TEMPO BKN004=
201411260920 METAR COR EGLL 260920Z 07003KT 1500 BR FEW002 SCT004 BKN008
                        08/08 Q1012 TEMPO DZ BKN004=
201411260850 METAR EGLL 260850Z 06004KT 3000 BR FEW002 SCT003 BKN010 08/08
                        Q1012 TEMPO DZ SCT002 BKN004=
201411260820 METAR COR EGLL 260820Z 04004KT 2500 BR SCT004 BKN010 08/08
                        Q1012 TEMPO DZ SCT002 BKN004=
201411260750 METAR EGLL 260750Z VRB03KT 2100 BR FEW004 SCT006 BKN012 08/07
                        Q1012 TEMPO BKN004=
201411260720 METAR COR EGLL 260720Z 06004KT 3600 BR FEW006 BKN012 08/07
                        Q1012 TEMPO BKN004=
201411260650 METAR EGLL 260650Z 04004KT 3900 BR FEW004 BKN011 08/07 Q1012
                        TEMPO BKN004=
201411260620 METAR COR EGLL 260620Z VRB03KT 4500 BR FEW004 BKN011 08/07
                        Q1012 TEMPO BKN004=
201411260550 METAR EGLL 260550Z 04003KT 5000 BR FEW004 BKN013 08/07 Q1012
                        TEMPO 4000 BR BKN004=
201411260520 METAR COR EGLL 260520Z 04003KT 5000 BR FEW003 BKN013 08/07
                        Q1012 TEMPO 4000 BR BKN004=
201411260450 METAR COR EGLL 260450Z VRB03KT 4800 -RA BR SCT004 BKN010
                        08/07 Q1013 TEMPO BKN004=
201411260420 METAR COR EGLL 260420Z 04003KT 4500 BR FEW003 SCT004 BKN010
                        08/07 Q1013 TEMPO BKN004=
201411260350 METAR EGLL 260350Z 06003KT 4000 BR FEW002 SCT004 BKN010 08/07
                        Q1013 TEMPO BKN004=
201411260320 METAR COR EGLL 260320Z 04003KT 4000 BR SCT004 BKN010 08/07
                        Q1013 RERA TEMPO RA=
201411260250 METAR COR EGLL 260250Z VRB02KT 4000 RA SCT004 BKN008 08/07
                        Q1014 NOSIG=
201411260220 METAR EGLL 260220Z AUTO 04003KT 3100 -RA FEW005/// BKN011///
                        BKN015/// //////TCU 08/07 Q1014 RERA=
201411260150 METAR EGLL 260150Z AUTO VRB02KT 3800 -RA FEW006/// BKN012///
                        //////CB 08/07 Q1014 REDZ=
201411260120 METAR EGLL 260120Z AUTO VRB02KT 4100 DZ OVC006/// //////TCU
                        08/07 Q1014 RERA=
201411260050 METAR COR EGLL 260050Z 04003KT 6000 -RA FEW005 BKN013 08/07
                        Q1014 RERA TEMPO 4000 RA BKN004=
201411260020 METAR COR EGLL 260020Z 04003KT 4800 RA FEW008 BKN013 08/07
                        Q1015 TEMPO BKN008=
201411252350 METAR COR EGLL 252350Z VRB02KT 5000 RA BKN010 08/07 Q1015
                        TEMPO 4000 BKN008=
201411252320 METAR COR EGLL 252320Z 06005KT 6000 -RA FEW011 SCT021 BKN028
                        08/07 Q1016 TEMPO 4000 RA BKN008=
201411252250 METAR EGLL 252250Z 08005KT 7000 -RA SCT009 BKN031 08/07 Q1016
                        TEMPO 4000 RA BKN008=
201411252220 METAR COR EGLL 252220Z 07005KT 7000 -RA BKN010 BKN031 08/07
                        Q1016 TEMPO 4000 RA BKN008=
201411252150 METAR COR EGLL 252150Z 06006KT 020V080 7000 -RA BKN010 SCT030
                        08/07 Q1016 TEMPO 4000 RA BKN008=
201411252120 METAR COR EGLL 252120Z 06006KT 8000 -RA BKN013 08/07 Q1016
                        TEMPO RA=
201411252050 METAR EGLL 252050Z 06006KT 8000 -RA FEW013 SCT033 BKN041
                        08/07 Q1017 TEMPO RA BKN012=
201411252020 METAR COR EGLL 252020Z 06006KT 8000 -RA FEW015 BKN040 08/07
                        Q1017 TEMPO RA BKN014=
201411251950 METAR COR EGLL 251950Z 05006KT 9999 -RA FEW030 BKN044 08/06
                        Q1017 TEMPO RA=
201411251920 METAR COR EGLL 251920Z 05005KT 9999 -RA SCT035 SCT048 08/06
                        Q1017 TEMPO RA=
201411251850 METAR COR EGLL 251850Z 05005KT 9999 -RA FEW035 08/07 Q1018
                        NOSIG=
201411251820 METAR COR EGLL 251820Z 05006KT 9999 -RA FEW040 08/07 Q1018
                        NOSIG=
201411251750 METAR COR EGLL 251750Z 05006KT 9999 -RA SCT048 08/07 Q1018
                        NOSIG=
201411251720 METAR COR EGLL 251720Z 06007KT 9999 -RA FEW045 08/07 Q1018
                        NOSIG=
201411251650 METAR EGLL 251650Z 06008KT 9999 -RA FEW048 08/07 Q1018 NOSIG=
201411251620 METAR COR EGLL 251620Z 07007KT 9000 -RA FEW024 08/07 Q1018
                        NOSIG=
201411251550 METAR EGLL 251550Z 06008KT 9000 -RA FEW020 09/07 Q1019 NOSIG=
201411251520 METAR COR EGLL 251520Z 07008KT 9999 -RA FEW020 09/06 Q1019
                        NOSIG=
201411251450 METAR EGLL 251450Z 07007KT 9999 -RA FEW020 09/06 Q1019 NOSIG=
201411251420 METAR COR EGLL 251420Z 06008KT 9999 FEW020 09/06 Q1020 NOSIG=
201411251350 METAR COR EGLL 251350Z 05006KT 9999 FEW020 09/06 Q1020 NOSIG=
201411251320 METAR COR EGLL 251320Z 05006KT 360V080 CAVOK 09/06 Q1021
                        NOSIG=
201411251250 METAR COR EGLL 251250Z 06006KT CAVOK 08/05 Q1021 NOSIG=
201411251220 METAR COR EGLL 251220Z 06006KT CAVOK 08/05 Q1022 NOSIG=
201411251150 METAR EGLL 251150Z 06005KT 020V080 CAVOK 07/05 Q1022 NOSIG=
201411251120 METAR COR EGLL 251120Z 05005KT CAVOK 07/04 Q1023 NOSIG=
201411251050 METAR EGLL 251050Z 06005KT CAVOK 07/04 Q1023 NOSIG=
201411251020 METAR COR EGLL 251020Z 06004KT CAVOK 06/04 Q1023 NOSIG=
201411250950 METAR EGLL 250950Z 05004KT CAVOK 06/04 Q1023 NOSIG=
201411250920 METAR COR EGLL 250920Z 05004KT 010V070 9999 FEW018 05/04
                        Q1024 NOSIG=
201411250850 METAR EGLL 250850Z 06004KT 9999 -RA FEW018 05/03 Q1024 NOSIG=
201411250820 METAR COR EGLL 250820Z 04004KT 9999 -RA FEW018 04/03 Q1024
                        NOSIG=
201411250750 METAR EGLL 250750Z VRB02KT 9000 SCT023 04/03 Q1024 NOSIG=
201411250720 METAR COR EGLL 250720Z 35003KT 9000 FEW021 SCT028 04/03 Q1024
                        NOSIG=
201411250650 METAR COR EGLL 250650Z VRB02KT 8000 SCT017 03/03 Q1024 TEMPO
                        4000 BR=
201411250620 METAR COR EGLL 250620Z 00000KT 8000 SCT020 03/02 Q1024 TEMPO
                        4000 BR=
201411250550 METAR EGLL 250550Z 12003KT 8000 FEW021 03/02 Q1024 TEMPO
                        4000 BR=
201411250520 METAR COR EGLL 250520Z 09003KT 8000 2500SE VCFG SCT022 02/02
                        Q1025 TEMPO 4000 BR=
201411250450 METAR EGLL 250450Z 00000KT 8000 1500S VCFG FEW017 02/01 Q1025
                        TEMPO 0500 FG BKN001=
201411250420 METAR COR EGLL 250420Z 00000KT 8000 1300S VCFG BKN016 01/01
                        Q1025 TEMPO 0500 FG BKN001=
201411250350 METAR EGLL 250350Z 10002KT 8000 1500S VCFG NSC 01/00 Q1025
                        TEMPO 0500 FG=
201411250320 METAR COR EGLL 250320Z VRB02KT 7000 NSC 02/01 Q1025 TEMPO
                        4000 BR=
201411250250 METAR COR EGLL 250250Z VRB02KT 6000 NSC 01/01 Q1025 TEMPO
                        4000 BR=
201411250220 METAR EGLL 250220Z AUTO VRB02KT 4200 BR NCD 01/01 Q1026=
201411250150 METAR EGLL 250150Z AUTO VRB02KT 5000 NCD 01/01 Q1026=
201411250120 METAR EGLL 250120Z AUTO 36002KT 6000 NCD 02/01 Q1026=
201411250050 METAR EGLL 250050Z 36005KT 6000 NSC 02/01 Q1026 TEMPO 4000
                        BR=
201411250020 METAR EGLL 250020Z 35003KT 6000 NSC 01/01 Q1027=
201411242350 METAR EGLL 242350Z 36002KT 8000 NSC 02/01 Q1027=
201411242320 METAR COR EGLL 242320Z 00000KT 9000 NSC 01/01 Q1027 TEMPO
                        4000 BR=
201411242250 METAR EGLL 242250Z 36003KT CAVOK 02/01 Q1027 TEMPO 4000 BR=
201411242220 METAR COR EGLL 242220Z 36002KT CAVOK 02/02 Q1027 TEMPO 4000
                        BR=
201411242150 METAR EGLL 242150Z 00000KT CAVOK 02/01 Q1027 TEMPO 4000 BR=
201411242120 METAR COR EGLL 242120Z 01002KT CAVOK 02/01 Q1027 BECMG 4000
                        BR=
201411242050 METAR COR EGLL 242050Z VRB03KT CAVOK 03/02 Q1027 BECMG 4000
                        BR=
201411242020 METAR COR EGLL 242020Z VRB02KT CAVOK 03/02 Q1028 BECMG 4000
                        BR=
201411241950 METAR EGLL 241950Z 00000KT CAVOK 03/02 Q1028 NOSIG=
201411241920 METAR COR EGLL 241920Z 00000KT CAVOK 04/02 Q1028 NOSIG=
201411241850 METAR EGLL 241850Z 00000KT CAVOK 04/03 Q1028 NOSIG=
201411241820 METAR COR EGLL 241820Z VRB02KT CAVOK 05/04 Q1027 NOSIG=
201411241750 METAR EGLL 241750Z 35002KT CAVOK 05/04 Q1027 NOSIG=
201411241720 METAR COR EGLL 241720Z 36002KT CAVOK 06/04 Q1027 NOSIG=
201411241650 METAR COR EGLL 241650Z 00000KT CAVOK 06/04 Q1027 NOSIG=
201411241620 METAR COR EGLL 241620Z 00000KT CAVOK 07/04 Q1027 NOSIG=
201411241550 METAR EGLL 241550Z VRB02KT CAVOK 07/04 Q1027 NOSIG=
201411241520 METAR COR EGLL 241520Z 00000KT CAVOK 08/04 Q1027 NOSIG=
201411241450 METAR COR EGLL 241450Z 35003KT CAVOK 08/04 Q1027 NOSIG=
201411241420 METAR COR EGLL 241420Z VRB02KT CAVOK 08/05 Q1027 NOSIG=
201411241350 METAR EGLL 241350Z 35004KT 310V030 CAVOK 08/04 Q1027 NOSIG=
201411241320 METAR COR EGLL 241320Z VRB02KT CAVOK 07/04 Q1027 NOSIG=
201411241250 METAR EGLL 241250Z 24005KT 210V300 CAVOK 07/04 Q1028 NOSIG=
201411241220 METAR COR EGLL 241220Z 23006KT 190V260 CAVOK 06/03 Q1028
                        NOSIG=
201411241150 METAR COR EGLL 241150Z VRB02KT CAVOK 06/04 Q1028 NOSIG=
201411241120 METAR COR EGLL 241120Z 31002KT CAVOK 05/03 Q1028 NOSIG=
201411241050 METAR EGLL 241050Z VRB02KT CAVOK 04/03 Q1028 NOSIG=
201411241020 METAR COR EGLL 241020Z 00000KT CAVOK 04/03 Q1028 NOSIG=
201411240950 METAR COR EGLL 240950Z 00000KT CAVOK 03/02 Q1028 NOSIG=
201411240920 METAR COR EGLL 240920Z VRB02KT CAVOK 02/02 Q1027 NOSIG=
201411240850 METAR EGLL 240850Z 33004KT CAVOK 02/02 Q1027 NOSIG=
201411240820 METAR COR EGLL 240820Z VRB03KT 9000 NSC 02/01 Q1027 NOSIG=
201411240750 METAR EGLL 240750Z VRB02KT 7000 VCFG NSC 02/01 Q1026 TEMPO
                        3500=
201411240720 METAR COR EGLL 240720Z 23004KT 6000 2500SE VCFG NSC 02/01
                        Q1026 TEMPO 3000=
201411240650 METAR EGLL 240650Z VRB03KT 9000 VCFG NSC 02/01 Q1025 TEMPO
                        4000 BR=
201411240620 METAR COR EGLL 240620Z VRB02KT CAVOK 02/01 Q1025 NOSIG=
201411240550 METAR EGLL 240550Z 29003KT CAVOK 02/01 Q1025 NOSIG=
201411240520 METAR COR EGLL 240520Z VRB03KT CAVOK 01/01 Q1025 NOSIG=
201411240450 METAR COR EGLL 240450Z VRB02KT CAVOK 02/01 Q1025 NOSIG=
201411240420 METAR COR EGLL 240420Z 29004KT CAVOK 02/01 Q1024 NOSIG=
201411240350 METAR COR EGLL 240350Z 00000KT CAVOK 03/02 Q1024 NOSIG=
201411240320 METAR COR EGLL 240320Z 30002KT CAVOK 02/02 Q1024 NOSIG=
201411240250 METAR EGLL 240250Z 30002KT CAVOK 03/02 Q1024 NOSIG=
201411240220 METAR EGLL 240220Z AUTO 30003KT 9999 NCD 03/02 Q1024=
201411240150 METAR EGLL 240150Z AUTO VRB02KT 9999 NCD 03/02 Q1024=
201411240120 METAR EGLL 240120Z AUTO 28003KT 9999 NCD 03/02 Q1023=
201411240050 METAR COR EGLL 240050Z 29004KT CAVOK 03/03 Q1023 NOSIG=
201411240020 METAR COR EGLL 240020Z 28004KT CAVOK 04/03 Q1023 NOSIG=
201411232350 METAR COR EGLL 232350Z VRB02KT CAVOK 04/02 Q1022 NOSIG=
201411232320 METAR COR EGLL 232320Z VRB03KT CAVOK 05/04 Q1022 NOSIG=
201411232250 METAR COR EGLL 232250Z VRB02KT CAVOK 05/04 Q1022 NOSIG=
201411232220 METAR COR EGLL 232220Z 31003KT CAVOK 05/04 Q1021 NOSIG=
201411232150 METAR COR EGLL 232150Z VRB03KT CAVOK 06/05 Q1021 NOSIG=
201411232120 METAR EGLL 232120Z AUTO 31005KT 9999 NCD 06/05 Q1021=
201411232050 METAR EGLL 232050Z 31004KT CAVOK 07/05 Q1020 NOSIG=
201411232020 METAR COR EGLL 232020Z 31005KT CAVOK 07/06 Q1020 NOSIG=
201411231950 METAR EGLL 231950Z 31004KT CAVOK 08/06 Q1020 NOSIG=
201411231920 METAR COR EGLL 231920Z 30004KT CAVOK 08/07 Q1019 NOSIG=
201411231850 METAR COR EGLL 231850Z 29004KT 9999 FEW020 08/07 Q1019 TEMPO
                        BKN014=
201411231820 METAR COR EGLL 231820Z 30003KT 9999 FEW023 08/07 Q1019 TEMPO
                        BKN014=
201411231750 METAR COR EGLL 231750Z 31003KT 9999 SCT015 08/07 Q1019 TEMPO
                        BKN014=
201411231720 METAR COR EGLL 231720Z 30002KT 9999 FEW018 SCT032 08/06 Q1018
                        NOSIG=
201411231650 METAR EGLL 231650Z 30003KT 9999 SCT035 08/06 Q1018 NOSIG=
201411231620 METAR EGLL 231620Z AUTO 31003KT 9999 -DZ NCD 07/06 Q1018=
201411231550 METAR EGLL 231550Z VRB03KT 9999 FEW012 SCT044 08/06 Q1017
                        NOSIG=
201411231520 METAR COR EGLL 231520Z VRB03KT 9999 -RA FEW013 BKN042 08/06
                        Q1017 NOSIG=
201411231450 METAR COR EGLL 231450Z VRB03KT 9999 -RA FEW012 SCT034 BKN042
                        08/06 Q1017 TEMPO RA BKN010=
201411231420 METAR COR EGLL 231420Z 35005KT 310V030 9999 -RA FEW012 BKN039
                        08/06 Q1017 RERA TEMPO RA BKN010=
201411231350 METAR COR EGLL 231350Z 35005KT 320V030 9999 RA FEW010 BKN045
                        08/06 Q1017 TEMPO 5000 BKN010=
201411231320 METAR COR EGLL 231320Z 35005KT 310V040 9999 -RA FEW010 SCT045
                        08/06 Q1016 TEMPO RA BKN010=
201411231250 METAR COR EGLL 231250Z 35005KT 310V030 9000 -RA FEW010 08/06
                        Q1017 TEMPO RA BKN010=
201411231220 METAR COR EGLL 231220Z 35005KT 310V030 8000 -RA SCT010 08/07
                        Q1017 TEMPO RA=
201411231150 METAR EGLL 231150Z 35007KT 310V020 7000 -RA FEW006 BKN010
                        08/07 Q1017 TEMPO RA=
201411231120 METAR COR EGLL 231120Z 36008KT 320V040 7000 -RA FEW006 SCT010
                        BKN045 08/07 Q1017 TEMPO RA BKN010=
201411231050 METAR COR EGLL 231050Z VRB03KT 7000 -RA FEW008 SCT011 BKN047
                        09/08 Q1017 RERA TEMPO 4000 RA BKN010=
201411231020 METAR COR EGLL 231020Z 01005KT 330V050 7000 RA FEW001 BKN045
                        09/08 Q1017 TEMPO 4000 BKN010=
201411230950 METAR EGLL 230950Z VRB03KT 7000 -RA FEW010 BKN040 09/08 Q1017
                        TEMPO 4000 RA BKN010=
201411230920 METAR COR EGLL 230920Z 35005KT 310V040 8000 -RA FEW010 BKN038
                        09/08 Q1017 TEMPO 4000 RA BKN010=
201411230850 METAR EGLL 230850Z 35005KT 300V020 7000 -RA FEW010 BKN038
                        09/08 Q1017 TEMPO 4000 RA BKN010=
201411230820 METAR COR EGLL 230820Z 33006KT 290V360 7000 -RA FEW010 BKN033
                        09/08 Q1016 RERA TEMPO 4000 RA BKN010=
201411230750 METAR EGLL 230750Z 34005KT 310V030 8000 -RA FEW010 BKN031
                        10/08 Q1016 TEMPO 5000 RA BKN010=
201411230720 METAR COR EGLL 230720Z 35005KT 320V020 9999 -RA FEW010 BKN030
                        10/08 Q1015 TEMPO 5000 RA BKN010=
201411230650 METAR EGLL 230650Z 35004KT 310V030 9999 -RA FEW010 BKN029
                        10/09 Q1015 TEMPO 5000 RA BKN010=
201411230620 METAR COR EGLL 230620Z 35005KT 310V030 9999 -RA FEW008 BKN026
                        10/09 Q1015 TEMPO 5000 RA=
201411230550 METAR COR EGLL 230550Z 33005KT 300V010 9000 -RA FEW008 SCT020
                        10/09 Q1015 RERA TEMPO 4000 RA BKN008=
201411230520 METAR COR EGLL 230520Z 32007KT 290V350 5000 RA SCT004 SCT008
                        BKN018 10/09 Q1015 TEMPO 4000 BKN008=
201411230450 METAR COR EGLL 230450Z 33006KT 290V010 4800 -RA SCT003 BKN010
                        11/10 Q1015 RERA TEMPO 5000=
201411230420 METAR EGLL 230420Z AUTO 31005KT 290V360 4300 RA OVC003///
                        //////CB 11/10 Q1014=
201411230350 METAR COR EGLL 230350Z VRB03KT 5000 -RA BKN004 11/10 Q1014
                        TEMPO FEW004 BKN008=
201411230320 METAR EGLL 230320Z AUTO VRB03KT 5000 -RA FEW005/// BKN027///
                        //////CB 11/10 Q1015=
201411230250 METAR COR EGLL 230250Z 36004KT 290V060 5000 -RA BKN030 11/10
                        Q1015 RERA REDZ TEMPO 3000 RA BKN008=
201411230220 METAR EGLL 230220Z AUTO 33004KT 290V010 5000 DZ BKN022 11/10
                        Q1015=
201411230150 METAR EGLL 230150Z AUTO 35005KT 310V020 9999 -RA BKN022 11/11
                        Q1015 RERA=
201411230120 METAR EGLL 230120Z AUTO 30005KT 270V360 4500 +RA BKN014///
                        //////TCU 12/11 Q1015 REDZ=
201411230050 METAR COR EGLL 230050Z 32005KT 290V360 5000 -RADZ FEW005
                        BKN013 12/11 Q1015 TEMPO 3000 RA
                        BKN005=
201411230020 METAR COR EGLL 230020Z 35005KT 290V030 6000 -RADZ SCT003
                        BKN008 13/11 Q1015 REDZ TEMPO 3000
                        RA BKN005=
201411222350 METAR EGLL 222350Z VRB02KT 1400 DZ FEW002 BKN008 13/13 Q1015
                        TEMPO 2000 -DZ=
201411222320 METAR COR EGLL 222320Z 17002KT 3000 -DZ FEW001 SCT008 14/12
                        Q1015 TEMPO BKN008=
201411222250 METAR COR EGLL 222250Z VRB02KT 6000 FEW002 SCT010 14/12 Q1015
                        TEMPO BKN010=
201411222220 METAR COR EGLL 222220Z 31003KT 5000 BR FEW002 SCT020 14/13
                        Q1015 TEMPO BKN003=
201411222150 METAR COR EGLL 222150Z 24006KT 200V270 2000 -RADZ FEW001
                        SCT003 BKN011 14/13 Q1015 TEMPO BKN003=
201411222120 METAR COR EGLL 222120Z VRB05KT 2400 BR FEW002 BKN003 14/13
                        Q1015 NOSIG=
201411222050 METAR EGLL 222050Z 21006KT 170V260 2700 BR SCT002 BKN007
                        14/13 Q1015 TEMPO BKN002=
201411222020 METAR COR EGLL 222020Z 18005KT 2400 BR FEW001 SCT002 BKN007
                        14/13 Q1015 TEMPO BKN002=
201411221950 METAR EGLL 221950Z 19006KT 160V240 3500 BR SCT004 BKN012
                        14/13 Q1014 TEMPO BKN004=
201411221920 METAR COR EGLL 221920Z 22007KT 190V250 5000 BR FEW004 SCT005
                        BKN013 14/13 Q1014 BECMG BKN005=
201411221850 METAR EGLL 221850Z 19005KT 150V230 6000 SCT009 BKN010 14/13
                        Q1014 TEMPO 4000 BR BKN008=
201411221820 METAR COR EGLL 221820Z 19007KT 130V240 6000 FEW007 BKN011
                        14/13 Q1014 TEMPO 4000 BR BKN008=
201411221750 METAR COR EGLL 221750Z 19006KT 170V230 8000 BKN013 14/13
                        Q1014 TEMPO 4000 BR BKN008=
201411221720 METAR COR EGLL 221720Z 19007KT 160V240 8000 BKN012 BKN030
                        14/13 Q1014 TEMPO 4000 BR BKN008=
201411221650 METAR EGLL 221650Z 17006KT 130V240 8000 BKN012 BKN043 14/13
                        Q1014 TEMPO 4000 BR BKN008=
201411221620 METAR COR EGLL 221620Z 18007KT 150V230 9999 BKN013 14/13
                        Q1013 TEMPO 4000 BR BKN008=
201411221550 METAR EGLL 221550Z 18007KT 150V220 9000 FEW008 BKN012 14/13
                        Q1013 TEMPO 4000 BR BKN008=
201411221520 METAR COR EGLL 221520Z 17007KT 130V250 7000 FEW006 BKN012
                        14/13 Q1013 TEMPO 4000 BR BKN008=
201411221450 METAR EGLL 221450Z 18006KT 150V230 6000 FEW005 BKN012 14/13
                        Q1013 TEMPO 4000 BR BKN006=
201411221420 METAR COR EGLL 221420Z 18005KT 130V240 2200 BR FEW002 BKN004
                        14/13 Q1013 TEMPO SCT004 BKN007=
201411221350 METAR COR EGLL 221350Z 18005KT 140V220 2500 -RADZ BR FEW003
                        SCT004 BKN005 14/13 Q1013 TEMPO RADZ
                        BKN004=
201411221320 METAR COR EGLL 221320Z VRB05KT 2800 -RADZ BR FEW004 SCT006
                        BKN008 14/13 Q1013 TEMPO RADZ BKN004=
201411221250 METAR EGLL 221250Z 18007KT 140V230 3500 -RADZ BR FEW004 SCT006
                        BKN008 14/13 Q1013 TEMPO RADZ BKN004=
201411221220 METAR COR EGLL 221220Z 17006KT 140V290 3200 -RADZ BR SCT004
                        BKN010 14/13 Q1013 TEMPO RADZ BKN008=
201411221150 METAR COR EGLL 221150Z VRB05KT 4000 -RADZ BR FEW006 BKN015
                        14/13 Q1013 TEMPO BKN014=
201411221120 METAR COR EGLL 221120Z VRB05KT 5000 -RADZ FEW010 BKN019 14/13
                        Q1013 TEMPO BKN012=
201411221050 METAR COR EGLL 221050Z 16007KT 130V200 5000 BR SCT008 BKN011
                        14/13 Q1013 TEMPO 4000 RADZ BKN007=
201411221020 METAR COR EGLL 221020Z 16007KT 5000 BR SCT009 BKN011 14/13
                        Q1013 TEMPO 4000 RADZ BKN007=
201411220950 METAR EGLL 220950Z 15006KT 4500 -RADZ BR BKN008 13/12 Q1013
                        NOSIG=
201411220920 METAR COR EGLL 220920Z 15006KT 120V220 4800 -RADZ BR BKN007
                        13/12 Q1013 TEMPO 5000=
201411220850 METAR EGLL 220850Z 16006KT 100V250 4500 -RADZ BR BKN007 13/12
                        Q1012 TEMPO 5000=
201411220820 METAR COR EGLL 220820Z 15005KT 130V220 4200 BR FEW007 13/12
                        Q1012 TEMPO 5000 BKN008=
201411220750 METAR COR EGLL 220750Z 16004KT 4200 -RADZ HZ BKN008 13/12
                        Q1012 TEMPO 5000=
201411220720 METAR COR EGLL 220720Z 16005KT 4200 BR FEW006 SCT010 13/12
                        Q1012 TEMPO BKN008=
201411220650 METAR COR EGLL 220650Z 18004KT 4500 BR NSC 12/11 Q1012 TEMPO
                        5000=
201411220620 METAR COR EGLL 220620Z 16004KT 4000 BR NSC 12/11 Q1011 TEMPO
                        RADZ BKN009=
201411220550 METAR EGLL 220550Z 12004KT 3000 -RA NSC 12/11 Q1011 NOSIG=
201411220520 METAR COR EGLL 220520Z 09004KT 3200 -RA FEW012 12/11 Q1011
                        TEMPO BKN010=
201411220450 METAR COR EGLL 220450Z VRB03KT 2200 -RA FEW012 11/11 Q1011
                        TEMPO BKN010=
201411220420 METAR COR EGLL 220420Z 10003KT 2500 -RA FEW011 11/10 Q1011
                        TEMPO BKN010=
201411220350 METAR COR EGLL 220350Z 09002KT 3200 -RA OVC011 11/10 Q1012
                        TEMPO BKN009=
201411220320 METAR COR EGLL 220320Z VRB02KT 4100 BR BKN012 11/10 Q1012
                        TEMPO BKN008=
201411220250 METAR EGLL 220250Z 13004KT 4800 BR SCT010 BKN013 11/10 Q1012
                        TEMPO BKN008=
201411220220 METAR COR EGLL 220220Z 14005KT 4600 BR BKN010 11/10 Q1012
                        TEMPO BKN008=
201411220150 METAR EGLL 220150Z 15002KT 3000 -DZ BKN008 10/09 Q1012 NOSIG=
201411220120 METAR COR EGLL 220120Z VRB03KT 3500 BR SCT009 10/10 Q1012
                        BECMG BKN009=
201411220050 METAR EGLL 220050Z 09007KT 3400 -RADZ FEW008 BKN020 10/09
                        Q1011=
201411220020 METAR COR EGLL 220020Z 09005KT 4000 HZ OVC008 10/09 Q1012
                        NOSIG=
201411212350 METAR COR EGLL 212350Z 10005KT 4000 HZ OVC007 10/09 Q1012
                        NOSIG=
201411212320 METAR COR EGLL 212320Z 14004KT 4000 HZ OVC006 10/09 Q1013
                        NOSIG=
201411212250 METAR EGLL 212250Z 15005KT 4000 BR OVC005 10/08 Q1013 NOSIG=
201411212220 METAR COR EGLL 212220Z 11007KT 4000 HZ BKN006 09/08 Q1013
                        NOSIG=
201411212150 METAR EGLL 212150Z 10007KT 4000 HZ BKN008 09/08 Q1013 TEMPO
                        SCT008 BKN010=
201411212120 METAR COR EGLL 212120Z 10005KT 4000 HZ SCT011 08/07 Q1013
                        TEMPO BKN010=
201411212050 METAR COR EGLL 212050Z 10005KT 3500 BR FEW010 08/07 Q1014
                        TEMPO BKN008=
201411212020 METAR COR EGLL 212020Z 08007KT 4000 BR SCT010 08/07 Q1014
                        BECMG BKN008=
201411211950 METAR COR EGLL 211950Z 10006KT 4000 HZ FEW008 BKN010 09/07
                        Q1014 BECMG BKN008=
201411211920 METAR COR EGLL 211920Z 08007KT 4000 -RADZ HZ FEW009 BKN010
                        08/07 Q1014 BECMG BKN008=
201411211850 METAR COR EGLL 211850Z 09008KT 4500 HZ BKN010 08/07 Q1015
                        BECMG BKN008=
201411211820 METAR COR EGLL 211820Z 12006KT 4500 HZ BKN011 08/07 Q1015
                        NOSIG=
201411211750 METAR COR EGLL 211750Z 12006KT 4000 HZ OVC011 08/07 Q1015
                        NOSIG=
201411211720 METAR COR EGLL 211720Z 12007KT 4500 HZ BKN011 08/07 Q1015
                        NOSIG=
201411211650 METAR EGLL 211650Z 11005KT 4500 -RADZ BKN011 08/07 Q1015
                        NOSIG=
201411211620 METAR COR EGLL 211620Z 10007KT 4700 -RADZ HZ SCT012 08/07
                        Q1015 TEMPO BKN012=
201411211550 METAR EGLL 211550Z 11008KT 4500 -RADZ HZ SCT014 08/07 Q1015
                        TEMPO BKN014=
201411211520 METAR COR EGLL 211520Z 10008KT 5000 HZ FEW011 08/06 Q1015
                        TEMPO 4000 BKN011=
201411211450 METAR COR EGLL 211450Z 11007KT 5000 HZ FEW011 08/06 Q1016
                        TEMPO 4000 BKN011=
201411211420 METAR COR EGLL 211420Z 11009KT 4800 -RADZ SCT011 08/06 Q1016
                        TEMPO 5000=
201411211350 METAR EGLL 211350Z 12009KT 4800 -RADZ BKN013 08/06 Q1016
                        TEMPO 5000=
201411211320 METAR COR EGLL 211320Z 11009KT 4600 -RADZ BKN012 08/06 Q1017
                        TEMPO 5000=
201411211250 METAR EGLL 211250Z 11007KT 5000 -RADZ FEW010 BKN013 08/06
                        Q1017 NOSIG=
201411211220 METAR COR EGLL 211220Z 12008KT 5000 -RA FEW010 BKN013 08/06
                        Q1018 TEMPO 4000 BKN008=
201411211150 METAR EGLL 211150Z 10007KT 5000 -RADZ HZ FEW010 BKN014 08/06
                        Q1018 TEMPO 4000 BKN008=
201411211120 METAR COR EGLL 211120Z 11007KT 5000 -RADZ HZ BKN012 08/06
                        Q1019 NOSIG=
201411211050 METAR EGLL 211050Z 12007KT 5000 HZ BKN011 08/06 Q1019 NOSIG=
201411211020 METAR COR EGLL 211020Z 11008KT 6000 -RADZ OVC011 08/06 Q1019
                        NOSIG=
201411210950 METAR COR EGLL 210950Z 11009KT 5000 -RADZ HZ BKN011 08/06
                        Q1019 NOSIG=
201411210920 METAR COR EGLL 210920Z 10010KT 5000 HZ BKN011 08/06 NOSIG=
201411210850 METAR COR EGLL 210850Z 10007KT 5000 HZ BKN012 07/06 Q1019
                        NOSIG=
201411210820 METAR COR EGLL 210820Z 11007KT 5000 HZ BKN013 07/06 Q1020
                        TEMPO BKN015=
201411210750 METAR EGLL 210750Z 10009KT 5000 HZ BKN012 07/05 Q1020 TEMPO
                        BKN015=
201411210720 METAR COR EGLL 210720Z 10005KT 4500 HZ SCT013 07/05 Q1020
                        TEMPO BKN013=
201411210650 METAR COR EGLL 210650Z 09004KT 4500 HZ FEW013 06/05 Q1020
                        TEMPO BKN013=
201411210620 METAR COR EGLL 210620Z 09004KT 3500 BR NSC 06/05 Q1020 NOSIG=
201411210550 METAR EGLL 210550Z 09005KT 2500 BR NSC 06/05 Q1020 NOSIG=
201411210520 METAR COR EGLL 210520Z 07004KT 2300 BR SCT016 05/05 Q1020
                        NOSIG=
201411210450 METAR COR EGLL 210450Z 05003KT 2300 BR SCT017 05/05 Q1021
                        NOSIG=
201411210420 METAR COR EGLL 210420Z 04004KT 2300 BR NSC 05/05 Q1021 NOSIG=
201411210350 METAR EGLL 210350Z 03003KT 2400 BR NSC 05/04 Q1021 NOSIG=
201411210320 METAR COR EGLL 210320Z 05003KT 2400 BR NSC 05/04 Q1021 NOSIG=
201411210250 METAR EGLL 210250Z 04005KT 2400 BR NSC 05/05 Q1021 NOSIG=
201411210220 METAR COR EGLL 210220Z 04005KT 2500 BR NSC 05/04 Q1022 NOSIG=
201411210150 METAR COR EGLL 210150Z 04004KT 2600 BR NSC 05/04 Q1022 NOSIG=
201411210120 METAR COR EGLL 210120Z 04004KT 2600 HZ NSC 05/05 Q1022 NOSIG=
201411210050 METAR EGLL 210050Z 05003KT 2600 HZ NSC 06/05 Q1023 NOSIG=
201411210020 METAR COR EGLL 210020Z VRB02KT 2800 HZ NSC 06/05 Q1023 NOSIG=
201411202350 METAR COR EGLL 202350Z 04004KT 3000 HZ NSC 06/05 Q1023 NOSIG=
201411202320 METAR COR EGLL 202320Z 05004KT 020V110 2800 HZ NSC 06/05
                        Q1023 NOSIG=
201411202250 METAR COR EGLL 202250Z 04004KT 3700 HZ FEW012 06/05 Q1024
                        NOSIG=
201411202220 METAR COR EGLL 202220Z 03004KT 3800 HZ NSC 07/05 Q1024 NOSIG=
201411202150 METAR EGLL 202150Z 04004KT 4000 HZ FEW013 07/06 Q1024 NOSIG=
201411202120 METAR COR EGLL 202120Z 04005KT 5000 HZ FEW013 07/06 Q1024
                        TEMPO 4500 HZ=
201411202050 METAR COR EGLL 202050Z 04003KT 5000 HZ SCT013 08/06 Q1024
                        TEMPO 4500 BKN014=
201411202020 METAR COR EGLL 202020Z 07004KT 6000 SCT013 SCT017 09/06 Q1024
                        TEMPO 4500 HZ BKN014=
201411201950 METAR COR EGLL 201950Z 07005KT 6000 SCT014 SCT021 09/07 Q1024
                        TEMPO 4500 HZ=
201411201920 METAR COR EGLL 201920Z 07005KT 6000 FEW014 BKN021 09/07 Q1024
                        TEMPO 4500 HZ=
201411201850 METAR COR EGLL 201850Z 06005KT 6000 SCT016 SCT018 09/07 Q1024
                        TEMPO 4000 HZ=
201411201820 METAR COR EGLL 201820Z 07005KT 6000 FEW015 SCT019 09/07 Q1024
                        BECMG 4000 HZ=
201411201750 METAR EGLL 201750Z 07005KT 6000 BKN018 09/07 Q1024 BECMG
                        4000 HZ BKN012=
201411201720 METAR COR EGLL 201720Z 08004KT 6000 FEW018 08/06 Q1024 BECMG
                        4000 HZ=
201411201650 METAR EGLL 201650Z 08004KT 6000 FEW018 08/06 Q1024 BECMG
                        4000 HZ=
201411201620 METAR COR EGLL 201620Z 09007KT 7000 FEW020 09/06 Q1024 TEMPO
                        4000 HZ=
201411201550 METAR COR EGLL 201550Z 09009KT 9000 FEW020 09/07 Q1023 NOSIG=
201411201520 METAR COR EGLL 201520Z 10006KT 9999 FEW020 10/07 Q1024 NOSIG=
201411201450 METAR COR EGLL 201450Z 10007KT 9999 FEW020 10/07 Q1024 NOSIG=
201411201420 METAR COR EGLL 201420Z 10007KT 9999 FEW016 11/07 Q1024 NOSIG=
201411201350 METAR EGLL 201350Z 10009KT 9000 FEW016 11/07 Q1024 NOSIG=
201411201320 METAR COR EGLL 201320Z 10008KT 9000 FEW017 11/07 Q1024 NOSIG=
201411201250 METAR EGLL 201250Z 08009KT 9000 FEW017 11/07 Q1024 NOSIG=
201411201220 METAR COR EGLL 201220Z 11007KT 8000 SCT015 09/07 Q1025 NOSIG=
201411201150 METAR EGLL 201150Z 10007KT 7000 SCT014 10/07 Q1025 NOSIG=
201411201120 METAR COR EGLL 201120Z 10008KT 7000 SCT010 10/07 Q1025 NOSIG=
201411201050 METAR EGLL 201050Z 10006KT 040V120 4400 HZ FEW009 09/07 Q1025
                        TEMPO 5000=
201411201020 METAR COR EGLL 201020Z 07003KT 4000 HZ NSC 09/07 Q1025 NOSIG=
201411200950 METAR EGLL 200950Z 07003KT 4000 HZ NSC 08/06 Q1025 NOSIG=
201411200920 METAR COR EGLL 200920Z 06004KT 4500 HZ FEW011 07/06 Q1025
                        NOSIG=
201411200850 METAR EGLL 200850Z 04004KT 010V090 4500 HZ SCT012 08/06 Q1025
                        NOSIG=
201411200820 METAR COR EGLL 200820Z VRB02KT 4200 HZ BKN013 07/06 Q1025
                        NOSIG=
201411200750 METAR EGLL 200750Z 07003KT 4200 HZ NSC 07/06 Q1024 NOSIG=
201411200720 METAR COR EGLL 200720Z 06004KT 4200 HZ NSC 07/06 Q1024 NOSIG=
201411200650 METAR EGLL 200650Z 03004KT 4200 HZ NSC 07/06 Q1024 TEMPO
                        5000=
201411200620 METAR COR EGLL 200620Z 08003KT 3300 BR NSC 07/06 Q1024 NOSIG=
201411200550 METAR COR EGLL 200550Z 04003KT 3300 HZ NSC 07/06 Q1024 NOSIG=
201411200520 METAR COR EGLL 200520Z 05004KT 3300 HZ SCT022 07/06 Q1024
                        NOSIG=
201411200450 METAR EGLL 200450Z 05003KT 3300 HZ BKN021 07/06 Q1024 NOSIG=
201411200420 METAR COR EGLL 200420Z 07002KT 3300 HZ BKN021 07/06 Q1024
                        NOSIG=
201411200350 METAR EGLL 200350Z 06004KT 3600 HZ BKN020 07/06 Q1024 NOSIG=
201411200320 METAR COR EGLL 200320Z 06003KT 3800 HZ SCT020 07/06 Q1024
                        NOSIG=
201411200250 METAR COR EGLL 200250Z 07003KT 4000 HZ SCT020 07/06 Q1024
                        NOSIG=
201411200220 METAR COR EGLL 200220Z 07004KT 4000 HZ FEW020 07/06 Q1024
                        NOSIG=
201411200150 METAR EGLL 200150Z 04003KT 4000 HZ NSC 07/06 Q1024 NOSIG=
201411200120 METAR COR EGLL 200120Z 08004KT 4000 HZ NSC 07/05 Q1024 NOSIG=
201411200050 METAR COR EGLL 200050Z 07005KT 4000 HZ NSC 07/06 Q1023 NOSIG=
201411200020 METAR COR EGLL 200020Z 08004KT 4200 HZ NSC 07/05 Q1024 NOSIG=
201411192350 METAR COR EGLL 192350Z VRB05KT 4400 HZ NSC 07/06 Q1023 NOSIG=
201411192320 METAR COR EGLL 192320Z 09006KT 4400 HZ NSC 08/06 Q1023 NOSIG=
201411192250 METAR COR EGLL 192250Z 09006KT 4400 HZ NSC 07/06 Q1023 NOSIG=
201411192220 METAR COR EGLL 192220Z 10007KT 4800 HZ NSC 07/06 Q1023 NOSIG=
201411192150 METAR EGLL 192150Z 10007KT 5000 HZ NSC 07/06 Q1023 TEMPO
                        4000=
201411192120 METAR COR EGLL 192120Z 09007KT 5000 HZ NSC 07/05 Q1023 TEMPO
                        4000=
201411192050 METAR EGLL 192050Z 09007KT 5000 HZ NSC 07/05 Q1022 TEMPO
                        4000=
201411192020 METAR COR EGLL 192020Z 09007KT 5000 HZ NSC 08/06 Q1022 TEMPO
                        4500=
201411191950 METAR COR EGLL 191950Z 09008KT 4500 HZ NSC 07/06 Q1022 TEMPO
                        5000=
201411191920 METAR COR EGLL 191920Z 09007KT 4500 HZ NSC 08/06 Q1022 TEMPO
                        5000=
201411191850 METAR COR EGLL 191850Z 09006KT 5000 HZ NSC 08/06 Q1022 BECMG
                        4000=
201411191820 METAR COR EGLL 191820Z 09006KT 5000 HZ NSC 08/07 Q1022 BECMG
                        4000=
201411191750 METAR COR EGLL 191750Z 10006KT 6000 FEW018 09/07 Q1021 NOSIG=
201411191720 METAR COR EGLL 191720Z 11005KT 7000 FEW018 10/07 Q1021 NOSIG=
201411191650 METAR COR EGLL 191650Z 10006KT 7000 FEW020 10/07 Q1021 NOSIG=
201411191620 METAR COR EGLL 191620Z 11005KT 7000 FEW021 10/07 Q1021 NOSIG=
201411191550 METAR COR EGLL 191550Z 13005KT 8000 SCT021 11/08 Q1020 NOSIG=
201411191520 METAR COR EGLL 191520Z 13005KT 8000 SCT022 11/08 Q1020 NOSIG=
201411191450 METAR COR EGLL 191450Z 13006KT 8000 FEW022 11/08 Q1020 NOSIG=
201411191420 METAR COR EGLL 191420Z 12007KT 8000 FEW016 12/08 Q1020 NOSIG=
201411191350 METAR EGLL 191350Z 10006KT 9000 FEW018 12/08 Q1019 NOSIG=
201411191320 METAR COR EGLL 191320Z 10007KT 5000 HZ SCT015 11/09 Q1019
                        TEMPO NSW=
201411191250 METAR EGLL 191250Z 09008KT 5000 HZ SCT017 11/08 Q1019 BECMG
                        NSW=
201411191220 METAR COR EGLL 191220Z 11007KT 5000 HZ FEW014 11/08 Q1019
                        BECMG NSW=
201411191150 METAR EGLL 191150Z 11007KT 5000 HZ FEW016 11/08 Q1019 BECMG
                        NSW=
201411191120 METAR COR EGLL 191120Z 11007KT 5000 HZ FEW016 11/08 Q1019
                        BECMG NSW=
201411191050 METAR EGLL 191050Z 13007KT 5000 HZ NSC 11/08 Q1019 BECMG
                        NSW=
201411191020 METAR COR EGLL 191020Z 10007KT 5000 HZ NSC 10/08 Q1019 BECMG
                        NSW=
201411190950 METAR EGLL 190950Z 09007KT 4000 HZ NSC 09/08 Q1019 BECMG
                        6000 NSW=
201411190920 METAR COR EGLL 190920Z 10005KT 3500 BR SCT025 10/08 Q1018
                        NOSIG=
201411190850 METAR COR EGLL 190850Z 09005KT 3200 BR SCT025 09/08 Q1018
                        NOSIG=
201411190820 METAR COR EGLL 190820Z 10005KT 3100 BR FEW041 09/08 Q1018
                        NOSIG=
201411190750 METAR EGLL 190750Z 10005KT 3100 BR SCT029 09/07 Q1017 NOSIG=
201411190720 METAR COR EGLL 190720Z 12004KT 3100 BR SCT030 09/08 Q1017
                        NOSIG=
201411190650 METAR EGLL 190650Z 08003KT 2800 BR NSC 08/08 Q1017 TEMPO
                        1400=
201411190620 METAR COR EGLL 190620Z 05004KT 3000 BR NSC 09/08 Q1016 NOSIG=
201411190550 METAR COR EGLL 190550Z 05005KT 3000 BR NSC 09/08 Q1016 TEMPO
                        1400=
201411190520 METAR COR EGLL 190520Z 04004KT 3000 BR FEW033 09/08 Q1016
                        TEMPO 1400=
201411190450 METAR EGLL 190450Z 06003KT 2700 BR SCT023 BKN034 09/08 Q1016
                        TEMPO 1400=
201411190420 METAR COR EGLL 190420Z 07003KT 2500 BR FEW007 SCT019 BKN026
                        08/07 Q1016 NOSIG=
201411190350 METAR COR EGLL 190350Z 06002KT 2500 BR FEW007 SCT030 08/08
                        Q1016 NOSIG=
201411190320 METAR COR EGLL 190320Z 00000KT 3000 BR FEW008 08/07 Q1015
                        NOSIG=
201411190250 METAR EGLL 190250Z VRB03KT 3000 BR NSC 08/07 Q1015 NOSIG=
201411190220 METAR EGLL 190220Z AUTO 08005KT 2600 BR NCD 09/08 Q1014=
201411190150 METAR EGLL 190150Z AUTO 07005KT 3500 BR NCD 09/08 Q1014=
201411190120 METAR EGLL 190120Z AUTO 10004KT 3400 BR NCD 09/08 Q1014=
201411190050 METAR COR EGLL 190050Z 06007KT 4000 HZ FEW040 09/08 Q1014
                        TEMPO BKN009=
201411190020 METAR COR EGLL 190020Z 06006KT 4500 HZ FEW040 09/08 Q1014
                        TEMPO BKN009=
201411182350 METAR COR EGLL 182350Z 07007KT 4700 HZ FEW010 09/08 Q1014
                        TEMPO BKN010=
201411182320 METAR COR EGLL 182320Z 07006KT 4800 HZ FEW014 09/08 Q1014
                        TEMPO BKN012=
201411182250 METAR EGLL 182250Z 06006KT 6000 FEW009 SCT013 10/08 Q1014
                        TEMPO BKN010=
201411182220 METAR COR EGLL 182220Z 06005KT 6000 SCT008 10/08 Q1014 TEMPO
                        BKN010=
201411182150 METAR COR EGLL 182150Z 06007KT 7000 SCT010 10/08 Q1014 TEMPO
                        BKN010=
201411182120 METAR COR EGLL 182120Z 06006KT 7000 SCT013 10/08 Q1014 TEMPO
                        BKN013=
201411182050 METAR COR EGLL 182050Z 06006KT 7000 SCT012 SCT016 10/08 Q1014
                        TEMPO BKN012=
201411182020 METAR COR EGLL 182020Z 06005KT 7000 FEW012 BKN015 10/08 Q1014
                        TEMPO BKN012=
201411181950 METAR COR EGLL 181950Z 05004KT 010V080 7000 SCT013 SCT017
                        10/08 Q1013 TEMPO BKN012=
201411181920 METAR EGLL 181920Z 05004KT 360V080 8000 SCT015 SCT028 10/08
                        Q1013=
201411181850 METAR COR EGLL 181850Z 05005KT 8000 SCT015 11/08 Q1012 NOSIG=
201411181820 METAR COR EGLL 181820Z 06005KT 9000 FEW014 SCT033 11/08 Q1012
                        NOSIG=
201411181750 METAR EGLL 181750Z 06004KT 9999 FEW017 SCT041 11/08 Q1012
                        NOSIG=
201411181720 METAR COR EGLL 181720Z 06005KT 9999 FEW033 SCT039 11/09 Q1012
                        NOSIG=
201411181650 METAR COR EGLL 181650Z 05005KT 9999 FEW020 SCT040 11/09 Q1012
                        NOSIG=
201411181620 METAR COR EGLL 181620Z 05005KT 010V080 9999 SCT014 SCT028
                        11/09 Q1011 NOSIG=
201411181550 METAR EGLL 181550Z 04005KT 010V080 9999 FEW035 12/09 Q1011
                        NOSIG=
201411181520 METAR COR EGLL 181520Z 03005KT 360V060 9999 SCT025 12/08
                        Q1011 NOSIG=
201411181450 METAR COR EGLL 181450Z 05003KT 9999 FEW028 12/08 Q1011 NOSIG=
201411181420 METAR COR EGLL 181420Z 07004KT 040V110 9999 FEW020 12/07
                        Q1010 TEMPO SHRA=
201411181350 METAR COR EGLL 181350Z VRB03KT 9999 FEW018 13/08 Q1010 NOSIG=
201411181320 METAR COR EGLL 181320Z VRB03KT 9999 FEW016 12/08 Q1010 NOSIG=
201411181250 METAR EGLL 181250Z 06004KT 360V110 9999 FEW012 12/09 Q1010
                        NOSIG=
201411181220 METAR COR EGLL 181220Z 06005KT 020V090 9999 FEW011 12/09
                        Q1010 NOSIG=
201411181150 METAR EGLL 181150Z 05006KT 010V090 9999 FEW034 11/08 Q1010
                        NOSIG=
201411181120 METAR COR EGLL 181120Z 05004KT 010V090 9999 FEW034 11/08
                        Q1010 NOSIG=
201411181050 METAR EGLL 181050Z 04005KT 9999 SCT049 10/07 Q1010 NOSIG=
201411181020 METAR COR EGLL 181020Z 04006KT 010V100 9999 -RA BKN047 09/08
                        Q1010 NOSIG=
201411180950 METAR COR EGLL 180950Z 05006KT 9999 -RA BKN043 09/07 Q1010
                        NOSIG=
201411180920 METAR COR EGLL 180920Z 05004KT 010V100 9999 FEW023 SCT049
                        09/07 Q1010 TEMPO SHRA=
201411180850 METAR COR EGLL 180850Z VRB02KT 9999 FEW023 08/07 Q1010 NOSIG=
201411180820 METAR COR EGLL 180820Z VRB03KT 9999 FEW024 08/06 Q1009 NOSIG=
201411180750 METAR EGLL 180750Z 04004KT CAVOK 07/06 Q1009 NOSIG=
201411180720 METAR COR EGLL 180720Z 07003KT CAVOK 07/06 Q1009 NOSIG=
201411180650 METAR EGLL 180650Z 06004KT CAVOK 07/06 Q1008 NOSIG=
201411180620 METAR COR EGLL 180620Z 05005KT CAVOK 07/06 Q1008 NOSIG=
201411180550 METAR EGLL 180550Z 05005KT CAVOK 07/06 Q1008 NOSIG=
201411180520 METAR COR EGLL 180520Z 05005KT CAVOK 08/06 Q1008 NOSIG=
201411180450 METAR EGLL 180450Z 06005KT CAVOK 08/06 Q1007 NOSIG=
201411180420 METAR COR EGLL 180420Z 05005KT 8000 NSC 08/07 Q1007 NOSIG=
201411180350 METAR EGLL 180350Z 05005KT CAVOK 08/07 Q1007 NOSIG=
201411180320 METAR COR EGLL 180320Z 05005KT CAVOK 08/07 Q1007 NOSIG=
201411180250 METAR EGLL 180250Z 04004KT CAVOK 08/07 Q1007 NOSIG=
201411180220 METAR EGLL 180220Z AUTO 04004KT 8000 NCD 08/07 Q1007=
201411180150 METAR EGLL 180150Z AUTO 05005KT 6000 NCD 08/07 Q1006=
201411180120 METAR EGLL 180120Z AUTO 04004KT 7000 FEW009 08/07 Q1006=
201411180050 METAR EGLL 180050Z 05004KT 9999 FEW011 08/07 Q1006 NOSIG=
201411180020 METAR COR EGLL 180020Z 06004KT 9999 FEW012 08/07 Q1006 NOSIG=
201411172350 METAR COR EGLL 172350Z 06005KT 9999 FEW013 SCT030 08/07 Q1006
                        NOSIG=
201411172320 METAR COR EGLL 172320Z 06006KT 9999 FEW032 08/07 Q1006 NOSIG=
201411172250 METAR EGLL 172250Z 06007KT 9999 FEW030 BKN041 08/07 Q1006
                        NOSIG=
201411172220 METAR COR EGLL 172220Z 06006KT 9000 FEW014 SCT031 08/07 Q1006
                        NOSIG=
201411172150 METAR EGLL 172150Z 03005KT 9000 FEW014 08/07 Q1005 NOSIG=
201411172120 METAR COR EGLL 172120Z 04005KT 9999 FEW014 08/07 Q1005 NOSIG=
201411172050 METAR COR EGLL 172050Z 05004KT 9999 FEW013 08/07 Q1005 NOSIG=
201411172020 METAR COR EGLL 172020Z 07006KT 9999 FEW014 09/07 Q1004 NOSIG=
201411171950 METAR EGLL 171950Z 08006KT 9999 FEW012 09/07 Q1004 TEMPO
                        BKN012=
201411171920 METAR COR EGLL 171920Z 08008KT 9999 FEW012 BKN046 10/07 Q1004
                        TEMPO BKN012=
201411171850 METAR EGLL 171850Z 08008KT 9999 FEW014 SCT035 BKN049 10/08
                        Q1003 TEMPO BKN014=
201411171820 METAR COR EGLL 171820Z 07005KT 9999 SCT016 SCT035 10/08 Q1003
                        TEMPO BKN014=
201411171750 METAR EGLL 171750Z 07007KT 9999 SCT018 SCT042 10/08 Q1003
                        NOSIG=
201411171720 METAR COR EGLL 171720Z 07004KT 9999 FEW026 SCT047 10/07 Q1002
                        NOSIG=
201411171650 METAR COR EGLL 171650Z 09007KT 9999 SCT033 SCT044 10/07 Q1002
                        NOSIG=
201411171620 METAR COR EGLL 171620Z 09007KT 9999 FEW040 SCT043 10/07 Q1002
                        NOSIG=
201411171550 METAR COR EGLL 171550Z 08008KT 9999 SCT027 SCT043 10/07 Q1001
                        NOSIG=
201411171520 METAR COR EGLL 171520Z 08006KT 9999 FEW029 SCT039 10/07 Q1001
                        NOSIG=
201411171450 METAR COR EGLL 171450Z 09007KT 9999 FEW015 SCT031 09/07 Q1001
                        NOSIG=
201411171420 METAR COR EGLL 171420Z 10006KT 9999 FEW017 SCT035 10/07 Q1000
                        NOSIG=
201411171350 METAR COR EGLL 171350Z 09007KT 9999 SCT018 SCT025 09/07 Q1000
                        NOSIG=
201411171320 METAR COR EGLL 171320Z 09008KT 9999 BKN015 09/07 Q1000 TEMPO
                        BKN014=
201411171250 METAR EGLL 171250Z 10009KT 9999 -SHRA FEW012 BKN020 09/07
                        Q1000 NOSIG=
201411171220 METAR COR EGLL 171220Z 10008KT 9999 -SHRA FEW013 BKN030 09/07
                        Q0999 NOSIG=
201411171150 METAR COR EGLL 171150Z 12009KT 9999 SCT018 SCT029 09/07 Q0999
                        NOSIG=
201411171120 METAR COR EGLL 171120Z 11009KT 9999 FEW008 SCT010 BKN017
                        09/07 Q0999 NOSIG=
201411171050 METAR COR EGLL 171050Z 12007KT 9999 SCT008 SCT012 09/07 Q0999
                        NOSIG=
201411171020 METAR COR EGLL 171020Z 14007KT 9000 SCT005 SCT010 09/07 Q0999
                        TEMPO BKN012=
201411170950 METAR COR EGLL 170950Z 13007KT 8000 SCT005 BKN010 09/08 Q0998
                        NOSIG=
201411170920 METAR COR EGLL 170920Z 14006KT 6000 -RA FEW003 BKN005 08/08
                        Q0998 TEMPO 4000 RADZ BKN004=
201411170850 METAR EGLL 170850Z 15006KT 090V180 7000 -RA SCT004 BKN010
                        08/07 Q0998 TEMPO 4000 RADZ BKN004=
201411170820 METAR COR EGLL 170820Z 18005KT 150V220 6000 -RA SCT004 BKN008
                        08/07 Q0998 TEMPO 4000 RADZ BKN004=
201411170750 METAR COR EGLL 170750Z 20005KT 160V230 7000 -RA SCT004 BKN010
                        08/07 Q0997 TEMPO 4000 RADZ BKN005=
201411170720 METAR COR EGLL 170720Z 23006KT 8000 -RA SCT006 BKN013 08/07
                        Q0997 TEMPO BKN006=
201411170650 METAR EGLL 170650Z 24007KT 9000 -RA SCT006 BKN010 08/07 Q0997
                        TEMPO BKN006=
201411170620 METAR COR EGLL 170620Z 24006KT 8000 -RA BKN007 08/07 Q0997
                        NOSIG=
201411170550 METAR EGLL 170550Z 24006KT 8000 -RA BKN007 08/07 Q0997 TEMPO
                        RA=
201411170520 METAR COR EGLL 170520Z 26008KT 9000 -RA FEW009 BKN013 08/07
                        Q0997 TEMPO RA BKN009=
201411170450 METAR EGLL 170450Z 26008KT 9000 -RA FEW009 BKN016 08/07 Q0997
                        TEMPO RA BKN014=
201411170420 METAR COR EGLL 170420Z 25008KT 9000 -RA FEW010 BKN016 08/07
                        Q0997 TEMPO RA BKN010=
201411170350 METAR EGLL 170350Z 26009KT 9999 -RA BKN018 08/06 Q0997 TEMPO
                        RA BKN013=
201411170320 METAR COR EGLL 170320Z 25010KT 9999 -RA BKN024 08/06 Q0998
                        TEMPO BKN013=
201411170250 METAR EGLL 170250Z 27009KT 9000 -RA FEW013 BKN033 08/07 Q0998
                        TEMPO RA BKN013=
201411170220 METAR EGLL 170220Z AUTO 27009KT 5000 -RA FEW008 SCT023 08/07
                        Q0999=
201411170150 METAR EGLL 170150Z AUTO 27007KT 5000 -RA FEW013 BKN029 08/07
                        Q0999 RERA=
201411170120 METAR EGLL 170120Z AUTO 28006KT 5000 -RA FEW024 SCT032 BKN036
                        08/07 Q0999 REDZ=
201411170050 METAR COR EGLL 170050Z 29004KT 9999 -RA BKN036 09/07 Q0999
                        NOSIG=
201411170020 METAR COR EGLL 170020Z 31005KT 9999 -RA BKN037 09/08 Q1000
                        NOSIG=
201411162350 METAR COR EGLL 162350Z 30004KT 9999 -RA BKN045 09/08 Q1000
                        TEMPO 4000 RADZ BKN010=
201411162320 METAR COR EGLL 162320Z 30004KT 9999 -RA BKN042 09/08 Q1000
                        TEMPO 4000 RADZ BKN010=
201411162250 METAR EGLL 162250Z 31004KT 9999 -RA FEW030 SCT045 09/08 Q1000
                        TEMPO 4000 RADZ BKN010=
201411162220 METAR COR EGLL 162220Z VRB03KT 9999 -RA FEW030 SCT042 09/08
                        Q1000 TEMPO RA BKN010=
201411162150 METAR COR EGLL 162150Z 32004KT 290V350 9999 -RA BKN037 09/08
                        Q1000 TEMPO 4000 DZ BKN010=
201411162120 METAR COR EGLL 162120Z VRB03KT 9999 -RA BKN042 09/08 Q1000
                        TEMPO 4000 RADZ BKN011=
201411162050 METAR EGLL 162050Z 36004KT 330V030 9999 -RA BKN045 09/08
                        Q1000 TEMPO 4000 -RA BKN010=
201411162020 METAR COR EGLL 162020Z VRB03KT 9999 -RA FEW011 SCT045 10/08
                        Q1000 TEMPO BKN011=
201411161950 METAR EGLL 161950Z 01004KT 8000 -RA FEW008 SCT011 10/09 Q1000
                        TEMPO BKN011=
201411161920 METAR COR EGLL 161920Z 01004KT 340V060 6000 -RA FEW006 BKN047
                        10/09 Q1000 NOSIG=
201411161850 METAR COR EGLL 161850Z 01004KT 340V040 5000 -RA FEW004 SCT005
                        BKN045 10/09 Q1000 TEMPO 4000 BR
                        BKN008=
201411161820 METAR COR EGLL 161820Z 01005KT 330V040 4300 -RADZ BKN005
                        10/09 Q1000 RERA REDZ TEMPO 5000=
201411161750 METAR COR EGLL 161750Z 02004KT 350V050 3500 RADZ BKN006 10/09
                        Q1000 TEMPO 5000=
201411161720 METAR COR EGLL 161720Z 01005KT 330V030 4500 -SHRA SCT006
                        SCT030 10/09 Q1000 BECMG 5000 -RA
                        BKN004=
201411161650 METAR COR EGLL 161650Z 02005KT 330V050 6000 SCT007 SCT022
                        10/09 Q1000 TEMPO BKN011=
201411161620 METAR COR EGLL 161620Z 36005KT 340V040 6000 SCT008 SCT011
                        11/09 Q0999 TEMPO BKN011=
201411161550 METAR COR EGLL 161550Z 35004KT 7000 SCT008 SCT011 11/09 Q0999
                        TEMPO SHRA BKN012=
201411161520 METAR COR EGLL 161520Z VRB03KT 8000 -SHRA FEW013 SCT025 11/09
                        Q0999 TEMPO SHRA BKN012=
201411161450 METAR EGLL 161450Z VRB03KT 9999 -SHRA FEW013 SCT015 11/09
                        Q0999 TEMPO SHRA BKN014=
201411161420 METAR COR EGLL 161420Z 04004KT 360V060 9999 SCT010 SCT013
                        11/09 Q0999 NOSIG=
201411161350 METAR COR EGLL 161350Z 04005KT 9999 SCT010 SCT013 11/09 Q0999
                        NOSIG=
201411161320 METAR COR EGLL 161320Z 04004KT 9999 SCT010 SCT012 11/09 Q0999
                        NOSIG=
201411161250 METAR EGLL 161250Z 04005KT 020V080 7000 SCT010 SCT018 11/09
                        Q0999 TEMPO BKN012=
201411161220 METAR COR EGLL 161220Z 04005KT 7000 SCT008 SCT012 11/09 Q0999
                        TEMPO BKN012=
201411161150 METAR COR EGLL 161150Z 05004KT 020V080 7000 SCT008 11/09
                        Q0999 NOSIG=
201411161120 METAR COR EGLL 161120Z 06004KT 6000 FEW006 11/09 Q1000 NOSIG=
201411161050 METAR COR EGLL 161050Z 06004KT 040V100 4800 BR FEW005 10/09
                        Q1000 BECMG 6000 NSW=
201411161020 METAR COR EGLL 161020Z 07005KT 4700 BR FEW005 10/09 Q1000
                        BECMG 6000 NSW=
201411160950 METAR EGLL 160950Z 06006KT 4200 BR FEW004 10/09 Q1000 BECMG
                        6000 NSW=
201411160920 METAR COR EGLL 160920Z 06005KT 4000 BR SCT003 10/09 Q1000
                        TEMPO BKN004=
201411160850 METAR COR EGLL 160850Z 04004KT 6000 FEW032 09/09 Q1000 TEMPO
                        4000 BR BKN004=
201411160820 METAR COR EGLL 160820Z 06006KT 6000 FEW007 09/08 Q1000 TEMPO
                        4000 BR BKN004=
201411160750 METAR COR EGLL 160750Z 05005KT 5000 BR FEW007 09/08 Q0999
                        TEMPO 4000 BR BKN004=
201411160720 METAR COR EGLL 160720Z 06006KT 4500 BR NSC 09/08 Q0999 NOSIG=
201411160650 METAR COR EGLL 160650Z 06006KT 5000 BR NSC 08/08 Q0999 TEMPO
                        3000=
201411160620 METAR COR EGLL 160620Z 06006KT 8000 FEW030 09/08 Q0999 TEMPO
                        4500 BR=
201411160550 METAR COR EGLL 160550Z 05002KT 8000 FEW030 09/08 Q0999 TEMPO
                        4500 BR=
201411160520 METAR COR EGLL 160520Z 07004KT 8000 FEW032 09/08 Q0999 TEMPO
                        4500 BR=
201411160450 METAR COR EGLL 160450Z 06004KT 8000 NSC 09/08 Q0999 TEMPO
                        4500 BR=
201411160420 METAR COR EGLL 160420Z 06004KT 8000 FEW019 10/08 Q0999 NOSIG=
201411160350 METAR EGLL 160350Z AUTO 06005KT 6000 NCD 10/09 Q0999=
201411160320 METAR COR EGLL 160320Z 07005KT 7000 NSC 10/09 Q0998 TEMPO
                        4500 BR=
201411160250 METAR EGLL 160250Z AUTO 07005KT 8000 SCT019 09/09 Q0998=
201411160220 METAR EGLL 160220Z AUTO 07004KT 7000 NCD 09/08 Q0998=
201411160150 METAR EGLL 160150Z AUTO 07005KT 7000 NCD 10/09 Q0998=
201411160120 METAR COR EGLL 160120Z 07004KT 8000 FEW030 10/09 Q0998 TEMPO
                        4500 BR=
201411160050 METAR EGLL 160050Z 07005KT 8000 SCT044 10/09 Q0998 NOSIG=
201411160020 METAR COR EGLL 160020Z 08004KT 8000 SCT048 09/08 Q0998 NOSIG=
201411152350 METAR COR EGLL 152350Z 09005KT 8000 SCT040 09/08 Q0998 NOSIG=
201411152320 METAR COR EGLL 152320Z 09005KT 9999 FEW040 09/08 Q0998 NOSIG=
201411152250 METAR EGLL 152250Z 07004KT 9000 FEW029 09/08 Q0998 TEMPO
                        4500 BR=
201411152220 METAR COR EGLL 152220Z 09004KT 9000 FEW020 09/08 Q0998 NOSIG=
201411152150 METAR EGLL 152150Z 08004KT 050V120 CAVOK 09/08 Q0998 NOSIG=
201411152120 METAR COR EGLL 152120Z 08002KT CAVOK 09/08 Q0998 TEMPO 4500
                        BR=
201411152050 METAR EGLL 152050Z 08003KT CAVOK 10/08 Q0998 TEMPO 4500 BR=
201411152020 METAR COR EGLL 152020Z 07004KT 9999 FEW020 09/08 Q0999 NOSIG=
201411151950 METAR EGLL 151950Z 10004KT 9999 FEW020 10/09 Q0999 NOSIG=
201411151920 METAR COR EGLL 151920Z VRB03KT 9999 FEW020 10/08 Q0999 NOSIG=
201411151850 METAR EGLL 151850Z 13004KT 9999 FEW017 11/09 Q0999 NOSIG=
201411151820 METAR COR EGLL 151820Z 13004KT 9999 FEW018 11/09 Q0999 NOSIG=
201411151750 METAR EGLL 151750Z 13006KT 9999 FEW028 11/09 Q0999 NOSIG=
201411151720 METAR COR EGLL 151720Z 09004KT 9999 FEW020 10/09 Q0998 NOSIG=
201411151650 METAR EGLL 151650Z 08003KT 9999 FEW020 10/08 Q0998 NOSIG=
201411151620 METAR COR EGLL 151620Z 08003KT 9999 FEW015 11/09 Q0998 NOSIG=
201411151550 METAR EGLL 151550Z 12005KT 9999 FEW015 11/09 Q0998 NOSIG=
201411151520 METAR COR EGLL 151520Z 11004KT 070V150 9999 FEW012 SCT046
                        12/09 Q0998 NOSIG=
201411151450 METAR EGLL 151450Z 17004KT 9999 -SHRA FEW012 SCT045 12/09
                        Q0998=
201411151420 METAR COR EGLL 151420Z 14005KT 100V170 8000 -SHRA SCT012
                        13/10 Q0998 TEMPO SHRA BKN012=
201411151350 METAR EGLL 151350Z 12004KT 9999 VCSH SCT015 13/10 Q0998 TEMPO
                        BKN014=
201411151320 METAR COR EGLL 151320Z VRB02KT 9999 SCT012 13/10 Q0998 NOSIG=
201411151250 METAR EGLL 151250Z VRB03KT 9999 FEW008 13/11 Q0998 NOSIG=
201411151220 METAR COR EGLL 151220Z VRB03KT 9000 SCT008 12/10 Q0999 TEMPO
                        BKN008=
201411151150 METAR EGLL 151150Z VRB03KT 6000 SCT005 12/10 Q0999 TEMPO
                        BKN005=
201411151120 METAR COR EGLL 151120Z VRB03KT 6000 FEW004 12/10 Q0999 NOSIG=
201411151050 METAR COR EGLL 151050Z VRB02KT 5000 BR FEW030 11/10 Q1000
                        TEMPO 4000=
201411151020 METAR COR EGLL 151020Z 06003KT 4500 BR SCT002 10/10 Q1000
                        TEMPO 6000=
201411150950 METAR EGLL 150950Z 06003KT 6000 FEW004 10/09 Q1000 NOSIG=
201411150920 METAR COR EGLL 150920Z 06003KT 6000 FEW002 BKN003 10/09 Q1000
                        TEMPO 3000 BR=
201411150850 METAR EGLL 150850Z 09003KT 7000 BKN004 09/08 Q1000 BECMG
                        SCT004=
201411150820 METAR COR EGLL 150820Z 00000KT 7000 BKN004 09/08 Q1000 BECMG
                        SCT004=
201411150750 METAR COR EGLL 150750Z VRB02KT 7000 FEW023 09/08 Q1000 NOSIG=
201411150720 METAR COR EGLL 150720Z 07003KT 9000 FEW014 SCT022 09/08 Q1000
                        NOSIG=
201411150650 METAR EGLL 150650Z VRB02KT 9999 FEW020 08/07 Q0999 NOSIG=
201411150620 METAR COR EGLL 150620Z 07004KT 9999 FEW015 09/09 Q0999 NOSIG=
201411150550 METAR COR EGLL 150550Z 10003KT 9999 FEW014 09/08 Q0999 NOSIG=
201411150520 METAR COR EGLL 150520Z 07003KT 9999 FEW018 08/07 Q0999 NOSIG=
201411150450 METAR EGLL 150450Z 09005KT 9999 FEW016 08/07 Q0999 NOSIG=
201411150420 METAR COR EGLL 150420Z 09003KT 9000 FEW018 08/07 Q0999 NOSIG=
201411150350 METAR COR EGLL 150350Z 08003KT 9999 FEW018 08/07 Q1000 NOSIG=
201411150320 METAR COR EGLL 150320Z 08004KT 9999 FEW017 08/07 Q1000 NOSIG=
201411150250 METAR COR EGLL 150250Z 09004KT 9999 FEW018 08/07 Q1000 TEMPO
                        SHRA BKN014=
201411150220 METAR EGLL 150220Z AUTO 09005KT 9999 NCD 07/06 Q1000=
201411150150 METAR EGLL 150150Z AUTO VRB02KT 9999 FEW048 08/07 Q1000=
201411150120 METAR EGLL 150120Z 09004KT CAVOK 07/06 Q1000=
201411150050 METAR EGLL 150050Z 10005KT 070V140 CAVOK 07/06 Q1000 NOSIG=
201411150020 METAR EGLL 150020Z 11005KT CAVOK 08/07 Q1001=
201411142350 METAR COR EGLL 142350Z 10007KT CAVOK 09/07 Q1001 NOSIG=
201411142320 METAR COR EGLL 142320Z 10006KT CAVOK 08/06 Q1000 NOSIG=
201411142250 METAR EGLL 142250Z 10007KT CAVOK 08/06 Q1001 NOSIG=
201411142220 METAR COR EGLL 142220Z 08003KT 9000 NSC 08/07 Q1000 NOSIG=
201411142150 METAR EGLL 142150Z 06003KT CAVOK 09/07 Q1001 NOSIG=
201411142120 METAR COR EGLL 142120Z 09004KT 070V150 CAVOK 10/08 Q1001
                        NOSIG=
201411142050 METAR EGLL 142050Z 14005KT CAVOK 10/07 Q1001 NOSIG=
201411142020 METAR COR EGLL 142020Z 14005KT CAVOK 10/07 Q1001 NOSIG=
201411141950 METAR EGLL 141950Z 15003KT CAVOK 10/07 Q1001 NOSIG=
201411141920 METAR COR EGLL 141920Z 16006KT 120V190 CAVOK 11/08 Q1001
                        NOSIG=
201411141850 METAR COR EGLL 141850Z 14007KT 9999 FEW030 11/08 Q1001 NOSIG=
201411141820 METAR COR EGLL 141820Z 16006KT CAVOK 12/07 Q1001 NOSIG=
201411141750 METAR EGLL 141750Z 19005KT 160V250 CAVOK 12/07 Q1000 NOSIG=
201411141720 METAR COR EGLL 141720Z VRB05KT 9999 FEW025 12/07 Q1000 NOSIG=
201411141650 METAR EGLL 141650Z VRB05KT 9999 FEW025 12/07 Q1000 NOSIG=
201411141620 METAR COR EGLL 141620Z 21007KT 160V260 9999 FEW025 13/07
                        Q1000 NOSIG=
201411141550 METAR EGLL 141550Z 22007KT 9999 FEW025 13/07 Q1000 NOSIG=
201411141520 METAR COR EGLL 141520Z 21007KT 170V240 9999 FEW025 14/07
                        Q1000 NOSIG=
201411141450 METAR COR EGLL 141450Z 21009KT 9999 FEW025 14/08 Q0999 NOSIG=
201411141420 METAR COR EGLL 141420Z 23007KT 190V270 9999 FEW025 14/09
                        Q0999 NOSIG=
201411141350 METAR COR EGLL 141350Z 23010KT 170V260 9999 FEW022 15/09
                        Q0999 NOSIG=
201411141320 METAR COR EGLL 141320Z 22008KT 180V250 9999 FEW019 15/10
                        Q0999 NOSIG=
201411141250 METAR EGLL 141250Z 21009KT 170V250 9999 FEW016 14/11 Q0999
                        NOSIG=
201411141220 METAR COR EGLL 141220Z 21009KT 160V240 9999 FEW012 13/11
                        Q0999 NOSIG=
201411141150 METAR EGLL 141150Z 22010KT 180V250 9999 FEW028 13/11 Q0999
                        NOSIG=
201411141120 METAR COR EGLL 141120Z 20012KT 170V250 9999 FEW012 13/10
                        Q0999 NOSIG=
201411141050 METAR EGLL 141050Z 20011KT 170V240 9999 FEW018 13/11 Q0998
                        NOSIG=
201411141020 METAR COR EGLL 141020Z 21013KT 9999 FEW008 SCT017 12/11 Q0998
                        NOSIG=
201411140950 METAR EGLL 140950Z 15007KT 9999 -RA SCT015 SCT023 12/11 Q0998
                        NOSIG=
201411140920 METAR COR EGLL 140920Z 13006KT 9999 -RA SCT014 SCT024 12/11
                        Q0997 TEMPO RA BKN014=
201411140850 METAR EGLL 140850Z 14006KT 9999 -RA SCT024 SCT047 12/11 Q0998
                        TEMPO RA BKN012=
201411140820 METAR COR EGLL 140820Z 17009KT 7000 -RA FEW009 BKN012 12/11
                        Q0998 TEMPO RA=
201411140750 METAR EGLL 140750Z 16009KT 7000 -RA FEW008 SCT012 BKN023
                        12/11 Q0997 TEMPO RA BKN012=
201411140720 METAR COR EGLL 140720Z 14011KT 8000 -RA FEW008 SCT012 BKN016
                        12/10 Q0997 RERA TEMPO RA BKN012=
201411140650 METAR EGLL 140650Z 13011KT 9000 RA SCT012 BKN040 12/10 Q0997
                        TEMPO 4500 BKN012=
201411140620 METAR COR EGLL 140620Z 13009KT 9999 -RA BKN040 12/10 Q0997
                        TEMPO 4800 RA=
201411140550 METAR EGLL 140550Z 12011KT 9999 -RA SCT044 11/10 Q0997 TEMPO
                        RA=
201411140520 METAR COR EGLL 140520Z 11011KT 9999 -RA SCT032CB BKN040 11/10
                        Q0997 TEMPO RA=
201411140450 METAR COR EGLL 140450Z 13008KT 9999 -RA SCT030 BKN040 12/10
                        Q0998 TEMPO 4500 +RA=
201411140420 METAR COR EGLL 140420Z 12014KT 9999 -RA FEW048 12/09 Q0998
                        TEMPO 4800 RA=
201411140350 METAR EGLL 140350Z 11013KT CAVOK 12/09 Q0997 BECMG SHRA BKN014=
201411140320 METAR COR EGLL 140320Z 11014KT CAVOK 12/09 Q0998 BECMG RA
                        BKN014=
201411140250 METAR COR EGLL 140250Z 12013KT CAVOK 12/09 Q0998 NOSIG=
201411140220 METAR EGLL 140220Z AUTO 12012KT 9999 NCD 12/09 Q0999=
201411140150 METAR EGLL 140150Z AUTO 13010KT 9999 NCD 13/09 Q0999=
201411140120 METAR EGLL 140120Z AUTO 13011KT 9999 NCD 13/09 Q0999=
201411140050 METAR EGLL 140050Z 13010KT CAVOK 12/10 Q1000 NOSIG=
201411140020 METAR COR EGLL 140020Z 13010KT CAVOK 12/10 Q1000 NOSIG=
201411132350 METAR COR EGLL 132350Z 14010KT CAVOK 13/10 Q1001 NOSIG=
201411132320 METAR COR EGLL 132320Z 14011KT 9999 FEW040 13/10 Q1001 NOSIG=
201411132250 METAR COR EGLL 132250Z 14012KT 9999 SCT035 13/10 Q1001 NOSIG=
201411132220 METAR COR EGLL 132220Z 14010KT 9999 SCT038 13/10 Q1002 NOSIG=
201411132150 METAR EGLL 132150Z 15010KT 9999 BKN043 13/10 Q1002 NOSIG=
201411132120 METAR COR EGLL 132120Z 14010KT 9999 FEW031 BKN046 13/10 Q1002
                        NOSIG=
201411132050 METAR COR EGLL 132050Z 14011KT 9999 FEW031 BKN039 13/10 Q1002
                        NOSIG=
201411132020 METAR COR EGLL 132020Z 15011KT 9999 SCT026 BKN041 13/10 Q1002
                        NOSIG=
201411131950 METAR COR EGLL 131950Z 14011KT 9999 OVC026 13/11 Q1003 NOSIG=
201411131920 METAR COR EGLL 131920Z 14011KT 9999 OVC022 13/11 Q1003 NOSIG=
201411131850 METAR EGLL 131850Z 14009KT 9999 FEW020 BKN026 13/11 Q1003
                        NOSIG=
201411131820 METAR EGLL 131820Z 14010KT 9999 FEW014 BKN030 13/11 Q1003=
201411131750 METAR EGLL 131750Z 14010KT 9999 FEW014 SCT028 13/11 Q1003
                        NOSIG=
201411131720 METAR COR EGLL 131720Z 14012KT 9999 SCT016 SCT028 13/11 Q1003
                        NOSIG=
201411131650 METAR COR EGLL 131650Z 16010KT 9999 -RA SCT016 SCT030 13/10
                        Q1002 NOSIG=
201411131620 METAR COR EGLL 131620Z 16009KT 9999 SCT014 BKN024 13/10 Q1002
                        NOSIG=
201411131550 METAR EGLL 131550Z 15012KT 9999 BKN025 13/10 Q1002 NOSIG=
201411131520 METAR COR EGLL 131520Z 15013KT 9999 FEW017 BKN021 13/10 Q1002
                        NOSIG=
201411131450 METAR EGLL 131450Z 15011KT 9999 FEW014 BKN021 12/10 Q1002
                        NOSIG=
201411131420 METAR COR EGLL 131420Z 14016KT 9999 BKN030 BKN036 12/10 Q1002
                        NOSIG=
201411131350 METAR EGLL 131350Z 15015KT 9999 -RA FEW018 BKN036 13/10 Q1002
                        NOSIG=
201411131320 METAR COR EGLL 131320Z 15015KT 9999 -SHRA FEW018 13/10 Q1002
                        NOSIG=
201411131250 METAR EGLL 131250Z 15015KT 9999 FEW018 SCT030 13/10 Q1002=
201411131220 METAR COR EGLL 131220Z 15013KT 9999 FEW020 SCT023 13/10 Q1003
                        NOSIG=
201411131150 METAR COR EGLL 131150Z 15014KT 9999 SCT017 SCT023 12/10 Q1003
                        NOSIG=
201411131120 METAR COR EGLL 131120Z 15012KT 9999 SCT016 SCT020 12/09 Q1003
                        NOSIG=
201411131050 METAR EGLL 131050Z 14012KT 9999 SCT015 SCT021 12/10 Q1003
                        NOSIG=
201411131020 METAR COR EGLL 131020Z 14013KT 9999 SCT015 SCT022 12/10 Q1004
                        NOSIG=
201411130950 METAR EGLL 130950Z 14012KT 9999 SCT012 SCT024 12/10 Q1004
                        NOSIG=
201411130920 METAR COR EGLL 130920Z 14011KT 9999 FEW012 SCT021 12/10 Q1004
                        NOSIG=
201411130850 METAR EGLL 130850Z 13008KT 9999 FEW011 SCT022 11/10 Q1004
                        NOSIG=
201411130820 METAR COR EGLL 130820Z 12007KT 9999 FEW010 11/10 Q1004 NOSIG=
201411130750 METAR COR EGLL 130750Z 12007KT 9999 FEW011 11/09 Q1004 NOSIG=
201411130720 METAR COR EGLL 130720Z 13006KT CAVOK 11/09 Q1004 NOSIG=
201411130650 METAR EGLL 130650Z 12006KT CAVOK 10/09 Q1004 NOSIG=
201411130620 METAR COR EGLL 130620Z 11007KT CAVOK 10/09 Q1004 NOSIG=
201411130550 METAR EGLL 130550Z 11006KT CAVOK 10/09 Q1004 NOSIG=
201411130520 METAR COR EGLL 130520Z 13007KT 9999 FEW022 10/09 Q1004 NOSIG=
201411130450 METAR COR EGLL 130450Z 10006KT 9999 FEW018 09/09 Q1004 NOSIG=
201411130420 METAR COR EGLL 130420Z 13006KT 9999 FEW016 09/09 Q1004 NOSIG=
201411130350 METAR EGLL 130350Z AUTO 12006KT 9999 NCD 09/08 Q1004=
201411130320 METAR COR EGLL 130320Z 14005KT CAVOK 10/09 Q1004 NOSIG=
201411130250 METAR EGLL 130250Z 14005KT 9999 FEW018 10/09 Q1004 NOSIG=
201411130220 METAR EGLL 130220Z AUTO 14006KT 9999 FEW014 11/09 Q1004=
201411130150 METAR EGLL 130150Z AUTO 17005KT 5000 FEW019 11/10 Q1005 RERA
                        REDZ=
201411130120 METAR EGLL 130120Z AUTO 14003KT 9999 FEW018 10/09 Q1004=
201411130050 METAR EGLL 130050Z 14006KT 9999 FEW025 10/09 Q1004 NOSIG=
201411130020 METAR COR EGLL 130020Z 15006KT 9999 FEW048 11/09 Q1004 NOSIG=
201411122350 METAR EGLL 122350Z 16005KT 9999 SCT048 11/10 Q1004 NOSIG=
201411122320 METAR COR EGLL 122320Z 17006KT 9999 FEW033 SCT049 11/09 Q1003
                        NOSIG=
201411122250 METAR COR EGLL 122250Z 16006KT 9999 FEW027 11/09 Q1003 NOSIG=
201411122220 METAR COR EGLL 122220Z 17007KT 9999 FEW048 11/09 Q1003 NOSIG=
201411122150 METAR EGLL 122150Z 14006KT 9999 FEW030 11/09 Q1003 NOSIG=
201411122120 METAR COR EGLL 122120Z 13007KT 9999 -RA SCT023CB SCT033 11/09
                        Q1003 RESHRA TEMPO SHRA=
201411122050 METAR COR EGLL 122050Z 15005KT 9000 -RA FEW033 SCT044 11/09
                        Q1003 RESHRA TEMPO SHRA=
201411122020 METAR COR EGLL 122020Z 14003KT 9000 SCT026 11/08 Q1003 TEMPO
                        SHRA=
201411121950 METAR COR EGLL 121950Z 17003KT 9999 FEW028 11/09 Q1002 TEMPO
                        SHRA=
201411121920 METAR COR EGLL 121920Z 20007KT 160V230 9999 -SHRA SCT026
                        10/09 Q1002 RESHRA TEMPO SHRA=
201411121850 METAR COR EGLL 121850Z 15006KT 9999 VCSH FEW040 10/08 Q1002
                        TEMPO SHRA=
201411121820 METAR COR EGLL 121820Z 15006KT 100V200 CAVOK 10/08 Q1002
                        TEMPO SHRA=
201411121750 METAR EGLL 121750Z 15006KT 120V180 CAVOK 10/08 Q1001 TEMPO
                        SHRA=
201411121720 METAR COR EGLL 121720Z 16007KT 9999 FEW030 10/08 Q1001 NOSIG=
201411121650 METAR EGLL 121650Z 18009KT 140V220 9999 FEW027 10/07 Q1001
                        NOSIG=
201411121620 METAR COR EGLL 121620Z 20010KT 9999 FEW027 11/07 Q1000 NOSIG=
201411121550 METAR EGLL 121550Z 20012KT 9999 VCSH FEW020CB 12/07 Q1000
                        NOSIG=
201411121520 METAR COR EGLL 121520Z 22009KT 9999 FEW020 12/07 Q0999 NOSIG=
201411121450 METAR EGLL 121450Z 22013KT 9999 FEW020CB 12/07 Q0999 TEMPO
                        SHRA=
201411121420 METAR COR EGLL 121420Z 21012KT 9999 FEW020 13/08 Q0998 TEMPO
                        SHRA=
201411121350 METAR COR EGLL 121350Z 21010KT 180V240 9999 FEW022 13/08
                        Q0998 NOSIG=
201411121320 METAR COR EGLL 121320Z 21010KT 180V250 9999 FEW022 13/08
                        Q0998 NOSIG=
201411121250 METAR EGLL 121250Z 21011KT 180V240 CAVOK 13/09 Q0998 NOSIG=
201411121220 METAR COR EGLL 121220Z 21011KT 180V240 9999 FEW040 12/08
                        Q0997 NOSIG=
201411121150 METAR EGLL 121150Z 21010KT 9999 FEW040CB 11/09 Q0997 NOSIG=
201411121120 METAR COR EGLL 121120Z 21011KT 180V250 9999 VCSH FEW022 SCT046CB
                        11/08 Q0996 RESHRA NOSIG=
201411121050 METAR COR EGLL 121050Z 19010KT 160V230 9999 5000SE SHRA FEW012
                        SCT020CB 11/09 Q0996 RESHRA NOSIG=
201411121020 METAR COR EGLL 121020Z 17008KT 100V230 9000 4000SW SHRA SCT020CB
                        12/09 Q0996 TEMPO 4500 +SHRA BKN012CB=
201411120950 METAR EGLL 120950Z 17009KT 140V250 9999 VCSH FEW022CB 12/09
                        Q0995 TEMPO 4500 +SHRA BKN012CB=
201411120920 METAR COR EGLL 120920Z 17010KT 9999 VCSH FEW017 SCT024CB
                        11/09 Q0995 TEMPO 4500 +SHRA BKN012CB=
201411120850 METAR EGLL 120850Z 17007KT 9999 -SHRA FEW025 SCT046CB 11/09
                        Q0994 TEMPO SHRA=
201411120820 METAR COR EGLL 120820Z 18009KT 9999 SCT049CB 11/09 Q0994
                        TEMPO 4500 +SHRA BKN012CB=
201411120750 METAR EGLL 120750Z 17009KT 9999 -SHRA FEW010 SCT038CB 11/10
                        Q0994 RESHRA TEMPO 4500 +SHRA BKN012CB=
201411120720 METAR COR EGLL 120720Z 15009KT 9999 -SHRA SCT017 SCT026CB
                        12/10 Q0993 TEMPO SHRA=
201411120650 METAR COR EGLL 120650Z 14008KT 9999 -SHRA SCT014 SCT029 12/10
                        Q0993 TEMPO SHRA BKN014=
201411120620 METAR COR EGLL 120620Z 13007KT 9999 SCT017 SCT025 11/10 Q0993
                        TEMPO SHRA=
201411120550 METAR COR EGLL 120550Z 14007KT 9999 SCT018 SCT035 12/10 Q0993
                        TEMPO SHRA=
201411120520 METAR COR EGLL 120520Z 15007KT 9999 SCT014 SCT034 12/10 Q0993
                        TEMPO SHRA=
201411120450 METAR EGLL 120450Z 15009KT 9999 SCT014 SCT019 12/10 Q0992
                        TEMPO SHRA=
201411120420 METAR COR EGLL 120420Z 14009KT 9999 SCT014 SCT021 12/10 Q0992
                        TEMPO SHRA BKN014=
201411120350 METAR COR EGLL 120350Z 13009KT 9999 -SHRA BKN018 12/10 Q0992
                        TEMPO SHRA=
201411120320 METAR COR EGLL 120320Z 12008KT 9999 SCT019 SCT026 12/10 Q0992
                        TEMPO SHRA=
201411120250 METAR COR EGLL 120250Z 11007KT 9999 -RADZ SCT014 SCT019 11/10
                        Q0992 TEMPO BKN014=
201411120220 METAR EGLL 120220Z AUTO 12008KT 9999 BKN014 BKN033 11/10
                        Q0992=
201411120150 METAR EGLL 120150Z AUTO 13008KT 9999 -RA FEW012 OVC016 12/10
                        Q0993=
201411120120 METAR EGLL 120120Z AUTO 13010KT 9999 SCT022 BKN025 12/10
                        Q0993=
201411120050 METAR COR EGLL 120050Z 14007KT 9999 FEW015 BKN022 12/10 Q0993
                        TEMPO BKN014=
201411120020 METAR COR EGLL 120020Z 14007KT 9999 FEW015 BKN024 11/10 Q0993
                        TEMPO BKN014=
201411112350 METAR EGLL 112350Z 13008KT 9999 SCT010 SCT017 11/10 Q0993
                        TEMPO BKN012=
201411112320 METAR COR EGLL 112320Z 13008KT 8000 -RADZ FEW010 BKN016 11/10
                        Q0993 TEMPO BKN012=
201411112250 METAR COR EGLL 112250Z 14008KT 9999 -RADZ FEW011 BKN014 11/10
                        Q0993 NOSIG=
201411112220 METAR COR EGLL 112220Z 14009KT 9999 -RA BKN017 11/10 Q0993
                        TEMPO BKN014=
201411112150 METAR EGLL 112150Z 14011KT 8000 -RA FEW019 BKN024 11/10 Q0994
                        TEMPO BKN014=
201411112120 METAR COR EGLL 112120Z 14011KT 9999 -RA FEW012 BKN014 OVC021
                        11/10 Q0994 TEMPO RA=
201411112050 METAR COR EGLL 112050Z 14012KT 6000 -RA FEW010 BKN014 12/10
                        Q0994 TEMPO RA=
201411112020 METAR COR EGLL 112020Z 14012KT 9000 -RA BKN010 BKN019 12/10
                        Q0994 RERA TEMPO RA=
201411111950 METAR COR EGLL 111950Z 14012KT 9999 -DZ BKN013 12/10 Q0994
                        TEMPO RA=
201411111920 METAR COR EGLL 111920Z 14012KT 9999 FEW019 SCT022 12/10 Q0994
                        TEMPO BKN014=
201411111850 METAR EGLL 111850Z 14012KT 9999 -RA FEW024 12/10 Q0994 NOSIG=
201411111820 METAR COR EGLL 111820Z 13010KT 9999 SCT024 12/10 Q0994 NOSIG=
201411111750 METAR COR EGLL 111750Z 13010KT 9999 FEW046 11/10 Q0994 NOSIG=
201411111720 METAR COR EGLL 111720Z 14010KT 9999 -RA FEW028 11/10 Q0994
                        NOSIG=
201411111650 METAR EGLL 111650Z 14012KT 9999 -RADZ SCT018 SCT021 BKN027
                        12/10 Q0994 NOSIG=
201411111620 METAR COR EGLL 111620Z 15011KT 9999 SCT010 BKN021 12/10 Q0994
                        NOSIG=
201411111550 METAR COR EGLL 111550Z 15011KT 9999 SCT012 BKN021 12/10 Q0994
                        NOSIG=
201411111520 METAR COR EGLL 111520Z 15011KT 9999 FEW015 BKN024 13/09 Q0994
                        NOSIG=
201411111450 METAR EGLL 111450Z 15014KT 9999 BKN020 13/09 Q0995 NOSIG=
201411111420 METAR COR EGLL 111420Z 15014KT 9999 BKN024 13/08 Q0995 NOSIG=
201411111350 METAR COR EGLL 111350Z 13011KT 9999 FEW025 BKN029 13/08 Q0995
                        NOSIG=
201411111320 METAR COR EGLL 111320Z 13011KT 9999 FEW026 SCT029 14/08 Q0995
                        NOSIG=
201411111250 METAR EGLL 111250Z 14015KT 9999 FEW026 14/08 Q0995 NOSIG=
201411111220 METAR COR EGLL 111220Z 14013KT 9999 FEW032 14/08 Q0995 NOSIG=
201411111150 METAR COR EGLL 111150Z 14015KT 9999 FEW031 14/08 Q0996 NOSIG=
201411111120 METAR COR EGLL 111120Z 14014KT 9999 FEW031 14/08 Q0996 NOSIG=
201411111050 METAR COR EGLL 111050Z 13013KT 9999 FEW021 13/08 Q0996 NOSIG=
201411111020 METAR COR EGLL 111020Z 12014KT 9999 FEW016 13/08 Q0996 NOSIG=
201411110950 METAR EGLL 110950Z 12014KT 9999 FEW016 12/08 Q0996 NOSIG=
201411110920 METAR COR EGLL 110920Z 12014KT 9999 FEW016 12/08 Q0997 NOSIG=
201411110850 METAR COR EGLL 110850Z 12013KT 9999 FEW012 12/08 Q0997 NOSIG=
201411110820 METAR COR EGLL 110820Z 12012KT 9999 FEW012 11/08 Q0997 NOSIG=
201411110750 METAR COR EGLL 110750Z 13010KT 9999 FEW012 11/08 Q0997 NOSIG=
201411110720 METAR COR EGLL 110720Z 12012KT 9999 FEW012 11/08 Q0997 NOSIG=
201411110650 METAR EGLL 110650Z 12010KT CAVOK 11/08 Q0997 NOSIG=
201411110620 METAR COR EGLL 110620Z 12010KT 9999 FEW020 11/07 Q0997 NOSIG=
201411110550 METAR EGLL 110550Z 11010KT 9999 FEW045 10/07 Q0997 NOSIG=
201411110520 METAR COR EGLL 110520Z 11009KT 9999 FEW045 10/07 Q0998 NOSIG=
201411110450 METAR EGLL 110450Z 11008KT 9999 FEW046 11/08 Q0998 NOSIG=
201411110420 METAR COR EGLL 110420Z 12008KT 9999 FEW045 11/08 Q0998 NOSIG=
201411110350 METAR EGLL 110350Z 14008KT CAVOK 11/08 Q0998 NOSIG=
201411110320 METAR COR EGLL 110320Z 14010KT CAVOK 11/08 Q0998 NOSIG=
201411110250 METAR EGLL 110250Z 14010KT CAVOK 11/08 Q0999 NOSIG=
201411110220 METAR EGLL 110220Z AUTO 14012KT 9999 NCD 11/08 Q0999=
201411110150 METAR EGLL 110150Z AUTO 16012KT 9999 FEW023 12/08 Q0999=
201411110120 METAR EGLL 110120Z AUTO 16015KT 9999 FEW020 12/09 Q0999=
201411110050 METAR EGLL 110050Z 16011KT 9999 FEW021 SCT035 12/09 Q1000
                        NOSIG=
201411110020 METAR COR EGLL 110020Z 17012KT 9999 SCT025 12/09 Q1000 NOSIG=
201411102350 METAR COR EGLL 102350Z 16011KT 9999 SCT024 12/09 Q1000 NOSIG=
201411102320 METAR COR EGLL 102320Z 16014KT 9999 FEW021 SCT030 12/09 Q1000
                        NOSIG=
201411102250 METAR EGLL 102250Z 15011KT 9999 FEW021 SCT034 12/09 Q1000
                        NOSIG=
201411102220 METAR COR EGLL 102220Z 16013KT 9999 SCT024 SCT037 12/09 Q1001
                        NOSIG=
201411102150 METAR EGLL 102150Z 16012KT 9999 SCT025 SCT034 12/09 Q1001
                        NOSIG=
201411102120 METAR COR EGLL 102120Z 15011KT 9999 FEW020 12/09 Q1001 NOSIG=
201411102050 METAR EGLL 102050Z 15010KT 9999 FEW020 12/09 Q1001 NOSIG=
201411102020 METAR COR EGLL 102020Z 13008KT 9999 FEW021 11/08 Q1001 NOSIG=
201411101950 METAR EGLL 101950Z 12008KT 9999 FEW035 11/08 Q1001 NOSIG=
201411101920 METAR COR EGLL 101920Z 13008KT 9999 FEW043 11/08 Q1001 NOSIG=
201411101850 METAR COR EGLL 101850Z 13007KT CAVOK 11/08 Q1002 NOSIG=
201411101820 METAR COR EGLL 101820Z 13007KT 9999 FEW032 11/08 Q1002 NOSIG=
201411101750 METAR EGLL 101750Z 14007KT 9999 FEW039 11/08 Q1002 NOSIG=
201411101720 METAR COR EGLL 101720Z 16007KT 9999 FEW020 11/08 Q1002 NOSIG=
201411101650 METAR EGLL 101650Z 16008KT CAVOK 11/09 Q1002 NOSIG=
201411101620 METAR COR EGLL 101620Z 16008KT 9999 FEW020 12/09 Q1002 NOSIG=
201411101550 METAR EGLL 101550Z 16007KT 9999 SCT019 12/09 Q1002 NOSIG=
201411101520 METAR COR EGLL 101520Z 18008KT 9999 VCSH FEW024CB 12/09 Q1002
                        NOSIG=
201411101450 METAR COR EGLL 101450Z 18010KT 150V240 9999 VCSH FEW030CB
                        12/09 Q1002 NOSIG=
201411101420 METAR COR EGLL 101420Z 19009KT 160V230 9999 FEW016 12/08
                        Q1003 TEMPO SHRA=
201411101350 METAR COR EGLL 101350Z 19010KT 160V250 9999 FEW033 SCT045
                        12/08 Q1003 TEMPO SHRA=
201411101320 METAR COR EGLL 101320Z 20009KT 150V240 9999 SCT045 12/09
                        Q1003 TEMPO SHRA=
201411101250 METAR COR EGLL 101250Z 19010KT 160V230 9999 SCT040 12/09
                        Q1003 TEMPO SHRA=
201411101220 METAR COR EGLL 101220Z 19011KT 150V230 9999 FEW030 12/08
                        Q1003 TEMPO SHRA=
201411101150 METAR COR EGLL 101150Z 20011KT 170V240 9999 FEW030 13/07
                        Q1004 TEMPO SHRA=
201411101120 METAR COR EGLL 101120Z 21011KT 170V240 9999 FEW018 13/08
                        Q1004 TEMPO SHRA=
201411101050 METAR EGLL 101050Z 23011KT CAVOK 12/08 Q1004 NOSIG=
201411101020 METAR COR EGLL 101020Z 22008KT CAVOK 11/08 Q1004 NOSIG=
201411100950 METAR COR EGLL 100950Z 21009KT CAVOK 10/08 Q1004 NOSIG=
201411100920 METAR COR EGLL 100920Z 21009KT 180V240 CAVOK 09/08 Q1004
                        NOSIG=
201411100850 METAR EGLL 100850Z 21008KT 180V240 CAVOK 09/07 Q1004 NOSIG=
201411100820 METAR COR EGLL 100820Z 21006KT 160V250 CAVOK 08/07 Q1004
                        NOSIG=
201411100750 METAR COR EGLL 100750Z 20007KT CAVOK 08/07 Q1004 NOSIG=
201411100720 METAR COR EGLL 100720Z 20007KT 170V230 CAVOK 08/07 Q1004
                        NOSIG=
201411100650 METAR EGLL 100650Z 21007KT 180V240 CAVOK 08/07 Q1004 NOSIG=
201411100620 METAR COR EGLL 100620Z 19007KT 150V280 CAVOK 08/06 Q1004
                        NOSIG=
201411100550 METAR COR EGLL 100550Z 19006KT 9999 FEW023 08/07 Q1004 NOSIG=
201411100520 METAR COR EGLL 100520Z 17006KT 9999 FEW022 08/07 Q1004 NOSIG=
201411100450 METAR EGLL 100450Z 17005KT 9999 FEW049 08/07 Q1004 NOSIG=
201411100420 METAR COR EGLL 100420Z VRB02KT 9999 FEW039 08/06 Q1004 NOSIG=
201411100350 METAR COR EGLL 100350Z 18002KT CAVOK 07/06 Q1004 NOSIG=
201411100320 METAR COR EGLL 100320Z 17004KT CAVOK 07/06 Q1004 NOSIG=
201411100250 METAR EGLL 100250Z 17005KT CAVOK 07/06 Q1004 NOSIG=
201411100220 METAR EGLL 100220Z AUTO 17005KT 9999 NCD 07/06 Q1004=
201411100150 METAR EGLL 100150Z AUTO 17005KT 9999 NCD 07/06 Q1004=
201411100120 METAR EGLL 100120Z AUTO 16006KT 9999 FEW025 07/06 Q1004=
201411100050 METAR EGLL 100050Z 18004KT 9000 FEW030 07/06 Q1005 NOSIG=
201411100020 METAR COR EGLL 100020Z 18004KT CAVOK 06/05 Q1005 NOSIG=
201411092350 METAR COR EGLL 092350Z 18005KT CAVOK 06/05 Q1005 NOSIG=
201411092320 METAR COR EGLL 092320Z 18004KT CAVOK 07/06 Q1005 NOSIG=
201411092250 METAR COR EGLL 092250Z 17006KT CAVOK 07/06 Q1005 NOSIG=
201411092220 METAR COR EGLL 092220Z 18007KT 130V250 CAVOK 08/06 Q1005
                        NOSIG=
201411092150 METAR EGLL 092150Z 17007KT 130V240 CAVOK 08/06 Q1005 NOSIG=
201411092120 METAR COR EGLL 092120Z 17006KT 140V230 CAVOK 08/06 Q1005
                        NOSIG=
201411092050 METAR EGLL 092050Z 19007KT 150V230 CAVOK 08/06 Q1005 NOSIG=
201411092020 METAR COR EGLL 092020Z 20006KT 180V240 CAVOK 09/06 Q1004
                        NOSIG=
201411091950 METAR EGLL 091950Z 20006KT 170V240 CAVOK 09/06 Q1004 NOSIG=
201411091920 METAR COR EGLL 091920Z 18006KT 140V240 CAVOK 09/06 Q1005
                        NOSIG=
201411091850 METAR EGLL 091850Z 18005KT 150V250 CAVOK 09/06 Q1005 NOSIG=
201411091820 METAR COR EGLL 091820Z 18006KT 140V230 CAVOK 09/06 Q1005
                        TEMPO SHRA=
201411091750 METAR EGLL 091750Z 18006KT 130V240 9999 FEW048 10/06 Q1005
                        TEMPO SHRA=
201411091720 METAR COR EGLL 091720Z 20005KT 170V240 CAVOK 11/05 Q1005
                        NOSIG=
201411091650 METAR EGLL 091650Z 18006KT 150V240 9999 FEW024 11/05 Q1005
                        NOSIG=
201411091620 METAR COR EGLL 091620Z 20007KT 170V250 9999 FEW028 11/05
                        Q1004 NOSIG=
201411091550 METAR COR EGLL 091550Z 21007KT 180V250 9999 FEW028 12/05
                        Q1004 NOSIG=
201411091520 METAR COR EGLL 091520Z 21008KT 170V250 9999 FEW032 12/05
                        Q1004 NOSIG=
201411091450 METAR EGLL 091450Z 23008KT 200V260 9999 FEW032 13/05 Q1004
                        TEMPO SHRA=
201411091420 METAR COR EGLL 091420Z 23008KT 200V270 9999 FEW028 13/05
                        Q1004 TEMPO SHRA=
201411091350 METAR COR EGLL 091350Z 21007G17KT 150V260 9999 FEW028 13/06
                        Q1004 TEMPO SHRA=
201411091320 METAR COR EGLL 091320Z 21008KT 170V240 9999 FEW023 13/06
                        Q1004 TEMPO SHRA=
201411091250 METAR COR EGLL 091250Z 24007KT 9999 FEW018 12/08 Q1004 NOSIG=
201411091220 METAR COR EGLL 091220Z 22004KT 160V260 9999 FEW016 13/08
                        Q1004 NOSIG=
201411091150 METAR EGLL 091150Z 22005KT 180V250 9999 FEW016 12/08 Q1004
                        NOSIG=
201411091120 METAR COR EGLL 091120Z 20005KT 160V230 CAVOK 10/08 Q1004
                        NOSIG=
201411091050 METAR EGLL 091050Z 22004KT 170V240 CAVOK 09/07 Q1004 NOSIG=
201411091020 METAR COR EGLL 091020Z 24004KT 190V260 CAVOK 09/07 Q1004
                        NOSIG=
201411090950 METAR EGLL 090950Z 27005KT 230V290 CAVOK 08/07 Q1003 NOSIG=
201411090920 METAR COR EGLL 090920Z VRB03KT 9000 NSC 08/07 Q1003 NOSIG=
201411090850 METAR COR EGLL 090850Z 26004KT 220V280 8000 VCFG NSC 08/07
                        Q1003 NOSIG=
201411090820 METAR COR EGLL 090820Z 29003KT 8000 2000N VCFG NSC 07/07
                        Q1003 NOSIG=
201411090750 METAR EGLL 090750Z VRB03KT 9000 1700N VCFG FEW001 07/06 Q1003
                        NOSIG=
201411090720 METAR COR EGLL 090720Z 00000KT 7000 1700N VCFG FEW001 07/06
                        Q1002 TEMPO 0500 FG BKN001=
201411090650 METAR EGLL 090650Z VRB02KT 6000 1400W VCFG NSC 07/07 Q1002
                        TEMPO 1200 BR=
201411090620 METAR COR EGLL 090620Z VRB02KT 4200 BR SCT001 07/07 Q1001
                        TEMPO 1200 BKN001=
201411090550 METAR EGLL 090550Z 29003KT 0800 R27R/P1500 R27L/P1500 FG
                        BKN001 07/07 Q1001 NOSIG=
201411090520 METAR COR EGLL 090520Z 30003KT 1200 0500N R27L/P1500 FG FEW001
                        BKN002 08/07 Q1001 TEMPO 0600 FG
                        BKN001=
201411090450 METAR EGLL 090450Z 29004KT 1600 0500N R27L/P1500 BR BKN002
                        08/08 Q1001 TEMPO 0800 FG BKN001=
201411090420 METAR COR EGLL 090420Z 30004KT 2900 BR SCT002 08/08 Q1001
                        TEMPO 800 FG BKN002=
201411090350 METAR EGLL 090350Z 29003KT 4500 BR NSC 09/08 Q1001 NOSIG=
201411090320 METAR COR EGLL 090320Z 00000KT 4800 BR NSC 08/08 Q1001 NOSIG=
201411090250 METAR EGLL 090250Z 00000KT 4800 BR NSC 09/08 Q1001 NOSIG=
201411090220 METAR EGLL 090220Z AUTO 00000KT 5000 NCD 09/09 Q1001=
201411090150 METAR EGLL 090150Z AUTO 00000KT 5000 NCD 10/09 Q1001=
201411090120 METAR EGLL 090120Z AUTO 20002KT 6000 NCD 10/09 Q1001=
201411090050 METAR COR EGLL 090050Z 18002KT 4900 BR NSC 10/09 Q1001 NOSIG=
201411090020 METAR COR EGLL 090020Z 16002KT 6000 NSC 10/09 Q1001 NOSIG=
201411082350 METAR EGLL 082350Z 22003KT 6000 NSC 10/09 Q1001 NOSIG=
201411082320 METAR COR EGLL 082320Z 22003KT 7000 NSC 10/09 Q1001 NOSIG=
201411082250 METAR EGLL 082250Z 22005KT 190V260 7000 NSC 10/09 Q1001 NOSIG=
201411082220 METAR COR EGLL 082220Z 22007KT 180V260 7000 FEW049 10/09
                        Q1000 NOSIG=
201411082150 METAR EGLL 082150Z 22007KT 170V270 8000 FEW010 11/10 Q1000
                        NOSIG=
201411082120 METAR COR EGLL 082120Z 21008KT 170V250 9999 FEW015 11/10
                        Q1000 NOSIG=
201411082050 METAR COR EGLL 082050Z 18007KT 170V230 7000 FEW025 11/10
                        Q1000 NOSIG=
201411082020 METAR COR EGLL 082020Z 18007KT 140V230 6000 -RA FEW030 11/10
                        Q1000 NOSIG=
201411081950 METAR EGLL 081950Z 17007KT 140V220 7000 -RA FEW045 11/10
                        Q1000 NOSIG=
201411081920 METAR COR EGLL 081920Z 21009KT 180V260 9999 -RA SCT039 11/10
                        Q1000 RERA TEMPO RA=
201411081850 METAR EGLL 081850Z 20007KT 170V260 8000 RA SCT041 SCT048
                        11/10 Q0999 TEMPO -RA=
201411081820 METAR COR EGLL 081820Z 21008KT 180V250 9999 -RA FEW012 SCT048
                        12/10 Q0999 TEMPO RA BKN012=
201411081750 METAR COR EGLL 081750Z 21008KT 170V240 9999 -RA FEW012 SCT048
                        12/10 Q0999 RERA TEMPO RA BKN012=
201411081720 METAR COR EGLL 081720Z 22008KT 180V250 9999 RA FEW014CB SCT037
                        12/11 Q0999 RERA TEMPO 4500 +RA=
201411081650 METAR EGLL 081650Z 19013KT 160V230 9999 -RA SCT029CB SCT046
                        12/10 Q0999 RERA TEMPO RA=
201411081620 METAR COR EGLL 081620Z 18015KT 160V230 9999 -RA FEW020 BKN037
                        14/10 Q0998 BECMG RA=
201411081550 METAR EGLL 081550Z 19015KT 160V230 9999 -RA FEW024 SCT032
                        14/10 Q0998 BECMG RA=
201411081520 METAR COR EGLL 081520Z 19017G27KT 160V230 9999 SCT030 SCT040
                        14/10 Q0998 BECMG RA=
201411081450 METAR EGLL 081450Z 18018KT 9999 SCT026 SCT036 BKN041 14/10
                        Q0998 BECMG RA=
201411081420 METAR COR EGLL 081420Z 19016KT 9999 SCT024 SCT030 BKN040
                        14/10 Q0998 TEMPO RA=
201411081350 METAR EGLL 081350Z 18017G28KT 9999 BKN024 BKN030 14/10 Q0998
                        TEMPO RA=
201411081320 METAR COR EGLL 081320Z 19018KT 9999 BKN022 BKN030 14/10 Q0999
                        TEMPO RA=
201411081250 METAR COR EGLL 081250Z 18015KT 9999 -RA SCT025 BKN033 14/10
                        Q0999 NOSIG=
201411081220 METAR COR EGLL 081220Z 18018G28KT 9999 FEW020 SCT031 14/10
                        Q0999 NOSIG=
201411081150 METAR COR EGLL 081150Z 18014KT 150V210 9999 SCT025 BKN030
                        14/10 Q1000 NOSIG=
201411081120 METAR COR EGLL 081120Z 18014G26KT 9999 BKN017 BKN025 13/10
                        Q1000 NOSIG=
201411081050 METAR EGLL 081050Z 18014KT 9999 -RA FEW017 BKN047 13/10 Q1001
                        TEMPO SHRA=
201411081020 METAR COR EGLL 081020Z 18017KT 9999 SCT020 13/10 Q1001 TEMPO
                        SHRA=
201411080950 METAR EGLL 080950Z 18017KT 9999 SCT020 SCT049 13/09 Q1001
                        TEMPO SHRA=
201411080920 METAR COR EGLL 080920Z 17012KT 9999 FEW022 SCT044 13/10 Q1001
                        NOSIG=
201411080850 METAR EGLL 080850Z 16011KT 9999 FEW037 SCT042 11/09 Q1002
                        NOSIG=
201411080820 METAR COR EGLL 080820Z 15010KT 9999 FEW036 10/08 Q1002 NOSIG=
201411080750 METAR EGLL 080750Z 15009KT 9999 FEW048 10/08 Q1002 NOSIG=
201411080720 METAR COR EGLL 080720Z 17007KT 140V210 9999 FEW048 09/07
                        Q1002 NOSIG=
201411080650 METAR COR EGLL 080650Z 17009KT 140V210 9999 FEW048 09/07
                        Q1002 NOSIG=
201411080620 METAR COR EGLL 080620Z 18008KT 160V220 9999 FEW048 09/06
                        Q1002 NOSIG=
201411080550 METAR EGLL 080550Z 18006KT CAVOK 08/06 Q1002 NOSIG=
201411080520 METAR COR EGLL 080520Z 20007KT CAVOK 08/06 Q1002 NOSIG=
201411080450 METAR EGLL 080450Z 19006KT CAVOK 07/06 Q1002 NOSIG=
201411080420 METAR COR EGLL 080420Z 19006KT CAVOK 07/05 Q1002 NOSIG=
201411080350 METAR COR EGLL 080350Z 19007KT CAVOK 08/06 Q1002 NOSIG=
201411080320 METAR COR EGLL 080320Z 19006KT CAVOK 07/06 Q1002 NOSIG=
201411080250 METAR EGLL 080250Z 20007KT CAVOK 08/06 Q1002 NOSIG=
201411080220 METAR EGLL 080220Z AUTO 20006KT 9999 NCD 08/06 Q1002=
201411080150 METAR EGLL 080150Z AUTO 21006KT 9999 NCD 09/06 Q1002=
201411080120 METAR EGLL 080120Z AUTO 22009KT 9999 NCD 09/06 Q1001=
201411080050 METAR COR EGLL 080050Z 23011KT CAVOK 09/06 Q1001 NOSIG=
201411080020 METAR COR EGLL 080020Z 22011KT CAVOK 09/06 Q1001 NOSIG=
201411072350 METAR EGLL 072350Z 22010KT CAVOK 09/06 Q1000 NOSIG=
201411072320 METAR COR EGLL 072320Z 23011KT CAVOK 09/06 Q1000 NOSIG=
201411072250 METAR EGLL 072250Z 23010KT CAVOK 09/07 Q1000 NOSIG=
201411072220 METAR COR EGLL 072220Z 23010KT CAVOK 09/06 Q1000 NOSIG=
201411072150 METAR EGLL 072150Z 23011KT CAVOK 08/06 Q0999 NOSIG=
201411072120 METAR COR EGLL 072120Z 22009KT CAVOK 09/06 Q0999 NOSIG=
201411072050 METAR EGLL 072050Z 21011KT CAVOK 09/06 Q0999 NOSIG=
201411072020 METAR COR EGLL 072020Z 21009KT CAVOK 09/06 Q0998 NOSIG=
201411071950 METAR COR EGLL 071950Z 21008KT CAVOK 09/06 Q0998 NOSIG=
201411071920 METAR COR EGLL 071920Z 22009KT CAVOK 09/06 Q0998 NOSIG=
201411071850 METAR EGLL 071850Z 21009KT CAVOK 09/06 Q0998 NOSIG=
201411071820 METAR COR EGLL 071820Z 21009KT 9999 FEW035 09/06 Q0997 NOSIG=
201411071750 METAR EGLL 071750Z 21009KT 9999 FEW035CB 10/06 Q0997 NOSIG=
201411071720 METAR COR EGLL 071720Z 21009KT 9999 FEW040CB 10/06 Q0996
                        NOSIG=
201411071650 METAR EGLL 071650Z 23008KT 9999 FEW037 10/06 Q0996 NOSIG=
201411071620 METAR COR EGLL 071620Z 23010KT 9999 FEW038CB 10/06 Q0996
                        NOSIG=
201411071550 METAR EGLL 071550Z 25012KT 9999 SCT040 SCT045 11/06 Q0995
                        NOSIG=
201411071520 METAR COR EGLL 071520Z 24012KT 9999 SCT040 11/06 Q0995 TEMPO
                        SHRA=
201411071450 METAR EGLL 071450Z 25014KT 9999 SCT028 SCT034 10/06 Q0995
                        TEMPO SHRA=
201411071420 METAR COR EGLL 071420Z 26018KT 9999 SCT030 11/05 Q0994 TEMPO
                        SHRA=
201411071350 METAR COR EGLL 071350Z 24019KT 9999 SCT032 11/05 Q0994 TEMPO
                        SHRA=
201411071320 METAR COR EGLL 071320Z 24023KT 9999 BKN032 12/06 Q0993 TEMPO
                        SHRA=
201411071250 METAR EGLL 071250Z 23018KT 9999 SCT030 SCT040 12/06 Q0992
                        TEMPO SHRA=
201411071220 METAR EGLL 071220Z 24017KT 9999 SCT035 SCT038 12/06 Q0992=
201411071150 METAR EGLL 071150Z 23020KT 9999 FEW028 SCT037 13/07 Q0992
                        NOSIG=
201411071120 METAR COR EGLL 071120Z 24015KT 9999 SCT024 SCT030 12/07 Q0992
                        NOSIG=
201411071050 METAR EGLL 071050Z 22019KT 9999 BKN020 12/08 Q0991 NOSIG=
201411071020 METAR COR EGLL 071020Z 21015KT 9999 BKN018 12/09 Q0991 TEMPO
                        SHRA=
201411070950 METAR COR EGLL 070950Z 20013G23KT 9999 FEW018 SCT022 13/10
                        Q0990 TEMPO SHRA=
201411070920 METAR COR EGLL 070920Z 21012KT 9999 FEW019 13/10 Q0990 NOSIG=
201411070850 METAR EGLL 070850Z 20012KT 9999 FEW029 12/10 Q0990 NOSIG=
201411070820 METAR COR EGLL 070820Z 19011KT 9999 VCSH FEW020 12/10 Q0990
                        TEMPO SHRA=
201411070750 METAR EGLL 070750Z 21010KT 9999 FEW010 12/11 Q0989 TEMPO
                        RA BKN012=
201411070720 METAR COR EGLL 070720Z 21011KT 9999 -SHRA FEW008 SCT033CB
                        13/11 Q0989 TEMPO RA BKN012=
201411070650 METAR COR EGLL 070650Z 21007KT 170V240 7000 -RA SCT012 SCT028CB
                        13/12 Q0989 TEMPO RA=
201411070620 METAR COR EGLL 070620Z 18011KT 9999 -RA FEW013 SCT030 13/11
                        Q0989 TEMPO 4500 SHRA BKN012=
201411070550 METAR COR EGLL 070550Z 17012KT 9999 -RA FEW008 13/12 Q0989
                        RERA NOSIG=
201411070520 METAR COR EGLL 070520Z 19014KT 9999 -RA FEW008 SCT020 13/12
                        Q0990 RERA TEMPO 4500 RA BKN010=
201411070450 METAR EGLL 070450Z 17013KT 6000 RA FEW006 BKN009 13/12 Q0990
                        RERA TEMPO 4000 RADZ=
201411070420 METAR COR EGLL 070420Z 17010KT 5000 RA FEW008 BKN010 13/12
                        Q0990 RERA REDZ TEMPO BKN007=
201411070350 METAR COR EGLL 070350Z 16011KT 9999 -RADZ SCT011 BKN016 13/11
                        Q0991 BECMG 4500 RA BKN010=
201411070320 METAR COR EGLL 070320Z 17015KT 9999 FEW012 SCT020 13/11 Q0992
                        TEMPO 4000 RA BKN009=
201411070250 METAR COR EGLL 070250Z 17014KT 9999 -RADZ BKN013 13/11 Q0992
                        REDZ TEMPO 4000 RA BKN007=
201411070220 METAR EGLL 070220Z AUTO 17012KT 9999 FEW006 OVC010 13/11
                        Q0993=
201411070150 METAR EGLL 070150Z AUTO 15009KT 3300 -RA SCT006 BKN010 12/11
                        Q0993 RERA REDZ=
201411070120 METAR EGLL 070120Z AUTO 16013KT 5000 -RA OVC007 12/11 Q0994
                        REDZ=
201411070050 METAR COR EGLL 070050Z 15011KT 9000 -RADZ FEW006 BKN009 12/11
                        Q0995 RERA REDZ TEMPO SCT009 BKN010=
201411070020 METAR COR EGLL 070020Z 15012KT 6000 RADZ FEW006 BKN009 11/10
                        Q0996 RERA REDZ TEMPO SCT009 BKN012=
201411062350 METAR COR EGLL 062350Z 15012KT 7000 -RADZ FEW007 BKN009 11/10
                        Q0996 RERA REDZ TEMPO SCT009 BKN012=
201411062320 METAR COR EGLL 062320Z 16012KT 5000 RADZ FEW008 BKN011 11/10
                        Q0997 TEMPO BKN009=
201411062250 METAR EGLL 062250Z 16013KT 9999 FEW009 BKN011 11/10 Q0998
                        TEMPO 4500 RADZ BKN009=
201411062220 METAR COR EGLL 062220Z 16011KT 7000 -RADZ FEW006 BKN010 11/10
                        Q0999 RERA REDZ TEMPO 4500 RADZ BKN009=
201411062150 METAR EGLL 062150Z 15011KT 9000 -RADZ FEW006 BKN011 10/09
                        Q0999 RERA TEMPO 4500 RADZ BKN009=
201411062120 METAR COR EGLL 062120Z 16013KT 7000 -RADZ SCT009 BKN013 11/09
                        Q1000 TEMPO 4500 RADZ BKN009=
201411062050 METAR COR EGLL 062050Z 17015KT 8000 VCSH BKN013 11/09 Q1000
                        TEMPO 4500 RADZ=
201411062020 METAR COR EGLL 062020Z 17013KT 9999 BKN015 11/08 Q1001 TEMPO
                        4500 RA BKN012=
201411061950 METAR EGLL 061950Z 17011KT 9999 SCT021 SCT031 12/08 Q1001
                        BECMG BKN014=
201411061920 METAR COR EGLL 061920Z 17011KT 9999 SCT023 SCT034 11/07 Q1002
                        BECMG BKN014=
201411061850 METAR EGLL 061850Z 16012KT 9999 SCT025 BKN035 11/07 Q1002
                        BECMG BKN012=
201411061820 METAR COR EGLL 061820Z 17012KT 9999 FEW030 11/07 Q1003 BECMG
                        BKN012=
201411061750 METAR EGLL 061750Z 16011KT 9999 -RA NSC 11/07 Q1003 BECMG
                        BKN012=
201411061720 METAR COR EGLL 061720Z 16012KT 9999 -RA NSC 11/06 Q1003 BECMG
                        BKN012=
201411061650 METAR EGLL 061650Z 17011KT CAVOK 11/06 Q1004 NOSIG=
201411061620 METAR COR EGLL 061620Z 17011KT CAVOK 11/06 Q1004 NOSIG=
201411061550 METAR EGLL 061550Z 17012KT CAVOK 11/06 Q1004 NOSIG=
201411061520 METAR COR EGLL 061520Z 18011KT 9999 FEW024 11/05 Q1005 NOSIG=
201411061450 METAR EGLL 061450Z 18012KT 9999 FEW024 12/06 Q1005 NOSIG=
201411061420 METAR COR EGLL 061420Z 18014KT 9999 FEW020 12/06 Q1006 NOSIG=
201411061350 METAR EGLL 061350Z 19011KT 9999 FEW030 12/07 Q1006 NOSIG=
201411061320 METAR COR EGLL 061320Z 19013KT 9999 FEW030 12/07 Q1006 NOSIG=
201411061250 METAR COR EGLL 061250Z 18010KT 9999 FEW038 12/07 Q1007 NOSIG=
201411061220 METAR COR EGLL 061220Z 17010KT 9999 FEW030 11/06 Q1007 NOSIG=
201411061150 METAR EGLL 061150Z 17011KT CAVOK 12/06 Q1007=
201411061120 METAR COR EGLL 061120Z 16010KT CAVOK 11/06 Q1008 NOSIG=
201411061050 METAR EGLL 061050Z 16009KT CAVOK 10/05 Q1008 NOSIG=
201411061020 METAR COR EGLL 061020Z 16007KT 120V200 CAVOK 09/05 Q1009
                        NOSIG=
201411060950 METAR COR EGLL 060950Z 15007KT 110V200 CAVOK 07/04 Q1009
                        NOSIG=
201411060920 METAR COR EGLL 060920Z 13004KT 080V180 8000 MIFG NSC 06/03
                        Q1009 NOSIG=
201411060850 METAR COR EGLL 060850Z VRB03KT 7000 3000SW BCFG NSC 04/03
                        Q1010 BECMG 9999 NSW=
201411060820 METAR COR EGLL 060820Z VRB03KT 5000 BCFG NSC 02/01 Q1010
                        NOSIG=
201411060750 METAR EGLL 060750Z VRB03KT 5000 2000NW BCFG NSC 01/00 Q1010
                        TEMPO 1200 BCFG BKN002=
201411060720 METAR COR EGLL 060720Z VRB03KT 4500 1900W BCFG NSC 01/00
                        Q1010 TEMPO 1200 BCFG BKN002=
201411060650 METAR COR EGLL 060650Z VRB03KT 4000 1500SW BCFG FEW001 01/00
                        Q1010 TEMPO 1400 MIFG BKN002=
201411060620 METAR COR EGLL 060620Z VRB03KT 6000 BCFG FEW001 01/01 Q1010
                        TEMPO 1400 BCFG BKN002=
201411060550 METAR EGLL 060550Z 14002KT 5000 BR BCFG FEW001 01/01 Q1010
                        TEMPO 4000 BCFG BKN002=
201411060520 METAR COR EGLL 060520Z 11003KT 4500 BCFG BR FEW001 02/01
                        Q1010 TEMPO 1400 MIFG BKN002=
201411060450 METAR EGLL 060450Z 18003KT 4500 BR BCFG FEW001 01/01 Q1010
                        TEMPO 1400 MIFG BKN002=
201411060420 METAR COR EGLL 060420Z 00000KT 4500 BR MIFG FEW002 02/02
                        Q1010 TEMPO 1400 BKN002=
201411060350 METAR COR EGLL 060350Z VRB02KT 3100 1500SE BR PRFG FEW002
                        02/01 Q1010 TEMPO 1400 BKN002=
201411060320 METAR COR EGLL 060320Z 00000KT 3500 BR NSC 02/02 Q1010 TEMPO
                        1400 MIFG=
201411060250 METAR COR EGLL 060250Z 00000KT 4500 BR NSC 01/01 Q1010 TEMPO
                        1400 MIFG=
201411060220 METAR EGLL 060220Z AUTO 31002KT 4600 BR NCD 02/01 Q1010=
201411060150 METAR EGLL 060150Z AUTO 30003KT 6000 NCD 03/02 Q1010=
201411060120 METAR EGLL 060120Z AUTO 00000KT 7000 NCD 02/01 Q1010=
201411060050 METAR EGLL 060050Z 27004KT 7000 NSC 03/02 Q1010 TEMPO 4000
                        BR=
201411060020 METAR COR EGLL 060020Z 27004KT 7000 NSC 03/02 Q1010 TEMPO
                        4000 BR=
201411052350 METAR COR EGLL 052350Z 29003KT 7000 NSC 03/02 Q1010 TEMPO
                        4000 BR=
201411052320 METAR COR EGLL 052320Z 29004KT 7000 NSC 03/02 Q1010 TEMPO
                        4000 BR=
201411052250 METAR EGLL 052250Z 30004KT 7000 NSC 04/02 Q1010 TEMPO 4000
                        BR FU=
201411052220 METAR COR EGLL 052220Z 29004KT 6000 NSC 04/03 Q1010 TEMPO
                        4000 FU BR=
201411052150 METAR EGLL 052150Z 30005KT 9000 NSC 05/03 Q1010 NOSIG=
201411052120 METAR COR EGLL 052120Z 29005KT CAVOK 05/03 Q1009 NOSIG=
201411052050 METAR EGLL 052050Z 30004KT CAVOK 06/03 Q1009 NOSIG=
201411052020 METAR COR EGLL 052020Z 30004KT CAVOK 06/03 Q1009 NOSIG=
201411051950 METAR EGLL 051950Z 35002KT CAVOK 06/04 Q1009 NOSIG=
201411051920 METAR COR EGLL 051920Z VRB02KT CAVOK 07/04 Q1009 NOSIG=
201411051850 METAR EGLL 051850Z VRB03KT 9999 FEW044 08/04 Q1009 NOSIG=
201411051820 METAR COR EGLL 051820Z 31004KT 9999 SCT045 08/04 Q1009 NOSIG=
201411051750 METAR EGLL 051750Z 30005KT 9999 FEW038 SCT045 09/05 Q1008
                        NOSIG=
201411051720 METAR COR EGLL 051720Z 32005KT 300V360 9999 FEW035 SCT044
                        09/05 Q1008 NOSIG=
201411051650 METAR EGLL 051650Z 33006KT 9999 SCT040 09/05 Q1007 NOSIG=
201411051620 METAR COR EGLL 051620Z 32005KT 300V360 9999 FEW030 SCT043
                        10/05 Q1007 NOSIG=
201411051550 METAR EGLL 051550Z 34005KT 310V030 9999 FEW029 SCT045 10/05
                        Q1006 NOSIG=
201411051520 METAR COR EGLL 051520Z 34005KT 310V020 9999 FEW029 SCT032
                        11/06 Q1006 NOSIG=
201411051450 METAR EGLL 051450Z 33007KT 300V010 9999 SCT027 SCT035 11/06
                        Q1006 NOSIG=
201411051420 METAR COR EGLL 051420Z 33006KT 300V010 9999 VCSH SCT022 SCT027
                        11/06 Q1006 NOSIG=
201411051350 METAR EGLL 051350Z 33008KT 300V010 9999 -SHRA SCT023 SCT025
                        11/06 Q1005 NOSIG=
201411051320 METAR COR EGLL 051320Z 33007KT 9999 FEW024 SCT045 10/07 Q1005
                        NOSIG=
201411051250 METAR EGLL 051250Z 29006KT 9999 FEW020 BKN023 10/07 Q1005
                        NOSIG=
201411051220 METAR COR EGLL 051220Z 32006KT 280V350 9999 SCT014 BKN021
                        09/07 Q1005 NOSIG=
201411051150 METAR EGLL 051150Z 31007KT 9000 FEW010 BKN016 08/06 Q1005
                        NOSIG=
201411051120 METAR COR EGLL 051120Z 31007KT 9000 BKN011 08/06 Q1005 BECMG
                        SCT015=
201411051050 METAR EGLL 051050Z 33007KT 9000 BKN011 07/05 Q1005 BECMG
                        SCT012=
201411051020 METAR COR EGLL 051020Z 31007KT 280V010 9000 FEW012 SCT015
                        08/05 Q1004 NOSIG=
201411050950 METAR EGLL 050950Z 31007KT 8000 FEW012 07/05 Q1004 NOSIG=
201411050920 METAR COR EGLL 050920Z 30006KT 7000 FEW008 06/05 Q1004 NOSIG=
201411050850 METAR EGLL 050850Z 30006KT 7000 FEW010 06/05 Q1003 NOSIG=
201411050820 METAR COR EGLL 050820Z 28006KT 7000 FEW049 06/05 Q1003 NOSIG=
201411050750 METAR COR EGLL 050750Z 31005KT 7000 SCT045 06/05 Q1003 NOSIG=
201411050720 METAR COR EGLL 050720Z 31004KT 270V350 7000 FEW033 SCT037
                        06/04 Q1002 NOSIG=
201411050650 METAR EGLL 050650Z 31004KT 280V350 7000 FEW041 05/04 Q1002
                        NOSIG=
201411050620 METAR COR EGLL 050620Z 31005KT 8000 NSC 06/04 Q1001 NOSIG=
201411050550 METAR COR EGLL 050550Z 30004KT 7000 NSC 05/04 Q1001 NOSIG=
201411050520 METAR COR EGLL 050520Z 30005KT 7000 NSC 05/04 Q1001 NOSIG=
201411050450 METAR EGLL 050450Z 30004KT 7000 NSC 05/04 Q1000 NOSIG=
201411050420 METAR COR EGLL 050420Z 29005KT 8000 NSC 05/04 Q1000 TEMPO
                        BKN008=
201411050350 METAR EGLL 050350Z 30005KT 8000 NSC 05/04 Q1000 TEMPO BKN008=
201411050320 METAR COR EGLL 050320Z 30004KT 8000 FEW049 06/05 Q1000 TEMPO
                        BKN008=
201411050250 METAR EGLL 050250Z VRB03KT 8000 SCT047 06/05 Q0999 TEMPO
                        BKN006=
201411050220 METAR EGLL 050220Z AUTO VRB03KT 9000 NCD 06/05 Q0999=
201411050150 METAR EGLL 050150Z AUTO VRB03KT 9000 NCD 06/05 Q0999=
201411050120 METAR EGLL 050120Z AUTO 31003KT 9999 NCD 07/06 Q0999=
201411050050 METAR EGLL 050050Z 31004KT 9999 SCT043 07/06 Q0999 TEMPO
                        4000 BR=
201411050020 METAR COR EGLL 050020Z 29006KT 9000 SCT030 07/06 Q0999 TEMPO
                        4000 BR=
201411042350 METAR EGLL 042350Z 00000KT 9999 -RA SCT030 07/06 Q0998 TEMPO
                        4000 RA=
201411042320 METAR COR EGLL 042320Z VRB03KT 9000 -RA FEW035 BKN040 07/06
                        Q0998 TEMPO 4000 SHRA=
201411042250 METAR COR EGLL 042250Z VRB02KT 9999 -RA FEW022 BKN030 08/06
                        Q0998 RERA TEMPO 4000 SHRA=
201411042220 METAR COR EGLL 042220Z 36004KT 330V030 8000 RA FEW022 BKN025
                        08/07 Q0998 TEMPO 4000 BR=
201411042150 METAR COR EGLL 042150Z 32004KT 300V360 7000 RA BKN028 07/06
                        Q0997 TEMPO 4000 BR=
201411042120 METAR COR EGLL 042120Z 31004KT 8000 -RA FEW022 BKN032 07/06
                        Q0997 TEMPO 4000 BR=
201411042050 METAR EGLL 042050Z 29004KT 9999 -RA BKN030 07/06 Q0997 NOSIG=
201411042020 METAR COR EGLL 042020Z 31004KT 9999 -RA BKN030 07/06 Q0996
                        NOSIG=
201411041950 METAR COR EGLL 041950Z 32005KT 290V350 9999 -RA FEW030 BKN034
                        07/05 Q0996 NOSIG=
201411041920 METAR COR EGLL 041920Z 33004KT 300V360 9999 -SHRA BKN032
                        07/06 Q0996 NOSIG=
201411041850 METAR EGLL 041850Z 32003KT 9999 -SHRA FEW027 BKN033 07/06
                        Q0996 NOSIG=
201411041820 METAR COR EGLL 041820Z 36004KT 320V030 9999 -SHRA BKN030
                        07/06 Q0995 RESHRA NOSIG=
201411041750 METAR COR EGLL 041750Z VRB03KT 9999 SHRA FEW021CB SCT036
                        BKN039 07/06 Q0995 BECMG NSW=
201411041720 METAR COR EGLL 041720Z VRB03KT 9000 SHRA SCT025CB BKN036
                        08/06 Q0995 BECMG NSW=
201411041650 METAR EGLL 041650Z 36002KT 9999 -SHRA FEW010 FEW021CB BKN036
                        08/06 Q0995 NOSIG=
201411041620 METAR COR EGLL 041620Z VRB02KT 6000 -SHRA FEW010 BKN021 07/06
                        Q0994 RERA NOSIG=
201411041550 METAR COR EGLL 041550Z 29005KT 5000 RA FEW006 SCT022 BKN037CB
                        08/07 Q0994 RETS BECMG NSW=
201411041520 METAR COR EGLL 041520Z 27011KT 4800 TSRA SCT021 BKN034CB
                        08/07 Q0994 BECMG 03005KT 6000 NSW=
201411041450 METAR COR EGLL 041450Z 11005KT 9000 4000SW TSRA SCT035CB
                        11/05 Q0993 RESHRA BECMG NSW=
201411041420 METAR COR EGLL 041420Z 12004KT 070V170 9999 VCSH FEW030 11/04
                        Q0993 TEMPO SHRA=
201411041350 METAR EGLL 041350Z 13006KT 090V160 9999 VCSH FEW030 12/05
                        Q0993 TEMPO SHRA=
201411041320 METAR COR EGLL 041320Z VRB04KT 9999 FEW028 12/05 Q0993 NOSIG=
201411041250 METAR EGLL 041250Z VRB03KT 9999 FEW028 12/05 Q0993 NOSIG=
201411041220 METAR COR EGLL 041220Z VRB03KT 9999 FEW024 11/05 Q0993 NOSIG=
201411041150 METAR EGLL 041150Z VRB02KT 9999 FEW012 11/07 Q0993 NOSIG=
201411041120 METAR COR EGLL 041120Z VRB02KT 9000 FEW008 09/07 Q0993 NOSIG=
201411041050 METAR EGLL 041050Z VRB03KT 9000 3800SW BR NSC 08/07 Q0993
                        NOSIG=
201411041020 METAR COR EGLL 041020Z VRB02KT 8000 1700SW BR FEW000 06/06
                        Q0993 NOSIG=
201411040950 METAR COR EGLL 040950Z VRB02KT 0400 R27R/1300 R27L/0700 FG
                        FEW000 SCT001 05/05 Q0993 BECMG 3000
                        BR=
201411040920 METAR COR EGLL 040920Z 29004KT 0250 R27R/0450 R27L/0375 FG
                        FEW000 BKN001 05/04 Q0993 BECMG 3000
                        BR SCT002=
201411040850 METAR EGLL 040850Z 25004KT 220V360 4000 0300SW R27R/P1500
                        R27L/1400 FG SCT001 03/03 Q0992 TEMPO
                        0400 FG BKN002=
201411040820 METAR COR EGLL 040820Z 00000KT 8000 2000SW VCFG NSC 04/03
                        Q0992 TEMPO 4000 BR=
201411040750 METAR EGLL 040750Z 00000KT 9000 2000SW BCFG NSC 04/03 Q0992
                        TEMPO 2000 MIFG=
201411040720 METAR EGLL 040720Z 00000KT 9999 1000SW R27L/P1500 BCFG NSC
                        04/03 Q0991 TEMPO 2000 MIFG=
201411040650 METAR EGLL 040650Z 00000KT CAVOK 04/04 Q0991 TEMPO 4000 BR=
201411040620 METAR COR EGLL 040620Z VRB02KT CAVOK 05/04 Q0991 NOSIG=
201411040550 METAR COR EGLL 040550Z VRB02KT CAVOK 05/04 Q0990 NOSIG=
201411040520 METAR COR EGLL 040520Z 28005KT 9999 FEW049 05/04 Q0990 NOSIG=
201411040450 METAR COR EGLL 040450Z 24004KT 9999 SCT041 BKN048 06/05 Q0990
                        NOSIG=
201411040420 METAR COR EGLL 040420Z 29002KT 9999 SCT041 BKN048 06/05 Q0990
                        NOSIG=
201411040350 METAR COR EGLL 040350Z VRB02KT 9999 SCT047 06/05 Q0990 NOSIG=
201411040320 METAR COR EGLL 040320Z VRB02KT 9999 SCT045 05/04 Q0990 NOSIG=
201411040250 METAR EGLL 040250Z AUTO 00000KT 9999 NCD 06/05 Q0989=
201411040220 METAR EGLL 040220Z AUTO 00000KT 9999 -RA SCT044 06/05 Q0989=
201411040150 METAR EGLL 040150Z AUTO 19003KT 9999 NCD 06/04 Q0989=
201411040120 METAR COR EGLL 040120Z 17004KT CAVOK 05/04 Q0989 NOSIG=
201411040050 METAR COR EGLL 040050Z 17005KT CAVOK 06/05 Q0989 NOSIG=
201411040020 METAR COR EGLL 040020Z 19004KT CAVOK 06/05 Q0989 NOSIG=
201411032350 METAR COR EGLL 032350Z 18005KT CAVOK 06/05 Q0989 NOSIG=
201411032320 METAR COR EGLL 032320Z 19004KT CAVOK 06/05 Q0989 TEMPO SHRA=
201411032250 METAR COR EGLL 032250Z 20005KT CAVOK 06/05 Q0989 NOSIG=
201411032220 METAR COR EGLL 032220Z 20007KT 170V250 CAVOK 07/05 Q0989
                        NOSIG=
201411032150 METAR EGLL 032150Z 21005KT 160V250 CAVOK 07/05 Q0989 NOSIG=
201411032120 METAR COR EGLL 032120Z 21006KT 170V250 CAVOK 07/05 Q0989
                        NOSIG=
201411032050 METAR COR EGLL 032050Z 22008G18KT 180V250 CAVOK 07/05 Q0989
                        NOSIG=
201411032020 METAR COR EGLL 032020Z 21007KT CAVOK 07/05 Q0989 NOSIG=
201411031950 METAR COR EGLL 031950Z 23008KT CAVOK 07/05 Q0989 NOSIG=
201411031920 METAR COR EGLL 031920Z 22007KT CAVOK 07/05 Q0989 NOSIG=
201411031850 METAR COR EGLL 031850Z 23008KT CAVOK 07/06 Q0989 NOSIG=
201411031820 METAR COR EGLL 031820Z 24008KT CAVOK 08/06 Q0989 NOSIG=
201411031750 METAR EGLL 031750Z 22008KT 9999 FEW010 08/06 Q0989 NOSIG=
201411031720 METAR COR EGLL 031720Z 22007KT 9999 FEW010 08/06 Q0989 NOSIG=
201411031650 METAR EGLL 031650Z 20008KT 160V240 9999 FEW010 SCT038 08/06
                        Q0989 NOSIG=
201411031620 METAR COR EGLL 031620Z 20007KT 170V240 9999 FEW012 SCT041
                        09/06 Q0989 NOSIG=
201411031550 METAR COR EGLL 031550Z 18006KT 130V230 9999 FEW012 09/06
                        Q0989 NOSIG=
201411031520 METAR COR EGLL 031520Z 18005KT 140V240 9999 FEW012 SCT044
                        09/06 Q0989 NOSIG=
201411031450 METAR COR EGLL 031450Z VRB04KT 9999 FEW009 SCT047 09/07 Q0989
                        NOSIG=
201411031420 METAR COR EGLL 031420Z 25006KT 9999 -RA FEW009 SCT042 09/07
                        Q0989 RERA NOSIG=
201411031350 METAR EGLL 031350Z 26007KT 8000 RA SCT010 BKN025 09/07 Q0989
                        RESHRA NOSIG=
201411031320 METAR COR EGLL 031320Z 27005KT 230V300 6000 SHRA FEW016 BKN033
                        08/07 Q0990 TEMPO 4000 +SHRA=
201411031250 METAR EGLL 031250Z 25008KT 5000 SHRA FEW010 SCT015 BKN021
                        09/07 Q0990 TEMPO 4000 +SHRA=
201411031220 METAR COR EGLL 031220Z 21007KT 180V240 6000 -SHRA SCT021
                        BKN046 10/07 Q0990 TEMPO SHRA=
201411031150 METAR EGLL 031150Z 20006KT 160V260 9999 BKN030 10/06 Q0990
                        TEMPO SHRA=
201411031120 METAR COR EGLL 031120Z 18007KT 140V220 9999 FEW034 10/07
                        Q0991 TEMPO SHRA=
201411031050 METAR EGLL 031050Z 20007KT 160V230 9999 BKN039 10/07 Q0991
                        NOSIG=
201411031020 METAR COR EGLL 031020Z 21005KT 170V240 9999 SCT046 10/07
                        Q0992 NOSIG=
201411030950 METAR EGLL 030950Z 22007KT 9999 FEW044 10/07 Q0992 NOSIG=
201411030920 METAR COR EGLL 030920Z 22006KT 200V260 9999 FEW047 10/07
                        Q0993 NOSIG=
201411030850 METAR EGLL 030850Z 21007KT 150V300 9999 FEW047 10/07 Q0993
                        NOSIG=
201411030820 METAR COR EGLL 030820Z 22007KT 180V270 9999 FEW020 10/08
                        Q0993 NOSIG=
201411030750 METAR EGLL 030750Z 21008KT 9999 FEW020 10/08 Q0993 NOSIG=
201411030720 METAR COR EGLL 030720Z 23008KT 9999 FEW013 SCT020 10/08 Q0993
                        NOSIG=
201411030650 METAR COR EGLL 030650Z 22010KT 9999 FEW025 10/08 Q0993 NOSIG=
201411030620 METAR COR EGLL 030620Z 21012KT 9999 FEW013 10/09 Q0993 NOSIG=
201411030550 METAR EGLL 030550Z 18007KT 9999 -RA FEW016 10/09 Q0993 RERA
                        NOSIG=
201411030520 METAR COR EGLL 030520Z 18008KT 140V230 9999 RA FEW017 SCT030
                        10/09 Q0993 TEMPO -RA=
201411030450 METAR COR EGLL 030450Z 19007KT 9999 RA FEW019 SCT023 10/09
                        Q0994 TEMPO -RA=
201411030420 METAR COR EGLL 030420Z 20007KT 9999 -RA FEW031 SCT045 10/09
                        Q0994 RERA TEMPO RA=
201411030350 METAR EGLL 030350Z 21009KT 8000 RA FEW011 SCT043 10/08 Q0995
                        TEMPO -RA=
201411030320 METAR COR EGLL 030320Z 19009KT 9999 FEW037 10/08 Q0995 BECMG
                        RA=
201411030250 METAR EGLL 030250Z 20008KT 170V240 9999 -SHRA FEW038 SCT047
                        10/08 Q0996 RERA TEMPO RA=
201411030220 METAR EGLL 030220Z AUTO 15007KT 9999 FEW023/// //////CB 10/08
                        Q0997 REDZ=
201411030150 METAR EGLL 030150Z AUTO 18007KT 9999 -DZ FEW026 10/08 Q0997=
201411030120 METAR EGLL 030120Z AUTO 22009KT 9999 SCT046/// SCT053///
                        OVC066/// //////TCU 11/08 Q0998=
201411030050 METAR EGLL 030050Z 20008KT 9999 -SHRA FEW047 11/08 Q0998
                        TEMPO SHRA=
201411030020 METAR COR EGLL 030020Z 19008KT CAVOK 10/08 Q0999 TEMPO SHRA=
201411022350 METAR COR EGLL 022350Z 18009KT CAVOK 10/08 Q0999 TEMPO SHRA=
201411022320 METAR COR EGLL 022320Z 19004KT CAVOK 10/08 Q1000 TEMPO SHRA=
201411022250 METAR EGLL 022250Z 23008KT CAVOK 10/08 Q1000 TEMPO SHRA=
201411022220 METAR COR EGLL 022220Z 21008KT CAVOK 11/08 Q1000 NOSIG=
201411022150 METAR COR EGLL 022150Z 21008KT CAVOK 11/08 Q1001 NOSIG=
201411022120 METAR COR EGLL 022120Z 20009KT 180V260 CAVOK 11/09 Q1001
                        NOSIG=
201411022050 METAR EGLL 022050Z 21008KT CAVOK 12/09 Q1001 NOSIG=
201411022020 METAR COR EGLL 022020Z 21008KT CAVOK 12/09 Q1001 NOSIG=
201411021950 METAR EGLL 021950Z 21008KT CAVOK 12/09 Q1002 NOSIG=
201411021920 METAR COR EGLL 021920Z 22009KT 9999 FEW030 12/09 Q1002 NOSIG=
201411021850 METAR COR EGLL 021850Z 21009KT 9999 FEW030 13/10 Q1002 NOSIG=
201411021820 METAR COR EGLL 021820Z 21009KT 180V250 9999 FEW030 13/10
                        Q1002 NOSIG=
201411021750 METAR EGLL 021750Z 20010KT 9999 FEW028 13/10 Q1002 NOSIG=
201411021720 METAR COR EGLL 021720Z 21009KT 9999 FEW032 SCT041 14/10 Q1002
                        NOSIG=
201411021650 METAR COR EGLL 021650Z 20011KT 9999 FEW036 SCT044 14/10 Q1002
                        NOSIG=
201411021620 METAR COR EGLL 021620Z 21010KT 9999 SCT047 14/10 Q1002 NOSIG=
201411021550 METAR EGLL 021550Z 21011KT 190V250 9999 FEW020 15/10 Q1002
                        TEMPO 4000 SHRA BKN012=
201411021520 METAR COR EGLL 021520Z 22012KT 9999 FEW020 15/10 Q1003 TEMPO
                        4000 SHRA BKN012=
201411021450 METAR COR EGLL 021450Z 22012KT 9999 FEW020 15/11 Q1003 TEMPO
                        SHRA=
201411021420 METAR COR EGLL 021420Z 22010KT 9999 FEW020 15/11 Q1003 TEMPO
                        4000 SHRA BKN012=
201411021350 METAR EGLL 021350Z 22012KT 9999 FEW021 15/12 Q1004 TEMPO
                        4000 SHRA BKN012=
201411021320 METAR COR EGLL 021320Z 22011KT 190V250 9999 FEW014 SCT021
                        15/12 Q1004 TEMPO 4000 SHRA BKN012=
201411021250 METAR EGLL 021250Z 19010KT 160V240 9999 SCT010 SCT022 15/13
                        Q1004 TEMPO 4000 SHRA BKN012=
201411021220 METAR COR EGLL 021220Z 21011KT 180V250 9999 FEW020 SCT040
                        15/13 Q1004 TEMPO 4000 SHRA BKN012=
201411021150 METAR EGLL 021150Z 21011KT 180V250 9999 FEW020 14/12 Q1004
                        TEMPO 4000 SHRA BKN012=
201411021120 METAR COR EGLL 021120Z 20012KT 170V250 9999 -SHRA FEW012
                        14/12 Q1005 TEMPO 4000 SHRA BKN012=
201411021050 METAR COR EGLL 021050Z 21010KT 180V240 9999 -SHRA FEW012
                        14/12 Q1005 TEMPO 4000 SHRA BKN012=
201411021020 METAR COR EGLL 021020Z 22008KT 190V250 9999 -SHRA FEW007CB
                        SCT010 14/12 Q1005 RESHRA TEMPO 4000
                        SHRA BKN012=
201411020950 METAR EGLL 020950Z 26014KT 3100 SHRA FEW009CB BKN013 14/12
                        Q1005 TEMPO +RA=
201411020920 METAR COR EGLL 020920Z 20011KT 5000 SHRA SCT016CB BKN022
                        15/13 Q1005 TEMPO 4000 BKN012=
201411020850 METAR EGLL 020850Z 20012KT 9999 SCT016 BKN022 15/13 Q1005
                        TEMPO 4000 SHRA BKN012=
201411020820 METAR COR EGLL 020820Z 20012KT 9999 SCT020 SCT036 15/13 Q1006
                        TEMPO 4000 SHRA BKN012=
201411020750 METAR EGLL 020750Z 20013G25KT 9999 FEW036 BKN040 15/13 Q1006
                        TEMPO 4000 SHRA BKN012=
201411020720 METAR EGLL 020720Z 21010KT 7000 -RA FEW010CB SCT016 BKN020
                        14/13 Q1006 RERA=
201411020650 METAR EGLL 020650Z 21012KT 5000 RA FEW012 SCT016 BKN020 14/13
                        Q1006 TEMPO 4000=
201411020620 METAR COR EGLL 020620Z 20015G27KT 9999 -RA BKN014 BKN020
                        15/13 Q1006 TEMPO RA=
201411020550 METAR COR EGLL 020550Z 20014KT 8000 -RA BKN013 15/13 Q1006
                        TEMPO RA=
201411020520 METAR COR EGLL 020520Z 20014G25KT 9999 -DZ BKN013 15/13 Q1006
                        TEMPO RA=
201411020450 METAR COR EGLL 020450Z 20013KT 9999 -RA BKN014 BKN020 15/13
                        Q1007 TEMPO RA=
201411020420 METAR COR EGLL 020420Z 20014KT 9999 -RA FEW017 OVC019 15/12
                        Q1007 TEMPO RA BKN014=
201411020350 METAR EGLL 020350Z 20014KT 9999 -RA FEW018 BKN021 15/12 Q1007
                        TEMPO RA BKN014=
201411020320 METAR COR EGLL 020320Z 20013KT 9999 SCT016 SCT028 15/12 Q1008
                        TEMPO RA BKN014=
201411020250 METAR COR EGLL 020250Z 20014KT 9999 BKN017 BKN022 15/12 Q1008
                        TEMPO RA BKN014=
201411020220 METAR EGLL 020220Z AUTO 20014KT 9999 OVC017 15/12 Q1008=
201411020150 METAR EGLL 020150Z AUTO 20014KT 9999 BKN019 14/12 Q1009=
201411020120 METAR EGLL 020120Z AUTO 20013KT 9999 BKN020 14/12 Q1009 RERA
                        REDZ=
201411020050 METAR COR EGLL 020050Z 20013KT 9999 -RA BKN025 14/11 Q1010
                        NOSIG=
201411020020 METAR COR EGLL 020020Z 20012KT 9999 BKN027 14/11 Q1010 NOSIG=
201411012350 METAR COR EGLL 012350Z 20013KT 9000 -RA FEW020 SCT036 14/11
                        Q1011 NOSIG=
201411012320 METAR COR EGLL 012320Z 20013KT 9999 SCT040 14/10 Q1011 NOSIG=
201411012250 METAR EGLL 012250Z 20015KT 9999 FEW033 14/10 Q1011 NOSIG=
201411012220 METAR COR EGLL 012220Z 19016KT 9999 FEW035 13/10 Q1011 NOSIG=
201411012150 METAR COR EGLL 012150Z 19013KT CAVOK 13/10 Q1012 NOSIG=
201411012120 METAR COR EGLL 012120Z 19011KT CAVOK 13/10 Q1012 NOSIG=
201411012050 METAR COR EGLL 012050Z 19010KT CAVOK 13/10 Q1013 NOSIG=
201411012020 METAR COR EGLL 012020Z 19012KT CAVOK 13/09 Q1013 NOSIG=
201411011950 METAR COR EGLL 011950Z 20012G23KT CAVOK 13/09 Q1013 NOSIG=
201411011920 METAR COR EGLL 011920Z 19010KT CAVOK 13/09 Q1013 NOSIG=
201411011850 METAR EGLL 011850Z 19009KT CAVOK 13/09 Q1014 NOSIG=
201411011820 METAR COR EGLL 011820Z 18010G20KT 160V230 CAVOK 13/09 Q1014
                        NOSIG=
201411011750 METAR EGLL 011750Z 20010KT CAVOK 14/09 Q1014 NOSIG=
201411011720 METAR COR EGLL 011720Z 21011KT CAVOK 14/09 Q1014 NOSIG=
201411011650 METAR EGLL 011650Z 21011KT CAVOK 15/08 Q1014 NOSIG=
201411011620 METAR COR EGLL 011620Z 21011KT 9999 FEW040 15/08 Q1015 NOSIG=
201411011550 METAR EGLL 011550Z 23015KT 9999 FEW040 15/07 Q1015 NOSIG=
201411011520 METAR COR EGLL 011520Z 23016KT 9999 FEW044 16/06 Q1015 NOSIG=
201411011450 METAR EGLL 011450Z 22016G26KT 9999 FEW044 17/07 Q1015 NOSIG=
201411011420 METAR COR EGLL 011420Z 23017KT 9999 SCT044 17/07 Q1015 NOSIG=
201411011350 METAR COR EGLL 011350Z 23011KT 9999 SCT040 17/08 Q1015 NOSIG=
201411011320 METAR COR EGLL 011320Z 23010KT 200V260 9999 SCT038 18/09
                        Q1015 NOSIG=
201411011250 METAR COR EGLL 011250Z 24012KT 9999 FEW037 17/09 Q1016 NOSIG=
201411011220 METAR COR EGLL 011220Z 23013KT 9999 FEW032 17/09 Q1016 NOSIG=
201411011150 METAR COR EGLL 011150Z 23011KT 9999 FEW027 17/10 Q1016 NOSIG=
201411011120 METAR COR EGLL 011120Z 25009KT 9999 FEW026 16/11 Q1016 NOSIG=
201411011050 METAR EGLL 011050Z 23010KT 9999 FEW028 16/11 Q1016 NOSIG=
201411011020 METAR COR EGLL 011020Z 23008KT 9999 FEW028 15/11 Q1016 NOSIG=
201411010950 METAR EGLL 010950Z 24008KT 9999 FEW028 14/11 Q1016 NOSIG=
201411010920 METAR COR EGLL 010920Z 24009KT 9999 FEW017 SCT028 14/12 Q1016
                        NOSIG=
201411010850 METAR EGLL 010850Z 26010KT 9999 SCT014 SCT017 14/12 Q1016
                        TEMPO BKN014=
201411010820 METAR COR EGLL 010820Z 27012KT 9999 -RA FEW014 SCT020 14/12
                        Q1016 TEMPO BKN014=
201411010750 METAR COR EGLL 010750Z 24010KT 9999 -RA SCT025 15/13 Q1016
                        TEMPO BKN014=
201411010720 METAR COR EGLL 010720Z 23009KT 9999 SCT026 16/13 Q1015 TEMPO
                        BKN014=
201411010650 METAR COR EGLL 010650Z 24009KT 9999 SCT018 16/14 Q1015 TEMPO
                        BKN014=
201411010620 METAR COR EGLL 010620Z 21007KT 180V240 9000 SCT014 16/14
                        Q1014 TEMPO BKN014=
201411010550 METAR EGLL 010550Z 20007KT 9000 FEW025 SCT048 16/14 Q1014
                        NOSIG=
201411010520 METAR COR EGLL 010520Z 19008KT 150V220 9000 SCT018 16/15
                        Q1014 TEMPO BKN014=
201411010450 METAR COR EGLL 010450Z 19008KT 170V290 9000 SCT017 SCT045
                        16/14 Q1014 TEMPO BKN014=
201411010420 METAR COR EGLL 010420Z 19008KT 9000 BKN015 16/14 Q1014 TEMPO
                        BKN014=
201411010350 METAR EGLL 010350Z 20008KT 9999 BKN014 16/14 Q1014 TEMPO
                        SCT014=
201411010320 METAR COR EGLL 010320Z 19008KT 9999 BKN015 BKN045 15/14 Q1014
                        TEMPO BKN014=
201411010250 METAR EGLL 010250Z 19008KT 9999 SCT014 15/14 Q1014 TEMPO
                        BKN014=
201411010220 METAR EGLL 010220Z AUTO 19008KT 9999 BKN015 16/14 Q1014=
201411010150 METAR EGLL 010150Z AUTO 19007KT 9999 BKN017 16/14 Q1014=
201411010120 METAR EGLL 010120Z AUTO 19008KT 170V230 9999 NCD 16/13 Q1014=
201411010050 METAR COR EGLL 010050Z 18007KT CAVOK 16/13 Q1014 NOSIG=
201411010020 METAR COR EGLL 010020Z 19009KT CAVOK 16/13 Q1014 NOSIG=

</pre>

</body>
</html>
