##########################################################
# Query made at 12/27/2012 10:50:00 UTC
# Time interval: from 11/01/2008 00:00  to 12/01/2008 23:59  UTC
##########################################################

##########################################################
# EGLL, London / Heathrow Airport (United Kingdom)
# WMO index: 03772
# Latitude 51-29N. Longitude 000-27W. Altitude 24 m.
##########################################################

###################################
#  METAR/SPECI from EGLL
###################################
200812012350 METAR COR EGLL 012350Z 31007KT 9999 BKN018 04/01 Q1008 TEMPO
                        BKN012=
200812012320 METAR COR EGLL 012320Z 31008KT 9999 BKN018 04/01 Q1008 TEMPO
                        BKN012=
200812012250 METAR COR EGLL 012250Z 31008KT 9999 OVC018 05/01 Q1008 TEMPO
                        BKN012=
200812012220 METAR COR EGLL 012220Z 30009KT 9999 OVC019 04/01 Q1008 TEMPO
                        BKN010=
200812012150 METAR COR EGLL 012150Z 30007KT 9999 BKN017 04/01 Q1008 TEMPO
                        BKN010=
200812012120 METAR COR EGLL 012120Z 29008KT 9999 BKN018 04/02 Q1008 TEMPO
                        BKN008=
200812012050 METAR COR EGLL 012050Z 29007KT 9999 -RA BKN014 04/02 Q1007
                        TEMPO BKN008=
200812012020 METAR COR EGLL 012020Z 29007KT 9999 -RA BKN015 BKN022 04/01
                        Q1007 TEMPO BKN012=
200812011950 METAR COR EGLL 011950Z 29007KT 9999 BKN016 BKN023 04/01 Q1007
                        TEMPO BKN012=
200812011920 METAR COR EGLL 011920Z 30006KT 9999 BKN017 04/01 Q1007 TEMPO
                        BKN012=
200812011850 METAR EGLL 011850Z 30007KT 9999 SCT018 SCT027 BKN039 04/00
                        Q1007=
200812011820 METAR COR EGLL 011820Z 29006KT 9999 SCT026 BKN030 04/00 Q1007
                        NOSIG=
200812011750 METAR EGLL 011750Z 29007KT 9999 BKN028 04/00 Q1007=
200812011720 METAR COR EGLL 011720Z 30007KT 9999 BKN025 04/00 Q1006 NOSIG=
200812011650 METAR COR EGLL 011650Z 30007KT 280V340 9999 FEW018 BKN028
                        04/M00 Q1006 NOSIG=
200812011620 METAR EGLL 011620Z 31007KT 9999 BKN024 04/M01 Q1006=
200812011550 METAR COR EGLL 011550Z 31008KT 9999 BKN023 04/M01 Q1006 NOSIG=
200812011520 METAR COR EGLL 011520Z 31008KT 9999 BKN024 04/M01 Q1005 NOSIG=
200812011450 METAR COR EGLL 011450Z 31010KT 9999 FEW024 04/M01 Q1005 NOSIG=
200812011420 METAR COR EGLL 011420Z 32008KT 290V350 9999 FEW020 05/M01
                        Q1005 NOSIG=
200812011350 METAR COR EGLL 011350Z 32007KT 300V360 9999 FEW020 05/M01
                        Q1005 NOSIG=
200812011320 METAR EGLL 011320Z 32007KT 290V360 9999 FEW020 05/M00 Q1005=
200812011250 METAR COR EGLL 011250Z 32009KT 290V360 9999 FEW020 05/M00
                        Q1005 NOSIG=
200812011220 METAR COR EGLL 011220Z 33008KT 300V360 9999 FEW020 05/00
                        Q1004 NOSIG=
200812011150 METAR EGLL 011150Z 34009KT CAVOK 05/00 Q1004=
200812011120 METAR EGLL 011120Z 33008KT CAVOK 04/00 Q1004=
200812011050 METAR COR EGLL 011050Z 33009KT 300V020 CAVOK 04/00 Q1004
                        NOSIG=
200812011020 METAR COR EGLL 011020Z 32008KT 300V360 CAVOK 03/00 Q1004
                        NOSIG=
200812010950 METAR COR EGLL 010950Z 32008KT CAVOK 03/00 Q1004 NOSIG=
200812010920 METAR COR EGLL 010920Z 32006KT CAVOK 03/M00 Q1003 NOSIG=
200812010850 METAR COR EGLL 010850Z 33007KT 300V360 CAVOK 03/M00 Q1003
                        NOSIG=
200812010820 METAR COR EGLL 010820Z 32006KT 300V360 CAVOK 02/M00 Q1003
                        NOSIG=
200812010750 METAR COR EGLL 010750Z 32008KT 300V360 CAVOK 02/M00 Q1002
                        NOSIG=
200812010720 METAR COR EGLL 010720Z 32005KT 290V350 CAVOK 02/00 Q1002
                        NOSIG=
200812010650 METAR COR EGLL 010650Z 34005KT 300V010 CAVOK 03/00 Q1002
                        NOSIG=
200812010620 METAR COR EGLL 010620Z 34006KT 9999 FEW034 03/01 Q1001 NOSIG=
200812010550 METAR COR EGLL 010550Z 35007KT 310V020 9999 SCT034 03/01
                        Q1001 NOSIG=
200812010520 METAR COR EGLL 010520Z 35008KT 9999 FEW014 BKN034 03/01 Q1001
                        NOSIG=
200812010450 METAR COR EGLL 010450Z 35005KT 310V020 9999 SCT023 BKN028
                        03/01 Q1000 NOSIG=
200812010420 METAR EGLL 010420Z 35008KT 9999 SCT015 BKN020 03/01 Q1000=
200812010350 METAR COR EGLL 010350Z 35007KT 310V010 9999 SCT013 SCT029
                        04/02 Q1000 TEMPO BKN012=
200812010320 METAR COR EGLL 010320Z 34007KT 9999 FEW013 SCT026 04/02 Q1000
                        TEMPO BKN014=
200812010250 METAR COR EGLL 010250Z 35007KT 9999 FEW010 SCT023 04/02 Q0999
                        TEMPO BKN012=
200812010220 METAR EGLL 010220Z AUTO 35007KT 310V020 9999NDV -DZ FEW011///
                        04/02 Q0999=
200812010150 METAR EGLL 010150Z AUTO 35008KT 9999NDV -DZ BKN011/// 04/02
                        Q0999=
200812010120 METAR EGLL 010120Z AUTO 35008KT 310V020 9999NDV DZ BKN012///
                        04/02 Q0999=
200812010050 METAR COR EGLL 010050Z 35009KT 9999 -RA BKN009 04/03 Q0999
                        TEMPO BKN012=
200812010020 METAR COR EGLL 010020Z 35009KT 9999 -RA SCT009 BKN015 04/03
                        Q0999 TEMPO BKN008=
200811302350 METAR COR EGLL 302350Z 36009KT 320V030 9999 -RA BKN011 04/03
                        Q0998 TEMPO BKN008=
200811302320 METAR COR EGLL 302320Z 36008KT 9999 -RA BKN012 04/03 Q0998
                        TEMPO BKN008=
200811302250 METAR COR EGLL 302250Z 36009KT 330V030 9999 -RA FEW009 BKN012
                        05/03 Q0998 TEMPO BKN008=
200811302220 METAR COR EGLL 302220Z 36010KT 330V040 9999 -RA BKN011 05/03
                        Q0998 TEMPO BKN008=
200811302150 METAR COR EGLL 302150Z 36010G20KT 9999 -RA BKN010 05/03 Q0997
                        TEMPO BKN008=
200811302120 METAR COR EGLL 302120Z 35008KT 9999 -RA BKN009 05/03 Q0997
                        TEMPO BKN012=
200811302050 METAR EGLL 302050Z 36009KT 9999 BKN011 BKN016 05/03 Q0997=
200811302020 METAR COR EGLL 302020Z 36008KT 9999 -RA BKN013 BKN034 05/03
                        Q0997 TEMPO BKN009=
200811301950 METAR COR EGLL 301950Z 36009KT 9999 SCT010 SCT039 05/03 Q0997
                        BECMG BKN010=
200811301920 METAR COR EGLL 301920Z 36009KT 9999 -RA FEW012 SCT029 05/03
                        Q0996 BECMG BKN010=
200811301850 METAR COR EGLL 301850Z 36009KT 9999 SCT011 05/03 Q0996 BECMG
                        BKN010=
200811301820 METAR COR EGLL 301820Z 36010KT 320V020 9999 FEW012 05/03
                        Q0996 BKN012=
200811301750 METAR COR EGLL 301750Z 36009KT 320V030 9999 SCT011 BKN014
                        05/03 Q0995 TEMPO BKN009=
200811301720 METAR COR EGLL 301720Z 36010KT 330V030 9999 BKN011 05/03
                        Q0995 TEMPO BKN008=
200811301650 METAR EGLL 301650Z 36010KT 9999 BKN011 05/03 Q0995=
200811301620 METAR COR EGLL 301620Z 36009KT 330V040 9999 BKN010 05/03
                        Q0994 TEMPO BKN008=
200811301550 METAR COR EGLL 301550Z 36009KT 330V040 9999 6000E -RA BKN010
                        05/04 Q0994 TEMPO BKN008=
200811301520 METAR COR EGLL 301520Z 36008KT 9999 BKN009 05/04 Q0994 TEMPO
                        BKN012=
200811301450 METAR COR EGLL 301450Z 36008KT 330V050 8000 -RA BKN008 05/04
                        Q0994 TEMPO SCT008 BKN012=
200811301420 METAR COR EGLL 301420Z 02007KT 330V050 9999 6000S -RA FEW008
                        BKN010 05/04 Q0993 TEMPO BKN008=
200811301350 METAR COR EGLL 301350Z 02006KT 340V050 9999 5000NE -RA BKN010
                        05/04 Q0993 NOSIG=
200811301320 METAR COR EGLL 301320Z 01008KT 340V060 9000 -RA BKN009 BKN016
                        05/04 Q0993 TEMPO BKN012=
200811301250 METAR COR EGLL 301250Z 01009KT 340V050 9000 -RA FEW008 BKN009
                        05/04 Q0993 TEMPO BKN012=
200811301220 METAR COR EGLL 301220Z 01008G19KT 340V050 9000 -RA BKN009
                        05/04 Q0993 TEMPO BKN012=
200811301150 METAR COR EGLL 301150Z 01009KT 340V060 9999 -RA OVC009 05/04
                        Q0993 TEMPO BKN012=
200811301120 METAR COR EGLL 301120Z 01008KT 330V040 9999 -RA BKN009 05/04
                        Q0993 TEMPO SCT012 BKN020=
200811301050 METAR EGLL 301050Z 01009KT 340V060 9999 -RA BKN009 05/04
                        Q0993=
200811301020 METAR COR EGLL 301020Z 36009KT 330V050 9999 -RA BKN010 05/04
                        Q0993 TEMPO SCT012 BKN020=
200811300950 METAR COR EGLL 300950Z 01008KT 340V040 9999 -RA SCT008 BKN012
                        05/03 Q0993 TEMPO SCT012 BKN018=
200811300920 METAR COR EGLL 300920Z 01009KT 340V050 9999 FEW009 SCT013
                        BKN021 05/03 Q0993 TEMPO BKN012=
200811300850 METAR COR EGLL 300850Z 01009KT 340V050 9999 FEW013 SCT016
                        BKN021 05/03 Q0993 TEMPO BKN012=
200811300820 METAR COR EGLL 300820Z 01008KT 330V050 9999 BKN009 BKN021
                        05/03 Q0993 TEMPO SCT008 BKN014=
200811300750 METAR COR EGLL 300750Z 01009KT 340V050 9999 SCT008 BKN013
                        BKN018 05/03 Q0993 TEMPO BKN010=
200811300720 METAR COR EGLL 300720Z 02009KT 350V060 9999 -RA SCT009 BKN018
                        05/03 Q0993 TEMPO BKN010=
200811300650 METAR COR EGLL 300650Z 02008KT 340V050 9999 -RA SCT010 BKN025
                        05/03 Q0993 TEMPO BKN010=
200811300620 METAR COR EGLL 300620Z 02009KT 350V050 9999 -RA SCT008 BKN027
                        04/03 Q0993 NOSIG=
200811300550 METAR COR EGLL 300550Z 01008KT 8000 -RA SCT009 BKN025 04/03
                        Q0992 TEMPO BKN009=
200811300520 METAR COR EGLL 300520Z 36009KT 330V040 8000 -RA FEW005 BKN026
                        04/03 Q0992 NOSIG=
200811300450 METAR COR EGLL 300450Z 01009KT 330V040 8000 -RA FEW005 BKN034
                        04/03 Q0992 NOSIG=
200811300420 METAR EGLL 300420Z 01008KT 330V050 8000 -RA FEW008 BKN034
                        04/03 Q0992=
200811300350 METAR EGLL 300350Z 01009KT 7000 -RA FEW008 BKN029 04/03 Q0993=
200811300320 METAR COR EGLL 300320Z 02007KT 330V050 7000 -RA FEW008 SCT026
                        BKN029 04/03 Q0993 TEMPO BKN008=
200811300250 METAR COR EGLL 300250Z 01007KT 330V050 7000 -RA FEW008 BKN029
                        BKN044 04/03 Q0993 TEMPO BKN008=
200811300220 METAR EGLL 300220Z AUTO 01007KT 330V040 6000NDV -DZ BKN007///
                        04/03 Q0994=
200811300150 METAR EGLL 300150Z AUTO 02005KT 340V050 6000NDV -DZ OVC007///
                        04/03 Q0994=
200811300120 METAR EGLL 300120Z AUTO 01005KT 6000NDV -DZ BKN007/// BKN027///
                        04/03 Q0994=
200811300050 METAR COR EGLL 300050Z 02006KT 340V050 7000 SCT006 SCT012
                        BKN032 04/02 Q0994 TEMPO BKN012=
200811300020 METAR COR EGLL 300020Z 02006KT 340V050 9000 SCT006 BKN036
                        04/02 Q0994 TEMPO BKN006=
200811292350 METAR COR EGLL 292350Z 02007KT 340V060 8000 FEW006 SCT020
                        BKN040 03/02 Q0994 NOSIG=
200811292320 METAR COR EGLL 292320Z 36006KT 330V040 8000 FEW007 BKN038
                        03/02 Q0994 TEMPO BKN007=
200811292250 METAR COR EGLL 292250Z 02006KT 340V060 7000 FEW007 BKN039
                        03/02 Q0993 TEMPO BKN007=
200811292220 METAR COR EGLL 292220Z 02007KT 350V060 7000 FEW006 BKN044
                        03/02 Q0994 NOSIG=
200811292150 METAR COR EGLL 292150Z 01006KT 340V060 8000 SCT007 BKN042
                        04/02 Q0994 TEMPO BKN007=
200811292120 METAR COR EGLL 292120Z 02005KT 350V070 7000 -RA BKN006 BKN008
                        04/02 Q0994 TEMPO 4500 RADZ=
200811292050 METAR COR EGLL 292050Z 02005KT 340V040 6000 -DZ BKN006 BKN009
                        04/02 Q0994 TEMPO 4000 DZ=
200811292020 METAR COR EGLL 292020Z 02006KT 7000 -DZ BKN006 BKN009 04/02
                        Q0994 TEMPO 4000 DZ=
200811291950 METAR COR EGLL 291950Z 03006KT 6000 -DZ BKN005 04/02 Q0994
                        TEMPO 4000 RADZ BKN004=
200811291920 METAR COR EGLL 291920Z 03006KT 360V070 6000 BKN005 BKN008
                        04/02 Q0994 TEMPO 4000 -RADZ BKN004=
200811291850 METAR COR EGLL 291850Z 02005KT 340V050 6000 -DZ FEW005 BKN006
                        BKN041 04/02 Q0994 NOSIG=
200811291820 METAR COR EGLL 291820Z 03006KT 360V070 6000 -DZ FEW004 BKN006
                        03/02 Q0994 NOSIG=
200811291750 METAR COR EGLL 291750Z 03005KT 350V070 6000 -DZ FEW005 OVC006
                        04/02 Q0994 NOSIG=
200811291720 METAR COR EGLL 291720Z 02005KT 350V050 6000 -DZ FEW004 OVC006
                        04/02 Q0994 NOSIG=
200811291650 METAR COR EGLL 291650Z 04005KT 350V070 7000 -DZ BKN006 04/02
                        Q0994 NOSIG=
200811291620 METAR COR EGLL 291620Z 05007KT 020V080 6000 -DZ FEW006 OVC007
                        04/02 Q0994 TEMPO 4000=
200811291550 METAR COR EGLL 291550Z 05006KT 010V080 7000 OVC007 04/02
                        Q0994 NOSIG=
200811291520 METAR COR EGLL 291520Z 03006KT 350V060 8000 BKN007 OVC009
                        04/02 Q0993 NOSIG=
200811291450 METAR COR EGLL 291450Z 02006KT 340V050 8000 BKN007 OVC008
                        04/03 Q0993 NOSIG=
200811291420 METAR COR EGLL 291420Z 02006KT 340V050 8000 OVC008 05/03
                        Q0993 NOSIG=
200811291350 METAR COR EGLL 291350Z 02005KT 350V060 9999 OVC008 05/03
                        Q0993 NOSIG=
200811291320 METAR COR EGLL 291320Z 04005KT 010V080 9000 BKN008 BKN026
                        05/03 Q0993 NOSIG=
200811291250 METAR COR EGLL 291250Z 04006KT 020V080 9000 BKN008 BKN030
                        04/02 Q0993 TEMPO BKN012=
200811291220 METAR COR EGLL 291220Z 04004KT 340V070 9000 BKN008 04/02
                        Q0994 NOSIG=
200811291150 METAR COR EGLL 291150Z 36004KT 320V050 8000 BKN007 BKN023
                        04/02 Q0994 TEMPO BKN010=
200811291120 METAR COR EGLL 291120Z VRB03KT 8000 BKN007 03/02 Q0994 TEMPO
                        BKN010=
200811291050 METAR COR EGLL 291050Z 04004KT 350V060 7000 SCT005 OVC006
                        03/02 Q0994 NOSIG=
200811291020 METAR COR EGLL 291020Z 02005KT 350V060 5000 BR SCT003 OVC004
                        03/02 Q0994 BECMG BKN006=
200811290950 METAR COR EGLL 290950Z 36004KT 330V040 4000 BR SCT003 BKN004
                        03/02 Q0994 BECMG 6000 BKN006=
200811290920 METAR COR EGLL 290920Z 01004KT 340V040 3500 BR BKN003 02/01
                        Q0994 BECMG 5000 BKN005=
200811290850 METAR COR EGLL 290850Z 01004KT 340V050 3500 BR SCT002 BKN003
                        02/01 Q0994 BECMG 5000 BKN005=
200811290820 METAR COR EGLL 290820Z 02005KT 340V060 2800 BR BKN002 OVC003
                        02/01 Q0994 NOSIG=
200811290750 METAR COR EGLL 290750Z 01005KT 340V050 2000 BR BKN002 OVC003
                        01/01 Q0994 NOSIG=
200811290720 METAR COR EGLL 290720Z 36005KT 340V040 2000 BR BKN002 OVC004
                        01/01 Q0994 TEMPO BKN001=
200811290650 METAR COR EGLL 290650Z 02004KT 340V060 1500 BR BKN001 OVC003
                        01/01 Q0994 TEMPO BKN002=
200811290620 METAR COR EGLL 290620Z 03006KT 360V070 4500 BR OVC002 01/01
                        Q0994 TEMPO BKN003=
200811290550 METAR COR EGLL 290550Z 36006KT 4500 BR OVC003 02/01 Q0994
                        TEMPO BKN002=
200811290520 METAR COR EGLL 290520Z 02005KT 330V060 4000 BR OVC002 02/01
                        Q0994 TEMPO 1200=
200811290450 METAR COR EGLL 290450Z 35004KT 4000 BR OVC002 02/01 Q0994
                        TEMPO 2500 BKN001=
200811290420 METAR COR EGLL 290420Z VRB03KT 3000 BR OVC002 01/01 Q0994
                        TEMPO 2000 BKN001=
200811290350 METAR COR EGLL 290350Z 07005KT 3000 BR OVC002 01/01 Q0994
                        TEMPO 2000 BKN001=
200811290320 METAR COR EGLL 290320Z 04004KT 340V080 1800 BR OVC001 02/01
                        Q0994 TEMPO 1200=
200811290250 METAR COR EGLL 290250Z 36006KT 3000 BR OVC002 02/02 Q0994
                        TEMPO 1200=
200811290220 METAR EGLL 290220Z AUTO 33005KT 300V010 2300NDV BR OVC001///
                        03/02 Q0994=
200811290150 METAR EGLL 290150Z AUTO VRB03KT 0750NDV R27R/P1500 R27L/P1500
                        FG OVC001/// 02/02 Q0995=
200811290120 METAR EGLL 290120Z AUTO 35004KT 310V030 0450NDV R27R/1100
                        R27L/1100 FG VV/// 02/02 Q0995=
200811290050 METAR COR EGLL 290050Z 36004KT 330V030 0500 R27R/P1500 R27L/P1500
                        FG VV/// 02/02 Q0995 TEMPO 0600=
200811290020 METAR COR EGLL 290020Z 36004KT 320V040 0400 R27R/0750 R27L/0700
                        FG VV/// 02/02 Q0995 TEMPO 0600=
200811282350 METAR COR EGLL 282350Z 36004KT 0400 R27L/0900 R27R/0800 FG
                        VV/// 03/02 Q0995 TEMPO 0600=
200811282320 METAR COR EGLL 282320Z 35005KT 0400 R27L/0550 R27R/0800 FG
                        VV/// 03/02 Q0995 TEMPO 0600=
200811282250 METAR COR EGLL 282250Z 35004KT 0600 R27L/1000 R27R/0900 FG
                        OVC001 03/02 Q0995 TEMPO 0400=
200811282220 METAR COR EGLL 282220Z 35005KT 6000 NSC 04/02 Q0995 TEMPO
                        4000 BR=
200811282150 METAR COR EGLL 282150Z 34004KT 9999 FEW019 04/02 Q0995 NOSIG=
200811282120 METAR COR EGLL 282120Z 35003KT 9999 SCT019 05/03 Q0996 NOSIG=
200811282050 METAR COR EGLL 282050Z 35003KT 9999 SCT021 05/03 Q0996 NOSIG=
200811282020 METAR COR EGLL 282020Z 34003KT CAVOK 05/03 Q0996 NOSIG=
200811281950 METAR COR EGLL 281950Z 35004KT CAVOK 05/03 Q0996 NOSIG=
200811281920 METAR COR EGLL 281920Z 35004KT CAVOK 05/03 Q0996 NOSIG=
200811281850 METAR COR EGLL 281850Z VRB03KT CAVOK 05/03 Q0996 NOSIG=
200811281820 METAR COR EGLL 281820Z VRB03KT 9999 FEW012 05/03 Q0996 NOSIG=
200811281750 METAR COR EGLL 281750Z 35004KT 9999 FEW012 06/04 Q0996 NOSIG=
200811281720 METAR COR EGLL 281720Z VRB03KT 9999 FEW036 06/04 Q0996 NOSIG=
200811281650 METAR COR EGLL 281650Z VRB03KT 9999 FEW010 SCT034 06/03 Q0996
                        NOSIG=
200811281620 METAR COR EGLL 281620Z 04004KT 9999 FEW011 SCT035 06/04 Q0996
                        NOSIG=
200811281550 METAR COR EGLL 281550Z VRB03KT 9999 SCT011 OVC033 06/04 Q0996
                        TEMPO BKN012=
200811281520 METAR COR EGLL 281520Z VRB03KT 9999 SCT011 BKN032 06/04 Q0996
                        TEMPO BKN012=
200811281450 METAR COR EGLL 281450Z 10005KT 9999 -RA FEW011 SCT033 06/04
                        Q0996 TEMPO BKN012=
200811281420 METAR COR EGLL 281420Z 10004KT 9999 FEW017 BKN040 06/04 Q0997
                        NOSIG=
200811281350 METAR COR EGLL 281350Z 10003KT 9999 FEW017 SCT040 06/04 Q0997
                        NOSIG=
200811281320 METAR COR EGLL 281320Z 09004KT 9999 FEW017 SCT038 06/04 Q0997
                        NOSIG=
200811281250 METAR COR EGLL 281250Z VRB03KT 9999 FEW015 SCT041 06/03 Q0998
                        NOSIG=
200811281220 METAR COR EGLL 281220Z 10004KT 080V150 9999 FEW015 BKN041
                        06/04 Q0998 NOSIG=
200811281150 METAR COR EGLL 281150Z 15006KT 9999 FEW014 BKN040 06/04 Q0999
                        NOSIG=
200811281120 METAR COR EGLL 281120Z 13005KT 100V170 9999 -RA FEW014 SCT035
                        BKN041 06/04 Q0999 NOSIG=
200811281050 METAR COR EGLL 281050Z 10005KT 9999 FEW012 BKN033 06/04 Q0999
                        NOSIG=
200811281020 METAR COR EGLL 281020Z 14005KT 9999 FEW020 SCT033 06/04 Q1000
                        NOSIG=
200811280950 METAR COR EGLL 280950Z 15003KT 9999 -RA FEW033 06/04 Q1000
                        NOSIG=
200811280920 METAR COR EGLL 280920Z 17003KT 9999 FEW020 06/04 Q1000 NOSIG=
200811280850 METAR COR EGLL 280850Z 17005KT 9999 FEW015 BKN049 06/04 Q1000
                        NOSIG=
200811280820 METAR COR EGLL 280820Z 17004KT 9999 BKN049 06/04 Q1000 NOSIG=
200811280750 METAR COR EGLL 280750Z 15005KT 120V190 9999 BKN049 06/04
                        Q1000 NOSIG=
200811280720 METAR COR EGLL 280720Z 13005KT 100V160 CAVOK 06/04 Q1000
                        NOSIG=
200811280650 METAR COR EGLL 280650Z 17004KT 120V210 CAVOK 06/04 Q1001
                        NOSIG=
200811280620 METAR COR EGLL 280620Z 18004KT 140V280 CAVOK 06/04 Q1001
                        NOSIG=
200811280550 METAR COR EGLL 280550Z 21004KT 9999 SCT026 06/03 Q1001 TEMPO
                        BKN010=
200811280520 METAR COR EGLL 280520Z 20004KT 160V220 9999 -RA FEW021 SCT025
                        06/04 Q1001 RERA TEMPO RA BKN010=
200811280450 METAR COR EGLL 280450Z 25003KT 9999 -RA FEW026 SCT039 07/05
                        Q1002 TEMPO RA=
200811280420 METAR COR EGLL 280420Z 22003KT 9999 SCT044 07/05 Q1002 TEMPO
                        RA=
200811280350 METAR COR EGLL 280350Z 26004KT 9999 FEW006 07/05 Q1002 TEMPO
                        RA BKN010=
200811280320 METAR COR EGLL 280320Z 27005KT 220V310 CAVOK 07/06 Q1002
                        TEMPO RA BKN010=
200811280250 METAR COR EGLL 280250Z 17005KT 9999 FEW042 07/06 Q1002 TEMPO
                        RA BKN010=
200811280220 METAR EGLL 280220Z AUTO 19005KT 9999NDV -DZ FEW044/// 07/06
                        Q1003=
200811280150 METAR EGLL 280150Z AUTO 26004KT 9999NDV -RA BKN028/// 07/06
                        Q1003 RERA=
200811280120 METAR EGLL 280120Z AUTO 29007KT 9999NDV -RA NCD 07/06 Q1004=
200811280050 METAR COR EGLL 280050Z 28007KT 9999 SCT031 BKN044 08/06 Q1004
                        TEMPO RA BKN010=
200811280020 METAR EGLL 280020Z 27007KT 9999 SCT028 SCT033 08/06 Q1004=
200811272350 METAR COR EGLL 272350Z 27007KT 9999 BKN027 08/07 Q1004 TEMPO
                        RA BKN010=
200811272320 METAR COR EGLL 272320Z 27008KT 9999 SCT009 SCT027 09/07 Q1005
                        TEMPO RA BKN009=
200811272250 METAR COR EGLL 272250Z 25008KT 9999 BKN026 10/08 Q1005 NOSIG=
200811272220 METAR COR EGLL 272220Z 25011KT 9999 SCT006 SCT017 10/08 Q1005
                        TEMPO RA BKN006=
200811272150 METAR COR EGLL 272150Z 21010KT 9999 FEW008 BKN017 10/08 Q1005
                        NOSIG=
200811272120 METAR COR EGLL 272120Z 21011KT 9000 -RA FEW009 BKN015 10/08
                        Q1005 TEMPO RA BKN010=
200811272050 METAR COR EGLL 272050Z 21010G20KT 9999 BKN015 10/08 Q1006
                        TEMPO RA BKN012=
200811272020 METAR COR EGLL 272020Z 21010KT 9999 -RA BKN017 10/07 Q1006
                        TEMPO RA=
200811271950 METAR COR EGLL 271950Z 22012KT 9999 -RA SCT018 BKN046 10/07
                        Q1006 TEMPO RA=
200811271920 METAR COR EGLL 271920Z 22012KT 9999 -RA FEW018 SCT045 11/07
                        Q1006 TEMPO RA=
200811271850 METAR COR EGLL 271850Z 22011KT 9999 SCT022 SCT045 10/07 Q1007
                        TEMPO RA=
200811271820 METAR COR EGLL 271820Z 22011KT 9999 FEW022 BKN049 10/07 Q1007
                        TEMPO RA=
200811271750 METAR COR EGLL 271750Z 21012KT 9999 FEW023 BKN048 10/07 Q1007
                        NOSIG=
200811271720 METAR COR EGLL 271720Z 22010KT 9999 SCT020 SCT026 11/07 Q1008
                        NOSIG=
200811271650 METAR COR EGLL 271650Z 22011KT 9999 FEW021 SCT040 11/07 Q1008
                        NOSIG=
200811271620 METAR EGLL 271620Z 21010KT 180V240 9999 FEW020 BKN047 11/08
                        Q1008=
200811271550 METAR COR EGLL 271550Z 22010KT 9999 FEW010 SCT020 11/08 Q1009
                        NOSIG=
200811271520 METAR COR EGLL 271520Z 22012KT 9999 8000W BKN019 11/07 Q1009
                        NOSIG=
200811271450 METAR COR EGLL 271450Z 22012KT 9999 SCT022 BKN040 11/08 Q1009
                        NOSIG=
200811271420 METAR COR EGLL 271420Z 22014KT 9999 SCT024 BKN030 11/08 Q1010
                        NOSIG=
200811271350 METAR COR EGLL 271350Z 22014KT 9999 VCSH FEW021 BKN033 11/08
                        Q1010 NOSIG=
200811271320 METAR COR EGLL 271320Z 22015KT 9999 FEW023 SCT036 12/07 Q1011
                        TEMPO SHRA=
200811271250 METAR COR EGLL 271250Z 22015KT 9999 -SHRA SCT020 BKN027 12/08
                        Q1011 TEMPO SHRA=
200811271220 METAR COR EGLL 271220Z 22014KT 9999 SCT024 12/08 Q1011 NOSIG=
200811271150 METAR COR EGLL 271150Z 21011KT 180V250 9999 SCT015 11/08
                        Q1012 NOSIG=
200811271120 METAR COR EGLL 271120Z 22011KT 9999 SCT017 BKN040 10/08 Q1013
                        NOSIG=
200811271050 METAR COR EGLL 271050Z 21011KT 9999 FEW015 SCT025 BKN036
                        10/08 Q1014 NOSIG=
200811271020 METAR COR EGLL 271020Z 20011KT 9999 SCT028 BKN036 10/08 Q1014
                        NOSIG=
200811270950 METAR COR EGLL 270950Z 20011KT 9999 FEW030 BKN044 09/08 Q1014
                        NOSIG=
200811270920 METAR COR EGLL 270920Z 20009KT 9000 FEW034 SCT044 09/07 Q1015
                        NOSIG=
200811270850 METAR COR EGLL 270850Z 20009KT 170V240 8000 FEW034 08/07
                        Q1015 NOSIG=
200811270820 METAR COR EGLL 270820Z 19009KT 170V260 7000 SCT043 08/07
                        Q1016 NOSIG=
200811270750 METAR COR EGLL 270750Z 21009KT 7000 FEW042 08/06 Q1016 NOSIG=
200811270720 METAR COR EGLL 270720Z 20009KT 6000 FEW044 07/06 Q1016 TEMPO
                        BKN007=
200811270650 METAR COR EGLL 270650Z 20008KT 170V260 7000 SCT047 07/06
                        Q1017 TEMPO BKN007=
200811270620 METAR COR EGLL 270620Z 21009KT 7000 SCT049 08/06 Q1017 TEMPO
                        BKN007=
200811270550 METAR COR EGLL 270550Z 22010KT 6000 FEW049 07/06 Q1017 TEMPO
                        BKN007=
200811270520 METAR COR EGLL 270520Z 21008KT 7000 NSC 08/06 Q1018 TEMPO
                        BKN007=
200811270450 METAR COR EGLL 270450Z 21006KT 7000 NSC 08/06 Q1018 TEMPO
                        4500 BR=
200811270420 METAR COR EGLL 270420Z 21006KT 7000 NSC 08/06 Q1018 TEMPO
                        4500 BR=
200811270350 METAR COR EGLL 270350Z 23007KT 8000 NSC 09/07 Q1019 NOSIG=
200811270320 METAR EGLL 270320Z NIL=
200811270250 METAR COR EGLL 270250Z 23007KT 5000 HZ FEW010 08/07 Q1020
                        TEMPO 2500 BR BKN008=
200811270220 METAR EGLL 270220Z AUTO 22005KT 5000NDV NCD 08/07 Q1020=
200811270150 METAR EGLL 270150Z AUTO 21006KT 6000NDV NCD 08/07 Q1021=
200811270120 METAR EGLL 270120Z AUTO 21005KT 6000NDV NCD 08/07 Q1021=
200811270050 METAR COR EGLL 270050Z 21005KT 6000 NSC 08/07 Q1021 TEMPO
                        2000 BR=
200811270020 METAR COR EGLL 270020Z 21004KT 7000 SCT009 BKN019 08/07 Q1022
                        TEMPO 4000 BR BKN006=
200811262350 METAR COR EGLL 262350Z 21005KT 9000 BKN009 BKN018 09/07 Q1022
                        TEMPO 4000 BR=
200811262320 METAR EGLL 262320Z NIL=
200811262250 METAR COR EGLL 262250Z 24007KT 8000 SCT013 BKN017 OVC022
                        09/07 Q1023 TEMPO 4000 BR BKN010=
200811262220 METAR COR EGLL 262220Z 24009KT 9000 BKN017 BKN025 09/07 Q1023
                        TEMPO 4000 BR BKN014=
200811262150 METAR COR EGLL 262150Z 23009KT 200V260 9000 BKN018 BKN022
                        09/07 Q1023 TEMPO 4000 BR BKN014=
200811262120 METAR COR EGLL 262120Z 22009KT 190V250 9000 BKN018 09/07
                        Q1023 TEMPO 4000 BR BKN014=
200811262050 METAR COR EGLL 262050Z 22008KT 180V260 9999 BKN017 09/07
                        Q1024 TEMPO BKN014=
200811262020 METAR COR EGLL 262020Z 22008KT 190V250 9999 OVC018 09/07
                        Q1024 TEMPO BKN013=
200811261950 METAR COR EGLL 261950Z 21008KT 170V250 9999 OVC016 09/07
                        Q1024 TEMPO BKN012=
200811261920 METAR COR EGLL 261920Z 21007KT 170V240 9999 OVC015 09/07
                        Q1024 BECMG BKN014=
200811261850 METAR COR EGLL 261850Z 21007KT 170V250 9999 BKN015 09/07
                        Q1024 BECMG BKN014=
200811261820 METAR COR EGLL 261820Z 21007KT 180V250 9999 OVC015 09/07
                        Q1024 BECMG BKN014=
200811261750 METAR COR EGLL 261750Z 20007KT 150V250 9999 OVC014 09/07
                        Q1024 NOSIG=
200811261720 METAR COR EGLL 261720Z 27005KT 9999 OVC013 09/07 Q1024 NOSIG=
200811261650 METAR COR EGLL 261650Z 26008KT 9999 OVC014 09/07 Q1024 TEMPO
                        BKN015=
200811261620 METAR COR EGLL 261620Z 27007KT 9000 OVC013 09/07 Q1025 NOSIG=
200811261550 METAR COR EGLL 261550Z 27008KT 9999 BKN013 09/07 Q1025 NOSIG=
200811261520 METAR EGLL 261520Z 28007KT 9999 SCT012 BKN018 09/07 Q1025=
200811261450 METAR COR EGLL 261450Z 27006KT 9999 OVC012 09/07 Q1025 NOSIG=
200811261420 METAR COR EGLL 261420Z 24006KT 9999 BKN013 09/07 Q1025 BECMG
                        BKN015=
200811261350 METAR COR EGLL 261350Z 25006KT 210V270 9999 OVC012 09/06
                        Q1026 BECMG BKN015=
200811261320 METAR COR EGLL 261320Z 25006KT 210V270 9999 OVC011 09/06
                        Q1026 NOSIG=
200811261250 METAR COR EGLL 261250Z 24006KT 9999 OVC012 09/06 Q1026 BECMG
                        BKN015=
200811261220 METAR COR EGLL 261220Z 26006KT 9999 OVC013 08/06 Q1026 BECMG
                        BKN015=
200811261150 METAR COR EGLL 261150Z 27006KT 9999 OVC012 08/06 Q1027 BECMG
                        BKN015=
200811261120 METAR COR EGLL 261120Z 26007KT 9999 OVC013 08/05 Q1027 BECMG
                        BKN014=
200811261050 METAR COR EGLL 261050Z 25007KT 9999 OVC014 08/05 Q1027 TEMPO
                        BKN012=
200811261020 METAR COR EGLL 261020Z 26007KT 9999 BKN014 07/05 Q1027 TEMPO
                        BKN009=
200811260950 METAR COR EGLL 260950Z 27006KT 9999 BKN013 06/04 Q1027 BECMG
                        BKN015=
200811260920 METAR COR EGLL 260920Z 26007KT 9999 FEW009 BKN012 06/04 Q1027
                        TEMPO BKN009=
200811260850 METAR COR EGLL 260850Z 26006KT 9999 BKN009 OVC012 05/04 Q1027
                        TEMPO SCT009=
200811260820 METAR COR EGLL 260820Z 27006KT 9999 BKN009 OVC011 05/03 Q1027
                        TEMPO SCT009=
200811260750 METAR COR EGLL 260750Z 27007KT 9999 OVC011 04/03 Q1027 TEMPO
                        BKN008=
200811260720 METAR COR EGLL 260720Z 27007KT 9999 BKN012 04/02 Q1027 TEMPO
                        4000 BKN006=
200811260650 METAR COR EGLL 260650Z 28009KT 9999 OVC012 04/03 Q1027 TEMPO
                        3000 BKN006=
200811260620 METAR COR EGLL 260620Z 27008KT 9999 FEW006 BKN011 03/02 Q1027
                        TEMPO 3000 -DZ BKN006=
200811260550 METAR COR EGLL 260550Z 26007KT 5000 BR SCT006 BKN012 03/02
                        Q1027 TEMPO 3000 BKN006=
200811260520 METAR COR EGLL 260520Z 23005KT 3000 DZ BKN008 BKN014 02/01
                        Q1027 BECMG 7000=
200811260450 METAR COR EGLL 260450Z 22004KT 8000 FEW015 BKN019 02/00 Q1027
                        BECMG BKN010=
200811260420 METAR COR EGLL 260420Z 23006KT 8000 SCT009 SCT012 BKN020
                        02/M00 Q1027 BECMG BKN010=
200811260350 METAR COR EGLL 260350Z 26005KT 9999 SCT013 BKN019 02/M00
                        Q1028 BECMG BKN013=
200811260320 METAR COR EGLL 260320Z 26005KT 9999 BKN022 BKN029 01/M01
                        Q1028 TEMPO BKN014=
200811260250 METAR COR EGLL 260250Z 27005KT 9999 BKN029 01/M01 Q1028 TEMPO
                        BKN014=
200811260220 METAR EGLL 260220Z AUTO 26006KT 9999NDV FEW023/// M00/M02
                        Q1028=
200811260150 METAR EGLL 260150Z AUTO 26004KT 9999NDV NCD 01/M02 Q1028=
200811260120 METAR EGLL 260120Z AUTO 26004KT 9999NDV NCD 01/M01 Q1028=
200811260050 METAR COR EGLL 260050Z 27004KT CAVOK 00/M02 Q1028 NOSIG=
200811260020 METAR COR EGLL 260020Z 29004KT CAVOK 01/M01 Q1028 NOSIG=
200811252350 METAR COR EGLL 252350Z 29006KT CAVOK 02/M01 Q1028 NOSIG=
200811252320 METAR COR EGLL 252320Z 29004KT CAVOK 02/M01 Q1028 NOSIG=
200811252250 METAR COR EGLL 252250Z 29005KT CAVOK 02/M01 Q1028 NOSIG=
200811252220 METAR COR EGLL 252220Z 29005KT CAVOK 03/M01 Q1028 NOSIG=
200811252150 METAR COR EGLL 252150Z 30005KT CAVOK 03/M01 Q1028 NOSIG=
200811252120 METAR COR EGLL 252120Z 31004KT CAVOK 03/M00 Q1027 NOSIG=
200811252050 METAR COR EGLL 252050Z 32006KT CAVOK 04/00 Q1027 NOSIG=
200811252020 METAR COR EGLL 252020Z 31004KT CAVOK 04/00 Q1027 NOSIG=
200811251950 METAR COR EGLL 251950Z 31004KT CAVOK 04/01 Q1027 NOSIG=
200811251920 METAR COR EGLL 251920Z 31003KT CAVOK 05/01 Q1027 NOSIG=
200811251850 METAR COR EGLL 251850Z 32005KT 280V340 CAVOK 05/01 Q1026
                        NOSIG=
200811251820 METAR COR EGLL 251820Z 33005KT 9999 FEW041 05/01 Q1026 NOSIG=
200811251750 METAR COR EGLL 251750Z 34005KT 290V010 9999 FEW041 05/01
                        Q1025 NOSIG=
200811251720 METAR COR EGLL 251720Z 33006KT 300V360 9999 FEW041 05/01
                        Q1025 NOSIG=
200811251650 METAR COR EGLL 251650Z 32006KT CAVOK 05/01 Q1024 NOSIG=
200811251620 METAR COR EGLL 251620Z 32005KT 290V360 9999 FEW026 06/01
                        Q1024 NOSIG=
200811251550 METAR COR EGLL 251550Z 34006KT 310V020 9999 FEW027 06/01
                        Q1023 NOSIG=
200811251520 METAR COR EGLL 251520Z 35006KT 320V030 9999 FEW030 07/01
                        Q1023 NOSIG=
200811251450 METAR COR EGLL 251450Z 35007KT 310V020 9999 FEW030 08/02
                        Q1023 NOSIG=
200811251420 METAR COR EGLL 251420Z 36008KT 330V040 9999 FEW028 08/01
                        Q1023 NOSIG=
200811251350 METAR COR EGLL 251350Z 35008KT 330V030 9999 SCT029 08/01
                        Q1022 NOSIG=
200811251320 METAR COR EGLL 251320Z 35009KT 300V020 9999 SCT027 08/01
                        Q1022 NOSIG=
200811251250 METAR COR EGLL 251250Z 35010KT 320V030 9999 SCT028 07/01
                        Q1022 NOSIG=
200811251220 METAR COR EGLL 251220Z 35009KT 300V030 9999 FEW048 08/01
                        Q1021 NOSIG=
200811251150 METAR COR EGLL 251150Z 36008KT 9999 FEW024 07/01 Q1021 NOSIG=
200811251120 METAR COR EGLL 251120Z 35010KT 320V030 9999 FEW020 07/01
                        Q1021 NOSIG=
200811251050 METAR COR EGLL 251050Z 36009KT 320V020 9999 FEW020 06/01
                        Q1021 NOSIG=
200811251020 METAR COR EGLL 251020Z 34009KT 310V010 9999 FEW040 05/01
                        Q1021 NOSIG=
200811250950 METAR COR EGLL 250950Z 35009KT 310V020 CAVOK 05/01 Q1021
                        NOSIG=
200811250920 METAR COR EGLL 250920Z 34008KT 300V010 CAVOK 04/00 Q1020
                        TEMPO 34015G25KT=
200811250850 METAR COR EGLL 250850Z 35009KT 310V020 CAVOK 03/00 Q1020
                        TEMPO 35015G25KT=
200811250820 METAR COR EGLL 250820Z 34007KT 300V030 9999 FEW040 03/00
                        Q1019 TEMPO 34015G25KT=
200811250750 METAR COR EGLL 250750Z 34007KT 310V020 9999 FEW040 03/M00
                        Q1019 NOSIG=
200811250720 METAR COR EGLL 250720Z 34008KT 300V010 CAVOK 03/M00 Q1018
                        NOSIG=
200811250650 METAR COR EGLL 250650Z 34008KT 310V020 CAVOK 03/M00 Q1017
                        NOSIG=
200811250620 METAR COR EGLL 250620Z 33007KT 300V010 CAVOK 02/M01 Q1017
                        NOSIG=
200811250550 METAR COR EGLL 250550Z 32008KT CAVOK 02/M01 Q1016 NOSIG=
200811250520 METAR COR EGLL 250520Z 33007KT 290V360 CAVOK 02/M01 Q1016
                        NOSIG=
200811250450 METAR COR EGLL 250450Z 33007KT 300V010 CAVOK 02/M01 Q1016
                        NOSIG=
200811250420 METAR COR EGLL 250420Z 33007KT CAVOK 02/M01 Q1016 NOSIG=
200811250350 METAR COR EGLL 250350Z 33008KT CAVOK 02/M00 Q1015 NOSIG=
200811250320 METAR COR EGLL 250320Z 33008KT CAVOK 03/M00 Q1015 NOSIG=
200811250250 METAR COR EGLL 250250Z 34008KT 310V020 9999 NSC 03/M00 Q1015
                        NOSIG=
200811250220 METAR EGLL 250220Z AUTO 34009KT 310V010 9999NDV NCD 03/00
                        Q1015=
200811250150 METAR EGLL 250150Z AUTO 34008KT 310V020 9999NDV NCD 03/00
                        Q1014=
200811250120 METAR EGLL 250120Z AUTO 34008KT 320V020 9999NDV NCD 03/01
                        Q1014=
200811250050 METAR COR EGLL 250050Z 35008KT 320V020 CAVOK 03/01 Q1014
                        NOSIG=
200811250020 METAR COR EGLL 250020Z 35008KT 320V030 CAVOK 03/00 Q1014
                        NOSIG=
200811242350 METAR COR EGLL 242350Z 35008KT 320V030 9999 FEW019 03/01
                        Q1013 NOSIG=
200811242320 METAR COR EGLL 242320Z 35008KT 9999 FEW018 04/01 Q1013 NOSIG=
200811242250 METAR COR EGLL 242250Z 34007KT 300V010 9999 FEW030 03/01
                        Q1013 NOSIG=
200811242220 METAR COR EGLL 242220Z 35008KT 9999 FEW016 03/01 Q1012 NOSIG=
200811242150 METAR COR EGLL 242150Z 34008KT 310V010 9999 SCT016 04/01
                        Q1012 TEMPO 35015G25KT SHRAGS=
200811242120 METAR COR EGLL 242120Z 35010KT 310V020 9999 SCT016 04/01
                        Q1012 TEMPO 35015G25KT SHRAGS=
200811242050 METAR COR EGLL 242050Z 35008KT 320V030 9999 SCT018 04/01
                        Q1011 TEMPO 35015G25KT SHRAGS=
200811242020 METAR COR EGLL 242020Z 35007KT 320V050 CAVOK 04/00 Q1011
                        TEMPO 35015G25KT=
200811241950 METAR COR EGLL 241950Z 35007KT 310V040 CAVOK 04/00 Q1011
                        TEMPO 35015G25KT=
200811241920 METAR COR EGLL 241920Z 35006KT 310V040 9999 FEW039 04/M00
                        Q1010 NOSIG=
200811241850 METAR COR EGLL 241850Z 35006KT 300V020 CAVOK 04/M00 Q1010
                        NOSIG=
200811241820 METAR COR EGLL 241820Z 36006KT 310V020 9999 SCT039 SCT049
                        05/M00 Q1009 TEMPO SHRA=
200811241750 METAR COR EGLL 241750Z 36007KT 330V040 9999 SCT046 05/M01
                        Q1008 NOSIG=
200811241720 METAR COR EGLL 241720Z 36007KT 330V030 CAVOK 05/M00 Q1008
                        NOSIG=
200811241650 METAR COR EGLL 241650Z 36007KT CAVOK 05/M00 Q1007 NOSIG=
200811241620 METAR COR EGLL 241620Z 01007KT 340V040 9999 VCSH FEW043 06/M01
                        Q1006 NOSIG=
200811241550 METAR COR EGLL 241550Z 02009KT 330V050 9999 SCT043 06/M01
                        Q1006 TEMPO 02015G25KT=
200811241520 METAR COR EGLL 241520Z 01010KT 330V060 9999 SCT044 07/M00
                        Q1005 TEMPO 01017G27KT SHRA=
200811241450 METAR COR EGLL 241450Z 02011KT 340V050 9999 VCSH FEW040 07/00
                        Q1004 TEMPO 02016G26KT SHRA=
200811241420 METAR COR EGLL 241420Z 03012G25KT 350V060 9999 FEW037CB 08/00
                        Q1003 NOSIG=
200811241350 METAR COR EGLL 241350Z 03011G21KT 360V070 9999 FEW041 SCT046
                        07/M01 Q1003 TEMPO 03018G31KT=
200811241320 METAR COR EGLL 241320Z 03011G21KT 340V050 9999 FEW042 07/M00
                        Q1002 TEMPO 03018G28KT=
200811241250 METAR EGLL 241250Z 03010KT 340V080 9999 FEW020 07/00 Q1001
                        NOSIG=
200811241220 METAR COR EGLL 241220Z 03012KT 350V060 9999 FEW023 06/01
                        Q1000 TEMPO 03018G28KT=
200811241150 METAR COR EGLL 241150Z 03011KT 9999 FEW023 06/01 Q1000 TEMPO
                        03017G27KT=
200811241120 METAR COR EGLL 241120Z 03012G22KT 350V060 9999 SCT024 SCT030
                        06/01 Q0999 NOSIG=
200811241050 METAR COR EGLL 241050Z 03011KT 350V080 9999 SCT023 SCT044
                        06/01 Q0998 TEMPO 03018G28KT=
200811241020 METAR EGLL 241020Z 03010KT 350V060 9999 SCT022 05/02 Q0997=
200811240950 METAR COR EGLL 240950Z 02010KT 9999 SCT019 BKN024 05/02 Q0996
                        TEMPO 02017G27KT=
200811240920 METAR COR EGLL 240920Z 02009KT 9999 FEW014 SCT022 05/03 Q0995
                        TEMPO BKN014=
200811240850 METAR COR EGLL 240850Z 01008KT 340V050 9999 BKN012 05/03
                        Q0994 TEMPO BKN015=
200811240820 METAR COR EGLL 240820Z 34007KT 300V010 9999 -RA FEW012 SCT020
                        05/02 Q0993 TEMPO BKN014=
200811240750 METAR COR EGLL 240750Z 32007KT 9999 -RA FEW012 SCT020 04/02
                        Q0992 TEMPO RA BKN014=
200811240720 METAR COR EGLL 240720Z 30005KT 280V340 8000 FEW010 BKN020
                        04/02 Q0991 TEMPO BKN012=
200811240650 METAR COR EGLL 240650Z 29007KT 9999 FEW028 SCT040 03/01 Q0991
                        NOSIG=
200811240620 METAR COR EGLL 240620Z 28006KT 9999 BKN037 03/01 Q0990 NOSIG=
200811240550 METAR COR EGLL 240550Z 28007KT 9999 FEW020 BKN039 03/01 Q0990
                        NOSIG=
200811240520 METAR COR EGLL 240520Z 28006KT 9999 FEW020 SCT040 03/01 Q0990
                        NOSIG=
200811240450 METAR COR EGLL 240450Z 28007KT 9999 SCT020 SCT039 04/01 Q0989
                        NOSIG=
200811240420 METAR COR EGLL 240420Z 29007KT 9999 FEW028 SCT033 04/01 Q0989
                        NOSIG=
200811240350 METAR COR EGLL 240350Z 29007KT 9999 FEW022 SCT032 03/01 Q0989
                        NOSIG=
200811240320 METAR COR EGLL 240320Z 28009KT 9999 FEW023 SCT036 04/01 Q0988
                        NOSIG=
200811240250 METAR COR EGLL 240250Z 28008KT 9999 SCT023 BKN038 04/01 Q0989
                        NOSIG=
200811240220 METAR EGLL 240220Z AUTO 28009KT 9999NDV SCT028/// SCT043///
                        04/01 Q0989=
200811240150 METAR EGLL 240150Z AUTO 28009KT 9999NDV BKN028/// 04/01 Q0989=
200811240120 METAR EGLL 240120Z AUTO 27009KT 9999NDV SCT029/// SCT035///
                        04/01 Q0989=
200811240050 METAR COR EGLL 240050Z 27009KT 9999 SCT031 04/01 Q0989 NOSIG=
200811240020 METAR COR EGLL 240020Z 27008KT 9999 SCT033 03/01 Q0989 NOSIG=
200811232350 METAR COR EGLL 232350Z 28010KT CAVOK 04/01 Q0988 NOSIG=
200811232320 METAR COR EGLL 232320Z 28011KT CAVOK 04/01 Q0988 NOSIG=
200811232250 METAR COR EGLL 232250Z 28012KT CAVOK 04/02 Q0989 NOSIG=
200811232220 METAR COR EGLL 232220Z 28013KT 9999 FEW022 04/02 Q0989 NOSIG=
200811232150 METAR COR EGLL 232150Z 28013KT 9999 FEW034 05/02 Q0989 NOSIG=
200811232120 METAR COR EGLL 232120Z 29013KT 9999 FEW020 06/02 Q0989 NOSIG=
200811232050 METAR COR EGLL 232050Z 29013KT 9999 -SHRA SCT019 SCT028 05/02
                        Q0989 NOSIG=
200811232020 METAR COR EGLL 232020Z 29014G25KT 9999 -SHRA BKN018 05/02
                        Q0989 NOSIG=
200811231950 METAR COR EGLL 231950Z 29016KT 9999 FEW022 06/02 Q0989 NOSIG=
200811231920 METAR COR EGLL 231920Z 29013KT 9999 FEW023 BKN027 05/02 Q0989
                        NOSIG=
200811231850 METAR COR EGLL 231850Z 27013KT 9999 SCT033 BKN040 05/02 Q0990
                        NOSIG=
200811231820 METAR COR EGLL 231820Z 27011KT CAVOK 05/02 Q0990 NOSIG=
200811231750 METAR COR EGLL 231750Z 27011KT CAVOK 05/03 Q0990 NOSIG=
200811231720 METAR COR EGLL 231720Z 28010KT 9999 FEW019 SCT030 06/03 Q0991
                        TEMPO 4000 SHRA=
200811231650 METAR COR EGLL 231650Z 31013G26KT 8000 SCT023 SCT034 07/04
                        Q0991 TEMPO 4000 SHRA=
200811231620 METAR COR EGLL 231620Z 28012KT 9999 VCSH FEW015CB 07/03 Q0990
                        TEMPO 4000 SHRA=
200811231550 METAR COR EGLL 231550Z 27008KT 9999 FEW015CB 06/04 Q0991
                        TEMPO 4000 SHRA=
200811231520 METAR COR EGLL 231520Z 29008KT 9999 FEW017 07/04 Q0991 TEMPO
                        4000 SHRA=
200811231450 METAR COR EGLL 231450Z 30014G26KT 9999 5000SE -SHRA FEW015
                        SCT034 07/04 Q0992 RERA TEMPO 4000
                        SHRA=
200811231420 METAR COR EGLL 231420Z 29010KT 9999 4500SE SHRA SCT025 BKN030
                        08/05 Q0992 NOSIG=
200811231350 METAR COR EGLL 231350Z 28009KT 9999 FEW024 BKN037 08/05 Q0992
                        NOSIG=
200811231320 METAR COR EGLL 231320Z 30008KT CAVOK 08/05 Q0993 NOSIG=
200811231250 METAR COR EGLL 231250Z 30008KT 9999 SCT048 07/05 Q0993 NOSIG=
200811231220 METAR COR EGLL 231220Z 29005KT 260V320 9999 FEW018 SCT031
                        BKN045 07/06 Q0994 NOSIG=
200811231150 METAR COR EGLL 231150Z 33004KT 280V010 9999 SCT018 SCT043
                        06/05 Q0994 RERA NOSIG=
200811231120 METAR COR EGLL 231120Z 31006KT 280V340 5000 RA FEW005 SCT024
                        05/04 Q0995 RERA TEMPO BKN007=
200811231050 METAR COR EGLL 231050Z 23010KT 190V270 9000 -RA SCT005 BKN035
                        05/04 Q0995 RERA TEMPO BKN005=
200811231020 METAR COR EGLL 231020Z 19015KT 170V230 5000 -RASN BKN005
                        BKN007 03/03 Q0996 TEMPO BKN010=
200811230950 METAR COR EGLL 230950Z 19012KT 5000 -RA BKN005 BKN007 02/01
                        Q0998 TEMPO BKN010=
200811230920 METAR COR EGLL 230920Z 19012KT 8000 -RA SCT006 BKN010 01/M00
                        Q1000 TEMPO 4000 RA BKN006=
200811230850 METAR COR EGLL 230850Z 18011KT 8000 -RA FEW006 SCT009 BKN019
                        00/M01 Q1002 TEMPO 4000 BKN006=
200811230820 METAR COR EGLL 230820Z 19011KT 3500 -SG SCT020 BKN030 M00/M01
                        Q1004 TEMPO 1200 SN BKN005=
200811230750 METAR COR EGLL 230750Z 20009KT 180V240 3700 -SN BKN022 BKN026
                        M00/M02 Q1006 RESN TEMPO 1200 SN
                        BKN005=
200811230720 METAR COR EGLL 230720Z 21010KT 2500 SN SCT027 BKN030 01/M04
                        Q1007 NOSIG=
200811230650 METAR COR EGLL 230650Z 21009KT 9999 -SG SCT030 01/M04 Q1008
                        TEMPO 4000 SN BKN008=
200811230620 METAR COR EGLL 230620Z 21008KT 9999 FEW043 00/M04 Q1009 TEMPO
                        -SN=
200811230550 METAR COR EGLL 230550Z 19006KT CAVOK M00/M04 Q1010 TEMPO
                        -SN=
200811230520 METAR COR EGLL 230520Z 20005KT CAVOK M00/M04 Q1011 TEMPO
                        -RASN=
200811230450 METAR COR EGLL 230450Z 20005KT CAVOK M00/M04 Q1012 NOSIG=
200811230420 METAR COR EGLL 230420Z 22004KT 180V250 CAVOK M00/M04 Q1013
                        NOSIG=
200811230350 METAR COR EGLL 230350Z 23005KT 200V260 CAVOK M01/M04 Q1014
                        NOSIG=
200811230320 METAR COR EGLL 230320Z 25006KT CAVOK M01/M05 Q1014 NOSIG=
200811230250 METAR COR EGLL 230250Z 26005KT CAVOK M01/M05 Q1015 NOSIG=
200811230220 METAR EGLL 230220Z AUTO 27006KT 9999NDV NCD M01/M05 Q1016=
200811230150 METAR EGLL 230150Z AUTO 27005KT 9999NDV NCD M01/M05 Q1016=
200811230120 METAR EGLL 230120Z AUTO 27005KT 9999NDV NCD M02/M05 Q1016=
200811230050 METAR COR EGLL 230050Z 28005KT CAVOK M02/M06 Q1016 NOSIG=
200811230020 METAR COR EGLL 230020Z 28004KT CAVOK M02/M06 Q1017 NOSIG=
200811222350 METAR COR EGLL 222350Z 27004KT CAVOK M01/M06 Q1018 NOSIG=
200811222320 METAR COR EGLL 222320Z 29004KT CAVOK 00/M06 Q1018 NOSIG=
200811222250 METAR COR EGLL 222250Z VRB03KT CAVOK 01/M06 Q1017 NOSIG=
200811222220 METAR COR EGLL 222220Z 30004KT 270V330 CAVOK 01/M06 Q1017
                        NOSIG=
200811222150 METAR COR EGLL 222150Z 32005KT CAVOK 01/M06 Q1018 NOSIG=
200811222120 METAR COR EGLL 222120Z 33005KT 300V010 CAVOK 02/M06 Q1018
                        NOSIG=
200811222050 METAR COR EGLL 222050Z 31005KT CAVOK 02/M05 Q1018 NOSIG=
200811222020 METAR COR EGLL 222020Z 30005KT CAVOK 02/M05 Q1018 NOSIG=
200811221950 METAR COR EGLL 221950Z 32004KT 290V350 CAVOK 02/M05 Q1018
                        NOSIG=
200811221920 METAR COR EGLL 221920Z 34004KT 290V020 CAVOK 03/M05 Q1018
                        NOSIG=
200811221850 METAR COR EGLL 221850Z 32004KT 9999 FEW048 03/M05 Q1018 NOSIG=
200811221820 METAR COR EGLL 221820Z 34004KT 300V010 CAVOK 03/M05 Q1018
                        NOSIG=
200811221750 METAR COR EGLL 221750Z 34004KT 310V010 CAVOK 03/M05 Q1018
                        NOSIG=
200811221720 METAR COR EGLL 221720Z 35006KT 310V020 9999 FEW049 04/M05
                        Q1017 NOSIG=
200811221650 METAR COR EGLL 221650Z 36006KT 320V040 9999 FEW043 05/M04
                        Q1017 NOSIG=
200811221620 METAR EGLL 221620Z 33008KT 290V360 9999 SCT048 05/M04 Q1017=
200811221550 METAR EGLL 221550Z 35004KT CAVOK 05/M04 Q1017=
200811221520 METAR COR EGLL 221520Z 35004KT 310V030 CAVOK 06/M04 Q1016
                        NOSIG=
200811221450 METAR COR EGLL 221450Z 34005KT 300V020 CAVOK 05/M04 Q1016
                        NOSIG=
200811221420 METAR COR EGLL 221420Z 33007KT 310V010 9999 FEW042 06/M04
                        Q1016 NOSIG=
200811221350 METAR COR EGLL 221350Z 34008KT 300V020 9999 FEW041 06/M04
                        Q1017 NOSIG=
200811221320 METAR COR EGLL 221320Z 36010KT 310V040 9999 FEW043 07/M03
                        Q1017 NOSIG=
200811221250 METAR COR EGLL 221250Z 32011G21KT 300V020 9999 SCT046 06/M04
                        Q1017 NOSIG=
200811221220 METAR COR EGLL 221220Z 34010KT 310V020 9999 BKN045 06/M03
                        Q1017 NOSIG=
200811221150 METAR COR EGLL 221150Z 34011KT 300V010 9999 FEW045 07/M03
                        Q1017 NOSIG=
200811221120 METAR COR EGLL 221120Z 35010KT 310V020 9999 FEW045 07/M03
                        Q1017 NOSIG=
200811221050 METAR COR EGLL 221050Z 33010KT 300V360 9999 FEW045 06/M03
                        Q1017 NOSIG=
200811221020 METAR COR EGLL 221020Z 31007KT 280V350 9999 FEW044 06/M02
                        Q1017 NOSIG=
200811220950 METAR COR EGLL 220950Z 31008KT 280V350 9999 FEW044 06/M02
                        Q1017 NOSIG=
200811220920 METAR COR EGLL 220920Z 31008KT 9999 FEW048 05/M01 Q1017 NOSIG=
200811220850 METAR COR EGLL 220850Z 29009KT 9999 FEW048 05/M01 Q1017 NOSIG=
200811220820 METAR COR EGLL 220820Z 30004KT 9999 FEW048 05/M01 Q1017 NOSIG=
200811220750 METAR COR EGLL 220750Z 30005KT 9999 FEW048 05/M00 Q1017 NOSIG=
200811220720 METAR COR EGLL 220720Z 32005KT 300V360 9999 FEW048 05/M01
                        Q1017 NOSIG=
200811220650 METAR COR EGLL 220650Z 33005KT 9999 FEW048 05/M02 Q1016 NOSIG=
200811220620 METAR COR EGLL 220620Z 33007KT 300V010 9999 FEW048 05/M02
                        Q1016 NOSIG=
200811220550 METAR COR EGLL 220550Z 32010KT 290V350 9999 FEW045 05/M01
                        Q1016 NOSIG=
200811220520 METAR COR EGLL 220520Z 32007KT 9999 FEW048 06/M00 Q1016 NOSIG=
200811220450 METAR COR EGLL 220450Z 31007KT 290V350 CAVOK 05/00 Q1016
                        NOSIG=
200811220420 METAR EGLL 220420Z 31006KT 9999 FEW036 05/01 Q1016=
200811220350 METAR COR EGLL 220350Z 30008KT 9999 FEW036 05/00 Q1016 NOSIG=
200811220320 METAR COR EGLL 220320Z 30007KT 9999 FEW035 05/00 Q1016 NOSIG=
200811220250 METAR COR EGLL 220250Z 30007KT 9999 FEW047 04/00 Q1017 NOSIG=
200811220220 METAR COR EGLL 220220Z AUTO 27007KT 9999NDV NCD 04/00 Q1016
                        NOSIG=
200811220150 METAR EGLL 220150Z AUTO 26006KT 9999NDV NCD 03/M00 Q1017=
200811220120 METAR EGLL 220120Z AUTO 28006KT 9999NDV FEW039/// 03/M01
                        Q1017=
200811220050 METAR COR EGLL 220050Z 29007KT CAVOK 03/M01 Q1018 NOSIG=
200811220020 METAR COR EGLL 220020Z 30005KT CAVOK 03/M02 Q1017 NOSIG=
200811212350 METAR COR EGLL 212350Z 29007KT CAVOK 03/M02 Q1018 NOSIG=
200811212320 METAR COR EGLL 212320Z 29006KT CAVOK 03/M02 Q1017 NOSIG=
200811212250 METAR COR EGLL 212250Z 29007KT CAVOK 04/M02 Q1018 NOSIG=
200811212220 METAR COR EGLL 212220Z 31006KT CAVOK 04/M02 Q1018 NOSIG=
200811212150 METAR COR EGLL 212150Z 31007KT CAVOK 05/M02 Q1018 NOSIG=
200811212120 METAR COR EGLL 212120Z 33008KT CAVOK 05/M03 Q1018 NOSIG=
200811212050 METAR COR EGLL 212050Z 32009KT 300V360 CAVOK 05/M03 Q1018
                        NOSIG=
200811212020 METAR COR EGLL 212020Z 33009KT 290V020 9999 FEW028 05/M02
                        Q1017 NOSIG=
200811211950 METAR COR EGLL 211950Z 34008KT 300V010 9999 FEW031 06/00
                        Q1017 NOSIG=
200811211920 METAR COR EGLL 211920Z 36012KT 330V030 9999 FEW031 07/01
                        Q1016 NOSIG=
200811211850 METAR COR EGLL 211850Z 31010KT 9999 FEW030 07/03 Q1016 NOSIG=
200811211820 METAR COR EGLL 211820Z 30011KT 280V350 CAVOK 07/04 Q1015
                        NOSIG=
200811211750 METAR COR EGLL 211750Z 30011KT CAVOK 08/04 Q1015 NOSIG=
200811211720 METAR COR EGLL 211720Z 30013KT 9999 FEW043 08/03 Q1015 NOSIG=
200811211650 METAR COR EGLL 211650Z 30013KT 9999 FEW028 BKN038 07/03 Q1015
                        NOSIG=
200811211620 METAR COR EGLL 211620Z 29011KT 9999 7000W -SHRA FEW016 SCT031
                        BKN038 07/04 Q1015 NOSIG=
200811211550 METAR COR EGLL 211550Z 30010KT 8000 -SHRA SCT023 SCT034 08/03
                        Q1015 NOSIG=
200811211520 METAR COR EGLL 211520Z 31011KT 9999 FEW033 BKN044 09/01 Q1015
                        NOSIG=
200811211450 METAR COR EGLL 211450Z 30009KT CAVOK 09/M01 Q1015 NOSIG=
200811211420 METAR COR EGLL 211420Z 31011KT CAVOK 09/M02 Q1015 NOSIG=
200811211350 METAR COR EGLL 211350Z 31012G23KT 280V350 CAVOK 10/M04 Q1015
                        NOSIG=
200811211320 METAR COR EGLL 211320Z 32015G25KT CAVOK 10/M02 Q1015 NOSIG=
200811211250 METAR COR EGLL 211250Z 32017G30KT 290V350 CAVOK 10/M02 Q1015
                        NOSIG=
200811211220 METAR COR EGLL 211220Z 32016G26KT 9999 FEW034 SCT043 10/M01
                        Q1015 NOSIG=
200811211150 METAR COR EGLL 211150Z 31013KT 300V360 9999 SCT043 10/02
                        Q1014 NOSIG=
200811211120 METAR COR EGLL 211120Z 31013KT 9999 FEW032 10/03 Q1015 NOSIG=
200811211050 METAR COR EGLL 211050Z 30012KT 9999 FEW036 10/04 Q1015 NOSIG=
200811211020 METAR COR EGLL 211020Z 32014KT 9999 SCT034 10/01 Q1015 NOSIG=
200811210950 METAR COR EGLL 210950Z 32013KT 9999 FEW035 10/02 Q1014 NOSIG=
200811210920 METAR COR EGLL 210920Z 32013KT 9999 FEW035 09/04 Q1014 NOSIG=
200811210850 METAR COR EGLL 210850Z 31011G21KT 9999 -SHRA FEW026 SCT035
                        09/05 Q1014 NOSIG=
200811210820 METAR COR EGLL 210820Z 31011KT 9999 SCT031 SCT045 10/04 Q1014
                        NOSIG=
200811210750 METAR COR EGLL 210750Z 31014G25KT 280V350 9999 FEW045 10/04
                        Q1013 NOSIG=
200811210720 METAR COR EGLL 210720Z 30011KT 9999 FEW031 SCT043 10/05 Q1013
                        NOSIG=
200811210650 METAR COR EGLL 210650Z 30011KT 270V350 9999 SCT044 10/06
                        Q1012 TEMPO 30018G28KT=
200811210620 METAR COR EGLL 210620Z 31013KT 9999 SCT027 10/06 Q1012 NOSIG=
200811210550 METAR COR EGLL 210550Z 30012KT 9999 SCT026 10/06 Q1012 NOSIG=
200811210520 METAR COR EGLL 210520Z 30014G24KT CAVOK 10/07 Q1011 NOSIG=
200811210450 METAR COR EGLL 210450Z 30014G25KT 9999 FEW030 10/07 Q1012
                        NOSIG=
200811210420 METAR COR EGLL 210420Z 30011KT 9999 FEW022 SCT036 10/08 Q1012
                        NOSIG=
200811210350 METAR COR EGLL 210350Z 32011G22KT 290V360 9999 -SHRA SCT011
                        BKN026 10/09 Q1012 TEMPO BKN012=
200811210320 METAR COR EGLL 210320Z 28012KT 9999 -RADZ SCT012 BKN021 11/09
                        Q1011 TEMPO BKN012=
200811210250 METAR COR EGLL 210250Z 28011KT 9999 BKN022 11/09 Q1012 NOSIG=
200811210220 METAR EGLL 210220Z AUTO 27015KT 9999NDV SCT019/// BKN023///
                        11/08 Q1012=
200811210150 METAR EGLL 210150Z AUTO 26009KT 9999NDV FEW016/// SCT019///
                        BKN024/// 11/08 Q1013=
200811210120 METAR EGLL 210120Z AUTO 25011KT 9999NDV FEW024/// SCT028///
                        10/07 Q1013=
200811210050 METAR COR EGLL 210050Z 25011KT 9999 SCT025 SCT035 10/06 Q1014
                        NOSIG=
200811210020 METAR COR EGLL 210020Z 26013KT 9999 SCT023 10/06 Q1015 NOSIG=
200811202350 METAR COR EGLL 202350Z 25011KT 9999 FEW031 SCT043 10/05 Q1015
                        NOSIG=
200811202320 METAR COR EGLL 202320Z 26011KT CAVOK 09/05 Q1015 NOSIG=
200811202250 METAR COR EGLL 202250Z 27009KT CAVOK 09/05 Q1015 NOSIG=
200811202220 METAR EGLL 202220Z 26010KT CAVOK 10/05 Q1015=
200811202150 METAR COR EGLL 202150Z 27010KT CAVOK 09/05 Q1016 NOSIG=
200811202120 METAR COR EGLL 202120Z 27011KT CAVOK 10/05 Q1016 NOSIG=
200811202050 METAR COR EGLL 202050Z 27012KT CAVOK 10/05 Q1017 NOSIG=
200811202020 METAR COR EGLL 202020Z 28011KT CAVOK 10/05 Q1017 NOSIG=
200811201950 METAR COR EGLL 201950Z 27012KT CAVOK 10/05 Q1016 NOSIG=
200811201920 METAR COR EGLL 201920Z 27012KT CAVOK 10/05 Q1017 NOSIG=
200811201850 METAR COR EGLL 201850Z 28011KT CAVOK 11/05 Q1017 NOSIG=
200811201820 METAR COR EGLL 201820Z 29010KT 9999 FEW033 11/06 Q1018 NOSIG=
200811201750 METAR COR EGLL 201750Z 29009KT 9999 FEW035 11/05 Q1018 NOSIG=
200811201720 METAR COR EGLL 201720Z 30009KT 9999 FEW024 12/06 Q1017 NOSIG=
200811201650 METAR COR EGLL 201650Z 29007KT 9999 FEW028 12/05 Q1017 NOSIG=
200811201620 METAR COR EGLL 201620Z 30009KT 270V330 9999 FEW032 12/05
                        Q1017 NOSIG=
200811201550 METAR COR EGLL 201550Z 29009KT 9999 FEW032 13/05 Q1017 NOSIG=
200811201520 METAR COR EGLL 201520Z 29012KT 9999 SCT033 13/06 Q1016 NOSIG=
200811201450 METAR COR EGLL 201450Z 29011KT 9999 FEW031 SCT035 13/06 Q1016
                        NOSIG=
200811201420 METAR COR EGLL 201420Z 27014KT 9999 BKN031 13/07 Q1016 NOSIG=
200811201350 METAR COR EGLL 201350Z 29010KT 9999 BKN032 13/07 Q1017 NOSIG=
200811201320 METAR COR EGLL 201320Z 29012KT 9999 SCT030 13/07 Q1017 NOSIG=
200811201250 METAR COR EGLL 201250Z 29012KT 9999 FEW030 14/07 Q1017 NOSIG=
200811201220 METAR COR EGLL 201220Z 29012KT 9999 FEW030 14/07 Q1017 NOSIG=
200811201150 METAR COR EGLL 201150Z 29013KT 9999 FEW031 14/08 Q1018 NOSIG=
200811201120 METAR COR EGLL 201120Z 29011KT 9999 FEW031 14/09 Q1018 NOSIG=
200811201050 METAR COR EGLL 201050Z 28011KT 9999 FEW024 SCT027 14/09 Q1018
                        TEMPO 30015G25KT=
200811201020 METAR COR EGLL 201020Z 28011KT 9999 BKN023 BKN031 14/09 Q1018
                        NOSIG=
200811200950 METAR COR EGLL 200950Z 27011KT 9999 FEW031 14/09 Q1018 NOSIG=
200811200920 METAR COR EGLL 200920Z 27010KT 9999 FEW029 12/09 Q1018 NOSIG=
200811200850 METAR COR EGLL 200850Z 27011KT 9999 FEW029 11/09 Q1018 NOSIG=
200811200820 METAR COR EGLL 200820Z 26011KT 9999 FEW029 11/09 Q1018 NOSIG=
200811200750 METAR COR EGLL 200750Z 26008KT 9999 FEW030 SCT036 11/09 Q1018
                        NOSIG=
200811200720 METAR COR EGLL 200720Z 26008KT 9999 FEW027 BKN037 11/09 Q1018
                        NOSIG=
200811200650 METAR COR EGLL 200650Z 25008KT 9999 FEW030 BKN037 11/09 Q1018
                        NOSIG=
200811200620 METAR COR EGLL 200620Z 26007KT 9999 BKN034 10/08 Q1017 NOSIG=
200811200550 METAR COR EGLL 200550Z 27008KT 9999 FEW016 SCT029 10/08 Q1017
                        NOSIG=
200811200520 METAR COR EGLL 200520Z 25010KT 9999 FEW016 BKN023 11/08 Q1016
                        NOSIG=
200811200450 METAR COR EGLL 200450Z 25009KT 9999 FEW019 BKN027 11/08 Q1016
                        TEMPO 31018KT=
200811200420 METAR COR EGLL 200420Z 24008KT 9999 BKN019 BKN025 11/08 Q1016
                        TEMPO 30018KT BKN014=
200811200350 METAR COR EGLL 200350Z 24009KT 9999 SCT017 BKN023 10/07 Q1017
                        TEMPO BKN014=
200811200320 METAR COR EGLL 200320Z 24010KT 9999 FEW018 BKN023 10/07 Q1017
                        TEMPO BKN014=
200811200250 METAR COR EGLL 200250Z 25008KT 9999 FEW016 BKN022 10/07 Q1018
                        TEMPO BKN014=
200811200220 METAR EGLL 200220Z AUTO 27005KT 9999NDV FEW018/// OVC020///
                        09/07 Q1017=
200811200150 METAR EGLL 200150Z AUTO 24006KT 9999NDV BKN021/// 09/06 Q1017=
200811200120 METAR EGLL 200120Z AUTO 27008KT 9999NDV SCT021/// 08/06 Q1018=
200811200050 METAR COR EGLL 200050Z 27008KT CAVOK 08/06 Q1018 BECMG BKN022=
200811200020 METAR COR EGLL 200020Z 28006KT CAVOK 07/05 Q1018 BECMG BKN022=
200811192350 METAR COR EGLL 192350Z 27007KT CAVOK 07/05 Q1018 BECMG BKN022=
200811192320 METAR COR EGLL 192320Z 27008KT CAVOK 08/05 Q1019 BECMG BKN022=
200811192250 METAR COR EGLL 192250Z 26008KT CAVOK 08/05 Q1019 NOSIG=
200811192220 METAR COR EGLL 192220Z 29007KT CAVOK 09/05 Q1019 NOSIG=
200811192150 METAR COR EGLL 192150Z 28009KT CAVOK 09/05 Q1019 NOSIG=
200811192120 METAR COR EGLL 192120Z 28008KT CAVOK 10/06 Q1019 NOSIG=
200811192050 METAR COR EGLL 192050Z 28008KT 9999 FEW018 10/07 Q1019 NOSIG=
200811192020 METAR COR EGLL 192020Z 28008KT 9999 FEW016 10/07 Q1019 NOSIG=
200811191950 METAR COR EGLL 191950Z 27008KT CAVOK 10/08 Q1019 NOSIG=
200811191920 METAR COR EGLL 191920Z 27006KT CAVOK 10/08 Q1019 NOSIG=
200811191850 METAR COR EGLL 191850Z 24009KT CAVOK 10/07 Q1019 NOSIG=
200811191820 METAR COR EGLL 191820Z 23007KT CAVOK 11/07 Q1019 NOSIG=
200811191750 METAR COR EGLL 191750Z 26004KT 220V280 CAVOK 11/07 Q1019
                        NOSIG=
200811191720 METAR COR EGLL 191720Z 27004KT CAVOK 11/07 Q1019 NOSIG=
200811191650 METAR COR EGLL 191650Z 29005KT CAVOK 11/07 Q1020 NOSIG=
200811191620 METAR COR EGLL 191620Z 29004KT CAVOK 12/07 Q1020 NOSIG=
200811191550 METAR COR EGLL 191550Z 29007KT 9999 FEW019 12/07 Q1020 NOSIG=
200811191520 METAR COR EGLL 191520Z 29006KT 9999 FEW022 12/07 Q1020 NOSIG=
200811191450 METAR COR EGLL 191450Z 31008KT 9999 FEW022 12/07 Q1020 NOSIG=
200811191420 METAR COR EGLL 191420Z 30008KT 9999 FEW020 12/07 Q1020 NOSIG=
200811191350 METAR COR EGLL 191350Z 30009KT 9999 FEW024 13/07 Q1020 NOSIG=
200811191320 METAR COR EGLL 191320Z 29008KT 9999 FEW028 13/06 Q1021 NOSIG=
200811191250 METAR COR EGLL 191250Z 29009KT 260V330 9999 FEW028 13/06
                        Q1021 NOSIG=
200811191220 METAR COR EGLL 191220Z 30008KT 280V340 9999 FEW032 13/05
                        Q1021 NOSIG=
200811191150 METAR COR EGLL 191150Z 31008KT 280V340 9999 FEW028 12/05
                        Q1021 NOSIG=
200811191120 METAR COR EGLL 191120Z 32011KT 9999 FEW028 12/05 Q1021 NOSIG=
200811191050 METAR COR EGLL 191050Z 31008KT CAVOK 12/06 Q1021 NOSIG=
200811191020 METAR COR EGLL 191020Z 28009KT CAVOK 11/07 Q1021 NOSIG=
200811190950 METAR COR EGLL 190950Z 27010KT CAVOK 10/07 Q1021 NOSIG=
200811190920 METAR COR EGLL 190920Z 26009KT 9999 FEW021 09/07 Q1021 NOSIG=
200811190850 METAR COR EGLL 190850Z 26009KT CAVOK 07/06 Q1021 NOSIG=
200811190820 METAR COR EGLL 190820Z 24007KT 9999 FEW021 07/05 Q1021 NOSIG=
200811190750 METAR COR EGLL 190750Z 23008KT 9999 FEW021 06/05 Q1021 NOSIG=
200811190720 METAR COR EGLL 190720Z 24007KT 9999 FEW021 06/05 Q1021 NOSIG=
200811190650 METAR COR EGLL 190650Z 24008KT 9999 FEW021 06/05 Q1021 NOSIG=
200811190620 METAR COR EGLL 190620Z 24008KT 9999 FEW025 07/05 Q1021 NOSIG=
200811190550 METAR COR EGLL 190550Z 23007KT 9999 FEW025 07/05 Q1021 NOSIG=
200811190520 METAR COR EGLL 190520Z 24007KT 9999 FEW018 08/06 Q1021 NOSIG=
200811190450 METAR COR EGLL 190450Z 25006KT 9999 OVC018 08/06 Q1021 TEMPO
                        BKN012=
200811190420 METAR COR EGLL 190420Z 24005KT 9999 BKN017 08/06 Q1021 TEMPO
                        BKN012=
200811190350 METAR COR EGLL 190350Z 25004KT 9999 OVC016 08/06 Q1022 TEMPO
                        BKN012=
200811190320 METAR COR EGLL 190320Z 25007KT 9999 OVC017 08/06 Q1022 TEMPO
                        BKN012=
200811190250 METAR COR EGLL 190250Z 27007KT 9999 BKN020 07/05 Q1022 TEMPO
                        BKN014=
200811190220 METAR EGLL 190220Z AUTO 26005KT 9999NDV NCD 06/05 Q1022=
200811190150 METAR EGLL 190150Z AUTO 28009KT 9999NDV NCD 06/05 Q1021=
200811190120 METAR EGLL 190120Z AUTO 28008KT 9999NDV NCD 06/05 Q1021=
200811190050 METAR COR EGLL 190050Z 26006KT CAVOK 06/05 Q1022 NOSIG=
200811190020 METAR COR EGLL 190020Z 26006KT CAVOK 06/05 Q1022 NOSIG=
200811182350 METAR COR EGLL 182350Z 26006KT 8000 NSC 06/04 Q1023 NOSIG=
200811182320 METAR COR EGLL 182320Z 26005KT 7000 NSC 06/04 Q1023 NOSIG=
200811182250 METAR COR EGLL 182250Z 27005KT 7000 NSC 06/05 Q1022 NOSIG=
200811182220 METAR COR EGLL 182220Z 27006KT 8000 NSC 07/05 Q1022 NOSIG=
200811182150 METAR COR EGLL 182150Z 27007KT 7000 NSC 07/05 Q1023 NOSIG=
200811182120 METAR COR EGLL 182120Z 27006KT CAVOK 08/05 Q1022 NOSIG=
200811182050 METAR COR EGLL 182050Z 27006KT CAVOK 08/06 Q1022 NOSIG=
200811182020 METAR COR EGLL 182020Z 27005KT CAVOK 08/06 Q1022 NOSIG=
200811181950 METAR COR EGLL 181950Z 29004KT CAVOK 09/06 Q1022 NOSIG=
200811181920 METAR COR EGLL 181920Z 28003KT CAVOK 09/06 Q1021 NOSIG=
200811181850 METAR COR EGLL 181850Z 29003KT CAVOK 09/06 Q1021 NOSIG=
200811181820 METAR COR EGLL 181820Z 30004KT CAVOK 10/06 Q1021 NOSIG=
200811181750 METAR COR EGLL 181750Z 31005KT 280V340 9999 FEW022 10/06
                        Q1021 NOSIG=
200811181720 METAR COR EGLL 181720Z 31005KT 280V340 9999 FEW023 11/07
                        Q1020 NOSIG=
200811181650 METAR COR EGLL 181650Z 31004KT 280V340 9999 FEW023 SCT041
                        11/07 Q1020 NOSIG=
200811181620 METAR COR EGLL 181620Z 31004KT 9999 FEW046 11/07 Q1019 NOSIG=
200811181550 METAR COR EGLL 181550Z 33005KT 9999 SCT025 12/07 Q1019 NOSIG=
200811181520 METAR COR EGLL 181520Z 36005KT 330V030 9999 FEW026 12/06
                        Q1019 NOSIG=
200811181450 METAR COR EGLL 181450Z 35005KT 310V030 9999 FEW028 SCT032
                        12/07 Q1018 NOSIG=
200811181420 METAR COR EGLL 181420Z 36007KT 9999 SCT038 12/06 Q1018 NOSIG=
200811181350 METAR COR EGLL 181350Z 36007KT 330V040 9999 SCT027 SCT033
                        12/06 Q1018 NOSIG=
200811181320 METAR COR EGLL 181320Z 36008KT 330V030 9999 SCT028 SCT033
                        12/06 Q1018 NOSIG=
200811181250 METAR COR EGLL 181250Z 01009KT 340V050 9999 SCT025 SCT043
                        12/07 Q1017 NOSIG=
200811181220 METAR COR EGLL 181220Z 01007KT 320V040 9999 FEW022 SCT043
                        12/07 Q1016 NOSIG=
200811181150 METAR COR EGLL 181150Z 36007KT 330V040 9999 FEW017 SCT028
                        11/08 Q1016 NOSIG=
200811181120 METAR COR EGLL 181120Z 35007KT 310V030 9999 SCT019 BKN028
                        11/08 Q1016 NOSIG=
200811181050 METAR COR EGLL 181050Z 33007KT 300V020 9999 SCT009 BKN012
                        10/09 Q1016 BECMG BKN015=
200811181020 METAR COR EGLL 181020Z 33008KT 9999 BKN010 10/08 Q1015 BECMG
                        BKN015=
200811180950 METAR COR EGLL 180950Z 32007KT 280V340 5000 BR BKN010 10/08
                        Q1015 NOSIG=
200811180920 METAR COR EGLL 180920Z 31007KT 270V340 7000 -DZ BKN010 10/08
                        Q1015 NOSIG=
200811180850 METAR COR EGLL 180850Z 31008KT 270V350 8000 -RADZ BKN009
                        10/08 Q1014 BECMG BKN012=
200811180820 METAR COR EGLL 180820Z 30006KT 9999 -RA BKN012 10/08 Q1014
                        TEMPO BKN009=
200811180750 METAR COR EGLL 180750Z 31007KT 4000 -DZ BKN010 10/08 Q1013
                        TEMPO 5000=
200811180720 METAR COR EGLL 180720Z 31009KT 280V350 7000 BKN007 10/09
                        Q1013 TEMPO BKN012=
200811180650 METAR COR EGLL 180650Z 30006KT 9999 FEW008 BKN010 11/09 Q1012
                        TEMPO BKN008=
200811180620 METAR COR EGLL 180620Z 30005KT 7000 BKN008 BKN020 10/09 Q1012
                        TEMPO BKN012=
200811180550 METAR COR EGLL 180550Z 28005KT 6000 SCT007 BKN015 10/09 Q1012
                        TEMPO BKN012=
200811180520 METAR COR EGLL 180520Z 28006KT 8000 SCT024 10/09 Q1012 NOSIG=
200811180450 METAR COR EGLL 180450Z 27006KT 8000 SCT005 10/09 Q1011 NOSIG=
200811180420 METAR EGLL 180420Z 27006KT 9999 BKN007 10/09 Q1011=
200811180350 METAR COR EGLL 180350Z 27006KT 9999 SCT010 BKN020 10/09 Q1011
                        NOSIG=
200811180320 METAR EGLL 180320Z 27005KT 9999 SCT007 BKN012 BKN024 10/09
                        Q1011=
200811180250 METAR COR EGLL 180250Z 26006KT 9999 FEW012 BKN025 10/09 Q1012
                        NOSIG=
200811180220 METAR EGLL 180220Z AUTO 26004KT 9999NDV SCT012/// BKN026///
                        10/09 Q1012=
200811180150 METAR EGLL 180150Z AUTO 23007KT 9999NDV SCT015/// 10/09 Q1012=
200811180120 METAR EGLL 180120Z AUTO 21005KT 9999NDV SCT010/// BKN019///
                        10/09 Q1012=
200811180050 METAR COR EGLL 180050Z 21005KT 9999 FEW013 BKN020 10/09 Q1013
                        NOSIG=
200811180020 METAR COR EGLL 180020Z 20007KT 9999 BKN023 10/09 Q1013 NOSIG=
200811172350 METAR COR EGLL 172350Z 20006KT 9999 BKN010 10/09 Q1014 BECMG
                        SCT010=
200811172320 METAR COR EGLL 172320Z 21008KT 9999 -RA BKN008 10/09 Q1014
                        BECMG SCT008=
200811172250 METAR COR EGLL 172250Z 21007KT 9999 -RA SCT024 BKN030 10/08
                        Q1015 NOSIG=
200811172220 METAR EGLL 172220Z 21007KT 9999 -RA SCT014 SCT028 10/08 Q1016=
200811172150 METAR COR EGLL 172150Z 20007KT 180V250 9999 -RA FEW015 SCT049
                        10/08 Q1017 TEMPO RA BKN012=
200811172120 METAR COR EGLL 172120Z 21008KT 9999 -RA FEW014 SCT026 10/08
                        Q1017 TEMPO RA BKN010=
200811172050 METAR COR EGLL 172050Z 21007KT 9999 -RA SCT015 BKN026 10/08
                        Q1018 TEMPO RA BKN010=
200811172020 METAR COR EGLL 172020Z 21009KT 9999 SCT028 BKN035 10/08 Q1019
                        NOSIG=
200811171950 METAR COR EGLL 171950Z 21008KT 9999 BKN039 10/08 Q1019 TEMPO
                        RA BKN010=
200811171920 METAR COR EGLL 171920Z 21009KT 9999 BKN044 10/08 Q1020 TEMPO
                        RA BKN010=
200811171850 METAR COR EGLL 171850Z 20007KT 180V260 9999 BKN043 10/08
                        Q1021 TEMPO RA BKN012=
200811171820 METAR COR EGLL 171820Z 21008KT 9999 FEW020 SCT030 10/09 Q1021
                        NOSIG=
200811171750 METAR COR EGLL 171750Z 21008KT 180V250 9999 FEW035 SCT046
                        10/09 Q1022 NOSIG=
200811171720 METAR COR EGLL 171720Z 20007KT 170V250 9000 FEW004 SCT038
                        10/09 Q1022 NOSIG=
200811171650 METAR COR EGLL 171650Z 19008KT 170V230 7000 FEW004 BKN039
                        BKN048 09/08 Q1023 NOSIG=
200811171620 METAR COR EGLL 171620Z 19010KT 6000 SCT004 BKN035 09/08 Q1024
                        NOSIG=
200811171550 METAR COR EGLL 171550Z 22007KT 2100 -RADZ SCT004 BKN006 09/08
                        Q1024 REDZ TEMPO BKN004=
200811171520 METAR COR EGLL 171520Z 19008KT 160V240 3500 DZ BKN006 09/08
                        Q1025 TEMPO BKN004=
200811171450 METAR COR EGLL 171450Z 18007KT 130V230 6000 BKN008 09/07
                        Q1026 TEMPO 4000 -RADZ BKN004=
200811171420 METAR COR EGLL 171420Z 21004KT 140V250 6000 BKN008 08/07
                        Q1026 TEMPO 4000 -DZ BKN004=
200811171350 METAR COR EGLL 171350Z 19006KT 150V270 4500 -RA SCT009 BKN015
                        07/06 Q1027 TEMPO BKN005=
200811171320 METAR COR EGLL 171320Z 20005KT 150V240 5000 HZ FEW009 BKN017
                        07/05 Q1028 TEMPO 3500 -DZ BKN007=
200811171250 METAR COR EGLL 171250Z 19005KT 120V250 9999 BKN018 OVC020
                        07/04 Q1029 TEMPO 4000 -RADZ BKN008=
200811171220 METAR COR EGLL 171220Z VRB03KT 9999 OVC019 07/04 Q1029 TEMPO
                        4000 - RADZ BKN008=
200811171150 METAR COR EGLL 171150Z 21005KT 180V260 9999 OVC020 06/04
                        Q1030 TEMPO 4000 -RADZ BKN008=
200811171120 METAR COR EGLL 171120Z 20006KT 170V250 9999 OVC024 06/03
                        Q1031 TEMPO 4000 -RADZ BKN007=
200811171050 METAR COR EGLL 171050Z 19006KT 150V270 9999 -RA OVC026 05/03
                        Q1031 TEMPO 4000 -RADZ BKN008=
200811171020 METAR COR EGLL 171020Z 21005KT 160V270 9999 -RA OVC027 05/04
                        Q1032 NOSIG=
200811170950 METAR COR EGLL 170950Z 22005KT 160V270 9999 SCT030 05/03
                        Q1032 NOSIG=
200811170920 METAR COR EGLL 170920Z VRB03KT 9000 SCT033 04/03 Q1033 NOSIG=
200811170850 METAR COR EGLL 170850Z 19004KT 150V240 9999 1400SW R27L/P1500
                        R27R/P1500 PRFG SCT034 03/03 Q1033
                        TEMPO 2000 BR=
200811170820 METAR COR EGLL 170820Z VRB02KT 9999 1800SW PRFG FEW034 02/02
                        Q1034 NOSIG=
200811170750 METAR COR EGLL 170750Z 00000KT 9999 2000SW VCFG FEW038 02/01
                        Q1034 NOSIG=
200811170720 METAR COR EGLL 170720Z VRB02KT 9999 4000S VCFG FEW037 02/02
                        Q1034 NOSIG=
200811170650 METAR COR EGLL 170650Z 00000KT 9999 FEW037 03/02 Q1034 NOSIG=
200811170620 METAR COR EGLL 170620Z 06002KT CAVOK 03/02 Q1034 NOSIG=
200811170550 METAR COR EGLL 170550Z 04002KT CAVOK 03/02 Q1034 NOSIG=
200811170520 METAR COR EGLL 170520Z 00000KT CAVOK 03/02 Q1034 NOSIG=
200811170450 METAR COR EGLL 170450Z 00000KT CAVOK 03/02 Q1034 NOSIG=
200811170420 METAR EGLL 170420Z 00000KT 9999 SCT038 03/02 Q1035=
200811170350 METAR COR EGLL 170350Z 00000KT 9999 SCT039 03/02 Q1035 NOSIG=
200811170320 METAR COR EGLL 170320Z VRB02KT CAVOK 04/02 Q1035 NOSIG=
200811170250 METAR COR EGLL 170250Z 36004KT CAVOK 04/02 Q1035 NOSIG=
200811170220 METAR EGLL 170220Z AUTO 00000KT 9999NDV NCD 04/03 Q1035=
200811170150 METAR EGLL 170150Z AUTO 00000KT 9999NDV NCD 04/02 Q1035=
200811170120 METAR EGLL 170120Z AUTO 00000KT 9999NDV NCD 05/03 Q1035=
200811170050 METAR COR EGLL 170050Z 33002KT 9999 SCT040 05/03 Q1035 NOSIG=
200811170020 METAR COR EGLL 170020Z 35003KT 9999 SCT039 06/03 Q1035 NOSIG=
200811162350 METAR COR EGLL 162350Z 35004KT 9999 SCT040 06/04 Q1035 NOSIG=
200811162320 METAR COR EGLL 162320Z VRB02KT 9999 SCT040 06/04 Q1035 NOSIG=
200811162250 METAR COR EGLL 162250Z VRB02KT 9999 BKN039 07/04 Q1035 NOSIG=
200811162220 METAR COR EGLL 162220Z 04004KT 9999 SCT039 07/04 Q1035 NOSIG=
200811162150 METAR EGLL 162150Z 36003KT 9999 SCT039 08/04 Q1035=
200811162120 METAR COR EGLL 162120Z 03003KT 9999 SCT038 08/04 Q1035 NOSIG=
200811162050 METAR COR EGLL 162050Z 04004KT 9999 FEW038 08/04 Q1034 NOSIG=
200811162020 METAR COR EGLL 162020Z 05004KT 010V080 9999 FEW040 08/04
                        Q1034 NOSIG=
200811161950 METAR COR EGLL 161950Z 06005KT 9999 SCT030 08/04 Q1034 NOSIG=
200811161920 METAR COR EGLL 161920Z 05005KT 9999 SCT030 09/05 Q1034 NOSIG=
200811161850 METAR COR EGLL 161850Z 04006KT 9999 FEW010 SCT020 10/06 Q1034
                        NOSIG=
200811161820 METAR COR EGLL 161820Z 32004KT 9999 FEW010 SCT028 10/08 Q1033
                        NOSIG=
200811161750 METAR COR EGLL 161750Z VRB03KT 9999 SCT030 SCT040 10/08 Q1033
                        NOSIG=
200811161720 METAR COR EGLL 161720Z 31003KT 9999 FEW029 SCT040 10/08 Q1033
                        NOSIG=
200811161650 METAR COR EGLL 161650Z 35002KT 9999 BKN029 BKN032 10/08 Q1032
                        NOSIG=
200811161620 METAR COR EGLL 161620Z VRB02KT 9999 SCT029 BKN033 10/08 Q1032
                        NOSIG=
200811161550 METAR COR EGLL 161550Z 36004KT 320V040 9999 FEW030 SCT048
                        10/08 Q1032 NOSIG=
200811161520 METAR COR EGLL 161520Z 03005KT 330V060 9000 SCT009 SCT039
                        10/08 Q1031 NOSIG=
200811161450 METAR COR EGLL 161450Z 04007KT 360V070 3000 -RADZ BKN005
                        BKN020 11/09 Q1031 BECMG 8000 NSW
                        BKN010=
200811161420 METAR COR EGLL 161420Z 02007KT 4000 -RA SCT005 BKN010 11/09
                        Q1030 TEMPO BKN005=
200811161350 METAR EGLL 161350Z 02007KT 7000 VCSH FEW010 BKN015 11/09
                        Q1030=
200811161320 METAR EGLL 161320Z 02007KT 330V050 9999 5000SE -RA BKN014
                        14/10 Q1030=
200811161250 METAR COR EGLL 161250Z 29009KT 9999 SCT015 BKN020 14/10 Q1030
                        TEMPO 4000 -DZ BKN008=
200811161220 METAR COR EGLL 161220Z 29008KT 260V320 9999 VCSH BKN016 BKN023
                        14/10 Q1030 TEMPO 4000 -DZ BKN008=
200811161150 METAR COR EGLL 161150Z 28008KT 9999 BKN020 13/10 Q1030 TEMPO
                        BKN012=
200811161120 METAR COR EGLL 161120Z 27010KT 9999 BKN018 13/10 Q1030 TEMPO
                        BKN014=
200811161050 METAR COR EGLL 161050Z 27009KT 9999 -RA FEW015 BKN020 13/10
                        Q1030 TEMPO BKN012=
200811161020 METAR COR EGLL 161020Z 26009KT 9999 -RA BKN014 13/10 Q1030
                        TEMPO 4000 BKN008=
200811160950 METAR COR EGLL 160950Z 25009KT 9999 BKN014 13/09 Q1029 TEMPO
                        BKN008=
200811160920 METAR COR EGLL 160920Z 26009KT 9999 BKN013 12/09 Q1029 TEMPO
                        BKN008=
200811160850 METAR COR EGLL 160850Z 26009KT 9999 BKN014 12/09 Q1029 TEMPO
                        5000 - RADZ BKN009=
200811160820 METAR COR EGLL 160820Z 25010KT 9999 BKN014 12/09 Q1029 TEMPO
                        SCT012 BKN030=
200811160750 METAR COR EGLL 160750Z 25010KT 9999 BKN013 12/10 Q1029 TEMPO
                        SCT012 BKN025=
200811160720 METAR COR EGLL 160720Z 26009KT 9999 BKN014 12/10 Q1029 NOSIG=
200811160650 METAR COR EGLL 160650Z 25011KT 9999 BKN015 12/10 Q1028 TEMPO
                        BKN012=
200811160620 METAR COR EGLL 160620Z 25009KT 9999 FEW015 OVC027 12/10 Q1028
                        TEMPO BKN014=
200811160550 METAR COR EGLL 160550Z 25009KT 9999 FEW014 SCT030 12/10 Q1028
                        TEMPO BKN014=
200811160520 METAR COR EGLL 160520Z 25008KT 9999 BKN014 12/10 Q1028 NOSIG=
200811160450 METAR COR EGLL 160450Z 26007KT 9999 BKN014 BKN022 12/10 Q1028
                        NOSIG=
200811160420 METAR COR EGLL 160420Z 25007KT 9999 BKN022 12/09 Q1028 NOSIG=
200811160350 METAR COR EGLL 160350Z 24007KT 9999 BKN023 13/09 Q1028 NOSIG=
200811160320 METAR COR EGLL 160320Z 23006KT 9999 OVC024 13/10 Q1028 NOSIG=
200811160250 METAR COR EGLL 160250Z 27007KT 9999 OVC025 13/10 Q1028 NOSIG=
200811160220 METAR EGLL 160220Z AUTO 26009KT 9999NDV OVC027/// 13/10 Q1028=
200811160150 METAR EGLL 160150Z AUTO 26008KT 9999NDV BKN027/// 13/10 Q1028=
200811160120 METAR EGLL 160120Z AUTO 26009KT 9999NDV OVC029/// 13/10 Q1028=
200811160050 METAR COR EGLL 160050Z 26009KT 9999 SCT012 OVC031 13/10 Q1028
                        TEMPO BKN012=
200811160020 METAR COR EGLL 160020Z 27007KT 9999 BKN012 OVC029 13/10 Q1028
                        NOSIG=
200811152350 METAR COR EGLL 152350Z 26007KT 9999 BKN012 BKN030 13/10 Q1028
                        TEMPO SCT014=
200811152320 METAR COR EGLL 152320Z 26009KT 9999 BKN012 OVC029 13/10 Q1028
                        NOSIG=
200811152250 METAR COR EGLL 152250Z 27011KT 9999 FEW013 BKN030 13/10 Q1028
                        NOSIG=
200811152220 METAR COR EGLL 152220Z 26011KT 9999 SCT030 13/10 Q1028 NOSIG=
200811152150 METAR COR EGLL 152150Z 27011KT 9999 BKN029 13/10 Q1028 NOSIG=
200811152120 METAR COR EGLL 152120Z 27011KT 9999 BKN028 13/10 Q1028 NOSIG=
200811152050 METAR COR EGLL 152050Z 27011KT 9999 BKN031 13/10 Q1028 NOSIG=
200811152020 METAR COR EGLL 152020Z 27011KT 9999 BKN031 13/10 Q1028 NOSIG=
200811151950 METAR COR EGLL 151950Z 26012KT 9999 BKN030 13/10 Q1028 NOSIG=
200811151920 METAR COR EGLL 151920Z 26010KT 9999 BKN032 13/11 Q1028 NOSIG=
200811151850 METAR COR EGLL 151850Z 26011KT 9999 BKN035 14/11 Q1028 NOSIG=
200811151820 METAR COR EGLL 151820Z 25008KT 9999 BKN034 14/11 Q1027 NOSIG=
200811151750 METAR COR EGLL 151750Z 26008KT 9999 FEW017 BKN033 14/11 Q1027
                        NOSIG=
200811151720 METAR COR EGLL 151720Z 27010KT 9999 SCT021 BKN033 14/11 Q1027
                        NOSIG=
200811151650 METAR COR EGLL 151650Z 26012KT 9999 SCT020 BKN036 14/11 Q1027
                        NOSIG=
200811151620 METAR COR EGLL 151620Z 27009KT 9999 SCT020 14/11 Q1026 NOSIG=
200811151550 METAR COR EGLL 151550Z 26011KT 9999 BKN027 14/11 Q1026 NOSIG=
200811151520 METAR COR EGLL 151520Z 26011KT 9999 BKN019 14/11 Q1026 NOSIG=
200811151450 METAR COR EGLL 151450Z 27010KT 9999 BKN020 14/11 Q1026 NOSIG=
200811151420 METAR COR EGLL 151420Z 26009KT 9999 BKN017 14/10 Q1026 NOSIG=
200811151350 METAR COR EGLL 151350Z 25011KT 9999 OVC017 14/10 Q1026 TEMPO
                        OVC014=
200811151320 METAR COR EGLL 151320Z 25014KT 9999 BKN018 14/10 Q1026 TEMPO
                        BKN014=
200811151250 METAR COR EGLL 151250Z 26014KT 9999 OVC017 14/10 Q1026 TEMPO
                        BKN014=
200811151220 METAR COR EGLL 151220Z 26014KT 9999 BKN017 14/10 Q1026 NOSIG=
200811151150 METAR COR EGLL 151150Z 26014KT 9999 BKN017 14/10 Q1026 NOSIG=
200811151120 METAR COR EGLL 151120Z 26013KT 9999 BKN016 14/10 Q1027 NOSIG=
200811151050 METAR COR EGLL 151050Z 25014KT 9999 BKN016 14/10 Q1027 NOSIG=
200811151020 METAR COR EGLL 151020Z 25012KT 9999 BKN015 13/10 Q1027 TEMPO
                        BKN014=
200811150950 METAR EGLL 150950Z 24013KT 9999 BKN016 13/09 Q1027=
200811150920 METAR COR EGLL 150920Z 25011KT 9999 BKN015 12/09 Q1027 TEMPO
                        BKN014=
200811150850 METAR COR EGLL 150850Z 25012KT 9999 BKN015 12/09 Q1027 TEMPO
                        BKN014=
200811150820 METAR COR EGLL 150820Z 25014KT 9999 BKN015 12/09 Q1027 TEMPO
                        BKN014=
200811150750 METAR COR EGLL 150750Z 25012KT 9999 BKN015 12/09 Q1026 TEMPO
                        BKN014=
200811150720 METAR COR EGLL 150720Z 25012KT 9999 BKN015 12/09 Q1026 TEMPO
                        BKN012=
200811150650 METAR COR EGLL 150650Z 24013KT 9999 BKN014 12/09 Q1026 NOSIG=
200811150620 METAR COR EGLL 150620Z 25012KT 9999 BKN014 12/09 Q1026 NOSIG=
200811150550 METAR COR EGLL 150550Z 25014KT 9999 BKN018 12/09 Q1026 TEMPO
                        BKN014=
200811150520 METAR COR EGLL 150520Z 25012KT 9999 BKN015 12/09 Q1026 TEMPO
                        BKN012=
200811150450 METAR COR EGLL 150450Z 25011KT 9999 OVC014 12/09 Q1026 NOSIG=
200811150420 METAR COR EGLL 150420Z 25010KT 9999 OVC015 12/09 Q1025 TEMPO
                        BKN012=
200811150350 METAR COR EGLL 150350Z 24009KT 9999 OVC013 12/09 Q1025 NOSIG=
200811150320 METAR COR EGLL 150320Z 25009KT 9999 OVC014 12/09 Q1025 NOSIG=
200811150250 METAR COR EGLL 150250Z 25012KT 9999 BKN014 12/09 Q1025 NOSIG=
200811150220 METAR EGLL 150220Z AUTO 25013KT 9999NDV BKN013/// 12/09 Q1025=
200811150150 METAR EGLL 150150Z AUTO 24011KT 9999NDV OVC013/// 12/09 Q1025=
200811150120 METAR EGLL 150120Z AUTO 25011KT 9999NDV OVC013/// 12/09 Q1025=
200811150050 METAR COR EGLL 150050Z 25011KT 9999 OVC014 12/09 Q1025 NOSIG=
200811150020 METAR COR EGLL 150020Z 25010KT 9999 OVC014 12/09 Q1025 NOSIG=
200811142350 METAR EGLL 142350Z 25011KT 9999 OVC014 12/09 Q1026=
200811142320 METAR COR EGLL 142320Z 25011KT 9999 OVC014 12/09 Q1026 NOSIG=
200811142250 METAR COR EGLL 142250Z 26012KT 9999 OVC014 12/09 Q1025 NOSIG=
200811142220 METAR COR EGLL 142220Z 25011KT 9999 BKN013 12/09 Q1025 NOSIG=
200811142150 METAR COR EGLL 142150Z 25013KT 9999 BKN014 12/09 Q1025 NOSIG=
200811142120 METAR COR EGLL 142120Z 25011KT 9999 BKN015 12/09 Q1025 TEMPO
                        BKN012=
200811142050 METAR COR EGLL 142050Z 24011KT 9999 BKN016 12/09 Q1025 NOSIG=
200811142020 METAR COR EGLL 142020Z 24011KT 9999 SCT016 12/09 Q1025 NOSIG=
200811141950 METAR COR EGLL 141950Z 23010KT CAVOK 11/09 Q1025 NOSIG=
200811141920 METAR COR EGLL 141920Z 23010KT 9999 FEW018 12/09 Q1025 NOSIG=
200811141850 METAR COR EGLL 141850Z 24009KT 9999 BKN018 12/09 Q1025 NOSIG=
200811141820 METAR EGLL 141820Z 26010KT 9999 BKN017 12/09 Q1025=
200811141750 METAR COR EGLL 141750Z 27012KT 9999 BKN018 12/09 Q1025 NOSIG=
200811141720 METAR COR EGLL 141720Z 27011KT 9999 BKN018 12/09 Q1025 NOSIG=
200811141650 METAR COR EGLL 141650Z 26012KT 9999 BKN016 12/09 Q1025 NOSIG=
200811141620 METAR COR EGLL 141620Z 26011KT 9999 BKN014 12/09 Q1025 BECMG
                        BKN016=
200811141550 METAR COR EGLL 141550Z 25013KT 9999 BKN012 13/10 Q1024 BECMG
                        BKN016=
200811141520 METAR COR EGLL 141520Z 26014KT 9999 BKN012 14/10 Q1024 NOSIG=
200811141450 METAR COR EGLL 141450Z 26010KT 9999 BKN012 14/11 Q1024 NOSIG=
200811141420 METAR COR EGLL 141420Z 25010KT 9999 OVC012 14/11 Q1024 NOSIG=
200811141350 METAR COR EGLL 141350Z 25010KT 9999 OVC012 13/10 Q1024 NOSIG=
200811141320 METAR COR EGLL 141320Z 25012KT 9999 BKN013 13/10 Q1024 NOSIG=
200811141250 METAR COR EGLL 141250Z 26011KT 9999 BKN012 13/10 Q1024 NOSIG=
200811141220 METAR COR EGLL 141220Z 26011KT 9999 BKN013 13/10 Q1024 NOSIG=
200811141150 METAR COR EGLL 141150Z 25010KT 9999 SCT015 14/10 Q1025 TEMPO
                        BKN014=
200811141120 METAR COR EGLL 141120Z 26009KT 9999 FEW012 14/10 Q1025 NOSIG=
200811141050 METAR EGLL 141050Z 25010KT 9999 FEW012 13/10 Q1025=
200811141020 METAR COR EGLL 141020Z 25009KT CAVOK 13/10 Q1025 NOSIG=
200811140950 METAR COR EGLL 140950Z 24009KT CAVOK 13/10 Q1025 NOSIG=
200811140920 METAR COR EGLL 140920Z 24008KT CAVOK 12/09 Q1024 NOSIG=
200811140850 METAR COR EGLL 140850Z 24008KT CAVOK 12/10 Q1024 NOSIG=
200811140820 METAR COR EGLL 140820Z 23007KT CAVOK 12/10 Q1024 NOSIG=
200811140750 METAR COR EGLL 140750Z 25008KT CAVOK 11/09 Q1024 NOSIG=
200811140720 METAR COR EGLL 140720Z 26008KT CAVOK 12/09 Q1024 BECMG BKN014=
200811140650 METAR COR EGLL 140650Z 24010KT 9999 FEW012 BKN015 12/10 Q1024
                        TEMPO BKN012=
200811140620 METAR COR EGLL 140620Z 25010KT 9999 FEW009 BKN015 12/10 Q1024
                        TEMPO BKN010=
200811140550 METAR COR EGLL 140550Z 27010KT 9999 OVC010 12/10 Q1023 NOSIG=
200811140520 METAR COR EGLL 140520Z 23010KT 9999 OVC014 12/10 Q1023 NOSIG=
200811140450 METAR EGLL 140450Z 23006KT 9000 OVC014 12/10 Q1023=
200811140420 METAR COR EGLL 140420Z 21005KT 8000 OVC014 12/10 Q1023 NOSIG=
200811140350 METAR COR EGLL 140350Z 20005KT 6000 SCT012 OVC018 12/10 Q1023
                        BECMG BKN012=
200811140320 METAR COR EGLL 140320Z 21004KT 8000 SCT012 BKN020 12/10 Q1023
                        BECMG BKN010=
200811140250 METAR COR EGLL 140250Z 21005KT 9000 SCT014 BKN018 12/10 Q1023
                        BECMG BKN010=
200811140220 METAR EGLL 140220Z AUTO 25006KT 9999NDV BKN010/// 12/10 Q1023=
200811140150 METAR EGLL 140150Z AUTO 25006KT 9999NDV BKN009/// 12/10 Q1023=
200811140120 METAR EGLL 140120Z AUTO 27008KT 9999NDV BKN009/// 12/10 Q1023=
200811140050 METAR COR EGLL 140050Z 25008KT 9999 OVC010 12/10 Q1023 TEMPO
                        BKN008=
200811140020 METAR COR EGLL 140020Z 25005KT 9999 OVC010 12/10 Q1023 TEMPO
                        BKN008=
200811132350 METAR COR EGLL 132350Z 26008KT 9999 BKN010 12/10 Q1022 TEMPO
                        BKN008=
200811132320 METAR COR EGLL 132320Z 25006KT 8000 OVC010 12/10 Q1022 TEMPO
                        BKN008=
200811132250 METAR COR EGLL 132250Z 25009KT 7000 FEW009 OVC011 12/10 Q1022
                        TEMPO BKN008=
200811132220 METAR COR EGLL 132220Z 25009KT 8000 SCT008 BKN014 12/10 Q1022
                        TEMPO BKN008=
200811132150 METAR COR EGLL 132150Z 25010KT 8000 SCT006 BKN015 12/10 Q1022
                        TEMPO BKN006=
200811132120 METAR COR EGLL 132120Z 25012KT 9999 SCT006 BKN008 12/10 Q1022
                        NOSIG=
200811132050 METAR COR EGLL 132050Z 22008KT 190V260 9999 FEW005 BKN008
                        11/10 Q1022 TEMPO 4000 -DZ=
200811132020 METAR COR EGLL 132020Z 23008KT 9000 -RA FEW005 BKN009 11/10
                        Q1022 TEMPO 4000 -DZ=
200811131950 METAR COR EGLL 131950Z 22008KT 190V260 8000 -DZ FEW007 BKN010
                        11/10 Q1022 REDZ TEMPO BKN007=
200811131920 METAR COR EGLL 131920Z 23008KT 200V260 9999 FEW006 BKN013
                        11/10 Q1022 TEMPO 4000 -DZ BKN008=
200811131850 METAR COR EGLL 131850Z 22008KT 180V250 9999 BKN006 BKN013
                        11/10 Q1022 NOSIG=
200811131820 METAR COR EGLL 131820Z 23009KT 180V260 9000 -RA FEW005 SCT006
                        BKN011 11/10 Q1022 TEMPO BKN006=
200811131750 METAR COR EGLL 131750Z 22007KT 180V260 6000 -RADZ SCT004
                        BKN005 10/09 Q1022 NOSIG=
200811131720 METAR COR EGLL 131720Z 21009KT 4000 -RADZ SCT004 BKN007 10/09
                        Q1022 TEMPO 6000=
200811131650 METAR COR EGLL 131650Z 20010KT 170V230 6000 -RA FEW003 BKN005
                        10/09 Q1022 NOSIG=
200811131620 METAR COR EGLL 131620Z 20010KT 160V250 6000 -RA BKN007 10/09
                        Q1022 TEMPO RA=
200811131550 METAR COR EGLL 131550Z 20009KT 170V240 9000 -RA BKN008 10/09
                        Q1022 TEMPO BKN012=
200811131520 METAR COR EGLL 131520Z 21009KT 180V250 9999 -RA SCT012 BKN021
                        10/08 Q1022 TEMPO RA BKN012=
200811131450 METAR COR EGLL 131450Z 20009G19KT 9999 -RA FEW013 SCT019
                        BKN039 10/08 Q1022 TEMPO BKN012=
200811131420 METAR COR EGLL 131420Z 21008KT 9999 -RA FEW013 SCT019 BKN035
                        10/08 Q1022 TEMPO BKN012=
200811131350 METAR COR EGLL 131350Z 21007KT 190V250 9999 -RA FEW012 BKN033
                        09/08 Q1022 TEMPO BKN014=
200811131320 METAR COR EGLL 131320Z 21009KT 9999 -RA FEW012 BKN033 09/08
                        Q1023 TEMPO BKN014=
200811131250 METAR COR EGLL 131250Z 21009KT 190V250 8000 -RA SCT028 SCT032
                        09/07 Q1023 TEMPO BKN014=
200811131220 METAR COR EGLL 131220Z 21008KT 9999 -RA SCT029 SCT043 09/07
                        Q1023 NOSIG=
200811131150 METAR COR EGLL 131150Z 22009KT 9999 -RA SCT036 09/07 Q1023
                        NOSIG=
200811131120 METAR COR EGLL 131120Z 21008KT 9999 -RA FEW035 09/06 Q1024
                        NOSIG=
200811131050 METAR COR EGLL 131050Z 22007KT 190V250 9999 FEW035 09/06
                        Q1024 NOSIG=
200811131020 METAR COR EGLL 131020Z 22006KT 190V260 9999 FEW035 08/05
                        Q1024 NOSIG=
200811130950 METAR COR EGLL 130950Z 21006KT 190V250 CAVOK 07/05 Q1024
                        NOSIG=
200811130920 METAR COR EGLL 130920Z 21005KT CAVOK 07/05 Q1024 NOSIG=
200811130850 METAR COR EGLL 130850Z 20005KT 170V240 CAVOK 06/05 Q1024
                        NOSIG=
200811130820 METAR COR EGLL 130820Z 21005KT 180V240 CAVOK 06/04 Q1024
                        NOSIG=
200811130750 METAR COR EGLL 130750Z 20005KT 170V240 CAVOK 05/04 Q1024
                        NOSIG=
200811130720 METAR COR EGLL 130720Z 19005KT 160V240 CAVOK 05/04 Q1023
                        NOSIG=
200811130650 METAR COR EGLL 130650Z 20006KT 160V240 CAVOK 05/03 Q1023
                        NOSIG=
200811130620 METAR COR EGLL 130620Z 21004KT 170V260 CAVOK 04/02 Q1023
                        NOSIG=
200811130550 METAR COR EGLL 130550Z 27006KT CAVOK 06/04 Q1023 NOSIG=
200811130520 METAR COR EGLL 130520Z 26005KT CAVOK 05/04 Q1023 NOSIG=
200811130450 METAR COR EGLL 130450Z 24005KT 9999 FEW046 06/04 Q1023 NOSIG=
200811130420 METAR COR EGLL 130420Z VRB03KT 9999 FEW046 06/04 Q1023 NOSIG=
200811130350 METAR COR EGLL 130350Z 24005KT 9999 FEW046 06/04 Q1023 NOSIG=
200811130320 METAR COR EGLL 130320Z 26005KT 9999 FEW046 06/04 Q1023 NOSIG=
200811130250 METAR COR EGLL 130250Z 26005KT 9999 FEW049 06/05 Q1023 NOSIG=
200811130220 METAR EGLL 130220Z AUTO 26004KT 9999NDV NCD 06/04 Q1023=
200811130150 METAR EGLL 130150Z AUTO 27006KT 9999NDV NCD 06/04 Q1023=
200811130120 METAR EGLL 130120Z AUTO 27006KT 9999NDV NCD 07/05 Q1023=
200811130050 METAR COR EGLL 130050Z 26004KT CAVOK 07/05 Q1023 NOSIG=
200811130020 METAR COR EGLL 130020Z 27005KT CAVOK 07/05 Q1023 NOSIG=
200811122350 METAR COR EGLL 122350Z 26004KT CAVOK 07/05 Q1023 NOSIG=
200811122320 METAR COR EGLL 122320Z 27005KT CAVOK 07/05 Q1023 NOSIG=
200811122250 METAR COR EGLL 122250Z 27005KT CAVOK 06/04 Q1022 NOSIG=
200811122220 METAR COR EGLL 122220Z 28006KT CAVOK 08/05 Q1022 NOSIG=
200811122150 METAR COR EGLL 122150Z 28006KT 9999 FEW046 08/05 Q1022 NOSIG=
200811122120 METAR COR EGLL 122120Z 28006KT CAVOK 08/05 Q1022 NOSIG=
200811122050 METAR COR EGLL 122050Z 27006KT CAVOK 09/05 Q1022 NOSIG=
200811122020 METAR COR EGLL 122020Z 27006KT CAVOK 09/06 Q1022 NOSIG=
200811121950 METAR COR EGLL 121950Z 27006KT 9999 BKN049 09/06 Q1021 NOSIG=
200811121920 METAR COR EGLL 121920Z 28007KT 9999 BKN049 09/05 Q1021 NOSIG=
200811121850 METAR COR EGLL 121850Z 28007KT 9999 BKN049 09/05 Q1021 NOSIG=
200811121820 METAR COR EGLL 121820Z 27006KT 9999 BKN049 09/05 Q1020 NOSIG=
200811121750 METAR COR EGLL 121750Z VRB03KT 9999 BKN049 09/05 Q1020 NOSIG=
200811121720 METAR COR EGLL 121720Z 27006KT 9999 BKN049 10/05 Q1020 NOSIG=
200811121650 METAR COR EGLL 121650Z 29006KT 9999 BKN047 10/05 Q1019 NOSIG=
200811121620 METAR COR EGLL 121620Z 30005KT 9999 FEW030 BKN048 10/05 Q1019
                        NOSIG=
200811121550 METAR COR EGLL 121550Z 29006KT 9999 FEW029 SCT049 10/05 Q1019
                        NOSIG=
200811121520 METAR COR EGLL 121520Z 29005KT 9999 FEW027 BKN048 10/05 Q1019
                        NOSIG=
200811121450 METAR COR EGLL 121450Z 28006KT 9999 SCT030 SCT045 11/05 Q1018
                        NOSIG=
200811121420 METAR COR EGLL 121420Z 30007KT 260V340 9999 FEW028 SCT039
                        11/05 Q1018 NOSIG=
200811121350 METAR COR EGLL 121350Z 30007KT 9999 SCT028 10/05 Q1018 NOSIG=
200811121320 METAR COR EGLL 121320Z 28009KT 9999 SCT029 10/05 Q1018 NOSIG=
200811121250 METAR COR EGLL 121250Z 29007KT 260V340 9999 SCT022 BKN027
                        11/05 Q1018 NOSIG=
200811121220 METAR COR EGLL 121220Z 28008KT 9999 SCT027 10/05 Q1017 NOSIG=
200811121150 METAR COR EGLL 121150Z 28009KT 9999 FEW022 10/05 Q1017 NOSIG=
200811121120 METAR COR EGLL 121120Z 28010KT CAVOK 10/05 Q1017 NOSIG=
200811121050 METAR COR EGLL 121050Z 28010KT 9999 FEW044 09/05 Q1017 NOSIG=
200811121020 METAR COR EGLL 121020Z 27009KT 9999 SCT044 08/05 Q1017 NOSIG=
200811120950 METAR COR EGLL 120950Z 26008KT 9999 SCT047 08/05 Q1016 NOSIG=
200811120920 METAR COR EGLL 120920Z 27008KT CAVOK 07/04 Q1016 NOSIG=
200811120850 METAR COR EGLL 120850Z 27006KT CAVOK 06/04 Q1016 NOSIG=
200811120820 METAR COR EGLL 120820Z 24008KT CAVOK 05/03 Q1015 NOSIG=
200811120750 METAR COR EGLL 120750Z 23006KT CAVOK 05/03 Q1015 NOSIG=
200811120720 METAR COR EGLL 120720Z 24007KT CAVOK 04/03 Q1015 NOSIG=
200811120650 METAR COR EGLL 120650Z 25008KT CAVOK 05/03 Q1014 NOSIG=
200811120620 METAR COR EGLL 120620Z 25008KT CAVOK 05/03 Q1014 NOSIG=
200811120550 METAR COR EGLL 120550Z 27008KT CAVOK 05/03 Q1014 NOSIG=
200811120520 METAR COR EGLL 120520Z 26007KT CAVOK 05/03 Q1013 NOSIG=
200811120450 METAR COR EGLL 120450Z 27008KT CAVOK 05/03 Q1013 NOSIG=
200811120420 METAR COR EGLL 120420Z 27006KT CAVOK 06/04 Q1013 NOSIG=
200811120350 METAR COR EGLL 120350Z 26007KT CAVOK 06/04 Q1013 NOSIG=
200811120320 METAR COR EGLL 120320Z 26010KT CAVOK 07/04 Q1013 NOSIG=
200811120250 METAR COR EGLL 120250Z 26006KT CAVOK 06/04 Q1012 NOSIG=
200811120220 METAR EGLL 120220Z AUTO 25008KT 9999NDV NCD 07/04 Q1012=
200811120150 METAR EGLL 120150Z AUTO 24008KT 9999NDV NCD 06/04 Q1012=
200811120120 METAR EGLL 120120Z AUTO 24008KT 9999NDV NCD 06/04 Q1012=
200811120050 METAR COR EGLL 120050Z 24008KT CAVOK 07/04 Q1012 NOSIG=
200811120020 METAR COR EGLL 120020Z 23008KT CAVOK 07/04 Q1012 NOSIG=
200811112350 METAR COR EGLL 112350Z 23007KT CAVOK 07/04 Q1012 NOSIG=
200811112320 METAR COR EGLL 112320Z 24007KT CAVOK 07/04 Q1012 NOSIG=
200811112250 METAR COR EGLL 112250Z 23009KT CAVOK 07/04 Q1011 NOSIG=
200811112220 METAR COR EGLL 112220Z 23012KT CAVOK 07/04 Q1011 NOSIG=
200811112150 METAR COR EGLL 112150Z 24012KT CAVOK 08/04 Q1011 NOSIG=
200811112120 METAR COR EGLL 112120Z 25011KT CAVOK 08/04 Q1011 NOSIG=
200811112050 METAR COR EGLL 112050Z 24012KT CAVOK 08/04 Q1011 NOSIG=
200811112020 METAR COR EGLL 112020Z 25014KT CAVOK 08/04 Q1011 NOSIG=
200811111950 METAR COR EGLL 111950Z 25014KT CAVOK 08/04 Q1010 NOSIG=
200811111920 METAR COR EGLL 111920Z 24013KT CAVOK 08/04 Q1010 NOSIG=
200811111850 METAR COR EGLL 111850Z 24013KT CAVOK 08/04 Q1010 NOSIG=
200811111820 METAR COR EGLL 111820Z 24014KT CAVOK 09/04 Q1010 NOSIG=
200811111750 METAR COR EGLL 111750Z 24014KT CAVOK 09/03 Q1010 NOSIG=
200811111720 METAR COR EGLL 111720Z 24014KT CAVOK 09/03 Q1010 NOSIG=
200811111650 METAR COR EGLL 111650Z 24014KT CAVOK 10/03 Q1010 NOSIG=
200811111620 METAR COR EGLL 111620Z 24015KT 9999 FEW043 10/03 Q1009 NOSIG=
200811111550 METAR EGLL 111550Z 24015KT 9999 FEW043 10/03 Q1009=
200811111520 METAR COR EGLL 111520Z 25015KT 9999 FEW040 11/03 Q1008 NOSIG=
200811111450 METAR COR EGLL 111450Z 25018KT 9999 FEW040 11/03 Q1008 TEMPO
                        26018G28KT=
200811111420 METAR COR EGLL 111420Z 26015KT 9999 FEW040 11/03 Q1008 TEMPO
                        27018G28KT=
200811111350 METAR COR EGLL 111350Z 26022KT 9999 FEW038 11/02 Q1008 TEMPO
                        26022G32KT=
200811111320 METAR COR EGLL 111320Z 27019G32KT 9999 SCT045 12/03 Q1008
                        NOSIG=
200811111250 METAR COR EGLL 111250Z 25017G27KT 9999 FEW036 11/03 Q1007
                        NOSIG=
200811111220 METAR COR EGLL 111220Z 26018KT 9999 FEW033 11/03 Q1007 TEMPO
                        27018G28KT=
200811111150 METAR COR EGLL 111150Z 26019G29KT 9999 FEW031 12/04 Q1007
                        NOSIG=
200811111120 METAR COR EGLL 111120Z 26018KT 9999 FEW030 11/04 Q1007 TEMPO
                        27018G28KT=
200811111050 METAR COR EGLL 111050Z 26020KT 9999 FEW030 10/04 Q1006 NOSIG=
200811111020 METAR COR EGLL 111020Z 26018KT 9999 SCT028 10/04 Q1006 TEMPO
                        27018G28KT=
200811110950 METAR COR EGLL 110950Z 25018KT 9999 FEW024 10/05 Q1005 TEMPO
                        26018G28KT=
200811110920 METAR COR EGLL 110920Z 24016KT 9999 FEW027 SCT033 10/05 Q1005
                        TEMPO 26018G28KT=
200811110850 METAR COR EGLL 110850Z 25017KT CAVOK 09/05 Q1004 TEMPO 26018G28KT=
200811110820 METAR COR EGLL 110820Z 24014KT CAVOK 09/05 Q1004 TEMPO 24015G25KT=
200811110750 METAR COR EGLL 110750Z 24014KT CAVOK 09/05 Q1003 TEMPO 24015G25KT=
200811110720 METAR COR EGLL 110720Z 23014KT 9999 FEW025 09/06 Q1003 TEMPO
                        24016G26KT=
200811110650 METAR COR EGLL 110650Z 23016KT 9999 FEW025 09/06 Q1002 REDZ
                        TEMPO 24018G28KT=
200811110620 METAR COR EGLL 110620Z 23013KT 9999 SCT026 SCT049 09/06 Q1002
                        TEMPO 24015G25KT SHRA=
200811110550 METAR COR EGLL 110550Z 23014KT 9999 SCT043 08/05 Q1002 TEMPO
                        24016G26KT SHRA=
200811110520 METAR COR EGLL 110520Z 23016KT 9999 FEW035 08/05 Q1002 TEMPO
                        23016G26KT SHRA=
200811110450 METAR COR EGLL 110450Z 23014KT 9999 FEW048 08/05 Q1001 NOSIG=
200811110420 METAR COR EGLL 110420Z 23013KT CAVOK 08/05 Q1001 NOSIG=
200811110350 METAR COR EGLL 110350Z 22012KT CAVOK 08/05 Q1001 NOSIG=
200811110320 METAR COR EGLL 110320Z 23013KT CAVOK 08/05 Q1001 NOSIG=
200811110250 METAR COR EGLL 110250Z 23012KT CAVOK 08/05 Q1001 NOSIG=
200811110220 METAR EGLL 110220Z AUTO 23010KT 9999NDV NCD 08/06 Q1001=
200811110150 METAR EGLL 110150Z AUTO 23010KT 9999NDV NCD 08/06 Q1001=
200811110120 METAR EGLL 110120Z AUTO 22009KT 9999NDV NCD 09/06 Q1000=
200811110050 METAR COR EGLL 110050Z 23011KT CAVOK 09/07 Q1000 NOSIG=
200811110020 METAR COR EGLL 110020Z 22010KT CAVOK 09/07 Q1000 NOSIG=
200811102350 METAR COR EGLL 102350Z 22010KT 9999 FEW048 09/07 Q1000 NOSIG=
200811102320 METAR COR EGLL 102320Z 22008KT 9999 FEW045 09/07 Q1000 NOSIG=
200811102250 METAR COR EGLL 102250Z 22008KT 9999 FEW046 09/07 Q1001 NOSIG=
200811102220 METAR COR EGLL 102220Z 24010KT 9999 -RA SCT044 10/07 Q1001
                        NOSIG=
200811102150 METAR COR EGLL 102150Z 23013KT 9999 -RA BKN043 10/08 Q1001
                        NOSIG=
200811102120 METAR COR EGLL 102120Z 23010KT 9999 -RA FEW020 SCT045 10/08
                        Q1001 TEMPO RA=
200811102050 METAR COR EGLL 102050Z 23010KT 9999 -RA FEW017 SCT020 BKN047
                        10/08 Q1001 TEMPO RA=
200811102020 METAR COR EGLL 102020Z 21008KT 170V240 9999 -RA SCT018 BKN047
                        10/08 Q1001 TEMPO RA=
200811101950 METAR COR EGLL 101950Z 21009KT 180V250 9999 -RA SCT018 10/08
                        Q1001 TEMPO RA=
200811101920 METAR COR EGLL 101920Z 21010KT 9999 -RA SCT018 10/08 Q1001
                        TEMPO RA=
200811101850 METAR COR EGLL 101850Z 22012KT 180V240 9999 SCT020 10/08
                        Q1001 TEMPO RA=
200811101820 METAR COR EGLL 101820Z 22013KT 9999 -RA FEW020 BKN045 11/08
                        Q1001 NOSIG=
200811101750 METAR COR EGLL 101750Z 21011G21KT 9999 SCT037 BKN045 11/08
                        Q1001 NOSIG=
200811101720 METAR COR EGLL 101720Z 22012KT 9999 FEW022 BKN038 11/09 Q1001
                        NOSIG=
200811101650 METAR COR EGLL 101650Z 21011KT 9999 -RA FEW020 SCT037 11/09
                        Q1000 NOSIG=
200811101620 METAR COR EGLL 101620Z 22011KT 190V250 9999 -RA FEW018 SCT045
                        12/10 Q1000 NOSIG=
200811101550 METAR COR EGLL 101550Z 24011KT 9999 -RA FEW009 SCT012 12/10
                        Q1000 RERA NOSIG=
200811101520 METAR COR EGLL 101520Z 23006KT 190V280 9999 6000NE RA BKN010
                        11/10 Q1000 BECMG SCT010=
200811101450 METAR COR EGLL 101450Z 22008KT 160V260 9999 -RA FEW021 BKN045
                        11/10 Q1000 NOSIG=
200811101420 METAR COR EGLL 101420Z 25011KT 9999 -RA FEW021 BKN048 11/10
                        Q1000 RERA NOSIG=
200811101350 METAR COR EGLL 101350Z 26014KT 9999 RA SCT023 BKN043 11/09
                        Q1000 TEMPO 4000 +RA=
200811101320 METAR COR EGLL 101320Z 25016KT 9999 -RA SCT023 BKN040 11/09
                        Q1001 RERA TEMPO 22022G35KT 4000
                        +RA BKN010=
200811101250 METAR COR EGLL 101250Z 26017KT 3400 RA FEW006 SCT012 BKN040
                        11/10 Q1001 TEMPO 22022G35KT +RA
                        BKN010=
200811101220 METAR COR EGLL 101220Z 21014KT 7000 -RA SCT011 BKN015 13/11
                        Q1000 RERA TEMPO 21022G35KT 3000
                        +RA BKN010=
200811101150 METAR COR EGLL 101150Z 21016KT 6000 RA BKN016 BKN020 13/11
                        Q1000 TEMPO 21022G35KT 3000 +RA BKN010=
200811101120 METAR COR EGLL 101120Z 19013KT 6000 RA FEW009 BKN014 11/10
                        Q1001 TEMPO 20022G35KT 3000 +RA=
200811101050 METAR COR EGLL 101050Z 14010KT 090V160 3100 -RADZ SCT008
                        BKN013 09/08 Q1002 BECMG 21018G28KT=
200811101020 METAR COR EGLL 101020Z 14009KT 100V170 7000 -RA FEW005 BKN026
                        09/08 Q1003 RERA TEMPO 3000 +RA BKN010=
200811100950 METAR COR EGLL 100950Z 15007KT 120V180 6000 RA FEW019 BKN026
                        09/07 Q1004 TEMPO 3000 +RA BKN010=
200811100920 METAR COR EGLL 100920Z 20007KT 180V250 9999 RA FEW028 SCT031
                        BKN035 09/07 Q1006 RERA TEMPO 3000
                        +RA BKN010=
200811100850 METAR COR EGLL 100850Z 19007KT 160V240 9999 -RA SCT033 BKN041
                        09/06 Q1006 RERA BECMG RA=
200811100820 METAR COR EGLL 100820Z 20008KT 160V230 9999 -RA SCT038 09/05
                        Q1007 BECMG RA=
200811100750 METAR COR EGLL 100750Z 20010KT 9999 -RA SCT043 09/04 Q1007
                        BECMG RA=
200811100720 METAR COR EGLL 100720Z 19009KT 170V250 CAVOK 09/04 Q1007
                        NOSIG=
200811100650 METAR COR EGLL 100650Z 22008KT CAVOK 09/04 Q1007 NOSIG=
200811100620 METAR COR EGLL 100620Z 23012KT CAVOK 09/04 Q1007 NOSIG=
200811100550 METAR COR EGLL 100550Z 23013KT CAVOK 09/04 Q1007 NOSIG=
200811100520 METAR COR EGLL 100520Z 23014KT CAVOK 09/03 Q1007 NOSIG=
200811100450 METAR COR EGLL 100450Z 24015KT CAVOK 09/03 Q1007 NOSIG=
200811100420 METAR COR EGLL 100420Z 24015KT CAVOK 09/03 Q1006 NOSIG=
200811100350 METAR COR EGLL 100350Z 24016KT CAVOK 09/04 Q1006 NOSIG=
200811100320 METAR COR EGLL 100320Z 24015KT CAVOK 10/03 Q1006 NOSIG=
200811100250 METAR COR EGLL 100250Z 25014KT CAVOK 10/04 Q1006 NOSIG=
200811100220 METAR EGLL 100220Z AUTO 26015KT 9999NDV FEW039/// 09/06 Q1006=
200811100150 METAR EGLL 100150Z AUTO 27024G35KT 9999NDV -RA FEW026///
                        BKN036/// 09/06 Q1005 RERA=
200811100120 METAR EGLL 100120Z AUTO 24018KT 9999NDV FEW029/// 12/07 Q1004=
200811100050 METAR COR EGLL 100050Z 24018KT 9999 SCT024 SCT036 12/08 Q1004
                        TEMPO 24020G30KT SHRA=
200811100020 METAR COR EGLL 100020Z 24014KT 9999 FEW020 BKN025 12/09 Q1003
                        TEMPO 24020G30KT=
200811092350 METAR COR EGLL 092350Z 24016KT 9999 FEW021 SCT029 12/09 Q1003
                        TEMPO 24024G36KT=
200811092320 METAR COR EGLL 092320Z 24020KT 9999 -SHRA FEW033 12/09 Q1003
                        RERA TEMPO 24023G36KT SHRA=
200811092250 METAR COR EGLL 092250Z 24023G37KT 7000 -RA FEW020 BKN024
                        12/09 Q1002 TEMPO RA=
200811092220 METAR COR EGLL 092220Z 22021KT 9999 FEW027 SCT031 12/08 Q1002
                        TEMPO 22025G40KT 4000 +RA=
200811092150 METAR COR EGLL 092150Z 22022G36KT 9999 SCT026 SCT034 13/08
                        Q1002 TEMPO 4000 +RA=
200811092120 METAR COR EGLL 092120Z 22019G29KT 9999 FEW025 BKN033 13/09
                        Q1002 TEMPO 22025G40KT 4000 +RA=
200811092050 METAR COR EGLL 092050Z 22019G33KT 9999 SCT021 SCT028 12/08
                        Q1003 TEMPO 22025G43KT 4000 +RA=
200811092020 METAR COR EGLL 092020Z 21019G30KT 9999 BKN019 12/08 Q1003
                        TEMPO 21025G40KT 4000 +RA=
200811091950 METAR COR EGLL 091950Z 21020G30KT 9999 FEW020 SCT023 12/08
                        Q1003 TEMPO 21025G40KT 4000 +RA=
200811091920 METAR COR EGLL 091920Z 21018KT 9999 -SHRA FEW023 SCT032 11/08
                        Q1004 TEMPO 22028G40KT 4000 +SHRA=
200811091850 METAR COR EGLL 091850Z 21019G29KT 9999 SCT029 12/08 Q1004
                        TEMPO 21025G40KT=
200811091820 METAR COR EGLL 091820Z 21017G32KT 9999 -RA SCT026 SCT031
                        12/08 Q1005 RERA TEMPO 22025G42KT=
200811091750 METAR COR EGLL 091750Z 20020KT 9999 -RA SCT027 11/08 Q1005
                        TEMPO 21025G40KT 4000 +RA=
200811091720 METAR COR EGLL 091720Z 20021KT 9999 -RA SCT033 SCT041 11/08
                        Q1006 TEMPO 22025G35KT 4000 +RA=
200811091650 METAR COR EGLL 091650Z 20021KT 9999 -SHRA FEW023 SCT030 11/08
                        Q1006 TEMPO 22025G35KT SHRA=
200811091620 METAR COR EGLL 091620Z 20018KT 9999 -SHRA SCT028 SCT038 12/07
                        Q1006 TEMPO 22022G35KT SHRA=
200811091550 METAR COR EGLL 091550Z 20017G28KT 9999 -SHRA SCT024 SCT031
                        12/07 Q1007 NOSIG=
200811091520 METAR COR EGLL 091520Z 20019KT 9999 SCT027 SCT037 12/07 Q1007
                        TEMPO 21022G34KT=
200811091450 METAR COR EGLL 091450Z 21016KT 9999 VCSH SCT024 12/06 Q1008
                        TEMPO 23020G30KT SHRA=
200811091420 METAR COR EGLL 091420Z 20015KT 180V240 9999 -SHRA FEW024
                        12/06 Q1009 TEMPO 23018G32KT=
200811091350 METAR COR EGLL 091350Z 21015KT 9999 VCSH FEW034 12/06 Q1009
                        TEMPO 23018G32KT SHRA=
200811091320 METAR COR EGLL 091320Z 21014KT 9999 FEW034 12/05 Q1010 NOSIG=
200811091250 METAR COR EGLL 091250Z 22015KT 9999 FEW033 12/06 Q1010 TEMPO
                        24018G30KT=
200811091220 METAR COR EGLL 091220Z 22016KT 9999 FEW034 11/06 Q1010 TEMPO
                        24018G30KT=
200811091150 METAR COR EGLL 091150Z 22017KT 180V250 9999 FEW035 11/05
                        Q1010 TEMPO 24018G30KT=
200811091120 METAR COR EGLL 091120Z 21012KT 190V250 9999 FEW020 10/05
                        Q1011 TEMPO 24018G28KT=
200811091050 METAR COR EGLL 091050Z 21012G22KT 9999 FEW020 10/05 Q1011
                        TEMPO 23018G32KT=
200811091020 METAR COR EGLL 091020Z 22011KT CAVOK 10/04 Q1011 TEMPO 24016G27KT=
200811090950 METAR COR EGLL 090950Z 22010G22KT CAVOK 09/04 Q1011 BECMG
                        25015G27KT=
200811090920 METAR COR EGLL 090920Z 22010KT CAVOK 08/03 Q1011 BECMG 24015G25KT=
200811090850 METAR COR EGLL 090850Z 23011KT CAVOK 08/03 Q1011 BECMG 24015G25KT=
200811090820 METAR COR EGLL 090820Z 23011KT CAVOK 08/03 Q1011 BECMG 24015G25KT=
200811090750 METAR COR EGLL 090750Z 22010KT CAVOK 07/03 Q1011 BECMG 24015G25KT=
200811090720 METAR COR EGLL 090720Z 20006KT 180V240 CAVOK 06/02 Q1010
                        NOSIG=
200811090650 METAR COR EGLL 090650Z 21009KT CAVOK 06/02 Q1010 NOSIG=
200811090620 METAR COR EGLL 090620Z 22011KT CAVOK 07/03 Q1009 TEMPO 21017G27KT=
200811090550 METAR COR EGLL 090550Z 23013KT CAVOK 07/03 Q1009 TEMPO 21017G27KT=
200811090520 METAR COR EGLL 090520Z 23014KT CAVOK 07/03 Q1009 TEMPO 24017G27KT=
200811090450 METAR COR EGLL 090450Z 23012KT CAVOK 07/03 Q1008 NOSIG=
200811090420 METAR COR EGLL 090420Z 23012KT CAVOK 07/03 Q1008 NOSIG=
200811090350 METAR COR EGLL 090350Z 25011KT 9999 FEW029 08/04 Q1007 NOSIG=
200811090320 METAR COR EGLL 090320Z 25011KT 9999 FEW032 08/04 Q1007 NOSIG=
200811090250 METAR COR EGLL 090250Z 25015KT 9999 FEW029 08/04 Q1006 TEMPO
                        25016G27KT=
200811090220 METAR EGLL 090220Z AUTO 26019KT 9999NDV SCT025/// SCT046///
                        08/05 Q1006=
200811090150 METAR EGLL 090150Z AUTO 25015KT 9999NDV FEW032/// SCT035///
                        09/05 Q1005=
200811090120 METAR EGLL 090120Z AUTO 24012KT 9999NDV FEW033/// 09/05 Q1005=
200811090050 METAR COR EGLL 090050Z 24012KT 9999 FEW040 10/06 Q1004 NOSIG=
200811090020 METAR COR EGLL 090020Z 24012KT 9999 FEW040 10/06 Q1004 NOSIG=
200811082350 METAR COR EGLL 082350Z 25014KT 9999 FEW040 10/06 Q1003 NOSIG=
200811082320 METAR COR EGLL 082320Z 26017KT 9999 FEW010 SCT040 12/08 Q1002
                        RERA NOSIG=
200811082250 METAR COR EGLL 082250Z 24019G29KT 9999 RA SCT014 BKN030 BKN034
                        12/10 Q1001 TEMPO 24023G39KT 4000
                        +RA BKN014=
200811082220 METAR COR EGLL 082220Z 19021KT 9999 -RA SCT013 SCT034 12/10
                        Q1001 TEMPO 4000 +RA BKN014=
200811082150 METAR COR EGLL 082150Z 18019KT 160V220 9999 -RA FEW013 SCT023
                        12/10 Q1001 RERA TEMPO RA BKN014=
200811082120 METAR COR EGLL 082120Z 19017G27KT 160V230 6000 RA SCT017
                        BKN023 12/10 Q1003 TEMPO 4000 +RA
                        BKN014=
200811082050 METAR COR EGLL 082050Z 19016KT 9999 -RA FEW020 SCT030 12/10
                        Q1003 BECMG 19017G27KT RA BKN014=
200811082020 METAR COR EGLL 082020Z 18016KT 9999 -RA FEW018 SCT030 13/10
                        Q1004 BECMG 18017G27KT RA BKN014=
200811081950 METAR COR EGLL 081950Z 18014KT 160V220 9999 SCT019 SCT032
                        13/10 Q1004 BECMG RA BKN014=
200811081920 METAR COR EGLL 081920Z 18014G24KT 9999 SCT015 SCT020 12/10
                        Q1005 BECMG RA BKN014=
200811081850 METAR COR EGLL 081850Z 18013KT 160V240 9999 SCT015 SCT026
                        12/10 Q1005 BECMG 19017G28KT RA BKN014=
200811081820 METAR COR EGLL 081820Z 18014KT 9999 SCT024 12/10 Q1006 TEMPO
                        19017G28KT BKN014=
200811081750 METAR COR EGLL 081750Z 19015KT 9999 FEW015 SCT040 12/10 Q1006
                        TEMPO BKN014=
200811081720 METAR COR EGLL 081720Z 18013KT 9999 FEW015 SCT030 12/10 Q1006
                        TEMPO BKN014=
200811081650 METAR COR EGLL 081650Z 18015KT 9999 -RA SCT012 BKN028 12/10
                        Q1007 NOSIG=
200811081620 METAR COR EGLL 081620Z 18011KT 5000 -SHRA SCT015 BKN031 12/10
                        Q1007 RESHRA TEMPO SHRA=
200811081550 METAR COR EGLL 081550Z 18012KT 9999 4000E -RA FEW018 BKN025
                        12/10 Q1007 TEMPO SHRA=
200811081520 METAR COR EGLL 081520Z 18012KT 170V230 9999 SCT020 12/10
                        Q1008 NOSIG=
200811081450 METAR COR EGLL 081450Z 19014KT 9999 FEW020 12/10 Q1008 NOSIG=
200811081420 METAR COR EGLL 081420Z 20013G23KT 9999 FEW020 13/09 Q1008
                        NOSIG=
200811081350 METAR COR EGLL 081350Z 19013KT 9999 FEW012 13/10 Q1008 NOSIG=
200811081320 METAR COR EGLL 081320Z 19012KT 160V230 9999 FEW020 12/09
                        Q1008 NOSIG=
200811081250 METAR COR EGLL 081250Z 20013KT 170V230 9999 FEW016 SCT046
                        12/10 Q1008 TEMPO RA BKN014=
200811081220 METAR COR EGLL 081220Z 20013KT 160V240 9999 VCSH FEW015 SCT020
                        12/10 Q1009 TEMPO RA BKN012=
200811081150 METAR COR EGLL 081150Z 20013KT 170V240 9999 VCSH SCT016 SCT020
                        13/10 Q1009 TEMPO 4000 RA BKN012=
200811081120 METAR COR EGLL 081120Z 20012KT 170V240 9999 FEW011 BKN018
                        BKN040 12/10 Q1009 TEMPO 4000 RA
                        BKN012=
200811081050 METAR COR EGLL 081050Z 19012KT 170V240 9999 FEW012 BKN015
                        12/10 Q1009 TEMPO 4000 RA BKN012=
200811081020 METAR COR EGLL 081020Z 19013KT 8000 -RA FEW011 BKN013 12/10
                        Q1009 TEMPO 4500 RA BKN012=
200811080950 METAR COR EGLL 080950Z 18014KT 9999 SCT011 BKN018 11/10 Q1009
                        TEMPO RA BKN008=
200811080920 METAR COR EGLL 080920Z 18014KT 9999 BKN013 BKN020 11/09 Q1009
                        TEMPO RA BKN008=
200811080850 METAR COR EGLL 080850Z 18014KT 160V220 8000 -RA BKN013 BKN021
                        11/09 Q1009 TEMPO RA BKN008=
200811080820 METAR COR EGLL 080820Z 19017KT 9999 -RA SCT015 BKN037 11/09
                        Q1009 BECMG RA BKN012=
200811080750 METAR COR EGLL 080750Z 18015KT 9999 -RA SCT018 11/08 Q1009
                        TEMPO RA BKN012=
200811080720 METAR COR EGLL 080720Z 18014KT 9999 SCT020 11/08 Q1009 TEMPO
                        RA BKN012=
200811080650 METAR COR EGLL 080650Z 18013KT 140V210 9999 SCT020 11/08
                        Q1009 TEMPO RA BKN012=
200811080620 METAR COR EGLL 080620Z 18013KT 9999 SCT016 11/08 Q1009 NOSIG=
200811080550 METAR COR EGLL 080550Z 17011KT 140V200 9999 SCT016 10/08
                        Q1009 NOSIG=
200811080520 METAR COR EGLL 080520Z 17011KT 9999 SCT015 10/08 Q1009 NOSIG=
200811080450 METAR COR EGLL 080450Z 17010KT 9999 SCT015 10/08 Q1009 NOSIG=
200811080420 METAR COR EGLL 080420Z 17009KT 9999 SCT015 10/08 Q1010 NOSIG=
200811080350 METAR COR EGLL 080350Z 16008KT CAVOK 09/07 Q1010 NOSIG=
200811080320 METAR COR EGLL 080320Z 16007KT 9999 SCT019 09/07 Q1010 NOSIG=
200811080250 METAR COR EGLL 080250Z 14006KT 9999 FEW036 08/07 Q1010 NOSIG=
200811080220 METAR EGLL 080220Z AUTO 16006KT 9999NDV FEW047/// 08/06 Q1011=
200811080150 METAR EGLL 080150Z AUTO 15005KT 9999NDV FEW044/// 07/06 Q1011=
200811080120 METAR EGLL 080120Z AUTO 15006KT 9999NDV FEW032/// 08/06 Q1011=
200811080050 METAR COR EGLL 080050Z 15005KT CAVOK 07/06 Q1011 NOSIG=
200811080020 METAR COR EGLL 080020Z 19005KT CAVOK 08/06 Q1011 NOSIG=
200811072350 METAR COR EGLL 072350Z 18006KT CAVOK 08/06 Q1011 NOSIG=
200811072320 METAR COR EGLL 072320Z 20007KT 9999 FEW030 08/06 Q1011 NOSIG=
200811072250 METAR COR EGLL 072250Z 18010KT CAVOK 09/07 Q1011 NOSIG=
200811072220 METAR COR EGLL 072220Z 19010KT CAVOK 09/06 Q1010 NOSIG=
200811072150 METAR COR EGLL 072150Z 19010KT 170V230 CAVOK 09/06 Q1010
                        NOSIG=
200811072120 METAR COR EGLL 072120Z 19012KT CAVOK 09/06 Q1010 NOSIG=
200811072050 METAR COR EGLL 072050Z 19010KT CAVOK 08/06 Q1010 NOSIG=
200811072020 METAR COR EGLL 072020Z 19008KT CAVOK 08/06 Q1010 NOSIG=
200811071950 METAR COR EGLL 071950Z 20006KT 150V230 CAVOK 08/06 Q1010
                        NOSIG=
200811071920 METAR COR EGLL 071920Z 20008KT 160V240 CAVOK 09/06 Q1010
                        NOSIG=
200811071850 METAR COR EGLL 071850Z 19009KT 170V240 CAVOK 09/06 Q1009
                        NOSIG=
200811071820 METAR COR EGLL 071820Z 19009KT CAVOK 09/06 Q1009 NOSIG=
200811071750 METAR COR EGLL 071750Z 19008KT CAVOK 09/06 Q1009 NOSIG=
200811071720 METAR COR EGLL 071720Z 19009KT CAVOK 10/06 Q1009 NOSIG=
200811071650 METAR COR EGLL 071650Z 21008KT CAVOK 10/06 Q1009 NOSIG=
200811071620 METAR COR EGLL 071620Z 20010KT 9999 FEW049 11/06 Q1008 NOSIG=
200811071550 METAR COR EGLL 071550Z 21009KT 180V250 9999 FEW040 11/06
                        Q1008 TEMPO SHRA=
200811071520 METAR COR EGLL 071520Z 21008KT 9999 FEW034 SCT049 11/06 Q1008
                        RESHRA TEMPO SHRA=
200811071450 METAR COR EGLL 071450Z 24016KT 9999 8000N SHRA FEW033 BKN036
                        BKN049 11/06 Q1008 TEMPO NOSIG=
200811071420 METAR COR EGLL 071420Z 23012KT 190V260 9999 VCSH SCT040 13/05
                        Q1007 NOSIG=
200811071350 METAR COR EGLL 071350Z 22010KT 190V250 9999 SCT038 BKN049
                        13/05 Q1007 NOSIG=
200811071320 METAR COR EGLL 071320Z 24014KT 9999 SCT037 BKN046 13/05 Q1007
                        NOSIG=
200811071250 METAR COR EGLL 071250Z 22011KT 190V250 9999 FEW028 13/05
                        Q1008 NOSIG=
200811071220 METAR COR EGLL 071220Z 23012G22KT 9999 FEW028 12/05 Q1008
                        NOSIG=
200811071150 METAR COR EGLL 071150Z 24014KT 9999 FEW029 12/05 Q1008 NOSIG=
200811071120 METAR COR EGLL 071120Z 23011KT 190V260 9999 FEW029 12/07
                        Q1008 NOSIG=
200811071050 METAR COR EGLL 071050Z 23011KT 9999 FEW016 11/07 Q1008 NOSIG=
200811071020 METAR COR EGLL 071020Z 23012KT 9999 FEW016 11/07 Q1007 NOSIG=
200811070950 METAR COR EGLL 070950Z 24012KT 9999 FEW015 11/07 Q1007 NOSIG=
200811070920 METAR COR EGLL 070920Z 24011KT 9999 FEW015 11/08 Q1007 NOSIG=
200811070850 METAR COR EGLL 070850Z 24011KT 9999 FEW017 10/08 Q1007 NOSIG=
200811070820 METAR COR EGLL 070820Z 24011KT 9999 FEW017 10/08 Q1006 NOSIG=
200811070750 METAR COR EGLL 070750Z 24010KT 9999 SCT019 11/09 Q1006 NOSIG=
200811070720 METAR COR EGLL 070720Z 22009KT 9999 FEW018 11/09 Q1005 NOSIG=
200811070650 METAR COR EGLL 070650Z 20009KT 9999 FEW006 SCT019 11/09 Q1005
                        NOSIG=
200811070620 METAR COR EGLL 070620Z 15010KT 4000 -RA SCT007 BKN014 BKN020
                        10/09 Q1004 TEMPO BKN008=
200811070550 METAR COR EGLL 070550Z 14010KT 6000 DZ FEW011 BKN013 10/09
                        Q1005 TEMPO 4000 RA=
200811070520 METAR COR EGLL 070520Z 14010KT 7000 FEW015 SCT044 10/08 Q1005
                        TEMPO 4000 RA BKN012=
200811070450 METAR COR EGLL 070450Z 14008KT 7000 -RA SCT026 BKN047 10/08
                        Q1005 TEMPO 4000 RA BKN014=
200811070420 METAR COR EGLL 070420Z 13007KT 6000 -RA BKN049 10/08 Q1006
                        TEMPO 4000 RA BKN012=
200811070350 METAR COR EGLL 070350Z 12009KT 5000 -RA HZ NSC 09/08 Q1006
                        TEMPO 4000 RA=
200811070320 METAR COR EGLL 070320Z 12009KT 5000 HZ NSC 09/08 Q1006 TEMPO
                        4000 RA=
200811070250 METAR COR EGLL 070250Z 13008KT 5000 HZ NSC 09/08 Q1007 NOSIG=
200811070220 METAR EGLL 070220Z AUTO 13007KT 4200NDV HZ NCD 09/08 Q1007=
200811070150 METAR EGLL 070150Z AUTO 14006KT 3400NDV HZ NCD 09/08 Q1008=
200811070120 METAR EGLL 070120Z AUTO 13005KT 2900NDV HZ NCD 09/08 Q1008=
200811070050 METAR COR EGLL 070050Z 14006KT 3100 HZ NSC 09/08 Q1008 NOSIG=
200811070020 METAR EGLL 070020Z 14006KT 3200 HZ NSC 09/08 Q1009=
200811062350 METAR COR EGLL 062350Z 14006KT 3800 HZ FEW022 10/08 Q1009
                        NOSIG=
200811062320 METAR COR EGLL 062320Z 13005KT 090V200 4000 HZ FEW012 09/08
                        Q1009 NOSIG=
200811062250 METAR COR EGLL 062250Z 13004KT 3200 HZ SCT012 BKN047 09/08
                        Q1009 NOSIG=
200811062220 METAR COR EGLL 062220Z 13005KT 3200 HZ FEW025 SCT045 09/08
                        Q1010 NOSIG=
200811062150 METAR COR EGLL 062150Z 17005KT 130V200 4800 -DZ FEW048 10/08
                        Q1010 NOSIG=
200811062120 METAR COR EGLL 062120Z 17006KT 130V240 4800 HZ FEW048 10/09
                        Q1010 NOSIG=
200811062050 METAR COR EGLL 062050Z 18006KT 120V220 5000 BR NSC 10/08
                        Q1010 NOSIG=
200811062020 METAR COR EGLL 062020Z 16005KT 130V210 5000 BR NSC 10/09
                        Q1010 NOSIG=
200811061950 METAR COR EGLL 061950Z 13005KT 100V170 5000 HZ FEW026 10/09
                        Q1011 NOSIG=
200811061920 METAR COR EGLL 061920Z 15006KT 090V190 5000 HZ SCT026 10/08
                        Q1011 NOSIG=
200811061850 METAR COR EGLL 061850Z 14005KT 040V170 6000 SCT014 SCT026
                        10/08 Q1011 NOSIG=
200811061820 METAR COR EGLL 061820Z 15006KT 110V170 7000 FEW015 SCT028
                        10/09 Q1011 NOSIG=
200811061750 METAR COR EGLL 061750Z 14006KT 100V170 6000 FEW035 10/09
                        Q1011 NOSIG=
200811061720 METAR COR EGLL 061720Z 15005KT 100V200 7000 FEW020 SCT035
                        10/09 Q1011 NOSIG=
200811061650 METAR COR EGLL 061650Z 17005KT 140V320 5000 BR FEW013 SCT023
                        BKN036 10/09 Q1011 NOSIG=
200811061620 METAR COR EGLL 061620Z 18005KT 140V240 6000 FEW013 BKN023
                        BKN036 11/09 Q1011 NOSIG=
200811061550 METAR COR EGLL 061550Z 20005KT 160V240 6000 SCT028 SCT034
                        11/09 Q1011 NOSIG=
200811061520 METAR COR EGLL 061520Z VRB05KT 6000 FEW010 BKN035 11/09 Q1011
                        NOSIG=
200811061450 METAR COR EGLL 061450Z 19005KT 140V290 7000 SCT010 BKN023
                        BKN038 11/09 Q1012 NOSIG=
200811061420 METAR COR EGLL 061420Z 22005KT 150V290 8000 SCT012 BKN024
                        11/09 Q1012 NOSIG=
200811061350 METAR COR EGLL 061350Z 23006KT 7000 FEW007 BKN014 BKN028
                        11/09 Q1012 NOSIG=
200811061320 METAR COR EGLL 061320Z 22006KT 160V250 6000 SCT008 BKN012
                        BKN028 11/09 Q1012 NOSIG=
200811061250 METAR COR EGLL 061250Z 19005KT 140V260 6000 FEW007 BKN012
                        BKN030 11/09 Q1012 NOSIG=
200811061220 METAR COR EGLL 061220Z 20005KT 140V270 6000 SCT007 BKN012
                        BKN032 11/09 Q1013 NOSIG=
200811061150 METAR COR EGLL 061150Z 22004KT 170V310 4800 HZ SCT007 BKN010
                        BKN032 11/09 Q1013 BECMG 6000=
200811061120 METAR COR EGLL 061120Z VRB02KT 4800 HZ SCT006 BKN008 11/09
                        Q1013 BECMG 6000 BKN012=
200811061050 METAR COR EGLL 061050Z VRB03KT 4900 HZ SCT006 BKN007 11/09
                        Q1013 BECMG 6000 BKN012=
200811061020 METAR COR EGLL 061020Z 31004KT 270V350 4700 HZ SCT005 BKN006
                        10/09 Q1014 BECMG BKN010=
200811060950 METAR COR EGLL 060950Z 31004KT 4600 BR SCT005 BKN007 10/09
                        Q1014 BECMG BKN010=
200811060920 METAR COR EGLL 060920Z 29003KT 4200 BR SCT004 BKN005 10/09
                        Q1014 BECMG BKN010=
200811060850 METAR COR EGLL 060850Z 27003KT 4000 BR SCT003 BKN004 10/09
                        Q1014 BECMG BKN006=
200811060820 METAR COR EGLL 060820Z 28003KT 2500 BR FEW002 BKN003 10/09
                        Q1014 BECMG BKN005=
200811060750 METAR COR EGLL 060750Z 28004KT 3400 BR BKN002 BKN003 10/09
                        Q1014 BECMG BKN004=
200811060720 METAR COR EGLL 060720Z 29003KT 3000 BR BKN003 BKN008 10/08
                        Q1014 NOSIG=
200811060650 METAR COR EGLL 060650Z 30004KT 3000 BR BKN003 09/09 Q1014
                        NOSIG=
200811060620 METAR COR EGLL 060620Z 29005KT 2000 -RA BKN003 09/09 Q1014
                        NOSIG=
200811060550 METAR COR EGLL 060550Z 30004KT 270V330 2900 -DZ OVC003 09/08
                        Q1014 NOSIG=
200811060520 METAR COR EGLL 060520Z 29005KT 3600 BR OVC005 10/08 Q1014
                        TEMPO BKN004=
200811060450 METAR COR EGLL 060450Z 29004KT 4400 BR OVC005 10/08 Q1015
                        TEMPO BKN004=
200811060420 METAR COR EGLL 060420Z 30004KT 4300 BR OVC008 10/08 Q1015
                        NOSIG=
200811060350 METAR COR EGLL 060350Z 30003KT 4200 BR OVC008 10/08 Q1015
                        NOSIG=
200811060320 METAR COR EGLL 060320Z VRB03KT 3500 BR OVC011 10/08 Q1015
                        BECMG BKN008=
200811060250 METAR COR EGLL 060250Z VRB03KT 4000 BR FEW008 SCT013 OVC035
                        09/08 Q1015 BECMG BKN008=
200811060220 METAR EGLL 060220Z AUTO VRB03KT 3000NDV HZ BKN008/// BKN035///
                        09/08 Q1015=
200811060150 METAR COR EGLL 060150Z AUTO VRB02KT 3800NDV HZ SCT008///
                        SCT035/// 09/08 Q1016 BECMG BKN010=
200811060120 METAR COR EGLL 060120Z AUTO VRB03KT 5000NDV SCT006/// BKN037///
                        09/08 Q1016 BECMG BKN008=
200811060050 METAR COR EGLL 060050Z VRB03KT 4500 BR FEW008 BKN035 10/08
                        Q1016 BECMG BKN008=
200811060020 METAR COR EGLL 060020Z 32003KT 4000 BR SCT010 SCT028 10/09
                        Q1016 BECMG BKN008=
200811052350 METAR COR EGLL 052350Z VRB03KT 3700 BR BKN007 BKN020 10/09
                        Q1016 NOSIG=
200811052320 METAR COR EGLL 052320Z VRB03KT 3200 BR BKN007 BKN013 10/09
                        Q1016 NOSIG=
200811052250 METAR COR EGLL 052250Z VRB03KT 3200 BR SCT009 BKN013 10/09
                        Q1017 BECMG BKN008=
200811052220 METAR COR EGLL 052220Z 33004KT 300V360 3200 BR FEW006 OVC036
                        10/09 Q1017 NOSIG=
200811052150 METAR COR EGLL 052150Z 35004KT 3300 HZ FEW007 OVC033 10/09
                        Q1017 NOSIG=
200811052120 METAR COR EGLL 052120Z 35004KT 3600 HZ FEW007 SCT009 BKN034
                        10/09 Q1017 BECMG BKN007=
200811052050 METAR COR EGLL 052050Z 35004KT 330V040 3400 -DZ HZ FEW007
                        SCT009 BKN035 10/09 Q1017 BECMG BKN007=
200811052020 METAR COR EGLL 052020Z 01004KT 330V050 3500 -DZ FEW007 BKN013
                        10/09 Q1017 TEMPO BKN007=
200811051950 METAR COR EGLL 051950Z 01004KT 330V050 3300 HZ FEW007 SCT023
                        BKN040 10/09 Q1017 TEMPO BKN007=
200811051920 METAR COR EGLL 051920Z 01004KT 340V050 3000 -DZ SCT005 SCT016
                        BKN020 10/09 Q1017 TEMPO BKN005=
200811051850 METAR COR EGLL 051850Z 35004KT 2000 RADZ SCT007 SCT020 BKN032
                        11/09 Q1017 TEMPO BKN007=
200811051820 METAR COR EGLL 051820Z 35004KT 320V030 4800 -DZ FEW011 SCT020
                        BKN035 11/09 Q1017 TEMPO BKN012=
200811051750 METAR COR EGLL 051750Z 35005KT 320V020 5000 -DZ SCT008 BKN013
                        BKN030 11/09 Q1017 NOSIG=
200811051720 METAR COR EGLL 051720Z 35005KT 6000 SCT007 SCT013 BKN021
                        11/09 Q1017 TEMPO BKN012=
200811051650 METAR COR EGLL 051650Z 36005KT 330V040 7000 SCT011 SCT017
                        11/09 Q1017 TEMPO BKN011=
200811051620 METAR EGLL 051620Z 36005KT 310V040 7000 FEW012 BKN020 BKN035
                        11/09 Q1017=
200811051550 METAR COR EGLL 051550Z VRB03KT 3600 HZ FEW005 SCT010 BKN028
                        11/10 Q1017 BECMG 6000 NSW=
200811051520 METAR COR EGLL 051520Z VRB02KT 2900 DZ SCT011 SCT017 BKN027
                        11/09 Q1017 BECMG 6000 NSW=
200811051450 METAR COR EGLL 051450Z 03004KT 360V070 3500 RADZ FEW008 SCT011
                        BKN021 11/09 Q1017 BECMG 6000 NSW=
200811051420 METAR COR EGLL 051420Z 03005KT 350V070 3800 DZ BKN010 11/09
                        Q1017 BECMG 7000 NSW=
200811051350 METAR COR EGLL 051350Z 01005KT 340V040 9000 FEW013 BKN025
                        12/09 Q1017 TEMPO BKN013=
200811051320 METAR EGLL 051320Z 36006KT 310V040 9000 FEW013 SCT020 BKN035
                        12/09 Q1017=
200811051250 METAR COR EGLL 051250Z 02005KT 330V040 9999 FEW010 SCT016
                        BKN040 12/09 Q1017 TEMPO BKN011=
200811051220 METAR COR EGLL 051220Z 01005KT 340V060 9000 FEW011 SCT033
                        BKN043 12/10 Q1017 TEMPO BKN011=
200811051150 METAR COR EGLL 051150Z 01006KT 340V040 8000 SCT008 BKN012
                        BKN032 11/10 Q1017 TEMPO BKN008=
200811051120 METAR COR EGLL 051120Z 01005KT 340V050 9000 BKN007 BKN011
                        11/10 Q1017 NOSIG=
200811051050 METAR COR EGLL 051050Z 02006KT 340V060 9999 4000NE -DZ BKN008
                        BKN012 11/09 Q1017 NOSIG=
200811051020 METAR COR EGLL 051020Z 01007KT 330V060 9999 BKN009 11/09
                        Q1018 NOSIG=
200811050950 METAR COR EGLL 050950Z 02007KT 340V060 9999 SCT007 BKN009
                        11/09 Q1018 NOSIG=
200811050920 METAR COR EGLL 050920Z 36006KT 330V030 9000 SCT007 BKN009
                        11/09 Q1018 NOSIG=
200811050850 METAR COR EGLL 050850Z 35005KT 5000 BR FEW005 SCT010 10/09
                        Q1018 TEMPO BKN010=
200811050820 METAR COR EGLL 050820Z 34005KT 300V010 3100 BR FEW005 10/09
                        Q1018 TEMPO BKN012=
200811050750 METAR COR EGLL 050750Z 35006KT 4600 BR FEW008 BKN020 10/09
                        Q1018 TEMPO BKN012=
200811050720 METAR COR EGLL 050720Z 35005KT 4800 BR FEW008 BKN020 10/08
                        Q1018 TEMPO BKN012=
200811050650 METAR COR EGLL 050650Z 35005KT 300V020 4800 HZ FEW016 10/08
                        Q1018 TEMPO BKN014=
200811050620 METAR COR EGLL 050620Z 34004KT 310V010 5000 HZ FEW012 OVC018
                        10/08 Q1018 TEMPO BKN012=
200811050550 METAR COR EGLL 050550Z 35004KT 320V020 4000 -DZ OVC012 10/08
                        Q1018 TEMPO BKN009=
200811050520 METAR COR EGLL 050520Z 36004KT 330V040 6000 FEW013 OVC016
                        10/08 Q1018 BECMG BKN013=
200811050450 METAR EGLL 050450Z NIL=
200811050420 METAR COR EGLL 050420Z 36006KT 5000 HZ BKN025 10/08 Q1018
                        NOSIG=
200811050350 METAR COR EGLL 050350Z 36005KT 4800 HZ OVC024 10/08 Q1018
                        NOSIG=
200811050320 METAR EGLL 050320Z NIL=
200811050250 METAR COR EGLL 050250Z VRB03KT 6000 BKN018 11/08 Q1018 NOSIG=
200811050220 METAR EGLL 050220Z AUTO 01004KT 340V050 8000NDV OVC017///
                        11/08 Q1019=
200811050150 METAR EGLL 050150Z AUTO 02005KT 6000NDV OVC017/// 11/08 Q1019=
200811050120 METAR COR EGLL 050120Z AUTO 02004KT 320V060 6000NDV OVC017///
                        11/08 Q1019 NOSIG=
200811042350 METAR COR EGLL 042350Z 04004KT 010V080 5000 BR OVC017 11/08
                        Q1019 NOSIG=
200811042320 METAR COR EGLL 042320Z 04004KT 360V080 5000 BR BKN017 11/08
                        Q1019 NOSIG=
200811042250 METAR COR EGLL 042250Z 05004KT 360V090 5000 BR SCT020 10/08
                        Q1019 NOSIG=
200811042220 METAR COR EGLL 042220Z 04005KT 360V070 5000 BR SCT015 SCT021
                        11/08 Q1019 NOSIG=
200811042150 METAR COR EGLL 042150Z 03006KT 350V070 6000 BKN019 11/08
                        Q1020 NOSIG=
200811042120 METAR COR EGLL 042120Z 04004KT 010V080 6000 BKN019 11/08
                        Q1020 NOSIG=
200811042050 METAR COR EGLL 042050Z 04005KT 6000 BKN018 11/08 Q1020 TEMPO
                        BKN014=
200811042020 METAR COR EGLL 042020Z 03005KT 360V060 7000 BKN017 12/09
                        Q1019 TEMPO BKN014=
200811041950 METAR COR EGLL 041950Z 05005KT 010V080 7000 BKN014 12/09
                        Q1019 NOSIG=
200811041920 METAR COR EGLL 041920Z 06007KT 6000 BKN014 12/09 Q1019 NOSIG=
200811041850 METAR COR EGLL 041850Z 06008KT 6000 BKN014 12/09 Q1020 NOSIG=
200811041820 METAR COR EGLL 041820Z 06007KT 6000 BKN016 12/09 Q1020 NOSIG=
200811041750 METAR COR EGLL 041750Z 07007KT 6000 BKN016 12/09 Q1020 NOSIG=
200811041720 METAR COR EGLL 041720Z 06007KT 6000 BKN016 12/09 Q1019 BECMG
                        BKN014=
200811041650 METAR COR EGLL 041650Z 05005KT 4600 HZ BKN015 12/09 Q1019
                        BECMG BKN012=
200811041620 METAR COR EGLL 041620Z 04005KT 4600 HZ BKN016 12/09 Q1019
                        BECMG BKN014=
200811041550 METAR COR EGLL 041550Z 05005KT 4600 HZ FEW012 BKN017 12/09
                        Q1019 NOSIG=
200811041520 METAR COR EGLL 041520Z 05005KT 4800 HZ FEW014 BKN017 12/09
                        Q1019 TEMPO 6000 NSW=
200811041450 METAR COR EGLL 041450Z 06006KT 4600 HZ FEW015 BKN020 12/10
                        Q1019 NOSIG=
200811041420 METAR COR EGLL 041420Z 05005KT 4600 HZ SCT012 BKN020 12/10
                        Q1019 BECMG 6000 NSW=
200811041350 METAR COR EGLL 041350Z 04005KT 360V070 5000 HZ FEW009 BKN015
                        12/10 Q1019 NOSIG=
200811041320 METAR COR EGLL 041320Z 04005KT 010V080 4200 HZ FEW009 BKN014
                        12/10 Q1019 BECMG 6000=
200811041250 METAR COR EGLL 041250Z 08004KT 4000 BR SCT009 BKN012 12/09
                        Q1019 BECMG 6000 NSW=
200811041220 METAR COR EGLL 041220Z 10007KT 3800 BR BKN009 11/09 Q1019
                        BECMG 6000 NSW=
200811041150 METAR COR EGLL 041150Z 10007KT 4500 BR BKN010 11/09 Q1019
                        BECMG 6000 NSW=
200811041120 METAR COR EGLL 041120Z 10007KT 4500 BR BKN009 11/09 Q1020
                        TEMPO 6000 BKN012=
200811041050 METAR COR EGLL 041050Z 09007KT 4000 BR OVC009 11/09 Q1020
                        TEMPO 6000 NSW=
200811041020 METAR COR EGLL 041020Z 09008KT 4300 BR BKN009 11/09 Q1019
                        NOSIG=
200811040950 METAR COR EGLL 040950Z 08006KT 4000 BR BKN009 10/09 Q1019
                        TEMPO 6000 NSW=
200811040920 METAR COR EGLL 040920Z 10008KT 4000 BR FEW007 BKN009 10/08
                        Q1019 NOSIG=
200811040850 METAR COR EGLL 040850Z 08005KT 3500 BR FEW007 10/09 Q1019
                        BECMG BKN007=
200811040820 METAR COR EGLL 040820Z 07005KT 3500 BR FEW007 BKN009 10/09
                        Q1018 NOSIG=
200811040750 METAR COR EGLL 040750Z 07006KT 3900 BR FEW009 SCT012 10/08
                        Q1018 BECMG BKN008=
200811040720 METAR COR EGLL 040720Z 07006KT 3500 BR FEW008 BKN013 09/08
                        Q1018 TEMPO 2500 BR BKN004=
200811040650 METAR COR EGLL 040650Z 07004KT 4500 2000SE BR FEW008 08/07
                        Q1018 TEMPO 2000 BR BKN004=
200811040620 METAR COR EGLL 040620Z 06004KT 4200 2000SE BR SCT007 SCT010
                        09/08 Q1017 TEMPO 1400 BR BKN003=
200811040550 METAR COR EGLL 040550Z 06003KT 4000 BR FEW006 BKN010 09/08
                        Q1017 TEMPO BKN007=
200811040520 METAR COR EGLL 040520Z 07004KT 3000 BR BKN005 BKN010 10/09
                        Q1017 TEMPO 2500 BR BKN004=
200811040450 METAR COR EGLL 040450Z 08003KT 3000 BR BKN005 BKN010 10/09
                        Q1017 TEMPO 2500 BR BKN004=
200811040420 METAR COR EGLL 040420Z 09004KT 4000 BR BKN004 BKN009 10/09
                        Q1017 NOSIG=
200811040350 METAR COR EGLL 040350Z 08004KT 4000 BR SCT005 SCT009 BKN026
                        10/09 Q1017 BECMG 3000 BR BKN005=
200811040320 METAR COR EGLL 040320Z 07004KT 4000 BR SCT005 BKN018 10/09
                        Q1017 BECMG 2500 BR BKN004=
200811040250 METAR COR EGLL 040250Z 08004KT 3100 BR BKN004 BKN010 10/09
                        Q1016 TEMPO 2500 BR=
200811040220 METAR EGLL 040220Z AUTO 07004KT 3400NDV HZ BKN004/// 10/10
                        Q1016=
200811040150 METAR EGLL 040150Z AUTO 07004KT 2500NDV HZ BKN003/// 10/10
                        Q1016=
200811040120 METAR EGLL 040120Z AUTO 05003KT 2300NDV -DZ BKN003/// 10/10
                        Q1016=
200811040050 METAR COR EGLL 040050Z 04004KT 1500 R09L/P1500 BR BKN003
                        10/10 Q1016 TEMPO 1400 BKN002=
200811040020 METAR COR EGLL 040020Z 05004KT 1500 BR SCT003 BKN011 10/10
                        Q1016 BECMG BKN005=
200811032350 METAR COR EGLL 032350Z 06004KT 1600 -RA SCT003 SCT006 BKN010
                        10/10 Q1016 BECMG BKN004=
200811032320 METAR COR EGLL 032320Z 07005KT 2000 -RA BKN003 10/10 Q1016
                        NOSIG=
200811032250 METAR COR EGLL 032250Z 09004KT 3000 DZ BKN003 10/10 Q1016
                        TEMPO BKN005=
200811032220 METAR COR EGLL 032220Z 05004KT 010V080 2500 -DZ BKN003 10/10
                        Q1016 TEMPO BKN005=
200811032150 METAR COR EGLL 032150Z 01004KT 340V050 3500 -DZ FEW003 BKN004
                        OVC010 10/09 Q1015 TEMPO BKN006=
200811032120 METAR COR EGLL 032120Z 36006KT 3800 -DZ FEW003 BKN005 OVC010
                        10/09 Q1015 NOSIG=
200811032050 METAR COR EGLL 032050Z 36006KT 340V040 4000 -DZ BKN005 BKN010
                        10/09 Q1015 NOSIG=
200811032020 METAR COR EGLL 032020Z 01007KT 330V070 3000 -DZ BKN005 BKN010
                        10/09 Q1015 NOSIG=
200811031950 METAR COR EGLL 031950Z 01007KT 340V050 6000 BKN006 BKN010
                        10/09 Q1015 BECMG 4000 BR=
200811031920 METAR COR EGLL 031920Z 36006KT 330V040 4700 BR BKN006 10/09
                        Q1015 TEMPO BKN004=
200811031850 METAR COR EGLL 031850Z 01007KT 330V050 6000 BKN007 10/09
                        Q1015 BECMG 4000 BR=
200811031820 METAR COR EGLL 031820Z 36006KT 330V030 5000 -DZ BKN006 10/09
                        Q1015 BECMG 3000 BR=
200811031750 METAR COR EGLL 031750Z 01007KT 340V040 3300 -DZ BKN006 BKN015
                        10/09 Q1015 TEMPO BKN004=
200811031720 METAR COR EGLL 031720Z 02006KT 340V040 3200 DZ BKN006 11/09
                        Q1015 TEMPO BKN004=
200811031650 METAR COR EGLL 031650Z 03007KT 350V050 5000 BR BKN006 11/09
                        Q1014 BECMG 3000=
200811031620 METAR COR EGLL 031620Z 02010KT 350V060 5000 BR BKN007 11/09
                        Q1014 BECMG 3000=
200811031550 METAR COR EGLL 031550Z 02008KT 350V070 6000 OVC007 11/09
                        Q1014 BECMG 4000 BR=
200811031520 METAR COR EGLL 031520Z 03009KT 6000 OVC008 11/09 Q1014 BECMG
                        4000 BR=
200811031450 METAR COR EGLL 031450Z 03008KT 360V070 6000 OVC008 11/09
                        Q1014 BECMG 4000 BR=
200811031420 METAR COR EGLL 031420Z 03007KT 340V060 6000 BKN008 11/09
                        Q1014 TEMPO 4000 -DZ=
200811031350 METAR COR EGLL 031350Z 03008KT 6000 BKN008 11/09 Q1014 TEMPO
                        BKN010=
200811031320 METAR COR EGLL 031320Z 03008KT 340V060 6000 BKN008 11/09
                        Q1014 TEMPO BKN010=
200811031250 METAR COR EGLL 031250Z 03009KT 360V060 6000 BKN008 BKN011
                        11/09 Q1014 TEMPO 4000 -DZ=
200811031220 METAR COR EGLL 031220Z 02009KT 360V060 6000 FEW009 BKN010
                        11/09 Q1014 TEMPO BKN007=
200811031150 METAR COR EGLL 031150Z 02010G21KT 350V060 6000 BKN010 10/08
                        Q1014 TEMPO BKN008=
200811031120 METAR COR EGLL 031120Z 02010KT 350V050 7000 BKN010 10/08
                        Q1014 TEMPO BKN008=
200811031050 METAR COR EGLL 031050Z 03009KT 350V050 8000 BKN010 10/08
                        Q1015 TEMPO BKN008=
200811031020 METAR COR EGLL 031020Z 04009KT 010V070 8000 BKN009 10/08
                        Q1015 NOSIG=
200811030950 METAR COR EGLL 030950Z 05010KT 360V070 8000 OVC009 10/08
                        Q1015 NOSIG=
200811030920 METAR COR EGLL 030920Z 05011KT 8000 OVC009 10/08 Q1014 NOSIG=
200811030850 METAR COR EGLL 030850Z 04010G21KT 9000 OVC010 10/08 Q1014
                        TEMPO BKN007=
200811030820 METAR COR EGLL 030820Z 03008KT 360V060 6000 BKN010 10/08
                        Q1015 TEMPO BKN008=
200811030750 METAR COR EGLL 030750Z 03009KT 360V070 7000 BKN008 09/08
                        Q1015 NOSIG=
200811030720 METAR COR EGLL 030720Z 03009KT 360V080 8000 SCT009 09/07
                        Q1014 BECMG BKN008=
200811030650 METAR COR EGLL 030650Z 01009KT 340V050 8000 FEW010 08/07
                        Q1014 BECMG BKN008=
200811030620 METAR COR EGLL 030620Z 03007KT 6000 FEW008 SCT016 08/07 Q1014
                        BECMG BKN008=
200811030550 METAR COR EGLL 030550Z 02006KT 350V050 6000 FEW010 SCT016
                        08/07 Q1014 BECMG BKN008=
200811030520 METAR COR EGLL 030520Z 02007KT 7000 FEW025 08/07 Q1014 BECMG
                        BKN008=
200811030450 METAR COR EGLL 030450Z 03006KT 360V070 7000 BKN022 09/07
                        Q1014 BECMG 4000 BR BKN014=
200811030420 METAR COR EGLL 030420Z 03006KT 360V070 6000 FEW017 08/07
                        Q1015 BECMG 4000 BR BKN008=
200811030350 METAR COR EGLL 030350Z 03007KT 350V060 6000 FEW020 08/07
                        Q1015 BECMG BKN008=
200811030320 METAR COR EGLL 030320Z 02006KT 5000 BR FEW022 08/07 Q1015
                        BECMG BKN008=
200811030250 METAR COR EGLL 030250Z 04006KT 010V070 6000 SCT022 09/07
                        Q1015 TEMPO BKN007=
200811030220 METAR EGLL 030220Z AUTO 02005KT 350V060 6000NDV NCD 09/07
                        Q1015=
200811030150 METAR EGLL 030150Z AUTO 03006KT 360V060 5000NDV NCD 09/07
                        Q1015=
200811030120 METAR EGLL 030120Z AUTO 03005KT 360V060 6000NDV -RA NCD 09/08
                        Q1015=
200811030050 METAR COR EGLL 030050Z 01004KT 330V040 5000 -RA BR NSC 09/08
                        Q1015 NOSIG=
200811030020 METAR COR EGLL 030020Z 36005KT 330V030 5000 BR NSC 09/08
                        Q1015 TEMPO 4000 BR=
200811022350 METAR COR EGLL 022350Z VRB03KT 5000 BR NSC 09/08 Q1016 TEMPO
                        4000 BR=
200811022320 METAR COR EGLL 022320Z 02004KT 320V050 6000 NSC 09/08 Q1015
                        TEMPO 4500 BR=
200811022250 METAR COR EGLL 022250Z 03005KT 360V070 6000 NSC 09/08 Q1015
                        TEMPO 4000 BR=
200811022220 METAR COR EGLL 022220Z 04004KT 6000 FEW020 SCT042 10/08 Q1015
                        TEMPO 4500 BR=
200811022150 METAR COR EGLL 022150Z 04004KT 6000 FEW019 BKN042 10/08 Q1016
                        NOSIG=
200811022120 METAR COR EGLL 022120Z 04005KT 5000 BR FEW008 SCT012 10/08
                        Q1016 TEMPO 4000 BR BKN008=
200811022050 METAR COR EGLL 022050Z 04005KT 5000 BR SCT007 09/08 Q1016
                        TEMPO 4000 BR BKN008=
200811022020 METAR COR EGLL 022020Z 03004KT 360V080 6000 FEW007 09/08
                        Q1016 NOSIG=
200811021950 METAR COR EGLL 021950Z 02004KT 6000 FEW008 09/08 Q1016 TEMPO
                        BKN010=
200811021920 METAR COR EGLL 021920Z 02005KT 340V050 6000 SCT008 BKN030
                        10/08 Q1016 NOSIG=
200811021850 METAR COR EGLL 021850Z VRB03KT 9000 SCT013 BKN030 10/08 Q1016
                        NOSIG=
200811021820 METAR COR EGLL 021820Z 01004KT 340V040 9000 SCT016 BKN022
                        10/08 Q1015 NOSIG=
200811021750 METAR COR EGLL 021750Z VRB03KT 9000 FEW016 SCT023 09/08 Q1015
                        NOSIG=
200811021720 METAR COR EGLL 021720Z VRB03KT 9999 FEW008 10/08 Q1015 NOSIG=
200811021650 METAR COR EGLL 021650Z 35004KT 310V030 9999 SCT009 10/08
                        Q1015 NOSIG=
200811021620 METAR COR EGLL 021620Z VRB03KT 9999 FEW035 11/08 Q1015 NOSIG=
200811021550 METAR COR EGLL 021550Z 35005KT 9999 FEW035 11/08 Q1014 NOSIG=
200811021520 METAR COR EGLL 021520Z 35004KT 9999 FEW035 11/08 Q1014 NOSIG=
200811021450 METAR COR EGLL 021450Z 35004KT 9999 FEW035 11/08 Q1014 NOSIG=
200811021420 METAR COR EGLL 021420Z 35006KT 9999 6000SW SCT021 SCT034
                        11/09 Q1014 NOSIG=
200811021350 METAR COR EGLL 021350Z 03004KT 360V070 9999 FEW012 BKN022
                        11/08 Q1014 TEMPO BKN012=
200811021320 METAR COR EGLL 021320Z 05004KT 9999 FEW012 BKN017 11/08 Q1014
                        TEMPO BKN012=
200811021250 METAR COR EGLL 021250Z 01004KT 330V060 9999 FEW009 BKN018
                        11/09 Q1014 TEMPO BKN010=
200811021220 METAR COR EGLL 021220Z 34004KT 310V020 9999 SCT009 BKN013
                        11/08 Q1014 NOSIG=
200811021150 METAR COR EGLL 021150Z 35004KT 300V010 9999 BKN008 BKN013
                        11/09 Q1014 BECMG BKN010=
200811021120 METAR COR EGLL 021120Z 35004KT 320V030 9000 BKN006 BKN011
                        10/09 Q1014 BECMG BKN010=
200811021050 METAR COR EGLL 021050Z 36004KT 320V030 8000 BKN006 10/09
                        Q1014 BECMG BKN010=
200811021020 METAR COR EGLL 021020Z 35004KT 330V030 6000 BKN006 10/09
                        Q1014 NOSIG=
200811020950 METAR COR EGLL 020950Z VRB03KT 8000 SCT004 BKN006 10/09 Q1013
                        NOSIG=
200811020920 METAR COR EGLL 020920Z VRB03KT 6000 SCT004 BKN006 10/09 Q1013
                        NOSIG=
200811020850 METAR COR EGLL 020850Z 03003KT 4500 -DZ BKN004 BKN006 10/08
                        Q1013 TEMPO 6000 NSW=
200811020820 METAR COR EGLL 020820Z 05003KT 8000 FEW004 SCT005 OVC006
                        09/08 Q1012 TEMPO BKN004=
200811020750 METAR COR EGLL 020750Z 03005KT 360V090 5000 BR FEW003 SCT004
                        OVC005 09/08 Q1012 TEMPO 4000 BKN004=
200811020720 METAR COR EGLL 020720Z 03004KT 340V070 5000 BR BKN005 09/08
                        Q1011 TEMPO 2000=
200811020650 METAR COR EGLL 020650Z VRB03KT 5000 HZ BKN006 BKN009 09/08
                        Q1010 NOSIG=
200811020620 METAR COR EGLL 020620Z 36004KT 5000 BR BKN006 09/08 Q1010
                        TEMPO 2500 BKN003=
200811020550 METAR COR EGLL 020550Z VRB03KT 4600 BR BKN005 BKN008 09/08
                        Q1009 TEMPO 2500=
200811020520 METAR COR EGLL 020520Z VRB03KT 4500 BR BKN006 BKN010 09/08
                        Q1009 TEMPO 6000 BKN014=
200811020450 METAR COR EGLL 020450Z 36004KT 330V040 4500 BR SCT006 BKN013
                        09/08 Q1009 TEMPO 6000 BKN016=
200811020420 METAR COR EGLL 020420Z VRB03KT 5000 BR FEW005 BKN015 09/08
                        Q1008 TEMPO BKN005=
200811020350 METAR COR EGLL 020350Z VRB03KT 6000 BKN007 09/08 Q1008 TEMPO
                        BKN015=
200811020320 METAR COR EGLL 020320Z 36004KT 330V040 6000 OVC007 09/08
                        Q1007 TEMPO BKN014=
200811020250 METAR COR EGLL 020250Z VRB03KT 6000 OVC010 09/08 Q1007 TEMPO
                        3000 BR OVC007=
200811020220 METAR EGLL 020220Z AUTO VRB03KT 5000NDV OVC006/// 09/08 Q1007=
200811020150 METAR EGLL 020150Z AUTO VRB03KT 5000NDV OVC006/// 09/08 Q1006=
200811020120 METAR EGLL 020120Z AUTO 01004KT 340V040 6000NDV BKN008///
                        09/08 Q1006=
200811020050 METAR COR EGLL 020050Z 01004KT 340V050 7000 BKN011 09/08
                        Q1005 TEMPO 4000 BKN007=
200811020020 METAR COR EGLL 020020Z 02004KT 7000 FEW013 BKN017 09/08 Q1005
                        TEMPO BKN007=
200811012350 METAR COR EGLL 012350Z 03004KT 360V060 7000 BKN013 09/08
                        Q1005 TEMPO 4000 BKN007=
200811012320 METAR COR EGLL 012320Z 03004KT 360V070 8000 SCT007 BKN012
                        09/08 Q1005 TEMPO 4500 BKN007=
200811012250 METAR COR EGLL 012250Z 04005KT 010V070 9999 BKN007 09/08
                        Q1004 TEMPO 4500=
200811012220 METAR COR EGLL 012220Z 05006KT 9999 BKN007 09/08 Q1004 TEMPO
                        4500=
200811012150 METAR COR EGLL 012150Z 04005KT 010V070 9999 BKN008 BKN020
                        09/07 Q1004 TEMPO 4500=
200811012120 METAR COR EGLL 012120Z 03006KT 330V060 9999 BKN008 09/07
                        Q1004 TEMPO 6000=
200811012050 METAR COR EGLL 012050Z 02007KT 9999 BKN009 BKN020 09/07 Q1003
                        RERA TEMPO 6000 RA=
200811012020 METAR COR EGLL 012020Z 02007KT 330V060 8000 RA BKN009 BKN016
                        08/07 Q1003 TEMPO 4500 BKN005=
200811011950 METAR COR EGLL 011950Z 01007KT 8000 RA SCT009 SCT013 BKN039
                        08/07 Q1004 TEMPO 4500 BKN007=
200811011920 METAR COR EGLL 011920Z 02008KT 350V060 6000 RA SCT007 SCT015
                        08/07 Q1004 TEMPO 4000 RA BKN008=
200811011850 METAR COR EGLL 011850Z 36010KT 340V040 6000 RA FEW011 BKN023
                        08/07 Q1004 TEMPO 3000 +RA BKN008=
200811011820 METAR COR EGLL 011820Z 01009KT 330V060 6000 RA SCT013 BKN029
                        08/07 Q1003 TEMPO BKN012=
200811011750 METAR COR EGLL 011750Z 01009KT 320V050 7000 RA FEW014 BKN035
                        BKN040 08/06 Q1003 TEMPO 4000 RA
                        BKN010=
200811011720 METAR COR EGLL 011720Z 01011KT 330V040 8000 RA SCT027 BKN033
                        08/06 Q1003 TEMPO BKN014=
200811011650 METAR COR EGLL 011650Z 03012KT 6000 RA FEW012 BKN024 08/06
                        Q1004 TEMPO BKN012=
200811011620 METAR COR EGLL 011620Z 04010KT 010V070 5000 RA SCT015 OVC033
                        08/06 Q1004 TEMPO 04016G27KT BKN012=
200811011550 METAR COR EGLL 011550Z 03009KT 360V080 7000 RA FEW019 BKN037
                        08/06 Q1003 BECMG 03016G27KT RA BKN014=
200811011520 METAR COR EGLL 011520Z 03010KT 350V060 9000 RA SCT019 BKN041
                        08/06 Q1003 BECMG 04017G27KT BKN014=
200811011450 METAR COR EGLL 011450Z 03011KT 9999 RA SCT019 BKN041 08/06
                        Q1004 BECMG 03017G27KT BKN014=
200811011420 METAR COR EGLL 011420Z 04011G21KT 350V070 9999 -RA FEW017
                        BKN024 BKN037 08/06 Q1004 BECMG 04016G26KT
                        RA BKN014=
200811011350 METAR COR EGLL 011350Z 04011KT 9000 -RA FEW017 BKN021 08/06
                        Q1004 BECMG 04017G27KT RA BKN014=
200811011320 METAR COR EGLL 011320Z 03016KT 9000 -RA FEW016 BKN021 08/05
                        Q1003 TEMPO 03018G28KT BKN014=
200811011250 METAR COR EGLL 011250Z 03010KT 350V070 9999 -RA FEW017 BKN022
                        08/05 Q1005 BECMG 03016G26KT RA BKN014=
200811011220 METAR COR EGLL 011220Z 02009KT 350V060 9999 FEW020 BKN023
                        08/04 Q1006 BECMG 03016G27KT RA BKN014=
200811011150 METAR COR EGLL 011150Z 02010KT 9999 BKN027 08/04 Q1005 NOSIG=
200811011120 METAR COR EGLL 011120Z 02009KT 350V050 9999 SCT027 BKN039
                        07/04 Q1006 NOSIG=
200811011050 METAR COR EGLL 011050Z 02011KT 9999 SCT033 BKN040 07/04 Q1007
                        NOSIG=
200811011020 METAR COR EGLL 011020Z 02008KT 330V050 9999 BKN033 07/04
                        Q1007 NOSIG=
200811010950 METAR COR EGLL 010950Z 03009KT 360V070 9999 BKN041 07/03
                        Q1007 NOSIG=
200811010920 METAR COR EGLL 010920Z 02009KT 9999 FEW026 SCT032 BKN043
                        06/03 Q1006 NOSIG=
200811010850 METAR COR EGLL 010850Z 02008KT 9999 FEW036 BKN041 06/03 Q1007
                        NOSIG=
200811010820 METAR COR EGLL 010820Z 02009KT 360V070 9999 FEW049 05/03
                        Q1007 NOSIG=
200811010750 METAR COR EGLL 010750Z 02008KT 340V050 9999 FEW040 05/03
                        Q1007 NOSIG=
200811010720 METAR COR EGLL 010720Z 02007KT 340V050 CAVOK 04/02 Q1008
                        NOSIG=
200811010650 METAR COR EGLL 010650Z 02006KT 340V050 CAVOK 04/02 Q1008
                        NOSIG=
200811010620 METAR COR EGLL 010620Z 02006KT 340V050 CAVOK 04/02 Q1008
                        NOSIG=
200811010550 METAR COR EGLL 010550Z 02007KT CAVOK 04/02 Q1008 NOSIG=
200811010520 METAR COR EGLL 010520Z 01005KT CAVOK 03/01 Q1008 NOSIG=
200811010450 METAR COR EGLL 010450Z 36007KT CAVOK 03/01 Q1008 NOSIG=
200811010420 METAR COR EGLL 010420Z 02007KT 350V050 CAVOK 03/02 Q1008
                        NOSIG=
200811010350 METAR COR EGLL 010350Z 01005KT 340V050 CAVOK 03/01 Q1009
                        NOSIG=
200811010320 METAR COR EGLL 010320Z 02004KT 340V070 CAVOK 02/01 Q1009
                        TEMPO 4000 BR=
200811010250 METAR COR EGLL 010250Z 36005KT 330V030 CAVOK 02/01 Q1009
                        TEMPO 4000 BR=
200811010220 METAR EGLL 010220Z AUTO 36005KT 9999NDV NCD 02/01 Q1009=
200811010150 METAR EGLL 010150Z AUTO 01005KT 340V050 8000NDV NCD 02/01
                        Q1009=
200811010120 METAR EGLL 010120Z AUTO 01004KT 340V050 9000NDV NCD 03/01
                        Q1009=
200811010050 METAR COR EGLL 010050Z 02005KT 340V050 9000 NSC 03/01 Q1009
                        NOSIG=
200811010020 METAR COR EGLL 010020Z 01005KT 340V040 8000 NSC 03/02 Q1009
                        NOSIG=

###################################
#  short TAF from EGLL
###################################
200811050000 TAF EGLL 050000Z NIL=
200811042101 TAF EGLL 042101Z 042207 03005KT 7000 BKN015
                      TEMPO 2203 BKN012
                      BECMG 0306 4000 BR BKN007=
200811041802 TAF EGLL 041802Z 041904 05006KT 6000 BKN015
                      TEMPO 1904 4000 BR BKN009=
200811041455 TAF EGLL 041455Z 041601 08007KT 6000 BKN016
                      TEMPO 1601 4000 BR BKN009=
200811041155 TAF EGLL 041155Z 041322 08007KT 6000 BKN014
                      TEMPO 1322 4000 BR BKN009=
200811040900 TAF EGLL 040900Z 041019 08007KT 3000 BR BKN008
                      BECMG 1114 6000 NSW BKN012
                      TEMPO 1419 4000 BR BKN008=
200811040615 TAF EGLL 040615Z 040716 08007KT 3000 BR BKN006
                      TEMPO 0710 SCT006 BKN020
                      PROB30 TEMPO 0710 1400 BKN003
                      BECMG 1013 5000 HZ
                      PROB30 1216 BKN010=
200811040600 TAF EGLL 040600Z NIL=
200811040401 TAF AMD EGLL 040401Z 040413 08006KT 3000 -DZ BR SCT005 BKN025
                      BECMG 0407 BKN007
                      PROB30 TEMPO 0410 1400 BKN003
                      BECMG 1013 5000 HZ BKN012=
200811040319 TAF EGLL 040319Z 040413 08006KT 2500 -DZ BR BKN003
                      TEMPO 0410 BKN008
                      PROB30 TEMPO 0410 1400
                      BECMG 1013 5000 HZ BKN008=
200811040300 TAF EGLL 040300Z NIL=
200811040003 TAF EGLL 040003Z 040110 07006KT 2000 -DZ BR BKN004
                      TEMPO 0110 BKN010
                      PROB40 0110 1200 BKN002=
200811032110 TAF EGLL 032110Z 032207 01010KT 3500 -DZ BR BKN008
                      BECMG 2202 06006KT
                      TEMPO 2207 BKN004
                      PROB30 0407 1400=
200811032100 TAF EGLL 032100Z NIL=
200811032007 TAF AMD EGLL 032007Z 031904 02007KT 5000 -DZ BR BKN006
                      BECMG 1922 3000 BR
                      TEMPO 1904 1400 BKN004=
200811031804 TAF EGLL 031804Z 031904 02007KT 3000 -DZ BR BKN006
                      TEMPO 1904 1400 BKN004=
200811031511 TAF EGLL 031511Z 031601 03010KT 6000 BKN007
                      BECMG 1618 3000 -DZ BR
                      TEMPO 1801 BKN004
                      PROB30 TEMPO 1801 1400=
200811031500 TAF EGLL 031500Z NIL=
200811031205 TAF EGLL 031205Z 031322 03010KT 7000 BKN010
                      TEMPO 1316 4000 -DZ BKN007
                      BECMG 1619 3000 -RADZ BR BKN007
                      TEMPO 1922 BKN004=
200811030908 TAF EGLL 030908Z 031019 03012KT 7000 BKN010
                      TEMPO 1016 4000 -DZ BKN007
                      BECMG 1619 3000 -RADZ BR BKN007=
200811030603 TAF EGLL 030603Z 030716 02012KT 6000 SCT010
                      BECMG 0709 BKN008
                      PROB30 TEMPO 0710 3500 BR BKN004
                      PROB40 TEMPO 1015 02015G25KT BKN012=
200811030315 TAF EGLL 030315Z 030413 02012KT 6000 SCT015
                      BECMG 0407 BKN008
                      PROB30 TEMPO 0610 4000 BR BKN004
                      PROB40 TEMPO 1013 02015G25KT 9999 BKN012=
200811030300 TAF EGLL 030300Z NIL=
200811030007 TAF EGLL 030007Z 030110 02008KT 6000 -RA SCT010
                      PROB40 TEMPO 0104 3500 BR BKN007
                      BECMG 0407 BKN008
                      PROB40 0910 03015G25KT 9999 BKN012=
200811022110 TAF EGLL 022110Z 022207 02007KT 6000 SCT015
                      TEMPO 2207 3500 BR -DZ BKN007=
200811022100 TAF EGLL 022100Z NIL=
200811021758 TAF EGLL 021758Z 021904 02004KT 8000 SCT015
                      PROB40 TEMPO 1904 BKN010=
200811021502 TAF EGLL 021502Z 021601 03005KT 9999 SCT020
                      BECMG 1720 8000=
200811021202 TAF EGLL 021202Z 021322 01005KT 9999 BKN010
                      BECMG 1315 SCT014
                      BECMG 1720 8000=
200811020858 TAF EGLL 020858Z 021019 04005KT 8000 BKN007
                      BECMG 1113 SCT010 BKN025
                      TEMPO 1118 9999=
200811020554 TAF EGLL 020554Z 020716 04005KT 6000 BKN014
                      TEMPO 0712 2500 BR BKN003
                      PROB30 0710 0800 FG BKN001
                      BECMG 1113 8000 BKN020=
200811020258 TAF EGLL 020258Z 020413 08005KT 8000 BKN020
                      TEMPO 0412 2500 BR BKN003
                      PROB30 0410 0800 FG BKN001=
200811012352 TAF EGLL 012352Z 020110 01010KT 8000 -RADZ BKN020
                      TEMPO 0110 2500 BR BKN003
                      BECMG 0104 08005KT
                      PROB30 0110 0800 FG BKN001=
200811012057 TAF EGLL 012057Z 012207 01010KT 8000 -RADZ BKN020
                      TEMPO 2207 2500 BR BKN003
                      BECMG 0104 08005KT
                      PROB30 0107 0800 FG BKN001=
200811011824 TAF EGLL 011824Z 011904 01010KT 8000 -RADZ BKN020
                      TEMPO 1921 3000 +RA BKN007
                      PROB30 TEMPO 1921 01015G25KT
                      TEMPO 2104 2500 BR BKN003
                      BECMG 0104 08005KT
                      PROB30 0104 0800 FG BKN001=
200811011800 TAF EGLL 011800Z NIL=
200811011531 TAF EGLL 011531Z 011601 02016G27KT 7000 RA BKN015
                      TEMPO 1620 3000 +RA BKN010
                      BECMG 2022 02012KT NSW
                      TEMPO 2001 2500 -RADZ BKN006
                      PROB40 TEMPO 2001 BKN003=
200811011500 TAF EGLL 011500Z NIL=
200811011220 TAF EGLL 011220Z 011322 03012KT 9999 BKN025
                      BECMG 1316 03017G28KT 8000 RA BKN012
                      TEMPO 1522 3000 +RA
                      PROB40 TEMPO 1522 BKN007
                      BECMG 1822 02012KT NSW=
200811011200 TAF EGLL 011200Z NIL=
200811010912 TAF EGLL 010912Z 011019 02010KT 9999 BKN025
                      BECMG 1114 03017G28KT 8000 RA
                      BECMG 1416 BKN012
                      TEMPO 1519 3500 +RA
                      PROB30 TEMPO 1519 BKN009=
200811010900 TAF EGLL 010900Z NIL=
200811010557 TAF EGLL 010557Z 010716 01006KT 9999 BKN025
                      TEMPO 0709 8000
                      BECMG 1012 02016G28KT 7000 RA=
200811010252 TAF EGLL 010252Z 010413 01006KT 9999 FEW025
                      TEMPO 0408 8000
                      PROB30 TEMPO 0408 4000 BR BKN006
                      BECMG 1013 02016G28KT 7000 RA=

###################################
#  large TAF from EGLL
###################################
200812012232 TAF EGLL 012232Z 0200/0306 32010KT 9999 BKN020
                      PROB30 TEMPO 0200/0202 6000 BKN008
                      BECMG 0202/0205 25007KT CAVOK
                      BECMG 0207/0209 BKN025
                      TEMPO 0209/0213 7000 -RA BKN011
                      PROB30 TEMPO 0209/0211 4000 -RADZ -RASN BKN007
                       BECMG 0213/0216 CAVOK
                      BECMG 0219/0222 6000
                      PROB30 0300/0306 1200 BR MIFG=
200812011700 TAF EGLL 011700Z 0118/0224 32010KT 9999 BKN020
                      BECMG 0120/0123 BKN012
                      TEMPO 0121/0203 7000 BKN007
                      BECMG 0203/0205 SCT020
                      BECMG 0205/0207 26010KT
                      TEMPO 0210/0213 7000 -RA -RASN BKN009
                      PROB30 TEMPO 0216/0224 3000 BR=
200812011104 TAF EGLL 011104Z 0112/0218 34010KT 9999 SCT020
                      BECMG 0120/0123 BKN012
                      TEMPO 0121/0203 7000 BKN007
                      BECMG 0203/0206 SCT020
                      BECMG 0205/0207 27010KT
                      TEMPO 0210/0213 7000 -RA -RASN BKN009
                      PROB30 TEMPO 0216/0218 3000 BR=
200812010508 TAF EGLL 010508Z 0106/0212 34010KT 9999 BKN020
                      TEMPO 0109/0113 BKN012
                      BECMG 0120/0123 BKN012
                      TEMPO 0123/0202 7000 BKN007
                      BECMG 0202/0205 SCT025
                      TEMPO 0210/0212 7000 -RASN BKN009=
200812010259 TAF AMD EGLL 010259Z 0103/0206 34010KT 9999 BKN020
                      TEMPO 0103/0105 8000 BKN009
                      TEMPO 0109/0113 BKN012
                      BECMG 0120/0123 BKN012
                      TEMPO 0123/0206 7000 BKN007=
200811302302 TAF EGLL 302302Z 0100/0206 34010KT 9999 -RA BKN012
                      TEMPO 0100/0105 4500 RADZ BKN007
                      BECMG 0106/0109 NSW SCT020
                      TEMPO 0109/0113 BKN012
                      BECMG 0120/0123 BKN012
                      TEMPO 0123/0206 7000 BKN007=
200811302300 TAF AMD EGLL 010259Z 0103/0206 34010KT 9999 BKN020
                      TEMPO 0103/0105 8000 BKN009
                      TEMPO 0109/0113 BKN012
                      BECMG 0120/0123 BKN012
                      TEMPO 0123/0206 7000 BKN007=
200811301902 TAF AMD EGLL 301902Z 3018/0124 02012KT 9999 SCT012 BKN025
                      BECMG 3018/3021 8000 -RA BKN012
                      TEMPO 3021/0106 3500 RADZ BKN007
                      TEMPO 0106/0124 9999 NSW SCT020
                      BECMG 0110/0113 32010KT=
200811301706 TAF EGLL 301706Z 3018/0124 02012KT 8000 -RA BKN012
                      TEMPO 3018/0106 3500 RADZ BKN007
                      TEMPO 0106/0124 9999 NSW SCT020
                      BECMG 0110/0113 32010KT=
200811301106 TAF EGLL 301106Z 3012/0118 03010KT 9999 FEW012 BKN025
                      TEMPO 3012/3014 8000 -RADZ BKN008
                      BECMG 3020/3023 8000 -RADZ BKN010
                      PROB40 TEMPO 3023/0107 3500 -DZ BR BKN006
                       BECMG 0107/0110 33008KT
                      TEMPO 0110/0118 9999 SCT015=
200811300514 TAF EGLL 300514Z 3006/0112 01010KT 9000 SCT008
                      PROB40 TEMPO 3006/3009 4000 BR -RADZ BKN006
                       TEMPO 3017/0107 4500 RA BKN012=
200811300500 TAF EGLL 300500Z NIL=
200811292302 TAF EGLL 292302Z 3000/0106 01008KT 6000 BKN020
                      TEMPO 3000/3009 4000 BR -RADZ BKN006
                      TEMPO 3009/0106 9999
                      PROB40 TEMPO 3013/0106 4500 RA BKN008=
200811291659 TAF EGLL 291659Z 2918/3024 01007KT 7000 BKN008
                      TEMPO 2918/3009 3000 BR -RADZ BKN004
                      PROB40 TEMPO 2918/2921 9999
                      BECMG 3008/3011 BKN025
                      PROB30 TEMPO 3010/3018 36015G25KT 9999
                      PROB40 TEMPO 3012/3024 RA BKN010=
200811291414 TAF COR EGLL 291414Z 2912/3018 01008KT 7000 BKN008
                      TEMPO 2912/3009 4000 BR -RADZ BKN004
                      PROB40 TEMPO 2912/2921 9999 BKN015
                      BECMG 3008/3011 BKN025
                      PROB40 TEMPO 3012/3018 RA BKN012=
200811291404 TAF AMD EGLL 291404Z 2912/3018 01008KT 7000 BKN008
                      TEMPO 2912/3009 4000 BR -RADZ BKN005
                      PROB40 TEMPO 2912/2921 9999 BKN015
                      BECMG 3008/3011 BKN025
                      PROB40 TEMPO 3012/3018 RA BKN012=
200811291055 TAF EGLL 291055Z 2912/3018 01008KT 6000 BKN008
                      TEMPO 2912/3009 4000 BR -RADZ BKN005
                      PROB40 TEMPO 2912/2921 BKN015
                      BECMG 3008/3011 9999 BKN025
                      PROB40 TEMPO 3012/3018 7000 RA BKN012=
200811290509 TAF EGLL 290509Z 2906/3012 35005KT 3000 BR BKN002
                      TEMPO 2906/2913 6000 NSW SCT002
                      PROB30 TEMPO 2906/2911 0500 FG BKN001
                      BECMG 2910/2913 6000 -RA BKN012
                      TEMPO 2913/3004 4000 RADZ BKN005
                      TEMPO 3004/3012 9999 NSW FEW012 BKN025=
200811282259 TAF EGLL 282259Z 2900/3006 01005KT 0600 FG BKN000
                      TEMPO 2900/2911 4000 BR FEW001 BKN004
                      PROB30 TEMPO 2900/2911 6000 NSW SCT004
                      BECMG 2910/2913 6000 -RA BKN014
                      TEMPO 2915/3006 4000 RADZ BKN005=
200811281655 TAF EGLL 281655Z 2818/2924 03005KT 9999 SCT030
                      PROB30 TEMPO 2818/2820 8000 BKN014
                      BECMG 2820/2823 6000 BKN012
                      TEMPO 2822/2911 2000 BR -RADZ BKN006
                      PROB40 TEMPO 2911/2918 4000 BR BKN008
                      TEMPO 2918/2924 4000 -RADZ BKN008=
200811281101 TAF EGLL 281101Z 2812/2918 05005KT 9999 SCT030
                      PROB40 TEMPO 2812/2820 7000 -RA BKN014
                      BECMG 2820/2823 6000 BKN012
                      TEMPO 2822/2910 2000 BR -RADZ BKN006
                      PROB40 TEMPO 2910/2918 4000 BR -RADZ BKN008=
200811280449 TAF EGLL 280449Z 2806/2912 36003KT 9999 SCT030
                      TEMPO 2806/2808 7000 RA BKN010
                      PROB40 TEMPO 2806/2810 4000 -RADZ BR BKN007
                       PROB30
                      TEMPO 2810/2817 BKN010
                      BECMG 2822/2901 6000
                      PROB30 TEMPO 2900/2910 2000 BR=
200811272251 TAF EGLL 272251Z 2800/2906 23005KT 9999 SCT012 BKN030
                      BECMG 2800/2803 7000 -RA
                      TEMPO 2800/2808 RA BKN010
                      PROB40 TEMPO 2800/2810 4000 -RADZ BR BKN007
                       PROB30
                      TEMPO 2810/2817 BKN010
                      BECMG 2814/2817 9999 NSC
                      BECMG 2822/2901 4000 BR
                      PROB30 TEMPO 2900/2906 0500 FG BKN000=
200811271708 TAF EGLL 271708Z 2718/2824 22014KT 9999 SCT015 BKN025
                      TEMPO 2718/2805 6000 RA BKN014
                      PROB30 TEMPO 2721/2804 4000 RADZ BKN008
                      BECMG 2722/2801 VRB05KT
                      BECMG 2804/2806 6000 HZ
                      PROB30 TEMPO 2805/2810 4000 BR BKN008
                      BECMG 2820/2823 4000 BR=
200811271055 TAF EGLL 271055Z 2712/2818 22015G25KT 9999 SCT030
                      TEMPO 2712/2713 5000 SHRA BKN012
                      TEMPO 2718/2818 6000 RA BKN014
                      PROB30 TEMPO 2721/2802 4000 +RA BKN008
                      BECMG 2722/2801 VRB05KT
                      PROB30 2802/2808 2500 BR BKN004=
200811270435 TAF EGLL 270435Z 2706/2812 23007KT 8000 SCT030
                      PROB30 TEMPO 2706/2708 BKN009
                      BECMG 2709/2712 23015G25KT 9999
                      BECMG 2716/2718 9000 -RA BKN014
                      TEMPO 2719/2721 4000 +RA
                      BECMG 2723/2802 VRB04KT NSW FEW010
                      PROB40 TEMPO 2802/2808 2500 BR BKN004
                      BECMG 2808/2811 09010KT -RA BKN008=
200811262230 TAF EGLL 262230Z 2700/2806 24007KT 9999 FEW012 BKN022
                      TEMPO 2700/2709 6000 BKN012
                      PROB30 TEMPO 2700/2709 3000 BR BKN007
                      BECMG 2708/2711 24015G25KT
                      BECMG 2715/2718 9000 -RA
                      TEMPO 2719/2721 4000 +RA BKN014
                      BECMG 2721/2724 VRB05KT CAVOK
                      PROB40 2802/2806 3500 BR=
200811261700 TAF EGLL 261700Z 2618/2724 27005KT 9999 BKN015
                      BECMG 2618/2621 4000 HZ BKN008
                      PROB40 2621/2705 1200 BR BKN002
                      BECMG 2706/2709 9999 NSW BKN018
                      BECMG 2712/2715 21015KT
                      TEMPO 2718/2724 6000 RA BKN014
                      BECMG 2721/2724 33005KT=
200811261104 TAF EGLL 261104Z 2612/2718 28005KT 9999 FEW010 BKN015
                      TEMPO 2612/2617 6000 -DZ BKN010
                      BECMG 2617/2620 4000 BR BKN008
                      TEMPO 2618/2705 BKN004
                      BECMG 2705/2708 8000 NSW BKN014
                      BECMG 2710/2713 20012KT 9999 BKN020=
200811260826 TAF AMD EGLL 260826Z 2606/2712 28005KT 9999 BKN010
                      TEMPO 2606/2617 3000 -DZ BKN006
                      BECMG 2617/2620 3000 -DZ BR BKN006
                      TEMPO 2618/2704 BKN004
                      BECMG 2704/2706 8000 NSW BKN014
                      BECMG 2710/2712 20010KT 9999 BKN020=
200811260458 TAF EGLL 260458Z 2606/2712 28005KT 8000 BKN010
                      TEMPO 2606/2617 3000 -DZ BKN006
                      BECMG 2617/2620 3000 -DZ BR BKN006
                      TEMPO 2618/2704 BKN004
                      BECMG 2704/2706 8000 NSW BKN014
                      BECMG 2710/2712 20010KT 9999 BKN020=
200811252300 TAF EGLL 252300Z 2600/2706 28005KT 9999 FEW025
                      BECMG 2604/2606 8000 BKN014
                      TEMPO 2606/2617 4000 -DZ BKN008
                      BECMG 2617/2620 3000 BR -DZ BKN006
                      TEMPO 2618/2704 BKN004
                      BECMG 2704/2706 8000 NSW BKN014=
200811251658 TAF EGLL 251658Z 2518/2624 34010KT 9999 FEW025
                      BECMG 2521/2524 28005KT
                      BECMG 2608/2611 8000 BKN014
                      TEMPO 2609/2617 4000 -DZ BKN008
                      BECMG 2617/2620 3000 BR -DZ BKN006
                      TEMPO 2618/2624 BKN004=
200811251104 TAF EGLL 251104Z 2512/2618 34010KT 9999 FEW025
                      PROB30 TEMPO 2512/2516 35015G25KT
                      BECMG 2521/2524 28005KT
                      BECMG 2610/2613 BKN014
                      TEMPO 2610/2618 7000 -DZ BKN008=
200811250458 TAF EGLL 250458Z 2506/2612 35010KT 9999 FEW025
                      TEMPO 2506/2514 35015G25KT
                      PROB30 TEMPO 2506/2512 8000 SHRAGS
                      BECMG 2519/2522 28005KT
                      PROB30 2610/2612 BKN014=
200811242253 TAF EGLL 242253Z 2500/2606 35010KT 9999 FEW025
                      TEMPO 2500/2514 35015G25KT
                      PROB30 TEMPO 2500/2514 8000 SHRAGS
                      BECMG 2519/2522 28005KT=
200811241652 TAF EGLL 241652Z 2418/2524 35010KT 9999 FEW025
                      TEMPO 2418/2517 35015G25KT
                      PROB40 TEMPO 2418/2517 8000 SHRAGS
                      BECMG 2519/2522 VRB05KT=
200811241100 TAF EGLL 241100Z 2412/2518 01014KT 9999 SCT025
                      TEMPO 2412/2417 03018G30KT
                      PROB30 TEMPO 2417/2501 36015G25KT 9000 SHRA
                       TEMPO 2509/2517 35016G27KT
                      PROB30 TEMPO 2509/2517 9000 SHRA=
200811240500 TAF EGLL 240500Z 2406/2512 30012KT 9999 SCT025
                      TEMPO 2406/2411 7000 -RA BKN014
                      PROB30 TEMPO 2406/2410 BKN009
                      BECMG 2408/2411 04015KT
                      TEMPO 2410/2417 04018G30KT
                      BECMG 2417/2421 34012KT=
200811232241 TAF EGLL 232241Z 2400/2506 30012KT 9999 SCT025
                      TEMPO 2403/2411 7000 -RA BKN014
                      PROB30 TEMPO 2404/2410 BKN007
                      BECMG 2408/2411 04015KT
                      TEMPO 2411/2417 04018G30KT
                      BECMG 2417/2421 34012KT=
200811231657 TAF EGLL 231657Z 2318/2424 30012KT 9999 SCT020
                      TEMPO 2402/2410 7000 -RA BKN014
                      PROB30 2404/2410 BKN007
                      BECMG 2410/2412 01013KT=
200811231445 TAF AMD EGLL 231445Z 2314/2418 20016G27KT 7000 -RA BKN008
                      BECMG 2312/2314 30015G25KT 9999 NSW SCT020
                       TEMPO 2314/2318 4000 SHRA
                      PROB30 TEMPO 2315/2324 31022G35KT
                      BECMG 2323/2402 30012KT
                      TEMPO 2403/2410 7000 -RA BKN014
                      PROB30 2404/2409 BKN008
                      BECMG 2410/2413 02012KT=
200811231104 TAF EGLL 231104Z 2312/2418 20016G27KT 7000 -RA BKN008
                      BECMG 2312/2314 30015G25KT 9999 NSW SCT020
                       PROB30
                      TEMPO 2315/2324 31022G35KT
                      BECMG 2323/2402 30012KT
                      TEMPO 2403/2410 7000 -RA BKN014
                      PROB30 2404/2409 BKN008
                      BECMG 2410/2413 02012KT=
200811230936 TAF AMD EGLL 230936Z 2309/2412 20008KT 9999 FEW035
                      BECMG 2306/2308 7000 -RASN
                      TEMPO 2307/2310 19015G25KT 4000 RASN BKN010
                       PROB40
                      TEMPO 2307/2310 1200 SN VV///
                      TEMPO 2310/2312 BKN008
                      BECMG 2310/2312 30015G25KT 9999 NSW
                      PROB30 TEMPO 2315/2324 31022G35KT
                      BECMG 2323/2402 30012KT
                      TEMPO 2403/2410 7000 -RA BKN014
                      PROB30 2404/2409 BKN008=
200811230456 TAF EGLL 230456Z 2306/2412 20008KT 9999 FEW035
                      BECMG 2306/2308 7000 -RASN
                      TEMPO 2307/2310 19015G25KT 4000 RASN BKN010
                       PROB40
                      TEMPO 2307/2310 1200 SN VV///
                      TEMPO 2310/2312 BKN008
                      BECMG 2309/2312 30015G25KT 9999 NSW
                      PROB30 TEMPO 2315/2324 31022G35KT
                      BECMG 2323/2402 30012KT
                      TEMPO 2403/2410 7000 -RA BKN014
                      PROB30 2404/2409 BKN008=
200811222254 TAF EGLL 222254Z 2300/2406 31007KT 9999 FEW035
                      BECMG 2305/2308 23010KT 7000 -RASN BKN009
                       TEMPO 2307/2310 21015G25KT 4000 RASN BR
                       BKN004
                      PROB40 TEMPO 2307/2309 1200 SN VV///
                      BECMG 2309/2312 30015G25KT 9999 NSW SCT025
                       PROB30
                      TEMPO 2312/2322 31022G35KT
                      BECMG 2323/2402 30012KT=
200811221653 TAF EGLL 221653Z 2218/2324 32012KT 9999 SCT035
                      BECMG 2223/2302 26007KT
                      BECMG 2305/2307 7000 -RASN BKN008
                      TEMPO 2307/2311 4000 RASN BR BKN004
                      PROB30 TEMPO 2307/2309 1200 SN VV///
                      BECMG 2311/2313 30015G25KT 9999 NSW SCT020=
200811221058 TAF EGLL 221058Z 2212/2318 32012KT 9999 SCT035
                      BECMG 2223/2302 26007KT
                      BECMG 2305/2307 -RASN BKN008
                      TEMPO 2307/2311 4000 RASN BR BKN004
                      PROB30 TEMPO 2308/2310 1200 SN VV///
                      BECMG 2310/2312 6000 RA
                      BECMG 2312/2314 30015G25KT 9999 NSW SCT020=
200811220519 TAF EGLL 220519Z 2206/2312 32012KT 9999 SCT035
                      BECMG 2222/2301 26007KT
                      BECMG 2304/2307 -RASN BKN008
                      TEMPO 2305/2309 4000 RASN BR BKN004
                      PROB30 TEMPO 2305/2308 1200 SN VV///
                      BECMG 2307/2309 6000 RA
                      BECMG 2309/2312 30015G25KT 9999 NSW SCT020=
200811220500 TAF EGLL 220500Z NIL=
200811212259 TAF EGLL 212259Z 2200/2306 32012KT 9999 SCT035
                      BECMG 2222/2301 26005KT
                      BECMG 2303/2306 7000 -RA BKN014
                      TEMPO 2304/2306 4500 RASN BKN008
                      PROB30 TEMPO 2304/2306 1200 SN VV///=
200811211659 TAF EGLL 211659Z 2118/2224 30012KT 9999 SCT035
                      PROB40 TEMPO 2118/2121 31017G27KT
                      PROB30 TEMPO 2118/2119 8000 SHRA=
200811211604 TAF AMD EGLL 211604Z 2112/2218 32013KT 9999 SCT030
                      PROB40 TEMPO 2112/2121 33018G28KT
                      PROB30 TEMPO 2116/2119 8000 SHRA=
200811211057 TAF EGLL 211057Z 2112/2218 32013KT 9999 SCT030
                      PROB40 TEMPO 2112/2121 33018G28KT=
200811210728 TAF COR EGLL 210728Z 2106/2212 31012KT 9999 SCT030
                      TEMPO 2106/2115 32018G28KT=
200811210431 TAF EGLL 210431Z 2106/2212 31012KT 9999 SCT030
                      TEMPO 2112/2115 32018G28KT=
200811210318 TAF AMD EGLL 210318Z 2100/2206 30012KT 9999 SCT030
                      PROB40 TEMPO 2103/2104 5000 RADZ BKN010
                      TEMPO 2107/2114 33018G28KT=
200811202300 TAF AMD EGLL 210318Z 2100/2206 30012KT 9999 SCT030
                      PROB40 TEMPO 2103/2104 5000 RADZ BKN010
                      TEMPO 2107/2114 33018G28KT=
200811202256 TAF EGLL 202256Z 2100/2206 30012KT 9999 SCT030
                      TEMPO 2107/2114 33018G28KT=
200811201700 TAF EGLL 201700Z 2018/2124 29011KT 9999 SCT030
                      TEMPO 2100/2107 7000 -RADZ BKN014
                      TEMPO 2106/2118 33018G28KT=
200811201056 TAF EGLL 201056Z 2012/2118 28012KT 9999 SCT025
                      PROB30 TEMPO 2012/2021 31015G25KT
                      TEMPO 2100/2109 7000 -DZ BKN014
                      TEMPO 2106/2118 33017G30KT=
200811200434 TAF EGLL 200434Z 2006/2112 28009KT 9999 FEW018 BKN025
                      PROB40 TEMPO 2006/2011 6000 -DZ BKN012
                      PROB30 TEMPO 2010/2107 31015G25KT
                      TEMPO 2020/2107 7000 -DZ BKN014
                      BECMG 2108/2111 34018G32KT=
200811192233 TAF EGLL 192233Z 2000/2106 29009KT 9999 FEW018 BKN025
                      PROB40 TEMPO 2000/2011 6000 -DZ BKN012
                      PROB30 TEMPO 2010/2106 31015G25KT
                      TEMPO 2020/2106 BKN014=
200811191652 TAF EGLL 191652Z 1918/2024 29008KT 9999 SCT020
                      PROB30 TEMPO 2000/2008 BKN014
                      TEMPO 2022/2024 8000 -RA BKN014=
200811191054 TAF EGLL 191054Z 1912/2018 29010KT 9999 SCT020
                      PROB40 TEMPO 1921/2008 BKN014=
200811190502 TAF EGLL 190502Z 1906/2012 29010KT 9999 SCT020
                      TEMPO 1906/1910 BKN014
                      TEMPO 1921/2008 BKN012=
200811182253 TAF EGLL 182253Z 1900/2006 30008KT 9999 FEW025
                      TEMPO 1900/1910 7000 BKN012
                      TEMPO 1921/2006 BKN012=
200811182143 TAF COR EGLL 182143Z 1821/1924 31007KT 9999 SCT025
                      TEMPO 1821/1909 8000
                      TEMPO 1902/1909 BKN010=
200811181704 TAF EGLL 181704Z 1818/1924 31007KT 9999 SCT025
                      TEMPO 1821/1909 8000
                      TEMPO 1802/1909 BKN010=
200811181058 TAF EGLL 181058Z 1812/1918 32008KT 9999 BKN012
                      BECMG 1812/1814 SCT015
                      TEMPO 1819/1909 8000
                      TEMPO 1803/1909 BKN010=
200811180628 TAF AMD EGLL 180628Z 1806/1912 29010KT 9999 BKN018
                      TEMPO 1806/1811 5000 -RADZ BKN011
                      PROB30 TEMPO 1806/1811 BKN008
                      BECMG 1815/1818 8000
                      BECMG 1823/1902 9999
                      TEMPO 1901/1909 8000 BKN012=
200811180500 TAF EGLL 180500Z 1806/1912 29010KT 9999 BKN018
                      PROB30 TEMPO 1806/1810 5000 -RADZ BKN011
                       BECMG 1815/1818 8000
                      BECMG 1823/1902 9999
                      TEMPO 1901/1909 8000 BKN012=
200811172346 TAF AMD EGLL 172346Z 1800/1906 21006KT 9999 BKN018
                      BECMG 1801/1804 29010KT
                      TEMPO 1800/1813 8000 BKN012
                      PROB30 TEMPO 1800/1810 4000 -RADZ BKN008
                       BECMG 1815/1818 8000
                      TEMPO 1901/1906 9999 BKN012=
200811172241 TAF EGLL 172241Z 1800/1906 31012KT 9999 BKN018
                      TEMPO 1800/1813 8000 BKN012
                      PROB30 TEMPO 1800/1810 4000 -RADZ BKN008
                       BECMG 1813/1816 8000
                      TEMPO 1901/1906 9999 BKN012=
200811172007 TAF COR EGLL 172007Z 1720/1824 23010KT 7000 -RA BKN018
                      TEMPO 1720/1723 4000 RA BKN008
                      BECMG 1723/1802 31012KT 9999
                      TEMPO 1723/1812 8000 BKN008
                      PROB30 TEMPO 1723/1810 4000 -RADZ=
200811171638 TAF EGLL 171638Z 1718/1824 23010KT 9999 BKN018
                      PROB30 TEMPO 1718/1720 4000 -RADZ BKN006
                       BECMG 1719/1721 7000 -RA
                      TEMPO 1720/1723 4000 RA BKN008
                      BECMG 1823/1802 31012KT 9999
                      TEMPO 1723/1812 8000 BKN008
                      PROB30 TEMPO 1723/1810 4000 -RADZ=
200811171253 TAF COR EGLL 171253Z 1712/1818 18010KT 9999 BKN020
                      TEMPO 1712/1719 4000 -RADZ BKN006
                      PROB40 TEMPO 1713/1808 BKN004
                      BECMG 1719/1721 24010KT 7000 -RA BKN010
                      TEMPO 1719/1723 3000 RADZ BKN006
                      TEMPO 1723/1809 8000 BKN008
                      BECMG 1800/1803 31012KT 9999 SCT015=
200811171052 TAF EGLL 171052Z 1712/1818 18010KT 9999 BKN020
                      TEMPO 1712/1719 4000 -RADZ BKN006
                      PROB40 TEMPO 1713/1808 BKN004
                      BECMG 1719/1721 24010KT 7000 -RA BKN010
                      TEMPO 1719/1723 3000 RADZ BKN006
                      BECMG 1800/1803 31012KT 9999 SCT015
                      TEMPO 1723/1809 8000 BKN008=
200811170900 TAF AMD EGLL 170900Z 1709/1812 VRB04KT 9999 SCT030
                      BECMG 1709/1712 20010KT
                      TEMPO 1709/1710 2000 BR
                      PROB40 TEMPO 1713/1716 4000 RA -DZ BKN008
                       BECMG 1720/1723 7000 -RA BKN011
                      BECMG 1801/1804 29012KT 9999 SCT020
                      PROB30 TEMPO 1804/1807 31015G25KT 9000 -RA
                       BKN014=
200811170515 TAF EGLL 170515Z 1706/1812 VRB04KT 8000 SCT030
                      PROB40 1706/1801 9999
                      BECMG 1709/1712 20010KT
                      PROB40 TEMPO 1713/1716 4000 RA -DZ BKN008
                       BECMG 1720/1723 7000 -RA BKN011
                      BECMG 1801/1804 29012KT 9999 SCT020
                      PROB30 TEMPO 1804/1807 31015G25KT 9000 -RA
                       BKN014=
200811170500 TAF EGLL 170500Z NIL=
200811170311 TAF AMD EGLL 170311Z 1700/1806 VRB04KT 9999 SCT030
                      BECMG 1704/1707 8000
                      PROB30 1705/1707 3000 BR
                      BECMG 1709/1712 20010KT
                      TEMPO 1712/1718 4000 RA -DZ BKN008
                      BECMG 1721/1724 6000 BKN007
                      BECMG 1801/1804 29012KT 9999 SCT020=
200811162300 TAF AMD EGLL 170311Z 1700/1806 VRB04KT 9999 SCT030
                      BECMG 1704/1707 8000
                      PROB30 1705/1707 3000 BR
                      BECMG 1709/1712 20010KT
                      TEMPO 1712/1718 4000 RA -DZ BKN008
                      BECMG 1721/1724 6000 BKN007
                      BECMG 1801/1804 29012KT 9999 SCT020=
200811162250 TAF EGLL 162250Z 1700/1806 VRB04KT 9999 SCT030
                      BECMG 1700/1703 8000
                      PROB30 1701/1707 3000 BR
                      BECMG 1709/1712 20010KT
                      TEMPO 1712/1718 4000 RA -DZ BKN008
                      BECMG 1721/1724 6000 BKN007
                      BECMG 1801/1804 29012KT 9999 SCT020=
200811161634 TAF EGLL 161634Z 1618/1724 VRB04KT 9999 BKN030
                      BECMG 1618/1620 CAVOK
                      BECMG 1622/1702 8000
                      PROB30 1701/1707 3000 BR
                      BECMG 1709/1712 19010KT -RA SCT010 BKN025
                       TEMPO 1712/1718 4000 RA -DZ BKN008
                      BECMG 1721/1724 6000 BKN007=
200811161217 TAF COR EGLL 161217Z 1612/1718 31010KT 9999 SCT012 BKN020
                      TEMPO 1612/1614 4000 -RADZ BKN007
                      BECMG 1617/1620 03005KT CAVOK
                      BECMG 1622/1702 8000
                      PROB30 1701/1707 3000 BR
                      BECMG 1709/1712 19010KT -RA BKN025
                      TEMPO 1712/1718 4000 RA -DZ BKN008=
200811161112 TAF COR EGLL 161112Z 1612/1718 31010KT 9999 SCT012 BKN020
                      TEMPO 1612/1614 6000 -RADZ BKN010
                      BECMG 1617/1620 03005KT CAVOK
                      BECMG 1622/1702 8000
                      PROB30 1701/1707 3000 BR
                      BECMG 1709/1712 19010KT -RA BKN025
                      TEMPO 1712/1718 4000 RA -DZ BKN008=
200811161059 TAF EGLL 161059Z 1612/1718 31010KT 9999 SCT012 BKN020
                      TEMPO 1612/1614 6000 -RADZ BKN010
                      BECMG 1614/1617 BKN030
                      BECMG 1617/1620 03005KT CAVOK
                      BECMG 1622/1702 8000
                      PROB30 1701/1707 3000 BR
                      BECMG 1709/1712 19010KT -RA BKN025
                      TEMPO 1712/1718 4000 RA -DZ BKN008=
200811160502 TAF EGLL 160502Z 1606/1712 25010KT 9999 BKN025
                      TEMPO 1606/1616 7000 BKN014
                      PROB40 TEMPO 1609/1616 4000 BR -RADZ BKN008
                       BECMG 1610/1613 36006KT
                      BECMG 1615/1618 SCT040
                      BECMG 1620/1623 7000
                      PROB40 1701/1709 3000 BR
                      BECMG 1709/1712 18010KT 9999=
200811160219 TAF AMD EGLL 160219Z 1600/1706 26011KT 9999 BKN025
                      TEMPO 1600/1615 7000 BKN014
                      PROB40 TEMPO 1602/1614 4000 BR -RADZ BKN007
                       BECMG 1609/1612 36006KT
                      BECMG 1613/1616 SCT040
                      BECMG 1618/1621 7000
                      PROB40 1623/1706 3000 BR=
200811152300 TAF AMD EGLL 160219Z 1600/1706 26011KT 9999 BKN025
                      TEMPO 1600/1615 7000 BKN014
                      PROB40 TEMPO 1602/1614 4000 BR -RADZ BKN007
                       BECMG 1609/1612 36006KT
                      BECMG 1613/1616 SCT040
                      BECMG 1618/1621 7000
                      PROB40 1623/1706 3000 BR=
200811152256 TAF EGLL 152256Z 1600/1706 26011KT 9999 BKN025
                      BECMG 1600/1603 BKN014
                      TEMPO 1600/1615 7000
                      PROB40 TEMPO 1602/1614 4000 BR -RADZ BKN007
                       BECMG 1609/1612 36006KT
                      BECMG 1613/1616 SCT040
                      BECMG 1618/1621 7000
                      PROB40 1623/1706 3000 BR=
200811151712 TAF EGLL 151712Z 1518/1624 27010KT 9999 BKN018
                      PROB30 TEMPO 1518/1521 BKN013
                      BECMG 1521/1524 9000 BKN013
                      TEMPO 1600/1613 4000 BR -RADZ BKN007
                      BECMG 1610/1613 36006KT
                      BECMG 1613/1615 BKN040=
200811151700 TAF EGLL 151700Z NIL=
200811151110 TAF EGLL 151110Z 1512/1618 26013KT 9999 BKN018
                      PROB30 TEMPO 1512/1521 BKN013
                      BECMG 1521/1524 BKN013
                      TEMPO 1603/1611 4000 RADZ BKN008
                      BECMG 1609/1611 36006KT
                      BECMG 1611/1613 BKN030=
200811150500 TAF EGLL 150500Z 1506/1612 26012KT 9999 BKN013
                      TEMPO 1506/1612 7000
                      PROB40 TEMPO 1506/1602 SCT018
                      PROB30 TEMPO 1506/1512 BKN008
                      TEMPO 1603/1612 4000 RADZ BKN008
                      BECMG 1606/1609 32007KT=
200811142256 TAF EGLL 142256Z 1500/1606 26010KT 9999 BKN013
                      TEMPO 1500/1606 7000
                      PROB40 TEMPO 1500/1522 SCT018
                      PROB30 TEMPO 1500/1509 4500 BR BKN008
                      TEMPO 1600/1606 4000 RADZ BKN008=
200811141945 TAF AMD EGLL 141945Z 1418/1524 26010KT 9999 SCT020
                      TEMPO 1418/1524 7000 BKN013
                      PROB30 TEMPO 1500/1509 4500 BR BKN008=
200811141719 TAF EGLL 141719Z 1418/1524 26010KT 9999 BKN018
                      TEMPO 1418/1524 7000 BKN013
                      PROB30 TEMPO 1500/1509 4500 BR BKN008=
200811141700 TAF EGLL 141700Z NIL=
200811141116 TAF EGLL 141116Z 1412/1518 25010KT 9999 SCT020
                      PROB30 TEMPO 1412/1420 8000 BKN011
                      BECMG 1420/1423 8000 BKN011
                      TEMPO 1421/1509 4500 -DZ BKN008
                      TEMPO 1509/1518 9999 BKN018=
200811141100 TAF EGLL 141100Z NIL=
200811140459 TAF EGLL 140459Z 1406/1512 23007KT 9999 BKN012
                      TEMPO 1406/1509 7000 BKN008
                      PROB40 TEMPO 1406/1512 SCT013=
200811132305 TAF EGLL 132305Z 1400/1506 25008KT 8000 SCT006 BKN013
                      TEMPO 1400/1410 3000 -DZ BR BKN006
                      PROB40 TEMPO 1409/1420 9999 SCT015
                      TEMPO 1421/1506 BKN008=
200811131724 TAF COR EGLL 131724Z 1318/1424 21010KT 9999 BKN014
                      TEMPO 1318/1321 7000 RA
                      PROB40 TEMPO 1318/1321 4000 RADZ BKN006
                      BECMG 1321/1324 27010KT 8000
                      TEMPO 1321/1410 3000 -DZ BR BKN006
                      PROB40 TEMPO 1409/1420 9999 SCT015=
200811131654 TAF EGLL 131654Z 1318/1424 21010KT 9999 BKN014
                      TEMPO 1318/1321 7000 RA
                      PROB40 TEMPO 1318/1321 BKN006
                      BECMG 1321/1324 27010KT 8000
                      TEMPO 1321/1410 3000 -DZ BR BKN006
                      PROB40 TEMPO 1409/1420 9999 SCT015=
200811131054 TAF EGLL 131054Z 1312/1418 21010KT 9999 SCT040
                      BECMG 1314/1317 BKN014
                      TEMPO 1314/1321 7000 RA
                      PROB40 TEMPO 1316/1321 BKN007
                      BECMG 1321/1324 27010KT 8000
                      TEMPO 1321/1410 4000 -DZ BR BKN006
                      PROB40 TEMPO 1409/1418 9999 SCT015=
200811130501 TAF EGLL 130501Z 1306/1412 23005KT 9999 FEW045
                      PROB30 1306/1309 8000
                      BECMG 1313/1316 8000 -RA BKN013
                      TEMPO 1316/1410 4000 -DZ BR BKN007
                      PROB30 TEMPO 1406/1412 9999 NSW SCT010=
200811130320 TAF AMD EGLL 130320Z 1300/1406 27005KT 9999 FEW045
                      PROB30 1304/1309 7000
                      BECMG 1314/1317 8000 -RA BKN013
                      TEMPO 1317/1406 4000 -DZ BR BKN007
                      PROB30 TEMPO 1322/1406 9999 NSW SCT010=
200811122300 TAF AMD EGLL 130320Z 1300/1406 27005KT 9999 FEW045
                      PROB30 1304/1309 7000
                      BECMG 1314/1317 8000 -RA BKN013
                      TEMPO 1317/1406 4000 -DZ BR BKN007
                      PROB30 TEMPO 1322/1406 9999 NSW SCT010=
200811121655 TAF EGLL 121655Z 1218/1324 28006KT 9999 SCT030
                      BECMG 1221/1224 8000
                      PROB30 1302/1308 3000 BR
                      BECMG 1309/1312 21010KT 9999
                      BECMG 1315/1318 BKN014
                      TEMPO 1315/1320 7000 RA
                      PROB40 1318/1324 BKN008
                      BECMG 1321/1324 27006KT=
200811121058 TAF EGLL 121058Z 1212/1318 28009KT 9999 SCT040
                      BECMG 1222/1301 8000
                      PROB30 1303/1308 3000 BR
                      BECMG 1309/1312 22010KT 9999
                      TEMPO 1315/1318 7000 RA BKN014=
200811120432 TAF EGLL 120432Z 1206/1312 27010KT CAVOK
                      TEMPO 1207/1219 BKN035
                      BECMG 1218/1221 VRB04KT
                      BECMG 1222/1301 8000
                      PROB30 1303/1308 3000 BR
                      BECMG 1309/1312 23010KT 9999=
200811112232 TAF EGLL 112232Z 1200/1306 25010KT CAVOK
                      TEMPO 1209/1219 BKN035
                      BECMG BECMG 1218/1221 VRB04KT
                      BECMG 1222/1301 8000
                      PROB30 1303/1306 3000 BR=
200811111647 TAF EGLL 111647Z 1118/1224 25013KT 9999 FEW040
                      BECMG 1208/1211 31010KT
                      PROB30 1222/1224 8000=
200811111033 TAF EGLL 111033Z 1112/1218 26016KT 9999 FEW035
                      TEMPO 1112/1117 27018G28KT
                      BECMG 1208/1211 32010KT=
200811110450 TAF EGLL 110450Z 1106/1212 24011KT 9999 FEW030
                      PROB30 TEMPO 1106/1108 24016G26KT 8000 SHRA
                       BECMG 1108/1111 25016KT
                      TEMPO 1108/1117 26018G28KT
                      BECMG 1117/1120 26012KT
                      BECMG 1207/1210 32010KT=
200811102244 TAF EGLL 102244Z 1100/1206 24011KT 9999 SCT030
                      PROB30 TEMPO 1103/1108 24018G28KT 8000 SHRA
                       BECMG 1108/1111 25016KT
                      TEMPO 1108/1117 26018G28KT
                      BECMG 1117/1120 26012KT=
200811101640 TAF EGLL 101640Z 1018/1124 23010KT 9999 -RA FEW012 BKN030
                      TEMPO 1018/1022 6000 RA BKN012
                      PROB30 TEMPO 1104/1110 24018G28KT 8000 SHRA
                       BECMG 1110/1113 26018G28KT
                      BECMG 1117/1120 26012KT=
200811101057 TAF EGLL 101057Z 1012/1118 21018G28KT 8000 RA BKN015
                      TEMPO 1012/1015 20025G40KT
                      TEMPO 1012/1018 3000 +RA BKN010
                      BECMG 1014/1016 24010KT
                      BECMG 1018/1021 9999 NSW
                      TEMPO 1104/1112 24018G28KT 8000 SHRA
                      BECMG 1110/1113 26018G28KT=
200811100444 TAF EGLL 100444Z 1006/1112 22012KT 9999 SCT030
                      BECMG 1008/1010 16008KT 8000 RA
                      BECMG 1010/1013 20018KT
                      TEMPO 1010/1020 3000 +RA BKN010
                      TEMPO 1010/1015 20022G33KT
                      BECMG 1014/1016 24010KT
                      BECMG 1020/1022 9999 NSW
                      TEMPO 1103/1112 24018G28KT 8000 SHRA=
200811092250 TAF EGLL 092250Z 1000/1106 22018G30KT 9999 SCT030
                      TEMPO 1000/1002 23028G44KT 4000 +SHRA +RA
                       PROB30
                      TEMPO 1000/1001 BKN014CB
                      BECMG 1001/1003 23014KT
                      PROB30 TEMPO 1008/1010 8000 SHRA
                      BECMG 1010/1012 16008KT 8000 RA
                      TEMPO 1011/1018 3000 +RA RADZ BKN010
                      BECMG 1012/1014 22017KT
                      PROB40 1012/1016 21024G36KT
                      BECMG 1015/1018 24010KT
                      BECMG 1018/1020 9999 NSW=
200811091642 TAF EGLL 091642Z 0918/1024 22018G30KT 9999 BKN025
                      PROB40 0918/0919 7000 SHRA
                      TEMPO 0919/1002 23028G44KT 4000 +SHRA +RA
                       PROB30
                      TEMPO 0921/1001 BKN014CB
                      BECMG 1001/1003 23014KT
                      BECMG 1009/1012 8000 RA
                      TEMPO 1011/1016 3000 +RA RADZ BKN010
                      BECMG 1018/1021 9999 NSW=
200811091049 TAF EGLL 091049Z 0912/1018 25015G27KT 9999 SCT035
                      PROB30 TEMPO 0912/0920 7000 SHRA
                      TEMPO 0920/1002 23025G40KT 4000 +SHRA +RA
                       PROB30
                      TEMPO 0921/1002 BKN014CB
                      TEMPO 1004/1009 23014KT
                      BECMG 1012/1015 21015G25KT 8000 RA
                      TEMPO 1014/1018 3000 +RA RADZ BKN014=
200811090456 TAF EGLL 090456Z 0906/1012 24015KT 9999 SCT020
                      TEMPO 0906/0911 24017G27KT
                      BECMG 0910/0912 24017G27KT
                      TEMPO 0911/1003 6000 SHRA RA
                      TEMPO 0922/1002 21023G33KT 3000 +RA
                      BECMG 1002/1005 21015KT
                      TEMPO 1010/1012 6000 RA=
200811082338 TAF AMD EGLL 082338Z 0900/1006 24017G27KT 9999 SCT020
                      TEMPO 0911/0921 21025G35KT
                      TEMPO 0911/1003 6000 SHRA RA
                      PROB30 TEMPO 0924/1003 3000 +RA
                      BECMG 1002/1005 21015KT=
200811082257 TAF EGLL 082257Z 0900/1006 24017G27KT 9999 SCT020
                      TEMPO 0900/0909 24017G27KT
                      TEMPO 0911/0921 21025G35KT
                      TEMPO 0911/1003 6000 SHRA RA
                      PROB30 TEMPO 0924/1003 3000 +RA
                      BECMG 1002/1005 21015KT=
200811081716 TAF EGLL 081716Z 0818/0924 19017G27KT 9999 BKN020
                      TEMPO 0818/0820 7000 BKN012
                      TEMPO 0820/0823 19023G37KT 4000 +RA BKN010
                       BECMG 0822/0901 24015KT
                      PROB30 TEMPO 0901/0909 24017G27KT
                      BECMG 0909/0912 21020KT 9999 NSW
                      TEMPO 0911/0918 21025G35KT
                      TEMPO 0911/0924 6000 SHRA RA
                      PROB40 TEMPO 0921/0924 3000 +RA=
200811081700 TAF EGLL 081700Z NIL=
200811081111 TAF EGLL 081111Z 0812/0918 18014KT 9999 SCT020
                      TEMPO 0812/0821 19015G25KT
                      TEMPO 0812/0817 7000 BKN012
                      PROB30 TEMPO 0812/0817 BKN008
                      BECMG 0819/0822 5000 RA
                      TEMPO 0819/0902 19023G35KT
                      TEMPO 0821/0824 3000 RA BKN012
                      BECMG 0900/0903 24015KT 9999 NSW
                      TEMPO 0902/0906 25017G28KT
                      BECMG 0909/0912 22022G35KT
                      PROB30 TEMPO 0911/0918 6000 SHRA=
200811081100 TAF EGLL 081100Z NIL=
200811080502 TAF EGLL 080502Z 0806/0912 18013KT 9999 SCT035
                      PROB40 TEMPO 0806/0814 16015G25KT
                      TEMPO 0808/0814 7000 RA BKN012
                      PROB30 TEMPO 0811/0814 BKN008
                      TEMPO 0820/0823 16018G28KT 7000 RA BKN014
                       PROB30
                      TEMPO 0821/0823 16025G38KT 3000 +RA
                      BECMG 0822/0901 26013KT
                      BECMG 0909/0912 21017G27KT=
200811072256 TAF EGLL 072256Z 0800/0906 18012KT 9999 SCT040
                      PROB40 TEMPO 0806/0813 16015G25KT
                      TEMPO 0808/0814 7000 RA BKN012
                      TEMPO 0821/0824 16018G28KT 5000 RA BKN014
                       PROB30
                      TEMPO 0822/0824 16025G38KT 3000 +RA
                      BECMG 0822/0901 25012KT=
200811071659 TAF EGLL 071659Z 0718/0824 18010KT 9999 SCT030
                      TEMPO 0808/0814 16015G25KT 7000 RA BKN010
                       TEMPO 0820/0824 16018G28KT 5000 RA BKN013
                       PROB30
                      TEMPO 0820/0822 3000 +RA
                      BECMG 0822/0824 24012KT=
200811071453 TAF AMD EGLL 071453Z 0715/0818 24010KT 9999 SCT030
                      PROB40 TEMPO 0715/0718 7000 SHRA
                      BECMG 0800/0803 18008KT
                      TEMPO 0809/0816 16015G25KT 7000 RA BKN010=
200811071055 TAF EGLL 071055Z 0712/0818 24010KT 9999 SCT030
                      BECMG 0800/0803 18008KT
                      TEMPO 0809/0816 16015G25KT 7000 RA BKN010=
200811070455 TAF EGLL 070455Z 0706/0812 15008KT 7000 SCT030
                      TEMPO 0706/0708 4000 RA BKN008
                      BECMG 0707/0710 24010KT 9999
                      BECMG 0800/0803 18008KT
                      PROB30 TEMPO 0809/0812 16015G25KT
                      TEMPO 0810/0812 7000 RA BKN010=
200811062255 TAF EGLL 062255Z 0700/0806 18007KT 7000 SCT030
                      TEMPO 0700/0703 4000 BR
                      PROB30 TEMPO 0700/0702 BKN012
                      TEMPO 0704/0707 4000 RA BKN010
                      BECMG 0707/0710 24010KT 9999
                      BECMG 0800/0803 18008KT=
200811061654 TAF EGLL 061654Z 0618/0724 20008KT 5000 BKN025
                      PROB40 0618/0620 9999
                      PROB30 0621/0703 4000 BR
                      TEMPO 0703/0706 4000 RA BKN008
                      BECMG 0708/0710 9999 SCT030=
200811061059 TAF EGLL 061059Z 0612/0718 20008KT 7000 BKN012
                      BECMG 0612/0615 BKN025
                      PROB40 0612/0620 9999
                      PROB30 0621/0704 4000 BR
                      TEMPO 0704/0708 4000 RA BKN008
                      BECMG 0708/0710 9999 SCT030=
200811060500 TAF EGLL 060500Z 0606/0712 32005KT 4000 BR -DZ BKN007
                      PROB40 TEMPO 0606/0610 BKN004
                      BECMG 0609/0611 7000 NSW BKN012
                      BECMG 0611/0614 BKN025
                      PROB40 0612/0618 9999
                      PROB30 0621/0704 4000 BR
                      BECMG 0700/0703 16010KT
                      TEMPO 0704/0708 4000 RA BKN008
                      BECMG 0708/0710 24010KT 9999 SCT030=
200811052254 TAF EGLL 052254Z 0600/0706 35005KT 3000 BR -DZ BKN008
                      TEMPO 0600/0602 SCT008
                      PROB40 0603/0610 BKN004
                      BECMG 0607/0610 7000 NSW BKN012
                      BECMG 0610/0613 SCT025
                      PROB40 0612/0618 9999
                      PROB30 0621/0704 4000 BR
                      BECMG 0700/0703 16010KT
                      TEMPO 0704/0706 4000 RA BKN008=
200811051657 TAF EGLL 051657Z 0518/0624 35008KT 7000 BKN012
                      PROB40 TEMPO 0518/0520 BKN016
                      TEMPO 0518/0521 4000 BR -DZ BKN008
                      BECMG 0521/0524 3000 BR -DZ BKN008
                      PROB40 0603/0610 BKN004
                      BECMG 0607/0610 7000 NSW BKN012
                      BECMG 0610/0613 24010KT SCT025
                      PROB40 0612/0618 9999
                      BECMG 0621/0624 17007KT
                      PROB30 0621/0624 4000 BR=
200811051424 TAF AMD EGLL 051424Z 0512/0618 01008KT 7000 BKN012
                      PROB40 TEMPO 0512/0518 9999 BKN016
                      TEMPO 0514/0611 4000 BR -DZ BKN008
                      PROB40 0603/0610 BKN004
                      BECMG 0610/0613 SCT025
                      PROB40 0612/0618 9999=
200811051057 TAF EGLL 051057Z 0512/0618 01008KT 7000 BKN012
                      TEMPO 0512/0515 BKN008
                      PROB40 TEMPO 0512/0518 9999 BKN016
                      TEMPO 0517/0611 4000 BR -DZ BKN008
                      PROB40 0603/0610 BKN004
                      BECMG 0610/0613 SCT025
                      PROB40 0612/0618 9999=
200811050953 TAF AMD EGLL 050953Z 0510/0612 01006KT 7000 FEW010 BKN020
                      TEMPO 0510/0514 BKN009
                      BECMG 0510/0512 9999
                      TEMPO 0517/0612 4000 BR -DZ BKN008
                      PROB40 0603/0610 BKN004=
200811050846 TAF AMD EGLL 050846Z 0506/0612 01006KT 4000 BR FEW010 BKN020
                      TEMPO 0506/0514 BKN010
                      BECMG 0509/0512 6000 NSW
                      TEMPO 0517/0612 4000 BR -DZ BKN008
                      PROB40 0603/0610 BKN004=
200811050459 TAF EGLL 050459Z 0506/0612 01006KT 5000 HZ FEW010 BKN020
                      BECMG 0506/0509 BKN008
                      TEMPO 0506/0511 4000
                      BECMG 0509/0512 6000 NSW
                      TEMPO 0512/0519 BKN015
                      TEMPO 0517/0612 4000 BR -DZ
                      PROB40 0603/0610 BKN004=
200811050436 TAF AMD EGLL 050436Z 0504/0606 02005KT 5000 HZ FEW010 BKN020
                      BECMG 0506/0509 BKN008
                      TEMPO 0506/0511 4000 BR
                      TEMPO 0512/0518 BKN015
                      TEMPO 0517/0606 4000 BR -DZ
                      PROB30 0603/0606 BKN004=
200811050041 TAF COR EGLL 050041Z 0500/0606 02005KT 7000 BKN015
                      TEMPO 0500/0503 BKN012
                      BECMG 0503/0506 4000 BR BKN007
                      BECMG 0509/0512 6000 NSW
                      TEMPO 0512/0518 BKN015
                      TEMPO 0517/0606 4000 BR -DZ
                      PROB30 0603/0606 BKN004=
200811042300 TAF AMD EGLL 050436Z 0504/0606 02005KT 5000 HZ FEW010 BKN020
                      BECMG 0506/0509 BKN008
                      TEMPO 0506/0511 4000 BR
                      TEMPO 0512/0518 BKN015
                      TEMPO 0517/0606 4000 BR -DZ
                      PROB30 0603/0606 BKN004=
200811042200 TAF EGLL 042200Z NIL=
200811041554 TAF EGLL 041554Z 050024 02008KT 4000 BR -DZ BKN012
                      PROB40 0012 BKN007
                      BECMG 0912 6000 NSW
                      PROB30 TEMPO 1218 BKN017
                      BECMG 1821 4000 BR -DZ BKN008=
200811041021 TAF EGLL 041021Z 041818 08010KT 4000 BR -DZ BKN012
                      BECMG 1821 02008KT
                      PROB40 1812 BKN004
                      BECMG 0912 6000 NSW
                      PROB30 TEMPO 1218 BKN017=
200811040444 TAF EGLL 040444Z 041212 08010KT 3500 BR -DZ BKN007
                      TEMPO 1216 6000 NSW BKN012
                      BECMG 1821 02008KT
                      PROB40 1803 BKN004
                      TEMPO 2106 6000 NSW
                      BECMG 0609 6000 NSW BKN010
                      PROB30 TEMPO 0912 BKN015=
200811032243 TAF EGLL 032243Z 040606 09010KT 3000 -DZ BR BKN007
                      TEMPO 0611 BKN004
                      PROB40 0610 1400 BR
                      BECMG 1013 6000 NSW BKN010
                      PROB40 TEMPO 1316 SCT012
                      BECMG 1619 3500 BR BKN008
                      BECMG 1922 03008KT
                      TEMPO 1924 BKN004
                      TEMPO 0006 6000 NSW=
200811031628 TAF EGLL 031628Z 040024 07006KT 3000 -DZ BR BKN006
                      TEMPO 0011 1400 BKN004
                      PROB40 0510 BKN001
                      BECMG 1114 6000 NSW BKN008
                      TEMPO 1316 SCT010
                      BECMG 1619 4000 BR
                      TEMPO 2124 BKN004=
200811031018 TAF EGLL 031018Z 031818 03010KT 3000 -RADZ BR BKN007
                      TEMPO 1911 BKN004
                      BECMG 0306 09006KT
                      PROB40 0510 1400 BR BKN001
                      BECMG 1114 6000 NSW BKN008
                      TEMPO 1316 SCT010
                      BECMG 1618 4000 BR=
200811030424 TAF EGLL 030424Z 031212 03012KT 7000 BKN008
                      PROB40 TEMPO 1215 03015G25KT 9999 BKN012
                       BECMG 1519 3000 -RADZ BR
                      TEMPO 1910 BKN004
                      BECMG 0306 09006KT
                      PROB40 0510 1400 BR BKN001
                      BECMG 1012 5000 HZ BKN008=
200811022340 TAF COR EGLL 022340Z 030606 03012KT 7000 -RA BKN008
                      TEMPO 0918 BKN012
                      PROB30 TEMPO 0915 03015G25KT 9999
                      BECMG 2124 3500 -RADZ BR
                      TEMPO 2106 BKN004
                      BECMG 0306 09006KT
                      PROB30 0306 1400 MIFG BKN001=
200811022247 TAF EGLL 022247Z 030606 03012KT 7000 -RA BKN008
                      TEMPO 0918 BKN012
                      PROB30 TEMPO 0915 03015G25KT 9999
                      BECMG 2124 3500 -RADZ BR
                      TEMPO 2106 BKN004
                      BECMG 0306 09006KT
                      PROB30 0306 1400 MIFG BKN001=
200811021544 TAF EGLL 021544Z 030024 03010KT 8000 SCT015
                      BECMG 0306 BKN008
                      TEMPO 0324 4000 -DZ BR
                      TEMPO 1116 BKN012=
200811020947 TAF EGLL 020947Z 021818 03009KT 8000 SCT018
                      BECMG 0205 BKN008
                      TEMPO 0318 4000 -DZ BR
                      TEMPO 1116 BKN012=
200811020422 TAF EGLL 020422Z 021212 04010KT 8000 BKN020
                      TEMPO 1216 BKN007
                      BECMG 0003 6000 BKN007
                      TEMPO 0312 3000 -RADZ=
200811012216 TAF EGLL 012216Z 020606 04010KT 8000 BKN020
                      TEMPO 0612 3000 BR BKN003
                      PROB30 TEMPO 0611 0900 FG BKN001
                      TEMPO 1706 -RADZ BKN014
                      PROB40 TEMPO 2006 3000 -RADZ BKN008=
200811011627 TAF EGLL 011627Z 020024 04010KT 6000 -RA BKN020
                      TEMPO 0012 3000 BR BKN003
                      PROB30 TEMPO 0311 0900 FG BKN001
                      PROB40 1417 9999
                      TEMPO 1724 -RADZ BKN014
                      PROB40 TEMPO 2024 3000 -RADZ BKN008=
200811011058 TAF EGLL 011058Z 011818 02017G28KT 7000 RA BKN012
                      BECMG 1822 02012KT NSW
                      TEMPO 1822 2500 +RA BKN007
                      PROB40 TEMPO 2203 BKN003
                      TEMPO 2209 3500 -RADZ BKN008
                      BECMG 0912 9999 BKN020
                      TEMPO 0918 08010KT
                      PROB40 TEMPO 0918 5000 -RADZ BKN014=
200811011000 TAF EGLL 011000Z NIL=
200811010425 TAF EGLL 010425Z 011212 02016G28KT 7000 RA BKN020
                      BECMG 1518 BKN012
                      TEMPO 1519 4000 +RA
                      PROB40 TEMPO 1804 BKN006
                      BECMG 0305 07008KT 9999 NSW=
200811010251 TAF AMD EGLL 010251Z 010606 02010KT 9999 SCT025
                      TEMPO 0608 8000
                      PROB30 TEMPO 0608 4000 BR BKN006
                      BECMG 1013 02016G28KT 7000 RA
                      TEMPO 1319 4500 +RA RADZ BKN014
                      PROB30 TEMPO 1803 BKN007
                      BECMG 0204 07008KT 9999 NSW=
