##########################################################
# Query made at 01/13/2020 14:39:13 UTC
# Time interval: from 11/01/2019 00:00  to 12/01/2019 23:59  UTC
##########################################################

##########################################################
# EGLL, London / Heathrow Airport (United Kingdom)
# WMO index: 03772
# Latitude 51-29N. Longitude 000-27W. Altitude 24 m.
##########################################################

###################################
#  METAR/SPECI from EGLL
###################################
201912012350 METAR COR EGLL 012350Z AUTO 29003KT 9999 NCD 01/M00 Q1029
                        NOSIG=
201912012320 METAR COR EGLL 012320Z AUTO 28003KT 9999 NCD 02/00 Q1029
                        NOSIG=
201912012250 METAR COR EGLL 012250Z AUTO VRB02KT 9999 NCD 02/01 Q1029
                        NOSIG=
201912012220 METAR COR EGLL 012220Z AUTO VRB03KT 9999 NCD 03/01 Q1029
                        NOSIG=
201912012150 METAR COR EGLL 012150Z AUTO VRB03KT 9999 NCD 03/01 Q1029
                        NOSIG=
201912012120 METAR COR EGLL 012120Z AUTO 35004KT 300V030 9999 NCD 03/02
                        Q1028 NOSIG=
201912012050 METAR COR EGLL 012050Z AUTO 36005KT 310V030 9999 NCD 03/02
                        Q1028 NOSIG=
201912012020 METAR COR EGLL 012020Z AUTO VRB03KT 9999 NCD 03/02 Q1027
                        NOSIG=
201912011950 METAR COR EGLL 011950Z AUTO 34004KT 300V050 9999 NCD 03/02
                        Q1027 NOSIG=
201912011920 METAR COR EGLL 011920Z AUTO VRB03KT 9999 NCD 04/02 Q1027
                        NOSIG=
201912011850 METAR COR EGLL 011850Z AUTO 36005KT 330V050 9999 NCD 04/02
                        Q1027 NOSIG=
201912011820 METAR COR EGLL 011820Z AUTO 36006KT 9999 NCD 04/03 Q1026
                        NOSIG=
201912011750 METAR COR EGLL 011750Z AUTO 01006KT 330V040 9999 FEW046 05/03
                        Q1026 NOSIG=
201912011720 METAR COR EGLL 011720Z AUTO 01007KT 330V040 9999 SCT017 BKN048
                        06/03 Q1026 NOSIG=
201912011650 METAR COR EGLL 011650Z AUTO 01008KT 330V040 9999 -RA FEW019
                        SCT031 BKN037 06/04 Q1026 NOSIG=
201912011620 METAR COR EGLL 011620Z AUTO 01008KT 340V050 9999 FEW021 OVC039
                        06/04 Q1025 NOSIG=
201912011550 METAR COR EGLL 011550Z AUTO 01007KT 340V040 9999 -RA FEW020
                        SCT026 BKN036 06/04 Q1025 NOSIG=
201912011520 METAR COR EGLL 011520Z AUTO 01006KT 340V050 9999 SCT038 BKN044
                        07/04 Q1024 NOSIG=
201912011450 METAR COR EGLL 011450Z AUTO 36008KT 330V030 9999 FEW025 BKN031
                        BKN037 07/04 Q1024 NOSIG=
201912011420 METAR COR EGLL 011420Z AUTO 01007KT 9999 FEW020 OVC028 07/04
                        Q1023 NOSIG=
201912011350 METAR COR EGLL 011350Z AUTO 02008KT 340V060 9999 FEW021 BKN029
                        07/04 Q1023 NOSIG=
201912011320 METAR COR EGLL 011320Z AUTO 04007KT 360V070 9999 FEW023 SCT030
                        BKN039 07/04 Q1023 NOSIG=
201912011250 METAR COR EGLL 011250Z AUTO 03008KT 9999 BKN041 06/03 Q1023
                        NOSIG=
201912011220 METAR COR EGLL 011220Z AUTO 02008KT 340V050 9999 BKN041 07/04
                        Q1023 NOSIG=
201912011150 METAR COR EGLL 011150Z AUTO 03008KT 350V050 9999 FEW041 07/04
                        Q1023 NOSIG=
201912011120 METAR COR EGLL 011120Z AUTO 02006KT 320V070 9999 FEW041 06/04
                        Q1023 NOSIG=
201912011050 METAR COR EGLL 011050Z AUTO 02006KT 340V050 9999 NCD 05/03
                        Q1023 NOSIG=
201912011020 METAR COR EGLL 011020Z AUTO 02005KT 340V060 9999 FEW042 05/03
                        Q1023 NOSIG=
201912010950 METAR COR EGLL 010950Z AUTO 02005KT 340V040 9999 FEW046 04/03
                        Q1023 NOSIG=
201912010920 METAR COR EGLL 010920Z AUTO 02005KT 350V050 9999 BKN044 05/03
                        Q1023 NOSIG=
201912010850 METAR COR EGLL 010850Z AUTO 02004KT 350V060 9999 BKN047 05/03
                        Q1022 NOSIG=
201912010820 METAR COR EGLL 010820Z AUTO 04006KT 9999 SCT046 04/03 Q1021
                        NOSIG=
201912010750 METAR COR EGLL 010750Z AUTO 03007KT 360V070 9999 NCD 04/03
                        Q1021 NOSIG=
201912010720 METAR COR EGLL 010720Z AUTO 03005KT 360V060 9999 BKN046 04/03
                        Q1021 NOSIG=
201912010650 METAR COR EGLL 010650Z AUTO VRB03KT 9999 BKN048 03/02 Q1021
                        NOSIG=
201912010620 METAR COR EGLL 010620Z AUTO 01004KT 340V040 9999 FEW047 03/02
                        Q1020 NOSIG=
201912010550 METAR COR EGLL 010550Z AUTO 01004KT 9999 NCD 02/01 Q1020
                        NOSIG=
201912010520 METAR COR EGLL 010520Z AUTO 01004KT 340V050 9999 NCD 03/03
                        Q1020 NOSIG=
201912010450 METAR COR EGLL 010450Z AUTO 01004KT 330V050 9999 NCD 02/02
                        Q1020 NOSIG=
201912010420 METAR COR EGLL 010420Z AUTO 01004KT 340V050 9999 NCD 03/02
                        Q1020 NOSIG=
201912010350 METAR COR EGLL 010350Z AUTO VRB03KT 9999 NCD 02/02 Q1020
                        NOSIG=
201912010320 METAR COR EGLL 010320Z AUTO 04004KT 350V060 9999 NCD 02/02
                        Q1020 NOSIG=
201912010250 METAR COR EGLL 010250Z AUTO 01004KT 340V050 9999 NCD 01/01
                        Q1020 NOSIG=
201912010220 METAR COR EGLL 010220Z AUTO 04003KT 9999 NCD 03/02 Q1020
                        NOSIG=
201912010150 METAR COR EGLL 010150Z AUTO 04004KT 9999 NCD 03/02 Q1020
                        NOSIG=
201912010120 METAR EGLL 010120Z AUTO 02003KT 9999 NCD 02/01 Q1020=
201912010050 METAR COR EGLL 010050Z AUTO VRB03KT 9999 FEW031 SCT040 02/02
                        Q1021 NOSIG=
201912010020 METAR COR EGLL 010020Z AUTO VRB03KT 9999 NCD 02/01 Q1021
                        NOSIG=
201911302350 METAR COR EGLL 302350Z AUTO 03004KT 9999 NCD 03/02 Q1021
                        NOSIG=
201911302320 METAR COR EGLL 302320Z AUTO 03003KT 9999 NCD 03/02 Q1021
                        NOSIG=
201911302250 METAR COR EGLL 302250Z AUTO 04005KT 9999 NCD 04/02 Q1021
                        NOSIG=
201911302220 METAR COR EGLL 302220Z AUTO 04005KT 9999 NCD 03/02 Q1021
                        NOSIG=
201911302150 METAR COR EGLL 302150Z AUTO 04005KT 9999 NCD 04/03 Q1020
                        NOSIG=
201911302120 METAR COR EGLL 302120Z AUTO 03005KT 9999 NCD 04/02 Q1020
                        NOSIG=
201911302050 METAR COR EGLL 302050Z AUTO 04004KT 9999 NCD 05/02 Q1020
                        NOSIG=
201911302020 METAR COR EGLL 302020Z AUTO 04005KT 9999 NCD 05/03 Q1020
                        NOSIG=
201911301950 METAR COR EGLL 301950Z AUTO 05004KT 9999 NCD 05/03 Q1020
                        NOSIG=
201911301920 METAR COR EGLL 301920Z AUTO 05005KT 9999 NCD 05/03 Q1021
                        NOSIG=
201911301850 METAR COR EGLL 301850Z AUTO 06006KT 9999 NCD 05/03 Q1020
                        NOSIG=
201911301820 METAR COR EGLL 301820Z AUTO 06006KT 9999 NCD 06/03 Q1021
                        NOSIG=
201911301750 METAR COR EGLL 301750Z AUTO 06005KT 9999 NCD 06/03 Q1020
                        NOSIG=
201911301720 METAR COR EGLL 301720Z AUTO 06006KT 9999 NCD 06/03 Q1020
                        NOSIG=
201911301650 METAR COR EGLL 301650Z AUTO 06006KT 9999 NCD 06/03 Q1020
                        NOSIG=
201911301620 METAR COR EGLL 301620Z AUTO 07006KT 9999 NCD 06/03 Q1020
                        NOSIG=
201911301550 METAR COR EGLL 301550Z AUTO 09005KT 9999 NCD 06/04 Q1020
                        NOSIG=
201911301520 METAR EGLL 301520Z AUTO 09006KT 9999 NCD 06/04 Q1020 NOSIG=
201911301450 METAR COR EGLL 301450Z AUTO 08004KT 9999 NCD 07/04 Q1020
                        NOSIG=
201911301420 METAR COR EGLL 301420Z AUTO 09004KT 9999 NCD 07/04 Q1021
                        NOSIG=
201911301350 METAR COR EGLL 301350Z AUTO 07005KT 040V100 9999 NCD 07/04
                        Q1021 NOSIG=
201911301320 METAR COR EGLL 301320Z AUTO 08006KT 9999 NCD 07/05 Q1021
                        NOSIG=
201911301250 METAR COR EGLL 301250Z AUTO 09008KT 9999 NCD 06/04 Q1021
                        NOSIG=
201911301220 METAR COR EGLL 301220Z AUTO 09008KT 9000 NCD 06/04 Q1021
                        NOSIG=
201911301150 METAR EGLL 301150Z AUTO 09008KT 9000 NCD 06/05 Q1021 NOSIG=
201911301120 METAR COR EGLL 301120Z AUTO 09009KT 8000 NCD 05/05 Q1022
                        NOSIG=
201911301050 METAR COR EGLL 301050Z AUTO 09007KT 7000 NCD 05/05 Q1022
                        NOSIG=
201911301020 METAR EGLL 301020Z 07005KT 8000 NSC 04/04 Q1022=
201911300950 METAR COR EGLL 300950Z 07006KT 4000 BR FEW001 03/03 Q1022
                        BECMG 6000 NSW=
201911300920 METAR COR EGLL 300920Z 07006KT 0600 R09L/0750 R09R/1300 FG
                        VV/// 02/02 Q1022 BECMG 1200 BR=
201911300850 METAR COR EGLL 300850Z AUTO 07006KT 0350 R09L/0600 R09R/P1500
                        FG VV/// 03/03 Q1022 BECMG 1200 BR=
201911300820 METAR COR EGLL 300820Z 06006KT 0300 R09L/0500 R09R/P1500
                        FG VV/// 02/02 Q1022 TEMPO 1200 BR
                        BKN002=
201911300750 METAR COR EGLL 300750Z 06005KT 0300 R09L/0500 R09R/1300 FG
                        VV/// 02/02 Q1022 TEMPO 1200 BR BKN002=
201911300720 METAR EGLL 300720Z 06004KT 0400 R09L/0700 R09R/1200 FG VV///
                        01/01 Q1022 BECMG 1500=
201911300650 METAR COR EGLL 300650Z 04004KT 0800 R09R/1000 FG BKN001 02/02
                        Q1022 BECMG 1500 BR BKN002=
201911300620 METAR COR EGLL 300620Z 07002KT 0500 R09R/P1500 FG BKN001
                        01/01 Q1022 BECMG 1200 BR BKN002=
201911300550 METAR COR EGLL 300550Z 06005KT 0800 R09R/P1500 FG BKN001
                        00/00 Q1022 BECMG 1500 BR BKN002=
201911300520 METAR COR EGLL 300520Z VRB02KT 0500 R09R/P1500 FZFG BKN001
                        M01/M01 Q1022 TEMPO 0200=
201911300450 METAR COR EGLL 300450Z 03003KT 0600 R09R/P1500 FZFG BKN001
                        M00/M00 Q1022 BECMG 0200 FZFG VV///=
201911300420 METAR COR EGLL 300420Z AUTO 05003KT 3800 BR NCD M00/M00 Q1022
                        BECMG 2000=
201911300350 METAR COR EGLL 300350Z AUTO 04004KT 4000 BR NCD M00/M00 Q1022
                        BECMG 2000=
201911300320 METAR COR EGLL 300320Z AUTO 04004KT 4100 BR NCD M00/M01 Q1022
                        BECMG 2000=
201911300250 METAR COR EGLL 300250Z 04003KT 4500 BR NSC 00/00 Q1022 NOSIG=
201911300220 METAR COR EGLL 300220Z AUTO 05002KT 4100 BR NCD 00/00 Q1022
                        NOSIG=
201911300150 METAR COR EGLL 300150Z AUTO 03004KT 6000 NCD 00/M00 Q1022
                        BECMG 3000 BR=
201911300120 METAR COR EGLL 300120Z AUTO 02002KT 4700 BR NCD 00/00 Q1022
                        BECMG 2000=
201911300050 METAR COR EGLL 300050Z AUTO 04002KT 5000 BR NCD 01/01 Q1022
                        BECMG 3000=
201911300020 METAR COR EGLL 300020Z AUTO 05001KT 2900 BR NCD 00/00 Q1023
                        BECMG 1400=
201911292350 METAR COR EGLL 292350Z 04003KT 6000 NSC 01/01 Q1022 BECMG
                        3000 BR=
201911292320 METAR COR EGLL 292320Z 06003KT 4900 BR NSC 01/01 Q1022 BECMG
                        2500=
201911292250 METAR COR EGLL 292250Z AUTO VRB01KT 5000 HZ NCD 02/01 Q1022
                        BECMG 3000 BR=
201911292220 METAR COR EGLL 292220Z AUTO 01002KT 7000 NCD 03/02 Q1022
                        NOSIG=
201911292150 METAR COR EGLL 292150Z AUTO 03001KT 6000 NCD 03/02 Q1022
                        NOSIG=
201911292120 METAR COR EGLL 292120Z AUTO 02002KT 8000 NCD 04/03 Q1022
                        NOSIG=
201911292050 METAR COR EGLL 292050Z AUTO 02001KT 9000 NCD 03/02 Q1022
                        NOSIG=
201911292020 METAR COR EGLL 292020Z AUTO VRB01KT 9000 NCD 03/02 Q1021
                        NOSIG=
201911291950 METAR COR EGLL 291950Z AUTO 04003KT 9000 NCD 04/02 Q1021
                        NOSIG=
201911291920 METAR COR EGLL 291920Z AUTO 03001KT 8000 NCD 05/03 Q1021
                        NOSIG=
201911291850 METAR COR EGLL 291850Z AUTO 01002KT 8000 NCD 04/02 Q1021
                        NOSIG=
201911291820 METAR COR EGLL 291820Z AUTO 35002KT 9000 NCD 04/03 Q1021
                        NOSIG=
201911291750 METAR COR EGLL 291750Z AUTO 34002KT 9999 NCD 05/03 Q1021
                        NOSIG=
201911291720 METAR COR EGLL 291720Z AUTO 04001KT 9999 NCD 05/03 Q1020
                        NOSIG=
201911291650 METAR COR EGLL 291650Z AUTO 00000KT 9999 NCD 06/03 Q1020
                        NOSIG=
201911291620 METAR COR EGLL 291620Z AUTO VRB02KT 9999 NCD 06/03 Q1020
                        NOSIG=
201911291550 METAR COR EGLL 291550Z AUTO VRB03KT 9999 NCD 06/03 Q1019
                        NOSIG=
201911291520 METAR COR EGLL 291520Z AUTO 36002KT 9999 NCD 07/03 Q1019
                        NOSIG=
201911291450 METAR COR EGLL 291450Z AUTO VRB02KT 9999 NCD 07/03 Q1018
                        NOSIG=
201911291420 METAR COR EGLL 291420Z AUTO VRB03KT 9999 NCD 08/03 Q1018
                        NOSIG=
201911291350 METAR COR EGLL 291350Z AUTO VRB02KT 9999 NCD 07/04 Q1018
                        NOSIG=
201911291320 METAR COR EGLL 291320Z AUTO VRB03KT 9999 FEW021 07/04 Q1018
                        NOSIG=
201911291250 METAR COR EGLL 291250Z AUTO 36004KT 310V050 9999 FEW018 08/03
                        Q1017 NOSIG=
201911291220 METAR COR EGLL 291220Z AUTO 36004KT 330V030 9999 NCD 07/04
                        Q1017 NOSIG=
201911291150 METAR COR EGLL 291150Z AUTO VRB03KT 9999 NCD 07/03 Q1017
                        NOSIG=
201911291120 METAR COR EGLL 291120Z AUTO VRB03KT 9999 NCD 06/04 Q1017
                        NOSIG=
201911291050 METAR COR EGLL 291050Z AUTO VRB03KT 9999 NCD 06/03 Q1017
                        NOSIG=
201911291020 METAR COR EGLL 291020Z AUTO 02004KT 340V070 9999 NCD 05/03
                        Q1016 NOSIG=
201911290950 METAR COR EGLL 290950Z AUTO 36005KT 330V040 9999 NCD 04/03
                        Q1016 NOSIG=
201911290920 METAR COR EGLL 290920Z AUTO 01004KT 330V050 9999 NCD 04/03
                        Q1015 NOSIG=
201911290850 METAR COR EGLL 290850Z AUTO VRB03KT 9999 NCD 03/02 Q1014
                        NOSIG=
201911290820 METAR COR EGLL 290820Z AUTO 36004KT 340V040 9999 NCD 03/02
                        Q1014 NOSIG=
201911290750 METAR COR EGLL 290750Z AUTO 36005KT 9999 NCD 02/02 Q1013
                        NOSIG=
201911290720 METAR COR EGLL 290720Z AUTO 36004KT 9999 NCD 03/02 Q1013
                        NOSIG=
201911290650 METAR COR EGLL 290650Z AUTO 35004KT 9999 NCD 03/02 Q1012
                        NOSIG=
201911290620 METAR COR EGLL 290620Z AUTO 36004KT 320V030 9999 NCD 03/02
                        Q1011 NOSIG=
201911290550 METAR COR EGLL 290550Z AUTO 01004KT 330V040 9999 NCD 04/03
                        Q1011 NOSIG=
201911290520 METAR COR EGLL 290520Z AUTO 01004KT 9999 NCD 04/03 Q1010
                        NOSIG=
201911290450 METAR COR EGLL 290450Z AUTO VRB03KT 9999 NCD 05/03 Q1010
                        NOSIG=
201911290420 METAR COR EGLL 290420Z AUTO 02005KT 340V060 9999 NCD 05/04
                        Q1009 NOSIG=
201911290350 METAR COR EGLL 290350Z AUTO 36004KT 340V040 9999 NCD 05/04
                        Q1009 NOSIG=
201911290320 METAR COR EGLL 290320Z AUTO 36005KT 9999 NCD 05/04 Q1008
                        NOSIG=
201911290250 METAR COR EGLL 290250Z AUTO 36004KT 330V030 9999 NCD 05/05
                        Q1008 NOSIG=
201911290220 METAR COR EGLL 290220Z AUTO VRB03KT 9999 NCD 06/05 Q1008
                        NOSIG=
201911290150 METAR COR EGLL 290150Z AUTO VRB03KT 9999 -RA BKN034/// BKN042///
                        //////TCU 06/05 Q1007 NOSIG=
201911290120 METAR COR EGLL 290120Z AUTO VRB02KT 9999 -RA FEW034/// SCT041///
                        //////TCU 06/05 Q1007 NOSIG=
201911290050 METAR COR EGLL 290050Z AUTO 36004KT 320V020 9999 -RA FEW025///
                        SCT034/// BKN040/// //////TCU 06/05
                        Q1006 NOSIG=
201911290020 METAR COR EGLL 290020Z AUTO VRB03KT 9999 -RA BKN033/// BKN040///
                        //////TCU 06/05 Q1006 TEMPO RA=
201911282350 METAR COR EGLL 282350Z AUTO 04005KT 340V070 9999 -RA BKN034
                        07/05 Q1006 TEMPO RA=
201911282320 METAR COR EGLL 282320Z AUTO 04004KT 350V070 9999 -RA SCT017///
                        BKN033/// OVC044/// //////TCU 07/05
                        Q1005 TEMPO RA=
201911282250 METAR COR EGLL 282250Z AUTO 05005KT 9999 -RA FEW023 BKN033
                        OVC039 07/05 Q1005 TEMPO RA=
201911282220 METAR COR EGLL 282220Z AUTO 04006KT 9999 -RA BKN032/// OVC038///
                        //////TCU 07/05 Q1004 TEMPO RA=
201911282150 METAR COR EGLL 282150Z AUTO 04007KT 010V080 9999 FEW017 SCT022
                        BKN035 07/05 Q1004 TEMPO RA=
201911282120 METAR COR EGLL 282120Z AUTO 05006KT 360V070 9999 -RA SCT018
                        BKN031 08/05 Q1003 TEMPO RA=
201911282050 METAR COR EGLL 282050Z AUTO 04006KT 010V070 9999 BKN018 BKN048
                        08/06 Q1003 NOSIG=
201911282020 METAR COR EGLL 282020Z AUTO 03007KT 350V060 9999 -RA SCT016
                        BKN030 08/07 Q1002 TEMPO BKN012=
201911281950 METAR COR EGLL 281950Z AUTO 04006KT 350V070 8000 -RA SCT010
                        BKN018 BKN027 08/06 Q1002 RERA TEMPO
                        BKN012=
201911281920 METAR COR EGLL 281920Z AUTO 04005KT 350V070 6000 -RA BKN010
                        BKN017 BKN023 09/08 Q1001 NOSIG=
201911281850 METAR COR EGLL 281850Z AUTO VRB03KT 9999 -RA SCT012/// BKN020///
                        BKN038/// //////TCU 09/08 Q1001 TEMPO
                        4000 RADZ BKN012=
201911281820 METAR COR EGLL 281820Z AUTO 31004KT 9999 SCT028 BKN033 OVC049
                        10/08 Q1000 TEMPO -RA BKN014=
201911281750 METAR COR EGLL 281750Z AUTO 29005KT 9999 SCT031 BKN046 10/08
                        Q1000 TEMPO BKN014=
201911281720 METAR COR EGLL 281720Z AUTO 30004KT 9999 BKN027 10/08 Q1000
                        TEMPO 4000 RADZ BKN014=
201911281650 METAR COR EGLL 281650Z AUTO 29006KT 9999 SCT017 BKN021 OVC029
                        10/08 Q0999 TEMPO BKN014=
201911281620 METAR COR EGLL 281620Z AUTO 28007KT 9999 BKN014 BKN026 OVC032
                        10/08 Q0999 TEMPO RADZ 4000 BKN009=
201911281550 METAR EGLL 281550Z AUTO 28007KT 9999 BKN011 OVC027 10/08
                        Q0999=
201911281520 METAR COR EGLL 281520Z AUTO 28008KT 9999 BKN012 OVC043 09/08
                        Q0998 TEMPO SCT012=
201911281450 METAR COR EGLL 281450Z AUTO 28007KT 9999 SCT012 BKN026 BKN035
                        10/08 Q0997 TEMPO BKN012=
201911281420 METAR COR EGLL 281420Z AUTO 29006KT 7000 BKN012 OVC022 10/08
                        Q0997 TEMPO RADZ=
201911281350 METAR COR EGLL 281350Z AUTO 29006KT 9999 BKN013 OVC017 10/08
                        Q0997 TEMPO RADZ=
201911281320 METAR COR EGLL 281320Z AUTO 29008KT 9999 BKN016 OVC023 10/08
                        Q0997 TEMPO BKN014=
201911281250 METAR COR EGLL 281250Z AUTO 29007KT 9999 OVC016 10/07 Q0996
                        TEMPO BKN014=
201911281220 METAR COR EGLL 281220Z AUTO 30009KT 9999 BKN017 OVC047 10/07
                        Q0996 TEMPO BKN014=
201911281150 METAR COR EGLL 281150Z AUTO 30009KT 270V330 9999 BKN016 OVC047
                        10/07 Q0996 NOSIG=
201911281120 METAR COR EGLL 281120Z AUTO 29010KT 270V330 9999 BKN017 10/07
                        Q0995 NOSIG=
201911281050 METAR COR EGLL 281050Z AUTO 29009KT 9999 SCT020 SCT024 10/07
                        Q0995 NOSIG=
201911281020 METAR COR EGLL 281020Z AUTO 28011KT 9999 SCT020 09/07 Q0995
                        NOSIG=
201911280950 METAR COR EGLL 280950Z AUTO 28011KT 9999 NCD 09/07 Q0994
                        NOSIG=
201911280920 METAR COR EGLL 280920Z AUTO 27010KT 9999 BKN018 08/07 Q0994
                        TEMPO BKN014=
201911280850 METAR COR EGLL 280850Z AUTO 27011KT 9999 BKN018 08/07 Q0993
                        TEMPO BKN014=
201911280820 METAR COR EGLL 280820Z AUTO 27011KT 9999 FEW018 08/07 Q0993
                        TEMPO -RA BKN014=
201911280750 METAR COR EGLL 280750Z AUTO 27010KT 9999 NCD 08/07 Q0993
                        NOSIG=
201911280720 METAR COR EGLL 280720Z AUTO 27010KT 9999 NCD 08/07 Q0992
                        NOSIG=
201911280650 METAR COR EGLL 280650Z AUTO 27009KT 9999 NCD 08/07 Q0991
                        TEMPO BKN014=
201911280620 METAR COR EGLL 280620Z AUTO 27010KT 9999 NCD 08/07 Q0991
                        TEMPO BKN014=
201911280550 METAR COR EGLL 280550Z AUTO 27009KT 9999 FEW016 08/07 Q0991
                        TEMPO -RA BKN014=
201911280520 METAR COR EGLL 280520Z AUTO 28010KT 9999 SCT016 08/08 Q0990
                        TEMPO BKN014=
201911280450 METAR COR EGLL 280450Z AUTO 27010KT 9999 NCD 08/08 Q0990
                        NOSIG=
201911280420 METAR COR EGLL 280420Z AUTO 27009KT 9999 NCD 08/08 Q0990
                        NOSIG=
201911280350 METAR COR EGLL 280350Z AUTO 27010KT 9999 NCD 08/08 Q0989
                        NOSIG=
201911280320 METAR COR EGLL 280320Z AUTO 27010KT 9999 NCD 09/08 Q0989
                        NOSIG=
201911280250 METAR COR EGLL 280250Z AUTO 27010KT 9000 NCD 08/08 Q0989
                        NOSIG=
201911280220 METAR COR EGLL 280220Z AUTO 26010KT 8000 FEW009 09/08 Q0989
                        TEMPO BKN009=
201911280150 METAR COR EGLL 280150Z AUTO 25010KT 7000 NCD 09/08 Q0989
                        TEMPO BKN008=
201911280120 METAR COR EGLL 280120Z AUTO 26010KT 7000 NCD 09/08 Q0989
                        NOSIG=
201911280050 METAR COR EGLL 280050Z AUTO 26010KT 7000 NCD 09/08 Q0988
                        NOSIG=
201911280020 METAR COR EGLL 280020Z AUTO 26010KT 7000 NCD 09/08 Q0988
                        NOSIG=
201911272350 METAR COR EGLL 272350Z AUTO 26008KT 8000 NCD 09/08 Q0988
                        NOSIG=
201911272320 METAR COR EGLL 272320Z AUTO 26010KT 8000 NCD 09/08 Q0988
                        NOSIG=
201911272250 METAR COR EGLL 272250Z AUTO 27012KT 8000 NCD 09/08 Q0987
                        NOSIG=
201911272220 METAR COR EGLL 272220Z AUTO 27013KT 8000 BKN035 09/09 Q0987
                        TEMPO BKN014=
201911272150 METAR COR EGLL 272150Z AUTO 26011KT 9999 BKN028 BKN036 09/09
                        Q0987 TEMPO BKN014=
201911272120 METAR COR EGLL 272120Z AUTO 27011KT 9999 SCT014 BKN021 09/09
                        Q0987 TEMPO -RADZ BKN014=
201911272050 METAR COR EGLL 272050Z AUTO 28010KT 6000 SCT010 BKN017 BKN025
                        09/09 Q0986 TEMPO 4000 -RADZ BKN008=
201911272020 METAR COR EGLL 272020Z AUTO 29008KT 7000 -RA BKN008 BKN013
                        OVC025 10/09 Q0986 TEMPO 4000 RADZ
                        SCT008 BKN013=
201911271950 METAR COR EGLL 271950Z AUTO 27011KT 6000 -RA BKN009 BKN012
                        OVC038 10/09 Q0986 RERA TEMPO 4000
                        RADZ SCT009 BKN012=
201911271920 METAR COR EGLL 271920Z AUTO 27012KT 7000 -RA BKN008/// BKN012///
                        OVC036/// //////TCU 10/09 Q0985 TEMPO
                        4000 RADZ BKN008=
201911271850 METAR COR EGLL 271850Z AUTO 27012KT 9999 -RA BKN011 BKN032
                        09/09 Q0985 RERA REDZ TEMPO 4000
                        RADZ BKN008=
201911271820 METAR COR EGLL 271820Z AUTO 27013KT 9999 -RA FEW030 BKN045
                        10/09 Q0985 TEMPO 4000 RADZ BKN008=
201911271750 METAR COR EGLL 271750Z AUTO 27013KT 9999 NCD 10/09 Q0984
                        TEMPO 4000 RADZ BKN012=
201911271720 METAR COR EGLL 271720Z AUTO 28010KT 9999 OVC046 10/09 Q0984
                        TEMPO 4000 RADZ BKN012=
201911271650 METAR COR EGLL 271650Z AUTO 29009KT 9999 BKN046 10/09 Q0983
                        TEMPO BKN012=
201911271620 METAR COR EGLL 271620Z AUTO 30006KT 9999 FEW018 BKN032 11/10
                        Q0982 TEMPO BKN008=
201911271550 METAR COR EGLL 271550Z AUTO 29005KT 9999 FEW012 BKN033 BKN040
                        11/10 Q0982 TEMPO BKN008=
201911271520 METAR COR EGLL 271520Z AUTO 30004KT 9999 FEW011 SCT032 BKN045
                        11/10 Q0981 TEMPO 4000 RADZ BKN008=
201911271450 METAR COR EGLL 271450Z AUTO 36004KT 9999 FEW009/// SCT019///
                        BKN035/// //////TCU 11/10 Q0981 TEMPO
                        4000 RADZ BKN008=
201911271420 METAR COR EGLL 271420Z AUTO 04004KT 010V070 9999 BKN009///
                        BKN030/// //////TCU 11/10 Q0981 TEMPO
                        4000 RADZ=
201911271350 METAR COR EGLL 271350Z AUTO VRB03KT 9999 SCT011/// BKN033///
                        //////TCU 11/10 Q0981 TEMPO 4000
                        RADZ BKN008=
201911271320 METAR COR EGLL 271320Z AUTO 12005KT 070V210 9999 -RA SCT008///
                        BKN015/// BKN024/// //////TCU 11/11
                        Q0981 TEMPO 4000 RADZ BKN008=
201911271250 METAR COR EGLL 271250Z AUTO 11006KT 6000 -RA SCT007/// BKN017///
                        BKN030/// //////TCU 11/10 Q0981 RERA
                        REDZ TEMPO 9999 BKN012=
201911271220 METAR COR EGLL 271220Z AUTO 12005KT 4100 RADZ FEW012/// SCT023///
                        BKN029/// //////TCU 11/10 Q0982 TEMPO
                        BKN008=
201911271150 METAR COR EGLL 271150Z AUTO 14006KT 100V180 9999 -RA FEW027///
                        BKN042/// //////TCU 11/10 Q0982 TEMPO
                        3000 RADZ BKN008=
201911271120 METAR COR EGLL 271120Z AUTO 17004KT 140V290 9999 FEW012 11/10
                        Q0982 TEMPO 4000 RADZ BKN012=
201911271050 METAR COR EGLL 271050Z AUTO 20007KT 160V240 9999 FEW009 12/10
                        Q0983 NOSIG=
201911271020 METAR COR EGLL 271020Z AUTO 19008KT 080V230 9999 SCT030 11/10
                        Q0983 NOSIG=
201911270950 METAR COR EGLL 270950Z AUTO 21008KT 180V240 9999 FEW013 SCT022
                        BKN029 11/10 Q0983 NOSIG=
201911270920 METAR COR EGLL 270920Z AUTO 21006KT 170V240 9999 FEW041 10/10
                        Q0983 NOSIG=
201911270850 METAR COR EGLL 270850Z AUTO 22007KT 200V260 9999 FEW007 BKN049
                        10/10 Q0983 NOSIG=
201911270820 METAR COR EGLL 270820Z AUTO 21005KT 9999 SCT005 BKN011 OVC047
                        10/10 Q0983 RERA REDZ TEMPO BKN005=
201911270750 METAR COR EGLL 270750Z 17004KT 6000 -RADZ SCT004 BKN008 BKN015
                        10/10 Q0982 REDZ TEMPO 2500 RADZ
                        BKN004=
201911270720 METAR COR EGLL 270720Z AUTO 10003KT 1800 -RADZ SCT008 BKN013
                        BKN018 10/09 Q0982 TEMPO 6000=
201911270650 METAR COR EGLL 270650Z AUTO 09002KT 9999 FEW019 BKN032 09/09
                        Q0982 TEMPO BKN012=
201911270620 METAR COR EGLL 270620Z AUTO 06003KT 9999 SCT015 09/09 Q0983
                        TEMPO BKN014=
201911270550 METAR COR EGLL 270550Z AUTO 08004KT 9999 SCT014 BKN034 09/09
                        Q0983 TEMPO BKN014=
201911270520 METAR COR EGLL 270520Z 08003KT 6000 -RADZ SCT011TCU BKN016
                        BKN022 10/09 Q0983 RERA REDZ TEMPO
                        4000 SHRA BKN011=
201911270450 METAR COR EGLL 270450Z AUTO 09004KT 5000 -RA FEW016/// BKN020///
                        BKN029/// //////TCU 10/10 Q0983 RERA
                        TEMPO 4000 RA BKN014=
201911270420 METAR COR EGLL 270420Z AUTO 09005KT 9999 -RA BKN034/// //////CB
                        10/10 Q0984 NOSIG=
201911270350 METAR COR EGLL 270350Z AUTO 12006KT 8000 -RA BKN036/// BKN047///
                        //////CB 10/10 Q0984 NOSIG=
201911270320 METAR COR EGLL 270320Z AUTO 13008KT 9999 -RA BKN041/// //////TCU
                        10/10 Q0984 NOSIG=
201911270250 METAR COR EGLL 270250Z AUTO 14004KT 9999 -RA SCT041 OVC047
                        10/10 Q0985 NOSIG=
201911270220 METAR COR EGLL 270220Z AUTO 13006KT 9999 -RA FEW017 SCT032
                        BKN048 11/10 Q0985 NOSIG=
201911270150 METAR COR EGLL 270150Z AUTO 14006KT 9999 -RA SCT016/// BKN039///
                        BKN049/// //////TCU 11/10 Q0986 NOSIG=
201911270120 METAR COR EGLL 270120Z AUTO 14005KT 9999 -RA FEW018/// //////TCU
                        11/10 Q0986 NOSIG=
201911270050 METAR COR EGLL 270050Z AUTO 18008KT 9999 //////CB 11/10 Q0987
                        BKN014=
201911270020 METAR COR EGLL 270020Z AUTO 18009KT 9999 -RA FEW049/// //////CB
                        12/10 Q0987 TEMPO BKN014=
201911262350 METAR COR EGLL 262350Z 17008KT 9999 FEW018CB 12/11 Q0987
                        TEMPO BKN014=
201911262320 METAR COR EGLL 262320Z AUTO 14006KT 9999 SCT015/// BKN049///
                        //////CB 12/11 Q0988 TEMPO BKN014=
201911262250 METAR COR EGLL 262250Z AUTO 15004KT 100V210 9000 SCT017 BKN049
                        11/11 Q0988 NOSIG=
201911262220 METAR COR EGLL 262220Z AUTO 16007KT 130V220 9000 BKN017///
                        //////CB 11/11 Q0989 NOSIG=
201911262150 METAR COR EGLL 262150Z AUTO 16008KT 130V230 8000 -RA //////CB
                        11/10 Q0989 NOSIG=
201911262120 METAR COR EGLL 262120Z AUTO 17008KT 130V240 9000 NCD 10/10
                        Q0990 NOSIG=
201911262050 METAR COR EGLL 262050Z AUTO 16008KT 130V210 9999 NCD 10/09
                        Q0990 NOSIG=
201911262020 METAR COR EGLL 262020Z AUTO 16006KT 120V230 9999 NCD 10/09
                        Q0991 NOSIG=
201911261950 METAR COR EGLL 261950Z AUTO 16006KT 120V240 9999 NCD 10/09
                        Q0991 NOSIG=
201911261920 METAR COR EGLL 261920Z AUTO 16007KT 090V250 9999 NCD 10/09
                        Q0991 NOSIG=
201911261850 METAR COR EGLL 261850Z AUTO 18008KT 150V230 9999 NCD 11/09
                        Q0992 NOSIG=
201911261820 METAR COR EGLL 261820Z AUTO 19009KT 160V230 9999 NCD 11/10
                        Q0992 NOSIG=
201911261750 METAR COR EGLL 261750Z AUTO 19010KT 160V240 9999 NCD 12/11
                        Q0992 NOSIG=
201911261720 METAR COR EGLL 261720Z AUTO 19009KT 160V230 9999 SCT015///
                        BKN021/// //////CB 13/11 Q0992 TEMPO
                        BKN014=
201911261650 METAR COR EGLL 261650Z AUTO 19009KT 160V240 9999 FEW019 13/11
                        Q0992 NOSIG=
201911261620 METAR COR EGLL 261620Z AUTO 19011KT 160V230 9000 -RA SCT018
                        BKN032 13/12 Q0992 TEMPO SHRA BKN012=
201911261550 METAR COR EGLL 261550Z AUTO 19010KT 150V230 9999 BKN015 BKN023
                        13/12 Q0992 TEMPO SHRA BKN012=
201911261520 METAR COR EGLL 261520Z AUTO 19011KT 160V240 9999 BKN013///
                        //////CB 13/12 Q0992 TEMPO SCT013=
201911261450 METAR COR EGLL 261450Z AUTO 19010KT 150V220 9999 BKN012 BKN020
                        13/13 Q0992 TEMPO 4000 SHRA BKN009=
201911261420 METAR COR EGLL 261420Z AUTO 18010KT 150V220 9999 -RA SCT013///
                        BKN020/// BKN028/// //////CB 13/12
                        Q0992 RERA TEMPO 4000 SHRA BKN012=
201911261350 METAR COR EGLL 261350Z AUTO 18011KT 9999 -RA SCT018/// SCT028///
                        BKN036/// //////TCU 13/12 Q0993 TEMPO
                        4000 SHRA BKN012=
201911261320 METAR COR EGLL 261320Z AUTO 18011KT 9999 -RA BKN010/// BKN019///
                        OVC044/// //////TCU 13/12 Q0993 TEMPO
                        4000 SHRA BKN009=
201911261250 METAR COR EGLL 261250Z AUTO 19011KT 9999 -RA FEW010/// BKN017///
                        BKN028/// //////TCU 13/12 Q0993 TEMPO
                        4000 SHRA BKN009=
201911261220 METAR COR EGLL 261220Z AUTO 19012KT 9999 SCT013 SCT020 BKN028
                        13/12 Q0993 TEMPO BKN013=
201911261150 METAR COR EGLL 261150Z AUTO 20012KT 9999 BKN010 BKN015 OVC044
                        13/12 Q0994 TEMPO 4000 SHRA BKN008=
201911261120 METAR COR EGLL 261120Z AUTO 19011KT 9999 SCT009 BKN013 OVC042
                        12/12 Q0994 TEMPO 4000 SHRA BKN012=
201911261050 METAR COR EGLL 261050Z AUTO 19012G22KT 8000 -RA BKN008 OVC012
                        12/12 Q0994 RERA TEMPO 4000 SHRA
                        SCT008 BKN012=
201911261020 METAR COR EGLL 261020Z AUTO 18011KT 9999 OVC007 12/11 Q0995
                        REDZ TEMPO 4000 RADZ BKN010=
201911260950 METAR COR EGLL 260950Z AUTO 15010KT 110V190 3200 DZ SCT005
                        OVC009 11/11 Q0995 TEMPO 5000 -RADZ
                        BKN005=
201911260920 METAR COR EGLL 260920Z AUTO 14011KT 3300 DZ BKN005 BKN010
                        OVC016 11/10 Q0995 RERA TEMPO 5000
                        -RADZ SCT005 BKN010=
201911260850 METAR COR EGLL 260850Z 15009KT 130V240 4000 RADZ SCT007 BKN013
                        OVC035 10/10 Q0996 RERA REDZ TEMPO
                        6000 -RADZ BKN007=
201911260820 METAR COR EGLL 260820Z AUTO 16009KT 9000 BKN011 BKN033 OVC043
                        10/10 Q0996 TEMPO -RADZ BKN009=
201911260750 METAR COR EGLL 260750Z AUTO 17009KT 140V200 7000 -RA BKN012
                        BKN023 OVC045 10/10 Q0996 TEMPO BKN009=
201911260720 METAR COR EGLL 260720Z AUTO 16008KT 120V260 9999 SCT014 BKN038
                        10/10 Q0997 TEMPO BKN014=
201911260650 METAR COR EGLL 260650Z AUTO 16006KT 120V190 9999 -RA SCT009
                        BKN013 10/10 Q0997 TEMPO SCT013=
201911260620 METAR COR EGLL 260620Z 15006KT 6000 -DZ FEW008 SCT013 BKN018
                        10/10 Q0997 TEMPO BKN013=
201911260550 METAR COR EGLL 260550Z AUTO 18006KT 7000 -RA FEW011 SCT019
                        OVC024 10/10 Q0998 REDZ NOSIG=
201911260520 METAR COR EGLL 260520Z AUTO 15006KT 9999 -RA BKN031 OVC040
                        10/10 Q0998 NOSIG=
201911260450 METAR COR EGLL 260450Z AUTO 17007KT 9999 BKN036 10/09 Q0998
                        NOSIG=
201911260420 METAR COR EGLL 260420Z AUTO 18005KT 9999 NCD 10/09 Q0999
                        NOSIG=
201911260350 METAR COR EGLL 260350Z AUTO 18005KT 9999 NCD 10/09 Q0999
                        NOSIG=
201911260320 METAR COR EGLL 260320Z AUTO 19005KT 9999 FEW015 SCT041 10/10
                        Q0999 NOSIG=
201911260250 METAR COR EGLL 260250Z AUTO 20005KT 9999 FEW012 SCT017 BKN040
                        11/10 Q1000 NOSIG=
201911260220 METAR COR EGLL 260220Z AUTO 21006KT 9999 FEW025 BKN030 OVC043
                        10/10 Q1000 NOSIG=
201911260150 METAR COR EGLL 260150Z AUTO 21006KT 5000 -DZ FEW014 SCT025
                        BKN031 11/10 Q1000 TEMPO 4000 BKN006=
201911260120 METAR COR EGLL 260120Z AUTO 20007KT 9999 -RA BKN027 BKN040
                        BKN049 11/10 Q1000 NOSIG=
201911260050 METAR COR EGLL 260050Z AUTO 20006KT 9999 FEW018 11/10 Q1000
                        NOSIG=
201911260020 METAR COR EGLL 260020Z AUTO 19006KT 9999 FEW012 SCT024 BKN028
                        11/10 Q1001 NOSIG=
201911252350 METAR COR EGLL 252350Z AUTO 21006KT 9999 SCT014 BKN021 BKN025
                        11/11 Q1001 BECMG BKN014=
201911252320 METAR EGLL 252320Z AUTO 21005KT 9999 BKN013 OVC022 11/11
                        Q1001 NOSIG=
201911252250 METAR COR EGLL 252250Z AUTO 22007KT 200V260 9999 OVC013 11/11
                        Q1001 NOSIG=
201911252220 METAR COR EGLL 252220Z AUTO 21007KT 190V250 9999 BKN014 OVC020
                        11/11 Q1001 TEMPO SCT014 BKN020=
201911252150 METAR COR EGLL 252150Z AUTO 20008KT 160V240 9999 FEW012 BKN018
                        OVC025 11/11 Q1001 NOSIG=
201911252120 METAR COR EGLL 252120Z AUTO 18006KT 120V240 9000 FEW020 BKN024
                        BKN030 11/11 Q1001 NOSIG=
201911252050 METAR COR EGLL 252050Z AUTO 18006KT 130V230 9999 FEW020 BKN029
                        11/11 Q1001 NOSIG=
201911252020 METAR COR EGLL 252020Z AUTO 17005KT 130V240 9999 BKN029 11/11
                        Q1001 NOSIG=
201911251950 METAR COR EGLL 251950Z AUTO VRB05KT 9999 FEW009 SCT025 BKN031
                        11/11 Q1001 NOSIG=
201911251920 METAR COR EGLL 251920Z AUTO 17006KT 130V230 9999 FEW005///
                        BKN032/// //////TCU 11/11 Q1001 NOSIG=
201911251850 METAR COR EGLL 251850Z AUTO 16007KT 140V230 8000 SCT004 BKN007
                        BKN026 11/11 Q1001 TEMPO 4000 -SHRA=
201911251820 METAR COR EGLL 251820Z AUTO 17006KT 130V240 9999 FEW010 BKN015
                        BKN027 11/11 Q1002 TEMPO -SHRA BKN009=
201911251750 METAR COR EGLL 251750Z AUTO 16006KT 9999 SCT022 BKN042 11/11
                        Q1002 TEMPO -SHRA BKN010=
201911251720 METAR COR EGLL 251720Z AUTO 18007KT 9999 FEW022 BKN037 BKN044
                        11/11 Q1002 TEMPO 4000 SHRA BKN006=
201911251650 METAR COR EGLL 251650Z 17006KT 9999 -RA FEW005 SCT022 BKN034
                        11/11 Q1002 TEMPO 4000 SHRA BKN005=
201911251620 METAR COR EGLL 251620Z 17006KT 9999 SCT006 BKN018 11/11 Q1001
                        TEMPO BKN006=
201911251550 METAR COR EGLL 251550Z 16008KT 9999 SCT006 OVC016 11/11 Q1001
                        TEMPO BKN008=
201911251520 METAR COR EGLL 251520Z 16008KT 4900 -RADZ SCT003 BKN007 OVC016
                        11/11 Q1001 TEMPO 6000=
201911251450 METAR COR EGLL 251450Z AUTO 15008KT 3300 DZ SCT006 BKN009
                        BKN012 11/11 Q1001 TEMPO 5000=
201911251420 METAR COR EGLL 251420Z AUTO 15009KT 5000 -DZ BKN006/// OVC013///
                        //////TCU 11/11 Q1001 TEMPO 4000
                        RADZ=
201911251350 METAR COR EGLL 251350Z AUTO 15009KT 9000 -RA SCT006 OVC010
                        11/11 Q1001 TEMPO 4000 RA BKN006=
201911251320 METAR COR EGLL 251320Z AUTO 14008KT 8000 -RA SCT007 BKN012
                        BKN017 11/11 Q1002 TEMPO 4000 RA
                        BKN007=
201911251250 METAR COR EGLL 251250Z AUTO 15009KT 3000 -DZ BKN004 OVC021
                        11/11 Q1002 REDZ TEMPO 5000 RA BKN005=
201911251220 METAR COR EGLL 251220Z AUTO 15008KT 2900 DZ BKN004 OVC028
                        11/11 Q1002 TEMPO 5000 RA BKN005=
201911251150 METAR COR EGLL 251150Z 14008KT 2400 DZ SCT004 OVC009 11/11
                        Q1002 TEMPO RA BKN004=
201911251120 METAR COR EGLL 251120Z AUTO 13008KT 4100 BR SCT004 BKN007
                        OVC011 11/11 Q1002 TEMPO 2500 RADZ
                        BKN004=
201911251050 METAR COR EGLL 251050Z AUTO 13008KT 2400 -RADZ OVC006 11/11
                        Q1002 REDZ TEMPO 5000=
201911251020 METAR COR EGLL 251020Z AUTO 13007KT 8000 BKN006 OVC013 11/11
                        Q1002 NOSIG=
201911250950 METAR COR EGLL 250950Z AUTO 13008KT 3600 -DZ SCT005 OVC009
                        11/11 Q1002 RERA REDZ TEMPO 5000
                        BR BKN005=
201911250920 METAR COR EGLL 250920Z 14007KT 2500 RADZ SCT004 OVC008 11/10
                        Q1002 TEMPO 5000 -RADZ BKN004=
201911250850 METAR COR EGLL 250850Z 13007KT 3000 -RADZ FEW003 BKN007 OVC015
                        10/10 Q1002 REDZ TEMPO BKN004=
201911250820 METAR COR EGLL 250820Z AUTO 13006KT 3100 DZ BKN003 OVC011
                        10/10 Q1002 TEMPO 5000 -DZ BKN005=
201911250750 METAR COR EGLL 250750Z AUTO 13007KT 5000 BR BKN006 OVC010
                        10/10 Q1002 TEMPO 4000 -DZ BKN004=
201911250720 METAR COR EGLL 250720Z AUTO 12008KT 9999 BKN005 OVC012 10/10
                        Q1002 TEMPO BKN010=
201911250650 METAR COR EGLL 250650Z AUTO 11008KT 4200 BR SCT004 BKN008
                        OVC012 10/10 Q1002 TEMPO BKN004=
201911250620 METAR COR EGLL 250620Z AUTO 12008KT 6000 BKN006 OVC023 10/09
                        Q1002 TEMPO BKN010=
201911250550 METAR COR EGLL 250550Z AUTO 12009KT 9999 BKN010 OVC023 10/09
                        Q1002 TEMPO BKN009=
201911250520 METAR COR EGLL 250520Z AUTO 10007KT 9999 BKN012 BKN020 10/09
                        Q1002 TEMPO BKN009=
201911250450 METAR COR EGLL 250450Z AUTO 11009KT 9999 BKN023 BKN042 09/09
                        Q1002 TEMPO BKN014=
201911250420 METAR COR EGLL 250420Z AUTO 12009KT 9999 SCT025 09/09 Q1003
                        TEMPO BKN014=
201911250350 METAR COR EGLL 250350Z AUTO 11008KT 9999 NCD 09/09 Q1003
                        NOSIG=
201911250320 METAR COR EGLL 250320Z AUTO 12007KT 9999 FEW025 09/09 Q1003
                        NOSIG=
201911250250 METAR COR EGLL 250250Z AUTO 13006KT 9999 FEW027 09/09 Q1003
                        NOSIG=
201911250220 METAR COR EGLL 250220Z AUTO 15008KT 9999 SCT012 BKN026 BKN043
                        09/09 Q1003 TEMPO BKN012=
201911250150 METAR COR EGLL 250150Z AUTO 14006KT 9999 BKN016 BKN022 OVC027
                        10/08 Q1003 TEMPO BKN012=
201911250120 METAR EGLL 250120Z AUTO 14007KT 9999 SCT021 09/08 Q1003=
201911250050 METAR EGLL 250050Z AUTO 15007KT 9999 NCD 09/08 Q1003 TEMPO
                        BKN012=
201911250020 METAR COR EGLL 250020Z AUTO 15008KT 9999 NCD 10/09 Q1003
                        TEMPO BKN012=
201911242350 METAR COR EGLL 242350Z AUTO 16008KT 140V240 9999 NCD 10/09
                        Q1004 NOSIG=
201911242320 METAR COR EGLL 242320Z AUTO 15009KT 9999 SCT017 10/09 Q1004
                        TEMPO BKN014=
201911242250 METAR COR EGLL 242250Z AUTO 14008KT 9999 FEW018 10/09 Q1004
                        TEMPO BKN014=
201911242220 METAR COR EGLL 242220Z AUTO 15008KT 9999 BKN013 BKN022 10/09
                        Q1004 TEMPO SCT013=
201911242150 METAR COR EGLL 242150Z AUTO 14009KT 9999 FEW009 10/09 Q1004
                        TEMPO BKN009=
201911242120 METAR COR EGLL 242120Z AUTO 14008KT 9999 BKN009 BKN028 BKN032
                        10/09 Q1004 TEMPO BKN010=
201911242050 METAR COR EGLL 242050Z AUTO 14009KT 9999 BKN010 11/10 Q1004
                        TEMPO SCT010=
201911242020 METAR COR EGLL 242020Z AUTO 14008KT 9999 SCT012 BKN017 11/10
                        Q1004 TEMPO BKN012=
201911241950 METAR COR EGLL 241950Z AUTO 15007KT 110V190 9999 SCT017 BKN021
                        OVC033 10/10 Q1004 BKN014=
201911241920 METAR EGLL 241920Z AUTO 15008KT 090V180 9999 BKN014 BKN023
                        OVC033 11/10 Q1004 NOSIG=
201911241850 METAR COR EGLL 241850Z AUTO 15007KT 100V210 9999 OVC009 11/10
                        Q1004 TEMPO OVC012=
201911241820 METAR COR EGLL 241820Z AUTO 14006KT 090V180 9999 BKN009 OVC020
                        11/10 Q1004 TEMPO BKN010=
201911241750 METAR COR EGLL 241750Z AUTO 15006KT 090V190 9999 BKN008 BKN011
                        OVC015 11/10 Q1004 TEMPO SCT008 BKN011=
201911241720 METAR COR EGLL 241720Z AUTO 15006KT 110V190 9999 OVC009 11/10
                        Q1004 NOSIG=
201911241650 METAR COR EGLL 241650Z AUTO 17006KT 130V240 9999 BKN011 BKN021
                        BKN027 11/10 Q1004 TEMPO BKN009=
201911241620 METAR COR EGLL 241620Z AUTO 17005KT 140V240 9999 SCT027 SCT033
                        BKN041 11/10 Q1004 NOSIG=
201911241550 METAR COR EGLL 241550Z AUTO VRB06KT 9999 SCT022 SCT036 11/10
                        Q1004 NOSIG=
201911241520 METAR COR EGLL 241520Z AUTO 19005KT 160V220 9999 NCD 11/10
                        Q1004 NOSIG=
201911241450 METAR COR EGLL 241450Z AUTO 20007KT 150V250 9999 BKN020 11/10
                        Q1004 NOSIG=
201911241420 METAR COR EGLL 241420Z AUTO 22006KT 9999 BKN019 OVC025 11/10
                        Q1004 NOSIG=
201911241350 METAR COR EGLL 241350Z AUTO 21007KT 160V250 9999 BKN020 OVC024
                        11/10 Q1004 NOSIG=
201911241320 METAR COR EGLL 241320Z AUTO 23008KT 170V260 9999 BKN009 BKN013
                        OVC021 11/10 Q1004 BECMG FEW009 BKN013=
201911241250 METAR COR EGLL 241250Z AUTO 22008KT 190V260 7000 BKN005 BKN008
                        11/10 Q1004 BECMG SCT008 BKN015=
201911241220 METAR COR EGLL 241220Z 22008KT 160V270 5000 BR BKN004 OVC025
                        11/11 Q1004 BECMG SCT015=
201911241150 METAR COR EGLL 241150Z 21006KT 160V260 3200 BR SCT003 BKN004
                        10/10 Q1004 TEMPO 5000 FEW003 BKN005=
201911241120 METAR COR EGLL 241120Z AUTO 22007KT 160V260 1500 BR BKN001
                        OVC006 09/09 Q1004 TEMPO 3000 FEW001
                        BKN006=
201911241050 METAR COR EGLL 241050Z 21005KT 170V250 1200 R27L/1400 R27R/P1500
                        BR BKN001 OVC004 09/09 Q1004 TEMPO
                        3000 FEW001 BKN004=
201911241020 METAR COR EGLL 241020Z 24007KT 1600 BR BKN002 OVC003 09/09
                        Q1004 TEMPO 3000 FEW002 OVC004=
201911240950 METAR COR EGLL 240950Z 21006KT 140V320 1400 R27L/P1500 R27R/P1500
                        BR SCT001 BKN002 09/09 Q1004 TEMPO
                        1800 BKN003=
201911240920 METAR COR EGLL 240920Z 14004KT 090V200 1000 0600S R27L/0800
                        R27R/P1500 PRFG OVC001 09/09 Q1004
                        TEMPO 1400 SCT001 OVC004=
201911240850 METAR COR EGLL 240850Z VRB03KT 1600 BR FEW002 OVC004 09/08
                        Q1003 TEMPO 1400 BKN002=
201911240820 METAR COR EGLL 240820Z VRB03KT 1500 BR FEW002 OVC003 08/08
                        Q1003 TEMPO 3000 SCT002 BKN005=
201911240750 METAR COR EGLL 240750Z VRB03KT 1600 BR BKN003 OVC005 08/08
                        Q1003 TEMPO 3000 SCT003 BKN005=
201911240720 METAR COR EGLL 240720Z AUTO VRB02KT 1800 -DZ OVC004 09/08
                        Q1003 TEMPO 4000 OVC006=
201911240650 METAR COR EGLL 240650Z AUTO VRB01KT 3400 BR BKN003 09/08
                        Q1002 TEMPO 2500=
201911240620 METAR COR EGLL 240620Z AUTO VRB01KT 2300 DZ OVC004 09/08
                        Q1002 TEMPO OVC005=
201911240550 METAR COR EGLL 240550Z AUTO 07002KT 1900 BR BKN006 OVC010
                        08/08 Q1002 RERA REDZ TEMPO 3000=
201911240520 METAR COR EGLL 240520Z AUTO VRB02KT 2600 DZ OVC007 08/08
                        Q1002 RERA TEMPO 3000 -RADZ=
201911240450 METAR COR EGLL 240450Z AUTO VRB01KT 2600 RADZ OVC007 08/08
                        Q1001 TEMPO 3000 -RADZ=
201911240420 METAR COR EGLL 240420Z AUTO VRB03KT 3300 -DZ FEW007 OVC010
                        08/08 Q1001 TEMPO BKN007=
201911240350 METAR COR EGLL 240350Z AUTO VRB01KT 5000 BR OVC013 08/08
                        Q1001 TEMPO 4000 BR=
201911240320 METAR COR EGLL 240320Z AUTO 04002KT 4900 BR BKN013 OVC018
                        08/08 Q1000 NOSIG=
201911240250 METAR COR EGLL 240250Z AUTO 08002KT 4500 BR OVC013 08/08
                        Q1000 TEMPO 5000=
201911240220 METAR COR EGLL 240220Z AUTO VRB02KT 4900 BR OVC015 08/08
                        Q1000 TEMPO 5000=
201911240150 METAR COR EGLL 240150Z AUTO 07003KT 4100 BR OVC016 08/08
                        Q1000 NOSIG=
201911240120 METAR COR EGLL 240120Z AUTO 06003KT 4500 BR OVC018 08/07
                        Q1000 NOSIG=
201911240050 METAR COR EGLL 240050Z 04002KT 3000 BR FEW009 BKN017 06/06
                        Q1000 NOSIG=
201911240020 METAR COR EGLL 240020Z VRB02KT 3000 BR SCT019 06/06 Q1000
                        TEMPO 5000=
201911232350 METAR COR EGLL 232350Z 02003KT 5000 BR NSC 07/06 Q0999 TEMPO
                        4000 BR=
201911232320 METAR COR EGLL 232320Z AUTO 03002KT 4000 HZ FEW012 07/06
                        Q0999 TEMPO BKN012=
201911232250 METAR COR EGLL 232250Z AUTO 02001KT 7000 BKN011 09/08 Q0999
                        TEMPO 4000 BR=
201911232220 METAR COR EGLL 232220Z AUTO VRB02KT 5000 HZ SCT013 09/08
                        Q0999 TEMPO BKN013=
201911232150 METAR COR EGLL 232150Z AUTO 03004KT 010V070 8000 NCD 09/08
                        Q0998 NOSIG=
201911232120 METAR COR EGLL 232120Z AUTO 08003KT 9000 NCD 10/08 Q0998
                        NOSIG=
201911232050 METAR COR EGLL 232050Z AUTO 04004KT 020V080 9000 NCD 09/08
                        Q0998 NOSIG=
201911232020 METAR COR EGLL 232020Z AUTO VRB02KT 9000 -RA SCT038 10/09
                        Q0998 NOSIG=
201911231950 METAR COR EGLL 231950Z AUTO 07005KT 9999 -RA OVC036 10/09
                        Q0998 NOSIG=
201911231920 METAR COR EGLL 231920Z AUTO 08005KT 9999 -RA BKN034 10/09
                        Q0997 NOSIG=
201911231850 METAR COR EGLL 231850Z AUTO 09006KT 8000 -RA BKN029 10/09
                        Q0997 NOSIG=
201911231820 METAR COR EGLL 231820Z AUTO 08007KT 8000 -RA FEW018 SCT029
                        10/09 Q0996 NOSIG=
201911231750 METAR COR EGLL 231750Z AUTO 07008KT 9999 -RA FEW028 SCT044
                        11/10 Q0996 NOSIG=
201911231720 METAR COR EGLL 231720Z AUTO 08009KT 7000 -RA FEW013 SCT028
                        11/10 Q0995 TEMPO 4000 -RADZ BKN013=
201911231650 METAR COR EGLL 231650Z AUTO 07010KT 9000 -RA SCT011 BKN017
                        11/10 Q0995 TEMPO BKN012=
201911231620 METAR COR EGLL 231620Z AUTO 07009KT 9999 -RA SCT015 SCT026
                        BKN033 11/10 Q0994 TEMPO BKN014=
201911231550 METAR EGLL 231550Z AUTO 06008KT 9000 -RA SCT025 SCT034 BKN044
                        11/10 Q0994 NOSIG=
201911231520 METAR COR EGLL 231520Z AUTO 05007KT 9999 FEW017 SCT035 11/10
                        Q0994 TEMPO 4000 -RADZ BKN014=
201911231450 METAR COR EGLL 231450Z AUTO 06007KT 9000 SCT016 11/10 Q0994
                        TEMPO 4000 -RADZ BKN014=
201911231420 METAR COR EGLL 231420Z AUTO 05006KT 360V090 9000 BKN014 11/10
                        Q0994 TEMPO 4000 -RADZ BKN009=
201911231350 METAR COR EGLL 231350Z AUTO 06005KT 9000 BKN011 11/10 Q0993
                        TEMPO BKN009=
201911231320 METAR COR EGLL 231320Z AUTO 08007KT 8000 OVC009 10/10 Q0994
                        TEMPO BKN012=
201911231250 METAR COR EGLL 231250Z AUTO 07005KT 8000 SCT007 BKN010 OVC017
                        10/09 Q0994 TEMPO 4000 -RADZ BKN007=
201911231220 METAR COR EGLL 231220Z AUTO 07006KT 6000 BKN005 BKN010 OVC018
                        10/09 Q0993 TEMPO 4000 -RADZ=
201911231150 METAR COR EGLL 231150Z AUTO 08006KT 4000 -RADZ BKN007 OVC012
                        10/09 Q0993 TEMPO 6000 SCT007 BKN012=
201911231120 METAR COR EGLL 231120Z AUTO 09007KT 4900 -RADZ SCT007 SCT010
                        BKN018 10/09 Q0993 TEMPO 6000 BKN007=
201911231050 METAR COR EGLL 231050Z AUTO 07006KT 6000 SCT006 BKN011 OVC026
                        09/09 Q0993 TEMPO 4000 -RADZ BKN006=
201911231020 METAR COR EGLL 231020Z AUTO 09008KT 6000 -RA BKN006 BKN012
                        OVC025 09/09 Q0993 REDZ TEMPO SCT006
                        BKN012=
201911230950 METAR COR EGLL 230950Z AUTO 08008KT 2600 -RADZ BKN008 OVC021
                        09/09 Q0993 TEMPO 6000 BKN010=
201911230920 METAR COR EGLL 230920Z AUTO 09009KT 9000 BKN009 OVC020 09/08
                        Q0992 TEMPO 9999 BKN010=
201911230850 METAR COR EGLL 230850Z AUTO 08007KT 9000 BKN010 OVC048 09/08
                        Q0992 TEMPO BKN008=
201911230820 METAR COR EGLL 230820Z AUTO 07007KT 9000 OVC011 09/08 Q0992
                        TEMPO BKN009=
201911230750 METAR COR EGLL 230750Z AUTO 06007KT 9999 BKN012 OVC016 09/08
                        Q0991 NOSIG=
201911230720 METAR COR EGLL 230720Z AUTO 08008KT 9999 OVC013 09/08 Q0991
                        NOSIG=
201911230650 METAR COR EGLL 230650Z AUTO 08009KT 9000 OVC010 09/08 Q0991
                        TEMPO BKN008=
201911230620 METAR COR EGLL 230620Z AUTO 08007KT 7000 BKN010 OVC013 09/08
                        Q0991 TEMPO BKN008=
201911230550 METAR COR EGLL 230550Z AUTO 08008KT 9999 OVC011 09/08 Q0991
                        NOSIG=
201911230520 METAR COR EGLL 230520Z AUTO 07008KT 9999 BKN013 OVC018 09/08
                        Q0991 NOSIG=
201911230450 METAR COR EGLL 230450Z AUTO 06008KT 9999 OVC019 08/08 Q0991
                        BECMG BKN012=
201911230420 METAR COR EGLL 230420Z AUTO 07007KT 9999 -RA SCT021 BKN048
                        08/08 Q0991 BECMG BKN012=
201911230350 METAR COR EGLL 230350Z AUTO 06008KT 9999 -RA BKN049 08/07
                        Q0991 BECMG BKN012=
201911230320 METAR COR EGLL 230320Z AUTO 07007KT 9999 -RA BKN044 08/07
                        Q0991 NOSIG=
201911230250 METAR COR EGLL 230250Z AUTO 07007KT 9999 -RA BKN042 08/07
                        Q0991 NOSIG=
201911230220 METAR COR EGLL 230220Z AUTO 08008KT 9999 -RA FEW031 08/07
                        Q0991 NOSIG=
201911230150 METAR COR EGLL 230150Z AUTO 08008KT 9999 -RA NCD 09/07 Q0991
                        NOSIG=
201911230120 METAR COR EGLL 230120Z AUTO 07008KT 9999 NCD 09/06 Q0991
                        NOSIG=
201911230050 METAR COR EGLL 230050Z AUTO 08009KT 9999 NCD 08/07 Q0991
                        NOSIG=
201911230020 METAR COR EGLL 230020Z AUTO 08009KT 9999 NCD 08/07 Q0992
                        NOSIG=
201911222350 METAR COR EGLL 222350Z AUTO 08009KT 9999 NCD 08/07 Q0992
                        NOSIG=
201911222320 METAR COR EGLL 222320Z AUTO 08009KT 9999 NCD 08/06 Q0992
                        NOSIG=
201911222250 METAR COR EGLL 222250Z AUTO 09010KT 9999 NCD 08/06 Q0992
                        NOSIG=
201911222220 METAR COR EGLL 222220Z AUTO 09010KT 9999 NCD 08/06 Q0993
                        NOSIG=
201911222150 METAR COR EGLL 222150Z AUTO 08010KT 9999 NCD 08/06 Q0993
                        NOSIG=
201911222120 METAR COR EGLL 222120Z AUTO 08010KT 9999 NCD 08/06 Q0993
                        NOSIG=
201911222050 METAR COR EGLL 222050Z AUTO 08009KT 9999 NCD 08/06 Q0994
                        NOSIG=
201911222020 METAR COR EGLL 222020Z AUTO 09009KT 9999 NCD 08/06 Q0994
                        NOSIG=
201911221950 METAR COR EGLL 221950Z AUTO 09009KT 9999 NCD 08/07 Q0994
                        NOSIG=
201911221920 METAR COR EGLL 221920Z AUTO 09011KT 9999 NCD 08/07 Q0994
                        NOSIG=
201911221850 METAR COR EGLL 221850Z AUTO 09010KT 9999 NCD 08/07 Q0994
                        NOSIG=
201911221820 METAR COR EGLL 221820Z AUTO 10011KT 9999 NCD 08/07 Q0994
                        NOSIG=
201911221750 METAR COR EGLL 221750Z AUTO 10012KT 9999 NCD 08/07 Q0994
                        NOSIG=
201911221720 METAR COR EGLL 221720Z AUTO 10010KT 9999 NCD 08/07 Q0994
                        NOSIG=
201911221650 METAR COR EGLL 221650Z AUTO 10011KT 9999 NCD 08/07 Q0994
                        TEMPO BKN014=
201911221620 METAR COR EGLL 221620Z AUTO 10012KT 9999 NCD 09/07 Q0994
                        NOSIG=
201911221550 METAR EGLL 221550Z AUTO 10012KT 9999 NCD 09/07 Q0995 NOSIG=
201911221520 METAR COR EGLL 221520Z AUTO 12012KT 9999 NCD 09/08 Q0995
                        NOSIG=
201911221450 METAR COR EGLL 221450Z AUTO 12011KT 9999 FEW045 09/08 Q0995
                        NOSIG=
201911221420 METAR COR EGLL 221420Z AUTO 12011KT 9999 BKN048 09/08 Q0995
                        NOSIG=
201911221350 METAR COR EGLL 221350Z AUTO 13009KT 9999 -RA FEW028 SCT041
                        09/08 Q0995 NOSIG=
201911221320 METAR COR EGLL 221320Z AUTO 13010KT 9999 SCT017 BKN030 09/08
                        Q0995 TEMPO RA=
201911221250 METAR COR EGLL 221250Z AUTO 12009KT 9999 BKN016/// BKN021///
                        BKN030/// //////TCU 09/08 Q0995 TEMPO
                        RA=
201911221220 METAR COR EGLL 221220Z AUTO 13009KT 9999 FEW016 SCT024 BKN030
                        09/08 Q0995 TEMPO RA=
201911221150 METAR COR EGLL 221150Z AUTO 14010KT 9999 SCT018/// BKN028///
                        //////CB 10/08 Q0996 TEMPO SHRA=
201911221120 METAR COR EGLL 221120Z AUTO 13009KT 9999 -RA FEW025/// SCT032///
                        BKN038/// //////CB 09/08 Q0996 TEMPO
                        SHRA=
201911221050 METAR COR EGLL 221050Z AUTO 13009KT 9999 -RA FEW032 BKN046
                        09/07 Q0996 TEMPO SHRA=
201911221020 METAR COR EGLL 221020Z AUTO 13007KT 9999 -RA FEW024/// SCT036///
                        //////TCU 08/07 Q0996 TEMPO 7000
                        SHRA=
201911220950 METAR COR EGLL 220950Z AUTO 12007KT 9999 FEW042/// //////CB
                        08/07 Q0996 NOSIG=
201911220920 METAR COR EGLL 220920Z AUTO 12006KT 9999 FEW024 08/08 Q0996
                        NOSIG=
201911220850 METAR COR EGLL 220850Z AUTO 13006KT 9999 FEW018 SCT023 07/07
                        Q0996 NOSIG=
201911220820 METAR COR EGLL 220820Z AUTO 13007KT 9999 FEW017/// SCT038///
                        //////TCU 06/06 Q0996 NOSIG=
201911220750 METAR COR EGLL 220750Z AUTO 11005KT 9999 SCT023 SCT034 BKN048
                        06/06 Q0996 NOSIG=
201911220720 METAR COR EGLL 220720Z AUTO 11005KT 9999 SCT017 BKN035 06/06
                        Q0996 NOSIG=
201911220650 METAR COR EGLL 220650Z AUTO 09006KT 9999 SCT018/// BKN022///
                        BKN048/// //////TCU 06/06 Q0996 NOSIG=
201911220620 METAR COR EGLL 220620Z AUTO 11006KT 9999 SCT015 BKN022 BKN029
                        07/06 Q0996 NOSIG=
201911220550 METAR COR EGLL 220550Z AUTO 15008KT 9999 -RA FEW022/// BKN035///
                        //////TCU 07/07 Q0996 NOSIG=
201911220520 METAR COR EGLL 220520Z AUTO 14009KT 9999 -RA SCT022/// BKN028///
                        BKN034/// //////TCU 07/07 Q0996 NOSIG=
201911220450 METAR COR EGLL 220450Z AUTO 12009KT 7000 -RA FEW023/// SCT040///
                        BKN046/// //////TCU 07/07 Q0996 TEMPO
                        SHRA=
201911220420 METAR COR EGLL 220420Z AUTO 11006KT 9999 FEW024/// SCT048///
                        //////TCU 06/05 Q0996 TEMPO 4500
                        SHRA=
201911220350 METAR COR EGLL 220350Z AUTO 13007KT 9999 NCD 07/06 Q0996
                        TEMPO SHRA=
201911220320 METAR COR EGLL 220320Z AUTO 13006KT 9999 SCT023/// BKN040///
                        //////TCU 07/07 Q0996 TEMPO SHRA=
201911220250 METAR COR EGLL 220250Z AUTO 14007KT 9999 -RA SCT030/// BKN037///
                        //////TCU 08/07 Q0996 NOSIG=
201911220220 METAR COR EGLL 220220Z AUTO 13006KT 8000 -RA FEW017/// BKN028///
                        BKN036/// //////TCU 08/07 Q0996 TEMPO
                        4000 SHRA BKN012=
201911220150 METAR COR EGLL 220150Z 09005KT 8000 -SHRA FEW008CB SCT025
                        BKN040 07/07 Q0996 RESHRA TEMPO 4000
                        SHRA BKN012=
201911220120 METAR COR EGLL 220120Z 10007KT 3500 SHRA BKN009 BKN015CB
                        07/07 Q0996 TEMPO 6000 BKN010=
201911220050 METAR COR EGLL 220050Z 09007KT 6000 VCSH SCT012CB BKN021
                        OVC046 07/07 Q0997 TEMPO 4000 SHRA
                        BKN009=
201911220020 METAR COR EGLL 220020Z 09007KT 5000 -SHRA BKN009TCU OVC029
                        07/07 Q0997 TEMPO 4000 SHRA=
201911212350 METAR COR EGLL 212350Z 09007KT 5000 BR SCT015 BKN030 07/06
                        Q0997 TEMPO 4000 SHRA BKN008=
201911212320 METAR COR EGLL 212320Z 09008KT 8000 FEW010 SCT020 BKN035
                        06/06 Q0997 TEMPO 4000 SHRA BKN008=
201911212250 METAR COR EGLL 212250Z 09008KT 3000 -DZ BR FEW009 BKN029
                        06/06 Q0997 TEMPO BKN008=
201911212220 METAR COR EGLL 212220Z AUTO 09008KT 2700 DZ SCT010 BKN015
                        BKN019 06/06 Q0998 TEMPO -DZ BKN008=
201911212150 METAR COR EGLL 212150Z AUTO 09009KT 3300 -RADZ SCT011 BKN026
                        BKN037 06/05 Q0998 REDZ TEMPO RADZ
                        BKN008=
201911212120 METAR COR EGLL 212120Z AUTO 09009KT 3600 -DZ BKN010 BKN029
                        06/05 Q0999 TEMPO RADZ BKN008=
201911212050 METAR COR EGLL 212050Z AUTO 09010KT 4200 -RADZ BKN010 OVC015
                        05/05 Q0999 TEMPO RA BKN008=
201911212020 METAR COR EGLL 212020Z AUTO 09010KT 4500 HZ SCT008 BKN012
                        OVC023 05/04 Q0999 TEMPO RA=
201911211950 METAR COR EGLL 211950Z AUTO 09011KT 5000 HZ SCT008 BKN011
                        OVC016 05/04 Q0999 TEMPO 4000 RA
                        BKN008=
201911211920 METAR COR EGLL 211920Z AUTO 08011KT 4700 HZ BKN007 OVC013
                        05/04 Q1000 TEMPO 5000=
201911211850 METAR COR EGLL 211850Z AUTO 09011KT 4900 HZ BKN007 OVC017
                        05/04 Q1000 TEMPO 5000=
201911211820 METAR COR EGLL 211820Z AUTO 08010KT 5000 HZ BKN008 05/04
                        Q1000 NOSIG=
201911211750 METAR COR EGLL 211750Z AUTO 09009KT 5000 HZ OVC008 05/04
                        Q1000 NOSIG=
201911211720 METAR COR EGLL 211720Z AUTO 09009KT 6000 BKN008 OVC012 05/04
                        Q1000 NOSIG=
201911211650 METAR COR EGLL 211650Z AUTO 08009KT 6000 OVC008 05/04 Q1001
                        NOSIG=
201911211620 METAR COR EGLL 211620Z AUTO 09011KT 6000 OVC009 05/04 Q1001
                        NOSIG=
201911211550 METAR COR EGLL 211550Z AUTO 10008KT 7000 OVC009 05/04 Q1001
                        NOSIG=
201911211520 METAR COR EGLL 211520Z AUTO 08008KT 5000 HZ OVC008 05/04
                        Q1001 NOSIG=
201911211450 METAR COR EGLL 211450Z AUTO 09009KT 5000 HZ OVC008 05/04
                        Q1002 TEMPO 4000=
201911211420 METAR COR EGLL 211420Z AUTO 09008KT 4900 HZ OVC007 05/04
                        Q1002 TEMPO 5000=
201911211350 METAR COR EGLL 211350Z AUTO 09009KT 4700 HZ OVC007 05/04
                        Q1002 TEMPO 5000=
201911211320 METAR COR EGLL 211320Z AUTO 09010KT 5000 HZ OVC007 05/04
                        Q1002 NOSIG=
201911211250 METAR COR EGLL 211250Z AUTO 08009KT 5000 HZ OVC007 05/04
                        Q1002 NOSIG=
201911211220 METAR COR EGLL 211220Z AUTO 09009KT 5000 HZ OVC007 05/03
                        Q1003 NOSIG=
201911211150 METAR COR EGLL 211150Z AUTO 10009KT 5000 HZ OVC007 04/03
                        Q1003 NOSIG=
201911211120 METAR COR EGLL 211120Z AUTO 10010KT 5000 HZ OVC007 04/03
                        Q1004 NOSIG=
201911211050 METAR COR EGLL 211050Z AUTO 09010KT 5000 HZ OVC007 04/03
                        Q1004 NOSIG=
201911211020 METAR COR EGLL 211020Z AUTO 10008KT 6000 OVC008 04/03 Q1004
                        NOSIG=
201911210950 METAR COR EGLL 210950Z AUTO 09008KT 7000 OVC009 04/02 Q1004
                        NOSIG=
201911210920 METAR COR EGLL 210920Z AUTO 09008KT 7000 OVC009 04/02 Q1005
                        NOSIG=
201911210850 METAR COR EGLL 210850Z AUTO 10008KT 7000 OVC009 04/02 Q1005
                        TEMPO BKN010=
201911210820 METAR COR EGLL 210820Z AUTO 10008KT 6000 OVC008 04/03 Q1005
                        NOSIG=
201911210750 METAR COR EGLL 210750Z AUTO 09009KT 6000 BKN008 OVC014 04/03
                        Q1005 NOSIG=
201911210720 METAR COR EGLL 210720Z AUTO 09008KT 6000 BKN009 OVC018 04/03
                        Q1005 NOSIG=
201911210650 METAR COR EGLL 210650Z AUTO 08008KT 6000 BKN008 OVC016 04/03
                        Q1005 NOSIG=
201911210620 METAR COR EGLL 210620Z AUTO 08008KT 6000 BKN008 OVC017 04/03
                        Q1005 NOSIG=
201911210550 METAR COR EGLL 210550Z AUTO 09007KT 6000 OVC008/// 04/03
                        Q1006 NOSIG=
201911210520 METAR COR EGLL 210520Z AUTO 09007KT 6000 BKN009 OVC013 04/03
                        Q1006 TEMPO BKN010=
201911210450 METAR COR EGLL 210450Z AUTO 09007KT 7000 OVC010 04/03 Q1006
                        TEMPO BKN008=
201911210420 METAR COR EGLL 210420Z AUTO 09009KT 7000 OVC010 04/03 Q1006
                        TEMPO BKN008=
201911210350 METAR COR EGLL 210350Z AUTO 09008KT 8000 OVC010 04/03 Q1006
                        TEMPO BKN008=
201911210320 METAR COR EGLL 210320Z AUTO 09007KT 8000 OVC010 04/03 Q1006
                        TEMPO BKN008=
201911210250 METAR COR EGLL 210250Z AUTO 09007KT 9000 OVC011 04/03 Q1007
                        NOSIG=
201911210220 METAR COR EGLL 210220Z AUTO 09006KT 9999 OVC013 04/02 Q1007
                        NOSIG=
201911210150 METAR COR EGLL 210150Z 10006KT 9999 OVC015 04/02 Q1007 BECMG
                        BKN012=
201911210120 METAR COR EGLL 210120Z 09005KT 9999 OVC015 04/02 Q1007 NOSIG=
201911210050 METAR COR EGLL 210050Z AUTO 09007KT 9999 OVC018 04/02 Q1007
                        NOSIG=
201911210020 METAR COR EGLL 210020Z AUTO 08006KT 9999 OVC018 04/02 Q1007
                        NOSIG=
201911202350 METAR COR EGLL 202350Z AUTO 09006KT 9999 OVC019 04/02 Q1008
                        NOSIG=
201911202320 METAR COR EGLL 202320Z AUTO 10006KT 9999 OVC020 04/02 Q1008
                        NOSIG=
201911202250 METAR COR EGLL 202250Z AUTO 09006KT 9999 BKN021 03/02 Q1008
                        NOSIG=
201911202220 METAR COR EGLL 202220Z AUTO 10006KT 9999 BKN021 03/02 Q1008
                        NOSIG=
201911202150 METAR COR EGLL 202150Z AUTO 10008KT 9999 BKN021 03/02 Q1009
                        NOSIG=
201911202120 METAR COR EGLL 202120Z AUTO 09007KT 9999 SCT021 02/01 Q1009
                        NOSIG=
201911202050 METAR COR EGLL 202050Z AUTO 09007KT 9999 NCD 02/01 Q1009
                        NOSIG=
201911202020 METAR COR EGLL 202020Z AUTO 09007KT 9999 NCD 03/01 Q1009
                        NOSIG=
201911201950 METAR COR EGLL 201950Z AUTO 09007KT 9999 SCT024 03/01 Q1009
                        NOSIG=
201911201920 METAR COR EGLL 201920Z AUTO 10007KT 9999 BKN024 03/01 Q1009
                        NOSIG=
201911201850 METAR COR EGLL 201850Z AUTO 10007KT 9999 SCT021 BKN025 03/01
                        Q1009 NOSIG=
201911201820 METAR COR EGLL 201820Z AUTO 09006KT 9999 SCT022 04/01 Q1009
                        NOSIG=
201911201750 METAR COR EGLL 201750Z AUTO 09006KT 9999 NCD 03/00 Q1009
                        NOSIG=
201911201720 METAR COR EGLL 201720Z AUTO 10007KT 9999 NCD 04/00 Q1009
                        NOSIG=
201911201650 METAR COR EGLL 201650Z AUTO 10007KT 9999 NCD 04/00 Q1009
                        NOSIG=
201911201620 METAR COR EGLL 201620Z AUTO 11009KT 9999 NCD 04/M00 Q1010
                        NOSIG=
201911201550 METAR COR EGLL 201550Z AUTO 11009KT 9999 NCD 05/M00 Q1010
                        NOSIG=
201911201520 METAR COR EGLL 201520Z AUTO 11012KT 9999 NCD 05/M00 Q1010
                        NOSIG=
201911201450 METAR COR EGLL 201450Z AUTO 11011KT 9999 NCD 06/00 Q1010
                        NOSIG=
201911201420 METAR COR EGLL 201420Z AUTO 12013KT 9999 NCD 07/00 Q1010
                        NOSIG=
201911201350 METAR COR EGLL 201350Z AUTO 12011KT 9999 NCD 07/00 Q1011
                        NOSIG=
201911201320 METAR COR EGLL 201320Z AUTO 13010KT 090V160 9999 NCD 08/01
                        Q1011 NOSIG=
201911201250 METAR COR EGLL 201250Z AUTO 13011KT 9999 NCD 08/01 Q1012
                        NOSIG=
201911201220 METAR COR EGLL 201220Z AUTO 13012KT 9999 SCT030 08/02 Q1012
                        NOSIG=
201911201150 METAR COR EGLL 201150Z AUTO 14012KT 9999 BKN031 07/02 Q1013
                        NOSIG=
201911201120 METAR COR EGLL 201120Z AUTO 13010KT 9999 BKN032 07/02 Q1013
                        NOSIG=
201911201050 METAR COR EGLL 201050Z AUTO 13010KT 9999 SCT034 07/02 Q1013
                        NOSIG=
201911201020 METAR COR EGLL 201020Z AUTO 13008KT 9999 FEW036 07/02 Q1013
                        NOSIG=
201911200950 METAR COR EGLL 200950Z AUTO 12007KT 9999 SCT036 07/02 Q1014
                        NOSIG=
201911200920 METAR COR EGLL 200920Z AUTO 13007KT 9999 NCD 06/02 Q1014
                        NOSIG=
201911200850 METAR COR EGLL 200850Z AUTO 12006KT 9999 SCT036 05/03 Q1014
                        NOSIG=
201911200820 METAR COR EGLL 200820Z AUTO 13006KT 9999 BKN034 05/02 Q1014
                        NOSIG=
201911200750 METAR COR EGLL 200750Z AUTO 11006KT 9999 BKN033 04/02 Q1014
                        NOSIG=
201911200720 METAR COR EGLL 200720Z AUTO 12005KT 9999 NCD 05/02 Q1014
                        NOSIG=
201911200650 METAR COR EGLL 200650Z AUTO 15006KT 9999 NCD 05/02 Q1013
                        NOSIG=
201911200620 METAR COR EGLL 200620Z AUTO 15008KT 9999 NCD 05/03 Q1013
                        NOSIG=
201911200550 METAR COR EGLL 200550Z AUTO 14009KT 9999 NCD 05/03 Q1014
                        NOSIG=
201911200520 METAR COR EGLL 200520Z AUTO 13008KT 9999 NCD 05/03 Q1014
                        NOSIG=
201911200450 METAR COR EGLL 200450Z AUTO 13008KT 9999 NCD 05/03 Q1014
                        NOSIG=
201911200420 METAR COR EGLL 200420Z AUTO 13008KT 9999 SCT032 05/03 Q1014
                        NOSIG=
201911200350 METAR COR EGLL 200350Z AUTO 13006KT 9999 FEW035 05/03 Q1014
                        NOSIG=
201911200320 METAR COR EGLL 200320Z AUTO 13005KT 9999 NCD 05/03 Q1014
                        NOSIG=
201911200250 METAR COR EGLL 200250Z AUTO 13005KT 9999 NCD 05/03 Q1014
                        NOSIG=
201911200220 METAR COR EGLL 200220Z AUTO 15006KT 9999 SCT044 05/03 Q1014
                        NOSIG=
201911200150 METAR COR EGLL 200150Z AUTO 15007KT 9999 BKN046 06/03 Q1014
                        NOSIG=
201911200120 METAR COR EGLL 200120Z AUTO 17009KT 9999 BKN048 06/04 Q1015
                        NOSIG=
201911200050 METAR COR EGLL 200050Z AUTO 16005KT 9999 SCT048 05/03 Q1015
                        NOSIG=
201911200020 METAR COR EGLL 200020Z AUTO 15006KT 9999 NCD 05/04 Q1015
                        NOSIG=
201911192350 METAR COR EGLL 192350Z AUTO 15003KT 9999 NCD 03/03 Q1015
                        NOSIG=
201911192320 METAR COR EGLL 192320Z AUTO 11004KT 9999 NCD 03/02 Q1015
                        NOSIG=
201911192250 METAR COR EGLL 192250Z AUTO 10004KT 9999 NCD 04/03 Q1016
                        NOSIG=
201911192220 METAR COR EGLL 192220Z AUTO 13006KT 9999 NCD 03/02 Q1016
                        NOSIG=
201911192150 METAR COR EGLL 192150Z AUTO 13005KT 9999 NCD 03/02 Q1016
                        NOSIG=
201911192120 METAR COR EGLL 192120Z AUTO 12004KT 090V170 9999 NCD 03/03
                        Q1016 NOSIG=
201911192050 METAR COR EGLL 192050Z AUTO 09005KT 9999 NCD 03/03 Q1016
                        NOSIG=
201911192020 METAR COR EGLL 192020Z AUTO 09005KT 9999 NCD 03/03 Q1016
                        NOSIG=
201911191950 METAR COR EGLL 191950Z AUTO 09005KT 9999 NCD 03/02 Q1016
                        NOSIG=
201911191920 METAR COR EGLL 191920Z AUTO VRB03KT 9999 NCD 04/03 Q1016
                        NOSIG=
201911191850 METAR EGLL 191850Z AUTO 10003KT 9999 BKN049 04/03 Q1016=
201911191820 METAR EGLL 191820Z AUTO 08004KT 9999 NCD 04/03 Q1016=
201911191750 METAR COR EGLL 191750Z AUTO 09005KT 9999 BKN048 04/03 Q1016
                        NOSIG=
201911191720 METAR COR EGLL 191720Z AUTO 10005KT 9999 OVC048 06/04 Q1016
                        NOSIG=
201911191650 METAR COR EGLL 191650Z AUTO 09003KT 9999 SCT039 06/04 Q1016
                        NOSIG=
201911191620 METAR COR EGLL 191620Z AUTO 09004KT 9999 BKN038 06/04 Q1016
                        NOSIG=
201911191550 METAR COR EGLL 191550Z AUTO 09004KT 9999 BKN040 OVC048 06/04
                        Q1016 NOSIG=
201911191520 METAR COR EGLL 191520Z AUTO 08004KT 9999 BKN041 06/04 Q1016=
201911191450 METAR COR EGLL 191450Z AUTO 12004KT 050V200 9999 FEW043 07/04
                        Q1016 NOSIG=
201911191420 METAR EGLL 191420Z AUTO 13004KT 060V210 9999 SCT030 06/04
                        Q1016=
201911191350 METAR COR EGLL 191350Z AUTO 11004KT 060V190 9999 SCT036 06/04
                        Q1016 NOSIG=
201911191320 METAR COR EGLL 191320Z AUTO VRB02KT 9999 NCD 06/04 Q1016
                        NOSIG=
201911191250 METAR COR EGLL 191250Z AUTO VRB04KT 9999 NCD 06/04 Q1017
                        NOSIG=
201911191220 METAR COR EGLL 191220Z AUTO VRB02KT 9999 BKN047 05/03 Q1017
                        NOSIG=
201911191150 METAR COR EGLL 191150Z AUTO VRB03KT 9999 OVC048 04/03 Q1017
                        NOSIG=
201911191120 METAR COR EGLL 191120Z AUTO VRB04KT 9999 OVC043 03/03 Q1017
                        NOSIG=
201911191050 METAR COR EGLL 191050Z AUTO 19004KT 130V250 9999 FEW026 OVC039
                        03/02 Q1018 NOSIG=
201911191020 METAR COR EGLL 191020Z AUTO VRB02KT 6000 SCT027 SCT031 OVC038
                        02/02 Q1018 NOSIG=
201911190950 METAR COR EGLL 190950Z AUTO VRB02KT 5000 BR OVC038 02/02
                        Q1018 NOSIG=
201911190920 METAR EGLL 190920Z AUTO VRB03KT 5000 BR OVC036 02/02 Q1018=
201911190850 METAR COR EGLL 190850Z AUTO VRB02KT 3900 BR OVC034 01/01
                        Q1018 BECMG 5000=
201911190820 METAR COR EGLL 190820Z 03002KT 4200 BR BKN034 M00/M00 Q1017
                        BECMG 5000=
201911190750 METAR COR EGLL 190750Z 05003KT 2500 R27L/0750 BR SCT000 BKN031
                        M01/M01 Q1017 BECMG 3000=
201911190720 METAR COR EGLL 190720Z 35001KT 2000 0700W R27L/1300 R27R/P1500
                        PRFG BR SCT001 M02/M02 Q1017 TEMPO
                        0800 FZFG=
201911190650 METAR COR EGLL 190650Z AUTO VRB01KT 0300 R27L/P1500 R27R/1300
                        FZFG BKN001 BKN023 M01/M01 Q1017
                        TEMPO 0900=
201911190620 METAR COR EGLL 190620Z VRB01KT 0500 R27L/0800 R27R/0900 FZFG
                        VV/// M02/M02 Q1017 TEMPO 0250=
201911190550 METAR COR EGLL 190550Z VRB02KT 0600 R27R/P1500 FZFG VV///
                        M01/M02 Q1017 TEMPO 200=
201911190520 METAR COR EGLL 190520Z AUTO VRB01KT 0100 R27R/1400 FZFG VV///
                        M01/M02 Q1017 TEMPO 0600=
201911190450 METAR COR EGLL 190450Z AUTO VRB02KT 0100 R27R/1400 FZFG VV///
                        M01/M01 Q1017 TEMPO 0300=
201911190420 METAR COR EGLL 190420Z VRB02KT 0100 R27R/0450 FZFG VV///
                        M01/M01 Q1017 TEMPO 0300=
201911190350 METAR COR EGLL 190350Z VRB03KT 0050 R27R/0550 FZFG VV///
                        M01/M01 Q1017 TEMPO 0300=
201911190320 METAR COR EGLL 190320Z 26001KT 1200 0500SW BCFG SCT000 M00/M00
                        Q1017 TEMPO 0500 FZFG VV///=
201911190250 METAR COR EGLL 190250Z AUTO 26001KT 3500 BR NCD M01/M01 Q1017
                        TEMPO 1000 BCFG=
201911190220 METAR COR EGLL 190220Z 26001KT 3000 1000SW BCFG FEW000 M00/M00
                        Q1017 TEMPO 0200 FZFG VV///=
201911190150 METAR COR EGLL 190150Z 00000KT 3000 1000W BCFG FEW000 M00/M00
                        Q1017 TEMPO 0200 FZFG=
201911190120 METAR COR EGLL 190120Z AUTO 28002KT 6000 NCD 00/M00 Q1017
                        TEMPO 2000 BR=
201911190050 METAR COR EGLL 190050Z AUTO VRB01KT 2900 BR NCD 01/00 Q1017
                        TEMPO 3500=
201911190020 METAR COR EGLL 190020Z AUTO 00000KT 9000 NCD 00/M00 Q1017
                        BECMG 4000 BR=
201911182350 METAR EGLL 182350Z AUTO 31001KT 9999 NCD 01/00 Q1017 BECMG
                        8000=
201911182320 METAR COR EGLL 182320Z AUTO 31001KT 6000 NCD 02/01 Q1018
                        NOSIG=
201911182250 METAR COR EGLL 182250Z AUTO 32001KT 9999 NCD 03/02 Q1018
                        NOSIG=
201911182220 METAR COR EGLL 182220Z AUTO VRB02KT 8000 NCD 03/02 Q1018
                        NOSIG=
201911182150 METAR COR EGLL 182150Z AUTO 29003KT 9999 NCD 04/02 Q1018
                        NOSIG=
201911182120 METAR COR EGLL 182120Z AUTO 30003KT 9999 NCD 04/02 Q1018
                        NOSIG=
201911182050 METAR COR EGLL 182050Z AUTO 29004KT 9999 NCD 05/02 Q1018
                        NOSIG=
201911182020 METAR COR EGLL 182020Z AUTO 29004KT 9999 NCD 05/02 Q1018
                        NOSIG=
201911181950 METAR COR EGLL 181950Z AUTO 29002KT 9999 NCD 05/02 Q1017
                        NOSIG=
201911181920 METAR EGLL 181920Z AUTO VRB02KT 9999 NCD 06/02 Q1017 NOSIG=
201911181850 METAR COR EGLL 181850Z AUTO VRB02KT 9999 NCD 06/02 Q1017
                        NOSIG=
201911181820 METAR COR EGLL 181820Z AUTO 31004KT 9999 NCD 06/02 Q1017
                        NOSIG=
201911181750 METAR COR EGLL 181750Z AUTO 31003KT 9999 NCD 06/02 Q1017
                        NOSIG=
201911181720 METAR COR EGLL 181720Z AUTO VRB02KT 9999 NCD 06/03 Q1017
                        NOSIG=
201911181650 METAR COR EGLL 181650Z AUTO VRB03KT 9999 NCD 07/03 Q1017
                        NOSIG=
201911181620 METAR COR EGLL 181620Z AUTO VRB03KT 9999 NCD 08/03 Q1016
                        NOSIG=
201911181550 METAR COR EGLL 181550Z AUTO 36005KT 320V030 9999 NCD 08/03
                        Q1016 NOSIG=
201911181520 METAR EGLL 181520Z AUTO 34004KT 270V060 9999 SCT031 08/03
                        Q1016=
201911181450 METAR COR EGLL 181450Z AUTO 36005KT 320V040 9999 SCT033 08/03
                        Q1016 NOSIG=
201911181420 METAR COR EGLL 181420Z AUTO 35006KT 270V040 9999 SCT028 BKN039
                        09/03 Q1016 NOSIG=
201911181350 METAR COR EGLL 181350Z AUTO 36005KT 310V050 9999 SCT026 09/03
                        Q1016 NOSIG=
201911181320 METAR COR EGLL 181320Z AUTO 34005KT 300V040 9999 BKN023 BKN031
                        08/04 Q1016 NOSIG=
201911181250 METAR COR EGLL 181250Z AUTO 36007KT 310V040 9999 BKN022 09/04
                        Q1016 NOSIG=
201911181220 METAR COR EGLL 181220Z AUTO VRB06KT 9999 BKN022 08/04 Q1015
                        NOSIG=
201911181150 METAR COR EGLL 181150Z AUTO 35006KT 310V020 9999 BKN020 BKN027
                        08/04 Q1015 NOSIG=
201911181120 METAR COR EGLL 181120Z AUTO 35007KT 310V020 9999 FEW020 08/04
                        Q1015 NOSIG=
201911181050 METAR EGLL 181050Z AUTO 34007KT 290V030 9999 SCT019 08/04
                        Q1016=
201911181020 METAR COR EGLL 181020Z AUTO 33006KT 300V020 9999 FEW016 07/04
                        Q1016 NOSIG=
201911180950 METAR COR EGLL 180950Z AUTO 34006KT 310V020 9999 NCD 07/05
                        Q1016 NOSIG=
201911180920 METAR COR EGLL 180920Z AUTO 32005KT 290V360 9999 NCD 07/05
                        Q1016 NOSIG=
201911180850 METAR COR EGLL 180850Z AUTO 30005KT 9999 SCT041 06/05 Q1016
                        NOSIG=
201911180820 METAR EGLL 180820Z AUTO 31004KT 9999 FEW040 06/05 Q1016=
201911180750 METAR COR EGLL 180750Z AUTO VRB03KT 9999 NCD 05/04 Q1016
                        NOSIG=
201911180720 METAR COR EGLL 180720Z AUTO 31004KT 9999 NCD 05/04 Q1016
                        TEMPO BKN014=
201911180650 METAR COR EGLL 180650Z AUTO 31005KT 9999 NCD 05/04 Q1015
                        NOSIG=
201911180620 METAR COR EGLL 180620Z AUTO 31004KT 9999 FEW012 05/04 Q1015
                        NOSIG=
201911180550 METAR COR EGLL 180550Z AUTO 32005KT 290V350 9999 NCD 05/04
                        Q1015 NOSIG=
201911180520 METAR COR EGLL 180520Z AUTO 32005KT 9999 NCD 05/04 Q1015
                        NOSIG=
201911180450 METAR COR EGLL 180450Z AUTO 32005KT 300V360 9999 FEW041 06/04
                        Q1015 NOSIG=
201911180420 METAR COR EGLL 180420Z AUTO 35005KT 290V040 9999 NCD 07/04
                        Q1014 NOSIG=
201911180350 METAR COR EGLL 180350Z AUTO 36007KT 9999 NCD 07/05 Q1014
                        NOSIG=
201911180320 METAR COR EGLL 180320Z AUTO 36007KT 320V040 9999 BKN035 07/05
                        Q1014 NOSIG=
201911180250 METAR COR EGLL 180250Z AUTO 36008KT 330V030 9999 FEW029 BKN034
                        OVC040 07/06 Q1014 NOSIG=
201911180220 METAR COR EGLL 180220Z AUTO 35005KT 300V030 9999 BKN028 07/06
                        Q1014 NOSIG=
201911180150 METAR COR EGLL 180150Z AUTO 36005KT 320V030 9999 FEW015 SCT024
                        BKN029 07/06 Q1014 NOSIG=
201911180120 METAR COR EGLL 180120Z AUTO 36006KT 330V030 9999 FEW013 SCT018
                        BKN022 07/06 Q1013 NOSIG=
201911180050 METAR COR EGLL 180050Z AUTO 01006KT 330V050 9999 SCT012 BKN018
                        BKN022 07/07 Q1013 TEMPO BKN012=
201911180020 METAR EGLL 180020Z AUTO 01004KT 330V040 2900 -RADZ SCT006///
                        BKN010/// OVC014/// //////TCU 07/07
                        Q1014 REDZ=
201911172350 METAR COR EGLL 172350Z AUTO VRB03KT 2000 DZ BKN005 OVC012
                        07/06 Q1014 TEMPO 5000 -RADZ BKN012=
201911172320 METAR EGLL 172320Z AUTO VRB03KT 4100 BR BKN005 OVC008 07/06
                        Q1013=
201911172250 METAR COR EGLL 172250Z AUTO VRB02KT 5000 HZ OVC005 07/06
                        Q1013 TEMPO 4000 BR BKN004=
201911172220 METAR COR EGLL 172220Z AUTO VRB03KT 5000 HZ OVC006 07/06
                        Q1013 TEMPO 4000 BKN004=
201911172150 METAR COR EGLL 172150Z AUTO VRB02KT 4100 HZ BKN009 OVC019
                        07/06 Q1013 TEMPO BKN004=
201911172120 METAR COR EGLL 172120Z AUTO VRB03KT 4900 HZ BKN015 BKN019
                        OVC043 07/06 Q1013 BECMG BKN010=
201911172050 METAR COR EGLL 172050Z AUTO VRB03KT 5000 HZ BKN022 OVC035
                        07/06 Q1013 BECMG 4000 BR BKN014=
201911172020 METAR COR EGLL 172020Z AUTO VRB03KT 5000 HZ BKN029 07/06
                        Q1013 BECMG BKN010=
201911171950 METAR COR EGLL 171950Z AUTO VRB02KT 5000 HZ BKN031 BKN038
                        OVC046 07/06 Q1013 TEMPO BKN014=
201911171920 METAR COR EGLL 171920Z AUTO VRB02KT 5000 HZ SCT014 SCT042
                        07/05 Q1013 TEMPO 4000 BKN012=
201911171850 METAR COR EGLL 171850Z AUTO 36003KT 6000 NCD 07/05 Q1013
                        NOSIG=
201911171820 METAR COR EGLL 171820Z AUTO VRB02KT 7000 NCD 07/04 Q1013
                        NOSIG=
201911171750 METAR COR EGLL 171750Z AUTO 36003KT 8000 NCD 07/04 Q1012
                        NOSIG=
201911171720 METAR COR EGLL 171720Z AUTO VRB02KT 9999 NCD 08/03 Q1012
                        NOSIG=
201911171650 METAR COR EGLL 171650Z AUTO VRB02KT 9999 NCD 08/03 Q1012
                        NOSIG=
201911171620 METAR COR EGLL 171620Z AUTO VRB02KT 9999 NCD 08/03 Q1012
                        NOSIG=
201911171550 METAR COR EGLL 171550Z AUTO VRB01KT 9999 NCD 08/04 Q1012
                        NOSIG=
201911171520 METAR COR EGLL 171520Z AUTO 35004KT 9999 NCD 08/03 Q1012
                        NOSIG=
201911171450 METAR COR EGLL 171450Z AUTO 36004KT 330V040 9999 NCD 09/03
                        Q1012 NOSIG=
201911171420 METAR COR EGLL 171420Z AUTO VRB03KT 9999 NCD 09/03 Q1011
                        NOSIG=
201911171350 METAR COR EGLL 171350Z AUTO 05003KT 9999 NCD 09/03 Q1011
                        NOSIG=
201911171320 METAR COR EGLL 171320Z AUTO VRB02KT 9999 NCD 08/03 Q1011
                        NOSIG=
201911171250 METAR COR EGLL 171250Z AUTO VRB03KT 9999 NCD 09/03 Q1011
                        NOSIG=
201911171220 METAR COR EGLL 171220Z AUTO VRB02KT 9999 NCD 08/04 Q1011
                        NOSIG=
201911171150 METAR COR EGLL 171150Z AUTO VRB03KT 9999 NCD 08/04 Q1011
                        NOSIG=
201911171120 METAR COR EGLL 171120Z AUTO VRB03KT 9999 NCD 07/05 Q1011
                        NOSIG=
201911171050 METAR COR EGLL 171050Z AUTO VRB03KT 7000 NCD 06/05 Q1011
                        NOSIG=
201911171020 METAR COR EGLL 171020Z AUTO 32003KT 6000 NCD 05/05 Q1011
                        NOSIG=
201911170950 METAR COR EGLL 170950Z 34001KT 6000 FEW025 05/05 Q1011 NOSIG=
201911170920 METAR COR EGLL 170920Z VRB01KT 4000 BR NSC 04/04 Q1011 TEMPO
                        6000 NSW=
201911170850 METAR COR EGLL 170850Z VRB01KT 3000 BR FEW022 03/03 Q1011
                        TEMPO 6000 NSW=
201911170820 METAR COR EGLL 170820Z VRB01KT 0900 R27R/P1500 R27L/0650
                        FG SCT001 BKN021 02/02 Q1011 TEMPO
                        1500 BR=
201911170750 METAR COR EGLL 170750Z VRB01KT 0400 R27R/P1500 R27L/0450
                        FG BKN000 02/02 Q1011 TEMPO 1500
                        BR FEW001=
201911170720 METAR COR EGLL 170720Z 18004KT 140V270 0300 R27R/0450 R27L/0250
                        FG BKN000 02/02 Q1010 TEMPO 1200
                        BR SCT000=
201911170650 METAR COR EGLL 170650Z VRB03KT 4000 0200S R27R/P1500 R27L/0400
                        BR PRFG FEW001 01/01 Q1010 TEMPO
                        2500=
201911170620 METAR COR EGLL 170620Z VRB03KT 5000 BR NSC 02/02 Q1010 TEMPO
                        4000=
201911170550 METAR COR EGLL 170550Z VRB01KT 5000 BR NSC 02/02 Q1009 TEMPO
                        4000 BR=
201911170520 METAR COR EGLL 170520Z 35001KT 3000 R27L/1200 BR NSC 02/02
                        Q1009 TEMPO 2500=
201911170450 METAR COR EGLL 170450Z 33001KT 3000 0500SW R27R/P1500 BR
                        BCFG FEW001 02/02 Q1009 TEMPO 2500=
201911170420 METAR COR EGLL 170420Z 32001KT 2000 0300SW R27R/P1500 BR
                        BCFG SCT000 02/02 Q1009 TEMPO 1200=
201911170350 METAR COR EGLL 170350Z 28001KT 4000 0800W BR BCFG SCT000
                        03/03 Q1009 TEMPO 1200=
201911170320 METAR COR EGLL 170320Z 27001KT 4000 0800SW BR BCFG SCT000
                        03/03 Q1009 TEMPO 1200=
201911170250 METAR COR EGLL 170250Z AUTO 13001KT 2600 BR NCD 03/03 Q1009
                        NOSIG=
201911170220 METAR COR EGLL 170220Z 13001KT 4000 BR NSC 03/03 Q1009 NOSIG=
201911170150 METAR COR EGLL 170150Z 00000KT 4000 BR NSC 03/03 Q1009 NOSIG=
201911170120 METAR COR EGLL 170120Z AUTO 29001KT 3100 BR NCD 04/03 Q1009
                        NOSIG=
201911170050 METAR COR EGLL 170050Z AUTO 00000KT 3900 BR NCD 04/04 Q1009
                        NOSIG=
201911170020 METAR COR EGLL 170020Z AUTO VRB01KT 4300 BR NCD 04/03 Q1009
                        NOSIG=
201911162350 METAR COR EGLL 162350Z AUTO VRB01KT 5000 BR NCD 04/03 Q1009
                        TEMPO 4000=
201911162320 METAR COR EGLL 162320Z AUTO 16001KT 6000 NCD 04/03 Q1009
                        NOSIG=
201911162250 METAR COR EGLL 162250Z VRB03KT 6000 NSC 04/03 Q1009 NOSIG=
201911162220 METAR COR EGLL 162220Z AUTO 23006KT 170V270 8000 NCD 05/04
                        Q1009 NOSIG=
201911162150 METAR COR EGLL 162150Z AUTO 23004KT 8000 NCD 05/04 Q1009
                        NOSIG=
201911162120 METAR COR EGLL 162120Z AUTO 18004KT 160V240 9999 NCD 06/04
                        Q1009 NOSIG=
201911162050 METAR COR EGLL 162050Z AUTO 24005KT 9999 NCD 06/04 Q1009
                        NOSIG=
201911162020 METAR COR EGLL 162020Z AUTO 24004KT 9999 SCT043 06/04 Q1008
                        NOSIG=
201911161950 METAR COR EGLL 161950Z AUTO 25005KT 220V280 9999 BKN045 06/04
                        Q1008 NOSIG=
201911161920 METAR COR EGLL 161920Z AUTO 25006KT 220V290 9999 BKN044 07/04
                        Q1008 NOSIG=
201911161850 METAR COR EGLL 161850Z AUTO 21004KT 200V260 9999 OVC043 07/04
                        Q1008 NOSIG=
201911161820 METAR COR EGLL 161820Z AUTO 19004KT 120V270 9999 OVC044 07/04
                        Q1008 NOSIG=
201911161750 METAR COR EGLL 161750Z AUTO VRB03KT 9999 OVC043 07/05 Q1008
                        NOSIG=
201911161720 METAR COR EGLL 161720Z AUTO VRB03KT 9999 OVC043 07/04 Q1008
                        NOSIG=
201911161650 METAR COR EGLL 161650Z AUTO VRB03KT 9999 OVC039 07/04 Q1007
                        NOSIG=
201911161620 METAR COR EGLL 161620Z AUTO VRB02KT 9999 OVC038 07/04 Q1007
                        NOSIG=
201911161550 METAR COR EGLL 161550Z AUTO VRB03KT 9999 OVC036 07/03 Q1007
                        NOSIG=
201911161520 METAR COR EGLL 161520Z AUTO 30003KT 9999 SCT021 OVC034 07/04
                        Q1007 NOSIG=
201911161450 METAR EGLL 161450Z AUTO 32002KT 9999 SCT022 OVC033 08/03
                        Q1007 NOSIG=
201911161420 METAR COR EGLL 161420Z AUTO VRB02KT 9999 FEW025 OVC033 07/04
                        Q1007 NOSIG=
201911161350 METAR COR EGLL 161350Z AUTO 03001KT 9999 OVC031 07/03 Q1007
                        NOSIG=
201911161320 METAR COR EGLL 161320Z AUTO VRB03KT 9999 OVC034 07/04 Q1006
                        NOSIG=
201911161250 METAR COR EGLL 161250Z AUTO VRB02KT 9999 SCT030 BKN036 07/04
                        Q1006 NOSIG=
201911161220 METAR COR EGLL 161220Z AUTO VRB03KT 9999 FEW029 BKN035 08/05
                        Q1007 NOSIG=
201911161150 METAR COR EGLL 161150Z AUTO VRB03KT 9999 FEW030 BKN037 07/05
                        Q1007 NOSIG=
201911161120 METAR COR EGLL 161120Z AUTO VRB03KT 9999 OVC039 07/05 Q1006
                        NOSIG=
201911161050 METAR COR EGLL 161050Z AUTO VRB03KT 9999 BKN039 07/05 Q1006
                        NOSIG=
201911161020 METAR COR EGLL 161020Z AUTO VRB03KT 9000 BKN040 06/05 Q1006
                        NOSIG=
201911160950 METAR COR EGLL 160950Z AUTO 36004KT 7000 OVC040 06/05 Q1006
                        NOSIG=
201911160920 METAR COR EGLL 160920Z AUTO 04003KT 7000 OVC039 06/05 Q1006
                        NOSIG=
201911160850 METAR COR EGLL 160850Z AUTO VRB03KT 7000 OVC034 05/05 Q1006
                        NOSIG=
201911160820 METAR COR EGLL 160820Z AUTO 35003KT 7000 BKN027 OVC031 05/05
                        Q1006 NOSIG=
201911160750 METAR COR EGLL 160750Z AUTO VRB02KT 8000 FEW020 OVC032 05/05
                        Q1006 NOSIG=
201911160720 METAR COR EGLL 160720Z AUTO VRB02KT 9999 FEW013 SCT022 BKN039
                        05/04 Q1005 NOSIG=
201911160650 METAR COR EGLL 160650Z AUTO VRB03KT 9000 SCT025 BKN036 05/04
                        Q1005 NOSIG=
201911160620 METAR COR EGLL 160620Z AUTO 07003KT 9999 -RA SCT028 BKN032
                        05/04 Q1005 NOSIG=
201911160550 METAR COR EGLL 160550Z AUTO 06004KT 7000 -RA FEW022 SCT026
                        BKN031 06/04 Q1005 NOSIG=
201911160520 METAR COR EGLL 160520Z AUTO 06005KT 9000 -RA OVC034 06/04
                        Q1004 NOSIG=
201911160450 METAR COR EGLL 160450Z AUTO 06005KT 9999 BKN040 06/04 Q1004
                        NOSIG=
201911160420 METAR COR EGLL 160420Z AUTO 05005KT 020V080 9999 BKN031 OVC043
                        06/04 Q1004 NOSIG=
201911160350 METAR COR EGLL 160350Z AUTO 05005KT 9999 BKN032 OVC043 06/04
                        Q1003 NOSIG=
201911160320 METAR COR EGLL 160320Z AUTO 05006KT 9999 SCT027 OVC044 06/04
                        Q1003 NOSIG=
201911160250 METAR COR EGLL 160250Z AUTO 05006KT 6000 -RA FEW022 BKN028
                        BKN035 06/05 Q1003 NOSIG=
201911160220 METAR COR EGLL 160220Z AUTO 05008KT 020V080 9000 -RA FEW016
                        OVC035 06/05 Q1003 NOSIG=
201911160150 METAR COR EGLL 160150Z AUTO 04007KT 7000 -RA FEW031 BKN038
                        OVC049 06/05 Q1003 NOSIG=
201911160120 METAR COR EGLL 160120Z AUTO 04007KT 010V070 8000 FEW015 SCT041
                        OVC049 06/05 Q1002 NOSIG=
201911160050 METAR COR EGLL 160050Z AUTO 05007KT 8000 FEW015 SCT033 BKN042
                        06/05 Q1002 NOSIG=
201911160020 METAR COR EGLL 160020Z AUTO 05007KT 360V070 7000 SCT014 SCT023
                        BKN044 06/05 Q1002 NOSIG=
201911152350 METAR COR EGLL 152350Z AUTO 04007KT 010V070 8000 BKN015 BKN031
                        06/05 Q1002 NOSIG=
201911152320 METAR COR EGLL 152320Z AUTO 04008KT 8000 SCT015 BKN019 OVC034
                        06/05 Q1002 NOSIG=
201911152250 METAR COR EGLL 152250Z AUTO 04009KT 010V090 7000 -RA BKN017
                        OVC036 06/05 Q1002 NOSIG=
201911152220 METAR COR EGLL 152220Z AUTO 04008KT 010V080 9000 -RA FEW024
                        SCT029 BKN036 06/05 Q1001 NOSIG=
201911152150 METAR COR EGLL 152150Z AUTO 05009KT 010V090 9999 -RA BKN014
                        BKN047 06/05 Q1001 TEMPO SCT014=
201911152120 METAR COR EGLL 152120Z AUTO 04008KT 9999 FEW019/// //////TCU
                        06/05 Q1001 NOSIG=
201911152050 METAR COR EGLL 152050Z AUTO 05009KT 9999 -RA FEW013/// BKN025///
                        BKN036/// //////TCU 06/05 Q1001 RERA
                        REDZ TEMPO BKN013=
201911152020 METAR COR EGLL 152020Z AUTO 01006KT 340V060 9999 -RA FEW014///
                        SCT020/// BKN028/// //////TCU 07/06
                        Q1001 TEMPO BKN014=
201911151950 METAR COR EGLL 151950Z AUTO 01006KT 350V050 7000 -RA FEW012
                        SCT017 BKN031 07/06 Q1001 TEMPO BKN012=
201911151920 METAR COR EGLL 151920Z AUTO 01009KT 340V050 6000 -RA SCT016
                        BKN024 BKN030 07/06 Q1001 TEMPO RA
                        BKN014=
201911151850 METAR COR EGLL 151850Z AUTO 01010KT 340V040 9999 -RA SCT015
                        BKN024 BKN029 07/06 Q1001 TEMPO BKN014=
201911151820 METAR COR EGLL 151820Z AUTO 36010KT 330V030 9999 -RA SCT018///
                        BKN025/// BKN031/// //////TCU 07/06
                        Q1001 NOSIG=
201911151750 METAR COR EGLL 151750Z AUTO 01011G23KT 340V050 9999 -RA SCT021///
                        BKN029/// BKN049/// //////TCU 08/05
                        Q1002 TEMPO RA=
201911151720 METAR EGLL 151720Z AUTO 01010KT 330V040 9999 FEW033 BKN040
                        08/05 Q1002=
201911151650 METAR COR EGLL 151650Z AUTO 01009KT 330V060 9999 -RA SCT027
                        BKN036 BKN046 08/05 Q1002 TEMPO RA=
201911151620 METAR COR EGLL 151620Z AUTO 01009KT 9999 SCT026/// //////TCU
                        08/05 Q1002 NOSIG=
201911151550 METAR COR EGLL 151550Z AUTO 01008KT 330V050 9999 NCD 08/05
                        Q1002 NOSIG=
201911151520 METAR COR EGLL 151520Z AUTO 01010KT 340V050 9999 FEW029 08/05
                        Q1002 NOSIG=
201911151450 METAR COR EGLL 151450Z AUTO 01011KT 320V040 9999 FEW022 OVC045
                        08/06 Q1002 NOSIG=
201911151420 METAR COR EGLL 151420Z AUTO 01011KT 9999 FEW027 BKN040 09/05
                        Q1002 NOSIG=
201911151350 METAR COR EGLL 151350Z AUTO 01009KT 9999 BKN021 09/06 Q1002
                        NOSIG=
201911151320 METAR COR EGLL 151320Z AUTO 01009KT 340V050 9999 NCD 09/06
                        Q1002 NOSIG=
201911151250 METAR COR EGLL 151250Z AUTO 01009KT 9999 NCD 08/06 Q1003
                        NOSIG=
201911151220 METAR COR EGLL 151220Z AUTO 01009KT 340V050 9999 FEW016 08/06
                        Q1003 NOSIG=
201911151150 METAR COR EGLL 151150Z AUTO 01007KT 340V060 9999 SCT016 SCT031
                        08/06 Q1004 NOSIG=
201911151120 METAR COR EGLL 151120Z AUTO 02008KT 330V050 9999 SCT016 SCT030
                        08/06 Q1004 NOSIG=
201911151050 METAR COR EGLL 151050Z AUTO 01008KT 340V050 9999 FEW026 SCT032
                        07/06 Q1004 NOSIG=
201911151020 METAR COR EGLL 151020Z AUTO 01006KT 330V040 9999 -RA FEW037
                        SCT044 07/06 Q1004 NOSIG=
201911150950 METAR COR EGLL 150950Z AUTO 36006KT 320V040 9999 -RA SCT011
                        SCT033 BKN040 07/06 Q1004 NOSIG=
201911150920 METAR COR EGLL 150920Z AUTO 36006KT 330V040 9999 -RA BKN043
                        06/05 Q1004 TEMPO BKN010=
201911150850 METAR COR EGLL 150850Z AUTO 36007KT 320V030 9999 -RA FEW036
                        SCT045 06/05 Q1004 NOSIG=
201911150820 METAR EGLL 150820Z AUTO 36007KT 9999 -RA SCT029 BKN035 OVC044
                        06/05 Q1004=
201911150750 METAR COR EGLL 150750Z AUTO 36008KT 9999 -RA FEW042 06/05
                        Q1004 NOSIG=
201911150720 METAR COR EGLL 150720Z AUTO 36008KT 320V030 9999 -RA NCD
                        05/04 Q1004 NOSIG=
201911150650 METAR COR EGLL 150650Z AUTO 36007KT 320V030 9999 NCD 05/04
                        Q1004 TEMPO RA=
201911150620 METAR COR EGLL 150620Z AUTO 35005KT 320V030 9999 NCD 05/04
                        Q1004 TEMPO RA=
201911150550 METAR COR EGLL 150550Z AUTO 34004KT 310V010 9000 NCD 04/04
                        Q1004 NOSIG=
201911150520 METAR COR EGLL 150520Z AUTO 35005KT 310V020 8000 NCD 04/04
                        Q1004 NOSIG=
201911150450 METAR COR EGLL 150450Z AUTO 35004KT 290V030 7000 NCD 04/04
                        Q1004 NOSIG=
201911150420 METAR COR EGLL 150420Z AUTO VRB03KT 7000 NCD 04/04 Q1004
                        NOSIG=
201911150350 METAR COR EGLL 150350Z AUTO 36005KT 320V030 6000 NCD 04/04
                        Q1004 TEMPO BKN006=
201911150320 METAR COR EGLL 150320Z 36005KT 310V020 7000 SCT005 BKN040
                        04/04 Q1004 TEMPO 4500 BR BKN006=
201911150250 METAR COR EGLL 150250Z 36006KT 7000 FEW003 BKN004 BKN033
                        04/04 Q1004 TEMPO FEW004 BKN006=
201911150220 METAR COR EGLL 150220Z AUTO 36004KT 7000 FEW028 BKN033 04/04
                        Q1004 NOSIG=
201911150150 METAR COR EGLL 150150Z 36005KT 9999 FEW024 BKN035 BKN047
                        04/04 Q1004 NOSIG=
201911150120 METAR COR EGLL 150120Z 02004KT 340V060 9999 SCT022 SCT026
                        BKN038 04/04 Q1004 NOSIG=
201911150050 METAR COR EGLL 150050Z 01005KT 9999 FEW019 BKN033 04/04 Q1004
                        NOSIG=
201911150020 METAR COR EGLL 150020Z 36005KT 9999 FEW025 BKN040 04/04 Q1004
                        NOSIG=
201911142350 METAR COR EGLL 142350Z 03004KT 360V060 9999 SCT026 OVC042
                        04/04 Q1004 NOSIG=
201911142320 METAR COR EGLL 142320Z AUTO 01004KT 340V060 9999 OVC049 05/04
                        Q1003 NOSIG=
201911142250 METAR COR EGLL 142250Z AUTO 36004KT 320V030 9999 FEW030 SCT040
                        OVC046 05/04 Q1003 NOSIG=
201911142220 METAR COR EGLL 142220Z AUTO 36004KT 340V040 9999 -RA BKN042
                        05/04 Q1003 NOSIG=
201911142150 METAR COR EGLL 142150Z AUTO 04004KT 9999 FEW030 BKN036 06/05
                        Q1003 NOSIG=
201911142120 METAR COR EGLL 142120Z AUTO 04005KT 010V070 9999 SCT031 BKN040
                        06/04 Q1003 NOSIG=
201911142050 METAR COR EGLL 142050Z AUTO 04005KT 9999 BKN032 BKN043 06/05
                        Q1002 NOSIG=
201911142020 METAR COR EGLL 142020Z AUTO 04006KT 9999 BKN031 BKN039 06/05
                        Q1002 NOSIG=
201911141950 METAR COR EGLL 141950Z AUTO 04005KT 9999 BKN034 06/05 Q1001
                        NOSIG=
201911141920 METAR COR EGLL 141920Z AUTO 04004KT 360V070 9999 SCT032 BKN038
                        06/05 Q1001 NOSIG=
201911141850 METAR COR EGLL 141850Z AUTO 04004KT 9999 SCT030 BKN038 07/05
                        Q1001 NOSIG=
201911141820 METAR COR EGLL 141820Z AUTO 07005KT 9999 -RA SCT033 BKN044
                        07/05 Q1000 NOSIG=
201911141750 METAR COR EGLL 141750Z AUTO 10006KT 9999 NCD 06/04 Q1000
                        NOSIG=
201911141720 METAR COR EGLL 141720Z AUTO 10006KT 9999 FEW043 06/04 Q1000
                        NOSIG=
201911141650 METAR COR EGLL 141650Z AUTO 10006KT 9999 FEW031 06/04 Q0999
                        NOSIG=
201911141620 METAR COR EGLL 141620Z AUTO 08003KT 9999 SCT043 07/03 Q0998
                        NOSIG=
201911141550 METAR COR EGLL 141550Z AUTO 09005KT 9999 FEW029 07/03 Q0998
                        NOSIG=
201911141520 METAR COR EGLL 141520Z AUTO 09006KT 9999 FEW028 SCT033 08/04
                        Q0997 NOSIG=
201911141450 METAR COR EGLL 141450Z AUTO 11004KT 070V140 9999 SCT030 10/03
                        Q0997 NOSIG=
201911141420 METAR COR EGLL 141420Z AUTO VRB03KT 9999 FEW031 09/03 Q0996
                        NOSIG=
201911141350 METAR COR EGLL 141350Z AUTO 18004KT 150V220 9999 FEW026 09/03
                        Q0996 NOSIG=
201911141320 METAR COR EGLL 141320Z AUTO 18004KT 150V220 9999 SCT023 09/03
                        Q0996 NOSIG=
201911141250 METAR COR EGLL 141250Z AUTO 15004KT 100V220 9999 SCT021 BKN026
                        09/04 Q0995 NOSIG=
201911141220 METAR COR EGLL 141220Z AUTO 13005KT 090V170 9999 BKN016 BKN027
                        08/05 Q0995 NOSIG=
201911141150 METAR COR EGLL 141150Z AUTO 09004KT 060V130 9999 BKN015 07/05
                        Q0995 NOSIG=
201911141120 METAR COR EGLL 141120Z AUTO VRB03KT 9999 BKN014 07/04 Q0995
                        BECMG SCT014=
201911141050 METAR COR EGLL 141050Z AUTO 15005KT 120V180 9999 BKN014 OVC024
                        07/04 Q0994 TEMPO BKN016=
201911141020 METAR COR EGLL 141020Z AUTO 13006KT 9999 BKN013 OVC025 07/04
                        Q0994 TEMPO SCT013=
201911140950 METAR COR EGLL 140950Z AUTO 16006KT 120V200 9999 FEW010 OVC019
                        06/04 Q0994 NOSIG=
201911140920 METAR COR EGLL 140920Z AUTO 15007KT 110V220 9999 FEW007 BKN022
                        05/04 Q0993 NOSIG=
201911140850 METAR COR EGLL 140850Z AUTO 16007KT 110V180 9999 BKN023 04/04
                        Q0993 NOSIG=
201911140820 METAR COR EGLL 140820Z AUTO 16005KT 110V200 9999 BKN022 BKN028
                        04/04 Q0992 NOSIG=
201911140750 METAR COR EGLL 140750Z AUTO 19005KT 140V290 9999 FEW025 BKN041
                        04/03 Q0992 TEMPO BKN010=
201911140720 METAR COR EGLL 140720Z AUTO 21006KT 160V260 9999 SCT007 BKN026
                        04/03 Q0991 TEMPO BKN008=
201911140650 METAR COR EGLL 140650Z AUTO 21006KT 180V250 9999 SCT008 BKN028
                        BKN034 04/03 Q0990 TEMPO BKN006=
201911140620 METAR COR EGLL 140620Z AUTO 22006KT 190V250 9999 FEW008 BKN025
                        BKN032 04/03 Q0990 TEMPO BKN007=
201911140550 METAR COR EGLL 140550Z AUTO 24008KT 9999 FEW010 BKN026 BKN047
                        04/03 Q0989 TEMPO BKN010=
201911140520 METAR COR EGLL 140520Z 21008KT 9999 -RA BKN008 BKN015 OVC028
                        04/04 Q0989 TEMPO FEW008 BKN015=
201911140450 METAR COR EGLL 140450Z 24007KT 180V260 9999 SCT021 BKN030
                        04/04 Q0988 NOSIG=
201911140420 METAR COR EGLL 140420Z 29007KT 9999 -RA FEW020 BKN035 04/04
                        Q0988 RERA TEMPO BKN014=
201911140350 METAR COR EGLL 140350Z 26009KT 6000 RA BKN018 OVC036 04/04
                        Q0988 BECMG 9999 NSW=
201911140320 METAR COR EGLL 140320Z 27010KT 6000 RA FEW010 BKN015 04/04
                        Q0988 TEMPO 4000 RA BKN010=
201911140250 METAR COR EGLL 140250Z 33004KT 270V080 4000 RA BKN009 OVC015
                        05/04 Q0988 RERA TEMPO FEW009 BKN012=
201911140220 METAR COR EGLL 140220Z VRB04KT 7000 RA BKN008 OVC022 04/04
                        Q0988 TEMPO FEW008 BKN014=
201911140150 METAR COR EGLL 140150Z VRB02KT 6000 RA FEW009 BKN014 05/05
                        Q0988 RERA TEMPO 4000 +RA=
201911140120 METAR COR EGLL 140120Z VRB02KT 5000 +RA BKN013CB BKN019 OVC025
                        05/05 Q0989 TEMPO 4000=
201911140050 METAR COR EGLL 140050Z 12008KT 090V190 8000 RA FEW010 SCT019
                        BKN024 06/05 Q0989 TEMPO 4000=
201911140020 METAR COR EGLL 140020Z 15004KT 120V180 6000 RA FEW021CB BKN025
                        OVC033 06/05 Q0989 NOSIG=
201911132350 METAR COR EGLL 132350Z 16006KT 9999 8000S RA FEW012CB SCT023
                        BKN029 06/05 Q0989 RERA TEMPO 3000
                        +RA=
201911132320 METAR COR EGLL 132320Z 15012KT 8000 RA FEW010TCU SCT015 BKN021
                        06/06 Q0990 RERA TEMPO 3000 +RA=
201911132250 METAR COR EGLL 132250Z AUTO 10008KT 5000 -RA SCT017/// SCT027///
                        BKN031/// //////TCU 06/06 Q0990 RERA
                        TEMPO 4000 +RA=
201911132220 METAR COR EGLL 132220Z AUTO 11010KT 9000 -RA FEW018/// SCT023///
                        BKN029/// //////TCU 06/06 Q0990 TEMPO
                        4000 RA=
201911132150 METAR COR EGLL 132150Z AUTO 10010KT 9999 -RA FEW029/// SCT039///
                        //////TCU 06/05 Q0990 TEMPO 4000
                        RA=
201911132120 METAR COR EGLL 132120Z AUTO 10012KT 9999 FEW035 BKN049 06/05
                        Q0991 TEMPO RA=
201911132050 METAR COR EGLL 132050Z AUTO 10011KT 9999 -RA SCT030 BKN039
                        BKN047 06/05 Q0991 TEMPO RA=
201911132020 METAR COR EGLL 132020Z AUTO 10009KT 9999 FEW035 06/05 Q0992
                        TEMPO RA=
201911131950 METAR COR EGLL 131950Z AUTO 11010KT 9999 -RA FEW027 BKN031
                        BKN038 06/05 Q0992 TEMPO RA=
201911131920 METAR COR EGLL 131920Z AUTO 11011KT 9999 SCT032/// SCT043///
                        //////TCU 06/04 Q0993 NOSIG=
201911131850 METAR COR EGLL 131850Z AUTO 12010KT 9999 FEW038 SCT048 06/04
                        Q0994 NOSIG=
201911131820 METAR COR EGLL 131820Z AUTO 10008KT 9999 NCD 05/04 Q0994
                        TEMPO SHRA=
201911131750 METAR COR EGLL 131750Z AUTO 11008KT 9999 NCD 04/03 Q0994
                        TEMPO SHRA=
201911131720 METAR COR EGLL 131720Z AUTO 11008KT 9999 NCD 05/03 Q0995
                        NOSIG=
201911131650 METAR EGLL 131650Z AUTO 14006KT 110V190 9999 NCD 06/03 Q0996=
201911131620 METAR COR EGLL 131620Z AUTO 16005KT 100V220 9999 NCD 07/03
                        Q0996 NOSIG=
201911131550 METAR COR EGLL 131550Z AUTO 18006KT 140V240 9999 NCD 08/03
                        Q0997 NOSIG=
201911131520 METAR COR EGLL 131520Z AUTO 21008KT 180V260 9999 NCD 08/03
                        Q0997 NOSIG=
201911131450 METAR COR EGLL 131450Z AUTO 21009KT 160V230 9999 NCD 08/03
                        Q0998 NOSIG=
201911131420 METAR COR EGLL 131420Z AUTO 22008KT 9999 NCD 08/03 Q0998
                        NOSIG=
201911131350 METAR COR EGLL 131350Z AUTO 23010KT 9999 NCD 08/03 Q0998
                        NOSIG=
201911131320 METAR COR EGLL 131320Z AUTO 23008KT 9999 NCD 08/03 Q0999
                        NOSIG=
201911131250 METAR COR EGLL 131250Z AUTO 24006KT 200V260 9999 SCT026 SCT034
                        09/03 Q0999 NOSIG=
201911131220 METAR COR EGLL 131220Z AUTO 23007KT 9999 NCD 09/04 Q0999
                        NOSIG=
201911131150 METAR COR EGLL 131150Z AUTO 24005KT 180V270 9999 NCD 09/04
                        Q1000 NOSIG=
201911131120 METAR COR EGLL 131120Z AUTO 25007KT 9999 NCD 09/04 Q1001
                        NOSIG=
201911131050 METAR COR EGLL 131050Z AUTO 26005KT 220V300 9999 NCD 08/04
                        Q1001 NOSIG=
201911131020 METAR COR EGLL 131020Z AUTO 26007KT 220V300 9999 NCD 07/04
                        Q1002 NOSIG=
201911130950 METAR COR EGLL 130950Z AUTO 26006KT 9999 NCD 07/04 Q1002
                        NOSIG=
201911130920 METAR COR EGLL 130920Z AUTO 26009KT 9999 NCD 06/04 Q1002
                        NOSIG=
201911130850 METAR COR EGLL 130850Z AUTO 26006KT 9999 NCD 05/04 Q1002
                        NOSIG=
201911130820 METAR COR EGLL 130820Z AUTO 22006KT 180V250 9999 NCD 04/03
                        Q1002 NOSIG=
201911130750 METAR COR EGLL 130750Z AUTO 28006KT 9999 NCD 04/03 Q1002
                        NOSIG=
201911130720 METAR COR EGLL 130720Z AUTO 28008KT 9999 NCD 04/03 Q1002
                        NOSIG=
201911130650 METAR COR EGLL 130650Z AUTO 25009KT 9999 NCD 04/03 Q1002
                        NOSIG=
201911130620 METAR COR EGLL 130620Z AUTO 24008KT 9999 NCD 04/03 Q1002
                        NOSIG=
201911130550 METAR COR EGLL 130550Z AUTO 25006KT 9999 NCD 04/03 Q1002
                        NOSIG=
201911130520 METAR COR EGLL 130520Z AUTO 26005KT 9999 NCD 05/04 Q1002
                        NOSIG=
201911130450 METAR COR EGLL 130450Z AUTO 25006KT 9999 NCD 05/04 Q1002
                        NOSIG=
201911130420 METAR COR EGLL 130420Z AUTO 26004KT 9999 NCD 04/04 Q1001
                        NOSIG=
201911130350 METAR COR EGLL 130350Z AUTO 27004KT 9999 NCD 04/03 Q1001
                        NOSIG=
201911130320 METAR COR EGLL 130320Z AUTO 26003KT 9999 BKN046 05/04 Q1001
                        NOSIG=
201911130250 METAR EGLL 130250Z AUTO VRB03KT 9999 BKN044 04/04 Q1001=
201911130220 METAR COR EGLL 130220Z AUTO 27006KT 9999 BKN045 05/04 Q1001
                        NOSIG=
201911130150 METAR COR EGLL 130150Z AUTO 29006KT 9999 NCD 05/04 Q1001
                        NOSIG=
201911130120 METAR COR EGLL 130120Z AUTO 28008KT 9999 NCD 06/05 Q1001
                        NOSIG=
201911130050 METAR COR EGLL 130050Z AUTO 29008KT 9999 NCD 06/04 Q1001
                        NOSIG=
201911130020 METAR EGLL 130020Z AUTO 28009KT 9999 SCT040 07/05 Q1001=
201911122350 METAR EGLL 122350Z AUTO 27010KT 9999 OVC042 07/05 Q1001 NOSIG=
201911122320 METAR COR EGLL 122320Z AUTO 27008KT 9999 OVC041 08/06 Q1001
                        NOSIG=
201911122250 METAR COR EGLL 122250Z AUTO 28011KT 9999 OVC040 08/06 Q1000
                        NOSIG=
201911122220 METAR COR EGLL 122220Z AUTO 28010KT 9999 OVC039 08/06 Q1000
                        NOSIG=
201911122150 METAR COR EGLL 122150Z AUTO 28011KT 9999 OVC038 08/06 Q1000
                        NOSIG=
201911122120 METAR COR EGLL 122120Z AUTO 29008KT 9999 BKN043 08/06 Q1000
                        NOSIG=
201911122050 METAR COR EGLL 122050Z AUTO 29008KT 9999 BKN043 08/06 Q0999
                        NOSIG=
201911122020 METAR COR EGLL 122020Z AUTO 28010KT 9999 OVC044 08/06 Q0999
                        NOSIG=
201911121950 METAR COR EGLL 121950Z AUTO 27009KT 9999 FEW022 SCT027 BKN045
                        08/06 Q0999 NOSIG=
201911121920 METAR COR EGLL 121920Z AUTO 28009KT 9999 -RA FEW021 BKN028
                        OVC035 08/06 Q0999 NOSIG=
201911121850 METAR COR EGLL 121850Z AUTO 28010KT 9999 -RA SCT019 BKN026
                        BKN033 08/06 Q0998 NOSIG=
201911121820 METAR COR EGLL 121820Z AUTO 28010KT 9999 BKN019 BKN030 08/06
                        Q0998 NOSIG=
201911121750 METAR COR EGLL 121750Z AUTO 28011KT 9999 FEW020 BKN025 BKN032
                        08/06 Q0998 NOSIG=
201911121720 METAR COR EGLL 121720Z AUTO 29008KT 9999 BKN021 BKN031 08/05
                        Q0997 NOSIG=
201911121650 METAR COR EGLL 121650Z AUTO 27015KT 9999 BKN024 BKN031 07/05
                        Q0997 NOSIG=
201911121620 METAR COR EGLL 121620Z AUTO 27018KT 9999 SCT023 BKN027 07/05
                        Q0997 NOSIG=
201911121550 METAR COR EGLL 121550Z AUTO 27018KT 9999 BKN033 BKN040 08/05
                        Q0997 NOSIG=
201911121520 METAR COR EGLL 121520Z AUTO 26013KT 9999 BKN025 BKN029 07/05
                        Q0997 NOSIG=
201911121450 METAR COR EGLL 121450Z AUTO 25011KT 9999 -RA BKN024 OVC031
                        07/05 Q0997 NOSIG=
201911121420 METAR COR EGLL 121420Z AUTO 24013KT 9999 -RA BKN027 OVC037
                        07/05 Q0997 NOSIG=
201911121350 METAR COR EGLL 121350Z AUTO 24013KT 9999 -RA BKN027 OVC039
                        07/04 Q0997 NOSIG=
201911121320 METAR COR EGLL 121320Z AUTO 25015KT 9999 -RA BKN022 OVC028
                        06/04 Q0997 NOSIG=
201911121250 METAR COR EGLL 121250Z AUTO 26021KT 6000 -RA BKN022/// OVC030///
                        //////TCU 07/03 Q0997 TEMPO RA=
201911121220 METAR COR EGLL 121220Z AUTO 25017G27KT 9999 -RA BKN031 OVC048
                        08/02 Q0997 NOSIG=
201911121150 METAR COR EGLL 121150Z AUTO 25017KT 9999 SCT036 08/02 Q0997
                        TEMPO RA=
201911121120 METAR COR EGLL 121120Z AUTO 25019KT 9999 NCD 09/02 Q0998
                        NOSIG=
201911121050 METAR COR EGLL 121050Z AUTO 25015KT 9999 NCD 08/02 Q0998
                        NOSIG=
201911121020 METAR COR EGLL 121020Z AUTO 25015KT 9999 NCD 07/02 Q0998
                        NOSIG=
201911120950 METAR COR EGLL 120950Z AUTO 25015KT 9999 NCD 06/02 Q0999
                        NOSIG=
201911120920 METAR EGLL 120920Z AUTO 24013KT 9999 NCD 06/02 Q0999=
201911120850 METAR COR EGLL 120850Z AUTO 24010KT 9999 NCD 05/02 Q0999
                        NOSIG=
201911120820 METAR COR EGLL 120820Z AUTO 22008KT 9999 NCD 04/02 Q0999
                        NOSIG=
201911120750 METAR COR EGLL 120750Z AUTO 21008KT 9999 NCD 03/01 Q0999
                        NOSIG=
201911120720 METAR COR EGLL 120720Z AUTO 23008KT 9999 NCD 03/01 Q0999
                        NOSIG=
201911120650 METAR COR EGLL 120650Z AUTO 24008KT 9999 NCD 04/02 Q0999
                        NOSIG=
201911120620 METAR COR EGLL 120620Z AUTO 22007KT 200V260 9999 NCD 03/02
                        Q0999 NOSIG=
201911120550 METAR COR EGLL 120550Z AUTO 22006KT 9999 NCD 04/02 Q1000
                        NOSIG=
201911120520 METAR COR EGLL 120520Z AUTO 24008KT 9999 NCD 04/02 Q1000
                        NOSIG=
201911120450 METAR COR EGLL 120450Z AUTO 25010KT 9999 NCD 05/02 Q1000
                        NOSIG=
201911120420 METAR COR EGLL 120420Z AUTO 25008KT 9999 NCD 05/02 Q1000
                        NOSIG=
201911120350 METAR COR EGLL 120350Z AUTO 26009KT 9999 NCD 05/02 Q1000
                        NOSIG=
201911120320 METAR COR EGLL 120320Z AUTO 26010KT 9999 NCD 05/02 Q1000
                        NOSIG=
201911120250 METAR COR EGLL 120250Z AUTO 25009KT 9999 NCD 05/02 Q1000
                        NOSIG=
201911120220 METAR COR EGLL 120220Z AUTO 25009KT 9999 NCD 05/03 Q1000
                        NOSIG=
201911120150 METAR COR EGLL 120150Z AUTO 25009KT 9999 NCD 06/03 Q1001
                        NOSIG=
201911120120 METAR COR EGLL 120120Z AUTO 25009KT 9999 NCD 06/03 Q1001
                        NOSIG=
201911120050 METAR COR EGLL 120050Z AUTO 24009KT 9999 NCD 05/03 Q1001
                        NOSIG=
201911120020 METAR COR EGLL 120020Z AUTO 23009KT 9999 NCD 05/03 Q1001
                        NOSIG=
201911112350 METAR EGLL 112350Z AUTO 24008KT 9999 NCD 05/03 Q1001 NOSIG=
201911112320 METAR COR EGLL 112320Z AUTO 22007KT 190V260 9999 NCD 04/03
                        Q1001 NOSIG=
201911112250 METAR COR EGLL 112250Z AUTO 23011KT 9999 NCD 05/03 Q1001
                        NOSIG=
201911112220 METAR EGLL 112220Z AUTO 24013KT 9999 NCD 05/03 Q1001=
201911112150 METAR COR EGLL 112150Z AUTO 23009KT 9999 NCD 05/03 Q1002
                        NOSIG=
201911112120 METAR COR EGLL 112120Z AUTO 24011KT 9999 NCD 05/03 Q1002
                        NOSIG=
201911112050 METAR COR EGLL 112050Z AUTO 24011KT 9999 NCD 05/02 Q1002
                        NOSIG=
201911112020 METAR COR EGLL 112020Z AUTO 24012KT 9999 NCD 06/02 Q1002
                        NOSIG=
201911111950 METAR COR EGLL 111950Z AUTO 24012KT 9999 NCD 06/02 Q1002
                        NOSIG=
201911111920 METAR COR EGLL 111920Z AUTO 25012KT 9999 NCD 07/02 Q1002
                        NOSIG=
201911111850 METAR COR EGLL 111850Z AUTO 26013KT 9999 NCD 07/02 Q1002
                        NOSIG=
201911111820 METAR COR EGLL 111820Z AUTO 22009KT 190V260 9999 NCD 07/02
                        Q1002 NOSIG=
201911111750 METAR COR EGLL 111750Z AUTO 24010KT 210V280 9999 NCD 08/02
                        Q1002 NOSIG=
201911111720 METAR COR EGLL 111720Z AUTO 25011KT 9999 BKN048 08/03 Q1002
                        NOSIG=
201911111650 METAR COR EGLL 111650Z AUTO 28010KT 9999 FEW038 SCT045 08/03
                        Q1002 NOSIG=
201911111620 METAR COR EGLL 111620Z AUTO 27013KT 9999 BKN039 BKN046 09/03
                        Q1001 NOSIG=
201911111550 METAR COR EGLL 111550Z AUTO 27013KT 9999 SCT040 BKN046 09/03
                        Q1001 NOSIG=
201911111520 METAR EGLL 111520Z AUTO 27014KT 9999 BKN037 OVC047 09/03
                        Q1001=
201911111450 METAR COR EGLL 111450Z AUTO 27012KT 9999 SCT038 09/03 Q1001
                        NOSIG=
201911111420 METAR COR EGLL 111420Z AUTO 28014KT 9999 NCD 10/03 Q1001
                        NOSIG=
201911111350 METAR COR EGLL 111350Z AUTO 28013KT 9999 BKN037 09/03 Q1002
                        NOSIG=
201911111320 METAR COR EGLL 111320Z AUTO 28015KT 9999 BKN036 09/03 Q1001
                        NOSIG=
201911111250 METAR COR EGLL 111250Z AUTO 29015KT 9999 SCT032 SCT038 10/04
                        Q1001 NOSIG=
201911111220 METAR COR EGLL 111220Z AUTO 29014KT 9999 FEW033 09/04 Q1001
                        NOSIG=
201911111150 METAR COR EGLL 111150Z AUTO 29015KT 9999 FEW029 09/04 Q1001
                        NOSIG=
201911111120 METAR COR EGLL 111120Z AUTO 28014KT 9999 FEW029 09/04 Q1002
                        NOSIG=
201911111050 METAR COR EGLL 111050Z AUTO 29015KT 9999 NCD 08/04 Q1002
                        NOSIG=
201911111020 METAR EGLL 111020Z AUTO 29014KT 9999 NCD 08/05 Q1002=
201911110950 METAR COR EGLL 110950Z AUTO 28015KT 9999 NCD 08/05 Q1001
                        NOSIG=
201911110920 METAR COR EGLL 110920Z AUTO 27013KT 9999 NCD 07/05 Q1001
                        NOSIG=
201911110850 METAR COR EGLL 110850Z AUTO 27011KT 9999 NCD 06/04 Q1001
                        NOSIG=
201911110820 METAR COR EGLL 110820Z AUTO 27009KT 9999 NCD 06/04 Q1001
                        NOSIG=
201911110750 METAR COR EGLL 110750Z AUTO 27012KT 9999 NCD 06/04 Q1001
                        NOSIG=
201911110720 METAR COR EGLL 110720Z AUTO 28013KT 9999 NCD 07/04 Q1001
                        NOSIG=
201911110650 METAR COR EGLL 110650Z AUTO 29012G22KT 9999 NCD 08/05 Q1000
                        NOSIG=
201911110620 METAR COR EGLL 110620Z AUTO 24011KT 9999 -RA SCT017 BKN022
                        BKN030 08/08 Q0999 NOSIG=
201911110550 METAR COR EGLL 110550Z AUTO 20008KT 9999 -RA FEW015 SCT024
                        BKN029 08/08 Q1000 TEMPO BKN014=
201911110520 METAR COR EGLL 110520Z AUTO 19011KT 9999 -RA FEW010/// SCT021///
                        BKN036/// //////TCU 08/07 Q1000 TEMPO
                        4000 RA BKN009=
201911110450 METAR COR EGLL 110450Z AUTO 18010KT 9999 -RA FEW011/// SCT027///
                        BKN037/// //////TCU 08/07 Q1001 TEMPO
                        4000 RA BKN009=
201911110420 METAR COR EGLL 110420Z AUTO 20010KT 9999 -RA FEW009 SCT015
                        BKN022 08/07 Q1002 TEMPO 4000 RA
                        BKN009=
201911110350 METAR COR EGLL 110350Z AUTO 18006KT 9000 -RA SCT028 OVC037
                        07/07 Q1003 TEMPO 4000 RA BKN009=
201911110320 METAR COR EGLL 110320Z AUTO 18005KT 8000 -RA OVC036 07/06
                        Q1003 TEMPO 4000 RA BKN009=
201911110250 METAR COR EGLL 110250Z AUTO 17007KT 9999 -RA FEW024/// SCT032///
                        BKN041/// //////TCU 07/05 Q1004 TEMPO
                        4000 RA BKN009=
201911110220 METAR COR EGLL 110220Z AUTO 15007KT 9999 -RA NCD 06/05 Q1005
                        TEMPO 4000 RA BKN009=
201911110150 METAR COR EGLL 110150Z AUTO 15006KT 9999 -RA FEW048 06/05
                        Q1006 TEMPO 4000 RA BKN009=
201911110120 METAR COR EGLL 110120Z AUTO 14007KT 9999 -RA BKN043 06/05
                        Q1007 TEMPO 4000 RA BKN009=
201911110050 METAR COR EGLL 110050Z AUTO 14005KT 9999 -RA BKN047 06/05
                        Q1008 TEMPO 4000 RA=
201911110020 METAR COR EGLL 110020Z AUTO 15004KT 9999 FEW047 06/05 Q1009
                        TEMPO 4000 RA=
201911102350 METAR COR EGLL 102350Z AUTO VRB02KT 9999 NCD 06/05 Q1010
                        NOSIG=
201911102320 METAR COR EGLL 102320Z AUTO VRB02KT 9999 NCD 06/05 Q1010
                        NOSIG=
201911102250 METAR COR EGLL 102250Z AUTO 15007KT 9999 NCD 06/05 Q1010
                        NOSIG=
201911102220 METAR COR EGLL 102220Z AUTO 15006KT 120V180 9999 NCD 06/05
                        Q1011 NOSIG=
201911102150 METAR COR EGLL 102150Z AUTO 19006KT 170V240 9999 NCD 06/04
                        Q1012 NOSIG=
201911102120 METAR COR EGLL 102120Z AUTO 20004KT 170V240 9999 NCD 06/05
                        Q1012 NOSIG=
201911102050 METAR COR EGLL 102050Z AUTO 22004KT 9999 NCD 06/05 Q1012
                        NOSIG=
201911102020 METAR COR EGLL 102020Z AUTO 17002KT 6000 NCD 06/04 Q1012
                        TEMPO 3000 BR=
201911101950 METAR COR EGLL 101950Z AUTO 15004KT 9000 NCD 06/05 Q1012
                        NOSIG=
201911101920 METAR COR EGLL 101920Z AUTO 14005KT 9999 NCD 06/04 Q1012
                        NOSIG=
201911101850 METAR COR EGLL 101850Z AUTO 12003KT 9999 NCD 06/04 Q1013
                        NOSIG=
201911101820 METAR COR EGLL 101820Z AUTO 09002KT 9999 NCD 06/04 Q1013
                        NOSIG=
201911101750 METAR COR EGLL 101750Z AUTO 11001KT 9999 FEW044 07/04 Q1014
                        NOSIG=
201911101720 METAR EGLL 101720Z AUTO 02001KT 9999 BKN043 09/04 Q1014 NOSIG=
201911101650 METAR COR EGLL 101650Z AUTO 36002KT 9999 BKN037 09/04 Q1014
                        NOSIG=
201911101620 METAR COR EGLL 101620Z AUTO 02003KT 9999 SCT041 09/04 Q1014
                        NOSIG=
201911101550 METAR COR EGLL 101550Z AUTO VRB03KT 9999 SCT035 10/03 Q1014
                        NOSIG=
201911101520 METAR COR EGLL 101520Z AUTO VRB03KT 9999 SCT036 10/04 Q1014
                        NOSIG=
201911101450 METAR EGLL 101450Z AUTO 05004KT 010V080 9999 NCD 10/04 Q1014
                        NOSIG=
201911101420 METAR EGLL 101420Z AUTO 05005KT 020V080 9999 FEW033 10/04
                        Q1014=
201911101350 METAR COR EGLL 101350Z AUTO 06007KT 030V090 9999 SCT030 SCT036
                        10/05 Q1014 NOSIG=
201911101320 METAR COR EGLL 101320Z AUTO 06006KT 030V100 9999 FEW025 SCT030
                        10/05 Q1014 NOSIG=
201911101250 METAR COR EGLL 101250Z AUTO 04006KT 010V080 9999 NCD 10/05
                        Q1013 NOSIG=
201911101220 METAR COR EGLL 101220Z AUTO 04006KT 350V070 9999 NCD 10/05
                        Q1013 NOSIG=
201911101150 METAR COR EGLL 101150Z AUTO 02006KT 350V060 9999 NCD 09/05
                        Q1014 NOSIG=
201911101120 METAR COR EGLL 101120Z AUTO 03006KT 350V060 9999 NCD 09/05
                        Q1014 NOSIG=
201911101050 METAR COR EGLL 101050Z AUTO 04006KT 350V060 9999 NCD 09/05
                        Q1013 NOSIG=
201911101020 METAR COR EGLL 101020Z AUTO 04006KT 340V070 9999 NCD 08/05
                        Q1013 NOSIG=
201911100950 METAR COR EGLL 100950Z AUTO 03005KT 360V070 9999 NCD 07/05
                        Q1013 NOSIG=
201911100920 METAR COR EGLL 100920Z AUTO 04004KT 010V070 9999 FEW032 07/04
                        Q1012 NOSIG=
201911100850 METAR COR EGLL 100850Z AUTO 04004KT 350V080 9999 SCT030 06/04
                        Q1012 NOSIG=
201911100820 METAR COR EGLL 100820Z AUTO 03004KT 350V060 9999 SCT021 SCT030
                        06/04 Q1011 NOSIG=
201911100750 METAR COR EGLL 100750Z AUTO 02004KT 340V060 9999 FEW023 06/05
                        Q1011 NOSIG=
201911100720 METAR COR EGLL 100720Z AUTO 04005KT 9999 FEW030 SCT042 06/05
                        Q1010 NOSIG=
201911100650 METAR COR EGLL 100650Z AUTO 05006KT 020V080 9999 SCT020 BKN025
                        BKN031 07/05 Q1010 NOSIG=
201911100620 METAR COR EGLL 100620Z AUTO 05006KT 9999 -RA FEW018 SCT026
                        OVC032 06/06 Q1009 NOSIG=
201911100550 METAR COR EGLL 100550Z AUTO 04006KT 010V080 9999 -RA FEW025
                        OVC029 07/06 Q1008 RERA REDZ TEMPO
                        4000 BKN012=
201911100520 METAR COR EGLL 100520Z AUTO 06007KT 5000 -RADZ FEW008 BKN015
                        BKN021 07/06 Q1008 RERA REDZ TEMPO
                        4000 BKN009=
201911100450 METAR COR EGLL 100450Z AUTO 04007KT 360V070 6000 -RA SCT006
                        BKN011 BKN018 07/07 Q1007 TEMPO 4000
                        BKN006=
201911100420 METAR COR EGLL 100420Z AUTO 06007KT 9000 -RA SCT011 BKN018
                        07/07 Q1006 TEMPO BKN009=
201911100350 METAR COR EGLL 100350Z AUTO 06007KT 9000 -RA BKN027/// OVC039///
                        //////TCU 07/07 Q1006 NOSIG=
201911100320 METAR COR EGLL 100320Z AUTO 06008KT 9999 -RA SCT020 BKN032
                        OVC040 07/07 Q1005 NOSIG=
201911100250 METAR COR EGLL 100250Z AUTO 06009KT 9999 -RA BKN013 OVC021
                        08/07 Q1004 TEMPO BKN008=
201911100220 METAR COR EGLL 100220Z AUTO 07008KT 9999 BKN012 OVC017 08/07
                        Q1004 TEMPO BKN009=
201911100150 METAR COR EGLL 100150Z AUTO 08007KT 9999 SCT009 BKN012 OVC031
                        08/07 Q1004 TEMPO BKN009=
201911100120 METAR COR EGLL 100120Z AUTO 11003KT 8000 BKN008 BKN011 OVC030
                        07/06 Q1003 TEMPO BKN010=
201911100050 METAR COR EGLL 100050Z AUTO 10003KT 8000 BKN013 BKN026 06/05
                        Q1003 NOSIG=
201911100020 METAR COR EGLL 100020Z AUTO 10005KT 9000 BKN014 BKN022 06/06
                        Q1002 NOSIG=
201911092350 METAR COR EGLL 092350Z AUTO 11005KT 8000 SCT012 BKN023 06/06
                        Q1002 TEMPO BKN012=
201911092320 METAR COR EGLL 092320Z AUTO 13006KT 9000 FEW007 BKN012 OVC019
                        07/07 Q1002 TEMPO BKN007=
201911092250 METAR COR EGLL 092250Z AUTO 13006KT 7000 BKN008 BKN012 OVC019
                        07/07 Q1001 TEMPO SCT008 BKN012=
201911092220 METAR COR EGLL 092220Z 15007KT 8000 -RA SCT004 OVC009 07/07
                        Q1001 TEMPO 4000=
201911092150 METAR COR EGLL 092150Z AUTO 12009KT 100V160 2300 -RADZ BKN003
                        OVC008 07/07 Q1000 TEMPO 5000 FEW003=
201911092120 METAR COR EGLL 092120Z AUTO 09010KT 9999 OVC008 07/07 Q1000
                        TEMPO 4000 BR=
201911092050 METAR COR EGLL 092050Z AUTO 09011KT 9999 SCT008 OVC012 07/07
                        Q1000 TEMPO BKN012=
201911092020 METAR COR EGLL 092020Z AUTO 08011KT 6000 -RA BKN009 OVC015
                        07/07 Q1000 TEMPO BKN012=
201911091950 METAR COR EGLL 091950Z AUTO 08010KT 7000 -RA SCT017/// BKN025///
                        OVC029/// //////TCU 07/07 Q1000 TEMPO
                        BKN014=
201911091920 METAR COR EGLL 091920Z AUTO 08010KT 9999 -RA BKN030/// BKN038///
                        //////TCU 07/07 Q1000 TEMPO 8000
                        BKN012=
201911091850 METAR COR EGLL 091850Z AUTO 08010KT 8000 -RA BKN030/// //////TCU
                        07/07 Q1000 NOSIG=
201911091820 METAR COR EGLL 091820Z AUTO 09010KT 8000 -RA FEW032 BKN039
                        BKN046 07/07 Q1001 NOSIG=
201911091750 METAR COR EGLL 091750Z AUTO 09009KT 8000 -RA SCT024 BKN035
                        BKN041 07/07 Q1001 NOSIG=
201911091720 METAR COR EGLL 091720Z AUTO 10009KT 8000 -RA FEW021/// SCT027///
                        BKN034/// //////TCU 07/07 Q1001 TEMPO
                        TEMPO 4000 RA BKN014=
201911091650 METAR COR EGLL 091650Z AUTO 10009KT 6000 -RA SCT013/// BKN017///
                        BKN024/// //////TCU 07/06 Q1001 TEMPO
                        4000 RA BKN012=
201911091620 METAR COR EGLL 091620Z AUTO 09010KT 7000 -RA SCT018/// BKN026///
                        OVC032/// //////TCU 07/06 Q1001 TEMPO
                        4000 RA BKN012=
201911091550 METAR COR EGLL 091550Z AUTO 09008KT 7000 -RA SCT018/// BKN024///
                        OVC035/// //////CB 07/06 Q1002 TEMPO
                        4000 RA=
201911091520 METAR COR EGLL 091520Z AUTO 09010KT 7000 -RA SCT024/// OVC029///
                        //////TCU 07/06 Q1002 TEMPO 4000
                        RA=
201911091450 METAR COR EGLL 091450Z AUTO 09009KT 8000 -RA FEW017/// SCT022///
                        BKN028/// //////CB 07/06 Q1002 TEMPO
                        4000 RA=
201911091420 METAR COR EGLL 091420Z AUTO 09008KT 9000 -RA SCT020/// OVC031///
                        //////TCU 07/06 Q1003 TEMPO 4000
                        RA=
201911091350 METAR COR EGLL 091350Z AUTO 10007KT 7000 -RA BKN023/// OVC031///
                        //////TCU 07/06 Q1003 TEMPO RA=
201911091320 METAR COR EGLL 091320Z AUTO 10006KT 8000 -RA SCT025/// BKN030///
                        OVC048/// //////TCU 07/06 Q1004 TEMPO
                        RA=
201911091250 METAR EGLL 091250Z AUTO 11007KT 9999 -RA FEW038 SCT046 07/05
                        Q1004=
201911091220 METAR COR EGLL 091220Z AUTO 10006KT 9999 SCT027 07/05 Q1005
                        NOSIG=
201911091150 METAR COR EGLL 091150Z AUTO 12007KT 9999 SCT031 07/05 Q1005
                        NOSIG=
201911091120 METAR COR EGLL 091120Z AUTO 13005KT 090V160 9999 NCD 06/05
                        Q1006 NOSIG=
201911091050 METAR COR EGLL 091050Z AUTO 08005KT 6000 NCD 05/05 Q1007
                        NOSIG=
201911091020 METAR EGLL 091020Z AUTO 09004KT 060V120 3500 BR SCT001 04/03
                        Q1007=
201911090950 METAR COR EGLL 090950Z 08005KT 1800 0800E R09L/P1500 R09R/P1500
                        BR BCFG VV/// 03/03 Q1008 TEMPO 1400
                        BKN003=
201911090920 METAR COR EGLL 090920Z 14004KT 3500 1200E R09L/P1500 R09R/P1500
                        BR NSC 02/02 Q1008 TEMPO 1400 BKN003=
201911090850 METAR COR EGLL 090850Z VRB02KT 1200 0500E R27L/0225 R27R/P1500
                        BR BCFG NSC 02/02 Q1009 TEMPO 0300
                        FG OVC001=
201911090820 METAR EGLL 090820Z 06002KT 0300 R27L/0225 R27R/0450 FG VV///
                        01/01 Q1009=
201911090750 METAR COR EGLL 090750Z VRB03KT 0700 R27L/0400 R27R/P1500
                        FG VV/// 01/01 Q1009 TEMPO 0400=
201911090720 METAR COR EGLL 090720Z VRB03KT 3000 0800W R27L/0250 R27R/1400
                        BR BCFG NSC 01/01 Q1010 TEMPO 0800
                        FG=
201911090650 METAR COR EGLL 090650Z VRB03KT 2000 0250S R27L/0275 R27R/P1500
                        BR BCFG NSC M00/M00 Q1010 TEMPO 0250
                        FG=
201911090620 METAR COR EGLL 090620Z 21004KT 180V250 2000 0250S R27L/0650
                        R27R/P1500 BR PRFG SCT003 M00/M00
                        Q1010 TEMPO 0250 FG=
201911090550 METAR COR EGLL 090550Z AUTO VRB01KT 3100 BR NCD 01/01 Q1010
                        TEMPO 1400=
201911090520 METAR COR EGLL 090520Z AUTO VRB02KT 3000 BR NCD 01/01 Q1010
                        TEMPO 1400=
201911090450 METAR COR EGLL 090450Z AUTO 27003KT 4300 BR NCD 02/01 Q1011
                        NOSIG=
201911090420 METAR COR EGLL 090420Z AUTO VRB02KT 3800 BR NCD 02/02 Q1011
                        NOSIG=
201911090350 METAR COR EGLL 090350Z AUTO 28003KT 3200 BR NCD 02/01 Q1011
                        NOSIG=
201911090320 METAR COR EGLL 090320Z AUTO 29004KT 5000 BR NCD 01/01 Q1011
                        BECMG 4000 BR=
201911090250 METAR COR EGLL 090250Z AUTO 28005KT 6000 NCD 02/02 Q1012
                        NOSIG=
201911090220 METAR COR EGLL 090220Z AUTO 29005KT 7000 NCD 02/01 Q1012
                        NOSIG=
201911090150 METAR COR EGLL 090150Z AUTO 29003KT 9000 NCD 02/02 Q1012
                        NOSIG=
201911090120 METAR COR EGLL 090120Z AUTO 29004KT 9999 NCD 03/03 Q1012
                        NOSIG=
201911090050 METAR COR EGLL 090050Z AUTO 29005KT 9999 NCD 04/03 Q1012
                        NOSIG=
201911090020 METAR COR EGLL 090020Z AUTO 29003KT 9999 NCD 03/02 Q1011
                        NOSIG=
201911082350 METAR COR EGLL 082350Z AUTO VRB03KT 9999 NCD 04/03 Q1012
                        NOSIG=
201911082320 METAR COR EGLL 082320Z AUTO 29004KT 9999 NCD 05/04 Q1012
                        NOSIG=
201911082250 METAR COR EGLL 082250Z AUTO 28005KT 9999 FEW049 05/04 Q1012
                        NOSIG=
201911082220 METAR COR EGLL 082220Z AUTO VRB03KT 9999 BKN048 06/04 Q1012
                        NOSIG=
201911082150 METAR EGLL 082150Z AUTO 29006KT 9999 FEW017 BKN044 06/05
                        Q1012=
201911082120 METAR COR EGLL 082120Z AUTO 30004KT 9999 SCT031/// OVC039///
                        //////TCU 06/04 Q1012 NOSIG=
201911082050 METAR COR EGLL 082050Z AUTO 31005KT 9999 BKN021/// BKN029///
                        OVC042/// //////TCU 07/04 Q1011 NOSIG=
201911082020 METAR COR EGLL 082020Z AUTO 33006KT 310V020 9999 -RA BKN023///
                        BKN031/// //////CB 07/04 Q1011 TEMPO
                        RA BKN014=
201911081950 METAR COR EGLL 081950Z AUTO 32006KT 290V020 9999 BKN016 BKN020
                        07/05 Q1011 TEMPO RA BKN014=
201911081920 METAR EGLL 081920Z AUTO 31005KT 290V360 9999 SCT019 SCT024
                        BKN032 07/04 Q1011=
201911081850 METAR COR EGLL 081850Z AUTO 31005KT 9999 FEW030 BKN040 BKN049
                        07/04 Q1011 TEMPO RA BKN014=
201911081820 METAR COR EGLL 081820Z AUTO 29005KT 9999 SCT035 07/04 Q1011
                        TEMPO -RA BKN014=
201911081750 METAR COR EGLL 081750Z AUTO 30004KT 9999 BKN044 08/04 Q1010
                        TEMPO -RA BKN014=
201911081720 METAR COR EGLL 081720Z AUTO 30006KT 9999 BKN034 BKN044 08/03
                        Q1010 NOSIG=
201911081650 METAR COR EGLL 081650Z AUTO 31006KT 280V340 9999 BKN036 08/03
                        Q1010 NOSIG=
201911081620 METAR COR EGLL 081620Z AUTO 32005KT 290V010 9999 OVC033 08/04
                        Q1009 NOSIG=
201911081550 METAR COR EGLL 081550Z AUTO 32006KT 290V010 9999 BKN030 09/04
                        Q1009 NOSIG=
201911081520 METAR COR EGLL 081520Z AUTO 32007KT 9999 BKN024 09/04 Q1009
                        NOSIG=
201911081450 METAR COR EGLL 081450Z AUTO 33006KT 290V010 9999 FEW023 BKN027
                        09/04 Q1008 NOSIG=
201911081420 METAR COR EGLL 081420Z AUTO 36005KT 300V060 9999 BKN020 BKN026
                        09/05 Q1008 NOSIG=
201911081350 METAR COR EGLL 081350Z AUTO 33006KT 300V030 9999 SCT042 08/05
                        Q1008 NOSIG=
201911081320 METAR COR EGLL 081320Z AUTO 34006KT 300V030 9999 SCT033 OVC041
                        08/06 Q1008 NOSIG=
201911081250 METAR COR EGLL 081250Z AUTO 34005KT 300V020 9999 -RA SCT011
                        OVC027 08/06 Q1007 NOSIG=
201911081220 METAR COR EGLL 081220Z AUTO 34004KT 290V030 9999 BKN011 BKN020
                        OVC046 08/07 Q1007 TEMPO SCT011=
201911081150 METAR COR EGLL 081150Z VRB03KT 7000 SCT012 BKN018 07/06 Q1007
                        NOSIG=
201911081120 METAR COR EGLL 081120Z 32004KT 290V360 5000 BR SCT005 BKN010
                        BKN030 06/06 Q1007 BECMG 9999 NSW
                        SCT012=
201911081050 METAR COR EGLL 081050Z VRB03KT 3200 BR SCT002 BKN006 05/05
                        Q1007 BECMG 5000=
201911081020 METAR COR EGLL 081020Z VRB02KT 1200 R27L/0450 R27R/0600 BR
                        BKN001 05/04 Q1007 BECMG 1500 BR
                        BKN003=
201911080950 METAR COR EGLL 080950Z VRB03KT 0500 R27L/0500 R27R/0650 FG
                        BKN000 04/04 Q1006 TEMPO 0800=
201911080920 METAR COR EGLL 080920Z VRB02KT 1000 R27L/P1500 R27R/P1500
                        BR BKN001 03/03 Q1006 TEMPO 0800
                        FG=
201911080850 METAR COR EGLL 080850Z VRB03KT 0900 R27L/P1500 R27R/1000
                        FG BKN000 02/02 Q1005 BECMG 1500
                        BR BKN002=
201911080820 METAR COR EGLL 080820Z 31005KT 9999 3000SW VCFG SCT001 02/02
                        Q1005 TEMPO 0700 FG=
201911080750 METAR COR EGLL 080750Z 30004KT 9000 4000S VCFG FEW001 01/01
                        Q1005 NOSIG=
201911080720 METAR COR EGLL 080720Z 32003KT 8000 0700SW R27L/P1500 R27R/P1500
                        BCFG FEW001 01/01 Q1004 TEMPO 0700
                        FG=
201911080650 METAR COR EGLL 080650Z VRB02KT 7000 0700SW R27L/1100 R27R/P1500
                        BCFG FEW000 M00/M00 Q1003 TEMPO 0700
                        FG=
201911080620 METAR COR EGLL 080620Z VRB02KT 3000 0300E R27L/0500 R27R/1000
                        BR PRFG FEW000 01/01 Q1003 TEMPO
                        0300 FG=
201911080550 METAR COR EGLL 080550Z VRB01KT 0400 R27L/0400 FG SCT000 01/01
                        Q1002 TEMPO 0300=
201911080520 METAR COR EGLL 080520Z VRB02KT 0300 R27L/0250 FG VV/// 01/01
                        Q1002 TEMPO 0500=
201911080450 METAR COR EGLL 080450Z 26002KT 8000 0500S R27L/0450 PRFG
                        FEW001 01/00 Q1002 TEMPO 0500 FG=
201911080420 METAR COR EGLL 080420Z 29003KT 6000 0400S R27L/0350 PRFG
                        FEW001 01/00 Q1001 TEMPO 0400 FG=
201911080350 METAR COR EGLL 080350Z AUTO 30002KT 6000 NCD 01/01 Q1001
                        BECMG 3000 BR=
201911080320 METAR COR EGLL 080320Z AUTO 00000KT 7000 NCD 01/01 Q1000
                        TEMPO 4000 BR=
201911080250 METAR COR EGLL 080250Z AUTO VRB01KT 8000 NCD 02/01 Q1000
                        NOSIG=
201911080220 METAR COR EGLL 080220Z AUTO 34004KT 7000 NCD 02/02 Q1000
                        NOSIG=
201911080150 METAR COR EGLL 080150Z AUTO 34002KT 9000 NCD 03/02 Q1000
                        NOSIG=
201911080120 METAR COR EGLL 080120Z VRB01KT 8000 NSC 03/03 Q0999 NOSIG=
201911080050 METAR COR EGLL 080050Z AUTO 23001KT 9999 NCD 03/02 Q0999
                        NOSIG=
201911080020 METAR COR EGLL 080020Z AUTO 12001KT 9999 SCT032 03/03 Q0999
                        NOSIG=
201911072350 METAR COR EGLL 072350Z AUTO VRB01KT 9999 NCD 04/03 Q0999
                        NOSIG=
201911072320 METAR COR EGLL 072320Z AUTO 35001KT 9999 NCD 04/03 Q0998
                        NOSIG=
201911072250 METAR COR EGLL 072250Z AUTO 20001KT 9999 NCD 04/03 Q0998
                        NOSIG=
201911072220 METAR EGLL 072220Z AUTO VRB03KT 9999 NCD 04/03 Q0998=
201911072150 METAR COR EGLL 072150Z AUTO VRB02KT 9999 NCD 04/03 Q0998
                        NOSIG=
201911072120 METAR COR EGLL 072120Z AUTO 23004KT 190V260 9999 NCD 06/04
                        Q0997 NOSIG=
201911072050 METAR COR EGLL 072050Z AUTO 21005KT 180V260 9999 NCD 06/04
                        Q0997 NOSIG=
201911072020 METAR COR EGLL 072020Z AUTO 21006KT 190V270 9999 NCD 06/04
                        Q0997 NOSIG=
201911071950 METAR COR EGLL 071950Z AUTO 21007KT 190V250 9999 NCD 06/04
                        Q0996 NOSIG=
201911071920 METAR COR EGLL 071920Z AUTO 20007KT 9999 NCD 06/04 Q0996
                        NOSIG=
201911071850 METAR COR EGLL 071850Z AUTO 21006KT 9999 NCD 06/04 Q0996
                        NOSIG=
201911071820 METAR COR EGLL 071820Z AUTO 20006KT 150V240 9999 FEW037 07/04
                        Q0995 NOSIG=
201911071750 METAR COR EGLL 071750Z AUTO 21007KT 190V250 9999 FEW036 08/04
                        Q0995 NOSIG=
201911071720 METAR COR EGLL 071720Z AUTO 22006KT 190V250 9999 FEW038 SCT045
                        08/04 Q0995 NOSIG=
201911071650 METAR COR EGLL 071650Z AUTO 22005KT 9999 NCD 08/03 Q0994
                        NOSIG=
201911071620 METAR COR EGLL 071620Z AUTO 23007KT 9999 NCD 09/04 Q0994
                        NOSIG=
201911071550 METAR COR EGLL 071550Z AUTO 23009KT 9999 NCD 10/03 Q0994
                        NOSIG=
201911071520 METAR COR EGLL 071520Z AUTO 25009KT 9999 NCD 10/03 Q0994
                        NOSIG=
201911071450 METAR COR EGLL 071450Z AUTO 26011KT 9999 FEW035 10/04 Q0993
                        NOSIG=
201911071420 METAR COR EGLL 071420Z AUTO 24013KT 9999 SCT032 10/04 Q0993
                        NOSIG=
201911071350 METAR COR EGLL 071350Z AUTO 25012KT 9999 FEW031 10/04 Q0993
                        NOSIG=
201911071320 METAR COR EGLL 071320Z AUTO 25013KT 9999 FEW031 11/05 Q0993
                        NOSIG=
201911071250 METAR COR EGLL 071250Z AUTO 25016KT 9999 NCD 10/05 Q0993
                        NOSIG=
201911071220 METAR COR EGLL 071220Z AUTO 25015KT 9999 NCD 10/04 Q0992
                        NOSIG=
201911071150 METAR COR EGLL 071150Z AUTO 25013KT 9999 FEW025 10/05 Q0992
                        NOSIG=
201911071120 METAR COR EGLL 071120Z AUTO 26013KT 9999 FEW021 10/06 Q0992
                        NOSIG=
201911071050 METAR COR EGLL 071050Z AUTO 26015KT 9999 FEW019 09/05 Q0992
                        NOSIG=
201911071020 METAR COR EGLL 071020Z AUTO 26013KT 9999 NCD 08/06 Q0992
                        NOSIG=
201911070950 METAR COR EGLL 070950Z AUTO 26012KT 9999 NCD 08/06 Q0992
                        NOSIG=
201911070920 METAR COR EGLL 070920Z AUTO 26012KT 9999 FEW013 08/06 Q0992
                        NOSIG=
201911070850 METAR COR EGLL 070850Z AUTO 25010KT 9999 BKN011 07/06 Q0992
                        NOSIG=
201911070820 METAR COR EGLL 070820Z AUTO 25010KT 9999 FEW023 07/06 Q0991
                        NOSIG=
201911070750 METAR COR EGLL 070750Z AUTO 27010KT 9999 FEW013 BKN021 BKN027
                        07/06 Q0991 NOSIG=
201911070720 METAR COR EGLL 070720Z AUTO 26013KT 9999 FEW011 OVC016 07/06
                        Q0991 NOSIG=
201911070650 METAR COR EGLL 070650Z AUTO 25011KT 9999 BKN012 OVC022 08/06
                        Q0990 TEMPO FEW012=
201911070620 METAR COR EGLL 070620Z AUTO 25011KT 9999 BKN014 08/07 Q0990
                        NOSIG=
201911070550 METAR COR EGLL 070550Z AUTO 24010KT 9999 SCT011 BKN019 07/07
                        Q0990 TEMPO BKN011=
201911070520 METAR COR EGLL 070520Z AUTO 24009KT 9999 FEW014 08/07 Q0990
                        TEMPO BKN010=
201911070450 METAR COR EGLL 070450Z AUTO 25012KT 9999 FEW017/// SCT033///
                        //////CB 08/07 Q0990 NOSIG=
201911070420 METAR COR EGLL 070420Z AUTO 22008KT 9999 -RA FEW005/// SCT010///
                        BKN014/// //////TCU 09/08 Q0989 RERA
                        REDZ BECMG FEW14=
201911070350 METAR COR EGLL 070350Z AUTO 12009KT 4000 RADZ SCT008/// BKN013///
                        BKN020/// //////CB 09/09 Q0989 BECMG
                        27012KT 9999 NSW BKN008=
201911070320 METAR COR EGLL 070320Z AUTO 19008KT 150V220 9999 SCT012///
                        //////CB 09/08 Q0990 BECMG 27012KT
                        BKN010=
201911070250 METAR COR EGLL 070250Z AUTO 11015KT 9999 -RA FEW015/// SCT028///
                        BKN046/// //////CB 08/08 Q0990 RERA
                        BECMG 27009KT=
201911070220 METAR COR EGLL 070220Z 10007KT 5000 +RA SCT016CB BKN022 08/08
                        Q0991 RERA TEMPO 4000 BKN012=
201911070150 METAR COR EGLL 070150Z 09007KT 7000 RA SCT020CB BKN031 08/08
                        Q0992 TEMPO 3000 +RA BKN012=
201911070120 METAR COR EGLL 070120Z 11008KT 8000 RA FEW029CB BKN033 OVC041
                        08/08 Q0992 TEMPO 3000 +RA BKN012=
201911070050 METAR COR EGLL 070050Z 12010KT 6000 RA SCT023CB BKN029 09/08
                        Q0993 TEMPO 3000 +RA BKN012=
201911070020 METAR COR EGLL 070020Z AUTO 11011KT 9999 -RA BKN031 BKN043
                        08/07 Q0994 TEMPO 3000 +RA BKN012=
201911062350 METAR COR EGLL 062350Z AUTO 13009KT 9999 -RA SCT034/// BKN041///
                        //////TCU 09/07 Q0994 TEMPO 3000
                        +RA BKN012=
201911062320 METAR COR EGLL 062320Z AUTO 14008KT 9999 BKN038 09/07 Q0995
                        TEMPO 4000 RA=
201911062250 METAR COR EGLL 062250Z AUTO 12007KT 9999 BKN044 08/06 Q0996
                        TEMPO 4000 RA=
201911062220 METAR COR EGLL 062220Z AUTO 13007KT 9999 SCT049 08/06 Q0996
                        TEMPO 4000 RA=
201911062150 METAR COR EGLL 062150Z AUTO 12008KT 9999 NCD 07/05 Q0997
                        NOSIG=
201911062120 METAR COR EGLL 062120Z AUTO 11006KT 9999 SCT036 BKN043 07/05
                        Q0998 NOSIG=
201911062050 METAR COR EGLL 062050Z AUTO 11007KT 9999 -RA FEW046 07/06
                        Q0998 NOSIG=
201911062020 METAR COR EGLL 062020Z AUTO 11006KT 9999 SCT036 BKN046 07/06
                        Q0999 NOSIG=
201911061950 METAR COR EGLL 061950Z AUTO 11005KT 9999 BKN035 OVC045 07/06
                        Q0999 NOSIG=
201911061920 METAR COR EGLL 061920Z AUTO 13006KT 9999 -RA SCT040 BKN046
                        07/06 Q1000 NOSIG=
201911061850 METAR COR EGLL 061850Z AUTO 14005KT 9999 -RA BKN038 08/05
                        Q1000 NOSIG=
201911061820 METAR COR EGLL 061820Z AUTO 15005KT 9999 -RA OVC038 08/05
                        Q1001 NOSIG=
201911061750 METAR COR EGLL 061750Z AUTO 15006KT 9999 BKN042 08/06 Q1001
                        NOSIG=
201911061720 METAR COR EGLL 061720Z AUTO 16006KT 9999 NCD 08/06 Q1001
                        NOSIG=
201911061650 METAR COR EGLL 061650Z AUTO 15005KT 9999 -RA FEW042 08/05
                        Q1002 NOSIG=
201911061620 METAR COR EGLL 061620Z AUTO 15005KT 9999 -RA SCT043 08/06
                        Q1002 NOSIG=
201911061550 METAR COR EGLL 061550Z AUTO 15006KT 9999 -RA NCD 09/06 Q1002
                        NOSIG=
201911061520 METAR COR EGLL 061520Z AUTO 15005KT 9999 NCD 09/06 Q1003
                        NOSIG=
201911061450 METAR COR EGLL 061450Z AUTO 17005KT 120V240 9999 NCD 09/05
                        Q1003 NOSIG=
201911061420 METAR COR EGLL 061420Z AUTO 16005KT 110V210 9999 NCD 09/05
                        Q1003 NOSIG=
201911061350 METAR COR EGLL 061350Z AUTO 18005KT 130V250 9999 NCD 09/05
                        Q1004 NOSIG=
201911061320 METAR COR EGLL 061320Z AUTO 18006KT 150V240 9999 NCD 09/05
                        Q1004 NOSIG=
201911061250 METAR COR EGLL 061250Z AUTO 21007KT 160V250 9999 NCD 09/05
                        Q1004 NOSIG=
201911061220 METAR COR EGLL 061220Z AUTO 22005KT 180V250 9999 NCD 09/05
                        Q1005 NOSIG=
201911061150 METAR COR EGLL 061150Z AUTO 21005KT 170V260 9999 NCD 09/05
                        Q1005 NOSIG=
201911061120 METAR COR EGLL 061120Z AUTO 20005KT 140V260 9000 NCD 09/05
                        Q1005 NOSIG=
201911061050 METAR COR EGLL 061050Z AUTO 20004KT 130V240 9000 NCD 09/05
                        Q1006 NOSIG=
201911061020 METAR COR EGLL 061020Z AUTO VRB03KT 8000 NCD 07/05 Q1006
                        NOSIG=
201911060950 METAR COR EGLL 060950Z AUTO 29004KT 240V320 7000 NCD 07/05
                        Q1006 NOSIG=
201911060920 METAR COR EGLL 060920Z AUTO VRB02KT 6000 NCD 06/05 Q1006
                        NOSIG=
201911060850 METAR COR EGLL 060850Z AUTO VRB03KT 5000 BR NCD 05/05 Q1007
                        NOSIG=
201911060820 METAR COR EGLL 060820Z AUTO VRB03KT 5000 BR NCD 04/04 Q1007
                        NOSIG=
201911060750 METAR COR EGLL 060750Z AUTO 26004KT 220V290 3300 BR FEW009
                        04/04 Q1007 BECMG 6000 NSW=
201911060720 METAR COR EGLL 060720Z AUTO VRB02KT 3400 HZ NCD 03/02 Q1006
                        BECMG 5000=
201911060650 METAR COR EGLL 060650Z AUTO VRB02KT 5000 HZ NCD 05/04 Q1006
                        NOSIG=
201911060620 METAR COR EGLL 060620Z AUTO 30004KT 5000 BR NCD 04/04 Q1006
                        NOSIG=
201911060550 METAR COR EGLL 060550Z 30004KT 6000 NSC 04/03 Q1006 NOSIG=
201911060520 METAR COR EGLL 060520Z AUTO 30004KT 5000 HZ NCD 04/03 Q1006
                        TEMPO 4000 BR=
201911060450 METAR COR EGLL 060450Z AUTO 30004KT 7000 NCD 05/04 Q1006
                        NOSIG=
201911060420 METAR COR EGLL 060420Z AUTO 29005KT 8000 NCD 05/04 Q1006
                        NOSIG=
201911060350 METAR COR EGLL 060350Z AUTO 29005KT 9999 NCD 05/04 Q1006
                        NOSIG=
201911060320 METAR COR EGLL 060320Z AUTO 28005KT 9999 NCD 04/03 Q1006
                        NOSIG=
201911060250 METAR COR EGLL 060250Z AUTO 29004KT 9999 NCD 05/04 Q1006
                        NOSIG=
201911060220 METAR COR EGLL 060220Z AUTO VRB03KT 9999 NCD 05/04 Q1006
                        NOSIG=
201911060150 METAR EGLL 060150Z AUTO 30002KT 9999 NCD 06/05 Q1006 NOSIG=
201911060120 METAR COR EGLL 060120Z AUTO 30004KT 9999 NCD 06/05 Q1006
                        NOSIG=
201911060050 METAR EGLL 060050Z AUTO 32004KT 280V010 9999 NCD 07/05 Q1006
                        NOSIG=
201911060020 METAR COR EGLL 060020Z AUTO 34005KT 300V020 9999 NCD 08/06
                        Q1006 NOSIG=
201911052350 METAR COR EGLL 052350Z AUTO 36006KT 330V040 9999 BKN015 08/06
                        Q1005 NOSIG=
201911052320 METAR COR EGLL 052320Z AUTO 36009KT 320V040 9999 BKN014 OVC026
                        09/07 Q1005 BECMG FEW014=
201911052250 METAR COR EGLL 052250Z AUTO 36006KT 330V070 9999 SCT015 OVC022
                        10/07 Q1005 TEMPO BKN012=
201911052220 METAR COR EGLL 052220Z AUTO 36007KT 330V040 9999 SCT013 OVC018
                        10/08 Q1005 NOSIG=
201911052150 METAR COR EGLL 052150Z AUTO 35007KT 310V030 9999 BKN011 OVC023
                        10/08 Q1005 NOSIG=
201911052120 METAR COR EGLL 052120Z AUTO 36006KT 330V040 9999 BKN013 BKN020
                        10/08 Q1005 NOSIG=
201911052050 METAR COR EGLL 052050Z AUTO 36007KT 320V030 9999 BKN011 BKN016
                        OVC022 10/09 Q1004 TEMPO BKN009=
201911052020 METAR COR EGLL 052020Z AUTO 36007KT 310V020 9999 BKN011 OVC042
                        10/09 Q1004 TEMPO BKN009=
201911051950 METAR COR EGLL 051950Z AUTO 36008KT 330V040 9999 BKN009 OVC016
                        11/09 Q1003 TEMPO SCT009 BKN012=
201911051920 METAR COR EGLL 051920Z AUTO 36008KT 300V030 9000 -RA BKN010
                        OVC019 11/10 Q1003 TEMPO BKN009=
201911051850 METAR COR EGLL 051850Z AUTO 01008KT 340V040 9999 SCT012 BKN016
                        BKN026 11/09 Q1003 TEMPO BKN012=
201911051820 METAR COR EGLL 051820Z AUTO 36007KT 330V030 9999 -RA SCT015
                        BKN023 BKN028 11/10 Q1002 TEMPO BKN014=
201911051750 METAR COR EGLL 051750Z AUTO 36006KT 330V030 9999 BKN014 11/10
                        Q1002 TEMPO BKN009=
201911051720 METAR COR EGLL 051720Z AUTO 35006KT 310V030 9999 SCT016 BKN042
                        11/09 Q1001 TEMPO RADZ BKN014=
201911051650 METAR COR EGLL 051650Z AUTO 36007KT 320V030 9999 SCT017 BKN023
                        BKN035 12/10 Q1001 TEMPO SHRA BKN014=
201911051620 METAR COR EGLL 051620Z AUTO 35006KT 300V040 9999 -RA SCT018
                        BKN031 BKN045 12/10 Q1000 TEMPO SHRA
                        BKN014=
201911051550 METAR COR EGLL 051550Z AUTO 35004KT 310V030 9999 FEW026 SCT045
                        12/11 Q1000 TEMPO SHRA BKN014=
201911051520 METAR COR EGLL 051520Z AUTO 36005KT 320V100 9999 NCD 12/11
                        Q1000 TEMPO SHRA BKN014=
201911051450 METAR COR EGLL 051450Z AUTO 36005KT 330V030 9999 -RA NCD
                        12/11 Q0999 TEMPO SHRA=
201911051420 METAR COR EGLL 051420Z AUTO 36006KT 320V050 8000 -RA SCT031///
                        BKN043/// //////CB 12/10 Q0999 TEMPO
                        SHRA BKN014=
201911051350 METAR COR EGLL 051350Z AUTO 35005KT 300V030 9999 -RA FEW015///
                        BKN038/// //////CB 12/11 Q0998 TEMPO
                        SHRA BKN014=
201911051320 METAR COR EGLL 051320Z AUTO 36006KT 330V030 9999 SCT012///
                        //////TCU 13/11 Q0998 TEMPO SHRA
                        BKN012=
201911051250 METAR COR EGLL 051250Z AUTO 36005KT 310V030 9999 -RA SCT011
                        BKN021 12/11 Q0998 TEMPO BKN011=
201911051220 METAR COR EGLL 051220Z AUTO 36005KT 330V040 9999 SCT011 BKN017
                        BKN025 11/10 Q0997 TEMPO BKN011=
201911051150 METAR COR EGLL 051150Z AUTO 35004KT 310V030 9999 SCT008 BKN011
                        OVC019 11/10 Q0997 TEMPO -SHRA BKN008=
201911051120 METAR COR EGLL 051120Z AUTO VRB03KT 7000 SCT007 BKN010 BKN018
                        11/10 Q0997 TEMPO -SHRA BKN009=
201911051050 METAR COR EGLL 051050Z 34004KT 300V040 6000 BKN007 BKN012
                        10/10 Q0997 BECMG BKN012=
201911051020 METAR COR EGLL 051020Z VRB03KT 7000 BKN007 10/10 Q0997 BECMG
                        BKN010=
201911050950 METAR COR EGLL 050950Z VRB03KT 2300 DZ SCT004 BKN007 10/09
                        Q0996 RERA BECMG 6000 -RA BKN010=
201911050920 METAR COR EGLL 050920Z AUTO 14001KT 6000 BKN006 OVC011 09/09
                        Q0996 BECMG BKN011=
201911050850 METAR COR EGLL 050850Z AUTO VRB02KT 7000 BKN006 OVC010 09/08
                        Q0996 BECMG BKN010=
201911050820 METAR COR EGLL 050820Z AUTO 06004KT 010V100 8000 OVC006 09/08
                        Q0995 NOSIG=
201911050750 METAR COR EGLL 050750Z AUTO 03004KT 340V100 8000 OVC006 08/08
                        Q0995 NOSIG=
201911050720 METAR COR EGLL 050720Z AUTO 36006KT 320V020 8000 BKN005 OVC011
                        08/08 Q0994 BECMG BKN010=
201911050650 METAR COR EGLL 050650Z AUTO 36006KT 330V030 8000 BKN005 OVC016
                        08/08 Q0994 TEMPO SCT005=
201911050620 METAR COR EGLL 050620Z AUTO 36007KT 330V030 8000 BKN005 BKN019
                        OVC048 08/08 Q0993 TEMPO SCT005=
201911050550 METAR COR EGLL 050550Z AUTO 36005KT 320V030 7000 BKN018 08/08
                        Q0992 NOSIG=
201911050520 METAR COR EGLL 050520Z AUTO 02004KT 340V070 7000 BKN012 09/08
                        Q0992 TEMPO 4000 BR BKN004=
201911050450 METAR COR EGLL 050450Z AUTO 02005KT 340V060 5000 BR SCT005
                        BKN011 08/08 Q0992 TEMPO BKN004=
201911050420 METAR COR EGLL 050420Z AUTO 02004KT 330V060 3700 BR BKN003
                        OVC012 08/08 Q0991 TEMPO 5000 BKN006=
201911050350 METAR COR EGLL 050350Z AUTO VRB03KT 2900 BR OVC002 08/08
                        Q0991 NOSIG=
201911050320 METAR COR EGLL 050320Z 04004KT 020V080 4000 BR OVC002 08/08
                        Q0991 TEMPO 1400 BKN001=
201911050250 METAR COR EGLL 050250Z 04004KT 350V070 2000 R09R/1200 BR
                        OVC001 07/07 Q0990 TEMPO BKN002=
201911050220 METAR EGLL 050220Z 03004KT 360V070 1000 BR BKN001 OVC047
                        07/07 Q0990=
201911050150 METAR COR EGLL 050150Z AUTO 01005KT 340V050 2700 BR SCT001
                        BKN044 07/06 Q0990 TEMPO 5000=
201911050120 METAR COR EGLL 050120Z AUTO 02005KT 350V050 5000 BR FEW001
                        SCT025 BKN044 07/07 Q0989 TEMPO 4000=
201911050050 METAR COR EGLL 050050Z AUTO 36004KT 330V040 6000 BKN025 BKN033
                        07/07 Q0989 NOSIG=
201911050020 METAR COR EGLL 050020Z AUTO 03003KT 8000 BKN025 BKN030 BKN048
                        08/07 Q0989 NOSIG=
201911042350 METAR COR EGLL 042350Z AUTO 04004KT 8000 SCT028 SCT035 08/07
                        Q0988 TEMPO 9999=
201911042320 METAR COR EGLL 042320Z AUTO 04004KT 6000 FEW024 07/07 Q0988
                        NOSIG=
201911042250 METAR COR EGLL 042250Z AUTO 02003KT 6000 FEW021 SCT025 07/07
                        Q0988 NOSIG=
201911042220 METAR COR EGLL 042220Z AUTO 04004KT 8000 NCD 09/08 Q0987
                        NOSIG=
201911042150 METAR COR EGLL 042150Z AUTO 04004KT 8000 FEW033 SCT044 09/08
                        Q0987 NOSIG=
201911042120 METAR COR EGLL 042120Z AUTO 08003KT 7000 SCT045 08/07 Q0987
                        NOSIG=
201911042050 METAR COR EGLL 042050Z AUTO 06003KT 8000 NCD 07/07 Q0987
                        NOSIG=
201911042020 METAR COR EGLL 042020Z 08004KT 9999 NSC 06/06 Q0986 NOSIG=
201911041950 METAR COR EGLL 041950Z AUTO 04003KT 9999 NCD 08/08 Q0986
                        NOSIG=
201911041920 METAR COR EGLL 041920Z AUTO VRB02KT 9999 NCD 08/07 Q0986
                        NOSIG=
201911041850 METAR COR EGLL 041850Z AUTO 09003KT 9999 NCD 08/07 Q0985
                        NOSIG=
201911041820 METAR COR EGLL 041820Z AUTO 12004KT 9999 NCD 08/07 Q0985
                        NOSIG=
201911041750 METAR COR EGLL 041750Z AUTO 14003KT 9999 NCD 08/07 Q0985=
201911041720 METAR COR EGLL 041720Z AUTO 13005KT 9999 NCD 09/08 Q0985
                        NOSIG=
201911041650 METAR COR EGLL 041650Z AUTO 13005KT 9999 NCD 09/07 Q0984
                        NOSIG=
201911041620 METAR COR EGLL 041620Z AUTO 14004KT 9999 NCD 11/09 Q0984
                        NOSIG=
201911041550 METAR COR EGLL 041550Z AUTO 15005KT 9999 NCD 11/09 Q0984
                        NOSIG=
201911041520 METAR COR EGLL 041520Z AUTO 16006KT 9999 NCD 12/09 Q0984
                        TEMPO SHRA=
201911041450 METAR COR EGLL 041450Z AUTO 17006KT 130V250 9999 //////TCU
                        11/09 Q0984 NOSIG=
201911041420 METAR COR EGLL 041420Z AUTO 17007KT 130V240 9999 NCD 12/09
                        Q0983 NOSIG=
201911041350 METAR COR EGLL 041350Z AUTO 18008KT 130V270 9999 FEW046///
                        //////TCU 12/09 Q0983 NOSIG=
201911041320 METAR COR EGLL 041320Z AUTO VRB05KT 9999 FEW013 SCT049 12/09
                        Q0983 TEMPO SHRA=
201911041250 METAR COR EGLL 041250Z AUTO 17006KT 130V230 9999 SCT011 BKN044
                        12/10 Q0983 TEMPO SHRA=
201911041220 METAR COR EGLL 041220Z AUTO 16005KT 120V240 9999 -RA FEW036///
                        SCT045/// //////TCU 11/10 Q0983 NOSIG=
201911041150 METAR COR EGLL 041150Z AUTO 16007KT 120V220 9999 -RA OVC040///
                        //////TCU 11/09 Q0983 TEMPO 4500
                        SHRA=
201911041120 METAR COR EGLL 041120Z AUTO 16005KT 080V250 9999 BKN044///
                        //////TCU 11/09 Q0983 TEMPO 4500
                        SHRA=
201911041050 METAR COR EGLL 041050Z AUTO 20004KT 150V260 9999 BKN046 11/10
                        Q0983 TEMPO SHRA=
201911041020 METAR COR EGLL 041020Z AUTO VRB04KT 9999 OVC047 10/10 Q0983
                        TEMPO SHRA=
201911040950 METAR COR EGLL 040950Z AUTO VRB04G14KT 9999 NCD 10/10 Q0983
                        NOSIG=
201911040920 METAR COR EGLL 040920Z AUTO 22005KT 180V260 9999 NCD 09/09
                        Q0983 NOSIG=
201911040850 METAR COR EGLL 040850Z AUTO 22004KT 170V260 9000 NCD 08/08
                        Q0983 NOSIG=
201911040820 METAR COR EGLL 040820Z VRB03KT 7000 FEW001 07/07 Q0983 NOSIG=
201911040750 METAR COR EGLL 040750Z 22004KT 180V280 9999 0500SE R27L/0550
                        R27R/P1500 PRFG FEW001 07/07 Q0983
                        BECMG 9999 NSW=
201911040720 METAR COR EGLL 040720Z VRB03KT 9999 0500SE R27L/0400 R27R/P1500
                        PRFG FEW001 06/06 Q0983 BECMG 9999
                        NSW=
201911040650 METAR COR EGLL 040650Z 21005KT 150V290 9999 R27L/0700 FEW001
                        07/07 Q0983 NOSIG=
201911040620 METAR COR EGLL 040620Z 19004KT 130V250 9999 FEW012 07/07
                        Q0983 NOSIG=
201911040550 METAR COR EGLL 040550Z AUTO 18003KT 6000 FEW025 BKN041 08/08
                        Q0983 NOSIG=
201911040520 METAR COR EGLL 040520Z AUTO 13002KT 4100 -RADZ FEW005 SCT012
                        BKN020 09/08 Q0982 TEMPO 6000 BKN009=
201911040450 METAR COR EGLL 040450Z AUTO 31001KT 4200 -DZ FEW005/// BKN012///
                        BKN018/// //////TCU 09/08 Q0982 RERA
                        TEMPO 6000 SSCT012=
201911040420 METAR COR EGLL 040420Z AUTO VRB02KT 3700 RADZ SCT006 SCT014
                        BKN018 09/08 Q0982 TEMPO 6000=
201911040350 METAR COR EGLL 040350Z AUTO 15001KT 8000 -RA SCT025/// SCT034///
                        BKN040/// //////TCU 08/08 Q0982 NOSIG=
201911040320 METAR COR EGLL 040320Z AUTO 13002KT 9999 -RA BKN041/// //////CB
                        08/08 Q0983 NOSIG=
201911040250 METAR COR EGLL 040250Z AUTO VRB02KT 9999 -RA SCT032/// BKN038///
                        //////CB 08/08 Q0983 NOSIG=
201911040220 METAR COR EGLL 040220Z AUTO VRB02KT 9999 -RA BKN037/// BKN044///
                        //////CB 08/08 Q0983 TEMPO RA=
201911040150 METAR COR EGLL 040150Z AUTO 17003KT 9999 BKN044 08/08 Q0983
                        TEMPO RA=
201911040120 METAR COR EGLL 040120Z AUTO 18004KT 9999 NCD 08/07 Q0983
                        TEMPO 7000 RA=
201911040050 METAR COR EGLL 040050Z AUTO 20005KT 9999 NCD 08/07 Q0983
                        TEMPO RA=
201911040020 METAR COR EGLL 040020Z AUTO 21005KT 9999 NCD 09/08 Q0984
                        TEMPO RA=
201911032350 METAR COR EGLL 032350Z AUTO 22006KT 9999 SCT049 09/08 Q0984
                        NOSIG=
201911032320 METAR COR EGLL 032320Z AUTO 23007KT 9999 BKN041 10/09 Q0984
                        NOSIG=
201911032250 METAR COR EGLL 032250Z AUTO 25008KT 9999 FEW028 BKN042 10/09
                        Q0984 NOSIG=
201911032220 METAR COR EGLL 032220Z 24011KT 9999 -RA SCT008 BKN012 OVC035
                        10/10 Q0984 TEMPO SCT012=
201911032150 METAR COR EGLL 032150Z AUTO 21009KT 170V260 7000 -RA BKN012
                        BKN017 OVC034 10/09 Q0984 TEMPO 4000
                        RADZ BKN014=
201911032120 METAR COR EGLL 032120Z AUTO 22009G19KT 180V250 9999 -RA BKN033
                        09/09 Q0984 TEMPO 4000 RADZ BKN014=
201911032050 METAR COR EGLL 032050Z AUTO 20007KT 160V270 9000 -RA OVC046
                        09/09 Q0984 TEMPO 4000 RADZ BKN014=
201911032020 METAR COR EGLL 032020Z AUTO 21006KT 160V250 6000 OVC048 09/09
                        Q0984 TEMPO 4000 RADZ BKN014=
201911031950 METAR COR EGLL 031950Z 21007KT 150V250 CAVOK 09/08 Q0984
                        TEMPO 4000 RADZ BKN014=
201911031920 METAR COR EGLL 031920Z 23006KT CAVOK 09/08 Q0984 TEMPO 4000
                        RADZ BKN014=
201911031850 METAR COR EGLL 031850Z AUTO 21005KT 160V270 8000 NCD 09/08
                        Q0984 TEMPO RA=
201911031820 METAR COR EGLL 031820Z AUTO 23005KT 200V270 9999 NCD 09/09
                        Q0984 NOSIG=
201911031750 METAR COR EGLL 031750Z 24007KT 9999 FEW018 10/09 Q0984 NOSIG=
201911031720 METAR COR EGLL 031720Z AUTO 25007KT 9999 FEW017 SCT023 11/10
                        Q0984 NOSIG=
201911031650 METAR COR EGLL 031650Z AUTO 24006KT 200V270 9999 FEW020 SCT025
                        OVC046 11/10 Q0984 NOSIG=
201911031620 METAR COR EGLL 031620Z AUTO 25008KT 9999 OVC047 11/10 Q0983
                        NOSIG=
201911031550 METAR COR EGLL 031550Z AUTO 23006KT 190V270 9999 FEW028 OVC048
                        11/09 Q0983 NOSIG=
201911031520 METAR COR EGLL 031520Z AUTO 28006KT 9999 SCT023 BKN027 BKN048
                        11/10 Q0983 TEMPO BKN012=
201911031450 METAR COR EGLL 031450Z AUTO 27006KT 9000 SCT012 SCT017 BKN022
                        11/10 Q0983 TEMPO BKN012=
201911031420 METAR COR EGLL 031420Z AUTO 27009KT 9999 BKN010 BKN028 OVC045
                        11/10 Q0983 BECMG FEW010=
201911031350 METAR COR EGLL 031350Z AUTO 31004KT 9999 FEW008 SCT016 BKN038
                        11/10 Q0983 TEMPO BKN010=
201911031320 METAR COR EGLL 031320Z AUTO 29006KT 6000 -RA SCT007 BKN014
                        BKN021 10/09 Q0982 TEMPO 3500 -DZ=
201911031250 METAR COR EGLL 031250Z 21005KT 180V240 3500 -DZ BKN010 OVC021
                        12/09 Q0982 TEMPO 6000=
201911031220 METAR COR EGLL 031220Z AUTO 23006KT 200V260 9999 BKN016 BKN022
                        BKN027 11/09 Q0982 TEMPO 4000 -DZ
                        BKN012=
201911031150 METAR COR EGLL 031150Z AUTO VRB02KT 9999 OVC015 11/09 Q0982
                        TEMPO 4000 -DZ BKN012=
201911031120 METAR COR EGLL 031120Z AUTO 25005KT 200V290 4400 HZ BKN014
                        OVC018 12/08 Q0982 TEMPO 6000 SCT014=
201911031050 METAR COR EGLL 031050Z AUTO 22006KT 190V250 9999 BKN016 11/08
                        Q0982 TEMPO BKN012=
201911031020 METAR COR EGLL 031020Z AUTO 24005KT 180V270 9999 NCD 11/08
                        Q0982 TEMPO BKN014=
201911030950 METAR COR EGLL 030950Z AUTO 22006KT 9999 NCD 10/07 Q0981
                        TEMPO BKN014=
201911030920 METAR COR EGLL 030920Z AUTO 22005KT 9999 NCD 09/07 Q0981
                        NOSIG=
201911030850 METAR COR EGLL 030850Z AUTO 22004KT 160V260 9999 NCD 07/06
                        Q0981 NOSIG=
201911030820 METAR COR EGLL 030820Z AUTO 22006KT 9999 NCD 07/06 Q0981
                        NOSIG=
201911030750 METAR COR EGLL 030750Z AUTO 21005KT 9999 NCD 06/06 Q0981
                        NOSIG=
201911030720 METAR COR EGLL 030720Z AUTO 19005KT 140V260 9999 NCD 06/05
                        Q0980 NOSIG=
201911030650 METAR COR EGLL 030650Z AUTO 20005KT 140V250 9999 NCD 05/05
                        Q0980 NOSIG=
201911030620 METAR COR EGLL 030620Z AUTO 19005KT 150V240 9999 NCD 05/05
                        Q0980 NOSIG=
201911030550 METAR COR EGLL 030550Z AUTO 18005KT 9999 NCD 06/05 Q0980
                        NOSIG=
201911030520 METAR COR EGLL 030520Z AUTO 20004KT 9999 NCD 06/05 Q0979
                        NOSIG=
201911030450 METAR COR EGLL 030450Z AUTO 20005KT 9999 NCD 07/05 Q0979
                        NOSIG=
201911030420 METAR COR EGLL 030420Z AUTO 19005KT 9999 NCD 07/05 Q0979
                        NOSIG=
201911030350 METAR COR EGLL 030350Z AUTO 21005KT 9999 NCD 07/06 Q0979
                        NOSIG=
201911030320 METAR COR EGLL 030320Z AUTO 20008KT 9999 NCD 08/06 Q0979
                        NOSIG=
201911030250 METAR COR EGLL 030250Z AUTO 21008KT 9999 NCD 08/06 Q0979
                        NOSIG=
201911030220 METAR COR EGLL 030220Z AUTO 20006KT 9999 NCD 08/06 Q0979
                        NOSIG=
201911030150 METAR EGLL 030150Z AUTO 21006KT 9999 NCD 08/06 Q0979=
201911030120 METAR COR EGLL 030120Z AUTO 21008KT 9999 NCD 09/07 Q0979
                        NOSIG=
201911030050 METAR COR EGLL 030050Z AUTO 21008KT 9999 NCD 09/07 Q0979
                        NOSIG=
201911030020 METAR COR EGLL 030020Z AUTO 21008KT 9999 NCD 09/07 Q0979
                        NOSIG=
201911022350 METAR COR EGLL 022350Z AUTO 22008KT 9999 NCD 09/07 Q0979
                        NOSIG=
201911022320 METAR COR EGLL 022320Z AUTO 22009KT 9999 NCD 10/07 Q0979
                        NOSIG=
201911022250 METAR COR EGLL 022250Z AUTO 23013KT 9999 NCD 11/07 Q0979
                        NOSIG=
201911022220 METAR COR EGLL 022220Z AUTO 22012KT 9999 NCD 11/07 Q0979
                        NOSIG=
201911022150 METAR COR EGLL 022150Z AUTO 22012KT 9999 NCD 10/07 Q0979
                        NOSIG=
201911022120 METAR COR EGLL 022120Z AUTO 22014KT 9999 SCT026 11/08 Q0979
                        NOSIG=
201911022050 METAR COR EGLL 022050Z AUTO 22013G24KT 9999 -RA BKN024 11/08
                        Q0979 NOSIG=
201911022020 METAR COR EGLL 022020Z AUTO 23013KT 9999 BKN025 11/08 Q0979
                        NOSIG=
201911021950 METAR COR EGLL 021950Z AUTO 23018KT 9999 BKN025 BKN045 11/08
                        Q0979 NOSIG=
201911021920 METAR COR EGLL 021920Z AUTO 23016KT 9999 -RA SCT023 11/09
                        Q0979 TEMPO RA=
201911021850 METAR COR EGLL 021850Z AUTO 23018KT 9999 -RA NCD 11/09 Q0979
                        TEMPO RA=
201911021820 METAR COR EGLL 021820Z AUTO 23018KT 9999 -RA FEW021 11/09
                        Q0979 TEMPO RA=
201911021750 METAR COR EGLL 021750Z AUTO 23019G30KT 9999 -RA SCT023 BKN029
                        12/09 Q0978 TEMPO RA=
201911021720 METAR COR EGLL 021720Z AUTO 23018KT 9999 BKN022/// BKN027///
                        //////CB 12/10 Q0978 NOSIG=
201911021650 METAR COR EGLL 021650Z AUTO 23019KT 9999 -RA SCT020/// BKN029///
                        //////CB 12/10 Q0978 RERA NOSIG=
201911021620 METAR COR EGLL 021620Z 23019KT 9999 RA FEW015CB BKN020 BKN026
                        12/10 Q0978 BECMG NSW=
201911021550 METAR COR EGLL 021550Z AUTO 23014KT 9999 -RA SCT014/// BKN022///
                        BKN033/// //////CB 12/11 Q0977 TEMPO
                        4000 RADZ BKN012=
201911021520 METAR EGLL 021520Z AUTO 22017KT 9999 -RA SCT025/// BKN030///
                        //////TCU 13/10 Q0977 NOSIG=
201911021450 METAR COR EGLL 021450Z AUTO 23016G27KT 9999 BKN025 BKN032
                        OVC040 13/10 Q0977 TEMPO -RA=
201911021420 METAR COR EGLL 021420Z AUTO 23018KT 9999 BKN028 BKN035 13/09
                        Q0977 NOSIG=
201911021350 METAR COR EGLL 021350Z AUTO 24012KT 9999 -RA SCT023 BKN036
                        12/10 Q0977 TEMPO RA=
201911021320 METAR COR EGLL 021320Z AUTO 24019KT 9999 -RA SCT027 BKN034
                        BKN044 13/10 Q0977 TEMPO RA=
201911021250 METAR COR EGLL 021250Z AUTO 24016G27KT 9999 SCT033 SCT048
                        14/10 Q0977 TEMPO RA=
201911021220 METAR COR EGLL 021220Z AUTO 23019KT 9999 SCT031 13/10 Q0977
                        NOSIG=
201911021150 METAR COR EGLL 021150Z AUTO 23023KT 9999 SCT029 BKN038 13/10
                        Q0976 NOSIG=
201911021120 METAR COR EGLL 021120Z AUTO 22017KT 9999 FEW016/// SCT022///
                        BKN029/// //////TCU 12/11 Q0976 NOSIG=
201911021050 METAR COR EGLL 021050Z AUTO 21021KT 9999 -RA SCT014/// BKN020///
                        BKN027/// //////TCU 12/11 Q0976 RERA
                        NOSIG=
201911021020 METAR COR EGLL 021020Z 20020G30KT 4900 RA BKN013TCU BKN018
                        OVC025 11/10 Q0976 TEMPO 6000 -RA
                        SCT013=
201911020950 METAR COR EGLL 020950Z AUTO 19022G35KT 7000 -RA SCT022///
                        BKN026/// BKN031/// //////TCU 10/09
                        Q0977 TEMPO 4500 RA=
201911020920 METAR COR EGLL 020920Z 20019KT 7000 -RA SCT029CB BKN034 OVC041
                        11/08 Q0980 TEMPO 4500 RA=
201911020850 METAR COR EGLL 020850Z AUTO 19019G32KT 7000 -RA SCT032///
                        BKN039/// //////CB 12/08 Q0980 TEMPO
                        3000 +RA=
201911020820 METAR COR EGLL 020820Z AUTO 18016KT 9999 BKN035 BKN045 11/07
                        Q0981 TEMPO 3000 +RA=
201911020750 METAR COR EGLL 020750Z AUTO 19014G25KT 9999 NCD 11/07 Q0982
                        TEMPO 4000 RA=
201911020720 METAR COR EGLL 020720Z AUTO 19009KT 150V230 9999 NCD 10/07
                        Q0983 BECMG 19020G32KT=
201911020650 METAR COR EGLL 020650Z AUTO 21010KT 9999 NCD 10/06 Q0984
                        NOSIG=
201911020620 METAR COR EGLL 020620Z AUTO 22013KT 9999 NCD 11/07 Q0984
                        NOSIG=
201911020550 METAR COR EGLL 020550Z AUTO 22012KT 9999 NCD 11/07 Q0985
                        NOSIG=
201911020520 METAR EGLL 020520Z AUTO 22014KT 9999 NCD 12/07 Q0985=
201911020450 METAR COR EGLL 020450Z AUTO 21012KT 9999 NCD 12/08 Q0985
                        NOSIG=
201911020420 METAR COR EGLL 020420Z AUTO 23014KT 9999 FEW031 12/09 Q0985
                        NOSIG=
201911020350 METAR COR EGLL 020350Z AUTO 22010KT 9999 SCT026 BKN036 12/10
                        Q0986 NOSIG=
201911020320 METAR COR EGLL 020320Z AUTO 23012KT 9999 FEW024 12/11 Q0986
                        NOSIG=
201911020250 METAR COR EGLL 020250Z AUTO 24010KT 9999 SCT015 BKN021 13/12
                        Q0986 NOSIG=
201911020220 METAR COR EGLL 020220Z AUTO 23013KT 5000 -RADZ FEW009 SCT013
                        BKN020 13/12 Q0986 RERA REDZ NOSIG=
201911020150 METAR COR EGLL 020150Z AUTO 23009KT 3000 RADZ SCT009/// BKN013///
                        BKN020/// //////TCU 13/12 Q0986 BECMG
                        9999 NSW=
201911020120 METAR COR EGLL 020120Z AUTO 23013KT 9999 SCT026 BKN034 BKN044
                        14/12 Q0986 NOSIG=
201911020050 METAR COR EGLL 020050Z AUTO 23013KT 9999 SCT026 BKN031 14/12
                        Q0986 NOSIG=
201911020020 METAR COR EGLL 020020Z AUTO 22012KT 9999 FEW022 OVC032 14/13
                        Q0987 NOSIG=
201911012350 METAR COR EGLL 012350Z AUTO 21010KT 9999 SCT013 BKN027 OVC033
                        15/14 Q0987 NOSIG=
201911012320 METAR COR EGLL 012320Z AUTO 23014KT 9999 SCT015/// BKN019///
                        BKN024/// //////TCU 15/14 Q0987 NOSIG=
201911012250 METAR COR EGLL 012250Z AUTO 21012KT 9999 BKN013/// BKN021///
                        //////CB 15/15 Q0987 BECMG SCT012
                        BKN018=
201911012220 METAR COR EGLL 012220Z AUTO 19010KT 160V240 9999 -RA SCT008///
                        BKN013/// //////CB 15/15 Q0987 NOSIG=
201911012150 METAR COR EGLL 012150Z AUTO 20010KT 170V240 9999 -RA SCT009
                        BKN012 OVC044 15/15 Q0988 NOSIG=
201911012120 METAR COR EGLL 012120Z AUTO 19009KT 160V240 9999 BKN006///
                        BKN012/// OVC018/// //////TCU 15/14
                        Q0988 TEMPO SHRA=
201911012050 METAR COR EGLL 012050Z AUTO 18010KT 150V240 9999 -RA SCT006
                        BKN010 OVC017 15/14 Q0989 TEMPO SHRA
                        BKN007=
201911012020 METAR COR EGLL 012020Z AUTO 20010KT 8000 SCT009 BKN012 15/14
                        Q0990 TEMPO 4000 SHRA BKN008=
201911011950 METAR COR EGLL 011950Z AUTO 22011KT 190V250 4700 BR SCT007
                        BKN013 OVC020 15/14 Q0990 TEMPO 6000
                        -RADZ=
201911011920 METAR COR EGLL 011920Z AUTO 21012KT 180V250 6000 BKN006 BKN009
                        OVC017 15/14 Q0991 NOSIG=
201911011850 METAR COR EGLL 011850Z AUTO 19010KT 150V230 9999 BKN006 OVC015
                        15/14 Q0991 TEMPO SCT006=
201911011820 METAR COR EGLL 011820Z AUTO 18009KT 160V240 9999 BKN006 OVC012
                        15/14 Q0992 TEMPO SCT012=
201911011750 METAR COR EGLL 011750Z AUTO 18007KT 130V220 9999 BKN009 BKN040
                        14/14 Q0992 TEMPO SCT010=
201911011720 METAR COR EGLL 011720Z AUTO 21008KT 180V250 9999 OVC008 15/14
                        Q0993 TEMPO BKN012=
201911011650 METAR COR EGLL 011650Z AUTO 21008KT 180V250 9999 -RA OVC010
                        15/14 Q0993 NOSIG=
201911011620 METAR COR EGLL 011620Z AUTO 22009KT 190V250 9999 OVC013 15/13
                        Q0994 TEMPO BKN015=
201911011550 METAR COR EGLL 011550Z AUTO 22008KT 9999 BKN014 OVC022 15/13
                        Q0994 TEMPO BKN016=
201911011520 METAR COR EGLL 011520Z AUTO 22010KT 190V260 9999 BKN014 OVC020
                        15/13 Q0995 NOSIG=
201911011450 METAR COR EGLL 011450Z AUTO 23013KT 9999 BKN013 OVC024 15/13
                        Q0995 TEMPO BKN015=
201911011420 METAR COR EGLL 011420Z AUTO 21011KT 9999 BKN014 16/14 Q0995
                        TEMPO BKN015=
201911011350 METAR COR EGLL 011350Z AUTO 22008KT 9999 SCT016 BKN022 16/14
                        Q0996 NOSIG=
201911011320 METAR COR EGLL 011320Z AUTO 22009KT 9999 FEW010 BKN019 16/15
                        Q0996 NOSIG=
201911011250 METAR COR EGLL 011250Z AUTO 21006KT 180V250 9999 FEW006 SCT010
                        BKN021 15/15 Q0997 NOSIG=
201911011220 METAR COR EGLL 011220Z AUTO 21007KT 180V250 4900 -DZ SCT004
                        BKN008 OVC019 15/15 Q0997 BECMG 9999
                        NSW SCT010 BKN018=
201911011150 METAR COR EGLL 011150Z AUTO 21007KT 160V250 4600 BR OVC005
                        15/14 Q0998 BECMG 9999 NSW BKN015=
201911011120 METAR COR EGLL 011120Z AUTO 19010KT 8000 BKN007 OVC020 15/14
                        Q0998 TEMPO 4000 BR BKN004=
201911011050 METAR COR EGLL 011050Z AUTO 18008KT 150V240 9999 BKN006 OVC013
                        15/14 Q0999 TEMPO BKN004=
201911011020 METAR COR EGLL 011020Z AUTO 18008KT 160V230 9999 OVC006 14/14
                        Q1000 TEMPO BKN004=
201911010950 METAR COR EGLL 010950Z AUTO 18010KT 150V210 9999 BKN006 OVC035
                        14/14 Q1000 TEMPO 4000 BR BKN004=
201911010920 METAR COR EGLL 010920Z AUTO 17009KT 090V250 9999 BKN006 OVC010
                        14/13 Q1001 TEMPO 4000 BR BKN004=
201911010850 METAR COR EGLL 010850Z AUTO 17009KT 130V200 9999 OVC007 13/13
                        Q1001 TEMPO 4000 BR BKN004=
201911010820 METAR COR EGLL 010820Z AUTO 15005KT 7000 SCT007 BKN011 OVC017
                        13/13 Q1002 TEMPO 4000 BR BKN004=
201911010750 METAR COR EGLL 010750Z AUTO 15006KT 7000 BKN010 BKN016 OVC028
                        12/12 Q1003 TEMPO BKN006=
201911010720 METAR COR EGLL 010720Z AUTO 14006KT 8000 -RA SCT011 BKN016
                        BKN020 12/12 Q1003 REDZ TEMPO BKN006=
201911010650 METAR COR EGLL 010650Z AUTO 13006KT 2800 DZ BKN010 BKN014
                        OVC022 12/12 Q1003 RERA TEMPO BKN008=
201911010620 METAR COR EGLL 010620Z AUTO 13006KT 2500 DZ BKN008 OVC017
                        12/11 Q1004 TEMPO SCT008 BKN010=
201911010550 METAR COR EGLL 010550Z AUTO 12005KT 3500 -DZ BKN002 BKN010
                        OVC016 11/11 Q1005 RERA REDZ NOSIG=
201911010520 METAR COR EGLL 010520Z AUTO 13005KT 1800 -RADZ BKN002 BKN010
                        BKN017 11/11 Q1005 RERA REDZ TEMPO
                        1400 RADZ=
201911010450 METAR COR EGLL 010450Z AUTO 13006KT 1600 -RADZ BKN003 BKN007
                        OVC029 11/10 Q1006 REDZ TEMPO 1400
                        RADZ=
201911010420 METAR COR EGLL 010420Z AUTO 11005KT 1600 DZ BKN003 OVC007
                        10/10 Q1007 RERA TEMPO 1400=
201911010350 METAR COR EGLL 010350Z AUTO 13006KT 2000 RA BKN003 OVC008
                        10/10 Q1007 REDZ TEMPO 1400 RADZ=
201911010320 METAR COR EGLL 010320Z AUTO 12005KT 2000 -RADZ BKN004 OVC008
                        10/10 Q1008 REDZ NOSIG=
201911010250 METAR COR EGLL 010250Z AUTO 10005KT 2200 -RA BKN004 OVC010
                        10/09 Q1009 NOSIG=
201911010220 METAR COR EGLL 010220Z AUTO 10006KT 2100 BR BKN004 OVC012
                        09/09 Q1010 REDZ TEMPO -RADZ BKN005=
201911010150 METAR COR EGLL 010150Z AUTO 10006KT 2300 DZ BKN005 OVC011
                        09/09 Q1010 RERA TEMPO -RADZ BKN004=
201911010120 METAR COR EGLL 010120Z AUTO 09006KT 2800 RA OVC005 09/08
                        Q1011 BECMG -RADZ BKN004=
201911010050 METAR COR EGLL 010050Z AUTO 10005KT 3500 -RA BKN007 OVC010
                        09/08 Q1012 NOSIG=
201911010020 METAR COR EGLL 010020Z AUTO 10003KT 4800 -RA OVC007 09/08
                        Q1013 NOSIG=

</pre>

</body>
</html>
