##########################################################
# Query made at 12/24/2012 13:45:44 UTC
# Time interval: from 11/01/2012 00:00  to 12/01/2012 23:59  UTC
##########################################################

##########################################################
# EGLL, London / Heathrow Airport (United Kingdom)
# WMO index: 03772
# Latitude 51-29N. Longitude 000-27W. Altitude 24 m.
##########################################################

###################################
#  METAR/SPECI from EGLL
###################################
201212012350 METAR EGLL 012350Z NIL=
201212012320 METAR EGLL 012320Z NIL=
201212012250 METAR COR EGLL 012250Z 29006KT CAVOK 01/M01 Q1016 NOSIG=
201212012220 METAR COR EGLL 012220Z 29006KT CAVOK 02/M01 Q1016 NOSIG=
201212012150 METAR COR EGLL 012150Z 29007KT CAVOK 02/M01 Q1015 NOSIG=
201212012120 METAR COR EGLL 012120Z 30005KT CAVOK 02/M00 Q1015 NOSIG=
201212012050 METAR COR EGLL 012050Z 29006KT CAVOK 03/M01 Q1015 NOSIG=
201212012020 METAR COR EGLL 012020Z 30006KT CAVOK 03/M00 Q1015 NOSIG=
201212011950 METAR COR EGLL 011950Z 29006KT CAVOK 02/M00 Q1015 NOSIG=
201212011920 METAR COR EGLL 011920Z 30005KT CAVOK 03/M00 Q1015 NOSIG=
201212011850 METAR COR EGLL 011850Z 30005KT CAVOK 03/00 Q1015 NOSIG=
201212011820 METAR COR EGLL 011820Z 31006KT CAVOK 04/00 Q1015 NOSIG=
201212011750 METAR COR EGLL 011750Z 30005KT CAVOK 04/M00 Q1015 NOSIG=
201212011720 METAR COR EGLL 011720Z 32005KT 9999 FEW029 05/00 Q1014 NOSIG=
201212011650 METAR COR EGLL 011650Z 33007KT 9999 SCT029 05/00 Q1014 NOSIG=
201212011620 METAR COR EGLL 011620Z 31007KT 9999 SCT036 05/01 Q1014 NOSIG=
201212011550 METAR COR EGLL 011550Z 31005KT 9999 FEW024 BKN034 06/01 Q1014
                        NOSIG=
201212011520 METAR COR EGLL 011520Z 30007KT 9999 FEW028 SCT034 06/01 Q1014
                        NOSIG=
201212011450 METAR EGLL 011450Z 31008KT 9999 FEW023 BKN030 06/01 Q1013=
201212011420 METAR COR EGLL 011420Z 30008KT 9999 SCT023 BKN030 06/02 Q1013
                        NOSIG=
201212011350 METAR COR EGLL 011350Z 30009KT 9999 FEW018 SCT023 06/03 Q1013
                        NOSIG=
201212011320 METAR COR EGLL 011320Z 29009KT 9999 SCT022 06/03 Q1013 NOSIG=
201212011250 METAR COR EGLL 011250Z 27014KT 9999 FEW032 05/03 Q1013 NOSIG=
201212011220 METAR COR EGLL 011220Z 28010KT 9999 FEW025 SCT034 05/03 Q1014
                        NOSIG=
201212011150 METAR COR EGLL 011150Z 28010KT 9999 SCT034 04/02 Q1014 NOSIG=
201212011120 METAR COR EGLL 011120Z 27011KT 9999 FEW020 04/03 Q1014 NOSIG=
201212011050 METAR COR EGLL 011050Z 27007KT 9999 FEW020 02/02 Q1014 NOSIG=
201212011020 METAR COR EGLL 011020Z 24005KT 170V310 7000 NSC 01/01 Q1015
                        NOSIG=
201212010950 METAR COR EGLL 010950Z 23005KT 200V270 5000 BR FEW002 00/M00
                        Q1015 NOSIG=
201212010920 METAR COR EGLL 010920Z 24006KT 200V280 4000 BR SCT002 M00/M01
                        Q1015 BECMG 9999 NSW=
201212010850 METAR COR EGLL 010850Z 21005KT 2500 BR SCT002 SCT003 M01/M01
                        Q1014 BECMG 6000=
201212010820 METAR COR EGLL 010820Z 22005KT 1500 BR SCT002 BKN003 M01/M01
                        Q1015 BECMG 5000 BKN005=
201212010750 METAR COR EGLL 010750Z 21005KT 180V270 2000 BR SCT002 BKN003
                        M01/M01 Q1015 BECMG 5000 SCT005=
201212010720 METAR COR EGLL 010720Z 21005KT 190V260 1200 R27R/P1500 R27L/P1500
                        BR SCT001 BKN003 M01/M01 Q1015 BECMG
                        3000 BR SCT002 BKN005=
201212010650 METAR COR EGLL 010650Z 20004KT 160V230 0300 R27R/P1500 R27L/P1500=
201212010620 METAR COR EGLL 010620Z 23005KT 200V270 0200 R27R/0700 R27L/0350
                        FZFG FEW000 BKN001 M01/M01 Q1015
                        BECMG 0800 BCFG SCT001 BKN003=
201212010550 METAR COR EGLL 010550Z 26004KT 0200 R27R/0350 R27L/0350 FZFG
                        SCT000 BKN001 M00/M01 Q1015 BECMG
                        0600=
201212010520 METAR COR EGLL 010520Z VRB03KT 0250 R27R/0400 R27L/0300 FZFG
                        FEW000 BKN001 M01/M01 Q1015 BECMG
                        0600=
201212010450 METAR COR EGLL 010450Z VRB03KT 0250 R27R/0350 FZFG SCT000
                        BKN001 M01/M01 Q1015 BECMG 0600=
201212010420 METAR COR EGLL 010420Z 27002KT 0250 R27R/0350 FZFG SCT000
                        BKN001 M01/M01 Q1015 NOSIG=
201212010350 METAR COR EGLL 010350Z 30003KT 0250 R27R/0550 FZFG SCT000
                        BKN001 M01/M01 Q1015 NOSIG=
201212010320 METAR COR EGLL 010320Z 30004KT 0250 R27R/0500 FZFG VV///
                        M01/M01 Q1015 TEMPO 0600=
201212010250 METAR COR EGLL 010250Z 30005KT 0700 R27R/0650 FZFG BKN001
                        M01/M02 Q1015 TEMPO 0250=
201212010220 METAR EGLL 010220Z AUTO 30005KT 2800 BR NCD M01/M01 Q1015=
201212010150 METAR EGLL 010150Z AUTO VRB02KT 0600 R27R/P1500 FG NCD M01/M01
                        Q1015=
201212010120 METAR EGLL 010120Z AUTO 27003KT 1900 BR NCD M00/M01 Q1015=
201212010050 METAR COR EGLL 010050Z VRB03KT 6000 NSC M00/M01 Q1015 TEMPO
                        2000 BR VCFG=
201212010020 METAR COR EGLL 010020Z 32003KT 6000 NSC M00/M01 Q1014 TEMPO
                        3000 BR=
201211302350 METAR COR EGLL 302350Z 30002KT 7000 NSC 01/M01 Q1014 TEMPO
                        4000 BR=
201211302320 METAR COR EGLL 302320Z 32003KT 7000 NSC 01/M00 Q1014 TEMPO
                        4000 BR=
201211302250 METAR COR EGLL 302250Z 34002KT 8000 NSC 02/00 Q1014 TEMPO
                        4000 BR=
201211302220 METAR COR EGLL 302220Z 00000KT 9000 NSC 02/00 Q1014 TEMPO
                        4000 BR=
201211302150 METAR COR EGLL 302150Z 32003KT 8000 NSC 02/00 Q1014 TEMPO
                        4000 BR=
201211302120 METAR COR EGLL 302120Z 31003KT 9000 NSC 03/01 Q1014 NOSIG=
201211302050 METAR COR EGLL 302050Z VRB02KT CAVOK 03/01 Q1014 NOSIG=
201211302020 METAR COR EGLL 302020Z 31004KT CAVOK 03/01 Q1013 NOSIG=
201211301950 METAR COR EGLL 301950Z 30002KT CAVOK 03/01 Q1013 NOSIG=
201211301920 METAR COR EGLL 301920Z 31003KT 9999 FEW015 03/01 Q1013 NOSIG=
201211301850 METAR COR EGLL 301850Z 31003KT 9999 SCT015 03/01 Q1013 NOSIG=
201211301820 METAR COR EGLL 301820Z 00000KT 9999 BKN015 04/01 Q1013 NOSIG=
201211301750 METAR COR EGLL 301750Z 30004KT 9999 SCT015 04/01 Q1012 NOSIG=
201211301720 METAR COR EGLL 301720Z 29002KT 9999 SCT018 03/01 Q1012 NOSIG=
201211301650 METAR COR EGLL 301650Z VRB02KT 9999 SCT019 04/01 Q1012 NOSIG=
201211301620 METAR COR EGLL 301620Z 29005KT 9999 FEW022 03/01 Q1012 NOSIG=
201211301550 METAR COR EGLL 301550Z 28006KT 9999 FEW028 03/00 Q1012 NOSIG=
201211301520 METAR COR EGLL 301520Z 29006KT 9999 FEW030 04/01 Q1011 NOSIG=
201211301450 METAR COR EGLL 301450Z 29005KT 9999 FEW031 SCT034 04/01 Q1011
                        NOSIG=
201211301420 METAR COR EGLL 301420Z 29005KT 9999 BKN035 04/01 Q1011 NOSIG=
201211301350 METAR COR EGLL 301350Z 27004KT 240V300 9999 BKN034 04/00
                        Q1012 NOSIG=
201211301320 METAR COR EGLL 301320Z 28004KT 220V340 9999 SCT032 05/00
                        Q1012 NOSIG=
201211301250 METAR COR EGLL 301250Z 29005KT 9999 FEW036 05/M00 Q1012 NOSIG=
201211301220 METAR COR EGLL 301220Z 27005KT 210V310 9999 FEW036 04/00
                        Q1012 NOSIG=
201211301150 METAR COR EGLL 301150Z 28004KT 9999 FEW020 04/00 Q1012 NOSIG=
201211301120 METAR COR EGLL 301120Z 29004KT CAVOK 04/00 Q1012 NOSIG=
201211301050 METAR COR EGLL 301050Z 29004KT 9000 NSC 03/00 Q1012 NOSIG=
201211301020 METAR COR EGLL 301020Z 27005KT 8000 NSC 02/00 Q1012 NOSIG=
201211300950 METAR COR EGLL 300950Z 29004KT 7000 NSC 01/M00 Q1012 NOSIG=
201211300920 METAR COR EGLL 300920Z 29004KT 7000 NSC 00/M01 Q1012 NOSIG=
201211300850 METAR COR EGLL 300850Z 30005KT 6000 NSC M00/M01 Q1011 NOSIG=
201211300820 METAR COR EGLL 300820Z 31004KT 6000 NSC M01/M02 Q1011 NOSIG=
201211300750 METAR COR EGLL 300750Z 31002KT 7000 NSC M00/M01 Q1011 NOSIG=
201211300720 METAR COR EGLL 300720Z 28002KT 6000 VCFG NSC M01/M02 Q1011
                        NOSIG=
201211300650 METAR COR EGLL 300650Z 28004KT 230V290 9000 NSC M01/M02 Q1011
                        NOSIG=
201211300620 METAR COR EGLL 300620Z VRB03KT CAVOK M01/M02 Q1011 NOSIG=
201211300550 METAR COR EGLL 300550Z 30003KT CAVOK M01/M02 Q1011 NOSIG=
201211300520 METAR COR EGLL 300520Z 29004KT CAVOK M01/M02 Q1011 NOSIG=
201211300450 METAR COR EGLL 300450Z 31003KT CAVOK M01/M01 Q1010 NOSIG=
201211300420 METAR COR EGLL 300420Z 26002KT CAVOK M00/M01 Q1010 NOSIG=
201211300350 METAR COR EGLL 300350Z 30004KT CAVOK M01/M02 Q1011 NOSIG=
201211300320 METAR COR EGLL 300320Z 31003KT CAVOK M01/M02 Q1011 NOSIG=
201211300250 METAR COR EGLL 300250Z 28004KT CAVOK M01/M02 Q1011 NOSIG=
201211300220 METAR EGLL 300220Z AUTO 27004KT 9999 NCD M01/M02 Q1011=
201211300150 METAR EGLL 300150Z AUTO 30003KT 9999 FEW019/// M00/M02 Q1011=
201211300120 METAR EGLL 300120Z AUTO 28002KT 9999 SCT019/// SCT022///
                        00/M01 Q1011=
201211300050 METAR COR EGLL 300050Z 29004KT CAVOK 00/M01 Q1011 NOSIG=
201211300020 METAR COR EGLL 300020Z 30002KT CAVOK 00/M01 Q1011 NOSIG=
201211292350 METAR COR EGLL 292350Z 26003KT CAVOK 01/M01 Q1011 NOSIG=
201211292320 METAR COR EGLL 292320Z 27005KT CAVOK 01/M01 Q1011 NOSIG=
201211292250 METAR COR EGLL 292250Z 28005KT CAVOK 02/M00 Q1011 NOSIG=
201211292220 METAR COR EGLL 292220Z 30003KT CAVOK 02/M00 Q1011 NOSIG=
201211292150 METAR COR EGLL 292150Z 30003KT CAVOK 02/M00 Q1011 NOSIG=
201211292120 METAR COR EGLL 292120Z 30003KT CAVOK 03/00 Q1011 NOSIG=
201211292050 METAR COR EGLL 292050Z 30003KT CAVOK 02/M00 Q1011 NOSIG=
201211292020 METAR COR EGLL 292020Z 29003KT CAVOK 03/00 Q1011 NOSIG=
201211291950 METAR COR EGLL 291950Z 31003KT CAVOK 03/00 Q1011 NOSIG=
201211291920 METAR COR EGLL 291920Z 32003KT CAVOK 04/01 Q1011 NOSIG=
201211291850 METAR COR EGLL 291850Z 31004KT 290V350 CAVOK 04/01 Q1011
                        NOSIG=
201211291820 METAR COR EGLL 291820Z VRB03KT CAVOK 04/01 Q1011 NOSIG=
201211291750 METAR COR EGLL 291750Z 30004KT CAVOK 04/01 Q1011 NOSIG=
201211291720 METAR COR EGLL 291720Z 30004KT CAVOK 04/01 Q1011 NOSIG=
201211291650 METAR COR EGLL 291650Z 31004KT CAVOK 05/01 Q1011 NOSIG=
201211291620 METAR COR EGLL 291620Z 31004KT CAVOK 04/01 Q1012 NOSIG=
201211291550 METAR COR EGLL 291550Z 31005KT CAVOK 05/01 Q1012 NOSIG=
201211291520 METAR COR EGLL 291520Z 32006KT 9999 FEW022 06/01 Q1012 NOSIG=
201211291450 METAR COR EGLL 291450Z 34004KT 310V020 9999 FEW022 06/01
                        Q1012 NOSIG=
201211291420 METAR COR EGLL 291420Z 33005KT 300V020 9999 FEW022 06/01
                        Q1012 NOSIG=
201211291350 METAR COR EGLL 291350Z 34005KT 300V020 9999 FEW022 06/02
                        Q1012 NOSIG=
201211291320 METAR COR EGLL 291320Z 33006KT 300V010 9999 FEW020 06/02
                        Q1012 NOSIG=
201211291250 METAR COR EGLL 291250Z 31005KT 270V340 9999 FEW020 06/01
                        Q1013 NOSIG=
201211291220 METAR COR EGLL 291220Z 32006KT 300V360 9999 FEW018 05/01
                        Q1013 NOSIG=
201211291150 METAR COR EGLL 291150Z 31004KT 260V010 9999 FEW018 05/01
                        Q1013 NOSIG=
201211291120 METAR COR EGLL 291120Z 33005KT 290V010 9999 SCT018 04/01
                        Q1013 NOSIG=
201211291050 METAR COR EGLL 291050Z 32005KT 290V360 9999 FEW016 04/01
                        Q1014 NOSIG=
201211291020 METAR COR EGLL 291020Z 33004KT 260V040 9999 FEW016 04/00
                        Q1014 NOSIG=
201211290950 METAR COR EGLL 290950Z 31004KT 250V350 9999 FEW017 03/00
                        Q1014 NOSIG=
201211290920 METAR COR EGLL 290920Z 31005KT 270V350 9999 FEW027 03/M00
                        Q1014 NOSIG=
201211290850 METAR COR EGLL 290850Z 32005KT 280V350 9999 FEW027 02/M00
                        Q1014 NOSIG=
201211290820 METAR COR EGLL 290820Z 32006KT 9999 FEW012 02/M00 Q1014 NOSIG=
201211290750 METAR COR EGLL 290750Z 32005KT 9999 FEW018 02/M00 Q1013 NOSIG=
201211290720 METAR COR EGLL 290720Z 32005KT 9999 FEW017 02/M00 Q1013 NOSIG=
201211290650 METAR COR EGLL 290650Z 31005KT 280V360 9999 FEW017 02/M00
                        Q1013 NOSIG=
201211290620 METAR COR EGLL 290620Z 34005KT 290V020 CAVOK 02/M00 Q1013
                        NOSIG=
201211290550 METAR COR EGLL 290550Z 34006KT 290V020 CAVOK 02/M00 Q1013
                        NOSIG=
201211290520 METAR COR EGLL 290520Z 34006KT 300V010 CAVOK 02/M00 Q1013
                        NOSIG=
201211290450 METAR EGLL 290450Z 34006KT 310V030 9999 FEW024 02/M00 Q1013=
201211290420 METAR COR EGLL 290420Z 34007KT 320V020 9999 SCT028 03/M00
                        Q1013 TEMPO BKN014=
201211290350 METAR COR EGLL 290350Z 34007KT 310V020 9999 SCT036 02/M00
                        Q1013 TEMPO BKN014=
201211290320 METAR COR EGLL 290320Z 35008KT 310V020 9999 FEW012 02/M00
                        Q1013 TEMPO BKN014=
201211290250 METAR COR EGLL 290250Z 34007KT 300V020 CAVOK 02/M00 Q1013
                        TEMPO BKN014=
201211290220 METAR EGLL 290220Z AUTO 34006KT 290V020 9999 NCD 02/M01 Q1013=
201211290150 METAR EGLL 290150Z AUTO 34007KT 310V020 9999 NCD 02/M01 Q1013=
201211290120 METAR EGLL 290120Z AUTO 35008KT 9999 NCD 02/M01 Q1014=
201211290050 METAR COR EGLL 290050Z 35006KT 310V020 CAVOK 02/M01 Q1014
                        NOSIG=
201211290020 METAR COR EGLL 290020Z 35006KT 300V010 CAVOK 03/M01 Q1014
                        NOSIG=
201211282350 METAR COR EGLL 282350Z 33006KT CAVOK 03/M00 Q1014 NOSIG=
201211282320 METAR COR EGLL 282320Z 34006KT 300V030 CAVOK 03/M00 Q1014
                        NOSIG=
201211282250 METAR COR EGLL 282250Z 34007KT 310V030 CAVOK 04/M00 Q1015
                        NOSIG=
201211282220 METAR COR EGLL 282220Z 35006KT 310V020 CAVOK 04/00 Q1015
                        NOSIG=
201211282150 METAR COR EGLL 282150Z 33007KT 300V010 CAVOK 04/00 Q1015
                        NOSIG=
201211282120 METAR COR EGLL 282120Z 32006KT 280V360 CAVOK 04/01 Q1015
                        NOSIG=
201211282050 METAR COR EGLL 282050Z 33006KT 300V010 9999 FEW016 04/01
                        Q1015 NOSIG=
201211282020 METAR COR EGLL 282020Z 35007KT 310V030 CAVOK 04/01 Q1015
                        NOSIG=
201211281950 METAR COR EGLL 281950Z 35006KT 300V050 9999 FEW016 05/01
                        Q1015 NOSIG=
201211281920 METAR COR EGLL 281920Z 34008KT 290V020 9999 FEW018 05/02
                        Q1014 NOSIG=
201211281850 METAR COR EGLL 281850Z 35009KT 310V020 9999 FEW033 05/02
                        Q1014 NOSIG=
201211281820 METAR COR EGLL 281820Z 35009KT 310V020 9999 FEW033 06/02
                        Q1014 NOSIG=
201211281750 METAR COR EGLL 281750Z 35010KT 310V030 9999 SCT037 06/02
                        Q1014 NOSIG=
201211281720 METAR COR EGLL 281720Z 35008KT 320V030 9999 FEW022 BKN037
                        07/02 Q1014 TEMPO 35015G25KT=
201211281650 METAR COR EGLL 281650Z 35009KT 320V040 9999 FEW021 BKN031
                        07/03 Q1014 TEMPO 35015G25KT=
201211281620 METAR COR EGLL 281620Z 35009KT 310V010 9999 SCT021 SCT033
                        07/03 Q1014 TEMPO 35015G25KT=
201211281550 METAR COR EGLL 281550Z 36007KT 330V030 9999 SCT019 SCT028
                        07/03 Q1014 TEMPO 36015G25KT=
201211281520 METAR COR EGLL 281520Z 36009KT 330V030 9999 SCT018 BKN024
                        07/03 Q1013 TEMPO 36015G25KT=
201211281450 METAR COR EGLL 281450Z 36008KT 320V030 9999 SCT017 BKN022
                        07/04 Q1013 TEMPO 36015G25KT=
201211281420 METAR COR EGLL 281420Z 34008KT 300V020 9999 BKN019 07/04
                        Q1013 TEMPO 34015G25KT=
201211281350 METAR COR EGLL 281350Z 35009KT 320V020 9999 FEW014 BKN019
                        07/04 Q1013 TEMPO 35015G25KT=
201211281320 METAR COR EGLL 281320Z 36010KT 9999 BKN020 07/04 Q1013 TEMPO
                        36015G25KT=
201211281250 METAR COR EGLL 281250Z 36008KT 330V050 9999 BKN021 07/04
                        Q1013 TEMPO 36015G25KT=
201211281220 METAR COR EGLL 281220Z 36010KT 330V030 9999 BKN019 07/04
                        Q1013 TEMPO 36015G25KT=
201211281150 METAR COR EGLL 281150Z 36010KT 330V030 9999 BKN018 07/04
                        Q1013 NOSIG=
201211281120 METAR COR EGLL 281120Z 36010KT 330V030 9999 BKN016 07/04
                        Q1014 NOSIG=
201211281050 METAR COR EGLL 281050Z 35009KT 300V030 9999 BKN020 06/03
                        Q1014 NOSIG=
201211281020 METAR COR EGLL 281020Z 35009KT 310V020 9999 BKN015 06/04
                        Q1014 NOSIG=
201211280950 METAR COR EGLL 280950Z 35008KT 310V020 9999 BKN013 06/04
                        Q1013 BECMG BKN015=
201211280920 METAR COR EGLL 280920Z 35007KT 320V020 9999 BKN015 06/04
                        Q1013 NOSIG=
201211280850 METAR COR EGLL 280850Z 35007KT 9999 -RA BKN016 06/04 Q1013
                        NOSIG=
201211280820 METAR COR EGLL 280820Z 34008KT 280V010 9999 BKN016 06/03
                        Q1013 NOSIG=
201211280750 METAR COR EGLL 280750Z 35007KT 9999 BKN015 06/03 Q1013 TEMPO
                        BKN012=
201211280720 METAR COR EGLL 280720Z 35007KT 310V030 9999 BKN015 06/03
                        Q1013 TEMPO BKN012=
201211280650 METAR COR EGLL 280650Z 35007KT 320V020 9999 BKN016 06/03
                        Q1012 NOSIG=
201211280620 METAR COR EGLL 280620Z 35007KT 310V020 9999 BKN016 BKN037
                        06/03 Q1012 NOSIG=
201211280550 METAR COR EGLL 280550Z 35007KT 300V040 9999 BKN015 06/04
                        Q1012 TEMPO BKN014=
201211280520 METAR COR EGLL 280520Z 35007KT 310V030 9999 BKN016 06/04
                        Q1012 NOSIG=
201211280450 METAR COR EGLL 280450Z 35007KT 9999 BKN015 06/04 Q1012 NOSIG=
201211280420 METAR COR EGLL 280420Z 35007KT 9999 BKN015 06/04 Q1012 TEMPO
                        BKN014=
201211280350 METAR COR EGLL 280350Z 36007KT 320V030 9999 BKN014 06/04
                        Q1012 NOSIG=
201211280320 METAR COR EGLL 280320Z 36008KT 330V040 9999 BKN014 BKN032
                        06/04 Q1012 NOSIG=
201211280250 METAR COR EGLL 280250Z 36008KT 320V040 9999 -RA BKN015 06/04
                        Q1012 TEMPO BKN014=
201211280220 METAR EGLL 280220Z AUTO 35006KT 9999 BKN014/// 06/04 Q1011=
201211280150 METAR EGLL 280150Z AUTO 35006KT 320V040 9999 BKN014/// BKN035///
                        06/04 Q1011=
201211280120 METAR EGLL 280120Z AUTO 35007KT 300V020 9999 SCT013/// BKN031///
                        06/04 Q1011=
201211280050 METAR COR EGLL 280050Z 35008KT 9999 SCT015 BKN035 06/04 Q1011
                        NOSIG=
201211280020 METAR COR EGLL 280020Z 36008KT 310V030 9999 FEW015 BKN038
                        06/04 Q1011 NOSIG=
201211272350 METAR COR EGLL 272350Z 36008KT 320V020 9999 FEW016 06/04
                        Q1011 NOSIG=
201211272320 METAR COR EGLL 272320Z 35009KT 330V030 9999 SCT016 SCT036
                        06/04 Q1011 NOSIG=
201211272250 METAR COR EGLL 272250Z 36008KT 320V040 9999 SCT016 SCT030
                        06/04 Q1011 NOSIG=
201211272220 METAR COR EGLL 272220Z 36009KT 9999 FEW016 SCT038 06/04 Q1010
                        NOSIG=
201211272150 METAR COR EGLL 272150Z 36009KT 320V040 9999 FEW017 SCT042
                        06/04 Q1010 NOSIG=
201211272120 METAR COR EGLL 272120Z 36010KT 330V040 9999 FEW019 BKN042
                        07/04 Q1010 NOSIG=
201211272050 METAR COR EGLL 272050Z 36009KT 9999 BKN040 07/04 Q1010 NOSIG=
201211272020 METAR COR EGLL 272020Z 36010KT 9999 FEW019 SCT041 07/04 Q1009
                        NOSIG=
201211271950 METAR COR EGLL 271950Z 36009KT 330V030 9999 FEW020 BKN041
                        07/04 Q1009 NOSIG=
201211271920 METAR COR EGLL 271920Z 36009KT 330V040 9999 BKN039 07/04
                        Q1009 NOSIG=
201211271850 METAR COR EGLL 271850Z 36010KT 9999 FEW019 SCT048 07/04 Q1009
                        NOSIG=
201211271820 METAR COR EGLL 271820Z 01010G20KT 340V040 9999 FEW021 SCT048
                        07/04 Q1008 NOSIG=
201211271750 METAR COR EGLL 271750Z 01009KT 340V050 9999 SCT020 BKN037
                        07/04 Q1008 NOSIG=
201211271720 METAR COR EGLL 271720Z 01010KT 340V060 9999 SCT020 07/04
                        Q1007 NOSIG=
201211271650 METAR COR EGLL 271650Z 01009KT 340V050 9999 -RA SCT018 BKN025
                        07/05 Q1007 NOSIG=
201211271620 METAR COR EGLL 271620Z 01011KT 330V050 9999 SCT017 BKN021
                        07/05 Q1007 NOSIG=
201211271550 METAR COR EGLL 271550Z 01010G20KT 9999 FEW013 SCT015 BKN021
                        07/05 Q1006 NOSIG=
201211271520 METAR EGLL 271520Z 01010KT 340V050 9999 -RA SCT015 BKN021
                        07/06 Q1006=
201211271450 METAR EGLL 271450Z 01011KT 9999 -RA SCT010 BKN015 07/06 Q1005=
201211271420 METAR EGLL 271420Z 01011KT 9999 -RA FEW010 BKN016 07/06 Q1005=
201211271350 METAR EGLL 271350Z 36012KT 9999 SCT011 BKN014 08/06 Q1005=
201211271320 METAR EGLL 271320Z 01010KT 330V050 8000 -RA FEW009 BKN012
                        08/07 Q1004 RERA=
201211271250 METAR EGLL 271250Z 01009KT 340V040 9999 -RA BKN012 08/07
                        Q1004=
201211271220 METAR COR EGLL 271220Z 01010KT 7000 -RA BKN010 08/07 Q1004
                        NOSIG=
201211271150 METAR COR EGLL 271150Z 02009KT 350V050 9999 VCSH FEW009 BKN021
                        08/07 Q1003 BECMG 4500 RA BKN012=
201211271120 METAR COR EGLL 271120Z 02009KT 9999 -RA SCT018 SCT020 08/06
                        Q1003 TEMPO BKN014=
201211271050 METAR COR EGLL 271050Z 01010KT 9999 -RA SCT017 SCT040 08/06
                        Q1003 BECMG 4500 RA BKN014=
201211271020 METAR COR EGLL 271020Z 01009KT 330V030 9999 SCT017 BKN022
                        09/06 Q1003 TEMPO RA BKN014=
201211270950 METAR COR EGLL 270950Z 36007KT 320V030 9999 FEW013 SCT019
                        BKN030 09/07 Q1002 TEMPO BKN014=
201211270920 METAR COR EGLL 270920Z 33005KT 300V010 9999 SCT014 BKN030
                        08/07 Q1002 TEMPO RA BKN014=
201211270850 METAR COR EGLL 270850Z 31005KT 9999 SCT015 SCT023 08/07 Q1002
                        TEMPO RA BKN014=
201211270820 METAR COR EGLL 270820Z 30005KT 9000 -RA SCT027 BKN038 08/07
                        Q1001 TEMPO 4500 RA BKN014=
201211270750 METAR COR EGLL 270750Z 30004KT 7000 -RA FEW009 SCT015 08/06
                        Q1001 TEMPO 4500 RA BKN012=
201211270720 METAR COR EGLL 270720Z 31004KT 7000 -RA BKN011 08/06 Q1001
                        TEMPO 4500 RA=
201211270650 METAR COR EGLL 270650Z 30003KT 9999 BKN018 07/06 Q1000 TEMPO
                        RA BKN012=
201211270620 METAR COR EGLL 270620Z VRB03KT 7000 SCT017 SCT020 07/06 Q1000
                        TEMPO RA BKN012=
201211270550 METAR COR EGLL 270550Z 30004KT 6000 BKN013 07/06 Q1000 RERA
                        TEMPO 4000 RA BKN006=
201211270520 METAR COR EGLL 270520Z VRB03KT 5000 RA FEW010 BKN019 07/06
                        Q1000 TEMPO 4000 BKN006=
201211270450 METAR COR EGLL 270450Z 30003KT 5000 BR FEW011 SCT027 07/06
                        Q1000 TEMPO 4000 RA BKN006=
201211270420 METAR COR EGLL 270420Z 28004KT 4400 BR FEW006 BKN009 07/06
                        Q0999 NOSIG=
201211270350 METAR COR EGLL 270350Z 27005KT 5000 BR BKN012 07/06 Q0999
                        TEMPO 4000 -DZ BKN008=
201211270320 METAR COR EGLL 270320Z 29005KT 4500 BR BKN009 07/06 Q0999
                        NOSIG=
201211270250 METAR COR EGLL 270250Z 29006KT 4500 BR BKN011 07/06 Q0999
                        TEMPO -RADZ BKN008=
201211270220 METAR EGLL 270220Z AUTO 29005KT 4400 -DZ BKN006/// 07/06
                        Q0999=
201211270150 METAR EGLL 270150Z AUTO 28006KT 4400 BR OVC006/// 07/06 Q0999=
201211270120 METAR EGLL 270120Z AUTO 28006KT 4300 BR OVC006/// 07/06 Q0999=
201211270050 METAR COR EGLL 270050Z 29007KT 5000 BR BKN007 07/06 Q0999
                        TEMPO 4000=
201211270020 METAR COR EGLL 270020Z 29005KT 6000 -DZ FEW006 BKN008 07/06
                        Q1000 NOSIG=
201211262350 METAR COR EGLL 262350Z 29007KT 6000 -RA FEW007 BKN009 07/06
                        Q1000 TEMPO 4000 -RADZ=
201211262320 METAR COR EGLL 262320Z 29007KT 7000 BKN009 07/06 Q1000 NOSIG=
201211262250 METAR COR EGLL 262250Z 29006KT 7000 FEW007 BKN013 08/06 Q0999
                        TEMPO BKN008=
201211262220 METAR COR EGLL 262220Z 29008KT 7000 VCSH FEW009 BKN011 08/06
                        Q0999 TEMPO BKN008=
201211262150 METAR COR EGLL 262150Z 29005KT 7000 VCSH FEW008 BKN011 08/06
                        Q0999 TEMPO BKN008=
201211262120 METAR COR EGLL 262120Z 29005KT 6000 -RADZ SCT008 SCT012 08/07
                        Q0999 TEMPO BKN008=
201211262050 METAR COR EGLL 262050Z 30005KT 6000 -RADZ FEW006 SCT014 BKN031
                        08/07 Q0999 TEMPO BKN008=
201211262020 METAR COR EGLL 262020Z 29006KT 6000 -RA FEW006 SCT013 BKN018
                        08/07 Q0999 TEMPO BKN008=
201211261950 METAR COR EGLL 261950Z 29005KT 6000 -RA FEW006 BKN013 08/07
                        Q0999 NOSIG=
201211261920 METAR COR EGLL 261920Z 31005KT 280V350 6000 -RA FEW006 SCT013
                        BKN019 08/07 Q0998 NOSIG=
201211261850 METAR COR EGLL 261850Z 29006KT 6000 -RA FEW007 BKN015 08/07
                        Q0998 TEMPO SHRA BKN012=
201211261820 METAR COR EGLL 261820Z 29008KT 6000 -RA FEW007 BKN013 08/07
                        Q0998 TEMPO SCT013=
201211261750 METAR COR EGLL 261750Z 29008KT 6000 -SHRA FEW014 SCT024 08/07
                        Q0998 TEMPO 4500 SHRA=
201211261720 METAR COR EGLL 261720Z 29007KT 6000 -SHRA FEW007 SCT020 08/07
                        Q0998 TEMPO 4500 SHRA BKN014=
201211261650 METAR COR EGLL 261650Z 29006KT 7000 -SHRA FEW010 SCT019 BKN024
                        08/06 Q0997 TEMPO 4500=
201211261620 METAR COR EGLL 261620Z 31004KT 9999 VCSH FEW022 BKN028 09/06
                        Q0997 NOSIG=
201211261550 METAR EGLL 261550Z 31003KT 9999 FEW014 SCT026 09/07 Q0997
                        NOSIG=
201211261520 METAR COR EGLL 261520Z 35004KT 310V030 9999 FEW009 SCT031
                        08/07 Q0997 RERA TEMPO SHRA=
201211261450 METAR COR EGLL 261450Z 35004KT 320V020 9999 5000E SHRA FEW012
                        SCT023 BKN028 08/07 Q0997 NOSIG=
201211261420 METAR COR EGLL 261420Z 31004KT 9999 VCSH FEW011 SCT025 09/06
                        Q0996 TEMPO SHRA BKN014=
201211261350 METAR COR EGLL 261350Z 32004KT 9999 -SHRA FEW014 SCT031 09/06
                        Q0996 TEMPO SHRA=
201211261320 METAR COR EGLL 261320Z VRB03KT 9999 FEW012 SCT031 09/06 Q0996
                        TEMPO SHRA=
201211261250 METAR COR EGLL 261250Z VRB03KT 9999 FEW012 SCT019 09/07 Q0996
                        TEMPO SHRA=
201211261220 METAR COR EGLL 261220Z VRB03KT 9999 FEW010 SCT019 09/07 Q0996
                        TEMPO SHRA=
201211261150 METAR COR EGLL 261150Z VRB03KT 9999 FEW013 SCT019 09/06 Q0997
                        TEMPO SHRA=
201211261120 METAR COR EGLL 261120Z 18004KT 9999 FEW013 SCT026 09/07 Q0997
                        TEMPO SHRA=
201211261050 METAR COR EGLL 261050Z 13004KT 9999 FEW016 SCT025 09/07 Q0997
                        TEMPO SHRA=
201211261020 METAR COR EGLL 261020Z 16004KT 9999 SCT028 08/07 Q0997 TEMPO
                        SHRA=
201211260950 METAR COR EGLL 260950Z 15003KT 9999 SCT031 08/07 Q0997 TEMPO
                        SHRA=
201211260920 METAR COR EGLL 260920Z 16004KT 9999 SCT048 08/07 Q0997 TEMPO
                        SHRA=
201211260850 METAR COR EGLL 260850Z 16006KT 9999 -SHRA SCT045 08/07 Q0997
                        TEMPO SHRA=
201211260820 METAR COR EGLL 260820Z 14005KT 9999 -SHRA SCT038 08/07 Q0997
                        RESHRA TEMPO SHRA=
201211260750 METAR COR EGLL 260750Z 18007KT 9000 SHRA SCT026 SCT038 08/07
                        Q0997 TEMPO 4000=
201211260720 METAR COR EGLL 260720Z 12004KT 9999 -SHRA FEW020 BKN035 07/07
                        Q0997 TEMPO 4000 SHRA=
201211260650 METAR COR EGLL 260650Z 13003KT 9999 FEW030 07/06 Q0997 TEMPO
                        4000 SHRA=
201211260620 METAR COR EGLL 260620Z 15003KT 9999 FEW013 BKN032 08/07 Q0997
                        TEMPO 4000 SHRA=
201211260550 METAR COR EGLL 260550Z 00000KT 9999 -SHRA FEW020 SCT035 BKN041
                        08/07 Q0997 TEMPO SHRA=
201211260520 METAR COR EGLL 260520Z 14004KT 9999 FEW019 BKN032 08/07 Q0997
                        TEMPO SHRA=
201211260450 METAR COR EGLL 260450Z 16004KT 140V200 9999 SCT021 BKN031
                        08/07 Q0998 TEMPO SHRA=
201211260420 METAR COR EGLL 260420Z 15006KT 9999 FEW020 SCT027 08/07 Q0998
                        TEMPO SHRA=
201211260350 METAR COR EGLL 260350Z 14006KT 9999 SCT046 08/07 Q0998 TEMPO
                        SHRA=
201211260320 METAR COR EGLL 260320Z 17006KT 9999 SCT042 08/07 Q0999 TEMPO
                        SHRA=
201211260250 METAR COR EGLL 260250Z 17006KT 9999 -RA BKN044 08/07 Q0999
                        TEMPO SHRA=
201211260220 METAR EGLL 260220Z AUTO 18007KT 9999 -DZ FEW038/// 09/07
                        Q1000 RERA=
201211260150 METAR EGLL 260150Z AUTO 20008KT 9999 -RA FEW017/// SCT036///
                        09/07 Q1000 RERA=
201211260120 METAR EGLL 260120Z AUTO 17013KT 9999 RA OVC022/// 10/07 Q1000=
201211260050 METAR COR EGLL 260050Z 17012KT 9999 -RA BKN027 11/07 Q1000
                        TEMPO 4000 SHRA=
201211260020 METAR COR EGLL 260020Z 17013KT 9999 BKN029 11/07 Q1001 TEMPO
                        4000 SHRA=
201211252350 METAR COR EGLL 252350Z 17012KT 9999 FEW030 SCT047 11/07 Q1001
                        TEMPO 4000 SHRA=
201211252320 METAR COR EGLL 252320Z 18012KT 9999 SCT026 10/07 Q1002 TEMPO
                        4000 SHRA=
201211252250 METAR COR EGLL 252250Z 18011KT 160V230 9999 FEW027 SCT037
                        11/07 Q1003 TEMPO 4000 SHRA=
201211252220 METAR COR EGLL 252220Z 18014KT 160V240 9999 FEW029 BKN038
                        11/07 Q1003 TEMPO 6000 SHRA=
201211252150 METAR COR EGLL 252150Z 19013KT 160V230 9999 SCT043 11/07
                        Q1003 NOSIG=
201211252120 METAR COR EGLL 252120Z 18013KT 160V240 9999 FEW045 10/07
                        Q1004 NOSIG=
201211252050 METAR COR EGLL 252050Z 19012KT 160V230 9999 FEW030 10/07
                        Q1004 NOSIG=
201211252020 METAR COR EGLL 252020Z 18012KT 160V240 9999 FEW025 10/08
                        Q1004 NOSIG=
201211251950 METAR COR EGLL 251950Z 20010KT 160V250 9999 FEW022 10/08
                        Q1004 NOSIG=
201211251920 METAR COR EGLL 251920Z 20008KT 160V230 9999 -SHRA FEW017
                        SCT020 10/09 Q1005 NOSIG=
201211251850 METAR COR EGLL 251850Z 19008KT 160V230 9999 FEW020 SCT023
                        10/09 Q1005 RESHRA NOSIG=
201211251820 METAR COR EGLL 251820Z 20008KT 160V240 9999 FEW020 SCT033
                        10/09 Q1005 RESHRA TEMPO SHRA=
201211251750 METAR COR EGLL 251750Z 18008KT 120V240 8000 SHRA FEW021 SCT028
                        10/09 Q1005 TEMPO NSW=
201211251720 METAR COR EGLL 251720Z 19009KT 160V240 9999 -SHRA FEW025
                        SCT037 10/09 Q1005 TEMPO SHRA=
201211251650 METAR COR EGLL 251650Z 20009G19KT 160V250 9999 FEW018 SCT039
                        10/08 Q1006 TEMPO SHRA=
201211251620 METAR COR EGLL 251620Z 22010KT 9999 FEW024 SCT034 11/08 Q1006
                        TEMPO SHRA=
201211251550 METAR COR EGLL 251550Z 22010KT 190V270 9999 FEW030 SCT045
                        11/07 Q1006 TEMPO SHRA=
201211251520 METAR COR EGLL 251520Z 22009KT 180V260 9999 FEW024 SCT040
                        11/07 Q1006 TEMPO SHRA=
201211251450 METAR COR EGLL 251450Z 23014KT 9999 SCT024 11/07 Q1006 TEMPO
                        SHRA=
201211251420 METAR COR EGLL 251420Z 23012KT 9999 VCSH FEW020 SCT026 11/08
                        Q1006 NOSIG=
201211251350 METAR COR EGLL 251350Z 23013KT 9999 VCSH FEW023 SCT046 11/07
                        Q1006 NOSIG=
201211251320 METAR COR EGLL 251320Z 24012KT 9999 VCSH FEW047 11/06 Q1006
                        TEMPO SHRA=
201211251250 METAR COR EGLL 251250Z 24013KT 9999 VCSH FEW029 11/05 Q1006
                        TEMPO SHRA=
201211251220 METAR COR EGLL 251220Z 25016KT 9999 FEW032 11/05 Q1006 TEMPO
                        SHRA=
201211251150 METAR COR EGLL 251150Z 25015KT 9999 FEW032 11/05 Q1006 NOSIG=
201211251120 METAR COR EGLL 251120Z 25015KT 9999 FEW030 10/05 Q1006 NOSIG=
201211251050 METAR COR EGLL 251050Z 24017KT 9999 FEW041 10/05 Q1007 NOSIG=
201211251020 METAR COR EGLL 251020Z 24017KT CAVOK 09/04 Q1006 NOSIG=
201211250950 METAR COR EGLL 250950Z 25019KT CAVOK 09/03 Q1006 NOSIG=
201211250920 METAR EGLL 250920Z 25016KT 9999 FEW033 08/03 Q1005=
201211250850 METAR COR EGLL 250850Z 25018KT 9999 FEW033 08/03 Q1005 NOSIG=
201211250820 METAR COR EGLL 250820Z 26021KT 9999 FEW028 07/03 Q1004 NOSIG=
201211250750 METAR COR EGLL 250750Z 26022G32KT 9999 FEW030 07/02 Q1003
                        NOSIG=
201211250720 METAR COR EGLL 250720Z 26024KT 9999 FEW030 08/02 Q1003 NOSIG=
201211250650 METAR COR EGLL 250650Z 26025G38KT 9999 SCT035 08/03 Q1001
                        NOSIG=
201211250620 METAR COR EGLL 250620Z 26027G37KT 9999 SCT026 SCT033 08/04
                        Q1000 NOSIG=
201211250550 METAR COR EGLL 250550Z 26030G41KT 9999 FEW026 SCT039 08/04
                        Q0999 NOSIG=
201211250520 METAR COR EGLL 250520Z 26025G36KT 9999 SCT022 BKN035 09/05
                        Q0998 NOSIG=
201211250450 METAR COR EGLL 250450Z 26024KT 9999 BKN022 09/06 Q0997 TEMPO
                        26032G42KT=
201211250420 METAR COR EGLL 250420Z 26027G38KT 9999 SCT014 09/07 Q0996
                        NOSIG=
201211250350 METAR COR EGLL 250350Z 26024KT 9999 -RA FEW016 10/08 Q0995
                        TEMPO 26030G40KT=
201211250320 METAR COR EGLL 250320Z 26025KT 9999 FEW018 10/08 Q0994 NOSIG=
201211250250 METAR COR EGLL 250250Z 26027G37KT 9999 -RA FEW008 SCT017
                        11/09 Q0992 TEMPO 4000 RA BKN008=
201211250220 METAR EGLL 250220Z AUTO 25022G33KT 9999 DZ FEW023/// 12/09
                        Q0990=
201211250150 METAR EGLL 250150Z AUTO 21018G34KT 9999 -RA FEW009/// SCT014///
                        12/11 Q0989 RERA=
201211250120 METAR EGLL 250120Z AUTO 19015KT 9999 OVC008/// 13/11 Q0989=
201211250050 METAR COR EGLL 250050Z 17011KT 5000 -RA SCT006 BKN010 12/11
                        Q0990 BECMG 25022G32KT=
201211250020 METAR COR EGLL 250020Z 14009KT 4000 -RA SCT004 BKN010 11/11
                        Q0991 TEMPO 5000 RA BKN008=
201211242350 METAR COR EGLL 242350Z 11011KT 2500 RADZ SCT003 BKN010 10/10
                        Q0992 TEMPO 5000 BKN008=
201211242320 METAR COR EGLL 242320Z 11012KT 3200 -RADZ SCT005 BKN013 10/09
                        Q0993 TEMPO 5000 RA BKN008=
201211242250 METAR COR EGLL 242250Z 11012KT 4500 -RADZ FEW008 BKN012 BKN019
                        10/09 Q0994 TEMPO 6000 RA BKN008=
201211242220 METAR COR EGLL 242220Z 10012KT 7000 -RA FEW017 BKN022 10/09
                        Q0995 TEMPO RA BKN008=
201211242150 METAR COR EGLL 242150Z 09010KT 8000 BKN011 09/09 Q0997 RERA
                        TEMPO RA BKN008=
201211242120 METAR COR EGLL 242120Z 10011KT 9000 -RA SCT013 10/08 Q0998
                        TEMPO RA BKN008=
201211242050 METAR COR EGLL 242050Z 11012KT 9000 -RA SCT014 10/08 Q0999
                        TEMPO RA BKN008=
201211242020 METAR COR EGLL 242020Z 10010KT 9000 -RA BKN014 10/08 Q1000
                        TEMPO RA BKN008=
201211241950 METAR COR EGLL 241950Z 10009KT 9999 -RA FEW017 10/09 Q1001
                        TEMPO RA BKN008=
201211241920 METAR COR EGLL 241920Z 10010KT 9999 -RA SCT012 10/09 Q1002
                        TEMPO RA BKN008=
201211241850 METAR COR EGLL 241850Z 11011KT 8000 RA SCT011 BKN015 10/09
                        Q1003 TEMPO 4000 BKN008=
201211241820 METAR EGLL 241820Z 11011KT 8000 -RA FEW008 BKN010 09/09 Q1004=
201211241750 METAR COR EGLL 241750Z 10012KT 9999 -RA FEW007 BKN012 09/09
                        Q1004 TEMPO 4000 RA SCT006 BKN008=
201211241720 METAR COR EGLL 241720Z 10011KT 9999 -RA FEW006 BKN011 09/08
                        Q1005 TEMPO RA SCT006 BKN008=
201211241650 METAR COR EGLL 241650Z 09010KT 9999 -RA FEW008 BKN018 09/08
                        Q1006 TEMPO BKN012=
201211241620 METAR COR EGLL 241620Z 09010KT 6000 -RA SCT006 BKN013 09/08
                        Q1006 RERA NOSIG=
201211241550 METAR COR EGLL 241550Z 09010KT 5000 RA SCT006 SCT008 BKN011
                        09/08 Q1007 TEMPO -RA BKN008=
201211241520 METAR COR EGLL 241520Z 09011KT 7000 -RA FEW004 SCT006 BKN008
                        09/08 Q1007 TEMPO BKN010=
201211241450 METAR COR EGLL 241450Z 09011KT 5000 -RA FEW004 SCT006 BKN010
                        08/08 Q1008 TEMPO BKN008=
201211241420 METAR COR EGLL 241420Z 09010KT 5000 -RA FEW005 SCT011 BKN016
                        08/08 Q1009 TEMPO BKN008=
201211241350 METAR COR EGLL 241350Z 09011KT 7000 -RA SCT005 BKN012 08/07
                        Q1010 TEMPO BKN008=
201211241320 METAR COR EGLL 241320Z 09009KT 9000 -RA FEW006 BKN009 08/07
                        Q1010 NOSIG=
201211241250 METAR COR EGLL 241250Z 09010KT 7000 -RA FEW009 BKN013 08/07
                        Q1011 TEMPO BKN008=
201211241220 METAR COR EGLL 241220Z 09010KT 9000 -RA SCT030 BKN039 08/07
                        Q1011 TEMPO 4000 BKN008=
201211241150 METAR COR EGLL 241150Z 10008KT 8000 -RA FEW028 BKN032 08/07
                        Q1012 TEMPO 4000 BKN008=
201211241120 METAR COR EGLL 241120Z 09010KT 6000 -RADZ FEW035 BKN040 08/07
                        Q1013 NOSIG=
201211241050 METAR COR EGLL 241050Z 09008KT 5000 -RADZ FEW024 SCT031 BKN038
                        07/07 Q1013 NOSIG=
201211241020 METAR COR EGLL 241020Z 09008KT 5000 -RADZ FEW004 BKN042 07/06
                        Q1014 TEMPO 4000=
201211240950 METAR COR EGLL 240950Z 09008KT 4000 -RADZ BKN031 07/06 Q1014
                        TEMPO 5000=
201211240920 METAR COR EGLL 240920Z 08007KT 4500 -RA VCFG SCT031 BKN040
                        06/06 Q1014 TEMPO 6000=
201211240850 METAR COR EGLL 240850Z 07005KT 3600 VCFG FEW002 SCT021 BKN030
                        06/05 Q1015 BECMG 5000 -RA=
201211240820 METAR COR EGLL 240820Z 07005KT 3500 VCFG FEW002 SCT037 05/04
                        Q1015 TEMPO 2500 PRFG=
201211240750 METAR COR EGLL 240750Z 06004KT 3500 PRFG FEW001 04/03 Q1015
                        TEMPO 1000 PRFG=
201211240720 METAR COR EGLL 240720Z 04004KT 3000 PRFG FEW001 04/03 Q1015
                        TEMPO 0400 FG BKN001=
201211240650 METAR COR EGLL 240650Z VRB03KT 5000 BR NSC 03/03 Q1015 TEMPO
                        3000=
201211240620 METAR COR EGLL 240620Z 03002KT 4000 BR NSC 03/02 Q1015 TEMPO
                        2500=
201211240550 METAR COR EGLL 240550Z 00000KT 5000 BR NSC 03/02 Q1015 BECMG
                        3000=
201211240520 METAR COR EGLL 240520Z VRB03KT 4000 BR NSC 03/02 Q1015 TEMPO
                        2500=
201211240450 METAR COR EGLL 240450Z VRB02KT 4500 BR NSC 03/02 Q1016 TEMPO
                        2500 BKN001=
201211240420 METAR COR EGLL 240420Z 01002KT 4500 BR NSC 02/02 Q1016 BECMG
                        2500=
201211240350 METAR COR EGLL 240350Z 36004KT 4500 BR NSC 03/02 Q1016 BECMG
                        2500=
201211240320 METAR COR EGLL 240320Z 00000KT 5000 BR NSC 03/02 Q1016 BECMG
                        4000=
201211240250 METAR COR EGLL 240250Z 00000KT 8000 NSC 03/02 Q1016 BECMG
                        4000 BR=
201211240220 METAR EGLL 240220Z AUTO VRB02KT 0900 FG NCD 03/03 Q1016=
201211240150 METAR EGLL 240150Z AUTO 00000KT 6000 NCD 03/02 Q1016=
201211240120 METAR EGLL 240120Z AUTO 00000KT 1000 BR NCD 04/03 Q1016=
201211240050 METAR COR EGLL 240050Z 00000KT 9000 NSC 04/04 Q1016 BECMG
                        3000 BR=
201211240020 METAR COR EGLL 240020Z 01002KT 8000 NSC 04/04 Q1016 BECMG
                        3000 BR=
201211232350 METAR COR EGLL 232350Z 35002KT 9000 NSC 04/04 Q1016 NOSIG=
201211232320 METAR COR EGLL 232320Z 25002KT 9000 NSC 05/04 Q1016 NOSIG=
201211232250 METAR COR EGLL 232250Z 22004KT 190V260 CAVOK 05/04 Q1016
                        NOSIG=
201211232220 METAR COR EGLL 232220Z VRB03KT CAVOK 05/04 Q1016 NOSIG=
201211232150 METAR COR EGLL 232150Z 24006KT 200V270 CAVOK 06/05 Q1016
                        NOSIG=
201211232120 METAR COR EGLL 232120Z 24005KT 150V290 CAVOK 06/05 Q1015
                        NOSIG=
201211232050 METAR COR EGLL 232050Z 21005KT 160V260 9999 FEW020 06/05
                        Q1015 NOSIG=
201211232020 METAR COR EGLL 232020Z 21005KT 170V250 CAVOK 07/05 Q1015
                        NOSIG=
201211231950 METAR COR EGLL 231950Z 21006KT 180V250 9999 FEW020 07/05
                        Q1015 NOSIG=
201211231920 METAR COR EGLL 231920Z 20006KT 170V250 CAVOK 07/05 Q1015
                        NOSIG=
201211231850 METAR COR EGLL 231850Z 19006KT 160V250 CAVOK 07/05 Q1014
                        NOSIG=
201211231820 METAR COR EGLL 231820Z 20007KT 150V250 CAVOK 08/05 Q1014
                        NOSIG=
201211231750 METAR COR EGLL 231750Z 18005KT 160V240 CAVOK 07/05 Q1014
                        NOSIG=
201211231720 METAR COR EGLL 231720Z 18005KT 140V240 CAVOK 08/05 Q1014
                        NOSIG=
201211231650 METAR COR EGLL 231650Z 19005KT 140V250 CAVOK 07/05 Q1013
                        NOSIG=
201211231620 METAR COR EGLL 231620Z 19005KT 9999 FEW021 08/05 Q1013 NOSIG=
201211231550 METAR COR EGLL 231550Z 22006KT 170V260 9999 FEW020 09/05
                        Q1013 NOSIG=
201211231520 METAR COR EGLL 231520Z 22007KT 190V250 9999 FEW020 10/05
                        Q1013 NOSIG=
201211231450 METAR COR EGLL 231450Z 24008KT 9999 FEW021 11/06 Q1013 NOSIG=
201211231420 METAR COR EGLL 231420Z 22007KT 190V260 9999 FEW021 11/05
                        Q1013 NOSIG=
201211231350 METAR COR EGLL 231350Z 21007KT 170V240 9999 FEW022 12/06
                        Q1013 NOSIG=
201211231320 METAR COR EGLL 231320Z 22007KT 180V250 9999 FEW016 11/07
                        Q1013 NOSIG=
201211231250 METAR COR EGLL 231250Z 23007KT 170V260 9999 FEW016 11/07
                        Q1013 NOSIG=
201211231220 METAR COR EGLL 231220Z 23007KT 9999 FEW016 11/07 Q1013 NOSIG=
201211231150 METAR COR EGLL 231150Z 24007KT 200V270 9999 FEW020 10/07
                        Q1013 NOSIG=
201211231120 METAR COR EGLL 231120Z 22007KT CAVOK 09/07 Q1013 NOSIG=
201211231050 METAR COR EGLL 231050Z 22006KT 180V240 CAVOK 09/07 Q1012
                        NOSIG=
201211231020 METAR COR EGLL 231020Z 21006KT CAVOK 08/06 Q1012 NOSIG=
201211230950 METAR COR EGLL 230950Z 20005KT 160V250 CAVOK 07/06 Q1012
                        NOSIG=
201211230920 METAR COR EGLL 230920Z 18006KT 150V240 CAVOK 07/06 Q1011
                        NOSIG=
201211230850 METAR COR EGLL 230850Z 20005KT 170V230 CAVOK 06/05 Q1011
                        NOSIG=
201211230820 METAR COR EGLL 230820Z 21006KT 190V260 CAVOK 06/05 Q1011
                        NOSIG=
201211230750 METAR COR EGLL 230750Z 22006KT 190V260 CAVOK 06/05 Q1010
                        NOSIG=
201211230720 METAR COR EGLL 230720Z 21007KT CAVOK 06/05 Q1009 NOSIG=
201211230650 METAR COR EGLL 230650Z 21007KT CAVOK 06/05 Q1009 NOSIG=
201211230620 METAR COR EGLL 230620Z 21007KT 170V250 CAVOK 06/05 Q1009
                        NOSIG=
201211230550 METAR COR EGLL 230550Z 21007KT 9999 FEW030 06/05 Q1008 NOSIG=
201211230520 METAR COR EGLL 230520Z 22007KT 9999 FEW030 07/05 Q1008 NOSIG=
201211230450 METAR COR EGLL 230450Z 22006KT 190V260 9999 SCT030 07/05
                        Q1008 NOSIG=
201211230420 METAR EGLL 230420Z 21006KT 9999 SCT030 07/06 Q1007=
201211230350 METAR COR EGLL 230350Z 21006KT CAVOK 07/05 Q1007 NOSIG=
201211230320 METAR COR EGLL 230320Z 21006KT 9999 SCT049 07/06 Q1007 NOSIG=
201211230250 METAR COR EGLL 230250Z 18005KT 9999 FEW033 07/06 Q1007 NOSIG=
201211230220 METAR EGLL 230220Z AUTO 19006KT 9999 -RA BKN034/// 07/06
                        Q1007=
201211230150 METAR EGLL 230150Z AUTO 21006KT 180V250 9999 -RA BKN032///
                        07/06 Q1007 RERA=
201211230120 METAR EGLL 230120Z AUTO 25012KT 9999 -RA SCT028/// BKN033///
                        07/06 Q1007 RERA=
201211230050 METAR COR EGLL 230050Z 26011KT 9999 -RA SCT032 BKN038 08/06
                        Q1007 NOSIG=
201211230020 METAR COR EGLL 230020Z 27013KT 9999 -RA FEW007 SCT030 08/07
                        Q1006 RERA NOSIG=
201211222350 METAR COR EGLL 222350Z 26014KT 9000 RA FEW009 SCT011 09/08
                        Q1006 NOSIG=
201211222320 METAR COR EGLL 222320Z 23015KT 7000 RA FEW009 SCT020 09/08
                        Q1005 NOSIG=
201211222250 METAR COR EGLL 222250Z 25017KT 7000 RA FEW010 BKN020 11/09
                        Q1005 RERA NOSIG=
201211222220 METAR COR EGLL 222220Z 19022G34KT 170V230 9000 RA FEW018
                        SCT029 11/09 Q1004 NOSIG=
201211222150 METAR COR EGLL 222150Z 19021G33KT 170V230 9999 RA SCT024
                        SCT030 11/08 Q1005 NOSIG=
201211222120 METAR COR EGLL 222120Z 19022KT 170V240 9999 -RA SCT026 SCT030
                        12/08 Q1005 TEMPO 19025G35KT RA=
201211222050 METAR COR EGLL 222050Z 20023G33KT 170V230 9999 SCT030 12/07
                        Q1005 TEMPO RA=
201211222020 METAR COR EGLL 222020Z 19023G33KT 9999 BKN025 12/07 Q1005
                        NOSIG=
201211221950 METAR COR EGLL 221950Z 19020KT 9999 FEW028 SCT035 12/07 Q1006
                        TEMPO 19022G35KT=
201211221920 METAR COR EGLL 221920Z 19021G38KT 9999 SCT030 SCT048 12/07
                        Q1006 NOSIG=
201211221850 METAR COR EGLL 221850Z 19019G29KT 9999 SCT030 SCT040 12/07
                        Q1006 TEMPO SHRA=
201211221820 METAR COR EGLL 221820Z 19019G30KT 9999 SCT030 BKN043 12/07
                        Q1007 NOSIG=
201211221750 METAR COR EGLL 221750Z 19019G31KT 9999 BKN028 BKN046 12/07
                        Q1007 NOSIG=
201211221720 METAR COR EGLL 221720Z 19018KT 9999 SCT027 BKN033 12/07 Q1007
                        NOSIG=
201211221650 METAR COR EGLL 221650Z 18019KT 160V220 9999 FEW026 BKN035
                        12/07 Q1008 NOSIG=
201211221620 METAR COR EGLL 221620Z 19018KT 160V230 9999 FEW030 BKN038
                        12/07 Q1008 NOSIG=
201211221550 METAR COR EGLL 221550Z 19020G30KT 9999 SCT030 BKN036 12/07
                        Q1009 NOSIG=
201211221520 METAR COR EGLL 221520Z 20020G30KT 9999 FEW030 BKN036 12/07
                        Q1009 NOSIG=
201211221450 METAR COR EGLL 221450Z 20020KT 9999 FEW030 BKN036 13/07 Q1009
                        NOSIG=
201211221420 METAR COR EGLL 221420Z 20017G29KT 9999 SCT028 BKN035 13/08
                        Q1009 NOSIG=
201211221350 METAR COR EGLL 221350Z 20019KT 9999 SCT024 BKN034 13/08 Q1010
                        NOSIG=
201211221320 METAR COR EGLL 221320Z 19018G31KT 160V240 9999 BKN023 13/08
                        Q1010 NOSIG=
201211221250 METAR COR EGLL 221250Z 20019G29KT 9999 FEW023 BKN027 13/08
                        Q1011 NOSIG=
201211221220 METAR COR EGLL 221220Z 20018G28KT 9999 BKN025 13/08 Q1011
                        NOSIG=
201211221150 METAR COR EGLL 221150Z 20019G30KT 9999 SCT026 13/08 Q1011
                        NOSIG=
201211221120 METAR COR EGLL 221120Z 20017KT 9999 FEW021 SCT025 13/09 Q1012
                        NOSIG=
201211221050 METAR COR EGLL 221050Z 20018KT 9999 FEW022 13/09 Q1012 NOSIG=
201211221020 METAR COR EGLL 221020Z 20016KT 9999 SCT022 12/09 Q1013 NOSIG=
201211220950 METAR COR EGLL 220950Z 20018G28KT 9999 SCT020 12/09 Q1013
                        NOSIG=
201211220920 METAR COR EGLL 220920Z 20015KT 9999 SCT018 12/09 Q1013 NOSIG=
201211220850 METAR EGLL 220850Z 20015KT 9999 SCT017 12/09 Q1013=
201211220820 METAR COR EGLL 220820Z 20013KT 9999 SCT019 11/09 Q1013 NOSIG=
201211220750 METAR COR EGLL 220750Z 20012KT 170V230 9999 SCT017 11/09
                        Q1013 NOSIG=
201211220720 METAR COR EGLL 220720Z 20013KT 9999 SCT019 11/09 Q1013 NOSIG=
201211220650 METAR COR EGLL 220650Z 19013KT 9999 FEW018 SCT022 11/09 Q1013
                        NOSIG=
201211220620 METAR EGLL 220620Z 19011KT 160V220 9999 FEW016 SCT019 11/09
                        Q1013=
201211220550 METAR COR EGLL 220550Z 19010KT 9999 FEW014 BKN025 11/09 Q1013
                        RERA NOSIG=
201211220520 METAR COR EGLL 220520Z 19010G20KT 180V240 9000 RA FEW011
                        BKN020 11/09 Q1014 TEMPO BKN012=
201211220450 METAR COR EGLL 220450Z 19009KT 160V240 9999 FEW011 BKN020
                        10/09 Q1014 TEMPO 19015G25KT SHRA
                        BKN012=
201211220420 METAR COR EGLL 220420Z 18011KT 9999 FEW017 SCT030 10/09 Q1014
                        TEMPO SHRA BKN012=
201211220350 METAR COR EGLL 220350Z 18011KT 9999 FEW020 BKN028 10/08 Q1014
                        TEMPO SHRA=
201211220320 METAR EGLL 220320Z 19010KT 9999 FEW019 SCT034 10/08 Q1014=
201211220250 METAR EGLL 220250Z AUTO 19008KT 9999 SCT021/// SCT027///
                        09/07 Q1015=
201211220220 METAR EGLL 220220Z AUTO 19008KT 9999 SCT021/// 09/07 Q1015=
201211220150 METAR EGLL 220150Z AUTO 20007KT 9999 FEW030/// 09/07 Q1015=
201211220120 METAR EGLL 220120Z AUTO 19007KT 150V240 9999 NCD 08/06 Q1015=
201211220050 METAR COR EGLL 220050Z 20006KT 9999 FEW028 07/06 Q1015 NOSIG=
201211220020 METAR COR EGLL 220020Z 21007KT 9999 FEW029 07/06 Q1015 NOSIG=
201211212350 METAR COR EGLL 212350Z 21007KT CAVOK 07/06 Q1015 NOSIG=
201211212320 METAR COR EGLL 212320Z 20006KT CAVOK 06/05 Q1015 NOSIG=
201211212250 METAR COR EGLL 212250Z 21007KT CAVOK 06/05 Q1015 NOSIG=
201211212220 METAR EGLL 212220Z 21008KT 170V260 CAVOK 06/05 Q1015=
201211212150 METAR COR EGLL 212150Z 22007KT 180V270 CAVOK 06/05 Q1015
                        NOSIG=
201211212120 METAR COR EGLL 212120Z 21007KT 170V250 CAVOK 06/05 Q1015
                        NOSIG=
201211212050 METAR COR EGLL 212050Z 23009KT 200V270 CAVOK 06/05 Q1015
                        NOSIG=
201211212020 METAR COR EGLL 212020Z 23007KT CAVOK 07/05 Q1014 NOSIG=
201211211950 METAR COR EGLL 211950Z 23006KT 190V250 CAVOK 07/05 Q1014
                        NOSIG=
201211211920 METAR COR EGLL 211920Z 25009KT CAVOK 08/06 Q1014 NOSIG=
201211211850 METAR COR EGLL 211850Z 25012KT CAVOK 08/06 Q1013 NOSIG=
201211211820 METAR COR EGLL 211820Z 25012KT CAVOK 08/05 Q1013 NOSIG=
201211211750 METAR COR EGLL 211750Z 26014KT CAVOK 08/06 Q1012 NOSIG=
201211211720 METAR COR EGLL 211720Z 27014KT 9999 FEW020 08/06 Q1011 NOSIG=
201211211650 METAR COR EGLL 211650Z 27018KT 9999 SCT016 08/06 Q1011 NOSIG=
201211211620 METAR COR EGLL 211620Z 27017KT 9999 FEW010 SCT012 BKN016
                        08/06 Q1010 NOSIG=
201211211550 METAR COR EGLL 211550Z 28015KT 9999 FEW009 SCT012 BKN015
                        08/06 Q1009 NOSIG=
201211211520 METAR COR EGLL 211520Z 28019KT 9000 -RA BKN012 08/06 Q1008
                        RERA BECMG SCT014=
201211211450 METAR COR EGLL 211450Z 29023KT 9000 RA SCT011 BKN016 08/06
                        Q1006 NOSIG=
201211211420 METAR COR EGLL 211420Z 28022KT 9000 -RA SCT012 BKN016 08/06
                        Q1004 TEMPO BKN012=
201211211350 METAR COR EGLL 211350Z 29018KT 8000 -DZ FEW006 SCT011 BKN027
                        09/07 Q1002 REDZ TEMPO BKN010=
201211211320 METAR COR EGLL 211320Z 19005KT 7000 -DZ FEW011 SCT019 BKN026
                        11/10 Q1000 BECMG 28020KT 4000 RA
                        BKN010=
201211211250 METAR COR EGLL 211250Z 16005KT 130V200 9999 VCSH FEW022 BKN044
                        11/10 Q1000 BECMG 28015KT=
201211211220 METAR COR EGLL 211220Z 14007KT 7000 3000N -DZ SCT011 BKN020
                        11/10 Q1000 REDZ NOSIG=
201211211150 METAR COR EGLL 211150Z 11007KT 9000 VCSH FEW006 BKN017 11/10
                        Q1001 NOSIG=
201211211120 METAR COR EGLL 211120Z 13009KT 6000 -DZ FEW006 BKN009 10/09
                        Q1002 TEMPO SCT009=
201211211050 METAR COR EGLL 211050Z 14011KT 9000 FEW009 BKN010 10/09 Q1002
                        TEMPO SCT010=
201211211020 METAR COR EGLL 211020Z 14011KT 9000 -RADZ FEW009 10/09 Q1003
                        NOSIG=
201211210950 METAR COR EGLL 210950Z 15011KT 9000 -RA SCT009 10/09 Q1003
                        NOSIG=
201211210920 METAR COR EGLL 210920Z 15010KT 8000 -RA SCT012 10/08 Q1003
                        BECMG BKN012=
201211210850 METAR COR EGLL 210850Z 15011KT 7000 -RA FEW009 BKN012 10/08
                        Q1004 NOSIG=
201211210820 METAR COR EGLL 210820Z 15012KT 7000 -RA SCT013 10/08 Q1004
                        BECMG BKN012=
201211210750 METAR COR EGLL 210750Z 15011KT 7000 -RA SCT017 10/08 Q1004
                        BKN012=
201211210720 METAR COR EGLL 210720Z 14010KT 7000 -RA NSC 10/08 Q1004 RERA
                        NOSIG=
201211210650 METAR COR EGLL 210650Z 14009KT 7000 RA NSC 10/09 Q1004 NOSIG=
201211210620 METAR COR EGLL 210620Z 14009KT 7000 RA NSC 10/09 Q1005 TEMPO
                        9999 -RA=
201211210550 METAR COR EGLL 210550Z 15006KT 8000 RA NSC 10/09 Q1005 TEMPO
                        9999 -RA=
201211210520 METAR COR EGLL 210520Z 20006KT 130V240 9999 -RA FEW013 SCT047
                        10/09 Q1006 TEMPO 8000 RA=
201211210450 METAR COR EGLL 210450Z 14006KT 9999 -RA NSC 10/09 Q1005 TEMPO
                        6000 RA=
201211210420 METAR COR EGLL 210420Z 17007KT 9999 -RA NSC 11/09 Q1006 NOSIG=
201211210350 METAR COR EGLL 210350Z 13008KT CAVOK 11/09 Q1006 NOSIG=
201211210320 METAR COR EGLL 210320Z 13008KT 9999 FEW015 11/09 Q1006 NOSIG=
201211210250 METAR EGLL 210250Z AUTO 14010KT 9999 NCD 11/09 Q1006=
201211210220 METAR EGLL 210220Z AUTO 15009KT 9999 NCD 11/10 Q1007=
201211210150 METAR EGLL 210150Z AUTO 13006KT 9999 SCT025/// 11/10 Q1007=
201211210120 METAR EGLL 210120Z AUTO 15006KT 9999 BKN022/// 11/10 Q1007=
201211210050 METAR COR EGLL 210050Z 14005KT 9999 BKN023 11/10 Q1008 NOSIG=
201211210020 METAR COR EGLL 210020Z 13004KT 9999 FEW014 BKN022 11/10 Q1008
                        NOSIG=
201211202350 METAR COR EGLL 202350Z 16005KT 9999 -RA BKN022 12/10 Q1008
                        NOSIG=
201211202320 METAR COR EGLL 202320Z 18007KT 160V230 9999 RA BKN018 12/11
                        Q1008 TEMPO NSW=
201211202250 METAR COR EGLL 202250Z VRB06KT 9000 RA BKN021 12/11 Q1009
                        TEMPO 9999 NSW=
201211202220 METAR COR EGLL 202220Z 18007KT 140V240 9999 RA FEW006 BKN024
                        12/11 Q1009 TEMPO 4000=
201211202150 METAR EGLL 202150Z 19009KT 150V240 5000 RA FEW005 SCT007
                        BKN009 12/11 Q1009=
201211202120 METAR COR EGLL 202120Z 19010KT 170V240 4000 RA FEW007 BKN013
                        12/11 Q1009 TEMPO 8000 -RA=
201211202050 METAR COR EGLL 202050Z 20011KT 180V240 8000 -RA FEW017 SCT046
                        12/11 Q1009 TEMPO 6000 RA=
201211202020 METAR EGLL 202020Z 19011KT 9999 FEW015 SCT022 12/11 Q1009=
201211201950 METAR COR EGLL 201950Z 19011KT 150V230 9999 FEW014 BKN021
                        12/11 Q1009 NOSIG=
201211201920 METAR COR EGLL 201920Z 18010KT 150V240 9999 FEW013 BKN020
                        12/11 Q1008 NOSIG=
201211201850 METAR COR EGLL 201850Z 19011KT 160V250 9000 SCT010 SCT015
                        12/11 Q1008 NOSIG=
201211201820 METAR COR EGLL 201820Z 18012KT 150V220 8000 -RA FEW014 BKN021
                        12/11 Q1008 NOSIG=
201211201750 METAR COR EGLL 201750Z 19012KT 160V230 9999 FEW015 BKN021
                        12/11 Q1008 NOSIG=
201211201720 METAR COR EGLL 201720Z 19014KT 160V230 9999 FEW013 BKN020
                        12/11 Q1008 NOSIG=
201211201650 METAR COR EGLL 201650Z 19014KT 9000 -RA SCT011 BKN014 12/11
                        Q1008 BECMG BKN018=
201211201620 METAR COR EGLL 201620Z 19015KT 7000 -RA SCT010 BKN015 12/11
                        Q1008 NOSIG=
201211201550 METAR COR EGLL 201550Z 19014KT 160V230 8000 -RA FEW010 BKN017
                        12/10 Q1008 NOSIG=
201211201520 METAR COR EGLL 201520Z 19016KT 160V230 9999 SCT014 SCT020
                        13/10 Q1007 NOSIG=
201211201450 METAR COR EGLL 201450Z 19014KT 9999 -RA SCT014 SCT018 13/11
                        Q1007 NOSIG=
201211201420 METAR COR EGLL 201420Z 19014KT 9999 SCT014 SCT018 13/11 Q1007
                        NOSIG=
201211201350 METAR COR EGLL 201350Z 19014KT 9999 SCT015 BKN019 13/11 Q1008
                        TEMPO 18017G27KT=
201211201320 METAR COR EGLL 201320Z 20016KT 9999 -RA BKN012 13/11 Q1008
                        BECMG BKN016=
201211201250 METAR COR EGLL 201250Z 19017KT 9999 -RA BKN013 13/11 Q1008
                        TEMPO 18018G28KT=
201211201220 METAR COR EGLL 201220Z 19015KT 9999 -RA SCT015 BKN019 13/11
                        Q1008 TEMPO 18017G27KT=
201211201150 METAR COR EGLL 201150Z 19016KT 9999 -RA SCT012 BKN014 13/11
                        Q1008 NOSIG=
201211201120 METAR COR EGLL 201120Z 19016KT 9999 -RA SCT012 BKN016 13/11
                        Q1008 RERA TEMPO 18018G28KT BKN012=
201211201050 METAR COR EGLL 201050Z 19015KT 9999 -RA BKN013 13/11 Q1008
                        TEMPO 18018G28KT=
201211201020 METAR COR EGLL 201020Z 19015G25KT 9999 -RA BKN011 13/11 Q1008
                        NOSIG=
201211200950 METAR COR EGLL 200950Z 19013KT 9999 -RA BKN012 13/11 Q1008
                        TEMPO 18017G27KT=
201211200920 METAR COR EGLL 200920Z 19014KT 9999 SCT012 BKN014 13/11 Q1008
                        TEMPO 18017G27KT=
201211200850 METAR COR EGLL 200850Z 19014KT 170V230 9999 BKN012 13/11
                        Q1008 NOSIG=
201211200820 METAR COR EGLL 200820Z 18013KT 9999 -RA OVC012 12/11 Q1008
                        NOSIG=
201211200750 METAR COR EGLL 200750Z 18012KT 9999 -RA FEW009 OVC012 12/11
                        Q1008 NOSIG=
201211200720 METAR COR EGLL 200720Z 18013KT 9999 -RA FEW009 BKN011 12/11
                        Q1008 NOSIG=
201211200650 METAR COR EGLL 200650Z 19013KT 9999 -RA FEW009 BKN012 12/11
                        Q1008 NOSIG=
201211200620 METAR COR EGLL 200620Z 18010KT 160V220 9999 -RA FEW008 SCT009
                        BKN012 12/11 Q1008 TEMPO BKN009=
201211200550 METAR COR EGLL 200550Z 18011KT 9999 -RA SCT009 BKN010 12/11
                        Q1008 TEMPO BKN009=
201211200520 METAR COR EGLL 200520Z 18011KT 9999 -RA SCT007 BKN009 11/11
                        Q1008 TEMPO SCT009 BKN011=
201211200450 METAR COR EGLL 200450Z 18010KT 7000 -RA SCT008 BKN010 11/10
                        Q1008 TEMPO BKN009=
201211200420 METAR COR EGLL 200420Z 18010KT 9000 -RA FEW007 BKN009 11/10
                        Q1008 TEMPO SCT009 BKN010=
201211200350 METAR COR EGLL 200350Z 18010KT 9999 -RA FEW008 BKN010 11/10
                        Q1008 TEMPO BKN009=
201211200320 METAR COR EGLL 200320Z 18010KT 9999 -DZ BKN011 12/10 Q1008
                        TEMPO BKN009=
201211200250 METAR EGLL 200250Z AUTO 19009KT 9999 BKN009/// 11/10 Q1008=
201211200220 METAR EGLL 200220Z AUTO 19010KT 9999 OVC009/// 11/10 Q1009=
201211200150 METAR EGLL 200150Z AUTO 19008KT 9999 BKN009/// 11/10 Q1009=
201211200120 METAR EGLL 200120Z AUTO 18008KT 9999 OVC008/// 11/10 Q1009=
201211200050 METAR COR EGLL 200050Z 19010KT 9999 SCT008 BKN009 11/09 Q1009
                        TEMPO SCT009 BKN012=
201211200020 METAR COR EGLL 200020Z 19011KT 9999 SCT009 BKN011 11/09 Q1009
                        TEMPO BKN009=
201211192350 METAR COR EGLL 192350Z 19010KT 9999 BKN009 BKN011 11/09 Q1009
                        TEMPO SCT009 BKN012=
201211192320 METAR COR EGLL 192320Z 19011KT 9999 BKN010 BKN012 11/09 Q1009
                        TEMPO BKN009=
201211192250 METAR COR EGLL 192250Z 20011KT 9999 BKN010 BKN012 11/09 Q1009
                        TEMPO BKN009=
201211192220 METAR COR EGLL 192220Z 19012KT 150V230 9999 BKN010 BKN012
                        11/09 Q1009 TEMPO BKN009=
201211192150 METAR COR EGLL 192150Z 20012KT 160V240 9999 SCT010 BKN012
                        11/09 Q1009 TEMPO BKN009=
201211192120 METAR COR EGLL 192120Z 20014KT 170V240 9999 FEW009 BKN010
                        11/09 Q1009 TEMPO BKN008=
201211192050 METAR COR EGLL 192050Z 19013KT 170V230 9999 FEW009 BKN011
                        11/09 Q1009 TEMPO BKN009=
201211192020 METAR COR EGLL 192020Z 19013KT 9999 BKN011 11/09 Q1009 TEMPO
                        BKN009=
201211191950 METAR COR EGLL 191950Z 19013KT 160V240 9999 BKN014 BKN030
                        11/08 Q1009 TEMPO SCT014 BKN018=
201211191920 METAR COR EGLL 191920Z 19013KT 150V230 9999 BKN017 11/08
                        Q1009 BECMG BKN013=
201211191850 METAR COR EGLL 191850Z 19013KT 9999 SCT018 SCT025 11/07 Q1009
                        BECMG BKN012=
201211191820 METAR COR EGLL 191820Z 19012KT 9999 BKN019 11/07 Q1009 NOSIG=
201211191750 METAR COR EGLL 191750Z 19013KT 170V240 9999 BKN021 10/07
                        Q1009 NOSIG=
201211191720 METAR COR EGLL 191720Z 19013KT 170V240 9999 BKN023 10/07
                        Q1009 TEMPO 7000 -RA=
201211191650 METAR COR EGLL 191650Z 20011KT 170V250 9999 BKN021 10/07
                        Q1009 TEMPO 7000 -RA=
201211191620 METAR COR EGLL 191620Z 20011KT 170V240 9999 -RA BKN020 10/07
                        Q1009 NOSIG=
201211191550 METAR COR EGLL 191550Z 19011KT 160V240 9999 BKN020 10/07
                        Q1009 NOSIG=
201211191520 METAR COR EGLL 191520Z 19011KT 170V240 9999 FEW021 BKN025
                        10/06 Q1009 NOSIG=
201211191450 METAR COR EGLL 191450Z 19011KT 9999 FEW023 BKN025 10/06 Q1009
                        NOSIG=
201211191420 METAR COR EGLL 191420Z 19011KT 9999 FEW023 BKN025 11/06 Q1009
                        NOSIG=
201211191350 METAR COR EGLL 191350Z 19013KT 9999 BKN026 10/06 Q1009 NOSIG=
201211191320 METAR COR EGLL 191320Z 20010KT 9999 BKN026 10/06 Q1009 NOSIG=
201211191250 METAR COR EGLL 191250Z 19012KT 9999 SCT027 11/05 Q1009 NOSIG=
201211191220 METAR COR EGLL 191220Z 20011KT 170V230 9999 SCT027 11/05
                        Q1010 NOSIG=
201211191150 METAR COR EGLL 191150Z 21014KT 9999 SCT028 11/05 Q1010 NOSIG=
201211191120 METAR COR EGLL 191120Z 21013KT 170V240 9999 SCT028 11/05
                        Q1010 NOSIG=
201211191050 METAR COR EGLL 191050Z 19012KT 9999 SCT027 11/06 Q1010 NOSIG=
201211191020 METAR COR EGLL 191020Z 19010KT 170V240 9999 FEW033 11/06
                        Q1011 NOSIG=
201211190950 METAR COR EGLL 190950Z 18006KT 100V230 9999 FEW037 09/06
                        Q1011 NOSIG=
201211190920 METAR COR EGLL 190920Z 15006KT 120V200 9999 FEW038 08/06
                        Q1011 NOSIG=
201211190850 METAR COR EGLL 190850Z VRB07KT 9999 SCT038 07/05 Q1011 NOSIG=
201211190820 METAR COR EGLL 190820Z 15006KT 070V220 9999 SCT038 06/04
                        Q1011 NOSIG=
201211190750 METAR COR EGLL 190750Z 14006KT 100V180 9999 FEW030 SCT039
                        06/04 Q1011 NOSIG=
201211190720 METAR COR EGLL 190720Z VRB05KT 9999 FEW038 05/03 Q1011 NOSIG=
201211190650 METAR COR EGLL 190650Z 15007KT 110V170 9999 SCT038 04/03
                        Q1011 NOSIG=
201211190620 METAR COR EGLL 190620Z 15005KT 090V210 9999 SCT038 04/03
                        Q1011 NOSIG=
201211190550 METAR COR EGLL 190550Z 14005KT 9999 FEW030 04/03 Q1012 NOSIG=
201211190520 METAR COR EGLL 190520Z 14004KT 9999 FEW036 04/02 Q1012 NOSIG=
201211190450 METAR COR EGLL 190450Z 14005KT 9999 FEW028 SCT035 04/02 Q1012
                        NOSIG=
201211190420 METAR COR EGLL 190420Z 14005KT 9999 FEW033 BKN036 03/02 Q1012
                        NOSIG=
201211190350 METAR COR EGLL 190350Z 13005KT 9999 BKN036 02/01 Q1013 NOSIG=
201211190320 METAR EGLL 190320Z AUTO 14004KT 9999 OVC034/// 02/01 Q1013=
201211190250 METAR EGLL 190250Z AUTO 13004KT 9999 FEW035/// 01/M00 Q1013=
201211190220 METAR EGLL 190220Z AUTO 13004KT 9999 NCD 02/00 Q1014=
201211190150 METAR EGLL 190150Z AUTO 14004KT 9999 NCD 02/00 Q1014=
201211190120 METAR COR EGLL 190120Z 13006KT CAVOK 02/M00 Q1014 NOSIG=
201211190050 METAR COR EGLL 190050Z 14005KT CAVOK 02/01 Q1014 NOSIG=
201211190020 METAR COR EGLL 190020Z 15002KT CAVOK 02/01 Q1015 NOSIG=
201211182350 METAR COR EGLL 182350Z VRB02KT CAVOK 03/01 Q1015 NOSIG=
201211182320 METAR COR EGLL 182320Z 18004KT CAVOK 03/01 Q1015 NOSIG=
201211182250 METAR COR EGLL 182250Z 17003KT CAVOK 03/01 Q1015 NOSIG=
201211182220 METAR COR EGLL 182220Z 15006KT 120V190 CAVOK 03/01 Q1015
                        NOSIG=
201211182150 METAR COR EGLL 182150Z 15004KT CAVOK 03/01 Q1016 NOSIG=
201211182120 METAR COR EGLL 182120Z 16005KT 110V230 CAVOK 04/01 Q1016
                        NOSIG=
201211182050 METAR COR EGLL 182050Z 17005KT 130V210 CAVOK 05/02 Q1016
                        NOSIG=
201211182020 METAR COR EGLL 182020Z 16005KT CAVOK 05/02 Q1016 NOSIG=
201211181950 METAR COR EGLL 181950Z 18005KT 130V200 CAVOK 05/02 Q1016
                        NOSIG=
201211181920 METAR COR EGLL 181920Z 18006KT 140V250 CAVOK 05/02 Q1016
                        NOSIG=
201211181850 METAR COR EGLL 181850Z 19004KT 160V260 CAVOK 06/02 Q1016
                        NOSIG=
201211181820 METAR COR EGLL 181820Z 15005KT 110V180 CAVOK 06/02 Q1016
                        NOSIG=
201211181750 METAR COR EGLL 181750Z 16005KT 120V190 CAVOK 06/02 Q1016
                        NOSIG=
201211181720 METAR COR EGLL 181720Z 17005KT 140V280 CAVOK 06/02 Q1016
                        NOSIG=
201211181650 METAR COR EGLL 181650Z 20005KT 150V270 CAVOK 07/02 Q1015
                        NOSIG=
201211181620 METAR COR EGLL 181620Z 18005KT 090V240 CAVOK 07/02 Q1015
                        NOSIG=
201211181550 METAR COR EGLL 181550Z 18005KT 140V260 CAVOK 07/02 Q1015
                        NOSIG=
201211181520 METAR COR EGLL 181520Z 17004KT 130V210 9999 FEW027 08/03
                        Q1015 NOSIG=
201211181450 METAR EGLL 181450Z 25005KT 180V310 9999 FEW027 09/03 Q1015=
201211181420 METAR COR EGLL 181420Z 21004KT 130V260 9999 FEW024 09/03
                        Q1015 NOSIG=
201211181350 METAR COR EGLL 181350Z 21004KT 150V270 9999 FEW028 09/03
                        Q1015 NOSIG=
201211181320 METAR EGLL 181320Z 20005KT 170V270 9999 FEW024 09/03 Q1015=
201211181250 METAR COR EGLL 181250Z 24006KT 210V290 9999 FEW024 09/03
                        Q1015 NOSIG=
201211181220 METAR COR EGLL 181220Z 30004KT 270V330 9999 FEW024 09/03
                        Q1015 NOSIG=
201211181150 METAR COR EGLL 181150Z VRB02KT CAVOK 09/04 Q1015 NOSIG=
201211181120 METAR COR EGLL 181120Z VRB03KT CAVOK 08/04 Q1015 NOSIG=
201211181050 METAR COR EGLL 181050Z VRB03KT CAVOK 08/03 Q1016 NOSIG=
201211181020 METAR EGLL 181020Z VRB02KT CAVOK 07/04 Q1015=
201211180950 METAR COR EGLL 180950Z 29003KT CAVOK 06/03 Q1015 NOSIG=
201211180920 METAR COR EGLL 180920Z 00000KT CAVOK 04/03 Q1015 NOSIG=
201211180850 METAR COR EGLL 180850Z 00000KT CAVOK 02/01 Q1015 NOSIG=
201211180820 METAR COR EGLL 180820Z 22004KT 170V260 CAVOK 01/01 Q1015
                        NOSIG=
201211180750 METAR COR EGLL 180750Z VRB02KT CAVOK 01/M00 Q1015 NOSIG=
201211180720 METAR COR EGLL 180720Z 00000KT CAVOK 02/01 Q1014 NOSIG=
201211180650 METAR COR EGLL 180650Z 00000KT CAVOK 03/02 Q1014 NOSIG=
201211180620 METAR COR EGLL 180620Z 27003KT CAVOK 02/01 Q1014 NOSIG=
201211180550 METAR COR EGLL 180550Z 00000KT CAVOK 02/02 Q1013 NOSIG=
201211180520 METAR COR EGLL 180520Z 00000KT CAVOK 03/02 Q1013 NOSIG=
201211180450 METAR COR EGLL 180450Z 00000KT CAVOK 02/02 Q1013 NOSIG=
201211180420 METAR COR EGLL 180420Z 00000KT CAVOK 02/02 Q1013 NOSIG=
201211180350 METAR COR EGLL 180350Z 30002KT CAVOK 02/01 Q1012 NOSIG=
201211180320 METAR EGLL 180320Z AUTO 30003KT 9999 NCD 02/01 Q1012=
201211180250 METAR EGLL 180250Z AUTO 30003KT 9999 NCD 02/02 Q1012=
201211180220 METAR EGLL 180220Z AUTO 28003KT 9999 NCD 04/03 Q1012=
201211180150 METAR EGLL 180150Z AUTO 30004KT 9999 NCD 03/02 Q1012=
201211180120 METAR COR EGLL 180120Z 29004KT CAVOK 04/02 Q1012 NOSIG=
201211180050 METAR COR EGLL 180050Z 29004KT 9999 FEW030 05/02 Q1012 NOSIG=
201211180020 METAR COR EGLL 180020Z 29005KT CAVOK 06/03 Q1012 NOSIG=
201211172350 METAR COR EGLL 172350Z 29004KT 9999 FEW030 07/04 Q1012 NOSIG=
201211172320 METAR COR EGLL 172320Z 29004KT CAVOK 07/04 Q1012 NOSIG=
201211172250 METAR COR EGLL 172250Z 30004KT CAVOK 08/04 Q1011 NOSIG=
201211172220 METAR COR EGLL 172220Z 29004KT 9999 FEW023 09/05 Q1011 NOSIG=
201211172150 METAR COR EGLL 172150Z 31003KT 9999 FEW023 09/05 Q1011 NOSIG=
201211172120 METAR COR EGLL 172120Z 31003KT 9999 FEW023 09/06 Q1011 NOSIG=
201211172050 METAR COR EGLL 172050Z VRB02KT 9999 FEW026 09/05 Q1011 NOSIG=
201211172020 METAR COR EGLL 172020Z 31003KT CAVOK 09/06 Q1010 NOSIG=
201211171950 METAR COR EGLL 171950Z 30003KT CAVOK 10/06 Q1010 NOSIG=
201211171920 METAR EGLL 171920Z 31004KT 290V350 9999 BKN042 10/06 Q1010=
201211171850 METAR COR EGLL 171850Z VRB03KT 9999 SCT032 BKN041 10/06 Q1010
                        NOSIG=
201211171820 METAR COR EGLL 171820Z 31004KT 9999 SCT026 10/06 Q1009 NOSIG=
201211171750 METAR COR EGLL 171750Z 31005KT 9999 SCT027 10/07 Q1009 NOSIG=
201211171720 METAR COR EGLL 171720Z 31003KT 9999 FEW020 SCT046 10/07 Q1009
                        NOSIG=
201211171650 METAR EGLL 171650Z VRB02KT 9999 FEW020 10/06 Q1008=
201211171620 METAR COR EGLL 171620Z 30002KT 9999 FEW020 10/06 Q1008 NOSIG=
201211171550 METAR COR EGLL 171550Z 30004KT 9999 FEW041 10/06 Q1008 NOSIG=
201211171520 METAR EGLL 171520Z VRB02KT 9999 FEW029 SCT041 10/06 Q1008=
201211171450 METAR COR EGLL 171450Z 31006KT 280V350 9999 FEW020 BKN023
                        10/06 Q1008 NOSIG=
201211171420 METAR COR EGLL 171420Z 30007KT 9999 SCT019 SCT029 11/07 Q1008
                        NOSIG=
201211171350 METAR COR EGLL 171350Z 32007KT 290V350 9999 BKN025 11/07
                        Q1008 NOSIG=
201211171320 METAR COR EGLL 171320Z 29008KT 9999 SCT025 11/07 Q1007 NOSIG=
201211171250 METAR COR EGLL 171250Z 30007KT 9999 FEW019 SCT032 11/07 Q1007
                        NOSIG=
201211171220 METAR COR EGLL 171220Z 31007KT 9999 SCT033 11/07 Q1007 NOSIG=
201211171150 METAR COR EGLL 171150Z 31007KT 9999 FEW015 SCT026 BKN032
                        11/08 Q1007 NOSIG=
201211171120 METAR COR EGLL 171120Z 29006KT 9999 FEW014 SCT025 11/08 Q1007
                        TEMPO BKN014=
201211171050 METAR COR EGLL 171050Z 29006KT 9999 SCT012 SCT022 10/09 Q1007
                        TEMPO BKN012=
201211171020 METAR COR EGLL 171020Z 29007KT 9999 FEW009 BKN013 10/09 Q1007
                        BECMG SCT012 BKN028=
201211170950 METAR COR EGLL 170950Z 30008KT 9999 FEW006 BKN008 11/10 Q1006
                        BECMG SCT010 BKN015=
201211170920 METAR COR EGLL 170920Z 26012KT 9999 SCT012 SCT044 12/11 Q1006
                        TEMPO BKN014=
201211170850 METAR COR EGLL 170850Z 22006KT 4900 BR FEW008 SCT024 12/11
                        Q1006 TEMPO BKN012=
201211170820 METAR COR EGLL 170820Z 21007KT 4900 BR FEW008 SCT015 12/11
                        Q1006 TEMPO BKN008=
201211170750 METAR COR EGLL 170750Z 20008KT 180V250 4900 BR FEW008 SCT012
                        12/11 Q1006 TEMPO BKN009=
201211170720 METAR COR EGLL 170720Z 20008KT 180V240 4500 BR FEW012 SCT015
                        12/11 Q1005 TEMPO BKN009=
201211170650 METAR COR EGLL 170650Z 20008KT 170V240 4500 BR FEW008 SCT010
                        12/11 Q1005 TEMPO 6000 NSW BKN008=
201211170620 METAR COR EGLL 170620Z 21008KT 190V260 5000 BR SCT012 SCT015
                        12/11 Q1005 NOSIG=
201211170550 METAR COR EGLL 170550Z 19007KT 4800 BR FEW020 SCT027 12/11
                        Q1005 BECMG 6000 NSW=
201211170520 METAR COR EGLL 170520Z 20007KT 4600 BR FEW008 BKN026 12/11
                        Q1005 BECMG 6000 NSW BKN008=
201211170450 METAR COR EGLL 170450Z 20008KT 3700 BR BKN005 12/11 Q1005
                        BECMG 6000 NSW=
201211170420 METAR COR EGLL 170420Z 18006KT 2200 BR BKN003 12/11 Q1005
                        BECMG 4500 SCT004 BKN008=
201211170350 METAR EGLL 170350Z AUTO 18007KT 1600 BR BKN002/// 12/11 Q1005=
201211170320 METAR EGLL 170320Z AUTO 19008KT 2400 BR OVC003/// 12/11 Q1006=
201211170250 METAR EGLL 170250Z AUTO 19007KT 3200 HZ OVC004/// 12/11 Q1006=
201211170220 METAR EGLL 170220Z AUTO 19004KT 4600 HZ OVC006/// 11/10 Q1006=
201211170150 METAR COR EGLL 170150Z 16003KT 5000 BR BKN007 11/10 Q1007
                        TEMPO 3500=
201211170120 METAR COR EGLL 170120Z 16004KT 5000 BR BKN006 BKN010 10/09
                        Q1007 TEMPO 3500 BKN004=
201211170050 METAR COR EGLL 170050Z 14005KT 5000 BR BKN007 10/09 Q1007
                        TEMPO 3500 BKN004=
201211170020 METAR COR EGLL 170020Z 14004KT 5000 BR BKN008 10/09 Q1007
                        TEMPO 3500=
201211162350 METAR COR EGLL 162350Z 13005KT 6000 BKN008 10/09 Q1008 NOSIG=
201211162320 METAR COR EGLL 162320Z 13006KT 6000 BKN008 10/09 Q1008 NOSIG=
201211162250 METAR COR EGLL 162250Z 16005KT 6000 FEW007 BKN011 09/09 Q1009
                        BECMG BKN007=
201211162220 METAR COR EGLL 162220Z VRB03KT 5000 BR BKN008 09/08 Q1009
                        NOSIG=
201211162150 METAR COR EGLL 162150Z 13006KT 5000 BR FEW007 SCT008 09/08
                        Q1009 BECMG BKN006=
201211162120 METAR COR EGLL 162120Z 13006KT 6000 SCT008 10/08 Q1009 TEMPO
                        BKN006=
201211162050 METAR COR EGLL 162050Z 13007KT 4900 BR BKN006 10/09 Q1009
                        TEMPO 6000=
201211162020 METAR COR EGLL 162020Z 14006KT 4400 BR FEW004 BKN005 10/09
                        Q1010 TEMPO 5000=
201211161950 METAR COR EGLL 161950Z 14006KT 4200 BR BKN004 09/08 Q1010
                        TEMPO SCT004 BKN007=
201211161920 METAR COR EGLL 161920Z 14008KT 4300 BR FEW003 BKN004 09/08
                        Q1011 TEMPO SCT004 BKN007=
201211161850 METAR COR EGLL 161850Z 14007KT 110V170 4000 BR FEW003 BKN004
                        09/08 Q1011 NOSIG=
201211161820 METAR COR EGLL 161820Z 13006KT 3500 BR BKN004 09/08 Q1011
                        TEMPO SCT004 BKN005=
201211161750 METAR COR EGLL 161750Z 14005KT 3000 BR FEW003 SCT004 BKN005
                        09/08 Q1011 TEMPO BKN004=
201211161720 METAR COR EGLL 161720Z 13007KT 2400 BR SCT003 BKN004 09/08
                        Q1011 TEMPO SCT003 BKN005=
201211161650 METAR COR EGLL 161650Z 13008KT 2000 BR SCT002 BKN003 09/08
                        Q1012 NOSIG=
201211161620 METAR COR EGLL 161620Z 13007KT 1500 BR BKN002 09/08 Q1012
                        NOSIG=
201211161550 METAR COR EGLL 161550Z 12007KT 1800 BR FEW002 BKN003 09/08
                        Q1012 TEMPO SCT003 BKN005=
201211161520 METAR COR EGLL 161520Z 11006KT 2800 HZ FEW004 SCT005 BKN006
                        09/08 Q1013 TEMPO BKN004=
201211161450 METAR COR EGLL 161450Z 11005KT 3100 HZ BKN006 BKN007 09/08
                        Q1013 NOSIG=
201211161420 METAR COR EGLL 161420Z 13004KT 2800 BR BKN005 BKN006 09/08
                        Q1013 TEMPO BKN004=
201211161350 METAR COR EGLL 161350Z 11004KT 2200 BR OVC004 08/08 Q1013
                        TEMPO SCT004 BKN005=
201211161320 METAR COR EGLL 161320Z 13004KT 090V160 1900 BR BKN004 BKN005
                        08/07 Q1014 TEMPO SCT004 BKN005=
201211161250 METAR COR EGLL 161250Z 07005KT 050V110 1800 BR FEW003 BKN004
                        BKN005 08/07 Q1014 NOSIG=
201211161220 METAR COR EGLL 161220Z 09003KT 1800 BR FEW003 BKN004 BKN006
                        08/07 Q1015 TEMPO SCT004 BKN006=
201211161150 METAR COR EGLL 161150Z 11002KT 1900 BR SCT004 BKN005 BKN006
                        08/07 Q1015 TEMPO BKN004=
201211161120 METAR COR EGLL 161120Z 08002KT 1800 BR SCT004 BKN005 BKN006
                        07/06 Q1015 TEMPO BKN004=
201211161050 METAR COR EGLL 161050Z 11004KT 1800 BR SCT003 BKN004 BKN005
                        07/06 Q1016 NOSIG=
201211161020 METAR COR EGLL 161020Z 12005KT 1800 BR SCT003 BKN004 BKN007
                        07/06 Q1016 NOSIG=
201211160950 METAR COR EGLL 160950Z 10003KT 2500 BR SCT003 BKN005 BKN007
                        06/06 Q1016 TEMPO BKN004=
201211160920 METAR COR EGLL 160920Z 11004KT 2500 BR BKN005 BKN007 06/05
                        Q1016 TEMPO BKN004=
201211160850 METAR COR EGLL 160850Z 11005KT 2800 BR BKN005 BKN007 06/05
                        Q1017 NOSIG=
201211160820 METAR COR EGLL 160820Z 14006KT 3500 HZ FEW004 BKN007 BKN009
                        06/05 Q1017 NOSIG=
201211160750 METAR COR EGLL 160750Z 12004KT 4300 HZ BKN008 BKN010 06/04
                        Q1017 NOSIG=
201211160720 METAR COR EGLL 160720Z 15004KT 4800 HZ BKN008 BKN010 06/05
                        Q1017 NOSIG=
201211160650 METAR COR EGLL 160650Z 16006KT 130V200 4200 HZ FEW004 BKN006
                        BKN008 06/04 Q1017 NOSIG=
201211160620 METAR COR EGLL 160620Z 15005KT 4000 HZ OVC009 06/04 Q1017
                        NOSIG=
201211160550 METAR COR EGLL 160550Z 16005KT 6000 OVC010 06/04 Q1017 TEMPO
                        BKN008=
201211160520 METAR COR EGLL 160520Z 18004KT 6000 OVC011 06/04 Q1017 TEMPO
                        BKN009=
201211160450 METAR COR EGLL 160450Z 19005KT 6000 OVC012 06/04 Q1017 NOSIG=
201211160420 METAR COR EGLL 160420Z 19003KT 6000 OVC013 06/04 Q1017 NOSIG=
201211160350 METAR EGLL 160350Z AUTO 18003KT 5000 OVC014/// 06/05 Q1018=
201211160320 METAR EGLL 160320Z AUTO 18003KT 4900 HZ OVC015/// 06/05 Q1018=
201211160250 METAR EGLL 160250Z AUTO 16003KT 4600 HZ OVC016/// 06/05 Q1018=
201211160220 METAR EGLL 160220Z AUTO 16003KT 4400 HZ OVC017/// 06/05 Q1018=
201211160150 METAR COR EGLL 160150Z 00000KT 4200 HZ BKN018 06/04 Q1018
                        BECMG BKN014=
201211160120 METAR COR EGLL 160120Z 17002KT 4400 HZ BKN020 06/04 Q1018
                        NOSIG=
201211160050 METAR COR EGLL 160050Z 00000KT 4400 HZ BKN020 06/04 Q1019
                        NOSIG=
201211160020 METAR COR EGLL 160020Z 15003KT 4300 HZ BKN020 06/04 Q1019
                        TEMPO BKN014=
201211152350 METAR COR EGLL 152350Z 16004KT 4300 HZ BKN020 06/04 Q1019
                        TEMPO BKN014=
201211152320 METAR COR EGLL 152320Z 16004KT 4500 HZ FEW016 BKN020 06/05
                        Q1020 BECMG BKN014=
201211152250 METAR COR EGLL 152250Z 15004KT 4600 HZ SCT013 BKN018 06/05
                        Q1020 BECMG BKN013=
201211152220 METAR COR EGLL 152220Z 17004KT 4600 HZ BKN013 BKN020 06/05
                        Q1020 NOSIG=
201211152150 METAR COR EGLL 152150Z 17004KT 4100 BR BKN013 06/05 Q1020
                        NOSIG=
201211152120 METAR COR EGLL 152120Z 18004KT 140V210 3700 BR BKN011 BKN016
                        06/05 Q1020 TEMPO BKN016=
201211152050 METAR COR EGLL 152050Z 17006KT 3800 BR SCT005 BKN009 06/05
                        Q1020 TEMPO BKN012=
201211152020 METAR COR EGLL 152020Z 15005KT 3300 BR BKN005 BKN009 06/06
                        Q1020 NOSIG=
201211151950 METAR COR EGLL 151950Z 09004KT 3000 BR SCT006 BKN019 06/05
                        Q1020 NOSIG=
201211151920 METAR COR EGLL 151920Z 12003KT 3200 BR BKN012 BKN020 06/05
                        Q1020 NOSIG=
201211151850 METAR COR EGLL 151850Z 12002KT 3800 BR SCT012 SCT020 06/05
                        Q1020 TEMPO 5000 BKN012=
201211151820 METAR COR EGLL 151820Z 09003KT 5000 BR FEW010 BKN019 07/05
                        Q1020 TEMPO 4000 SCT007 BKN010=
201211151750 METAR COR EGLL 151750Z 35003KT 6000 BKN019 08/05 Q1021 TEMPO
                        4000 HZ BKN012=
201211151720 METAR COR EGLL 151720Z 36004KT 6000 BKN020 08/05 Q1021 NOSIG=
201211151650 METAR COR EGLL 151650Z VRB02KT 6000 BKN019 08/05 Q1021 NOSIG=
201211151620 METAR COR EGLL 151620Z VRB02KT 7000 BKN020 09/05 Q1021 NOSIG=
201211151550 METAR COR EGLL 151550Z 02003KT 8000 SCT020 09/05 Q1021 NOSIG=
201211151520 METAR COR EGLL 151520Z VRB02KT 8000 FEW020 09/05 Q1021 NOSIG=
201211151450 METAR COR EGLL 151450Z VRB02KT 8000 FEW016 10/05 Q1021 NOSIG=
201211151420 METAR COR EGLL 151420Z VRB02KT 9000 SCT016 10/05 Q1021 NOSIG=
201211151350 METAR COR EGLL 151350Z 00000KT 8000 BKN016 10/06 Q1022=
201211151320 METAR COR EGLL 151320Z VRB02KT 6000 SCT014 BKN016 09/06 Q1022
                        NOSIG=
201211151250 METAR COR EGLL 151250Z VRB03KT 6000 BKN012 09/06 Q1022 TEMPO
                        SCT012 BKN018=
201211151220 METAR COR EGLL 151220Z 05004KT 020V080 6000 BKN015 09/06
                        Q1023 TEMPO BKN012=
201211151150 METAR COR EGLL 151150Z VRB03KT 5000 HZ FEW008 BKN011 08/06
                        Q1023 TEMPO 4000 BKN008=
201211151120 METAR COR EGLL 151120Z 36004KT 320V030 6000 BKN011 08/06
                        Q1023 TEMPO 4000 BKN008=
201211151050 METAR COR EGLL 151050Z VRB03KT 5000 HZ FEW008 BKN013 08/06
                        Q1024 TEMPO BKN008=
201211151020 METAR COR EGLL 151020Z VRB03KT 5000 HZ BKN011 08/07 Q1024
                        TEMPO 3500 BKN005=
201211150950 METAR COR EGLL 150950Z 00000KT 5000 HZ FEW007 BKN011 08/07
                        Q1024 TEMPO 3500 BKN007=
201211150920 METAR COR EGLL 150920Z 00000KT 3500 HZ SCT004 BKN009 07/07
                        Q1024 TEMPO 1800 BR BKN004=
201211150850 METAR COR EGLL 150850Z 07004KT 3500 HZ SCT006 BKN008 07/06
                        Q1024 TEMPO 1800 SCT002 BKN004=
201211150820 METAR COR EGLL 150820Z 07004KT 030V090 4500 BR SCT008 BKN012
                        07/06 Q1024 TEMPO 2000 BKN004=
201211150750 METAR COR EGLL 150750Z 08003KT 5000 BR BKN012 06/06 Q1024
                        TEMPO 3000=
201211150720 METAR COR EGLL 150720Z VRB02KT 5000 BR BKN011 06/06 Q1024
                        TEMPO 1200 SCT010=
201211150650 METAR COR EGLL 150650Z VRB03KT 4000 BR BKN011 06/06 Q1024
                        TEMPO 2000=
201211150620 METAR COR EGLL 150620Z 04004KT 3000 BR BKN012 06/06 Q1024
                        BECMG 2000=
201211150550 METAR COR EGLL 150550Z 02002KT 3000 BR BKN012 06/05 Q1024
                        BECMG 2000=
201211150520 METAR COR EGLL 150520Z 36003KT 3300 BR BKN013 06/05 Q1024
                        NOSIG=
201211150450 METAR COR EGLL 150450Z 26002KT 3000 BR BKN014 06/05 Q1024
                        NOSIG=
201211150420 METAR COR EGLL 150420Z 27002KT 3000 BR BKN014 06/05 Q1024
                        NOSIG=
201211150350 METAR COR EGLL 150350Z 00000KT 2500 BR BKN014 06/05 Q1024
                        NOSIG=
201211150320 METAR EGLL 150320Z AUTO 00000KT 2100 BR OVC010/// 06/05 Q1024=
201211150250 METAR EGLL 150250Z AUTO 28004KT 1600 R09R/0800 BR OVC012///
                        05/05 Q1025=
201211150220 METAR EGLL 150220Z AUTO 27003KT 1000 R09R/0175 HZ FEW014///
                        05/04 Q1024=
201211150150 METAR EGLL 150150Z AUTO 27003KT 1600 R09R/0650 BR NCD 05/04
                        Q1024=
201211150120 METAR COR EGLL 150120Z 00000KT 1600 R09R/0650 MIFG BR NSC
                        06/05 Q1024 TEMPO 1100=
201211150050 METAR COR EGLL 150050Z VRB02KT 1600 R09R/0550 BR NSC 05/04
                        Q1025 TEMPO 1200=
201211150020 METAR COR EGLL 150020Z VRB02KT 2500 HZ NSC 06/05 Q1025 TEMPO
                        1200 BR=
201211142350 METAR COR EGLL 142350Z 03002KT 2700 HZ NSC 06/05 Q1025 NOSIG=
201211142320 METAR COR EGLL 142320Z 08002KT 3300 HZ NSC 07/05 Q1025 BECMG
                        2000 BR=
201211142250 METAR COR EGLL 142250Z 08004KT 4000 HZ FEW010 07/06 Q1025
                        NOSIG=
201211142220 METAR COR EGLL 142220Z 07004KT 4500 HZ NSC 07/06 Q1026 NOSIG=
201211142150 METAR COR EGLL 142150Z 05002KT 7000 NSC 07/06 Q1026 BECMG
                        4000 BR=
201211142120 METAR COR EGLL 142120Z 08004KT 8000 NSC 07/05 Q1026 BECMG
                        4000 BR=
201211142050 METAR COR EGLL 142050Z 10005KT 9000 NSC 07/05 Q1026 BECMG
                        4000 BR=
201211142020 METAR COR EGLL 142020Z 08003KT 9000 NSC 07/05 Q1026 BECMG
                        4000 BR=
201211141950 METAR COR EGLL 141950Z 08004KT 9000 NSC 07/06 Q1026 NOSIG=
201211141920 METAR COR EGLL 141920Z 06004KT CAVOK 07/05 Q1025 NOSIG=
201211141850 METAR COR EGLL 141850Z 08004KT CAVOK 08/06 Q1025 NOSIG=
201211141820 METAR COR EGLL 141820Z 09005KT CAVOK 08/06 Q1025 NOSIG=
201211141750 METAR COR EGLL 141750Z 09005KT CAVOK 09/06 Q1025 NOSIG=
201211141720 METAR COR EGLL 141720Z 08005KT CAVOK 09/07 Q1025 NOSIG=
201211141650 METAR COR EGLL 141650Z 09006KT CAVOK 10/07 Q1025 NOSIG=
201211141620 METAR COR EGLL 141620Z 09004KT CAVOK 11/06 Q1025 NOSIG=
201211141550 METAR COR EGLL 141550Z 08005KT CAVOK 12/06 Q1025 NOSIG=
201211141520 METAR COR EGLL 141520Z 09006KT CAVOK 12/05 Q1025 NOSIG=
201211141450 METAR COR EGLL 141450Z 08005KT CAVOK 13/05 Q1025 NOSIG=
201211141420 METAR COR EGLL 141420Z 10006KT CAVOK 13/06 Q1025 NOSIG=
201211141350 METAR COR EGLL 141350Z 09006KT CAVOK 14/06 Q1025 NOSIG=
201211141320 METAR COR EGLL 141320Z 09005KT 040V130 CAVOK 13/07 Q1026
                        NOSIG=
201211141250 METAR COR EGLL 141250Z 08004KT 020V170 9999 FEW028 13/06
                        Q1026 NOSIG=
201211141220 METAR COR EGLL 141220Z VRB03KT 9999 FEW024 14/07 Q1026 NOSIG=
201211141150 METAR COR EGLL 141150Z VRB03KT 9999 FEW012 13/07 Q1026 NOSIG=
201211141120 METAR COR EGLL 141120Z 12005KT 9999 FEW012 12/08 Q1027 NOSIG=
201211141050 METAR COR EGLL 141050Z 15005KT 130V190 9999 SCT012 11/08
                        Q1027 NOSIG=
201211141020 METAR COR EGLL 141020Z 13005KT 100V170 9999 SCT008 BKN011
                        11/09 Q1027 BECMG SCT012=
201211140950 METAR COR EGLL 140950Z 12006KT 9999 FEW008 BKN010 11/09 Q1027
                        BECMG SCT012=
201211140920 METAR COR EGLL 140920Z 14007KT 9999 BKN010 11/09 Q1027 BECMG
                        SCT012=
201211140850 METAR COR EGLL 140850Z 14006KT 9999 OVC010 11/09 Q1027 TEMPO
                        BKN007=
201211140820 METAR COR EGLL 140820Z 11004KT 9999 BKN012 11/09 Q1027 TEMPO
                        BKN007=
201211140750 METAR COR EGLL 140750Z 14006KT 9999 BKN013 11/09 Q1027 TEMPO
                        BKN009=
201211140720 METAR COR EGLL 140720Z 13005KT 100V180 8000 BKN018 10/09
                        Q1027 TEMPO BKN009=
201211140650 METAR COR EGLL 140650Z 12006KT 090V170 9999 FEW022 10/09
                        Q1027 NOSIG=
201211140620 METAR COR EGLL 140620Z 13009KT 100V170 9999 FEW023 10/09
                        Q1027 NOSIG=
201211140550 METAR COR EGLL 140550Z 15005KT 9999 SCT030 11/09 Q1027 NOSIG=
201211140520 METAR COR EGLL 140520Z 15005KT 8000 FEW010 OVC033 11/10 Q1027
                        NOSIG=
201211140450 METAR COR EGLL 140450Z 15006KT 7000 FEW010 BKN033 11/10 Q1027
                        NOSIG=
201211140420 METAR COR EGLL 140420Z 15005KT 6000 FEW010 BKN026 11/10 Q1027
                        NOSIG=
201211140350 METAR COR EGLL 140350Z 16006KT 7000 FEW010 BKN028 11/10 Q1027
                        NOSIG=
201211140320 METAR EGLL 140320Z AUTO 15006KT 6000 OVC027/// 11/10 Q1027=
201211140250 METAR EGLL 140250Z AUTO 14006KT 7000 FEW018/// OVC033///
                        11/10 Q1027=
201211140220 METAR EGLL 140220Z AUTO 14005KT 8000 FEW007/// OVC031///
                        11/10 Q1027=
201211140150 METAR EGLL 140150Z AUTO 15005KT 9999 SCT014/// OVC034///
                        11/10 Q1027=
201211140120 METAR COR EGLL 140120Z 14005KT 9999 FEW010 BKN030 11/10 Q1027
                        NOSIG=
201211140050 METAR COR EGLL 140050Z 16003KT 9999 FEW010 BKN030 11/10 Q1027
                        NOSIG=
201211140020 METAR COR EGLL 140020Z 17003KT 9999 FEW010 BKN034 12/10 Q1027
                        NOSIG=
201211132350 METAR COR EGLL 132350Z 17004KT 9999 FEW010 BKN036 12/10 Q1027
                        NOSIG=
201211132320 METAR COR EGLL 132320Z 18005KT 9999 BKN038 12/10 Q1028 NOSIG=
201211132250 METAR COR EGLL 132250Z 19006KT 130V270 9999 FEW010 BKN040
                        12/11 Q1028 NOSIG=
201211132220 METAR COR EGLL 132220Z 20006KT 150V240 9999 FEW009 BKN040
                        12/11 Q1028 NOSIG=
201211132150 METAR COR EGLL 132150Z 20006KT 150V240 9999 FEW009 BKN040
                        12/11 Q1028 NOSIG=
201211132120 METAR COR EGLL 132120Z 19007KT 150V250 9999 BKN039 12/11
                        Q1028 NOSIG=
201211132050 METAR COR EGLL 132050Z 18008KT 150V240 9999 BKN038 12/11
                        Q1028 NOSIG=
201211132020 METAR COR EGLL 132020Z 18007KT 140V210 9999 BKN043 12/11
                        Q1027 NOSIG=
201211131950 METAR COR EGLL 131950Z 18006KT 140V250 9999 BKN042 12/11
                        Q1027 NOSIG=
201211131920 METAR COR EGLL 131920Z 18006KT 120V220 9999 BKN042 12/11
                        Q1027 NOSIG=
201211131850 METAR COR EGLL 131850Z 19007KT 150V260 9999 BKN042 12/11
                        Q1027 NOSIG=
201211131820 METAR COR EGLL 131820Z 20007KT 140V240 9999 FEW015 BKN042
                        13/11 Q1027 NOSIG=
201211131750 METAR COR EGLL 131750Z 20007G17KT 150V250 9999 FEW012 BKN044
                        13/11 Q1027 NOSIG=
201211131720 METAR COR EGLL 131720Z 20006KT 120V240 9999 OVC041 13/11
                        Q1027 NOSIG=
201211131650 METAR COR EGLL 131650Z 20007KT 160V250 9999 BKN043 13/11
                        Q1026 NOSIG=
201211131620 METAR COR EGLL 131620Z 20007KT 9999 FEW020 BKN041 13/11 Q1026
                        NOSIG=
201211131550 METAR COR EGLL 131550Z 20008KT 9999 FEW016 BKN039 14/11 Q1026
                        NOSIG=
201211131520 METAR COR EGLL 131520Z 20008KT 9999 SCT033 BKN040 14/11 Q1026
                        NOSIG=
201211131450 METAR COR EGLL 131450Z 20010KT 170V240 9999 FEW022 BKN046
                        14/11 Q1026 NOSIG=
201211131420 METAR COR EGLL 131420Z 21008KT 180V250 9999 SCT021 BKN046
                        14/11 Q1026 NOSIG=
201211131350 METAR COR EGLL 131350Z 21008KT 190V260 9999 FEW020 SCT024
                        BKN037 14/11 Q1026 NOSIG=
201211131320 METAR COR EGLL 131320Z 20008KT 180V250 9999 FEW015 BKN040
                        14/11 Q1026 NOSIG=
201211131250 METAR COR EGLL 131250Z 21009KT 9999 FEW015 BKN047 14/11 Q1026
                        NOSIG=
201211131220 METAR EGLL 131220Z 21009KT 160V260 9999 FEW024 BKN047 14/11
                        Q1027=
201211131150 METAR COR EGLL 131150Z 21010KT 180V250 9999 SCT049 15/11
                        Q1027 NOSIG=
201211131120 METAR COR EGLL 131120Z 20010KT 170V250 9999 BKN049 14/11
                        Q1027 NOSIG=
201211131050 METAR COR EGLL 131050Z 21009KT 180V250 9999 BKN048 14/11
                        Q1027 NOSIG=
201211131020 METAR COR EGLL 131020Z 20008KT 170V250 9999 BKN045 13/11
                        Q1027 NOSIG=
201211130950 METAR COR EGLL 130950Z 21007KT 9999 BKN046 12/11 Q1027 NOSIG=
201211130920 METAR COR EGLL 130920Z 21007KT 180V240 9999 BKN044 12/10
                        Q1027 NOSIG=
201211130850 METAR COR EGLL 130850Z 22007KT 9999 BKN044 11/10 Q1027 NOSIG=
201211130820 METAR COR EGLL 130820Z 20007KT 170V230 9999 BKN043 11/10
                        Q1027 NOSIG=
201211130750 METAR COR EGLL 130750Z 21007KT 8000 SCT042 10/10 Q1026 NOSIG=
201211130720 METAR COR EGLL 130720Z 21008KT 8000 SCT041 10/09 Q1026 NOSIG=
201211130650 METAR COR EGLL 130650Z 21007KT 8000 NSC 10/09 Q1026 NOSIG=
201211130620 METAR COR EGLL 130620Z 22007KT 8000 NSC 10/09 Q1025 NOSIG=
201211130550 METAR COR EGLL 130550Z 21006KT 8000 NSC 10/09 Q1025 NOSIG=
201211130520 METAR COR EGLL 130520Z 21008KT CAVOK 10/09 Q1025 NOSIG=
201211130450 METAR COR EGLL 130450Z 22009KT CAVOK 10/09 Q1025 NOSIG=
201211130420 METAR COR EGLL 130420Z 22009KT 9999 FEW039 10/09 Q1024 NOSIG=
201211130350 METAR COR EGLL 130350Z 22007KT CAVOK 10/09 Q1024 NOSIG=
201211130320 METAR COR EGLL 130320Z 22006KT CAVOK 10/09 Q1024 NOSIG=
201211130250 METAR EGLL 130250Z AUTO 21005KT 9999 NCD 11/10 Q1024=
201211130220 METAR EGLL 130220Z AUTO 22007KT 9999 NCD 11/10 Q1024=
201211130150 METAR EGLL 130150Z AUTO 21005KT 9999 NCD 11/10 Q1024=
201211130120 METAR EGLL 130120Z AUTO 22006KT 9999 NCD 11/10 Q1024=
201211130050 METAR COR EGLL 130050Z 21006KT 9000 NSC 11/10 Q1024 NOSIG=
201211130020 METAR COR EGLL 130020Z 22007KT 9000 NSC 11/11 Q1023 NOSIG=
201211122350 METAR COR EGLL 122350Z 22007KT 9000 FEW004 11/11 Q1023 NOSIG=
201211122320 METAR COR EGLL 122320Z 21006KT 9000 FEW003 11/11 Q1023 NOSIG=
201211122250 METAR COR EGLL 122250Z 21006KT 9999 FEW007 11/11 Q1023 TEMPO
                        8000 BKN008=
201211122220 METAR COR EGLL 122220Z 22007KT 9000 FEW006 SCT009 11/11 Q1023
                        TEMPO BKN010=
201211122150 METAR COR EGLL 122150Z 22008KT 9999 FEW008 12/11 Q1023 TEMPO
                        BKN008=
201211122120 METAR COR EGLL 122120Z 21006KT 9999 FEW020 12/11 Q1022 NOSIG=
201211122050 METAR COR EGLL 122050Z 21007KT 190V250 9999 FEW022 12/11
                        Q1022 NOSIG=
201211122020 METAR COR EGLL 122020Z 22006KT 9999 FEW010 12/11 Q1022 TEMPO
                        BKN010=
201211121950 METAR COR EGLL 121950Z 24007KT 9999 SCT010 12/12 Q1022 TEMPO
                        BKN010=
201211121920 METAR COR EGLL 121920Z 23008KT 9999 FEW008 BKN020 12/11 Q1021
                        BECMG BKN014=
201211121850 METAR COR EGLL 121850Z 22007KT 9999 FEW009 BKN011 12/11 Q1021
                        NOSIG=
201211121820 METAR COR EGLL 121820Z 22008KT 9999 FEW008 SCT011 BKN014
                        12/11 Q1021 NOSIG=
201211121750 METAR COR EGLL 121750Z 21007KT 9999 FEW004 SCT006 BKN009
                        11/11 Q1020 NOSIG=
201211121720 METAR COR EGLL 121720Z 22007KT 180V250 9999 SCT005 BKN006
                        11/11 Q1020 NOSIG=
201211121650 METAR COR EGLL 121650Z 20010KT 9999 FEW005 SCT007 BKN011
                        11/10 Q1020 NOSIG=
201211121620 METAR COR EGLL 121620Z 20009KT 7000 FEW005 BKN007 BKN011
                        11/10 Q1020 NOSIG=
201211121550 METAR COR EGLL 121550Z 21010KT 6000 -DZ FEW004 SCT006 BKN012
                        11/10 Q1020 NOSIG=
201211121520 METAR COR EGLL 121520Z 21010KT 9999 VCSH FEW007 SCT009 BKN027
                        11/10 Q1019 BECMG BKN012=
201211121450 METAR COR EGLL 121450Z 21010KT 170V240 6000 -DZ FEW005 SCT006
                        OVC011 11/10 Q1019 TEMPO BKN006=
201211121420 METAR EGLL 121420Z 20010KT 170V260 6000 -DZ SCT007 OVC011
                        10/10 Q1020=
201211121350 METAR COR EGLL 121350Z 20009KT 180V240 6000 -DZ FEW007 SCT010
                        BKN012 10/09 Q1020 NOSIG=
201211121320 METAR COR EGLL 121320Z 20009KT 160V240 6000 -RA FEW008 BKN012
                        10/09 Q1020 NOSIG=
201211121250 METAR COR EGLL 121250Z 20008KT 150V250 9999 -RA FEW010 BKN014
                        10/09 Q1020 NOSIG=
201211121220 METAR COR EGLL 121220Z 19009KT 150V240 9999 -RA FEW013 SCT017
                        BKN034 10/08 Q1020 TEMPO BKN013=
201211121150 METAR COR EGLL 121150Z 20009KT 170V240 9999 -RA FEW020 BKN036
                        10/08 Q1021 NOSIG=
201211121120 METAR COR EGLL 121120Z 18007KT 150V240 9999 -RA FEW018 SCT026
                        09/08 Q1021 NOSIG=
201211121050 METAR COR EGLL 121050Z 18007KT 140V230 8000 -RA BKN024 09/07
                        Q1021 NOSIG=
201211121020 METAR COR EGLL 121020Z 19007KT 140V230 9999 FEW017 BKN042
                        09/07 Q1021 NOSIG=
201211120950 METAR COR EGLL 120950Z 19007KT 150V240 9000 VCSH SCT016 BKN020
                        08/06 Q1021 NOSIG=
201211120920 METAR COR EGLL 120920Z 19006KT 150V230 9999 FEW032 SCT038
                        07/06 Q1021 NOSIG=
201211120850 METAR COR EGLL 120850Z 19005KT 160V230 9999 FEW041 07/05
                        Q1021 NOSIG=
201211120820 METAR COR EGLL 120820Z 18006KT 120V220 CAVOK 06/05 Q1021
                        NOSIG=
201211120750 METAR COR EGLL 120750Z 18006KT 150V220 CAVOK 06/04 Q1021
                        NOSIG=
201211120720 METAR COR EGLL 120720Z 17005KT 140V220 CAVOK 05/04 Q1021
                        NOSIG=
201211120650 METAR COR EGLL 120650Z 18005KT 120V300 CAVOK 05/04 Q1021
                        NOSIG=
201211120620 METAR COR EGLL 120620Z 16005KT 050V220 CAVOK 05/04 Q1021
                        NOSIG=
201211120550 METAR COR EGLL 120550Z 14003KT CAVOK 04/03 Q1020 NOSIG=
201211120520 METAR COR EGLL 120520Z 14003KT CAVOK 05/04 Q1020 NOSIG=
201211120450 METAR COR EGLL 120450Z 15002KT CAVOK 04/03 Q1020 NOSIG=
201211120420 METAR COR EGLL 120420Z 14003KT CAVOK 05/04 Q1020 NOSIG=
201211120350 METAR COR EGLL 120350Z 15003KT CAVOK 04/04 Q1020 NOSIG=
201211120320 METAR EGLL 120320Z AUTO VRB03KT 8000 NCD 04/03 Q1020=
201211120250 METAR EGLL 120250Z AUTO 15003KT 9999 NCD 04/03 Q1020=
201211120220 METAR EGLL 120220Z AUTO 22005KT 9999 NCD 04/03 Q1020=
201211120150 METAR EGLL 120150Z AUTO 22005KT 9999 NCD 04/03 Q1020=
201211120120 METAR COR EGLL 120120Z 21005KT CAVOK 04/03 Q1020 NOSIG=
201211120050 METAR COR EGLL 120050Z 21003KT CAVOK 04/03 Q1020 NOSIG=
201211120020 METAR COR EGLL 120020Z 20003KT CAVOK 04/03 Q1020 NOSIG=
201211112350 METAR COR EGLL 112350Z 20004KT CAVOK 04/03 Q1020 NOSIG=
201211112320 METAR COR EGLL 112320Z 20004KT 180V250 CAVOK 04/03 Q1020
                        NOSIG=
201211112250 METAR COR EGLL 112250Z 22006KT 180V270 CAVOK 05/03 Q1019
                        NOSIG=
201211112220 METAR COR EGLL 112220Z 22006KT 180V250 CAVOK 05/03 Q1019
                        NOSIG=
201211112150 METAR COR EGLL 112150Z 21005KT 180V270 CAVOK 05/03 Q1019
                        NOSIG=
201211112120 METAR COR EGLL 112120Z 24004KT 190V300 CAVOK 05/03 Q1019
                        NOSIG=
201211112050 METAR COR EGLL 112050Z 24005KT 190V280 CAVOK 05/03 Q1019
                        NOSIG=
201211112020 METAR COR EGLL 112020Z 24005KT 210V270 CAVOK 05/03 Q1018
                        NOSIG=
201211111950 METAR COR EGLL 111950Z 22005KT 190V260 CAVOK 06/03 Q1018
                        NOSIG=
201211111920 METAR COR EGLL 111920Z 22006KT 170V270 CAVOK 06/03 Q1017
                        NOSIG=
201211111850 METAR COR EGLL 111850Z 26008KT CAVOK 06/03 Q1018 NOSIG=
201211111820 METAR COR EGLL 111820Z 26006KT 190V290 CAVOK 07/03 Q1017
                        NOSIG=
201211111750 METAR COR EGLL 111750Z 24006KT 200V270 CAVOK 07/03 Q1017
                        NOSIG=
201211111720 METAR COR EGLL 111720Z 29005KT CAVOK 08/03 Q1016 NOSIG=
201211111650 METAR COR EGLL 111650Z 29005KT CAVOK 08/03 Q1016 NOSIG=
201211111620 METAR COR EGLL 111620Z 28007KT CAVOK 08/03 Q1016 NOSIG=
201211111550 METAR COR EGLL 111550Z 27009KT 9999 FEW024 09/03 Q1015 NOSIG=
201211111520 METAR COR EGLL 111520Z 28008KT 9999 FEW020 09/04 Q1015 NOSIG=
201211111450 METAR COR EGLL 111450Z 28006KT 9999 FEW028 10/03 Q1015 NOSIG=
201211111420 METAR EGLL 111420Z 26007KT 220V290 9999 FEW024 10/04 Q1014=
201211111350 METAR COR EGLL 111350Z 27007KT 9999 FEW024 10/04 Q1013 NOSIG=
201211111320 METAR COR EGLL 111320Z 27007KT 240V300 9999 FEW020 10/05
                        Q1013 NOSIG=
201211111250 METAR COR EGLL 111250Z 27007KT 9999 FEW020 10/05 Q1013 NOSIG=
201211111220 METAR COR EGLL 111220Z 29006KT 260V330 CAVOK 09/05 Q1013
                        NOSIG=
201211111150 METAR COR EGLL 111150Z 29006KT CAVOK 09/05 Q1012 NOSIG=
201211111120 METAR COR EGLL 111120Z 28006KT CAVOK 08/05 Q1012 NOSIG=
201211111050 METAR COR EGLL 111050Z 30004KT 270V340 CAVOK 08/05 Q1012
                        NOSIG=
201211111020 METAR COR EGLL 111020Z 26004KT 230V290 CAVOK 06/04 Q1011
                        NOSIG=
201211110950 METAR COR EGLL 110950Z 27004KT 240V300 CAVOK 06/04 Q1011
                        NOSIG=
201211110920 METAR COR EGLL 110920Z 27005KT 220V300 9000 VCFG NSC 04/03
                        Q1011 NOSIG=
201211110850 METAR COR EGLL 110850Z VRB02KT 8000 VCFG NSC 04/03 Q1010
                        NOSIG=
201211110820 METAR COR EGLL 110820Z VRB03KT 7000 VCFG NSC 03/02 Q1010
                        NOSIG=
201211110750 METAR COR EGLL 110750Z 00000KT 7000 VCFG NSC 02/02 Q1010
                        TEMPO 4000 BR=
201211110720 METAR COR EGLL 110720Z 00000KT 5000 MIFG FEW048 02/01 Q1009
                        TEMPO 3000=
201211110650 METAR COR EGLL 110650Z 21004KT 160V250 6000 FEW048 01/00
                        Q1008 TEMPO 3000 BR=
201211110620 METAR COR EGLL 110620Z VRB03KT 5000 BR NSC 01/01 Q1008 TEMPO
                        2500 MIFG=
201211110550 METAR COR EGLL 110550Z 28004KT 6000 NSC 01/01 Q1007 TEMPO
                        2500 MIFG=
201211110520 METAR COR EGLL 110520Z 27004KT 220V290 6000 NSC 02/02 Q1007
                        TEMPO 2500 MIFG=
201211110450 METAR COR EGLL 110450Z VRB02KT 6000 NSC 02/02 Q1006 TEMPO
                        2500 MIFG=
201211110420 METAR EGLL 110420Z AUTO VRB02KT 5000 NCD 02/02 Q1005=
201211110350 METAR EGLL 110350Z AUTO 00000KT 5000 NCD 02/01 Q1005=
201211110320 METAR EGLL 110320Z AUTO 00000KT 5000 NCD 03/02 Q1004=
201211110250 METAR COR EGLL 110250Z VRB02KT 6000 FEW048 03/02 Q1003 TEMPO
                        3000 MIFG=
201211110220 METAR COR EGLL 110220Z VRB02KT 6000 FEW048 03/02 Q1003 TEMPO
                        3500 BR=
201211110150 METAR COR EGLL 110150Z 28003KT 8000 NSC 03/02 Q1003 TEMPO
                        4500 BR=
201211110120 METAR COR EGLL 110120Z 22003KT 7000 NSC 04/03 Q1003 TEMPO
                        4500 BR=
201211110050 METAR EGLL 110050Z NIL=
201211110020 METAR EGLL 110020Z NIL=
201211102350 METAR EGLL 102350Z NIL=
201211102320 METAR EGLL 102320Z NIL=
201211102250 METAR COR EGLL 102250Z 27007KT CAVOK 04/03 Q1001 NOSIG=
201211102220 METAR COR EGLL 102220Z 28005KT CAVOK 05/04 Q1000 NOSIG=
201211102150 METAR COR EGLL 102150Z 27007KT CAVOK 06/04 Q1000 NOSIG=
201211102120 METAR COR EGLL 102120Z 25008KT CAVOK 07/05 Q1000 NOSIG=
201211102050 METAR COR EGLL 102050Z 25008KT CAVOK 07/05 Q0999 NOSIG=
201211102020 METAR COR EGLL 102020Z 24007KT 9999 FEW027 07/06 Q0999 NOSIG=
201211101950 METAR COR EGLL 101950Z 24007KT CAVOK 07/06 Q0998 NOSIG=
201211101920 METAR COR EGLL 101920Z 24008KT CAVOK 08/06 Q0998 NOSIG=
201211101850 METAR COR EGLL 101850Z 21005KT CAVOK 07/06 Q0998 NOSIG=
201211101820 METAR COR EGLL 101820Z 22006KT 200V260 CAVOK 08/06 Q0998
                        NOSIG=
201211101750 METAR COR EGLL 101750Z 25007KT CAVOK 08/07 Q0997 NOSIG=
201211101720 METAR COR EGLL 101720Z 25008KT CAVOK 09/07 Q0997 NOSIG=
201211101650 METAR COR EGLL 101650Z 23006KT 9999 FEW020 09/07 Q0997 NOSIG=
201211101620 METAR COR EGLL 101620Z 25008KT 9999 FEW020 10/07 Q0996 NOSIG=
201211101550 METAR EGLL 101550Z 25008KT 210V280 9999 FEW020 10/07 Q0996=
201211101520 METAR COR EGLL 101520Z 28007KT 9999 FEW015 10/07 Q0996 NOSIG=
201211101450 METAR COR EGLL 101450Z 28006KT 9999 SCT014 10/07 Q0996 NOSIG=
201211101420 METAR COR EGLL 101420Z 28006KT 9999 SCT012 SCT015 10/07 Q0996
                        NOSIG=
201211101350 METAR COR EGLL 101350Z 26007KT 220V290 9999 SCT010 SCT016
                        10/08 Q0996 NOSIG=
201211101320 METAR COR EGLL 101320Z 25006KT 210V270 9999 SCT010 SCT015
                        10/08 Q0996 TEMPO BKN010=
201211101250 METAR COR EGLL 101250Z 28006KT 9999 SCT010 SCT015 10/08 Q0996
                        TEMPO BKN010=
201211101220 METAR COR EGLL 101220Z 27007KT 9999 SCT009 SCT016 10/08 Q0996
                        TEMPO BKN009=
201211101150 METAR COR EGLL 101150Z 27007KT 9999 -RA FEW009 SCT020 10/08
                        Q0996 TEMPO BKN009=
201211101120 METAR COR EGLL 101120Z 25008KT 9999 SCT008 BKN020 10/08 Q0996
                        TEMPO BKN008=
201211101050 METAR COR EGLL 101050Z 25008KT 9999 SCT008 SCT011 09/08 Q0997
                        TEMPO BKN008=
201211101020 METAR COR EGLL 101020Z 25007KT 9999 -RA SCT008 09/08 Q0997
                        TEMPO BKN008=
201211100950 METAR COR EGLL 100950Z 24007KT 9999 SCT006 09/08 Q0997 TEMPO
                        BKN007=
201211100920 METAR COR EGLL 100920Z 25008KT 9999 SCT006 BKN045 09/08 Q0997
                        TEMPO BKN007=
201211100850 METAR COR EGLL 100850Z 25007KT 9999 FEW006 BKN029 09/08 Q0997
                        TEMPO BKN007=
201211100820 METAR COR EGLL 100820Z 25007KT 9999 -RA FEW004 BKN029 09/08
                        Q0997 TEMPO 4500 -DZ BKN007=
201211100750 METAR COR EGLL 100750Z 25007KT 9999 -RA FEW006 BKN030 09/08
                        Q0997 TEMPO BKN007=
201211100720 METAR COR EGLL 100720Z 27005KT 9999 -RA FEW005 BKN029 09/08
                        Q0997 TEMPO 4500 -DZ BKN007=
201211100650 METAR COR EGLL 100650Z 30005KT 9999 RA FEW005 SCT027 09/08
                        Q0997 TEMPO 4500 -DZ BKN007=
201211100620 METAR COR EGLL 100620Z 29008KT 7000 RA SCT005 BKN008 09/08
                        Q0996 TEMPO 3000 -DZ BR=
201211100550 METAR COR EGLL 100550Z 24007KT 200V270 6000 RA FEW005 SCT006
                        BKN009 10/09 Q0996 TEMPO 3000 -DZ
                        BKN004=
201211100520 METAR COR EGLL 100520Z 18009KT 7000 RA FEW009 SCT013 BKN016
                        10/09 Q0996 TEMPO 3000 -DZ SCT004
                        BKN008=
201211100450 METAR COR EGLL 100450Z 18010KT 8000 RA SCT015 BKN018 10/09
                        Q0997 TEMPO 4000 +RA BKN008=
201211100420 METAR COR EGLL 100420Z 18008KT 9000 -RA SCT033 BKN049 10/09
                        Q0997 TEMPO 4000 +RA BKN008=
201211100350 METAR COR EGLL 100350Z 18009KT 9000 -RA FEW014 SCT020 10/09
                        Q0997 TEMPO 4000 +RA BKN008=
201211100320 METAR COR EGLL 100320Z 18008KT 9999 -RA FEW020 SCT046 10/08
                        Q0998 TEMPO RA BKN009=
201211100250 METAR COR EGLL 100250Z 17007KT 9999 -RA BKN047 10/08 Q0998
                        TEMPO RA BKN009=
201211100220 METAR EGLL 100220Z AUTO 18006KT 9999 SCT048/// 10/08 Q0999=
201211100150 METAR EGLL 100150Z AUTO 15005KT 9999 FEW013/// 09/07 Q0999=
201211100120 METAR EGLL 100120Z AUTO 19005KT 9999 FEW023/// SCT033///
                        09/07 Q1000=
201211100050 METAR COR EGLL 100050Z 19007KT 9999 SCT032 09/07 Q1000 NOSIG=
201211100020 METAR COR EGLL 100020Z 19008KT 9999 FEW033 BKN049 09/07 Q1000
                        TEMPO BKN012=
201211092350 METAR COR EGLL 092350Z 19006KT 9999 FEW033 BKN041 09/06 Q1001
                        TEMPO BKN012=
201211092320 METAR COR EGLL 092320Z 17005KT 150V240 9999 SCT037 09/06
                        Q1001 TEMPO BKN012=
201211092250 METAR COR EGLL 092250Z 19006KT 140V250 9999 FEW025 BKN042
                        09/06 Q1002 NOSIG=
201211092220 METAR COR EGLL 092220Z 19008KT 140V240 9999 BKN041 09/06
                        Q1002 NOSIG=
201211092150 METAR COR EGLL 092150Z 19007KT 140V240 9999 SCT035 09/06
                        Q1002 NOSIG=
201211092120 METAR COR EGLL 092120Z 18009KT 150V230 9999 SCT036 09/06
                        Q1003 NOSIG=
201211092050 METAR COR EGLL 092050Z 19007KT 150V240 9999 FEW032 BKN036
                        09/06 Q1003 NOSIG=
201211092020 METAR COR EGLL 092020Z 18008KT 9999 SCT029 BKN033 09/06 Q1003
                        NOSIG=
201211091950 METAR COR EGLL 091950Z 20008KT 170V240 9999 BKN033 09/06
                        Q1004 NOSIG=
201211091920 METAR COR EGLL 091920Z 19007KT 160V250 9999 SCT036 09/06
                        Q1004 NOSIG=
201211091850 METAR COR EGLL 091850Z 19007KT 160V230 9999 FEW022 09/06
                        Q1004 NOSIG=
201211091820 METAR COR EGLL 091820Z 18008KT 150V230 9999 FEW032 09/06
                        Q1005 NOSIG=
201211091750 METAR COR EGLL 091750Z 19007KT 160V240 9999 FEW038 09/06
                        Q1005 NOSIG=
201211091720 METAR COR EGLL 091720Z 19008KT 160V240 9999 FEW022 SCT038
                        09/06 Q1005 NOSIG=
201211091650 METAR EGLL 091650Z 20008KT 170V250 9999 FEW023 SCT029 10/06
                        Q1006=
201211091620 METAR COR EGLL 091620Z 21008KT 180V240 9999 SCT036 10/06
                        Q1006 NOSIG=
201211091550 METAR COR EGLL 091550Z 20009KT 160V250 9999 FEW030 SCT040
                        11/06 Q1006 NOSIG=
201211091520 METAR COR EGLL 091520Z 20009KT 9999 FEW030 SCT039 11/06 Q1007
                        NOSIG=
201211091450 METAR COR EGLL 091450Z 20010KT 170V230 9999 FEW035 BKN039
                        11/06 Q1007 NOSIG=
201211091420 METAR COR EGLL 091420Z 20011KT 180V250 9999 FEW035 BKN042
                        11/06 Q1007 NOSIG=
201211091350 METAR COR EGLL 091350Z 20010KT 9999 SCT035 SCT042 11/07 Q1008
                        NOSIG=
201211091320 METAR COR EGLL 091320Z 20009KT 160V240 9999 FEW021 BKN041
                        11/07 Q1008 NOSIG=
201211091250 METAR COR EGLL 091250Z 21008KT 180V250 9999 SCT017 SCT023
                        BKN040 11/08 Q1009 NOSIG=
201211091220 METAR COR EGLL 091220Z 21008KT 9999 -SHRA BKN013 BKN018 10/08
                        Q1009 BECMG BKN025=
201211091150 METAR COR EGLL 091150Z 21007KT 9999 -SHRA BKN019 11/07 Q1010
                        NOSIG=
201211091120 METAR COR EGLL 091120Z 20007KT 9999 SCT023 BKN044 11/07 Q1011
                        NOSIG=
201211091050 METAR COR EGLL 091050Z 21007KT 170V250 9999 FEW037 BKN045
                        11/07 Q1011 NOSIG=
201211091020 METAR COR EGLL 091020Z 21006KT 160V260 9999 BKN038 10/07
                        Q1012 NOSIG=
201211090950 METAR COR EGLL 090950Z 20008KT 9999 BKN038 10/06 Q1012 NOSIG=
201211090920 METAR COR EGLL 090920Z 20006KT 180V240 9999 BKN040 09/06
                        Q1012 NOSIG=
201211090850 METAR COR EGLL 090850Z 21006KT 9999 BKN043 09/06 Q1012 NOSIG=
201211090820 METAR COR EGLL 090820Z 20006KT 170V240 9999 BKN040 09/06
                        Q1013 NOSIG=
201211090750 METAR COR EGLL 090750Z 20007KT 180V250 9999 BKN037 08/06
                        Q1013 NOSIG=
201211090720 METAR COR EGLL 090720Z 18007KT 150V270 9999 BKN038 08/05
                        Q1013 NOSIG=
201211090650 METAR COR EGLL 090650Z 20007KT 170V240 9999 BKN038 08/05
                        Q1013 NOSIG=
201211090620 METAR COR EGLL 090620Z 23006KT 190V260 9999 FEW020 BKN040
                        08/05 Q1013 NOSIG=
201211090550 METAR COR EGLL 090550Z 21006KT 9999 FEW020 BKN042 08/05 Q1014
                        NOSIG=
201211090520 METAR COR EGLL 090520Z 21005KT 9999 BKN022 BKN037 08/05 Q1014
                        NOSIG=
201211090450 METAR COR EGLL 090450Z 21005KT 9999 SCT024 BKN041 08/05 Q1014
                        NOSIG=
201211090420 METAR COR EGLL 090420Z 21004KT 9999 SCT027 OVC041 08/05 Q1015
                        NOSIG=
201211090350 METAR COR EGLL 090350Z 21005KT 9999 BKN041 08/05 Q1015 NOSIG=
201211090320 METAR COR EGLL 090320Z 21006KT 9999 BKN040 08/05 Q1015 NOSIG=
201211090250 METAR COR EGLL 090250Z 21005KT 9999 BKN040 08/05 Q1015 NOSIG=
201211090220 METAR EGLL 090220Z AUTO 20005KT 9999 OVC040/// 08/05 Q1016=
201211090150 METAR EGLL 090150Z AUTO 18003KT 9999 FEW037/// BKN041///
                        08/05 Q1016=
201211090120 METAR EGLL 090120Z AUTO 20005KT 9999 OVC036/// 08/05 Q1016=
201211090050 METAR COR EGLL 090050Z 22006KT 9999 FEW031 BKN037 08/05 Q1017
                        NOSIG=
201211090020 METAR COR EGLL 090020Z 20005KT 9999 BKN038 08/05 Q1017 NOSIG=
201211082350 METAR COR EGLL 082350Z 24005KT 9999 BKN038 08/05 Q1017 NOSIG=
201211082320 METAR COR EGLL 082320Z 22007KT 9999 BKN036 08/05 Q1017 NOSIG=
201211082250 METAR COR EGLL 082250Z 26009KT 9999 BKN037 09/05 Q1018 NOSIG=
201211082220 METAR COR EGLL 082220Z 25009KT 9999 BKN036 09/06 Q1018 NOSIG=
201211082150 METAR COR EGLL 082150Z 25009KT 9999 BKN036 10/06 Q1018 NOSIG=
201211082120 METAR COR EGLL 082120Z 25009KT 9999 BKN037 10/06 Q1018 NOSIG=
201211082050 METAR COR EGLL 082050Z 25009KT 9999 BKN036 10/06 Q1018 NOSIG=
201211082020 METAR COR EGLL 082020Z 25009KT 9999 BKN036 10/06 Q1018 NOSIG=
201211081950 METAR COR EGLL 081950Z 26007KT 9999 BKN035 10/05 Q1018 NOSIG=
201211081920 METAR COR EGLL 081920Z 26008KT 9999 BKN036 10/05 Q1018 NOSIG=
201211081850 METAR COR EGLL 081850Z 24007KT 200V270 9999 BKN037 10/05
                        Q1018 NOSIG=
201211081820 METAR COR EGLL 081820Z 27008KT 9999 BKN036 10/05 Q1018 NOSIG=
201211081750 METAR COR EGLL 081750Z 27009KT 9999 BKN036 10/05 Q1018 NOSIG=
201211081720 METAR COR EGLL 081720Z 27009KT 9999 BKN036 10/05 Q1018 NOSIG=
201211081650 METAR COR EGLL 081650Z 27009KT 9999 BKN040 11/05 Q1018 NOSIG=
201211081620 METAR COR EGLL 081620Z 27010KT 9999 BKN041 11/05 Q1018 NOSIG=
201211081550 METAR COR EGLL 081550Z 27011KT 9999 BKN040 11/05 Q1018 NOSIG=
201211081520 METAR COR EGLL 081520Z 27010KT 9999 SCT040 12/06 Q1018 NOSIG=
201211081450 METAR COR EGLL 081450Z 27008KT 9999 BKN040 12/06 Q1018 NOSIG=
201211081420 METAR COR EGLL 081420Z 27009KT 9999 FEW030 BKN040 12/06 Q1018
                        NOSIG=
201211081350 METAR COR EGLL 081350Z 27010KT 9999 SCT035 12/06 Q1018 NOSIG=
201211081320 METAR COR EGLL 081320Z 27011KT 9999 SCT035 12/06 Q1018 NOSIG=
201211081250 METAR COR EGLL 081250Z 26009KT 9999 FEW020 SCT034 13/06 Q1018
                        NOSIG=
201211081220 METAR COR EGLL 081220Z 27011KT 9999 FEW020 12/07 Q1018 NOSIG=
201211081150 METAR COR EGLL 081150Z 26011KT 9999 SCT020 SCT040 12/07 Q1019
                        NOSIG=
201211081120 METAR COR EGLL 081120Z 26011KT 9999 SCT014 12/08 Q1019 NOSIG=
201211081050 METAR EGLL 081050Z 26009KT 9999 FEW013 11/07 Q1019=
201211081020 METAR COR EGLL 081020Z 25011KT 9999 FEW011 11/08 Q1019 NOSIG=
201211080950 METAR COR EGLL 080950Z 24010KT 9999 SCT010 10/08 Q1019 NOSIG=
201211080920 METAR COR EGLL 080920Z 24009KT 9999 SCT012 10/07 Q1019 TEMPO
                        BKN014=
201211080850 METAR COR EGLL 080850Z 24010KT 9999 SCT010 SCT020 09/07 Q1020
                        NOSIG=
201211080820 METAR COR EGLL 080820Z 25009KT 9999 SCT011 SCT014 09/07 Q1020
                        TEMPO BKN012=
201211080750 METAR COR EGLL 080750Z 25010KT 9999 SCT011 SCT019 09/07 Q1020
                        TEMPO BKN012=
201211080720 METAR COR EGLL 080720Z 25009KT 9999 SCT011 SCT039 09/07 Q1020
                        TEMPO BKN012=
201211080650 METAR COR EGLL 080650Z 24009KT 9999 FEW013 SCT041 09/07 Q1019
                        TEMPO BKN014=
201211080620 METAR COR EGLL 080620Z 23008KT 190V270 9999 SCT018 BKN039
                        09/07 Q1019 TEMPO BKN014=
201211080550 METAR COR EGLL 080550Z 24008KT 9999 SCT018 SCT038 09/07 Q1019
                        TEMPO BKN014=
201211080520 METAR COR EGLL 080520Z 24009KT 9999 SCT018 BKN037 09/07 Q1019
                        NOSIG=
201211080450 METAR COR EGLL 080450Z 23008KT 9999 SCT020 BKN040 09/06 Q1020
                        NOSIG=
201211080420 METAR COR EGLL 080420Z 23007KT 9999 SCT016 BKN036 09/06 Q1020
                        TEMPO BKN014=
201211080350 METAR COR EGLL 080350Z 25006KT 9999 SCT018 BKN035 08/06 Q1020
                        NOSIG=
201211080320 METAR COR EGLL 080320Z 25006KT 9999 FEW020 SCT040 08/06 Q1020
                        NOSIG=
201211080250 METAR COR EGLL 080250Z 24006KT CAVOK 08/05 Q1021 NOSIG=
201211080220 METAR EGLL 080220Z AUTO 23009KT 9999 SCT035/// 08/06 Q1021=
201211080150 METAR EGLL 080150Z AUTO 23010KT 9999 FEW018/// BKN038///
                        08/06 Q1021=
201211080120 METAR EGLL 080120Z AUTO 24006KT 9999 BKN019/// 09/06 Q1021=
201211080050 METAR COR EGLL 080050Z 23011KT 9999 SCT019 09/06 Q1021 NOSIG=
201211080020 METAR COR EGLL 080020Z 24010KT 9999 BKN019 09/06 Q1022 NOSIG=
201211072350 METAR COR EGLL 072350Z 24009KT 9999 FEW030 09/06 Q1022 NOSIG=
201211072320 METAR COR EGLL 072320Z 23011KT 9999 FEW029 09/06 Q1022 NOSIG=
201211072250 METAR COR EGLL 072250Z 23011KT 9999 SCT025 SCT030 09/06 Q1022
                        NOSIG=
201211072220 METAR COR EGLL 072220Z 23011KT 9999 SCT026 BKN031 09/06 Q1022
                        NOSIG=
201211072150 METAR COR EGLL 072150Z 24011G21KT 9999 BKN027 10/06 Q1023
                        NOSIG=
201211072120 METAR COR EGLL 072120Z 24011KT 9999 BKN027 10/06 Q1023 NOSIG=
201211072050 METAR COR EGLL 072050Z 23012KT 9999 BKN028 09/06 Q1023 NOSIG=
201211072020 METAR COR EGLL 072020Z 22009KT 9999 BKN029 09/05 Q1024 NOSIG=
201211071950 METAR COR EGLL 071950Z 23011KT 9999 BKN029 08/05 Q1024 NOSIG=
201211071920 METAR COR EGLL 071920Z 23011KT 9999 FEW026 08/05 Q1024 NOSIG=
201211071850 METAR COR EGLL 071850Z 23012KT 9999 SCT027 09/05 Q1024 NOSIG=
201211071820 METAR COR EGLL 071820Z 23009KT 9999 FEW027 09/05 Q1024 NOSIG=
201211071750 METAR COR EGLL 071750Z 24011KT 9999 FEW028 09/05 Q1024 NOSIG=
201211071720 METAR COR EGLL 071720Z 25012KT 9999 FEW026 10/05 Q1024 NOSIG=
201211071650 METAR COR EGLL 071650Z 26015KT 9999 BKN024 10/05 Q1024 NOSIG=
201211071620 METAR COR EGLL 071620Z 27013KT 9999 BKN024 10/06 Q1024 NOSIG=
201211071550 METAR COR EGLL 071550Z 27016KT 9999 BKN021 10/06 Q1024 NOSIG=
201211071520 METAR COR EGLL 071520Z 26014KT 9999 BKN021 10/06 Q1024 NOSIG=
201211071450 METAR COR EGLL 071450Z 25015KT 9999 BKN023 10/06 Q1024 NOSIG=
201211071420 METAR COR EGLL 071420Z 26012KT 9999 BKN021 10/06 Q1024 NOSIG=
201211071350 METAR COR EGLL 071350Z 26012KT 9999 FEW019 SCT021 10/06 Q1025
                        NOSIG=
201211071320 METAR COR EGLL 071320Z 26012KT 9999 FEW018 SCT021 09/05 Q1025
                        NOSIG=
201211071250 METAR COR EGLL 071250Z 25011KT 9999 SCT018 SCT021 10/06 Q1025
                        NOSIG=
201211071220 METAR COR EGLL 071220Z 25011KT 9999 SCT016 BKN020 09/06 Q1025
                        NOSIG=
201211071150 METAR COR EGLL 071150Z 25013KT 9999 BKN017 09/06 Q1026 NOSIG=
201211071120 METAR COR EGLL 071120Z 25012KT 220V290 9999 SCT015 SCT018
                        10/06 Q1026 NOSIG=
201211071050 METAR COR EGLL 071050Z 26012KT 9999 FEW013 09/06 Q1026 NOSIG=
201211071020 METAR COR EGLL 071020Z 27011KT 9999 FEW012 09/06 Q1026 NOSIG=
201211070950 METAR COR EGLL 070950Z 26009KT 9999 FEW012 09/06 Q1026 NOSIG=
201211070920 METAR COR EGLL 070920Z 25008KT 9999 FEW010 07/06 Q1026 NOSIG=
201211070850 METAR COR EGLL 070850Z 27009KT 9999 SCT008 07/06 Q1026 TEMPO
                        BKN010=
201211070820 METAR COR EGLL 070820Z 24007KT 9999 BKN008 05/05 Q1026 BECMG
                        SCT012=
201211070750 METAR COR EGLL 070750Z 25008KT 9999 FEW020 05/04 Q1025 TEMPO
                        BKN008=
201211070720 METAR COR EGLL 070720Z 27006KT 9999 FEW020 05/04 Q1025 NOSIG=
201211070650 METAR COR EGLL 070650Z 21005KT 9999 FEW020 05/04 Q1025 NOSIG=
201211070620 METAR COR EGLL 070620Z 21005KT 180V240 9000 NSC 05/04 Q1024
                        NOSIG=
201211070550 METAR COR EGLL 070550Z 26005KT 9000 NSC 05/04 Q1024 NOSIG=
201211070520 METAR COR EGLL 070520Z 25005KT CAVOK 05/04 Q1025 NOSIG=
201211070450 METAR COR EGLL 070450Z 24005KT CAVOK 06/05 Q1024 NOSIG=
201211070420 METAR COR EGLL 070420Z 26005KT CAVOK 06/05 Q1024 NOSIG=
201211070350 METAR COR EGLL 070350Z 27005KT CAVOK 05/04 Q1024 NOSIG=
201211070320 METAR COR EGLL 070320Z 25005KT CAVOK 06/05 Q1024 NOSIG=
201211070250 METAR COR EGLL 070250Z 26006KT 9999 FEW024 07/05 Q1024 NOSIG=
201211070220 METAR EGLL 070220Z AUTO 25007KT 9999 SCT023/// 08/06 Q1024=
201211070150 METAR EGLL 070150Z AUTO 25006KT 9999 BKN023/// 08/06 Q1024=
201211070120 METAR EGLL 070120Z AUTO 26006KT 9999 SCT024/// 07/06 Q1023=
201211070050 METAR COR EGLL 070050Z 27005KT 9999 FEW026 06/05 Q1023 NOSIG=
201211070020 METAR COR EGLL 070020Z 26007KT 9999 SCT026 07/06 Q1023 NOSIG=
201211062350 METAR COR EGLL 062350Z 27005KT 9999 SCT026 08/06 Q1023 NOSIG=
201211062320 METAR COR EGLL 062320Z 26008KT 9999 SCT027 09/06 Q1023 NOSIG=
201211062250 METAR COR EGLL 062250Z 27008KT 9999 FEW021 08/06 Q1022 NOSIG=
201211062220 METAR COR EGLL 062220Z 28008KT 9999 FEW020 08/06 Q1022 NOSIG=
201211062150 METAR COR EGLL 062150Z 28011KT 9999 SCT020 09/06 Q1022 NOSIG=
201211062120 METAR COR EGLL 062120Z 27012KT 9999 FEW023 09/07 Q1022 NOSIG=
201211062050 METAR COR EGLL 062050Z 26011KT CAVOK 10/07 Q1022 NOSIG=
201211062020 METAR COR EGLL 062020Z 27011KT CAVOK 09/07 Q1022 NOSIG=
201211061950 METAR COR EGLL 061950Z 27013KT 9999 FEW028 09/07 Q1022 NOSIG=
201211061920 METAR COR EGLL 061920Z 27011KT 9999 SCT021 OVC025 10/07 Q1022
                        NOSIG=
201211061850 METAR COR EGLL 061850Z 27013KT 9999 FEW020 BKN025 10/07 Q1022
                        NOSIG=
201211061820 METAR COR EGLL 061820Z 27012KT 9999 SCT023 BKN027 10/07 Q1021
                        NOSIG=
201211061750 METAR COR EGLL 061750Z 27012KT 9999 BKN029 09/07 Q1021 NOSIG=
201211061720 METAR COR EGLL 061720Z 26012KT 9999 BKN029 09/07 Q1021 NOSIG=
201211061650 METAR COR EGLL 061650Z 26011KT 9999 -DZ FEW030 BKN034 09/07
                        Q1021 NOSIG=
201211061620 METAR COR EGLL 061620Z 26013KT 9999 -RA FEW038 SCT044 09/06
                        Q1021 NOSIG=
201211061550 METAR COR EGLL 061550Z 27013KT 9999 -RA FEW043 09/06 Q1021
                        NOSIG=
201211061520 METAR COR EGLL 061520Z 27011KT 9999 -RADZ FEW035 10/06 Q1021
                        NOSIG=
201211061450 METAR COR EGLL 061450Z 26012KT 9999 FEW035 BKN041 10/05 Q1021
                        NOSIG=
201211061420 METAR COR EGLL 061420Z 26012KT 9999 BKN033 10/05 Q1021 NOSIG=
201211061350 METAR COR EGLL 061350Z 27011KT 9999 FEW020 SCT048 10/05 Q1021
                        NOSIG=
201211061320 METAR COR EGLL 061320Z 27013KT 9999 FEW020 10/05 Q1021 NOSIG=
201211061250 METAR COR EGLL 061250Z 26011KT 9999 FEW024 10/04 Q1021 NOSIG=
201211061220 METAR COR EGLL 061220Z 27012KT 9999 FEW020 09/04 Q1021 NOSIG=
201211061150 METAR COR EGLL 061150Z 27011KT CAVOK 10/04 Q1021 NOSIG=
201211061120 METAR COR EGLL 061120Z 27010KT CAVOK 09/04 Q1021 NOSIG=
201211061050 METAR COR EGLL 061050Z 29008KT CAVOK 08/04 Q1022 NOSIG=
201211061020 METAR COR EGLL 061020Z 27010KT CAVOK 07/03 Q1021 NOSIG=
201211060950 METAR COR EGLL 060950Z 27009KT CAVOK 06/03 Q1021 NOSIG=
201211060920 METAR COR EGLL 060920Z 26008KT CAVOK 05/03 Q1021 NOSIG=
201211060850 METAR COR EGLL 060850Z 26006KT CAVOK 04/03 Q1021 NOSIG=
201211060820 METAR COR EGLL 060820Z 23005KT 190V270 6000 NSC 02/01 Q1021
                        NOSIG=
201211060750 METAR COR EGLL 060750Z 24006KT 6000 NSC 01/00 Q1020 NOSIG=
201211060720 METAR COR EGLL 060720Z 23005KT 180V260 5000 BR NSC 01/M00
                        Q1020 NOSIG=
201211060650 METAR COR EGLL 060650Z 23005KT 180V260 5000 BR NSC 01/M00
                        Q1020 NOSIG=
201211060620 METAR COR EGLL 060620Z 25007KT 6000 NSC M00/M01 Q1020 TEMPO
                        4000 BR=
201211060550 METAR COR EGLL 060550Z 28003KT 6000 NSC 01/00 Q1019 TEMPO
                        4000 BR=
201211060520 METAR COR EGLL 060520Z 27002KT 4800 BR NSC 01/00 Q1019 NOSIG=
201211060450 METAR EGLL 060450Z NIL=
201211060420 METAR COR EGLL 060420Z 27003KT 4800 BR NSC 01/00 Q1018 NOSIG=
201211060350 METAR COR EGLL 060350Z 30004KT 3400 BR NSC 01/00 Q1018 NOSIG=
201211060320 METAR EGLL 060320Z NIL=
201211060250 METAR COR EGLL 060250Z 30005KT 4000 HZ NSC 01/00 Q1018 NOSIG=
201211060220 METAR EGLL 060220Z AUTO 30005KT 4600 HZ NCD 01/M00 Q1018=
201211060150 METAR EGLL 060150Z AUTO 29004KT 5000 NCD 01/00 Q1018=
201211060120 METAR EGLL 060120Z AUTO 29004KT 5000 NCD 02/01 Q1017=
201211060050 METAR COR EGLL 060050Z 30003KT 7000 NSC 02/01 Q1017 TEMPO
                        4000 BR=
201211060020 METAR COR EGLL 060020Z 29004KT 8000 NSC 03/01 Q1017 NOSIG=
201211052350 METAR COR EGLL 052350Z 29005KT 8000 NSC 03/01 Q1017 NOSIG=
201211052320 METAR COR EGLL 052320Z 29004KT 9000 NSC 04/01 Q1016 NOSIG=
201211052250 METAR COR EGLL 052250Z 29004KT CAVOK 04/02 Q1016 NOSIG=
201211052220 METAR COR EGLL 052220Z 29004KT CAVOK 05/02 Q1015 NOSIG=
201211052150 METAR COR EGLL 052150Z 29005KT CAVOK 05/02 Q1015 NOSIG=
201211052120 METAR COR EGLL 052120Z 31003KT 9000 NSC 05/02 Q1015 NOSIG=
201211052050 METAR COR EGLL 052050Z 31005KT 9000 FEW036 05/02 Q1014 NOSIG=
201211052020 METAR COR EGLL 052020Z 30005KT 9000 FEW036 06/03 Q1014 NOSIG=
201211051950 METAR COR EGLL 051950Z 30005KT 8000 FEW035 06/03 Q1013 NOSIG=
201211051920 METAR COR EGLL 051920Z 29005KT 9999 FEW037 06/03 Q1013 NOSIG=
201211051850 METAR COR EGLL 051850Z 30004KT CAVOK 06/03 Q1013 NOSIG=
201211051820 METAR COR EGLL 051820Z 29004KT CAVOK 07/03 Q1012 NOSIG=
201211051750 METAR COR EGLL 051750Z 30004KT CAVOK 06/03 Q1011 NOSIG=
201211051720 METAR COR EGLL 051720Z 31004KT CAVOK 07/03 Q1011 NOSIG=
201211051650 METAR COR EGLL 051650Z VRB03KT 9999 FEW032 07/03 Q1011 NOSIG=
201211051620 METAR COR EGLL 051620Z 33005KT 300V360 9999 FEW030 08/03
                        Q1010 NOSIG=
201211051550 METAR COR EGLL 051550Z 35006KT 290V010 9999 FEW038 09/02
                        Q1010 NOSIG=
201211051520 METAR COR EGLL 051520Z 34005KT 310V010 9999 FEW034 09/02
                        Q1009 NOSIG=
201211051450 METAR COR EGLL 051450Z 36006KT 320V030 9999 FEW032 09/02
                        Q1009 NOSIG=
201211051420 METAR COR EGLL 051420Z 36006KT 9999 SCT032 09/02 Q1008 NOSIG=
201211051350 METAR COR EGLL 051350Z 01006KT 320V060 9999 SCT030 09/03
                        Q1008 NOSIG=
201211051320 METAR COR EGLL 051320Z 36007KT 320V030 9999 SCT030 09/03
                        Q1008 NOSIG=
201211051250 METAR COR EGLL 051250Z 03008KT 9999 SCT030 10/03 Q1007 NOSIG=
201211051220 METAR COR EGLL 051220Z 03007KT 360V070 9999 FEW030 09/03
                        Q1007 NOSIG=
201211051150 METAR COR EGLL 051150Z 36005KT 330V050 CAVOK 09/04 Q1007
                        NOSIG=
201211051120 METAR COR EGLL 051120Z 02006KT 340V070 9999 FEW029 09/04
                        Q1006 NOSIG=
201211051050 METAR COR EGLL 051050Z 01006KT 310V060 9999 FEW029 09/04
                        Q1006 NOSIG=
201211051020 METAR COR EGLL 051020Z 36007KT 9999 FEW030 08/05 Q1005 NOSIG=
201211050950 METAR COR EGLL 050950Z 01005KT 330V040 CAVOK 07/04 Q1005
                        NOSIG=
201211050920 METAR COR EGLL 050920Z 36006KT 330V030 CAVOK 07/05 Q1004
                        NOSIG=
201211050850 METAR COR EGLL 050850Z 01005KT 330V050 CAVOK 05/04 Q1004
                        NOSIG=
201211050820 METAR COR EGLL 050820Z VRB02KT 9000 NSC 05/04 Q1003 NOSIG=
201211050750 METAR COR EGLL 050750Z 30002KT 7000 NSC 04/04 Q1003 NOSIG=
201211050720 METAR COR EGLL 050720Z VRB02KT 7000 NSC 04/04 Q1002 NOSIG=
201211050650 METAR COR EGLL 050650Z 30003KT 5000 BR SCT048 04/04 Q1002
                        TEMPO 4000=
201211050620 METAR COR EGLL 050620Z VRB03KT 4000 BR SCT030 BKN048 04/04
                        Q1001 BECMG 6000 NSW=
201211050550 METAR COR EGLL 050550Z 35003KT 3000 BR FEW006 SCT025 BKN048
                        04/03 Q1001 TEMPO 5000 BKN008=
201211050520 METAR COR EGLL 050520Z 32003KT 1400 R27R/P1500 BR BCFG BKN002
                        04/03 Q1001 TEMPO 0600 FG BKN001=
201211050450 METAR COR EGLL 050450Z VRB02KT 0900 R27R/P1500 FG VV/// 04/03
                        Q1000 TEMPO 0600=
201211050420 METAR COR EGLL 050420Z VRB03KT 0300 R27R/0600 FG VV/// 04/03
                        Q1000 NOSIG=
201211050350 METAR EGLL 050350Z AUTO VRB02KT 0200 R27R/0450 FG VV/// 03/03
                        Q0999=
201211050320 METAR COR EGLL 050320Z 00000KT 0350 R27R/0500 FG VV/// 03/03
                        Q0999 NOSIG=
201211050250 METAR COR EGLL 050250Z VRB03KT 0200 R27R/0800 FG VV/// 02/02
                        Q0999 NOSIG=
201211050220 METAR EGLL 050220Z AUTO VRB03KT 1800 BR OVC003/// 01/01 Q0999=
201211050150 METAR EGLL 050150Z AUTO 00000KT 0150 R27R/P1500 BCFG BKN004///
                        00/M00 Q0999=
201211050120 METAR EGLL 050120Z AUTO VRB02KT 0250 R27R/0700 FG FEW000///
                        SCT005/// M00/M01 Q0998=
201211050050 METAR COR EGLL 050050Z 00000KT 0400 0100S R27R/P1500 FG VV///
                        01/01 Q0998 NOSIG=
201211050020 METAR COR EGLL 050020Z 03002KT 4000 BR NSC 01/00 Q0998 NOSIG=
201211042350 METAR COR EGLL 042350Z VRB03KT 4000 BR NSC 02/01 Q0998 NOSIG=
201211042320 METAR COR EGLL 042320Z 36003KT 7000 NSC 03/02 Q0997 TEMPO
                        4000 BR=
201211042250 METAR COR EGLL 042250Z 36002KT CAVOK 04/02 Q0997 TEMPO 4000
                        BR=
201211042220 METAR COR EGLL 042220Z 33002KT CAVOK 04/03 Q0997 TEMPO 4000
                        BR=
201211042150 METAR COR EGLL 042150Z 29003KT 9000 NSC 04/03 Q0997 TEMPO
                        4000 BR=
201211042120 METAR COR EGLL 042120Z 28004KT 8000 FEW018 04/02 Q0997 TEMPO
                        4000 BR=
201211042050 METAR COR EGLL 042050Z 29002KT 9000 FEW017 04/02 Q0996 NOSIG=
201211042020 METAR COR EGLL 042020Z VRB02KT 8000 FEW017 03/02 Q0996 NOSIG=
201211041950 METAR COR EGLL 041950Z 28004KT 9999 FEW018 04/02 Q0996 NOSIG=
201211041920 METAR COR EGLL 041920Z 28004KT 9999 FEW019 03/02 Q0996 NOSIG=
201211041850 METAR COR EGLL 041850Z 28006KT 9999 FEW015 04/02 Q0995 NOSIG=
201211041820 METAR COR EGLL 041820Z 27006KT 9999 FEW015 05/02 Q0996 NOSIG=
201211041750 METAR COR EGLL 041750Z 28007KT 9999 SCT018 05/03 Q0995 NOSIG=
201211041720 METAR COR EGLL 041720Z 27007KT 9999 SCT014 BKN018 05/03 Q0995
                        NOSIG=
201211041650 METAR COR EGLL 041650Z 28008KT 9999 BKN014 05/03 Q0994 BECMG
                        SCT014 BKN018=
201211041620 METAR COR EGLL 041620Z 29007KT 260V320 9999 BKN012 05/03
                        Q0994 BECMG SCT014 BKN018=
201211041550 METAR COR EGLL 041550Z 29008KT 9999 BKN012 05/03 Q0994 BECMG
                        SCT012 BKN018=
201211041520 METAR COR EGLL 041520Z 28011KT 9999 BKN010 05/03 Q0993 BECMG
                        SCT 013 BKN018=
201211041450 METAR COR EGLL 041450Z 28013KT 9999 BKN011 05/04 Q0993 BECMG
                        SCT012 BKN016=
201211041420 METAR COR EGLL 041420Z 28015KT 9999 FEW009 BKN011 05/04 Q0992
                        BECMG SCT010 BKN016=
201211041350 METAR COR EGLL 041350Z 27020KT 9999 BKN010 05/03 Q0991 BECMG
                        SCT008 BKN012=
201211041320 METAR COR EGLL 041320Z 27020KT 9999 FEW008 BKN009 05/03 Q0990
                        BECMG SCT009 BKN014=
201211041250 METAR COR EGLL 041250Z 27022KT 9999 FEW007 BKN009 06/05 Q0989
                        BECMG SCT008 BKN013=
201211041220 METAR EGLL 041220Z 27019KT 9999 FEW007 BKN019 07/06 Q0988=
201211041150 METAR COR EGLL 041150Z 30005KT 270V330 9999 FEW014 BKN017
                        09/07 Q0987 TEMPO SHRA BKN009=
201211041120 METAR COR EGLL 041120Z 01004KT 330V060 9999 FEW009 BKN018
                        08/07 Q0987 TEMPO 28014KT SHRA BKN012=
201211041050 METAR COR EGLL 041050Z 03005KT 9999 -RA FEW022 BKN030 08/07
                        Q0986 RERA TEMPO 4500 RA BKN012=
201211041020 METAR COR EGLL 041020Z 04004KT 360V070 9999 RA FEW012 BKN022
                        07/06 Q0987 TEMPO BKN010=
201211040950 METAR COR EGLL 040950Z 10008KT 9999 SCT017 BKN023 07/06 Q0987
                        RERA BECMG 4500 RA BKN012=
201211040920 METAR COR EGLL 040920Z 09010KT 060V130 9000 4000NE RA FEW008
                        BKN012 07/06 Q0988 TEMPO 9999 NSW
                        SCT012 BKN018=
201211040850 METAR COR EGLL 040850Z 07012KT 4000 RADZ FEW021 BKN025 06/05
                        Q0988 TEMPO +RA BKN012=
201211040820 METAR COR EGLL 040820Z 07010KT 8000 RA FEW007 BKN012 06/05
                        Q0990 RERA TEMPO 4000 +RA SCT012
                        BKN018=
201211040750 METAR COR EGLL 040750Z 07009KT 4500 +RA FEW007 BKN018 06/05
                        Q0992 TEMPO 8000 RA BKN012=
201211040720 METAR COR EGLL 040720Z 06009KT 5000 RADZ FEW012 BKN028 05/05
                        Q0992 TEMPO 3500 +RA BKN014=
201211040650 METAR COR EGLL 040650Z 07007KT 9000 RA SCT027 BKN031 05/04
                        Q0993 TEMPO 3000 +SHRA=
201211040620 METAR COR EGLL 040620Z 06007KT 010V090 9999 -RA FEW022 BKN030
                        05/04 Q0994 RERA TEMPO 3000 +SHRA=
201211040550 METAR COR EGLL 040550Z 11005KT 7000 RA FEW019 BKN026 05/04
                        Q0995 TEMPO 3000 +SHRA=
201211040520 METAR COR EGLL 040520Z 13006KT 8000 RA FEW019 BKN025 05/04
                        Q0996 NOSIG=
201211040450 METAR COR EGLL 040450Z 09006KT 9999 -RA FEW030 SCT034 05/03
                        Q0996 BECMG RA=
201211040420 METAR COR EGLL 040420Z 08003KT 9999 FEW035 04/03 Q0996 BECMG
                        RA=
201211040350 METAR COR EGLL 040350Z 06003KT 9999 SCT035 04/03 Q0997 BECMG
                        RA=
201211040320 METAR COR EGLL 040320Z 06004KT 9999 FEW033 03/02 Q0997 BECMG
                        6000 RA BKN020=
201211040250 METAR COR EGLL 040250Z 08003KT CAVOK 02/01 Q0997 BECMG 6000
                        RA BKN020=
201211040220 METAR EGLL 040220Z AUTO 08003KT 6000 NCD 02/01 Q0998=
201211040150 METAR EGLL 040150Z AUTO VRB03KT 5000 NCD 02/01 Q0998=
201211040120 METAR EGLL 040120Z AUTO 10002KT 6000 NCD 02/01 Q0999=
201211040050 METAR COR EGLL 040050Z AUTO 14002KT 7000 NCD 02/01 Q0999
                        NOSIG=
201211040020 METAR COR EGLL 040020Z 16002KT CAVOK 02/01 Q0999 NOSIG=
201211032350 METAR COR EGLL 032350Z 15004KT CAVOK 02/01 Q0999 NOSIG=
201211032320 METAR COR EGLL 032320Z VRB03KT CAVOK 03/01 Q1000 NOSIG=
201211032250 METAR COR EGLL 032250Z 22004KT CAVOK 04/02 Q1000 NOSIG=
201211032220 METAR COR EGLL 032220Z 22005KT 9999 FEW045 04/01 Q1000 NOSIG=
201211032150 METAR COR EGLL 032150Z 21006KT 9999 FEW048 05/02 Q1000 NOSIG=
201211032120 METAR COR EGLL 032120Z 20007KT 180V250 7000 NSC 05/02 Q0999
                        NOSIG=
201211032050 METAR COR EGLL 032050Z 22007KT CAVOK 06/02 Q0999 NOSIG=
201211032020 METAR COR EGLL 032020Z 22007KT CAVOK 06/02 Q0999 NOSIG=
201211031950 METAR EGLL 031950Z 22008KT 9999 FEW033 06/02 Q0999 NOSIG=
201211031920 METAR COR EGLL 031920Z 22008KT 9999 FEW038 07/02 Q0999 NOSIG=
201211031850 METAR COR EGLL 031850Z 22006KT 9999 FEW038 07/03 Q0999 NOSIG=
201211031820 METAR COR EGLL 031820Z 21006KT 180V240 9999 FEW045 07/03
                        Q0998 NOSIG=
201211031750 METAR COR EGLL 031750Z 22006KT 190V260 CAVOK 07/02 Q0998
                        NOSIG=
201211031720 METAR COR EGLL 031720Z 22006KT CAVOK 08/02 Q0998 NOSIG=
201211031650 METAR COR EGLL 031650Z 21006KT 180V240 CAVOK 07/02 Q0998
                        NOSIG=
201211031620 METAR COR EGLL 031620Z 22008KT 9999 FEW028 08/02 Q0998 NOSIG=
201211031550 METAR COR EGLL 031550Z 24011KT 9999 FEW028 08/02 Q0998 NOSIG=
201211031520 METAR COR EGLL 031520Z 25012KT 9999 FEW028 09/02 Q0998 NOSIG=
201211031450 METAR COR EGLL 031450Z 25012KT 9999 FEW035 09/02 Q0997 NOSIG=
201211031420 METAR COR EGLL 031420Z 25013KT 9999 FEW040 09/02 Q0997 NOSIG=
201211031350 METAR COR EGLL 031350Z 25013KT 9999 FEW032 09/02 Q0997 NOSIG=
201211031320 METAR COR EGLL 031320Z 26015KT 9999 FEW045 09/02 Q0996 NOSIG=
201211031250 METAR COR EGLL 031250Z 25017KT 9999 SCT034 10/02 Q0996 NOSIG=
201211031220 METAR COR EGLL 031220Z 27019KT 9999 SCT033 10/02 Q0996 NOSIG=
201211031150 METAR COR EGLL 031150Z 27017KT 9999 FEW034 09/02 Q0996 NOSIG=
201211031120 METAR COR EGLL 031120Z 26018KT 9999 SCT030 10/03 Q0995 NOSIG=
201211031050 METAR COR EGLL 031050Z 26016KT 9999 SCT027 09/03 Q0995 NOSIG=
201211031020 METAR COR EGLL 031020Z 25017KT 9999 FEW025 08/03 Q0995 NOSIG=
201211030950 METAR COR EGLL 030950Z 26015KT 9999 FEW022 08/04 Q0995 NOSIG=
201211030920 METAR COR EGLL 030920Z 23012KT 9999 FEW036 07/04 Q0994 NOSIG=
201211030850 METAR COR EGLL 030850Z 22008KT 9999 FEW040 06/04 Q0994 NOSIG=
201211030820 METAR COR EGLL 030820Z 21006KT 180V250 9999 FEW040 05/04
                        Q0994 NOSIG=
201211030750 METAR COR EGLL 030750Z 20006KT 180V240 9999 FEW046 05/04
                        Q0994 NOSIG=
201211030720 METAR COR EGLL 030720Z 20006KT 170V250 9999 SCT046 04/03
                        Q0994 NOSIG=
201211030650 METAR COR EGLL 030650Z 21006KT 9999 FEW036 BKN046 05/03 Q0993
                        NOSIG=
201211030620 METAR COR EGLL 030620Z 22006KT 190V250 9999 FEW033 SCT047
                        05/03 Q0993 NOSIG=
201211030550 METAR COR EGLL 030550Z 19005KT 9999 FEW035 SCT045 04/03 Q0993
                        NOSIG=
201211030520 METAR COR EGLL 030520Z 18005KT 150V320 9999 FEW039 04/03
                        Q0993 NOSIG=
201211030450 METAR COR EGLL 030450Z VRB05KT 9999 FEW041 04/03 Q0994 NOSIG=
201211030420 METAR EGLL 030420Z 19004KT CAVOK 03/02 Q0994=
201211030350 METAR COR EGLL 030350Z 19005KT CAVOK 03/02 Q0994 NOSIG=
201211030320 METAR COR EGLL 030320Z 19005KT 9999 FEW049 03/02 Q0994 NOSIG=
201211030250 METAR COR EGLL 030250Z 18004KT 9999 FEW049 03/02 Q0995 NOSIG=
201211030220 METAR EGLL 030220Z AUTO 18004KT 9999 NCD 03/01 Q0995=
201211030150 METAR EGLL 030150Z AUTO 21002KT 9999 NCD 04/02 Q0995=
201211030120 METAR EGLL 030120Z AUTO 20006KT 9999 NCD 04/02 Q0995=
201211030050 METAR COR EGLL 030050Z 20005KT CAVOK 04/02 Q0995 NOSIG=
201211030020 METAR COR EGLL 030020Z 21006KT CAVOK 04/02 Q0995 NOSIG=
201211022350 METAR COR EGLL 022350Z 20007KT CAVOK 04/02 Q0995 NOSIG=
201211022320 METAR COR EGLL 022320Z 21006KT CAVOK 04/02 Q0996 NOSIG=
201211022250 METAR COR EGLL 022250Z 22006KT 190V260 CAVOK 04/02 Q0996
                        NOSIG=
201211022220 METAR COR EGLL 022220Z 22006KT CAVOK 04/02 Q0996 NOSIG=
201211022150 METAR COR EGLL 022150Z 22005KT 190V260 CAVOK 05/02 Q0995
                        NOSIG=
201211022120 METAR COR EGLL 022120Z 22005KT 190V250 CAVOK 05/02 Q0995
                        NOSIG=
201211022050 METAR COR EGLL 022050Z 22007KT 190V260 CAVOK 05/03 Q0995
                        NOSIG=
201211022020 METAR COR EGLL 022020Z 21006KT CAVOK 05/03 Q0995 NOSIG=
201211021950 METAR COR EGLL 021950Z 21006KT 180V250 CAVOK 05/03 Q0994
                        NOSIG=
201211021920 METAR COR EGLL 021920Z 21008KT CAVOK 06/03 Q0994 NOSIG=
201211021850 METAR COR EGLL 021850Z 20006KT CAVOK 06/03 Q0994 NOSIG=
201211021820 METAR COR EGLL 021820Z 22007KT 190V250 CAVOK 06/03 Q0994
                        NOSIG=
201211021750 METAR COR EGLL 021750Z 24009KT CAVOK 07/03 Q0993 NOSIG=
201211021720 METAR COR EGLL 021720Z 25009KT CAVOK 07/03 Q0993 NOSIG=
201211021650 METAR COR EGLL 021650Z 25012KT CAVOK 08/02 Q0993 NOSIG=
201211021620 METAR COR EGLL 021620Z 25012KT CAVOK 08/02 Q0992 NOSIG=
201211021550 METAR COR EGLL 021550Z 25012KT 9999 FEW038 09/02 Q0992 NOSIG=
201211021520 METAR COR EGLL 021520Z 26012KT 9999 FEW038 09/03 Q0991 NOSIG=
201211021450 METAR COR EGLL 021450Z 27014KT 9999 FEW038 08/04 Q0991 NOSIG=
201211021420 METAR COR EGLL 021420Z 27013KT 9999 VCSH FEW028 SCT042 08/03
                        Q0991 NOSIG=
201211021350 METAR COR EGLL 021350Z 24017KT 9999 VCSH FEW037 SCT042 11/02
                        Q0990 NOSIG=
201211021320 METAR COR EGLL 021320Z 25016KT 9999 VCSH SCT041 09/02 Q0990
                        NOSIG=
201211021250 METAR COR EGLL 021250Z 24015KT 9999 SCT040 10/02 Q0990 NOSIG=
201211021220 METAR COR EGLL 021220Z 25016G26KT 9999 SCT034 10/03 Q0990
                        NOSIG=
201211021150 METAR COR EGLL 021150Z 25015KT 9999 SCT032 10/03 Q0990 NOSIG=
201211021120 METAR COR EGLL 021120Z 25015KT 9999 FEW033 10/03 Q0990 NOSIG=
201211021050 METAR COR EGLL 021050Z 23011KT 190V260 9999 FEW029 09/04
                        Q0991 NOSIG=
201211021020 METAR COR EGLL 021020Z 22011KT 180V250 9999 FEW027 09/04
                        Q0991 NOSIG=
201211020950 METAR COR EGLL 020950Z 23013KT CAVOK 08/04 Q0990 NOSIG=
201211020920 METAR COR EGLL 020920Z 22010KT 180V250 CAVOK 07/04 Q0990
                        NOSIG=
201211020850 METAR COR EGLL 020850Z 23010G21KT CAVOK 06/03 Q0990 NOSIG=
201211020820 METAR COR EGLL 020820Z 23009KT CAVOK 05/02 Q0990 NOSIG=
201211020750 METAR COR EGLL 020750Z 23008KT CAVOK 04/02 Q0990 NOSIG=
201211020720 METAR COR EGLL 020720Z 24007KT 200V260 CAVOK 04/02 Q0990
                        NOSIG=
201211020650 METAR COR EGLL 020650Z 22006KT CAVOK 04/02 Q0990 NOSIG=
201211020620 METAR COR EGLL 020620Z 22009KT CAVOK 05/02 Q0990 NOSIG=
201211020550 METAR COR EGLL 020550Z 23009KT CAVOK 05/02 Q0990 NOSIG=
201211020520 METAR COR EGLL 020520Z 22010KT CAVOK 05/03 Q0989 NOSIG=
201211020450 METAR COR EGLL 020450Z 23011KT CAVOK 05/03 Q0989 NOSIG=
201211020420 METAR COR EGLL 020420Z 24013KT CAVOK 06/03 Q0989 NOSIG=
201211020350 METAR COR EGLL 020350Z 25013KT CAVOK 07/03 Q0989 NOSIG=
201211020320 METAR COR EGLL 020320Z 25014KT CAVOK 07/03 Q0989 NOSIG=
201211020250 METAR COR EGLL 020250Z 26011KT CAVOK 07/03 Q0988 NOSIG=
201211020220 METAR EGLL 020220Z AUTO 25013KT 9999 NCD 07/03 Q0988=
201211020150 METAR EGLL 020150Z AUTO 24010KT 9999 NCD 06/03 Q0988=
201211020120 METAR EGLL 020120Z AUTO 24014KT 9999 NCD 06/03 Q0987=
201211020050 METAR COR EGLL 020050Z 24012KT CAVOK 06/02 Q0987 NOSIG=
201211020020 METAR COR EGLL 020020Z 24012KT CAVOK 06/02 Q0987 NOSIG=
201211012350 METAR COR EGLL 012350Z 21007KT 9999 FEW033 05/02 Q0987 NOSIG=
201211012320 METAR COR EGLL 012320Z 22008KT CAVOK 05/02 Q0986 NOSIG=
201211012250 METAR COR EGLL 012250Z 21007KT CAVOK 04/02 Q0986 NOSIG=
201211012220 METAR COR EGLL 012220Z 21006KT 170V230 CAVOK 04/02 Q0986
                        NOSIG=
201211012150 METAR COR EGLL 012150Z 20006KT 170V240 CAVOK 04/02 Q0986
                        NOSIG=
201211012120 METAR COR EGLL 012120Z 21007KT CAVOK 04/02 Q0986 NOSIG=
201211012050 METAR COR EGLL 012050Z 22008KT CAVOK 04/02 Q0985 NOSIG=
201211012020 METAR COR EGLL 012020Z 24011KT CAVOK 05/02 Q0985 NOSIG=
201211011950 METAR COR EGLL 011950Z 23009KT CAVOK 05/02 Q0985 NOSIG=
201211011920 METAR COR EGLL 011920Z 25009KT CAVOK 06/02 Q0984 NOSIG=
201211011850 METAR COR EGLL 011850Z 26015KT CAVOK 07/02 Q0984 NOSIG=
201211011820 METAR COR EGLL 011820Z 25012KT CAVOK 06/02 Q0983 NOSIG=
201211011750 METAR COR EGLL 011750Z 23011KT CAVOK 06/03 Q0983 TEMPO SHRA=
201211011720 METAR COR EGLL 011720Z 24010KT CAVOK 07/03 Q0982 TEMPO SHRA=
201211011650 METAR COR EGLL 011650Z 23008KT CAVOK 07/03 Q0982 TEMPO SHRA=
201211011620 METAR COR EGLL 011620Z 25010KT 9999 FEW040 08/03 Q0981 TEMPO
                        SHRA=
201211011550 METAR COR EGLL 011550Z 27011KT 9999 FEW040 08/03 Q0981 TEMPO
                        SHRA=
201211011520 METAR COR EGLL 011520Z 27013KT 9999 FEW030 SCT041 08/04 Q0980
                        NOSIG=
201211011450 METAR COR EGLL 011450Z 26015KT 9999 SCT031 SCT040 08/04 Q0980
                        NOSIG=
201211011420 METAR COR EGLL 011420Z 27014KT 9999 SCT022 SCT030 08/04 Q0979
                        NOSIG=
201211011350 METAR COR EGLL 011350Z 27016KT 9999 SCT022 SCT032 09/05 Q0979
                        NOSIG=
201211011320 METAR COR EGLL 011320Z 26017KT 9999 FEW023 SCT037 08/05 Q0978
                        NOSIG=
201211011250 METAR COR EGLL 011250Z 25016KT 9999 FEW016 SCT038 08/05 Q0978
                        RESHRA TEMPO SHRA=
201211011220 METAR COR EGLL 011220Z 26015KT 9999 SCT024 SCT032 09/04 Q0977
                        TEMPO SHRA=
201211011150 METAR COR EGLL 011150Z 23015KT 9999 SCT020 SCT025 09/04 Q0977
                        TEMPO SHRA=
201211011120 METAR COR EGLL 011120Z 23011KT 9999 FEW013 SCT025 09/05 Q0977
                        TEMPO 7000 SHRA=
201211011050 METAR COR EGLL 011050Z 22010KT 160V250 9999 FEW016 09/06
                        Q0977 NOSIG=
201211011020 METAR COR EGLL 011020Z 22009KT 180V250 9999 FEW008 08/05
                        Q0977 NOSIG=
201211010950 METAR COR EGLL 010950Z 21010KT 9999 FEW008 08/06 Q0977 NOSIG=
201211010920 METAR COR EGLL 010920Z 21009KT 9999 FEW008 08/06 Q0977 NOSIG=
201211010850 METAR COR EGLL 010850Z 21008KT 9999 FEW007 08/06 Q0977 NOSIG=
201211010820 METAR COR EGLL 010820Z 21007KT 9999 FEW006 SCT046 07/06 Q0977
                        NOSIG=
201211010750 METAR COR EGLL 010750Z 22008KT 9999 FEW006 SCT033 07/06 Q0977
                        NOSIG=
201211010720 METAR COR EGLL 010720Z 23007KT 200V260 9999 SCT030 07/06
                        Q0976 NOSIG=
201211010650 METAR COR EGLL 010650Z 22006KT 190V250 9999 -RA FEW010 SCT033
                        07/06 Q0976 NOSIG=
201211010620 METAR COR EGLL 010620Z 22007KT 9999 -RA FEW009 BKN034 07/06
                        Q0976 NOSIG=
201211010550 METAR COR EGLL 010550Z 21006KT 9999 -RA FEW009 SCT040 07/06
                        Q0976 NOSIG=
201211010520 METAR COR EGLL 010520Z 22006KT 180V250 9999 -RA FEW007 SCT009
                        07/06 Q0976 NOSIG=
201211010450 METAR COR EGLL 010450Z 25007KT 9999 -RA FEW015 SCT047 07/06
                        Q0976 NOSIG=
201211010420 METAR COR EGLL 010420Z 27006KT 9999 -RA FEW007 SCT048 07/06
                        Q0976 NOSIG=
201211010350 METAR COR EGLL 010350Z 27005KT 9999 -RA FEW011 SCT018 07/06
                        Q0976 NOSIG=
201211010320 METAR COR EGLL 010320Z 26007KT 9999 RA FEW011 BKN040 08/07
                        Q0976 BECMG NSW=
201211010250 METAR COR EGLL 010250Z 24007KT 9999 RA FEW008 BKN038 08/07
                        Q0976 BECMG NSW=
201211010220 METAR EGLL 010220Z AUTO 24008KT 9999 -RA SCT008/// BKN034///
                        08/07 Q0977=
201211010150 METAR EGLL 010150Z AUTO 24010KT 9999 -RA SCT009/// SCT035///
                        09/08 Q0977 RERA=
201211010120 METAR EGLL 010120Z AUTO 23010KT 9999 RA BKN028/// 09/08 Q0977
                        RERA=
201211010050 METAR COR EGLL 010050Z 21009KT 9999 RA SCT038 BKN045 09/08
                        Q0977 TEMPO 4000=
201211010020 METAR COR EGLL 010020Z 20012G23KT 180V240 8000 +RA BKN019
                        12/09 Q0977 TEMPO 21020G30KT 3000=