##########################################################
# Query made at 01/13/2020 14:04:34 UTC
# Time interval: from 11/01/2018 00:00  to 12/01/2018 23:59  UTC
##########################################################

##########################################################
# EGLL, London / Heathrow Airport (United Kingdom)
# WMO index: 03772
# Latitude 51-29N. Longitude 000-27W. Altitude 24 m.
##########################################################

###################################
#  METAR/SPECI from EGLL
###################################
201812012350 METAR COR EGLL 012350Z AUTO 18006KT 4900 RA BKN009/// BKN014///
                        OVC031/// //////TCU 11/11 Q0997 TEMPO
                        -RA FEW009 BKN013=
201812012320 METAR COR EGLL 012320Z AUTO 17006KT 150V230 8000 -RA FEW014
                        BKN031 11/10 Q0997 TEMPO BKN014=
201812012250 METAR COR EGLL 012250Z AUTO 20007KT 170V250 9999 -RA SCT016///
                        SCT045/// //////TCU 11/10 Q0998 TEMPO
                        BKN014=
201812012220 METAR COR EGLL 012220Z AUTO 23011KT 9999 -RA OVC015/// //////TCU
                        12/09 Q0999 TEMPO BKN014=
201812012150 METAR COR EGLL 012150Z AUTO 23012KT 9999 BKN018 12/09 Q0999
                        TEMPO BKN014=
201812012120 METAR COR EGLL 012120Z AUTO 22009KT 9999 SCT016 BKN020 12/09
                        Q0998 TEMPO BKN014=
201812012050 METAR COR EGLL 012050Z AUTO 23008KT 9999 BKN015 OVC023 12/10
                        Q0999 NOSIG=
201812012020 METAR COR EGLL 012020Z AUTO 22008KT 180V250 9999 OVC016 12/10
                        Q0999 NOSIG=
201812011950 METAR COR EGLL 011950Z AUTO 21009KT 9999 FEW019 BKN023 12/10
                        Q0999 NOSIG=
201812011920 METAR COR EGLL 011920Z AUTO 22010KT 190V250 9999 SCT024 12/10
                        Q0999 NOSIG=
201812011850 METAR COR EGLL 011850Z AUTO 22009KT 190V260 9999 OVC025 12/10
                        Q0999 NOSIG=
201812011820 METAR COR EGLL 011820Z AUTO 21010KT 9999 OVC026 12/10 Q0999
                        NOSIG=
201812011750 METAR COR EGLL 011750Z AUTO 21010KT 180V250 9999 BKN027 12/10
                        Q0999 NOSIG=
201812011720 METAR COR EGLL 011720Z AUTO 21008KT 180V250 9999 FEW017 BKN022
                        12/10 Q0999 NOSIG=
201812011650 METAR COR EGLL 011650Z AUTO 23009KT 190V250 9999 BKN016 OVC027
                        13/11 Q0999 NOSIG=
201812011620 METAR COR EGLL 011620Z AUTO 22009KT 9999 SCT014 SCT022 BKN027
                        13/11 Q0999 NOSIG=
201812011550 METAR COR EGLL 011550Z AUTO 22010KT 190V250 9999 SCT014 13/11
                        Q0999 NOSIG=
201812011520 METAR COR EGLL 011520Z AUTO 22010KT 9999 SCT014 BKN022 13/11
                        Q0999 NOSIG=
201812011450 METAR COR EGLL 011450Z AUTO 22010KT 9999 BKN022 13/12 Q0999
                        NOSIG=
201812011420 METAR COR EGLL 011420Z AUTO 21010KT 9999 FEW009 SCT013 OVC025
                        13/12 Q0999 NOSIG=
201812011350 METAR COR EGLL 011350Z 21011KT 3500 -DZ BKN005 OVC009 13/12
                        Q0999 REDZ BECMG 9999 NSW BKN012=
201812011320 METAR COR EGLL 011320Z AUTO 20010KT 9999 BKN005 OVC009 12/11
                        Q1000 BECMG BKN012=
201812011250 METAR COR EGLL 011250Z AUTO 19010KT 5000 -DZ BKN006 OVC018
                        12/11 Q1000 REDZ TEMPO 3000 DZ=
201812011220 METAR COR EGLL 011220Z AUTO 19014KT 7000 BKN008 11/10 Q1000
                        TEMPO 4000 -DZ=
201812011150 METAR COR EGLL 011150Z AUTO 18015KT 7000 BKN009 OVC016 11/10
                        Q1001 TEMPO 4000 DZ=
201812011120 METAR COR EGLL 011120Z AUTO 17013KT 9999 BKN010 BKN014 OVC025
                        11/10 Q1001 BECMG BKN008=
201812011050 METAR COR EGLL 011050Z AUTO 17012KT 9999 -RA BKN010 OVC014
                        11/09 Q1002 BECMG BKN008=
201812011020 METAR COR EGLL 011020Z 16013KT 6000 -RA BKN010 OVC014 10/09
                        Q1003 BECMG BKN008=
201812010950 METAR COR EGLL 010950Z 16012KT 9999 -RA BKN010 10/09 Q1003
                        TEMPO BKN009=
201812010920 METAR COR EGLL 010920Z 16012KT 9999 -RA BKN011 OVC034 10/09
                        Q1004 TEMPO BKN009=
201812010850 METAR COR EGLL 010850Z 15011KT 9999 -RA BKN013 OVC020 10/09
                        Q1004 TEMPO RA=
201812010820 METAR COR EGLL 010820Z 17010KT 9999 -RA SCT012 BKN045 10/09
                        Q1005 TEMPO 4500 RA BKN012=
201812010750 METAR COR EGLL 010750Z 18011KT 9999 -RA SCT012 BKN025 10/09
                        Q1006 TEMPO 4500 RA BKN012=
201812010720 METAR COR EGLL 010720Z 15008KT 9000 -RA FEW014 BKN024 BKN034
                        09/08 Q1006 TEMPO RA BKN014=
201812010650 METAR COR EGLL 010650Z AUTO 16008KT 120V180 9999 -RA BKN046
                        09/08 Q1006 NOSIG=
201812010620 METAR COR EGLL 010620Z AUTO 18007KT 150V250 9999 -RA FEW029
                        SCT037 BKN047 08/07 Q1007 NOSIG=
201812010550 METAR COR EGLL 010550Z AUTO 17007KT 9999 -RA BKN046/// //////TCU
                        08/07 Q1008 NOSIG=
201812010520 METAR COR EGLL 010520Z AUTO 15004KT 9999 NCD 08/06 Q1008
                        NOSIG=
201812010450 METAR COR EGLL 010450Z AUTO 17004KT 9999 SCT048 08/06 Q1008
                        NOSIG=
201812010420 METAR COR EGLL 010420Z AUTO 17005KT 9999 BKN048 08/06 Q1008
                        NOSIG=
201812010350 METAR COR EGLL 010350Z AUTO 20007KT 9999 NCD 08/06 Q1009
                        NOSIG=
201812010320 METAR COR EGLL 010320Z AUTO 20008KT 9999 NCD 08/06 Q1009
                        NOSIG=
201812010250 METAR COR EGLL 010250Z AUTO 20008KT 9999 BKN044 07/05 Q1010
                        NOSIG=
201812010220 METAR COR EGLL 010220Z AUTO 19006KT 9999 BKN048 07/05 Q1010
                        NOSIG=
201812010150 METAR COR EGLL 010150Z AUTO 18005KT 9999 NCD 06/05 Q1010
                        NOSIG=
201812010120 METAR COR EGLL 010120Z AUTO 21006KT 9999 NCD 06/04 Q1010
                        NOSIG=
201812010050 METAR COR EGLL 010050Z AUTO 20007KT 9999 NCD 06/05 Q1010
                        NOSIG=
201812010020 METAR COR EGLL 010020Z AUTO 20007KT 9999 NCD 06/04 Q1011
                        NOSIG=
201811302350 METAR COR EGLL 302350Z AUTO 20006KT 9999 NCD 06/04 Q1011
                        NOSIG=
201811302320 METAR COR EGLL 302320Z AUTO 21006KT 9999 NCD 06/04 Q1011
                        NOSIG=
201811302250 METAR COR EGLL 302250Z AUTO 21008KT 190V250 9999 NCD 06/04
                        Q1010 NOSIG=
201811302220 METAR COR EGLL 302220Z AUTO 22008KT 9999 NCD 07/04 Q1010
                        NOSIG=
201811302150 METAR COR EGLL 302150Z AUTO 22008KT 190V250 9999 NCD 07/04
                        Q1011 NOSIG=
201811302120 METAR COR EGLL 302120Z AUTO 22007KT 180V260 9999 NCD 07/04
                        Q1011 NOSIG=
201811302050 METAR COR EGLL 302050Z AUTO 21009KT 170V240 9999 NCD 07/05
                        Q1011 NOSIG=
201811302020 METAR COR EGLL 302020Z AUTO 21008KT 9999 NCD 07/05 Q1011
                        NOSIG=
201811301950 METAR COR EGLL 301950Z AUTO 21009KT 180V240 9999 NCD 08/05
                        Q1010 NOSIG=
201811301920 METAR COR EGLL 301920Z AUTO 23010KT 9999 NCD 08/04 Q1010
                        NOSIG=
201811301850 METAR COR EGLL 301850Z AUTO 23010KT 190V250 9999 NCD 08/04
                        Q1010 NOSIG=
201811301820 METAR EGLL 301820Z AUTO 24009KT 9999 NCD 08/04 Q1010=
201811301750 METAR COR EGLL 301750Z AUTO 22010KT 9999 NCD 08/04 Q1010
                        NOSIG=
201811301720 METAR COR EGLL 301720Z AUTO 21009KT 180V250 9999 SCT043 09/05
                        Q1009 NOSIG=
201811301650 METAR COR EGLL 301650Z AUTO 22009KT 190V260 9999 BKN040 10/05
                        Q1009 NOSIG=
201811301620 METAR COR EGLL 301620Z AUTO 24011KT 9999 NCD 09/05 Q1009
                        NOSIG=
201811301550 METAR COR EGLL 301550Z AUTO 24011KT 9999 NCD 10/05 Q1008
                        NOSIG=
201811301520 METAR COR EGLL 301520Z AUTO 25014KT 9999 SCT035 10/05 Q1008
                        NOSIG=
201811301450 METAR COR EGLL 301450Z AUTO 24011KT 9999 FEW036 SCT042 10/05
                        Q1008 NOSIG=
201811301420 METAR COR EGLL 301420Z AUTO 24015KT 9999 NCD 11/05 Q1008
                        NOSIG=
201811301350 METAR COR EGLL 301350Z AUTO 24013KT 9999 SCT032 SCT039 11/06
                        Q1008 NOSIG=
201811301320 METAR COR EGLL 301320Z AUTO 24013KT 9999 SCT032 11/06 Q1008
                        NOSIG=
201811301250 METAR COR EGLL 301250Z AUTO 24014KT 9999 SCT030 11/06 Q1008
                        NOSIG=
201811301220 METAR COR EGLL 301220Z AUTO 24011KT 9999 FEW029 11/06 Q1008
                        NOSIG=
201811301150 METAR COR EGLL 301150Z AUTO 24011KT 9999 NCD 11/07 Q1008
                        NOSIG=
201811301120 METAR COR EGLL 301120Z AUTO 24012KT 9999 NCD 11/07 Q1008
                        NOSIG=
201811301050 METAR COR EGLL 301050Z AUTO 23011KT 9999 NCD 11/07 Q1007
                        NOSIG=
201811301020 METAR COR EGLL 301020Z AUTO 23011KT 9999 NCD 10/07 Q1007
                        NOSIG=
201811300950 METAR COR EGLL 300950Z AUTO 22012KT 9999 NCD 09/06 Q1007
                        NOSIG=
201811300920 METAR COR EGLL 300920Z AUTO 23011KT 9999 NCD 09/06 Q1007
                        NOSIG=
201811300850 METAR COR EGLL 300850Z AUTO 23011KT 9999 NCD 08/06 Q1006
                        NOSIG=
201811300820 METAR COR EGLL 300820Z AUTO 22009KT 9999 NCD 08/06 Q1006
                        NOSIG=
201811300750 METAR COR EGLL 300750Z AUTO 22010KT 9999 NCD 08/06 Q1005
                        NOSIG=
201811300720 METAR COR EGLL 300720Z AUTO 22010KT 9999 NCD 07/06 Q1005
                        NOSIG=
201811300650 METAR COR EGLL 300650Z AUTO 21008KT 9999 NCD 07/06 Q1005
                        NOSIG=
201811300620 METAR COR EGLL 300620Z AUTO 20007KT 9999 NCD 07/06 Q1004
                        NOSIG=
201811300550 METAR COR EGLL 300550Z AUTO 21008KT 9999 NCD 07/06 Q1004
                        NOSIG=
201811300520 METAR COR EGLL 300520Z AUTO 21008KT 9999 NCD 07/06 Q1004
                        NOSIG=
201811300450 METAR COR EGLL 300450Z AUTO 20007KT 9999 NCD 07/06 Q1003
                        NOSIG=
201811300420 METAR COR EGLL 300420Z AUTO 19004KT 9999 NCD 08/06 Q1003
                        NOSIG=
201811300350 METAR COR EGLL 300350Z AUTO 18006KT 9999 NCD 08/06 Q1003
                        NOSIG=
201811300320 METAR COR EGLL 300320Z AUTO 16004KT 9999 NCD 07/06 Q1003
                        NOSIG=
201811300250 METAR COR EGLL 300250Z AUTO 18006KT 9999 NCD 08/07 Q1003
                        NOSIG=
201811300220 METAR COR EGLL 300220Z AUTO 20008KT 9999 NCD 08/07 Q1003
                        NOSIG=
201811300150 METAR COR EGLL 300150Z AUTO 21009KT 9999 NCD 09/07 Q1003
                        NOSIG=
201811300120 METAR COR EGLL 300120Z AUTO 22010KT 9999 NCD 09/07 Q1002
                        NOSIG=
201811300050 METAR COR EGLL 300050Z AUTO 21010KT 9999 NCD 09/07 Q1002
                        NOSIG=
201811300020 METAR COR EGLL 300020Z AUTO 20008KT 9999 NCD 08/07 Q1002
                        NOSIG=
201811292350 METAR COR EGLL 292350Z AUTO 21009KT 9999 FEW030/// SCT039///
                        //////TCU 09/07 Q1002 RERA NOSIG=
201811292320 METAR COR EGLL 292320Z AUTO 23010KT 4900 RA FEW025/// SCT034///
                        BKN044/// //////CB 09/07 Q1002 BECMG
                        9999 NSW=
201811292250 METAR COR EGLL 292250Z AUTO 21011KT 9999 //////TCU 09/06
                        Q1002 TEMPO SHRA=
201811292220 METAR COR EGLL 292220Z AUTO 21013KT 9999 NCD 09/07 Q1002
                        TEMPO SHRA=
201811292150 METAR COR EGLL 292150Z AUTO 20011KT 170V250 9999 FEW038///
                        //////CB 10/08 Q1002 NOSIG=
201811292120 METAR COR EGLL 292120Z AUTO 23014G24KT 9999 -RA FEW030///
                        SCT046/// //////CB 10/08 Q1002 NOSIG=
201811292050 METAR COR EGLL 292050Z AUTO 22013KT 9999 SCT026/// //////TCU
                        11/07 Q1002 TEMPO SHRA=
201811292020 METAR COR EGLL 292020Z AUTO 22012KT 9999 //////TCU 11/07
                        Q1002 TEMPO SHRA=
201811291950 METAR COR EGLL 291950Z AUTO 23011KT 9999 FEW027 11/07 Q1001
                        NOSIG=
201811291920 METAR COR EGLL 291920Z AUTO 22013G23KT 190V250 9999 FEW034
                        11/07 Q1001 NOSIG=
201811291850 METAR COR EGLL 291850Z AUTO 22015KT 9999 FEW029 11/08 Q1001
                        NOSIG=
201811291820 METAR COR EGLL 291820Z AUTO 22015KT 9999 NCD 11/07 Q1001
                        TEMPO SHRA=
201811291750 METAR COR EGLL 291750Z AUTO 21012KT 9999 FEW033/// //////TCU
                        11/08 Q1000 TEMPO SHRA=
201811291720 METAR COR EGLL 291720Z AUTO 22014KT 9999 -RA SCT025/// BKN032///
                        //////CB 12/08 Q1000 TEMPO 4000 SHRA=
201811291650 METAR COR EGLL 291650Z AUTO 21013KT 180V250 9999 -RA SCT028
                        BKN038 BKN046 12/09 Q1000 TEMPO 4000
                        SHRA=
201811291620 METAR COR EGLL 291620Z AUTO 21014G24KT 9999 FEW025 SCT033
                        BKN042 12/08 Q1001 TEMPO 4000 SHRA=
201811291550 METAR COR EGLL 291550Z AUTO 20011KT 9999 FEW027 SCT034 BKN041
                        11/08 Q1001 TEMPO 4000 SHRA=
201811291520 METAR EGLL 291520Z AUTO 21011KT 170V250 9999 FEW032 SCT038
                        BKN045 12/07 Q1001=
201811291450 METAR COR EGLL 291450Z AUTO 21010KT 9999 BKN031 12/08 Q1000
                        NOSIG=
201811291420 METAR COR EGLL 291420Z AUTO 23015KT 9999 SCT031 BKN041 12/07
                        Q1000 NOSIG=
201811291350 METAR COR EGLL 291350Z AUTO 23014KT 9999 SCT028 BKN038 12/07
                        Q1000 NOSIG=
201811291320 METAR COR EGLL 291320Z AUTO 23020KT 9999 SCT029 BKN034 13/07
                        Q0999 NOSIG=
201811291250 METAR COR EGLL 291250Z AUTO 24019G29KT 9999 BKN033 13/08
                        Q0999 NOSIG=
201811291220 METAR COR EGLL 291220Z AUTO 23022KT 9999 SCT031 BKN044 14/08
                        Q0998 NOSIG=
201811291150 METAR COR EGLL 291150Z AUTO 21021G31KT 9999 -RA FEW024 SCT029
                        BKN034 14/10 Q0998 NOSIG=
201811291120 METAR COR EGLL 291120Z AUTO 20024G35KT 9999 BKN026 BKN030
                        OVC049 13/09 Q0997 NOSIG=
201811291050 METAR COR EGLL 291050Z AUTO 19021G31KT 9999 BKN030 BKN037
                        13/09 Q0997 NOSIG=
201811291020 METAR COR EGLL 291020Z AUTO 19020G32KT 9999 FEW027 13/10
                        Q0998 NOSIG=
201811290950 METAR COR EGLL 290950Z AUTO 19020G33KT 9999 SCT015 BKN020
                        BKN042 13/11 Q0998 NOSIG=
201811290920 METAR COR EGLL 290920Z AUTO 19021G31KT 9999 BKN016 OVC026
                        13/11 Q0999 NOSIG=
201811290850 METAR COR EGLL 290850Z AUTO 18018G28KT 9999 -RA SCT017 BKN021
                        OVC045 13/11 Q0999 TEMPO 4000 RA
                        BKN014=
201811290820 METAR COR EGLL 290820Z AUTO 18016KT 9999 -RA SCT018/// BKN022///
                        //////TCU 13/11 Q0999 RERA REDZ TEMPO
                        4000 RA BKN012=
201811290750 METAR COR EGLL 290750Z AUTO 18018KT 9999 SCT012 BKN017 13/11
                        Q0999 TEMPO RA BKN012=
201811290720 METAR COR EGLL 290720Z AUTO 18018G28KT 9999 -RA BKN010 OVC025
                        13/11 Q1000 TEMPO 6000 RA=
201811290650 METAR COR EGLL 290650Z AUTO 18017G27KT 9999 -RA BKN010 OVC016
                        13/11 Q1001 TEMPO 6000 RA=
201811290620 METAR COR EGLL 290620Z AUTO 18015KT 9999 -RA BKN010 OVC021
                        12/11 Q1001 TEMPO 6000 RA=
201811290550 METAR COR EGLL 290550Z AUTO 18013KT 9999 -RA BKN011TCU 12/11
                        Q1002 RERA REDZ NOSIG=
201811290520 METAR COR EGLL 290520Z AUTO 19014KT 9999 -RA BKN009/// OVC013///
                        //////CB 12/11 Q1002 TEMPO 3000 +RA=
201811290450 METAR COR EGLL 290450Z AUTO 18016KT 5000 -RADZ BKN009 OVC015
                        12/11 Q1003 TEMPO 3000 +RA=
201811290420 METAR COR EGLL 290420Z AUTO 18014KT 9999 -RA BKN008 OVC020
                        12/11 Q1003 TEMPO 6000=
201811290350 METAR COR EGLL 290350Z AUTO 18015KT 9999 -RA BKN009 OVC013
                        12/11 Q1004 TEMPO 6000=
201811290320 METAR COR EGLL 290320Z AUTO 18012KT 9999 -RA BKN009 OVC017
                        12/11 Q1004 TEMPO 6000=
201811290250 METAR COR EGLL 290250Z AUTO 19011KT 9999 -RA SCT007 OVC012
                        12/11 Q1005 TEMPO 6000 -RA BKN008=
201811290220 METAR COR EGLL 290220Z AUTO 18011KT 7000 -RA SCT006 BKN010
                        OVC016 12/12 Q1005 NOSIG=
201811290150 METAR COR EGLL 290150Z AUTO 18008KT 3700 -DZ FEW006 BKN009
                        OVC026 12/11 Q1006 TEMPO 5000=
201811290120 METAR COR EGLL 290120Z AUTO 19008KT 9999 SCT021 BKN028 BKN036
                        12/11 Q1006 BECMG BKN012=
201811290050 METAR COR EGLL 290050Z AUTO 19006KT 9000 BKN023 BKN036 13/10
                        Q1006 BECMG BKN012=
201811290020 METAR EGLL 290020Z AUTO 20006KT 9000 SCT022 BKN029 12/10
                        Q1006=
201811282350 METAR COR EGLL 282350Z AUTO 21010KT 9000 SCT022 BKN037 13/10
                        Q1007 NOSIG=
201811282320 METAR COR EGLL 282320Z AUTO 21010KT 9000 SCT022 BKN030 BKN037
                        13/10 Q1007 NOSIG=
201811282250 METAR COR EGLL 282250Z AUTO 22011KT 9000 FEW023 SCT030 BKN038
                        13/10 Q1007 NOSIG=
201811282220 METAR COR EGLL 282220Z AUTO 22012KT 9999 SCT024 BKN036 13/10
                        Q1006 NOSIG=
201811282150 METAR COR EGLL 282150Z AUTO 22014KT 9999 BKN021 BKN030 BKN038
                        13/11 Q1006 NOSIG=
201811282120 METAR COR EGLL 282120Z AUTO 22013KT 9999 SCT021 SCT026 BKN033
                        13/11 Q1006 NOSIG=
201811282050 METAR COR EGLL 282050Z AUTO 23015KT 9999 SCT021 BKN029 13/11
                        Q1006 NOSIG=
201811282020 METAR COR EGLL 282020Z AUTO 22015KT 9999 -RA FEW020 BKN025
                        BKN035 14/11 Q1005 NOSIG=
201811281950 METAR COR EGLL 281950Z AUTO 22016KT 9999 FEW022 SCT027 BKN045
                        14/11 Q1006 NOSIG=
201811281920 METAR COR EGLL 281920Z AUTO 22016G30KT 9999 SCT020 BKN028
                        BKN036 14/12 Q1005 NOSIG=
201811281850 METAR COR EGLL 281850Z AUTO 21014KT 9999 -RA SCT007 SCT012
                        BKN016 13/12 Q1005 RERA REDZ NOSIG=
201811281820 METAR COR EGLL 281820Z AUTO 21014KT 6000 -RA SCT015 BKN024
                        BKN035 13/12 Q1005 TEMPO 4000 RADZ
                        BKN014=
201811281750 METAR COR EGLL 281750Z AUTO 21012KT 9999 BKN045 13/12 Q1005
                        TEMPO -RADZ BKN012=
201811281720 METAR COR EGLL 281720Z AUTO 21016KT 9999 -RA FEW009 SCT042
                        BKN048 13/12 Q1005 RERA REDZ TEMPO
                        4000 RADZ BKN008=
201811281650 METAR COR EGLL 281650Z AUTO 21015KT 3600 -RADZ SCT011 SCT018
                        BKN025 13/12 Q1005 TEMPO 9999 BKN012=
201811281620 METAR COR EGLL 281620Z AUTO 21016G26KT 8000 -RA SCT012 BKN017
                        BKN022 13/12 Q1005 TEMPO 4000 RADZ
                        BKN008=
201811281550 METAR COR EGLL 281550Z AUTO 21017KT 9999 -RA BKN012 OVC020
                        13/12 Q1005 TEMPO 4000 RADZ BKN008=
201811281520 METAR COR EGLL 281520Z AUTO 20017KT 5000 -DZ BKN011 OVC027
                        13/11 Q1005 TEMPO 4000 RADZ BKN008=
201811281450 METAR COR EGLL 281450Z AUTO 20019KT 9999 BKN012 BKN019 OVC029
                        13/11 Q1005 NOSIG=
201811281420 METAR COR EGLL 281420Z AUTO 20017G29KT 9999 BKN012 OVC022
                        13/11 Q1005 NOSIG=
201811281350 METAR COR EGLL 281350Z AUTO 20017G27KT 5000 -RA BKN012 OVC026
                        13/12 Q1005 TEMPO 4000 -RADZ BKN008=
201811281320 METAR COR EGLL 281320Z AUTO 20018KT 8000 BKN012 OVC017 13/12
                        Q1005 TEMPO 4000 -RADZ BKN008=
201811281250 METAR COR EGLL 281250Z AUTO 21014KT 9999 OVC010 13/12 Q1006
                        NOSIG=
201811281220 METAR COR EGLL 281220Z AUTO 20014KT 9000 -RA BKN010 OVC016
                        13/12 Q1006 NOSIG=
201811281150 METAR COR EGLL 281150Z AUTO 20015KT 6000 BKN011 BKN017 OVC021
                        13/12 Q1006 TEMPO 4000 -RADZ BKN008=
201811281120 METAR COR EGLL 281120Z AUTO 20017KT 9999 SCT010 BKN014 OVC020
                        13/12 Q1007 TEMPO 4000 -RADZ BKN008=
201811281050 METAR COR EGLL 281050Z AUTO 20014KT 9999 OVC011 13/12 Q1007
                        TEMPO 4000 -RADZ BKN008=
201811281020 METAR COR EGLL 281020Z AUTO 20013KT 5000 HZ BKN009 OVC014
                        13/12 Q1007 TEMPO SCT009 OVC014=
201811280950 METAR COR EGLL 280950Z AUTO 20015KT 4700 HZ BKN008 OVC020
                        13/12 Q1007 NOSIG=
201811280920 METAR COR EGLL 280920Z AUTO 20012KT 5000 HZ BKN007 BKN012
                        OVC020 13/12 Q1007 TEMPO RA BKN007=
201811280850 METAR COR EGLL 280850Z AUTO 19010KT 4200 -RADZ BKN009///
                        OVC015/// //////TCU 13/12 Q1007 TEMPO
                        6000 -RADZ BKN012=
201811280820 METAR COR EGLL 280820Z AUTO 20010KT 9000 BKN009/// OVC019///
                        //////TCU 13/12 Q1007 TEMPO SCT009
                        OVC019=
201811280750 METAR COR EGLL 280750Z 19009KT 160V230 8000 -RA SCT007 OVC012
                        12/12 Q1007 TEMPO RA=
201811280720 METAR COR EGLL 280720Z 17008KT 150V230 9999 -RA BKN007 BKN013
                        OVC019 12/12 Q1007 TEMPO 4000 RA
                        BKN007=
201811280650 METAR COR EGLL 280650Z 16010KT 6000 -RA BKN008 BKN014 11/11
                        Q1007 NOSIG=
201811280620 METAR COR EGLL 280620Z AUTO 17010KT 3700 -RADZ SCT006 BKN009
                        BKN014 11/10 Q1007 TEMPO RA=
201811280550 METAR COR EGLL 280550Z AUTO 16011KT 6000 -RA BKN007 BKN011
                        OVC019 11/10 Q1007 TEMPO 4000 RA=
201811280520 METAR COR EGLL 280520Z AUTO 16010KT 6000 -RA BKN007 BKN010
                        OVC016 10/10 Q1008 TEMPO 4000 RA=
201811280450 METAR COR EGLL 280450Z AUTO 16010KT 4300 -DZ BKN008 BKN013
                        OVC021 10/10 Q1008 RERA REDZ TEMPO
                        5000 -RA SCT008 BKN012=
201811280420 METAR COR EGLL 280420Z 16009KT 4100 RADZ BKN011 OVC024 10/10
                        Q1008 TEMPO 6000 -RA BKN015=
201811280350 METAR COR EGLL 280350Z 16007KT 9000 -RA SCT012 SCT026 BKN032
                        10/10 Q1008 TEMPO BKN012=
201811280320 METAR COR EGLL 280320Z AUTO 17007KT 8000 -RA FEW040/// BKN048///
                        //////TCU 10/09 Q1008 TEMPO BKN014=
201811280250 METAR COR EGLL 280250Z AUTO 17006KT 9999 FEW012 09/09 Q1009
                        NOSIG=
201811280220 METAR COR EGLL 280220Z AUTO 16006KT 9999 -RA NCD 09/09 Q1009
                        NOSIG=
201811280150 METAR COR EGLL 280150Z AUTO 14003KT 9000 -RA BKN027 09/08
                        Q1009 NOSIG=
201811280120 METAR COR EGLL 280120Z AUTO 15004KT 9999 BKN031 08/08 Q1009
                        NOSIG=
201811280050 METAR COR EGLL 280050Z AUTO VRB02KT 7000 FEW040 08/08 Q1009
                        TEMPO 4000 BR=
201811280020 METAR COR EGLL 280020Z AUTO 14003KT 8000 NCD 08/08 Q1009
                        TEMPO 4000 BR=
201811272350 METAR COR EGLL 272350Z AUTO 18004KT 5000 BR NCD 09/08 Q1009
                        TEMPO 4000=
201811272320 METAR COR EGLL 272320Z AUTO 20005KT 9000 NCD 09/08 Q1009
                        TEMPO 4000 BR=
201811272250 METAR COR EGLL 272250Z AUTO 22006KT 7000 NCD 09/09 Q1009
                        TEMPO 4000=
201811272220 METAR COR EGLL 272220Z AUTO 21007KT 170V250 7000 NCD 09/09
                        Q1009 TEMPO 4000 BR=
201811272150 METAR COR EGLL 272150Z AUTO 19007KT 160V240 6000 NCD 09/08
                        Q1009 TEMPO 4000=
201811272120 METAR COR EGLL 272120Z AUTO 22006KT 170V250 8000 NCD 09/09
                        Q1008 TEMPO 4000 BR=
201811272050 METAR COR EGLL 272050Z AUTO 20008KT 160V250 9999 NCD 10/09
                        Q1008 NOSIG=
201811272020 METAR COR EGLL 272020Z AUTO 19008KT 150V240 9999 FEW012 10/09
                        Q1008 TEMPO BKN012=
201811271950 METAR COR EGLL 271950Z AUTO 19009KT 160V240 9999 BKN009 BKN014
                        OVC030 10/09 Q1008 TEMPO SCT014 BKN030=
201811271920 METAR COR EGLL 271920Z AUTO 16006KT 9999 SCT010 BKN015 OVC020
                        10/09 Q1008 TEMPO BKN010=
201811271850 METAR COR EGLL 271850Z AUTO 16010KT 9999 SCT008/// BKN012///
                        BKN016/// //////TCU 10/09 Q1008 BECMG
                        BKN040=
201811271820 METAR COR EGLL 271820Z AUTO 16013KT 5000 -RA BKN007/// BKN012///
                        OVC026/// //////TCU 10/09 Q1008 RERA
                        REDZ BECMG 8000=
201811271750 METAR COR EGLL 271750Z AUTO 14010KT 4300 -RADZ BKN007///
                        OVC035/// //////TCU 09/08 Q1008 BECMG
                        8000=
201811271720 METAR COR EGLL 271720Z AUTO 13012KT 8000 -RA BKN007/// BKN013///
                        OVC023/// //////TCU 09/08 Q1008 TEMPO
                        4000 RA=
201811271650 METAR COR EGLL 271650Z 13013KT 7000 -RA BKN007 BKN011 OVC016
                        08/08 Q1009 TEMPO RA=
201811271620 METAR COR EGLL 271620Z AUTO 14014KT 6000 -RA BKN009/// OVC013///
                        //////TCU 08/07 Q1009 TEMPO RA=
201811271550 METAR COR EGLL 271550Z AUTO 14014KT 9999 -RA OVC009 08/07
                        Q1010 TEMPO 4000 RA=
201811271520 METAR COR EGLL 271520Z AUTO 14012KT 9999 -RA OVC010/// //////TCU
                        08/07 Q1010 TEMPO 4000 RA=
201811271450 METAR COR EGLL 271450Z AUTO 14012KT 9999 -RA BKN011 OVC030
                        08/06 Q1011 TEMPO 4000 RA BKN008=
201811271420 METAR COR EGLL 271420Z AUTO 13010KT 8000 -RA BKN013 BKN021
                        OVC045 07/06 Q1011 TEMPO 4000 RA
                        BKN008=
201811271350 METAR COR EGLL 271350Z AUTO 12009KT 6000 -RA FEW018 BKN022
                        BKN036 07/06 Q1012 TEMPO BKN014=
201811271320 METAR COR EGLL 271320Z AUTO 13009KT 6000 -RA FEW011 SCT018
                        BKN041 07/06 Q1013 TEMPO BKN010=
201811271250 METAR COR EGLL 271250Z AUTO 13010KT 6000 -RA BKN022 BKN042
                        06/05 Q1013 NOSIG=
201811271220 METAR COR EGLL 271220Z AUTO 12009KT 7000 -RA SCT025 BKN037
                        06/04 Q1014 NOSIG=
201811271150 METAR COR EGLL 271150Z AUTO 11009KT 8000 -RA SCT026 05/04
                        Q1014 TEMPO BKN012=
201811271120 METAR COR EGLL 271120Z AUTO 10007KT 6000 NCD 04/04 Q1015
                        TEMPO -RA BKN006=
201811271050 METAR COR EGLL 271050Z AUTO 10007KT 4000 BR BKN002 03/03
                        Q1015 BECMG 5000 -RA OVC005=
201811271020 METAR COR EGLL 271020Z AUTO 12006KT 1700 BR OVC001 03/03
                        Q1016 BECMG 3000 BR OVC002=
201811270950 METAR COR EGLL 270950Z 14004KT 100V170 1200 R09L/1400 R09R/1000
                        BR OVC001 02/02 Q1016 BECMG 2000
                        BR OVC002=
201811270920 METAR COR EGLL 270920Z 12005KT 0700 R09L/1300 R09R/0900 FG
                        BKN001 03/02 Q1016 BECMG 0800 BKN002=
201811270850 METAR COR EGLL 270850Z 12005KT 0350 R09L/0550 R09R/0500 FG
                        OVC001 02/02 Q1016 BECMG 0500=
201811270820 METAR COR EGLL 270820Z 16005KT 130V190 0300 R09L/0500 R09R/0500
                        FG VV/// 02/02 Q1016 TEMPO 0500=
201811270750 METAR COR EGLL 270750Z 12005KT 090V170 0250 R09L/0550 R09R/0550
                        FG VV/// 03/03 Q1016 TEMPO 0500=
201811270720 METAR COR EGLL 270720Z 12005KT 0200 R09L/0450 R09R/0450 FG
                        VV/// 03/03 Q1016 TEMPO 0500=
201811270650 METAR COR EGLL 270650Z 13004KT 0300 R09L/0600 R09R/0450 FG
                        VV/// 03/03 Q1017 TEMPO 0500=
201811270620 METAR COR EGLL 270620Z VRB03KT 0300 R09L/1000 R09R/0600 FG
                        VV/// 03/03 Q1017 TEMPO 0500=
201811270550 METAR COR EGLL 270550Z VRB03KT 0450 R09L/P1500 R09R/0600
                        FG VV/// 04/03 Q1017 TEMPO 0200=
201811270520 METAR COR EGLL 270520Z VRB02KT 0700 R09L/P1500 R09R/P1500
                        FG OVC001 04/03 Q1017 TEMPO 0500=
201811270450 METAR COR EGLL 270450Z AUTO VRB01KT 0900 R09R/P1500 FG OVC001
                        04/04 Q1018 TEMPO 0600=
201811270420 METAR COR EGLL 270420Z VRB02KT 1100 R09R/P1500 BR OVC001
                        04/04 Q1018 TEMPO 1500 OVC002=
201811270350 METAR COR EGLL 270350Z AUTO VRB02KT 1500 BR OVC001 04/04
                        Q1017 TEMPO 1200 OVC002=
201811270320 METAR COR EGLL 270320Z AUTO 33001KT 2100 BR OVC002 04/04
                        Q1017 NOSIG=
201811270250 METAR COR EGLL 270250Z AUTO 27003KT 2100 BR BKN002 OVC006
                        04/03 Q1018 TEMPO BKN003=
201811270220 METAR COR EGLL 270220Z 26004KT 2200 BR OVC003 04/03 Q1018
                        TEMPO OVC002=
201811270150 METAR COR EGLL 270150Z AUTO 29003KT 1800 BR OVC002 04/03
                        Q1018 NOSIG=
201811270120 METAR COR EGLL 270120Z AUTO VRB03KT 1200 R09R/P1500 BR OVC001
                        03/03 Q1018 TEMPO 1500=
201811270050 METAR COR EGLL 270050Z AUTO VRB03KT 1500 BR OVC001 03/03
                        Q1018 TEMPO 1300=
201811270020 METAR COR EGLL 270020Z AUTO 36004KT 330V040 3300 BR BKN002
                        BKN008 03/02 Q1017 TEMPO 2500 SCT002=
201811262350 METAR COR EGLL 262350Z 29003KT 4000 BR NSC 03/02 Q1017 NOSIG=
201811262320 METAR COR EGLL 262320Z 29004KT 4000 BR NSC 02/02 Q1017 TEMPO
                        2500=
201811262250 METAR COR EGLL 262250Z 28006KT 5000 BR NSC 02/02 Q1017 BECMG
                        3000 BR=
201811262220 METAR COR EGLL 262220Z 28003KT 5000 BR NSC 03/02 Q1017 BECMG
                        3000=
201811262150 METAR COR EGLL 262150Z AUTO VRB02KT 7000 NCD 04/03 Q1017
                        TEMPO 4000 BR=
201811262120 METAR COR EGLL 262120Z AUTO 28002KT 5000 HZ NCD 04/03 Q1017
                        NOSIG=
201811262050 METAR COR EGLL 262050Z AUTO 29003KT 9000 NCD 04/03 Q1017
                        NOSIG=
201811262020 METAR COR EGLL 262020Z AUTO 30003KT 9000 NCD 05/03 Q1016
                        NOSIG=
201811261950 METAR COR EGLL 261950Z AUTO 30003KT 9999 SCT048 05/04 Q1016
                        NOSIG=
201811261920 METAR COR EGLL 261920Z AUTO 31003KT 9999 SCT044 06/04 Q1016
                        NOSIG=
201811261850 METAR COR EGLL 261850Z AUTO 36004KT 330V030 9999 FEW046 06/04
                        Q1016 NOSIG=
201811261820 METAR COR EGLL 261820Z AUTO 36006KT 9999 BKN044 07/04 Q1016
                        NOSIG=
201811261750 METAR COR EGLL 261750Z AUTO 35005KT 310V040 9999 BKN037 07/04
                        Q1016 NOSIG=
201811261720 METAR COR EGLL 261720Z AUTO 33005KT 300V360 9999 BKN035 07/04
                        Q1015 NOSIG=
201811261650 METAR COR EGLL 261650Z AUTO 32005KT 9999 BKN028 OVC041 07/04
                        Q1015 NOSIG=
201811261620 METAR COR EGLL 261620Z AUTO 35005KT 320V030 9999 SCT027 BKN031
                        OVC039 08/04 Q1014 NOSIG=
201811261550 METAR COR EGLL 261550Z AUTO 01005KT 320V040 9999 FEW024 BKN029
                        OVC039 08/04 Q1014 NOSIG=
201811261520 METAR COR EGLL 261520Z AUTO 01007KT 320V040 9999 SCT022 BKN028
                        08/04 Q1014 NOSIG=
201811261450 METAR COR EGLL 261450Z AUTO 36006KT 310V030 9999 NCD 08/04
                        Q1014 NOSIG=
201811261420 METAR COR EGLL 261420Z AUTO 36005KT 330V040 9999 SCT021 SCT025
                        BKN044 08/04 Q1014 NOSIG=
201811261350 METAR COR EGLL 261350Z AUTO 36006KT 320V030 9999 FEW020 SCT036
                        BKN049 08/04 Q1014 NOSIG=
201811261320 METAR COR EGLL 261320Z AUTO 36006KT 330V030 9999 FEW020 BKN047
                        08/04 Q1013 NOSIG=
201811261250 METAR COR EGLL 261250Z AUTO 01006KT 330V050 9999 SCT024 BKN029
                        BKN035 08/04 Q1013 NOSIG=
201811261220 METAR COR EGLL 261220Z AUTO 01005KT 330V040 9999 BKN030 BKN038
                        08/04 Q1013 NOSIG=
201811261150 METAR COR EGLL 261150Z AUTO 36006KT 320V050 9999 SCT027 BKN031
                        OVC049 07/04 Q1013 NOSIG=
201811261120 METAR COR EGLL 261120Z AUTO 01006KT 340V050 9999 BKN033 OVC047
                        07/04 Q1013 NOSIG=
201811261050 METAR COR EGLL 261050Z AUTO 01006KT 330V050 9999 BKN030 BKN037
                        07/04 Q1013 NOSIG=
201811261020 METAR COR EGLL 261020Z AUTO 36007KT 330V040 9999 BKN034 BKN042
                        07/04 Q1013 NOSIG=
201811260950 METAR COR EGLL 260950Z AUTO 36006KT 330V030 9999 FEW033 07/04
                        Q1013 NOSIG=
201811260920 METAR COR EGLL 260920Z AUTO 36005KT 310V030 9999 NCD 06/04
                        Q1013 NOSIG=
201811260850 METAR COR EGLL 260850Z AUTO 36006KT 9999 NCD 06/04 Q1013
                        NOSIG=
201811260820 METAR COR EGLL 260820Z AUTO 36005KT 330V040 9999 NCD 06/03
                        Q1013 NOSIG=
201811260750 METAR COR EGLL 260750Z AUTO 36005KT 9999 FEW033 06/03 Q1012
                        NOSIG=
201811260720 METAR COR EGLL 260720Z AUTO 36006KT 9999 NCD 06/03 Q1012
                        NOSIG=
201811260650 METAR COR EGLL 260650Z AUTO 36005KT 9999 NCD 06/03 Q1012
                        NOSIG=
201811260620 METAR COR EGLL 260620Z AUTO 36004KT 320V030 9999 FEW037 06/03
                        Q1012 NOSIG=
201811260550 METAR COR EGLL 260550Z AUTO 02004KT 340V050 9999 NCD 06/03
                        Q1012 NOSIG=
201811260520 METAR COR EGLL 260520Z AUTO 06004KT 020V080 9999 BKN049 06/03
                        Q1011 NOSIG=
201811260450 METAR COR EGLL 260450Z AUTO VRB03KT 9999 OVC046 06/03 Q1011
                        NOSIG=
201811260420 METAR COR EGLL 260420Z AUTO 01005KT 340V040 9999 OVC045 06/03
                        Q1011 NOSIG=
201811260350 METAR COR EGLL 260350Z AUTO 36004KT 320V040 9999 OVC049 06/04
                        Q1011 NOSIG=
201811260320 METAR COR EGLL 260320Z AUTO 03004KT 340V060 9999 OVC047 06/04
                        Q1011 NOSIG=
201811260250 METAR COR EGLL 260250Z AUTO 03005KT 360V070 9999 BKN044 06/04
                        Q1011 NOSIG=
201811260220 METAR COR EGLL 260220Z AUTO 03004KT 350V060 9999 OVC040 06/04
                        Q1011 NOSIG=
201811260150 METAR COR EGLL 260150Z AUTO 02004KT 330V060 9999 OVC037 06/04
                        Q1011 NOSIG=
201811260120 METAR COR EGLL 260120Z AUTO 01005KT 9000 OVC036 06/04 Q1011
                        NOSIG=
201811260050 METAR COR EGLL 260050Z AUTO 01005KT 330V040 9000 OVC039 06/04
                        Q1011 NOSIG=
201811260020 METAR COR EGLL 260020Z AUTO 04005KT 360V060 9000 OVC033 06/04
                        Q1011 NOSIG=
201811252350 METAR COR EGLL 252350Z AUTO VRB03KT 9000 BKN035 OVC042 05/03
                        Q1011 NOSIG=
201811252320 METAR COR EGLL 252320Z AUTO 36004KT 9000 OVC032 05/03 Q1012
                        NOSIG=
201811252250 METAR COR EGLL 252250Z AUTO VRB03KT 9000 BKN030 05/03 Q1011
                        NOSIG=
201811252220 METAR COR EGLL 252220Z AUTO VRB03KT 9000 NCD 04/03 Q1011
                        NOSIG=
201811252150 METAR COR EGLL 252150Z AUTO VRB03KT 9999 NCD 05/03 Q1011
                        NOSIG=
201811252120 METAR COR EGLL 252120Z AUTO 04005KT 360V070 9999 BKN018 BKN043
                        06/03 Q1011 NOSIG=
201811252050 METAR COR EGLL 252050Z AUTO 05006KT 9999 BKN018 OVC042 07/04
                        Q1011 NOSIG=
201811252020 METAR COR EGLL 252020Z AUTO 04006KT 9999 OVC042 07/04 Q1011
                        NOSIG=
201811251950 METAR EGLL 251950Z AUTO 04005KT 010V070 9999 BKN032 OVC043
                        07/04 Q1011=
201811251920 METAR COR EGLL 251920Z AUTO 04005KT 360V070 9999 SCT020 BKN027
                        OVC032 07/04 Q1011 NOSIG=
201811251850 METAR COR EGLL 251850Z AUTO VRB03KT 9999 -RA BKN018 OVC042
                        07/04 Q1011 NOSIG=
201811251820 METAR COR EGLL 251820Z AUTO VRB03KT 9999 SCT022 BKN027 BKN032
                        07/04 Q1011 NOSIG=
201811251750 METAR COR EGLL 251750Z AUTO 04004KT 9999 SCT026 BKN043 07/03
                        Q1011 NOSIG=
201811251720 METAR COR EGLL 251720Z AUTO 06004KT 9999 FEW022 SCT028 BKN037
                        07/04 Q1011 NOSIG=
201811251650 METAR COR EGLL 251650Z AUTO 06006KT 9999 BKN022 OVC031 08/04
                        Q1011 NOSIG=
201811251620 METAR COR EGLL 251620Z AUTO 06006KT 9999 BKN021 BKN026 OVC031
                        08/04 Q1011 NOSIG=
201811251550 METAR COR EGLL 251550Z 06005KT 9999 BKN022 OVC030 08/04 Q1011
                        NOSIG=
201811251520 METAR COR EGLL 251520Z AUTO 06008KT 9999 SCT024 BKN029 08/04
                        Q1011 NOSIG=
201811251450 METAR COR EGLL 251450Z 06007KT 9999 SCT029 BKN033 08/04 Q1010
                        NOSIG=
201811251420 METAR COR EGLL 251420Z AUTO 06007KT 020V080 9999 SCT024 BKN029
                        BKN034 08/04 Q1011 NOSIG=
201811251350 METAR COR EGLL 251350Z AUTO 06009KT 9999 SCT023 BKN032 08/04
                        Q1011 NOSIG=
201811251320 METAR COR EGLL 251320Z AUTO 06009KT 9999 FEW026 BKN045 08/04
                        Q1010 NOSIG=
201811251250 METAR COR EGLL 251250Z AUTO 07010KT 9999 FEW037 OVC044 08/04
                        Q1010 NOSIG=
201811251220 METAR COR EGLL 251220Z AUTO 07010KT 030V100 9999 FEW022 SCT027
                        BKN045 08/04 Q1010 NOSIG=
201811251150 METAR COR EGLL 251150Z AUTO 07010KT 9999 BKN021 08/04 Q1010
                        NOSIG=
201811251120 METAR COR EGLL 251120Z AUTO 08010KT 9999 SCT020 BKN025 OVC032
                        08/04 Q1010 NOSIG=
201811251050 METAR COR EGLL 251050Z AUTO 06009KT 030V090 9000 BKN018 OVC027
                        08/04 Q1011 NOSIG=
201811251020 METAR COR EGLL 251020Z AUTO 06008KT 8000 OVC017 07/04 Q1011
                        NOSIG=
201811250950 METAR COR EGLL 250950Z 06009KT 8000 BKN016 07/04 Q1011 NOSIG=
201811250920 METAR COR EGLL 250920Z 06007KT 8000 BKN018 07/04 Q1011 NOSIG=
201811250850 METAR COR EGLL 250850Z AUTO 05007KT 8000 BKN015 OVC022 07/04
                        Q1011 NOSIG=
201811250820 METAR COR EGLL 250820Z AUTO 05006KT 7000 BKN014 OVC022 07/04
                        Q1010 TEMPO SCT014=
201811250750 METAR COR EGLL 250750Z AUTO 05006KT 010V080 6000 BKN012 OVC040
                        07/05 Q1010 TEMPO SCT012=
201811250720 METAR COR EGLL 250720Z AUTO 05007KT 010V070 5000 HZ BKN012
                        BKN020 OVC035 07/05 Q1010 TEMPO SCT012=
201811250650 METAR COR EGLL 250650Z AUTO 04006KT 6000 FEW013 SCT019 BKN029
                        07/04 Q1010 NOSIG=
201811250620 METAR COR EGLL 250620Z AUTO 05007KT 6000 FEW018 BKN025 OVC039
                        07/04 Q1010 NOSIG=
201811250550 METAR COR EGLL 250550Z AUTO 05008KT 6000 SCT019 BKN025 BKN032
                        07/04 Q1010 NOSIG=
201811250520 METAR COR EGLL 250520Z AUTO 05008KT 7000 SCT018 BKN026 OVC034
                        07/04 Q1009 NOSIG=
201811250450 METAR COR EGLL 250450Z AUTO 05008KT 7000 BKN017 OVC035 07/04
                        Q1009 NOSIG=
201811250420 METAR COR EGLL 250420Z AUTO 06008KT 8000 BKN019 OVC032 07/04
                        Q1009 NOSIG=
201811250350 METAR COR EGLL 250350Z AUTO 06007KT 8000 BKN020 BKN032 07/04
                        Q1009 NOSIG=
201811250320 METAR COR EGLL 250320Z AUTO 05008KT 8000 SCT025 BKN033 07/04
                        Q1009 NOSIG=
201811250250 METAR COR EGLL 250250Z AUTO 05006KT 7000 BKN023 07/04 Q1010
                        NOSIG=
201811250220 METAR COR EGLL 250220Z AUTO 05008KT 7000 OVC023 07/04 Q1010
                        NOSIG=
201811250150 METAR COR EGLL 250150Z AUTO 04006KT 360V070 8000 BKN022 OVC026
                        07/04 Q1010 NOSIG=
201811250120 METAR COR EGLL 250120Z AUTO 05007KT 8000 OVC020 07/04 Q1010
                        NOSIG=
201811250050 METAR COR EGLL 250050Z AUTO 05006KT 8000 OVC020 07/04 Q1010
                        NOSIG=
201811250020 METAR COR EGLL 250020Z AUTO 05006KT 9000 OVC020 07/04 Q1010
                        NOSIG=
201811242350 METAR COR EGLL 242350Z AUTO 06007KT 9999 BKN020 OVC027 07/04
                        Q1010 NOSIG=
201811242320 METAR COR EGLL 242320Z AUTO 06007KT 9000 BKN020 OVC027 07/04
                        Q1010 NOSIG=
201811242250 METAR COR EGLL 242250Z AUTO 06007KT 9000 OVC020 07/04 Q1010
                        NOSIG=
201811242220 METAR COR EGLL 242220Z AUTO 06009KT 9000 BKN020 OVC024 08/04
                        Q1011 NOSIG=
201811242150 METAR COR EGLL 242150Z AUTO 06007KT 9999 OVC023 08/04 Q1011
                        NOSIG=
201811242120 METAR COR EGLL 242120Z AUTO 06007KT 9999 BKN021 OVC025 08/04
                        Q1011 NOSIG=
201811242050 METAR COR EGLL 242050Z AUTO 06008KT 9999 BKN020 OVC025 08/04
                        Q1011 NOSIG=
201811242020 METAR COR EGLL 242020Z AUTO 06007KT 9999 SCT019 OVC023 08/05
                        Q1011 NOSIG=
201811241950 METAR COR EGLL 241950Z AUTO 07007KT 9999 OVC022 08/05 Q1010
                        NOSIG=
201811241920 METAR COR EGLL 241920Z AUTO 06010KT 9999 OVC022 08/04 Q1010
                        NOSIG=
201811241850 METAR COR EGLL 241850Z AUTO 07011KT 9999 BKN019 OVC024 08/04
                        Q1010 NOSIG=
201811241820 METAR COR EGLL 241820Z AUTO 08010KT 9999 OVC017 08/05 Q1010
                        NOSIG=
201811241750 METAR COR EGLL 241750Z AUTO 07009KT 9999 OVC021 08/05 Q1010
                        NOSIG=
201811241720 METAR COR EGLL 241720Z AUTO 06010KT 9999 OVC020 08/05 Q1010
                        NOSIG=
201811241650 METAR COR EGLL 241650Z AUTO 07009KT 9999 BKN018 OVC023 08/05
                        Q1010 NOSIG=
201811241620 METAR COR EGLL 241620Z AUTO 06010KT 9999 BKN018 OVC022 08/05
                        Q1010 NOSIG=
201811241550 METAR COR EGLL 241550Z AUTO 06010KT 9999 BKN017 OVC025 08/05
                        Q1010 NOSIG=
201811241520 METAR COR EGLL 241520Z AUTO 06009KT 9999 OVC017 09/05 Q1010
                        NOSIG=
201811241450 METAR COR EGLL 241450Z AUTO 07009KT 9999 OVC017 09/06 Q1010
                        NOSIG=
201811241420 METAR COR EGLL 241420Z AUTO 07010KT 9999 BKN019 09/06 Q1009
                        NOSIG=
201811241350 METAR COR EGLL 241350Z AUTO 08010KT 9999 BKN020 09/06 Q1009
                        NOSIG=
201811241320 METAR COR EGLL 241320Z AUTO 09010KT 9999 BKN017 OVC025 09/06
                        Q1009 NOSIG=
201811241250 METAR COR EGLL 241250Z AUTO 09011KT 9999 BKN017 OVC022 09/06
                        Q1009 NOSIG=
201811241220 METAR COR EGLL 241220Z AUTO 07009KT 9000 SCT017 BKN022 09/07
                        Q1009 NOSIG=
201811241150 METAR COR EGLL 241150Z AUTO 07009KT 8000 SCT017 BKN022 09/07
                        Q1010 NOSIG=
201811241120 METAR COR EGLL 241120Z AUTO 07010KT 8000 BKN015 09/07 Q1010
                        NOSIG=
201811241050 METAR COR EGLL 241050Z AUTO 06008KT 6000 BKN012 BKN017 OVC023
                        09/07 Q1010 NOSIG=
201811241020 METAR COR EGLL 241020Z AUTO 06008KT 020V100 5000 HZ BKN010
                        OVC019 09/08 Q1009 NOSIG=
201811240950 METAR COR EGLL 240950Z AUTO 06006KT 5000 -RA BKN010 OVC018
                        09/08 Q1009 TEMPO 4000 HZ=
201811240920 METAR COR EGLL 240920Z AUTO 06006KT 4500 -RADZ BKN010 OVC048
                        09/07 Q1009 BEMCG 5000 HZ=
201811240850 METAR COR EGLL 240850Z AUTO 05006KT 4400 -RADZ OVC010 08/07
                        Q1009 RERA REDZ BECMG 5000 HZ=
201811240820 METAR COR EGLL 240820Z 06007KT 3500 RA BKN010 OVC016 09/07
                        Q1009 TEMPO 5000 HZ=
201811240750 METAR COR EGLL 240750Z AUTO 05007KT 010V080 5000 HZ BKN010
                        OVC020 08/07 Q1009 RERA REDZ TEMPO
                        4000 -RADZ=
201811240720 METAR COR EGLL 240720Z AUTO 06007KT 5000 -DZ BKN011 OVC018
                        08/07 Q1009 NOSIG=
201811240650 METAR COR EGLL 240650Z AUTO 05006KT 5000 HZ BKN011 BKN016
                        09/07 Q1009 NOSIG=
201811240620 METAR COR EGLL 240620Z AUTO 06005KT 5000 HZ BKN010 OVC014
                        08/07 Q1009 NOSIG=
201811240550 METAR COR EGLL 240550Z AUTO 06007KT 5000 HZ OVC010 08/07
                        Q1009 NOSIG=
201811240520 METAR COR EGLL 240520Z AUTO 06008KT 030V100 5000 HZ BKN010
                        OVC019 08/06 Q1009 NOSIG=
201811240450 METAR COR EGLL 240450Z AUTO 05007KT 5000 HZ BKN010 OVC018
                        08/07 Q1009 NOSIG=
201811240420 METAR COR EGLL 240420Z AUTO 06007KT 5000 HZ BKN009 OVC021
                        08/07 Q1009 TEMPO 4000=
201811240350 METAR COR EGLL 240350Z AUTO 06006KT 020V090 5000 HZ BKN009
                        BKN016 OVC021 08/07 Q1009 TEMPO 4000=
201811240320 METAR COR EGLL 240320Z AUTO 05005KT 010V080 4900 HZ SCT009
                        OVC021 08/07 Q1009 TEMPO BKN009=
201811240250 METAR COR EGLL 240250Z AUTO 04004KT 4800 HZ BKN008 BKN013
                        OVC021 08/07 Q1009 TEMPO 5000 BKN010=
201811240220 METAR COR EGLL 240220Z AUTO 04004KT 4900 HZ FEW010 OVC015
                        08/07 Q1010 TEMPO BKN012=
201811240150 METAR COR EGLL 240150Z AUTO 04004KT 010V080 5000 HZ BKN011
                        OVC019 08/07 Q1010 TEMPO 4000 BKN009=
201811240120 METAR COR EGLL 240120Z AUTO 08007KT 4700 HZ BKN009 OVC013
                        08/07 Q1010 TEMPO 5000 BKN010=
201811240050 METAR COR EGLL 240050Z AUTO 08004KT 4900 HZ OVC009 08/07
                        Q1010 NOSIG=
201811240020 METAR COR EGLL 240020Z AUTO 09007KT 4300 HZ BKN008 OVC012
                        08/07 Q1010 NOSIG=
201811232350 METAR COR EGLL 232350Z AUTO 08009KT 4400 HZ OVC008 08/07
                        Q1010 NOSIG=
201811232320 METAR COR EGLL 232320Z AUTO 08005KT 5000 HZ OVC009 08/07
                        Q1010 TEMPO 4000=
201811232250 METAR COR EGLL 232250Z AUTO 07008KT 5000 HZ BKN009 OVC012
                        08/07 Q1011 TEMPO 4000=
201811232220 METAR COR EGLL 232220Z AUTO 07006KT 5000 HZ OVC010 08/07
                        Q1011 TEMPO 4000 BR=
201811232150 METAR COR EGLL 232150Z AUTO 07005KT 5000 HZ BKN011 OVC016
                        08/07 Q1011 BECMG 4000=
201811232120 METAR COR EGLL 232120Z AUTO 06005KT 5000 HZ OVC010 08/07
                        Q1011 NOSIG=
201811232050 METAR COR EGLL 232050Z AUTO 06006KT 4800 HZ BKN009 OVC013
                        08/07 Q1011 NOSIG=
201811232020 METAR COR EGLL 232020Z AUTO 06005KT 4400 HZ BKN010 07/06
                        Q1011 TEMPO SCT010=
201811231950 METAR COR EGLL 231950Z AUTO 07005KT 5000 HZ FEW011 07/06
                        Q1011 TEMPO BKN011=
201811231920 METAR COR EGLL 231920Z AUTO 06005KT 6000 BKN011 08/06 Q1012
                        NOSIG=
201811231850 METAR COR EGLL 231850Z AUTO 08005KT 040V100 6000 OVC010 08/06
                        Q1012 NOSIG=
201811231820 METAR COR EGLL 231820Z 07005KT 6000 OVC009 08/06 Q1012 TEMPO
                        OVC010=
201811231750 METAR COR EGLL 231750Z 08006KT 6000 OVC008 08/06 Q1012 TEMPO
                        OVC010=
201811231720 METAR COR EGLL 231720Z AUTO 09009KT 4300 HZ OVC008 07/06
                        Q1012 NOSIG=
201811231650 METAR COR EGLL 231650Z AUTO 10009KT 5000 HZ OVC008 08/06
                        Q1013 TEMPO SCT008 OVC010=
201811231620 METAR EGLL 231620Z AUTO 09007KT 5000 HZ OVC008 08/06 Q1013=
201811231550 METAR COR EGLL 231550Z AUTO 09006KT 5000 HZ BKN008 OVC016
                        08/06 Q1013 TEMPO SCT008 BKN016=
201811231520 METAR COR EGLL 231520Z AUTO 10007KT 5000 HZ OVC008 08/06
                        Q1013 TEMPO SCT008 BKN010=
201811231450 METAR COR EGLL 231450Z AUTO 09006KT 5000 HZ OVC008 08/06
                        Q1013 TEMPO SCT008 BKN010=
201811231420 METAR COR EGLL 231420Z AUTO 08006KT 4800 HZ OVC007 08/06
                        Q1013 TEMPO 5000 SCT007 BKN010=
201811231350 METAR COR EGLL 231350Z AUTO 08006KT 3900 HZ OVC007 08/07
                        Q1013 NOSIG=
201811231320 METAR COR EGLL 231320Z AUTO 08006KT 4100 HZ OVC006 08/07
                        Q1013 NOSIG=
201811231250 METAR COR EGLL 231250Z AUTO 09006KT 4400 HZ BKN006 OVC009
                        08/07 Q1014 NOSIG=
201811231220 METAR COR EGLL 231220Z AUTO 10006KT 4800 HZ BKN006 OVC010
                        08/07 Q1014 NOSIG=
201811231150 METAR COR EGLL 231150Z AUTO 09007KT 5000 HZ OVC006 08/07
                        Q1014 NOSIG=
201811231120 METAR COR EGLL 231120Z AUTO 09007KT 4600 HZ OVC005 08/07
                        Q1014 TEMPO 5000=
201811231050 METAR COR EGLL 231050Z AUTO 08006KT 3300 HZ BKN005 OVC009
                        08/07 Q1014 NOSIG=
201811231020 METAR COR EGLL 231020Z AUTO 08006KT 2800 HZ BKN005 OVC008
                        07/06 Q1015 NOSIG=
201811230950 METAR COR EGLL 230950Z AUTO 08007KT 2400 HZ SCT004 OVC008
                        07/06 Q1015 TEMPO BKN004=
201811230920 METAR COR EGLL 230920Z AUTO 09006KT 1900 HZ SCT004 OVC008
                        07/06 Q1015 TEMPO BKN004=
201811230850 METAR COR EGLL 230850Z AUTO 09006KT 2300 HZ SCT005 OVC009
                        06/05 Q1015 TEMPO BKN005=
201811230820 METAR COR EGLL 230820Z AUTO 08005KT 2400 HZ OVC010 06/05
                        Q1015 TEMPO BKN004=
201811230750 METAR COR EGLL 230750Z AUTO 10005KT 2100 HZ BKN004 OVC012
                        06/05 Q1015 NOSIG=
201811230720 METAR COR EGLL 230720Z AUTO 11006KT 2000 HZ BKN004 OVC013
                        06/05 Q1015 NOSIG=
201811230650 METAR COR EGLL 230650Z AUTO 09006KT 2000 HZ BKN004 OVC014
                        06/05 Q1015 NOSIG=
201811230620 METAR COR EGLL 230620Z AUTO 09006KT 1800 HZ BKN004 OVC015
                        06/05 Q1015 NOSIG=
201811230550 METAR COR EGLL 230550Z AUTO 08004KT 1900 HZ OVC004 05/05
                        Q1015 NOSIG=
201811230520 METAR COR EGLL 230520Z AUTO 07004KT 2200 HZ OVC005 05/04
                        Q1015 TEMPO BKN004=
201811230450 METAR COR EGLL 230450Z AUTO 07003KT 2300 HZ OVC005 05/04
                        Q1015 TEMPO BKN004=
201811230420 METAR COR EGLL 230420Z AUTO 06004KT 2500 HZ BKN005 OVC024
                        05/04 Q1015 TEMPO BKN004=
201811230350 METAR COR EGLL 230350Z AUTO 07004KT 2700 HZ OVC006 05/04
                        Q1015 TEMPO BKN004=
201811230320 METAR COR EGLL 230320Z AUTO 07004KT 4000 HZ BKN007 OVC011
                        05/04 Q1016 TEMPO BKN004=
201811230250 METAR COR EGLL 230250Z AUTO 06004KT 3300 HZ BKN008 OVC012
                        05/04 Q1016 NOSIG=
201811230220 METAR COR EGLL 230220Z AUTO 07004KT 4400 HZ OVC013 05/03
                        Q1016 TEMPO BKN009=
201811230150 METAR COR EGLL 230150Z AUTO 07003KT 4300 HZ OVC015 05/03
                        Q1016 TEMPO BKN010=
201811230120 METAR COR EGLL 230120Z AUTO 08004KT 4900 HZ OVC018 05/03
                        Q1016 TEMPO BKN010=
201811230050 METAR COR EGLL 230050Z VRB03KT 4500 -RA BKN021 OVC027 05/03
                        Q1016 RERA NOSIG=
201811230020 METAR COR EGLL 230020Z AUTO 07005KT 4900 HZ FEW017 BKN022
                        05/03 Q1016 NOSIG=
201811222350 METAR COR EGLL 222350Z AUTO 08005KT 4900 HZ BKN017 05/03
                        Q1016 NOSIG=
201811222320 METAR COR EGLL 222320Z AUTO 07005KT 4700 HZ OVC019 05/03
                        Q1016 NOSIG=
201811222250 METAR COR EGLL 222250Z AUTO 09003KT 4200 HZ OVC023 04/03
                        Q1016 NOSIG=
201811222220 METAR COR EGLL 222220Z AUTO 07003KT 4400 HZ BKN024 04/02
                        Q1016 NOSIG=
201811222150 METAR COR EGLL 222150Z AUTO 07004KT 4400 HZ SCT028 03/02
                        Q1016 TEMPO 3500 BR=
201811222120 METAR COR EGLL 222120Z AUTO 08005KT 5000 HZ NCD 03/02 Q1016
                        TEMPO 3500 BR=
201811222050 METAR COR EGLL 222050Z AUTO 09005KT 4000 HZ FEW028 03/02
                        Q1016 NOSIG=
201811222020 METAR COR EGLL 222020Z AUTO 11004KT 4200 HZ BKN026 04/03
                        Q1016 BECMG BKN010=
201811221950 METAR COR EGLL 221950Z AUTO 08004KT 4400 HZ BKN028 05/03
                        Q1016 BECMG BKN010=
201811221920 METAR EGLL 221920Z AUTO 08005KT 4300 HZ BKN027 05/03 Q1017=
201811221850 METAR COR EGLL 221850Z AUTO 10006KT 3600 HZ FEW013 BKN017
                        BKN028 05/03 Q1017 BECMG BKN010=
201811221820 METAR COR EGLL 221820Z AUTO 10005KT 3900 HZ OVC016 05/04
                        Q1016 TEMPO BKN010=
201811221750 METAR COR EGLL 221750Z AUTO 09006KT 4000 HZ BKN013 OVC022
                        06/04 Q1016 BECMG BKN010=
201811221720 METAR COR EGLL 221720Z AUTO 09005KT 050V120 3400 HZ SCT012
                        BKN018 OVC035 06/04 Q1016 TEMPO BKN010=
201811221650 METAR COR EGLL 221650Z AUTO 06004KT 3300 HZ BKN010 OVC019
                        06/04 Q1016 BECMG BKN008=
201811221620 METAR COR EGLL 221620Z AUTO 06004KT 3600 HZ BKN016 06/04
                        Q1016 NOSIG=
201811221550 METAR COR EGLL 221550Z AUTO 06004KT 3900 HZ FEW020 BKN030
                        05/04 Q1016 NOSIG=
201811221520 METAR COR EGLL 221520Z AUTO 06004KT 4000 HZ FEW014 SCT018
                        BKN024 06/04 Q1016 NOSIG=
201811221450 METAR COR EGLL 221450Z AUTO 07003KT 4500 HZ BKN018 BKN023
                        OVC028 06/04 Q1016 NOSIG=
201811221420 METAR COR EGLL 221420Z AUTO 07004KT 4400 HZ BKN018 06/04
                        Q1016 NOSIG=
201811221350 METAR COR EGLL 221350Z AUTO VRB03KT 4100 HZ BKN018 06/04
                        Q1017 TEMPO 5000=
201811221320 METAR COR EGLL 221320Z 06004KT 4200 HZ OVC014 06/04 Q1017
                        TEMPO 5000=
201811221250 METAR COR EGLL 221250Z 07004KT 3800 HZ SCT008 BKN014 06/04
                        Q1017 TEMPO BKN008=
201811221220 METAR COR EGLL 221220Z 06003KT 4000 HZ BKN007 BKN024 05/03
                        Q1017 TEMPO 5000=
201811221150 METAR COR EGLL 221150Z 09004KT 060V120 4200 HZ BKN007 BKN024
                        05/03 Q1017 NOSIG=
201811221120 METAR COR EGLL 221120Z 06004KT 4000 HZ BKN006 04/03 Q1018
                        NOSIG=
201811221050 METAR COR EGLL 221050Z AUTO 06003KT 4300 HZ BKN005 BKN024
                        04/02 Q1018 BECMG 5000 SCT005=
201811221020 METAR COR EGLL 221020Z VRB02KT 4500 HZ SCT004 BKN025 03/02
                        Q1018 BECMG 5000=
201811220950 METAR COR EGLL 220950Z 04004KT 5000 HZ SCT004 BKN029 02/01
                        Q1018 TEMPO BKN006=
201811220920 METAR COR EGLL 220920Z 03003KT 6000 BKN030 01/M00 Q1018 NOSIG=
201811220850 METAR COR EGLL 220850Z VRB02KT 6000 BKN030 00/M01 Q1018 NOSIG=
201811220820 METAR COR EGLL 220820Z AUTO VRB02KT 5000 HZ FEW032 M00/M01
                        Q1018 NOSIG=
201811220750 METAR COR EGLL 220750Z AUTO VRB02KT 4700 HZ NCD M01/M01 Q1018
                        NOSIG=
201811220720 METAR COR EGLL 220720Z AUTO 02002KT 4900 BR SCT030 M01/M01
                        Q1018 NOSIG=
201811220650 METAR COR EGLL 220650Z AUTO VRB03KT 4000 BR NCD M01/M02 Q1018
                        NOSIG=
201811220620 METAR COR EGLL 220620Z AUTO 00000KT 3600 BR NCD M01/M02 Q1018
                        NOSIG=
201811220550 METAR COR EGLL 220550Z AUTO 05002KT 4300 HZ NCD M01/M02 Q1018
                        NOSIG=
201811220520 METAR COR EGLL 220520Z AUTO 05003KT 5000 HZ NCD M01/M01 Q1018
                        BECMG 4000 BR=
201811220450 METAR COR EGLL 220450Z AUTO 04003KT 4700 HZ NCD M00/M01 Q1018
                        NOSIG=
201811220420 METAR COR EGLL 220420Z AUTO 03004KT 4000 HZ NCD M00/M01 Q1018
                        NOSIG=
201811220350 METAR COR EGLL 220350Z AUTO 04003KT 4300 HZ NCD M00/M01 Q1018
                        NOSIG=
201811220320 METAR COR EGLL 220320Z AUTO 03003KT 4600 HZ NCD 00/M01 Q1018
                        NOSIG=
201811220250 METAR COR EGLL 220250Z AUTO 04003KT 4700 BR NCD 00/M00 Q1018
                        NOSIG=
201811220220 METAR COR EGLL 220220Z AUTO 04003KT 4200 BR NCD M00/M01 Q1018
                        NOSIG=
201811220150 METAR COR EGLL 220150Z AUTO 05003KT 4000 BR NCD 01/00 Q1019
                        NOSIG=
201811220120 METAR COR EGLL 220120Z AUTO 05002KT 3400 HZ NCD 00/M01 Q1019
                        NOSIG=
201811220050 METAR COR EGLL 220050Z AUTO 05002KT 4000 HZ NCD 01/00 Q1019
                        NOSIG=
201811220020 METAR COR EGLL 220020Z AUTO 06002KT 4300 HZ NCD 02/00 Q1019
                        NOSIG=
201811212350 METAR COR EGLL 212350Z AUTO 07004KT 5000 HZ NCD 02/00 Q1018
                        TEMPO 4000=
201811212320 METAR COR EGLL 212320Z AUTO 07003KT 5000 HZ NCD 02/01 Q1018
                        TEMPO 4000=
201811212250 METAR COR EGLL 212250Z AUTO 05003KT 6000 NCD 02/01 Q1018
                        TEMPO 4000 HZ=
201811212220 METAR COR EGLL 212220Z AUTO 06004KT 7000 FEW032 03/01 Q1018
                        NOSIG=
201811212150 METAR EGLL 212150Z AUTO 09005KT 7000 BKN032 03/01 Q1018=
201811212120 METAR COR EGLL 212120Z AUTO 09005KT 6000 BKN031 03/01 Q1018
                        NOSIG=
201811212050 METAR COR EGLL 212050Z AUTO 09005KT 8000 BKN031 02/00 Q1018
                        NOSIG=
201811212020 METAR COR EGLL 212020Z AUTO 09005KT 7000 SCT032 02/00 Q1018
                        NOSIG=
201811211950 METAR COR EGLL 211950Z AUTO 09005KT 7000 NCD 02/00 Q1018
                        NOSIG=
201811211920 METAR COR EGLL 211920Z AUTO 10006KT 8000 NCD 04/01 Q1018
                        NOSIG=
201811211850 METAR COR EGLL 211850Z AUTO 10007KT 8000 NCD 04/01 Q1018
                        NOSIG=
201811211820 METAR COR EGLL 211820Z AUTO 10008KT 9000 NCD 04/01 Q1017
                        NOSIG=
201811211750 METAR COR EGLL 211750Z AUTO 11008KT 9999 NCD 05/02 Q1017
                        NOSIG=
201811211720 METAR COR EGLL 211720Z AUTO 11007KT 9999 FEW035 05/01 Q1016
                        NOSIG=
201811211650 METAR COR EGLL 211650Z AUTO 11007KT 9999 SCT035 05/00 Q1016
                        NOSIG=
201811211620 METAR COR EGLL 211620Z AUTO 13006KT 9999 SCT034 06/00 Q1016
                        NOSIG=
201811211550 METAR COR EGLL 211550Z AUTO 14007KT 9999 SCT035 06/00 Q1015
                        NOSIG=
201811211520 METAR COR EGLL 211520Z AUTO 14008KT 9999 FEW036 06/M00 Q1015
                        NOSIG=
201811211450 METAR COR EGLL 211450Z AUTO 14010KT 9999 SCT035 07/00 Q1014
                        NOSIG=
201811211420 METAR COR EGLL 211420Z AUTO 13010KT 9999 BKN035 07/01 Q1014
                        NOSIG=
201811211350 METAR COR EGLL 211350Z AUTO 14011KT 9999 BKN033 07/01 Q1014
                        NOSIG=
201811211320 METAR COR EGLL 211320Z AUTO 14011KT 9999 FEW034 08/01 Q1013
                        NOSIG=
201811211250 METAR COR EGLL 211250Z AUTO 15011KT 9999 FEW028 08/02 Q1013
                        NOSIG=
201811211220 METAR COR EGLL 211220Z AUTO 13011KT 9999 BKN030 07/03 Q1013
                        NOSIG=
201811211150 METAR COR EGLL 211150Z AUTO 13009KT 9999 BKN040 07/03 Q1013
                        NOSIG=
201811211120 METAR COR EGLL 211120Z AUTO 14010KT 9999 FEW042 07/03 Q1012
                        NOSIG=
201811211050 METAR COR EGLL 211050Z AUTO 14010KT 9999 NCD 06/03 Q1012
                        NOSIG=
201811211020 METAR COR EGLL 211020Z AUTO 12007KT 9999 NCD 06/04 Q1011
                        NOSIG=
201811210950 METAR COR EGLL 210950Z AUTO 11006KT 9000 NCD 04/03 Q1011
                        NOSIG=
201811210920 METAR COR EGLL 210920Z AUTO 12006KT 8000 SCT034 03/02 Q1010
                        NOSIG=
201811210850 METAR COR EGLL 210850Z 10006KT 8000 BKN030 03/02 Q1010 NOSIG=
201811210820 METAR COR EGLL 210820Z 10006KT 6000 BKN032 02/01 Q1009 NOSIG=
201811210750 METAR COR EGLL 210750Z AUTO 11006KT 5000 HZ NCD 02/01 Q1009
                        NOSIG=
201811210720 METAR COR EGLL 210720Z AUTO 09005KT 4300 HZ NCD 01/00 Q1008
                        NOSIG=
201811210650 METAR COR EGLL 210650Z 10005KT 7000 BKN007 02/01 Q1008 NOSIG=
201811210620 METAR COR EGLL 210620Z AUTO 11005KT 5000 HZ OVC006 02/01
                        Q1007 NOSIG=
201811210550 METAR EGLL 210550Z 12007KT 7000 BKN007 02/01 Q1007=
201811210520 METAR COR EGLL 210520Z 11005KT 7000 FEW004 BKN007 01/01 Q1007
                        TEMPO 4000 BR BKN004=
201811210450 METAR COR EGLL 210450Z 09006KT 5000 BR SCT002 SCT004 01/01
                        Q1006 TEMPO 2500 BR BKN002=
201811210420 METAR COR EGLL 210420Z 10004KT 6000 2500SE BR SCT002 SCT004
                        00/00 Q1006 TEMPO 2500 BR BKN002=
201811210350 METAR COR EGLL 210350Z 14003KT 8000 3000SE BR SCT002 01/01
                        Q1006 TEMPO 3000 BR BKN002=
201811210320 METAR COR EGLL 210320Z AUTO 13002KT 3700 BR SCT003 01/01
                        Q1006 TEMPO SHRA BKN004=
201811210250 METAR COR EGLL 210250Z 13004KT 5000 BR BKN004 02/02 Q1006
                        TEMPO 3000 SHRA=
201811210220 METAR COR EGLL 210220Z AUTO 13004KT 4400 -RADZ BKN006 BKN010
                        03/02 Q1005 TEMPO SHRA=
201811210150 METAR COR EGLL 210150Z AUTO 10003KT 5000 -RADZ BKN005///
                        OVC009/// //////TCU 03/02 Q1005 RERA
                        REDZ TEMPO 4000 BR=
201811210120 METAR COR EGLL 210120Z AUTO VRB02KT 4900 -RA OVC006/// //////TCU
                        02/02 Q1005 TEMPO 5000 BR SCT006
                        BKN010=
201811210050 METAR COR EGLL 210050Z AUTO VRB02KT 3800 -RADZ BKN005///
                        OVC012/// //////TCU 02/02 Q1005 TEMPO
                        5000=
201811210020 METAR COR EGLL 210020Z AUTO 04003KT 5000 -RADZ BKN006///
                        //////TCU 02/02 Q1005 TEMPO 4000=
201811202350 METAR COR EGLL 202350Z AUTO 04003KT 5000 -RA BKN005/// OVC012///
                        //////TCU 02/02 Q1005 TEMPO 4000
                        -RADZ=
201811202320 METAR EGLL 202320Z AUTO 05003KT 5000 -RA BKN006 BKN013 OVC035
                        03/02 Q1005=
201811202250 METAR COR EGLL 202250Z AUTO 05002KT 5000 -RA FEW006 BKN015
                        03/02 Q1006 TEMPO 4000 BKN006=
201811202220 METAR COR EGLL 202220Z AUTO 06003KT 5000 -RADZ SCT006 BKN013
                        BKN020 03/02 Q1006 TEMPO 4000 BKN006=
201811202150 METAR COR EGLL 202150Z AUTO VRB02KT 5000 -RA FEW006 BKN014
                        02/02 Q1006 RERA TEMPO 3000 RA BKN006=
201811202120 METAR COR EGLL 202120Z AUTO 07003KT 4500 -RA BKN012 OVC018
                        02/02 Q1006 RERA TEMPO BKN007=
201811202050 METAR COR EGLL 202050Z AUTO 07005KT 4000 RA FEW007 BKN012
                        OVC027 03/02 Q1006 TEMPO BKN007=
201811202020 METAR COR EGLL 202020Z AUTO 07003KT 4200 -RADZ FEW009 SCT014
                        BKN019 03/02 Q1006 TEMPO RADZ=
201811201950 METAR COR EGLL 201950Z 11006KT 5000 -RADZ BKN008 BKN019 OVC024
                        03/02 Q1006 TEMPO 2500 RADZ=
201811201920 METAR COR EGLL 201920Z 09004KT 5000 -RADZ BKN008 OVC016 03/03
                        Q1006 TEMPO BKN012=
201811201850 METAR COR EGLL 201850Z 10002KT 8000 -RA SCT011 BKN016 OVC023
                        03/02 Q1006 NOSIG=
201811201820 METAR COR EGLL 201820Z 10003KT 7000 -RA BKN010 BKN017 OVC026
                        03/02 Q1006 NOSIG=
201811201750 METAR COR EGLL 201750Z 10006KT 6000 -RASN BKN010 OVC020 03/02
                        Q1006 REDZ TEMPO -RA BKN015=
201811201720 METAR COR EGLL 201720Z AUTO 12006KT 7000 -RA BKN009 BKN016
                        OVC021 03/02 Q1006 BECMG BKN012=
201811201650 METAR COR EGLL 201650Z AUTO 06008KT 8000 -RA BKN013 OVC043
                        04/02 Q1006 TEMPO SCT013=
201811201620 METAR COR EGLL 201620Z AUTO 06006KT 030V100 9000 -RA SCT016
                        BKN025 BKN031 03/02 Q1006 TEMPO BKN014=
201811201550 METAR COR EGLL 201550Z 07008KT 9999 -RA FEW014 SCT025 BKN039
                        04/02 Q1006 TEMPO BKN014=
201811201520 METAR COR EGLL 201520Z 06010KT 7000 -RA BKN012 BKN018 04/02
                        Q1006 NOSIG=
201811201450 METAR COR EGLL 201450Z 06007KT 030V100 8000 -RA BKN011 OVC019
                        04/02 Q1006 TEMPO RA SCT012=
201811201420 METAR COR EGLL 201420Z AUTO 05009KT 9999 -RA SCT012 BKN016
                        BKN022 04/02 Q1006 RERA TEMPO RA
                        BKN012=
201811201350 METAR COR EGLL 201350Z AUTO 06010KT 9999 -RA BKN012 OVC028
                        04/02 Q1006 TEMPO RA=
201811201320 METAR COR EGLL 201320Z AUTO 05008KT 9999 -RA BKN014 OVC040
                        04/02 Q1006 TEMPO RA=
201811201250 METAR COR EGLL 201250Z AUTO 04009KT 360V070 9999 -RA BKN014
                        OVC032 04/03 Q1006 TEMPO 4000 RA=
201811201220 METAR COR EGLL 201220Z AUTO 05008KT 020V080 9999 -RA BKN014
                        OVC036 05/03 Q1007 TEMPO 4000 RA=
201811201150 METAR COR EGLL 201150Z AUTO 05008KT 9999 -RA SCT014 BKN020
                        BKN029 04/03 Q1007 TEMPO BKN014=
201811201120 METAR COR EGLL 201120Z AUTO 04009G19KT 4100 -RA BKN015 OVC029
                        05/03 Q1008 TEMPO BKN014=
201811201050 METAR COR EGLL 201050Z AUTO 05010KT 010V080 9999 -RA BKN018
                        BKN034 OVC049 05/02 Q1008 TEMPO BKN014
                        SHRA=
201811201020 METAR COR EGLL 201020Z AUTO 04010KT 360V070 9999 SCT018 BKN023
                        BKN030 05/02 Q1008 TEMPO BKN014 SHRA=
201811200950 METAR COR EGLL 200950Z AUTO 04010KT 350V080 9999 SCT018 BKN028
                        BKN043 05/02 Q1009 TEMPO BKN014 SHRA=
201811200920 METAR COR EGLL 200920Z AUTO 04011KT 010V070 9999 FEW027 SCT040
                        OVC048 05/02 Q1009 NOSIG=
201811200850 METAR COR EGLL 200850Z AUTO 05009KT 9999 -RA BKN040 05/02
                        Q1009 NOSIG=
201811200820 METAR COR EGLL 200820Z AUTO 05010KT 9999 FEW028 SCT035 OVC042
                        05/02 Q1010 NOSIG=
201811200750 METAR COR EGLL 200750Z AUTO 05010KT 9999 -RA SCT029 BKN040
                        05/02 Q1010 NOSIG=
201811200720 METAR COR EGLL 200720Z AUTO 04009KT 010V080 9999 FEW024 SCT046
                        05/01 Q1010 NOSIG=
201811200650 METAR COR EGLL 200650Z AUTO 05009KT 9999 -RA SCT030 BKN038
                        OVC048 05/01 Q1010 NOSIG=
201811200620 METAR COR EGLL 200620Z AUTO 04008KT 010V080 9999 SCT027 BKN033
                        OVC048 05/01 Q1010 NOSIG=
201811200550 METAR COR EGLL 200550Z AUTO 06010KT 8000 -RA SCT026 BKN033
                        BKN045 05/02 Q1010 NOSIG=
201811200520 METAR COR EGLL 200520Z AUTO 05009KT 9999 FEW032 SCT043 05/01
                        Q1010 NOSIG=
201811200450 METAR COR EGLL 200450Z AUTO 06013KT 020V080 9000 -RA FEW024
                        BKN030 05/02 Q1011 TEMPO 6000 SHRA=
201811200420 METAR COR EGLL 200420Z AUTO 06010KT 9999 -RA FEW032 SCT039
                        OVC047 05/02 Q1011 NOSIG=
201811200350 METAR COR EGLL 200350Z AUTO 05010KT 020V090 9999 -RA SCT028
                        BKN045 05/02 Q1011 NOSIG=
201811200320 METAR COR EGLL 200320Z AUTO 05008KT 9999 FEW032 SCT045 05/02
                        Q1012 NOSIG=
201811200250 METAR COR EGLL 200250Z AUTO 06011KT 9999 -RA SCT032 BKN040
                        05/02 Q1012 NOSIG=
201811200220 METAR COR EGLL 200220Z AUTO 05010KT 010V080 9999 FEW036 SCT044
                        05/01 Q1012 NOSIG=
201811200150 METAR COR EGLL 200150Z AUTO 06008KT 9999 -RA FEW024 SCT029
                        BKN035 05/02 Q1013 NOSIG=
201811200120 METAR COR EGLL 200120Z AUTO 05007KT 9999 -RA FEW020 SCT031
                        BKN044 05/02 Q1013 NOSIG=
201811200050 METAR COR EGLL 200050Z AUTO 04008KT 360V070 9999 -RA FEW034
                        SCT048 05/02 Q1013 NOSIG=
201811200020 METAR COR EGLL 200020Z AUTO 04008KT 360V070 9999 NCD 05/02
                        Q1014 NOSIG=
201811192350 METAR COR EGLL 192350Z AUTO 04010G20KT 9999 -RA FEW034 05/02
                        Q1014 TEMPO SHRA=
201811192320 METAR COR EGLL 192320Z AUTO 02004KT 320V050 9999 FEW036 SCT044
                        05/03 Q1015 TEMPO SHRA=
201811192250 METAR COR EGLL 192250Z AUTO 07008KT 030V090 6000 -RA SCT019
                        BKN030TCU 04/03 Q1015 TEMPO SHRA=
201811192220 METAR COR EGLL 192220Z AUTO 06010KT 9999 -RA FEW019 SCT033TCU
                        04/02 Q1015 TEMPO 6000 SHRA=
201811192150 METAR COR EGLL 192150Z AUTO 05010KT 010V090 9999 -RA FEW028
                        SCT039 05/02 Q1015 TEMPO 6000 SHRA=
201811192120 METAR COR EGLL 192120Z AUTO 05009KT 020V080 9999 -RA SCT018
                        BKN025 BKN038TCU 05/03 Q1016 TEMPO
                        SHRA=
201811192050 METAR COR EGLL 192050Z AUTO 07010KT 040V100 9999 -RA SCT013
                        BKN020TCU 05/03 Q1016 RERA TEMPO
                        SHRA=
201811192020 METAR COR EGLL 192020Z AUTO 05008KT 5000 -RA FEW018 SCT024
                        BKN035 06/03 Q1016 TEMPO SHRA=
201811191950 METAR COR EGLL 191950Z AUTO 05008KT 9999 FEW018TCU 05/03
                        Q1016 RESHRA RERA REDZ TEMPO SHRA=
201811191920 METAR COR EGLL 191920Z AUTO 06012KT 6000 -RA FEW015 BKN021
                        BKN032 05/04 Q1016 TEMPO SHRA=
201811191850 METAR COR EGLL 191850Z AUTO 05007KT 9999 SCT020/// BKN036///
                        BKN047/// //////TCU 05/03 Q1017 RESHRA
                        RERA TEMPO SHRA=
201811191820 METAR COR EGLL 191820Z AUTO 05007KT 010V080 9999 -RA FEW030
                        SCT039 06/03 Q1017 TEMPO SHRA BKN014=
201811191750 METAR COR EGLL 191750Z AUTO 05008KT 010V080 9999 NCD 06/03
                        Q1017 TEMPO SHRA=
201811191720 METAR COR EGLL 191720Z AUTO 04011G25KT 9999 FEW035 07/03
                        Q1017 TEMPO SHRA=
201811191650 METAR COR EGLL 191650Z AUTO 04008KT 9999 NCD 07/03 Q1017
                        NOSIG=
201811191620 METAR COR EGLL 191620Z AUTO 05009KT 9999 FEW030/// //////TCU
                        07/03 Q1018 TEMPO SHRA=
201811191550 METAR COR EGLL 191550Z AUTO 04011G22KT 9999 FEW030 08/03
                        Q1018 TEMPO SHRA=
201811191520 METAR COR EGLL 191520Z AUTO 05010KT 9999 NCD 08/02 Q1018
                        TEMPO SHRA=
201811191450 METAR COR EGLL 191450Z AUTO 05011KT 9999 FEW031 SCT037 08/03
                        Q1018 TEMPO SHRA=
201811191420 METAR COR EGLL 191420Z AUTO 05011KT 020V080 9999 NCD 09/04
                        Q1019 NOSIG=
201811191350 METAR COR EGLL 191350Z AUTO 07007KT 9999 -RA SCT023 BKN031
                        07/04 Q1019 NOSIG=
201811191320 METAR COR EGLL 191320Z AUTO 05010KT 9999 FEW032 08/04 Q1020
                        NOSIG=
201811191250 METAR COR EGLL 191250Z AUTO 05010KT 9999 FEW025 SCT048 07/04
                        Q1020 NOSIG=
201811191220 METAR COR EGLL 191220Z AUTO 05010KT 9999 FEW025 BKN030 08/04
                        Q1021 TEMPO SHRA=
201811191150 METAR COR EGLL 191150Z AUTO 06013G23KT 9999 FEW024 SCT031
                        BKN041 08/04 Q1021 TEMPO SHRA=
201811191120 METAR COR EGLL 191120Z AUTO 07011G21KT 9999 FEW023 SCT027
                        BKN034 07/04 Q1021 TEMPO SHRA=
201811191050 METAR COR EGLL 191050Z AUTO 06012KT 7000 -RA BKN024 07/04
                        Q1022 TEMPO SHRA=
201811191020 METAR COR EGLL 191020Z AUTO 06015KT 020V090 9999 -RA FEW026
                        BKN035 BKN044 08/04 Q1022 TEMPO SHRA=
201811190950 METAR COR EGLL 190950Z AUTO 06010KT 9999 FEW039 BKN047 08/03
                        Q1022 TEMPO SHRA=
201811190920 METAR COR EGLL 190920Z AUTO 06008KT 9999 OVC041 08/03 Q1022
                        TEMPO SHRA=
201811190850 METAR COR EGLL 190850Z AUTO 06010KT 030V090 9999 BKN038 OVC044
                        08/03 Q1022 NOSIG=
201811190820 METAR COR EGLL 190820Z AUTO 06010KT 9999 BKN035 OVC043 08/03
                        Q1022 NOSIG=
201811190750 METAR COR EGLL 190750Z AUTO 06009KT 9999 BKN030 OVC038 08/03
                        Q1022 NOSIG=
201811190720 METAR COR EGLL 190720Z AUTO 07010KT 9999 OVC030 08/02 Q1022
                        NOSIG=
201811190650 METAR COR EGLL 190650Z AUTO 06009KT 9999 OVC028 08/02 Q1022
                        NOSIG=
201811190620 METAR COR EGLL 190620Z AUTO 06012KT 9999 OVC030 07/02 Q1022
                        NOSIG=
201811190550 METAR COR EGLL 190550Z AUTO 06011KT 9999 OVC032 07/02 Q1022
                        NOSIG=
201811190520 METAR COR EGLL 190520Z AUTO 06011KT 9999 OVC029 07/02 Q1023
                        NOSIG=
201811190450 METAR COR EGLL 190450Z AUTO 06010KT 9999 OVC030 07/03 Q1023
                        NOSIG=
201811190420 METAR COR EGLL 190420Z AUTO 07012KT 9999 BKN028 OVC033 07/03
                        Q1023 NOSIG=
201811190350 METAR COR EGLL 190350Z AUTO 06011KT 9999 BKN023 OVC031 07/04
                        Q1023 NOSIG=
201811190320 METAR COR EGLL 190320Z AUTO 06008KT 040V100 9999 OVC020 07/03
                        Q1023 NOSIG=
201811190250 METAR COR EGLL 190250Z AUTO 06010KT 9999 BKN022 BKN027 07/02
                        Q1024 NOSIG=
201811190220 METAR COR EGLL 190220Z AUTO 06010KT 9999 BKN030 07/02 Q1024
                        NOSIG=
201811190150 METAR COR EGLL 190150Z AUTO 05008KT 9999 SCT030 06/02 Q1024
                        NOSIG=
201811190120 METAR COR EGLL 190120Z AUTO 05007KT 9999 NCD 06/01 Q1024
                        NOSIG=
201811190050 METAR COR EGLL 190050Z AUTO 05007KT 9999 NCD 06/01 Q1024
                        NOSIG=
201811190020 METAR COR EGLL 190020Z AUTO 05008KT 020V080 9999 NCD 06/01
                        Q1025 NOSIG=
201811182350 METAR COR EGLL 182350Z AUTO 06011KT 9999 NCD 07/01 Q1025
                        NOSIG=
201811182320 METAR COR EGLL 182320Z AUTO 06008KT 9999 NCD 07/01 Q1025
                        NOSIG=
201811182250 METAR COR EGLL 182250Z AUTO 06008KT 9999 NCD 07/01 Q1025
                        NOSIG=
201811182220 METAR COR EGLL 182220Z AUTO 05007KT 9999 NCD 07/01 Q1025
                        NOSIG=
201811182150 METAR COR EGLL 182150Z AUTO 05006KT 9999 NCD 06/01 Q1025
                        NOSIG=
201811182120 METAR COR EGLL 182120Z AUTO 04005KT 010V070 9999 NCD 07/02
                        Q1025 NOSIG=
201811182050 METAR COR EGLL 182050Z AUTO 05005KT 020V080 9999 NCD 07/02
                        Q1025 NOSIG=
201811182020 METAR COR EGLL 182020Z AUTO 04004KT 340V090 9999 NCD 07/02
                        Q1026 NOSIG=
201811181950 METAR COR EGLL 181950Z AUTO 04005KT 010V080 9999 NCD 07/03
                        Q1026 NOSIG=
201811181920 METAR COR EGLL 181920Z AUTO 05006KT 9999 NCD 07/03 Q1026
                        NOSIG=
201811181850 METAR COR EGLL 181850Z AUTO 05006KT 9999 NCD 07/03 Q1026
                        NOSIG=
201811181820 METAR COR EGLL 181820Z AUTO 06005KT 9999 NCD 08/03 Q1026
                        NOSIG=
201811181750 METAR COR EGLL 181750Z AUTO 06005KT 9999 NCD 08/03 Q1026
                        NOSIG=
201811181720 METAR COR EGLL 181720Z AUTO 06006KT 020V080 9999 NCD 08/03
                        Q1026 NOSIG=
201811181650 METAR COR EGLL 181650Z AUTO 06006KT 9999 NCD 09/02 Q1026
                        NOSIG=
201811181620 METAR COR EGLL 181620Z AUTO 06007KT 9999 NCD 09/03 Q1026
                        NOSIG=
201811181550 METAR COR EGLL 181550Z AUTO 07011KT 9999 NCD 10/02 Q1026
                        NOSIG=
201811181520 METAR COR EGLL 181520Z AUTO 07010KT 020V090 9999 NCD 11/02
                        Q1026 NOSIG=
201811181450 METAR COR EGLL 181450Z AUTO 07008KT 9999 NCD 11/02 Q1026
                        NOSIG=
201811181420 METAR COR EGLL 181420Z AUTO 06011KT 9999 NCD 11/03 Q1026
                        NOSIG=
201811181350 METAR COR EGLL 181350Z AUTO 07012KT 9999 NCD 11/03 Q1026
                        NOSIG=
201811181320 METAR COR EGLL 181320Z AUTO 07012KT 9999 NCD 11/04 Q1026
                        NOSIG=
201811181250 METAR COR EGLL 181250Z AUTO 07014KT 9999 NCD 11/04 Q1026
                        NOSIG=
201811181220 METAR COR EGLL 181220Z AUTO 07013KT 9999 NCD 11/05 Q1027
                        NOSIG=
201811181150 METAR COR EGLL 181150Z AUTO 07011KT 9999 NCD 10/06 Q1027
                        NOSIG=
201811181120 METAR COR EGLL 181120Z AUTO 06011KT 9999 NCD 10/06 Q1028
                        NOSIG=
201811181050 METAR COR EGLL 181050Z AUTO 06010KT 9999 NCD 09/06 Q1028
                        NOSIG=
201811181020 METAR COR EGLL 181020Z AUTO 07010KT 9999 NCD 09/06 Q1028
                        NOSIG=
201811180950 METAR COR EGLL 180950Z AUTO 06007KT 9000 NCD 08/05 Q1028
                        NOSIG=
201811180920 METAR COR EGLL 180920Z AUTO 06007KT 8000 NCD 07/05 Q1028
                        NOSIG=
201811180850 METAR COR EGLL 180850Z AUTO 05006KT 8000 NCD 06/05 Q1028
                        NOSIG=
201811180820 METAR COR EGLL 180820Z AUTO 05005KT 8000 NCD 06/04 Q1028
                        NOSIG=
201811180750 METAR COR EGLL 180750Z AUTO 05004KT 8000 NCD 05/04 Q1028
                        NOSIG=
201811180720 METAR COR EGLL 180720Z AUTO 05005KT 8000 NCD 05/04 Q1028
                        NOSIG=
201811180650 METAR COR EGLL 180650Z AUTO 06005KT 8000 NCD 05/04 Q1028
                        NOSIG=
201811180620 METAR COR EGLL 180620Z AUTO 05005KT 8000 NCD 05/04 Q1028
                        NOSIG=
201811180550 METAR COR EGLL 180550Z AUTO 05005KT 9000 NCD 05/04 Q1027
                        NOSIG=
201811180520 METAR COR EGLL 180520Z AUTO 04005KT 9000 NCD 05/04 Q1027
                        NOSIG=
201811180450 METAR COR EGLL 180450Z AUTO 04005KT 9999 NCD 05/03 Q1027
                        NOSIG=
201811180420 METAR COR EGLL 180420Z AUTO 05005KT 9000 NCD 05/04 Q1027
                        NOSIG=
201811180350 METAR COR EGLL 180350Z AUTO 04005KT 9000 NCD 04/03 Q1027
                        NOSIG=
201811180320 METAR COR EGLL 180320Z AUTO 04005KT 9000 NCD 04/03 Q1027
                        NOSIG=
201811180250 METAR COR EGLL 180250Z AUTO 04005KT 9000 NCD 05/03 Q1027
                        NOSIG=
201811180220 METAR COR EGLL 180220Z AUTO 04005KT 9000 NCD 05/04 Q1027
                        NOSIG=
201811180150 METAR COR EGLL 180150Z AUTO 04005KT 8000 NCD 05/04 Q1027
                        NOSIG=
201811180120 METAR COR EGLL 180120Z AUTO 04005KT 9000 NCD 06/04 Q1027
                        NOSIG=
201811180050 METAR COR EGLL 180050Z AUTO 06006KT 9000 NCD 06/04 Q1027
                        NOSIG=
201811180020 METAR COR EGLL 180020Z AUTO 05007KT 9000 NCD 06/04 Q1028
                        NOSIG=
201811172350 METAR COR EGLL 172350Z AUTO 05005KT 8000 NCD 06/04 Q1028
                        NOSIG=
201811172320 METAR COR EGLL 172320Z AUTO 07004KT 8000 NCD 06/04 Q1027
                        NOSIG=
201811172250 METAR COR EGLL 172250Z AUTO 06004KT 9000 NCD 07/05 Q1027
                        NOSIG=
201811172220 METAR COR EGLL 172220Z AUTO 06006KT 8000 NCD 07/05 Q1027
                        NOSIG=
201811172150 METAR COR EGLL 172150Z AUTO 06006KT 9000 NCD 07/05 Q1027
                        NOSIG=
201811172120 METAR COR EGLL 172120Z AUTO 07007KT 9000 NCD 07/05 Q1027
                        NOSIG=
201811172050 METAR COR EGLL 172050Z AUTO 07006KT 9000 NCD 07/05 Q1027
                        NOSIG=
201811172020 METAR COR EGLL 172020Z AUTO 06006KT 9999 NCD 07/05 Q1027
                        NOSIG=
201811171950 METAR COR EGLL 171950Z AUTO 06006KT 9999 NCD 07/05 Q1027
                        NOSIG=
201811171920 METAR COR EGLL 171920Z AUTO 08008KT 9999 NCD 08/05 Q1027
                        NOSIG=
201811171850 METAR COR EGLL 171850Z AUTO 07007KT 9999 NCD 08/05 Q1027
                        NOSIG=
201811171820 METAR COR EGLL 171820Z AUTO 07007KT 9999 NCD 08/05 Q1026
                        NOSIG=
201811171750 METAR COR EGLL 171750Z AUTO 07008KT 9999 NCD 08/06 Q1026
                        NOSIG=
201811171720 METAR COR EGLL 171720Z AUTO 07009KT 9999 NCD 09/06 Q1026
                        NOSIG=
201811171650 METAR COR EGLL 171650Z AUTO 07009KT 9999 NCD 09/06 Q1026
                        NOSIG=
201811171620 METAR COR EGLL 171620Z AUTO 07008KT 9999 NCD 09/05 Q1026
                        NOSIG=
201811171550 METAR COR EGLL 171550Z AUTO 07010KT 9999 NCD 10/06 Q1026
                        NOSIG=
201811171520 METAR EGLL 171520Z AUTO 07010KT 9999 NCD 11/06 Q1026=
201811171450 METAR COR EGLL 171450Z AUTO 07010KT 9999 NCD 11/05 Q1026
                        NOSIG=
201811171420 METAR COR EGLL 171420Z AUTO 07011KT 040V100 9999 NCD 11/04
                        Q1026 NOSIG=
201811171350 METAR COR EGLL 171350Z AUTO 09011KT 9999 NCD 12/05 Q1026
                        NOSIG=
201811171320 METAR COR EGLL 171320Z AUTO 09011KT 9999 NCD 12/06 Q1026
                        NOSIG=
201811171250 METAR COR EGLL 171250Z AUTO 09010KT 9999 NCD 11/06 Q1026
                        NOSIG=
201811171220 METAR COR EGLL 171220Z AUTO 10008KT 9000 NCD 11/06 Q1027
                        NOSIG=
201811171150 METAR COR EGLL 171150Z AUTO 09010KT 9000 NCD 11/06 Q1027
                        NOSIG=
201811171120 METAR COR EGLL 171120Z AUTO 09010KT 8000 NCD 10/06 Q1027
                        NOSIG=
201811171050 METAR COR EGLL 171050Z AUTO 10012KT 8000 NCD 10/06 Q1027
                        NOSIG=
201811171020 METAR COR EGLL 171020Z AUTO 10011KT 8000 NCD 09/05 Q1027
                        NOSIG=
201811170950 METAR COR EGLL 170950Z AUTO 10008KT 6000 NCD 08/06 Q1027
                        NOSIG=
201811170920 METAR COR EGLL 170920Z AUTO 10009KT 5000 HZ SCT012 08/06
                        Q1027 NOSIG=
201811170850 METAR COR EGLL 170850Z AUTO 10007KT 5000 HZ BKN012 07/05
                        Q1027 BECMG FEW012=
201811170820 METAR COR EGLL 170820Z AUTO 08009KT 5000 HZ BKN010 07/05
                        Q1027 BECMG FEW010=
201811170750 METAR COR EGLL 170750Z AUTO 09007KT 5000 HZ BKN010 07/06
                        Q1027 BECMG FEW010=
201811170720 METAR COR EGLL 170720Z AUTO 09007KT 5000 HZ BKN010 07/05
                        Q1027 BECMG FEW012=
201811170650 METAR COR EGLL 170650Z 10009KT 7000 BKN010 07/05 Q1027 BECMG
                        FEW012=
201811170620 METAR COR EGLL 170620Z 08008KT 6000 BKN009 07/06 Q1026 BECMG
                        FEW012=
201811170550 METAR COR EGLL 170550Z 08011KT 5000 BR BKN008 07/06 Q1026
                        NOSIG=
201811170520 METAR COR EGLL 170520Z 10011KT 4000 -DZ BKN008 08/07 Q1026
                        BECMG 6000 NSW=
201811170450 METAR COR EGLL 170450Z 08008KT 5000 BR FEW003 BKN005 08/08
                        Q1026 NOSIG=
201811170420 METAR COR EGLL 170420Z 08009KT 2500 -DZ BKN003 09/08 Q1026
                        BECMG 6000 NSW BKN006=
201811170350 METAR COR EGLL 170350Z 07007KT 040V100 2500 -DZ FEW002 BKN003
                        09/08 Q1026 BECMG 6000 NSW BKN006=
201811170320 METAR COR EGLL 170320Z 10007KT 3000 -DZ BKN003 09/08 Q1026
                        BECMG 6000 NSW BKN006=
201811170250 METAR COR EGLL 170250Z 07007KT 3500 BR SCT003 BKN004 09/08
                        Q1026 BECMG 6000 BKN006=
201811170220 METAR COR EGLL 170220Z AUTO 08007KT 3500 BR OVC004 09/09
                        Q1026 BECMG 6000 BKN006=
201811170150 METAR COR EGLL 170150Z 09007KT 3500 BR BKN004 OVC008 09/09
                        Q1026 BECMG 6000 BKN006=
201811170120 METAR COR EGLL 170120Z 09006KT 3200 BR OVC004 09/09 Q1026
                        BECMG 6000 NSW BKN006=
201811170050 METAR COR EGLL 170050Z 09006KT 4000 BR BKN004 09/09 Q1026
                        BECMG 6000 NSW BKN006=
201811170020 METAR COR EGLL 170020Z 08006KT 050V110 3000 BR BKN003 09/09
                        Q1026 NOSIG=
201811162350 METAR COR EGLL 162350Z 10007KT 1800 -DZ BKN002 09/09 Q1026
                        TEMPO 3000 OVC003=
201811162320 METAR COR EGLL 162320Z 10006KT 1200 R09L/P1500 R09R/P1500
                        -DZ BKN001 09/09 Q1026 TEMPO 2000
                        BR OVC002=
201811162250 METAR COR EGLL 162250Z 10008KT 1200 -DZ BKN001 09/09 Q1026
                        TEMPO 2000 BR OVC002=
201811162220 METAR COR EGLL 162220Z 10008KT 2200 BR SCT002 BKN003 09/09
                        Q1026 BECMG BKN002=
201811162150 METAR COR EGLL 162150Z 09008KT 2400 BR SCT003 BKN004 09/09
                        Q1026 TEMPO BKN002=
201811162120 METAR COR EGLL 162120Z 10008KT 3000 BR SCT003 BKN004 09/09
                        Q1026 TEMPO 2500 BKN002=
201811162050 METAR COR EGLL 162050Z 10008KT 3000 BR SCT002 BKN003 09/09
                        Q1026 TEMPO 2500 BKN002=
201811162020 METAR COR EGLL 162020Z 10008KT 2400 BR SCT002 BKN003 09/09
                        Q1026 TEMPO BKN002=
201811161950 METAR COR EGLL 161950Z 09006KT 2000 BR BKN002 09/09 Q1026
                        TEMPO SCT002 BKN003=
201811161920 METAR COR EGLL 161920Z 10006KT 2200 BR SCT002 BKN003 09/09
                        Q1026 TEMPO BKN002=
201811161850 METAR COR EGLL 161850Z 09007KT 2600 BR SCT002 BKN004 09/09
                        Q1026 NOSIG=
201811161820 METAR COR EGLL 161820Z 11006KT 2800 BR SCT002 BKN004 09/09
                        Q1026 TEMPO NOSIG=
201811161750 METAR COR EGLL 161750Z 10007KT 3000 BR SCT002 BKN004 10/09
                        Q1026 NOSIG=
201811161720 METAR COR EGLL 161720Z 10006KT 5000 BR SCT003 BKN005 10/09
                        Q1026 BECMG 4000 BKN004=
201811161650 METAR COR EGLL 161650Z 09006KT 3200 BR SCT002 BKN004 10/09
                        Q1025 NOSIG=
201811161620 METAR COR EGLL 161620Z 07006KT 2200 BR BKN002 OVC004 10/09
                        Q1025 TEMPO 3000=
201811161550 METAR COR EGLL 161550Z 08006KT 4000 BR SCT002 BKN004 10/09
                        Q1025 NOSIG=
201811161520 METAR COR EGLL 161520Z 09007KT 4000 BR SCT002 BKN004 10/09
                        Q1025 NOSIG=
201811161450 METAR COR EGLL 161450Z 10007KT 4000 BR SCT002 BKN004 10/09
                        Q1025 NOSIG=
201811161420 METAR COR EGLL 161420Z 11005KT 6000 OVC004 10/09 Q1025 TEMPO
                        SCT004 BKN005=
201811161350 METAR COR EGLL 161350Z 09005KT 050V120 6000 SCT004 BKN005
                        10/09 Q1025 NOSIG=
201811161320 METAR COR EGLL 161320Z 10006KT 7000 SCT004 BKN005 10/09 Q1025
                        NOSIG=
201811161250 METAR COR EGLL 161250Z 12008KT 5000 HZ SCT004 OVC005 10/10
                        Q1025 NOSIG=
201811161220 METAR COR EGLL 161220Z 10007KT 5000 HZ FEW004 OVC005 11/10
                        Q1025 NOSIG=
201811161150 METAR COR EGLL 161150Z 11005KT 6000 FEW004 OVC005 11/10 Q1026
                        NOSIG=
201811161120 METAR COR EGLL 161120Z 11006KT 6000 BKN006 11/10 Q1026 NOSIG=
201811161050 METAR COR EGLL 161050Z 10004KT 5000 BR SCT004 BKN006 11/10
                        Q1026 NOSIG=
201811161020 METAR COR EGLL 161020Z 09005KT 4000 BR BKN004 BKN008 11/10
                        Q1026 BECMG 5000=
201811160950 METAR COR EGLL 160950Z 09005KT 4000 BR SCT004 BKN007 OVC010
                        11/10 Q1026 BECMG 5000=
201811160920 METAR COR EGLL 160920Z 09005KT 3500 BR FEW002 SCT004 OVC007
                        11/10 Q1026 NOSIG=
201811160850 METAR COR EGLL 160850Z 09005KT 2500 BR FEW002 BKN004 11/10
                        Q1026 TEMPO BKN002=
201811160820 METAR COR EGLL 160820Z AUTO 09005KT 3200 HZ SCT004 BKN007
                        11/10 Q1025 TEMPO BKN004=
201811160750 METAR COR EGLL 160750Z 09003KT 3000 BR FEW004 OVC008 11/10
                        Q1025 TEMPO 2500 BKN004=
201811160720 METAR COR EGLL 160720Z 13005KT 4000 BR FEW003 OVC008 11/10
                        Q1025 TEMPO 2500 BKN003=
201811160650 METAR COR EGLL 160650Z 11005KT 3500 BR FEW003 OVC009 11/10
                        Q1024 TEMPO 2500 BKN003=
201811160620 METAR COR EGLL 160620Z 10005KT 3000 -DZ BR SCT003 OVC008
                        11/11 Q1024 TEMPO 2000 BKN002=
201811160550 METAR COR EGLL 160550Z 10006KT 2500 BR SCT003 OVC009 11/11
                        Q1024 TEMPO BKN002=
201811160520 METAR COR EGLL 160520Z 10006KT 2200 BR SCT002 BKN003 OVC008
                        11/11 Q1024 TEMPO BKN002=
201811160450 METAR COR EGLL 160450Z 11005KT 2000 BR BKN003 OVC010 11/11
                        Q1023 TEMPO BKN002=
201811160420 METAR COR EGLL 160420Z 11005KT 3000 BR BKN004 BKN009 11/11
                        Q1023 TEMPO 2000 BKN002=
201811160350 METAR COR EGLL 160350Z AUTO 12005KT 2300 BR BKN002 BKN007
                        OVC012 11/11 Q1023 NOSIG=
201811160320 METAR COR EGLL 160320Z AUTO 13005KT 2600 BR BKN003 OVC014
                        11/11 Q1023 TEMPO BKN002=
201811160250 METAR COR EGLL 160250Z AUTO 13005KT 3800 BR BKN003 OVC014
                        11/10 Q1023 TEMPO 2000 BKN002=
201811160220 METAR COR EGLL 160220Z AUTO 15005KT 2500 BR BKN003 OVC007
                        11/11 Q1023 TEMPO 1400 BKN002=
201811160150 METAR COR EGLL 160150Z AUTO 17004KT 2200 BR OVC002 11/11
                        Q1023 TEMPO 1400=
201811160120 METAR COR EGLL 160120Z AUTO 15006KT 2900 BR OVC003 11/11
                        Q1023 TEMPO 2500 OVC002=
201811160050 METAR COR EGLL 160050Z AUTO 15004KT 100V180 3000 BR OVC003
                        11/11 Q1023 TEMPO 2500 OVC002=
201811160020 METAR COR EGLL 160020Z AUTO 13005KT 3100 BR OVC003 11/11
                        Q1023 TEMPO 2500 OVC002=
201811152350 METAR COR EGLL 152350Z AUTO 15004KT 3000 BR OVC003 11/11
                        Q1023 TEMPO 2500 OVC002=
201811152320 METAR COR EGLL 152320Z AUTO 16007KT 3000 BR OVC004 11/11
                        Q1022 TEMPO 2500 OVC002=
201811152250 METAR COR EGLL 152250Z AUTO 17006KT 3300 BR OVC003 11/11
                        Q1022 BECMG 2500 BKN002=
201811152220 METAR COR EGLL 152220Z AUTO 16005KT 130V190 3200 BR OVC003
                        11/11 Q1022 BECMG 2500 BR BKN002=
201811152150 METAR COR EGLL 152150Z AUTO 15005KT 4200 HZ OVC004 12/11
                        Q1022 NOSIG=
201811152120 METAR COR EGLL 152120Z AUTO 15005KT 4400 HZ OVC004 12/11
                        Q1021 NOSIG=
201811152050 METAR COR EGLL 152050Z AUTO 14009KT 4800 HZ OVC004 12/11
                        Q1021 NOSIG=
201811152020 METAR COR EGLL 152020Z AUTO 15009KT 5000 HZ OVC005 12/11
                        Q1021 BECMG 4000 BR OVC004=
201811151950 METAR COR EGLL 151950Z AUTO 15009KT 6000 OVC005 12/11 Q1021
                        BECMG 4500 BR OVC004=
201811151920 METAR COR EGLL 151920Z AUTO 14008KT 6000 BKN006 OVC012 12/11
                        Q1021 BECMG 5000 BR BKN005=
201811151850 METAR COR EGLL 151850Z AUTO 15007KT 6000 OVC006 12/11 Q1021
                        BECMG 5000 BR BKN005=
201811151820 METAR COR EGLL 151820Z AUTO 14006KT 7000 OVC007 12/11 Q1021
                        NOSIG=
201811151750 METAR COR EGLL 151750Z AUTO 15008KT 8000 BKN008 13/11 Q1020
                        NOSIG=
201811151720 METAR COR EGLL 151720Z AUTO 13007KT 9000 BKN009 13/12 Q1020
                        NOSIG=
201811151650 METAR COR EGLL 151650Z AUTO 13006KT 9000 BKN010 13/12 Q1020
                        NOSIG=
201811151620 METAR COR EGLL 151620Z AUTO 13007KT 8000 SCT010 14/12 Q1020
                        BECMG BKN010=
201811151550 METAR COR EGLL 151550Z 13006KT 9000 SCT010 14/12 Q1020 BECMG
                        BKN010=
201811151520 METAR COR EGLL 151520Z AUTO 14007KT 8000 BKN011 14/12 Q1020
                        NOSIG=
201811151450 METAR COR EGLL 151450Z AUTO 14007KT 100V170 8000 BKN011 14/13
                        Q1020 NOSIG=
201811151420 METAR COR EGLL 151420Z AUTO 14006KT 110V180 7000 BKN010 14/13
                        Q1020 NOSIG=
201811151350 METAR COR EGLL 151350Z AUTO 14006KT 090V200 7000 BKN009 OVC013
                        14/13 Q1020 NOSIG=
201811151320 METAR COR EGLL 151320Z AUTO 14006KT 110V180 6000 OVC009 14/13
                        Q1020 NOSIG=
201811151250 METAR COR EGLL 151250Z AUTO 14006KT 110V170 7000 OVC009 14/12
                        Q1020 NOSIG=
201811151220 METAR COR EGLL 151220Z AUTO 15006KT 090V220 7000 OVC009 14/12
                        Q1021 NOSIG=
201811151150 METAR COR EGLL 151150Z AUTO 16006KT 120V210 8000 OVC009 14/12
                        Q1021 NOSIG=
201811151120 METAR COR EGLL 151120Z AUTO 15007KT 080V180 8000 OVC009 14/12
                        Q1021 BECMG BKN010=
201811151050 METAR COR EGLL 151050Z AUTO VRB06KT 9999 OVC010 14/12 Q1021
                        TEMPO BKN016=
201811151020 METAR COR EGLL 151020Z AUTO 15006KT 110V180 9000 OVC014 13/11
                        Q1021 BECMG BKN016=
201811150950 METAR COR EGLL 150950Z AUTO 15006KT 090V170 8000 BKN016 13/11
                        Q1021 NOSIG=
201811150920 METAR COR EGLL 150920Z 15006KT 120V200 8000 BKN019 13/11
                        Q1021 NOSIG=
201811150850 METAR COR EGLL 150850Z 13006KT 6000 BKN019 13/12 Q1021 NOSIG=
201811150820 METAR COR EGLL 150820Z 13006KT 6000 BKN020 13/11 Q1021 NOSIG=
201811150750 METAR COR EGLL 150750Z 13005KT 110V170 6000 BKN021 12/11
                        Q1021 NOSIG=
201811150720 METAR COR EGLL 150720Z 14005KT 070V200 7000 OVC021 12/11
                        Q1021 NOSIG=
201811150650 METAR COR EGLL 150650Z 13005KT 7000 OVC021 12/11 Q1020 NOSIG=
201811150620 METAR EGLL 150620Z AUTO VRB03KT 4400 HZ OVC022 12/11 Q1020=
201811150550 METAR COR EGLL 150550Z AUTO 13003KT 4400 HZ OVC023 12/11
                        Q1020 TEMPO 5000=
201811150520 METAR COR EGLL 150520Z AUTO 15002KT 3700 HZ OVC023 12/11
                        Q1020 TEMPO 5000=
201811150450 METAR COR EGLL 150450Z AUTO 09002KT 3300 BR OVC024 12/11
                        Q1020 TEMPO BKN014=
201811150420 METAR COR EGLL 150420Z AUTO 13002KT 3400 BR OVC025 11/11
                        Q1020 TEMPO BKN014=
201811150350 METAR COR EGLL 150350Z AUTO 17004KT 3800 BR FEW012 BKN017
                        OVC022 12/11 Q1020 TEMPO BKN012=
201811150320 METAR COR EGLL 150320Z AUTO 13003KT 3800 BR BKN007 OVC020
                        12/11 Q1020 TEMPO SCT007 BKN020=
201811150250 METAR COR EGLL 150250Z AUTO 14004KT 3600 BR BKN007 OVC023
                        12/11 Q1020 TEMPO BKN010=
201811150220 METAR COR EGLL 150220Z AUTO 13005KT 2900 BR BKN009 OVC015
                        12/11 Q1020 TEMPO BKN011=
201811150150 METAR COR EGLL 150150Z AUTO 12006KT 3300 BR BKN011 OVC022
                        11/11 Q1020 TEMPO BKN008=
201811150120 METAR COR EGLL 150120Z 13005KT 3500 -DZ BKN010 OVC017 11/11
                        Q1020 TEMPO BKN008=
201811150050 METAR COR EGLL 150050Z 13004KT 3500 -DZ FEW008 BKN010 OVC015
                        11/11 Q1020 TEMPO BKN008=
201811150020 METAR COR EGLL 150020Z 14003KT 4000 -DZ SCT008 BKN012 OVC020
                        11/10 Q1020 TEMPO BKN008=
201811142350 METAR COR EGLL 142350Z 14002KT 4500 -DZ BKN012 OVC019 10/10
                        Q1021 TEMPO BKN008=
201811142320 METAR COR EGLL 142320Z 14004KT 120V250 5000 BR OVC022 10/10
                        Q1021 TEMPO 4000=
201811142250 METAR COR EGLL 142250Z 14004KT 120V200 5000 BR FEW010 BKN022
                        BKN028 10/09 Q1021 TEMPO 4000 BKN010=
201811142220 METAR COR EGLL 142220Z 16005KT 120V240 5000 BR FEW011 10/10
                        Q1021 TEMPO 4000 BKN010=
201811142150 METAR COR EGLL 142150Z 17005KT 110V240 6000 NSC 10/09 Q1021
                        TEMPO 4000 BR=
201811142120 METAR COR EGLL 142120Z VRB04KT 6000 NSC 11/10 Q1021 TEMPO
                        4000 HZ=
201811142050 METAR COR EGLL 142050Z AUTO 14004KT 080V210 5000 HZ FEW009
                        10/09 Q1021 TEMPO BKN009=
201811142020 METAR COR EGLL 142020Z AUTO 15004KT 110V230 8000 NCD 10/09
                        Q1021 TEMPO BKN008=
201811141950 METAR COR EGLL 141950Z AUTO 15004KT 090V220 9999 BKN007 11/09
                        Q1021 TEMPO SCT007=
201811141920 METAR COR EGLL 141920Z AUTO 16007KT 110V250 9999 SCT007 11/09
                        Q1021 TEMPO BKN007=
201811141850 METAR COR EGLL 141850Z AUTO 14006KT 110V180 9999 NCD 10/08
                        Q1021 NOSIG=
201811141820 METAR COR EGLL 141820Z AUTO 16006KT 120V240 9999 NCD 11/08
                        Q1021 NOSIG=
201811141750 METAR COR EGLL 141750Z AUTO 17007KT 140V230 9999 NCD 11/08
                        Q1021 NOSIG=
201811141720 METAR COR EGLL 141720Z AUTO 17008KT 140V230 9999 NCD 12/08
                        Q1021 NOSIG=
201811141650 METAR COR EGLL 141650Z AUTO 15005KT 100V210 9999 NCD 12/08
                        Q1021 NOSIG=
201811141620 METAR COR EGLL 141620Z AUTO 16005KT 120V230 9999 NCD 13/08
                        Q1021 NOSIG=
201811141550 METAR COR EGLL 141550Z AUTO 17007KT 130V230 9999 NCD 13/08
                        Q1021 NOSIG=
201811141520 METAR COR EGLL 141520Z AUTO 16007KT 130V210 9999 NCD 14/08
                        Q1021 NOSIG=
201811141450 METAR COR EGLL 141450Z AUTO 19009KT 160V220 9999 NCD 14/07
                        Q1021 NOSIG=
201811141420 METAR COR EGLL 141420Z AUTO 18009KT 160V220 9999 NCD 14/07
                        Q1021 NOSIG=
201811141350 METAR COR EGLL 141350Z AUTO 18010KT 9999 NCD 14/07 Q1021
                        NOSIG=
201811141320 METAR COR EGLL 141320Z AUTO 19008KT 160V240 9999 NCD 14/08
                        Q1022 NOSIG=
201811141250 METAR COR EGLL 141250Z AUTO 20009KT 180V240 9999 NCD 14/08
                        Q1022 NOSIG=
201811141220 METAR COR EGLL 141220Z AUTO 20010KT 9999 NCD 14/08 Q1022
                        NOSIG=
201811141150 METAR COR EGLL 141150Z AUTO 20012KT 9999 NCD 14/08 Q1022
                        NOSIG=
201811141120 METAR COR EGLL 141120Z AUTO 20012KT 9999 NCD 13/08 Q1022
                        NOSIG=
201811141050 METAR COR EGLL 141050Z AUTO 20011G22KT 9999 NCD 13/09 Q1023
                        NOSIG=
201811141020 METAR COR EGLL 141020Z AUTO 20010KT 9999 NCD 13/09 Q1023
                        NOSIG=
201811140950 METAR COR EGLL 140950Z AUTO 20011KT 9999 NCD 12/09 Q1023
                        NOSIG=
201811140920 METAR COR EGLL 140920Z AUTO 19009G19KT 160V240 9999 NCD 12/09
                        Q1023 NOSIG=
201811140850 METAR COR EGLL 140850Z AUTO 19009KT 9999 NCD 11/09 Q1023
                        NOSIG=
201811140820 METAR COR EGLL 140820Z AUTO 19008KT 150V230 9999 NCD 11/09
                        Q1023 NOSIG=
201811140750 METAR COR EGLL 140750Z AUTO 18007KT 160V250 9999 NCD 10/09
                        Q1023 NOSIG=
201811140720 METAR COR EGLL 140720Z AUTO 17006KT 140V220 9999 SCT018 10/09
                        Q1023 NOSIG=
201811140650 METAR COR EGLL 140650Z AUTO 18007KT 150V240 9999 NCD 10/09
                        Q1022 NOSIG=
201811140620 METAR COR EGLL 140620Z AUTO 19008KT 160V240 9999 NCD 10/09
                        Q1022 NOSIG=
201811140550 METAR COR EGLL 140550Z AUTO 18005KT 9999 NCD 10/09 Q1022
                        NOSIG=
201811140520 METAR COR EGLL 140520Z AUTO 19007KT 9999 NCD 10/09 Q1022
                        NOSIG=
201811140450 METAR COR EGLL 140450Z AUTO 19006KT 170V260 9999 NCD 10/09
                        Q1022 NOSIG=
201811140420 METAR COR EGLL 140420Z AUTO 19007KT 9999 NCD 10/09 Q1022
                        NOSIG=
201811140350 METAR COR EGLL 140350Z AUTO 20009KT 9999 NCD 10/09 Q1022
                        NOSIG=
201811140320 METAR COR EGLL 140320Z AUTO 19008KT 9999 FEW021 10/09 Q1022
                        NOSIG=
201811140250 METAR COR EGLL 140250Z AUTO 18007KT 9999 NCD 10/09 Q1023
                        NOSIG=
201811140220 METAR COR EGLL 140220Z AUTO 19007KT 9999 NCD 10/09 Q1023
                        NOSIG=
201811140150 METAR COR EGLL 140150Z AUTO 19008KT 9999 NCD 10/09 Q1023
                        NOSIG=
201811140120 METAR COR EGLL 140120Z AUTO 19006KT 9999 NCD 10/09 Q1024
                        NOSIG=
201811140050 METAR COR EGLL 140050Z AUTO 18006KT 140V240 9999 NCD 10/09
                        Q1024 NOSIG=
201811140020 METAR COR EGLL 140020Z AUTO 17004KT 9999 NCD 10/09 Q1024
                        NOSIG=
201811132350 METAR COR EGLL 132350Z AUTO 15003KT 9999 NCD 09/08 Q1024
                        NOSIG=
201811132320 METAR COR EGLL 132320Z AUTO 17004KT 160V220 9999 NCD 10/08
                        Q1025 NOSIG=
201811132250 METAR COR EGLL 132250Z AUTO 19005KT 180V240 9999 NCD 09/08
                        Q1025 NOSIG=
201811132220 METAR COR EGLL 132220Z AUTO 20007KT 170V240 9999 FEW036 SCT049
                        10/08 Q1025 NOSIG=
201811132150 METAR COR EGLL 132150Z AUTO 19007KT 160V250 9999 NCD 10/08
                        Q1025 NOSIG=
201811132120 METAR COR EGLL 132120Z AUTO 19008KT 160V240 9999 NCD 10/08
                        Q1025 NOSIG=
201811132050 METAR COR EGLL 132050Z 21008KT 160V250 CAVOK 10/08 Q1025
                        NOSIG=
201811132020 METAR COR EGLL 132020Z AUTO 21007KT 170V240 9999 NCD 10/08
                        Q1025 NOSIG=
201811131950 METAR COR EGLL 131950Z AUTO 19007KT 160V250 9999 NCD 10/08
                        Q1025 NOSIG=
201811131920 METAR COR EGLL 131920Z AUTO 21008KT 9999 NCD 11/08 Q1025
                        NOSIG=
201811131850 METAR COR EGLL 131850Z AUTO 21008KT 9999 NCD 11/08 Q1025
                        NOSIG=
201811131820 METAR COR EGLL 131820Z AUTO 21008KT 9999 NCD 11/08 Q1024
                        NOSIG=
201811131750 METAR COR EGLL 131750Z AUTO 19008KT 160V230 9999 NCD 11/08
                        Q1024 NOSIG=
201811131720 METAR COR EGLL 131720Z AUTO 19008KT 160V240 9999 FEW034 11/07
                        Q1024 NOSIG=
201811131650 METAR COR EGLL 131650Z AUTO 20007KT 150V240 9999 NCD 11/06
                        Q1024 NOSIG=
201811131620 METAR COR EGLL 131620Z AUTO 23009KT 9999 BKN049 12/06 Q1024
                        NOSIG=
201811131550 METAR COR EGLL 131550Z AUTO 23009KT 9999 NCD 12/06 Q1024
                        NOSIG=
201811131520 METAR COR EGLL 131520Z AUTO 23010KT 9999 FEW039 13/06 Q1023
                        NOSIG=
201811131450 METAR COR EGLL 131450Z AUTO 23008KT 9999 NCD 13/07 Q1023
                        NOSIG=
201811131420 METAR COR EGLL 131420Z AUTO 24010KT 9999 FEW036 14/07 Q1023
                        NOSIG=
201811131350 METAR COR EGLL 131350Z AUTO 23011KT 9999 SCT035 13/07 Q1023
                        NOSIG=
201811131320 METAR COR EGLL 131320Z AUTO 25011KT 9999 SCT032 12/07 Q1023
                        NOSIG=
201811131250 METAR COR EGLL 131250Z AUTO 25010KT 9999 NCD 13/08 Q1023
                        NOSIG=
201811131220 METAR COR EGLL 131220Z AUTO 25012KT 9999 NCD 13/08 Q1022
                        NOSIG=
201811131150 METAR COR EGLL 131150Z AUTO 25013KT 9999 NCD 13/08 Q1022
                        NOSIG=
201811131120 METAR COR EGLL 131120Z AUTO 25013KT 9999 NCD 13/08 Q1022
                        NOSIG=
201811131050 METAR COR EGLL 131050Z AUTO 25013KT 9999 NCD 12/08 Q1022
                        NOSIG=
201811131020 METAR COR EGLL 131020Z AUTO 25011KT 9999 NCD 12/08 Q1021
                        NOSIG=
201811130950 METAR COR EGLL 130950Z AUTO 25011KT 9999 NCD 11/08 Q1021
                        NOSIG=
201811130920 METAR COR EGLL 130920Z AUTO 24011KT 9999 NCD 11/07 Q1020
                        NOSIG=
201811130850 METAR COR EGLL 130850Z AUTO 24010KT 9999 NCD 10/07 Q1020
                        NOSIG=
201811130820 METAR COR EGLL 130820Z AUTO 23010KT 9999 NCD 09/07 Q1019
                        NOSIG=
201811130750 METAR COR EGLL 130750Z AUTO 23010KT 9999 NCD 08/07 Q1019
                        NOSIG=
201811130720 METAR COR EGLL 130720Z AUTO 23009KT 9999 NCD 08/06 Q1018
                        NOSIG=
201811130650 METAR COR EGLL 130650Z AUTO 22008KT 9999 NCD 07/06 Q1017
                        NOSIG=
201811130620 METAR COR EGLL 130620Z AUTO 22007KT 9999 NCD 08/06 Q1017
                        NOSIG=
201811130550 METAR COR EGLL 130550Z AUTO 21007KT 9999 NCD 07/06 Q1016
                        NOSIG=
201811130520 METAR COR EGLL 130520Z AUTO 21007KT 180V260 9999 NCD 07/06
                        Q1016 NOSIG=
201811130450 METAR COR EGLL 130450Z AUTO 21007KT 9999 NCD 08/06 Q1016
                        NOSIG=
201811130420 METAR COR EGLL 130420Z AUTO 21007KT 9999 NCD 08/07 Q1015
                        NOSIG=
201811130350 METAR COR EGLL 130350Z AUTO 21008KT 9999 NCD 08/07 Q1014
                        NOSIG=
201811130320 METAR COR EGLL 130320Z AUTO 21009KT 9999 NCD 08/07 Q1014
                        NOSIG=
201811130250 METAR COR EGLL 130250Z AUTO 22007KT 9999 NCD 09/07 Q1014
                        NOSIG=
201811130220 METAR COR EGLL 130220Z AUTO 23009KT 9999 NCD 09/07 Q1014
                        NOSIG=
201811130150 METAR COR EGLL 130150Z AUTO 22007KT 9999 NCD 09/06 Q1013
                        NOSIG=
201811130120 METAR COR EGLL 130120Z AUTO 21007KT 9999 NCD 09/06 Q1013
                        NOSIG=
201811130050 METAR COR EGLL 130050Z AUTO 21006KT 9999 NCD 10/06 Q1013
                        NOSIG=
201811130020 METAR COR EGLL 130020Z AUTO 22009KT 9999 NCD 10/06 Q1013
                        NOSIG=
201811122350 METAR COR EGLL 122350Z AUTO 22009KT 9999 NCD 10/07 Q1012
                        NOSIG=
201811122320 METAR COR EGLL 122320Z AUTO 19008KT 9999 NCD 09/07 Q1012
                        NOSIG=
201811122250 METAR COR EGLL 122250Z AUTO 21009KT 180V250 9999 FEW034 10/08
                        Q1012 NOSIG=
201811122220 METAR COR EGLL 122220Z AUTO 20010KT 180V240 9999 NCD 10/08
                        Q1011 NOSIG=
201811122150 METAR COR EGLL 122150Z AUTO 19010KT 170V240 9999 FEW033 10/08
                        Q1012 NOSIG=
201811122120 METAR COR EGLL 122120Z AUTO 18008KT 160V230 9999 NCD 10/08
                        Q1012 NOSIG=
201811122050 METAR COR EGLL 122050Z AUTO 19008KT 130V240 9999 NCD 10/08
                        Q1012 NOSIG=
201811122020 METAR COR EGLL 122020Z AUTO 18009KT 160V230 9999 NCD 10/08
                        Q1012 NOSIG=
201811121950 METAR COR EGLL 121950Z AUTO 19009KT 160V240 9999 -RA NCD
                        11/08 Q1011 TEMPO SHRA=
201811121920 METAR COR EGLL 121920Z AUTO 19009KT 160V240 9999 NCD 10/08
                        Q1012 TEMPO SHRA=
201811121850 METAR COR EGLL 121850Z AUTO 19010KT 160V230 9999 NCD 11/08
                        Q1012 TEMPO 4000 +SHRA=
201811121820 METAR COR EGLL 121820Z AUTO 18010KT 160V230 9999 -RA VCTS
                        //////CB 10/08 Q1011 TEMPO 4000 +SHRA=
201811121750 METAR COR EGLL 121750Z AUTO 19010KT 170V240 9999 //////CB
                        11/08 Q1011 TEMPO SHRA=
201811121720 METAR COR EGLL 121720Z AUTO 19010KT 170V240 9999 //////CB
                        11/08 Q1011 TEMPO 4000 +SHRA=
201811121650 METAR COR EGLL 121650Z AUTO 19012KT 9999 FEW030 12/08 Q1011
                        TEMPO 4000 +SHRA=
201811121620 METAR COR EGLL 121620Z AUTO 19010KT 9999 //////CB 12/08 Q1011
                        TEMPO SHRA=
201811121550 METAR COR EGLL 121550Z AUTO 21012KT 180V240 9999 NCD 12/08
                        Q1010 TEMPO SHRA=
201811121520 METAR COR EGLL 121520Z AUTO 21012KT 180V240 9999 NCD 12/08
                        Q1010 TEMPO SHRA=
201811121450 METAR COR EGLL 121450Z AUTO 21012KT 9999 NCD 13/09 Q1010
                        NOSIG=
201811121420 METAR COR EGLL 121420Z AUTO 19012G22KT 9999 //////CB 13/09
                        Q1010 TEMPO 4000 +SHRA=
201811121350 METAR COR EGLL 121350Z AUTO 19013KT 9999 //////CB 13/09 Q1010
                        TEMPO 4000 +SHRA=
201811121320 METAR COR EGLL 121320Z AUTO 19012KT 9999 VCTS FEW045/// //////CB
                        14/09 Q1009 TEMPO 4000 +SHRA=
201811121250 METAR COR EGLL 121250Z AUTO 19011G21KT 150V210 9999 BKN028///
                        BKN039/// //////CB 14/09 Q1009 TEMPO
                        SHRA=
201811121220 METAR COR EGLL 121220Z AUTO 20013KT 9999 SCT026 14/09 Q1009
                        TEMPO SHRA=
201811121150 METAR COR EGLL 121150Z AUTO 20013KT 160V230 9999 NCD 14/10
                        Q1009 TEMPO SHRA=
201811121120 METAR COR EGLL 121120Z AUTO 20011KT 9999 NCD 14/09 Q1009
                        TEMPO SHRA=
201811121050 METAR COR EGLL 121050Z AUTO 20008KT 170V230 9999 NCD 13/09
                        Q1009 NOSIG=
201811121020 METAR COR EGLL 121020Z AUTO 19010KT 160V220 9999 //////TCU
                        12/08 Q1009 NOSIG=
201811120950 METAR COR EGLL 120950Z AUTO 20009KT 170V230 9999 //////CB
                        11/08 Q1009 NOSIG=
201811120920 METAR COR EGLL 120920Z AUTO 18011KT 9999 //////CB 11/09 Q1009
                        TEMPO SHRA=
201811120850 METAR COR EGLL 120850Z AUTO 19006KT 150V220 9999 FEW024///
                        //////CB 10/10 Q1009 TEMPO 4000 +SHRA=
201811120820 METAR COR EGLL 120820Z AUTO 18006KT 140V240 9999 FEW024///
                        //////CB 10/09 Q1009 TEMPO 4000 +SHRA=
201811120750 METAR COR EGLL 120750Z AUTO 18006KT 120V230 9999 SCT019///
                        BKN026/// BKN040/// //////TCU 11/10
                        Q1008 TEMPO SHRA=
201811120720 METAR COR EGLL 120720Z AUTO 19006KT 150V220 7000 -RA SCT027///
                        SCT045/// //////CB 10/10 Q1008 RERA
                        NOSIG=
201811120650 METAR COR EGLL 120650Z AUTO 20006KT 150V250 9999 SCT025 BKN045
                        10/09 Q1007 NOSIG=
201811120620 METAR COR EGLL 120620Z AUTO VRB06KT 9999 -RA FEW028TCU 10/09
                        Q1007 NOSIG=
201811120550 METAR COR EGLL 120550Z AUTO 18006KT 9999 NCD 10/09 Q1007
                        NOSIG=
201811120520 METAR COR EGLL 120520Z AUTO 18006KT 9999 NCD 09/09 Q1007
                        NOSIG=
201811120450 METAR COR EGLL 120450Z AUTO 17006KT 9999 NCD 10/09 Q1007
                        NOSIG=
201811120420 METAR COR EGLL 120420Z AUTO 16005KT 9999 NCD 10/09 Q1007
                        NOSIG=
201811120350 METAR COR EGLL 120350Z AUTO 15004KT 9999 NCD 09/08 Q1007
                        NOSIG=
201811120320 METAR COR EGLL 120320Z 16004KT 9999 SCT040TCU 09/08 Q1007
                        NOSIG=
201811120250 METAR COR EGLL 120250Z AUTO 18003KT 9999 FEW032TCU 10/08
                        Q1006 NOSIG=
201811120220 METAR COR EGLL 120220Z AUTO 17005KT 9999 -RA NCD 10/08 Q1007
                        NOSIG=
201811120150 METAR COR EGLL 120150Z 18005KT 9999 SCT041TCU 10/08 Q1007
                        NOSIG=
201811120120 METAR COR EGLL 120120Z 18007KT CAVOK 10/08 Q1006 NOSIG=
201811120050 METAR COR EGLL 120050Z 18009KT 9999 -RA NSC 10/08 Q1006 NOSIG=
201811120020 METAR COR EGLL 120020Z 18008KT 9999 -RA NSC 10/08 Q1006 NOSIG=
201811112350 METAR COR EGLL 112350Z 17007KT CAVOK 10/08 Q1006 NOSIG=
201811112320 METAR COR EGLL 112320Z 16007KT CAVOK 10/08 Q1006 NOSIG=
201811112250 METAR COR EGLL 112250Z AUTO 16006KT 120V180 9999 NCD 09/08
                        Q1006 NOSIG=
201811112220 METAR COR EGLL 112220Z AUTO 16008KT 120V190 9999 NCD 09/07
                        Q1006 NOSIG=
201811112150 METAR COR EGLL 112150Z AUTO 16007KT 120V220 9999 NCD 09/07
                        Q1006 NOSIG=
201811112120 METAR COR EGLL 112120Z AUTO 17007KT 150V230 9999 NCD 09/07
                        Q1006 NOSIG=
201811112050 METAR COR EGLL 112050Z AUTO 17008KT 9999 NCD 09/07 Q1005
                        NOSIG=
201811112020 METAR COR EGLL 112020Z AUTO 19008KT 150V220 9999 NCD 09/07
                        Q1005 NOSIG=
201811111950 METAR COR EGLL 111950Z AUTO 19008KT 160V250 9999 NCD 09/07
                        Q1005 NOSIG=
201811111920 METAR COR EGLL 111920Z AUTO 19009KT 9999 NCD 09/06 Q1005
                        NOSIG=
201811111850 METAR COR EGLL 111850Z AUTO 19011G22KT 9999 NCD 10/06 Q1004
                        NOSIG=
201811111820 METAR COR EGLL 111820Z AUTO 19009KT 9999 NCD 10/07 Q1004
                        NOSIG=
201811111750 METAR COR EGLL 111750Z AUTO 21010KT 9999 NCD 11/07 Q1003
                        NOSIG=
201811111720 METAR COR EGLL 111720Z AUTO 19010KT 170V240 9999 NCD 10/07
                        Q1003 NOSIG=
201811111650 METAR COR EGLL 111650Z AUTO 21010KT 9999 NCD 11/07 Q1003
                        NOSIG=
201811111620 METAR COR EGLL 111620Z AUTO 21010KT 9999 NCD 11/07 Q1002
                        NOSIG=
201811111550 METAR COR EGLL 111550Z AUTO 21010KT 9999 NCD 12/07 Q1002
                        NOSIG=
201811111520 METAR COR EGLL 111520Z AUTO 22012KT 9999 NCD 12/07 Q1001
                        NOSIG=
201811111450 METAR COR EGLL 111450Z AUTO 23011KT 9999 NCD 13/07 Q1001
                        NOSIG=
201811111420 METAR COR EGLL 111420Z AUTO 23014KT 9999 NCD 13/06 Q1001
                        NOSIG=
201811111350 METAR COR EGLL 111350Z AUTO 23013KT 9999 FEW039/// //////TCU
                        13/07 Q1000 NOSIG=
201811111320 METAR COR EGLL 111320Z AUTO 24011KT 9999 FEW038/// SCT045///
                        //////TCU 13/06 Q1000 NOSIG=
201811111250 METAR COR EGLL 111250Z AUTO 23015KT 9999 NCD 14/07 Q1000
                        NOSIG=
201811111220 METAR EGLL 111220Z AUTO 23015KT 9999 FEW039 13/07 Q0999=
201811111150 METAR EGLL 111150Z AUTO 24014KT 9999 NCD 13/07 Q0999=
201811111120 METAR EGLL 111120Z AUTO 23015KT 9999 NCD 13/07 Q0999=
201811111050 METAR COR EGLL 111050Z AUTO 23011KT 9999 NCD 12/08 Q0999
                        NOSIG=
201811111020 METAR EGLL 111020Z AUTO 23014KT 9999 NCD 12/07 Q0998=
201811110950 METAR COR EGLL 110950Z AUTO 22015KT 190V250 9999 NCD 11/08
                        Q0997 NOSIG=
201811110920 METAR COR EGLL 110920Z AUTO 21012KT 9999 FEW034 11/08 Q0997
                        NOSIG=
201811110850 METAR COR EGLL 110850Z AUTO 21011KT 9999 NCD 11/09 Q0996
                        NOSIG=
201811110820 METAR COR EGLL 110820Z AUTO 22011KT 9999 BKN034/// //////TCU
                        10/09 Q0996 TEMPO SHRA=
201811110750 METAR COR EGLL 110750Z AUTO 22012KT 9999 -RA FEW048/// //////CB
                        10/08 Q0995 TEMPO SHRA=
201811110720 METAR COR EGLL 110720Z AUTO 19007KT 9999 //////CB 09/08 Q0994
                        TEMPO SHRA=
201811110650 METAR COR EGLL 110650Z AUTO 18007KT 150V220 9999 -RA SCT031///
                        BKN047/// //////CB 10/09 Q0994 TEMPO
                        SHRA=
201811110620 METAR COR EGLL 110620Z AUTO 19009KT 160V240 9999 -RA SCT030///
                        BKN037/// //////CB 10/08 Q0994 TEMPO
                        SHRA=
201811110550 METAR COR EGLL 110550Z AUTO 19008KT 9999 -RA FEW015/// SCT022///
                        BKN038/// //////CB 10/09 Q0994 RERA
                        TEMPO 4000 +SHRA=
201811110520 METAR COR EGLL 110520Z AUTO 17007KT 9999 -RA SCT034/// BKN046///
                        //////CB 09/09 Q0994 TEMPO 4000 +SHRA=
201811110450 METAR COR EGLL 110450Z AUTO 16006KT 8000 -RA FEW040 SCT049
                        09/08 Q0994 TEMPO 4000 SHRA=
201811110420 METAR COR EGLL 110420Z AUTO 14005KT 9999 NCD 08/07 Q0994
                        TEMPO SHRA=
201811110350 METAR COR EGLL 110350Z 12004KT CAVOK 07/07 Q0994 NOSIG=
201811110320 METAR COR EGLL 110320Z AUTO 15004KT 9999 NCD 08/07 Q0995
                        NOSIG=
201811110250 METAR COR EGLL 110250Z AUTO 16005KT 9999 NCD 08/07 Q0995
                        NOSIG=
201811110220 METAR COR EGLL 110220Z AUTO 17007KT 9999 NCD 08/08 Q0995
                        NOSIG=
201811110150 METAR COR EGLL 110150Z AUTO 18006KT 9999 NCD 09/08 Q0995
                        NOSIG=
201811110120 METAR COR EGLL 110120Z AUTO 18007KT 9999 NCD 09/08 Q0995
                        NOSIG=
201811110050 METAR COR EGLL 110050Z AUTO 18007KT 9999 //////TCU 10/09
                        Q0995 TEMPO SHRA=
201811110020 METAR COR EGLL 110020Z AUTO 18009KT 9999 -RA BKN038/// //////CB
                        10/09 Q0995 TEMPO SHRA=
201811102350 METAR COR EGLL 102350Z AUTO 19006KT 9999 -RA //////CB 10/09
                        Q0995 TEMPO 4000 +SHRA=
201811102320 METAR COR EGLL 102320Z AUTO 19005KT 9999 -RA NCD 10/09 Q0995
                        TEMPO SHRA=
201811102250 METAR COR EGLL 102250Z AUTO 15006KT 9000 FEW049 10/09 Q0995
                        TEMPO SHRA=
201811102220 METAR COR EGLL 102220Z AUTO 15006KT 110V190 9999 -RA FEW034///
                        SCT048/// //////CB 10/09 Q0994 TEMPO
                        SHRA=
201811102150 METAR COR EGLL 102150Z AUTO 17007KT 8000 -RA SCT031/// BKN044///
                        //////CB 10/09 Q0995 RERA NOSIG=
201811102120 METAR COR EGLL 102120Z AUTO 17006KT 130V230 4200 RA SCT021///
                        BKN028/// BKN037/// //////CB 10/09
                        Q0995 TEMPO 9999 NSW=
201811102050 METAR COR EGLL 102050Z AUTO 16007KT 130V220 9999 -RA //////TCU
                        10/09 Q0994 TEMPO SHRA=
201811102020 METAR COR EGLL 102020Z AUTO 16010KT 9000 -RA SCT036/// BKN049///
                        //////CB 10/09 Q0995 TEMPO SHRA=
201811101950 METAR COR EGLL 101950Z AUTO 16008KT 9999 -RA SCT047/// //////CB
                        10/09 Q0995 NOSIG=
201811101920 METAR COR EGLL 101920Z AUTO 14008KT 9999 -RA SCT018/// //////CB
                        10/09 Q0995 NOSIG=
201811101850 METAR COR EGLL 101850Z AUTO 14007KT 9999 -RA FEW031/// SCT046///
                        //////CB 10/09 Q0994 NOSIG=
201811101820 METAR COR EGLL 101820Z AUTO 15005KT 090V200 8000 -RA SCT034///
                        BKN043/// BKN049/// //////CB 10/09
                        Q0995 NOSIG=
201811101750 METAR COR EGLL 101750Z AUTO 19007KT 160V270 7000 -RA SCT027///
                        BKN034/// //////CB 10/09 Q0995 NOSIG=
201811101720 METAR COR EGLL 101720Z 21008KT 180V240 7000 -SHRA FEW030CB
                        OVC045 10/09 Q0995 NOSIG=
201811101650 METAR COR EGLL 101650Z 19009KT 150V230 9000 -SHRA BKN030CB
                        10/09 Q0995 NOSIG=
201811101620 METAR COR EGLL 101620Z 17008KT 9999 -SHRA FEW022CB 10/09
                        Q0995 NOSIG=
201811101550 METAR COR EGLL 101550Z 20008KT 180V260 9999 -SHRA VCTS FEW020CB
                        BKN040 10/09 Q0995 TEMPO 5000 SHRA=
201811101520 METAR COR EGLL 101520Z 19010KT 9999 -SHRA FEW020CB 11/09
                        Q0995 TEMPO 5000 SHRA=
201811101450 METAR COR EGLL 101450Z 22014KT 9999 5000SE -SHRA SCT020CB
                        BKN030 10/09 Q0995 RESHRA TEMPO 5000
                        SHRA=
201811101420 METAR COR EGLL 101420Z 19014KT 160V240 9999 7000W -RA SCT020CB
                        BKN030 13/10 Q0994 NOSIG=
201811101350 METAR COR EGLL 101350Z 20012KT 170V240 9999 -SHRA FEW020CB
                        SCT030 13/10 Q0994 TEMPO 4000 SHRA=
201811101320 METAR COR EGLL 101320Z 20013KT 9999 FEW020CB SCT030 14/09
                        Q0994 TEMPO 4000 SHRA BKN014CB=
201811101250 METAR COR EGLL 101250Z 19013KT 170V240 9999 FEW020CB SCT025
                        14/09 Q0994 TEMPO SHRA=
201811101220 METAR COR EGLL 101220Z AUTO 19012KT 160V230 9999 SCT025 SCT036
                        14/10 Q0994 TEMPO SHRA=
201811101150 METAR COR EGLL 101150Z AUTO 20012KT 160V240 9999 SCT020 14/10
                        Q0994 TEMPO SHRA=
201811101120 METAR COR EGLL 101120Z AUTO 20011KT 9999 FEW021 14/11 Q0995
                        NOSIG=
201811101050 METAR COR EGLL 101050Z 20009KT 170V240 9999 NSC 13/11 Q0995
                        NOSIG=
201811101020 METAR COR EGLL 101020Z 19007KT 160V240 9999 NSC 13/10 Q0995
                        NOSIG=
201811100950 METAR COR EGLL 100950Z 19007KT 160V250 9999 NSC 12/10 Q0995
                        NOSIG=
201811100920 METAR COR EGLL 100920Z 18007KT 140V230 9999 FEW020 11/10
                        Q0995 NOSIG=
201811100850 METAR COR EGLL 100850Z 19006KT 150V230 9999 FEW020 11/09
                        Q0995 NOSIG=
201811100820 METAR COR EGLL 100820Z 18007KT 160V230 9999 FEW020 10/09
                        Q0995 NOSIG=
201811100750 METAR COR EGLL 100750Z AUTO 19008KT 8000 FEW042 09/08 Q0995
                        NOSIG=
201811100720 METAR COR EGLL 100720Z AUTO 19006KT 8000 FEW033 09/08 Q0995
                        NOSIG=
201811100650 METAR COR EGLL 100650Z AUTO 19007KT 170V240 9000 NCD 09/08
                        Q0994 NOSIG=
201811100620 METAR COR EGLL 100620Z AUTO 21007KT 180V260 9999 NCD 09/08
                        Q0994 NOSIG=
201811100550 METAR COR EGLL 100550Z AUTO 21007KT 9999 NCD 09/08 Q0994
                        NOSIG=
201811100520 METAR COR EGLL 100520Z AUTO 21008KT 9999 NCD 09/09 Q0993
                        NOSIG=
201811100450 METAR COR EGLL 100450Z AUTO 21007KT 9999 NCD 09/09 Q0993
                        NOSIG=
201811100420 METAR COR EGLL 100420Z AUTO 21009KT 9999 NCD 10/09 Q0993
                        NOSIG=
201811100350 METAR COR EGLL 100350Z 21009KT CAVOK 11/10 Q0992 NOSIG=
201811100320 METAR COR EGLL 100320Z 20009KT CAVOK 11/10 Q0992 NOSIG=
201811100250 METAR COR EGLL 100250Z 20009KT CAVOK 12/11 Q0992 NOSIG=
201811100220 METAR COR EGLL 100220Z 19008KT 9999 -RA FEW019 SCT030 BKN044
                        12/11 Q0992 TEMPO RA=
201811100150 METAR COR EGLL 100150Z 21009KT 9999 FEW012 SCT027 BKN040
                        12/11 Q0992 TEMPO 4000 RA BKN012=
201811100120 METAR COR EGLL 100120Z 20010KT 9000 -RA SCT009 BKN013 12/11
                        Q0991 TEMPO 4000 RA BKN009=
201811100050 METAR COR EGLL 100050Z 20012KT 9999 -RA BKN012 OVC037 12/11
                        Q0991 TEMPO 4000 RA=
201811100020 METAR COR EGLL 100020Z 19013KT 9999 -RA BKN012 OVC021 11/10
                        Q0991 NOSIG=
201811092350 METAR COR EGLL 092350Z 17014KT 9999 -RA BKN012 OVC028 11/10
                        Q0992 NOSIG=
201811092320 METAR COR EGLL 092320Z 17013KT 7000 -RA SCT012 BKN016 OVC028
                        11/10 Q0992 TEMPO BKN014=
201811092250 METAR COR EGLL 092250Z 17013KT 8000 -RA BKN011 OVC018 11/10
                        Q0993 TEMPO RA=
201811092220 METAR COR EGLL 092220Z 16016KT 8000 -RA SCT013 BKN020 11/10
                        Q0994 TEMPO RA BKN013=
201811092150 METAR COR EGLL 092150Z 17015KT 8000 -RA BKN014 OVC020 11/10
                        Q0994 TEMPO RA=
201811092120 METAR COR EGLL 092120Z 17016KT 8000 -RA SCT014 BKN020 11/09
                        Q0995 TEMPO RA BKN014=
201811092050 METAR COR EGLL 092050Z 17018G29KT 7000 -RA SCT018 BKN024
                        11/09 Q0995 TEMPO RA BKN014=
201811092020 METAR COR EGLL 092020Z 17019KT 9999 -RA BKN018TCU BKN030
                        11/09 Q0996 TEMPO RA=
201811091950 METAR COR EGLL 091950Z AUTO 16017KT 9999 -RA SCT021/// BKN032///
                        //////TCU 11/09 Q0996 TEMPO RA=
201811091920 METAR COR EGLL 091920Z AUTO 16018KT 9999 -RA SCT026 BKN036
                        BKN048TCU 12/09 Q0997 NOSIG=
201811091850 METAR COR EGLL 091850Z AUTO 16019KT 9999 -RA SCT034 BKN045TCU
                        12/08 Q0997 TEMPO 6000 RA=
201811091820 METAR COR EGLL 091820Z AUTO 16015KT 9999 FEW045 12/07 Q0998
                        NOSIG=
201811091750 METAR COR EGLL 091750Z AUTO 15015KT 9999 NCD 12/07 Q0999
                        NOSIG=
201811091720 METAR COR EGLL 091720Z AUTO 15014KT 9999 NCD 12/07 Q1000
                        NOSIG=
201811091650 METAR COR EGLL 091650Z AUTO 16014KT 9999 NCD 12/07 Q1000
                        NOSIG=
201811091620 METAR COR EGLL 091620Z AUTO 17013KT 150V220 9999 FEW038 12/07
                        Q1001 NOSIG=
201811091550 METAR COR EGLL 091550Z AUTO 17014KT 9999 NCD 12/07 Q1001
                        NOSIG=
201811091520 METAR COR EGLL 091520Z AUTO 18013G23KT 9999 NCD 13/07 Q1002
                        NOSIG=
201811091450 METAR COR EGLL 091450Z AUTO 19014KT 170V240 9999 SCT035 13/07
                        Q1002 NOSIG=
201811091420 METAR COR EGLL 091420Z AUTO 20015KT 170V240 9999 BKN032 13/07
                        Q1003 NOSIG=
201811091350 METAR COR EGLL 091350Z AUTO 21014G24KT 9999 FEW035 14/07
                        Q1003 NOSIG=
201811091320 METAR COR EGLL 091320Z AUTO 21013KT 9999 FEW022 SCT026 BKN034
                        13/09 Q1003 NOSIG=
201811091250 METAR COR EGLL 091250Z AUTO 20012KT 9999 SCT015 BKN023 OVC044
                        12/10 Q1003 RESHRA NOSIG=
201811091220 METAR COR EGLL 091220Z AUTO 17012KT 8000 -RA BKN017 OVC047
                        13/10 Q1004 TEMPO 4000 RA=
201811091150 METAR COR EGLL 091150Z AUTO 17014KT 9999 BKN019 BKN029 BKN035
                        13/10 Q1004 NOSIG=
201811091120 METAR COR EGLL 091120Z AUTO 15011KT 9999 -RA FEW018 SCT025
                        BKN045 13/10 Q1004 TEMPO BKN014=
201811091050 METAR COR EGLL 091050Z AUTO 14011KT 9999 SCT014 BKN045 13/10
                        Q1005 TEMPO BKN014=
201811091020 METAR COR EGLL 091020Z AUTO 14010KT 9999 BKN015 BKN021 OVC028
                        12/10 Q1006 TEMPO BKN014=
201811090950 METAR COR EGLL 090950Z AUTO 13010KT 9999 BKN018 BKN023 12/09
                        Q1006 NOSIG=
201811090920 METAR COR EGLL 090920Z AUTO 13009KT 9999 BKN022 12/09 Q1006
                        NOSIG=
201811090850 METAR COR EGLL 090850Z AUTO 14008KT 9999 SCT021 11/09 Q1007
                        NOSIG=
201811090820 METAR COR EGLL 090820Z AUTO 12005KT 9999 FEW022 10/09 Q1007
                        NOSIG=
201811090750 METAR COR EGLL 090750Z AUTO 10007KT 9999 BKN021 09/08 Q1007
                        NOSIG=
201811090720 METAR COR EGLL 090720Z AUTO 12006KT 9999 NCD 09/08 Q1008
                        NOSIG=
201811090650 METAR COR EGLL 090650Z AUTO 10005KT 9000 NCD 09/08 Q1008
                        NOSIG=
201811090620 METAR COR EGLL 090620Z AUTO 10007KT 9999 NCD 09/08 Q1008
                        NOSIG=
201811090550 METAR COR EGLL 090550Z 10007KT 9000 NSC 08/07 Q1008 NOSIG=
201811090520 METAR COR EGLL 090520Z 10007KT 8000 NSC 07/06 Q1009 NOSIG=
201811090450 METAR COR EGLL 090450Z 09006KT 6000 NSC 07/06 Q1009 NOSIG=
201811090420 METAR COR EGLL 090420Z AUTO 10003KT 9000 FEW010 06/06 Q1009
                        NOSIG=
201811090350 METAR COR EGLL 090350Z AUTO 09005KT 9000 FEW010 07/06 Q1009
                        NOSIG=
201811090320 METAR COR EGLL 090320Z AUTO 10006KT 9999 FEW011 06/05 Q1010
                        BECMG BKN009=
201811090250 METAR COR EGLL 090250Z AUTO 10006KT 9999 NCD 07/06 Q1010
                        NOSIG=
201811090220 METAR COR EGLL 090220Z AUTO 11006KT 9999 NCD 08/07 Q1010
                        NOSIG=
201811090150 METAR COR EGLL 090150Z AUTO 11008KT 9999 NCD 09/07 Q1010
                        NOSIG=
201811090120 METAR COR EGLL 090120Z AUTO 13007KT 9999 NCD 08/07 Q1011
                        NOSIG=
201811090050 METAR COR EGLL 090050Z AUTO 13006KT 9999 NCD 08/07 Q1011
                        NOSIG=
201811090020 METAR COR EGLL 090020Z AUTO 13007KT 9999 NCD 08/07 Q1011
                        NOSIG=
201811082350 METAR COR EGLL 082350Z AUTO 13009KT 9999 NCD 08/07 Q1012
                        NOSIG=
201811082320 METAR COR EGLL 082320Z AUTO 13008KT 9999 NCD 08/07 Q1012
                        NOSIG=
201811082250 METAR COR EGLL 082250Z AUTO 13006KT 9999 NCD 09/07 Q1012
                        NOSIG=
201811082220 METAR COR EGLL 082220Z AUTO 14008KT 9999 NCD 09/07 Q1013
                        NOSIG=
201811082150 METAR COR EGLL 082150Z AUTO 14010KT 9999 NCD 09/07 Q1013
                        NOSIG=
201811082120 METAR COR EGLL 082120Z AUTO 14010KT 9999 NCD 09/06 Q1013
                        NOSIG=
201811082050 METAR COR EGLL 082050Z AUTO 13011KT 9999 NCD 09/06 Q1013
                        NOSIG=
201811082020 METAR COR EGLL 082020Z AUTO 12010KT 9999 NCD 09/06 Q1013
                        NOSIG=
201811081950 METAR COR EGLL 081950Z AUTO 13009KT 9999 NCD 09/06 Q1014
                        NOSIG=
201811081920 METAR COR EGLL 081920Z AUTO 13009KT 9999 NCD 09/06 Q1014
                        NOSIG=
201811081850 METAR COR EGLL 081850Z AUTO 13009KT 9999 NCD 09/06 Q1014
                        NOSIG=
201811081820 METAR COR EGLL 081820Z AUTO 11011KT 9999 NCD 10/06 Q1014
                        NOSIG=
201811081750 METAR COR EGLL 081750Z AUTO 13009KT 9999 NCD 10/06 Q1014
                        NOSIG=
201811081720 METAR COR EGLL 081720Z AUTO 15011KT 9999 NCD 11/06 Q1014
                        NOSIG=
201811081650 METAR COR EGLL 081650Z AUTO 15011KT 9999 NCD 11/06 Q1014
                        NOSIG=
201811081620 METAR COR EGLL 081620Z AUTO 15010KT 9999 NCD 12/06 Q1014
                        NOSIG=
201811081550 METAR COR EGLL 081550Z AUTO 16011KT 9999 NCD 12/05 Q1014
                        NOSIG=
201811081520 METAR COR EGLL 081520Z AUTO 16011KT 9999 NCD 13/05 Q1014
                        NOSIG=
201811081450 METAR COR EGLL 081450Z AUTO 18012KT 150V220 9999 NCD 13/05
                        Q1014 NOSIG=
201811081420 METAR COR EGLL 081420Z AUTO 17014KT 150V220 9999 FEW038 13/06
                        Q1014 NOSIG=
201811081350 METAR COR EGLL 081350Z AUTO 19014KT 160V230 9999 FEW041 13/06
                        Q1014 NOSIG=
201811081320 METAR COR EGLL 081320Z AUTO 18016KT 9999 NCD 14/06 Q1015
                        NOSIG=
201811081250 METAR COR EGLL 081250Z AUTO 20014KT 160V230 9999 FEW035 14/07
                        Q1015 NOSIG=
201811081220 METAR COR EGLL 081220Z AUTO 19014KT 170V230 9999 FEW035 14/07
                        Q1015 NOSIG=
201811081150 METAR COR EGLL 081150Z AUTO 19015KT 9999 FEW037 14/07 Q1015
                        NOSIG=
201811081120 METAR COR EGLL 081120Z AUTO 20015KT 9999 FEW031 14/08 Q1015
                        NOSIG=
201811081050 METAR COR EGLL 081050Z AUTO 19015KT 9999 FEW031 13/08 Q1015
                        NOSIG=
201811081020 METAR COR EGLL 081020Z AUTO 19014KT 160V230 9999 NCD 13/09
                        Q1015 NOSIG=
201811080950 METAR COR EGLL 080950Z AUTO 19010KT 150V240 9999 NCD 12/08
                        Q1015 NOSIG=
201811080920 METAR COR EGLL 080920Z AUTO 15007KT 120V220 9999 NCD 12/08
                        Q1015 NOSIG=
201811080850 METAR COR EGLL 080850Z AUTO 18009KT 160V220 9999 NCD 11/08
                        Q1015 NOSIG=
201811080820 METAR COR EGLL 080820Z AUTO 17010KT 150V220 9999 NCD 10/07
                        Q1015 NOSIG=
201811080750 METAR COR EGLL 080750Z AUTO 16009KT 9999 NCD 09/07 Q1014
                        NOSIG=
201811080720 METAR COR EGLL 080720Z AUTO 17009KT 9999 NCD 08/06 Q1014
                        NOSIG=
201811080650 METAR COR EGLL 080650Z AUTO 17009KT 140V220 9999 NCD 07/06
                        Q1014 NOSIG=
201811080620 METAR COR EGLL 080620Z AUTO 16009KT 130V200 9999 NCD 07/05
                        Q1014 NOSIG=
201811080550 METAR COR EGLL 080550Z AUTO 16007KT 9999 NCD 07/05 Q1013
                        NOSIG=
201811080520 METAR COR EGLL 080520Z AUTO 16007KT 9999 NCD 06/04 Q1013
                        NOSIG=
201811080450 METAR COR EGLL 080450Z AUTO 18005KT 9999 NCD 05/04 Q1013
                        NOSIG=
201811080420 METAR EGLL 080420Z AUTO 15003KT 9999 NCD 05/04 Q1013 NOSIG=
201811080350 METAR COR EGLL 080350Z AUTO 17003KT 9999 NCD 05/04 Q1012
                        NOSIG=
201811080320 METAR COR EGLL 080320Z AUTO 17005KT 9999 NCD 05/04 Q1012
                        NOSIG=
201811080250 METAR COR EGLL 080250Z AUTO 20005KT 9999 NCD 05/04 Q1012
                        NOSIG=
201811080220 METAR COR EGLL 080220Z AUTO 21006KT 9999 NCD 05/04 Q1012
                        NOSIG=
201811080150 METAR COR EGLL 080150Z AUTO 20006KT 9999 NCD 06/04 Q1012
                        NOSIG=
201811080120 METAR COR EGLL 080120Z AUTO 20007KT 9999 NCD 06/05 Q1011
                        NOSIG=
201811080050 METAR COR EGLL 080050Z AUTO 21007KT 9999 NCD 07/05 Q1011
                        NOSIG=
201811080020 METAR COR EGLL 080020Z AUTO 22011KT 9999 NCD 07/05 Q1010
                        NOSIG=
201811072350 METAR COR EGLL 072350Z AUTO 23009KT 9999 NCD 08/05 Q1009
                        NOSIG=
201811072320 METAR COR EGLL 072320Z AUTO 23011KT 9999 NCD 08/06 Q1009
                        NOSIG=
201811072250 METAR COR EGLL 072250Z AUTO 25013KT 9999 NCD 08/06 Q1008
                        NOSIG=
201811072220 METAR COR EGLL 072220Z AUTO 25015KT 9999 //////TCU 09/06
                        Q1007 NOSIG=
201811072150 METAR COR EGLL 072150Z AUTO 26017KT 9999 -RA FEW015/// SCT025///
                        BKN032/// //////TCU 09/07 Q1006 NOSIG=
201811072120 METAR COR EGLL 072120Z AUTO 22011KT 180V250 9999 FEW024 BKN042
                        10/09 Q1005 TEMPO SHRA=
201811072050 METAR COR EGLL 072050Z AUTO 21011KT 180V240 9999 BKN047 10/09
                        Q1004 TEMPO SHRA=
201811072020 METAR COR EGLL 072020Z AUTO 20010KT 170V240 9999 NCD 10/09
                        Q1004 TEMPO SHRA=
201811071950 METAR COR EGLL 071950Z AUTO 20009KT 170V230 9999 NCD 10/09
                        Q1003 NOSIG=
201811071920 METAR COR EGLL 071920Z AUTO 20008KT 170V250 9999 NCD 11/09
                        Q1002 NOSIG=
201811071850 METAR COR EGLL 071850Z AUTO 21009KT 180V250 9999 NCD 11/09
                        Q1002 NOSIG=
201811071820 METAR COR EGLL 071820Z AUTO 21009KT 9999 NCD 11/09 Q1001
                        NOSIG=
201811071750 METAR COR EGLL 071750Z AUTO 20011KT 170V240 9999 NCD 11/09
                        Q1001 NOSIG=
201811071720 METAR COR EGLL 071720Z AUTO 19011KT 160V240 9999 NCD 11/09
                        Q1000 NOSIG=
201811071650 METAR COR EGLL 071650Z AUTO 20011KT 9999 NCD 11/09 Q1000
                        NOSIG=
201811071620 METAR COR EGLL 071620Z AUTO 21012KT 180V240 9999 NCD 12/10
                        Q0999 NOSIG=
201811071550 METAR COR EGLL 071550Z AUTO 19011KT 9999 -RA NCD 12/10 Q0998
                        NOSIG=
201811071520 METAR COR EGLL 071520Z AUTO 20012KT 9999 FEW023 12/10 Q0997
                        TEMPO SHRA=
201811071450 METAR COR EGLL 071450Z AUTO 20015G25KT 9999 FEW032/// //////CB
                        12/10 Q0996 TEMPO SHRA=
201811071420 METAR COR EGLL 071420Z AUTO 20014KT 9999 -RA SCT021/// SCT041///
                        //////CB 12/10 Q0995 TEMPO SHRA=
201811071350 METAR COR EGLL 071350Z AUTO 20017KT 9999 FEW020/// SCT034///
                        //////TCU 12/10 Q0995 TEMPO 4000
                        SHRA=
201811071320 METAR COR EGLL 071320Z AUTO 19018G31KT 9999 -RA SCT019 BKN030
                        BKN038 13/11 Q0994 TEMPO 4000 SHRA=
201811071250 METAR COR EGLL 071250Z AUTO 18015KT 9999 SCT015/// BKN027///
                        BKN041/// //////CB 13/11 Q0994 RERA
                        TEMPO 4000 SHRA=
201811071220 METAR COR EGLL 071220Z AUTO 17018G29KT 4600 RA SCT021///
                        BKN030/// BKN039/// //////CB 13/11
                        Q0994 TEMPO 9999 NSW=
201811071150 METAR COR EGLL 071150Z AUTO 16020KT 9999 -RA SCT019/// BKN025///
                        BKN038/// //////TCU 14/11 Q0994 TEMPO
                        SHRA BKN014=
201811071120 METAR COR EGLL 071120Z AUTO 16019G29KT 9999 -RA SCT021 BKN029
                        BKN038 14/11 Q0994 TEMPO SHRA=
201811071050 METAR COR EGLL 071050Z AUTO 16017KT 9999 SCT020 BKN025 BKN036
                        14/10 Q0994 TEMPO SHRA=
201811071020 METAR COR EGLL 071020Z AUTO 16017KT 9999 SCT020 BKN025 BKN032
                        14/11 Q0994 NOSIG=
201811070950 METAR COR EGLL 070950Z AUTO 16016KT 9999 SCT021 BKN031 BKN048
                        13/11 Q0994 TEMPO SHRA=
201811070920 METAR COR EGLL 070920Z AUTO 16014KT 9999 FEW022 BKN043 13/10
                        Q0994 TEMPO SHRA BKN014=
201811070850 METAR COR EGLL 070850Z AUTO 16013KT 9999 SCT018 BKN029 BKN041
                        13/11 Q0994 NOSIG=
201811070820 METAR COR EGLL 070820Z AUTO 16014KT 9999 -RA BKN017 12/11
                        Q0994 NOSIG=
201811070750 METAR COR EGLL 070750Z AUTO 16015KT 9999 -RA SCT015/// BKN029///
                        //////TCU 12/11 Q0994 TEMPO BKN014=
201811070720 METAR COR EGLL 070720Z AUTO 16010KT 6000 -RA SCT013/// BKN018///
                        BKN023/// //////TCU 12/11 Q0994 RERA
                        TEMPO BKN013=
201811070650 METAR COR EGLL 070650Z AUTO 15009KT 9999 -RA SCT013/// BKN019///
                        //////CB 12/11 Q0994 TEMPO BKN013=
201811070620 METAR COR EGLL 070620Z AUTO 15010KT 9999 -RA FEW010 BKN015
                        BKN022 12/11 Q0994 TEMPO BKN010=
201811070550 METAR COR EGLL 070550Z AUTO 14011KT 9000 -RA SCT010/// BKN015///
                        BKN023/// //////TCU 11/11 Q0994 TEMPO
                        BKN010=
201811070520 METAR COR EGLL 070520Z AUTO 14013KT 9999 -RA SCT011/// SCT017///
                        BKN022/// //////TCU 11/10 Q0994 TEMPO
                        BKN011=
201811070450 METAR COR EGLL 070450Z AUTO 14013KT 9000 -RA SCT012/// SCT022///
                        BKN030/// //////TCU 11/10 Q0994 TEMPO
                        4000 RA BKN012=
201811070420 METAR COR EGLL 070420Z AUTO 14012KT 9000 -RA SCT011/// BKN020///
                        BKN034/// //////TCU 11/10 Q0994 TEMPO
                        4000 RA BKN011=
201811070350 METAR COR EGLL 070350Z AUTO 15013KT 7000 -RA BKN011/// OVC044///
                        //////TCU 11/10 Q0995 TEMPO 4000
                        RA=
201811070320 METAR COR EGLL 070320Z AUTO 14014KT 9999 -RA BKN013/// OVC032///
                        //////TCU 12/10 Q0995 TEMPO 4000
                        RA BKN014=
201811070250 METAR COR EGLL 070250Z AUTO 15013KT 9999 BKN015/// BKN022///
                        OVC039/// //////TCU 12/10 Q0995 TEMPO
                        4000 SHRA BKN014=
201811070220 METAR COR EGLL 070220Z AUTO 15014KT 9999 BKN018 OVC022 13/10
                        Q0996 TEMPO 4000 SHRA BKN014=
201811070150 METAR COR EGLL 070150Z AUTO 15014KT 9999 OVC019 13/10 Q0996
                        TEMPO 4000 RA BKN014=
201811070120 METAR COR EGLL 070120Z AUTO 15014KT 9999 OVC018 13/10 Q0996
                        TEMPO BKN014=
201811070050 METAR COR EGLL 070050Z AUTO 15014KT 9999 OVC020 13/10 Q0997
                        TEMPO BKN014=
201811070020 METAR COR EGLL 070020Z AUTO 16012G22KT 9999 BKN020 BKN025
                        OVC036 13/10 Q0997 TEMPO BKN014=
201811062350 METAR COR EGLL 062350Z AUTO 15013KT 9999 SCT021 SCT025 OVC034
                        13/10 Q0997 TEMPO BKN014=
201811062320 METAR COR EGLL 062320Z AUTO 16014KT 9999 SCT021 BKN028 BKN033
                        13/10 Q0997 TEMPO BKN014=
201811062250 METAR COR EGLL 062250Z AUTO 17013KT 9999 BKN020 BKN028 14/10
                        Q0998 TEMPO BKN014=
201811062220 METAR COR EGLL 062220Z AUTO 16013KT 9999 FEW019 SCT023 BKN027
                        14/11 Q0998 TEMPO BKN014=
201811062150 METAR COR EGLL 062150Z AUTO 17012KT 9999 BKN017 BKN023 14/11
                        Q0998 NOSIG=
201811062120 METAR COR EGLL 062120Z AUTO 16011KT 9999 SCT017 13/11 Q0998
                        NOSIG=
201811062050 METAR COR EGLL 062050Z AUTO 15010KT 9999 NCD 13/10 Q0998
                        TEMPO BKN012=
201811062020 METAR COR EGLL 062020Z AUTO 16011KT 9999 SCT020 SCT034 14/11
                        Q0998 NOSIG=
201811061950 METAR COR EGLL 061950Z AUTO 17012KT 9999 SCT019 BKN029 BKN036
                        14/11 Q0998 NOSIG=
201811061920 METAR COR EGLL 061920Z AUTO 17013KT 9999 SCT019 BKN037 14/11
                        Q0998 NOSIG=
201811061850 METAR COR EGLL 061850Z AUTO 18012KT 9999 BKN018 BKN025 OVC033
                        14/12 Q0998 NOSIG=
201811061820 METAR COR EGLL 061820Z AUTO 16012KT 9999 BKN018 BKN024 BKN031
                        14/12 Q0998 NOSIG=
201811061750 METAR COR EGLL 061750Z AUTO 16012KT 9999 -RA BKN018 OVC045
                        14/12 Q0998 NOSIG=
201811061720 METAR COR EGLL 061720Z AUTO 16011KT 9999 -RA BKN019 BKN023
                        OVC049 15/11 Q0998 NOSIG=
201811061650 METAR COR EGLL 061650Z AUTO 16009KT 9999 BKN020 BKN032 OVC041
                        15/11 Q0998 NOSIG=
201811061620 METAR COR EGLL 061620Z AUTO 16008KT 9999 FEW027 SCT032 OVC040
                        15/11 Q0998 NOSIG=
201811061550 METAR COR EGLL 061550Z AUTO 16009KT 9999 FEW018 BKN035 OVC044
                        15/12 Q0998 NOSIG=
201811061520 METAR COR EGLL 061520Z AUTO 16010KT 9999 BKN017 OVC045 15/12
                        Q0998 NOSIG=
201811061450 METAR EGLL 061450Z AUTO 14010KT 9999 SCT018 BKN041 15/12
                        Q0998=
201811061420 METAR COR EGLL 061420Z AUTO 15009KT 9999 FEW016 BKN042 15/12
                        Q0998 NOSIG=
201811061350 METAR COR EGLL 061350Z AUTO 13011KT 9999 SCT016 BKN045 15/13
                        Q0998 NOSIG=
201811061320 METAR COR EGLL 061320Z AUTO 15006KT 9999 SCT015 BKN021 OVC046
                        15/12 Q0999 TEMPO BKN014=
201811061250 METAR COR EGLL 061250Z AUTO 15006KT 9999 SCT014 BKN020 BKN026
                        14/12 Q0999 TEMPO BKN014=
201811061220 METAR EGLL 061220Z AUTO 15007KT 9999 -RA BKN015 BKN026 14/12
                        Q0999=
201811061150 METAR COR EGLL 061150Z AUTO 17009KT 9999 SCT012 BKN021 14/12
                        Q0999 NOSIG=
201811061120 METAR COR EGLL 061120Z AUTO 16008KT 9999 NCD 14/12 Q0999
                        NOSIG=
201811061050 METAR COR EGLL 061050Z AUTO 15009KT 9000 NCD 14/12 Q1000
                        NOSIG=
201811061020 METAR COR EGLL 061020Z 14007KT 6000 NSC 13/12 Q1000 BECMG
                        8000=
201811060950 METAR COR EGLL 060950Z 15007KT 6000 NSC 13/12 Q1000 BECMG
                        8000=
201811060920 METAR COR EGLL 060920Z 17004KT 130V190 5000 BR NSC 12/11
                        Q1000 NOSIG=
201811060850 METAR COR EGLL 060850Z 17001KT 4500 BR NSC 12/11 Q1000 BECMG
                        5000=
201811060820 METAR COR EGLL 060820Z 15004KT 110V170 3000 BR FEW003 12/11
                        Q1000 BECMG 5000=
201811060750 METAR COR EGLL 060750Z 14003KT 3000 BR SCT003 11/11 Q1000
                        BECMG 5000=
201811060720 METAR COR EGLL 060720Z VRB01KT 5000 0800E R09L/P1500 R09R/P1500
                        PRFG FEW005 11/10 Q1000 TEMPO 1200=
201811060650 METAR COR EGLL 060650Z 08004KT 5000 1200E R09R/P1500 BR FEW004
                        11/10 Q1000 TEMPO 1200=
201811060620 METAR COR EGLL 060620Z 09006KT 4000 BR FEW003 11/10 Q1000
                        TEMPO 2500=
201811060550 METAR COR EGLL 060550Z 10005KT 4000 BR FEW004 10/09 Q1000
                        TEMPO 2500=
201811060520 METAR COR EGLL 060520Z 12004KT 6000 NSC 10/10 Q1000 TEMPO
                        3000=
201811060450 METAR COR EGLL 060450Z AUTO 13007KT 2500 BR NCD 10/10 Q1000
                        TEMPO 1200=
201811060420 METAR COR EGLL 060420Z 11007KT 3500 BR NSC 11/11 Q1000 TEMPO
                        1200=
201811060350 METAR COR EGLL 060350Z 13006KT 2000 BR NSC 11/10 Q1000 TEMPO
                        1200=
201811060320 METAR COR EGLL 060320Z 12006KT 3500 BR NSC 10/10 Q1000 TEMPO
                        1500=
201811060250 METAR COR EGLL 060250Z 09004KT 3000 BR NSC 09/09 Q1000 TEMPO
                        1500=
201811060220 METAR COR EGLL 060220Z 12003KT 3000 R09R/1400 PRFG NSC 10/09
                        Q1001 BECMG 1000=
201811060150 METAR COR EGLL 060150Z AUTO 16003KT 3600 BR NCD 11/10 Q1001
                        NOSIG=
201811060120 METAR COR EGLL 060120Z AUTO 15004KT 4600 HZ NCD 11/10 Q1001
                        NOSIG=
201811060050 METAR COR EGLL 060050Z 14006KT 4800 HZ NSC 10/09 Q1001 NOSIG=
201811060020 METAR COR EGLL 060020Z 12004KT 4800 HZ NSC 11/10 Q1001 NOSIG=
201811052350 METAR COR EGLL 052350Z AUTO 13004KT 2600 HZ NCD 11/10 Q1001
                        NOSIG=
201811052320 METAR COR EGLL 052320Z AUTO 12006KT 3200 HZ NCD 12/10 Q1001
                        NOSIG=
201811052250 METAR COR EGLL 052250Z AUTO 10005KT 3000 HZ NCD 12/11 Q1002
                        NOSIG=
201811052220 METAR COR EGLL 052220Z AUTO 09005KT 3100 HZ FEW044 12/11
                        Q1002 NOSIG=
201811052150 METAR COR EGLL 052150Z AUTO 08004KT 050V140 2200 HZ BKN040
                        12/11 Q1002 NOSIG=
201811052120 METAR COR EGLL 052120Z AUTO 10003KT 3100 HZ NCD 12/10 Q1002
                        BECMG 2000=
201811052050 METAR COR EGLL 052050Z 08005KT 4000 HZ NSC 12/10 Q1002 NOSIG=
201811052020 METAR COR EGLL 052020Z 10005KT 5000 HZ NSC 12/11 Q1002 BECMG
                        4000 HZ=
201811051950 METAR COR EGLL 051950Z 10005KT 5000 HZ NSC 12/10 Q1002 NOSIG=
201811051920 METAR COR EGLL 051920Z AUTO 09007KT 5000 HZ NCD 13/11 Q1002
                        NOSIG=
201811051850 METAR COR EGLL 051850Z AUTO 08007KT 5000 HZ NCD 13/11 Q1003
                        NOSIG=
201811051820 METAR COR EGLL 051820Z AUTO 09006KT 7000 NCD 13/11 Q1003
                        NOSIG=
201811051750 METAR COR EGLL 051750Z AUTO 10007KT 8000 NCD 13/11 Q1003
                        NOSIG=
201811051720 METAR COR EGLL 051720Z AUTO 09008KT 9000 NCD 13/11 Q1002
                        NOSIG=
201811051650 METAR COR EGLL 051650Z AUTO 09007KT 9000 NCD 14/11 Q1002
                        NOSIG=
201811051620 METAR COR EGLL 051620Z AUTO 10006KT 9999 NCD 14/11 Q1002
                        NOSIG=
201811051550 METAR COR EGLL 051550Z AUTO 09006KT 9999 NCD 13/11 Q1002
                        NOSIG=
201811051520 METAR COR EGLL 051520Z AUTO 09007KT 9999 NCD 14/11 Q1002
                        NOSIG=
201811051450 METAR COR EGLL 051450Z AUTO 09008KT 9999 NCD 15/11 Q1002
                        NOSIG=
201811051420 METAR COR EGLL 051420Z AUTO 08008KT 9999 NCD 16/11 Q1003
                        NOSIG=
201811051350 METAR COR EGLL 051350Z AUTO 09007KT 9999 NCD 15/11 Q1003
                        NOSIG=
201811051320 METAR COR EGLL 051320Z 08007KT CAVOK 15/11 Q1003 NOSIG=
201811051250 METAR COR EGLL 051250Z 09007KT CAVOK 15/11 Q1004 NOSIG=
201811051220 METAR COR EGLL 051220Z 07005KT CAVOK 14/11 Q1004 NOSIG=
201811051150 METAR COR EGLL 051150Z 05005KT 9999 NSC 14/11 Q1004 NOSIG=
201811051120 METAR COR EGLL 051120Z AUTO 08004KT 9999 NCD 14/11 Q1005
                        NOSIG=
201811051050 METAR COR EGLL 051050Z AUTO 10004KT 070V140 9999 NCD 13/11
                        Q1005 NOSIG=
201811051020 METAR COR EGLL 051020Z AUTO 12004KT 7000 NCD 12/11 Q1005
                        NOSIG=
201811050950 METAR COR EGLL 050950Z 10004KT 060V130 5000 HZ NSC 12/10
                        Q1005 NOSIG=
201811050920 METAR COR EGLL 050920Z 09004KT 070V130 4500 HZ NSC 11/10
                        Q1005 BECMG 5000=
201811050850 METAR COR EGLL 050850Z 09004KT 4500 HZ NSC 11/10 Q1005 BECMG
                        5000=
201811050820 METAR COR EGLL 050820Z 09005KT 4000 HZ NSC 10/09 Q1005 BECMG
                        5000=
201811050750 METAR COR EGLL 050750Z 09005KT 4000 HZ FEW016 09/08 Q1005
                        BECMG 5000=
201811050720 METAR COR EGLL 050720Z 08004KT 3500 HZ SCT016 09/08 Q1005
                        BECMG 5000=
201811050650 METAR COR EGLL 050650Z VRB02KT 3200 HZ BKN014 09/08 Q1004
                        TEMPO SCT014=
201811050620 METAR COR EGLL 050620Z 06004KT 3000 BR BKN012 09/08 Q1004
                        TEMPO 2500 SCT012=
201811050550 METAR COR EGLL 050550Z 04004KT 3000 BR SCT018 09/08 Q1004
                        TEMPO 2500=
201811050520 METAR COR EGLL 050520Z 04003KT 3200 BR FEW020 08/08 Q1004
                        TEMPO 2500=
201811050450 METAR COR EGLL 050450Z AUTO 04005KT 3100 BR NCD 08/07 Q1004
                        TEMPO 2500=
201811050420 METAR COR EGLL 050420Z AUTO 04005KT 3100 BR NCD 08/07 Q1004
                        TEMPO 2500=
201811050350 METAR COR EGLL 050350Z AUTO VRB02KT 2200 BR NCD 08/07 Q1004
                        TEMPO 3000 BKN005=
201811050320 METAR COR EGLL 050320Z AUTO 05004KT 2700 BR NCD 08/07 Q1004
                        TEMPO BKN005=
201811050250 METAR COR EGLL 050250Z AUTO 06005KT 2800 BR NCD 08/08 Q1005
                        TEMPO BKN005=
201811050220 METAR COR EGLL 050220Z AUTO 04003KT 3100 HZ NCD 08/08 Q1005
                        TEMPO 2500 BR=
201811050150 METAR COR EGLL 050150Z 06004KT 3500 HZ NSC 09/08 Q1005 TEMPO
                        2500 BR=
201811050120 METAR COR EGLL 050120Z 07005KT 3500 HZ NSC 09/08 Q1005 TEMPO
                        2500=
201811050050 METAR COR EGLL 050050Z 09006KT 3500 HZ NSC 08/07 Q1006 NOSIG=
201811050020 METAR COR EGLL 050020Z 10007KT 5000 HZ NSC 08/07 Q1006 TEMPO
                        4000=
201811042350 METAR COR EGLL 042350Z 09005KT 5000 HZ NSC 09/08 Q1006 TEMPO
                        4000=
201811042320 METAR COR EGLL 042320Z AUTO 09005KT 5000 HZ FEW021 09/08
                        Q1006 TEMPO 4000=
201811042250 METAR COR EGLL 042250Z AUTO 09006KT 6000 OVC021 10/08 Q1007
                        NOSIG=
201811042220 METAR COR EGLL 042220Z AUTO 09006KT 6000 BKN022 10/08 Q1007
                        NOSIG=
201811042150 METAR COR EGLL 042150Z AUTO 09005KT 6000 BKN023 10/08 Q1007
                        NOSIG=
201811042120 METAR COR EGLL 042120Z AUTO 10006KT 5000 HZ BKN025 10/08
                        Q1007 NOSIG=
201811042050 METAR COR EGLL 042050Z AUTO 09008KT 7000 OVC021 10/08 Q1007
                        NOSIG=
201811042020 METAR COR EGLL 042020Z 09006KT 6000 OVC020 10/08 Q1008 NOSIG=
201811041950 METAR COR EGLL 041950Z 09006KT 6000 BKN022 10/08 Q1008 NOSIG=
201811041920 METAR COR EGLL 041920Z 11004KT 9999 FEW014 BKN018 10/08 Q1008
                        NOSIG=
201811041850 METAR COR EGLL 041850Z 13005KT 9999 SCT013 10/08 Q1008 NOSIG=
201811041820 METAR COR EGLL 041820Z AUTO 11006KT 9999 NCD 10/08 Q1008
                        NOSIG=
201811041750 METAR COR EGLL 041750Z AUTO 10007KT 9999 NCD 10/08 Q1008
                        NOSIG=
201811041720 METAR COR EGLL 041720Z AUTO 12007KT 9999 NCD 11/08 Q1008
                        NOSIG=
201811041650 METAR COR EGLL 041650Z AUTO 15007KT 9999 NCD 11/08 Q1008
                        NOSIG=
201811041620 METAR COR EGLL 041620Z AUTO 14007KT 9999 NCD 12/08 Q1008
                        NOSIG=
201811041550 METAR COR EGLL 041550Z AUTO 14006KT 9999 SCT021 12/08 Q1008
                        NOSIG=
201811041520 METAR COR EGLL 041520Z AUTO 14008KT 9999 BKN021 12/08 Q1008
                        NOSIG=
201811041450 METAR COR EGLL 041450Z AUTO 15007KT 9999 FEW023 12/09 Q1009
                        NOSIG=
201811041420 METAR COR EGLL 041420Z AUTO 15010KT 9999 -RA NCD 12/08 Q1009
                        NOSIG=
201811041350 METAR COR EGLL 041350Z AUTO 16008KT 9999 NCD 13/08 Q1009
                        NOSIG=
201811041320 METAR COR EGLL 041320Z AUTO 18009KT 9999 NCD 13/06 Q1009
                        NOSIG=
201811041250 METAR COR EGLL 041250Z AUTO 17009KT 9999 NCD 13/06 Q1010
                        NOSIG=
201811041220 METAR COR EGLL 041220Z AUTO 15009KT 9999 NCD 13/08 Q1010
                        NOSIG=
201811041150 METAR COR EGLL 041150Z AUTO 18009KT 9999 FEW042 13/08 Q1010
                        NOSIG=
201811041120 METAR COR EGLL 041120Z AUTO 18010KT 9999 NCD 13/07 Q1011
                        NOSIG=
201811041050 METAR COR EGLL 041050Z AUTO 18011KT 9999 NCD 13/07 Q1011
                        NOSIG=
201811041020 METAR COR EGLL 041020Z AUTO 17010KT 9999 NCD 12/07 Q1011
                        NOSIG=
201811040950 METAR COR EGLL 040950Z AUTO 17008KT 9999 NCD 12/07 Q1011
                        NOSIG=
201811040920 METAR COR EGLL 040920Z AUTO 17007KT 9999 NCD 11/07 Q1012
                        NOSIG=
201811040850 METAR COR EGLL 040850Z AUTO 16007KT 9999 BKN047 11/07 Q1012
                        NOSIG=
201811040820 METAR COR EGLL 040820Z AUTO 15006KT 9999 BKN044 10/07 Q1012
                        NOSIG=
201811040750 METAR COR EGLL 040750Z AUTO 14006KT 9999 SCT044 10/06 Q1012
                        NOSIG=
201811040720 METAR COR EGLL 040720Z AUTO 13006KT 9999 OVC047 10/06 Q1012
                        NOSIG=
201811040650 METAR COR EGLL 040650Z AUTO 16003KT 9999 BKN043 10/06 Q1012
                        NOSIG=
201811040620 METAR COR EGLL 040620Z AUTO 16004KT 9999 OVC046 10/06 Q1012
                        NOSIG=
201811040550 METAR COR EGLL 040550Z AUTO 16005KT 9999 BKN045 10/06 Q1012
                        NOSIG=
201811040520 METAR COR EGLL 040520Z AUTO 16006KT 9999 BKN029 10/06 Q1012
                        NOSIG=
201811040450 METAR COR EGLL 040450Z AUTO 16008KT 9999 SCT029 BKN035 10/06
                        Q1012 NOSIG=
201811040420 METAR COR EGLL 040420Z AUTO 16008KT 9999 BKN030 OVC036 10/06
                        Q1013 NOSIG=
201811040350 METAR COR EGLL 040350Z AUTO 16008KT 9999 BKN030 OVC040 10/06
                        Q1013 NOSIG=
201811040320 METAR COR EGLL 040320Z AUTO 16007KT 9999 SCT030 OVC039 09/06
                        Q1013 NOSIG=
201811040250 METAR COR EGLL 040250Z AUTO 15007KT 9999 BKN033 09/06 Q1013
                        NOSIG=
201811040220 METAR COR EGLL 040220Z AUTO 17005KT 9999 FEW039 08/05 Q1014
                        NOSIG=
201811040150 METAR COR EGLL 040150Z AUTO 15009KT 9999 NCD 08/05 Q1014
                        NOSIG=
201811040120 METAR COR EGLL 040120Z AUTO 15008KT 9999 NCD 08/05 Q1014
                        NOSIG=
201811040050 METAR COR EGLL 040050Z AUTO 16006KT 9999 NCD 08/05 Q1015
                        NOSIG=
201811040020 METAR COR EGLL 040020Z AUTO 17007KT 9999 NCD 08/05 Q1015
                        NOSIG=
201811032350 METAR COR EGLL 032350Z AUTO 18008KT 9999 NCD 08/05 Q1015
                        NOSIG=
201811032320 METAR COR EGLL 032320Z AUTO 18007KT 9999 NCD 08/05 Q1016
                        NOSIG=
201811032250 METAR COR EGLL 032250Z AUTO 17007KT 140V240 9999 NCD 09/05
                        Q1016 NOSIG=
201811032220 METAR COR EGLL 032220Z AUTO VRB06KT 9999 NCD 09/05 Q1016
                        NOSIG=
201811032150 METAR COR EGLL 032150Z AUTO 18007KT 130V230 9999 NCD 09/05
                        Q1017 NOSIG=
201811032120 METAR COR EGLL 032120Z AUTO 17008KT 160V240 9999 NCD 09/05
                        Q1017 NOSIG=
201811032050 METAR COR EGLL 032050Z AUTO 18008KT 150V230 9999 NCD 08/05
                        Q1018 NOSIG=
201811032020 METAR COR EGLL 032020Z AUTO 18007KT 160V230 9999 NCD 08/05
                        Q1018 NOSIG=
201811031950 METAR COR EGLL 031950Z AUTO 18007KT 160V230 9999 NCD 08/05
                        Q1019 NOSIG=
201811031920 METAR COR EGLL 031920Z AUTO 19007KT 150V240 9999 NCD 09/05
                        Q1019 NOSIG=
201811031850 METAR COR EGLL 031850Z AUTO 19009KT 160V250 9999 NCD 10/05
                        Q1019 NOSIG=
201811031820 METAR COR EGLL 031820Z AUTO 18009KT 160V230 9999 NCD 10/06
                        Q1019 NOSIG=
201811031750 METAR COR EGLL 031750Z AUTO 18010KT 150V220 9999 NCD 10/06
                        Q1019 NOSIG=
201811031720 METAR COR EGLL 031720Z AUTO 18010KT 150V230 9999 NCD 10/06
                        Q1020 NOSIG=
201811031650 METAR COR EGLL 031650Z AUTO 19010KT 170V230 9999 NCD 11/06
                        Q1020 NOSIG=
201811031620 METAR COR EGLL 031620Z AUTO 19012KT 160V230 9999 NCD 11/06
                        Q1020 NOSIG=
201811031550 METAR COR EGLL 031550Z AUTO 20015KT 160V230 9999 NCD 12/05
                        Q1020 NOSIG=
201811031520 METAR COR EGLL 031520Z AUTO 20014KT 180V240 9999 NCD 13/05
                        Q1020 NOSIG=
201811031450 METAR COR EGLL 031450Z AUTO 20014G25KT 9999 NCD 13/05 Q1021
                        NOSIG=
201811031420 METAR COR EGLL 031420Z AUTO 20015KT 160V220 9999 FEW037 13/05
                        Q1021 NOSIG=
201811031350 METAR COR EGLL 031350Z AUTO 21015KT 9999 FEW037 14/06 Q1021
                        NOSIG=
201811031320 METAR COR EGLL 031320Z AUTO 20016KT 9999 SCT037 13/06 Q1022
                        NOSIG=
201811031250 METAR COR EGLL 031250Z AUTO 19016KT 9999 SCT036 14/07 Q1022
                        NOSIG=
201811031220 METAR COR EGLL 031220Z AUTO 21012KT 9999 SCT032 SCT039 14/07
                        Q1023 NOSIG=
201811031150 METAR COR EGLL 031150Z AUTO 20016KT 9999 SCT027 BKN037 13/07
                        Q1023 NOSIG=
201811031120 METAR COR EGLL 031120Z AUTO 20014G24KT 9999 BKN024 13/08
                        Q1023 NOSIG=
201811031050 METAR COR EGLL 031050Z AUTO 19013KT 9999 SCT025 12/08 Q1024
                        NOSIG=
201811031020 METAR COR EGLL 031020Z AUTO 19011KT 9999 NCD 12/09 Q1024
                        NOSIG=
201811030950 METAR COR EGLL 030950Z AUTO 18008KT 150V210 9999 NCD 11/08
                        Q1024 NOSIG=
201811030920 METAR COR EGLL 030920Z AUTO 16006KT 110V220 9999 NCD 10/07
                        Q1024 NOSIG=
201811030850 METAR COR EGLL 030850Z AUTO 16005KT 120V200 9999 NCD 09/06
                        Q1025 NOSIG=
201811030820 METAR COR EGLL 030820Z AUTO 16006KT 100V220 9999 NCD 08/05
                        Q1025 NOSIG=
201811030750 METAR COR EGLL 030750Z AUTO 15005KT 110V170 9999 NCD 07/05
                        Q1025 NOSIG=
201811030720 METAR COR EGLL 030720Z AUTO 15005KT 100V200 9999 NCD 07/04
                        Q1025 NOSIG=
201811030650 METAR COR EGLL 030650Z AUTO 16007KT 110V200 9999 NCD 06/04
                        Q1025 NOSIG=
201811030620 METAR COR EGLL 030620Z AUTO 18005KT 130V240 9999 NCD 05/03
                        Q1025 NOSIG=
201811030550 METAR COR EGLL 030550Z AUTO 16004KT 9999 NCD 04/03 Q1025
                        NOSIG=
201811030520 METAR COR EGLL 030520Z AUTO 16005KT 9999 NCD 04/02 Q1025
                        NOSIG=
201811030450 METAR COR EGLL 030450Z AUTO 18006KT 9999 NCD 03/02 Q1026
                        NOSIG=
201811030420 METAR COR EGLL 030420Z AUTO 17004KT 9999 NCD 03/02 Q1026
                        NOSIG=
201811030350 METAR COR EGLL 030350Z AUTO 16004KT 9999 NCD 03/02 Q1026
                        NOSIG=
201811030320 METAR COR EGLL 030320Z AUTO 19002KT 9999 NCD 04/02 Q1026
                        NOSIG=
201811030250 METAR COR EGLL 030250Z AUTO 18004KT 9999 NCD 04/02 Q1026
                        NOSIG=
201811030220 METAR COR EGLL 030220Z AUTO 17003KT 9999 NCD 04/02 Q1027
                        NOSIG=
201811030150 METAR COR EGLL 030150Z AUTO 17003KT 9999 NCD 04/02 Q1027
                        NOSIG=
201811030120 METAR COR EGLL 030120Z AUTO 17004KT 9999 NCD 05/03 Q1027
                        NOSIG=
201811030050 METAR COR EGLL 030050Z AUTO 18004KT 9999 NCD 05/03 Q1027
                        NOSIG=
201811030020 METAR COR EGLL 030020Z AUTO 16003KT 9999 NCD 05/02 Q1028
                        NOSIG=
201811022350 METAR COR EGLL 022350Z AUTO 16003KT 9999 NCD 05/03 Q1028
                        NOSIG=
201811022320 METAR COR EGLL 022320Z AUTO 17003KT 9000 NCD 05/03 Q1028
                        NOSIG=
201811022250 METAR COR EGLL 022250Z AUTO 19006KT 160V240 8000 NCD 05/03
                        Q1028 NOSIG=
201811022220 METAR COR EGLL 022220Z AUTO 21007KT 180V260 8000 NCD 06/03
                        Q1029 NOSIG=
201811022150 METAR COR EGLL 022150Z AUTO 22007KT 8000 NCD 05/03 Q1029
                        NOSIG=
201811022120 METAR COR EGLL 022120Z AUTO 20006KT 170V240 8000 NCD 05/02
                        Q1029 NOSIG=
201811022050 METAR COR EGLL 022050Z AUTO 22006KT 190V250 8000 NCD 05/02
                        Q1029 NOSIG=
201811022020 METAR COR EGLL 022020Z AUTO 21006KT 170V250 9000 NCD 05/02
                        Q1028 NOSIG=
201811021950 METAR COR EGLL 021950Z AUTO 23005KT 190V270 9999 NCD 06/02
                        Q1028 NOSIG=
201811021920 METAR COR EGLL 021920Z AUTO 22006KT 180V250 9999 NCD 08/02
                        Q1028 NOSIG=
201811021850 METAR COR EGLL 021850Z AUTO 23006KT 9999 NCD 07/02 Q1028
                        NOSIG=
201811021820 METAR COR EGLL 021820Z AUTO 24007KT 9999 NCD 06/03 Q1028
                        NOSIG=
201811021750 METAR COR EGLL 021750Z AUTO 25006KT 9999 NCD 07/02 Q1028
                        NOSIG=
201811021720 METAR COR EGLL 021720Z AUTO 25006KT 9999 NCD 09/02 Q1027
                        NOSIG=
201811021650 METAR COR EGLL 021650Z AUTO 23006KT 9999 NCD 10/02 Q1027
                        NOSIG=
201811021620 METAR COR EGLL 021620Z AUTO 26006KT 220V290 9999 NCD 10/01
                        Q1027 NOSIG=
201811021550 METAR COR EGLL 021550Z AUTO 27006KT 9999 NCD 10/02 Q1027
                        NOSIG=
201811021520 METAR COR EGLL 021520Z AUTO 27007KT 9999 NCD 10/02 Q1026
                        NOSIG=
201811021450 METAR COR EGLL 021450Z 26006KT CAVOK 11/03 Q1026 NOSIG=
201811021420 METAR COR EGLL 021420Z AUTO 27006KT 230V290 9999 NCD 11/02
                        Q1026 NOSIG=
201811021350 METAR COR EGLL 021350Z AUTO 26006KT 230V320 9999 NCD 11/04
                        Q1026 NOSIG=
201811021320 METAR COR EGLL 021320Z AUTO 27006KT 220V360 9999 NCD 11/04
                        Q1026 NOSIG=
201811021250 METAR COR EGLL 021250Z AUTO 27008KT 9999 NCD 11/04 Q1025
                        NOSIG=
201811021220 METAR COR EGLL 021220Z AUTO 27008KT 9999 NCD 09/04 Q1025
                        NOSIG=
201811021150 METAR COR EGLL 021150Z AUTO 25007KT 9999 NCD 10/04 Q1025
                        NOSIG=
201811021120 METAR COR EGLL 021120Z AUTO 28005KT 230V320 9999 NCD 09/05
                        Q1025 NOSIG=
201811021050 METAR COR EGLL 021050Z AUTO 29005KT 250V330 9999 NCD 08/04
                        Q1025 NOSIG=
201811021020 METAR EGLL 021020Z AUTO 28007KT 9999 NCD 07/04 Q1025=
201811020950 METAR COR EGLL 020950Z AUTO 29005KT 250V320 9999 NCD 06/03
                        Q1024 NOSIG=
201811020920 METAR COR EGLL 020920Z AUTO 28005KT 9999 NCD 05/03 Q1024
                        NOSIG=
201811020850 METAR COR EGLL 020850Z AUTO 27006KT 9999 NCD 04/02 Q1024
                        NOSIG=
201811020820 METAR COR EGLL 020820Z AUTO 27004KT 9999 NCD 03/02 Q1023
                        NOSIG=
201811020750 METAR COR EGLL 020750Z AUTO 28005KT 9999 NCD 01/01 Q1023
                        NOSIG=
201811020720 METAR COR EGLL 020720Z AUTO 27004KT 9999 NCD 01/01 Q1022
                        NOSIG=
201811020650 METAR COR EGLL 020650Z AUTO 28004KT 9999 NCD 01/00 Q1022
                        NOSIG=
201811020620 METAR COR EGLL 020620Z AUTO 29002KT 9999 NCD 02/01 Q1021
                        NOSIG=
201811020550 METAR COR EGLL 020550Z AUTO 28004KT 9999 NCD 02/01 Q1021
                        NOSIG=
201811020520 METAR COR EGLL 020520Z AUTO 26005KT 9999 NCD 01/M00 Q1020
                        NOSIG=
201811020450 METAR COR EGLL 020450Z AUTO 00000KT 9999 NCD 02/01 Q1020
                        NOSIG=
201811020420 METAR COR EGLL 020420Z AUTO 00000KT 9999 NCD 02/01 Q1019
                        NOSIG=
201811020350 METAR COR EGLL 020350Z AUTO VRB02KT 9999 NCD 02/01 Q1019
                        NOSIG=
201811020320 METAR COR EGLL 020320Z AUTO 29004KT 9999 NCD 02/01 Q1018
                        NOSIG=
201811020250 METAR COR EGLL 020250Z AUTO VRB03KT 9999 NCD 02/01 Q1018
                        NOSIG=
201811020220 METAR COR EGLL 020220Z AUTO 29004KT 9999 NCD 02/01 Q1017
                        NOSIG=
201811020150 METAR COR EGLL 020150Z AUTO 27006KT 9999 NCD 01/01 Q1017
                        NOSIG=
201811020120 METAR COR EGLL 020120Z AUTO 26005KT 9999 NCD 02/01 Q1016
                        NOSIG=
201811020050 METAR COR EGLL 020050Z AUTO 25002KT 9999 NCD 02/01 Q1016
                        NOSIG=
201811020020 METAR COR EGLL 020020Z AUTO 26003KT 9999 NCD 03/02 Q1015
                        NOSIG=
201811012350 METAR COR EGLL 012350Z AUTO 27005KT 9999 NCD 03/03 Q1015
                        NOSIG=
201811012320 METAR COR EGLL 012320Z AUTO 27007KT 9999 NCD 03/03 Q1015
                        NOSIG=
201811012250 METAR COR EGLL 012250Z AUTO 28006KT 9999 NCD 03/03 Q1014
                        NOSIG=
201811012220 METAR COR EGLL 012220Z AUTO 28006KT 9999 NCD 04/04 Q1014
                        NOSIG=
201811012150 METAR COR EGLL 012150Z AUTO 29004KT 9999 NCD 05/04 Q1013
                        NOSIG=
201811012120 METAR COR EGLL 012120Z AUTO 29004KT 9999 NCD 04/04 Q1013
                        NOSIG=
201811012050 METAR COR EGLL 012050Z AUTO 29004KT 9999 NCD 05/04 Q1012
                        NOSIG=
201811012020 METAR COR EGLL 012020Z AUTO 28005KT 9999 NCD 05/04 Q1012
                        NOSIG=
201811011950 METAR COR EGLL 011950Z AUTO 29005KT 9999 NCD 06/05 Q1011
                        NOSIG=
201811011920 METAR COR EGLL 011920Z AUTO 29005KT 9999 NCD 07/05 Q1011
                        NOSIG=
201811011850 METAR COR EGLL 011850Z AUTO 28006KT 9999 NCD 07/06 Q1010
                        NOSIG=
201811011820 METAR COR EGLL 011820Z AUTO 29005KT 9999 NCD 08/06 Q1010
                        NOSIG=
201811011750 METAR COR EGLL 011750Z AUTO 29005KT 9999 NCD 09/07 Q1009
                        NOSIG=
201811011720 METAR COR EGLL 011720Z AUTO 29006KT 9999 NCD 09/07 Q1008
                        NOSIG=
201811011650 METAR COR EGLL 011650Z AUTO 31005KT 9999 SCT041 BKN048 09/07
                        Q1008 NOSIG=
201811011620 METAR COR EGLL 011620Z AUTO 30006KT 9999 FEW028 BKN033 09/07
                        Q1007 NOSIG=
201811011550 METAR COR EGLL 011550Z AUTO 29006KT 9999 -RA SCT022 BKN028
                        BKN036 09/08 Q1007 NOSIG=
201811011520 METAR COR EGLL 011520Z AUTO 30007KT 9999 SCT013 BKN022 BKN027
                        09/08 Q1007 NOSIG=
201811011450 METAR COR EGLL 011450Z AUTO 31008KT 260V350 9999 BKN011 OVC019
                        09/08 Q1006 BECMG FEW011=
201811011420 METAR COR EGLL 011420Z AUTO 30009KT 9999 BKN009 OVC018 10/09
                        Q1006 TEMPO SHRA=
201811011350 METAR COR EGLL 011350Z 30007KT 9999 -RA SCT008 BKN011 10/09
                        Q1005 BECMG SCT011 BKN020=
201811011320 METAR COR EGLL 011320Z 30008KT 8000 SCT007 BKN013 10/09 Q1005
                        NOSIG=
201811011250 METAR COR EGLL 011250Z 29009KT 8000 -RA SCT007 BKN013 BKN025
                        10/10 Q1005 TEMPO SCT013 BKN025=
201811011220 METAR COR EGLL 011220Z 28008KT 9999 -RA SCT009 SCT015 BKN034
                        11/10 Q1005 TEMPO BKN009=
201811011150 METAR COR EGLL 011150Z 25007KT 7000 -SHRA BKN005 BKN020CB
                        11/10 Q1004 TEMPO SCT005 BKN020=
201811011120 METAR COR EGLL 011120Z 27006KT 5000 -RA BKN006 BKN025 11/10
                        Q1004 TEMPO 3000 SHRA=
201811011050 METAR COR EGLL 011050Z 18006KT 140V230 9999 SCT032 11/10
                        Q1004 TEMPO 3000 SHRA BKN006=
201811011020 METAR COR EGLL 011020Z 19006KT 160V240 9999 -RA SCT040 11/10
                        Q1004 NOSIG=
201811010950 METAR COR EGLL 010950Z 18008KT 150V220 7000 -RA BKN040 11/10
                        Q1004 TEMPO 3000 SHRA=
201811010920 METAR COR EGLL 010920Z 20007KT 160V250 6000 -RA BKN040 10/10
                        Q1004 TEMPO 3000 SHRA BKN006=
201811010850 METAR COR EGLL 010850Z 18005KT 6000 -RA FEW003 SCT030 10/10
                        Q1004 TEMPO 2000 SHRA BKN006=
201811010820 METAR COR EGLL 010820Z 19006KT 150V250 4000 1500SW -RA VCFG
                        FEW001 SCT040 10/10 Q1003 TEMPO 2000
                        SHRA BKN006=
201811010750 METAR COR EGLL 010750Z 19005KT 160V250 4000 1200SW R27R/P1500
                        R27L/P1500 -RA VCFG FEW001 SCT030
                        10/10 Q1003 TEMPO 2000 SHRA BKN003=
201811010720 METAR COR EGLL 010720Z 20005KT 160V240 4000 1200SW R27R/P1500
                        R27L/P1500 VCFG FEW001 SCT030 BKN045
                        10/10 Q1003 TEMPO 2000 SHRA BKN003=
201811010650 METAR COR EGLL 010650Z 19005KT 150V250 2500 1300SW R27R/P1500
                        R27L/P1500 VCFG FEW002 BKN025 BKN045
                        10/10 Q1003 TEMPO SHRA BKN003=
201811010620 METAR COR EGLL 010620Z AUTO VRB03KT 1500 R27L/1400 -RA SCT028
                        BKN039 BKN047 10/10 Q1003 TEMPO RA
                        BKN005=
201811010550 METAR COR EGLL 010550Z AUTO 14002KT 2000 -RA FEW021 SCT040
                        BKN048 10/10 Q1003 TEMPO RA BKN005=
201811010520 METAR COR EGLL 010520Z VRB01KT 1900 -RADZ SCT005 SCT020 BKN029
                        10/10 Q1003 TEMPO RADZ BKN004=
201811010450 METAR COR EGLL 010450Z 09003KT 2500 -RA FEW004 SCT035 OVC044
                        10/10 Q1003 RERA TEMPO RA BKN004=
201811010420 METAR COR EGLL 010420Z 06001KT 2000 RA SCT004TCU BKN008 BKN013
                        10/10 Q1003 TEMPO BKN004=
201811010350 METAR COR EGLL 010350Z 07001KT 2300 RA BKN005 10/10 Q1003
                        TEMPO BKN004=
201811010320 METAR COR EGLL 010320Z 06002KT 2300 -RA SCT002 BKN005 10/10
                        Q1003 RERA TEMPO BKN004=
201811010250 METAR COR EGLL 010250Z AUTO 10004KT 1800 RA SCT003 SCT007
                        BKN010 10/10 Q1003 REDZ TEMPO BKN004=
201811010220 METAR COR EGLL 010220Z AUTO 09004KT 2800 DZ SCT012/// BKN017///
                        BKN024/// //////TCU 10/09 Q1004 TEMPO
                        2000 -RADZ BKN005=
201811010150 METAR COR EGLL 010150Z AUTO 09005KT 3700 -RA FEW016 SCT026
                        BKN034 10/09 Q1004 TEMPO RA BKN009=
201811010120 METAR COR EGLL 010120Z AUTO 09005KT 4100 -RA FEW025 SCT029
                        BKN035 10/09 Q1004 RERA TEMPO RA
                        BKN009=
201811010050 METAR COR EGLL 010050Z AUTO 09006KT 5000 -RA FEW019 SCT032
                        BKN046 09/09 Q1004 TEMPO 4000 RA
                        BKN009=
201811010020 METAR EGLL 010020Z AUTO 09006KT 7000 -RA SCT010 BKN017 BKN033
                        09/09 Q1004=

</pre>

</body>
</html>
