##########################################################
# Query made at 12/24/2012 14:14:26 UTC
# Time interval: from 11/01/2011 00:00  to 12/01/2011 23:59  UTC
##########################################################

##########################################################
# EGLL, London / Heathrow Airport (United Kingdom)
# WMO index: 03772
# Latitude 51-29N. Longitude 000-27W. Altitude 24 m.
##########################################################

###################################
#  METAR/SPECI from EGLL
###################################
201112012350 METAR COR EGLL 012350Z 27005KT 9999 FEW030 SCT040 06/05 Q1007
                        NOSIG=
201112012320 METAR COR EGLL 012320Z 29004KT 9999 FEW045 07/05 Q1006 NOSIG=
201112012250 METAR COR EGLL 012250Z 31003KT 9999 FEW020 07/05 Q1005 NOSIG=
201112012220 METAR COR EGLL 012220Z 10004KT 070V130 9999 -RA SCT030 07/05
                        Q1005 RERA NOSIG=
201112012150 METAR COR EGLL 012150Z VRB02KT 9999 RA BKN028 08/04 Q1006
                        BECMG NSW=
201112012120 METAR COR EGLL 012120Z VRB02KT 9999 RA BKN028 08/04 Q1005
                        NOSIG=
201112012050 METAR COR EGLL 012050Z VRB02KT 9999 RA BKN029 08/04 Q1005
                        NOSIG=
201112012020 METAR COR EGLL 012020Z 00000KT 9999 RA FEW021 BKN028 08/04
                        Q1006 NOSIG=
201112011950 METAR COR EGLL 011950Z VRB03KT 9999 RA BKN028 07/06 Q1006
                        NOSIG=
201112011920 METAR COR EGLL 011920Z VRB02KT 9999 RA BKN028 07/06 Q1006
                        NOSIG=
201112011850 METAR COR EGLL 011850Z VRB03KT 9999 -RA FEW023 SCT032 08/06
                        Q1006 NOSIG=
201112011820 METAR COR EGLL 011820Z VRB03KT 9999 RA SCT033 SCT040 08/06
                        Q1006 TEMPO -RA=
201112011750 METAR COR EGLL 011750Z 14004KT 090V200 9999 RA SCT027 BKN034
                        08/06 Q1006 TEMPO -RA=
201112011720 METAR COR EGLL 011720Z 00000KT 9999 RA SCT031 BKN038 08/05
                        Q1006 RERA TEMPO -RA=
201112011650 METAR COR EGLL 011650Z VRB02KT 9999 -RA FEW028 BKN036 09/04
                        Q1006 TEMPO 5000 RA BKN014=
201112011620 METAR COR EGLL 011620Z VRB02KT 9999 -RA FEW028 BKN038 10/03
                        Q1006 NOSIG=
201112011550 METAR EGLL 011550Z 36003KT 9999 SCT029 10/04 Q1006=
201112011520 METAR EGLL 011520Z 36003KT CAVOK 10/04 Q1007=
201112011450 METAR COR EGLL 011450Z 33004KT CAVOK 10/05 Q1007 NOSIG=
201112011420 METAR COR EGLL 011420Z 29005KT CAVOK 10/05 Q1007 NOSIG=
201112011350 METAR COR EGLL 011350Z 26007KT 230V300 CAVOK 10/05 Q1007
                        NOSIG=
201112011320 METAR COR EGLL 011320Z 26006KT 220V320 CAVOK 10/05 Q1007
                        NOSIG=
201112011250 METAR COR EGLL 011250Z 29005KT 270V330 CAVOK 11/05 Q1008
                        NOSIG=
201112011220 METAR COR EGLL 011220Z 28006KT 220V300 CAVOK 10/04 Q1008
                        NOSIG=
201112011150 METAR COR EGLL 011150Z 27009KT CAVOK 10/04 Q1008 NOSIG=
201112011120 METAR COR EGLL 011120Z 27012KT CAVOK 10/04 Q1009 NOSIG=
201112011050 METAR COR EGLL 011050Z 26010KT CAVOK 11/04 Q1008 NOSIG=
201112011020 METAR COR EGLL 011020Z 27010KT 9999 FEW031 11/07 Q1008 NOSIG=
201112010950 METAR COR EGLL 010950Z 27010KT 9999 FEW028 10/08 Q1008 NOSIG=
201112010920 METAR COR EGLL 010920Z 29008KT 9999 FEW016 SCT018 10/08 Q1008
                        NOSIG=
201112010850 METAR COR EGLL 010850Z 28010KT 9999 FEW014 SCT017 11/09 Q1008
                        NOSIG=
201112010820 METAR COR EGLL 010820Z 28009KT 9999 SCT016 SCT038 11/09 Q1008
                        NOSIG=
201112010750 METAR COR EGLL 010750Z 25009KT 9999 FEW028 BKN042 11/09 Q1007
                        NOSIG=
201112010720 METAR COR EGLL 010720Z 25008KT 9999 FEW028 BKN044 11/09 Q1007
                        NOSIG=
201112010650 METAR COR EGLL 010650Z 28009KT 9000 -RA FEW018 SCT024 12/09
                        Q1007 NOSIG=
201112010620 METAR COR EGLL 010620Z 21010KT 190V250 9999 FEW026 SCT031
                        12/08 Q1006 NOSIG=
201112010550 METAR COR EGLL 010550Z 22010KT 200V260 9999 FEW028 11/08
                        Q1006 NOSIG=
201112010520 METAR COR EGLL 010520Z 21010KT 9999 FEW026 11/08 Q1006 NOSIG=
201112010450 METAR COR EGLL 010450Z 21010KT 9999 FEW026 11/08 Q1006 NOSIG=
201112010420 METAR COR EGLL 010420Z 22010KT 9999 FEW026 11/08 Q1006 NOSIG=
201112010350 METAR COR EGLL 010350Z 22012KT 9999 FEW030 11/08 Q1006 NOSIG=
201112010320 METAR COR EGLL 010320Z 22012KT 9999 FEW028 11/08 Q1006 NOSIG=
201112010250 METAR COR EGLL 010250Z 23015KT 9999 FEW025 11/08 Q1007 NOSIG=
201112010220 METAR EGLL 010220Z AUTO 22016KT 9999 SCT013/// BKN018///
                        11/09 Q1006=
201112010150 METAR EGLL 010150Z AUTO 20015KT 9999 BKN013/// 11/10 Q1006=
201112010120 METAR EGLL 010120Z AUTO 20013KT 9999 FEW010/// BKN013///
                        BKN017/// 11/09 Q1007=
201112010050 METAR COR EGLL 010050Z 19016KT 9999 -RA BKN011 10/09 Q1007
                        NOSIG=
201112010020 METAR COR EGLL 010020Z 18014KT 7000 -RA FEW009 BKN012 10/08
                        Q1008 RERA TEMPO 4000 RA=
201111302350 METAR COR EGLL 302350Z 17014KT 8000 RA BKN011 09/08 Q1009
                        TEMPO 4000=
201111302320 METAR COR EGLL 302320Z 18014KT 150V210 9999 -RA BKN016 BKN022
                        10/08 Q1010 TEMPO 4000 RA BKN012=
201111302250 METAR COR EGLL 302250Z 17014KT 150V220 9999 -RA SCT022 BKN035
                        10/07 Q1011 TEMPO RA BKN012=
201111302220 METAR COR EGLL 302220Z 18014G26KT 150V240 9999 FEW026 SCT045
                        10/06 Q1012 NOSIG=
201111302150 METAR COR EGLL 302150Z 18014KT 150V230 9999 FEW024 10/06
                        Q1013 BECMG RA BKN012=
201111302120 METAR COR EGLL 302120Z 18012KT 150V230 CAVOK 10/05 Q1014
                        NOSIG=
201111302050 METAR COR EGLL 302050Z 18013KT 160V220 9999 FEW049 10/05
                        Q1014 BECMG BKN045=
201111302020 METAR COR EGLL 302020Z 18011KT CAVOK 10/05 Q1015 NOSIG=
201111301950 METAR COR EGLL 301950Z 19011KT CAVOK 10/05 Q1016 NOSIG=
201111301920 METAR COR EGLL 301920Z 19012KT CAVOK 10/05 Q1016 NOSIG=
201111301850 METAR COR EGLL 301850Z 19011KT CAVOK 10/06 Q1017 TEMPO 19015G25KT=
201111301820 METAR COR EGLL 301820Z 19011KT CAVOK 10/06 Q1017 TEMPO 19015G25KT=
201111301750 METAR COR EGLL 301750Z 19011KT 170V240 9999 FEW030 10/07
                        Q1018 TEMPO 19015G25KT=
201111301720 METAR COR EGLL 301720Z 20011KT 180V240 9999 SCT030 10/07
                        Q1018 TEMPO 19015G25KT=
201111301650 METAR COR EGLL 301650Z 19008KT CAVOK 10/07 Q1019 NOSIG=
201111301620 METAR COR EGLL 301620Z 19008KT 170V240 CAVOK 09/07 Q1019
                        NOSIG=
201111301550 METAR COR EGLL 301550Z 20007KT 180V240 9999 FEW029 SCT036
                        10/07 Q1020 NOSIG=
201111301520 METAR COR EGLL 301520Z 22009KT 9999 FEW028 SCT034 10/07 Q1020
                        NOSIG=
201111301450 METAR COR EGLL 301450Z 21011KT 180V250 9999 BKN041 10/07
                        Q1020 NOSIG=
201111301420 METAR COR EGLL 301420Z 21010KT 190V250 9999 FEW049 11/07
                        Q1020 NOSIG=
201111301350 METAR COR EGLL 301350Z 21010KT 9999 FEW030 SCT042 11/08 Q1021
                        RESHRA NOSIG=
201111301320 METAR COR EGLL 301320Z 21011KT 180V250 9999 SCT029 12/07
                        Q1021 NOSIG=
201111301250 METAR COR EGLL 301250Z 22010KT 200V260 9999 FEW029 SCT037
                        12/06 Q1021 NOSIG=
201111301220 METAR COR EGLL 301220Z 21010KT 190V250 9999 FEW027 12/06
                        Q1022 NOSIG=
201111301150 METAR COR EGLL 301150Z 22009KT 180V250 9999 FEW036 11/07
                        Q1022 NOSIG=
201111301120 METAR COR EGLL 301120Z 22010G21KT 180V250 9999 FEW040 11/06
                        Q1022 NOSIG=
201111301050 METAR COR EGLL 301050Z 21010KT 190V250 CAVOK 10/06 Q1022
                        NOSIG=
201111301020 METAR COR EGLL 301020Z 20010KT 170V250 CAVOK 10/06 Q1022
                        NOSIG=
201111300950 METAR COR EGLL 300950Z 20009KT 170V240 CAVOK 09/05 Q1022
                        NOSIG=
201111300920 METAR COR EGLL 300920Z 21007KT 180V250 CAVOK 08/05 Q1022
                        NOSIG=
201111300850 METAR COR EGLL 300850Z 21007KT CAVOK 08/04 Q1022 NOSIG=
201111300820 METAR COR EGLL 300820Z 20007KT CAVOK 06/04 Q1022 NOSIG=
201111300750 METAR COR EGLL 300750Z 20007KT 180V240 CAVOK 06/04 Q1022
                        NOSIG=
201111300720 METAR COR EGLL 300720Z 22007KT CAVOK 07/04 Q1021 NOSIG=
201111300650 METAR COR EGLL 300650Z 22007KT 170V240 CAVOK 07/03 Q1021
                        NOSIG=
201111300620 METAR COR EGLL 300620Z 21006KT 170V270 CAVOK 06/03 Q1021
                        NOSIG=
201111300550 METAR COR EGLL 300550Z 22007KT CAVOK 07/03 Q1021 NOSIG=
201111300520 METAR COR EGLL 300520Z 22007KT CAVOK 07/03 Q1021 NOSIG=
201111300450 METAR COR EGLL 300450Z 22007KT 200V260 CAVOK 06/03 Q1020
                        NOSIG=
201111300420 METAR COR EGLL 300420Z 21005KT CAVOK 06/03 Q1020 NOSIG=
201111300350 METAR COR EGLL 300350Z 23008KT CAVOK 07/03 Q1020 NOSIG=
201111300320 METAR COR EGLL 300320Z 24010KT CAVOK 07/03 Q1020 NOSIG=
201111300250 METAR COR EGLL 300250Z 24010KT CAVOK 07/03 Q1019 NOSIG=
201111300220 METAR EGLL 300220Z AUTO 23008KT 9999 NCD 06/03 Q1019=
201111300150 METAR EGLL 300150Z AUTO 23008KT 9999 NCD 06/02 Q1019=
201111300120 METAR EGLL 300120Z AUTO 23010KT 9999 NCD 06/02 Q1019=
201111300050 METAR COR EGLL 300050Z 23008KT CAVOK 06/02 Q1018 NOSIG=
201111300020 METAR COR EGLL 300020Z 23010KT CAVOK 06/03 Q1018 NOSIG=
201111292350 METAR COR EGLL 292350Z 22009KT CAVOK 06/03 Q1017 NOSIG=
201111292320 METAR COR EGLL 292320Z 23010KT CAVOK 06/03 Q1017 NOSIG=
201111292250 METAR COR EGLL 292250Z 24009KT CAVOK 06/03 Q1016 NOSIG=
201111292220 METAR COR EGLL 292220Z 24012KT CAVOK 07/03 Q1015 NOSIG=
201111292150 METAR COR EGLL 292150Z 24011KT CAVOK 07/03 Q1014 NOSIG=
201111292120 METAR COR EGLL 292120Z 26012KT CAVOK 08/03 Q1014 NOSIG=
201111292050 METAR COR EGLL 292050Z 27013KT CAVOK 09/03 Q1013 NOSIG=
201111292020 METAR COR EGLL 292020Z 26016KT CAVOK 08/03 Q1013 NOSIG=
201111291950 METAR COR EGLL 291950Z 27012KT CAVOK 08/03 Q1012 NOSIG=
201111291920 METAR COR EGLL 291920Z 27015KT CAVOK 08/04 Q1011 NOSIG=
201111291850 METAR COR EGLL 291850Z 28015KT 9999 FEW022 09/05 Q1010 NOSIG=
201111291820 METAR COR EGLL 291820Z 29015KT 9999 SCT021 10/07 Q1009 NOSIG=
201111291750 METAR COR EGLL 291750Z 27019KT 9999 SCT023 BKN035 11/07 Q1007
                        NOSIG=
201111291720 METAR COR EGLL 291720Z 27022KT 9999 -RA FEW020 SCT023 11/07
                        Q1005 NOSIG=
201111291650 METAR COR EGLL 291650Z 24021KT 9999 -RA SCT021 SCT038 12/10
                        Q1004 NOSIG=
201111291620 METAR COR EGLL 291620Z 22017G28KT 9000 -RA SCT017 BKN025
                        12/11 Q1003 TEMPO 22020G40KT 4500
                        RA BKN010=
201111291550 METAR COR EGLL 291550Z 21017G30KT 180V240 9999 SCT018 BKN027
                        13/10 Q1002 TEMPO 21025G40KT 4000
                        RA BKN007=
201111291520 METAR COR EGLL 291520Z 20015G26KT 170V230 9999 FEW011 SCT020
                        BKN028 13/10 Q1003 REDZ BECMG 4500
                        RA BKN010=
201111291450 METAR COR EGLL 291450Z 20016KT 8000 -DZ BKN016 12/10 Q1003
                        BECMG 4500 RA BKN010=
201111291420 METAR COR EGLL 291420Z 20015KT 180V240 9999 BKN019 13/09
                        Q1003 REDZ BECMG 4500 RADZ BKN010=
201111291350 METAR COR EGLL 291350Z 19016KT 9999 -DZ BKN023 13/09 Q1004
                        BECMG 5000 RA BKN012=
201111291320 METAR COR EGLL 291320Z 21018G30KT 9999 SCT023 SCT035 13/09
                        Q1004 BECMG 5000 RA BKN012=
201111291250 METAR COR EGLL 291250Z 20018G30KT 180V240 9999 BKN022 13/09
                        Q1005 TEMPO 5000 RA BKN012=
201111291220 METAR COR EGLL 291220Z 21018KT 9999 SCT023 BKN031 13/09 Q1005
                        TEMPO BKN012=
201111291150 METAR COR EGLL 291150Z 21015KT 180V250 9999 SCT022 BKN026
                        13/09 Q1006 TEMPO BKN014=
201111291120 METAR COR EGLL 291120Z 20014KT 170V240 9999 SCT022 SCT033
                        13/09 Q1006 TEMPO 8000 BKN014=
201111291050 METAR COR EGLL 291050Z 21017KT 180V240 9999 BKN020 13/09
                        Q1007 TEMPO BKN012=
201111291020 METAR COR EGLL 291020Z 20016KT 9999 SCT018 SCT024 13/09 Q1007
                        TEMPO BKN012=
201111290950 METAR COR EGLL 290950Z 20014KT 170V230 9999 BKN018 12/09
                        Q1008 TEMPO BKN012=
201111290920 METAR COR EGLL 290920Z 19015KT 170V230 9999 BKN015 12/09
                        Q1008 TEMPO BKN012=
201111290850 METAR COR EGLL 290850Z 19014KT 9999 SCT016 BKN019 12/09 Q1008
                        TEMPO BKN012=
201111290820 METAR COR EGLL 290820Z 20013KT 9000 -DZ SCT015 BKN018 12/09
                        Q1009 TEMPO 9999 BKN012=
201111290750 METAR COR EGLL 290750Z 20014KT 9999 BKN015 BKN020 12/09 Q1009
                        TEMPO BKN012=
201111290720 METAR COR EGLL 290720Z 19014KT 9999 SCT015 BKN024 12/10 Q1009
                        TEMPO BKN012=
201111290650 METAR COR EGLL 290650Z 20013KT 9999 BKN011 12/10 Q1009 TEMPO
                        BKN016=
201111290620 METAR COR EGLL 290620Z 20012KT 170V240 9999 FEW015 SCT031
                        12/10 Q1010 TEMPO -RA BKN014=
201111290550 METAR COR EGLL 290550Z 20011KT 9999 FEW010 BKN039 12/10 Q1010
                        TEMPO -RA BKN014=
201111290520 METAR COR EGLL 290520Z 20012KT 9999 -RA FEW013 BKN040 12/10
                        Q1010 TEMPO BKN012=
201111290450 METAR COR EGLL 290450Z 20013KT 9999 FEW024 BKN038 13/10 Q1011
                        TEMPO BKN014=
201111290420 METAR COR EGLL 290420Z 20013KT 9999 FEW022 BKN040 13/10 Q1011
                        TEMPO BKN014=
201111290350 METAR COR EGLL 290350Z 20010KT 9999 FEW019 BKN044 13/10 Q1012
                        TEMPO BKN014=
201111290320 METAR COR EGLL 290320Z 21011KT 9999 FEW019 SCT044 12/10 Q1012
                        TEMPO BKN014=
201111290250 METAR COR EGLL 290250Z 21012KT 9999 FEW012 SCT037 13/10 Q1012
                        TEMPO BKN012=
201111290220 METAR EGLL 290220Z AUTO 22013KT 9999 BKN032/// 13/10 Q1013=
201111290150 METAR EGLL 290150Z AUTO 22011KT 9999 FEW018/// BKN026///
                        13/10 Q1013=
201111290120 METAR EGLL 290120Z AUTO 21011KT 9999 SCT015/// SCT020///
                        13/10 Q1013=
201111290050 METAR COR EGLL 290050Z 21009KT 9999 BKN013 13/10 Q1014 NOSIG=
201111290020 METAR COR EGLL 290020Z 20010KT 9999 SCT012 BKN015 13/10 Q1014
                        TEMPO BKN012=
201111282350 METAR COR EGLL 282350Z 21008KT 9999 FEW008 SCT015 BKN025
                        13/11 Q1015 BECMG BKN012=
201111282320 METAR COR EGLL 282320Z 21010KT 9999 FEW008 BKN010 13/11 Q1015
                        TEMPO BKN007=
201111282250 METAR COR EGLL 282250Z 21010KT 180V250 9999 BKN011 13/11
                        Q1015 TEMPO 6000 -RA BKN007=
201111282220 METAR COR EGLL 282220Z 22009KT 190V250 9999 FEW006 BKN012
                        13/11 Q1015 TEMPO 6000 -RA BKN007=
201111282150 METAR COR EGLL 282150Z 20010KT 9999 FEW007 BKN010 12/11 Q1016
                        TEMPO 7000 -RA BKN008=
201111282120 METAR COR EGLL 282120Z 19011KT 9000 FEW007 BKN011 12/11 Q1016
                        TEMPO 7000 -RA BKN007=
201111282050 METAR COR EGLL 282050Z 19010KT 9999 BKN010 12/10 Q1016 TEMPO
                        7000 -RA BKN008=
201111282020 METAR COR EGLL 282020Z 20010KT 9999 BKN011 12/10 Q1016 TEMPO
                        BKN009=
201111281950 METAR COR EGLL 281950Z 19010KT 9000 -DZ BKN009 11/10 Q1017
                        TEMPO BKN012=
201111281920 METAR COR EGLL 281920Z 19010KT 9999 BKN010 11/09 Q1017 NOSIG=
201111281850 METAR COR EGLL 281850Z 19010KT 9999 BKN013 10/08 Q1017 NOSIG=
201111281820 METAR COR EGLL 281820Z 19009KT 9999 SCT018 SCT044 10/07 Q1017
                        BECMG BKN014=
201111281750 METAR COR EGLL 281750Z 17007KT 140V200 9999 FEW025 BKN044
                        08/05 Q1017 NOSIG=
201111281720 METAR EGLL 281720Z 17008KT 130V200 9999 FEW025 08/04 Q1018=
201111281650 METAR COR EGLL 281650Z 17006KT 130V220 9999 FEW032 08/04
                        Q1018 NOSIG=
201111281620 METAR COR EGLL 281620Z 19007KT 150V220 9999 FEW032 09/05
                        Q1019 NOSIG=
201111281550 METAR EGLL 281550Z 21006KT 170V280 9999 FEW030 09/04 Q1019=
201111281520 METAR COR EGLL 281520Z 22008KT 170V240 9999 BKN030 09/04
                        Q1020 NOSIG=
201111281450 METAR COR EGLL 281450Z 19006KT 140V260 9999 BKN030 09/05
                        Q1020 NOSIG=
201111281420 METAR COR EGLL 281420Z 20006KT 160V250 9999 BKN032 08/05
                        Q1021 NOSIG=
201111281350 METAR COR EGLL 281350Z 19005KT 130V230 9999 BKN032 08/04
                        Q1021 NOSIG=
201111281320 METAR COR EGLL 281320Z 19005KT 120V270 9999 BKN034 08/04
                        Q1022 NOSIG=
201111281250 METAR EGLL 281250Z 20005KT 150V250 9999 BKN035 07/04 Q1022=
201111281220 METAR COR EGLL 281220Z 20004KT 140V260 9999 BKN035 07/03
                        Q1023 NOSIG=
201111281150 METAR COR EGLL 281150Z 19004KT 110V260 9999 BKN038 06/03
                        Q1023 NOSIG=
201111281120 METAR COR EGLL 281120Z VRB03KT 9000 BKN038 06/03 Q1024 NOSIG=
201111281050 METAR COR EGLL 281050Z 05004KT 010V090 9000 BKN037 05/02
                        Q1024 NOSIG=
201111281020 METAR COR EGLL 281020Z VRB03KT 9000 BKN037 05/02 Q1025 NOSIG=
201111280950 METAR COR EGLL 280950Z 05004KT 020V090 9000 BKN036 05/02
                        Q1025 NOSIG=
201111280920 METAR COR EGLL 280920Z VRB03KT 9000 BKN036 04/02 Q1025 NOSIG=
201111280850 METAR COR EGLL 280850Z VRB03KT 9999 BKN034 04/02 Q1025 NOSIG=
201111280820 METAR COR EGLL 280820Z 35003KT 9999 BKN035 03/01 Q1025 NOSIG=
201111280750 METAR EGLL 280750Z VRB02KT 9999 BKN034 02/01 Q1025=
201111280720 METAR COR EGLL 280720Z VRB03KT 9999 BKN034 02/01 Q1025 NOSIG=
201111280650 METAR COR EGLL 280650Z VRB03KT 9999 BKN035 01/00 Q1026 NOSIG=
201111280620 METAR COR EGLL 280620Z VRB03KT 9999 SCT032 00/M00 Q1026 NOSIG=
201111280550 METAR COR EGLL 280550Z VRB02KT 9999 SCT033 00/M00 Q1026 NOSIG=
201111280520 METAR COR EGLL 280520Z 00000KT 9999 SCT033 00/M00 Q1026 NOSIG=
201111280450 METAR COR EGLL 280450Z VRB03KT CAVOK 00/M01 Q1027 NOSIG=
201111280420 METAR COR EGLL 280420Z 00000KT CAVOK 01/M00 Q1027 NOSIG=
201111280350 METAR COR EGLL 280350Z 18002KT CAVOK 00/M01 Q1027 NOSIG=
201111280320 METAR COR EGLL 280320Z 18002KT CAVOK 01/M00 Q1027 NOSIG=
201111280250 METAR COR EGLL 280250Z 18002KT CAVOK 01/M00 Q1028 NOSIG=
201111280220 METAR EGLL 280220Z AUTO 16003KT 9999 NCD 01/M00 Q1028=
201111280150 METAR EGLL 280150Z AUTO 00000KT 9000 NCD 01/M01 Q1028=
201111280120 METAR EGLL 280120Z AUTO 00000KT 9999 NCD 02/00 Q1028=
201111280050 METAR COR EGLL 280050Z 14002KT CAVOK 02/00 Q1028 NOSIG=
201111280020 METAR COR EGLL 280020Z VRB02KT CAVOK 03/01 Q1028 NOSIG=
201111272350 METAR COR EGLL 272350Z VRB02KT CAVOK 04/01 Q1028 NOSIG=
201111272320 METAR COR EGLL 272320Z 27002KT CAVOK 04/01 Q1029 NOSIG=
201111272250 METAR COR EGLL 272250Z 28004KT CAVOK 04/01 Q1029 NOSIG=
201111272220 METAR COR EGLL 272220Z 30005KT CAVOK 04/01 Q1028 NOSIG=
201111272150 METAR COR EGLL 272150Z 30003KT CAVOK 06/01 Q1028 NOSIG=
201111272120 METAR COR EGLL 272120Z 30004KT CAVOK 06/02 Q1028 NOSIG=
201111272050 METAR COR EGLL 272050Z 29004KT CAVOK 06/01 Q1028 NOSIG=
201111272020 METAR COR EGLL 272020Z 28006KT CAVOK 06/02 Q1028 NOSIG=
201111271950 METAR COR EGLL 271950Z 28006KT CAVOK 05/01 Q1028 NOSIG=
201111271920 METAR COR EGLL 271920Z 28007KT CAVOK 07/02 Q1028 NOSIG=
201111271850 METAR COR EGLL 271850Z 26008KT CAVOK 08/02 Q1027 NOSIG=
201111271820 METAR COR EGLL 271820Z 28008KT CAVOK 08/02 Q1027 NOSIG=
201111271750 METAR COR EGLL 271750Z 29007KT CAVOK 07/01 Q1026 NOSIG=
201111271720 METAR COR EGLL 271720Z 29005KT CAVOK 08/01 Q1026 NOSIG=
201111271650 METAR COR EGLL 271650Z 29006KT CAVOK 10/01 Q1025 NOSIG=
201111271620 METAR COR EGLL 271620Z 28007KT CAVOK 10/02 Q1025 NOSIG=
201111271550 METAR COR EGLL 271550Z 29007KT CAVOK 10/02 Q1025 NOSIG=
201111271520 METAR EGLL 271520Z 30010KT CAVOK 11/01 Q1024=
201111271450 METAR COR EGLL 271450Z 29012KT CAVOK 12/02 Q1023 NOSIG=
201111271420 METAR COR EGLL 271420Z 29012KT CAVOK 12/02 Q1023 NOSIG=
201111271350 METAR COR EGLL 271350Z 29013KT CAVOK 12/02 Q1022 NOSIG=
201111271320 METAR COR EGLL 271320Z 29012KT CAVOK 12/02 Q1022 NOSIG=
201111271250 METAR COR EGLL 271250Z 29013KT CAVOK 13/02 Q1021 NOSIG=
201111271220 METAR EGLL 271220Z 30014KT 9999 FEW049 13/02 Q1021=
201111271150 METAR EGLL 271150Z 30013KT 9999 FEW040 13/03 Q1020 NOSIG=
201111271120 METAR COR EGLL 271120Z 30015KT 9999 FEW038 14/05 Q1020 NOSIG=
201111271050 METAR COR EGLL 271050Z 30017G28KT 9999 FEW033 14/06 Q1019
                        NOSIG=
201111271020 METAR COR EGLL 271020Z 28016KT 9999 FEW031 SCT043 14/08 Q1018
                        NOSIG=
201111270950 METAR COR EGLL 270950Z 28019KT 9999 FEW030 13/08 Q1018 NOSIG=
201111270920 METAR COR EGLL 270920Z 27018KT 9999 FEW020 13/08 Q1017 NOSIG=
201111270850 METAR COR EGLL 270850Z 27021KT 9999 FEW018 13/09 Q1016 NOSIG=
201111270820 METAR EGLL 270820Z 25020G32KT 9999 BKN020 14/10 Q1015 NOSIG=
201111270750 METAR COR EGLL 270750Z 24015KT 9999 BKN020 BKN026 14/10 Q1015
                        TEMPO 24022G32 BKN012=
201111270720 METAR COR EGLL 270720Z 23017KT 9999 BKN020 13/10 Q1014 TEMPO
                        24022G32KT BKN012=
201111270650 METAR COR EGLL 270650Z 24018KT 9999 FEW018 BKN021 13/09 Q1014
                        TEMPO 24022G32KT BKN012=
201111270620 METAR COR EGLL 270620Z 23018KT 9999 BKN026 13/09 Q1014 TEMPO
                        24022G32KT BKN012=
201111270550 METAR COR EGLL 270550Z 22016KT 9999 OVC030 13/09 Q1014 TEMPO
                        24020G30KT=
201111270520 METAR COR EGLL 270520Z 24016KT 9999 FEW022 BKN035 13/09 Q1015
                        TEMPO 24020G32KT=
201111270450 METAR COR EGLL 270450Z 24015KT 9999 BKN026 13/09 Q1016 TEMPO
                        24020G30KT=
201111270420 METAR COR EGLL 270420Z 24018KT 9999 SCT021 BKN033 13/09 Q1016
                        TEMPO 24022G32KT BKN012=
201111270350 METAR COR EGLL 270350Z 24015KT 9999 FEW019 OVC034 13/10 Q1016
                        TEMPO 24020G30KT BKN012=
201111270320 METAR COR EGLL 270320Z 23017KT 9999 BKN015 BKN034 12/10 Q1016
                        TEMPO 23020G30KT=
201111270250 METAR COR EGLL 270250Z 24017KT 9999 BKN014 12/10 Q1017 TEMPO
                        24020G32KT=
201111270220 METAR EGLL 270220Z AUTO 23017KT 9999 BKN014/// 12/09 Q1017=
201111270150 METAR EGLL 270150Z AUTO 24016KT 9999 BKN016/// BKN022///
                        12/09 Q1018=
201111270120 METAR EGLL 270120Z AUTO 24017KT 9999 OVC018/// 12/09 Q1018=
201111270050 METAR COR EGLL 270050Z 24018KT 9999 OVC019 12/08 Q1018 TEMPO
                        24020G32KT=
201111270020 METAR COR EGLL 270020Z 23016KT 9999 OVC021 12/08 Q1018 TEMPO
                        24020G30KT=
201111262350 METAR COR EGLL 262350Z 23013KT 9999 OVC023 12/07 Q1019 TEMPO
                        24016G26KT=
201111262320 METAR COR EGLL 262320Z 23013KT 9999 BKN023 12/07 Q1020 TEMPO
                        23016G26KT=
201111262250 METAR COR EGLL 262250Z 23015KT 9999 BKN026 12/07 Q1020 TEMPO
                        24018G28KT=
201111262220 METAR COR EGLL 262220Z 22016G29KT 9999 BKN026 12/07 Q1020
                        NOSIG=
201111262150 METAR COR EGLL 262150Z 24014KT 9999 BKN028 12/07 Q1021 TEMPO
                        24017G27KT=
201111262120 METAR COR EGLL 262120Z 24016KT 9999 SCT033 12/07 Q1021 TEMPO
                        26019G29KT=
201111262050 METAR COR EGLL 262050Z 23015KT 9999 SCT025 12/07 Q1021 TEMPO
                        24018G28KT=
201111262020 METAR COR EGLL 262020Z 24016KT 9999 FEW031 12/08 Q1022 TEMPO
                        23019G29KT=
201111261950 METAR COR EGLL 261950Z 24014KT 9999 BKN022 12/08 Q1022 TEMPO
                        23017G27KT=
201111261920 METAR COR EGLL 261920Z 24013KT 9999 BKN025 12/07 Q1023 NOSIG=
201111261850 METAR COR EGLL 261850Z 24012KT 9999 BKN027 12/07 Q1023 NOSIG=
201111261820 METAR COR EGLL 261820Z 23013KT 9999 BKN026 12/07 Q1023 NOSIG=
201111261750 METAR COR EGLL 261750Z 24013KT 9999 BKN028 12/07 Q1024 NOSIG=
201111261720 METAR COR EGLL 261720Z 25012KT 9999 BKN027 12/07 Q1024 NOSIG=
201111261650 METAR COR EGLL 261650Z 25011KT 9999 SCT029 12/07 Q1024 NOSIG=
201111261620 METAR COR EGLL 261620Z 25014KT 9999 FEW030 12/07 Q1024 NOSIG=
201111261550 METAR COR EGLL 261550Z 25013KT 9999 FEW030 12/07 Q1024 NOSIG=
201111261520 METAR COR EGLL 261520Z 25018KT 9999 FEW029 13/07 Q1024 NOSIG=
201111261450 METAR COR EGLL 261450Z 25017KT 9999 FEW033 13/07 Q1024 TEMPO
                        24018G28KT=
201111261420 METAR COR EGLL 261420Z 25016KT 9999 FEW035 13/07 Q1024 TEMPO
                        23018G28KT=
201111261350 METAR COR EGLL 261350Z 25018G28KT 9999 FEW029 BKN034 13/07
                        Q1025 NOSIG=
201111261320 METAR COR EGLL 261320Z 26022G33KT 9999 SCT033 13/07 Q1025
                        NOSIG=
201111261250 METAR EGLL 261250Z 24017KT 9999 FEW031 BKN035 12/07 Q1025=
201111261220 METAR COR EGLL 261220Z 24016KT 9999 FEW024 BKN037 13/07 Q1026
                        TEMPO 23016G26KT=
201111261150 METAR COR EGLL 261150Z 24017KT 9999 FEW024 BKN038 12/07 Q1026
                        TEMPO 23016G26KT=
201111261120 METAR COR EGLL 261120Z 24016KT 9999 FEW024 SCT039 12/06 Q1027
                        TEMPO 23016G26KT=
201111261050 METAR COR EGLL 261050Z 24016G26KT 9999 SCT038 12/07 Q1027
                        NOSIG=
201111261020 METAR COR EGLL 261020Z 24014KT 9999 FEW037 12/07 Q1027 TEMPO
                        23016G26KT=
201111260950 METAR COR EGLL 260950Z 24016KT CAVOK 11/07 Q1027 TEMPO 23016G26KT=
201111260920 METAR COR EGLL 260920Z 24014KT CAVOK 10/07 Q1027 TEMPO 23016G26KT=
201111260850 METAR COR EGLL 260850Z 24014KT CAVOK 09/06 Q1027 TEMPO 23016G26KT=
201111260820 METAR COR EGLL 260820Z 23011KT CAVOK 09/06 Q1027 TEMPO 23016G26KT=
201111260750 METAR COR EGLL 260750Z 23009KT 9999 FEW043 08/06 Q1027 NOSIG=
201111260720 METAR COR EGLL 260720Z 23010KT 9999 FEW045 08/06 Q1028 NOSIG=
201111260650 METAR COR EGLL 260650Z 22008KT CAVOK 07/06 Q1028 NOSIG=
201111260620 METAR COR EGLL 260620Z 22008KT CAVOK 08/06 Q1028 NOSIG=
201111260550 METAR COR EGLL 260550Z 23009KT CAVOK 08/06 Q1028 NOSIG=
201111260520 METAR COR EGLL 260520Z 23008KT 190V260 CAVOK 08/06 Q1028
                        NOSIG=
201111260450 METAR COR EGLL 260450Z 23009KT CAVOK 08/06 Q1028 NOSIG=
201111260420 METAR EGLL 260420Z 24009KT CAVOK 08/06 Q1028=
201111260350 METAR COR EGLL 260350Z 24008KT CAVOK 08/06 Q1029 NOSIG=
201111260320 METAR COR EGLL 260320Z 24009KT CAVOK 08/06 Q1029 NOSIG=
201111260250 METAR COR EGLL 260250Z 24007KT CAVOK 08/06 Q1029 NOSIG=
201111260220 METAR EGLL 260220Z AUTO 24006KT 9999 NCD 08/06 Q1029=
201111260150 METAR EGLL 260150Z AUTO 26003KT 9999 NCD 07/06 Q1029=
201111260120 METAR EGLL 260120Z AUTO 28006KT 9999 NCD 07/05 Q1029=
201111260050 METAR COR EGLL 260050Z 26007KT CAVOK 08/06 Q1029 NOSIG=
201111260020 METAR COR EGLL 260020Z 26007KT CAVOK 08/06 Q1029 NOSIG=
201111252350 METAR COR EGLL 252350Z 25007KT CAVOK 07/05 Q1030 NOSIG=
201111252320 METAR COR EGLL 252320Z 24009KT CAVOK 07/05 Q1029 NOSIG=
201111252250 METAR COR EGLL 252250Z 25011KT CAVOK 07/05 Q1029 NOSIG=
201111252220 METAR COR EGLL 252220Z 24011G21KT CAVOK 07/05 Q1029 NOSIG=
201111252150 METAR COR EGLL 252150Z 24009KT CAVOK 07/05 Q1029 NOSIG=
201111252120 METAR COR EGLL 252120Z 24010KT CAVOK 08/05 Q1029 NOSIG=
201111252050 METAR COR EGLL 252050Z 24010KT CAVOK 08/05 Q1029 NOSIG=
201111252020 METAR COR EGLL 252020Z 25010KT CAVOK 08/05 Q1029 NOSIG=
201111251950 METAR COR EGLL 251950Z 25009KT CAVOK 08/05 Q1028 NOSIG=
201111251920 METAR COR EGLL 251920Z 26009KT CAVOK 09/06 Q1028 NOSIG=
201111251850 METAR COR EGLL 251850Z 26010KT CAVOK 09/05 Q1028 NOSIG=
201111251820 METAR COR EGLL 251820Z 26011KT CAVOK 09/05 Q1027 NOSIG=
201111251750 METAR COR EGLL 251750Z 25011KT 9999 FEW044 10/05 Q1027 NOSIG=
201111251720 METAR COR EGLL 251720Z 24012KT CAVOK 10/05 Q1026 NOSIG=
201111251650 METAR COR EGLL 251650Z 23011KT 200V260 CAVOK 10/05 Q1026
                        NOSIG=
201111251620 METAR COR EGLL 251620Z 25011KT CAVOK 10/05 Q1026 NOSIG=
201111251550 METAR COR EGLL 251550Z 26012KT CAVOK 10/05 Q1026 NOSIG=
201111251520 METAR COR EGLL 251520Z 27010KT CAVOK 11/05 Q1026 NOSIG=
201111251450 METAR COR EGLL 251450Z 27012KT CAVOK 11/05 Q1025 NOSIG=
201111251420 METAR COR EGLL 251420Z 27013KT 9999 FEW030 11/05 Q1025 NOSIG=
201111251350 METAR COR EGLL 251350Z 28012KT 9999 FEW029 11/05 Q1025 NOSIG=
201111251320 METAR COR EGLL 251320Z 28015KT 9999 FEW029 12/05 Q1025 NOSIG=
201111251250 METAR COR EGLL 251250Z 28019KT 9999 FEW030 12/05 Q1025 TEMPO
                        28022G32KT=
201111251220 METAR COR EGLL 251220Z 27017KT 9999 FEW030 12/06 Q1025 TEMPO
                        28020G30KT=
201111251150 METAR COR EGLL 251150Z 28019KT 9999 FEW031 12/06 Q1025 TEMPO
                        28020G30KT=
201111251120 METAR COR EGLL 251120Z 27018KT 9999 FEW024 12/06 Q1025 NOSIG=
201111251050 METAR COR EGLL 251050Z 27013KT 9999 FEW020 11/06 Q1025 NOSIG=
201111251020 METAR COR EGLL 251020Z 26013KT 9999 FEW018 11/07 Q1024 NOSIG=
201111250950 METAR COR EGLL 250950Z 26011KT CAVOK 11/07 Q1024 NOSIG=
201111250920 METAR COR EGLL 250920Z 26011KT CAVOK 11/08 Q1024 NOSIG=
201111250850 METAR COR EGLL 250850Z 26010KT CAVOK 10/08 Q1023 NOSIG=
201111250820 METAR COR EGLL 250820Z 26012KT 9999 FEW024 10/08 Q1023 NOSIG=
201111250750 METAR COR EGLL 250750Z 26012KT 9999 FEW024 10/08 Q1022 NOSIG=
201111250720 METAR COR EGLL 250720Z 27011KT 9999 FEW012 11/08 Q1022 NOSIG=
201111250650 METAR COR EGLL 250650Z 26013KT 9999 SCT047 11/08 Q1022 NOSIG=
201111250620 METAR COR EGLL 250620Z 28014KT 9999 SCT040 12/09 Q1021 NOSIG=
201111250550 METAR COR EGLL 250550Z 26015KT 9999 -RA FEW010 SCT040 12/10
                        Q1021 NOSIG=
201111250520 METAR COR EGLL 250520Z 24011KT 7000 -DZ BKN008 BKN012 13/11
                        Q1020 BECMG SCT012=
201111250450 METAR COR EGLL 250450Z 22012KT 8000 -DZ BKN012 12/11 Q1020
                        BECMG SCT012=
201111250420 METAR COR EGLL 250420Z 22014KT 9999 BKN025 13/10 Q1020 TEMPO
                        RA BKN014=
201111250350 METAR COR EGLL 250350Z 22013KT 9999 FEW025 13/10 Q1020 TEMPO
                        RA=
201111250320 METAR COR EGLL 250320Z AUTO 22012KT 9999 BKN018/// BKN044///
                        13/10 Q1020=
201111250250 METAR COR EGLL 250250Z AUTO 22012KT 9999 FEW022/// 13/10
                        Q1020=
201111250220 METAR COR EGLL 250220Z AUTO 22011KT 9999 SCT019/// 12/10
                        Q1020=
201111250150 METAR COR EGLL 250150Z 21011KT 9999 SCT017 SCT021 BKN024
                        13/10 Q1020 TEMPO BKN014=
201111250120 METAR COR EGLL 250120Z 21009KT 9999 SCT015 SCT040 12/10 Q1020
                        TEMPO BKN014=
201111250050 METAR COR EGLL 250050Z 20010KT 9999 BKN016 12/09 Q1021 NOSIG=
201111250020 METAR COR EGLL 250020Z 20010KT 9999 SCT018 BKN022 12/09 Q1021
                        NOSIG=
201111242350 METAR COR EGLL 242350Z 21012KT 9999 FEW022 SCT048 12/09 Q1022
                        NOSIG=
201111242320 METAR COR EGLL 242320Z 20011KT 9999 SCT016 BKN043 12/09 Q1022
                        NOSIG=
201111242250 METAR COR EGLL 242250Z 20011KT 180V240 9999 SCT016 BKN040
                        11/09 Q1022 NOSIG=
201111242220 METAR EGLL 242220Z 21011G22KT 9999 FEW015 BKN040 11/09 Q1023=
201111242150 METAR COR EGLL 242150Z 20011KT 180V240 9999 FEW017 BKN040
                        11/09 Q1023 NOSIG=
201111242120 METAR COR EGLL 242120Z 19010KT 160V240 9999 BKN037 11/09
                        Q1023 NOSIG=
201111242050 METAR COR EGLL 242050Z 19010KT 170V240 9999 BKN035 10/09
                        Q1023 NOSIG=
201111242020 METAR COR EGLL 242020Z 19011KT 170V240 9999 BKN039 10/08
                        Q1023 NOSIG=
201111241950 METAR COR EGLL 241950Z 19010KT 170V230 9999 SCT037 10/08
                        Q1024 NOSIG=
201111241920 METAR COR EGLL 241920Z 19010KT 9999 SCT035 10/08 Q1024 NOSIG=
201111241850 METAR COR EGLL 241850Z 19008KT 160V240 9999 SCT033 09/07
                        Q1025 NOSIG=
201111241820 METAR COR EGLL 241820Z 21008KT 180V240 9999 FEW030 09/07
                        Q1025 NOSIG=
201111241750 METAR COR EGLL 241750Z 20009KT 180V240 CAVOK 10/07 Q1025
                        NOSIG=
201111241720 METAR COR EGLL 241720Z 19009KT 160V240 CAVOK 10/07 Q1025
                        NOSIG=
201111241650 METAR COR EGLL 241650Z 19008KT CAVOK 10/07 Q1025 NOSIG=
201111241620 METAR COR EGLL 241620Z 20008KT CAVOK 10/07 Q1026 NOSIG=
201111241550 METAR COR EGLL 241550Z 21009KT 190V250 CAVOK 11/07 Q1026
                        NOSIG=
201111241520 METAR COR EGLL 241520Z 20009KT 170V250 9999 FEW021 11/07
                        Q1026 NOSIG=
201111241450 METAR COR EGLL 241450Z 20010KT 9999 FEW021 12/08 Q1026 NOSIG=
201111241420 METAR COR EGLL 241420Z 21011KT 9999 FEW021 13/08 Q1026 NOSIG=
201111241350 METAR COR EGLL 241350Z 21010KT 9999 SCT024 12/08 Q1026 NOSIG=
201111241320 METAR COR EGLL 241320Z 21012KT 9999 SCT020 13/09 Q1027 NOSIG=
201111241250 METAR COR EGLL 241250Z 22008KT 9999 FEW017 SCT025 13/09 Q1027
                        NOSIG=
201111241220 METAR COR EGLL 241220Z 21010G20KT 190V260 9999 FEW016 SCT021
                        13/09 Q1027 NOSIG=
201111241150 METAR COR EGLL 241150Z 21011KT 9999 FEW016 13/10 Q1028 NOSIG=
201111241120 METAR COR EGLL 241120Z 21009KT 180V250 9999 FEW011 12/10
                        Q1028 NOSIG=
201111241050 METAR COR EGLL 241050Z 20007KT CAVOK 12/10 Q1028 NOSIG=
201111241020 METAR COR EGLL 241020Z 21008KT 180V260 9999 BKN031 11/10
                        Q1028 NOSIG=
201111240950 METAR COR EGLL 240950Z 22008KT 9999 FEW022 SCT028 10/09 Q1029
                        NOSIG=
201111240920 METAR COR EGLL 240920Z 21007KT CAVOK 10/09 Q1029 NOSIG=
201111240850 METAR COR EGLL 240850Z 20006KT 160V260 CAVOK 09/08 Q1029
                        NOSIG=
201111240820 METAR COR EGLL 240820Z 19006KT 150V250 CAVOK 09/08 Q1029
                        NOSIG=
201111240750 METAR COR EGLL 240750Z 21007KT 150V250 CAVOK 09/08 Q1029
                        NOSIG=
201111240720 METAR COR EGLL 240720Z 22008KT 190V260 CAVOK 09/08 Q1029
                        NOSIG=
201111240650 METAR COR EGLL 240650Z 21006KT 170V240 CAVOK 09/08 Q1029
                        NOSIG=
201111240620 METAR COR EGLL 240620Z 20007KT 160V230 CAVOK 08/08 Q1029
                        NOSIG=
201111240550 METAR COR EGLL 240550Z 22006KT CAVOK 09/08 Q1029 NOSIG=
201111240520 METAR COR EGLL 240520Z 22009KT CAVOK 09/08 Q1029 NOSIG=
201111240450 METAR COR EGLL 240450Z 22008KT CAVOK 09/08 Q1029 NOSIG=
201111240420 METAR COR EGLL 240420Z 21008KT CAVOK 09/08 Q1029 NOSIG=
201111240350 METAR COR EGLL 240350Z 20007KT CAVOK 09/08 Q1029 NOSIG=
201111240320 METAR COR EGLL 240320Z 20006KT CAVOK 09/08 Q1029 NOSIG=
201111240250 METAR COR EGLL 240250Z 20005KT CAVOK 08/07 Q1029 NOSIG=
201111240220 METAR EGLL 240220Z AUTO 18005KT 9000 NCD 08/07 Q1029=
201111240150 METAR EGLL 240150Z AUTO 21006KT 9999 NCD 08/08 Q1029=
201111240120 METAR EGLL 240120Z AUTO 22007KT 9999 NCD 09/08 Q1029=
201111240050 METAR COR EGLL 240050Z 22008KT CAVOK 09/08 Q1029 NOSIG=
201111240020 METAR COR EGLL 240020Z 22009KT CAVOK 09/08 Q1029 NOSIG=
201111232350 METAR COR EGLL 232350Z 22008KT CAVOK 09/08 Q1029 NOSIG=
201111232320 METAR COR EGLL 232320Z 21007KT CAVOK 08/07 Q1029 NOSIG=
201111232250 METAR COR EGLL 232250Z 20008KT 160V250 CAVOK 08/07 Q1029
                        NOSIG=
201111232220 METAR COR EGLL 232220Z 22007G17KT 190V250 CAVOK 08/07 Q1029
                        NOSIG=
201111232150 METAR COR EGLL 232150Z 22007KT 190V260 CAVOK 08/07 Q1029
                        NOSIG=
201111232120 METAR COR EGLL 232120Z 21007KT 170V260 CAVOK 08/07 Q1029
                        NOSIG=
201111232050 METAR COR EGLL 232050Z 22008KT CAVOK 08/07 Q1028 NOSIG=
201111232020 METAR COR EGLL 232020Z 20007KT 180V240 CAVOK 08/07 Q1028
                        NOSIG=
201111231950 METAR COR EGLL 231950Z 21008KT 180V250 CAVOK 09/07 Q1029
                        NOSIG=
201111231920 METAR COR EGLL 231920Z 22008KT 190V260 CAVOK 09/08 Q1028
                        NOSIG=
201111231850 METAR COR EGLL 231850Z 22007KT 190V250 CAVOK 09/08 Q1028
                        NOSIG=
201111231820 METAR COR EGLL 231820Z 19006KT 150V230 CAVOK 09/07 Q1028
                        NOSIG=
201111231750 METAR COR EGLL 231750Z 20006KT 160V240 CAVOK 09/07 Q1028
                        NOSIG=
201111231720 METAR COR EGLL 231720Z 23007KT 170V260 CAVOK 09/07 Q1027
                        NOSIG=
201111231650 METAR COR EGLL 231650Z 22006KT 200V270 CAVOK 09/07 Q1027
                        NOSIG=
201111231620 METAR COR EGLL 231620Z 20006KT 180V240 CAVOK 09/07 Q1027
                        NOSIG=
201111231550 METAR COR EGLL 231550Z 23007KT 200V260 CAVOK 10/07 Q1027
                        NOSIG=
201111231520 METAR COR EGLL 231520Z 23007KT 180V260 CAVOK 10/08 Q1027
                        NOSIG=
201111231450 METAR COR EGLL 231450Z 23007KT 170V260 CAVOK 10/08 Q1027
                        NOSIG=
201111231420 METAR COR EGLL 231420Z 24008KT CAVOK 11/08 Q1027 NOSIG=
201111231350 METAR COR EGLL 231350Z 23008KT CAVOK 11/08 Q1027 NOSIG=
201111231320 METAR COR EGLL 231320Z 22006KT CAVOK 11/08 Q1027 NOSIG=
201111231250 METAR COR EGLL 231250Z 22005KT 170V300 CAVOK 10/08 Q1027
                        NOSIG=
201111231220 METAR COR EGLL 231220Z 22005KT 180V250 CAVOK 09/07 Q1027
                        NOSIG=
201111231150 METAR COR EGLL 231150Z 22006KT 190V250 CAVOK 08/07 Q1027
                        NOSIG=
201111231120 METAR COR EGLL 231120Z 21005KT 180V260 CAVOK 07/07 Q1027
                        NOSIG=
201111231050 METAR COR EGLL 231050Z VRB03KT 7000 NSC 06/06 Q1027 NOSIG=
201111231020 METAR COR EGLL 231020Z 22004KT 170V260 4000 BR FEW001 SCT002
                        05/05 Q1028 BECMG 6000 NSW=
201111230950 METAR COR EGLL 230950Z 25004KT 3000 1400S R27R/P1500 R27L/P1500
                        BR FEW001 SCT002 04/04 Q1028 BECMG
                        6000 NSW=
201111230920 METAR COR EGLL 230920Z 21004KT 170V250 1000 0450S R27R/1200
                        R27L/0400 FG SCT001 SCT002 04/03
                        Q1027 BECMG 2800 BR SCT001=
201111230850 METAR COR EGLL 230850Z VRB03KT 0350 R27R/0400 R27L/0400 FG
                        BKN001 04/03 Q1027 BECMG 2500 BR
                        SCT001=
201111230820 METAR COR EGLL 230820Z 24004KT 200V270 0200 R27R/0600 R27L/0350
                        FG VV/// 03/03 Q1027 BECMG 2000 BR
                        BKN002=
201111230750 METAR COR EGLL 230750Z 17005KT 110V270 0200 R27R/0375 R27L/0350
                        FG VV/// 03/03 Q1027 BECMG 0600 BKN001=
201111230720 METAR COR EGLL 230720Z 19004KT 150V240 0200 R27R/0650 R27L/0400
                        FG VV/// 03/03 Q1027 BECMG 0600=
201111230650 METAR COR EGLL 230650Z 22004KT 180V250 0200 R27R/0700 R27L/0450
                        FG VV/// 03/03 Q1027 BECMG 0500=
201111230620 METAR EGLL 230620Z 26005KT 220V300 0250 R27R/0550 R27L/0400
                        FG VV/// 04/03 Q1026=
201111230550 METAR COR EGLL 230550Z 25004KT 210V280 0250 R27R/0400 R27L/0375
                        FG VV/// 04/03 Q1026 NOSIG=
201111230520 METAR EGLL 230520Z VRB03KT 0250 R27R/0375 FG VV/// 03/03
                        Q1026=
201111230450 METAR COR EGLL 230450Z VRB03KT 0250 R27R/0450 FG VV/// 03/03
                        Q1026 BECMG 0700 BKN002=
201111230420 METAR COR EGLL 230420Z 28004KT 0300 R27R/0650 FG VV/// 03/03
                        Q1026 BECMG 0700 BKN002=
201111230350 METAR COR EGLL 230350Z 28002KT 0250 R27R/0500 FG VV/// 04/03
                        Q1025 BECMG 0700=
201111230320 METAR COR EGLL 230320Z 28004KT 0200 R27R/0325 FG VV/// 04/03
                        Q1025 BECMG 0700 SCT001=
201111230250 METAR COR EGLL 230250Z 28004KT 0300 R27R/0250 FG VV/// 04/04
                        Q1026 BECMG 0700=
201111230220 METAR EGLL 230220Z AUTO 29005KT 0100 R27R/1200 FG FEW000///
                        SCT028/// 04/04 Q1025=
201111230150 METAR EGLL 230150Z AUTO 29003KT 0400 R27R/0450 FG FEW045///
                        05/04 Q1025=
201111230120 METAR EGLL 230120Z AUTO 31003KT 0250 FG SCT044/// 04/04 Q1025=
201111230050 METAR COR EGLL 230050Z 29002KT 8000 VCFG NSC 06/05 Q1024
                        TEMPO 4000=
201111230020 METAR COR EGLL 230020Z 28002KT 9000 NSC 06/06 Q1024 TEMPO
                        4000 BR=
201111222350 METAR COR EGLL 222350Z 28003KT 9000 NSC 06/05 Q1024 TEMPO
                        4000 BR=
201111222320 METAR COR EGLL 222320Z 31002KT CAVOK 07/05 Q1024 NOSIG=
201111222250 METAR COR EGLL 222250Z 31002KT CAVOK 08/06 Q1024 NOSIG=
201111222220 METAR COR EGLL 222220Z 30004KT CAVOK 09/07 Q1023 NOSIG=
201111222150 METAR COR EGLL 222150Z 31004KT CAVOK 09/07 Q1023 TEMPO 4000
                        BR=
201111222120 METAR COR EGLL 222120Z 32003KT CAVOK 10/07 Q1023 TEMPO 4000
                        BR=
201111222050 METAR COR EGLL 222050Z 35004KT 320V020 CAVOK 10/07 Q1023
                        NOSIG=
201111222020 METAR COR EGLL 222020Z 33004KT 300V010 9000 FEW010 10/08
                        Q1022 NOSIG=
201111221950 METAR COR EGLL 221950Z 32005KT 290V360 7000 SCT018 11/09
                        Q1022 NOSIG=
201111221920 METAR COR EGLL 221920Z 32004KT 7000 FEW011 BKN020 11/09 Q1022
                        NOSIG=
201111221850 METAR COR EGLL 221850Z 31004KT 280V350 7000 FEW010 BKN020
                        11/09 Q1022 NOSIG=
201111221820 METAR COR EGLL 221820Z 31004KT 6000 FEW010 BKN020 11/10 Q1021
                        NOSIG=
201111221750 METAR COR EGLL 221750Z 33004KT 280V360 6000 SCT011 BKN020
                        11/10 Q1021 NOSIG=
201111221720 METAR COR EGLL 221720Z 32003KT 5000 HZ SCT008 12/10 Q1021
                        RERA NOSIG=
201111221650 METAR COR EGLL 221650Z 35004KT 5000 -RA SCT007 12/10 Q1020
                        NOSIG=
201111221620 METAR COR EGLL 221620Z 36005KT 310V030 5000 RA BKN007 12/11
                        Q1020 BECMG BKN012=
201111221550 METAR COR EGLL 221550Z VRB03KT 3000 RA HZ BKN007 13/11 Q1019
                        BECMG 6000 NSW BKN012=
201111221520 METAR COR EGLL 221520Z 30004KT 3800 HZ FEW007 BKN010 13/11
                        Q1019 BECMG 5000=
201111221450 METAR COR EGLL 221450Z VRB03KT 3300 HZ BKN005 BKN010 13/11
                        Q1019 BECMG BKN010=
201111221420 METAR COR EGLL 221420Z VRB03KT 3500 HZ BKN005 BKN007 13/11
                        Q1018 BECMG 5000 BKN010=
201111221350 METAR COR EGLL 221350Z VRB03KT 3000 HZ SCT007 BKN010 13/12
                        Q1018 BECMG 5000=
201111221320 METAR COR EGLL 221320Z 29004KT 3000 HZ BKN008 13/12 Q1018
                        BECMG 5000 BKN010=
201111221250 METAR COR EGLL 221250Z 26005KT 230V290 2500 HZ BKN006 BKN008
                        12/11 Q1018 BECMG 4000 BKN010=
201111221220 METAR COR EGLL 221220Z VRB03KT 2500 HZ FEW004 SCT006 BKN008
                        13/11 Q1018 BECMG 4000=
201111221150 METAR COR EGLL 221150Z VRB02KT 3300 HZ FEW002 SCT005 BKN007
                        12/11 Q1018 NOSIG=
201111221120 METAR COR EGLL 221120Z VRB02KT 2900 HZ SCT004 BKN008 12/11
                        Q1018 BECMG 4000=
201111221050 METAR COR EGLL 221050Z 00000KT 2700 BR FEW002 SCT004 BKN009
                        11/11 Q1018 TEMPO BKN004=
201111221020 METAR COR EGLL 221020Z VRB03KT 3000 BR BKN004 11/11 Q1018
                        NOSIG=
201111220950 METAR COR EGLL 220950Z VRB02KT 2800 BR FEW003 BKN004 11/10
                        Q1018 NOSIG=
201111220920 METAR COR EGLL 220920Z 00000KT 2700 BR BKN003 BKN005 11/10
                        Q1018 TEMPO 1400=
201111220850 METAR COR EGLL 220850Z VRB03KT 2400 BR SCT002 SCT003 BKN005
                        10/10 Q1017 TEMPO BKN003=
201111220820 METAR COR EGLL 220820Z 10003KT 2100 BR SCT002 BKN004 10/10
                        Q1017 TEMPO 1200=
201111220750 METAR COR EGLL 220750Z 10004KT 1900 BR FEW001 BKN002 10/10
                        Q1017 TEMPO 0500 FG BKN001=
201111220720 METAR COR EGLL 220720Z 10004KT 1100 0900E R09L/P1500 R09R/P1500
                        -RA BCFG FEW001 SCT002 BKN003 10/10
                        Q1016 TEMPO 0500 FG BKN001=
201111220650 METAR COR EGLL 220650Z 09004KT 0900 R09L/P1500 R09R/P1500
                        -RA FG BKN001 BKN002 10/10 Q1016
                        TEMPO 0400=
201111220620 METAR COR EGLL 220620Z 08003KT 0700 R09L/P1500 R09R/P1500
                        -RA FG VV/// 10/10 Q1016 TEMPO 0300=
201111220550 METAR EGLL 220550Z 07003KT 0700 R09L/1300 R09R/1400 -RA FG
                        OVC001 10/09 Q1016=
201111220520 METAR COR EGLL 220520Z 07003KT 1100 R09L/P1500 BR BKN001
                        10/09 Q1015 TEMPO 0500 FG=
201111220450 METAR COR EGLL 220450Z 06004KT 1500 BR BKN001 10/09 Q1015
                        TEMPO 0400 FG=
201111220420 METAR COR EGLL 220420Z 09005KT 0700 R09L/P1500 FG VV/// 10/09
                        Q1015 TEMPO 0200=
201111220350 METAR COR EGLL 220350Z 07004KT 0350 R09L/1200 FG VV/// 10/09
                        Q1015 TEMPO 0200=
201111220320 METAR COR EGLL 220320Z 06003KT 1200 R09L/P1500 BR BKN001
                        10/09 Q1015 BECMG 0500 FG BKN000=
201111220250 METAR COR EGLL 220250Z 07003KT 1800 BR BKN002 10/09 Q1015
                        TEMPO 1200 BKN001=
201111220220 METAR EGLL 220220Z AUTO 09003KT 1700 BR OVC001/// 09/09 Q1015=
201111220150 METAR EGLL 220150Z AUTO 09005KT 1600 BR OVC002/// 09/09 Q1015=
201111220120 METAR EGLL 220120Z AUTO 08003KT 1700 BR OVC002/// 10/09 Q1015=
201111220050 METAR COR EGLL 220050Z 09004KT 1500 BR FEW001 BKN002 10/09
                        Q1015 TEMPO 1200 BKN001=
201111220020 METAR COR EGLL 220020Z 10005KT 1500 BR BKN003 10/09 Q1015
                        TEMPO 1400 BKN001=
201111212350 METAR COR EGLL 212350Z 09006KT 2500 BR FEW003 OVC004 10/09
                        Q1015 TEMPO 1400 BKN002=
201111212320 METAR COR EGLL 212320Z 09006KT 3200 BR FEW004 BKN005 10/09
                        Q1015 TEMPO 1400 BKN004=
201111212250 METAR COR EGLL 212250Z 08005KT 3200 BR BKN005 10/09 Q1015
                        NOSIG=
201111212220 METAR COR EGLL 212220Z 09005KT 3100 BR FEW005 BKN006 10/09
                        Q1015 NOSIG=
201111212150 METAR COR EGLL 212150Z 09005KT 3000 HZ BKN006 10/09 Q1015
                        NOSIG=
201111212120 METAR COR EGLL 212120Z 10006KT 2500 HZ BKN005 BKN008 10/09
                        Q1015 TEMPO 1400 BR BKN004=
201111212050 METAR COR EGLL 212050Z 09006KT 2500 HZ BKN004 BKN009 10/09
                        Q1015 TEMPO 1400 BR=
201111212020 METAR COR EGLL 212020Z 08007KT 2500 HZ BKN004 10/09 Q1015
                        TEMPO 1400 BR=
201111211950 METAR COR EGLL 211950Z 09007KT 2500 HZ BKN005 BKN009 10/09
                        Q1014 TEMPO 1400 BR BKN004=
201111211920 METAR COR EGLL 211920Z 09007KT 2800 HZ SCT006 OVC009 10/09
                        Q1014 NOSIG=
201111211850 METAR COR EGLL 211850Z 08008KT 3000 HZ SCT006 BKN009 10/09
                        Q1014 NOSIG=
201111211820 METAR COR EGLL 211820Z 09008KT 3200 -RA BKN006 BKN009 10/09
                        Q1014 NOSIG=
201111211750 METAR COR EGLL 211750Z 09008KT 3800 -RA BKN005 BKN007 10/09
                        Q1014 NOSIG=
201111211720 METAR COR EGLL 211720Z 09007KT 3100 HZ BKN005 10/09 Q1014
                        NOSIG=
201111211650 METAR EGLL 211650Z 09009KT 2600 HZ OVC004 10/09 Q1014=
201111211620 METAR COR EGLL 211620Z 09008KT 2500 HZ BKN004 09/09 Q1014
                        BECMG BKN005=
201111211550 METAR COR EGLL 211550Z 10009KT 3000 HZ BKN005 10/08 Q1013
                        NOSIG=
201111211520 METAR COR EGLL 211520Z 07005KT 4500 HZ BKN008 10/08 Q1013
                        NOSIG=
201111211450 METAR COR EGLL 211450Z 07008KT 4800 HZ NSC 11/09 Q1013 TEMPO
                        BKN006=
201111211420 METAR COR EGLL 211420Z 07008KT 6000 NSC 11/09 Q1013 TEMPO
                        BKN006=
201111211350 METAR COR EGLL 211350Z 07006KT 6000 SCT008 11/09 Q1013 NOSIG=
201111211320 METAR COR EGLL 211320Z 08007KT 6000 SCT012 11/08 Q1014 TEMPO
                        BKN008=
201111211250 METAR COR EGLL 211250Z 08006KT 6000 SCT012 11/08 Q1014 TEMPO
                        BKN008=
201111211220 METAR EGLL 211220Z 09006KT 7000 SCT010 11/08 Q1014=
201111211150 METAR COR EGLL 211150Z 07005KT 6000 SCT009 10/08 Q1014 TEMPO
                        BKN008=
201111211120 METAR COR EGLL 211120Z 10005KT 4800 HZ SCT008 10/08 Q1015
                        TEMPO BKN008=
201111211050 METAR COR EGLL 211050Z 10006KT 4200 HZ BKN007 BKN010 09/08
                        Q1015 NOSIG=
201111211020 METAR COR EGLL 211020Z 10006KT 3900 BR BKN006 BKN008 09/08
                        Q1015 NOSIG=
201111210950 METAR COR EGLL 210950Z 11006KT 3700 BR BKN005 BKN006 09/08
                        Q1015 NOSIG=
201111210920 METAR COR EGLL 210920Z 09006KT 3200 BR BKN004 BKN006 08/08
                        Q1015 NOSIG=
201111210850 METAR COR EGLL 210850Z 12004KT 2800 BR BKN004 BKN006 08/08
                        Q1015 BECMG 3500=
201111210820 METAR COR EGLL 210820Z 12006KT 3000 BR BKN004 BKN006 08/08
                        Q1015 NOSIG=
201111210750 METAR COR EGLL 210750Z 10005KT 2300 BR FEW003 BKN004 08/08
                        Q1015 NOSIG=
201111210720 METAR COR EGLL 210720Z 10005KT 2500 BR FEW003 BKN004 08/07
                        Q1015 TEMPO 1400 BKN002=
201111210650 METAR COR EGLL 210650Z 09005KT 2500 BR FEW003 BKN004 08/07
                        Q1015 TEMPO 1400 BKN002=
201111210620 METAR COR EGLL 210620Z 09005KT 2500 BR FEW003 BKN004 08/07
                        Q1015 TEMPO 1400 BKN002=
201111210550 METAR COR EGLL 210550Z 09005KT 2300 BR SCT003 BKN004 08/07
                        Q1015 TEMPO 1400 BKN002=
201111210520 METAR COR EGLL 210520Z 10006KT 2000 BR SCT002 BKN003 08/07
                        Q1015 TEMPO 1000 BKN002=
201111210450 METAR COR EGLL 210450Z 11007KT 1600 BR FEW001 SCT002 BKN003
                        08/07 Q1015 TEMPO 0800 FG BKN001=
201111210420 METAR COR EGLL 210420Z 12007KT 1100 R09R/P1500 BR FEW001
                        SCT002 BKN003 07/07 Q1015 TEMPO 0700
                        FG BKN002=
201111210350 METAR COR EGLL 210350Z 12005KT 1400 R09R/P1500 BR FEW002
                        BKN003 07/07 Q1015 TEMPO 0800 FG
                        BKN002=
201111210320 METAR COR EGLL 210320Z 08003KT 0800 R09R/P1500 FG SCT003
                        BKN004 06/06 Q1015 TEMPO 0400 BKN002=
201111210250 METAR COR EGLL 210250Z 00000KT 0600 R09R/P1500 FG FEW003
                        BKN004 05/05 Q1016 TEMPO 0400 BKN001=
201111210220 METAR EGLL 210220Z AUTO 19002KT 0050 R09L/0400 R09R/P1500
                        FG FEW005/// 05/05 Q1016=
201111210150 METAR EGLL 210150Z AUTO 08002KT 0050 R09L/0400 R09R/1200
                        FG FEW000/// 04/04 Q1016=
201111210120 METAR EGLL 210120Z AUTO 08003KT 0250 R09L/0900 R09R/0250
                        FG NCD 05/04 Q1016=
201111210050 METAR COR EGLL 210050Z 08004KT 2100 1000S R09L/1400 R09R/P1500
                        BR BCFG NSC 06/06 Q1016 TEMPO 0500
                        FG=
201111210020 METAR COR EGLL 210020Z 09004KT 2700 BR NSC 06/06 Q1017 TEMPO
                        1200=
201111202350 METAR COR EGLL 202350Z 08003KT 3000 BR NSC 06/06 Q1017 BECMG
                        2000=
201111202320 METAR COR EGLL 202320Z 08004KT 3700 BR NSC 06/06 Q1017 BECMG
                        2500=
201111202250 METAR COR EGLL 202250Z 00000KT 4000 BR NSC 06/06 Q1017 TEMPO
                        2500=
201111202220 METAR COR EGLL 202220Z 06002KT 4000 BR NSC 05/05 Q1017 TEMPO
                        2000=
201111202150 METAR COR EGLL 202150Z 11002KT 3500 BR NSC 05/05 Q1017 TEMPO
                        2000=
201111202120 METAR COR EGLL 202120Z 08002KT 3000 BR NSC 05/05 Q1017 TEMPO
                        2000=
201111202050 METAR COR EGLL 202050Z 01002KT 1100 R09L/P1500 R09R/P1500
                        BR SCT001 05/05 Q1018 TEMPO 0500
                        BCFG BKN001=
201111202020 METAR COR EGLL 202020Z 05002KT 0400 R09L/0600 R09R/1300 PRFG
                        SCT001 05/05 Q1018 TEMPO 0300 FG
                        BKN001=
201111201950 METAR COR EGLL 201950Z 09002KT 0400 R09L/0600 R09R/0350 BCFG
                        SCT001 05/05 Q1018 TEMPO 0300 FG
                        BKN001=
201111201920 METAR COR EGLL 201920Z VRB02KT 0400 R09L/0400 R09R/0300 BCFG
                        SCT001 06/05 Q1018 TEMPO 0300 FG
                        BKN001=
201111201850 METAR COR EGLL 201850Z 35002KT 0350 R09L/0350 R09R/0275 FG
                        BKN001 06/06 Q1018 TEMPO 0300=
201111201820 METAR COR EGLL 201820Z 09002KT 0350 R09L/0325 R09R/0375 FG
                        BKN001 06/06 Q1018 TEMPO 0300=
201111201750 METAR COR EGLL 201750Z 34002KT 0300 R09L/0300 R09R/0450 FG
                        SCT000 BKN001 06/06 Q1018 TEMPO 0400=
201111201720 METAR COR EGLL 201720Z 00000KT 0350 R09L/0350 R09R/0325 FG
                        SCT000 BKN001 06/06 Q1018 TEMPO 0300=
201111201650 METAR COR EGLL 201650Z VRB02KT 0350 R09L/0350 R09R/0400 FG
                        SCT000 BKN001 06/06 Q1018 TEMPO 0300=
201111201620 METAR COR EGLL 201620Z 10002KT 0400 R09L/0325 R09R/0400 FG
                        FEW000 BKN001 07/06 Q1018 TEMPO 0250=
201111201550 METAR EGLL 201550Z 05002KT 0400 R09L/0375 R09R/0800 FG SCT000
                        BKN001 07/06 Q1018=
201111201520 METAR COR EGLL 201520Z 32002KT 0400 R09L/P1500 R09R/0325
                        FG SCT000 BKN001 07/07 Q1018 NOSIG=
201111201450 METAR COR EGLL 201450Z VRB02KT 0900 R09L/1400 R09R/P1500
                        BCFG FEW001 BKN002 07/07 Q1018 NOSIG=
201111201420 METAR COR EGLL 201420Z 00000KT 0900 R09L/1000 R09R/P1500
                        FG SCT001 BKN002 07/07 Q1018 TEMPO
                        1500 BR SCT002=
201111201350 METAR COR EGLL 201350Z VRB02KT 0900 R09L/P1500 R09R/P1500
                        PRFG SCT001 BKN002 07/07 Q1018 TEMPO
                        1500 BR=
201111201320 METAR COR EGLL 201320Z VRB02KT 0800 R09L/P1500 R09R/P1500
                        FG BKN001 07/07 Q1019 BECMG 1500
                        SCT002=
201111201250 METAR COR EGLL 201250Z VRB02KT 0900 R09L/P1500 R09R/1100
                        FG BKN001 07/06 Q1019 BECMG 1500
                        SCT002=
201111201220 METAR COR EGLL 201220Z 07002KT 0700 R09L/0900 R09R/0450 PRFG
                        FEW000 BKN001 07/06 Q1019 BECMG 1200
                        BKN002=
201111201150 METAR COR EGLL 201150Z VRB02KT 0700 R09L/0450 R09R/P1500
                        FG BKN001 06/06 Q1019 BECMG 1200
                        BKN002=
201111201120 METAR COR EGLL 201120Z VRB02KT 0500 R09L/0375 R09R/P1500
                        FG BKN001 06/06 Q1020 BECMG 0700
                        BKN002=
201111201050 METAR COR EGLL 201050Z VRB02KT 0350 R09L/0300 R09R/1400 FG
                        VV/// 05/05 Q1020 BECMG 0600=
201111201020 METAR COR EGLL 201020Z 00000KT 0200 R09L/0225 R09R/0900 FG
                        VV/// 05/05 Q1020 BECMG 0400=
201111200950 METAR COR EGLL 200950Z VRB03KT 0100 R09L/0225 R09R/1000 FG
                        VV/// 05/05 Q1020 BECMG 0300=
201111200920 METAR COR EGLL 200920Z 34002KT 0150 R09L/0250 R09R/0450 FG
                        VV/// 05/05 Q1020 BECMG 0300=
201111200850 METAR COR EGLL 200850Z 00000KT 0150 R09L/0250 R09R/0750 FG
                        VV/// 05/04 Q1020 BECMG 0300=
201111200820 METAR COR EGLL 200820Z 35002KT 0100 R09L/0175 R09R/0325 FG
                        VV/// 05/04 Q1020 BECMG 0300=
201111200750 METAR COR EGLL 200750Z 02002KT 0150 R09L/0275 R09R/0500 FG
                        VV/// 04/04 Q1019 NOSIG=
201111200720 METAR COR EGLL 200720Z 32003KT 0150 R09L/0400 R09R/0600 FG
                        VV/// 04/04 Q1019 NOSIG=
201111200650 METAR COR EGLL 200650Z VRB03KT 0150 R09L/0500 R09R/P1500
                        FG VV/// 03/03 Q1019 TEMPO 0500 FG=
201111200620 METAR COR EGLL 200620Z 32002KT 0400 R09L/0600 R09R/1300 FG
                        BKN001 03/03 Q1019 TEMPO 0800 BCFG
                        SCT001=
201111200550 METAR COR EGLL 200550Z VRB02KT 0900 R09R/0600 BCFG SCT001
                        SCT002 03/02 Q1019 TEMPO 0500 BCFG
                        BKN001=
201111200520 METAR COR EGLL 200520Z 35002KT 1700 0900N R09R/1200 BR BCFG
                        SCT001 03/03 Q1019 TEMPO 0500 BCFG
                        BKN001=
201111200450 METAR COR EGLL 200450Z 35002KT 1900 0900S R09R/0225 BR PRFG
                        FEW001 02/02 Q1019 TEMPO 0500 BCFG
                        BKN001=
201111200420 METAR COR EGLL 200420Z 00000KT 2300 1000SW R09R/0200 BR BCFG
                        NSC 05/05 Q1019 TEMPO 0500 BCFG=
201111200350 METAR COR EGLL 200350Z 07004KT 2200 R09L/0600 R09R/0500 BR
                        BCFG NSC 04/04 Q1018 TEMPO 0800 BCFG=
201111200320 METAR COR EGLL 200320Z 06004KT 2700 R09R/1300 BR NSC 04/04
                        Q1019 TEMPO 0800 BCFG=
201111200250 METAR COR EGLL 200250Z 08004KT 2700 R09L/1400 R09R/1300 BR
                        NSC 04/04 Q1019 TEMPO 0800 FG=
201111200220 METAR COR EGLL 200220Z 05002KT 3500 BR NSC 05/05 Q1019 TEMPO
                        2000=
201111200150 METAR COR EGLL 200150Z 05003KT 4800 BR NSC 05/05 Q1019 BECMG
                        2200 BR=
201111200120 METAR COR EGLL 200120Z 05002KT 5000 BR NSC 05/05 Q1019 BECMG
                        2500=
201111200050 METAR COR EGLL 200050Z 06002KT 5000 BR NSC 05/05 Q1019 BECMG
                        2500=
201111200020 METAR COR EGLL 200020Z 08003KT 5000 BR NSC 06/06 Q1019 BECMG
                        2500=
201111192350 METAR COR EGLL 192350Z 02003KT 6000 NSC 06/05 Q1019 BECMG
                        3000 BR=
201111192320 METAR COR EGLL 192320Z 05003KT 6000 NSC 07/06 Q1019 BECMG
                        4000 BR=
201111192250 METAR COR EGLL 192250Z 07003KT 6000 NSC 06/06 Q1019 BECMG
                        4000 BR=
201111192220 METAR COR EGLL 192220Z 09004KT 6000 NSC 07/06 Q1019 BECMG
                        4000 BR=
201111192150 METAR COR EGLL 192150Z 07002KT 6000 NSC 07/07 Q1019 BECMG
                        4000 BR=
201111192120 METAR COR EGLL 192120Z 07003KT 6000 NSC 07/07 Q1018 BECMG
                        4000 BR=
201111192050 METAR COR EGLL 192050Z 09003KT 6000 NSC 08/07 Q1018 BECMG
                        4500 BR=
201111192020 METAR COR EGLL 192020Z 11004KT 5000 BR NSC 08/08 Q1018 BECMG
                        4000 BR=
201111191950 METAR COR EGLL 191950Z 10006KT 6000 NSC 07/06 Q1018 BECMG
                        4500 BR=
201111191920 METAR COR EGLL 191920Z 09005KT 7000 NSC 09/08 Q1018 BECMG
                        5000=
201111191850 METAR COR EGLL 191850Z 09006KT 8000 NSC 09/08 Q1018 NOSIG=
201111191820 METAR COR EGLL 191820Z 09006KT 8000 NSC 09/07 Q1017 NOSIG=
201111191750 METAR COR EGLL 191750Z 09005KT 9000 NSC 09/08 Q1017 NOSIG=
201111191720 METAR COR EGLL 191720Z 09006KT CAVOK 10/08 Q1017 NOSIG=
201111191650 METAR COR EGLL 191650Z 08004KT CAVOK 10/08 Q1016 BECMG 8000=
201111191620 METAR COR EGLL 191620Z 10005KT CAVOK 11/09 Q1016 NOSIG=
201111191550 METAR COR EGLL 191550Z 11006KT CAVOK 11/08 Q1016 NOSIG=
201111191520 METAR COR EGLL 191520Z 12006KT CAVOK 12/09 Q1016 NOSIG=
201111191450 METAR COR EGLL 191450Z 12006KT CAVOK 13/09 Q1016 NOSIG=
201111191420 METAR COR EGLL 191420Z 13005KT CAVOK 13/09 Q1016 NOSIG=
201111191350 METAR COR EGLL 191350Z 14006KT CAVOK 13/09 Q1016 NOSIG=
201111191320 METAR COR EGLL 191320Z 11007KT CAVOK 13/09 Q1016 NOSIG=
201111191250 METAR COR EGLL 191250Z 11006KT 9000 FEW010 13/09 Q1016 NOSIG=
201111191220 METAR COR EGLL 191220Z 11005KT 9000 BKN009 12/09 Q1016 BECMG
                        FEW012=
201111191150 METAR COR EGLL 191150Z 13006KT 7000 FEW008 BKN010 11/09 Q1017
                        BECMG FEW012=
201111191120 METAR COR EGLL 191120Z 12006KT 7000 FEW008 BKN010 11/09 Q1017
                        BECMG FEW012=
201111191050 METAR COR EGLL 191050Z 12005KT 080V180 8000 BKN007 10/08
                        Q1017 BECMG SCT007=
201111191020 METAR COR EGLL 191020Z 12005KT 8000 BKN007 10/08 Q1017 BECMG
                        SCT007=
201111190950 METAR COR EGLL 190950Z 10005KT 4600 BR BKN007 09/08 Q1016
                        BECMG 7000 SCT006=
201111190920 METAR COR EGLL 190920Z 08004KT 4000 BR SCT008 09/08 Q1016
                        BECMG 7000=
201111190850 METAR COR EGLL 190850Z 08004KT 2300 BR NSC 08/08 Q1016 BECMG
                        5000 HZ=
201111190820 METAR COR EGLL 190820Z 08003KT 2200 BR NSC 07/07 Q1016 TEMPO
                        BKN004=
201111190750 METAR COR EGLL 190750Z 09005KT 2000 BCFG BR NSC 07/06 Q1016
                        BECMG 5000 HZ=
201111190720 METAR COR EGLL 190720Z 08004KT 2100 BCFG NSC 06/06 Q1016
                        TEMPO BKN005=
201111190650 METAR COR EGLL 190650Z 06003KT 3400 BR NSC 07/06 Q1016 TEMPO
                        2500 BKN008=
201111190620 METAR COR EGLL 190620Z 08004KT 3500 BR NSC 07/06 Q1015 TEMPO
                        2500 BKN008=
201111190550 METAR COR EGLL 190550Z 09005KT 3700 BR NSC 06/06 Q1015 TEMPO
                        BKN008=
201111190520 METAR COR EGLL 190520Z 08006KT 4000 BR NSC 06/06 Q1015 TEMPO
                        BKN008=
201111190450 METAR COR EGLL 190450Z 09005KT 4400 BR NSC 06/06 Q1015 TEMPO
                        BKN008=
201111190420 METAR COR EGLL 190420Z 09006KT 5000 BR NSC 06/06 Q1015 TEMPO
                        3500 BR=
201111190350 METAR COR EGLL 190350Z 09006KT 6000 NSC 06/05 Q1015 TEMPO
                        4000 BR=
201111190320 METAR COR EGLL 190320Z 09006KT 7000 NSC 06/05 Q1015 TEMPO
                        4000 BR=
201111190250 METAR COR EGLL 190250Z 09006KT CAVOK 06/05 Q1016 BECMG 5000=
201111190220 METAR EGLL 190220Z AUTO 10005KT 9999 NCD 07/05 Q1016=
201111190150 METAR EGLL 190150Z AUTO 08005KT 9999 NCD 07/05 Q1016=
201111190120 METAR EGLL 190120Z AUTO 12004KT 9999 NCD 07/06 Q1016=
201111190050 METAR COR EGLL 190050Z 12004KT CAVOK 07/06 Q1016 BECMG 6000=
201111190020 METAR COR EGLL 190020Z 12005KT CAVOK 06/05 Q1016 BECMG 6000=
201111182350 METAR COR EGLL 182350Z 12005KT CAVOK 08/06 Q1016 BECMG 7000=
201111182320 METAR COR EGLL 182320Z 12006KT CAVOK 07/06 Q1016 BECMG 7000=
201111182250 METAR COR EGLL 182250Z 12006KT CAVOK 08/06 Q1016 BECMG 7000=
201111182220 METAR COR EGLL 182220Z 14006KT CAVOK 10/08 Q1016 BECMG 7000=
201111182150 METAR COR EGLL 182150Z 14006KT CAVOK 10/08 Q1017 NOSIG=
201111182120 METAR COR EGLL 182120Z 14006KT CAVOK 10/08 Q1017 NOSIG=
201111182050 METAR COR EGLL 182050Z 14007KT 100V200 CAVOK 11/08 Q1017
                        NOSIG=
201111182020 METAR COR EGLL 182020Z 13008KT CAVOK 11/09 Q1017 NOSIG=
201111181950 METAR COR EGLL 181950Z 14007KT 100V170 CAVOK 11/09 Q1017
                        NOSIG=
201111181920 METAR COR EGLL 181920Z 14007KT 100V160 CAVOK 12/09 Q1016
                        NOSIG=
201111181850 METAR COR EGLL 181850Z 14006KT 110V180 CAVOK 12/09 Q1016
                        NOSIG=
201111181820 METAR COR EGLL 181820Z 14008KT CAVOK 12/09 Q1016 NOSIG=
201111181750 METAR COR EGLL 181750Z 14007KT CAVOK 12/09 Q1016 NOSIG=
201111181720 METAR COR EGLL 181720Z 15007KT CAVOK 12/09 Q1016 NOSIG=
201111181650 METAR COR EGLL 181650Z 15007KT CAVOK 12/09 Q1016 NOSIG=
201111181620 METAR COR EGLL 181620Z 15006KT 120V190 CAVOK 13/08 Q1017
                        NOSIG=
201111181550 METAR COR EGLL 181550Z 17007KT 120V200 CAVOK 13/08 Q1017
                        NOSIG=
201111181520 METAR COR EGLL 181520Z 18010KT 140V220 CAVOK 13/09 Q1017
                        NOSIG=
201111181450 METAR COR EGLL 181450Z 18009KT 140V240 CAVOK 14/09 Q1017
                        NOSIG=
201111181420 METAR COR EGLL 181420Z 19010KT 160V230 9999 FEW027 14/09
                        Q1017 NOSIG=
201111181350 METAR COR EGLL 181350Z 17011KT 150V230 9999 FEW022 14/10
                        Q1017 NOSIG=
201111181320 METAR COR EGLL 181320Z 19010KT 150V240 9999 SCT024 14/10
                        Q1017 NOSIG=
201111181250 METAR COR EGLL 181250Z 19011KT 160V240 9999 SCT019 14/11
                        Q1017 NOSIG=
201111181220 METAR COR EGLL 181220Z 20009KT 160V260 9999 SCT017 SCT028
                        14/11 Q1018 NOSIG=
201111181150 METAR COR EGLL 181150Z 21009KT 160V250 9999 FEW022 BKN031
                        14/11 Q1018 NOSIG=
201111181120 METAR COR EGLL 181120Z 21010KT 180V250 9999 FEW016 BKN022
                        14/11 Q1018 BECMG SCT025=
201111181050 METAR COR EGLL 181050Z 19008KT 150V250 9999 FEW016 SCT036
                        14/11 Q1018 NOSIG=
201111181020 METAR COR EGLL 181020Z 18004KT 120V250 9999 SCT025 13/11
                        Q1019 NOSIG=
201111180950 METAR COR EGLL 180950Z 19006KT 130V250 9999 FEW016 12/10
                        Q1019 NOSIG=
201111180920 METAR COR EGLL 180920Z 18006KT 140V240 9999 FEW016 11/10
                        Q1019 NOSIG=
201111180850 METAR COR EGLL 180850Z 16005KT 120V230 9999 SCT019 10/09
                        Q1019 NOSIG=
201111180820 METAR COR EGLL 180820Z 18006KT 150V230 9999 BKN018 10/09
                        Q1018 BECMG FEW018 SCT025=
201111180750 METAR COR EGLL 180750Z 17005KT 130V220 9999 BKN017 09/08
                        Q1018 BECMG FEW017 SCT025=
201111180720 METAR COR EGLL 180720Z 17006KT 130V230 CAVOK 09/08 Q1018
                        NOSIG=
201111180650 METAR COR EGLL 180650Z 17008KT 120V220 9999 FEW018 09/08
                        Q1018 NOSIG=
201111180620 METAR COR EGLL 180620Z 18006KT 130V280 9999 FEW016 09/08
                        Q1018 TEMPO BKN009=
201111180550 METAR COR EGLL 180550Z 17005KT CAVOK 08/08 Q1018 TEMPO BKN009=
201111180520 METAR COR EGLL 180520Z 17005KT 9999 FEW019 08/07 Q1018 TEMPO
                        BKN009=
201111180450 METAR COR EGLL 180450Z 17005KT 9999 FEW015 09/08 Q1018 TEMPO
                        BKN009=
201111180420 METAR COR EGLL 180420Z 18005KT CAVOK 10/09 Q1018 TEMPO BKN009=
201111180350 METAR COR EGLL 180350Z 19006KT CAVOK 10/09 Q1018 TEMPO BKN009=
201111180320 METAR COR EGLL 180320Z 19006KT CAVOK 10/09 Q1018 TEMPO BKN009=
201111180250 METAR EGLL 180250Z 18005KT CAVOK 09/08 Q1018=
201111180220 METAR EGLL 180220Z AUTO 18005KT 9999 NCD 09/08 Q1019=
201111180150 METAR EGLL 180150Z AUTO 17005KT 9999 NCD 09/08 Q1019=
201111180120 METAR EGLL 180120Z AUTO 17004KT 9999 NCD 09/08 Q1019=
201111180050 METAR COR EGLL 180050Z 16005KT CAVOK 09/07 Q1019 NOSIG=
201111180020 METAR COR EGLL 180020Z 18005KT CAVOK 10/08 Q1019 NOSIG=
201111172350 METAR COR EGLL 172350Z 17004KT CAVOK 10/08 Q1019 NOSIG=
201111172320 METAR COR EGLL 172320Z 17005KT CAVOK 10/08 Q1019 NOSIG=
201111172250 METAR COR EGLL 172250Z 17006KT CAVOK 10/08 Q1019 NOSIG=
201111172220 METAR COR EGLL 172220Z 19007KT CAVOK 10/07 Q1019 NOSIG=
201111172150 METAR COR EGLL 172150Z 19007KT 160V230 9999 FEW049 10/07
                        Q1019 NOSIG=
201111172120 METAR COR EGLL 172120Z 18009KT 150V230 9999 FEW042 10/07
                        Q1019 NOSIG=
201111172050 METAR COR EGLL 172050Z 19008KT CAVOK 10/07 Q1019 NOSIG=
201111172020 METAR COR EGLL 172020Z 18006KT 130V260 CAVOK 08/07 Q1019
                        NOSIG=
201111171950 METAR COR EGLL 171950Z 18006KT 140V210 9999 FEW046 07/06
                        Q1019 NOSIG=
201111171920 METAR COR EGLL 171920Z 18007KT 150V250 CAVOK 08/06 Q1019
                        NOSIG=
201111171850 METAR COR EGLL 171850Z 17006KT 130V220 CAVOK 09/06 Q1019
                        NOSIG=
201111171820 METAR COR EGLL 171820Z 17005KT 110V240 CAVOK 09/06 Q1019
                        NOSIG=
201111171750 METAR COR EGLL 171750Z 16006KT 140V210 9999 FEW045 10/06
                        Q1019 NOSIG=
201111171720 METAR COR EGLL 171720Z 19007KT 160V240 9999 FEW032 10/06
                        Q1019 NOSIG=
201111171650 METAR COR EGLL 171650Z 19007KT 150V220 9999 FEW032 11/06
                        Q1019 NOSIG=
201111171620 METAR COR EGLL 171620Z 21005KT 170V270 9999 FEW032 12/06
                        Q1019 NOSIG=
201111171550 METAR COR EGLL 171550Z 22008KT 9999 FEW032 12/06 Q1019 NOSIG=
201111171520 METAR COR EGLL 171520Z 23007KT 190V260 9999 FEW030 13/06
                        Q1019 NOSIG=
201111171450 METAR COR EGLL 171450Z 25009KT 9999 FEW025 14/06 Q1019 NOSIG=
201111171420 METAR COR EGLL 171420Z 26011KT 9999 FEW025 14/06 Q1019 NOSIG=
201111171350 METAR COR EGLL 171350Z 25010KT 9999 FEW020 14/08 Q1019 NOSIG=
201111171320 METAR COR EGLL 171320Z 25011KT 9999 SCT020 SCT030 14/08 Q1019
                        NOSIG=
201111171250 METAR COR EGLL 171250Z 27011KT 9999 SCT023 BKN030 13/09 Q1019
                        NOSIG=
201111171220 METAR COR EGLL 171220Z 28009KT 9999 SCT014 BKN032 13/10 Q1019
                        NOSIG=
201111171150 METAR COR EGLL 171150Z 23011KT 200V260 9999 FEW015TCU BKN036
                        14/11 Q1018 NOSIG=
201111171120 METAR COR EGLL 171120Z 23008KT 9000 FEW018TCU BKN035 14/11
                        Q1018 NOSIG=
201111171050 METAR COR EGLL 171050Z 22009KT 160V260 8000 FEW010 BKN032
                        14/12 Q1018 NOSIG=
201111171020 METAR COR EGLL 171020Z 19005KT 150V240 4900 BR SCT010 BKN040
                        12/11 Q1018 BECMG 7000 NSW=
201111170950 METAR COR EGLL 170950Z 19005KT 130V250 4200 BR FEW009 12/11
                        Q1018 BECMG 7000 NSW=
201111170920 METAR COR EGLL 170920Z 17006KT 130V250 3800 BR SCT045 11/10
                        Q1018 BECMG 6000 NSW=
201111170850 METAR COR EGLL 170850Z 20005KT 170V250 2800 BR FEW013 BKN042
                        10/10 Q1018 NOSIG=
201111170820 METAR COR EGLL 170820Z 19006KT 150V230 2700 BR FEW013 09/09
                        Q1018 TEMPO BKN012=
201111170750 METAR COR EGLL 170750Z 18005KT 130V240 1900 BR NSC 09/08
                        Q1018 TEMPO BKN014=
201111170720 METAR COR EGLL 170720Z 18005KT 150V230 2100 BR FEW008 SCT011
                        08/08 Q1017 TEMPO BKN014=
201111170650 METAR COR EGLL 170650Z 18005KT 130V230 2500 BR FEW014 SCT042
                        09/08 Q1017 NOSIG=
201111170620 METAR COR EGLL 170620Z VRB05KT 3100 BR SCT018 BKN040 09/08
                        Q1017 TEMPO 2000=
201111170550 METAR COR EGLL 170550Z 16003KT 3200 BR FEW008 SCT012 BKN042
                        09/08 Q1017 TEMPO 2000 BKN008=
201111170520 METAR COR EGLL 170520Z 10003KT 3500 BR FEW007 SCT046 08/07
                        Q1017 TEMPO 1200 BKN003=
201111170450 METAR COR EGLL 170450Z 08004KT 2900 0550SE R27L/0500 BCFG
                        FEW001 SCT010 08/07 Q1017 TEMPO 1200
                        BKN003=
201111170420 METAR COR EGLL 170420Z 10004KT 2900 BR BKN006 09/08 Q1017
                        TEMPO BKN004=
201111170350 METAR COR EGLL 170350Z 00000KT 2900 BR FEW003 SCT006 BKN008
                        08/07 Q1017 TEMPO BKN004=
201111170320 METAR COR EGLL 170320Z 09003KT 3200 BR FEW002 SCT003 BKN009
                        07/07 Q1016 TEMPO 2000 BKN003=
201111170250 METAR COR EGLL 170250Z VRB02KT 3200 BR FEW002 SCT003 08/07
                        Q1016 TEMPO 2000 BKN003=
201111170220 METAR EGLL 170220Z AUTO VRB03KT 0300 R09R/P1500 FG FEW004///
                        08/07 Q1016=
201111170150 METAR EGLL 170150Z AUTO 14004KT 1500 BR SCT004/// 08/07 Q1016=
201111170120 METAR EGLL 170120Z AUTO 12005KT 1700 BR BKN004/// 08/07 Q1016=
201111170050 METAR COR EGLL 170050Z 12004KT 3200 HZ FEW003 SCT004 09/08
                        Q1016 TEMPO BKN004=
201111170020 METAR COR EGLL 170020Z 10005KT 3100 HZ FEW004 SCT005 09/08
                        Q1016 TEMPO BKN004=
201111162350 METAR COR EGLL 162350Z 11004KT 3200 HZ BKN006 09/08 Q1016
                        TEMPO BKN004=
201111162320 METAR COR EGLL 162320Z 08005KT 3000 HZ SCT004 BKN005 09/08
                        Q1016 TEMPO BKN004=
201111162250 METAR COR EGLL 162250Z 09004KT 3200 HZ FEW002 SCT003 BKN004
                        08/07 Q1016 NOSIG=
201111162220 METAR COR EGLL 162220Z VRB03KT 3200 HZ FEW002 SCT003 BKN004
                        08/07 Q1016 NOSIG=
201111162150 METAR COR EGLL 162150Z 10006KT 3600 HZ BKN004 08/07 Q1017
                        NOSIG=
201111162120 METAR EGLL 162120Z 11005KT 4000 HZ BKN004 07/06 Q1017=
201111162050 METAR COR EGLL 162050Z 11005KT 4500 HZ BKN005 07/06 Q1017
                        TEMPO BKN004=
201111162020 METAR COR EGLL 162020Z 13005KT 5000 HZ BKN006 07/06 Q1017
                        TEMPO BKN004=
201111161950 METAR COR EGLL 161950Z 12006KT 5000 HZ BKN006 07/06 Q1017
                        NOSIG=
201111161920 METAR COR EGLL 161920Z 13007KT 5000 HZ BKN006 07/06 Q1017
                        NOSIG=
201111161850 METAR COR EGLL 161850Z 14007KT 5000 HZ BKN007 07/06 Q1016
                        NOSIG=
201111161820 METAR COR EGLL 161820Z 11007KT 5000 HZ BKN008 07/06 Q1016
                        NOSIG=
201111161750 METAR COR EGLL 161750Z 10006KT 5000 HZ SCT011 07/05 Q1016
                        NOSIG=
201111161720 METAR COR EGLL 161720Z 11005KT 5000 HZ SCT011 07/06 Q1016
                        NOSIG=
201111161650 METAR COR EGLL 161650Z 08006KT 5000 HZ SCT010 07/05 Q1016
                        NOSIG=
201111161620 METAR COR EGLL 161620Z 09004KT 5000 HZ BKN010 08/06 Q1016
                        NOSIG=
201111161550 METAR COR EGLL 161550Z 10007KT 080V140 5000 HZ FEW009 BKN010
                        08/06 Q1016 NOSIG=
201111161520 METAR COR EGLL 161520Z 11007KT 5000 HZ BKN010 08/06 Q1016
                        NOSIG=
201111161450 METAR COR EGLL 161450Z 12005KT 5000 HZ FEW009 BKN010 08/06
                        Q1016 NOSIG=
201111161420 METAR COR EGLL 161420Z 11006KT 5000 HZ SCT009 BKN010 09/06
                        Q1016 NOSIG=
201111161350 METAR COR EGLL 161350Z 10005KT 4700 HZ SCT009 BKN010 08/06
                        Q1017 BECMG 5000=
201111161320 METAR COR EGLL 161320Z 11004KT 080V160 4300 HZ SCT008 BKN009
                        08/06 Q1017 BECMG 5000 BKN010=
201111161250 METAR COR EGLL 161250Z 11005KT 070V160 4200 HZ SCT007 BKN008
                        07/06 Q1017 BECMG 5000 SCT008 BKN010=
201111161220 METAR COR EGLL 161220Z 11005KT 060V140 4200 HZ SCT006 BKN007
                        07/05 Q1017 BECMG 5000=
201111161150 METAR COR EGLL 161150Z 12004KT 060V160 4500 HZ SCT006 BKN007
                        06/05 Q1018 BECMG 6000=
201111161120 METAR COR EGLL 161120Z 12004KT 070V180 4500 HZ SCT006 BKN007
                        06/04 Q1018 BECMG 6000=
201111161050 METAR COR EGLL 161050Z 15005KT 3600 HZ SCT005 BKN007 06/04
                        Q1018 BECMG 5000=
201111161020 METAR COR EGLL 161020Z 11004KT 080V140 3400 HZ BKN005 OVC007
                        05/04 Q1018 BECMG 5000 HZ=
201111160950 METAR COR EGLL 160950Z 10004KT 060V140 3000 BR SCT004 BKN005
                        05/04 Q1018 BECMG 5000 HZ=
201111160920 METAR COR EGLL 160920Z 11004KT 080V150 2700 BR FEW003 BKN004
                        BKN005 05/04 Q1018 BECMG SCT004=
201111160850 METAR COR EGLL 160850Z VRB03KT 2700 BR FEW003 BKN004 05/04
                        Q1018 BECMG SCT004 BKN005=
201111160820 METAR COR EGLL 160820Z 17004KT 2400 BR FEW002 SCT003 BKN004
                        05/04 Q1018 BECMG SCT004 BKN005=
201111160750 METAR COR EGLL 160750Z 15004KT 120V190 2000 BR FEW002 BKN003
                        04/04 Q1018 NOSIG=
201111160720 METAR COR EGLL 160720Z 11004KT 080V170 1500 BR FEW001 SCT002
                        BKN003 04/04 Q1018 NOSIG=
201111160650 METAR COR EGLL 160650Z 11004KT 1900 BR FEW001 SCT003 BKN004
                        05/04 Q1017 NOSIG=
201111160620 METAR COR EGLL 160620Z VRB03KT 2400 HZ FEW002 SCT003 BKN004
                        04/04 Q1018 NOSIG=
201111160550 METAR COR EGLL 160550Z 14004KT 3100 HZ SCT003 BKN004 05/04
                        Q1018 NOSIG=
201111160520 METAR COR EGLL 160520Z 15006KT 3300 HZ FEW003 BKN004 05/04
                        Q1018 NOSIG=
201111160450 METAR COR EGLL 160450Z 13005KT 3300 HZ FEW003 BKN004 05/04
                        Q1018 NOSIG=
201111160420 METAR COR EGLL 160420Z 11007KT 3500 HZ FEW003 BKN004 05/04
                        Q1017 NOSIG=
201111160350 METAR COR EGLL 160350Z 11006KT 3500 HZ SCT004 BKN005 05/04
                        Q1017 NOSIG=
201111160320 METAR EGLL 160320Z NIL=
201111160250 METAR EGLL 160250Z NIL=
201111160220 METAR EGLL 160220Z NIL=
201111160150 METAR EGLL 160150Z NIL=
201111160120 METAR EGLL 160120Z NIL=
201111160050 METAR EGLL 160050Z 09006KT 070V130 4000 -SHRA BR BKN020 05/04
                        Q1018=
201111160020 METAR EGLL 160020Z NIL=
201111152350 METAR EGLL 152350Z NIL=
201111152320 METAR COR EGLL 152320Z 11007KT 3900 HZ BKN006 05/04 Q1018
                        NOSIG=
201111152250 METAR COR EGLL 152250Z 10006KT 4100 HZ BKN006 05/04 Q1018
                        NOSIG=
201111152220 METAR COR EGLL 152220Z 10005KT 060V130 4100 HZ BKN006 05/04
                        Q1018 NOSIG=
201111152150 METAR COR EGLL 152150Z 11009KT 4300 HZ BKN007 05/04 Q1018
                        NOSIG=
201111152120 METAR COR EGLL 152120Z 12007KT 4500 HZ BKN008 05/04 Q1018
                        NOSIG=
201111152050 METAR COR EGLL 152050Z 11009KT 5000 HZ BKN009 06/04 Q1018
                        TEMPO 4000 BR=
201111152020 METAR COR EGLL 152020Z 11007KT 5000 HZ FEW008 SCT012 05/04
                        Q1018 BECMG 4000 BR BKN012=
201111151950 METAR COR EGLL 151950Z 11006KT 6000 FEW012 05/04 Q1017 TEMPO
                        4000 BR BKN012=
201111151920 METAR COR EGLL 151920Z 10005KT 6000 FEW012 05/03 Q1017 TEMPO
                        4000 BR BKN012=
201111151850 METAR COR EGLL 151850Z 08006KT 6000 NSC 05/04 Q1017 TEMPO
                        4000 BR=
201111151820 METAR COR EGLL 151820Z 10005KT 7000 FEW014 06/04 Q1017 TEMPO
                        4000 HZ BKN012=
201111151750 METAR COR EGLL 151750Z 08005KT 7000 FEW014 06/04 Q1017 TEMPO
                        4000 HZ BKN012=
201111151720 METAR COR EGLL 151720Z 09006KT 7000 FEW014 07/05 Q1017 TEMPO
                        4000 HZ BKN012=
201111151650 METAR COR EGLL 151650Z 09008KT 7000 NSC 08/05 Q1017 TEMPO
                        4000 HZ BKN012=
201111151620 METAR COR EGLL 151620Z 09009KT 7000 NSC 08/05 Q1017 NOSIG=
201111151550 METAR COR EGLL 151550Z 10008KT 7000 NSC 09/06 Q1017 NOSIG=
201111151520 METAR COR EGLL 151520Z 10011KT 8000 NSC 10/06 Q1016 NOSIG=
201111151450 METAR COR EGLL 151450Z 09008KT 9000 NSC 11/07 Q1016 NOSIG=
201111151420 METAR COR EGLL 151420Z 09010KT 9000 FEW021 11/07 Q1016 NOSIG=
201111151350 METAR COR EGLL 151350Z 09009KT 9999 FEW020 12/07 Q1017 NOSIG=
201111151320 METAR COR EGLL 151320Z 07009KT 9999 FEW020 12/07 Q1017 NOSIG=
201111151250 METAR COR EGLL 151250Z 06008KT 9999 FEW018 12/07 Q1017 NOSIG=
201111151220 METAR COR EGLL 151220Z 07010KT 9999 FEW018 11/07 Q1017 NOSIG=
201111151150 METAR COR EGLL 151150Z 08012KT 9999 FEW018 12/07 Q1017 NOSIG=
201111151120 METAR COR EGLL 151120Z 06009KT 020V080 9000 SCT018 12/08
                        Q1018 NOSIG=
201111151050 METAR COR EGLL 151050Z 06007KT 8000 FEW017 11/08 Q1018 NOSIG=
201111151020 METAR COR EGLL 151020Z 06008KT 6000 FEW010 11/08 Q1018 NOSIG=
201111150950 METAR COR EGLL 150950Z 05007KT 5000 HZ FEW010 10/08 Q1019
                        NOSIG=
201111150920 METAR COR EGLL 150920Z 05006KT 5000 HZ SCT013 10/08 Q1019
                        TEMPO CAVOK=
201111150850 METAR COR EGLL 150850Z 06006KT 4200 HZ FEW009 BKN011 10/08
                        Q1019 BECMG SCT012=
201111150820 METAR COR EGLL 150820Z 06006KT 4500 HZ FEW008 SCT011 09/08
                        Q1019 NOSIG=
201111150750 METAR COR EGLL 150750Z 04004KT 010V080 4300 HZ BKN011 09/08
                        Q1019 BECMG SCT012=
201111150720 METAR COR EGLL 150720Z 03004KT 360V060 3500 HZ BKN011 09/07
                        Q1019 TEMPO BKN008=
201111150650 METAR COR EGLL 150650Z 05004KT 4300 HZ BKN010 09/07 Q1019
                        TEMPO BKN008=
201111150620 METAR COR EGLL 150620Z 06007KT 4000 HZ BKN010 08/07 Q1019
                        NOSIG=
201111150550 METAR COR EGLL 150550Z 06007KT 3800 HZ BKN010 08/07 Q1019
                        NOSIG=
201111150520 METAR COR EGLL 150520Z 06007KT 3500 HZ BKN010 07/06 Q1019
                        NOSIG=
201111150450 METAR EGLL 150450Z NIL=
201111150420 METAR COR EGLL 150420Z 07004KT 3100 HZ BKN009 07/06 Q1019
                        NOSIG=
201111150350 METAR EGLL 150350Z AUTO 07004KT 3200 HZ SCT009/// 06/05 Q1019=
201111150320 METAR COR EGLL 150320Z 07005KT 3500 HZ BKN010 07/05 Q1019
                        NOSIG=
201111150250 METAR COR EGLL 150250Z 07005KT 3800 HZ BKN010 07/05 Q1020
                        NOSIG=
201111150220 METAR EGLL 150220Z AUTO 07006KT 3600 HZ ///////// 07/06 Q1020=
201111150150 METAR EGLL 150150Z AUTO 07005KT 3600NDV HZ BKN011/// 07/06
                        Q1020=
201111150120 METAR EGLL 150120Z AUTO 08005KT 3500NDV HZ BKN010/// 07/05
                        Q1020=
201111150050 METAR COR EGLL 150050Z 10006KT 4000 HZ SCT010 07/05 Q1020
                        TEMPO BKN010=
201111150020 METAR COR EGLL 150020Z 09006KT 4500 HZ BKN011 08/06 Q1020
                        NOSIG=
201111142350 METAR COR EGLL 142350Z 10007KT 4500 HZ BKN011 07/06 Q1021
                        NOSIG=
201111142320 METAR COR EGLL 142320Z 10007KT 5000 HZ BKN012 08/06 Q1021
                        NOSIG=
201111142250 METAR COR EGLL 142250Z 09008KT 5000 HZ BKN012 09/07 Q1021
                        NOSIG=
201111142220 METAR COR EGLL 142220Z 09007KT 5000 HZ OVC011 10/07 Q1021
                        TEMPO 4000 BR=
201111142150 METAR COR EGLL 142150Z 07006KT 4200 HZ FEW008 BKN010 10/08
                        Q1021 NOSIG=
201111142120 METAR COR EGLL 142120Z 08007KT 3400 HZ SCT004 SCT008 BKN010
                        10/08 Q1021 NOSIG=
201111142050 METAR COR EGLL 142050Z 10009KT 2300 BR FEW002 BKN004 10/09
                        Q1021 NOSIG=
201111142020 METAR COR EGLL 142020Z 09009KT 2100 BR FEW002 BKN004 10/09
                        Q1021 NOSIG=
201111141950 METAR COR EGLL 141950Z 08008KT 2300 BR FEW002 SCT003 BKN004
                        10/09 Q1021 NOSIG=
201111141920 METAR COR EGLL 141920Z 07008KT 2900 BR FEW003 BKN004 BKN005
                        10/09 Q1021 TEMPO BKN006=
201111141850 METAR COR EGLL 141850Z 07008KT 2900 BR FEW003 SCT004 BKN005
                        10/09 Q1021 TEMPO BKN004=
201111141820 METAR COR EGLL 141820Z 07008KT 2200 BR SCT003 BKN004 BKN005
                        10/09 Q1022 NOSIG=
201111141750 METAR COR EGLL 141750Z 06009KT 2200 BR SCT003 BKN004 BKN005
                        10/09 Q1022 NOSIG=
201111141720 METAR COR EGLL 141720Z 07008KT 2900 BR SCT003 BKN004 10/09
                        Q1022 NOSIG=
201111141650 METAR COR EGLL 141650Z 07007KT 2100 BR FEW003 BKN004 BKN005
                        10/09 Q1022 NOSIG=
201111141620 METAR COR EGLL 141620Z 09006KT 2700 HZ BKN004 BKN005 10/09
                        Q1022 NOSIG=
201111141550 METAR COR EGLL 141550Z 09007KT 2500 HZ BKN004 BKN005 10/09
                        Q1022 NOSIG=
201111141520 METAR COR EGLL 141520Z 10007KT 2600 HZ BKN004 BKN005 10/09
                        Q1022 NOSIG=
201111141450 METAR COR EGLL 141450Z 10007KT 3300 HZ BKN004 BKN005 10/09
                        Q1022 NOSIG=
201111141420 METAR COR EGLL 141420Z 09006KT 2900 HZ FEW003 SCT004 BKN005
                        09/08 Q1022 TEMPO 5000 BKN004=
201111141350 METAR COR EGLL 141350Z 10007KT 3600 HZ SCT004 BKN005 09/08
                        Q1022 TEMPO 5000=
201111141320 METAR COR EGLL 141320Z 09008KT 4000 HZ SCT004 BKN005 09/08
                        Q1022 TEMPO 5000=
201111141250 METAR COR EGLL 141250Z 10007KT 2800 HZ SCT004 BKN005 09/08
                        Q1022 TEMPO 5000=
201111141220 METAR COR EGLL 141220Z 10007KT 3000 HZ FEW003 SCT004 BKN006
                        09/08 Q1023 TEMPO BKN004=
201111141150 METAR COR EGLL 141150Z 10006KT 3200 HZ SCT004 BKN006 09/08
                        Q1023 TEMPO BKN004=
201111141120 METAR COR EGLL 141120Z 11006KT 3200 HZ SCT003 BKN004 09/08
                        Q1023 BECMG SCT004 BKN006=
201111141050 METAR COR EGLL 141050Z 12005KT 3000 BR SCT003 BKN004 08/07
                        Q1024 NOSIG=
201111141020 METAR COR EGLL 141020Z 10009KT 3000 BR SCT003 BKN005 08/07
                        Q1024 TEMPO BKN003=
201111140950 METAR COR EGLL 140950Z 10008KT 2900 BR BKN003 BKN005 08/07
                        Q1024 NOSIG=
201111140920 METAR COR EGLL 140920Z 11008KT 2900 HZ FEW002 BKN003 BKN005
                        08/07 Q1024 NOSIG=
201111140850 METAR COR EGLL 140850Z 11007KT 3400 HZ FEW003 BKN004 08/07
                        Q1024 NOSIG=
201111140820 METAR COR EGLL 140820Z 11008KT 3500 HZ FEW004 BKN005 08/07
                        Q1024 TEMPO BKN003=
201111140750 METAR COR EGLL 140750Z 10006KT 4100 HZ FEW004 BKN005 BKN006
                        08/07 Q1024 TEMPO FEW002 BKN004=
201111140720 METAR EGLL 140720Z 11008KT 4800 HZ BKN005 BKN006 08/07 Q1024=
201111140650 METAR COR EGLL 140650Z 11008KT 6000 BKN004 BKN005 08/07 Q1024
                        TEMPO 4000 BR BKN006=
201111140620 METAR COR EGLL 140620Z 08007KT 5000 HZ OVC005 08/07 Q1024
                        TEMPO 4000 BR=
201111140550 METAR COR EGLL 140550Z 09006KT 4000 HZ OVC005 08/07 Q1024
                        NOSIG=
201111140520 METAR COR EGLL 140520Z 07005KT 3400 HZ OVC005 08/07 Q1024
                        NOSIG=
201111140450 METAR COR EGLL 140450Z 08006KT 3600 HZ OVC005 09/08 Q1024
                        NOSIG=
201111140420 METAR COR EGLL 140420Z 08007KT 3500 HZ OVC005 09/08 Q1024
                        NOSIG=
201111140350 METAR EGLL 140350Z AUTO 10007KT 3500NDV HZ OVC005/// 09/08
                        Q1024=
201111140320 METAR COR EGLL 140320Z 10005KT 5000 HZ BKN010 09/07 Q1024
                        TEMPO 3000 BR BKN006=
201111140250 METAR COR EGLL 140250Z 09007KT 5000 HZ OVC010 10/08 Q1024
                        TEMPO 3000 BR BKN006=
201111140220 METAR EGLL 140220Z AUTO 09007KT 5000NDV OVC010/// 10/08 Q1025=
201111140150 METAR EGLL 140150Z AUTO 08006KT 4900NDV HZ OVC009/// 10/08
                        Q1025=
201111140120 METAR EGLL 140120Z AUTO 10005KT 4000NDV HZ OVC009/// 10/08
                        Q1025=
201111140050 METAR COR EGLL 140050Z 10008KT 3500 HZ OVC006 10/08 Q1025
                        NOSIG=
201111140020 METAR COR EGLL 140020Z 08007KT 3000 HZ OVC006 10/08 Q1025
                        NOSIG=
201111132350 METAR COR EGLL 132350Z 10009KT 3000 HZ OVC006 10/08 Q1026
                        NOSIG=
201111132320 METAR COR EGLL 132320Z 12007KT 3500 HZ OVC007 10/08 Q1026
                        NOSIG=
201111132250 METAR COR EGLL 132250Z 09005KT 4000 HZ OVC008 10/09 Q1026
                        NOSIG=
201111132220 METAR COR EGLL 132220Z 11007KT 4000 HZ OVC007 10/09 Q1026
                        NOSIG=
201111132150 METAR COR EGLL 132150Z 10007KT 3400 BR OVC007 11/09 Q1026
                        NOSIG=
201111132120 METAR COR EGLL 132120Z 10010KT 3400 BR SCT006 OVC008 11/09
                        Q1026 NOSIG=
201111132050 METAR COR EGLL 132050Z 09008KT 3200 BR OVC006 11/09 Q1026
                        NOSIG=
201111132020 METAR COR EGLL 132020Z 09011KT 3100 BR OVC006 11/09 Q1026
                        NOSIG=
201111131950 METAR COR EGLL 131950Z 09010KT 3200 BR FEW005 OVC006 11/09
                        Q1026 NOSIG=
201111131920 METAR COR EGLL 131920Z 08008KT 3000 BR FEW005 BKN006 11/09
                        Q1026 NOSIG=
201111131850 METAR COR EGLL 131850Z 09008KT 2900 BR FEW005 BKN006 11/10
                        Q1026 NOSIG=
201111131820 METAR COR EGLL 131820Z 09007KT 4500 HZ SCT006 11/10 Q1026
                        BECMG BKN008=
201111131750 METAR COR EGLL 131750Z 08008KT 6000 NSC 12/10 Q1026 TEMPO
                        4000 HZ=
201111131720 METAR COR EGLL 131720Z 09007KT 6000 NSC 12/10 Q1026 TEMPO
                        4000 HZ=
201111131650 METAR COR EGLL 131650Z 09007KT 6000 NSC 12/10 Q1027 TEMPO
                        4000 HZ=
201111131620 METAR COR EGLL 131620Z 08007KT 6000 NSC 13/10 Q1027 TEMPO
                        4000 HZ=
201111131550 METAR COR EGLL 131550Z 09006KT 8000 NSC 13/10 Q1027 NOSIG=
201111131520 METAR COR EGLL 131520Z 09008KT CAVOK 14/11 Q1026 BECMG 7000=
201111131450 METAR COR EGLL 131450Z 09008KT CAVOK 15/11 Q1026 BECMG 7000=
201111131420 METAR COR EGLL 131420Z 09009KT CAVOK 15/11 Q1026 TEMPO 7000=
201111131350 METAR COR EGLL 131350Z 09010KT CAVOK 16/11 Q1026 TEMPO 7000=
201111131320 METAR COR EGLL 131320Z 09009KT CAVOK 16/11 Q1027 NOSIG=
201111131250 METAR COR EGLL 131250Z 09010KT CAVOK 16/10 Q1027 NOSIG=
201111131220 METAR COR EGLL 131220Z 09010KT CAVOK 16/10 Q1027 NOSIG=
201111131150 METAR COR EGLL 131150Z 09009KT CAVOK 16/10 Q1027 NOSIG=
201111131120 METAR COR EGLL 131120Z 09010KT CAVOK 15/10 Q1028 NOSIG=
201111131050 METAR COR EGLL 131050Z 09010KT 8000 NSC 14/11 Q1028 NOSIG=
201111131020 METAR COR EGLL 131020Z 09011KT 8000 NSC 13/10 Q1028 NOSIG=
201111130950 METAR COR EGLL 130950Z 09010KT 8000 NSC 13/10 Q1028 NOSIG=
201111130920 METAR COR EGLL 130920Z 09009KT 6000 NSC 12/10 Q1028 NOSIG=
201111130850 METAR COR EGLL 130850Z 08006KT 5000 HZ NSC 11/10 Q1028 NOSIG=
201111130820 METAR COR EGLL 130820Z 09005KT 3400 BR NSC 11/10 Q1028 NOSIG=
201111130750 METAR COR EGLL 130750Z 09005KT 2900 BR NSC 10/09 Q1028 BECMG
                        4000 HZ=
201111130720 METAR COR EGLL 130720Z 09005KT 2800 BR SCT005 10/09 Q1028
                        BECMG 4000 HZ=
201111130650 METAR COR EGLL 130650Z 08005KT 2600 BR FEW004 BKN005 11/10
                        Q1028 BECMG SCT005=
201111130620 METAR COR EGLL 130620Z 08005KT 2500 BR FEW004 BKN005 11/10
                        Q1028 BECMG SCT005=
201111130550 METAR COR EGLL 130550Z 07006KT 2500 BR BKN004 11/10 Q1028
                        BECMG SCT005=
201111130520 METAR COR EGLL 130520Z 07007KT 1900 BR SCT003 BKN004 11/10
                        Q1028 BECMG SCT005=
201111130450 METAR COR EGLL 130450Z 07006KT 1900 BR SCT004 BKN005 10/10
                        Q1028 NOSIG=
201111130420 METAR COR EGLL 130420Z 08004KT 2400 BR BKN005 11/10 Q1029
                        TEMPO SCT005=
201111130350 METAR COR EGLL 130350Z 06005KT 2700 BR BKN005 11/10 Q1028
                        TEMPO SCT006=
201111130320 METAR COR EGLL 130320Z 08008KT 2400 BR BKN005 12/11 Q1028
                        NOSIG=
201111130250 METAR COR EGLL 130250Z 09009KT 2200 BR BKN005 12/11 Q1028
                        NOSIG=
201111130220 METAR EGLL 130220Z AUTO 09007KT 2500NDV HZ OVC003/// 11/11
                        Q1029=
201111130150 METAR EGLL 130150Z AUTO 08007KT 2800NDV BR OVC002/// 11/11
                        Q1029=
201111130120 METAR EGLL 130120Z AUTO 08007KT 2800NDV BR OVC003/// 11/11
                        Q1029=
201111130050 METAR COR EGLL 130050Z 09007KT 2500 BR BKN002 BKN003 11/11
                        Q1029 BECMG SCT002 BKN005=
201111130020 METAR COR EGLL 130020Z 08007KT 2400 BR BKN002 BKN003 12/11
                        Q1029 BECMG SCT002 BKN005=
201111122350 METAR COR EGLL 122350Z 09008KT 1400 R09R/P1500 BR SCT001
                        BKN002 12/11 Q1029 BECMG FEW001 BKN004=
201111122320 METAR COR EGLL 122320Z 08007KT 1300 BR FEW001 BKN002 BKN003
                        12/11 Q1029 TEMPO BKN001=
201111122250 METAR COR EGLL 122250Z 08008KT 2100 BR BKN002 BKN003 12/11
                        Q1029 NOSIG=
201111122220 METAR COR EGLL 122220Z 09007KT 2100 BR BKN003 BKN004 12/11
                        Q1029 NOSIG=
201111122150 METAR COR EGLL 122150Z 10008KT 2100 BR BKN003 BKN004 12/11
                        Q1029 NOSIG=
201111122120 METAR COR EGLL 122120Z 09009KT 3200 BR BKN003 OVC004 13/12
                        Q1029 NOSIG=
201111122050 METAR COR EGLL 122050Z 10009KT 4600 BR BKN005 13/12 Q1029
                        TEMPO 2000 BKN003=
201111122020 METAR COR EGLL 122020Z 10010KT 5000 BR BKN005 13/12 Q1028
                        TEMPO 2500 BKN003=
201111121950 METAR COR EGLL 121950Z 11008KT 5000 BR SCT006 BKN007 13/12
                        Q1028 TEMPO 3500 BKN003=
201111121920 METAR COR EGLL 121920Z 09008KT 6000 SCT007 BKN008 14/12 Q1028
                        TEMPO 4000 BR BKN004=
201111121850 METAR COR EGLL 121850Z 11009KT 8000 BKN009 14/12 Q1028 NOSIG=
201111121820 METAR COR EGLL 121820Z 11009KT 9000 BKN012 14/12 Q1028 TEMPO
                        BKN008=
201111121750 METAR COR EGLL 121750Z 11008KT 9000 BKN013 14/12 Q1028 TEMPO
                        BKN008=
201111121720 METAR COR EGLL 121720Z 09007KT 9000 BKN017 14/12 Q1028 TEMPO
                        BKN008=
201111121650 METAR COR EGLL 121650Z 09008KT 9000 BKN019 14/12 Q1027 TEMPO
                        BKN008=
201111121620 METAR COR EGLL 121620Z 09007KT 9000 SCT028 14/12 Q1027 NOSIG=
201111121550 METAR COR EGLL 121550Z 09008KT 9999 SCT028 15/12 Q1027 NOSIG=
201111121520 METAR COR EGLL 121520Z 09008KT 9999 SCT021 15/12 Q1026 TEMPO
                        BKN014=
201111121450 METAR COR EGLL 121450Z 10007KT 9999 SCT020 15/12 Q1026 TEMPO
                        BKN014=
201111121420 METAR COR EGLL 121420Z 08005KT 9999 BKN020 15/12 Q1026 TEMPO
                        7000 BKN014=
201111121350 METAR COR EGLL 121350Z 07004KT 9999 FEW016 BKN020 16/12 Q1026
                        NOSIG=
201111121320 METAR COR EGLL 121320Z 17004KT 120V190 9999 FEW014 BKN018
                        16/12 Q1026 NOSIG=
201111121250 METAR COR EGLL 121250Z 11003KT 9999 SCT011 BKN016 16/13 Q1026
                        NOSIG=
201111121220 METAR COR EGLL 121220Z 16004KT 9999 SCT009 BKN014 16/13 Q1026
                        TEMPO SCT015=
201111121150 METAR COR EGLL 121150Z 15004KT 110V190 9000 FEW008 SCT009
                        BKN012 15/13 Q1026 NOSIG=
201111121120 METAR COR EGLL 121120Z 11004KT 5000 HZ SCT006 SCT008 14/13
                        Q1026 NOSIG=
201111121050 METAR COR EGLL 121050Z 11004KT 5000 HZ SCT004 15/13 Q1025
                        NOSIG=
201111121020 METAR COR EGLL 121020Z 13005KT 4900 HZ NSC 14/13 Q1025 BECMG
                        6000 NSW=
201111120950 METAR COR EGLL 120950Z 14004KT 4900 HZ NSC 13/13 Q1025 BECMG
                        6000 NSW=
201111120920 METAR COR EGLL 120920Z 16004KT 4000 BR FEW017 13/12 Q1025
                        BECMG 6000 NSW=
201111120850 METAR COR EGLL 120850Z 18002KT 4000 BR FEW017 13/12 Q1024
                        BECMG 6000 NSW=
201111120820 METAR COR EGLL 120820Z 13002KT 3000 BR FEW014 SCT017 12/12
                        Q1024 BECMG 6000 NSW=
201111120750 METAR COR EGLL 120750Z 13003KT 3000 BR FEW009 BKN016 12/12
                        Q1023 TEMPO 2000 BKN004=
201111120720 METAR COR EGLL 120720Z 11004KT 3000 BR FEW004 BKN010 OVC014
                        12/12 Q1023 TEMPO 2000 BKN004=
201111120650 METAR COR EGLL 120650Z 14002KT 2900 BR FEW004 BKN009 OVC012
                        12/12 Q1022 TEMPO BKN004=
201111120620 METAR COR EGLL 120620Z VRB03KT 3200 BR FEW003 BKN012 12/11
                        Q1022 TEMPO 1400 BKN003=
201111120550 METAR COR EGLL 120550Z 15002KT 3000 BR FEW003 BKN015 12/11
                        Q1021 TEMPO 1400 BKN003=
201111120520 METAR COR EGLL 120520Z 15003KT 3000 BR FEW005 BKN011 12/11
                        Q1021 TEMPO 1400 BKN003=
201111120450 METAR COR EGLL 120450Z 16004KT 3800 BR SCT005 12/12 Q1021
                        TEMPO BKN004=
201111120420 METAR COR EGLL 120420Z 17004KT 3800 BR SCT004 BKN006 12/12
                        Q1020 TEMPO BKN003=
201111120350 METAR COR EGLL 120350Z 15004KT 3200 BR BKN004 BKN008 12/12
                        Q1020 NOSIG=
201111120320 METAR COR EGLL 120320Z 15006KT 3200 -DZ BKN004 BKN008 12/12
                        Q1019 NOSIG=
201111120250 METAR COR EGLL 120250Z 15007KT 2900 BR SCT003 OVC009 12/12
                        Q1019 TEMPO 1200 OVC002=
201111120220 METAR EGLL 120220Z AUTO 16006KT 2200NDV -RA SCT003/// OVC010///
                        12/12 Q1019=
201111120150 METAR EGLL 120150Z AUTO 16008KT 2500NDV DZ FEW005/// OVC010///
                        12/11 Q1019=
201111120120 METAR EGLL 120120Z AUTO 15007KT 2600NDV HZ OVC011/// 12/11
                        Q1018=
201111120050 METAR COR EGLL 120050Z 16008KT 3500 BR FEW006 OVC013 12/11
                        Q1018 BECMG BKN006=
201111120020 METAR COR EGLL 120020Z 15007KT 3200 -DZ BKN006 BKN011 12/11
                        Q1018 TEMPO BKN004=
201111112350 METAR COR EGLL 112350Z 15006KT 4100 BR BKN008 BKN014 12/11
                        Q1018 RERA TEMPO 2500 BKN004=
201111112320 METAR COR EGLL 112320Z 16007KT 4100 -RA BKN008 BKN012 12/11
                        Q1017 TEMPO BKN004=
201111112250 METAR COR EGLL 112250Z 16010KT 3500 -RA BKN008 12/11 Q1017
                        TEMPO BKN004=
201111112220 METAR COR EGLL 112220Z 17011KT 5000 BR BKN008 12/11 Q1017
                        TEMPO 3500 BKN004=
201111112150 METAR COR EGLL 112150Z 15009KT 5000 BR SCT007 BKN008 12/10
                        Q1016 TEMPO 4000 BKN004=
201111112120 METAR COR EGLL 112120Z 16011KT 5000 BR BKN007 OVC008 12/10
                        Q1016 TEMPO 4000 RA BKN004=
201111112050 METAR COR EGLL 112050Z 15009KT 6000 OVC008 12/10 Q1016 NOSIG=
201111112020 METAR COR EGLL 112020Z 12008KT 6000 OVC008 12/10 Q1016 NOSIG=
201111111950 METAR COR EGLL 111950Z 11008KT 5000 BR OVC008 11/10 Q1016
                        TEMPO 4000=
201111111920 METAR COR EGLL 111920Z 12008KT 5000 BR SCT007 OVC008 11/10
                        Q1016 TEMPO 4000 BKN004=
201111111850 METAR COR EGLL 111850Z 12010KT 5000 BR SCT007 OVC008 11/10
                        Q1015 TEMPO 4000 BKN004=
201111111820 METAR COR EGLL 111820Z 14010KT 5000 BR BKN007 OVC008 11/10
                        Q1015 TEMPO 4000 BKN004=
201111111750 METAR COR EGLL 111750Z 12010KT 5000 BR BKN006 OVC007 11/10
                        Q1015 TEMPO 4000 BKN004=
201111111720 METAR COR EGLL 111720Z 13011KT 5000 BR BKN006 11/10 Q1015
                        TEMPO 4000 BKN004=
201111111650 METAR COR EGLL 111650Z 13009KT 5000 BR BKN005 11/10 Q1015
                        TEMPO 4000 BKN004=
201111111620 METAR COR EGLL 111620Z 11009KT 4500 BR BKN005 OVC006 11/10
                        Q1015 TEMPO 6000 BKN004=
201111111550 METAR COR EGLL 111550Z 11011KT 4000 BR BKN005 OVC006 11/10
                        Q1015 TEMPO 6000 BKN004=
201111111520 METAR COR EGLL 111520Z 12010KT 5000 BR BKN005 OVC007 11/10
                        Q1015 NOSIG=
201111111450 METAR COR EGLL 111450Z 13008KT 7000 BKN005 11/10 Q1015 NOSIG=
201111111420 METAR COR EGLL 111420Z 13009KT 7000 BKN005 11/10 Q1015 NOSIG=
201111111350 METAR COR EGLL 111350Z 12009KT 6000 SCT004 BKN005 11/10 Q1014
                        TEMPO BKN010=
201111111320 METAR COR EGLL 111320Z 10007KT 4500 BR FEW003 SCT004 BKN005
                        11/10 Q1015 TEMPO 5000=
201111111250 METAR COR EGLL 111250Z 10008KT 4100 HZ FEW003 BKN004 11/10
                        Q1015 TEMPO 5000 BKN008=
201111111220 METAR COR EGLL 111220Z 11008KT 4100 HZ FEW003 BKN004 11/10
                        Q1015 BECMG 6000 SCT004 BKN010=
201111111150 METAR COR EGLL 111150Z 12008KT 4100 BR BKN004 10/10 Q1016
                        TEMPO 5000 BKN008=
201111111120 METAR COR EGLL 111120Z 12008KT 4000 BR BKN004 10/10 Q1016
                        TEMPO 6000 BKN008=
201111111050 METAR COR EGLL 111050Z 11008KT 4000 BR BKN004 10/09 Q1016
                        TEMPO 5000 BKN008=
201111111020 METAR COR EGLL 111020Z 12010KT 3200 BR SCT003 BKN004 10/09
                        Q1016 TEMPO 5000 NSW BKN008=
201111110950 METAR COR EGLL 110950Z 12010KT 3200 BR FEW002 BKN004 10/09
                        Q1016 TEMPO 5000 NSW BKN008=
201111110920 METAR EGLL 110920Z 11008KT 2800 BR SCT003 BKN004 10/09 Q1016=
201111110850 METAR COR EGLL 110850Z 11008KT 1800 BR FEW002 SCT003 BKN004
                        10/09 Q1016 BECMG 4000 BKN006=
201111110820 METAR COR EGLL 110820Z 10006KT 1400 R09L/P1500 R09R/P1500
                        BR SCT001 BKN002 09/09 Q1016 BECMG
                        1800 BKN003=
201111110750 METAR COR EGLL 110750Z 09007KT 1200 R09L/P1500 R09R/P1500
                        BR SCT001 BKN002 09/09 Q1016 TEMPO
                        1500 BKN004=
201111110720 METAR COR EGLL 110720Z 10007KT 1200 R09L/P1500 R09R/P1500
                        BR BKN001 BKN002 09/09 Q1016 TEMPO
                        1500 BKN002=
201111110650 METAR COR EGLL 110650Z 10009KT 1200 R09L/P1500 R09R/P1500
                        BR BKN001 BKN002 09/09 Q1016 TEMPO
                        1500 BKN002=
201111110620 METAR COR EGLL 110620Z 11009KT 1100 R09L/P1500 R09R/P1500
                        BR OVC001 09/09 Q1016 TEMPO 1500
                        BKN002=
201111110550 METAR COR EGLL 110550Z 09009KT 1100 R09R/P1500 BR OVC001
                        09/08 Q1015 TEMPO 1500 BKN002=
201111110520 METAR COR EGLL 110520Z 10008KT 0800 R09R/1500 FG OVC001 09/08
                        Q1015 TEMPO 1500 BR BKN002=
201111110450 METAR COR EGLL 110450Z 12008KT 0900 R09R/1400 FG FEW001 BKN002
                        09/08 Q1016 TEMPO 0600 FG BKN001=
201111110420 METAR COR EGLL 110420Z 11005KT 3300 BR BKN003 08/08 Q1015
                        NOSIG=
201111110350 METAR COR EGLL 110350Z 10005KT 4000 BR FEW007 07/06 Q1016
                        TEMPO BKN007=
201111110320 METAR COR EGLL 110320Z VRB03KT 4500 BR FEW008 07/07 Q1016
                        TEMPO BKN008=
201111110250 METAR COR EGLL 110250Z 09006KT 6000 FEW008 07/06 Q1016 TEMPO
                        BKN008=
201111110220 METAR EGLL 110220Z AUTO 11004KT 5000NDV NCD 08/07 Q1016=
201111110150 METAR EGLL 110150Z AUTO 08006KT 4700NDV BR NCD 07/06 Q1016=
201111110120 METAR EGLL 110120Z AUTO 08004KT 5000NDV NCD 08/07 Q1016=
201111110050 METAR COR EGLL 110050Z 08005KT 7000 NSC 08/07 Q1016 NOSIG=
201111110020 METAR COR EGLL 110020Z 10003KT 8000 NSC 09/08 Q1016 NOSIG=
201111102350 METAR COR EGLL 102350Z 10004KT 7000 NSC 09/08 Q1016 NOSIG=
201111102320 METAR COR EGLL 102320Z 09007KT 7000 NSC 09/08 Q1016 NOSIG=
201111102250 METAR COR EGLL 102250Z 09007KT 7000 NSC 10/08 Q1016 NOSIG=
201111102220 METAR COR EGLL 102220Z 08009KT 8000 NSC 11/09 Q1016 NOSIG=
201111102150 METAR COR EGLL 102150Z 09008KT 7000 NSC 10/09 Q1017 NOSIG=
201111102120 METAR COR EGLL 102120Z 08006KT 7000 NSC 11/09 Q1017 NOSIG=
201111102050 METAR COR EGLL 102050Z 09006KT 7000 NSC 10/09 Q1017 NOSIG=
201111102020 METAR COR EGLL 102020Z 09007KT 7000 NSC 11/09 Q1017 NOSIG=
201111101950 METAR COR EGLL 101950Z 10009KT 6000 NSC 11/09 Q1017 NOSIG=
201111101920 METAR COR EGLL 101920Z 09009KT 7000 NSC 11/09 Q1017 NOSIG=
201111101850 METAR COR EGLL 101850Z 09008KT 7000 NSC 11/09 Q1017 NOSIG=
201111101820 METAR COR EGLL 101820Z 07005KT 8000 NSC 12/10 Q1017 NOSIG=
201111101750 METAR COR EGLL 101750Z 09005KT 8000 NSC 12/10 Q1016 NOSIG=
201111101720 METAR COR EGLL 101720Z 08007KT 7000 NSC 12/10 Q1016 NOSIG=
201111101650 METAR COR EGLL 101650Z 06008KT 7000 NSC 12/10 Q1016 NOSIG=
201111101620 METAR COR EGLL 101620Z 06006KT 7000 NSC 13/10 Q1016 NOSIG=
201111101550 METAR COR EGLL 101550Z 08005KT 8000 NSC 13/10 Q1017 NOSIG=
201111101520 METAR COR EGLL 101520Z 09006KT 8000 FEW020 14/11 Q1017 NOSIG=
201111101450 METAR COR EGLL 101450Z 09007KT 7000 NSC 14/11 Q1017 NOSIG=
201111101420 METAR COR EGLL 101420Z 08006KT 7000 NSC 14/11 Q1017 NOSIG=
201111101350 METAR COR EGLL 101350Z 07007KT 7000 FEW049 14/11 Q1017 NOSIG=
201111101320 METAR COR EGLL 101320Z 06006KT 7000 FEW030 14/11 Q1017 NOSIG=
201111101250 METAR COR EGLL 101250Z 07005KT 040V100 7000 NSC 14/11 Q1017
                        NOSIG=
201111101220 METAR COR EGLL 101220Z 09007KT 7000 NSC 14/11 Q1017 NOSIG=
201111101150 METAR COR EGLL 101150Z 10007KT 7000 NSC 14/11 Q1018 NOSIG=
201111101120 METAR COR EGLL 101120Z 08005KT 7000 NSC 14/11 Q1018 NOSIG=
201111101050 METAR COR EGLL 101050Z 09005KT 7000 FEW009 13/11 Q1018 NOSIG=
201111101020 METAR COR EGLL 101020Z 08005KT 6000 BKN007 12/11 Q1018 BECMG
                        FEW012=
201111100950 METAR COR EGLL 100950Z 10007KT 4500 BR BKN006 12/11 Q1018
                        BECMG 6000 NSW SCT008=
201111100920 METAR COR EGLL 100920Z 09005KT 3900 BR FEW004 BKN006 11/11
                        Q1018 BECMG 5000 SCT008=
201111100850 METAR COR EGLL 100850Z 10007KT 3400 BR BKN004 11/11 Q1018
                        BECMG 5000 SCT004 BKN007=
201111100820 METAR COR EGLL 100820Z 11005KT 2900 BR SCT004 10/10 Q1018
                        TEMPO BKN005=
201111100750 METAR COR EGLL 100750Z 09004KT 3500 BR FEW005 10/09 Q1018
                        BECMG 5000 BKN007=
201111100720 METAR COR EGLL 100720Z 08004KT 3500 BR BKN005 10/10 Q1018
                        TEMPO 6000 NSW SCT007=
201111100650 METAR COR EGLL 100650Z 07004KT 4800 BR BKN005 10/09 Q1017
                        TEMPO SCT003=
201111100620 METAR COR EGLL 100620Z 09004KT 4500 BR FEW005 BKN049 10/09
                        Q1017 TEMPO BKN005=
201111100550 METAR COR EGLL 100550Z 08002KT 4500 BR SCT047 10/09 Q1017
                        NOSIG=
201111100520 METAR COR EGLL 100520Z 12004KT 080V150 5000 BR SCT046 09/09
                        Q1017 TEMPO 3000=
201111100450 METAR COR EGLL 100450Z 11003KT 6000 NSC 10/09 Q1017 TEMPO
                        4000 BR=
201111100420 METAR COR EGLL 100420Z 09004KT 6000 NSC 09/09 Q1017 TEMPO
                        4000 BR=
201111100350 METAR COR EGLL 100350Z 06003KT 8000 NSC 10/09 Q1017 NOSIG=
201111100320 METAR COR EGLL 100320Z 08002KT 8000 NSC 10/09 Q1017 NOSIG=
201111100250 METAR COR EGLL 100250Z 08003KT 8000 NSC 10/09 Q1017 NOSIG=
201111100220 METAR EGLL 100220Z AUTO 05003KT 5000NDV NCD 10/09 Q1017=
201111100150 METAR EGLL 100150Z AUTO VRB03KT 7000NDV NCD 10/09 Q1017=
201111100120 METAR EGLL 100120Z AUTO 09003KT 8000NDV NCD 10/09 Q1017=
201111100050 METAR COR EGLL 100050Z 13005KT CAVOK 11/10 Q1017 NOSIG=
201111100020 METAR COR EGLL 100020Z 14007KT CAVOK 11/10 Q1017 NOSIG=
201111092350 METAR COR EGLL 092350Z 14005KT CAVOK 11/09 Q1017 NOSIG=
201111092320 METAR COR EGLL 092320Z 14007KT CAVOK 11/09 Q1017 NOSIG=
201111092250 METAR COR EGLL 092250Z 14008KT CAVOK 11/10 Q1017 NOSIG=
201111092220 METAR COR EGLL 092220Z 14008KT CAVOK 12/09 Q1017 NOSIG=
201111092150 METAR COR EGLL 092150Z 14007KT 9999 FEW040 12/10 Q1017 NOSIG=
201111092120 METAR COR EGLL 092120Z 14007KT CAVOK 12/10 Q1017 NOSIG=
201111092050 METAR COR EGLL 092050Z 14006KT 9999 FEW045 12/10 Q1017 NOSIG=
201111092020 METAR COR EGLL 092020Z 13006KT 9000 FEW046 11/10 Q1017 NOSIG=
201111091950 METAR COR EGLL 091950Z 13006KT 9999 FEW026 11/10 Q1017 NOSIG=
201111091920 METAR COR EGLL 091920Z 11007KT 9999 FEW019 11/10 Q1017 NOSIG=
201111091850 METAR COR EGLL 091850Z 11006KT 9999 FEW018 10/09 Q1017 NOSIG=
201111091820 METAR COR EGLL 091820Z 12007KT 9999 FEW018 11/09 Q1017 NOSIG=
201111091750 METAR COR EGLL 091750Z 13008KT 9999 FEW020 12/10 Q1016 NOSIG=
201111091720 METAR COR EGLL 091720Z 13008KT 9999 FEW020 12/10 Q1016 NOSIG=
201111091650 METAR COR EGLL 091650Z 14007KT 9999 FEW020 12/09 Q1016 NOSIG=
201111091620 METAR COR EGLL 091620Z 15008KT 9999 FEW020 13/10 Q1016 NOSIG=
201111091550 METAR COR EGLL 091550Z 15008KT 9999 FEW020 13/10 Q1016 NOSIG=
201111091520 METAR COR EGLL 091520Z 16010KT 9999 FEW020 14/09 Q1015 NOSIG=
201111091450 METAR COR EGLL 091450Z 17011KT 9999 FEW024 15/09 Q1015 NOSIG=
201111091420 METAR COR EGLL 091420Z 16010KT 9999 FEW018 SCT044 15/10 Q1015
                        NOSIG=
201111091350 METAR COR EGLL 091350Z 16009KT 9999 SCT016 BKN045 15/11 Q1015
                        NOSIG=
201111091320 METAR COR EGLL 091320Z 16009KT 9999 SCT016 BKN045 14/11 Q1015
                        NOSIG=
201111091250 METAR COR EGLL 091250Z 16009KT 9999 SCT015 BKN047 14/11 Q1015
                        NOSIG=
201111091220 METAR COR EGLL 091220Z 16008KT 9999 FEW018 BKN047 14/12 Q1015
                        NOSIG=
201111091150 METAR COR EGLL 091150Z 18009KT 9999 FEW018 BKN048 14/11 Q1015
                        NOSIG=
201111091120 METAR COR EGLL 091120Z 17009KT 9999 FEW015 BKN046 13/11 Q1015
                        NOSIG=
201111091050 METAR COR EGLL 091050Z 15009KT 9000 FEW011 BKN046 13/11 Q1015
                        NOSIG=
201111091020 METAR COR EGLL 091020Z 15007KT 9000 FEW011 SCT047 12/11 Q1015
                        NOSIG=
201111090950 METAR COR EGLL 090950Z 14006KT 7000 FEW011 SCT048 12/11 Q1015
                        NOSIG=
201111090920 METAR COR EGLL 090920Z 14003KT 7000 FEW014 12/11 Q1015 NOSIG=
201111090850 METAR COR EGLL 090850Z 17002KT 8000 FEW005 11/10 Q1015 NOSIG=
201111090820 METAR COR EGLL 090820Z VRB03KT 6000 FEW005 11/10 Q1015 TEMPO
                        BKN008=
201111090750 METAR COR EGLL 090750Z 12005KT 090V150 6000 FEW009 11/10
                        Q1015 NOSIG=
201111090720 METAR COR EGLL 090720Z 13005KT 6000 FEW009 10/10 Q1014 TEMPO
                        BKN008=
201111090650 METAR COR EGLL 090650Z 13005KT 6000 FEW012 10/10 Q1014 TEMPO
                        BKN008=
201111090620 METAR COR EGLL 090620Z 12005KT 6000 FEW002 SCT020 BKN044
                        10/10 Q1014 TEMPO 4000 BKN004=
201111090550 METAR COR EGLL 090550Z 14005KT 6000 FEW002 SCT040 10/10 Q1014
                        TEMPO 4000 BKN004=
201111090520 METAR COR EGLL 090520Z 13007KT 5000 BR FEW002 SCT012 BKN025
                        10/10 Q1014 TEMPO 4000 BKN004=
201111090450 METAR COR EGLL 090450Z 13007KT 5000 BR SCT002 SCT024 10/09
                        Q1014 TEMPO 3000 BKN004=
201111090420 METAR COR EGLL 090420Z 13007KT 5000 -DZ SCT002 SCT040 10/09
                        Q1013 TEMPO 3000 BKN004=
201111090350 METAR COR EGLL 090350Z 14006KT 2500 DZ BKN003 10/09 Q1013
                        TEMPO 4000 BKN007=
201111090320 METAR COR EGLL 090320Z 11005KT 2500 DZ BKN004 BKN012 10/09
                        Q1013 TEMPO BKN008=
201111090250 METAR COR EGLL 090250Z 11005KT 2500 DZ BKN007 BKN011 10/09
                        Q1013 TEMPO SCT007=
201111090220 METAR EGLL 090220Z AUTO 09004KT 5000NDV DZ BKN008/// OVC014///
                        10/09 Q1013=
201111090150 METAR EGLL 090150Z AUTO 10004KT 3700NDV DZ BKN008/// BKN016///
                        OVC021/// 10/09 Q1013=
201111090120 METAR EGLL 090120Z AUTO 09004KT 5000NDV SCT010/// SCT018///
                        OVC023/// 09/09 Q1014=
201111090050 METAR COR EGLL 090050Z 10004KT 7000 BKN025 09/08 Q1014 TEMPO
                        4000 BKN008=
201111090020 METAR COR EGLL 090020Z 12004KT 8000 BKN034 09/08 Q1014 TEMPO
                        4000 BKN008=
201111082350 METAR COR EGLL 082350Z 11004KT 8000 BKN033 BKN041 09/08 Q1014
                        TEMPO 4000 BKN008=
201111082320 METAR COR EGLL 082320Z 11004KT 9000 SCT028 BKN038 09/08 Q1014
                        TEMPO 4000 BKN008=
201111082250 METAR COR EGLL 082250Z 10004KT 9000 FEW026 BKN035 09/08 Q1014
                        TEMPO 4000 BKN008=
201111082220 METAR COR EGLL 082220Z 10004KT 9000 FEW010 BKN036 09/08 Q1014
                        TEMPO 4000 BKN008=
201111082150 METAR COR EGLL 082150Z 10005KT 9999 FEW010 BKN040 09/08 Q1014
                        TEMPO 4000 BKN008=
201111082120 METAR COR EGLL 082120Z 13005KT 9999 FEW016 BKN041 09/08 Q1014
                        TEMPO 4000 BKN008=
201111082050 METAR COR EGLL 082050Z 13005KT 9000 FEW020 BKN042 10/08 Q1014
                        TEMPO 4000 -RA BKN008=
201111082020 METAR COR EGLL 082020Z 14005KT 9000 FEW030 BKN044 10/08 Q1014
                        BECMG 4000 BKN012=
201111081950 METAR COR EGLL 081950Z 13006KT 8000 FEW010 BKN037 10/09 Q1014
                        BECMG 4000 BR=
201111081920 METAR COR EGLL 081920Z 12005KT 090V150 7000 FEW010 BKN045
                        10/09 Q1014 BECMG 4000 BR=
201111081850 METAR COR EGLL 081850Z 12004KT 6000 FEW037 BKN045 10/09 Q1014
                        BECMG 4000 BR=
201111081820 METAR COR EGLL 081820Z 14005KT 4000 BR FEW006 SCT030 10/09
                        Q1014 NOSIG=
201111081750 METAR COR EGLL 081750Z 11006KT 3200 -RADZ SCT005 BKN026 10/09
                        Q1014 TEMPO BKN005=
201111081720 METAR COR EGLL 081720Z 09005KT 3500 -DZ FEW008 BKN027 10/09
                        Q1014 NOSIG=
201111081650 METAR COR EGLL 081650Z 10005KT 2700 -DZ FEW008 SCT020 BKN027
                        10/09 Q1014 BECMG 5000=
201111081620 METAR COR EGLL 081620Z 09005KT 3000 BR FEW009 BKN020 BKN033
                        10/09 Q1013 TEMPO BKN008=
201111081550 METAR COR EGLL 081550Z 09005KT 4500 BR FEW020 BKN037 10/09
                        Q1013 NOSIG=
201111081520 METAR COR EGLL 081520Z 10005KT 4300 -RADZ FEW015 SCT026 BKN035
                        10/09 Q1013 BECMG 6000 NSW=
201111081450 METAR COR EGLL 081450Z 09006KT 4300 -RADZ SCT011 BKN016 10/09
                        Q1013 TEMPO BKN012=
201111081420 METAR COR EGLL 081420Z 11005KT 5000 BR FEW010 SCT020 BKN032
                        10/09 Q1014 NOSIG=
201111081350 METAR COR EGLL 081350Z 10007KT 7000 FEW012 BKN024 10/09 Q1014
                        NOSIG=
201111081320 METAR COR EGLL 081320Z 11005KT 8000 FEW011 BKN031 11/09 Q1014
                        NOSIG=
201111081250 METAR COR EGLL 081250Z 12007KT 8000 FEW010 BKN033 10/09 Q1014
                        NOSIG=
201111081220 METAR COR EGLL 081220Z 11006KT 8000 FEW012 BKN033 10/08 Q1014
                        NOSIG=
201111081150 METAR COR EGLL 081150Z 11007KT 8000 SCT024 BKN033 10/08 Q1014
                        NOSIG=
201111081120 METAR COR EGLL 081120Z 10006KT 6000 FEW009 BKN022 10/08 Q1015
                        NOSIG=
201111081050 METAR COR EGLL 081050Z 11006KT 6000 FEW008 SCT011 BKN025
                        10/08 Q1015 NOSIG=
201111081020 METAR COR EGLL 081020Z 10006KT 7000 FEW008 OVC029 09/08 Q1015
                        NOSIG=
201111080950 METAR COR EGLL 080950Z 11007KT 4000 -DZ FEW006 SCT008 BKN023
                        09/08 Q1015 TEMPO BKN008=
201111080920 METAR COR EGLL 080920Z 09008KT 3200 -DZ FEW006 BKN008 10/09
                        Q1015 NOSIG=
201111080850 METAR COR EGLL 080850Z 11009KT 080V150 3500 -DZ SCT008 BKN015
                        10/09 Q1015 TEMPO BKN008=
201111080820 METAR COR EGLL 080820Z 10007KT 2100 -DZ FEW007 SCT015 BKN024
                        10/09 Q1014 TEMPO BKN008=
201111080750 METAR COR EGLL 080750Z 10006KT 3500 BR FEW008 BKN022 10/09
                        Q1014 NOSIG=
201111080720 METAR EGLL 080720Z 10006KT 3500 BR FEW008 BKN022 10/09 Q1014=
201111080650 METAR EGLL 080650Z 09005KT 3500 BR FEW010 BKN018 10/09 Q1014=
201111080620 METAR COR EGLL 080620Z 09005KT 2600 HZ OVC018 10/09 Q1014
                        TEMPO BKN008=
201111080550 METAR COR EGLL 080550Z 09005KT 2200 HZ FEW008 BKN020 10/09
                        Q1015 TEMPO BKN008=
201111080520 METAR COR EGLL 080520Z 11005KT 1800 DZ SCT005 BKN020 10/09
                        Q1015 TEMPO BKN005=
201111080450 METAR COR EGLL 080450Z 11006KT 1800 DZ BKN005 BKN015 10/09
                        Q1015 TEMPO SCT005 BKN012=
201111080420 METAR COR EGLL 080420Z 11005KT 1800 DZ BKN005 BKN015 10/09
                        Q1015 TEMPO SCT005 BKN012=
201111080350 METAR EGLL 080350Z AUTO 11007KT 1800NDV DZ OVC006/// 10/09
                        Q1015=
201111080320 METAR COR EGLL 080320Z 10007KT 2200 HZ BKN007 10/09 Q1015
                        TEMPO BKN011=
201111080250 METAR COR EGLL 080250Z 10006KT 1800 -DZ BKN006 10/10 Q1015
                        TEMPO BKN011=
201111080220 METAR EGLL 080220Z AUTO 08006KT 1300NDV R09R/P1500 DZ OVC005///
                        11/10 Q1015=
201111080150 METAR EGLL 080150Z AUTO 07005KT 040V100 1900NDV -RA FEW009///
                        SCT012/// BKN015/// 11/10 Q1015=
201111080120 METAR EGLL 080120Z AUTO 06006KT 2200NDV DZ FEW008/// BKN015///
                        11/10 Q1015=
201111080050 METAR COR EGLL 080050Z 07005KT 2200 HZ SCT006 BKN012 OVC019
                        11/10 Q1015 TEMPO BKN008=
201111080020 METAR COR EGLL 080020Z 05005KT 010V080 2200 -DZ SCT008 BKN020
                        11/10 Q1016 TEMPO BKN008=
201111072350 METAR COR EGLL 072350Z 05005KT 020V080 2500 HZ FEW008 BKN020
                        11/10 Q1016 TEMPO BKN008=
201111072320 METAR COR EGLL 072320Z 05004KT 2200 -DZ SCT006 BKN009 11/10
                        Q1016 TEMPO BKN012=
201111072250 METAR COR EGLL 072250Z 05004KT 020V080 2200 -DZ SCT006 BKN011
                        11/10 Q1016 TEMPO BKN006=
201111072220 METAR COR EGLL 072220Z 05005KT 2500 BR FEW006 BKN007 11/10
                        Q1017 TEMPO BKN012=
201111072150 METAR COR EGLL 072150Z 05004KT 010V090 3200 BR FEW007 BKN008
                        11/10 Q1017 TEMPO BKN012=
201111072120 METAR COR EGLL 072120Z 05005KT 020V090 3200 BR SCT008 BKN011
                        11/10 Q1017 TEMPO BKN008=
201111072050 METAR COR EGLL 072050Z 05006KT 010V070 2900 BR FEW006 BKN008
                        11/10 Q1017 NOSIG=
201111072020 METAR COR EGLL 072020Z 06006KT 3000 HZ BKN008 11/10 Q1017
                        NOSIG=
201111071950 METAR COR EGLL 071950Z 05005KT 3500 HZ FEW007 BKN010 11/10
                        Q1017 TEMPO BKN007=
201111071920 METAR COR EGLL 071920Z 06007KT 4000 HZ FEW007 BKN011 11/10
                        Q1018 TEMPO BKN007=
201111071850 METAR COR EGLL 071850Z 05007KT 020V080 4500 HZ FEW009 BKN012
                        12/10 Q1018 NOSIG=
201111071820 METAR COR EGLL 071820Z 05007KT 010V090 4900 HZ BKN015 12/09
                        Q1018 BECMG BKN012=
201111071750 METAR COR EGLL 071750Z 04007KT 5000 HZ BKN018 12/09 Q1018
                        BECMG BKN012=
201111071720 METAR COR EGLL 071720Z 05007KT 010V080 6000 BKN020 12/09
                        Q1018 NOSIG=
201111071650 METAR COR EGLL 071650Z 04007KT 360V080 6000 FEW015 BKN025
                        12/09 Q1018 NOSIG=
201111071620 METAR COR EGLL 071620Z 05008KT 360V080 6000 FEW014 BKN017
                        12/09 Q1019 NOSIG=
201111071550 METAR COR EGLL 071550Z 04007KT 360V070 7000 FEW015 BKN024
                        12/09 Q1019 NOSIG=
201111071520 METAR COR EGLL 071520Z 05007KT 020V080 7000 FEW016 BKN028
                        12/09 Q1019 NOSIG=
201111071450 METAR COR EGLL 071450Z 05008KT 6000 SCT014 BKN016 12/10 Q1019
                        NOSIG=
201111071420 METAR COR EGLL 071420Z 05008KT 010V090 6000 FEW016 BKN019
                        13/09 Q1020 NOSIG=
201111071350 METAR COR EGLL 071350Z 04008KT 010V070 6000 FEW018 BKN024
                        13/10 Q1020 NOSIG=
201111071320 METAR COR EGLL 071320Z 05008KT 6000 FEW014 BKN018 13/10 Q1020
                        NOSIG=
201111071250 METAR COR EGLL 071250Z 05007KT 010V080 6000 FEW012 BKN030
                        13/10 Q1020 TEMPO BKN012=
201111071220 METAR COR EGLL 071220Z 04007KT 010V090 5000 HZ BKN012 BKN027
                        12/10 Q1021 NOSIG=
201111071150 METAR COR EGLL 071150Z 03007KT 350V070 6000 BKN011 12/10
                        Q1021 NOSIG=
201111071120 METAR COR EGLL 071120Z 03007KT 5000 HZ BKN010 12/10 Q1022
                        NOSIG=
201111071050 METAR COR EGLL 071050Z 03007KT 340V050 5000 HZ BKN010 12/10
                        Q1022 TEMPO BKN008=
201111071020 METAR COR EGLL 071020Z 02007KT 350V050 5000 HZ BKN008 BKN029
                        12/10 Q1022 NOSIG=
201111070950 METAR COR EGLL 070950Z 02006KT 340V050 6000 BKN008 11/09
                        Q1022 BECMG BKN011=
201111070920 METAR COR EGLL 070920Z 02006KT 350V060 6000 BKN008 11/09
                        Q1022 BECMG BKN011=
201111070850 METAR COR EGLL 070850Z 02007KT 350V050 7000 SCT008 BKN011
                        11/09 Q1023 TEMPO BKN008=
201111070820 METAR COR EGLL 070820Z 02007KT 350V050 7000 FEW008 BKN010
                        11/09 Q1023 NOSIG=
201111070750 METAR COR EGLL 070750Z 02006KT 350V050 6000 SCT008 BKN011
                        10/09 Q1023 NOSIG=
201111070720 METAR COR EGLL 070720Z 01007KT 350V050 6000 FEW009 SCT010
                        BKN030 10/09 Q1023 TEMPO BKN010=
201111070650 METAR COR EGLL 070650Z 01007KT 340V040 6000 SCT008 BKN010
                        10/09 Q1023 NOSIG=
201111070620 METAR COR EGLL 070620Z 01006KT 340V050 4000 -DZ BKN008 10/09
                        Q1023 TEMPO 6000 NSW SCT008 BKN012=
201111070550 METAR COR EGLL 070550Z 01007KT 330V040 8000 SCT010 SCT030
                        10/08 Q1023 BECMG BKN010=
201111070520 METAR COR EGLL 070520Z 02006KT 340V070 9000 SCT010 OVC026
                        10/08 Q1023 BECMG BKN010=
201111070450 METAR COR EGLL 070450Z 01007KT 340V050 9999 FEW010 OVC022
                        10/08 Q1023 BECMG BKN010=
201111070420 METAR COR EGLL 070420Z 36008KT 330V040 9999 BKN022 10/08
                        Q1023 BECMG BKN012=
201111070350 METAR COR EGLL 070350Z 36007KT 340V050 9999 BKN023 10/08
                        Q1023 BECMG BKN012=
201111070320 METAR COR EGLL 070320Z 36007KT 320V030 9999 BKN010 10/08
                        Q1024 TEMPO 4500 -DZ BKN007=
201111070250 METAR COR EGLL 070250Z 01005KT 330V040 6000 BKN010 10/08
                        Q1024 TEMPO 4000 -DZ BKN007=
201111070220 METAR EGLL 070220Z AUTO 01006KT 330V050 9999NDV BKN011///
                        10/08 Q1024=
201111070150 METAR EGLL 070150Z AUTO 01006KT 340V050 9000NDV BKN012///
                        BKN021/// 10/08 Q1024=
201111070120 METAR EGLL 070120Z AUTO 01006KT 340V060 9999NDV SCT014///
                        OVC021/// 10/07 Q1024=
201111070050 METAR COR EGLL 070050Z 01006KT 340V040 9999 FEW015 OVC025
                        10/07 Q1024 BECMG BKN014=
201111070020 METAR COR EGLL 070020Z 36007KT 340V040 9999 OVC026 10/07
                        Q1024 BECMG BKN014=
201111062350 METAR COR EGLL 062350Z 01006KT 330V040 9999 FEW018 BKN026
                        10/07 Q1025 BECMG BKN014=
201111062320 METAR COR EGLL 062320Z 01006KT 340V060 9999 FEW019 BKN027
                        10/06 Q1025 BECMG BKN014=
201111062250 METAR COR EGLL 062250Z 01006KT 9999 BKN025 10/06 Q1025 NOSIG=
201111062220 METAR COR EGLL 062220Z 01006KT 330V050 9999 BKN021 11/06
                        Q1026 NOSIG=
201111062150 METAR COR EGLL 062150Z 02007KT 340V070 9999 BKN020 11/06
                        Q1026 NOSIG=
201111062120 METAR COR EGLL 062120Z 02007KT 330V050 9999 BKN021 11/06
                        Q1026 NOSIG=
201111062050 METAR COR EGLL 062050Z 02008KT 350V050 9999 BKN022 11/06
                        Q1025 NOSIG=
201111062020 METAR COR EGLL 062020Z 03006KT 350V060 9999 BKN021 11/07
                        Q1025 NOSIG=
201111061950 METAR COR EGLL 061950Z 03006KT 340V060 9999 BKN021 11/06
                        Q1025 NOSIG=
201111061920 METAR EGLL 061920Z 03007KT 360V060 9999 BKN023 11/06 Q1025=
201111061850 METAR COR EGLL 061850Z 02008KT 350V050 9999 BKN023 11/06
                        Q1025 NOSIG=
201111061820 METAR COR EGLL 061820Z 03008KT 350V060 9999 BKN025 11/06
                        Q1025 NOSIG=
201111061750 METAR COR EGLL 061750Z 02008KT 340V060 9999 BKN026 11/06
                        Q1025 NOSIG=
201111061720 METAR COR EGLL 061720Z 03010KT 350V060 9999 BKN028 11/06
                        Q1024 NOSIG=
201111061650 METAR COR EGLL 061650Z 03009KT 9999 BKN023 11/06 Q1024 NOSIG=
201111061620 METAR COR EGLL 061620Z 01006KT 340V050 9999 BKN023 11/07
                        Q1024 NOSIG=
201111061550 METAR COR EGLL 061550Z 01006KT 340V060 9999 BKN023 11/07
                        Q1024 NOSIG=
201111061520 METAR COR EGLL 061520Z 02008KT 340V050 9999 BKN024 12/07
                        Q1024 NOSIG=
201111061450 METAR COR EGLL 061450Z 03008KT 280V060 9999 BKN023 12/06
                        Q1024 NOSIG=
201111061420 METAR COR EGLL 061420Z 02008KT 330V070 9999 BKN023 12/07
                        Q1023 NOSIG=
201111061350 METAR COR EGLL 061350Z 01008KT 9999 BKN022 12/07 Q1023 NOSIG=
201111061320 METAR EGLL 061320Z 02008KT 340V060 9999 BKN020 12/07 Q1023=
201111061250 METAR COR EGLL 061250Z 01009KT 340V060 9999 BKN020 12/07
                        Q1023 NOSIG=
201111061220 METAR COR EGLL 061220Z 01008KT 340V040 9999 BKN019 11/07
                        Q1023 NOSIG=
201111061150 METAR COR EGLL 061150Z 01007KT 340V060 9999 FEW019 BKN021
                        11/07 Q1023 NOSIG=
201111061120 METAR COR EGLL 061120Z 36007KT 320V050 9999 SCT017 BKN024
                        11/07 Q1023 NOSIG=
201111061050 METAR COR EGLL 061050Z 36008KT 330V050 9999 SCT016 OVC022
                        11/07 Q1023 NOSIG=
201111061020 METAR COR EGLL 061020Z 36008KT 9999 FEW016 BKN021 10/07 Q1023
                        NOSIG=
201111060950 METAR COR EGLL 060950Z 36008KT 9999 FEW016 BKN022 10/07 Q1023
                        NOSIG=
201111060920 METAR COR EGLL 060920Z 36007KT 9999 FEW017 BKN022 10/07 Q1023
                        NOSIG=
201111060850 METAR COR EGLL 060850Z 01006KT 340V040 9999 FEW015 BKN021
                        10/06 Q1023 NOSIG=
201111060820 METAR COR EGLL 060820Z 35006KT 320V030 9999 FEW015 BKN022
                        09/06 Q1022 NOSIG=
201111060750 METAR COR EGLL 060750Z 36005KT 320V020 9000 FEW015 BKN019
                        09/06 Q1022 NOSIG=
201111060720 METAR COR EGLL 060720Z 36004KT 320V040 8000 FEW013 BKN015
                        09/06 Q1022 TEMPO BKN012=
201111060650 METAR COR EGLL 060650Z 01005KT 330V060 7000 BKN020 09/06
                        Q1021 NOSIG=
201111060620 METAR COR EGLL 060620Z 36007KT 330V040 7000 BKN017 09/06
                        Q1021 TEMPO BKN014=
201111060550 METAR COR EGLL 060550Z 36006KT 320V030 7000 BKN018 09/06
                        Q1020 TEMPO 4500 HZ BKN014=
201111060520 METAR COR EGLL 060520Z 36005KT 310V040 7000 OVC015 09/06
                        Q1020 TEMPO BKN012=
201111060450 METAR COR EGLL 060450Z 36006KT 310V050 7000 BKN015 08/06
                        Q1019 TEMPO BKN013=
201111060420 METAR COR EGLL 060420Z 36005KT 330V050 7000 FEW015 08/06
                        Q1019 TEMPO 4000 HZ=
201111060350 METAR COR EGLL 060350Z 35005KT 320V030 8000 FEW028 09/06
                        Q1019 TEMPO 4000 HZ=
201111060320 METAR COR EGLL 060320Z 35006KT 320V020 9000 SCT027 09/06
                        Q1019 TEMPO 4000 HZ=
201111060250 METAR COR EGLL 060250Z 35005KT 310V020 9000 FEW019 09/06
                        Q1019 TEMPO 4000 HZ=
201111060220 METAR EGLL 060220Z AUTO 35005KT 320V030 9999NDV SCT017///
                        BKN021/// 10/07 Q1018=
201111060150 METAR EGLL 060150Z AUTO 36005KT 9999NDV OVC017/// OVC022///
                        10/07 Q1018=
201111060120 METAR EGLL 060120Z AUTO 36007KT 9999NDV OVC014/// 10/08 Q1017=
201111060050 METAR COR EGLL 060050Z 36007KT 320V040 9000 BKN013 11/08
                        Q1017 TEMPO SCT013 BKN020=
201111060020 METAR COR EGLL 060020Z 36007KT 8000 BKN013 11/08 Q1017 TEMPO
                        SCT012 BKN018=
201111052350 METAR COR EGLL 052350Z 36008KT 340V040 9000 BKN013 11/08
                        Q1017 TEMPO SCT014 BKN020=
201111052320 METAR COR EGLL 052320Z 36007KT 320V030 7000 BKN011 11/09
                        Q1016 BECMG SCT012 BKN018=
201111052250 METAR COR EGLL 052250Z 36008KT 320V030 5000 HZ OVC008 11/09
                        Q1016 BECMG SCT008 BKN012=
201111052220 METAR COR EGLL 052220Z 36008KT 5000 HZ OVC007 11/09 Q1016
                        NOSIG=
201111052150 METAR COR EGLL 052150Z 36008KT 320V030 5000 HZ BKN006 12/09
                        Q1015 TEMPO 3500=
201111052120 METAR COR EGLL 052120Z 35007KT 300V020 5000 HZ BKN006 12/10
                        Q1015 TEMPO 3500=
201111052050 METAR COR EGLL 052050Z 35006KT 320V020 5000 HZ SCT006 BKN007
                        12/10 Q1014 TEMPO 3500=
201111052020 METAR COR EGLL 052020Z 34007KT 300V020 5000 HZ BKN007 12/10
                        Q1014 TEMPO 4000 SCT005 BKN010=
201111051950 METAR COR EGLL 051950Z 34006KT 300V020 5000 HZ SCT007 BKN009
                        12/10 Q1014 TEMPO 4000=
201111051920 METAR COR EGLL 051920Z 35006KT 310V020 5000 HZ FEW007 BKN009
                        12/10 Q1013 TEMPO 4000=
201111051850 METAR COR EGLL 051850Z 34006KT 290V020 5000 HZ FEW007 BKN009
                        BKN015 13/10 Q1013 TEMPO 4000 SCT009
                        BKN018=
201111051820 METAR COR EGLL 051820Z 35005KT 320V020 5000 HZ BKN009 13/10
                        Q1012 NOSIG=
201111051750 METAR EGLL 051750Z 34007KT 300V020 5000 HZ FEW008 BKN009
                        13/11 Q1011=
201111051720 METAR COR EGLL 051720Z 33008KT 300V010 6000 BKN012 13/11
                        Q1011 TEMPO BKN008=
201111051650 METAR COR EGLL 051650Z 33008KT 300V360 6000 BKN013 BKN016
                        14/11 Q1010 NOSIG=
201111051620 METAR COR EGLL 051620Z 34005KT 300V020 6000 BKN012 BKN019
                        14/11 Q1010 NOSIG=
201111051550 METAR COR EGLL 051550Z 33007KT 7000 BKN013 BKN018 14/11 Q1010
                        NOSIG=
201111051520 METAR COR EGLL 051520Z 33006KT 300V040 9000 BKN014 15/11
                        Q1009 NOSIG=
201111051450 METAR COR EGLL 051450Z 34005KT 300V030 9999 BKN012 14/11
                        Q1009 NOSIG=
201111051420 METAR COR EGLL 051420Z 34005KT 300V030 8000 BKN012 14/11
                        Q1008 NOSIG=
201111051350 METAR COR EGLL 051350Z 35007KT 330V030 8000 BKN011 14/11
                        Q1008 NOSIG=
201111051320 METAR COR EGLL 051320Z 36007KT 320V030 8000 BKN009 14/11
                        Q1007 TEMPO BKN012=
201111051250 METAR COR EGLL 051250Z 35006KT 320V040 8000 FEW008 BKN010
                        14/11 Q1007 NOSIG=
201111051220 METAR COR EGLL 051220Z 35007KT 320V030 9999 BKN010 14/11
                        Q1007 NOSIG=
201111051150 METAR COR EGLL 051150Z 35007KT 9999 FEW009 BKN010 14/11 Q1007
                        NOSIG=
201111051120 METAR COR EGLL 051120Z 35005KT 310V020 9999 FEW009 BKN010
                        13/11 Q1006 NOSIG=
201111051050 METAR COR EGLL 051050Z 35005KT 320V040 9000 BKN008 13/11
                        Q1007 BECMG BKN014=
201111051020 METAR COR EGLL 051020Z 35006KT 320V030 8000 OVC007 13/11
                        Q1006 BECMG BKN014=
201111050950 METAR COR EGLL 050950Z 33006KT 310V020 6000 FEW006 BKN007
                        12/11 Q1006 BECMG BKN012=
201111050920 METAR COR EGLL 050920Z 35005KT 290V020 4000 BR FEW003 BKN004
                        12/11 Q1006 BECMG 5000 BKN005=
201111050850 METAR COR EGLL 050850Z 36005KT 3000 BR SCT002 BKN003 11/11
                        Q1006 BECMG 5000 BKN005=
201111050820 METAR COR EGLL 050820Z 36004KT 310V030 2500 BR BKN003 11/11
                        Q1005 BECMG 4000 BR BKN005=
201111050750 METAR COR EGLL 050750Z 34003KT 0900 R27L/P1500 R27R/1500
                        FG BKN001 11/10 Q1005 BECMG 4000
                        BR BKN004=
201111050720 METAR COR EGLL 050720Z 35004KT 310V020 1500 BR SCT001 BKN002
                        11/10 Q1005 TEMPO 0400 FG=
201111050650 METAR COR EGLL 050650Z 34004KT 310V020 1400 BR SCT001 BKN002
                        11/10 Q1004 TEMPO 0700 FG BKN001=
201111050620 METAR COR EGLL 050620Z 33004KT 300V010 1600 BR SCT001 BKN002
                        11/10 Q1004 TEMPO 3000 SCT002 BKN004=
201111050550 METAR COR EGLL 050550Z VRB03KT 1200 R27R/P1500 BR SCT001
                        BKN004 11/10 Q1004 TEMPO 0500 FG
                        BKN001=
201111050520 METAR COR EGLL 050520Z 36003KT 1100 R27R/P1500 BR SCT001
                        BKN002 11/10 Q1004 TEMPO 0400 FG
                        BKN001=
201111050450 METAR COR EGLL 050450Z 35003KT 2100 BR SCT002 BKN004 11/10
                        Q1003 TEMPO 0400 FG BKN001=
201111050420 METAR COR EGLL 050420Z VRB03KT 2000 BR SCT002 BKN003 10/10
                        Q1003 TEMPO 1200 BKN001=
201111050350 METAR COR EGLL 050350Z VRB02KT 2000 BR SCT002 BKN003 10/10
                        Q1003 TEMPO 1200 BKN001=
201111050320 METAR COR EGLL 050320Z VRB02KT 1100 R27R/P1500 BCFG SCT001
                        BKN003 09/09 Q1002 TEMPO 0400 FG
                        BKN001=
201111050250 METAR COR EGLL 050250Z 35002KT 3800 BR NSC 10/09 Q1002 TEMPO
                        0800 FG SCT001 BKN003=
201111050220 METAR EGLL 050220Z AUTO 00000KT 0300NDV R27R/0500 FG NCD
                        10/09 Q1002=
201111050150 METAR EGLL 050150Z AUTO 34002KT 0500NDV BCFG NCD 10/10 Q1002=
201111050120 METAR EGLL 050120Z AUTO VRB02KT 0350NDV FG NCD 10/09 Q1002=
201111050050 METAR COR EGLL 050050Z 14004KT 8000 NSC 11/10 Q1002 NOSIG=
201111050020 METAR COR EGLL 050020Z 14005KT CAVOK 10/10 Q1002 NOSIG=
201111042350 METAR COR EGLL 042350Z 13006KT CAVOK 10/10 Q1002 NOSIG=
201111042320 METAR COR EGLL 042320Z 15004KT CAVOK 11/10 Q1001 NOSIG=
201111042250 METAR COR EGLL 042250Z 14004KT 9999 FEW015 11/10 Q1001 NOSIG=
201111042220 METAR COR EGLL 042220Z 15004KT 9999 FEW019 12/11 Q1001 NOSIG=
201111042150 METAR COR EGLL 042150Z 16007KT 9999 FEW019CB 12/11 Q1001
                        NOSIG=
201111042120 METAR COR EGLL 042120Z 15008KT 9999 -SHRA SCT040CB 13/11
                        Q1001 TEMPO SHRA BKN014=
201111042050 METAR COR EGLL 042050Z 15006KT 8000 SCT036CB 12/11 Q1001
                        TEMPO BKN014=
201111042020 METAR COR EGLL 042020Z 14006KT 6000 -DZ SCT017 SCT027 13/11
                        Q1000 NOSIG=
201111041950 METAR COR EGLL 041950Z 15004KT 7000 -DZ SCT018 SCT023 12/11
                        Q1000 NOSIG=
201111041920 METAR COR EGLL 041920Z 17006KT 9999 SCT020 12/11 Q0999 NOSIG=
201111041850 METAR EGLL 041850Z 17005KT 9999 FEW015 13/11 Q1000=
201111041820 METAR COR EGLL 041820Z 15007KT 9999 FEW017 SCT024 13/11 Q0999
                        NOSIG=
201111041750 METAR COR EGLL 041750Z 15008KT 9999 FEW025 13/11 Q0998 NOSIG=
201111041720 METAR COR EGLL 041720Z 15007KT 9999 FEW020 SCT035 13/11 Q0998
                        NOSIG=
201111041650 METAR COR EGLL 041650Z 15007KT 9999 SCT019 SCT032 14/11 Q0998
                        NOSIG=
201111041620 METAR COR EGLL 041620Z 17007KT 090V230 9999 FEW019 SCT032
                        14/11 Q0998 NOSIG=
201111041550 METAR COR EGLL 041550Z 18009KT 150V220 9999 FEW018 SCT029
                        14/11 Q0998 NOSIG=
201111041520 METAR COR EGLL 041520Z 17009KT 130V240 9999 BKN023 14/11
                        Q0997 NOSIG=
201111041450 METAR COR EGLL 041450Z 17011KT 130V220 9999 FEW015 SCT019
                        14/11 Q0997 NOSIG=
201111041420 METAR COR EGLL 041420Z 20009KT 150V240 9999 BKN015 15/11
                        Q0997 TEMPO BKN014=
201111041350 METAR COR EGLL 041350Z 18012KT 150V230 9999 VCSH FEW015 SCT045
                        15/11 Q0996 TEMPO SHRA BKN014=
201111041320 METAR COR EGLL 041320Z 18010KT 140V250 9999 SCT022 SCT030
                        15/12 Q0996 TEMPO SHRA BKN014=
201111041250 METAR COR EGLL 041250Z 19010KT 170V240 9999 SCT020 16/12
                        Q0996 TEMPO SHRA BKN014=
201111041220 METAR COR EGLL 041220Z 19011KT 150V230 9999 SCT020 15/11
                        Q0996 TEMPO SHRA BKN014=
201111041150 METAR COR EGLL 041150Z 19010KT 150V230 9999 SCT016 16/12
                        Q0995 NOSIG=
201111041120 METAR COR EGLL 041120Z 20010G20KT 170V240 9999 FEW012 SCT025
                        16/12 Q0995 NOSIG=
201111041050 METAR COR EGLL 041050Z 20009KT 150V250 9999 SCT010 SCT025
                        15/12 Q0995 NOSIG=
201111041020 METAR COR EGLL 041020Z 20007KT 140V250 9999 SCT008 14/12
                        Q0995 NOSIG=
201111040950 METAR COR EGLL 040950Z 19008KT 160V250 9999 FEW047 13/12
                        Q0995 NOSIG=
201111040920 METAR COR EGLL 040920Z 20008KT 160V250 9000 -RA FEW033 SCT044
                        13/12 Q0995 RERA NOSIG=
201111040850 METAR COR EGLL 040850Z 19007KT 160V240 9999 -RA FEW014 13/12
                        Q0994 RERA NOSIG=
201111040820 METAR COR EGLL 040820Z 17006KT 150V220 9999 -RA FEW020 12/12
                        Q0994 RERA NOSIG=
201111040750 METAR COR EGLL 040750Z 17006KT 140V240 8000 RA FEW043 SCT049
                        12/11 Q0993 BECMG NSW=
201111040720 METAR COR EGLL 040720Z 18006KT 150V230 9000 -RA FEW030 12/11
                        Q0993 RERA NOSIG=
201111040650 METAR COR EGLL 040650Z 19006KT 170V250 9000 RA SCT015 12/11
                        Q0992 BECMG NSW=
201111040620 METAR COR EGLL 040620Z 19007KT 150V260 9999 RA FEW013 12/11
                        Q0992 BECMG NSW=
201111040550 METAR COR EGLL 040550Z 19008KT 9999 RA FEW010 12/11 Q0992
                        BECMG NSW=
201111040520 METAR COR EGLL 040520Z 22008KT 6000 RA FEW010 12/11 Q0991
                        TEMPO BKN010=
201111040450 METAR COR EGLL 040450Z 25005KT 210V270 9999 RA FEW010 12/11
                        Q0990 TEMPO BKN009=
201111040420 METAR COR EGLL 040420Z 20003KT 9999 -RA NSC 12/12 Q0990 TEMPO
                        RA BKN012=
201111040350 METAR COR EGLL 040350Z 17003KT 9999 -RA NSC 12/11 Q0989 NOSIG=
201111040320 METAR COR EGLL 040320Z 25002KT 9999 -RA NSC 13/11 Q0990 RERA
                        TEMPO RA BKN012=
201111040250 METAR COR EGLL 040250Z 24008KT 9999 RA NSC 13/12 Q0990 TEMPO
                        BKN009=
201111040220 METAR EGLL 040220Z AUTO 24008KT 9000NDV RA SCT034/// SCT043///
                        13/12 Q0990=
201111040150 METAR EGLL 040150Z AUTO 20004KT 6000NDV -RA FEW025/// SCT030///
                        13/13 Q0990 RERA=
201111040120 METAR EGLL 040120Z AUTO VRB03KT 3200NDV RA FEW026/// BKN033///
                        13/13 Q0990 RERA=
201111040050 METAR COR EGLL 040050Z 09004KT 5000 RA SCT010 BKN014 13/12
                        Q0991 TEMPO 3000 +RA BKN007=
201111040020 METAR COR EGLL 040020Z 09004KT 6000 RA SCT010 BKN015 13/12
                        Q0990 TEMPO BKN009=
201111032350 METAR COR EGLL 032350Z 09005KT 8000 -RA FEW010 13/12 Q0990
                        TEMPO RA BKN009=
201111032320 METAR COR EGLL 032320Z 08005KT 040V110 9000 -RA FEW010 13/12
                        Q0991 TEMPO RA BKN009=
201111032250 METAR COR EGLL 032250Z 09005KT 9999 -RA NSC 12/11 Q0991 TEMPO
                        7000 RA BKN009=
201111032220 METAR COR EGLL 032220Z 07004KT 9999 FEW028 13/11 Q0992 TEMPO
                        7000 RA BKN009=
201111032150 METAR COR EGLL 032150Z 05004KT 9999 FEW030 13/11 Q0992 NOSIG=
201111032120 METAR COR EGLL 032120Z 08004KT 030V120 CAVOK 12/11 Q0992
                        NOSIG=
201111032050 METAR COR EGLL 032050Z 12005KT CAVOK 12/11 Q0992 NOSIG=
201111032020 METAR COR EGLL 032020Z 10004KT CAVOK 12/11 Q0993 NOSIG=
201111031950 METAR COR EGLL 031950Z 14005KT CAVOK 13/11 Q0993 NOSIG=
201111031920 METAR COR EGLL 031920Z 16005KT 140V200 9999 FEW012 13/12
                        Q0992 NOSIG=
201111031850 METAR COR EGLL 031850Z 16005KT 9999 FEW012 13/12 Q0992 NOSIG=
201111031820 METAR COR EGLL 031820Z 15007KT CAVOK 15/13 Q0992 TEMPO BKN012=
201111031750 METAR COR EGLL 031750Z 16008KT CAVOK 14/13 Q0992 NOSIG=
201111031720 METAR COR EGLL 031720Z 16008KT 9999 -RA FEW025 15/13 Q0992
                        NOSIG=
201111031650 METAR COR EGLL 031650Z 15009KT 9000 -SHRA FEW020 SCT060CB
                        15/13 Q0992 RERA TEMPO 4000 RA BKN014=
201111031620 METAR COR EGLL 031620Z 17011KT 7000 SHRA FEW020 BKN065CB
                        16/13 Q0992 TEMPO 4000 +RA BKN014=
201111031550 METAR COR EGLL 031550Z 16009KT 9999 -RA SCT020 16/13 Q0992
                        TEMPO 4000 +RA BKN014 BKN025CB=
201111031520 METAR COR EGLL 031520Z 17010KT 140V200 9999 FEW022 17/13
                        Q0992 TEMPO RA BKN014=
201111031450 METAR COR EGLL 031450Z 17012KT 9999 BKN021 17/13 Q0992 TEMPO
                        RA BKN014=
201111031420 METAR COR EGLL 031420Z 17011KT 9999 FEW022 BKN028 18/13 Q0992
                        TEMPO RA=
201111031350 METAR COR EGLL 031350Z 17011KT 9999 FEW021 SCT036 17/13 Q0992
                        NOSIG=
201111031320 METAR COR EGLL 031320Z 17012KT 9999 BKN023 17/13 Q0992 NOSIG=
201111031250 METAR COR EGLL 031250Z 17014KT 9999 BKN022 17/13 Q0992 NOSIG=
201111031220 METAR COR EGLL 031220Z 17013KT 9999 BKN019 17/13 Q0992 NOSIG=
201111031150 METAR COR EGLL 031150Z 16012KT 9999 BKN017 16/13 Q0992 TEMPO
                        SHRA BKN014=
201111031120 METAR COR EGLL 031120Z 16012KT 9999 BKN016 16/14 Q0993 TEMPO
                        SHRA BKN014=
201111031050 METAR COR EGLL 031050Z 15012KT 9999 BKN014 17/14 Q0993 TEMPO
                        SCT016 BKN030=
201111031020 METAR COR EGLL 031020Z 15012KT 9999 SCT013 SCT024 16/14 Q0993
                        TEMPO BKN012=
201111030950 METAR COR EGLL 030950Z 15008KT 9999 SCT012 BKN014 16/14 Q0993
                        TEMPO 4000 RADZ BKN009=
201111030920 METAR COR EGLL 030920Z 15007KT 9999 SCT017 BKN028 15/14 Q0993
                        TEMPO BKN014=
201111030850 METAR COR EGLL 030850Z 14007KT 9999 -RA SCT010 BKN016 15/14
                        Q0993 TEMPO 4000 RADZ BKN010=
201111030820 METAR COR EGLL 030820Z 14008KT 9999 FEW011 SCT034 BKN045
                        15/13 Q0993 TEMPO 4000 RADZ BKN010=
201111030750 METAR COR EGLL 030750Z 15008KT 9999 -RA FEW016 SCT049 15/13
                        Q0993 TEMPO BKN012=
201111030720 METAR COR EGLL 030720Z 16009KT 9999 FEW010 15/13 Q0994 TEMPO
                        BKN012=
201111030650 METAR COR EGLL 030650Z 16008KT 9999 -RA NSC 15/13 Q0993 TEMPO
                        BKN014=
201111030620 METAR COR EGLL 030620Z 15007KT 9999 -RA NSC 15/13 Q0993 TEMPO
                        BKN014=
201111030550 METAR COR EGLL 030550Z 16008KT 9999 -RA NSC 15/13 Q0994 TEMPO
                        7000 RA BKN012=
201111030520 METAR COR EGLL 030520Z 18008KT 9999 SCT016 15/13 Q0994 TEMPO
                        7000 RA BKN012=
201111030450 METAR COR EGLL 030450Z 18009KT 9999 FEW015 BKN019 15/13 Q0994
                        TEMPO 7000 RA BKN012=
201111030420 METAR COR EGLL 030420Z 17011KT 9999 FEW018 16/13 Q0994 TEMPO
                        7000 RA BKN012=
201111030350 METAR COR EGLL 030350Z 16011KT 9999 FEW016 16/13 Q0993 NOSIG=
201111030320 METAR COR EGLL 030320Z 15010KT 9999 -RA FEW013 BKN018 BKN025
                        15/14 Q0994 TEMPO BKN012=
201111030250 METAR COR EGLL 030250Z 13009KT 9999 -RA FEW011 SCT022 BKN027
                        15/14 Q0994 TEMPO 7000 RA BKN012=
201111030220 METAR COR EGLL 030220Z AUTO 14010KT 9999NDV -RA FEW014///
                        SCT020/// BKN027/// 15/14 Q0994 RERA=
201111030150 METAR EGLL 030150Z AUTO 14009KT 9999NDV -RA FEW026/// 15/13
                        Q0995 RERA=
201111030120 METAR EGLL 030120Z AUTO 13011KT 9999NDV -RA SCT036/// SCT044///
                        15/13 Q0995=
201111030050 METAR COR EGLL 030050Z 14010KT 9999 FEW035 SCT044 15/13 Q0995
                        TEMPO 7000 RA BKN012=
201111030020 METAR COR EGLL 030020Z 15010KT 9999 SCT030 SCT036 15/13 Q0995
                        NOSIG=
201111022350 METAR COR EGLL 022350Z 15013KT 9999 FEW030 15/13 Q0995 NOSIG=
201111022320 METAR COR EGLL 022320Z 15012KT 9999 -RA FEW028 SCT039 15/13
                        Q0996 NOSIG=
201111022250 METAR COR EGLL 022250Z 15010KT 9999 FEW033 BKN038 15/13 Q0996
                        NOSIG=
201111022220 METAR COR EGLL 022220Z 15008KT 9999 FEW032 BKN036 15/13 Q0996
                        NOSIG=
201111022150 METAR COR EGLL 022150Z 14008KT 9999 BKN035 15/12 Q0997 NOSIG=
201111022120 METAR COR EGLL 022120Z 14008KT 9999 BKN038 15/12 Q0997 NOSIG=
201111022050 METAR EGLL 022050Z 14009KT 9999 FEW011 BKN039 14/12 Q0997=
201111022020 METAR COR EGLL 022020Z 14009KT 9999 SCT011 SCT035 14/12 Q0998
                        NOSIG=
201111021950 METAR COR EGLL 021950Z 14008KT 9999 SCT010 SCT013 14/12 Q0998
                        TEMPO BKN012=
201111021920 METAR COR EGLL 021920Z 14010KT 9999 SCT012 SCT022 14/12 Q0999
                        TEMPO BKN012=
201111021850 METAR COR EGLL 021850Z 15011KT 8000 -DZ FEW015 BKN025 14/12
                        Q0999 TEMPO BKN012=
201111021820 METAR COR EGLL 021820Z 14010KT 9999 FEW024 BKN038 14/11 Q0999
                        TEMPO RA BKN014=
201111021750 METAR COR EGLL 021750Z 13012KT 9999 FEW020 SCT037 14/11 Q0999
                        TEMPO RA BKN014=
201111021720 METAR COR EGLL 021720Z 14012KT 9999 BKN016 14/11 Q1000 TEMPO
                        BKN014=
201111021650 METAR COR EGLL 021650Z 14011KT 9999 BKN017 14/11 Q1000 TEMPO
                        BKN014=
201111021620 METAR COR EGLL 021620Z 14012KT 110V170 9999 BKN019 14/10
                        Q1000 TEMPO BKN014=
201111021550 METAR COR EGLL 021550Z 13010KT 9999 OVC019 14/10 Q1000 NOSIG=
201111021520 METAR COR EGLL 021520Z 13011KT 9999 BKN020 14/10 Q1001 NOSIG=
201111021450 METAR COR EGLL 021450Z 12011KT 9999 BKN022 15/10 Q1001 NOSIG=
201111021420 METAR COR EGLL 021420Z 13012KT 9999 SCT024 SCT048 15/10 Q1002
                        TEMPO 14015G25KT=
201111021350 METAR COR EGLL 021350Z 13014KT 9999 FEW028 SCT049 15/09 Q1002
                        TEMPO 14017G27KT=
201111021320 METAR COR EGLL 021320Z 13012KT 9999 FEW049 15/09 Q1003 TEMPO
                        14015G25KT=
201111021250 METAR COR EGLL 021250Z 12014KT CAVOK 15/09 Q1003 TEMPO 14017G27=
201111021220 METAR COR EGLL 021220Z 13012KT 9999 FEW025 14/09 Q1004 TEMPO
                        13015G25KT=
201111021150 METAR COR EGLL 021150Z 14016KT 9999 FEW025 15/09 Q1004 TEMPO
                        14017G27KT=
201111021120 METAR COR EGLL 021120Z 13013KT 9999 FEW023 15/10 Q1005 TEMPO
                        14016G26KT=
201111021050 METAR COR EGLL 021050Z 13014KT 9999 BKN017 14/10 Q1006 TEMPO
                        14017G27KT=
201111021020 METAR COR EGLL 021020Z 13012KT 9999 BKN017 13/11 Q1006 NOSIG=
201111020950 METAR COR EGLL 020950Z 14012KT 9999 FEW015 13/11 Q1006 NOSIG=
201111020920 METAR COR EGLL 020920Z 14013KT 9999 FEW013 12/10 Q1007 NOSIG=
201111020850 METAR COR EGLL 020850Z 14012KT CAVOK 12/10 Q1007 NOSIG=
201111020820 METAR COR EGLL 020820Z 13010KT CAVOK 11/10 Q1007 NOSIG=
201111020750 METAR COR EGLL 020750Z 13011KT CAVOK 11/09 Q1007 NOSIG=
201111020720 METAR COR EGLL 020720Z 13008KT CAVOK 10/09 Q1008 NOSIG=
201111020650 METAR COR EGLL 020650Z 11006KT CAVOK 08/07 Q1008 NOSIG=
201111020620 METAR COR EGLL 020620Z 12006KT CAVOK 07/07 Q1008 NOSIG=
201111020550 METAR COR EGLL 020550Z 13006KT CAVOK 08/07 Q1009 NOSIG=
201111020520 METAR COR EGLL 020520Z 13007KT CAVOK 08/07 Q1009 NOSIG=
201111020450 METAR COR EGLL 020450Z 13007KT CAVOK 07/06 Q1009 NOSIG=
201111020420 METAR COR EGLL 020420Z 13006KT CAVOK 07/06 Q1009 NOSIG=
201111020350 METAR COR EGLL 020350Z 14006KT CAVOK 07/07 Q1009 NOSIG=
201111020320 METAR COR EGLL 020320Z 13006KT CAVOK 07/06 Q1010 NOSIG=
201111020250 METAR EGLL 020250Z 14007KT CAVOK 08/07 Q1010=
201111020220 METAR EGLL 020220Z AUTO 13006KT 9999NDV NCD 07/06 Q1010=
201111020150 METAR EGLL 020150Z AUTO 14005KT 9999NDV NCD 08/07 Q1011=
201111020120 METAR EGLL 020120Z AUTO 14004KT 9999NDV NCD 08/07 Q1011=
201111020050 METAR COR EGLL 020050Z 14004KT CAVOK 07/07 Q1011 NOSIG=
201111020020 METAR COR EGLL 020020Z 13004KT CAVOK 07/07 Q1011 NOSIG=
201111012350 METAR COR EGLL 012350Z 13004KT CAVOK 08/07 Q1011 NOSIG=
201111012320 METAR COR EGLL 012320Z 15004KT 9999 FEW029 09/08 Q1012 NOSIG=
201111012250 METAR COR EGLL 012250Z 14004KT CAVOK 09/07 Q1012 NOSIG=
201111012220 METAR COR EGLL 012220Z 14004KT 090V200 9999 FEW026 09/08
                        Q1012 NOSIG=
201111012150 METAR COR EGLL 012150Z 13004KT 110V190 CAVOK 08/07 Q1012
                        NOSIG=
201111012120 METAR COR EGLL 012120Z 16004KT 130V200 CAVOK 09/08 Q1012
                        NOSIG=
201111012050 METAR EGLL 012050Z 18005KT 130V250 CAVOK 10/08 Q1012=
201111012020 METAR COR EGLL 012020Z 19006KT 160V220 CAVOK 10/08 Q1012
                        NOSIG=
201111011950 METAR COR EGLL 011950Z 20006KT 170V230 CAVOK 10/08 Q1012
                        NOSIG=
201111011920 METAR COR EGLL 011920Z 20005KT 140V250 CAVOK 10/08 Q1012
                        NOSIG=
201111011850 METAR COR EGLL 011850Z 20005KT 160V230 CAVOK 11/08 Q1012
                        NOSIG=
201111011820 METAR COR EGLL 011820Z 19007KT 170V230 CAVOK 12/08 Q1011
                        NOSIG=
201111011750 METAR COR EGLL 011750Z 21006KT 180V240 9999 FEW030 12/08
                        Q1011 NOSIG=
201111011720 METAR COR EGLL 011720Z 21007KT 9999 FEW030 13/08 Q1011 NOSIG=
201111011650 METAR COR EGLL 011650Z 20006KT 9999 FEW035 13/08 Q1011 NOSIG=
201111011620 METAR COR EGLL 011620Z 21006KT 190V250 9999 FEW030 14/08
                        Q1010 NOSIG=
201111011550 METAR COR EGLL 011550Z 23006KT 200V280 9999 FEW027 15/08
                        Q1010 NOSIG=
201111011520 METAR COR EGLL 011520Z 23007KT 190V260 9999 FEW027 15/08
                        Q1010 NOSIG=
201111011450 METAR COR EGLL 011450Z 24009KT 9999 FEW025 15/07 Q1010 NOSIG=
201111011420 METAR COR EGLL 011420Z 25010KT 9999 FEW030 16/08 Q1010 NOSIG=
201111011350 METAR COR EGLL 011350Z 24006KT 190V280 9999 FEW020 14/09
                        Q1010 NOSIG=
201111011320 METAR COR EGLL 011320Z 22007KT 170V270 9999 FEW020 15/09
                        Q1010 NOSIG=
201111011250 METAR COR EGLL 011250Z 22007KT 180V270 9999 FEW020 14/09
                        Q1010 NOSIG=
201111011220 METAR COR EGLL 011220Z 27009KT 230V310 9999 SCT019 14/09
                        Q1010 NOSIG=
201111011150 METAR COR EGLL 011150Z 27008KT 9999 SCT022 13/10 Q1010 NOSIG=
201111011120 METAR COR EGLL 011120Z 26008KT 9999 FEW019 BKN022 14/10 Q1010
                        NOSIG=
201111011050 METAR COR EGLL 011050Z 25008KT 9999 FEW016 BKN041 14/10 Q1010
                        NOSIG=
201111011020 METAR COR EGLL 011020Z 25008KT 9999 FEW018 SCT030 BKN042
                        13/10 Q1009 NOSIG=
201111010950 METAR COR EGLL 010950Z 28007KT 9999 FEW037 SCT043 13/10 Q1009
                        NOSIG=
201111010920 METAR COR EGLL 010920Z 26008KT 9999 SCT048 12/10 Q1009 NOSIG=
201111010850 METAR COR EGLL 010850Z 27008KT 9999 FEW048 12/10 Q1009 NOSIG=
201111010820 METAR COR EGLL 010820Z 26007KT 9999 BKN044 12/10 Q1009 NOSIG=
201111010750 METAR COR EGLL 010750Z 28005KT 9999 FEW048 11/10 Q1008 RERA
                        NOSIG=
201111010720 METAR COR EGLL 010720Z 28007KT 9999 RA FEW032 11/09 Q1008
                        BECMG -RA=
201111010650 METAR COR EGLL 010650Z 00000KT 9999 SCT034 12/09 Q1007 NOSIG=
201111010620 METAR COR EGLL 010620Z 30005KT 9999 SCT020 SCT025 12/09 Q1007
                        NOSIG=
201111010550 METAR COR EGLL 010550Z 29010KT 9999 FEW008 SCT016 12/10 Q1007
                        NOSIG=
201111010520 METAR COR EGLL 010520Z 20007KT 9999 SCT013 SCT029 14/12 Q1006
                        TEMPO -RA BKN014=
201111010450 METAR COR EGLL 010450Z 18007KT 140V230 9999 -RA FEW017 SCT028
                        14/12 Q1006 TEMPO RA BKN014=
201111010420 METAR COR EGLL 010420Z 18008KT 9999 FEW026 14/12 Q1006 TEMPO
                        -RA BKN014=
201111010350 METAR COR EGLL 010350Z 18008KT 9999 FEW027 14/12 Q1006 TEMPO
                        -RA BKN014=
201111010320 METAR COR EGLL 010320Z 18009KT 9999 FEW016 SCT043 14/12 Q1006
                        TEMPO -RA BKN014=
201111010250 METAR COR EGLL 010250Z 17008KT 9999 SCT016 SCT021 14/12 Q1006
                        TEMPO -RA BKN014=
201111010220 METAR EGLL 010220Z AUTO 16011KT 9999NDV FEW020/// 14/12 Q1006=
201111010150 METAR EGLL 010150Z AUTO 17007KT 9999NDV NCD 13/12 Q1007=
201111010120 METAR EGLL 010120Z AUTO 13005KT 9999NDV BKN015/// 12/11 Q1007=
201111010050 METAR COR EGLL 010050Z 15006KT 9999 FEW018 13/11 Q1007 NOSIG=
201111010020 METAR COR EGLL 010020Z 16009KT 9999 FEW045 13/11 Q1007 NOSIG=

# No short TAF reports from EGLL in databse.

###################################
#  large TAF from EGLL
###################################
201112012300 TAF COR EGLL 020151Z 0201/0306 30004KT 9999 FEW015
                      PROB30 TEMPO 0204/0209 5000 BR
                      BECMG 0218/0221 22012KT BKN040
                      TEMPO 0222/0306 23015G25KT 7000 RA SCT009
                       BKN012=
201112012259 TAF EGLL 012259Z 0200/0306 30004KT 9999 FEW015
                      PROB30 TEMPO 0204/0209 5000 BR
                      BECMG 0218/0221 22012KT BKN040
                      TEMPO 0222/0306 2315G25KT 7000 RA SCT009
                       BKN012=
201112011701 TAF EGLL 011701Z 0118/0224 33005KT 9999 SCT040
                      TEMPO 0118/0201 5000 RA
                      PROB30 TEMPO 0119/0123 BKN014
                      PROB30 TEMPO 0204/0209 5000 BR
                      BECMG 0218/0221 22012KT
                      TEMPO 0222/0224 7000=
201112011059 TAF EGLL 011059Z 0112/0218 VRB05KT 9999 SCT040
                      BECMG 0117/0120 6000 -RA
                      TEMPO 0120/0201 4000 RA BKN012
                      BECMG 0200/0202 9999 NSW
                      PROB30 TEMPO 0205/0209 5000 BR
                      BECMG 0214/0217 24010KT=
201112010454 TAF EGLL 010454Z 0106/0212 23012KT 9999 FEW030 BKN045
                      TEMPO 0106/0110 6000 SHRA BKN012
                      BECMG 0108/0111 VRB04KT
                      BECMG 0116/0119 6000 RA
                      BECMG 0118/0121 03010KT
                      BECMG 0123/0202 30005KT 9999
                      PROB40 0203/0210 5000 BR=
201112010004 TAF COR EGLL 010004Z 0100/0206 19015G26KT 9999 -RA FEW007 BKN018
                       TEMPO 0100/0104 6000 RA SCT007 BKN012
                      PROB30 TEMPO 0100/0102 20022G36KT 4000 +RA
                       BECMG 0103/0106 25012KT 9999 NSW SCT050
                       TEMPO 0106/0111 6000 SHRA BKN012
                      BECMG 0108/0110 VRB04KT
                      BECMG 0115/0118 6000 RA
                      BECMG 0118/0121 03010KT BKN022
                      BECMG 0201/0204 30005KT 3500 BR FEW030=
