##########################################################
# Query made at 01/13/2020 12:09:49 UTC
# Time interval: from 11/01/2015 00:00  to 12/01/2015 23:59  UTC
##########################################################

##########################################################
# EGLL, London / Heathrow Airport (United Kingdom)
# WMO index: 03772
# Latitude 51-29N. Longitude 000-27W. Altitude 24 m.
##########################################################

###################################
#  METAR/SPECI from EGLL
###################################
201512012350 METAR COR EGLL 012350Z AUTO 21012KT 9999 OVC042 12/06 Q1023
                        NOSIG=
201512012320 METAR COR EGLL 012320Z AUTO 23015KT 9999 OVC043 13/06 Q1024
                        NOSIG=
201512012250 METAR COR EGLL 012250Z AUTO 22011KT 9999 OVC043 12/07 Q1024
                        NOSIG=
201512012220 METAR COR EGLL 012220Z AUTO 22011KT 9999 OVC042 13/06 Q1024
                        NOSIG=
201512012150 METAR COR EGLL 012150Z AUTO 22012KT 9999 OVC037 13/06 Q1024
                        NOSIG=
201512012120 METAR COR EGLL 012120Z AUTO 23012KT 9999 OVC042 13/05 Q1024
                        NOSIG=
201512012050 METAR COR EGLL 012050Z AUTO 24014KT 9999 OVC043 13/05 Q1024
                        NOSIG=
201512012020 METAR COR EGLL 012020Z AUTO 23012KT 9999 OVC041 13/05 Q1024
                        NOSIG=
201512011950 METAR COR EGLL 011950Z AUTO 23013KT 9999 OVC038 13/05 Q1025
                        NOSIG=
201512011920 METAR COR EGLL 011920Z AUTO 24013KT 9999 OVC037 13/06 Q1024
                        NOSIG=
201512011850 METAR COR EGLL 011850Z AUTO 23015KT 9999 OVC048 13/06 Q1024
                        NOSIG=
201512011820 METAR COR EGLL 011820Z AUTO 24014KT 9999 OVC048 13/06 Q1024
                        NOSIG=
201512011750 METAR COR EGLL 011750Z AUTO 23014KT 9999 OVC048 13/07 Q1024
                        NOSIG=
201512011720 METAR COR EGLL 011720Z AUTO 23012KT 9999 OVC046 14/07 Q1024
                        NOSIG=
201512011650 METAR COR EGLL 011650Z AUTO 24012KT 9999 OVC044 13/07 Q1024
                        NOSIG=
201512011620 METAR COR EGLL 011620Z AUTO 24015KT 9999 OVC043 14/08 Q1023
                        NOSIG=
201512011550 METAR COR EGLL 011550Z AUTO 23012KT 9999 OVC042 14/08 Q1023
                        NOSIG=
201512011520 METAR COR EGLL 011520Z AUTO 24012KT 9999 BKN032 14/08 Q1023
                        NOSIG=
201512011450 METAR COR EGLL 011450Z AUTO 24014KT 9999 OVC028 14/08 Q1023
                        NOSIG=
201512011420 METAR COR EGLL 011420Z AUTO 24014KT 9999 OVC029 14/09 Q1023
                        NOSIG=
201512011350 METAR COR EGLL 011350Z AUTO 24014KT 9999 BKN028 OVC043 14/09
                        Q1023 NOSIG=
201512011320 METAR COR EGLL 011320Z AUTO 24014KT 9999 BKN042 14/09 Q1023
                        NOSIG=
201512011250 METAR COR EGLL 011250Z AUTO 23016KT 9999 BKN024 14/09 Q1023
                        NOSIG=
201512011220 METAR COR EGLL 011220Z AUTO 23012KT 9999 FEW028 BKN039 14/09
                        Q1023 NOSIG=
201512011150 METAR COR EGLL 011150Z AUTO 23013KT 9999 BKN033 14/09 Q1023
                        NOSIG=
201512011120 METAR COR EGLL 011120Z AUTO 24014KT 9999 OVC022 14/09 Q1024
                        NOSIG=
201512011050 METAR COR EGLL 011050Z AUTO 25016KT 9999 OVC022 14/09 Q1024
                        NOSIG=
201512011020 METAR COR EGLL 011020Z AUTO 24014KT 9999 OVC020 14/10 Q1023
                        NOSIG=
201512010950 METAR COR EGLL 010950Z AUTO 24014KT 9999 OVC017 14/10 Q1023
                        NOSIG=
201512010920 METAR COR EGLL 010920Z AUTO 24012KT 9999 OVC017 13/10 Q1023
                        NOSIG=
201512010850 METAR COR EGLL 010850Z AUTO 25015KT 9999 BKN011 13/11 Q1022
                        TEMPO BKN015=
201512010820 METAR COR EGLL 010820Z AUTO 25013KT 9999 OVC015 13/11 Q1022
                        TEMPO BKN014=
201512010750 METAR COR EGLL 010750Z AUTO 25014KT 9999 BKN012 13/11 Q1022
                        NOSIG=
201512010720 METAR COR EGLL 010720Z AUTO 25014KT 9999 BKN011 13/11 Q1021
                        NOSIG=
201512010650 METAR COR EGLL 010650Z AUTO 25013KT 9999 OVC011 13/11 Q1021
                        NOSIG=
201512010620 METAR COR EGLL 010620Z AUTO 25013KT 9999 OVC012 13/11 Q1021
                        BECMG SCT012 BKN018=
201512010550 METAR COR EGLL 010550Z AUTO 25012KT 9999 OVC008 13/12 Q1021
                        BECMG SCT009 BKN020=
201512010520 METAR COR EGLL 010520Z AUTO 25011KT 8000 BKN006 13/12 Q1020
                        BECMG SCT006 BKN010=
201512010450 METAR COR EGLL 010450Z AUTO 25012KT 3800 HZ BKN006 13/12
                        Q1020 BECMG 6000 SCT006 BKN010=
201512010420 METAR COR EGLL 010420Z AUTO 25012KT 8000 OVC007 13/12 Q1020
                        TEMPO SCT007 BKN010=
201512010350 METAR COR EGLL 010350Z AUTO 24010KT 9999 BKN006 13/12 Q1020
                        TEMPO SCT006 BKN015=
201512010320 METAR COR EGLL 010320Z AUTO 27001KT 3600 -DZ OVC003 12/12
                        Q1020 REDZ BECMG SCT005 BKN008=
201512010250 METAR COR EGLL 010250Z AUTO 03003KT 3500 BR OVC003 10/09
                        Q1020 TEMPO OVC006=
201512010220 METAR COR EGLL 010220Z AUTO VRB03KT 6000 -RA OVC003 10/09
                        Q1020 TEMPO SCT004 BKN005=
201512010150 METAR COR EGLL 010150Z AUTO 04004KT 360V070 9000 -RA BKN003
                        10/09 Q1019 TEMPO SCT005 BKN009=
201512010120 METAR COR EGLL 010120Z AUTO 28008KT 240V360 9999 -RA OVC007
                        13/12 Q1019 TEMPO FEW007=
201512010050 METAR COR EGLL 010050Z AUTO 25010KT 7000 -RA BKN006 13/12
                        Q1019 TEMPO FEW007=
201512010020 METAR COR EGLL 010020Z AUTO 24012KT 7000 BKN007 OVC028 13/12
                        Q1018 TEMPO FEW007=
201511302350 METAR COR EGLL 302350Z AUTO 24013KT 9999 -RA BKN009 OVC029
                        13/12 Q1018 TEMPO BKN011=
201511302320 METAR COR EGLL 302320Z AUTO 24013KT 7000 -RA BKN008 13/12
                        Q1018 TEMPO SCT010 BKN017=
201511302250 METAR COR EGLL 302250Z AUTO 24012KT 9999 -RA BKN009 13/12
                        Q1017 TEMPO SCT010 BKN017=
201511302220 METAR COR EGLL 302220Z AUTO 25013KT 9999 -RA BKN008 OVC020
                        13/12 Q1017 TEMPO SCT011 BKN014=
201511302150 METAR COR EGLL 302150Z AUTO 25015KT 9999 -RA BKN009 13/11
                        Q1017 TEMPO SCT010 BKN014=
201511302120 METAR COR EGLL 302120Z AUTO 25016KT 9999 -RA BKN009 OVC020
                        13/11 Q1017 TEMPO BKN014=
201511302050 METAR COR EGLL 302050Z AUTO 25014KT 7000 -RA BKN008 13/11
                        Q1016 TEMPO BKN011=
201511302020 METAR COR EGLL 302020Z AUTO 26017KT 6000 -RA BKN009 13/11
                        Q1015 TEMPO BKN012=
201511301950 METAR COR EGLL 301950Z AUTO 26017KT 7000 -RA OVC011 13/11
                        Q1015 NOSIG=
201511301920 METAR COR EGLL 301920Z AUTO 26017KT 9999 OVC012 13/11 Q1015
                        NOSIG=
201511301850 METAR COR EGLL 301850Z AUTO 26020KT 9999 OVC011 13/11 Q1014
                        NOSIG=
201511301820 METAR COR EGLL 301820Z AUTO 26019KT 9999 -RA OVC010 13/11
                        Q1014 NOSIG=
201511301750 METAR COR EGLL 301750Z AUTO 25019KT 9999 -RA BKN010 12/11
                        Q1013 NOSIG=
201511301720 METAR COR EGLL 301720Z AUTO 25018KT 6000 -RA BKN010 12/11
                        Q1013 TEMPO RADZ=
201511301650 METAR COR EGLL 301650Z AUTO 25021KT 6000 -RA BKN011 12/11
                        Q1013 TEMPO RADZ=
201511301620 METAR EGLL 301620Z AUTO 25020KT 9999 OVC011 12/10 Q1013=
201511301550 METAR COR EGLL 301550Z AUTO 25021KT 9999 -RA OVC016 13/10
                        Q1012 NOSIG=
201511301520 METAR COR EGLL 301520Z AUTO 25020KT 9999 OVC016 13/09 Q1012
                        NOSIG=
201511301450 METAR EGLL 301450Z AUTO 24020KT 9999 BKN017 13/09 Q1012=
201511301420 METAR COR EGLL 301420Z AUTO 24021KT 9999 OVC018 13/09 Q1012
                        NOSIG=
201511301350 METAR COR EGLL 301350Z AUTO 24020KT 9999 OVC024 13/08 Q1012
                        NOSIG=
201511301320 METAR COR EGLL 301320Z AUTO 24020KT 9999 OVC026 13/08 Q1012
                        NOSIG=
201511301250 METAR COR EGLL 301250Z AUTO 24020KT 9999 BKN026 13/08 Q1013
                        NOSIG=
201511301220 METAR COR EGLL 301220Z AUTO 25021G32KT 9999 BKN022 BKN039
                        13/08 Q1013 NOSIG=
201511301150 METAR COR EGLL 301150Z AUTO 24020KT 9999 OVC023 13/08 Q1014
                        NOSIG=
201511301120 METAR COR EGLL 301120Z AUTO 24021G33KT 9999 BKN028 BKN049
                        13/08 Q1014 NOSIG=
201511301050 METAR COR EGLL 301050Z AUTO 24019KT 9999 BKN025 13/08 Q1015
                        NOSIG=
201511301020 METAR COR EGLL 301020Z AUTO 24018KT 9999 BKN025 12/08 Q1015
                        NOSIG=
201511300950 METAR COR EGLL 300950Z AUTO 24018KT 9999 BKN019 OVC041 13/08
                        Q1015 NOSIG=
201511300920 METAR COR EGLL 300920Z AUTO 24018G29KT 9999 BKN020 OVC035
                        12/09 Q1015 NOSIG=
201511300850 METAR COR EGLL 300850Z AUTO 24018KT 9999 BKN018 BKN033 12/09
                        Q1015 NOSIG=
201511300820 METAR COR EGLL 300820Z AUTO 24017KT 9999 SCT015 BKN028 11/09
                        Q1015 NOSIG=
201511300750 METAR COR EGLL 300750Z AUTO 24015KT 9999 BKN016 11/09 Q1016
                        NOSIG=
201511300720 METAR COR EGLL 300720Z AUTO 24016KT 9999 BKN016 BKN033 11/09
                        Q1016 NOSIG=
201511300650 METAR COR EGLL 300650Z AUTO 22009KT 9999 FEW013 BKN039 10/09
                        Q1016 TEMPO RA BKN012=
201511300620 METAR COR EGLL 300620Z AUTO 22009KT 5000 -RADZ SCT007 BKN034
                        09/08 Q1016 TEMPO BKN012=
201511300550 METAR COR EGLL 300550Z AUTO 21005KT 9000 -RA BKN012 09/08
                        Q1017 TEMPO FEW012 BKN018=
201511300520 METAR COR EGLL 300520Z AUTO 19006KT 9000 -RA FEW013 BKN024
                        08/07 Q1017 TEMPO RA BKN012=
201511300450 METAR COR EGLL 300450Z AUTO 20006KT 170V260 9999 -RA BKN014
                        OVC038 08/06 Q1018 BECMG BKN018=
201511300420 METAR COR EGLL 300420Z AUTO 21006KT 9999 -RA BKN022 09/05
                        Q1018 TEMPO RA BKN014=
201511300350 METAR COR EGLL 300350Z AUTO 21006KT 9999 -RA OVC025 09/05
                        Q1018 TEMPO RA=
201511300320 METAR COR EGLL 300320Z AUTO 24009KT 9999 BKN030 10/05 Q1019
                        NOSIG=
201511300250 METAR EGLL 300250Z AUTO 24008KT 9999 BKN032 09/05 Q1018=
201511300220 METAR COR EGLL 300220Z AUTO 26008KT 9999 OVC036 09/05 Q1018
                        NOSIG=
201511300150 METAR COR EGLL 300150Z AUTO 27008KT 9999 BKN040 09/05 Q1018
                        NOSIG=
201511300120 METAR COR EGLL 300120Z AUTO 27008KT 9999 OVC043 09/05 Q1018
                        NOSIG=
201511300050 METAR COR EGLL 300050Z AUTO 28009KT 9999 OVC047 09/05 Q1017
                        NOSIG=
201511300020 METAR COR EGLL 300020Z AUTO 27012KT 9999 NCD 10/05 Q1017
                        NOSIG=
201511292350 METAR COR EGLL 292350Z AUTO 27013KT 9999 SCT048 10/06 Q1016
                        NOSIG=
201511292320 METAR COR EGLL 292320Z AUTO 27014KT 9999 NCD 10/06 Q1016
                        NOSIG=
201511292250 METAR COR EGLL 292250Z AUTO 27014KT 9999 FEW031 11/06 Q1015
                        NOSIG=
201511292220 METAR COR EGLL 292220Z AUTO 27014KT 9999 FEW024 BKN044 10/07
                        Q1014 NOSIG=
201511292150 METAR COR EGLL 292150Z AUTO 27014KT 9999 SCT026 SCT044 11/08
                        Q1014 NOSIG=
201511292120 METAR COR EGLL 292120Z AUTO 27012KT 9999 -RA SCT022 BKN038
                        12/08 Q1014 NOSIG=
201511292050 METAR COR EGLL 292050Z AUTO 28014KT 9999 -RA BKN020/// BKN036///
                        //////TCU 11/09 Q1013 NOSIG=
201511292020 METAR COR EGLL 292020Z AUTO 27019KT 9999 FEW022/// //////TCU
                        12/09 Q1013 NOSIG=
201511291950 METAR COR EGLL 291950Z AUTO 27020KT 9999 -RA BKN021/// BKN037///
                        //////CB 12/09 Q1012 NOSIG=
201511291920 METAR COR EGLL 291920Z AUTO 25020G30KT 9999 -RA BKN019///
                        BKN035/// //////TCU 13/09 Q1011 NOSIG=
201511291850 METAR COR EGLL 291850Z AUTO 25018KT 9999 -RA BKN014 12/10
                        Q1010 TEMPO SCT015 BKN020=
201511291820 METAR COR EGLL 291820Z AUTO 26021G32KT 9000 -RA BKN014 OVC038
                        12/09 Q1010 TEMPO 4800 RADZ BKN009=
201511291750 METAR COR EGLL 291750Z AUTO 25024G34KT 7000 -RA BKN019///
                        //////CB 13/09 Q1009 TEMPO 4800 RADZ
                        BKN012=
201511291720 METAR COR EGLL 291720Z AUTO 25024KT 9999 OVC022/// //////TCU
                        13/09 Q1008 TEMPO 4800 RA=
201511291650 METAR COR EGLL 291650Z AUTO 25026KT 9999 BKN023 13/08 Q1008
                        TEMPO 4800 +RA BKN014=
201511291620 METAR COR EGLL 291620Z AUTO 25026G37KT 9999 BKN022 13/08
                        Q1007 TEMPO 4800 +RA BKN012=
201511291550 METAR COR EGLL 291550Z AUTO 25026KT 9999 BKN024 13/08 Q1007
                        TEMPO RADZ BKN012=
201511291520 METAR COR EGLL 291520Z AUTO 25028G38KT 9999 BKN024 13/08
                        Q1007 NOSIG=
201511291450 METAR COR EGLL 291450Z AUTO 26027KT 9999 OVC025 13/08 Q1007
                        NOSIG=
201511291420 METAR COR EGLL 291420Z AUTO 26027G39KT 9999 BKN024 13/08
                        Q1007 NOSIG=
201511291350 METAR COR EGLL 291350Z AUTO 25030KT 9999 BKN026 OVC042 13/08
                        Q1007 TEMPO BKN014=
201511291320 METAR COR EGLL 291320Z AUTO 26025KT 9999 OVC028 13/08 Q1007
                        TEMPO BKN014=
201511291250 METAR COR EGLL 291250Z AUTO 25021KT 9999 BKN027 12/08 Q1007
                        NOSIG=
201511291220 METAR COR EGLL 291220Z AUTO 25020KT 9999 SCT013 BKN031 12/09
                        Q1007 RERA NOSIG=
201511291150 METAR COR EGLL 291150Z AUTO 25020KT 2900 RA BKN017 BKN033
                        11/08 Q1008 BECMG 9999 NSW=
201511291120 METAR COR EGLL 291120Z AUTO 25022KT 9999 BKN028 12/07 Q1007
                        NOSIG=
201511291050 METAR COR EGLL 291050Z AUTO 24020KT 9000 BKN030 OVC045 12/07
                        Q1008 NOSIG=
201511291020 METAR COR EGLL 291020Z AUTO 25020KT 9000 BKN030 BKN046 12/07
                        Q1008 NOSIG=
201511290950 METAR COR EGLL 290950Z AUTO 25022KT 9999 BKN028 12/07 Q1007
                        NOSIG=
201511290920 METAR COR EGLL 290920Z AUTO 25022G35KT 9999 SCT019 BKN034
                        12/07 Q1007 NOSIG=
201511290850 METAR COR EGLL 290850Z AUTO 23017KT 9999 SCT015 BKN029 11/08
                        Q1007 NOSIG=
201511290820 METAR COR EGLL 290820Z AUTO 23017KT 9999 FEW017 BKN031 10/08
                        Q1007 NOSIG=
201511290750 METAR COR EGLL 290750Z AUTO 23018KT 6000 -RA SCT010 BKN023
                        10/08 Q1007 NOSIG=
201511290720 METAR COR EGLL 290720Z AUTO 22013KT 9999 SCT020 BKN034 10/07
                        Q1007 NOSIG=
201511290650 METAR COR EGLL 290650Z AUTO 22013KT 9999 -RA BKN023 09/07
                        Q1008 NOSIG=
201511290620 METAR COR EGLL 290620Z AUTO 24016KT 9999 -RA SCT034/// SCT047///
                        //////TCU 10/07 Q1008 TEMPO SHRA=
201511290550 METAR COR EGLL 290550Z AUTO 23014KT 9999 FEW031/// //////TCU
                        10/06 Q1008 TEMPO SHRA=
201511290520 METAR COR EGLL 290520Z AUTO 24013G23KT 9999 SCT027 10/07
                        Q1007 NOSIG=
201511290450 METAR EGLL 290450Z AUTO 24016KT 6000 -RA SCT022 BKN037 10/07
                        Q1007=
201511290420 METAR COR EGLL 290420Z AUTO 24014KT 9999 FEW024 10/06 Q1007
                        NOSIG=
201511290350 METAR COR EGLL 290350Z AUTO 24015KT 9999 NCD 10/06 Q1007
                        NOSIG=
201511290320 METAR COR EGLL 290320Z AUTO 24015KT 9999 FEW026 10/06 Q1007
                        NOSIG=
201511290250 METAR COR EGLL 290250Z AUTO 24015KT 210V270 9999 BKN023 10/06
                        Q1007 NOSIG=
201511290220 METAR COR EGLL 290220Z AUTO 24014KT 9999 FEW020 BKN041 10/06
                        Q1007 NOSIG=
201511290150 METAR COR EGLL 290150Z AUTO 24015G25KT 9999 BKN026 BKN041
                        10/06 Q1007 NOSIG=
201511290120 METAR COR EGLL 290120Z AUTO 24015KT 9999 -RA SCT029 SCT044
                        10/06 Q1007 NOSIG=
201511290050 METAR COR EGLL 290050Z AUTO 24015KT 9999 FEW029 10/06 Q1007
                        NOSIG=
201511290020 METAR COR EGLL 290020Z AUTO 24012KT 9999 SCT028 10/06 Q1007
                        NOSIG=
201511282350 METAR COR EGLL 282350Z AUTO 24015KT 9999 FEW024 10/06 Q1007
                        NOSIG=
201511282320 METAR COR EGLL 282320Z AUTO 25016KT 9999 SCT022 10/06 Q1006
                        NOSIG=
201511282250 METAR COR EGLL 282250Z AUTO 24018KT 9999 BKN022 11/06 Q1006
                        NOSIG=
201511282220 METAR COR EGLL 282220Z AUTO 24016KT 9999 FEW022 11/06 Q1005
                        NOSIG=
201511282150 METAR COR EGLL 282150Z AUTO 24017KT 9999 BKN025 BKN040 11/06
                        Q1006 NOSIG=
201511282120 METAR COR EGLL 282120Z AUTO 24019G29KT 9999 FEW026 11/06
                        Q1006 NOSIG=
201511282050 METAR COR EGLL 282050Z AUTO 25019KT 9999 BKN027 BKN045 11/06
                        Q1006 NOSIG=
201511282020 METAR COR EGLL 282020Z AUTO 24019KT 9999 -RA FEW026/// BKN036///
                        //////TCU 11/06 Q1006 NOSIG=
201511281950 METAR COR EGLL 281950Z AUTO 24020KT 9999 SCT024 11/06 Q1006
                        TEMPO SHRA=
201511281920 METAR COR EGLL 281920Z AUTO 24019KT 9999 BKN025/// //////TCU
                        11/06 Q1006 NOSIG=
201511281850 METAR COR EGLL 281850Z AUTO 24018KT 9999 -RA SCT027 BKN042
                        11/06 Q1006 NOSIG=
201511281820 METAR COR EGLL 281820Z AUTO 24020KT 9999 BKN026 11/06 Q1006
                        NOSIG=
201511281750 METAR COR EGLL 281750Z AUTO 23017KT 9999 -RA BKN027 BKN041
                        10/06 Q1006 TEMPO SHRA=
201511281720 METAR COR EGLL 281720Z AUTO 23017KT 9999 BKN026 10/05 Q1007
                        TEMPO SHRA=
201511281650 METAR COR EGLL 281650Z AUTO 23016KT 9999 -RA SCT026 BKN033
                        10/05 Q1007 TEMPO SHRA=
201511281620 METAR COR EGLL 281620Z AUTO 23018KT 9999 FEW028 SCT035 09/05
                        Q1008 TEMPO SHRA=
201511281550 METAR COR EGLL 281550Z AUTO 23017KT 9999 SCT025 09/05 Q1008
                        TEMPO SHRA=
201511281520 METAR COR EGLL 281520Z AUTO 22018KT 9999 FEW026 09/04 Q1009
                        NOSIG=
201511281450 METAR COR EGLL 281450Z AUTO 23015G25KT 9999 FEW034 09/04
                        Q1009 NOSIG=
201511281420 METAR COR EGLL 281420Z AUTO 23018KT 9999 SCT022 09/04 Q1010
                        NOSIG=
201511281350 METAR COR EGLL 281350Z AUTO 23019KT 9999 -RA FEW016 BKN028
                        BKN044 09/04 Q1011 NOSIG=
201511281320 METAR COR EGLL 281320Z AUTO 23018KT 9999 SCT032 09/04 Q1012
                        NOSIG=
201511281250 METAR COR EGLL 281250Z AUTO 23016KT 9999 BKN047 09/03 Q1012
                        NOSIG=
201511281220 METAR COR EGLL 281220Z AUTO 23017KT 9999 NCD 09/03 Q1013
                        NOSIG=
201511281150 METAR COR EGLL 281150Z AUTO 23018KT 9999 NCD 08/03 Q1013
                        NOSIG=
201511281120 METAR COR EGLL 281120Z AUTO 24017KT 9999 NCD 08/02 Q1013
                        NOSIG=
201511281050 METAR COR EGLL 281050Z AUTO 23013KT 9999 NCD 07/02 Q1014
                        NOSIG=
201511281020 METAR COR EGLL 281020Z AUTO 24012KT 9999 NCD 07/02 Q1015
                        NOSIG=
201511280950 METAR COR EGLL 280950Z AUTO 24010KT 9999 NCD 06/02 Q1015
                        NOSIG=
201511280920 METAR COR EGLL 280920Z AUTO 23011KT 9999 NCD 05/01 Q1015
                        NOSIG=
201511280850 METAR COR EGLL 280850Z AUTO 23009KT 9999 NCD 04/01 Q1015
                        NOSIG=
201511280820 METAR COR EGLL 280820Z AUTO 23009KT 9999 NCD 03/00 Q1015
                        NOSIG=
201511280750 METAR COR EGLL 280750Z AUTO 23009KT 9999 NCD 03/00 Q1015
                        NOSIG=
201511280720 METAR COR EGLL 280720Z AUTO 24009KT 9999 NCD 03/00 Q1015
                        NOSIG=
201511280650 METAR COR EGLL 280650Z AUTO 24011KT 9999 NCD 03/00 Q1015
                        NOSIG=
201511280620 METAR COR EGLL 280620Z AUTO 24008KT 9999 NCD 03/00 Q1015
                        NOSIG=
201511280550 METAR COR EGLL 280550Z AUTO 26010KT 9999 NCD 04/00 Q1015
                        NOSIG=
201511280520 METAR COR EGLL 280520Z AUTO 25009KT 9999 NCD 03/00 Q1015
                        NOSIG=
201511280450 METAR COR EGLL 280450Z AUTO 24008KT 9999 NCD 03/00 Q1014
                        NOSIG=
201511280420 METAR COR EGLL 280420Z AUTO 25008KT 9999 NCD 04/00 Q1014
                        NOSIG=
201511280350 METAR COR EGLL 280350Z AUTO 26007KT 9999 NCD 04/00 Q1014
                        NOSIG=
201511280320 METAR COR EGLL 280320Z AUTO 25006KT 9999 NCD 04/00 Q1014
                        NOSIG=
201511280250 METAR COR EGLL 280250Z AUTO 26007KT 9999 NCD 03/00 Q1013
                        NOSIG=
201511280220 METAR COR EGLL 280220Z AUTO 28008KT 9999 NCD 03/00 Q1013
                        NOSIG=
201511280150 METAR COR EGLL 280150Z AUTO 28010KT 9999 NCD 04/01 Q1013
                        NOSIG=
201511280120 METAR COR EGLL 280120Z AUTO 28008KT 9999 NCD 04/02 Q1012
                        NOSIG=
201511280050 METAR COR EGLL 280050Z AUTO 28010KT 9999 NCD 04/02 Q1012
                        NOSIG=
201511280020 METAR COR EGLL 280020Z AUTO 28011KT 9999 NCD 05/02 Q1012
                        NOSIG=
201511272350 METAR COR EGLL 272350Z AUTO 29008KT 9999 FEW026 05/02 Q1011
                        NOSIG=
201511272320 METAR COR EGLL 272320Z AUTO 31010KT 280V350 9999 FEW025 06/02
                        Q1011 NOSIG=
201511272250 METAR COR EGLL 272250Z AUTO 31012KT 9999 SCT023 06/03 Q1010
                        NOSIG=
201511272220 METAR COR EGLL 272220Z AUTO 31013G23KT 9999 FEW021 07/04
                        Q1009 NOSIG=
201511272150 METAR COR EGLL 272150Z AUTO 31015G29KT 280V350 9999 -RA BKN014
                        BKN027 08/05 Q1007 BECMG FEW014=
201511272120 METAR COR EGLL 272120Z AUTO 29011KT 9999 -RA FEW011 BKN017
                        08/06 Q1007 TEMPO RA=
201511272050 METAR COR EGLL 272050Z AUTO 28011KT 9999 -RA FEW018/// BKN036///
                        //////TCU 08/06 Q1006 TEMPO RA=
201511272020 METAR COR EGLL 272020Z AUTO 29013KT 9999 -RA FEW010/// BKN016///
                        BKN032/// //////TCU 08/06 Q1006 TEMPO
                        RA=
201511271950 METAR COR EGLL 271950Z AUTO 29016KT 4000 -RA SCT010/// BKN023///
                        OVC041/// //////CB 09/07 Q1005 RERA
                        REDZ TEMPO RA=
201511271920 METAR COR EGLL 271920Z AUTO 23014KT 9000 -RA OVC011/// //////CB
                        12/10 Q1004 TEMPO 4000 SHRA=
201511271850 METAR COR EGLL 271850Z AUTO 22012KT 9999 BKN011 12/09 Q1004
                        TEMPO 4000 +SHRA BKN008=
201511271820 METAR COR EGLL 271820Z AUTO 21011KT 9999 BKN011 11/09 Q1004
                        TEMPO 4000 +SHRA BKN008=
201511271750 METAR COR EGLL 271750Z AUTO 21013KT 9999 SCT013 SCT038 11/09
                        Q1004 TEMPO 4000 +SHRA BKN008=
201511271720 METAR COR EGLL 271720Z AUTO 22013KT 9999 BKN012 11/09 Q1005
                        TEMPO SHRA=
201511271650 METAR EGLL 271650Z AUTO 22011KT 180V240 9999 BKN014 BKN028
                        11/09 Q1005=
201511271620 METAR COR EGLL 271620Z AUTO 23011KT 9999 FEW015 BKN027 11/09
                        Q1006 TEMPO BKN014=
201511271550 METAR EGLL 271550Z AUTO 23014KT 9999 -RA BKN010 BKN024 11/10
                        Q1006=
201511271520 METAR COR EGLL 271520Z AUTO 22014KT 5000 -RADZ OVC011 11/10
                        Q1006 TEMPO NSW SCT012=
201511271450 METAR COR EGLL 271450Z AUTO 23015KT 9999 BKN016 12/09 Q1007
                        NOSIG=
201511271420 METAR COR EGLL 271420Z AUTO 23018KT 9999 BKN019 OVC037 13/09
                        Q1007 NOSIG=
201511271350 METAR COR EGLL 271350Z AUTO 23018KT 9999 BKN016 13/09 Q1008
                        NOSIG=
201511271320 METAR COR EGLL 271320Z AUTO 23013KT 9999 BKN016 14/10 Q1008
                        NOSIG=
201511271250 METAR EGLL 271250Z AUTO 22012KT 9999 BKN014 BKN027 14/11
                        Q1008=
201511271220 METAR EGLL 271220Z AUTO 23015KT 9999 BKN013 OVC026 14/11
                        Q1009=
201511271150 METAR EGLL 271150Z AUTO 23015KT 9999 BKN012 OVC040 14/11
                        Q1010=
201511271120 METAR COR EGLL 271120Z AUTO 23013KT 9999 BKN011 13/11 Q1011
                        TEMPO BKN015=
201511271050 METAR COR EGLL 271050Z AUTO 22010KT 190V250 9999 BKN007 OVC017
                        13/11 Q1011 TEMPO BKN012=
201511271020 METAR COR EGLL 271020Z AUTO 21010KT 180V240 9999 BKN005 12/11
                        Q1012 NOSIG=
201511270950 METAR COR EGLL 270950Z AUTO 20013KT 9999 OVC005 12/11 Q1012
                        NOSIG=
201511270920 METAR EGLL 270920Z AUTO 20011KT 170V230 9999 OVC004 11/11
                        Q1012=
201511270850 METAR EGLL 270850Z AUTO 20011KT 7000 OVC003 11/10 Q1013=
201511270820 METAR EGLL 270820Z AUTO 19010KT 4700 -DZ OVC003 11/10 Q1013=
201511270750 METAR EGLL 270750Z AUTO 21009KT 7000 OVC004 11/10 Q1014=
201511270720 METAR EGLL 270720Z AUTO 20009KT 5000 BR OVC003 11/10 Q1014=
201511270650 METAR COR EGLL 270650Z AUTO 20009KT 6000 OVC003 11/10 Q1014
                        TEMPO FEW005 BKN007=
201511270620 METAR COR EGLL 270620Z AUTO 21008KT 180V250 7000 OVC003 11/10
                        Q1014 TEMPO SCT005 BKN007=
201511270550 METAR COR EGLL 270550Z AUTO 21007KT 4600 -DZ OVC005 11/10
                        Q1015 TEMPO 7000 SCT007 BKN010=
201511270520 METAR COR EGLL 270520Z AUTO 21007KT 190V250 7000 OVC005 11/10
                        Q1015 NOSIG=
201511270450 METAR COR EGLL 270450Z AUTO 21006KT 190V250 6000 OVC005 11/10
                        Q1015 NOSIG=
201511270420 METAR COR EGLL 270420Z AUTO 21006KT 6000 OVC005 10/09 Q1016
                        NOSIG=
201511270350 METAR COR EGLL 270350Z AUTO 20006KT 4800 HZ BKN007 10/09
                        Q1016 TEMPO 6000=
201511270320 METAR COR EGLL 270320Z AUTO 20005KT 3900 HZ OVC006 10/09
                        Q1017 TEMPO 6000=
201511270250 METAR COR EGLL 270250Z AUTO 21005KT 4100 HZ OVC006 10/09
                        Q1017 TEMPO 6000=
201511270220 METAR COR EGLL 270220Z AUTO 21005KT 4600 HZ BKN005 OVC023
                        10/09 Q1018 TEMPO 6000 SCT006=
201511270150 METAR COR EGLL 270150Z AUTO 22005KT 5000 HZ SCT005 BKN026
                        10/09 Q1018 TEMPO BKN007=
201511270120 METAR COR EGLL 270120Z AUTO 21005KT 7000 OVC026 10/09 Q1018
                        NOSIG=
201511270050 METAR COR EGLL 270050Z AUTO 22004KT 8000 OVC023 10/09 Q1019
                        NOSIG=
201511270020 METAR COR EGLL 270020Z AUTO 22005KT 9999 OVC026 10/09 Q1019
                        NOSIG=
201511262350 METAR COR EGLL 262350Z AUTO 21004KT 9999 OVC025 10/09 Q1019
                        NOSIG=
201511262320 METAR COR EGLL 262320Z AUTO 21005KT 9999 OVC027 10/09 Q1019
                        NOSIG=
201511262250 METAR COR EGLL 262250Z AUTO 23005KT 9000 OVC024 10/09 Q1020
                        NOSIG=
201511262220 METAR COR EGLL 262220Z AUTO 22005KT 9000 OVC022 10/09 Q1020
                        NOSIG=
201511262150 METAR COR EGLL 262150Z AUTO 23006KT 9000 OVC024 10/09 Q1020
                        NOSIG=
201511262120 METAR COR EGLL 262120Z AUTO 21006KT 180V250 9000 OVC027 10/09
                        Q1020 NOSIG=
201511262050 METAR COR EGLL 262050Z AUTO 21006KT 180V240 9999 OVC029 10/09
                        Q1021 NOSIG=
201511262020 METAR COR EGLL 262020Z AUTO 21005KT 9999 FEW021 OVC027 10/09
                        Q1021 NOSIG=
201511261950 METAR COR EGLL 261950Z AUTO VRB03KT 8000 FEW013 OVC022 10/09
                        Q1021 NOSIG=
201511261920 METAR COR EGLL 261920Z AUTO 24004KT 200V280 9000 OVC027 10/09
                        Q1021 NOSIG=
201511261850 METAR COR EGLL 261850Z AUTO 25004KT 220V290 9999 OVC028 10/09
                        Q1021 NOSIG=
201511261820 METAR COR EGLL 261820Z AUTO 25005KT 8000 OVC024 10/09 Q1021
                        NOSIG=
201511261750 METAR COR EGLL 261750Z AUTO 27005KT 8000 FEW009 BKN028 10/09
                        Q1021 TEMPO BKN010=
201511261720 METAR COR EGLL 261720Z AUTO 27004KT 8000 FEW010 BKN036 09/09
                        Q1021 TEMPO BKN012=
201511261650 METAR COR EGLL 261650Z AUTO 24006KT 7000 FEW012 OVC032 09/09
                        Q1021 TEMPO BKN012=
201511261620 METAR COR EGLL 261620Z AUTO 23006KT 8000 FEW008 OVC029 09/08
                        Q1021 TEMPO BKN012=
201511261550 METAR EGLL 261550Z AUTO 27004KT 7000 -RA BKN007 BKN017 OVC037
                        09/08 Q1021=
201511261520 METAR COR EGLL 261520Z AUTO 28006KT 8000 SCT011 OVC030 10/08
                        Q1020 TEMPO BKN012=
201511261450 METAR EGLL 261450Z AUTO 28006KT 9999 BKN008 OVC033 10/08
                        Q1020=
201511261420 METAR EGLL 261420Z AUTO 28006KT 9999 BKN010/// OVC036///
                        10/08 Q1020=
201511261350 METAR COR EGLL 261350Z AUTO 29006KT 9999 SCT010 BKN027 OVC040
                        10/08 Q1020 NOSIG=
201511261320 METAR COR EGLL 261320Z AUTO 30005KT 270V340 9999 SCT011 BKN021
                        11/08 Q1020 NOSIG=
201511261250 METAR COR EGLL 261250Z AUTO 28007KT 9000 SCT012 OVC038 10/08
                        Q1021 NOSIG=
201511261220 METAR COR EGLL 261220Z AUTO 30005KT 270V340 9999 SCT011 OVC036
                        10/08 Q1021 NOSIG=
201511261150 METAR COR EGLL 261150Z AUTO 30006KT 9999 FEW012 OVC036 10/07
                        Q1020 NOSIG=
201511261120 METAR COR EGLL 261120Z AUTO 30005KT 280V340 9999 FEW012 OVC042
                        10/07 Q1020 NOSIG=
201511261050 METAR COR EGLL 261050Z AUTO 29006KT 9000 FEW012 OVC043 10/07
                        Q1020 NOSIG=
201511261020 METAR COR EGLL 261020Z AUTO 30005KT 270V330 8000 FEW011 OVC048
                        10/07 Q1020 NOSIG=
201511260950 METAR COR EGLL 260950Z AUTO 30006KT 8000 NCD 09/07 Q1020
                        NOSIG=
201511260920 METAR COR EGLL 260920Z AUTO 29007KT 7000 FEW008 09/07 Q1020
                        NOSIG=
201511260850 METAR COR EGLL 260850Z AUTO 29005KT 7000 FEW012 09/07 Q1020
                        NOSIG=
201511260820 METAR COR EGLL 260820Z AUTO 30003KT 8000 FEW017 09/07 Q1020
                        TEMPO BKN014=
201511260750 METAR COR EGLL 260750Z AUTO 30004KT 8000 BKN011 09/07 Q1020
                        TEMPO BKN009=
201511260720 METAR COR EGLL 260720Z AUTO 29004KT 9000 BKN012 09/07 Q1019
                        TEMPO FEW014=
201511260650 METAR COR EGLL 260650Z AUTO 29005KT 9999 BKN012 BKN021 OVC048
                        09/08 Q1019 TEMPO SCT014=
201511260620 METAR COR EGLL 260620Z AUTO 27005KT 9999 SCT011 BKN027 OVC046
                        08/08 Q1018 TEMPO BKN014=
201511260550 METAR COR EGLL 260550Z AUTO 29004KT 9999 SCT013 BKN027 OVC043
                        09/07 Q1018 TEMPO BKN012=
201511260520 METAR COR EGLL 260520Z AUTO 31004KT 270V340 9999 -RA SCT022
                        OVC038 09/07 Q1018 TEMPO BKN012=
201511260450 METAR COR EGLL 260450Z AUTO 30004KT 9999 BKN020 09/07 Q1018
                        TEMPO 4800 DZ BKN012=
201511260420 METAR COR EGLL 260420Z AUTO VRB03KT 9999 BKN030 09/07 Q1017
                        TEMPO 4500 DZ BKN012=
201511260350 METAR COR EGLL 260350Z AUTO 30003KT 9999 OVC039 09/07 Q1017
                        BECMG -DZ BKN012=
201511260320 METAR COR EGLL 260320Z AUTO 29005KT 9999 OVC043 09/07 Q1017
                        BECMG BKN012=
201511260250 METAR COR EGLL 260250Z AUTO 29005KT 9999 OVC047 09/07 Q1017
                        BECMG BKN012=
201511260220 METAR COR EGLL 260220Z AUTO 29004KT 9999 FEW034 OVC045 08/07
                        Q1017 TEMPO BKN014=
201511260150 METAR COR EGLL 260150Z AUTO 30004KT 9999 FEW035 OVC048 09/07
                        Q1017 NOSIG=
201511260120 METAR EGLL 260120Z AUTO 29005KT 9999 SCT022 08/07 Q1017=
201511260050 METAR COR EGLL 260050Z AUTO 28004KT 9999 FEW029 08/07 Q1017
                        NOSIG=
201511260020 METAR COR EGLL 260020Z AUTO 28004KT 9999 NCD 08/07 Q1016
                        NOSIG=
201511252350 METAR COR EGLL 252350Z AUTO 30004KT 9999 NCD 09/07 Q1017
                        NOSIG=
201511252320 METAR COR EGLL 252320Z AUTO 30005KT 9999 NCD 08/07 Q1016
                        NOSIG=
201511252250 METAR COR EGLL 252250Z AUTO 30005KT 9999 FEW014 09/07 Q1016
                        NOSIG=
201511252220 METAR COR EGLL 252220Z AUTO 29004KT 9999 FEW016 BKN032 09/07
                        Q1016 NOSIG=
201511252150 METAR COR EGLL 252150Z AUTO 30004KT 9999 FEW021 BKN043 10/07
                        Q1016 NOSIG=
201511252120 METAR COR EGLL 252120Z AUTO 30005KT 9999 FEW016 BKN031 10/07
                        Q1016 NOSIG=
201511252050 METAR COR EGLL 252050Z AUTO 31005KT 9999 BKN046 10/07 Q1016
                        NOSIG=
201511252020 METAR COR EGLL 252020Z AUTO 30004KT 9999 FEW043 09/07 Q1015
                        NOSIG=
201511251950 METAR COR EGLL 251950Z AUTO 29005KT 9999 FEW022 09/06 Q1015
                        NOSIG=
201511251920 METAR COR EGLL 251920Z AUTO 30004KT 9999 NCD 09/06 Q1015
                        NOSIG=
201511251850 METAR COR EGLL 251850Z AUTO 30006KT 9999 NCD 09/06 Q1014
                        NOSIG=
201511251820 METAR COR EGLL 251820Z AUTO 31005KT 9999 NCD 09/06 Q1014
                        NOSIG=
201511251750 METAR COR EGLL 251750Z AUTO 30005KT 9999 NCD 09/06 Q1014
                        NOSIG=
201511251720 METAR COR EGLL 251720Z AUTO 30003KT 9999 NCD 09/06 Q1014
                        NOSIG=
201511251650 METAR COR EGLL 251650Z AUTO 30006KT 9999 NCD 09/06 Q1013
                        NOSIG=
201511251620 METAR COR EGLL 251620Z AUTO 31005KT 9999 NCD 10/06 Q1013
                        NOSIG=
201511251550 METAR COR EGLL 251550Z AUTO 31005KT 9999 FEW031 12/06 Q1012
                        NOSIG=
201511251520 METAR COR EGLL 251520Z AUTO 31007KT 290V350 9999 FEW028 10/05
                        Q1012 NOSIG=
201511251450 METAR COR EGLL 251450Z AUTO 31008KT 9999 FEW027 10/05 Q1012
                        NOSIG=
201511251420 METAR COR EGLL 251420Z AUTO 32009KT 290V360 9999 BKN024 10/06
                        Q1012 NOSIG=
201511251350 METAR COR EGLL 251350Z AUTO 32007KT 9999 BKN022 10/06 Q1011
                        NOSIG=
201511251320 METAR COR EGLL 251320Z AUTO 31007KT 9999 BKN022 10/06 Q1011
                        NOSIG=
201511251250 METAR COR EGLL 251250Z AUTO 30009KT 9999 BKN023 BKN042 10/06
                        Q1011 NOSIG=
201511251220 METAR COR EGLL 251220Z AUTO 30010KT 9999 FEW023 10/06 Q1011
                        NOSIG=
201511251150 METAR COR EGLL 251150Z AUTO 30009KT 9999 FEW027 10/06 Q1011
                        NOSIG=
201511251120 METAR EGLL 251120Z AUTO 29010KT 9999 FEW029 10/06 Q1012=
201511251050 METAR COR EGLL 251050Z AUTO 29010KT 9999 FEW028 09/06 Q1011
                        NOSIG=
201511251020 METAR COR EGLL 251020Z AUTO 29008KT 9999 FEW021 09/06 Q1011
                        NOSIG=
201511250950 METAR COR EGLL 250950Z AUTO 28009KT 9999 SCT029 BKN045 08/06
                        Q1011 NOSIG=
201511250920 METAR COR EGLL 250920Z AUTO 29008KT 9999 BKN030 09/06 Q1011
                        NOSIG=
201511250850 METAR COR EGLL 250850Z AUTO 28011KT 9999 BKN028 09/06 Q1011
                        NOSIG=
201511250820 METAR COR EGLL 250820Z AUTO 27010KT 9999 FEW030 BKN047 08/06
                        Q1011 NOSIG=
201511250750 METAR COR EGLL 250750Z AUTO 27009KT 9999 FEW032 07/05 Q1011
                        NOSIG=
201511250720 METAR COR EGLL 250720Z AUTO 28008KT 9999 FEW022 BKN027 OVC041
                        08/06 Q1011 NOSIG=
201511250650 METAR COR EGLL 250650Z AUTO 29007KT 9999 -RA SCT027 OVC042
                        08/05 Q1010 NOSIG=
201511250620 METAR COR EGLL 250620Z AUTO 28006KT 9999 FEW026 BKN047 08/05
                        Q1010 NOSIG=
201511250550 METAR COR EGLL 250550Z AUTO 28008KT 9999 BKN023 07/06 Q1010
                        NOSIG=
201511250520 METAR COR EGLL 250520Z AUTO 27007KT 9999 BKN030 07/06 Q1010
                        NOSIG=
201511250450 METAR COR EGLL 250450Z AUTO 28007KT 9999 -RA FEW009 SCT033
                        07/06 Q1010 NOSIG=
201511250420 METAR COR EGLL 250420Z AUTO 28008KT 9999 -RA FEW022 BKN044
                        07/06 Q1010 NOSIG=
201511250350 METAR COR EGLL 250350Z AUTO 27006KT 9999 SCT030 SCT046 07/06
                        Q1010 NOSIG=
201511250320 METAR COR EGLL 250320Z AUTO 27006KT 9999 -RA FEW027 BKN033
                        OVC049 07/06 Q1010 NOSIG=
201511250250 METAR COR EGLL 250250Z AUTO 27007KT 9999 -RA OVC036 07/05
                        Q1010 NOSIG=
201511250220 METAR COR EGLL 250220Z AUTO 27008KT 9999 SCT045 06/05 Q1010
                        NOSIG=
201511250150 METAR COR EGLL 250150Z AUTO 27007KT 9999 FEW043 05/04 Q1010
                        NOSIG=
201511250120 METAR COR EGLL 250120Z AUTO 27005KT 9999 -RA SCT023 BKN037
                        07/05 Q1010 NOSIG=
201511250050 METAR COR EGLL 250050Z AUTO 27007KT 9999 FEW032 SCT048 05/04
                        Q1010 NOSIG=
201511250020 METAR COR EGLL 250020Z AUTO 27006KT 9999 BKN042 05/04 Q1010
                        NOSIG=
201511242350 METAR COR EGLL 242350Z AUTO 27006KT 9999 SCT044 06/05 Q1010
                        NOSIG=
201511242320 METAR COR EGLL 242320Z AUTO 27006KT 9999 NCD 07/05 Q1010
                        NOSIG=
201511242250 METAR EGLL 242250Z AUTO 27007KT 9999 NCD 07/05 Q1010=
201511242220 METAR COR EGLL 242220Z AUTO 27008KT 9999 FEW038 07/05 Q1010
                        NOSIG=
201511242150 METAR COR EGLL 242150Z AUTO 27007KT 9999 NCD 07/05 Q1010
                        NOSIG=
201511242120 METAR COR EGLL 242120Z AUTO 28008KT 9999 NCD 07/05 Q1010
                        NOSIG=
201511242050 METAR COR EGLL 242050Z AUTO 27009KT 9999 NCD 07/05 Q1010
                        NOSIG=
201511242020 METAR COR EGLL 242020Z AUTO 28005KT 9999 FEW044 07/05 Q1010
                        NOSIG=
201511241950 METAR COR EGLL 241950Z AUTO 28006KT 9999 NCD 07/05 Q1010
                        NOSIG=
201511241920 METAR COR EGLL 241920Z AUTO 27006KT 9999 FEW027 07/06 Q1010
                        NOSIG=
201511241850 METAR COR EGLL 241850Z AUTO 27008KT 9999 FEW029 08/06 Q1010
                        NOSIG=
201511241820 METAR COR EGLL 241820Z AUTO 27009KT 9999 SCT020 08/06 Q1010
                        NOSIG=
201511241750 METAR COR EGLL 241750Z AUTO 26011KT 9999 SCT023 BKN034 09/07
                        Q1010 NOSIG=
201511241720 METAR EGLL 241720Z AUTO 26011KT 9999 -RA SCT024 SCT047 09/07
                        Q1010=
201511241650 METAR COR EGLL 241650Z AUTO 24009KT 9000 -RA SCT020 SCT033
                        OVC048 09/07 Q1010 NOSIG=
201511241620 METAR COR EGLL 241620Z AUTO 24009KT 9999 -RA BKN019 BKN035
                        09/07 Q1010 NOSIG=
201511241550 METAR COR EGLL 241550Z AUTO 25010KT 4700 -RA FEW016 BKN026
                        OVC043 09/06 Q1010 BECMG 9999 NSW=
201511241520 METAR COR EGLL 241520Z AUTO 25010KT 9999 FEW019 OVC034 09/06
                        Q1010 NOSIG=
201511241450 METAR COR EGLL 241450Z AUTO 25011KT 9999 -RA BKN033 OVC046
                        09/06 Q1010 NOSIG=
201511241420 METAR COR EGLL 241420Z AUTO 26012KT 9999 -RA FEW018 BKN038
                        09/06 Q1010 NOSIG=
201511241350 METAR COR EGLL 241350Z AUTO 26012KT 9999 -RA FEW022 BKN031
                        BKN046 09/06 Q1011 NOSIG=
201511241320 METAR COR EGLL 241320Z AUTO 26011KT 9999 -RA FEW021 OVC039
                        09/06 Q1011 NOSIG=
201511241250 METAR COR EGLL 241250Z AUTO 26011KT 9999 -RA FEW026 BKN037
                        08/06 Q1011 NOSIG=
201511241220 METAR COR EGLL 241220Z AUTO 27012KT 9999 FEW041 08/06 Q1012
                        NOSIG=
201511241150 METAR COR EGLL 241150Z AUTO 28009KT 9999 FEW045 08/06 Q1012
                        NOSIG=
201511241120 METAR COR EGLL 241120Z AUTO 28009KT 9999 SCT040/// //////TCU
                        08/06 Q1012 NOSIG=
201511241050 METAR COR EGLL 241050Z AUTO 28008KT 9999 SCT040/// //////TCU
                        08/06 Q1012 NOSIG=
201511241020 METAR EGLL 241020Z AUTO 29007KT 9999 FEW017 BKN030 09/07
                        Q1012=
201511240950 METAR COR EGLL 240950Z AUTO 30006KT 9999 BKN013 09/07 Q1012
                        BECMG SCT013 BKN016=
201511240920 METAR COR EGLL 240920Z AUTO 30006KT 9999 BKN014 OVC027 10/08
                        Q1012 BECMG SCT014=
201511240850 METAR COR EGLL 240850Z AUTO 29008KT 9999 FEW008 BKN019 10/09
                        Q1012 NOSIG=
201511240820 METAR COR EGLL 240820Z AUTO 29010KT 4200 BR BKN004 OVC013
                        10/09 Q1012 BECMG 9999 NSW SCT004
                        BKN015=
201511240750 METAR COR EGLL 240750Z AUTO 27011KT 4900 -DZ BKN004 OVC014
                        10/09 Q1011 BECMG 9999 NSW SCT004
                        BKN015=
201511240720 METAR COR EGLL 240720Z AUTO 25009KT 3700 BR BKN003 OVC012
                        10/09 Q1011 BECMG 9999 NSW SCT003
                        BKN015=
201511240650 METAR COR EGLL 240650Z AUTO 25007KT 3600 -RADZ BKN003 10/09
                        Q1012 REDZ BECMG 5000 BKN005=
201511240620 METAR COR EGLL 240620Z AUTO 23009KT 5000 -DZ OVC003 09/08
                        Q1012 TEMPO 4800 DZRA=
201511240550 METAR COR EGLL 240550Z AUTO 22010KT 5000 -RADZ BKN004 09/08
                        Q1012 TEMPO 4800 RADZ=
201511240520 METAR COR EGLL 240520Z AUTO 21012KT 8000 -RA BKN005/// OVC027///
                        //////TCU 09/08 Q1012 TEMPO 4800
                        RADZ BKN004=
201511240450 METAR COR EGLL 240450Z AUTO 21012KT 9000 -RA BKN007 BKN029
                        09/08 Q1013 TEMPO 4800 RADZ BKN004=
201511240420 METAR COR EGLL 240420Z AUTO 21010KT 9999 -RA SCT006 BKN031
                        08/07 Q1013 TEMPO 4800 RA BKN005=
201511240350 METAR COR EGLL 240350Z AUTO 21008KT 8000 -RA BKN005 OVC032
                        08/07 Q1014 TEMPO 4800 RADZ BKN004=
201511240320 METAR COR EGLL 240320Z AUTO 21007KT 9999 -RA FEW009 BKN028
                        08/07 Q1015 TEMPO RA BKN009=
201511240250 METAR COR EGLL 240250Z AUTO 22008KT 9999 -RA BKN009 OVC035
                        07/06 Q1016 TEMPO 4800 RA=
201511240220 METAR COR EGLL 240220Z AUTO 23006KT 9999 -RA OVC013 07/05
                        Q1016 NOSIG=
201511240150 METAR COR EGLL 240150Z AUTO 22008KT 9999 -RA BKN019 OVC035
                        07/05 Q1016 BECMG RA BKN014=
201511240120 METAR COR EGLL 240120Z AUTO 21009KT 9999 -RA SCT037 BKN048
                        07/05 Q1017 TEMPO -RA BKN014=
201511240050 METAR COR EGLL 240050Z AUTO 20009KT 9999 -RA FEW029 07/04
                        Q1017 TEMPO RA=
201511240020 METAR COR EGLL 240020Z AUTO 21008KT 9999 -RA FEW033 BKN049
                        06/04 Q1018 TEMPO RA=
201511232350 METAR COR EGLL 232350Z AUTO 21008KT 9999 -RA BKN031 OVC048
                        06/04 Q1019 NOSIG=
201511232320 METAR COR EGLL 232320Z AUTO 21008KT 9999 -RA BKN031 06/04
                        Q1019 TEMPO RA BKN014=
201511232250 METAR COR EGLL 232250Z AUTO 21009KT 9999 -RA BKN032 07/04
                        Q1020 TEMPO RA=
201511232220 METAR COR EGLL 232220Z AUTO 21008KT 9999 -RA BKN039 07/03
                        Q1020 TEMPO RA=
201511232150 METAR COR EGLL 232150Z AUTO 21008KT 9999 -RA BKN042 07/02
                        Q1020 NOSIG=
201511232120 METAR COR EGLL 232120Z AUTO 21009KT 9999 SCT038 06/02 Q1021
                        NOSIG=
201511232050 METAR COR EGLL 232050Z AUTO 22009KT 9999 BKN038 07/02 Q1021
                        NOSIG=
201511232020 METAR COR EGLL 232020Z AUTO 22009KT 9999 NCD 06/02 Q1021
                        NOSIG=
201511231950 METAR COR EGLL 231950Z AUTO 23009KT 9999 NCD 06/01 Q1022
                        NOSIG=
201511231920 METAR COR EGLL 231920Z AUTO 22008KT 9999 NCD 06/01 Q1022
                        NOSIG=
201511231850 METAR COR EGLL 231850Z AUTO 21009KT 9999 NCD 06/01 Q1022
                        NOSIG=
201511231820 METAR COR EGLL 231820Z AUTO 21009KT 9999 NCD 06/01 Q1022
                        NOSIG=
201511231750 METAR COR EGLL 231750Z AUTO 21009KT 9999 NCD 06/01 Q1023
                        NOSIG=
201511231720 METAR COR EGLL 231720Z AUTO 21008KT 190V260 9999 NCD 06/00
                        Q1023 NOSIG=
201511231650 METAR COR EGLL 231650Z AUTO 21008KT 9999 NCD 06/00 Q1023
                        NOSIG=
201511231620 METAR COR EGLL 231620Z AUTO 22008KT 9999 NCD 06/M00 Q1023
                        NOSIG=
201511231550 METAR COR EGLL 231550Z AUTO 22008KT 9999 NCD 06/M00 Q1024
                        NOSIG=
201511231520 METAR COR EGLL 231520Z AUTO 25008KT 9999 NCD 07/00 Q1024
                        NOSIG=
201511231450 METAR COR EGLL 231450Z AUTO 25009KT 9999 NCD 07/01 Q1024
                        NOSIG=
201511231420 METAR COR EGLL 231420Z AUTO 24010KT 9999 NCD 07/00 Q1024
                        NOSIG=
201511231350 METAR COR EGLL 231350Z AUTO 23007KT 9999 NCD 07/01 Q1024
                        NOSIG=
201511231320 METAR COR EGLL 231320Z AUTO 22006KT 150V270 9999 NCD 06/02
                        Q1025 NOSIG=
201511231250 METAR COR EGLL 231250Z AUTO 19007KT 150V250 9999 NCD 06/02
                        Q1025 NOSIG=
201511231220 METAR COR EGLL 231220Z AUTO 23005KT 200V290 9000 NCD 06/02
                        Q1025 NOSIG=
201511231150 METAR COR EGLL 231150Z AUTO 23004KT 200V280 9000 NCD 05/02
                        Q1025 NOSIG=
201511231120 METAR COR EGLL 231120Z AUTO 24005KT 200V270 8000 NCD 04/01
                        Q1025 NOSIG=
201511231050 METAR COR EGLL 231050Z AUTO 24005KT 210V280 8000 NCD 04/01
                        Q1026 NOSIG=
201511231020 METAR COR EGLL 231020Z AUTO 24006KT 8000 NCD 04/01 Q1026
                        NOSIG=
201511230950 METAR COR EGLL 230950Z AUTO 26004KT 190V310 6000 NCD 03/02
                        Q1026 NOSIG=
201511230920 METAR COR EGLL 230920Z AUTO 29003KT 4300 HZ NCD 02/01 Q1026
                        BECMG 9000=
201511230850 METAR COR EGLL 230850Z AUTO 29004KT 4200 HZ NCD 01/00 Q1026
                        BECMG 8000=
201511230820 METAR COR EGLL 230820Z AUTO 28005KT 3800 HZ NCD 01/M00 Q1026
                        BECMG 7000=
201511230750 METAR COR EGLL 230750Z AUTO 28005KT 4200 HZ NCD 01/M00 Q1025
                        NOSIG=
201511230720 METAR COR EGLL 230720Z AUTO 31003KT 5000 HZ NCD 00/M01 Q1025
                        TEMPO 4500 BR=
201511230650 METAR COR EGLL 230650Z AUTO VRB01KT 6000 NCD 01/M00 Q1025
                        TEMPO 4000 BR=
201511230620 METAR COR EGLL 230620Z AUTO VRB03KT 6000 NCD 01/M00 Q1025
                        TEMPO 4000 BR=
201511230550 METAR COR EGLL 230550Z AUTO VRB01KT 6000 NCD 00/M01 Q1024
                        TEMPO 4000 BR=
201511230520 METAR COR EGLL 230520Z AUTO VRB02KT 6000 NCD 00/M01 Q1024
                        TEMPO 4000 BR=
201511230450 METAR COR EGLL 230450Z AUTO 23001KT 7000 NCD 01/M01 Q1024
                        TEMPO 4000 BR=
201511230420 METAR COR EGLL 230420Z AUTO VRB01KT 5000 HZ NCD 00/M01 Q1024
                        TEMPO 4000 BR=
201511230350 METAR COR EGLL 230350Z AUTO 31002KT 5000 HZ NCD 00/M01 Q1024
                        TEMPO 4000=
201511230320 METAR COR EGLL 230320Z AUTO 23001KT 5000 HZ NCD 00/M01 Q1024
                        TEMPO 4000 BR=
201511230250 METAR COR EGLL 230250Z AUTO 30002KT 7000 NCD 00/M01 Q1024
                        NOSIG=
201511230220 METAR COR EGLL 230220Z AUTO 27003KT 6000 NCD 00/M01 Q1023
                        NOSIG=
201511230150 METAR COR EGLL 230150Z AUTO 32002KT 7000 NCD 01/M01 Q1023
                        NOSIG=
201511230120 METAR COR EGLL 230120Z AUTO 28002KT 7000 NCD 01/M00 Q1023
                        NOSIG=
201511230050 METAR COR EGLL 230050Z AUTO VRB01KT 8000 NCD 01/M00 Q1023
                        NOSIG=
201511230020 METAR COR EGLL 230020Z AUTO VRB02KT 9000 NCD 01/M00 Q1023
                        NOSIG=
201511222350 METAR COR EGLL 222350Z AUTO 35003KT 9999 NCD 02/M00 Q1022
                        NOSIG=
201511222320 METAR COR EGLL 222320Z AUTO VRB03KT 9999 NCD 02/00 Q1022
                        NOSIG=
201511222250 METAR COR EGLL 222250Z AUTO VRB03KT 9999 NCD 02/01 Q1022
                        NOSIG=
201511222220 METAR COR EGLL 222220Z AUTO 35005KT 9999 NCD 03/01 Q1021
                        NOSIG=
201511222150 METAR COR EGLL 222150Z AUTO 35005KT 320V020 9999 NCD 03/01
                        Q1021 NOSIG=
201511222120 METAR COR EGLL 222120Z AUTO 35005KT 9999 NCD 03/01 Q1021
                        NOSIG=
201511222050 METAR COR EGLL 222050Z AUTO 36004KT 9999 NCD 03/01 Q1020
                        NOSIG=
201511222020 METAR COR EGLL 222020Z AUTO VRB02KT 9999 FEW016 03/01 Q1020
                        NOSIG=
201511221950 METAR COR EGLL 221950Z AUTO 31003KT 9999 FEW015 04/01 Q1020
                        NOSIG=
201511221920 METAR COR EGLL 221920Z AUTO 32004KT 9999 BKN015 04/01 Q1020
                        TEMPO BKN014=
201511221850 METAR COR EGLL 221850Z AUTO 33004KT 300V010 9999 BKN018 04/01
                        Q1019 NOSIG=
201511221820 METAR COR EGLL 221820Z AUTO 35005KT 310V020 9999 SCT020 BKN034
                        04/01 Q1019 NOSIG=
201511221750 METAR COR EGLL 221750Z AUTO 33004KT 300V360 9999 BKN022 05/01
                        Q1018 NOSIG=
201511221720 METAR COR EGLL 221720Z AUTO 32004KT 9999 NCD 04/01 Q1018
                        NOSIG=
201511221650 METAR COR EGLL 221650Z AUTO 33004KT 290V350 9999 NCD 05/01
                        Q1017 NOSIG=
201511221620 METAR COR EGLL 221620Z AUTO 31005KT 9999 SCT027 05/01 Q1017
                        NOSIG=
201511221550 METAR COR EGLL 221550Z AUTO 31005KT 9999 OVC024 05/01 Q1017
                        NOSIG=
201511221520 METAR COR EGLL 221520Z AUTO 35006KT 300V030 9999 OVC020 05/01
                        Q1017 NOSIG=
201511221450 METAR COR EGLL 221450Z AUTO 36006KT 330V040 9999 OVC025 06/01
                        Q1016 NOSIG=
201511221420 METAR COR EGLL 221420Z AUTO 35005KT 310V030 9999 FEW020 OVC030
                        06/01 Q1016 NOSIG=
201511221350 METAR COR EGLL 221350Z AUTO 32007KT 300V010 9999 FEW021 OVC030
                        07/01 Q1015 NOSIG=
201511221320 METAR COR EGLL 221320Z AUTO 30005KT 270V350 9999 BKN034 07/02
                        Q1015 NOSIG=
201511221250 METAR COR EGLL 221250Z AUTO 30004KT 260V330 9999 NCD 06/02
                        Q1015 NOSIG=
201511221220 METAR COR EGLL 221220Z AUTO 27005KT 230V310 9999 NCD 05/02
                        Q1015 NOSIG=
201511221150 METAR COR EGLL 221150Z AUTO 27004KT 230V310 9999 FEW038 06/01
                        Q1015 NOSIG=
201511221120 METAR COR EGLL 221120Z AUTO VRB02KT 9999 BKN037 05/01 Q1015
                        NOSIG=
201511221050 METAR COR EGLL 221050Z AUTO VRB03KT 9999 FEW039 05/01 Q1015
                        NOSIG=
201511221020 METAR COR EGLL 221020Z AUTO VRB02KT 9999 SCT039 04/00 Q1015
                        NOSIG=
201511220950 METAR COR EGLL 220950Z AUTO 29003KT 9999 NCD 02/M00 Q1014
                        NOSIG=
201511220920 METAR COR EGLL 220920Z AUTO 28003KT 9999 NCD 01/M01 Q1014
                        NOSIG=
201511220850 METAR COR EGLL 220850Z AUTO 28004KT 9999 NCD 01/M01 Q1013
                        NOSIG=
201511220820 METAR COR EGLL 220820Z AUTO 27005KT 230V290 9999 NCD 00/M01
                        Q1013 NOSIG=
201511220750 METAR COR EGLL 220750Z AUTO VRB02KT 9999 NCD M01/M02 Q1013
                        NOSIG=
201511220720 METAR EGLL 220720Z AUTO 26004KT 210V280 9999 NCD M00/M01
                        Q1012=
201511220650 METAR EGLL 220650Z AUTO 29004KT 9999 NCD M01/M02 Q1012=
201511220620 METAR EGLL 220620Z AUTO 28002KT 9999 NCD M02/M03 Q1012=
201511220550 METAR COR EGLL 220550Z AUTO 30003KT 9999 NCD M02/M03 Q1011
                        NOSIG=
201511220520 METAR COR EGLL 220520Z AUTO 29003KT 9999 NCD M02/M03 Q1011
                        NOSIG=
201511220450 METAR COR EGLL 220450Z AUTO 30006KT 9999 NCD M01/M02 Q1011
                        NOSIG=
201511220420 METAR COR EGLL 220420Z AUTO 29006KT 9999 NCD M02/M04 Q1011
                        NOSIG=
201511220350 METAR EGLL 220350Z AUTO 29003KT 9999 NCD M02/M04 Q1011 NOSIG=
201511220320 METAR COR EGLL 220320Z AUTO 30003KT 9999 NCD M01/M03 Q1011
                        NOSIG=
201511220250 METAR EGLL 220250Z AUTO 26003KT 9999 NCD M01/M03 Q1011 NOSIG=
201511220220 METAR COR EGLL 220220Z AUTO VRB03KT 9999 NCD M01/M04 Q1012
                        NOSIG=
201511220150 METAR EGLL 220150Z AUTO 24002KT 9999 NCD M01/M05 Q1012 NOSIG=
201511220120 METAR COR EGLL 220120Z AUTO 26003KT 9999 NCD M01/M05 Q1012
                        NOSIG=
201511220050 METAR EGLL 220050Z AUTO 24002KT 9999 NCD M00/M05 Q1012 NOSIG=
201511220020 METAR COR EGLL 220020Z AUTO 28003KT 9999 NCD 00/M05 Q1012
                        NOSIG=
201511212350 METAR COR EGLL 212350Z AUTO 28001KT 9999 NCD 00/M05 Q1012
                        NOSIG=
201511212320 METAR COR EGLL 212320Z AUTO 29005KT 9999 NCD 00/M06 Q1012
                        NOSIG=
201511212250 METAR COR EGLL 212250Z AUTO 29005KT 9999 NCD 00/M06 Q1012
                        NOSIG=
201511212220 METAR COR EGLL 212220Z AUTO 28006KT 9999 NCD 00/M06 Q1012
                        NOSIG=
201511212150 METAR EGLL 212150Z AUTO 29004KT 220V340 9999 NCD 00/M06 Q1012
                        NOSIG=
201511212120 METAR COR EGLL 212120Z AUTO VRB03KT 9999 NCD 01/M06 Q1012
                        NOSIG=
201511212050 METAR EGLL 212050Z AUTO 30005KT 260V330 9999 NCD 02/M06 Q1012
                        NOSIG=
201511212020 METAR COR EGLL 212020Z AUTO 33007KT 9999 NCD 02/M06 Q1012
                        NOSIG=
201511211950 METAR EGLL 211950Z AUTO 31006KT 270V350 9999 NCD 02/M06 Q1012
                        NOSIG=
201511211920 METAR COR EGLL 211920Z AUTO 32008KT 280V350 9999 NCD 02/M06
                        Q1012 NOSIG=
201511211850 METAR EGLL 211850Z AUTO 32008KT 9999 NCD 02/M05 Q1012 NOSIG=
201511211820 METAR COR EGLL 211820Z AUTO 31009KT 9999 NCD 02/M05 Q1012
                        NOSIG=
201511211750 METAR EGLL 211750Z AUTO 32010KT 9999 NCD 03/M05 Q1012 NOSIG=
201511211720 METAR COR EGLL 211720Z AUTO 32009KT 9999 NCD 03/M04 Q1011
                        NOSIG=
201511211650 METAR EGLL 211650Z AUTO 31011KT 9999 NCD 03/M04 Q1011 NOSIG=
201511211620 METAR EGLL 211620Z AUTO 33010KT 300V010 9999 NCD 03/M03 Q1011=
201511211550 METAR EGLL 211550Z AUTO 32010G20KT 9999 NCD 04/M03 Q1011=
201511211520 METAR COR EGLL 211520Z AUTO 33012KT 9999 FEW037 04/M03 Q1011
                        NOSIG=
201511211450 METAR EGLL 211450Z AUTO 33012KT 300V360 9999 SCT035 05/M03
                        Q1010 NOSIG=
201511211420 METAR COR EGLL 211420Z AUTO 33014KT 300V020 9999 FEW033 05/M03
                        Q1010 NOSIG=
201511211350 METAR EGLL 211350Z AUTO 32015KT 9999 SCT033 05/M02 Q1010
                        NOSIG=
201511211320 METAR COR EGLL 211320Z AUTO 32015G25KT 9999 FEW033 05/M02
                        Q1010 NOSIG=
201511211250 METAR COR EGLL 211250Z AUTO 33012G23KT 300V050 9999 FEW035
                        06/M02 Q1009 NOSIG=
201511211220 METAR COR EGLL 211220Z AUTO 32015G25KT 280V010 9999 FEW034
                        06/M01 Q1009 NOSIG=
201511211150 METAR EGLL 211150Z AUTO 33013G23KT 290V360 9999 SCT031 06/M01
                        Q1009 NOSIG=
201511211120 METAR COR EGLL 211120Z AUTO 33012G26KT 300V010 9999 BKN030
                        06/M00 Q1008 NOSIG=
201511211050 METAR COR EGLL 211050Z AUTO 33016G28KT 9999 SCT027 06/01
                        Q1007 NOSIG=
201511211020 METAR COR EGLL 211020Z AUTO 33016G26KT 310V010 9999 BKN025
                        06/01 Q1006 NOSIG=
201511210950 METAR EGLL 210950Z AUTO 33015KT 300V010 9999 BKN025 BKN041
                        06/02 Q1006 NOSIG=
201511210920 METAR COR EGLL 210920Z AUTO 34012G22KT 300V050 9999 BKN016
                        OVC035 05/03 Q1005 NOSIG=
201511210850 METAR EGLL 210850Z AUTO 34012G22KT 300V010 9000 -RA BKN013
                        05/03 Q1004 BECMG SCT013=
201511210820 METAR COR EGLL 210820Z AUTO 33013KT 300V360 9999 -RA BKN010///
                        OVC023/// //////TCU 03/02 Q1003 TEMPO
                        BKN008=
201511210750 METAR EGLL 210750Z AUTO 31010KT 280V350 5000 -RASN BKN004///
                        //////TCU 02/01 Q1003 RESN RERA=
201511210720 METAR COR EGLL 210720Z AUTO 30013G24KT 5000 -RADZ BKN006///
                        //////CB 03/01 Q1002 TEMPO 3000 RASN=
201511210650 METAR COR EGLL 210650Z AUTO 30015KT 9000 -RA BKN014 03/01
                        Q1002 TEMPO 4000 RASN=
201511210620 METAR COR EGLL 210620Z AUTO 30014G26KT 9999 BKN019 04/00
                        Q1001 TEMPO SHRA BKN012=
201511210550 METAR EGLL 210550Z AUTO 29012KT 9999 SCT021 SCT027 03/00
                        Q1002 TEMPO SHRA BKN012=
201511210520 METAR COR EGLL 210520Z AUTO 29011KT 9999 FEW017 03/00 Q1002
                        TEMPO SHRA BKN012=
201511210450 METAR COR EGLL 210450Z AUTO 29010KT 9999 FEW017 03/M00 Q1002
                        TEMPO SHRA BKN012=
201511210420 METAR COR EGLL 210420Z AUTO 30010KT 9999 NCD 03/M00 Q1001
                        NOSIG=
201511210350 METAR EGLL 210350Z AUTO 31010KT 9999 FEW017 03/00 Q1001 NOSIG=
201511210320 METAR COR EGLL 210320Z AUTO 30012KT 9999 BKN017 03/00 Q1001
                        NOSIG=
201511210250 METAR EGLL 210250Z AUTO 30012KT 9999 BKN018 04/00 Q1002 NOSIG=
201511210220 METAR COR EGLL 210220Z AUTO 30012KT 9999 OVC020 03/00 Q1002
                        NOSIG=
201511210150 METAR EGLL 210150Z AUTO 29012KT 9999 BKN019 03/M00 Q1002
                        NOSIG=
201511210120 METAR COR EGLL 210120Z AUTO 28011KT 9999 SCT029 03/M01 Q1002
                        NOSIG=
201511210050 METAR EGLL 210050Z AUTO 28012KT 9999 NCD 03/M00 Q1002 NOSIG=
201511210020 METAR COR EGLL 210020Z AUTO 28013KT 9999 NCD 03/00 Q1002
                        NOSIG=
201511202350 METAR COR EGLL 202350Z AUTO 28010KT 9999 FEW023 04/01 Q1003
                        NOSIG=
201511202320 METAR COR EGLL 202320Z AUTO 30010KT 9999 SCT022 05/01 Q1003
                        NOSIG=
201511202250 METAR COR EGLL 202250Z AUTO 28010KT 9999 FEW029/// //////TCU
                        04/02 Q1003 NOSIG=
201511202220 METAR COR EGLL 202220Z AUTO 27013KT 9999 NCD 04/02 Q1004
                        NOSIG=
201511202150 METAR COR EGLL 202150Z AUTO 27014KT 9999 NCD 04/02 Q1004
                        TEMPO SHRA BKN014=
201511202120 METAR COR EGLL 202120Z AUTO 28009KT 9999 -RA SCT017 BKN042
                        05/02 Q1004 TEMPO SHRA BKN014=
201511202050 METAR EGLL 202050Z AUTO 29010KT 9000 -RA SCT019/// BKN035///
                        //////TCU 06/03 Q1004 TEMPO BKN014=
201511202020 METAR COR EGLL 202020Z AUTO 27012KT 9999 NCD 06/02 Q1004
                        TEMPO SHRA BKN014=
201511201950 METAR COR EGLL 201950Z AUTO 27011KT 9999 NCD 05/02 Q1004
                        TEMPO SHRA BKN014=
201511201920 METAR COR EGLL 201920Z AUTO 27012KT 9999 NCD 06/02 Q1004
                        NOSIG=
201511201850 METAR COR EGLL 201850Z AUTO 27012KT 9999 SCT037 06/02 Q1004
                        NOSIG=
201511201820 METAR COR EGLL 201820Z 27012KT 9999 FEW038 07/02 Q1005 NOSIG=
201511201750 METAR COR EGLL 201750Z 26012KT 9999 FEW046 07/02 Q1005 NOSIG=
201511201720 METAR COR EGLL 201720Z 26011KT CAVOK 07/02 Q1005 NOSIG=
201511201650 METAR COR EGLL 201650Z 27011KT CAVOK 07/02 Q1005 NOSIG=
201511201620 METAR COR EGLL 201620Z AUTO 27012KT 9999 FEW043 07/02 Q1005
                        NOSIG=
201511201550 METAR EGLL 201550Z AUTO 27011KT 9999 FEW037 07/02 Q1005 NOSIG=
201511201520 METAR COR EGLL 201520Z AUTO 27015KT 9999 FEW034 SCT047 08/03
                        Q1005 NOSIG=
201511201450 METAR COR EGLL 201450Z AUTO 27016KT 9999 SCT033 09/02 Q1005
                        NOSIG=
201511201420 METAR COR EGLL 201420Z AUTO 27012KT 9999 SCT034 09/03 Q1006
                        NOSIG=
201511201350 METAR EGLL 201350Z AUTO 28010KT 9999 NCD 09/03 Q1006 NOSIG=
201511201320 METAR COR EGLL 201320Z AUTO 28010KT 9999 NCD 09/04 Q1006
                        NOSIG=
201511201250 METAR EGLL 201250Z AUTO 27010KT 9999 NCD 09/04 Q1007 NOSIG=
201511201220 METAR COR EGLL 201220Z AUTO 27010KT 9999 NCD 09/04 Q1008
                        NOSIG=
201511201150 METAR EGLL 201150Z AUTO 27009KT 240V300 9999 NCD 09/04 Q1008
                        NOSIG=
201511201120 METAR COR EGLL 201120Z AUTO 26009KT 9999 NCD 08/04 Q1008
                        NOSIG=
201511201050 METAR EGLL 201050Z AUTO 27009KT 9999 NCD 09/04 Q1009 NOSIG=
201511201020 METAR COR EGLL 201020Z AUTO 27009KT 9999 NCD 08/05 Q1009
                        NOSIG=
201511200950 METAR COR EGLL 200950Z AUTO 27009KT 9999 NCD 09/05 Q1009
                        NOSIG=
201511200920 METAR COR EGLL 200920Z AUTO 28007KT 9999 NCD 08/05 Q1010
                        NOSIG=
201511200850 METAR EGLL 200850Z AUTO 28007KT 9999 NCD 08/05 Q1009 NOSIG=
201511200820 METAR COR EGLL 200820Z AUTO 26008KT 9999 NCD 08/05 Q1009
                        NOSIG=
201511200750 METAR EGLL 200750Z AUTO 27007KT 9999 NCD 08/05 Q1010 NOSIG=
201511200720 METAR COR EGLL 200720Z AUTO 26007KT 230V300 9999 NCD 08/06
                        Q1010 NOSIG=
201511200650 METAR COR EGLL 200650Z AUTO 25008KT 9999 NCD 08/06 Q1010
                        NOSIG=
201511200620 METAR COR EGLL 200620Z AUTO 26009KT 9999 NCD 09/06 Q1011
                        NOSIG=
201511200550 METAR COR EGLL 200550Z AUTO 26008KT 9999 NCD 09/06 Q1011
                        NOSIG=
201511200520 METAR COR EGLL 200520Z AUTO 27007KT 9999 NCD 09/07 Q1012
                        NOSIG=
201511200450 METAR COR EGLL 200450Z AUTO 25007KT 9999 FEW046 09/07 Q1012
                        NOSIG=
201511200420 METAR COR EGLL 200420Z AUTO 25006KT 9999 NCD 09/07 Q1012
                        NOSIG=
201511200350 METAR COR EGLL 200350Z AUTO 24007KT 9999 NCD 09/07 Q1012
                        NOSIG=
201511200320 METAR COR EGLL 200320Z AUTO 25006KT 9999 NCD 09/07 Q1013
                        NOSIG=
201511200250 METAR EGLL 200250Z AUTO 24006KT 9999 NCD 09/07 Q1013 NOSIG=
201511200220 METAR COR EGLL 200220Z AUTO 24006KT 9999 NCD 09/07 Q1013
                        NOSIG=
201511200150 METAR EGLL 200150Z AUTO 23007KT 9999 FEW035 09/07 Q1014 NOSIG=
201511200120 METAR COR EGLL 200120Z AUTO 23005KT 9999 FEW041 09/07 Q1014
                        NOSIG=
201511200050 METAR EGLL 200050Z AUTO 23007KT 9999 NCD 09/08 Q1014 NOSIG=
201511200020 METAR COR EGLL 200020Z AUTO 21006KT 9999 NCD 09/07 Q1014
                        NOSIG=
201511192350 METAR EGLL 192350Z AUTO 24005KT 9999 NCD 09/07 Q1014 NOSIG=
201511192320 METAR COR EGLL 192320Z AUTO 24007KT 9999 NCD 09/07 Q1014
                        NOSIG=
201511192250 METAR COR EGLL 192250Z AUTO 25008KT 9999 NCD 09/07 Q1014
                        NOSIG=
201511192220 METAR COR EGLL 192220Z AUTO 24008KT 9999 NCD 09/07 Q1014
                        NOSIG=
201511192150 METAR COR EGLL 192150Z AUTO 27008KT 9999 FEW037 10/07 Q1014
                        NOSIG=
201511192120 METAR COR EGLL 192120Z AUTO 25007KT 9999 NCD 10/07 Q1014
                        NOSIG=
201511192050 METAR EGLL 192050Z AUTO 25009KT 9999 NCD 10/07 Q1014 NOSIG=
201511192020 METAR COR EGLL 192020Z AUTO 25009KT 9999 NCD 10/08 Q1014
                        NOSIG=
201511191950 METAR EGLL 191950Z AUTO 23009KT 9999 NCD 09/08 Q1013 NOSIG=
201511191920 METAR COR EGLL 191920Z AUTO 25008KT 220V290 9999 NCD 10/08
                        Q1014 NOSIG=
201511191850 METAR EGLL 191850Z AUTO 26008KT 9999 NCD 10/08 Q1013 NOSIG=
201511191820 METAR COR EGLL 191820Z AUTO 27010KT 9999 NCD 10/08 Q1013
                        NOSIG=
201511191750 METAR EGLL 191750Z AUTO 27010KT 9999 NCD 10/08 Q1013 NOSIG=
201511191720 METAR COR EGLL 191720Z AUTO 28007KT 9999 NCD 10/08 Q1012
                        NOSIG=
201511191650 METAR EGLL 191650Z AUTO 27009KT 9999 FEW034 BKN044 10/08
                        Q1012 NOSIG=
201511191620 METAR COR EGLL 191620Z AUTO 24008KT 9999 BKN024 10/08 Q1012
                        NOSIG=
201511191550 METAR EGLL 191550Z AUTO 28005KT 9999 OVC016 10/08 Q1012 NOSIG=
201511191520 METAR COR EGLL 191520Z AUTO 32005KT 9999 -RA BKN007 OVC015
                        10/08 Q1012 TEMPO SCT007=
201511191450 METAR COR EGLL 191450Z AUTO 26008KT 9999 FEW011 SCT018 11/10
                        Q1011 NOSIG=
201511191420 METAR COR EGLL 191420Z AUTO 25008KT 9000 -RA SCT007 BKN022
                        BKN035 11/10 Q1011 TEMPO RADZ=
201511191350 METAR EGLL 191350Z AUTO 25008KT 6000 BKN004 OVC039 11/10
                        Q1011=
201511191320 METAR EGLL 191320Z AUTO 23007KT 200V260 4400 -DZ BKN005 11/10
                        Q1012 RERA REDZ=
201511191250 METAR EGLL 191250Z AUTO 25009KT 4600 RADZ SCT008 BKN021 OVC036
                        11/10 Q1013 TEMPO BKN012=
201511191220 METAR COR EGLL 191220Z AUTO 25009KT 9999 -RA FEW010 BKN024
                        OVC039 11/10 Q1013 TEMPO RADZ=
201511191150 METAR EGLL 191150Z AUTO 24010KT 9000 -RA FEW011 BKN029 11/10
                        Q1013 TEMPO RA=
201511191120 METAR COR EGLL 191120Z AUTO 24009KT 8000 -RA FEW011/// BKN023///
                        //////TCU 12/10 Q1013 NOSIG=
201511191050 METAR EGLL 191050Z AUTO 24010KT 6000 -RA BKN018 BKN033 12/10
                        Q1014 TEMPO RA=
201511191020 METAR COR EGLL 191020Z AUTO 25011KT 8000 -RA BKN038 12/09
                        Q1014 TEMPO RA=
201511190950 METAR EGLL 190950Z AUTO 24011KT 9999 -RA FEW017 12/09 Q1014
                        NOSIG=
201511190920 METAR COR EGLL 190920Z AUTO 24011KT 9999 -RA SCT019 12/09
                        Q1013 NOSIG=
201511190850 METAR EGLL 190850Z AUTO 24013KT 9999 NCD 12/09 Q1014 NOSIG=
201511190820 METAR COR EGLL 190820Z AUTO 25013KT 9999 FEW023 12/08 Q1013
                        NOSIG=
201511190750 METAR EGLL 190750Z AUTO 24012KT 9999 SCT020 12/08 Q1014 NOSIG=
201511190720 METAR COR EGLL 190720Z AUTO 23012KT 9999 BKN021 11/09 Q1013
                        NOSIG=
201511190650 METAR COR EGLL 190650Z AUTO 24012KT 9999 BKN030 11/08 Q1013
                        NOSIG=
201511190620 METAR COR EGLL 190620Z AUTO 24012KT 9999 FEW024 11/08 Q1013
                        NOSIG=
201511190550 METAR EGLL 190550Z AUTO 24011KT 9999 NCD 11/08 Q1013 NOSIG=
201511190520 METAR COR EGLL 190520Z AUTO 23011KT 9999 NCD 11/08 Q1013
                        NOSIG=
201511190450 METAR COR EGLL 190450Z AUTO 23011KT 9999 NCD 11/08 Q1013
                        NOSIG=
201511190420 METAR COR EGLL 190420Z AUTO 25015KT 9999 NCD 11/08 Q1013
                        NOSIG=
201511190350 METAR COR EGLL 190350Z AUTO 26019KT 9999 SCT022 SCT036 11/09
                        Q1013 RERA NOSIG=
201511190320 METAR COR EGLL 190320Z AUTO 27022KT 2500 RA FEW016 SCT025
                        BKN034 11/09 Q1013 BECMG 9000 NSW=
201511190250 METAR EGLL 190250Z AUTO 26017KT 4900 -RA FEW021 BKN034 11/08
                        Q1013 BECMG 6000 NSW=
201511190220 METAR COR EGLL 190220Z AUTO 26020KT 6000 -RA SCT027/// BKN039///
                        //////TCU 11/08 Q1013 RERA NOSIG=
201511190150 METAR EGLL 190150Z AUTO 26017KT 4300 RA SCT013/// BKN026///
                        //////TCU 11/09 Q1012 REDZ BECMG
                        9000 NSW=
201511190120 METAR COR EGLL 190120Z AUTO 25015KT 9999 BKN029 13/07 Q1012
                        NOSIG=
201511190050 METAR COR EGLL 190050Z AUTO 26016KT 9999 SCT030 BKN045 13/07
                        Q1012 NOSIG=
201511190020 METAR COR EGLL 190020Z AUTO 25019KT 9999 BKN032 13/07 Q1011
                        NOSIG=
201511182350 METAR EGLL 182350Z AUTO 25018KT 9999 BKN033 13/07 Q1011 NOSIG=
201511182320 METAR COR EGLL 182320Z AUTO 25019KT 9999 SCT034 13/07 Q1011
                        NOSIG=
201511182250 METAR EGLL 182250Z AUTO 26020KT 9999 NCD 13/07 Q1011 NOSIG=
201511182220 METAR COR EGLL 182220Z AUTO 25020KT 9999 FEW036 13/08 Q1010
                        NOSIG=
201511182150 METAR EGLL 182150Z AUTO 25021KT 9999 FEW030 13/08 Q1010 NOSIG=
201511182120 METAR COR EGLL 182120Z AUTO 24020KT 9999 BKN039 13/08 Q1010
                        NOSIG=
201511182050 METAR EGLL 182050Z AUTO 24017KT 9999 FEW034 13/08 Q1010 NOSIG=
201511182020 METAR COR EGLL 182020Z AUTO 24017KT 9999 FEW040 12/08 Q1010
                        NOSIG=
201511181950 METAR COR EGLL 181950Z AUTO 24017KT 9999 FEW030 13/08 Q1010
                        NOSIG=
201511181920 METAR COR EGLL 181920Z AUTO 24016G26KT 9999 FEW034 13/08
                        Q1010 NOSIG=
201511181850 METAR EGLL 181850Z AUTO 24016KT 9999 FEW036 13/08 Q1010 NOSIG=
201511181820 METAR EGLL 181820Z AUTO 25017KT 9999 NCD 13/08 Q1010=
201511181750 METAR EGLL 181750Z AUTO 25020KT 9999 FEW033 14/09 Q1009 NOSIG=
201511181720 METAR COR EGLL 181720Z AUTO 25020KT 9999 FEW030 SCT044 14/10
                        Q1009 NOSIG=
201511181650 METAR COR EGLL 181650Z AUTO 24018KT 9999 SCT034 14/11 Q1009
                        NOSIG=
201511181620 METAR COR EGLL 181620Z AUTO 24014KT 9999 -RA FEW043 13/11
                        Q1008 NOSIG=
201511181550 METAR EGLL 181550Z AUTO 25022KT 7000 -RA FEW019/// BKN040///
                        //////CB 13/11 Q1008 RERA REDZ NOSIG=
201511181520 METAR COR EGLL 181520Z AUTO 23022G34KT 2900 -RADZ BKN013///
                        BKN026/// //////CB 14/12 Q1009 BECMG
                        5000 SHRA=
201511181450 METAR COR EGLL 181450Z AUTO 23022KT 9999 BKN021 14/10 Q1008
                        TEMPO SHRA=
201511181420 METAR COR EGLL 181420Z AUTO 23020G30KT 9999 BKN024 15/10
                        Q1008 TEMPO RA BKN014=
201511181350 METAR EGLL 181350Z AUTO 23021G31KT 9999 SCT027 15/09 Q1008
                        TEMPO RA BKN014=
201511181320 METAR COR EGLL 181320Z AUTO 23023G34KT 9999 OVC029 15/09
                        Q1010 NOSIG=
201511181250 METAR EGLL 181250Z AUTO 23022G33KT 9999 BKN025 15/09 Q1010
                        NOSIG=
201511181220 METAR COR EGLL 181220Z AUTO 22023G36KT 9999 BKN025 15/09
                        Q1010 NOSIG=
201511181150 METAR EGLL 181150Z AUTO 22019G29KT 9999 BKN026 15/09 Q1010
                        NOSIG=
201511181120 METAR COR EGLL 181120Z AUTO 23018KT 9999 BKN026 15/09 Q1011
                        NOSIG=
201511181050 METAR EGLL 181050Z AUTO 23022G32KT 9999 BKN025 15/09 Q1011
                        NOSIG=
201511181020 METAR COR EGLL 181020Z AUTO 23020KT 9999 BKN022 14/09 Q1011
                        NOSIG=
201511180950 METAR COR EGLL 180950Z AUTO 22014KT 9999 BKN021 13/09 Q1012
                        NOSIG=
201511180920 METAR COR EGLL 180920Z AUTO 21014G24KT 9999 FEW021 13/09
                        Q1012 NOSIG=
201511180850 METAR EGLL 180850Z AUTO 21010KT 9999 NCD 12/08 Q1012 NOSIG=
201511180820 METAR COR EGLL 180820Z AUTO 21012KT 9999 FEW021 11/08 Q1013
                        NOSIG=
201511180750 METAR EGLL 180750Z AUTO 22012KT 9999 SCT035 11/08 Q1013 NOSIG=
201511180720 METAR COR EGLL 180720Z AUTO 22012KT 9000 BKN037 11/08 Q1014
                        NOSIG=
201511180650 METAR EGLL 180650Z AUTO 22012KT 9999 NCD 11/08 Q1014 NOSIG=
201511180620 METAR COR EGLL 180620Z AUTO 23012KT 9999 NCD 11/08 Q1013
                        NOSIG=
201511180550 METAR COR EGLL 180550Z AUTO 24011KT 9000 BKN026 11/08 Q1013
                        NOSIG=
201511180520 METAR COR EGLL 180520Z AUTO 24012KT 9999 BKN016 11/09 Q1013
                        NOSIG=
201511180450 METAR COR EGLL 180450Z AUTO 24014KT 9999 SCT018 SCT029 11/09
                        Q1013 NOSIG=
201511180420 METAR COR EGLL 180420Z AUTO 23012KT 9999 BKN020 12/08 Q1013
                        NOSIG=
201511180350 METAR EGLL 180350Z AUTO 22008KT 9999 FEW027 SCT034 11/08
                        Q1013 NOSIG=
201511180320 METAR COR EGLL 180320Z AUTO 25013KT 9999 NCD 12/07 Q1012
                        NOSIG=
201511180250 METAR COR EGLL 180250Z AUTO 26016KT 9999 NCD 12/07 Q1012
                        NOSIG=
201511180220 METAR COR EGLL 180220Z AUTO 27017KT 9999 NCD 12/07 Q1012
                        NOSIG=
201511180150 METAR EGLL 180150Z AUTO 26019KT 9999 FEW033 12/07 Q1011 NOSIG=
201511180120 METAR COR EGLL 180120Z AUTO 26023KT 9999 NCD 12/07 Q1010
                        NOSIG=
201511180050 METAR EGLL 180050Z AUTO 26027G37KT 9999 FEW032 13/07 Q1010
                        NOSIG=
201511180020 METAR COR EGLL 180020Z AUTO 26024G34KT 9999 SCT032 13/07
                        Q1009 NOSIG=
201511172350 METAR COR EGLL 172350Z AUTO 26025KT 9999 BKN032 13/07 Q1009
                        NOSIG=
201511172320 METAR COR EGLL 172320Z AUTO 27025KT 9999 BKN032 13/07 Q1008
                        NOSIG=
201511172250 METAR EGLL 172250Z AUTO 27024KT 9999 BKN035 13/07 Q1008 NOSIG=
201511172220 METAR COR EGLL 172220Z AUTO 26025KT 9999 BKN035 14/07 Q1007
                        NOSIG=
201511172150 METAR COR EGLL 172150Z AUTO 26027KT 9999 SCT037 14/07 Q1006
                        NOSIG=
201511172120 METAR COR EGLL 172120Z AUTO 26032G49KT 9999 FEW033 14/07
                        Q1005 NOSIG=
201511172050 METAR EGLL 172050Z AUTO 25033G47KT 9999 BKN034 14/08 Q1004
                        NOSIG=
201511172020 METAR COR EGLL 172020Z AUTO 25024G35KT 9999 OVC037 15/08
                        Q1003 NOSIG=
201511171950 METAR EGLL 171950Z AUTO 25027G39KT 9999 BKN038 15/08 Q1003
                        NOSIG=
201511171920 METAR COR EGLL 171920Z AUTO 25025G36KT 9999 BKN028 OVC043
                        15/09 Q1003 NOSIG=
201511171850 METAR EGLL 171850Z AUTO 26019KT 9999 BKN028 15/09 Q1002 NOSIG=
201511171820 METAR COR EGLL 171820Z AUTO 25024KT 9999 BKN031 BKN047 15/09
                        Q1002 NOSIG=
201511171750 METAR EGLL 171750Z AUTO 25026G41KT 9999 FEW032 BKN047 15/09
                        Q1001 NOSIG=
201511171720 METAR COR EGLL 171720Z AUTO 25023KT 9999 SCT027 OVC044 16/10
                        Q1001 NOSIG=
201511171650 METAR EGLL 171650Z AUTO 25022KT 9999 BKN027 OVC042 16/11
                        Q1001 NOSIG=
201511171620 METAR COR EGLL 171620Z AUTO 25025KT 9999 BKN013/// BKN026///
                        //////CB 16/12 Q1000 BECMG SCT020=
201511171550 METAR COR EGLL 171550Z AUTO 24021KT 9999 -RA BKN018/// OVC046///
                        //////CB 16/13 Q1000 TEMPO 4000 +RA
                        BKN013=
201511171520 METAR COR EGLL 171520Z AUTO 23021G32KT 9999 BKN011/// OVC038///
                        //////CB 16/14 Q0999 TEMPO RA=
201511171450 METAR EGLL 171450Z AUTO 23017KT 9999 OVC010 16/14 Q1000 TEMPO
                        RA=
201511171420 METAR COR EGLL 171420Z AUTO 22017KT 9999 OVC007 15/14 Q1000
                        BECMG SCT007 BKN012=
201511171350 METAR EGLL 171350Z AUTO 20015KT 5000 -RADZ BKN007/// //////TCU
                        14/14 Q1001 TEMPO 4000 RADZ=
201511171320 METAR COR EGLL 171320Z AUTO 19012KT 9999 -RA BKN005/// OVC014///
                        //////TCU 14/13 Q1002 RERA TEMPO
                        RA=
201511171250 METAR EGLL 171250Z AUTO 20012G22KT 6000 -RA BKN007/// BKN025///
                        //////CB 13/12 Q1003 RERA TEMPO 4000
                        RA=
201511171220 METAR COR EGLL 171220Z AUTO 22012KT 7000 -RA OVC014 14/11
                        Q1003 TEMPO 4000 RA BKN009=
201511171150 METAR COR EGLL 171150Z AUTO 22012KT 9000 BKN020 14/10 Q1004
                        TEMPO -RA BKN014=
201511171120 METAR COR EGLL 171120Z AUTO 23015KT 9000 SCT022 13/09 Q1005
                        TEMPO -RA BKN014=
201511171050 METAR EGLL 171050Z AUTO 22014KT 9000 BKN019 13/09 Q1005 NOSIG=
201511171020 METAR COR EGLL 171020Z AUTO 22015KT 9999 BKN019 13/10 Q1006
                        NOSIG=
201511170950 METAR EGLL 170950Z AUTO 23011KT 9999 OVC019 13/10 Q1006 NOSIG=
201511170920 METAR COR EGLL 170920Z AUTO 22012KT 9999 OVC019 14/10 Q1006
                        NOSIG=
201511170850 METAR EGLL 170850Z AUTO 22011KT 9999 OVC019 13/10 Q1006 NOSIG=
201511170820 METAR COR EGLL 170820Z AUTO 23010KT 9999 OVC016 13/10 Q1006
                        TEMPO BKN014=
201511170750 METAR EGLL 170750Z AUTO 24010KT 9000 OVC014 13/11 Q1006 TEMPO
                        SCT012=
201511170720 METAR COR EGLL 170720Z AUTO 24010KT 9999 BKN012 13/11 Q1005
                        TEMPO SCT012=
201511170650 METAR EGLL 170650Z AUTO 23013KT 9000 -RA BKN013 13/11 Q1005
                        BECMG BKN016=
201511170620 METAR COR EGLL 170620Z AUTO 24013KT 9000 -RA BKN015 OVC029
                        13/11 Q1005 NOSIG=
201511170550 METAR EGLL 170550Z AUTO 24012KT 9999 OVC020 14/10 Q1004 NOSIG=
201511170520 METAR COR EGLL 170520Z AUTO 25010KT 9999 BKN023 14/10 Q1004
                        NOSIG=
201511170450 METAR EGLL 170450Z AUTO 24012KT 9999 BKN019 14/11 Q1004 NOSIG=
201511170420 METAR COR EGLL 170420Z AUTO 25012KT 9999 BKN014 14/12 Q1004
                        BECMG FEW014 BKN025=
201511170350 METAR EGLL 170350Z AUTO 25015KT 9999 BKN012 14/12 Q1003 RERA
                        BECMG FEW012 BKN025=
201511170320 METAR COR EGLL 170320Z AUTO 24013KT 5000 -RADZ BKN012 BKN026
                        14/13 Q1003 BECMG 9999 NSW FEW012
                        BKN026=
201511170250 METAR EGLL 170250Z AUTO 23010KT 9999 -RA SCT014 BKN025 14/13
                        Q1003 NOSIG=
201511170220 METAR COR EGLL 170220Z AUTO 22009KT 9999 OVC021 14/13 Q1003
                        NOSIG=
201511170150 METAR EGLL 170150Z AUTO 22009KT 9999 SCT004 BKN012 OVC025
                        13/12 Q1003 BECMG SCT014 BKN025=
201511170120 METAR COR EGLL 170120Z AUTO 19013KT 6000 -RA BKN002 BKN013
                        13/12 Q1003 BECMG 9999 NSW SCT020=
201511170050 METAR COR EGLL 170050Z AUTO 17007KT 3500 -RADZ BKN004 12/12
                        Q1003 BECMG 9999 NSW SCT010=
201511170020 METAR COR EGLL 170020Z AUTO 17004KT 4900 -DZ BKN007/// //////TCU
                        12/11 Q1004 BECMG 22014KT 9999 NSW
                        SCT010=
201511162350 METAR COR EGLL 162350Z AUTO 21005KT 9999 -RA BKN014/// //////TCU
                        12/11 Q1005 TEMPO 21015KT=
201511162320 METAR COR EGLL 162320Z AUTO 20007KT 9999 -RA FEW013 BKN026
                        12/11 Q1006 TEMPO BKN013=
201511162250 METAR EGLL 162250Z AUTO 17007KT 9999 -RA BKN011/// //////CB
                        12/11 Q1006 RERA NOSIG=
201511162220 METAR COR EGLL 162220Z AUTO 22005KT 9000 -RA SCT016/// BKN033///
                        OVC048/// //////TCU 12/11 Q1007 TEMPO
                        RA BKN014=
201511162150 METAR EGLL 162150Z AUTO 21008KT 9999 -RA FEW016/// //////TCU
                        12/10 Q1008 TEMPO RA BKN014=
201511162120 METAR COR EGLL 162120Z AUTO 21009KT 9999 -RA SCT018 12/10
                        Q1008 NOSIG=
201511162050 METAR COR EGLL 162050Z AUTO 22008KT 9999 -RA BKN017 12/10
                        Q1008 TEMPO RA BKN014=
201511162020 METAR COR EGLL 162020Z AUTO 21010KT 170V240 9999 FEW018 BKN028
                        OVC044 12/09 Q1008 TEMPO -RA BKN014=
201511161950 METAR EGLL 161950Z AUTO 21010KT 9999 FEW019 BKN039 12/08
                        Q1009 NOSIG=
201511161920 METAR COR EGLL 161920Z AUTO 22010KT 190V250 9999 FEW037 12/08
                        Q1009 NOSIG=
201511161850 METAR EGLL 161850Z AUTO 22011KT 9999 FEW042 12/07 Q1010 TEMPO
                        RA=
201511161820 METAR COR EGLL 161820Z AUTO 22010KT 9999 FEW036 12/07 Q1010
                        TEMPO RA=
201511161750 METAR COR EGLL 161750Z AUTO 22009KT 9999 -RA FEW042 12/07
                        Q1010 TEMPO RA=
201511161720 METAR COR EGLL 161720Z AUTO 23010KT 9999 BKN044 12/06 Q1010
                        TEMPO RA=
201511161650 METAR EGLL 161650Z AUTO 23011KT 9999 FEW047 12/06 Q1010 NOSIG=
201511161620 METAR COR EGLL 161620Z AUTO 24012KT 9999 SCT037 12/06 Q1010
                        NOSIG=
201511161550 METAR EGLL 161550Z AUTO 24012KT 9999 BKN039 12/06 Q1010 NOSIG=
201511161520 METAR COR EGLL 161520Z AUTO 24015KT 9999 SCT033 SCT045 13/06
                        Q1010 NOSIG=
201511161450 METAR COR EGLL 161450Z AUTO 24016KT 9999 FEW030 13/07 Q1010
                        NOSIG=
201511161420 METAR COR EGLL 161420Z AUTO 24014KT 9999 SCT031 13/07 Q1010
                        NOSIG=
201511161350 METAR EGLL 161350Z AUTO 25014KT 9999 FEW030 SCT046 14/08
                        Q1010 NOSIG=
201511161320 METAR COR EGLL 161320Z AUTO 25014KT 9999 FEW026 14/08 Q1011
                        NOSIG=
201511161250 METAR EGLL 161250Z AUTO 24014KT 9999 FEW025 14/09 Q1010 NOSIG=
201511161220 METAR COR EGLL 161220Z AUTO 25015KT 9999 FEW027 OVC038 14/08
                        Q1010 NOSIG=
201511161150 METAR EGLL 161150Z AUTO 24014KT 9999 BKN025 14/08 Q1010 NOSIG=
201511161120 METAR COR EGLL 161120Z AUTO 25014KT 9999 SCT024 14/09 Q1010
                        NOSIG=
201511161050 METAR COR EGLL 161050Z AUTO 25013KT 9999 FEW023/// 13/09
                        Q1010 NOSIG=
201511161020 METAR COR EGLL 161020Z AUTO 24013KT 9999 FEW024 BKN045 13/09
                        Q1010 NOSIG=
201511160950 METAR COR EGLL 160950Z AUTO 24013KT 9999 BKN034 13/09 Q1010
                        NOSIG=
201511160920 METAR COR EGLL 160920Z AUTO 24012KT 9999 NCD 13/09 Q1010
                        NOSIG=
201511160850 METAR COR EGLL 160850Z AUTO 23012KT 9999 NCD 12/09 Q1010
                        NOSIG=
201511160820 METAR COR EGLL 160820Z AUTO 25012KT 9999 NCD 12/09 Q1010
                        NOSIG=
201511160750 METAR EGLL 160750Z AUTO 24010KT 9999 NCD 12/09 Q1009 NOSIG=
201511160720 METAR COR EGLL 160720Z AUTO 25012KT 9999 FEW027 BKN038 13/09
                        Q1009 NOSIG=
201511160650 METAR EGLL 160650Z AUTO 26014KT 9999 FEW015 BKN028 13/10
                        Q1009 NOSIG=
201511160620 METAR COR EGLL 160620Z AUTO 27014KT 7000 -RA SCT007 SCT012
                        14/12 Q1009 TEMPO BKN012=
201511160550 METAR COR EGLL 160550Z AUTO 24014KT 9000 -RA SCT009 BKN021
                        BKN034 14/13 Q1008 TEMPO BKN012=
201511160520 METAR COR EGLL 160520Z AUTO 22011KT 9999 BKN008 14/12 Q1008
                        BECMG SCT008=
201511160450 METAR COR EGLL 160450Z AUTO 22012KT 9999 BKN009 OVC037 14/12
                        Q1008 BECMG SCT009=
201511160420 METAR COR EGLL 160420Z AUTO 22014KT 7000 -RA BKN009 14/12
                        Q1008 TEMPO BKN011=
201511160350 METAR EGLL 160350Z AUTO 22015KT 9000 BKN010 OVC022 13/12
                        Q1008 TEMPO BKN009=
201511160320 METAR COR EGLL 160320Z AUTO 23017KT 9999 OVC013 14/11 Q1008
                        TEMPO BKN009=
201511160250 METAR EGLL 160250Z AUTO 23019G29KT 9999 OVC015 14/11 Q1009
                        TEMPO BKN012=
201511160220 METAR COR EGLL 160220Z AUTO 22017KT 9999 -RA OVC018 14/10
                        Q1009 TEMPO BKN014=
201511160150 METAR EGLL 160150Z AUTO 23020KT 9999 BKN019 14/10 Q1009 TEMPO
                        -RA BKN014=
201511160120 METAR COR EGLL 160120Z AUTO 22017KT 9999 BKN021 14/10 Q1009
                        TEMPO -RA BKN012=
201511160050 METAR EGLL 160050Z AUTO 22016KT 9999 OVC022 14/09 Q1010 NOSIG=
201511160020 METAR COR EGLL 160020Z AUTO 22013KT 9999 BKN023 14/09 Q1010
                        NOSIG=
201511152350 METAR COR EGLL 152350Z AUTO 22015KT 9999 OVC022 14/09 Q1010
                        NOSIG=
201511152320 METAR COR EGLL 152320Z AUTO 23019KT 9999 OVC024 14/09 Q1011
                        TEMPO BKN014=
201511152250 METAR EGLL 152250Z AUTO 23016KT 9999 OVC023 14/09 Q1011 TEMPO
                        BKN014=
201511152220 METAR COR EGLL 152220Z AUTO 22014KT 9999 OVC023 14/09 Q1011
                        TEMPO BKN014=
201511152150 METAR EGLL 152150Z AUTO 22015KT 9999 OVC020 14/09 Q1011 TEMPO
                        BKN014=
201511152120 METAR COR EGLL 152120Z AUTO 23016KT 9999 OVC020 14/09 Q1012
                        TEMPO BKN014=
201511152050 METAR COR EGLL 152050Z AUTO 23017KT 9999 OVC019 14/10 Q1012
                        TEMPO BKN014=
201511152020 METAR COR EGLL 152020Z AUTO 23014KT 9999 OVC018 14/10 Q1012
                        TEMPO BKN014=
201511151950 METAR COR EGLL 151950Z AUTO 23015KT 9999 BKN016 OVC030 14/10
                        Q1012 TEMPO BKN014=
201511151920 METAR COR EGLL 151920Z AUTO 22015KT 9999 BKN013 OVC030 14/11
                        Q1013 TEMPO SCT013=
201511151850 METAR COR EGLL 151850Z AUTO 22015KT 9999 BKN015 OVC029 14/11
                        Q1013 BECMG BKN014=
201511151820 METAR COR EGLL 151820Z AUTO 22015KT 9999 BKN014 OVC029 14/11
                        Q1013 NOSIG=
201511151750 METAR COR EGLL 151750Z AUTO 23016KT 9999 SCT016 OVC027 15/11
                        Q1013 NOSIG=
201511151720 METAR COR EGLL 151720Z AUTO 23016KT 9999 BKN016 OVC029 15/11
                        Q1013 NOSIG=
201511151650 METAR EGLL 151650Z AUTO 23014KT 9999 BKN017 15/11 Q1013 NOSIG=
201511151620 METAR COR EGLL 151620Z AUTO 23014KT 9999 BKN017 OVC033 15/11
                        Q1013 NOSIG=
201511151550 METAR COR EGLL 151550Z AUTO 23013KT 9999 BKN020 OVC034 15/11
                        Q1013 NOSIG=
201511151520 METAR COR EGLL 151520Z AUTO 23014KT 9999 BKN019 16/11 Q1013
                        NOSIG=
201511151450 METAR EGLL 151450Z AUTO 24016KT 9999 OVC020 16/11 Q1013 NOSIG=
201511151420 METAR COR EGLL 151420Z AUTO 24017KT 9999 OVC022 16/11 Q1013
                        NOSIG=
201511151350 METAR EGLL 151350Z AUTO 25016KT 9999 OVC023 16/11 Q1013 NOSIG=
201511151320 METAR COR EGLL 151320Z AUTO 25021KT 9999 OVC027 16/11 Q1013
                        NOSIG=
201511151250 METAR COR EGLL 151250Z AUTO 25021KT 9999 OVC025 16/11 Q1013
                        NOSIG=
201511151220 METAR COR EGLL 151220Z AUTO 25020G32KT 9999 OVC026 16/11
                        Q1013 NOSIG=
201511151150 METAR EGLL 151150Z AUTO 25023KT 9999 OVC026 16/11 Q1013 NOSIG=
201511151120 METAR COR EGLL 151120Z AUTO 25022KT 9999 OVC025 16/11 Q1013
                        NOSIG=
201511151050 METAR EGLL 151050Z AUTO 24020KT 9999 OVC023 16/11 Q1013 NOSIG=
201511151020 METAR COR EGLL 151020Z AUTO 24021KT 9999 OVC026 16/11 Q1013
                        NOSIG=
201511150950 METAR COR EGLL 150950Z AUTO 24021G32KT 9999 OVC022 15/11
                        Q1013 NOSIG=
201511150920 METAR COR EGLL 150920Z AUTO 25018G28KT 9999 BKN021 15/11
                        Q1012 NOSIG=
201511150850 METAR EGLL 150850Z AUTO 25018KT 9999 BKN022 15/11 Q1012 NOSIG=
201511150820 METAR COR EGLL 150820Z AUTO 24019KT 9999 BKN023 15/11 Q1012
                        NOSIG=
201511150750 METAR COR EGLL 150750Z AUTO 24021KT 9999 BKN023 15/11 Q1012
                        NOSIG=
201511150720 METAR COR EGLL 150720Z AUTO 24018G29KT 9999 BKN021 15/11
                        Q1012 NOSIG=
201511150650 METAR EGLL 150650Z AUTO 24019KT 9999 FEW021 BKN027 15/11
                        Q1012 NOSIG=
201511150620 METAR COR EGLL 150620Z AUTO 24019G31KT 9999 OVC024 15/11
                        Q1012 NOSIG=
201511150550 METAR EGLL 150550Z AUTO 24019KT 9999 BKN023 15/11 Q1011 NOSIG=
201511150520 METAR COR EGLL 150520Z AUTO 25019KT 9999 BKN023 15/11 Q1012
                        NOSIG=
201511150450 METAR EGLL 150450Z AUTO 25021G32KT 9999 BKN024 15/11 Q1012
                        NOSIG=
201511150420 METAR COR EGLL 150420Z AUTO 25019KT 9999 OVC022 15/11 Q1012
                        NOSIG=
201511150350 METAR EGLL 150350Z AUTO 25018G28KT 9999 OVC021 15/11 Q1012
                        NOSIG=
201511150320 METAR COR EGLL 150320Z AUTO 25016KT 9999 OVC021 15/11 Q1012
                        NOSIG=
201511150250 METAR EGLL 150250Z AUTO 24020G30KT 9999 OVC022 15/11 Q1012
                        NOSIG=
201511150220 METAR COR EGLL 150220Z 25022G35KT 9999 BKN023 15/11 Q1012
                        NOSIG=
201511150050 METAR EGLL 150050Z AUTO 25018G28KT 9999 BKN017 OVC034 15/12
                        Q1013 TEMPO BKN012=
201511150020 METAR COR EGLL 150020Z AUTO 25018KT 9999 BKN014 15/13 Q1013
                        TEMPO BKN015=
201511142350 METAR EGLL 142350Z 25020KT 9999 BKN013 15/13 Q1013=
201511142250 METAR EGLL 142250Z AUTO 24017G29KT 9999 OVC011 15/13 Q1013
                        TEMPO BKN009=
201511142220 METAR COR EGLL 142220Z AUTO 24017KT 9999 OVC011 15/12 Q1013
                        TEMPO BKN009=
201511142150 METAR EGLL 142150Z AUTO 23017KT 9999 BKN014 15/12 Q1014 TEMPO
                        4500 -RADZ BKN009=
201511142120 METAR COR EGLL 142120Z AUTO 23017KT 9999 SCT014 BKN025 15/12
                        Q1014 TEMPO BKN014=
201511142050 METAR EGLL 142050Z AUTO 23018KT 9999 BKN012 14/12 Q1014 TEMPO
                        4500 -RADZ BKN009=
201511142020 METAR COR EGLL 142020Z AUTO 23018KT 9999 -RA BKN010 14/13
                        Q1014 TEMPO 4500 -RADZ BKN009=
201511141950 METAR EGLL 141950Z AUTO 23018KT 9999 BKN010 OVC023 14/12
                        Q1015 TEMPO 4500 -RADZ BKN009=
201511141920 METAR COR EGLL 141920Z AUTO 23016KT 9999 OVC010 14/12 Q1015
                        TEMPO 4500 -RADZ BKN009=
201511141850 METAR EGLL 141850Z AUTO 23016KT 9999 OVC010 14/12 Q1015 TEMPO
                        4500 -RADZ BKN009=
201511141820 METAR COR EGLL 141820Z AUTO 23016KT 9999 OVC011 14/12 Q1016
                        TEMPO 4500 -RADZ BKN009=
201511141750 METAR EGLL 141750Z AUTO 24016KT 9999 OVC012 14/12 Q1016 NOSIG=
201511141720 METAR COR EGLL 141720Z AUTO 23015KT 9999 BKN009 13/12 Q1015
                        NOSIG=
201511141650 METAR EGLL 141650Z AUTO 22013KT 9999 OVC008 13/11 Q1015 NOSIG=
201511141620 METAR COR EGLL 141620Z AUTO 22015KT 9999 BKN007 OVC019 12/11
                        Q1016 TEMPO 4500 -RADZ=
201511141550 METAR EGLL 141550Z AUTO 22015KT 6000 -RA BKN007 BKN017 11/11
                        Q1017 TEMPO 4500 -RADZ SCT007 BKN010=
201511141520 METAR COR EGLL 141520Z AUTO 21013KT 7000 -RA BKN006 OVC016
                        11/10 Q1018 TEMPO 4500 -RADZ SCT006
                        BKN010=
201511141450 METAR EGLL 141450Z AUTO 19011KT 160V240 8000 -RA BKN005 10/09
                        Q1019 TEMPO 4500 RA SCT005 BKN010=
201511141420 METAR COR EGLL 141420Z AUTO 20010KT 6000 -RA BKN008 OVC020
                        10/09 Q1020 TEMPO 4500 RA SCT008
                        BKN012=
201511141350 METAR COR EGLL 141350Z AUTO 20010KT 170V240 9999 -RA SCT019
                        BKN035 OVC049 10/09 Q1021 TEMPO RA
                        BKN014=
201511141320 METAR COR EGLL 141320Z AUTO 19010KT 150V230 9999 -RA BKN022
                        OVC038 10/09 Q1021 TEMPO RA=
201511141250 METAR EGLL 141250Z AUTO 20010KT 160V230 9999 -RA BKN022 OVC038
                        10/08 Q1022 TEMPO RA=
201511141220 METAR COR EGLL 141220Z AUTO 20010KT 170V240 9999 -RA SCT030
                        OVC048 10/08 Q1023 NOSIG=
201511141150 METAR EGLL 141150Z AUTO 21008KT 180V250 9999 -RA BKN026 OVC040
                        10/08 Q1024 NOSIG=
201511141120 METAR COR EGLL 141120Z AUTO 22008KT 9999 -RA FEW014 OVC037
                        09/08 Q1025 NOSIG=
201511141050 METAR EGLL 141050Z AUTO 22008KT 180V250 9999 -RA SCT028 SCT040
                        09/08 Q1025 TEMPO RA=
201511141020 METAR COR EGLL 141020Z AUTO 21009KT 180V250 9999 -RA BKN033
                        09/07 Q1025 NOSIG=
201511140950 METAR COR EGLL 140950Z AUTO 21008KT 180V250 9999 -RA BKN030
                        OVC045 09/07 Q1026 NOSIG=
201511140920 METAR COR EGLL 140920Z AUTO 23008KT 9999 -RA BKN031 OVC048
                        09/07 Q1026 NOSIG=
201511140850 METAR COR EGLL 140850Z AUTO 24009KT 9999 -RA BKN031 OVC047
                        09/07 Q1026 TEMPO RA=
201511140820 METAR COR EGLL 140820Z AUTO 24008KT 9999 BKN046 09/06 Q1026
                        NOSIG=
201511140750 METAR EGLL 140750Z AUTO 23012KT 9999 NCD 09/06 Q1026 NOSIG=
201511140720 METAR COR EGLL 140720Z AUTO 23011KT 9999 NCD 09/06 Q1025
                        NOSIG=
201511140650 METAR EGLL 140650Z AUTO 24011KT 9999 FEW040 09/06 Q1026 NOSIG=
201511140620 METAR COR EGLL 140620Z AUTO 23011KT 9999 BKN043 09/06 Q1026
                        NOSIG=
201511140550 METAR EGLL 140550Z AUTO 23009KT 9999 SCT047 08/06 Q1026 NOSIG=
201511140520 METAR COR EGLL 140520Z AUTO 23010KT 9999 BKN049 08/05 Q1026
                        NOSIG=
201511140450 METAR EGLL 140450Z AUTO 23010KT 9999 NCD 08/05 Q1026 NOSIG=
201511140420 METAR COR EGLL 140420Z AUTO 23011KT 9999 NCD 08/05 Q1026
                        NOSIG=
201511140350 METAR EGLL 140350Z AUTO 23009KT 9999 NCD 08/04 Q1026 NOSIG=
201511140320 METAR COR EGLL 140320Z AUTO 23009KT 9999 NCD 08/04 Q1026
                        NOSIG=
201511140250 METAR EGLL 140250Z AUTO 24009KT 9999 NCD 08/04 Q1026 NOSIG=
201511140220 METAR COR EGLL 140220Z AUTO 24010KT 9999 NCD 08/04 Q1026
                        NOSIG=
201511140150 METAR COR EGLL 140150Z AUTO 24010KT 9999 NCD 08/04 Q1026
                        NOSIG=
201511140120 METAR COR EGLL 140120Z AUTO 24011KT 9999 NCD 08/04 Q1026
                        NOSIG=
201511140050 METAR EGLL 140050Z AUTO 24013KT 9999 NCD 08/04 Q1026 NOSIG=
201511140020 METAR COR EGLL 140020Z AUTO 25014KT 9999 NCD 08/04 Q1026
                        NOSIG=
201511132350 METAR EGLL 132350Z AUTO 24014KT 9999 NCD 08/04 Q1026 NOSIG=
201511132320 METAR COR EGLL 132320Z AUTO 25016KT 9999 NCD 08/04 Q1026
                        NOSIG=
201511132250 METAR EGLL 132250Z AUTO 25015KT 9999 NCD 09/04 Q1026 NOSIG=
201511132220 METAR COR EGLL 132220Z AUTO 26016KT 9999 NCD 09/04 Q1026
                        NOSIG=
201511132150 METAR COR EGLL 132150Z AUTO 25014KT 9999 NCD 09/04 Q1026
                        NOSIG=
201511132120 METAR COR EGLL 132120Z AUTO 24012KT 9999 NCD 08/04 Q1025
                        NOSIG=
201511132050 METAR EGLL 132050Z AUTO 25012KT 9999 NCD 08/04 Q1025 NOSIG=
201511132020 METAR COR EGLL 132020Z AUTO 24012KT 9999 NCD 08/04 Q1025
                        NOSIG=
201511131950 METAR EGLL 131950Z AUTO 23012KT 9999 FEW039 08/03 Q1025 NOSIG=
201511131920 METAR COR EGLL 131920Z AUTO 24013KT 9999 SCT042 08/04 Q1024
                        NOSIG=
201511131850 METAR EGLL 131850Z AUTO 24010KT 9999 NCD 08/04 Q1024 NOSIG=
201511131820 METAR COR EGLL 131820Z AUTO 25012KT 9999 SCT046 08/04 Q1024
                        NOSIG=
201511131750 METAR EGLL 131750Z AUTO 26014KT 9999 BKN044 08/03 Q1024 NOSIG=
201511131720 METAR COR EGLL 131720Z AUTO 27015KT 9999 FEW047 08/03 Q1023
                        NOSIG=
201511131650 METAR COR EGLL 131650Z AUTO 26021KT 9999 NCD 09/03 Q1023
                        NOSIG=
201511131620 METAR COR EGLL 131620Z AUTO 24013KT 9999 BKN040 09/04 Q1022
                        NOSIG=
201511131550 METAR EGLL 131550Z AUTO 25013KT 9999 NCD 09/04 Q1022 NOSIG=
201511131520 METAR COR EGLL 131520Z AUTO 25015KT 9999 FEW041 08/04 Q1022
                        NOSIG=
201511131450 METAR COR EGLL 131450Z AUTO 26026G46KT 6000 -RA FEW006 SCT024
                        BKN039 08/04 Q1021 NOSIG=
201511131420 METAR COR EGLL 131420Z AUTO 27019KT 9999 FEW049/// //////TCU
                        10/04 Q1021 TEMPO SHRA=
201511131350 METAR COR EGLL 131350Z AUTO 28019KT 9999 -RA FEW023 BKN037
                        09/05 Q1021 TEMPO SHRA=
201511131320 METAR COR EGLL 131320Z AUTO 27016KT 9999 FEW010/// SCT049///
                        //////CB 08/04 Q1021 RERA NOSIG=
201511131250 METAR EGLL 131250Z AUTO 25018KT 9999 BKN032/// //////CB 11/04
                        Q1020 TEMPO SHRA=
201511131220 METAR COR EGLL 131220Z AUTO 26015KT 9999 FEW039 11/05 Q1020
                        TEMPO SHRA=
201511131150 METAR EGLL 131150Z AUTO 26019KT 9999 -RA FEW011 BKN036 09/06
                        Q1020 NOSIG=
201511131120 METAR COR EGLL 131120Z AUTO 26020G31KT 9999 -RA BKN025 BKN040
                        11/06 Q1020 TEMPO SHRA=
201511131050 METAR EGLL 131050Z AUTO 25022KT 9999 -RA FEW021/// BKN030///
                        //////TCU 11/06 Q1019 TEMPO SHRA=
201511131020 METAR COR EGLL 131020Z AUTO 24018G29KT 9999 -RA SCT030///
                        BKN046/// //////TCU 12/06 Q1019 TEMPO
                        SHRA=
201511130950 METAR EGLL 130950Z AUTO 22014G25KT 9999 BKN037 12/05 Q1019
                        TEMPO SHRA=
201511130920 METAR COR EGLL 130920Z AUTO 22013KT 9999 NCD 11/05 Q1019
                        TEMPO SHRA=
201511130850 METAR EGLL 130850Z AUTO 21010KT 9999 NCD 10/05 Q1019 TEMPO
                        SHRA=
201511130820 METAR COR EGLL 130820Z AUTO 21009KT 9999 NCD 09/04 Q1019
                        NOSIG=
201511130750 METAR EGLL 130750Z AUTO 21009KT 180V240 9999 NCD 09/04 Q1019
                        NOSIG=
201511130720 METAR COR EGLL 130720Z AUTO 21009KT 9999 NCD 09/04 Q1019
                        NOSIG=
201511130650 METAR EGLL 130650Z AUTO 21009KT 9999 NCD 09/04 Q1019 NOSIG=
201511130620 METAR COR EGLL 130620Z AUTO 22009KT 200V260 9999 NCD 09/04
                        Q1019 NOSIG=
201511130550 METAR EGLL 130550Z AUTO 24011KT 9999 NCD 10/04 Q1019 NOSIG=
201511130520 METAR COR EGLL 130520Z AUTO 25013KT 9999 NCD 10/05 Q1019
                        NOSIG=
201511130450 METAR EGLL 130450Z AUTO 24013KT 9999 NCD 10/05 Q1018 NOSIG=
201511130420 METAR COR EGLL 130420Z AUTO 24011KT 9999 NCD 11/06 Q1018
                        NOSIG=
201511130350 METAR COR EGLL 130350Z AUTO 23010KT 9999 NCD 11/07 Q1018
                        NOSIG=
201511130320 METAR COR EGLL 130320Z AUTO 24013KT 9999 NCD 11/07 Q1018
                        NOSIG=
201511130250 METAR EGLL 130250Z AUTO 24013KT 9999 FEW043 11/07 Q1017 NOSIG=
201511130220 METAR COR EGLL 130220Z AUTO 23013KT 9999 FEW032 SCT045 12/07
                        Q1017 NOSIG=
201511130150 METAR EGLL 130150Z AUTO 24013KT 9999 NCD 12/07 Q1017 NOSIG=
201511130120 METAR COR EGLL 130120Z AUTO 24015KT 9999 -RA SCT040 13/07
                        Q1016 NOSIG=
201511130050 METAR EGLL 130050Z AUTO 24016G26KT 9999 FEW011/// SCT023///
                        OVC037/// //////TCU 13/10 Q1016 TEMPO
                        SHRA BKN012=
201511130020 METAR COR EGLL 130020Z AUTO 22014KT 8000 -RA BKN012/// OVC025///
                        //////CB 14/12 Q1016 TEMPO SHRA=
201511122350 METAR COR EGLL 122350Z AUTO 22014KT 9999 BKN018/// //////TCU
                        14/11 Q1015 TEMPO SHRA BKN012=
201511122250 METAR EGLL 122250Z AUTO 22011KT 9999 FEW042 13/11 Q1015 TEMPO
                        SHRA BKN012=
201511122220 METAR COR EGLL 122220Z AUTO 22012KT 9999 NCD 13/11 Q1015
                        TEMPO SHRA BKN012=
201511122150 METAR EGLL 122150Z AUTO 22013KT 9999 SCT017 SCT041 14/11
                        Q1016 TEMPO SHRA BKN012=
201511122120 METAR COR EGLL 122120Z AUTO 22013KT 9999 BKN013 BKN025 14/12
                        Q1016 TEMPO SCT013=
201511122050 METAR EGLL 122050Z AUTO 22012KT 8000 -RA BKN011 OVC025 14/12
                        Q1016 TEMPO SCT012=
201511122020 METAR COR EGLL 122020Z AUTO 21012KT 7000 -RA BKN009 13/12
                        Q1016 TEMPO BKN013=
201511121950 METAR EGLL 121950Z AUTO 21013KT 8000 -RA BKN015 14/12 Q1016
                        TEMPO BKN014=
201511121920 METAR COR EGLL 121920Z AUTO 20012KT 170V230 9999 FEW018 BKN028
                        14/11 Q1017 NOSIG=
201511121850 METAR EGLL 121850Z AUTO 20012KT 9999 SCT017 BKN040 14/11
                        Q1017 TEMPO BKN014=
201511121820 METAR COR EGLL 121820Z AUTO 20012KT 9999 BKN018 OVC036 14/11
                        Q1018 TEMPO BKN014=
201511121750 METAR EGLL 121750Z AUTO 20011KT 170V240 9999 FEW022 OVC037
                        14/11 Q1018 TEMPO BKN014=
201511121720 METAR COR EGLL 121720Z AUTO 20011KT 9999 FEW021 BKN038 14/11
                        Q1018 NOSIG=
201511121650 METAR EGLL 121650Z AUTO 20012KT 9999 -RA BKN018 14/11 Q1018
                        NOSIG=
201511121620 METAR COR EGLL 121620Z AUTO 20010KT 9999 BKN019 OVC034 14/11
                        Q1019 NOSIG=
201511121550 METAR COR EGLL 121550Z AUTO 20012KT 9999 FEW017 OVC027 14/11
                        Q1019 NOSIG=
201511121520 METAR COR EGLL 121520Z AUTO 20013KT 180V240 9999 BKN017 15/11
                        Q1019 NOSIG=
201511121450 METAR COR EGLL 121450Z AUTO 20012G24KT 180V240 9999 OVC019
                        15/11 Q1019 NOSIG=
201511121420 METAR COR EGLL 121420Z AUTO 20013KT 170V240 9999 OVC018 15/11
                        Q1019 NOSIG=
201511121350 METAR EGLL 121350Z AUTO 20017KT 9999 BKN018 15/11 Q1020 NOSIG=
201511121320 METAR COR EGLL 121320Z AUTO 20017KT 9999 BKN017 16/12 Q1020
                        NOSIG=
201511121250 METAR EGLL 121250Z AUTO 20012KT 170V240 9999 BKN014 16/12
                        Q1021=
201511121220 METAR EGLL 121220Z AUTO 19010KT 150V240 9999 -RA BKN012 OVC024
                        15/13 Q1021=
201511121150 METAR COR EGLL 121150Z AUTO 20009KT 170V250 9999 BKN015 BKN043
                        15/12 Q1022 NOSIG=
201511121120 METAR COR EGLL 121120Z AUTO 21009KT 170V250 9999 SCT014 BKN038
                        15/12 Q1022 NOSIG=
201511121050 METAR EGLL 121050Z AUTO 22009KT 180V250 9999 BKN012 15/12
                        Q1022=
201511121020 METAR EGLL 121020Z AUTO 21007KT 160V260 9999 BKN013 14/12
                        Q1023=
201511120950 METAR COR EGLL 120950Z AUTO 21008KT 170V250 9999 NCD 13/11
                        Q1023 NOSIG=
201511120920 METAR COR EGLL 120920Z AUTO 19006KT 170V240 9999 FEW012 12/11
                        Q1023 NOSIG=
201511120850 METAR EGLL 120850Z AUTO 20006KT 170V250 9999 SCT010 11/10
                        Q1023 TEMPO BKN010=
201511120820 METAR COR EGLL 120820Z AUTO 20006KT 7000 FEW003 10/09 Q1023
                        TEMPO BKN005=
201511120750 METAR EGLL 120750Z AUTO 23005KT 9000 FEW004 10/09 Q1023 TEMPO
                        BKN005=
201511120720 METAR COR EGLL 120720Z AUTO 22007KT 9999 NCD 10/10 Q1023
                        TEMPO BKN008=
201511120650 METAR EGLL 120650Z AUTO 21005KT 180V240 9999 NCD 10/10 Q1023
                        TEMPO BKN008=
201511120620 METAR COR EGLL 120620Z AUTO 22006KT 7000 NCD 10/10 Q1023
                        TEMPO BKN008=
201511120550 METAR EGLL 120550Z AUTO 21005KT 7000 NCD 11/10 Q1023 TEMPO
                        BKN008=
201511120520 METAR COR EGLL 120520Z AUTO 21005KT 9999 NCD 11/10 Q1023
                        NOSIG=
201511120450 METAR COR EGLL 120450Z AUTO 21005KT 9999 NCD 11/10 Q1023
                        NOSIG=
201511120420 METAR COR EGLL 120420Z AUTO 20004KT 9999 FEW011 11/10 Q1022
                        NOSIG=
201511120350 METAR COR EGLL 120350Z AUTO 25004KT 9999 BKN010 12/11 Q1022
                        TEMPO SCT012=
201511120320 METAR COR EGLL 120320Z AUTO VRB03KT 9999 FEW013 12/10 Q1022
                        NOSIG=
201511120250 METAR EGLL 120250Z AUTO 21006KT 9999 FEW012 12/11 Q1022 NOSIG=
201511120220 METAR COR EGLL 120220Z AUTO 22006KT 9999 SCT013 13/11 Q1022
                        NOSIG=
201511120150 METAR EGLL 120150Z AUTO 24007KT 9999 -RA BKN017 BKN033 13/11
                        Q1022 NOSIG=
201511120120 METAR COR EGLL 120120Z AUTO 23010KT 9999 -RA SCT013 BKN025
                        14/11 Q1022 NOSIG=
201511120050 METAR EGLL 120050Z AUTO 24009KT 9999 BKN016 BKN033 13/11
                        Q1022 TEMPO -RADZ BKN014=
201511120020 METAR COR EGLL 120020Z AUTO 24010KT 9999 BKN017 14/11 Q1022
                        TEMPO -RADZ BKN014=
201511112350 METAR EGLL 112350Z AUTO 24011KT 9999 OVC023 14/11 Q1022 TEMPO
                        BKN014=
201511112320 METAR COR EGLL 112320Z AUTO 24011KT 9999 FEW018 BKN029 14/10
                        Q1021 TEMPO BKN014=
201511112250 METAR EGLL 112250Z AUTO 24010KT 9999 FEW017 BKN032 14/10
                        Q1021 TEMPO BKN014=
201511112220 METAR COR EGLL 112220Z AUTO 24013KT 9999 FEW017 BKN033 BKN049
                        14/11 Q1021 TEMPO BKN014=
201511112150 METAR EGLL 112150Z AUTO 24012KT 9999 FEW016 OVC035 14/11
                        Q1021 NOSIG=
201511112120 METAR COR EGLL 112120Z AUTO 24009KT 9999 SCT016 BKN040 14/10
                        Q1021 TEMPO BKN014=
201511112050 METAR EGLL 112050Z AUTO 23012KT 9999 BKN015 13/11 Q1021 TEMPO
                        BKN014=
201511112020 METAR COR EGLL 112020Z AUTO 23011KT 9999 SCT046 13/10 Q1021
                        NOSIG=
201511111950 METAR EGLL 111950Z AUTO 22010KT 9999 FEW014 13/11 Q1020 NOSIG=
201511111920 METAR COR EGLL 111920Z AUTO 23009KT 9999 BKN046 13/10 Q1020
                        NOSIG=
201511111850 METAR EGLL 111850Z AUTO 22009KT 9999 FEW045 13/10 Q1020 NOSIG=
201511111820 METAR COR EGLL 111820Z AUTO 22010KT 9999 FEW026 SCT043 13/10
                        Q1020 NOSIG=
201511111750 METAR COR EGLL 111750Z AUTO 23011KT 9999 SCT017 OVC035 14/10
                        Q1020 NOSIG=
201511111720 METAR COR EGLL 111720Z AUTO 23011KT 9999 FEW021 OVC034 15/10
                        Q1020 NOSIG=
201511111650 METAR COR EGLL 111650Z AUTO 23015KT 9999 BKN020 BKN033 14/10
                        Q1020 NOSIG=
201511111620 METAR COR EGLL 111620Z AUTO 24014KT 9999 SCT021 OVC041 15/10
                        Q1020 NOSIG=
201511111550 METAR COR EGLL 111550Z AUTO 23014KT 9999 OVC039 15/10 Q1020
                        NOSIG=
201511111520 METAR COR EGLL 111520Z AUTO 23015KT 9999 FEW023 OVC040 16/10
                        Q1020 NOSIG=
201511111450 METAR EGLL 111450Z AUTO 23015KT 9999 BKN022 OVC038 15/10
                        Q1020 NOSIG=
201511111420 METAR COR EGLL 111420Z AUTO 24013KT 9999 -RA BKN023 15/10
                        Q1020 NOSIG=
201511111350 METAR EGLL 111350Z AUTO 24015KT 9999 OVC025 15/10 Q1021 NOSIG=
201511111320 METAR COR EGLL 111320Z AUTO 23014KT 9999 BKN025 15/10 Q1021
                        NOSIG=
201511111250 METAR EGLL 111250Z AUTO 23014KT 9999 SCT023 SCT038 15/10
                        Q1021 NOSIG=
201511111220 METAR COR EGLL 111220Z AUTO 23014KT 9999 SCT023 OVC036 15/10
                        Q1021 NOSIG=
201511111150 METAR COR EGLL 111150Z AUTO 23011KT 190V260 9999 OVC025 15/10
                        Q1021 NOSIG=
201511111120 METAR COR EGLL 111120Z AUTO 23014KT 9999 FEW026 OVC034 15/10
                        Q1022 NOSIG=
201511111050 METAR EGLL 111050Z AUTO 23014KT 9999 OVC027 15/09 Q1022 NOSIG=
201511111020 METAR COR EGLL 111020Z AUTO 23012KT 190V260 9999 OVC033 15/09
                        Q1022 NOSIG=
201511110950 METAR COR EGLL 110950Z AUTO 23014KT 9999 OVC034 14/09 Q1022
                        NOSIG=
201511110920 METAR COR EGLL 110920Z AUTO 22011KT 9999 OVC034 14/10 Q1022
                        NOSIG=
201511110850 METAR EGLL 110850Z AUTO 22012KT 9999 OVC029 14/10 Q1022 NOSIG=
201511110820 METAR COR EGLL 110820Z AUTO 22011KT 9999 OVC034 14/10 Q1021
                        NOSIG=
201511110750 METAR EGLL 110750Z AUTO 22010KT 9999 OVC031 14/10 Q1021 NOSIG=
201511110720 METAR COR EGLL 110720Z AUTO 22009KT 9999 OVC032 14/10 Q1021
                        NOSIG=
201511110650 METAR EGLL 110650Z AUTO 22009KT 9999 OVC030 14/10 Q1021 NOSIG=
201511110620 METAR COR EGLL 110620Z AUTO 22010KT 9999 BKN021 14/10 Q1021
                        NOSIG=
201511110550 METAR EGLL 110550Z AUTO 23009KT 9999 OVC029 14/10 Q1021 NOSIG=
201511110520 METAR COR EGLL 110520Z AUTO 23010KT 9999 OVC026 14/10 Q1021
                        NOSIG=
201511110450 METAR EGLL 110450Z AUTO 23010KT 9999 OVC022 14/10 Q1021 NOSIG=
201511110420 METAR COR EGLL 110420Z AUTO 22009KT 9999 OVC024 14/10 Q1021
                        NOSIG=
201511110350 METAR EGLL 110350Z AUTO 21009KT 9999 OVC022 14/10 Q1021 NOSIG=
201511110320 METAR COR EGLL 110320Z AUTO 22009KT 9999 OVC028 14/10 Q1021
                        NOSIG=
201511110250 METAR EGLL 110250Z AUTO 23010KT 9999 OVC028 14/10 Q1022 NOSIG=
201511110220 METAR COR EGLL 110220Z AUTO 23009KT 9999 OVC032 14/10 Q1022
                        NOSIG=
201511110150 METAR EGLL 110150Z AUTO 23009KT 9999 FEW023 OVC029 14/10
                        Q1022 NOSIG=
201511110120 METAR COR EGLL 110120Z AUTO 23009KT 9999 OVC025 14/11 Q1022
                        NOSIG=
201511110050 METAR EGLL 110050Z AUTO 23009KT 9999 BKN015 14/11 Q1022 TEMPO
                        BKN014=
201511110020 METAR COR EGLL 110020Z AUTO 22008KT 9999 OVC011 14/11 Q1022
                        TEMPO SCT011=
201511102350 METAR COR EGLL 102350Z AUTO 23008KT 9999 OVC012 14/11 Q1022
                        NOSIG=
201511102320 METAR COR EGLL 102320Z AUTO 24010KT 9999 OVC012 14/12 Q1022
                        NOSIG=
201511102250 METAR EGLL 102250Z AUTO 24010KT 9999 OVC011 14/12 Q1022 NOSIG=
201511102220 METAR COR EGLL 102220Z AUTO 22008KT 9999 OVC011 14/12 Q1022
                        NOSIG=
201511102150 METAR COR EGLL 102150Z AUTO 24012KT 9999 OVC011 14/12 Q1022
                        NOSIG=
201511102120 METAR COR EGLL 102120Z AUTO 24012KT 9999 OVC010 14/12 Q1022
                        TEMPO BKN009=
201511102050 METAR EGLL 102050Z AUTO 24013KT 9999 OVC010 14/12 Q1022 TEMPO
                        BKN009=
201511102020 METAR COR EGLL 102020Z AUTO 23012KT 9999 OVC010 14/12 Q1022
                        TEMPO BKN009=
201511101950 METAR EGLL 101950Z AUTO 23011KT 9999 OVC010 14/12 Q1022 NOSIG=
201511101920 METAR COR EGLL 101920Z AUTO 23012KT 9999 OVC010 15/12 Q1022
                        NOSIG=
201511101850 METAR EGLL 101850Z AUTO 23010KT 9999 OVC009 14/12 Q1022 TEMPO
                        SCT010 BKN013=
201511101820 METAR COR EGLL 101820Z AUTO 23011KT 9999 OVC009 14/12 Q1022
                        TEMPO SCT010 BKN012=
201511101750 METAR EGLL 101750Z AUTO 22011KT 9999 OVC009 14/12 Q1022 TEMPO
                        SCT010 BKN012=
201511101720 METAR COR EGLL 101720Z AUTO 23012KT 9999 OVC009 14/12 Q1022
                        TEMPO SCT010 BKN015=
201511101650 METAR EGLL 101650Z AUTO 23013KT 9999 OVC010 15/12 Q1022 TEMPO
                        SCT012 BKN017=
201511101620 METAR COR EGLL 101620Z AUTO 22011KT 9999 OVC010 14/12 Q1022
                        TEMPO SCT012 BKN035=
201511101550 METAR EGLL 101550Z AUTO 23013KT 9999 OVC010 15/13 Q1021 TEMPO
                        SACT012 BKN018=
201511101520 METAR COR EGLL 101520Z AUTO 23013KT 9999 OVC010 15/13 Q1021
                        TEMPO SCT012 BKN018=
201511101450 METAR COR EGLL 101450Z AUTO 23015KT 9999 OVC010 15/13 Q1022
                        TEMPO SCT012 BKN018=
201511101420 METAR COR EGLL 101420Z AUTO 23014KT 9999 OVC010 15/13 Q1022
                        TEMPO SCT012 BKN018=
201511101350 METAR EGLL 101350Z AUTO 22011KT 9999 OVC010 15/13 Q1022 TEMPO
                        SCT013 BKN020=
201511101320 METAR COR EGLL 101320Z AUTO 22013KT 9999 OVC010 15/13 Q1022
                        TEMPO SCT012 BKN035=
201511101250 METAR EGLL 101250Z AUTO 22014G24KT 190V250 9999 OVC011 16/13
                        Q1022 TEMPO SCT012 BKN035=
201511101220 METAR COR EGLL 101220Z AUTO 23014KT 9999 BKN012 16/13 Q1022
                        TEMPO SCT013 BKN035=
201511101150 METAR EGLL 101150Z AUTO 23014KT 9999 BKN012 16/13 Q1022 TEMPO
                        SCT012 BKN035=
201511101120 METAR COR EGLL 101120Z AUTO 23014G24KT 9999 BKN011 OVC040
                        16/13 Q1022 TEMPO SCT012=
201511101050 METAR COR EGLL 101050Z AUTO 23016KT 9999 BKN011 16/13 Q1022
                        TEMPO SCT012 BKN018=
201511101020 METAR COR EGLL 101020Z AUTO 23015KT 9999 BKN010 16/13 Q1022
                        NOSIG=
201511100950 METAR EGLL 100950Z AUTO 23014KT 9999 BKN009 15/13 Q1022 BECMG
                        SCT009 BKN018=
201511100920 METAR COR EGLL 100920Z AUTO 23015KT 9999 BKN010 15/13 Q1022
                        TEMPO SCT010 BKN020=
201511100850 METAR COR EGLL 100850Z AUTO 23013KT 9999 BKN008 15/13 Q1022
                        BECMG SCT009 BKN011=
201511100820 METAR COR EGLL 100820Z AUTO 23013KT 9999 OVC008 15/13 Q1022
                        BECMG SCT009 BKN011=
201511100750 METAR EGLL 100750Z AUTO 23013KT 9999 OVC009 15/13 Q1022 BECMG
                        SCT009 BKN011=
201511100720 METAR COR EGLL 100720Z AUTO 23011KT 9999 OVC008 15/13 Q1021
                        NOSIG=
201511100650 METAR EGLL 100650Z AUTO 23011KT 9999 OVC007 15/14 Q1021 NOSIG=
201511100620 METAR COR EGLL 100620Z AUTO 23013KT 7000 OVC008 15/14 Q1021
                        NOSIG=
201511100550 METAR EGLL 100550Z AUTO 23013KT 9999 OVC008 15/13 Q1021 NOSIG=
201511100520 METAR COR EGLL 100520Z AUTO 24013KT 9999 OVC009 15/13 Q1021
                        TEMPO BKN010=
201511100450 METAR EGLL 100450Z AUTO 23014KT 9999 OVC009 15/13 Q1021 TEMPO
                        BKN010=
201511100420 METAR COR EGLL 100420Z AUTO 24011KT 9999 OVC010 15/13 Q1021
                        TEMPO BKN009=
201511100350 METAR EGLL 100350Z AUTO 23014KT 9999 OVC009 15/13 Q1021 NOSIG=
201511100320 METAR COR EGLL 100320Z AUTO 22012KT 9999 OVC009 15/13 Q1021
                        NOSIG=
201511100250 METAR EGLL 100250Z AUTO 21013KT 9999 OVC009 15/13 Q1021 NOSIG=
201511100220 METAR COR EGLL 100220Z AUTO 22013KT 9999 OVC010 15/13 Q1021
                        BECMG BKN009=
201511100150 METAR COR EGLL 100150Z AUTO 23014KT 9999 OVC011 15/13 Q1021
                        TEMPO BKN009=
201511100120 METAR COR EGLL 100120Z AUTO 23016KT 9999 OVC012 15/12 Q1021
                        NOSIG=
201511100050 METAR COR EGLL 100050Z AUTO 23015KT 9999 OVC014 15/12 Q1022
                        NOSIG=
201511100020 METAR COR EGLL 100020Z AUTO 23014KT 9999 OVC014 15/12 Q1021
                        NOSIG=
201511092350 METAR COR EGLL 092350Z AUTO 23015KT 9999 OVC013 15/12 Q1022
                        NOSIG=
201511092320 METAR COR EGLL 092320Z AUTO 23011KT 9999 OVC013 15/12 Q1022
                        NOSIG=
201511092250 METAR COR EGLL 092250Z AUTO 23013KT 9999 OVC012 15/12 Q1022
                        NOSIG=
201511092220 METAR COR EGLL 092220Z AUTO 23015KT 9999 OVC012 15/12 Q1021
                        NOSIG=
201511092150 METAR EGLL 092150Z AUTO 23014KT 9999 OVC012 15/12 Q1021 NOSIG=
201511092120 METAR COR EGLL 092120Z AUTO 23017KT 9999 OVC012 15/12 Q1021
                        NOSIG=
201511092050 METAR COR EGLL 092050Z AUTO 23017KT 9999 OVC013 15/12 Q1021
                        NOSIG=
201511092020 METAR EGLL 092020Z AUTO 23018KT 9999 OVC013 14/12 Q1021=
201511091950 METAR EGLL 091950Z AUTO 23017KT 9999 OVC014 14/12 Q1021 NOSIG=
201511091920 METAR COR EGLL 091920Z AUTO 23018KT 9999 OVC014 14/11 Q1021
                        NOSIG=
201511091850 METAR EGLL 091850Z AUTO 24019G29KT 9999 OVC015 14/11 Q1021
                        BECMG BKN014=
201511091820 METAR COR EGLL 091820Z AUTO 23020KT 9999 OVC016 14/11 Q1020
                        BECMG BKN014=
201511091750 METAR EGLL 091750Z AUTO 23022KT 9999 OVC015 14/11 Q1020 TEMPO
                        BKN014=
201511091720 METAR COR EGLL 091720Z AUTO 23017G27KT 9999 OVC017 14/11
                        Q1020 TEMPO BKN014=
201511091650 METAR EGLL 091650Z AUTO 23019KT 9999 OVC018 14/11 Q1021 TEMPO
                        BKN014=
201511091620 METAR COR EGLL 091620Z AUTO 23016KT 9999 OVC019 14/10 Q1021
                        TEMPO BKN014=
201511091550 METAR EGLL 091550Z AUTO 23019G31KT 9999 OVC019 14/10 Q1021
                        TEMPO BKN014=
201511091520 METAR COR EGLL 091520Z AUTO 23018KT 9999 OVC022 15/10 Q1021
                        NOSIG=
201511091450 METAR COR EGLL 091450Z AUTO 24016KT 9999 OVC023 15/10 Q1021
                        NOSIG=
201511091420 METAR COR EGLL 091420Z AUTO 24017KT 9999 BKN024 15/10 Q1021
                        NOSIG=
201511091350 METAR EGLL 091350Z AUTO 24016KT 9999 BKN025 15/10 Q1021 NOSIG=
201511091320 METAR COR EGLL 091320Z AUTO 24018KT 9999 OVC025 15/09 Q1021
                        NOSIG=
201511091250 METAR EGLL 091250Z AUTO 24019KT 9999 OVC026 15/09 Q1021 NOSIG=
201511091220 METAR COR EGLL 091220Z AUTO 24017KT 9999 BKN027 14/09 Q1021
                        NOSIG=
201511091150 METAR COR EGLL 091150Z AUTO 24018KT 9999 BKN026 14/09 Q1021
                        NOSIG=
201511091120 METAR COR EGLL 091120Z AUTO 24020KT 9999 BKN027 14/08 Q1021
                        NOSIG=
201511091050 METAR EGLL 091050Z AUTO 24020G32KT 9999 FEW028/// //////TCU
                        14/08 Q1021 NOSIG=
201511091020 METAR COR EGLL 091020Z AUTO 24020KT 9999 NCD 13/09 Q1022
                        NOSIG=
201511090950 METAR COR EGLL 090950Z AUTO 23017KT 9999 NCD 13/08 Q1022
                        NOSIG=
201511090920 METAR COR EGLL 090920Z AUTO 23014KT 9999 NCD 12/08 Q1022
                        NOSIG=
201511090850 METAR EGLL 090850Z AUTO 23012KT 9999 NCD 11/07 Q1022 NOSIG=
201511090820 METAR COR EGLL 090820Z AUTO 22010KT 9999 NCD 11/07 Q1022
                        NOSIG=
201511090750 METAR EGLL 090750Z AUTO 21009KT 9999 NCD 10/07 Q1022 NOSIG=
201511090720 METAR COR EGLL 090720Z AUTO 22010KT 9999 NCD 10/07 Q1022
                        NOSIG=
201511090650 METAR EGLL 090650Z AUTO 23011KT 9999 NCD 10/07 Q1022 NOSIG=
201511090620 METAR COR EGLL 090620Z AUTO 22010KT 9999 NCD 09/07 Q1021
                        NOSIG=
201511090550 METAR EGLL 090550Z AUTO 22011KT 9999 NCD 09/07 Q1021 NOSIG=
201511090520 METAR COR EGLL 090520Z AUTO 22009KT 9999 NCD 09/08 Q1021
                        NOSIG=
201511090450 METAR EGLL 090450Z AUTO 22009KT 9999 NCD 10/08 Q1021 NOSIG=
201511090420 METAR COR EGLL 090420Z AUTO 22008KT 9999 NCD 10/07 Q1020
                        NOSIG=
201511090350 METAR EGLL 090350Z AUTO 23007KT 9999 NCD 10/07 Q1020 NOSIG=
201511090320 METAR COR EGLL 090320Z AUTO 24008KT 9999 NCD 11/08 Q1020
                        NOSIG=
201511090250 METAR EGLL 090250Z AUTO 25008KT 9999 NCD 11/08 Q1020 NOSIG=
201511090220 METAR COR EGLL 090220Z AUTO 25012KT 9999 FEW026 12/08 Q1020
                        NOSIG=
201511090150 METAR EGLL 090150Z AUTO 26010KT 9999 FEW026 12/09 Q1020 NOSIG=
201511090120 METAR COR EGLL 090120Z AUTO 26012KT 9999 FEW028 13/09 Q1019
                        NOSIG=
201511090050 METAR COR EGLL 090050Z AUTO 27014KT 9999 FEW017 BKN038 13/09
                        Q1019 NOSIG=
201511090020 METAR COR EGLL 090020Z AUTO 27012KT 250V320 9999 BKN015 BKN040
                        14/11 Q1018 NOSIG=
201511082350 METAR COR EGLL 082350Z AUTO 25011KT 9999 FEW024 14/12 Q1017
                        NOSIG=
201511082320 METAR COR EGLL 082320Z AUTO 24012KT 9999 FEW020 15/12 Q1017
                        NOSIG=
201511082250 METAR COR EGLL 082250Z AUTO 24015KT 9999 FEW013 SCT037 15/13
                        Q1017 NOSIG=
201511082220 METAR COR EGLL 082220Z AUTO 22013KT 190V250 9999 SCT014 SCT047
                        15/13 Q1016 NOSIG=
201511082150 METAR EGLL 082150Z AUTO 23012G22KT 9999 SCT014 BKN042 15/13
                        Q1016 NOSIG=
201511082120 METAR COR EGLL 082120Z AUTO 23012KT 9999 -RA FEW015 16/13
                        Q1016 NOSIG=
201511082050 METAR EGLL 082050Z AUTO 23014KT 9999 -RA FEW016 BKN048 16/14
                        Q1016 TEMPO RA=
201511082020 METAR COR EGLL 082020Z AUTO 23012KT 9999 FEW012 SCT038 16/14
                        Q1015 TEMPO RADZ BKN012=
201511081950 METAR EGLL 081950Z AUTO 22013KT 9999 -RA BKN010 16/14 Q1015
                        TEMPO RADZ BKN008=
201511081920 METAR COR EGLL 081920Z AUTO 23014G27KT 9999 -RA OVC010 16/14
                        Q1015 TEMPO RADZ BKN008=
201511081850 METAR EGLL 081850Z AUTO 22013KT 9999 -RA OVC010 16/14 Q1015
                        TEMPO BKN009=
201511081820 METAR COR EGLL 081820Z AUTO 22015G25KT 9999 OVC013 16/13
                        Q1015 TEMPO RA BKN009=
201511081750 METAR EGLL 081750Z AUTO 22013KT 9999 BKN015 BKN027 16/13
                        Q1015 TEMPO BKN014=
201511081720 METAR COR EGLL 081720Z AUTO 22015G27KT 9999 BKN013 16/13
                        Q1015 TEMPO SCT014=
201511081650 METAR EGLL 081650Z AUTO 21014KT 9999 BKN012 OVC025 16/13
                        Q1015 TEMPO SCT012=
201511081620 METAR COR EGLL 081620Z AUTO 21013KT 9999 OVC012 16/14 Q1015
                        NOSIG=
201511081550 METAR EGLL 081550Z AUTO 20013KT 180V240 9999 OVC010 16/14
                        Q1015 NOSIG TEMPO BKN009=
201511081520 METAR COR EGLL 081520Z AUTO 20013KT 9999 BKN008 16/14 Q1016
                        NOSIG=
201511081450 METAR EGLL 081450Z AUTO 19015G29KT 170V250 9999 OVC008 15/14
                        Q1016 NOSIG=
201511081420 METAR COR EGLL 081420Z AUTO 19011KT 9999 OVC007 15/14 Q1016
                        TEMPO BKN010=
201511081350 METAR EGLL 081350Z AUTO 19012G23KT 9999 OVC006 15/14 Q1017
                        TEMPO BKN010=
201511081320 METAR COR EGLL 081320Z AUTO 19013KT 9000 OVC007 15/14 Q1018
                        TEMPO BKN012=
201511081250 METAR EGLL 081250Z AUTO 19013KT 9999 OVC011 15/13 Q1018 NOSIG=
201511081220 METAR COR EGLL 081220Z AUTO 19013KT 9999 OVC009 15/13 Q1019
                        TEMPO BKN011=
201511081150 METAR EGLL 081150Z AUTO 19013KT 9999 OVC010 15/13 Q1020 TEMPO
                        BKN009=
201511081120 METAR COR EGLL 081120Z AUTO 18011KT 140V210 9999 OVC013 15/13
                        Q1020 TEMPO BKN009=
201511081050 METAR EGLL 081050Z AUTO 18010KT 140V210 9999 BKN012 15/13
                        Q1021 TEMPO BKN009=
201511081020 METAR COR EGLL 081020Z AUTO 18009KT 9999 BKN012 14/12 Q1022
                        NOSIG=
201511080950 METAR EGLL 080950Z AUTO 16007KT 130V190 9999 BKN010 13/12
                        Q1022 TEMPO BKN009=
201511080920 METAR COR EGLL 080920Z AUTO 16007KT 130V200 9999 BKN009 12/11
                        Q1023 TEMPO BKN014=
201511080850 METAR EGLL 080850Z AUTO 14009KT 120V180 9999 OVC010 12/11
                        Q1022 NOSIG=
201511080820 METAR COR EGLL 080820Z AUTO 15008KT 120V200 9000 SCT013 11/11
                        Q1023 TEMPO BKN012=
201511080750 METAR EGLL 080750Z AUTO 15007KT 120V210 7000 NCD 10/10 Q1023
                        NOSIG=
201511080720 METAR EGLL 080720Z AUTO 13009KT 090V160 4900 BR NCD 09/08
                        Q1023=
201511080650 METAR COR EGLL 080650Z AUTO 13007KT 080V170 5000 BR SCT016
                        09/08 Q1024 NOSIG=
201511080620 METAR COR EGLL 080620Z AUTO 13005KT 070V170 4800 BR BKN015
                        09/09 Q1024 TEMPO 5000=
201511080550 METAR EGLL 080550Z AUTO 16005KT 6000 BKN015 09/09 Q1025 TEMPO
                        BKN014=
201511080520 METAR COR EGLL 080520Z AUTO 14005KT 6000 NCD 09/08 Q1025
                        TEMPO 4000 BR=
201511080450 METAR EGLL 080450Z AUTO 15005KT 6000 NCD 09/08 Q1025 TEMPO
                        4000 BR=
201511080420 METAR COR EGLL 080420Z AUTO VRB02KT 5000 BR NCD 08/08 Q1025
                        TEMPO 4000 BR=
201511080350 METAR COR EGLL 080350Z AUTO 16004KT 5000 HZ NCD 09/08 Q1025
                        TEMPO 4000 BR=
201511080320 METAR COR EGLL 080320Z AUTO 16003KT 7000 NCD 09/08 Q1025
                        TEMPO 4000 BR=
201511080250 METAR EGLL 080250Z AUTO 15003KT 6000 NCD 09/09 Q1025 NOSIG=
201511080220 METAR COR EGLL 080220Z AUTO 17001KT 7000 NCD 10/09 Q1026
                        NOSIG=
201511080150 METAR EGLL 080150Z AUTO 18004KT 140V210 6000 NCD 10/09 Q1026
                        NOSIG=
201511080120 METAR COR EGLL 080120Z AUTO 18004KT 6000 NCD 10/09 Q1026
                        NOSIG=
201511080050 METAR COR EGLL 080050Z AUTO 22005KT 8000 NCD 10/09 Q1026
                        NOSIG=
201511080020 METAR COR EGLL 080020Z AUTO 21005KT 8000 NCD 10/09 Q1026
                        NOSIG=
201511072350 METAR COR EGLL 072350Z AUTO 21004KT 8000 NCD 11/09 Q1026
                        NOSIG=
201511072320 METAR COR EGLL 072320Z AUTO 21006KT 8000 NCD 11/09 Q1025
                        NOSIG=
201511072250 METAR EGLL 072250Z AUTO 22005KT 190V260 9999 NCD 11/09 Q1025
                        NOSIG=
201511072220 METAR COR EGLL 072220Z AUTO 25009KT 9999 NCD 11/09 Q1025
                        NOSIG=
201511072150 METAR EGLL 072150Z AUTO 25009KT 9999 NCD 12/09 Q1025 NOSIG=
201511072120 METAR COR EGLL 072120Z AUTO 24009KT 9999 NCD 12/10 Q1024
                        NOSIG=
201511072050 METAR EGLL 072050Z AUTO 24010KT 9999 FEW024 13/10 Q1024 NOSIG=
201511072020 METAR COR EGLL 072020Z AUTO 23010KT 9999 FEW024 13/10 Q1023
                        NOSIG=
201511071950 METAR EGLL 071950Z AUTO 23008KT 9999 FEW024 13/11 Q1022 NOSIG=
201511071920 METAR COR EGLL 071920Z AUTO 23008KT 190V260 9999 BKN023 13/11
                        Q1022 NOSIG=
201511071850 METAR EGLL 071850Z AUTO 24007KT 9999 NCD 14/11 Q1021 NOSIG=
201511071820 METAR COR EGLL 071820Z AUTO 25012KT 9999 NCD 15/11 Q1020
                        NOSIG=
201511071750 METAR EGLL 071750Z AUTO 25012KT 9999 FEW032 15/12 Q1020 NOSIG=
201511071720 METAR COR EGLL 071720Z AUTO 27010KT 9999 BKN019 BKN035 15/12
                        Q1020 NOSIG=
201511071650 METAR EGLL 071650Z AUTO 25012KT 9999 BKN018 16/12 Q1018 NOSIG=
201511071620 METAR COR EGLL 071620Z AUTO 25013KT 9999 SCT018 16/13 Q1018
                        NOSIG=
201511071550 METAR EGLL 071550Z AUTO 24014KT 9999 SCT016 17/14 Q1017 NOSIG=
201511071520 METAR COR EGLL 071520Z AUTO 24016KT 9999 FEW009 SCT014 BKN025
                        17/14 Q1016 NOSIG=
201511071450 METAR EGLL 071450Z AUTO 23015KT 9999 -RA BKN012/// //////CB
                        17/15 Q1016 BECMG SCT018=
201511071420 METAR COR EGLL 071420Z AUTO 23019KT 8000 -RA BKN010/// //////TCU
                        17/15 Q1015 TEMPO RA BKN016=
201511071350 METAR EGLL 071350Z AUTO 22019KT 9999 BKN010 17/15 Q1015 TEMPO
                        RA BKN016=
201511071320 METAR COR EGLL 071320Z AUTO 22020KT 9999 OVC011 17/15 Q1014
                        TEMPO BKN016=
201511071250 METAR EGLL 071250Z AUTO 22019G29KT 9999 -RA BKN012/// OVC024///
                        //////TCU 16/15 Q1014 TEMPO BKN016=
201511071220 METAR COR EGLL 071220Z AUTO 22020KT 7000 -RA OVC011/// //////TCU
                        17/15 Q1014 TEMPO RA BKN016=
201511071150 METAR EGLL 071150Z AUTO 22020KT 9000 -RA BKN011/// OVC023///
                        //////CB 16/15 Q1015 RERA TEMPO RA
                        BKN016=
201511071120 METAR COR EGLL 071120Z AUTO 21017KT 6000 -RA OVC013/// //////TCU
                        16/15 Q1015 TEMPO RA BKN016=
201511071050 METAR EGLL 071050Z AUTO 21017G28KT 9999 -RA BKN013/// OVC027///
                        //////TCU 16/15 Q1015 TEMPO RA BKN016=
201511071020 METAR COR EGLL 071020Z AUTO 21017KT 8000 -RA BKN013/// //////CB
                        16/14 Q1015 TEMPO RA BKN016=
201511070950 METAR COR EGLL 070950Z AUTO 21018KT 9999 -RA OVC015/// //////TCU
                        16/14 Q1015 TEMPO RA BKN014=
201511070920 METAR COR EGLL 070920Z AUTO 21017KT 8000 -RA OVC017/// //////CB
                        16/14 Q1015 TEMPO RA BKN014=
201511070850 METAR EGLL 070850Z AUTO 21015KT 9999 -RA BKN014/// //////TCU
                        16/14 Q1016 TEMPO RA BKN016=
201511070820 METAR COR EGLL 070820Z AUTO 21014KT 9999 OVC014 16/14 Q1016
                        TEMPO RA=
201511070750 METAR EGLL 070750Z AUTO 21016G26KT 9999 BKN013 OVC025 16/14
                        Q1016 TEMPO RA=
201511070720 METAR COR EGLL 070720Z AUTO 21014KT 9999 BKN011 OVC023 16/15
                        Q1016 TEMPO -RADZ BKN009=
201511070650 METAR EGLL 070650Z AUTO 21014KT 9999 -RA BKN006 OVC015 16/15
                        Q1016 NOSIG=
201511070620 METAR COR EGLL 070620Z AUTO 20012KT 6000 -RA BKN006 16/15
                        Q1016 TEMPO 4000 RA=
201511070550 METAR EGLL 070550Z AUTO 18010KT 9999 OVC003 15/15 Q1016 RERA
                        REDZ=
201511070520 METAR EGLL 070520Z AUTO 18008KT 3600 RADZ OVC003 15/14 Q1017=
201511070450 METAR EGLL 070450Z AUTO 16007KT 9999 -RA BKN004/// //////TCU
                        14/14 Q1017 RERA TEMPO SCT004 BKN006=
201511070420 METAR COR EGLL 070420Z AUTO 18008KT 4700 -RA BKN007/// //////TCU
                        15/14 Q1018 TEMPO 6000 SCT007 BKN010=
201511070350 METAR COR EGLL 070350Z AUTO 19007KT 9999 BKN008 15/13 Q1018
                        TEMPO RA=
201511070320 METAR COR EGLL 070320Z AUTO 20006KT 9999 BKN010 15/13 Q1018
                        TEMPO RA BKN008=
201511070250 METAR COR EGLL 070250Z AUTO 20008KT 9999 BKN009 14/13 Q1018
                        TEMPO BKN012=
201511070220 METAR COR EGLL 070220Z AUTO 20006KT 9999 FEW011 14/13 Q1019
                        TEMPO BKN014=
201511070150 METAR EGLL 070150Z AUTO 20006KT 9999 FEW014 14/13 Q1019 TEMPO
                        BKN014=
201511070120 METAR COR EGLL 070120Z AUTO 21005KT 9999 FEW015 14/13 Q1019
                        TEMPO BKN014=
201511070050 METAR EGLL 070050Z AUTO 21004KT 9999 FEW015 14/13 Q1019 TEMPO
                        BKN014=
201511070020 METAR COR EGLL 070020Z AUTO 21005KT 9999 FEW023 14/13 Q1018
                        TEMPO BKN014=
201511062350 METAR EGLL 062350Z AUTO 22007KT 9999 FEW008 15/14 Q1019 TEMPO
                        BKN014=
201511062320 METAR COR EGLL 062320Z AUTO 21007KT 9999 SCT011 15/14 Q1018
                        TEMPO BKN014=
201511062250 METAR EGLL 062250Z AUTO 22008KT 9999 FEW011 BKN028 15/14
                        Q1018 TEMPO BKN014=
201511062220 METAR COR EGLL 062220Z AUTO 22010KT 190V250 9999 FEW011 15/14
                        Q1018 NOSIG=
201511062150 METAR EGLL 062150Z AUTO 22008KT 8000 FEW030 16/14 Q1018 NOSIG=
201511062120 METAR COR EGLL 062120Z AUTO 23009KT 9999 BKN023 16/15 Q1018
                        NOSIG=
201511062050 METAR EGLL 062050Z AUTO 23011KT 180V260 9999 BKN023 16/15
                        Q1017 NOSIG=
201511062020 METAR COR EGLL 062020Z AUTO 22009KT 9999 SCT009 OVC021 17/15
                        Q1017 TEMPO BKN009=
201511061950 METAR EGLL 061950Z AUTO 22011KT 9999 SCT008 OVC021 16/15
                        Q1016 TEMPO BKN008=
201511061920 METAR COR EGLL 061920Z AUTO 22012KT 9999 BKN006 OVC014 16/15
                        Q1016 NOSIG=
201511061850 METAR EGLL 061850Z AUTO 22011KT 190V250 6000 -RA BKN006 OVC015
                        16/15 Q1015 NOSIG=
201511061820 METAR COR EGLL 061820Z AUTO 22012KT 9999 OVC008 17/15 Q1015
                        NOSIG=
201511061750 METAR EGLL 061750Z AUTO 22014KT 9999 OVC008 17/15 Q1015 NOSIG=
201511061720 METAR COR EGLL 061720Z AUTO 22014KT 9999 OVC009 17/15 Q1014
                        TEMPO BKN010=
201511061650 METAR EGLL 061650Z AUTO 22012KT 9999 OVC009 17/15 Q1014 TEMPO
                        BKN010=
201511061620 METAR COR EGLL 061620Z AUTO 22012KT 190V250 9999 OVC009 17/15
                        Q1013 TEMPO BKN010=
201511061550 METAR EGLL 061550Z AUTO 22012KT 9999 BKN007 OVC017 17/16
                        Q1013 NOSIG=
201511061520 METAR COR EGLL 061520Z AUTO 22013KT 9999 OVC008 17/16 Q1013
                        NOSIG=
201511061450 METAR COR EGLL 061450Z AUTO 22013KT 9999 OVC009 17/15 Q1013
                        NOSIG=
201511061420 METAR COR EGLL 061420Z AUTO 22014KT 9999 OVC010 17/16 Q1013
                        TEMPO BKN008=
201511061350 METAR COR EGLL 061350Z AUTO 22012KT 9999 OVC008 17/16 Q1013
                        NOSIG=
201511061320 METAR COR EGLL 061320Z AUTO 22012KT 9999 OVC007 17/16 Q1013
                        NOSIG=
201511061250 METAR COR EGLL 061250Z AUTO 21011KT 9999 OVC006 17/15 Q1013
                        NOSIG=
201511061220 METAR COR EGLL 061220Z AUTO 19011KT 9999 OVC005 16/15 Q1013
                        NOSIG=
201511061150 METAR EGLL 061150Z AUTO 19011KT 9000 OVC005 16/14 Q1013 NOSIG=
201511061120 METAR COR EGLL 061120Z AUTO 18011G22KT 8000 OVC006 15/14
                        Q1014 NOSIG=
201511061050 METAR EGLL 061050Z AUTO 18011KT 9999 -RA OVC006/// //////TCU
                        14/14 Q1014 NOSIG=
201511061020 METAR COR EGLL 061020Z AUTO 18012KT 7000 -RA OVC007/// //////TCU
                        14/13 Q1014 TEMPO RA=
201511060950 METAR COR EGLL 060950Z AUTO 19011KT 9999 -RA OVC008/// //////TCU
                        14/13 Q1015 TEMPO RA=
201511060920 METAR COR EGLL 060920Z AUTO 20013KT 9999 -RA OVC009/// //////TCU
                        14/13 Q1015 TEMPO RA=
201511060850 METAR EGLL 060850Z AUTO 20011KT 9999 -RA OVC010 14/12 Q1014
                        TEMPO RA BKN008=
201511060820 METAR COR EGLL 060820Z AUTO 19011KT 110V210 9999 OVC011 14/12
                        Q1014 TEMPO RA BKN008=
201511060750 METAR EGLL 060750Z AUTO 21009KT 9999 BKN010 14/12 Q1015 TEMPO
                        RADZ BKN008=
201511060720 METAR COR EGLL 060720Z AUTO 21012KT 9999 OVC010 14/12 Q1015
                        TEMPO BKN009=
201511060650 METAR EGLL 060650Z AUTO 22011KT 9999 OVC009 14/12 Q1015 TEMPO
                        BKN012=
201511060620 METAR COR EGLL 060620Z AUTO 22010KT 9999 OVC009 14/12 Q1014
                        TEMPO SCT009 BKN012=
201511060550 METAR EGLL 060550Z AUTO 21005KT 9999 OVC010 14/12 Q1014 TEMPO
                        BKN009=
201511060520 METAR COR EGLL 060520Z AUTO 22010KT 9999 OVC009 14/12 Q1014
                        TEMPO SCT009 BKN011=
201511060450 METAR COR EGLL 060450Z AUTO 22006KT 9999 OVC011 14/12 Q1014
                        TEMPO BKN009=
201511060420 METAR COR EGLL 060420Z AUTO 22008KT 9999 OVC015 14/12 Q1014
                        BECMG BKN014=
201511060350 METAR EGLL 060350Z AUTO 20006KT 9999 OVC019 14/13 Q1014 TEMPO
                        BKN014=
201511060320 METAR COR EGLL 060320Z AUTO 22006KT 9999 BKN021 14/13 Q1014
                        TEMPO BKN014=
201511060250 METAR EGLL 060250Z AUTO 21007KT 9999 FEW012 BKN020 14/13
                        Q1014 TEMPO BKN013=
201511060220 METAR COR EGLL 060220Z AUTO 21007KT 9999 FEW008 OVC018 14/13
                        Q1014 NOSIG=
201511060150 METAR EGLL 060150Z AUTO 21008KT 9999 FEW009 BKN023 14/13
                        Q1014 TEMPO BKN009=
201511060120 METAR COR EGLL 060120Z AUTO 21006KT 9999 OVC022 14/13 Q1013
                        NOSIG=
201511060050 METAR COR EGLL 060050Z AUTO 22009KT 9999 OVC021 14/13 Q1013
                        NOSIG=
201511060020 METAR COR EGLL 060020Z AUTO 21010KT 9999 BKN026 14/13 Q1013
                        NOSIG=
201511052350 METAR COR EGLL 052350Z AUTO 22008KT 9999 FEW013 OVC029 14/13
                        Q1013 NOSIG=
201511052320 METAR COR EGLL 052320Z AUTO 22008KT 9999 FEW009 BKN031 14/13
                        Q1012 TEMPO BKN009=
201511052250 METAR EGLL 052250Z AUTO 21010KT 9999 FEW011 BKN026 15/13
                        Q1012 NOSIG=
201511052220 METAR COR EGLL 052220Z AUTO 24013KT 9999 SCT010 OVC032 15/13
                        Q1012 NOSIG=
201511052150 METAR COR EGLL 052150Z AUTO 23015KT 9999 SCT006 BKN021 15/14
                        Q1011 NOSIG=
201511052120 METAR COR EGLL 052120Z AUTO 23012KT 9000 -RA BKN006 OVC023
                        15/14 Q1011 TEMPO SCT006=
201511052050 METAR EGLL 052050Z AUTO 22011KT 9000 -RA BKN006 OVC025 15/14
                        Q1010 TEMPO SCT006=
201511052020 METAR COR EGLL 052020Z AUTO 21011KT 7000 BKN004 15/14 Q1010
                        REDZ TEMPO SCT004 BKN010=
201511051950 METAR EGLL 051950Z AUTO 21011KT 3200 DZ BKN004 15/14 Q1010
                        TEMPO SCT004 BKN006=
201511051920 METAR COR EGLL 051920Z AUTO 20012KT 190V250 4700 HZ BKN005
                        OVC014 15/14 Q1010 TEMPO BKN004=
201511051850 METAR EGLL 051850Z AUTO 19013KT 4100 HZ BKN005 14/14 Q1010
                        TEMPO BKN004=
201511051820 METAR COR EGLL 051820Z AUTO 19012KT 170V230 8000 -RA BKN007
                        14/13 Q1010 TEMPO BKN004=
201511051750 METAR EGLL 051750Z AUTO 19012KT 160V230 9999 OVC007 14/13
                        Q1010 TEMPO BKN004=
201511051720 METAR COR EGLL 051720Z AUTO 17009KT 130V230 9999 -RA BKN007///
                        //////CB 14/13 Q1010 TEMPO 4500 -RADZ
                        BKN004=
201511051650 METAR EGLL 051650Z AUTO 17009KT 130V230 9999 -RA BKN006///
                        //////TCU 13/13 Q1010 TEMPO 4500
                        -RADZ BKN004=
201511051620 METAR COR EGLL 051620Z AUTO 18009KT 140V230 7000 -RA BKN010
                        OVC021 14/13 Q1011 TEMPO 4500 -RADZ
                        BKN008=
201511051550 METAR EGLL 051550Z AUTO 19011G22KT 160V240 9999 -RA BKN009
                        BKN022 14/13 Q1011 TEMPO 4500 -RADZ=
201511051520 METAR COR EGLL 051520Z AUTO 18009KT 140V240 9999 -RA SCT012///
                        BKN023/// //////TCU 14/13 Q1011 TEMPO
                        RA BKN012=
201511051450 METAR COR EGLL 051450Z AUTO 19010KT 9999 -RA FEW013 SCT032
                        14/13 Q1011 TEMPO RA BKN012=
201511051420 METAR COR EGLL 051420Z AUTO 20012KT 9999 -RA SCT016/// SCT032///
                        //////TCU 14/12 Q1011 TEMPO RA BKN012=
201511051350 METAR EGLL 051350Z AUTO 20010KT 180V240 9999 FEW018 BKN032
                        15/12 Q1011 TEMPO RA BKN012=
201511051320 METAR COR EGLL 051320Z AUTO 20012G22KT 9999 BKN015 OVC034
                        16/13 Q1011 BECMG RA BKN012=
201511051250 METAR EGLL 051250Z AUTO 19010KT 160V230 9999 SCT013 BKN023
                        15/13 Q1011 TEMPO BKN013=
201511051220 METAR COR EGLL 051220Z AUTO 20011KT 9999 BKN011 OVC025 15/13
                        Q1012 TEMPO SCT010 BKN025=
201511051150 METAR EGLL 051150Z AUTO 21011KT 9999 BKN009 OVC022 15/13
                        Q1012 BECMG FEW009 BKN020=
201511051120 METAR COR EGLL 051120Z AUTO 18010KT 9999 BKN004 OVC013 15/14
                        Q1012 BECMG FEW004 BKN015=
201511051050 METAR EGLL 051050Z AUTO 19011KT 4500 -RADZ OVC004 15/14 Q1013
                        BECMG 8000 NSW BKN010=
201511051020 METAR COR EGLL 051020Z AUTO 19010KT 130V220 8000 OVC006 15/14
                        Q1013 BECMG BKN012=
201511050950 METAR EGLL 050950Z AUTO 16010KT 9999 BKN006 15/14 Q1013 BECMG
                        BKN012=
201511050920 METAR COR EGLL 050920Z AUTO 18011KT 7000 -RA BKN007 15/14
                        Q1013 BECMG BKN012=
201511050850 METAR EGLL 050850Z AUTO 18011KT 9999 BKN009 15/13 Q1013 BECMG
                        BKN012=
201511050820 METAR COR EGLL 050820Z AUTO 18010KT 140V200 9999 OVC011 15/13
                        Q1013 TEMPO BKN009=
201511050750 METAR EGLL 050750Z AUTO 16008KT 120V190 9999 BKN010 14/13
                        Q1013 TEMPO BKN008=
201511050720 METAR COR EGLL 050720Z AUTO 15007KT 090V200 9999 OVC009 14/13
                        Q1013 BECMG BKN012=
201511050650 METAR EGLL 050650Z AUTO 15007KT 110V210 9999 BKN011 14/13
                        Q1013 TEMPO SCT012=
201511050620 METAR COR EGLL 050620Z AUTO VRB07KT 9999 FEW011 14/13 Q1013
                        TEMPO TEMPO BKN008=
201511050550 METAR EGLL 050550Z AUTO 16007KT 9999 BKN009 14/13 Q1014 TEMPO
                        SCT013=
201511050520 METAR COR EGLL 050520Z AUTO 16007KT 9999 -RA BKN009 14/13
                        Q1014 TEMPO SCT013=
201511050450 METAR COR EGLL 050450Z AUTO 15006KT 9999 BKN008 OVC037 14/13
                        Q1014 TEMPO SCT008=
201511050420 METAR COR EGLL 050420Z AUTO 14006KT 9000 BKN005 OVC033 14/13
                        Q1014 TEMPO 4000 SHRA SCT008=
201511050350 METAR EGLL 050350Z AUTO 15005KT 6000 BKN005/// //////TCU
                        13/13 Q1014 RERA TEMPO 4000 SHRA
                        SCT008=
201511050320 METAR COR EGLL 050320Z AUTO 15005KT 4600 RA BKN007/// //////TCU
                        14/13 Q1014 TEMPO 5000 -RA SCT08=
201511050250 METAR EGLL 050250Z AUTO 15006KT 5000 -RADZ BKN009 OVC036
                        14/13 Q1014 TEMPO 4000 SHRA SCT009=
201511050220 METAR COR EGLL 050220Z AUTO 15005KT 6000 FEW016 OVC028 14/13
                        Q1015 TEMPO 4000 SHRA BKN008=
201511050150 METAR EGLL 050150Z AUTO 17004KT 5000 HZ OVC039 14/13 Q1015
                        TEMPO 4000 SHRA BKN008=
201511050120 METAR COR EGLL 050120Z AUTO 19004KT 6000 NCD 14/13 Q1015
                        TEMPO 4000 SHRA BKN008=
201511050050 METAR COR EGLL 050050Z AUTO 20004KT 6000 -RA BKN044 13/13
                        Q1015 TEMPO 4000 SHRA BKN008=
201511050020 METAR COR EGLL 050020Z AUTO 16003KT 6000 FEW010 BKN046 13/12
                        Q1015 TEMPO 4000 SHRA BKN008=
201511042350 METAR EGLL 042350Z AUTO 15003KT 2900 HZ FEW012 12/11 Q1015
                        TEMPO 5000 SHRA BKN008=
201511042320 METAR COR EGLL 042320Z AUTO 21003KT 5000 HZ FEW004 12/12
                        Q1015 TEMPO 4000 SHRA BKN008=
201511042250 METAR COR EGLL 042250Z AUTO 17003KT 5000 HZ SCT005 13/12
                        Q1015 TEMPO SHRA BKN008=
201511042220 METAR COR EGLL 042220Z AUTO 21007KT 140V250 7000 FEW009 SCT020
                        13/12 Q1015 TEMPO BKN009=
201511042150 METAR EGLL 042150Z AUTO 21007KT 170V260 8000 BKN013 13/12
                        Q1015 BECMG BKN008=
201511042120 METAR COR EGLL 042120Z AUTO 21008KT 150V250 7000 BKN010 BKN020
                        13/12 Q1015 BECMG BKN008=
201511042050 METAR COR EGLL 042050Z AUTO 20007KT 140V250 8000 BKN013 13/12
                        Q1015 TEMPO SCT012=
201511042020 METAR COR EGLL 042020Z AUTO 21006KT 160V240 8000 BKN016 13/12
                        Q1015 TEMPO SHRA BKN012=
201511041950 METAR COR EGLL 041950Z AUTO 23007KT 9000 SCT012 13/12 Q1015
                        TEMPO BKN012=
201511041920 METAR COR EGLL 041920Z AUTO 22009KT 9999 FEW011/// BKN034///
                        //////TCU 13/12 Q1015 TEMPO BKN014=
201511041850 METAR EGLL 041850Z AUTO 21008KT 9999 FEW014/// BKN030///
                        OVC045/// //////TCU 13/12 Q1014 TEMPO
                        BKN014=
201511041820 METAR COR EGLL 041820Z AUTO 21008KT 180V240 9999 BKN027 13/12
                        Q1014 TEMPO BKN014=
201511041750 METAR COR EGLL 041750Z AUTO 20007KT 160V230 9999 -RA FEW010
                        BKN029 13/12 Q1014 TEMPO BKN012=
201511041720 METAR COR EGLL 041720Z AUTO 19008KT 160V230 9999 BKN028 13/12
                        Q1014 TEMPO BKN014=
201511041650 METAR EGLL 041650Z AUTO 20007KT 170V240 9999 FEW009 SCT033
                        14/12 Q1014 NOSIG=
201511041620 METAR COR EGLL 041620Z AUTO 20007KT 170V240 9999 SCT010 SCT036
                        14/12 Q1013 TEMPO BKN012=
201511041550 METAR EGLL 041550Z AUTO 19008KT 150V230 9999 BKN011 14/12
                        Q1013 TEMPO SCT011 BKN016=
201511041520 METAR COR EGLL 041520Z AUTO 20008KT 9999 BKN013 14/12 Q1013
                        TEMPO FEW013=
201511041450 METAR COR EGLL 041450Z AUTO 20007KT 170V240 9999 SCT014 BKN031
                        15/12 Q1013 NOSIG=
201511041420 METAR COR EGLL 041420Z AUTO 20007KT 160V260 9999 FEW013 BKN039
                        15/12 Q1013 NOSIG=
201511041350 METAR EGLL 041350Z AUTO 19007KT 120V230 9999 SCT010 15/12
                        Q1013 NOSIG=
201511041320 METAR COR EGLL 041320Z AUTO 22007KT 190V260 9999 -RA FEW010
                        BKN030 BKN043 15/12 Q1013 NOSIG=
201511041250 METAR COR EGLL 041250Z AUTO 23006KT 9999 -RA BKN011 BKN024
                        14/12 Q1013 BECMG FEW013=
201511041220 METAR COR EGLL 041220Z AUTO 22005KT 170V270 9999 -RA FEW011
                        OVC032 14/12 Q1013 NOSIG=
201511041150 METAR COR EGLL 041150Z AUTO 21005KT 180V250 9999 BKN008 BKN039
                        15/12 Q1013 BECMG FEW012=
201511041120 METAR COR EGLL 041120Z AUTO 23005KT 180V260 9999 SCT008 BKN038
                        14/12 Q1013 NOSIG=
201511041050 METAR EGLL 041050Z AUTO 23004KT 200V260 8000 SCT006 OVC036
                        14/13 Q1013 NOSIG=
201511041020 METAR COR EGLL 041020Z AUTO VRB03KT 6000 BKN004 14/13 Q1013
                        BECMG SCT007=
201511040950 METAR EGLL 040950Z AUTO VRB03KT 4500 BR FEW002/// BKN046///
                        //////TCU 13/13 Q1013 BECMG 6000=
201511040920 METAR COR EGLL 040920Z AUTO VRB02KT 3900 BR FEW004/// BKN045///
                        //////TCU 13/12 Q1013 RERA REDZ BECMG
                        6000=
201511040850 METAR EGLL 040850Z AUTO VRB03KT 2700 -RA BKN048/// //////TCU
                        12/12 Q1013 BECMG 6000=
201511040820 METAR COR EGLL 040820Z AUTO VRB03KT 2800 BR FEW008/// //////TCU
                        12/11 Q1013 TEMPO BKN009=
201511040750 METAR EGLL 040750Z AUTO VRB02KT 2600 BR FEW005/// //////TCU
                        12/11 Q1013 TEMPO BKN009=
201511040720 METAR COR EGLL 040720Z AUTO VRB02KT 3100 BR FEW048/// //////TCU
                        12/12 Q1013 TEMPO BKN014=
201511040650 METAR EGLL 040650Z AUTO VRB01KT 3000 -RA FEW045/// //////TCU
                        12/12 Q1013=
201511040620 METAR COR EGLL 040620Z VRB02KT 2200 -RA FEW001 BKN045 11/11
                        Q1013 RERA REDZ TEMPO RA BKN005=
201511040550 METAR EGLL 040550Z AUTO 22002KT 2500 -RADZ BKN001/// OVC049///
                        //////TCU 11/11 Q1013 TEMPO BKN004=
201511040520 METAR COR EGLL 040520Z AUTO VRB02KT 2500 RA BKN001 11/11
                        Q1013 TEMPO BKN004=
201511040450 METAR EGLL 040450Z AUTO VRB02KT 2600 -RA FEW002 11/11 Q1012
                        TEMPO BKN005=
201511040420 METAR COR EGLL 040420Z AUTO 05004KT 010V080 3300 -RA NCD
                        11/11 Q1012 TEMPO BKN006=
201511040350 METAR COR EGLL 040350Z AUTO 36004KT 3400 -RADZ FEW005 OVC048
                        11/11 Q1013 TEMPO BKN006=
201511040320 METAR COR EGLL 040320Z AUTO 03004KT 3500 -RADZ BKN006 BKN037
                        12/11 Q1013 TEMPO SHRA=
201511040250 METAR COR EGLL 040250Z AUTO 05003KT 3300 -RA SCT008 BKN042
                        11/11 Q1013 TEMPO SHRA BKN008=
201511040220 METAR COR EGLL 040220Z AUTO VRB03KT 2800 -RADZ SCT009///
                        //////TCU 11/11 Q1013 RERA TEMPO
                        SHRA BKN008=
201511040150 METAR EGLL 040150Z AUTO 08003KT 3100 -RA FEW010 11/10 Q1013
                        TEMPO SHRA BKN008=
201511040120 METAR COR EGLL 040120Z AUTO 01002KT 2800 BR NCD 11/10 Q1013
                        TEMPO BKN008=
201511040050 METAR COR EGLL 040050Z AUTO 03003KT 1900 BR NCD 11/10 Q1014
                        TEMPO BKN008=
201511040020 METAR COR EGLL 040020Z AUTO 08002KT 2200 BR FEW005 11/10
                        Q1014 TEMPO BKN008=
201511032350 METAR COR EGLL 032350Z AUTO VRB03KT 1800 BR BKN007 11/10
                        Q1014 TEMPO BKN010=
201511032320 METAR COR EGLL 032320Z AUTO 18003KT 3700 BR SCT007 12/11
                        Q1014 TEMPO 5000 HZ BKN010=
201511032250 METAR EGLL 032250Z AUTO 15004KT 2800 BR SCT006 11/11 Q1014
                        TEMPO BKN012=
201511032220 METAR COR EGLL 032220Z AUTO 16004KT 3200 HZ FEW007 SCT014
                        12/11 Q1014 TEMPO BKN012=
201511032150 METAR EGLL 032150Z AUTO 15006KT 6000 SCT009 12/11 Q1014 TEMPO
                        BKN010=
201511032120 METAR COR EGLL 032120Z AUTO 13004KT 7000 SCT021 12/11 Q1014
                        TEMPO BKN012=
201511032050 METAR EGLL 032050Z AUTO 12005KT 6000 BKN021 12/11 Q1014 TEMPO
                        BKN012=
201511032020 METAR COR EGLL 032020Z AUTO 13007KT 9000 BKN025 13/12 Q1014
                        TEMPO BKN012=
201511031950 METAR EGLL 031950Z AUTO 13003KT 9000 OVC022 13/11 Q1014 TEMPO
                        BKN012=
201511031920 METAR COR EGLL 031920Z AUTO 10002KT 9000 FEW012 OVC022 13/12
                        Q1014 TEMPO BKN012=
201511031850 METAR EGLL 031850Z AUTO 10003KT 9999 BKN018 13/11 Q1014 TEMPO
                        BKN014=
201511031820 METAR COR EGLL 031820Z AUTO 09003KT 9999 -RA BKN010 OVC019
                        13/11 Q1014 TEMPO SCT012 BKN018=
201511031750 METAR EGLL 031750Z AUTO 10004KT 9999 -RA OVC011 13/11 Q1014
                        TEMPO SCT011 BKN015=
201511031720 METAR COR EGLL 031720Z AUTO 10005KT 9999 -RA OVC012 13/11
                        Q1014 TEMPO SCT012 BKN015=
201511031650 METAR EGLL 031650Z AUTO 09005KT 9999 OVC014 13/11 Q1013 TEMPO
                        SCT014 BKN015=
201511031620 METAR COR EGLL 031620Z AUTO 09005KT 9999 BKN014 13/11 Q1013
                        TEMPO SCT014 BKN018=
201511031550 METAR EGLL 031550Z AUTO 11006KT 9999 BKN015 13/11 Q1014 TEMPO
                        BKN014=
201511031520 METAR EGLL 031520Z AUTO 11005KT 9999 NCD 13/11 Q1014=
201511031450 METAR EGLL 031450Z AUTO 10005KT 9000 BKN039 13/11 Q1014=
201511031420 METAR COR EGLL 031420Z AUTO 10004KT 9000 SCT046 13/11 Q1014
                        NOSIG=
201511031350 METAR COR EGLL 031350Z AUTO 09004KT 8000 NCD 13/11 Q1014
                        NOSIG=
201511031320 METAR COR EGLL 031320Z AUTO VRB03KT 8000 BKN047 13/11 Q1014
                        NOSIG=
201511031250 METAR EGLL 031250Z AUTO 09004KT 4200 -RA BKN032 OVC048 13/11
                        Q1015 BECMG 7000 NSW=
201511031220 METAR COR EGLL 031220Z AUTO 10005KT 7000 BKN049 13/11 Q1015
                        NOSIG=
201511031150 METAR EGLL 031150Z AUTO 09006KT 6000 NCD 12/11 Q1015 TEMPO
                        BKN014=
201511031120 METAR COR EGLL 031120Z AUTO 10007KT 7000 NCD 13/11 Q1015
                        TEMPO BKN012=
201511031050 METAR EGLL 031050Z AUTO 09006KT 7000 BKN049 12/10 Q1015 TEMPO
                        BKN014=
201511031020 METAR COR EGLL 031020Z AUTO 08004KT 040V110 6000 FEW008 12/10
                        Q1016 TEMPO BKN012=
201511030950 METAR EGLL 030950Z AUTO 06004KT 5000 HZ FEW008 11/10 Q1016
                        TEMPO BKN012=
201511030920 METAR COR EGLL 030920Z AUTO 06005KT 5000 HZ FEW007 BKN048
                        11/10 Q1016 TEMPO BKN012=
201511030850 METAR EGLL 030850Z AUTO 09005KT 5000 HZ SCT007 BKN047 11/10
                        Q1016 TEMPO BKN012=
201511030820 METAR COR EGLL 030820Z AUTO 09006KT 5000 HZ BKN007 11/10
                        Q1017 BECMG SCT007 BKN010=
201511030750 METAR EGLL 030750Z AUTO 10006KT 4400 HZ OVC007 10/09 Q1017
                        BECMG 6000 SCT007 BKN010=
201511030720 METAR COR EGLL 030720Z AUTO 10005KT 4400 HZ OVC006 10/09
                        Q1016 BECMG 5000 SCT006=
201511030650 METAR COR EGLL 030650Z AUTO 10005KT 5000 HZ OVC007 10/09
                        Q1016 NOSIG=
201511030620 METAR COR EGLL 030620Z AUTO 09005KT 5000 HZ OVC007 10/09
                        Q1016 TEMPO 4500=
201511030550 METAR EGLL 030550Z AUTO 07004KT 5000 HZ OVC007 10/09 Q1016
                        TEMPO 4500=
201511030520 METAR COR EGLL 030520Z AUTO 10005KT 5000 HZ OVC007 10/09
                        Q1016 NOSIG=
201511030450 METAR COR EGLL 030450Z AUTO 08005KT 5000 HZ OVC007 10/09
                        Q1017 TEMPO 4500=
201511030420 METAR COR EGLL 030420Z AUTO 11005KT 4900 HZ OVC006 10/09
                        Q1017 TEMPO 5000=
201511030350 METAR EGLL 030350Z AUTO 12006KT 5000 HZ OVC006 10/09 Q1017
                        NOSIG=
201511030320 METAR COR EGLL 030320Z AUTO 12006KT 4700 HZ OVC006 10/09
                        Q1017 NOSIG=
201511030250 METAR EGLL 030250Z AUTO 12005KT 4400 HZ OVC006 10/09 Q1017=
201511030220 METAR COR EGLL 030220Z AUTO 11006KT 4100 HZ OVC007 10/09
                        Q1018 NOSIG=
201511030150 METAR COR EGLL 030150Z AUTO 09004KT 4100 HZ OVC007 10/09
                        Q1018 NOSIG=
201511030120 METAR COR EGLL 030120Z AUTO 08004KT 4000 HZ OVC007 10/09
                        Q1018 NOSIG=
201511030050 METAR EGLL 030050Z AUTO 11004KT 070V130 3800 HZ OVC006 10/09
                        Q1019 NOSIG=
201511030020 METAR COR EGLL 030020Z AUTO 14004KT 3700 HZ OVC006 10/09
                        Q1019 NOSIG=
201511022350 METAR EGLL 022350Z AUTO 11006KT 3900 HZ OVC006 10/09 Q1019
                        NOSIG=
201511022320 METAR COR EGLL 022320Z AUTO 11006KT 3600 HZ OVC006 10/09
                        Q1019 NOSIG=
201511022250 METAR COR EGLL 022250Z AUTO 14005KT 3900 HZ OVC007 10/09
                        Q1019 NOSIG=
201511022220 METAR COR EGLL 022220Z AUTO 16006KT 4400 HZ BKN007 10/09
                        Q1020 NOSIG=
201511022150 METAR EGLL 022150Z AUTO 14006KT 3600 HZ OVC007 11/10 Q1020
                        NOSIG=
201511022120 METAR COR EGLL 022120Z AUTO 12006KT 3200 BR OVC008 11/10
                        Q1020 NOSIG=
201511022050 METAR EGLL 022050Z AUTO 11007KT 3300 BR OVC003 11/10 Q1020
                        BECMG BKN005=
201511022020 METAR COR EGLL 022020Z AUTO 12009KT 1800 BR OVC001 11/10
                        Q1020 BECMG BKN003=
201511021950 METAR COR EGLL 021950Z AUTO 08005KT 0450 R27L/P1500 R27R/P1500
                        FG VV/// 11/10 Q1020 TEMPO 1200 BR
                        BKN002=
201511021920 METAR COR EGLL 021920Z AUTO 09005KT 0200 R27L/0650 R27R/1000
                        FG VV/// 10/10 Q1020 TEMPO 0800 BKN001=
201511021850 METAR EGLL 021850Z AUTO 09006KT 0250 R27L/0700 R27R/P1500
                        FG BKN000 10/10 Q1021=
201511021820 METAR COR EGLL 021820Z AUTO VRB02KT 2500 BR FEW009 10/10
                        Q1021 TEMPO 1200 BR BKN005=
201511021750 METAR EGLL 021750Z AUTO VRB01KT 2400 HZ NCD 11/11 Q1021 TEMPO
                        1200 BR BKN005=
201511021720 METAR COR EGLL 021720Z AUTO VRB02KT 1200 R27L/P1500 R27R/P1500
                        BR NCD 12/11 Q1021 TEMPO 1500 BR
                        BKN005=
201511021650 METAR COR EGLL 021650Z AUTO VRB02KT 2400 BR NCD 11/11 Q1021
                        TEMPO 1200 BR BKN005=
201511021620 METAR COR EGLL 021620Z AUTO VRB03KT 2400 BR FEW006 11/11
                        Q1021 TEMPO BKN005=
201511021550 METAR COR EGLL 021550Z AUTO VRB03KT 3800 BR NCD 13/12 Q1021
                        TEMPO 5000 HZ=
201511021520 METAR COR EGLL 021520Z AUTO 05003KT 4000 BR NCD 13/12 Q1022
                        TEMPO 5000 HZ=
201511021450 METAR COR EGLL 021450Z AUTO VRB02KT 4300 BR FEW007 13/13
                        Q1022 TEMPO 5000 HZ=
201511021420 METAR COR EGLL 021420Z AUTO 12004KT 070V170 3400 BR SCT003
                        12/12 Q1022 TEMPO 5000 HZ=
201511021350 METAR COR EGLL 021350Z AUTO 13005KT 3400 BR BKN003 12/11
                        Q1023 TEMPO 5000 HZ SCT006=
201511021320 METAR COR EGLL 021320Z AUTO 12005KT 100V170 2600 BR OVC003
                        11/11 Q1023 TEMPO 5000 HZ BKN006=
201511021250 METAR COR EGLL 021250Z AUTO 09004KT 020V140 2300 BR OVC001
                        11/11 Q1023 TEMPO TEMPO 1400 BKN002=
201511021220 METAR COR EGLL 021220Z AUTO 12004KT 080V160 1400 R27R/1400
                        R27L/1300 BR VV/// 11/10 Q1024 TEMPO
                        1000 FG=
201511021150 METAR EGLL 021150Z AUTO 11006KT 070V160 0350 R27R/0800 R27L/0800
                        FG VV/// 10/10 Q1024 0400=
201511021120 METAR COR EGLL 021120Z AUTO VRB03KT 0150 R27R/0450 R27L/0300
                        FG VV/// 10/09 Q1025 TEMPO 0400=
201511021050 METAR EGLL 021050Z AUTO 12005KT 080V150 0200 R27R/0400 R27L/0400
                        FG VV/// 10/10 Q1025 TEMPO 0400=
201511021020 METAR COR EGLL 021020Z AUTO VRB03KT 0200 R27R/0325 R27L/0500
                        FG VV/// 10/10 Q1025 TEMPO 0400=
201511020950 METAR EGLL 020950Z AUTO VRB03KT 0150 R27R/0325 R27L/0325
                        FG VV/// 09/09 Q1025 TEMPO 0400=
201511020920 METAR COR EGLL 020920Z AUTO 12004KT 060V180 0150 R27R/0300
                        R27L/0325 FG VV/// 09/09 Q1025 NOSIG=
201511020850 METAR EGLL 020850Z AUTO 11004KT 070V130 0150 R27R/0325 R27L/0350
                        FG VV/// 09/09 Q1026 NOSIG=
201511020820 METAR COR EGLL 020820Z AUTO 10005KT 060V140 0150 R27R/0350
                        R27L/0325 FG VV/// 09/09 Q1026 NOSIG=
201511020750 METAR EGLL 020750Z AUTO 12004KT 090V170 0150 R27R/0400 R27L/0350
                        FG VV/// 09/08 Q1026 NOSIG=
201511020720 METAR COR EGLL 020720Z AUTO 13004KT 100V170 0150 R27R/0450
                        R27L/0350 FG VV/// 08/08 Q1026 NOSIG=
201511020650 METAR EGLL 020650Z AUTO 12004KT 080V190 0200 R27R/0650 R27L/0550
                        FG VV/// 08/08 Q1026 NOSIG=
201511020620 METAR COR EGLL 020620Z AUTO VRB03KT 0200 R27R/0750 R27L/0650
                        FG VV/// 08/08 Q1026 NOSIG=
201511020550 METAR EGLL 020550Z AUTO VRB01KT 0200 R27R/0650 R27L/0500
                        FG VV/// 08/08 Q1026 NOSIG=
201511020520 METAR COR EGLL 020520Z AUTO VRB02KT 0200 R27R/0600 R27L/0550
                        FG VV/// 08/08 Q1026 NOSIG=
201511020450 METAR COR EGLL 020450Z AUTO VRB02KT 0150 R27R/0500 R27L/0450
                        FG VV/// 08/08 Q1026 NOSIG=
201511020420 METAR COR EGLL 020420Z AUTO 23003KT 0150 R27R/0450 R27L/0400
                        FG VV/// 08/08 Q1026 NOSIG=
201511020350 METAR EGLL 020350Z AUTO 19001KT 0150 R27R/0450 R27L/0450
                        FG VV/// 08/08 Q1027 NOSIG=
201511020320 METAR EGLL 020320Z AUTO 20002KT 0150 R27R/0400 R27L/0500
                        FG VV/// 08/08 Q1027=
201511020250 METAR EGLL 020250Z AUTO 19003KT 0150 R27R/0400 R27L/0450
                        FG VV/// 08/08 Q1027 NOSIG=
201511020220 METAR COR EGLL 020220Z AUTO VRB02KT 0150 R27R/0400 R27L/0375
                        FG VV/// 08/08 Q1027 NOSIG=
201511020150 METAR COR EGLL 020150Z AUTO 21001KT 0100 R27R/0450 R27L/0375
                        FG VV/// 08/08 Q1027 NOSIG=
201511020120 METAR COR EGLL 020120Z AUTO 26003KT 0100 R27R/0450 R27L/0375
                        FG VV/// 08/08 Q1027 NOSIG=
201511020050 METAR EGLL 020050Z AUTO VRB02KT 0150 R27R/0650 R27L/0450
                        FG VV/// 09/08 Q1027 NOSIG=
201511020020 METAR COR EGLL 020020Z AUTO VRB01KT 0150 R27R/0800 R27L/0550
                        FG VV/// 09/08 Q1028 NOSIG=
201511012350 METAR EGLL 012350Z AUTO 15002KT 0200 R27R/0750 R27L/0550
                        FG VV/// 09/08 Q1028 NOSIG=
201511012320 METAR COR EGLL 012320Z AUTO VRB03KT 0150 R27R/0550 R27L/0500
                        FG VV/// 09/08 Q1028 NOSIG=
201511012250 METAR EGLL 012250Z AUTO VRB02KT 0350 R27R/1200 R27L/1200
                        FG VV/// 09/08 Q1028 TEMPO 0600 BKN002=
201511012220 METAR COR EGLL 012220Z AUTO VRB02KT 0200 R27R/1100 R27L/0600
                        FG VV/// 09/09 Q1028 TEMPO 0600 BKN002=
201511012150 METAR EGLL 012150Z AUTO 19001KT 0100 R27R/0550 R27L/0375
                        FG VV/// 09/09 Q1028 NOSIG=
201511012120 METAR COR EGLL 012120Z AUTO VRB03KT 0100 R27R/0400 R27L/0350
                        FG VV/// 09/09 Q1028 NOSIG=
201511012050 METAR EGLL 012050Z AUTO VRB03KT 0050 R27R/0450 R27L/0250
                        FG VV/// 09/09 Q1028 NOSIG=
201511012020 METAR COR EGLL 012020Z AUTO VRB02KT 0050 R27R/0275 R27L/0250
                        FG VV/// 09/09 Q1028 NOSIG=
201511011950 METAR EGLL 011950Z AUTO VRB03KT 0050 R27R/0350 R27L/0250
                        FG VV/// 09/09 Q1028 NOSIG=
201511011920 METAR COR EGLL 011920Z AUTO VRB03KT 0050 R27R/0325 R27L/0250
                        FG VV/// 09/09 Q1029 NOSIG=
201511011850 METAR EGLL 011850Z AUTO VRB03KT 0100 R27R/0375 R27L/0325
                        FG VV/// 09/09 Q1029 NOSIG=
201511011820 METAR COR EGLL 011820Z AUTO 16003KT 0050 R27R/0400 R27L/0275
                        FG VV/// 09/09 Q1029 NOSIG=
201511011750 METAR EGLL 011750Z AUTO VRB03KT 0050 R27R/0450 R27L/0275
                        FG VV/// 09/09 Q1029 NOSIG=
201511011720 METAR COR EGLL 011720Z AUTO VRB02KT 0100 R27R/0450 R27L/0325
                        FG VV/// 09/09 Q1029 NOSIG=
201511011650 METAR COR EGLL 011650Z AUTO VRB02KT 0100 R27R/0550 R27L/0275
                        FG VV/// 09/09 Q1028 NOSIG=
201511011620 METAR COR EGLL 011620Z AUTO 15002KT 0150 R27R/0400 R27L/0350
                        FG VV/// 10/09 Q1028 TEMPO 0400=
201511011550 METAR EGLL 011550Z AUTO 15005KT 110V190 0200 R27R/0600 R27L/0350
                        FG BKN000 10/10 Q1028 TEMPO 0500=
201511011520 METAR COR EGLL 011520Z AUTO 15004KT 110V180 1000 R27R/P1500
                        R27L/P1500 BR BKN001 11/10 Q1028
                        TEMPO 1500 SCT001=
201511011450 METAR COR EGLL 011450Z AUTO 16004KT 120V210 1800 BR SCT001
                        11/10 Q1029 TEMPO 1200 BR BKN002=
201511011420 METAR COR EGLL 011420Z AUTO 19005KT 140V290 1800 BR SCT001
                        11/10 Q1029 TEMPO BKN002=
201511011350 METAR COR EGLL 011350Z AUTO 16004KT 130V190 1700 BR FEW001
                        11/10 Q1029 TEMPO BKN003=
201511011320 METAR COR EGLL 011320Z AUTO VRB02KT 2200 BR BKN001 11/10
                        Q1029 TEMPO 5000 HZ BKN003=
201511011250 METAR EGLL 011250Z AUTO VRB01KT 1300 R27R/P1500 R27L/P1500
                        BR BKN001 11/10 Q1029 BECMG 3000
                        BR BKN003=
201511011220 METAR COR EGLL 011220Z AUTO VRB02KT 0650 R27R/1200 R27L/P1500
                        FG OVC001 10/10 Q1029 TEMPO 1200
                        BR=
201511011150 METAR EGLL 011150Z AUTO VRB03KT 0750 R27R/1000 R27L/P1500
                        FG VV/// 10/09 Q1029 TEMPO 2000 BR=
201511011120 METAR COR EGLL 011120Z AUTO VRB02KT 0900 R27R/P1500 R27L/1000
                        FG VV/// 09/09 Q1029 BECMG 2000 BR=
201511011050 METAR EGLL 011050Z AUTO VRB02KT 0150 R27R/0900 R27L/0300
                        FG VV/// 09/08 Q1029 TEMPO 2000 BR=
201511011020 METAR COR EGLL 011020Z AUTO VRB03KT 0200 R27R/0500 R27L/0350
                        FG VV/// 09/08 Q1029 TEMPO 2000 BR=
201511010950 METAR EGLL 010950Z AUTO VRB02KT 0150 R27R/0400 R27L/0275
                        FG VV/// 08/08 Q1029 TEMPO 0400 FG=
201511010920 METAR COR EGLL 010920Z AUTO VRB03KT 0100 R27R/0300 R27L/0200
                        FG VV/// 08/08 Q1029 TEMPO 0400 FG=
201511010850 METAR EGLL 010850Z AUTO 15004KT 110V180 0100 R27R/0225 R27L/0225
                        FG VV/// 08/08 Q1029 NOSIG=
201511010820 METAR COR EGLL 010820Z AUTO VRB02KT 0100 R27R/0200 R27L/0275
                        FG VV/// 08/07 Q1029 NOSIG=
201511010750 METAR EGLL 010750Z AUTO 36003KT 0100 R27R/0275 R27L/0250
                        FG VV/// 08/07 Q1029 NOSIG=
201511010720 METAR COR EGLL 010720Z AUTO 32002KT 0100 R27R/0400 R27L/0300
                        FG VV/// 07/07 Q1028 NOSIG=
201511010650 METAR EGLL 010650Z AUTO VRB02KT 0100 R27R/0450 FG VV/// 07/06
                        Q1028 NOSIG=
201511010620 METAR COR EGLL 010620Z AUTO 19002KT 0100 R27R/0375 FG VV///
                        07/07 Q1028 NOSIG=
201511010550 METAR EGLL 010550Z AUTO 16004KT 100V190 0050 R27R/0375 FG
                        VV/// 07/07 Q1027 NOSIG=
201511010520 METAR COR EGLL 010520Z AUTO VRB02KT 0050 R27R/0400 FG VV///
                        08/07 Q1027 NOSIG=
201511010450 METAR COR EGLL 010450Z AUTO VRB02KT 0050 R27R/0225 FG VV///
                        07/07 Q1027 NOSIG=
201511010420 METAR COR EGLL 010420Z AUTO VRB03KT 0050 R27R/0225 FG VV///
                        08/07 Q1027 NOSIG=
201511010350 METAR COR EGLL 010350Z AUTO 31001KT 0050 R27R/0250 FG VV///
                        07/07 Q1027 NOSIG=
201511010320 METAR COR EGLL 010320Z AUTO VRB03KT 0100 R09L/0275 FG VV///
                        07/06 Q1027 TEMPO 0400=
201511010250 METAR EGLL 010250Z AUTO 28001KT 0100 R09L/0275 BCFG VV///
                        07/07 Q1027 TEMPO 0400=
201511010220 METAR COR EGLL 010220Z AUTO VRB01KT 0550 R09L/1400 BCFG SCT001
                        07/06 Q1028 BECMG 0300 FG VV///=
201511010150 METAR COR EGLL 010150Z AUTO 34001KT 0800 R09L/P1500 BCFG
                        NCD 08/08 Q1027 BECMG 0300 FG VV///=
201511010120 METAR COR EGLL 010120Z AUTO 01001KT 0050 R09L/1100 FG NCD
                        08/07 Q1027 NOSIG=
201511010050 METAR EGLL 010050Z AUTO 11001KT 0050 R09L/P1500 BCFG NCD
                        08/07 Q1027 BECMG 0800 FG=
201511010020 METAR COR EGLL 010020Z AUTO 11002KT 0450 R09L/0700 FG NCD
                        09/09 Q1027 BECMG 1200 MIFG=

</pre>

</body>
</html>
