##########################################################
# Query made at 12/27/2012 09:43:13 UTC
# Time interval: from 11/01/2010 00:00  to 12/01/2010 23:59  UTC
##########################################################

##########################################################
# EGLL, London / Heathrow Airport (United Kingdom)
# WMO index: 03772
# Latitude 51-29N. Longitude 000-27W. Altitude 24 m.
##########################################################

###################################
#  METAR/SPECI from EGLL
###################################
201012012350 METAR COR EGLL 012350Z 05010KT 020V090 8000 -SN BKN017 BKN028
                        M00/M03 Q1005 TEMPO 4500 SN BKN008=
201012012320 METAR COR EGLL 012320Z 05010KT 010V080 9000 -SN BKN018 BKN026
                        M00/M03 Q1006 TEMPO 4500 SN BKN008=
201012012250 METAR COR EGLL 012250Z 06012KT 020V090 8000 -SN SCT016 BKN019
                        M00/M03 Q1006 TEMPO 5000 SN=
201012012220 METAR COR EGLL 012220Z 05009KT 6000 -SN BKN017 M00/M03 Q1006
                        TEMPO 5000 SN=
201012012150 METAR COR EGLL 012150Z 04011KT 360V070 9000 -SG OVC022 00/M04
                        Q1006 NOSIG=
201012012120 METAR COR EGLL 012120Z 03011KT 9999 -SG OVC023 M00/M04 Q1006
                        TEMPO 5000 SN=
201012012050 METAR COR EGLL 012050Z 04010G20KT 360V070 9999 -SG OVC023
                        00/M05 Q1006 RESN TEMPO 5000 SN=
201012012020 METAR COR EGLL 012020Z 05010KT 9999 -SN OVC024 00/M06 Q1006
                        NOSIG=
201012011950 METAR COR EGLL 011950Z 03010KT 350V060 9999 BKN026 00/M07
                        Q1006 NOSIG=
201012011920 METAR COR EGLL 011920Z 03009KT 340V060 9999 BKN037 00/M07
                        Q1006 NOSIG=
201012011850 METAR COR EGLL 011850Z 03011KT 9999 BKN038 M00/M08 Q1006
                        NOSIG=
201012011820 METAR COR EGLL 011820Z 03010KT 340V050 9999 BKN035 M00/M08
                        Q1006 NOSIG=
201012011750 METAR COR EGLL 011750Z 03010KT 350V050 9999 FEW035 BKN040
                        M00/M08 Q1006 NOSIG=
201012011720 METAR COR EGLL 011720Z 04009KT 360V070 9999 BKN035 M00/M08
                        Q1006 NOSIG=
201012011650 METAR COR EGLL 011650Z 03010G20KT 9999 BKN034 M00/M07 Q1006
                        NOSIG=
201012011620 METAR COR EGLL 011620Z 03011KT 9999 BKN035 M00/M07 Q1006
                        NOSIG=
201012011550 METAR COR EGLL 011550Z 04011KT 360V070 9999 BKN033 M00/M07
                        Q1006 NOSIG=
201012011520 METAR COR EGLL 011520Z 04010KT 350V070 9999 OVC032 M00/M07
                        Q1006 NOSIG=
201012011450 METAR COR EGLL 011450Z 04010G20KT 360V080 9999 OVC032 M00/M07
                        Q1006 NOSIG=
201012011420 METAR COR EGLL 011420Z 03011KT 9999 BKN033 M00/M07 Q1006
                        NOSIG=
201012011350 METAR COR EGLL 011350Z 04012KT 010V070 9999 BKN032 M00/M07
                        Q1006 NOSIG=
201012011320 METAR COR EGLL 011320Z 04012G22KT 350V080 9999 FEW031 BKN035
                        M00/M07 Q1006 NOSIG=
201012011250 METAR COR EGLL 011250Z 03013KT 360V070 9999 BKN038 M00/M06
                        Q1006 NOSIG=
201012011220 METAR COR EGLL 011220Z 03011KT 9999 BKN038 M00/M07 Q1007
                        NOSIG=
201012011150 METAR COR EGLL 011150Z 03012KT 360V060 9999 BKN040 M00/M06
                        Q1007 NOSIG=
201012011120 METAR COR EGLL 011120Z 03013G25KT 360V060 9999 BKN040 M00/M06
                        Q1007 NOSIG=
201012011050 METAR COR EGLL 011050Z 03010KT 340V050 9999 BKN039 M01/M06
                        Q1007 NOSIG=
201012011020 METAR COR EGLL 011020Z 02009KT 340V060 9999 BKN039 M01/M06
                        Q1008 NOSIG=
201012010950 METAR COR EGLL 010950Z 03009KT 350V050 9999 BKN038 M01/M06
                        Q1008 NOSIG=
201012010920 METAR COR EGLL 010920Z 02009KT 340V060 9999 BKN036 M01/M06
                        Q1008 NOSIG=
201012010850 METAR COR EGLL 010850Z 02008KT 330V050 9999 BKN036 M01/M06
                        Q1008 NOSIG=
201012010820 METAR COR EGLL 010820Z 01008KT 340V050 9999 SCT034 SCT038
                        M01/M06 Q1008 NOSIG=
201012010750 METAR COR EGLL 010750Z 03010KT 360V060 9999 OVC034 M00/M06
                        Q1008 NOSIG=
201012010720 METAR COR EGLL 010720Z 04010KT 360V080 9999 BKN035 M00/M06
                        Q1008 NOSIG=
201012010650 METAR COR EGLL 010650Z 04009KT 360V070 9999 BKN034 M00/M06
                        Q1008 NOSIG=
201012010620 METAR COR EGLL 010620Z 04010KT 360V090 9999 -SN FEW028 BKN036
                        M00/M05 Q1008 NOSIG=
201012010550 METAR COR EGLL 010550Z 03011KT 9999 -SN FEW027 BKN037 M00/M05
                        Q1008 NOSIG=
201012010520 METAR COR EGLL 010520Z 05011G22KT 360V080 9999 FEW029 BKN036
                        M00/M05 Q1008 NOSIG=
201012010450 METAR COR EGLL 010450Z 04008KT 360V070 9999 FEW022 BKN037
                        M00/M04 Q1008 NOSIG=
201012010420 METAR COR EGLL 010420Z 05009KT 360V080 9999 -SN FEW027 BKN038
                        M00/M04 Q1009 NOSIG=
201012010350 METAR COR EGLL 010350Z 04009KT 360V070 9999 -SN BKN043 M00/M04
                        Q1009 NOSIG=
201012010320 METAR COR EGLL 010320Z 03011KT 360V070 9999 FEW022 BKN048
                        M00/M04 Q1009 NOSIG=
201012010250 METAR COR EGLL 010250Z 04010G21KT 360V080 9999 FEW021 M00/M04
                        Q1009 NOSIG=
201012010220 METAR COR EGLL 010220Z 05008KT 010V080 9000 FEW034 M01/M04
                        Q1010 NOSIG=
201012010150 METAR COR EGLL 010150Z 05009KT 9999 FEW034 M00/M04 Q1010
                        NOSIG=
201012010120 METAR COR EGLL 010120Z 05010KT 010V080 9999 FEW016 M01/M04
                        Q1010 NOSIG=
201012010050 METAR COR EGLL 010050Z 05011KT 020V080 9000 -SHSN BKN013
                        M00/M03 Q1010 NOSIG=
201012010020 METAR COR EGLL 010020Z 05010KT 9999 -SHSN SCT014 SCT023 M00/M03
                        Q1010 NOSIG=
201011302350 METAR COR EGLL 302350Z 05010KT 8000 -SHSN SCT015 SCT035 M00/M03
                        Q1010 TEMPO BKN012=
201011302320 METAR COR EGLL 302320Z 04009KT 8000 -SHSN BKN015 M00/M03
                        Q1011 TEMPO BKN012=
201011302250 METAR COR EGLL 302250Z 04009KT 010V080 9999 -SHSN SCT014
                        BKN020 M00/M03 Q1011 NOSIG=
201011302220 METAR COR EGLL 302220Z 04009KT 350V080 9999 -SHSN SCT018
                        BKN024 M00/M03 Q1011 NOSIG=
201011302150 METAR COR EGLL 302150Z 05011KT 010V070 9999 -SHSN SCT021
                        SCT042 00/M03 Q1011 NOSIG=
201011302120 METAR COR EGLL 302120Z 05009KT 010V080 9999 -SHSN SCT020
                        00/M03 Q1011 NOSIG=
201011302050 METAR COR EGLL 302050Z 05009KT 9999 -SHSN FEW018 00/M03 Q1011
                        NOSIG=
201011302020 METAR COR EGLL 302020Z 05010KT 9999 -SHSN FEW016 00/M03 Q1011
                        NOSIG=
201011301950 METAR COR EGLL 301950Z 05009KT 9999 SCT020 00/M02 Q1011 NOSIG=
201011301920 METAR COR EGLL 301920Z 06009KT 9999 -SHSN FEW013 SCT017 BKN040
                        00/M02 Q1011 TEMPO BKN013=
201011301850 METAR COR EGLL 301850Z 05010KT 020V080 9999 -SHSN SCT015
                        SCT038 00/M02 Q1011 TEMPO BKN014=
201011301820 METAR COR EGLL 301820Z 05010KT 8000 -SHSN FEW016 SCT042 01/M02
                        Q1011 TEMPO BKN014=
201011301750 METAR COR EGLL 301750Z 06010KT 9999 -SHSN FEW012 SCT033 01/M02
                        Q1011 TEMPO BKN012=
201011301720 METAR COR EGLL 301720Z 06010KT 9999 -SHSN FEW011 SCT014 01/M02
                        Q1011 TEMPO BKN014=
201011301650 METAR COR EGLL 301650Z 05010KT 020V080 9999 -SHSN SCT013
                        SCT023 01/M01 Q1011 RESHSN TEMPO
                        6000 BKN010=
201011301620 METAR COR EGLL 301620Z 05008KT 3000 SHSN BKN012 01/M01 Q1011
                        BECMG 9000 BKN018=
201011301550 METAR COR EGLL 301550Z 06010KT 9999 -SHSN SCT012 BKN017 01/M01
                        Q1011 TEMPO 4000 BKN010=
201011301520 METAR COR EGLL 301520Z 06011KT 9999 5000N -SHSN SCT014 BKN019
                        01/M01 Q1011 BECMG 4000 BKN010=
201011301450 METAR COR EGLL 301450Z 06010KT 9999 -SHSN SCT014 BKN017 01/M01
                        Q1011 TEMPO 4000 BKN010=
201011301420 METAR COR EGLL 301420Z 06010KT 020V090 8000 -SHSN BKN018
                        02/M01 Q1012 BECMG 4000 BKN010=
201011301350 METAR COR EGLL 301350Z 06010KT 9999 BKN018 02/M01 Q1012 BECMG
                        4000 SHSN BKN010=
201011301320 METAR COR EGLL 301320Z 06011KT 9999 BKN018 02/M01 Q1012 BECMG
                        4000 SHSN BKN010=
201011301250 METAR COR EGLL 301250Z 06009KT 9999 BKN018 02/M01 Q1012 BECMG
                        4000 -SN BKN012=
201011301220 METAR COR EGLL 301220Z 05009KT 9999 SCT017 SCT038 02/M01
                        Q1012 BECMG 4000 -SN BKN006=
201011301150 METAR COR EGLL 301150Z 06009KT 9999 SCT016 SCT032 02/M01
                        Q1012 BECMG 4000 -SN BKN012=
201011301120 METAR COR EGLL 301120Z 06011KT 6000 -SN FEW009 BKN011 01/M00
                        Q1013 TEMPO 1200 SN BKN003=
201011301050 METAR COR EGLL 301050Z 05009KT 9000 -RASN FEW008 BKN011 01/M00
                        Q1013 BECMG 4000=
201011301020 METAR COR EGLL 301020Z 05007KT 4000 -SNRA BKN006 OVC010 01/00
                        Q1013 TEMPO 1400 SN BKN003=
201011300950 METAR COR EGLL 300950Z 05007KT 010V080 4000 R09R/1500 -SNRA
                        OVC006 01/M00 Q1013 TEMPO 1300 BKN003=
201011300920 METAR COR EGLL 300920Z 06007KT 1300 R09L/P1500 R09R/P1500
                        SN BKN006 01/M00 Q1013 TEMPO BKN003=
201011300850 METAR COR EGLL 300850Z 06009KT 1300 -SN SCT006 BKN011 01/M00
                        Q1013 TEMPO BKN003=
201011300820 METAR COR EGLL 300820Z 06007KT 1500 -RASN BKN006 01/M00 Q1013
                        TEMPO BKN003=
201011300750 METAR COR EGLL 300750Z 06007KT 020V080 4000 -RASN SCT006
                        BKN011 01/M00 Q1012 TEMPO 1400 BKN003=
201011300720 METAR COR EGLL 300720Z 05006KT 4000 -RA SCT006 BKN010 01/M00
                        Q1012 NOSIG=
201011300650 METAR COR EGLL 300650Z 04007KT 010V070 4500 -SN BKN005 BKN009
                        01/M00 Q1012 TEMPO BKN004=
201011300620 METAR EGLL 300620Z 05006KT 3000 -SN OVC005 01/M00 Q1012=
201011300550 METAR COR EGLL 300550Z 05006KT 2800 -SN BKN005 OVC013 01/M00
                        Q1012 BECMG BKN008=
201011300520 METAR COR EGLL 300520Z 04005KT 3500 -SN FEW006 SCT022 01/M00
                        Q1012 TEMPO BKN005=
201011300450 METAR COR EGLL 300450Z 05007KT 4000 -RASN SCT005 SCT026 01/M00
                        Q1012 BECMG BKN006=
201011300420 METAR COR EGLL 300420Z 05005KT 010V080 4000 -RASN BKN005
                        01/M00 Q1012 NOSIG=
201011300350 METAR COR EGLL 300350Z 06007KT 010V090 3500 -SN SCT005 OVC009
                        01/M00 Q1012 TEMPO BKN004=
201011300320 METAR COR EGLL 300320Z 04006KT 2600 -SN BKN005 BKN010 00/M00
                        Q1012 TEMPO BKN004=
201011300250 METAR EGLL 300250Z 04005KT 360V080 2000 BR BKN005 01/M01
                        Q1012 TEMPO 6000 NSW=
201011300220 METAR COR EGLL 300220Z 04007KT 4000 BR BKN007 BKN026 01/M01
                        Q1012 TEMPO 6000 NSW=
201011300150 METAR COR EGLL 300150Z 03006KT 5000 BR BKN008 01/M01 Q1012
                        NOSIG=
201011300120 METAR COR EGLL 300120Z 01004KT 350V060 6000 BKN008 01/M01
                        Q1012 NOSIG=
201011300050 METAR COR EGLL 300050Z 01005KT 340V040 6000 BKN008 BKN045
                        01/M01 Q1012 NOSIG=
201011300020 METAR COR EGLL 300020Z 36005KT 330V030 7000 BKN008 01/M01
                        Q1012 NOSIG=
201011292350 METAR COR EGLL 292350Z 35005KT 330V030 7000 BKN007 01/M01
                        Q1012 NOSIG=
201011292320 METAR COR EGLL 292320Z 36005KT 330V030 8000 OVC007 01/M01
                        Q1012 NOSIG=
201011292250 METAR COR EGLL 292250Z 36007KT 320V040 9000 BKN008 01/M01
                        Q1012 NOSIG=
201011292220 METAR COR EGLL 292220Z 36005KT 9000 SCT008 BKN011 01/M01
                        Q1012 NOSIG=
201011292150 METAR COR EGLL 292150Z 36004KT 320V020 9999 FEW009 BKN011
                        01/M02 Q1012=
201011292120 METAR COR EGLL 292120Z 35005KT 310V030 9999 BKN011 01/M02
                        Q1012 NOSIG=
201011292050 METAR COR EGLL 292050Z 35006KT 320V020 9999 BKN013 01/M02
                        Q1012 TEMPO BKN015=
201011292020 METAR COR EGLL 292020Z 35007KT 310V010 9999 BKN015 01/M02
                        Q1012 NOSIG=
201011291950 METAR COR EGLL 291950Z 36006KT 320V030 9999 BKN014 01/M02
                        Q1012 NOSIG=
201011291920 METAR COR EGLL 291920Z 36007KT 9999 BKN013 01/M02 Q1012 NOSIG=
201011291850 METAR COR EGLL 291850Z 36006KT 330V030 9999 BKN014 01/M02
                        Q1012 NOSIG=
201011291820 METAR COR EGLL 291820Z 36007KT 330V030 9999 BKN013 01/M02
                        Q1012 NOSIG=
201011291750 METAR COR EGLL 291750Z 36006KT 330V030 9999 BKN014 01/M02
                        Q1012 NOSIG=
201011291720 METAR COR EGLL 291720Z 36007KT 330V030 9999 BKN014 01/M02
                        Q1012 NOSIG=
201011291650 METAR COR EGLL 291650Z 36005KT 330V030 9999 BKN015 01/M02
                        Q1012 NOSIG=
201011291620 METAR COR EGLL 291620Z 36005KT 9999 BKN018 01/M02 Q1012 NOSIG=
201011291550 METAR EGLL 291550Z 01007KT 330V040 9999 BKN015 01/M02 Q1011=
201011291520 METAR COR EGLL 291520Z 36008KT 9999 BKN017 01/M02 Q1011 NOSIG=
201011291450 METAR COR EGLL 291450Z 36006KT 330V030 9999 BKN017 01/M02
                        Q1011 NOSIG=
201011291420 METAR COR EGLL 291420Z 01006KT 330V070 9999 BKN013 01/M02
                        Q1012 NOSIG=
201011291350 METAR COR EGLL 291350Z 02006KT 340V060 9999 BKN012 01/M02
                        Q1012 NOSIG=
201011291320 METAR COR EGLL 291320Z 02007KT 350V060 9999 FEW010 BKN013
                        01/M02 Q1012 NOSIG=
201011291250 METAR COR EGLL 291250Z 02007KT 340V050 9999 FEW009 BKN011
                        01/M02 Q1012 NOSIG=
201011291220 METAR COR EGLL 291220Z 36008KT 310V030 9999 SCT008 BKN010
                        01/M02 Q1012 NOSIG=
201011291150 METAR COR EGLL 291150Z 01007KT 330V060 9999 FEW009 BKN010
                        01/M02 Q1012 NOSIG=
201011291120 METAR COR EGLL 291120Z 36008KT 320V030 9999 SCT008 BKN009
                        00/M02 Q1012 NOSIG=
201011291050 METAR COR EGLL 291050Z 36006KT 320V040 9000 FEW007 BKN008
                        M00/M02 Q1012 NOSIG=
201011291020 METAR COR EGLL 291020Z 36006KT 320V040 9999 FEW006 BKN008
                        M00/M02 Q1012 NOSIG=
201011290950 METAR COR EGLL 290950Z 03007KT 330V060 9999 BKN009 M00/M03
                        Q1012 NOSIG=
201011290920 METAR COR EGLL 290920Z 02008KT 340V060 9999 8000NE BKN010
                        M00/M03 Q1012 NOSIG=
201011290850 METAR EGLL 290850Z 01005KT 320V060 9999 FEW010 M00/M04 Q1011=
201011290820 METAR COR EGLL 290820Z 02004KT 340V060 9999 FEW046 M00/M04
                        Q1011 NOSIG=
201011290750 METAR COR EGLL 290750Z 36005KT 9999 FEW049 M00/M04 Q1011
                        NOSIG=
201011290720 METAR COR EGLL 290720Z 01006KT 320V040 9999 FEW048 M00/M04
                        Q1011 NOSIG=
201011290650 METAR COR EGLL 290650Z 01005KT 330V050 CAVOK M01/M04 Q1010
                        NOSIG=
201011290620 METAR COR EGLL 290620Z 36006KT CAVOK M01/M04 Q1010 NOSIG=
201011290550 METAR EGLL 290550Z 02004KT 340V050 CAVOK M01/M04 Q1010=
201011290520 METAR COR EGLL 290520Z 01004KT 320V060 CAVOK M01/M04 Q1010
                        NOSIG=
201011290450 METAR COR EGLL 290450Z 01005KT 9999 FEW048 M01/M04 Q1010
                        NOSIG=
201011290420 METAR EGLL 290420Z 36006KT 9999 FEW049 M01/M04 Q1010=
201011290350 METAR COR EGLL 290350Z 36004KT 9999 FEW047 M01/M04 Q1010
                        NOSIG=
201011290320 METAR COR EGLL 290320Z 36004KT 9999 FEW045 M01/M04 Q1010
                        NOSIG=
201011290250 METAR COR EGLL 290250Z 02005KT 9999 FEW045 M01/M04 Q1010
                        NOSIG=
201011290220 METAR EGLL 290220Z 04004KT 360V060 CAVOK M01/M04 Q1010=
201011290150 METAR COR EGLL 290150Z 03005KT 360V070 CAVOK M01/M04 Q1009
                        NOSIG=
201011290120 METAR COR EGLL 290120Z 04006KT CAVOK M00/M03 Q1009 NOSIG=
201011290050 METAR COR EGLL 290050Z 02005KT 9000 NSC M01/M03 Q1009 NOSIG=
201011290020 METAR COR EGLL 290020Z VRB03KT CAVOK M00/M03 Q1009 NOSIG=
201011282350 METAR COR EGLL 282350Z 03004KT 360V060 CAVOK M00/M03 Q1009
                        NOSIG=
201011282320 METAR COR EGLL 282320Z 02004KT 330V070 9999 FEW036 00/M03
                        Q1008 NOSIG=
201011282250 METAR COR EGLL 282250Z VRB03KT CAVOK M00/M03 Q1008 NOSIG=
201011282220 METAR EGLL 282220Z VRB03KT CAVOK M01/M03 Q1008=
201011282150 METAR COR EGLL 282150Z VRB02KT CAVOK M01/M03 Q1008 NOSIG=
201011282120 METAR COR EGLL 282120Z 35003KT CAVOK M00/M03 Q1008 NOSIG=
201011282050 METAR COR EGLL 282050Z 35003KT CAVOK M01/M03 Q1008 NOSIG=
201011282020 METAR COR EGLL 282020Z VRB03KT 9999 FEW036 SCT048 M01/M03
                        Q1008 NOSIG=
201011281950 METAR COR EGLL 281950Z VRB03KT 9999 FEW017 SCT046 M01/M03
                        Q1008 NOSIG=
201011281920 METAR COR EGLL 281920Z VRB02KT 9999 SCT045 M01/M03 Q1008
                        NOSIG=
201011281850 METAR COR EGLL 281850Z 03004KT 350V050 9999 FEW025 BKN043
                        M01/M04 Q1007 NOSIG=
201011281820 METAR COR EGLL 281820Z 03004KT 350V060 9999 FEW021 BKN046
                        M01/M04 Q1007 NOSIG=
201011281750 METAR COR EGLL 281750Z 04005KT 360V060 9999 SCT022 SCT046
                        M01/M04 Q1007 NOSIG=
201011281720 METAR COR EGLL 281720Z 36005KT 9999 FEW021 SCT042 M01/M04
                        Q1006 NOSIG=
201011281650 METAR COR EGLL 281650Z VRB03KT 9999 FEW040 M01/M05 Q1006
                        NOSIG=
201011281620 METAR COR EGLL 281620Z 02004KT 350V060 CAVOK M00/M06 Q1006
                        NOSIG=
201011281550 METAR COR EGLL 281550Z VRB03KT CAVOK 00/M06 Q1006 NOSIG=
201011281520 METAR COR EGLL 281520Z 01004KT 340V040 CAVOK 01/M06 Q1006
                        NOSIG=
201011281450 METAR COR EGLL 281450Z 04005KT CAVOK 01/M06 Q1006 NOSIG=
201011281420 METAR COR EGLL 281420Z 03005KT 340V080 CAVOK 01/M06 Q1006
                        NOSIG=
201011281350 METAR COR EGLL 281350Z 02005KT 340V060 CAVOK 01/M06 Q1005
                        NOSIG=
201011281320 METAR COR EGLL 281320Z 36005KT 340V040 CAVOK 01/M05 Q1005
                        NOSIG=
201011281250 METAR COR EGLL 281250Z 04005KT 350V080 CAVOK 01/M05 Q1005
                        NOSIG=
201011281220 METAR COR EGLL 281220Z 01004KT 340V050 CAVOK 01/M05 Q1006
                        NOSIG=
201011281150 METAR COR EGLL 281150Z VRB03KT CAVOK 00/M05 Q1006 NOSIG=
201011281120 METAR COR EGLL 281120Z 03004KT 340V060 CAVOK M00/M04 Q1006
                        NOSIG=
201011281050 METAR COR EGLL 281050Z VRB03KT CAVOK M01/M04 Q1006 NOSIG=
201011281020 METAR COR EGLL 281020Z 36004KT 320V030 CAVOK M01/M04 Q1006
                        NOSIG=
201011280950 METAR COR EGLL 280950Z VRB03KT CAVOK M02/M04 Q1005 NOSIG=
201011280920 METAR COR EGLL 280920Z 36004KT 330V060 CAVOK M03/M05 Q1005
                        NOSIG=
201011280850 METAR EGLL 280850Z VRB03KT CAVOK M04/M05 Q1005=
201011280820 METAR COR EGLL 280820Z VRB02KT CAVOK M04/M06 Q1005 NOSIG=
201011280750 METAR COR EGLL 280750Z 35003KT CAVOK M04/M06 Q1005 NOSIG=
201011280720 METAR COR EGLL 280720Z VRB02KT CAVOK M05/M06 Q1005 NOSIG=
201011280650 METAR COR EGLL 280650Z 34002KT CAVOK M04/M06 Q1004 NOSIG=
201011280620 METAR COR EGLL 280620Z 31003KT CAVOK M05/M06 Q1004 NOSIG=
201011280550 METAR COR EGLL 280550Z 30003KT CAVOK M05/M06 Q1004 NOSIG=
201011280520 METAR COR EGLL 280520Z 31002KT CAVOK M05/M06 Q1004 NOSIG=
201011280450 METAR COR EGLL 280450Z 30003KT CAVOK M05/M06 Q1004 NOSIG=
201011280420 METAR COR EGLL 280420Z 30002KT CAVOK M05/M06 Q1004 NOSIG=
201011280350 METAR COR EGLL 280350Z 31003KT CAVOK M04/M06 Q1004 NOSIG=
201011280320 METAR COR EGLL 280320Z 31003KT CAVOK M04/M06 Q1004 NOSIG=
201011280250 METAR COR EGLL 280250Z 31003KT CAVOK M04/M06 Q1004 NOSIG=
201011280220 METAR COR EGLL 280220Z VRB02KT CAVOK M04/M06 Q1004 NOSIG=
201011280150 METAR COR EGLL 280150Z 28002KT CAVOK M04/M06 Q1004 NOSIG=
201011280120 METAR COR EGLL 280120Z 34002KT CAVOK M04/M07 Q1005 NOSIG=
201011280050 METAR COR EGLL 280050Z VRB03KT CAVOK M03/M05 Q1005 NOSIG=
201011280020 METAR COR EGLL 280020Z VRB02KT CAVOK M04/M06 Q1005 NOSIG=
201011272350 METAR COR EGLL 272350Z VRB03KT CAVOK M03/M05 Q1005 NOSIG=
201011272320 METAR COR EGLL 272320Z VRB03KT CAVOK M02/M05 Q1004 NOSIG=
201011272250 METAR COR EGLL 272250Z 03005KT 340V080 CAVOK M02/M05 Q1004
                        NOSIG=
201011272220 METAR COR EGLL 272220Z 36005KT 330V030 CAVOK M02/M05 Q1005
                        NOSIG=
201011272150 METAR COR EGLL 272150Z VRB02KT 9999 BKN046 M02/M05 Q1005
                        NOSIG=
201011272120 METAR COR EGLL 272120Z 36005KT 330V030 CAVOK M01/M05 Q1005
                        NOSIG=
201011272050 METAR COR EGLL 272050Z 36006KT CAVOK M01/M05 Q1005 NOSIG=
201011272020 METAR COR EGLL 272020Z 36005KT 320V020 CAVOK M01/M05 Q1005
                        NOSIG=
201011271950 METAR COR EGLL 271950Z 36007KT 330V040 CAVOK M01/M04 Q1005
                        NOSIG=
201011271920 METAR COR EGLL 271920Z 01006KT CAVOK M00/M03 Q1005 NOSIG=
201011271850 METAR COR EGLL 271850Z 01006KT 330V050 CAVOK M00/M03 Q1005
                        NOSIG=
201011271820 METAR EGLL 271820Z 36006KT 9999 FEW014 00/M02 Q1005=
201011271750 METAR COR EGLL 271750Z 03006KT 350V070 9999 BKN014 01/M02
                        Q1004 NOSIG=
201011271720 METAR COR EGLL 271720Z 01005KT 330V050 9999 SCT014 00/M02
                        Q1004 NOSIG=
201011271650 METAR COR EGLL 271650Z 36004KT 330V050 CAVOK 00/M02 Q1004
                        NOSIG=
201011271620 METAR COR EGLL 271620Z 02004KT 350V070 9999 FEW014 01/M02
                        Q1004 NOSIG=
201011271550 METAR COR EGLL 271550Z 01006KT 330V050 9999 SCT014 01/M02
                        Q1004 NOSIG=
201011271520 METAR EGLL 271520Z 03005KT 330V050 9999 BKN010 01/M02 Q1004=
201011271450 METAR COR EGLL 271450Z 36008KT 340V040 9999 SCT010 BKN045
                        01/M01 Q1004 NOSIG=
201011271420 METAR COR EGLL 271420Z 01005KT 340V040 9999 FEW013 SCT028
                        01/M01 Q1003 TEMPO BKN014=
201011271350 METAR EGLL 271350Z 04005KT 350V080 9999 FEW014 01/M01 Q1004=
201011271320 METAR COR EGLL 271320Z 02004KT 320V080 9000 BKN014 01/M01
                        Q1004 NOSIG=
201011271250 METAR COR EGLL 271250Z 06005KT 030V100 8000 SCT007 01/M02
                        Q1004 TEMPO BKN008=
201011271220 METAR COR EGLL 271220Z 06006KT 030V090 8000 BKN008 00/M02
                        Q1004 TEMPO BKN012=
201011271150 METAR COR EGLL 271150Z 06006KT 020V090 8000 BKN008 00/M01
                        Q1004 TEMPO BKN012=
201011271120 METAR COR EGLL 271120Z 05005KT 020V080 6000 FEW009 SCT015
                        01/M01 Q1004 TEMPO BKN012=
201011271050 METAR COR EGLL 271050Z 06005KT 020V090 5000 BR SCT006 00/M01
                        Q1004 TEMPO BKN008=
201011271020 METAR COR EGLL 271020Z 03005KT 360V070 4800 BR BKN006 M00/M02
                        Q1004 BECMG 7000 NSW BKN009=
201011270950 METAR COR EGLL 270950Z 04004KT 010V080 7000 BKN007 M01/M02
                        Q1004 NOSIG=
201011270920 METAR COR EGLL 270920Z VRB03KT 6000 BKN007 M01/M02 Q1003
                        NOSIG=
201011270850 METAR COR EGLL 270850Z VRB02KT 8000 BKN006 BKN022 M01/M03
                        Q1003 TEMPO BKN010=
201011270820 METAR COR EGLL 270820Z VRB02KT 8000 BKN008 BKN022 M01/M03
                        Q1003 TEMPO BKN010=
201011270750 METAR COR EGLL 270750Z 06002KT 9000 BKN006 M02/M03 Q1003
                        TEMPO BKN010=
201011270720 METAR COR EGLL 270720Z 00000KT 9000 SCT009 M02/M04 Q1003
                        BECMG BKN009=
201011270650 METAR COR EGLL 270650Z 00000KT CAVOK M03/M04 Q1002 BECMG
                        BKN012=
201011270620 METAR COR EGLL 270620Z VRB02KT CAVOK M02/M04 Q1003 TEMPO
                        BKN012=
201011270550 METAR COR EGLL 270550Z 23002KT CAVOK M03/M04 Q1002 NOSIG=
201011270520 METAR COR EGLL 270520Z 31002KT CAVOK M03/M04 Q1002 NOSIG=
201011270450 METAR EGLL 270450Z VRB02KT 9000 NSC M03/M04 Q1003=
201011270420 METAR COR EGLL 270420Z 36002KT 9000 NSC M03/M04 Q1003 NOSIG=
201011270350 METAR COR EGLL 270350Z 31002KT CAVOK M03/M04 Q1003 NOSIG=
201011270320 METAR EGLL 270320Z 00000KT 9000 NSC M03/M04 Q1003=
201011270250 METAR COR EGLL 270250Z 00000KT CAVOK M03/M04 Q1003 NOSIG=
201011270220 METAR COR EGLL 270220Z 02003KT 9000 NSC M02/M04 Q1003 NOSIG=
201011270150 METAR COR EGLL 270150Z 34002KT CAVOK M02/M03 Q1003 NOSIG=
201011270120 METAR EGLL 270120Z 00000KT 9000 NSC M02/M04 Q1003=
201011270050 METAR COR EGLL 270050Z 00000KT CAVOK M01/M03 Q1004 NOSIG=
201011270020 METAR COR EGLL 270020Z 00000KT CAVOK M01/M03 Q1004 NOSIG=
201011262350 METAR COR EGLL 262350Z VRB02KT CAVOK M02/M03 Q1004 NOSIG=
201011262320 METAR COR EGLL 262320Z VRB02KT CAVOK M01/M03 Q1004 NOSIG=
201011262250 METAR EGLL 262250Z 02003KT CAVOK M01/M03 Q1004=
201011262220 METAR COR EGLL 262220Z 36003KT CAVOK M01/M03 Q1004 NOSIG=
201011262150 METAR COR EGLL 262150Z 33003KT CAVOK M01/M03 Q1004 NOSIG=
201011262120 METAR COR EGLL 262120Z 34002KT CAVOK M01/M03 Q1004 NOSIG=
201011262050 METAR COR EGLL 262050Z 34002KT CAVOK M01/M03 Q1004 NOSIG=
201011262020 METAR COR EGLL 262020Z 35002KT CAVOK M01/M03 Q1004 NOSIG=
201011261950 METAR COR EGLL 261950Z 36003KT CAVOK M00/M03 Q1004 NOSIG=
201011261920 METAR COR EGLL 261920Z 31002KT CAVOK 00/M03 Q1005 NOSIG=
201011261850 METAR COR EGLL 261850Z 31003KT CAVOK 01/M03 Q1005 NOSIG=
201011261820 METAR COR EGLL 261820Z 32003KT CAVOK 00/M03 Q1005 NOSIG=
201011261750 METAR COR EGLL 261750Z VRB03KT CAVOK 01/M03 Q1005 NOSIG=
201011261720 METAR COR EGLL 261720Z 30004KT CAVOK 01/M03 Q1005 NOSIG=
201011261650 METAR COR EGLL 261650Z 29004KT CAVOK 01/M03 Q1005 NOSIG=
201011261620 METAR COR EGLL 261620Z 30004KT CAVOK 02/M03 Q1005 NOSIG=
201011261550 METAR COR EGLL 261550Z 30005KT CAVOK 02/M03 Q1005 NOSIG=
201011261520 METAR COR EGLL 261520Z 29006KT CAVOK 03/M03 Q1005 NOSIG=
201011261450 METAR COR EGLL 261450Z 29006KT 270V340 CAVOK 03/M03 Q1006
                        NOSIG=
201011261420 METAR COR EGLL 261420Z 28007KT CAVOK 03/M02 Q1006 NOSIG=
201011261350 METAR COR EGLL 261350Z 30006KT 270V340 9999 FEW024 03/M03
                        Q1006 NOSIG=
201011261320 METAR COR EGLL 261320Z 28007KT CAVOK 03/M03 Q1006 NOSIG=
201011261250 METAR COR EGLL 261250Z 29005KT 260V320 CAVOK 03/M02 Q1006
                        NOSIG=
201011261220 METAR COR EGLL 261220Z 34004KT 300V030 CAVOK 03/M03 Q1007
                        NOSIG=
201011261150 METAR COR EGLL 261150Z 34004KT 290V020 CAVOK 03/M02 Q1007
                        NOSIG=
201011261120 METAR COR EGLL 261120Z VRB03KT CAVOK 02/M03 Q1007 NOSIG=
201011261050 METAR COR EGLL 261050Z 29005KT 250V330 CAVOK 01/M03 Q1008
                        NOSIG=
201011261020 METAR COR EGLL 261020Z 29005KT CAVOK M00/M03 Q1008 NOSIG=
201011260950 METAR COR EGLL 260950Z 27006KT CAVOK M01/M03 Q1008 NOSIG=
201011260920 METAR COR EGLL 260920Z 28006KT CAVOK M01/M04 Q1008 NOSIG=
201011260850 METAR COR EGLL 260850Z 26006KT 9000 NSC M02/M04 Q1008 NOSIG=
201011260820 METAR COR EGLL 260820Z 27007KT 9000 NSC M03/M05 Q1008 NOSIG=
201011260750 METAR COR EGLL 260750Z 28007KT 9000 NSC M03/M05 Q1008 NOSIG=
201011260720 METAR COR EGLL 260720Z 27006KT CAVOK M03/M05 Q1008 NOSIG=
201011260650 METAR COR EGLL 260650Z 27006KT CAVOK M03/M05 Q1008 NOSIG=
201011260620 METAR COR EGLL 260620Z 27004KT CAVOK M03/M05 Q1008 NOSIG=
201011260550 METAR COR EGLL 260550Z 29003KT CAVOK M02/M04 Q1008 NOSIG=
201011260520 METAR COR EGLL 260520Z 30005KT CAVOK M02/M04 Q1008 NOSIG=
201011260450 METAR COR EGLL 260450Z 29005KT CAVOK M02/M04 Q1008 NOSIG=
201011260420 METAR COR EGLL 260420Z 30004KT CAVOK M02/M04 Q1009 NOSIG=
201011260350 METAR EGLL 260350Z 32004KT 290V350 CAVOK M01/M04 Q1009=
201011260320 METAR COR EGLL 260320Z VRB03KT CAVOK M01/M04 Q1009 NOSIG=
201011260250 METAR COR EGLL 260250Z 31004KT CAVOK M01/M04 Q1009 NOSIG=
201011260220 METAR COR EGLL 260220Z 30005KT CAVOK M01/M04 Q1009 NOSIG=
201011260150 METAR COR EGLL 260150Z 29004KT CAVOK M01/M03 Q1009 NOSIG=
201011260120 METAR COR EGLL 260120Z VRB03KT CAVOK M01/M03 Q1009 NOSIG=
201011260050 METAR COR EGLL 260050Z 00000KT CAVOK M01/M03 Q1009 NOSIG=
201011260020 METAR COR EGLL 260020Z 31005KT CAVOK M01/M03 Q1010 NOSIG=
201011252350 METAR COR EGLL 252350Z 30004KT CAVOK M00/M03 Q1010 NOSIG=
201011252320 METAR COR EGLL 252320Z 31006KT CAVOK M00/M03 Q1010 NOSIG=
201011252250 METAR COR EGLL 252250Z 31006KT CAVOK 00/M02 Q1010 NOSIG=
201011252220 METAR COR EGLL 252220Z 30006KT 9999 SCT017 01/M02 Q1010 NOSIG=
201011252150 METAR COR EGLL 252150Z 31005KT 280V360 9999 BKN017 01/M02
                        Q1010 NOSIG=
201011252120 METAR COR EGLL 252120Z 32007KT 290V350 9999 SCT017 01/M02
                        Q1009 NOSIG=
201011252050 METAR COR EGLL 252050Z 34006KT 9999 SCT025 02/M02 Q1009 NOSIG=
201011252020 METAR COR EGLL 252020Z 33008KT 290V360 9999 SCT023 BKN027
                        02/M02 Q1009 NOSIG=
201011251950 METAR COR EGLL 251950Z 36008KT 330V050 9999 BKN020 02/M02
                        Q1009 NOSIG=
201011251920 METAR EGLL 251920Z 34007KT 310V020 9999 FEW020 SCT028 02/M02
                        Q1009=
201011251850 METAR COR EGLL 251850Z 34006KT 300V010 9999 SCT024 BKN033
                        02/M02 Q1009 NOSIG=
201011251820 METAR COR EGLL 251820Z 34006KT 310V020 9999 FEW023 BKN038
                        02/M02 Q1009 NOSIG=
201011251750 METAR COR EGLL 251750Z 33008KT 9999 FEW025 BKN034 02/M02
                        Q1009 NOSIG=
201011251720 METAR COR EGLL 251720Z 32006KT 290V360 9999 BKN034 02/M02
                        Q1008 NOSIG=
201011251650 METAR COR EGLL 251650Z 32005KT 290V350 9999 FEW022 SCT025
                        BKN034 02/M02 Q1008 NOSIG=
201011251620 METAR COR EGLL 251620Z 32006KT 290V350 9999 BKN022 02/M02
                        Q1008 NOSIG=
201011251550 METAR COR EGLL 251550Z 32006KT 280V350 9999 BKN023 02/M02
                        Q1008 NOSIG=
201011251520 METAR COR EGLL 251520Z 33006KT 300V360 9999 BKN026 02/M02
                        Q1008 NOSIG=
201011251450 METAR COR EGLL 251450Z 33006KT 9999 BKN022 02/M03 Q1008 NOSIG=
201011251420 METAR COR EGLL 251420Z 32007KT 290V360 9999 OVC019 02/M02
                        Q1008 NOSIG=
201011251350 METAR COR EGLL 251350Z 33007KT 300V360 9999 BKN018 02/M02
                        Q1008 NOSIG=
201011251320 METAR COR EGLL 251320Z 33008KT 9999 BKN021 02/M02 Q1008 NOSIG=
201011251250 METAR COR EGLL 251250Z 33006KT 300V020 9999 BKN021 02/M03
                        Q1008 NOSIG=
201011251220 METAR COR EGLL 251220Z 34006KT 300V020 9999 BKN018 01/M02
                        Q1008 NOSIG=
201011251150 METAR COR EGLL 251150Z 33007KT 310V020 9999 BKN019 01/M03
                        Q1008 NOSIG=
201011251120 METAR COR EGLL 251120Z 33007KT 300V010 9999 BKN021 02/M02
                        Q1008 NOSIG=
201011251050 METAR EGLL 251050Z 33007KT 290V010 9999 BKN019 02/M03 Q1008=
201011251020 METAR COR EGLL 251020Z 34007KT 300V010 9999 SCT017 02/M02
                        Q1008 NOSIG=
201011250950 METAR COR EGLL 250950Z 33005KT 290V030 9999 SCT018 01/M02
                        Q1008 NOSIG=
201011250920 METAR COR EGLL 250920Z 32005KT 290V010 9999 SCT016 01/M02
                        Q1008 NOSIG=
201011250850 METAR COR EGLL 250850Z 33004KT 300V020 CAVOK 01/M02 Q1008
                        NOSIG=
201011250820 METAR COR EGLL 250820Z 35004KT 290V030 CAVOK 01/M02 Q1008
                        NOSIG=
201011250750 METAR EGLL 250750Z 36005KT 310V040 9999 FEW015 01/M02 Q1007=
201011250720 METAR COR EGLL 250720Z 01007KT 330V040 9999 BKN013 02/M02
                        Q1007 TEMPO FEW012 SCT016=
201011250650 METAR COR EGLL 250650Z 35005KT 310V030 9999 BKN014 02/M01
                        Q1007 TEMPO FEW010 SCT016=
201011250620 METAR COR EGLL 250620Z 32005KT 9999 FEW012 01/M01 Q1007 NOSIG=
201011250550 METAR COR EGLL 250550Z 34004KT 290V010 9999 FEW012 SCT014
                        01/M01 Q1007 TEMPO BKN012=
201011250520 METAR COR EGLL 250520Z 33005KT 9999 BKN012 01/M01 Q1008 TEMPO
                        SCT014=
201011250450 METAR COR EGLL 250450Z VRB03KT 9999 SCT014 01/M01 Q1008 TEMPO
                        BKN012=
201011250420 METAR COR EGLL 250420Z VRB03KT 9999 FEW037 01/M01 Q1008 NOSIG=
201011250350 METAR COR EGLL 250350Z 33004KT CAVOK 01/M01 Q1008 NOSIG=
201011250320 METAR COR EGLL 250320Z 30004KT CAVOK 00/M02 Q1008 NOSIG=
201011250250 METAR COR EGLL 250250Z 31004KT 9999 FEW037 00/M02 Q1008 NOSIG=
201011250220 METAR COR EGLL 250220Z 29004KT 9999 SCT037 00/M02 Q1008 NOSIG=
201011250150 METAR EGLL 250150Z 29005KT 9999 SCT030 01/M02 Q1008=
201011250120 METAR COR EGLL 250120Z 30005KT 9999 BKN033 01/M01 Q1008 NOSIG=
201011250050 METAR COR EGLL 250050Z 29005KT 9999 BKN032 01/M01 Q1008 NOSIG=
201011250020 METAR COR EGLL 250020Z 29005KT 9999 BKN030 01/M01 Q1008 NOSIG=
201011242350 METAR COR EGLL 242350Z VRB03KT 9999 SCT034 01/M01 Q1009 NOSIG=
201011242320 METAR COR EGLL 242320Z 30004KT 270V330 9999 SCT038 02/M01
                        Q1009 NOSIG=
201011242250 METAR COR EGLL 242250Z 31004KT 9999 BKN035 02/M01 Q1009 NOSIG=
201011242220 METAR COR EGLL 242220Z 31004KT 290V350 9999 OVC035 02/M00
                        Q1009 NOSIG=
201011242150 METAR COR EGLL 242150Z 32004KT 290V360 9999 BKN033 02/M00
                        Q1009 NOSIG=
201011242120 METAR COR EGLL 242120Z 32005KT 290V360 9999 BKN036 02/M00
                        Q1009 NOSIG=
201011242050 METAR COR EGLL 242050Z 30004KT 9999 BKN037 02/M00 Q1009 NOSIG=
201011242020 METAR COR EGLL 242020Z 30005KT 280V340 9999 SCT036 03/M00
                        Q1009 NOSIG=
201011241950 METAR COR EGLL 241950Z 30005KT 9999 BKN036 03/00 Q1009 NOSIG=
201011241920 METAR EGLL 241920Z 30005KT 9999 BKN037 04/00 Q1009=
201011241850 METAR COR EGLL 241850Z 29006KT 9999 FEW031 03/00 Q1009 NOSIG=
201011241820 METAR COR EGLL 241820Z 30004KT 9999 BKN026 04/00 Q1009 NOSIG=
201011241750 METAR EGLL 241750Z 32003KT 9999 BKN028 04/00 Q1010=
201011241720 METAR COR EGLL 241720Z 30004KT 9999 FEW022 BKN028 04/M00
                        Q1010 NOSIG=
201011241650 METAR COR EGLL 241650Z 31005KT 9999 BKN024 04/M00 Q1010 NOSIG=
201011241620 METAR COR EGLL 241620Z 31004KT 9999 FEW020 03/M00 Q1009 NOSIG=
201011241550 METAR COR EGLL 241550Z 30005KT 270V330 9999 FEW020 04/M00
                        Q1009 NOSIG=
201011241520 METAR COR EGLL 241520Z 31005KT 9999 FEW020 05/M00 Q1009 NOSIG=
201011241450 METAR COR EGLL 241450Z 30005KT 9999 FEW015 05/M00 Q1009 NOSIG=
201011241420 METAR COR EGLL 241420Z 30007KT CAVOK 05/M00 Q1010 NOSIG=
201011241350 METAR COR EGLL 241350Z 29007KT CAVOK 05/M00 Q1010 NOSIG=
201011241320 METAR COR EGLL 241320Z 28007KT 9999 FEW021 05/00 Q1010 NOSIG=
201011241250 METAR COR EGLL 241250Z 27007KT 230V300 9999 FEW015 05/01
                        Q1010 NOSIG=
201011241220 METAR COR EGLL 241220Z 27008KT 240V300 CAVOK 04/01 Q1010
                        NOSIG=
201011241150 METAR COR EGLL 241150Z 29006KT CAVOK 04/01 Q1011 NOSIG=
201011241120 METAR COR EGLL 241120Z 30006KT CAVOK 04/01 Q1011 NOSIG=
201011241050 METAR COR EGLL 241050Z 29007KT CAVOK 03/00 Q1011 NOSIG=
201011241020 METAR COR EGLL 241020Z 30005KT 8000 NSC 02/M00 Q1011 NOSIG=
201011240950 METAR COR EGLL 240950Z 30004KT 270V340 8000 NSC 02/M00 Q1011
                        NOSIG=
201011240920 METAR COR EGLL 240920Z 27005KT 8000 NSC 01/M00 Q1011 NOSIG=
201011240850 METAR COR EGLL 240850Z 26005KT 9000 NSC 00/M01 Q1011 NOSIG=
201011240820 METAR COR EGLL 240820Z 27005KT 9000 NSC M01/M02 Q1011 NOSIG=
201011240750 METAR COR EGLL 240750Z 28006KT 9000 NSC M00/M02 Q1011 NOSIG=
201011240720 METAR COR EGLL 240720Z 28006KT 9000 NSC M00/M01 Q1011 NOSIG=
201011240650 METAR COR EGLL 240650Z 28005KT 8000 NSC M00/M01 Q1011 NOSIG=
201011240620 METAR COR EGLL 240620Z VRB03KT 8000 NSC M00/M01 Q1011 NOSIG=
201011240550 METAR COR EGLL 240550Z 27005KT 8000 NSC M00/M01 Q1011 NOSIG=
201011240520 METAR COR EGLL 240520Z 28005KT 9000 NSC 00/M01 Q1011 NOSIG=
201011240450 METAR COR EGLL 240450Z 28005KT 9000 NSC 00/M01 Q1011 NOSIG=
201011240420 METAR COR EGLL 240420Z 27005KT 9000 NSC 00/M01 Q1011 NOSIG=
201011240350 METAR EGLL 240350Z 26004KT CAVOK 01/M01 Q1011=
201011240320 METAR COR EGLL 240320Z 29005KT CAVOK 01/M01 Q1011 NOSIG=
201011240250 METAR COR EGLL 240250Z 26004KT CAVOK 01/M01 Q1011 NOSIG=
201011240220 METAR COR EGLL 240220Z 28004KT 250V310 CAVOK 01/M00 Q1011
                        NOSIG=
201011240150 METAR COR EGLL 240150Z 28004KT CAVOK 02/00 Q1011 NOSIG=
201011240120 METAR COR EGLL 240120Z 29005KT CAVOK 02/M00 Q1011 NOSIG=
201011240050 METAR COR EGLL 240050Z 29005KT CAVOK 03/00 Q1012 NOSIG=
201011240020 METAR COR EGLL 240020Z 30005KT CAVOK 03/01 Q1012 NOSIG=
201011232350 METAR COR EGLL 232350Z 30005KT CAVOK 03/01 Q1012 NOSIG=
201011232320 METAR COR EGLL 232320Z 30006KT CAVOK 04/01 Q1012 NOSIG=
201011232250 METAR COR EGLL 232250Z 29006KT CAVOK 03/01 Q1012 NOSIG=
201011232220 METAR COR EGLL 232220Z 29006KT CAVOK 04/01 Q1012 NOSIG=
201011232150 METAR COR EGLL 232150Z 28007KT CAVOK 04/01 Q1012 NOSIG=
201011232120 METAR COR EGLL 232120Z 28007KT 9999 FEW044 04/02 Q1012 NOSIG=
201011232050 METAR COR EGLL 232050Z 28007KT 9999 FEW044 04/02 Q1012 NOSIG=
201011232020 METAR COR EGLL 232020Z 29007KT 9999 SCT047 05/02 Q1012 NOSIG=
201011231950 METAR COR EGLL 231950Z 29006KT 9999 SCT043 06/02 Q1012 NOSIG=
201011231920 METAR COR EGLL 231920Z 31006KT 9999 BKN043 06/02 Q1012 NOSIG=
201011231850 METAR COR EGLL 231850Z 30005KT 9999 BKN043 06/02 Q1012 NOSIG=
201011231820 METAR COR EGLL 231820Z 30006KT 9999 BKN045 06/02 Q1012 NOSIG=
201011231750 METAR COR EGLL 231750Z 30005KT 9999 BKN045 06/02 Q1012 NOSIG=
201011231720 METAR COR EGLL 231720Z 29007KT 9999 BKN043 06/03 Q1012 NOSIG=
201011231650 METAR COR EGLL 231650Z 30005KT 9999 BKN045 06/02 Q1012 NOSIG=
201011231620 METAR COR EGLL 231620Z 30005KT 9999 FEW024 SCT040 06/02 Q1012
                        NOSIG=
201011231550 METAR COR EGLL 231550Z 32007KT 9999 BKN037 07/02 Q1011 NOSIG=
201011231520 METAR EGLL 231520Z 32006KT 9999 BKN038 07/02 Q1011=
201011231450 METAR COR EGLL 231450Z 32006KT 280V360 9999 SCT030 SCT038
                        07/03 Q1011 NOSIG=
201011231420 METAR COR EGLL 231420Z 32007KT 290V360 9999 FEW023 BKN029
                        07/02 Q1011 NOSIG=
201011231350 METAR COR EGLL 231350Z 34008KT 310V010 9999 BKN022 07/02
                        Q1011 NOSIG=
201011231320 METAR COR EGLL 231320Z 32007KT 290V020 9999 SCT021 BKN027
                        07/03 Q1012 NOSIG=
201011231250 METAR COR EGLL 231250Z 33006KT 300V020 9999 SCT017 BKN022
                        07/03 Q1012 NOSIG=
201011231220 METAR COR EGLL 231220Z 33007KT 290V360 9999 BKN017 BKN022
                        07/03 Q1012 NOSIG=
201011231150 METAR COR EGLL 231150Z 34005KT 300V020 9999 SCT016 BKN020
                        07/03 Q1012 NOSIG=
201011231120 METAR COR EGLL 231120Z 33007KT 290V010 9999 FEW012 SCT018
                        07/03 Q1012 NOSIG=
201011231050 METAR EGLL 231050Z 33006KT 290V020 CAVOK 07/03 Q1012 NOSIG=
201011231020 METAR COR EGLL 231020Z 32006KT 300V010 CAVOK 06/03 Q1012
                        NOSIG=
201011230950 METAR COR EGLL 230950Z 33007KT 290V360 CAVOK 06/03 Q1012
                        NOSIG=
201011230920 METAR COR EGLL 230920Z 32005KT 290V350 CAVOK 06/03 Q1012
                        NOSIG=
201011230850 METAR COR EGLL 230850Z 33004KT 290V010 CAVOK 06/03 Q1012
                        NOSIG=
201011230820 METAR COR EGLL 230820Z VRB03KT CAVOK 06/03 Q1012 NOSIG=
201011230750 METAR COR EGLL 230750Z VRB03KT 9999 FEW012 06/03 Q1012 NOSIG=
201011230720 METAR COR EGLL 230720Z 35005KT 320V020 9999 FEW010 06/03
                        Q1012 NOSIG=
201011230650 METAR COR EGLL 230650Z 35005KT 320V050 9999 FEW010 06/03
                        Q1012 NOSIG=
201011230620 METAR COR EGLL 230620Z 34004KT 310V020 9999 SCT010 SCT035
                        06/04 Q1012 NOSIG=
201011230550 METAR COR EGLL 230550Z 34005KT 300V010 9999 FEW010 SCT020
                        BKN035 06/04 Q1012=
201011230520 METAR COR EGLL 230520Z 35004KT 310V030 9999 BKN011 BKN038
                        05/03 Q1012 NOSIG=
201011230450 METAR COR EGLL 230450Z 32004KT 290V010 9999 SCT012 BKN031
                        05/03 Q1011 TEMPO BKN012=
201011230420 METAR COR EGLL 230420Z 33005KT 9999 FEW012 BKN035 05/03 Q1011
                        TEMPO BKN012=
201011230350 METAR COR EGLL 230350Z 35004KT 310V030 9999 BKN030 05/03
                        Q1011 NOSIG=
201011230320 METAR COR EGLL 230320Z 35005KT 9999 BKN033 05/03 Q1011 NOSIG=
201011230250 METAR COR EGLL 230250Z 35006KT 310V020 9999 BKN041 06/03
                        Q1011 NOSIG=
201011230220 METAR COR EGLL 230220Z 35005KT 9999 BKN037 06/04 Q1011 NOSIG=
201011230150 METAR COR EGLL 230150Z 36005KT 9999 BKN037 06/04 Q1011 NOSIG=
201011230120 METAR COR EGLL 230120Z 36005KT 320V040 9999 BKN041 06/04
                        Q1011 NOSIG=
201011230050 METAR COR EGLL 230050Z 36005KT 320V030 9999 BKN037 06/04
                        Q1011 NOSIG=
201011230020 METAR COR EGLL 230020Z 35004KT 9999 FEW018 BKN038 06/04 Q1011
                        NOSIG=
201011222350 METAR COR EGLL 222350Z 36005KT 320V030 9999 BKN043 06/04
                        Q1011 NOSIG=
201011222320 METAR COR EGLL 222320Z 36005KT 9999 FEW013 BKN044 06/04 Q1011
                        NOSIG=
201011222250 METAR COR EGLL 222250Z 36004KT 320V030 9999 BKN039 06/04
                        Q1010 NOSIG=
201011222220 METAR COR EGLL 222220Z 36004KT 310V040 9999 BKN040 06/04
                        Q1010 NOSIG=
201011222150 METAR COR EGLL 222150Z 36005KT 9999 BKN037 06/04 Q1010 NOSIG=
201011222120 METAR COR EGLL 222120Z 36005KT 9999 BKN037 06/04 Q1010 NOSIG=
201011222050 METAR COR EGLL 222050Z 01004KT 340V040 9999 BKN037 06/04
                        Q1010 NOSIG=
201011222020 METAR COR EGLL 222020Z 36004KT 330V040 9999 SCT040 06/04
                        Q1010 NOSIG=
201011221950 METAR COR EGLL 221950Z 36005KT CAVOK 06/04 Q1010 NOSIG=
201011221920 METAR COR EGLL 221920Z 36004KT CAVOK 06/04 Q1010 NOSIG=
201011221850 METAR COR EGLL 221850Z 36005KT 330V030 9999 FEW039 07/04
                        Q1010 NOSIG=
201011221820 METAR COR EGLL 221820Z 36005KT CAVOK 07/04 Q1009 NOSIG=
201011221750 METAR COR EGLL 221750Z 36006KT CAVOK 07/04 Q1009 NOSIG=
201011221720 METAR COR EGLL 221720Z 36005KT CAVOK 07/04 Q1009 NOSIG=
201011221650 METAR COR EGLL 221650Z 36005KT CAVOK 07/04 Q1009 NOSIG=
201011221620 METAR COR EGLL 221620Z 36006KT 320V030 9999 SCT049 07/04
                        Q1009 NOSIG=
201011221550 METAR COR EGLL 221550Z 36005KT 9999 FEW020 SCT043 07/04 Q1009
                        NOSIG=
201011221520 METAR COR EGLL 221520Z 36006KT 330V040 9999 FEW020 BKN042
                        07/04 Q1009 NOSIG=
201011221450 METAR COR EGLL 221450Z 36005KT 9999 FEW015 SCT020 BKN038
                        07/05 Q1009 NOSIG=
201011221420 METAR COR EGLL 221420Z 02004KT 340V050 9999 -RA SCT015 BKN029
                        07/05 Q1009 NOSIG=
201011221350 METAR COR EGLL 221350Z 01005KT 340V050 9000 VCSH SCT013 OVC038
                        07/05 Q1009 NOSIG=
201011221320 METAR COR EGLL 221320Z 36007KT 9999 FEW011 BKN033 07/04 Q1009
                        NOSIG=
201011221250 METAR COR EGLL 221250Z 36007KT 9999 FEW011 BKN046 07/04 Q1009
                        NOSIG=
201011221220 METAR COR EGLL 221220Z 01006KT 330V040 9999 FEW011 BKN046
                        07/04 Q1009 NOSIG=
201011221150 METAR COR EGLL 221150Z 02007KT 340V060 9999 FEW019 SCT035
                        07/04 Q1009 NOSIG=
201011221120 METAR COR EGLL 221120Z 03008KT 350V050 9999 FEW019 SCT035
                        07/04 Q1009 NOSIG=
201011221050 METAR COR EGLL 221050Z 01006KT 340V050 CAVOK 07/04 Q1009
                        NOSIG=
201011221020 METAR COR EGLL 221020Z 01005KT 340V060 CAVOK 07/04 Q1009
                        NOSIG=
201011220950 METAR COR EGLL 220950Z 03006KT 340V050 CAVOK 07/04 Q1009
                        NOSIG=
201011220920 METAR COR EGLL 220920Z 01005KT 340V040 CAVOK 06/04 Q1009
                        NOSIG=
201011220850 METAR COR EGLL 220850Z 01005KT 340V050 CAVOK 06/04 Q1009
                        NOSIG=
201011220820 METAR COR EGLL 220820Z 01005KT 8000 NSC 06/04 Q1009 NOSIG=
201011220750 METAR COR EGLL 220750Z 02004KT 330V050 7000 NSC 05/04 Q1009
                        NOSIG=
201011220720 METAR COR EGLL 220720Z 01005KT 340V040 5000 HZ NSC 05/04
                        Q1009 NOSIG=
201011220650 METAR COR EGLL 220650Z 03004KT 340V060 5000 HZ NSC 05/04
                        Q1009 NOSIG=
201011220620 METAR COR EGLL 220620Z VRB03KT 5000 HZ FEW006 05/04 Q1009
                        NOSIG=
201011220550 METAR COR EGLL 220550Z 36005KT 7000 FEW012 05/04 Q1009 NOSIG=
201011220520 METAR COR EGLL 220520Z 36006KT 330V040 7000 FEW016 06/04
                        Q1009 NOSIG=
201011220450 METAR COR EGLL 220450Z 01004KT 7000 NSC 06/04 Q1009 NOSIG=
201011220420 METAR COR EGLL 220420Z 01005KT 330V030 8000 NSC 06/04 Q1009
                        NOSIG=
201011220350 METAR COR EGLL 220350Z 01005KT 330V040 8000 FEW026 06/04
                        Q1009 NOSIG=
201011220320 METAR COR EGLL 220320Z 01006KT 8000 FEW026 06/04 Q1009 NOSIG=
201011220250 METAR COR EGLL 220250Z 01007KT 7000 FEW029 06/04 Q1009 NOSIG=
201011220220 METAR COR EGLL 220220Z 01006KT 8000 NSC 06/04 Q1009 NOSIG=
201011220150 METAR COR EGLL 220150Z 01006KT 330V040 8000 NSC 06/04 Q1009
                        NOSIG=
201011220120 METAR COR EGLL 220120Z 01006KT 9000 SCT040 06/04 Q1009 NOSIG=
201011220050 METAR COR EGLL 220050Z 01006KT 9999 FEW008 SCT040 06/04 Q1010
                        NOSIG=
201011220020 METAR COR EGLL 220020Z 36006KT 9999 SCT017 SCT021 06/04 Q1010
                        RERA NOSIG=
201011212350 METAR COR EGLL 212350Z 36006KT 9999 FEW009 BKN047 06/04 Q1010
                        TEMPO BKN008=
201011212320 METAR COR EGLL 212320Z 36006KT 330V030 9999 BKN009 06/04
                        Q1010 NOSIG=
201011212250 METAR COR EGLL 212250Z 01006KT 340V050 9999 SCT010 06/04
                        Q1010 TEMPO BKN009=
201011212220 METAR COR EGLL 212220Z 36005KT 330V040 9999 BKN008 06/04
                        Q1010 NOSIG=
201011212150 METAR COR EGLL 212150Z 36007KT 9999 BKN010 06/04 Q1010 TEMPO
                        BKN008=
201011212120 METAR COR EGLL 212120Z 01007KT 340V050 9999 SCT008 06/04
                        Q1010 TEMPO BKN009=
201011212050 METAR COR EGLL 212050Z 01007KT 340V040 9999 SCT009 06/04
                        Q1010 TEMPO BKN009=
201011212020 METAR COR EGLL 212020Z 01006KT 340V060 CAVOK 06/04 Q1010
                        NOSIG=
201011211950 METAR COR EGLL 211950Z 01006KT 340V040 9999 FEW010 06/04
                        Q1010 NOSIG=
201011211920 METAR COR EGLL 211920Z 01007KT 330V050 9999 SCT010 07/04
                        Q1010 NOSIG=
201011211850 METAR COR EGLL 211850Z 01006KT 330V040 9999 SCT011 07/04
                        Q1010 NOSIG=
201011211820 METAR COR EGLL 211820Z 01006KT 340V040 9999 BKN012 07/04
                        Q1010 NOSIG=
201011211750 METAR COR EGLL 211750Z 01006KT 330V060 9999 BKN013 07/04
                        Q1011 NOSIG=
201011211720 METAR COR EGLL 211720Z 01006KT 330V060 9999 BKN013 07/04
                        Q1011 NOSIG=
201011211650 METAR COR EGLL 211650Z 36006KT 310V030 9999 FEW014 SCT018
                        07/04 Q1011 NOSIG=
201011211620 METAR COR EGLL 211620Z 36006KT 320V050 9999 SCT014 SCT024
                        07/04 Q1011 NOSIG=
201011211550 METAR COR EGLL 211550Z 01006KT 340V040 9999 FEW015 SCT047
                        07/04 Q1011 NOSIG=
201011211520 METAR COR EGLL 211520Z 01007KT 350V050 9999 FEW016 SCT035
                        BKN046 07/04 Q1011 NOSIG=
201011211450 METAR COR EGLL 211450Z 02007KT 360V060 9999 FEW017 BKN035
                        07/04 Q1011 NOSIG=
201011211420 METAR COR EGLL 211420Z 02007KT 350V050 9999 BKN016 07/04
                        Q1011 TEMPO BKN012=
201011211350 METAR COR EGLL 211350Z 02006KT 350V060 9999 SCT014 07/04
                        Q1011 NOSIG=
201011211320 METAR COR EGLL 211320Z 02007KT 330V040 9999 BKN017 08/04
                        Q1011 NOSIG=
201011211250 METAR EGLL 211250Z 02006KT 310V050 9999 BKN018 07/04 Q1011=
201011211220 METAR COR EGLL 211220Z 02007KT 340V070 9999 SCT015 08/04
                        Q1011 NOSIG=
201011211150 METAR COR EGLL 211150Z 03008KT 360V060 9999 SCT012 SCT038
                        08/04 Q1011 NOSIG=
201011211120 METAR COR EGLL 211120Z 01006KT 340V040 9999 BKN012 07/04
                        Q1012 BECMG BKN015=
201011211050 METAR COR EGLL 211050Z 03008KT 350V050 9999 BKN015 07/05
                        Q1012 NOSIG=
201011211020 METAR COR EGLL 211020Z 03007KT 340V070 9999 BKN013 07/05
                        Q1012 BECMG BKN018=
201011210950 METAR COR EGLL 210950Z 02005KT 340V060 9999 BKN011 07/05
                        Q1012 BECMG BKN015=
201011210920 METAR COR EGLL 210920Z 03007KT 350V100 9999 BKN010 07/05
                        Q1012 BECMG BKN015=
201011210850 METAR COR EGLL 210850Z 04005KT 350V080 9999 BKN011 07/05
                        Q1012 BECMG BKN016=
201011210820 METAR COR EGLL 210820Z 04006KT 360V100 9999 FEW008 BKN010
                        07/05 Q1012 BECMG BKN016=
201011210750 METAR COR EGLL 210750Z 02006KT 340V050 9999 FEW008 BKN011
                        07/05 Q1012 NOSIG=
201011210720 METAR COR EGLL 210720Z 02007KT 330V050 9999 FEW007 BKN010
                        07/05 Q1011 NOSIG=
201011210650 METAR COR EGLL 210650Z 02005KT 340V050 9999 BKN005 07/05
                        Q1011 NOSIG=
201011210620 METAR COR EGLL 210620Z 01006KT 340V060 8000 BKN005 07/05
                        Q1011 NOSIG=
201011210550 METAR COR EGLL 210550Z 01004KT 340V060 6000 OVC005 06/05
                        Q1011 TEMPO OVC004=
201011210520 METAR COR EGLL 210520Z 03004KT 350V060 6000 OVC005 06/05
                        Q1011 TEMPO OVC004=
201011210450 METAR COR EGLL 210450Z 02004KT 340V060 6000 OVC005 06/05
                        Q1012 TEMPO OVC004=
201011210420 METAR COR EGLL 210420Z 04004KT 360V080 6000 OVC005 06/05
                        Q1012 TEMPO OVC004=
201011210350 METAR COR EGLL 210350Z 03005KT 360V070 7000 OVC006 06/05
                        Q1012 NOSIG=
201011210320 METAR COR EGLL 210320Z 02005KT 350V060 6000 OVC006 06/04
                        Q1012 NOSIG=
201011210250 METAR COR EGLL 210250Z 03005KT 7000 OVC008 06/04 Q1012 NOSIG=
201011210220 METAR COR EGLL 210220Z 04005KT 7000 BKN007 06/04 Q1012 NOSIG=
201011210150 METAR COR EGLL 210150Z 05006KT 360V080 7000 BKN007 06/04
                        Q1012 NOSIG=
201011210120 METAR COR EGLL 210120Z 03004KT 340V070 7000 SCT005 BKN008
                        06/04 Q1012 NOSIG=
201011210050 METAR COR EGLL 210050Z 04006KT 360V070 5000 HZ BKN004 06/04
                        Q1013 NOSIG=
201011210020 METAR COR EGLL 210020Z 02006KT 340V070 6000 BKN004 06/04
                        Q1013 NOSIG=
201011202350 METAR COR EGLL 202350Z 01005KT 340V070 6000 BKN004 06/04
                        Q1013 NOSIG=
201011202320 METAR COR EGLL 202320Z 02005KT 340V070 7000 FEW004 BKN005
                        05/04 Q1013 NOSIG=
201011202250 METAR COR EGLL 202250Z 05004KT 010V080 7000 BKN005 05/04
                        Q1013 NOSIG=
201011202220 METAR COR EGLL 202220Z 06005KT 020V090 7000 BKN004 05/04
                        Q1014 TEMPO BKN006=
201011202150 METAR COR EGLL 202150Z 03006KT 7000 FEW004 BKN005 05/04 Q1014
                        NOSIG=
201011202120 METAR COR EGLL 202120Z 02007KT 340V050 6000 SCT005 BKN006
                        05/04 Q1014 NOSIG=
201011202050 METAR COR EGLL 202050Z 02006KT 360V060 6000 BKN006 BKN031
                        05/04 Q1013 NOSIG=
201011202020 METAR COR EGLL 202020Z 02006KT 6000 FEW005 BKN006 05/04 Q1013=
201011201950 METAR COR EGLL 201950Z 02006KT 350V060 7000 FEW006 BKN007
                        06/04 Q1013 NOSIG=
201011201920 METAR COR EGLL 201920Z 03005KT 350V070 6000 BKN006 06/04
                        Q1013 NOSIG=
201011201850 METAR COR EGLL 201850Z 04005KT 360V070 6000 SCT005 BKN006
                        06/04 Q1013 NOSIG=
201011201820 METAR COR EGLL 201820Z 03006KT 360V070 6000 SCT004 BKN006
                        06/04 Q1013 NOSIG=
201011201750 METAR COR EGLL 201750Z 03006KT 360V060 6000 BKN006 06/05
                        Q1013 NOSIG=
201011201720 METAR COR EGLL 201720Z 03007KT 350V060 6000 FEW007 BKN028
                        07/05 Q1013 NOSIG=
201011201650 METAR COR EGLL 201650Z 03006KT 340V060 7000 FEW007 BKN026
                        07/05 Q1013 NOSIG=
201011201620 METAR COR EGLL 201620Z 03005KT 360V070 7000 FEW008 SCT010
                        BKN024 07/05 Q1013 NOSIG=
201011201550 METAR COR EGLL 201550Z 05006KT 8000 SCT010 BKN015 08/06 Q1013
                        NOSIG=
201011201520 METAR COR EGLL 201520Z 06006KT 020V080 9000 FEW014 BKN019
                        08/06 Q1013 NOSIG=
201011201450 METAR COR EGLL 201450Z 06006KT 9000 BKN018 08/05 Q1013 NOSIG=
201011201420 METAR COR EGLL 201420Z 07007KT 8000 BKN013 08/06 Q1013 NOSIG=
201011201350 METAR COR EGLL 201350Z 07008KT 9000 BKN012 08/06 Q1013 NOSIG=
201011201320 METAR COR EGLL 201320Z 06004KT 8000 BKN013 08/06 Q1013 NOSIG=
201011201250 METAR COR EGLL 201250Z 07005KT 9000 BKN012 08/06 Q1013 NOSIG=
201011201220 METAR COR EGLL 201220Z 07006KT 9000 BKN012 08/06 Q1013 NOSIG=
201011201150 METAR COR EGLL 201150Z 07006KT 9999 BKN012 08/06 Q1013 NOSIG=
201011201120 METAR COR EGLL 201120Z 07006KT 9999 BKN013 08/06 Q1014 TEMPO
                        BKN016=
201011201050 METAR COR EGLL 201050Z 09007KT 9000 SCT010 BKN018 08/06 Q1014
                        NOSIG=
201011201020 METAR COR EGLL 201020Z 09006KT 8000 BKN010 BKN020 08/06 Q1014
                        NOSIG=
201011200950 METAR COR EGLL 200950Z 07007KT 8000 BKN010 07/06 Q1013 NOSIG=
201011200920 METAR COR EGLL 200920Z 08007KT 9000 FEW009 BKN010 07/05 Q1013
                        NOSIG=
201011200850 METAR COR EGLL 200850Z 08007KT 8000 -RADZ FEW009 BKN012 07/06
                        Q1013 NOSIG=
201011200820 METAR COR EGLL 200820Z 08006KT 9000 -DZ FEW009 BKN013 07/06
                        Q1013 NOSIG=
201011200750 METAR COR EGLL 200750Z 08007KT 9000 FEW009 BKN013 07/06 Q1013
                        NOSIG=
201011200720 METAR COR EGLL 200720Z 08007KT 8000 FEW013 BKN020 07/06 Q1013
                        TEMPO BKN013=
201011200650 METAR COR EGLL 200650Z 07006KT 7000 -RA BKN020 07/06 Q1013
                        NOSIG=
201011200620 METAR COR EGLL 200620Z 08007KT 6000 -RA BKN021 07/06 Q1013
                        NOSIG=
201011200550 METAR COR EGLL 200550Z 07007KT 6000 BKN020 07/06 Q1013 TEMPO
                        BKN014=
201011200520 METAR COR EGLL 200520Z 07006KT 6000 BKN018 07/06 Q1012 TEMPO
                        BKN014=
201011200450 METAR COR EGLL 200450Z 07006KT 5000 BR BKN021 06/05 Q1012
                        NOSIG=
201011200420 METAR COR EGLL 200420Z 08005KT 5000 BR BKN020 06/05 Q1012
                        NOSIG=
201011200350 METAR COR EGLL 200350Z 07006KT 5000 BR SCT021 06/05 Q1013
                        TEMPO 4000 BKN003=
201011200320 METAR COR EGLL 200320Z 06006KT 5000 BR NSC 05/05 Q1013 TEMPO
                        4000=
201011200250 METAR COR EGLL 200250Z 06007KT 6000 NSC 06/05 Q1013 NOSIG=
201011200220 METAR COR EGLL 200220Z 08005KT 6000 NSC 06/05 Q1013 TEMPO
                        4000 BR=
201011200150 METAR COR EGLL 200150Z 05004KT 6000 NSC 05/05 Q1012 TEMPO
                        4000 BR=
201011200120 METAR COR EGLL 200120Z 06005KT 6000 NSC 05/05 Q1012 TEMPO
                        4000 BR=
201011200050 METAR COR EGLL 200050Z 06005KT 6000 NSC 06/05 Q1013 BECMG
                        3000 BR=
201011200020 METAR COR EGLL 200020Z 07004KT 6000 NSC 06/05 Q1013 BECMG
                        2000 BR=
201011192350 METAR COR EGLL 192350Z 08005KT 6000 NSC 06/05 Q1013 BECMG
                        2000 BR=
201011192320 METAR COR EGLL 192320Z 08005KT CAVOK 06/05 Q1013 NOSIG=
201011192250 METAR COR EGLL 192250Z 09004KT CAVOK 06/05 Q1013 NOSIG=
201011192220 METAR COR EGLL 192220Z 08005KT CAVOK 07/05 Q1013 NOSIG=
201011192150 METAR COR EGLL 192150Z 08004KT CAVOK 07/06 Q1013 NOSIG=
201011192120 METAR COR EGLL 192120Z 07004KT CAVOK 07/05 Q1013 NOSIG=
201011192050 METAR COR EGLL 192050Z 06004KT CAVOK 08/06 Q1013 NOSIG=
201011192020 METAR EGLL 192020Z 09004KT CAVOK 09/06 Q1013=
201011191950 METAR COR EGLL 191950Z 11004KT CAVOK 09/06 Q1013 NOSIG=
201011191920 METAR COR EGLL 191920Z 10004KT CAVOK 09/06 Q1013 NOSIG=
201011191850 METAR COR EGLL 191850Z 10004KT 9999 FEW046 09/06 Q1013 NOSIG=
201011191820 METAR COR EGLL 191820Z 10005KT 9999 FEW035 10/07 Q1013 NOSIG=
201011191750 METAR COR EGLL 191750Z 12005KT 9999 FEW035 10/07 Q1012 NOSIG=
201011191720 METAR COR EGLL 191720Z 12005KT 9999 FEW042 10/06 Q1012 NOSIG=
201011191650 METAR COR EGLL 191650Z 12006KT CAVOK 10/06 Q1012 NOSIG=
201011191620 METAR COR EGLL 191620Z 13005KT 100V180 CAVOK 10/06 Q1012
                        NOSIG=
201011191550 METAR COR EGLL 191550Z 14005KT 090V170 9999 FEW025 SCT034
                        10/06 Q1012 NOSIG=
201011191520 METAR COR EGLL 191520Z 15005KT 090V220 9999 FEW026 SCT033
                        10/06 Q1011 NOSIG=
201011191450 METAR COR EGLL 191450Z VRB03KT 9999 FEW025 SCT031 12/07 Q1011
                        NOSIG=
201011191420 METAR COR EGLL 191420Z VRB02KT 9999 FEW036 11/07 Q1011 NOSIG=
201011191350 METAR COR EGLL 191350Z VRB03KT 9999 FEW027 11/07 Q1012 NOSIG=
201011191320 METAR COR EGLL 191320Z VRB04KT 9999 FEW020 11/06 Q1012 NOSIG=
201011191250 METAR COR EGLL 191250Z 21004KT 150V250 CAVOK 11/06 Q1012
                        NOSIG=
201011191220 METAR COR EGLL 191220Z 20004KT 140V280 CAVOK 10/06 Q1012
                        NOSIG=
201011191150 METAR COR EGLL 191150Z VRB03KT 9000 VCFG NSC 09/06 Q1012
                        NOSIG=
201011191120 METAR COR EGLL 191120Z VRB02KT 7000 VCFG NSC 08/06 Q1012
                        NOSIG=
201011191050 METAR COR EGLL 191050Z VRB02KT 7000 VCFG NSC 07/06 Q1012
                        NOSIG=
201011191020 METAR COR EGLL 191020Z 00000KT 6000 VCFG NSC 06/05 Q1012
                        NOSIG=
201011190950 METAR COR EGLL 190950Z 07002KT 5000 VCFG NSC 05/04 Q1012
                        NOSIG=
201011190920 METAR COR EGLL 190920Z 03002KT 4500 1800NW BR NSC 04/03 Q1012
                        NOSIG=
201011190850 METAR COR EGLL 190850Z 00000KT 4000 1400NW R27L/P1500 R27R/P1500
                        BR NSC 03/02 Q1012 NOSIG=
201011190820 METAR COR EGLL 190820Z 00000KT 3000 1000NW R27L/P1500 R27R/P1500
                        BCFG FEW001 02/02 Q1011 TEMPO 0800
                        FG=
201011190750 METAR COR EGLL 190750Z 01002KT 1700 0500NW R27L/P1500 R27R/1500
                        BCFG NSC 02/02 Q1011 BECMG 0600 FG=
201011190720 METAR COR EGLL 190720Z 01002KT 1100 0500SW R27L/0750 R27R/0900
                        PRFG NSC 02/02 Q1011 BECMG 0500 FG=
201011190650 METAR COR EGLL 190650Z VRB02KT 0350 R27L/0600 R27R/1300 FG
                        BKN001 03/02 Q1010 NOSIG=
201011190620 METAR COR EGLL 190620Z 00000KT 0300 R27L/0700 R27R/0500 FG
                        VV/// 03/02 Q1010 NOSIG=
201011190550 METAR COR EGLL 190550Z 00000KT 0250 R27L/0700 R27R/0400 FG
                        VV/// 03/02 Q1010 NOSIG=
201011190520 METAR COR EGLL 190520Z 34002KT 0400 R27L/0750 FG VV/// 02/02
                        Q1010 NOSIG=
201011190450 METAR COR EGLL 190450Z 29002KT 0400 R27L/0300 FG VV/// 02/02
                        Q1010 NOSIG=
201011190420 METAR COR EGLL 190420Z 29002KT 0300 R27L/0350 FG VV/// 03/02
                        Q1009 NOSIG=
201011190350 METAR COR EGLL 190350Z 00000KT 0400 R27L/0600 FG NSC 03/02
                        Q1009 BECMG 0200 BKN001=
201011190320 METAR COR EGLL 190320Z 00000KT 0400 R27L/1400 FG NSC 03/02
                        Q1009 TEMPO 0600=
201011190250 METAR COR EGLL 190250Z 00000KT 6000 1500NW R27L/1100 BCFG
                        NSC 03/02 Q1009 BECMG 1200 BR=
201011190220 METAR COR EGLL 190220Z 00000KT 8000 3500NW R27L/0500 NSC
                        04/04 Q1009 BECMG 2000 BR=
201011190150 METAR COR EGLL 190150Z 00000KT 8000 R27L/0750 NSC 05/04 Q1008
                        BECMG 2000 BR=
201011190120 METAR COR EGLL 190120Z 19003KT 8000 SCT045 05/04 Q1008 BECMG
                        4000 BR=
201011190050 METAR COR EGLL 190050Z 00000KT 9000 SCT044 06/05 Q1008 BECMG
                        4000 BR=
201011190020 METAR COR EGLL 190020Z 20004KT 9000 FEW040 06/05 Q1008 NOSIG=
201011182350 METAR COR EGLL 182350Z 19002KT 9999 FEW041 06/05 Q1008 NOSIG=
201011182320 METAR COR EGLL 182320Z 20003KT 9999 FEW048 06/05 Q1008 NOSIG=
201011182250 METAR COR EGLL 182250Z 20004KT CAVOK 07/06 Q1008 NOSIG=
201011182220 METAR COR EGLL 182220Z 22004KT CAVOK 08/06 Q1007 NOSIG=
201011182150 METAR COR EGLL 182150Z 19004KT CAVOK 08/07 Q1007 NOSIG=
201011182120 METAR COR EGLL 182120Z 19005KT 9999 FEW020 09/07 Q1007 NOSIG=
201011182050 METAR COR EGLL 182050Z 16003KT 9999 SCT048 08/07 Q1007 NOSIG=
201011182020 METAR COR EGLL 182020Z 15004KT 9999 SCT048 08/07 Q1007 NOSIG=
201011181950 METAR COR EGLL 181950Z 14005KT 9999 SCT048 09/07 Q1006 NOSIG=
201011181920 METAR COR EGLL 181920Z 15005KT 9999 SCT049 09/07 Q1006 NOSIG=
201011181850 METAR COR EGLL 181850Z 15005KT 9999 BKN049 09/08 Q1006 NOSIG=
201011181820 METAR COR EGLL 181820Z 14005KT 9999 BKN046 09/08 Q1006 NOSIG=
201011181750 METAR COR EGLL 181750Z 14005KT 9999 BKN045 09/08 Q1006 NOSIG=
201011181720 METAR COR EGLL 181720Z 14005KT 9999 -RA FEW008 BKN047 09/08
                        Q1005 NOSIG=
201011181650 METAR COR EGLL 181650Z 13007KT 9999 BKN048 09/08 Q1005 NOSIG=
201011181620 METAR COR EGLL 181620Z 14007KT 9999 BKN013 09/08 Q1005 BECMG
                        SCT015=
201011181550 METAR COR EGLL 181550Z 14008KT 9999 VCSH FEW010 BKN032 10/08
                        Q1004 NOSIG=
201011181520 METAR COR EGLL 181520Z 16008KT 9999 SCT013 BKN039 10/08 Q1004
                        TEMPO -SHRA BKN013=
201011181450 METAR COR EGLL 181450Z 18007KT 9999 FEW014 BKN022 10/08 Q1004
                        NOSIG=
201011181420 METAR COR EGLL 181420Z 17009KT 9999 SCT017 SCT024 10/07 Q1004
                        NOSIG=
201011181350 METAR COR EGLL 181350Z 16008KT 9999 -RA FEW018 SCT023 BKN030
                        10/07 Q1004 NOSIG=
201011181320 METAR COR EGLL 181320Z 16006KT 9999 -RA FEW015 SCT022 BKN046
                        10/07 Q1004 NOSIG=
201011181250 METAR COR EGLL 181250Z 18007KT 9999 -RA FEW020 SCT049 10/07
                        Q1004 NOSIG=
201011181220 METAR COR EGLL 181220Z 17008KT 9999 SCT020 BKN042 10/07 Q1004
                        NOSIG=
201011181150 METAR COR EGLL 181150Z 17008KT 9999 FEW017 10/07 Q1004 NOSIG=
201011181120 METAR COR EGLL 181120Z 16008KT 9999 FEW017 10/07 Q1004 NOSIG=
201011181050 METAR COR EGLL 181050Z 15008KT 9999 FEW010 10/07 Q1004 NOSIG=
201011181020 METAR COR EGLL 181020Z 15007KT 9999 FEW008 09/07 Q1004 NOSIG=
201011180950 METAR COR EGLL 180950Z 13007KT 8000 FEW010 09/07 Q1004 NOSIG=
201011180920 METAR COR EGLL 180920Z 11008KT 7000 FEW010 08/06 Q1004 NOSIG=
201011180850 METAR COR EGLL 180850Z 11007KT 5000 2300E HZ FEW035 07/06
                        Q1004 NOSIG=
201011180820 METAR COR EGLL 180820Z 10006KT 4800 HZ FEW035 07/05 Q1004
                        TEMPO 6000 NSW=
201011180750 METAR COR EGLL 180750Z 09006KT 7000 SCT015 SCT019 BKN030
                        06/05 Q1004 TEMPO BKN014=
201011180720 METAR COR EGLL 180720Z 10006KT 6000 -RA BKN016 06/05 Q1004
                        TEMPO 4000 RA BKN014=
201011180650 METAR COR EGLL 180650Z 10006KT 6000 BKN020 06/05 Q1003 TEMPO
                        4000 RA BKN014=
201011180620 METAR EGLL 180620Z 09008KT 6000 FEW012 SCT030 BKN036 05/04
                        Q1003=
201011180550 METAR COR EGLL 180550Z 09006KT 6000 SCT024 05/04 Q1003 NOSIG=
201011180520 METAR COR EGLL 180520Z 09006KT 7000 FEW032 05/04 Q1003 NOSIG=
201011180450 METAR COR EGLL 180450Z 09006KT 6000 BKN026 05/04 Q1003 NOSIG=
201011180420 METAR COR EGLL 180420Z 09006KT 6000 FEW008 BKN026 06/05 Q1003
                        NOSIG=
201011180350 METAR COR EGLL 180350Z 09008KT 6000 FEW007 BKN027 05/04 Q1003
                        NOSIG=
201011180320 METAR COR EGLL 180320Z 09007KT 7000 FEW027 BKN032 06/05 Q1004
                        NOSIG=
201011180250 METAR COR EGLL 180250Z 10007KT 6000 FEW011 BKN026 06/05 Q1004
                        NOSIG=
201011180220 METAR COR EGLL 180220Z 10008KT 6000 SCT012 BKN024 06/05 Q1004
                        NOSIG=
201011180150 METAR EGLL 180150Z 10008KT 6000 FEW012 BKN033 06/05 Q1004=
201011180120 METAR EGLL 180120Z 10009KT 5000 HZ FEW012 BKN035 06/04 Q1004=
201011180050 METAR COR EGLL 180050Z 10009KT 4900 -RA SCT012 BKN038 05/04
                        Q1004 TEMPO 6000=
201011180020 METAR COR EGLL 180020Z 10008KT 5000 -RA FEW031 BKN035 05/04
                        Q1004 NOSIG=
201011172350 METAR COR EGLL 172350Z 10009KT 4800 -RA FEW024 BKN030 06/04
                        Q1004 BECMG 6000=
201011172320 METAR COR EGLL 172320Z 10008KT 4800 -RA FEW022 BKN029 06/04
                        Q1005 TEMPO 6000=
201011172250 METAR COR EGLL 172250Z 11007KT 5000 -RADZ SCT025 SCT035 06/04
                        Q1005 NOSIG=
201011172220 METAR COR EGLL 172220Z 11008KT 5000 -RADZ BKN034 06/04 Q1005
                        NOSIG=
201011172150 METAR COR EGLL 172150Z 10009KT 8000 -RA BKN027 06/04 Q1005
                        NOSIG=
201011172120 METAR COR EGLL 172120Z 11009KT 9999 -RA BKN022 06/04 Q1005
                        TEMPO BKN014=
201011172050 METAR COR EGLL 172050Z 11008KT 9999 -RA FEW019 SCT023 06/04
                        Q1005 NOSIG=
201011172020 METAR COR EGLL 172020Z 11009KT 9999 -RA FEW019 BKN023 06/04
                        Q1005 NOSIG=
201011171950 METAR COR EGLL 171950Z 11010KT 8000 -RA BKN028 06/04 Q1005
                        NOSIG=
201011171920 METAR COR EGLL 171920Z 11008KT 8000 -RA BKN025 06/04 Q1005
                        NOSIG=
201011171850 METAR COR EGLL 171850Z 11008KT 9999 -RA BKN020 06/04 Q1005
                        NOSIG=
201011171820 METAR COR EGLL 171820Z 11009KT 9999 -RA SCT024 BKN031 06/04
                        Q1005 NOSIG=
201011171750 METAR COR EGLL 171750Z 12011KT 9999 -RA SCT018 BKN023 06/04
                        Q1005 NOSIG=
201011171720 METAR COR EGLL 171720Z 11012KT 9999 -RA SCT027 BKN039 06/04
                        Q1005 NOSIG=
201011171650 METAR COR EGLL 171650Z 12012KT 9999 BKN031 07/03 Q1005 NOSIG=
201011171620 METAR COR EGLL 171620Z 12011KT 9999 SCT026 BKN033 07/03 Q1005
                        NOSIG=
201011171550 METAR COR EGLL 171550Z 12014KT 9999 FEW024 BKN035 07/03 Q1005
                        NOSIG=
201011171520 METAR EGLL 171520Z 12011KT 9999 FEW021 SCT034 07/03 Q1005=
201011171450 METAR COR EGLL 171450Z 13011KT 9999 FEW023 BKN038 07/03 Q1005
                        NOSIG=
201011171420 METAR COR EGLL 171420Z 13012KT 9999 FEW025 BKN035 07/03 Q1005
                        NOSIG=
201011171350 METAR COR EGLL 171350Z 14013KT 9999 SCT022 BKN032 07/03 Q1005
                        NOSIG=
201011171320 METAR COR EGLL 171320Z 13011KT 9999 SCT020 BKN029 07/03 Q1006
                        NOSIG=
201011171250 METAR COR EGLL 171250Z 13012KT 9999 SCT022 BKN028 07/04 Q1006
                        NOSIG=
201011171220 METAR COR EGLL 171220Z 13012KT 9999 SCT019 BKN026 07/04 Q1006
                        NOSIG=
201011171150 METAR COR EGLL 171150Z 12012KT 9999 SCT020 BKN027 07/04 Q1006
                        NOSIG=
201011171120 METAR COR EGLL 171120Z 12011KT 9999 BKN020 07/04 Q1007 NOSIG=
201011171050 METAR COR EGLL 171050Z 13010KT 9999 SCT020 BKN023 07/04 Q1007
                        NOSIG=
201011171020 METAR COR EGLL 171020Z 13010KT 9999 SCT020 BKN024 07/04 Q1007
                        NOSIG=
201011170950 METAR COR EGLL 170950Z 12011KT 9999 SCT019 BKN023 07/04 Q1007
                        NOSIG=
201011170920 METAR COR EGLL 170920Z 12011KT 9999 FEW018 BKN029 07/04 Q1008
                        NOSIG=
201011170850 METAR COR EGLL 170850Z 12013KT 9999 SCT020 BKN028 07/04 Q1008
                        NOSIG=
201011170820 METAR COR EGLL 170820Z 12012KT 9999 FEW020 BKN028 07/04 Q1008
                        NOSIG=
201011170750 METAR COR EGLL 170750Z 12011KT 9999 SCT018 BKN033 07/04 Q1008
                        NOSIG=
201011170720 METAR COR EGLL 170720Z 13011KT 9999 SCT018 BKN033 07/05 Q1008
                        TEMPO BKN014=
201011170650 METAR COR EGLL 170650Z 13012KT 9999 SCT015 SCT020 07/05 Q1008
                        TEMPO BKN014=
201011170620 METAR COR EGLL 170620Z 12013KT 9999 BKN015 07/05 Q1008 BECMG
                        BKN014=
201011170550 METAR COR EGLL 170550Z 12013KT 9999 BKN015 07/05 Q1009 BECMG
                        BKN014=
201011170520 METAR EGLL 170520Z 12013KT 9999 BKN014 07/05 Q1009=
201011170450 METAR COR EGLL 170450Z 11012KT 9000 SCT014 07/05 Q1009 TEMPO
                        BKN012=
201011170420 METAR COR EGLL 170420Z 11012KT 9999 FEW032 07/05 Q1009 NOSIG=
201011170350 METAR COR EGLL 170350Z 11009KT 9000 FEW026 07/05 Q1010 NOSIG=
201011170320 METAR EGLL 170320Z 10010KT 8000 FEW020 06/05 Q1010=
201011170250 METAR COR EGLL 170250Z 11010KT 9999 NSC 06/05 Q1011 NOSIG=
201011170220 METAR EGLL 170220Z NIL=
201011170150 METAR COR EGLL 170150Z 11009KT 9999 FEW030 SCT046 07/05 Q1012
                        TEMPO BKN012=
201011170120 METAR COR EGLL 170120Z 12010KT 9999 FEW029 SCT048 07/05 Q1012
                        TEMPO BKN012=
201011170050 METAR COR EGLL 170050Z 12011KT 9999 FEW030 07/05 Q1013 TEMPO
                        BKN012=
201011170020 METAR COR EGLL 170020Z 12010KT CAVOK 07/05 Q1013 NOSIG=
201011162350 METAR EGLL 162350Z NIL=
201011162320 METAR EGLL 162320Z 12010KT CAVOK 07/05 Q1014=
201011162250 METAR COR EGLL 162250Z 13009KT CAVOK 07/05 Q1014 NOSIG=
201011162220 METAR COR EGLL 162220Z 13009KT 9999 FEW048 07/05 Q1015 NOSIG=
201011162150 METAR COR EGLL 162150Z 13008KT CAVOK 07/05 Q1015 NOSIG=
201011162120 METAR COR EGLL 162120Z 13007KT CAVOK 07/05 Q1016 NOSIG=
201011162050 METAR COR EGLL 162050Z 13008KT CAVOK 07/05 Q1016 NOSIG=
201011162020 METAR COR EGLL 162020Z 13007KT CAVOK 07/05 Q1017 NOSIG=
201011161950 METAR COR EGLL 161950Z 11007KT 9999 FEW030 06/05 Q1017 NOSIG=
201011161920 METAR COR EGLL 161920Z 13006KT 9000 3000SW VCFG SCT030 06/06
                        Q1017 NOSIG=
201011161850 METAR COR EGLL 161850Z 12007KT 090V160 9000 3000SW VCFG NSC
                        03/03 Q1018 TEMPO BKN004=
201011161820 METAR COR EGLL 161820Z 11008KT 080V150 6000 2000S R27L/0900
                        VCFG NSC 04/03 Q1018 TEMPO BKN004=
201011161750 METAR COR EGLL 161750Z 05002KT 1300 0450N R27R/0450 R27L/0400
                        PRFG FEW001 04/03 Q1018 BECMG 12010KT
                        3000 BR=
201011161720 METAR COR EGLL 161720Z 08002KT 1100 0350N R27R/0375 R27L/0275
                        FG SCT001 04/04 Q1018 BECMG 14010KT
                        3000 BR=
201011161650 METAR COR EGLL 161650Z 07002KT 0700 R27R/0450 R27L/0350 FG
                        OVC001 04/04 Q1019 TEMPO 1400 BR
                        SCT001=
201011161620 METAR COR EGLL 161620Z 07003KT 0500 R27R/0500 R27L/0400 FG
                        VV/// 05/04 Q1019 TEMPO 1200 BR SCT001=
201011161550 METAR COR EGLL 161550Z 07003KT 0300 R27R/0375 R27L/1400 FG
                        VV/// 05/04 Q1019 NOSIG=
201011161520 METAR COR EGLL 161520Z VRB03KT 0200 R27R/0450 R27L/0550 FG
                        VV/// 05/05 Q1019 NOSIG=
201011161450 METAR COR EGLL 161450Z VRB03KT 0400 R27L/0375 R27R/0300 FG
                        BKN001 05/05 Q1020 TEMPO 1200 BR
                        SCT001=
201011161420 METAR COR EGLL 161420Z VRB03KT 0900 R27L/0500 R27R/0375 FG
                        BKN001 05/05 Q1020 BECMG 1500 BR
                        VCFG SCT001 BKN004=
201011161350 METAR COR EGLL 161350Z VRB03KT 0900 R27L/1300 R27R/0900 FG
                        BKN001 05/05 Q1020 BECMG 1500 BR
                        VCFG SCT001 BKN004=
201011161320 METAR COR EGLL 161320Z 07003KT 0800 R27L/0375 R27R/0750 FG
                        BKN001 05/04 Q1021 BECMG 1500 BR
                        VCFG SCT001 BKN004=
201011161250 METAR COR EGLL 161250Z VRB02KT 0600 R27L/0500 R27R/P1500
                        FG BKN001 04/04 Q1021 BECMG 1200
                        BR VCFG SCT001 BKN003=
201011161220 METAR COR EGLL 161220Z VRB02KT 0500 R27L/0375 R27R/P1500
                        FG VV/// 04/04 Q1022 BECMG 0800 BKN002=
201011161150 METAR COR EGLL 161150Z VRB02KT 0300 R27L/0275 R27R/P1500
                        FG OVC001 04/04 Q1022 BECMG 0800
                        BKN002=
201011161120 METAR COR EGLL 161120Z VRB02KT 0350 R27L/0375 R27R/P1500
                        FG VV/// 04/03 Q1022 BECMG 0800=
201011161050 METAR COR EGLL 161050Z VRB02KT 0350 R27L/0300 R27R/1100 FG
                        VV/// 03/03 Q1022 BECMG 0800=
201011161020 METAR COR EGLL 161020Z VRB02KT 0400 R27L/0325 R27R/0500 FG
                        VV/// 03/02 Q1022 BECMG 0800=
201011160950 METAR COR EGLL 160950Z VRB02KT 0350 R27L/0375 R27R/0750 FG
                        VV/// 02/02 Q1022 BECMG 0600=
201011160920 METAR COR EGLL 160920Z 29003KT 0200 R27L/0375 R27R/0325 FG
                        VV/// 01/01 Q1022 BECMG 0500=
201011160850 METAR COR EGLL 160850Z 01002KT 0200 R27L/0300 R27R/0275 FG
                        VV/// 01/00 Q1022 BECMG 0500=
201011160820 METAR COR EGLL 160820Z 33003KT 0200 R27L/0550 R27R/0275 FG
                        VV/// 00/M00 Q1022 BECMG 0500=
201011160750 METAR COR EGLL 160750Z 02002KT 0200 R27L/0400 R27R/0325 FG
                        VV/// 00/M00 Q1022 NOSIG=
201011160720 METAR COR EGLL 160720Z 03002KT 0200 R27L/0650 R27R/0400 FZFG
                        VV/// 00/M00 Q1022 NOSIG=
201011160650 METAR COR EGLL 160650Z 03002KT 0200 R27L/0400 R27R/0500 FZFG
                        VV/// M00/M01 Q1021 NOSIG=
201011160620 METAR COR EGLL 160620Z 03002KT 0150 R27L/0375 R27R/0400 FZFG
                        VV/// M00/M01 Q1021 NOSIG=
201011160550 METAR COR EGLL 160550Z VRB03KT 0150 R27L/0400 FG VV/// M01/M01
                        Q1021 NOSIG=
201011160520 METAR COR EGLL 160520Z 00000KT 0150 R27L/0400 FG VV/// M00/M01
                        Q1021 NOSIG=
201011160450 METAR COR EGLL 160450Z 00000KT 0100 R27L/0450 FG VV/// M00/M01
                        Q1021 NOSIG=
201011160420 METAR COR EGLL 160420Z 00000KT 0100 R27L/0450 FG VV/// M00/M01
                        Q1021 NOSIG=
201011160350 METAR COR EGLL 160350Z 00000KT 0150 R27L/0400 FG VV/// M00/M01
                        Q1021 NOSIG=
201011160320 METAR COR EGLL 160320Z 10002KT 0100 R27L/0650 FG VV/// M00/M01
                        Q1020 NOSIG=
201011160250 METAR COR EGLL 160250Z 00000KT 0150 R27L/0400 FG VV/// M00/M01
                        Q1020 NOSIG=
201011160220 METAR COR EGLL 160220Z 00000KT 0100 R27L/0400 FG VV/// M00/M01
                        Q1020 NOSIG=
201011160150 METAR COR EGLL 160150Z 00000KT 0100 R27L/0325 FG VV/// 00/M00
                        Q1020 NOSIG=
201011160120 METAR COR EGLL 160120Z 10002KT 0100 R27L/0350 FG VV/// 00/M00
                        Q1020 NOSIG=
201011160050 METAR COR EGLL 160050Z 00000KT 0200 R27L/0550 FG VV/// 01/00
                        Q1020 NOSIG=
201011160020 METAR COR EGLL 160020Z 00000KT 0150 R27L/0800 FG VV/// 01/01
                        Q1020 NOSIG=
201011152350 METAR COR EGLL 152350Z 00000KT 0150 R27L/0550 FG VV/// 01/00
                        Q1020 NOSIG=
201011152320 METAR COR EGLL 152320Z 00000KT 0100 R27L/0300 FG VV/// 02/01
                        Q1020 NOSIG=
201011152250 METAR COR EGLL 152250Z VRB02KT 0200 R27L/0800 FG VV/// 01/01
                        Q1020 NOSIG=
201011152220 METAR COR EGLL 152220Z VRB02KT 0300 R27R/P1500 R27L/0500
                        PRFG BKN000 01/00 Q1020 NOSIG=
201011152150 METAR COR EGLL 152150Z VRB03KT 4000 0500S R27R/P1500 R27L/0225
                        PRFG FEW000 02/01 Q1019 TEMPO 0800
                        FG=
201011152120 METAR COR EGLL 152120Z 36002KT 6000 1500S BR NSC 02/01 Q1019
                        TEMPO 0800 FG=
201011152050 METAR COR EGLL 152050Z 00000KT 6000 2500SW BR NSC 01/00 Q1019
                        BECMG 1200 BR=
201011152020 METAR COR EGLL 152020Z 35002KT 4900 VCFG NSC 03/02 Q1019
                        BECMG 1200 BR=
201011151950 METAR COR EGLL 151950Z 00000KT 6000 VCFG NSC 04/03 Q1018
                        BECMG 3000 BR=
201011151920 METAR COR EGLL 151920Z VRB03KT 6000 NSC 03/02 Q1018 BECMG
                        4000 BR=
201011151850 METAR COR EGLL 151850Z VRB02KT 8000 NSC 04/03 Q1018 BECMG
                        4000 BR=
201011151820 METAR EGLL 151820Z VRB02KT 5000 VCFG NSC 04/03 Q1017=
201011151750 METAR COR EGLL 151750Z VRB02KT 8000 VCFG NSC 05/04 Q1017
                        BECMG 4000 BR=
201011151720 METAR COR EGLL 151720Z VRB03KT 8000 VCFG NSC 05/03 Q1017
                        BECMG 4000 BR=
201011151650 METAR COR EGLL 151650Z 15004KT 110V190 8000 VCFG NSC 05/02
                        Q1016 NOSIG=
201011151620 METAR EGLL 151620Z VRB02KT 7000 VCFG NSC 07/04 Q1016=
201011151550 METAR COR EGLL 151550Z VRB02KT 9999 VCFG NSC 07/04 Q1015
                        NOSIG=
201011151520 METAR EGLL 151520Z 00000KT 9999 VCFG NSC 07/04 Q1015=
201011151450 METAR COR EGLL 151450Z VRB03KT 9000 VCFG FEW020 08/05 Q1015
                        NOSIG=
201011151420 METAR COR EGLL 151420Z 36003KT 8000 NSC 07/05 Q1015 NOSIG=
201011151350 METAR COR EGLL 151350Z 01002KT 7000 NSC 07/05 Q1015 NOSIG=
201011151320 METAR COR EGLL 151320Z 32003KT 7000 NSC 05/04 Q1015 NOSIG=
201011151250 METAR COR EGLL 151250Z VRB03KT 4500 BR NSC 05/04 Q1015 BECMG
                        6000 NSW=
201011151220 METAR COR EGLL 151220Z VRB02KT 5000 VCFG NSC 04/04 Q1014
                        TEMPO 1200 BR=
201011151150 METAR COR EGLL 151150Z 31003KT 3500 1200S R27L/P1500 R27R/P1500
                        PRFG FEW001 04/03 Q1014 NOSIG=
201011151120 METAR COR EGLL 151120Z 29004KT 230V330 0400 R27L/0600 R27R/P1500
                        FG BKN001 03/03 Q1014 TEMPO 1200
                        BR=
201011151050 METAR COR EGLL 151050Z 22006KT 170V260 0500 R27L/P1500 R27R/P1500
                        FG NSC 03/02 Q1014 BECMG 2000 BR=
201011151020 METAR COR EGLL 151020Z VRB02KT 4500 1000SW R27L/P1500 R27R/P1500
                        PRFG NSC 03/03 Q1014 BECMG 6000 NSW=
201011150950 METAR COR EGLL 150950Z 35002KT 4500 1000SW R27L/P1500 R27R/P1500
                        PRFG NSC 03/02 Q1014 BECMG 6000 NSW=
201011150920 METAR COR EGLL 150920Z VRB02KT 4500 0600SW R27L/P1500 R27R/P1500
                        PRFG NSC 02/01 Q1013 BECMG 6000 NSW=
201011150850 METAR COR EGLL 150850Z 04002KT 6000 1200SW R27L/P1500 VCFG
                        NSC 01/01 Q1013 NOSIG=
201011150820 METAR COR EGLL 150820Z 06002KT 6000 2400NW VCFG NSC 01/00
                        Q1012 NOSIG=
201011150750 METAR COR EGLL 150750Z 36003KT 4000 0900N R27L/P1500 R27R/P1500
                        BCFG SCT002 01/01 Q1012 NOSIG=
201011150720 METAR COR EGLL 150720Z VRB03KT 0300 R27L/P1500 R27R/0800
                        FG BKN001 01/01 Q1011 TEMPO 1500
                        BR=
201011150650 METAR COR EGLL 150650Z 36003KT 0200 R27L/1200 R27R/P1500
                        FG VV/// 01/01 Q1011 TEMPO 1200 BR=
201011150620 METAR COR EGLL 150620Z 36003KT 0200 R27L/0650 R27R/0750 FG
                        SCT001 01/00 Q1010 TEMPO 1200 BR=
201011150550 METAR COR EGLL 150550Z 00000KT 0300 R27L/P1500 FG FEW001
                        00/M00 Q1010 TEMPO 1200 BR=
201011150520 METAR COR EGLL 150520Z 00000KT 0300 R27L/P1500 FG SCT002
                        01/01 Q1010 NOSIG=
201011150450 METAR COR EGLL 150450Z 00000KT 0900 R27L/0350 FG SCT002 02/01
                        Q1009 TEMPO 0200=
201011150420 METAR COR EGLL 150420Z 00000KT 1200 BR SCT003 01/M00 Q1009
                        TEMPO 0500 FG=
201011150350 METAR COR EGLL 150350Z 00000KT 6000 BCFG NSC 01/M00 Q1009
                        NOSIG=
201011150320 METAR COR EGLL 150320Z 00000KT 6000 NSC 00/M00 Q1008 BECMG
                        3000=
201011150250 METAR COR EGLL 150250Z 35003KT 5000 BR NSC 02/01 Q1008 BECMG
                        3000=
201011150220 METAR COR EGLL 150220Z 00000KT 5000 BR NSC 02/01 Q1008 BECMG
                        3000=
201011150150 METAR COR EGLL 150150Z 28002KT 8000 NSC 02/01 Q1008 BECMG
                        4000=
201011150120 METAR COR EGLL 150120Z 19002KT 9000 NSC 02/02 Q1007 NOSIG=
201011150050 METAR COR EGLL 150050Z 19004KT 9000 NSC 03/02 Q1007 NOSIG=
201011150020 METAR COR EGLL 150020Z 00000KT CAVOK 03/02 Q1006 NOSIG=
201011142350 METAR COR EGLL 142350Z 20004KT CAVOK 03/02 Q1006 NOSIG=
201011142320 METAR COR EGLL 142320Z 23004KT 210V270 CAVOK 04/02 Q1006
                        NOSIG=
201011142250 METAR COR EGLL 142250Z 24006KT CAVOK 05/03 Q1005 NOSIG=
201011142220 METAR EGLL 142220Z 23006KT 190V290 CAVOK 05/03 Q1005=
201011142150 METAR COR EGLL 142150Z 24009KT 200V280 CAVOK 05/03 Q1004
                        NOSIG=
201011142120 METAR COR EGLL 142120Z 26007KT 9999 FEW034 04/03 Q1004 NOSIG=
201011142050 METAR COR EGLL 142050Z 23007KT 180V270 9999 FEW034 05/03
                        Q1003 NOSIG=
201011142020 METAR COR EGLL 142020Z 22007KT 180V270 9999 SCT036 06/04
                        Q1003 NOSIG=
201011141950 METAR COR EGLL 141950Z 25010KT CAVOK 05/04 Q1002 NOSIG=
201011141920 METAR COR EGLL 141920Z 25009KT 9999 FEW030 05/04 Q1002 NOSIG=
201011141850 METAR COR EGLL 141850Z 24009KT 210V280 9999 FEW030 05/04
                        Q1001 NOSIG=
201011141820 METAR COR EGLL 141820Z 24009KT 210V300 9999 SCT028 SCT045
                        06/04 Q1001 NOSIG=
201011141750 METAR COR EGLL 141750Z 24009KT 9999 BKN042 06/04 Q1000 NOSIG=
201011141720 METAR EGLL 141720Z 25009KT 220V280 9999 FEW035 BKN042 06/04
                        Q0999=
201011141650 METAR COR EGLL 141650Z 25008KT CAVOK 06/04 Q0999 NOSIG=
201011141620 METAR EGLL 141620Z 26007KT 9999 FEW025 06/04 Q0998 NOSIG=
201011141550 METAR COR EGLL 141550Z 29003KT 9999 FEW025 06/04 Q0997 NOSIG=
201011141520 METAR EGLL 141520Z VRB03KT 9999 RA VCTS SCT020 BKN026 06/04
                        Q0996=
201011141450 METAR EGLL 141450Z 31007KT 9999 -RA FEW010 SCT021 BKN039
                        06/04 Q0996 RERA=
201011141420 METAR COR EGLL 141420Z 31009KT 9999 FEW026 SCT036 06/03 Q0995
                        NOSIG=
201011141350 METAR COR EGLL 141350Z 30010KT 270V350 9999 7000E -RA FEW017
                        SCT030 07/04 Q0995 NOSIG=
201011141320 METAR COR EGLL 141320Z 31003KT 9999 FEW035 SCT044 08/05 Q0994
                        NOSIG=
201011141250 METAR COR EGLL 141250Z 30005KT 8000 -RA SCT030 SCT038 07/06
                        Q0994 NOSIG=
201011141220 METAR COR EGLL 141220Z 33003KT 5000 -RA BKN030 07/06 Q0993
                        NOSIG=
201011141150 METAR COR EGLL 141150Z 29004KT 5000 -RA FEW004 SCT033 07/06
                        Q0994 NOSIG=
201011141120 METAR COR EGLL 141120Z 31003KT 6000 -RA FEW004 SCT034 07/06
                        Q0994 NOSIG=
201011141050 METAR COR EGLL 141050Z VRB03KT 7000 FEW004 07/06 Q0993 NOSIG=
201011141020 METAR COR EGLL 141020Z VRB03KT 3500 BR FEW001 SCT003 07/06
                        Q0993 BECMG 6000 NSW=
201011140950 METAR COR EGLL 140950Z VRB03KT 3500 BR FEW002 SCT004 07/06
                        Q0993 BECMG 6000 NSW=
201011140920 METAR COR EGLL 140920Z VRB03KT 3500 BR FEW001 SCT003 07/06
                        Q0993 BECMG 6000 NSW=
201011140850 METAR COR EGLL 140850Z VRB03KT 0900 R27L/P1500 R27R/1000
                        FG FEW001 BKN003 07/06 Q0993 BECMG
                        3000 BR BKN005=
201011140820 METAR EGLL 140820Z 29004KT 260V330 0700 R27R/P1500 R27L/P1500
                        FG SCT001 SCT003 07/06 Q0993=
201011140750 METAR COR EGLL 140750Z 29003KT 1500 R27L/P1500 BR SCT002
                        BKN003 07/06 Q0993 BECMG 3000 BR
                        BKN005=
201011140720 METAR COR EGLL 140720Z VRB03KT 5000 BR FEW003 BKN005 07/06
                        Q0992 NOSIG=
201011140650 METAR COR EGLL 140650Z 31004KT 6000 FEW003 BKN004 08/07 Q0992
                        NOSIG=
201011140620 METAR COR EGLL 140620Z 31005KT 5000 BR BKN004 08/07 Q0992
                        BECMG FEW004=
201011140550 METAR COR EGLL 140550Z 26004KT 4100 BR BKN003 08/07 Q0992
                        NOSIG=
201011140520 METAR COR EGLL 140520Z 00000KT 4000 BR BKN004 BKN013 08/07
                        Q0992 BECMG 6000 NSW BKN012=
201011140450 METAR COR EGLL 140450Z 00000KT 4200 BR FEW003 BKN004 08/07
                        Q0992 BECMG 6000 NSW BKN009=
201011140420 METAR COR EGLL 140420Z 35002KT 3400 BR SCT004 BKN005 08/07
                        Q0992 BECMG 6000 NSW=
201011140350 METAR COR EGLL 140350Z VRB03KT 2800 BR BKN002 08/07 Q0991
                        BECMG 6000 NSW BKN007=
201011140320 METAR COR EGLL 140320Z 21002KT 3400 BR FEW002 SCT003 BKN015
                        08/07 Q0991 BECMG 6000 NSW=
201011140250 METAR COR EGLL 140250Z 22002KT 2500 -RADZ BKN003 08/07 Q0991
                        TEMPO DZ=
201011140220 METAR COR EGLL 140220Z 00000KT 4600 -RADZ BKN004 08/07 Q0991
                        TEMPO 2500 DZ=
201011140150 METAR COR EGLL 140150Z 00000KT 4700 HZ BKN006 08/07 Q0991
                        TEMPO 2500 DZ BKN004=
201011140120 METAR COR EGLL 140120Z 19002KT 5000 HZ FEW007 BKN014 08/07
                        Q0991 TEMPO 4000 -RADZ BKN008=
201011140050 METAR COR EGLL 140050Z 14003KT 7000 FEW010 BKN022 08/07 Q0992
                        BECMG BKN012=
201011140020 METAR COR EGLL 140020Z 10002KT 7000 FEW012 BKN026 08/06 Q0991
                        BECMG BKN012=
201011132350 METAR COR EGLL 132350Z 13002KT 8000 SCT030 SCT036 08/06 Q0992
                        BECMG BKN012=
201011132320 METAR COR EGLL 132320Z 07003KT 8000 BKN035 08/06 Q0992 BECMG
                        BKN012=
201011132250 METAR COR EGLL 132250Z 04003KT 9000 SCT037 SCT040 09/06 Q0992
                        BECMG BKN014=
201011132220 METAR COR EGLL 132220Z VRB02KT 9999 SCT031 09/06 Q0992 NOSIG=
201011132150 METAR COR EGLL 132150Z VRB02KT 9999 BKN032 09/06 Q0992 NOSIG=
201011132120 METAR COR EGLL 132120Z VRB02KT CAVOK 09/06 Q0992 NOSIG=
201011132050 METAR COR EGLL 132050Z 17004KT 110V240 CAVOK 09/05 Q0992
                        NOSIG=
201011132020 METAR COR EGLL 132020Z VRB03KT CAVOK 08/06 Q0993 NOSIG=
201011131950 METAR COR EGLL 131950Z VRB03KT CAVOK 09/06 Q0993 NOSIG=
201011131920 METAR COR EGLL 131920Z 18004KT 130V260 CAVOK 09/06 Q0993
                        NOSIG=
201011131850 METAR COR EGLL 131850Z 19005KT 160V250 CAVOK 09/06 Q0993
                        NOSIG=
201011131820 METAR COR EGLL 131820Z 19005KT 150V250 CAVOK 09/06 Q0993
                        NOSIG=
201011131750 METAR COR EGLL 131750Z 21005KT 150V250 CAVOK 09/06 Q0993
                        NOSIG=
201011131720 METAR COR EGLL 131720Z 20006KT 150V260 CAVOK 09/06 Q0993
                        NOSIG=
201011131650 METAR COR EGLL 131650Z 19007KT 150V250 CAVOK 09/06 Q0993
                        NOSIG=
201011131620 METAR COR EGLL 131620Z 20005KT 160V240 CAVOK 09/06 Q0993
                        NOSIG=
201011131550 METAR COR EGLL 131550Z 20005KT 150V270 CAVOK 09/06 Q0994
                        NOSIG=
201011131520 METAR COR EGLL 131520Z 21006KT 160V250 CAVOK 10/06 Q0994
                        NOSIG=
201011131450 METAR COR EGLL 131450Z 21006KT 170V240 CAVOK 10/06 Q0994
                        NOSIG=
201011131420 METAR COR EGLL 131420Z 23007KT CAVOK 10/06 Q0994 NOSIG=
201011131350 METAR COR EGLL 131350Z 22008KT 200V260 CAVOK 10/06 Q0994
                        NOSIG=
201011131320 METAR COR EGLL 131320Z 23007KT CAVOK 10/06 Q0994 NOSIG=
201011131250 METAR COR EGLL 131250Z 23007KT 190V260 CAVOK 10/07 Q0994
                        NOSIG=
201011131220 METAR COR EGLL 131220Z 24008KT 9999 FEW012 10/07 Q0994 NOSIG=
201011131150 METAR COR EGLL 131150Z 24008KT CAVOK 10/07 Q0995 NOSIG=
201011131120 METAR COR EGLL 131120Z 24009KT CAVOK 10/07 Q0995 NOSIG=
201011131050 METAR COR EGLL 131050Z 22008KT 200V260 CAVOK 10/07 Q0995
                        NOSIG=
201011131020 METAR COR EGLL 131020Z 22008KT 200V260 CAVOK 09/07 Q0995
                        NOSIG=
201011130950 METAR COR EGLL 130950Z 24009KT CAVOK 09/07 Q0995 NOSIG=
201011130920 METAR COR EGLL 130920Z 24010KT 9999 FEW045 09/07 Q0995 NOSIG=
201011130850 METAR COR EGLL 130850Z 25010KT 9999 FEW045 09/07 Q0994 NOSIG=
201011130820 METAR COR EGLL 130820Z 24012KT 9999 SCT045 09/07 Q0994 NOSIG=
201011130750 METAR COR EGLL 130750Z 23010KT 200V270 9999 SCT043 09/07
                        Q0994 NOSIG=
201011130720 METAR COR EGLL 130720Z 23011KT 9999 FEW036 09/07 Q0994 NOSIG=
201011130650 METAR COR EGLL 130650Z 23010KT 200V270 9999 FEW031 09/07
                        Q0993 NOSIG=
201011130620 METAR COR EGLL 130620Z 22007KT 200V260 9999 FEW018 09/07
                        Q0994 NOSIG=
201011130550 METAR COR EGLL 130550Z 23008KT 9999 FEW022 09/07 Q0994 NOSIG=
201011130520 METAR COR EGLL 130520Z 25008KT 9999 FEW023 09/07 Q0993 NOSIG=
201011130450 METAR COR EGLL 130450Z 23007KT 9999 FEW023 09/07 Q0993 NOSIG=
201011130420 METAR COR EGLL 130420Z 22007KT 9999 FEW026 10/08 Q0993 NOSIG=
201011130350 METAR COR EGLL 130350Z 22008KT CAVOK 10/08 Q0993 NOSIG=
201011130320 METAR COR EGLL 130320Z 23009KT CAVOK 10/08 Q0993 NOSIG=
201011130250 METAR COR EGLL 130250Z 24008KT 9999 FEW014 10/08 Q0993 NOSIG=
201011130220 METAR COR EGLL 130220Z 25008KT 9999 FEW011 SCT027 10/08 Q0993
                        NOSIG=
201011130150 METAR COR EGLL 130150Z 24007KT 9999 FEW012 SCT026 10/09 Q0993
                        NOSIG=
201011130120 METAR COR EGLL 130120Z 25007KT 9999 SCT017 SCT023 10/08 Q0993
                        NOSIG=
201011130050 METAR COR EGLL 130050Z 26006KT 9999 SCT027 09/08 Q0993 NOSIG=
201011130020 METAR COR EGLL 130020Z 29006KT 9999 SCT021 09/08 Q0993 NOSIG=
201011122350 METAR COR EGLL 122350Z 27005KT 7000 BKN019 09/08 Q0993 NOSIG=
201011122320 METAR COR EGLL 122320Z 28006KT 7000 FEW007 BKN025 10/09 Q0992
                        NOSIG=
201011122250 METAR COR EGLL 122250Z 29006KT 7000 SCT007 SCT010 BKN019
                        11/09 Q0992 NOSIG=
201011122220 METAR COR EGLL 122220Z 25009KT 210V280 9999 FEW006 SCT009
                        BKN012 10/09 Q0992 BECMG SCT012=
201011122150 METAR COR EGLL 122150Z 26009KT 9999 BKN006 10/09 Q0992 BECMG
                        SCT006 SCT028=
201011122120 METAR COR EGLL 122120Z 28007KT 9999 BKN006 10/09 Q0992 BECMG
                        SCT006 SCT028=
201011122050 METAR COR EGLL 122050Z 28006KT 9999 SCT007 10/09 Q0992 NOSIG=
201011122020 METAR COR EGLL 122020Z 29006KT 9000 -RA BKN006 10/09 Q0992
                        BECMG SCT006 SCT028=
201011121950 METAR COR EGLL 121950Z 28005KT 7000 -RA BKN006 10/09 Q0992
                        RERA TEMPO 3000 DZ=
201011121920 METAR COR EGLL 121920Z VRB03KT 9999 BKN006 BKN010 10/09 Q0992
                        BECMG SCT006=
201011121850 METAR COR EGLL 121850Z 32004KT 9999 SCT006 SCT010 10/09 Q0992
                        TEMPO -RADZ BKN012=
201011121820 METAR COR EGLL 121820Z 29005KT 9999 SCT028 11/10 Q0991 TEMPO
                        -RADZ BKN012=
201011121750 METAR COR EGLL 121750Z 25009KT 9999 FEW005 BKN028 11/10 Q0991
                        RERA REDZ TEMPO 4500 RADZ BKN009=
201011121720 METAR COR EGLL 121720Z 27005KT 230V300 2000 RADZ SCT003 BKN006
                        10/09 Q0991 NOSIG=
201011121650 METAR COR EGLL 121650Z 22005KT 140V260 3000 -RA FEW004 SCT006
                        BKN010 10/09 Q0992 TEMPO 6000 RA
                        BKN007=
201011121620 METAR COR EGLL 121620Z 23006KT 170V270 8000 -RA SCT006 BKN010
                        11/09 Q0992 NOSIG=
201011121550 METAR EGLL 121550Z 23006KT 190V260 8000 RA SCT008 BKN011
                        10/09 Q0992=
201011121520 METAR COR EGLL 121520Z 24009KT 9999 -RA SCT017 BKN022 11/08
                        Q0993 NOSIG=
201011121450 METAR COR EGLL 121450Z 24011KT 9999 -RA SCT020 SCT025 11/08
                        Q0993 BECMG BKN012=
201011121420 METAR COR EGLL 121420Z 24011KT 9999 -RA BKN029 11/08 Q0994
                        BECMG BKN012=
201011121350 METAR COR EGLL 121350Z 24012KT 9999 -RA SCT034 BKN040 11/08
                        Q0994 BECMG BKN012=
201011121320 METAR COR EGLL 121320Z 24014KT 9999 -RA SCT044 11/08 Q0994
                        NOSIG=
201011121250 METAR COR EGLL 121250Z 23015KT 9999 -RA FEW025 BKN049 11/07
                        Q0995 NOSIG=
201011121220 METAR COR EGLL 121220Z 25016KT 9999 FEW029 BKN045 12/07 Q0995
                        NOSIG=
201011121150 METAR COR EGLL 121150Z 25017KT 9999 FEW030 12/07 Q0995 NOSIG=
201011121120 METAR COR EGLL 121120Z 25020KT 9999 BKN029 12/06 Q0995 NOSIG=
201011121050 METAR COR EGLL 121050Z 25017KT 9999 SCT037 BKN043 12/06 Q0995
                        TEMPO 25017G27KT=
201011121020 METAR EGLL 121020Z 25019KT 9999 FEW033 11/06 Q0995=
201011120950 METAR COR EGLL 120950Z 25017KT 9999 FEW032 11/06 Q0995 NOSIG=
201011120920 METAR COR EGLL 120920Z 25016KT 9999 FEW029 SCT036 11/06 Q0995
                        TEMPO 25016G26KT=
201011120850 METAR COR EGLL 120850Z 25020KT 9999 VCSH SCT028 BKN035 11/06
                        Q0995 NOSIG=
201011120820 METAR COR EGLL 120820Z 25018G30KT 9999 FEW020 SCT032 10/06
                        Q0994 NOSIG=
201011120750 METAR COR EGLL 120750Z 25020KT 9999 R27L/1300 FEW028 BKN039
                        10/06 Q0994 NOSIG=
201011120720 METAR COR EGLL 120720Z 25018KT 9999 R27L/1400 FEW031 BKN041
                        11/06 Q0994 NOSIG=
201011120650 METAR COR EGLL 120650Z 25017KT 9999 FEW034 SCT040 11/06 Q0993
                        NOSIG=
201011120620 METAR COR EGLL 120620Z 25019KT 9999 FEW039 SCT046 10/06 Q0993
                        NOSIG=
201011120550 METAR COR EGLL 120550Z 25017KT 9999 FEW035 SCT045 11/06 Q0993
                        NOSIG=
201011120520 METAR COR EGLL 120520Z 25017KT 9999 FEW033 SCT043 11/06 Q0992
                        NOSIG=
201011120450 METAR COR EGLL 120450Z 25019KT 9999 FEW036 SCT046 11/06 Q0992
                        TEMPO 25025G35KT=
201011120420 METAR COR EGLL 120420Z 25022G34KT 9999 FEW039 SCT044 11/06
                        Q0991 NOSIG=
201011120350 METAR COR EGLL 120350Z 25021KT 9999 FEW045 10/06 Q0991 TEMPO
                        25025G35KT=
201011120320 METAR COR EGLL 120320Z 26022G33KT 9999 SCT045 10/06 Q0991
                        NOSIG=
201011120250 METAR COR EGLL 120250Z 25022KT 9999 FEW034 SCT046 11/06 Q0990
                        TEMPO 25025G35KT=
201011120220 METAR COR EGLL 120220Z 25021KT 9999 FEW034 SCT046 11/06 Q0990
                        TEMPO 25025G35KT=
201011120150 METAR COR EGLL 120150Z 25021KT 9999 FEW035 SCT046 11/06 Q0990
                        TEMPO 25025G35KT=
201011120120 METAR COR EGLL 120120Z 25023KT 9999 FEW035 11/06 Q0989 TEMPO
                        25028G38KT=
201011120050 METAR COR EGLL 120050Z 25026G37KT 9999 FEW036 SCT043 11/06
                        Q0989 NOSIG=
201011120020 METAR COR EGLL 120020Z 25023G34KT 9999 FEW034 11/06 Q0988
                        NOSIG=
201011112350 METAR COR EGLL 112350Z 25023KT 9999 FEW036 SCT046 11/06 Q0988
                        TEMPO 25025G38KT=
201011112320 METAR COR EGLL 112320Z 25022G34KT 9999 SCT049 11/06 Q0988
                        NOSIG=
201011112250 METAR COR EGLL 112250Z 25023G39KT 9999 FEW030 10/06 Q0988
                        NOSIG=
201011112220 METAR COR EGLL 112220Z 25023G35KT 9999 SCT035 SCT040 10/06
                        Q0987 TEMPO SHRA=
201011112150 METAR COR EGLL 112150Z 25024KT 9999 FEW034 SCT040 11/05 Q0987
                        TEMPO SHRA=
201011112120 METAR COR EGLL 112120Z 25025KT 9000 -SHRA FEW022 SCT040 10/06
                        Q0986 TEMPO SHRA=
201011112050 METAR EGLL 112050Z 25021G31KT 9999 SCT038 SCT044 10/06 Q0986
                        TEMPO SHRA=
201011112020 METAR COR EGLL 112020Z 25019G31KT 9999 FEW040 10/06 Q0986
                        TEMPO SHRA=
201011111950 METAR COR EGLL 111950Z 24021KT 9000 -SHRA FEW035 10/06 Q0986
                        TEMPO 25025G35KT SHRA=
201011111920 METAR COR EGLL 111920Z 25020G31KT 9999 FEW035 10/05 Q0986
                        TEMPO SHRA=
201011111850 METAR COR EGLL 111850Z 25019KT 9000 -SHRA FEW040 10/05 Q0986
                        TEMPO 25025G35KT SHRA=
201011111820 METAR COR EGLL 111820Z 25021G32KT 9999 FEW035 10/05 Q0986
                        NOSIG=
201011111750 METAR COR EGLL 111750Z 26022KT 9999 FEW035 10/05 Q0985 TEMPO
                        25025G35KT=
201011111720 METAR COR EGLL 111720Z 26024G35KT 9999 FEW035 10/05 Q0985
                        NOSIG=
201011111650 METAR COR EGLL 111650Z 26019KT 9999 SCT035CB 10/06 Q0985
                        TEMPO 25025G35KT SHRA=
201011111620 METAR COR EGLL 111620Z 26020KT 9999 VCSH FEW037CB 10/06 Q0984
                        TEMPO 26025G35KT SHRA=
201011111550 METAR COR EGLL 111550Z 27024KT 9999 R27L/1400 FEW024CB SCT037
                        10/07 Q0984 TEMPO 26026G38KT 3000
                        +SHRA=
201011111520 METAR COR EGLL 111520Z 27023G34KT 9999 VCSH FEW015CB SCT049
                        13/07 Q0983 TEMPO SHRA=
201011111450 METAR COR EGLL 111450Z 26027G38KT 9999 FEW045 14/07 Q0983
                        TEMPO SHRA=
201011111420 METAR COR EGLL 111420Z 26027KT 9999 FEW012CB 14/10 Q0982
                        TEMPO SHRA=
201011111350 METAR COR EGLL 111350Z 26022KT 9999 FEW020 13/11 Q0982 TEMPO
                        26023G35KT SHRA=
201011111320 METAR COR EGLL 111320Z 27023KT 9000 -RA FEW012 BKN018 12/11
                        Q0983 REDZ TEMPO 27025G35KT 3500
                        +RA BKN012=
201011111250 METAR COR EGLL 111250Z 23020KT 9999 VCSH SCT017 BKN023 14/12
                        Q0983 TEMPO RA BKN014=
201011111220 METAR COR EGLL 111220Z 23019G29KT 9999 FEW018 BKN023 14/12
                        Q0983 TEMPO RA=
201011111150 METAR COR EGLL 111150Z 22012KT 9999 FEW009 BKN014 14/12 Q0984
                        TEMPO 24018G28KT RA=
201011111120 METAR COR EGLL 111120Z 21013KT 9999 SCT008 BKN012 13/12 Q0985
                        TEMPO 24018G28KT RA=
201011111050 METAR COR EGLL 111050Z 21013KT 7000 -RADZ SCT007 BKN012 12/11
                        Q0985 TEMPO 22018G28KT=
201011111020 METAR COR EGLL 111020Z 20016KT 170V240 9999 -RA SCT009 BKN013
                        11/10 Q0986 TEMPO RA BKN009=
201011110950 METAR COR EGLL 110950Z 20015KT 5000 -RADZ SCT009 BKN013 11/09
                        Q0987 TEMPO 4500 RADZ BKN009=
201011110920 METAR COR EGLL 110920Z 20017KT 5000 -RA SCT009 BKN014 10/09
                        Q0988 TEMPO 4500 RADZ BKN009=
201011110850 METAR COR EGLL 110850Z 20018G28KT 7000 -RA BKN011 BKN021
                        10/08 Q0989 TEMPO RA=
201011110820 METAR COR EGLL 110820Z 20020KT 7000 -RA BKN012 BKN018 10/08
                        Q0990 TEMPO RA=
201011110750 METAR COR EGLL 110750Z 19020KT 9999 -RA BKN014 BKN019 10/08
                        Q0991 TEMPO RA=
201011110720 METAR COR EGLL 110720Z 19019KT 9999 -RA BKN014 BKN019 09/07
                        Q0992 TEMPO RA=
201011110650 METAR COR EGLL 110650Z 19018G28KT 9999 -RA SCT016 SCT025
                        09/07 Q0993 TEMPO RA BKN014=
201011110620 METAR COR EGLL 110620Z 19017KT 9999 -RA SCT016 BKN023 09/07
                        Q0994 TEMPO RA BKN014=
201011110550 METAR COR EGLL 110550Z 19014KT 9999 -RA FEW013 BKN022 08/07
                        Q0996 TEMPO RA BKN014=
201011110520 METAR COR EGLL 110520Z 18014KT 9999 -RA FEW027 SCT036 08/06
                        Q0997 TEMPO RA BKN014=
201011110450 METAR EGLL 110450Z 19012KT 9999 FEW036 08/06 Q0997=
201011110420 METAR COR EGLL 110420Z 17009KT 9999 FEW034 07/05 Q0998 NOSIG=
201011110350 METAR COR EGLL 110350Z 16009KT CAVOK 06/04 Q0999 NOSIG=
201011110320 METAR COR EGLL 110320Z 15007KT CAVOK 04/01 Q1000 NOSIG=
201011110250 METAR COR EGLL 110250Z 17005KT CAVOK 03/M01 Q1001 NOSIG=
201011110220 METAR COR EGLL 110220Z 16005KT CAVOK 03/M02 Q1002 NOSIG=
201011110150 METAR COR EGLL 110150Z 15006KT CAVOK 02/M02 Q1003 NOSIG=
201011110120 METAR COR EGLL 110120Z 18004KT 9999 FEW043 02/M02 Q1004 NOSIG=
201011110050 METAR COR EGLL 110050Z 17005KT 9999 FEW046 02/M02 Q1004 NOSIG=
201011110020 METAR COR EGLL 110020Z 18005KT 9999 SCT047 01/M02 Q1004 NOSIG=
201011102350 METAR COR EGLL 102350Z 20005KT 9999 FEW049 00/M02 Q1005 NOSIG=
201011102320 METAR EGLL 102320Z 20004KT CAVOK 01/M02 Q1005 NOSIG=
201011102250 METAR COR EGLL 102250Z 21006KT 170V250 CAVOK 02/M02 Q1005
                        NOSIG=
201011102220 METAR COR EGLL 102220Z 22005KT 180V260 CAVOK 02/M02 Q1005
                        NOSIG=
201011102150 METAR COR EGLL 102150Z 22006KT 190V260 CAVOK 02/M02 Q1005
                        NOSIG=
201011102120 METAR COR EGLL 102120Z 22006KT CAVOK 02/M02 Q1005 NOSIG=
201011102050 METAR COR EGLL 102050Z 22007KT 190V260 CAVOK 03/M02 Q1005
                        NOSIG=
201011102020 METAR COR EGLL 102020Z 22006KT 190V250 CAVOK 02/M02 Q1005
                        NOSIG=
201011101950 METAR COR EGLL 101950Z 23006KT 170V280 CAVOK 02/M02 Q1005
                        NOSIG=
201011101920 METAR COR EGLL 101920Z 28007KT CAVOK 01/M02 Q1005 NOSIG=
201011101850 METAR COR EGLL 101850Z 28007KT CAVOK 02/M02 Q1005 NOSIG=
201011101820 METAR COR EGLL 101820Z 28006KT CAVOK 02/M02 Q1004 NOSIG=
201011101750 METAR COR EGLL 101750Z 28006KT CAVOK 03/M02 Q1004 NOSIG=
201011101720 METAR COR EGLL 101720Z 29005KT CAVOK 05/M01 Q1004 NOSIG=
201011101650 METAR COR EGLL 101650Z 30004KT CAVOK 05/M02 Q1003 NOSIG=
201011101620 METAR COR EGLL 101620Z 30005KT CAVOK 06/M02 Q1003 NOSIG=
201011101550 METAR COR EGLL 101550Z 30007KT CAVOK 07/M01 Q1002 NOSIG=
201011101520 METAR COR EGLL 101520Z 31008KT 280V350 CAVOK 07/M02 Q1002
                        NOSIG=
201011101450 METAR COR EGLL 101450Z 32009KT 9999 FEW040 08/M02 Q1001 NOSIG=
201011101420 METAR COR EGLL 101420Z 32010KT 290V350 CAVOK 08/M02 Q1000
                        NOSIG=
201011101350 METAR COR EGLL 101350Z 33008KT 290V010 CAVOK 08/M02 Q1000
                        NOSIG=
201011101320 METAR COR EGLL 101320Z 32009KT 290V010 9999 FEW040 08/M02
                        Q1000 NOSIG=
201011101250 METAR COR EGLL 101250Z 34008KT 310V020 9999 FEW040 08/M02
                        Q1000 NOSIG=
201011101220 METAR COR EGLL 101220Z 34008KT 310V010 CAVOK 08/M01 Q0999
                        NOSIG=
201011101150 METAR COR EGLL 101150Z 33008KT 310V020 CAVOK 07/M02 Q0999
                        NOSIG=
201011101120 METAR COR EGLL 101120Z 34007KT 300V020 CAVOK 07/M01 Q0999
                        NOSIG=
201011101050 METAR COR EGLL 101050Z 35006KT 310V020 CAVOK 06/M01 Q0999
                        NOSIG=
201011101020 METAR COR EGLL 101020Z 33006KT 300V020 CAVOK 05/M01 Q0998
                        NOSIG=
201011100950 METAR COR EGLL 100950Z 33006KT 300V020 CAVOK 05/M02 Q0998
                        NOSIG=
201011100920 METAR EGLL 100920Z 33006KT 300V020 CAVOK 05/M01 Q0997=
201011100850 METAR EGLL 100850Z 33005KT 290V030 CAVOK 04/M01 Q0997=
201011100820 METAR COR EGLL 100820Z 31007KT CAVOK 03/M01 Q0996 NOSIG=
201011100750 METAR COR EGLL 100750Z 34004KT 300V020 9999 FEW030 03/M01
                        Q0996 NOSIG=
201011100720 METAR COR EGLL 100720Z 32006KT 280V350 CAVOK 03/M01 Q0995
                        NOSIG=
201011100650 METAR COR EGLL 100650Z 32007KT 290V350 CAVOK 03/M00 Q0994
                        NOSIG=
201011100620 METAR COR EGLL 100620Z 35006KT 310V020 CAVOK 03/00 Q0994
                        NOSIG=
201011100550 METAR COR EGLL 100550Z 33007KT CAVOK 03/01 Q0993 NOSIG=
201011100520 METAR EGLL 100520Z 35007KT 320V020 CAVOK 04/01 Q0993=
201011100450 METAR COR EGLL 100450Z 36009KT 9999 FEW016 04/01 Q0992 TEMPO
                        BKN014=
201011100420 METAR COR EGLL 100420Z 01009KT 340V040 9999 SCT015 05/02
                        Q0992 NOSIG=
201011100350 METAR COR EGLL 100350Z 01011KT 9999 BKN014 05/02 Q0991 NOSIG=
201011100320 METAR EGLL 100320Z 36011KT 330V040 9999 BKN014 05/02 Q0991=
201011100250 METAR COR EGLL 100250Z 36009KT 310V040 9999 SCT015 05/02
                        Q0990 NOSIG=
201011100220 METAR COR EGLL 100220Z 36010KT 9999 SCT016 05/02 Q0990 NOSIG=
201011100150 METAR COR EGLL 100150Z 36008KT 320V020 9999 FEW038 05/02
                        Q0990 NOSIG=
201011100120 METAR COR EGLL 100120Z 36008KT 320V030 9999 FEW028 05/02
                        Q0989 NOSIG=
201011100050 METAR EGLL 100050Z 36008KT CAVOK 05/02 Q0989=
201011100020 METAR COR EGLL 100020Z 36007KT 320V030 CAVOK 05/02 Q0989
                        NOSIG=
201011092350 METAR COR EGLL 092350Z 36009KT 340V040 CAVOK 05/02 Q0988
                        NOSIG=
201011092320 METAR COR EGLL 092320Z 36009KT CAVOK 05/02 Q0988 NOSIG=
201011092250 METAR COR EGLL 092250Z 36008KT 340V040 CAVOK 06/03 Q0987
                        NOSIG=
201011092220 METAR COR EGLL 092220Z 01010KT 330V030 CAVOK 06/03 Q0987
                        NOSIG=
201011092150 METAR COR EGLL 092150Z 01009KT 340V040 9999 FEW019 06/03
                        Q0986 NOSIG=
201011092120 METAR COR EGLL 092120Z 01009KT 9999 FEW046 06/03 Q0986 NOSIG=
201011092050 METAR EGLL 092050Z 01009KT 340V040 9999 FEW046 06/03 Q0986
                        NOSIG=
201011092020 METAR COR EGLL 092020Z 02009KT 340V050 CAVOK 06/03 Q0985
                        NOSIG=
201011091950 METAR COR EGLL 091950Z 02008KT 340V050 9999 FEW019 06/03
                        Q0985 NOSIG=
201011091920 METAR EGLL 091920Z 03010KT 350V060 9999 FEW019 06/03 Q0984=
201011091850 METAR COR EGLL 091850Z 03009KT 340V070 CAVOK 06/03 Q0984
                        NOSIG=
201011091820 METAR COR EGLL 091820Z 02008KT 340V050 9999 FEW048 07/03
                        Q0983 NOSIG=
201011091750 METAR COR EGLL 091750Z 01009KT 340V050 9999 FEW022 SCT049
                        07/03 Q0983 NOSIG=
201011091720 METAR COR EGLL 091720Z 03009KT 340V060 9999 FEW023 SCT036
                        07/03 Q0982 NOSIG=
201011091650 METAR COR EGLL 091650Z 04009KT 360V070 9999 FEW024 SCT034
                        08/04 Q0982 NOSIG=
201011091620 METAR COR EGLL 091620Z 04010KT 010V080 9999 FEW025 SCT035
                        08/04 Q0981 NOSIG=
201011091550 METAR EGLL 091550Z 05012KT 9999 FEW020 08/04 Q0980 NOSIG=
201011091520 METAR COR EGLL 091520Z 05009KT 350V070 9999 SCT022 BKN028
                        08/05 Q0980 NOSIG=
201011091450 METAR COR EGLL 091450Z 04009KT 010V090 9999 SCT023 BKN029
                        08/05 Q0979 NOSIG=
201011091420 METAR COR EGLL 091420Z 05012KT 9999 FEW014 BKN020 09/05 Q0979
                        TEMPO RA BKN014=
201011091350 METAR COR EGLL 091350Z 05011KT 9999 FEW011 BKN014 09/06 Q0978
                        TEMPO RA=
201011091320 METAR COR EGLL 091320Z 05011KT 9999 FEW011 BKN013 08/06 Q0978
                        TEMPO RA=
201011091250 METAR COR EGLL 091250Z 05010KT 010V090 9000 -RA SCT014 SCT020
                        BKN032 08/06 Q0977 TEMPO RA BKN014=
201011091220 METAR COR EGLL 091220Z 06011KT 9999 -RA FEW010 SCT013 BKN031
                        08/06 Q0977 TEMPO RA BKN010=
201011091150 METAR COR EGLL 091150Z 06011KT 020V080 9999 BKN011 08/06
                        Q0977 TEMPO SHRA=
201011091120 METAR COR EGLL 091120Z 06010KT 8000 -RA FEW009 BKN012 08/06
                        Q0976 TEMPO SHRA=
201011091050 METAR COR EGLL 091050Z 05010KT 9999 -RA BKN010 BKN015 08/06
                        Q0976 TEMPO SHRA=
201011091020 METAR COR EGLL 091020Z 06010KT 360V090 9999 BKN010 08/06
                        Q0975 BECMG SCT010 BKN020=
201011090950 METAR COR EGLL 090950Z 06010KT 9999 SCT010 BKN014 08/06 Q0974
                        BECMG SCT014 BKN020=
201011090920 METAR COR EGLL 090920Z 06010KT 9000 SCT010 SCT018 BKN025
                        08/07 Q0974 TEMPO BKN010=
201011090850 METAR COR EGLL 090850Z 06009KT 8000 FEW009 SCT019 BKN025
                        08/07 Q0973 TEMPO BKN010=
201011090820 METAR COR EGLL 090820Z 07011KT 9999 7000NE SCT010 BKN017
                        08/06 Q0973 TEMPO BKN010=
201011090750 METAR COR EGLL 090750Z 06010KT 9999 7000NE FEW010 BKN016
                        08/07 Q0972 TEMPO BKN010=
201011090720 METAR COR EGLL 090720Z 07008KT 9999 FEW011 BKN017 08/06 Q0972
                        TEMPO BKN014=
201011090650 METAR COR EGLL 090650Z 08008KT 9999 -RA BKN016 08/06 Q0971
                        TEMPO BKN014=
201011090620 METAR COR EGLL 090620Z 08013KT 9999 -RA SCT014 SCT018 08/06
                        Q0970 TEMPO BKN014=
201011090550 METAR COR EGLL 090550Z 07009KT 9999 -RA SCT014 BKN025 08/06
                        Q0970 TEMPO BKN012=
201011090520 METAR COR EGLL 090520Z 07010KT 9999 -RA BKN009 BKN023 08/06
                        Q0970 TEMPO BKN012=
201011090450 METAR COR EGLL 090450Z 07010KT 9000 -RA FEW008 BKN009 OVC011
                        08/06 Q0969 NOSIG=
201011090420 METAR COR EGLL 090420Z 07010KT 9000 -RA FEW009 BKN011 07/06
                        Q0969 TEMPO RA=
201011090350 METAR COR EGLL 090350Z 06011KT 9999 -RA BKN011 07/05 Q0968
                        TEMPO RA=
201011090320 METAR EGLL 090320Z 06010KT 9999 -RA BKN010 07/05 Q0968=
201011090250 METAR COR EGLL 090250Z 07009KT 8000 RA BKN010 07/05 Q0968
                        TEMPO -RA=
201011090220 METAR COR EGLL 090220Z 07010KT 9999 -RA BKN010 07/05 Q0968
                        NOSIG=
201011090150 METAR EGLL 090150Z 07008KT 9999 -RA BKN011 06/04 Q0968=
201011090120 METAR EGLL 090120Z 07009KT 9999 -DZ BKN009 06/04 Q0968=
201011090050 METAR EGLL 090050Z 07009KT 9999 BKN007 06/05 Q0968=
201011090020 METAR EGLL 090020Z 08010KT 9999 BKN007 06/05 Q0968=
201011082350 METAR COR EGLL 082350Z 08010KT 9999 BKN007 06/05 Q0968 NOSIG=
201011082320 METAR EGLL 082320Z 09010KT 9999 BKN007 07/05 Q0968=
201011082250 METAR COR EGLL 082250Z 08009KT 9999 OVC008 07/05 Q0968 NOSIG=
201011082220 METAR COR EGLL 082220Z 09012KT 9999 BKN008 07/05 Q0968 NOSIG=
201011082150 METAR COR EGLL 082150Z 09011KT 9999 SCT008 07/05 Q0967 TEMPO
                        BKN008=
201011082120 METAR COR EGLL 082120Z 10010KT 9999 BKN008 07/06 Q0968 NOSIG=
201011082050 METAR COR EGLL 082050Z 10008KT 9999 BKN007 07/06 Q0968 NOSIG=
201011082020 METAR COR EGLL 082020Z 09010KT 9999 BKN009 07/05 Q0967 NOSIG=
201011081950 METAR COR EGLL 081950Z 09009KT 9999 SCT008 SCT044 07/06 Q0967
                        NOSIG=
201011081920 METAR COR EGLL 081920Z 09008KT 9999 SCT008 SCT034 07/05 Q0967
                        TEMPO BKN012=
201011081850 METAR COR EGLL 081850Z 10008KT 9999 FEW012 SCT031 BKN044
                        07/06 Q0967 TEMPO BKN012=
201011081820 METAR COR EGLL 081820Z 12008KT 9999 FEW011 SCT033 BKN043
                        07/06 Q0967 NOSIG=
201011081750 METAR COR EGLL 081750Z 12009KT 9999 FEW033 BKN044 07/06 Q0967
                        NOSIG=
201011081720 METAR COR EGLL 081720Z 11006KT 080V150 9999 BKN042 08/06
                        Q0966 NOSIG=
201011081650 METAR COR EGLL 081650Z 12006KT 090V230 9999 FEW034 BKN042
                        09/06 Q0966 NOSIG=
201011081620 METAR EGLL 081620Z 22006KT 190V280 9999 FEW021 SCT034 09/05
                        Q0966=
201011081550 METAR COR EGLL 081550Z 21007KT 9999 FEW034 SCT041 09/05 Q0966
                        NOSIG=
201011081520 METAR COR EGLL 081520Z 15008KT 9999 FEW026 SCT036 09/06 Q0965
                        NOSIG=
201011081450 METAR COR EGLL 081450Z 15009KT 9999 FEW009 SCT018 BKN030
                        08/06 Q0965 NOSIG=
201011081420 METAR COR EGLL 081420Z 13012KT 9999 FEW010 SCT017 BKN025
                        08/06 Q0965 NOSIG=
201011081350 METAR COR EGLL 081350Z 13012KT 9999 FEW009 BKN015 07/05 Q0965
                        TEMPO BKN012=
201011081320 METAR COR EGLL 081320Z 13015KT 9999 -RA BKN010 07/05 Q0966
                        TEMPO BKN015=
201011081250 METAR COR EGLL 081250Z 12016KT 9999 FEW011 BKN015 07/04 Q0966
                        TEMPO RA BKN011=
201011081220 METAR COR EGLL 081220Z 12019KT 9999 7000NE -RA SCT011 BKN014
                        06/04 Q0966 TEMPO RA=
201011081150 METAR COR EGLL 081150Z 12020KT 9999 BKN013 06/04 Q0967 TEMPO
                        RA=
201011081120 METAR COR EGLL 081120Z 12020KT 9999 -RA SCT014 BKN020 06/04
                        Q0968 NOSIG=
201011081050 METAR COR EGLL 081050Z 12017KT 9999 -RA SCT012 BKN015 06/04
                        Q0968 TEMPO 12017G27KT RA BKN012=
201011081020 METAR COR EGLL 081020Z 12016KT 9999 -RA SCT013 BKN016 06/03
                        Q0969 TEMPO 12016G26KT RA BKN012=
201011080950 METAR COR EGLL 080950Z 13017KT 9999 -RA BKN015 06/03 Q0970
                        TEMPO 13017G27KT RA BKN012=
201011080920 METAR COR EGLL 080920Z 13019KT 9999 -RA BKN013 06/04 Q0971
                        TEMPO 13019G29KT RA=
201011080850 METAR COR EGLL 080850Z 14016G26KT 9999 -RA BKN015 06/04 Q0972
                        TEMPO RA BKN012=
201011080820 METAR COR EGLL 080820Z 14016KT 9999 -RA BKN016 06/04 Q0972
                        TEMPO RA BKN012=
201011080750 METAR COR EGLL 080750Z 15015KT 9999 -RA FEW015 BKN017 06/04
                        Q0973 NOSIG=
201011080720 METAR COR EGLL 080720Z 15016KT 9999 -RA FEW017 BKN024 06/04
                        Q0974 TEMPO 16018G30KT RA BKN014=
201011080650 METAR COR EGLL 080650Z 16015KT 9999 -RA BKN025 07/03 Q0974
                        TEMPO 16018G30KT RA BKN014=
201011080620 METAR COR EGLL 080620Z 16016KT 9999 -RA SCT030 SCT040 07/03
                        Q0975 TEMPO 16018G30KT RA BKN014=
201011080550 METAR COR EGLL 080550Z 15012KT 9999 FEW030 07/04 Q0976 BECMG
                        RA=
201011080520 METAR COR EGLL 080520Z 13011KT CAVOK 06/04 Q0977 NOSIG=
201011080450 METAR EGLL 080450Z 14013KT 9999 FEW025 06/04 Q0978=
201011080420 METAR COR EGLL 080420Z 13012KT 9999 -RA FEW025 06/03 Q0980
                        NOSIG=
201011080350 METAR COR EGLL 080350Z 13012KT CAVOK 06/03 Q0981 NOSIG=
201011080320 METAR COR EGLL 080320Z 13010KT CAVOK 05/03 Q0983 NOSIG=
201011080250 METAR COR EGLL 080250Z 13009KT CAVOK 05/03 Q0984 NOSIG=
201011080220 METAR COR EGLL 080220Z 14009KT 9999 FEW025 SCT032 05/03 Q0986
                        NOSIG=
201011080150 METAR COR EGLL 080150Z 14009KT 9999 FEW030 SCT049 05/03 Q0987
                        NOSIG=
201011080120 METAR COR EGLL 080120Z 14008KT 9999 FEW040 BKN049 05/03 Q0989
                        NOSIG=
201011080050 METAR COR EGLL 080050Z 14008KT 9999 BKN037 05/03 Q0990 NOSIG=
201011080020 METAR COR EGLL 080020Z VRB04KT 9999 FEW042 05/03 Q0992 NOSIG=
201011072350 METAR COR EGLL 072350Z 17004KT CAVOK 05/03 Q0993 NOSIG=
201011072320 METAR COR EGLL 072320Z 14005KT CAVOK 05/03 Q0994 NOSIG=
201011072250 METAR COR EGLL 072250Z 18006KT 9000 NSC 05/03 Q0995 NOSIG=
201011072220 METAR EGLL 072220Z 21005KT 9000 NSC 06/03 Q0997=
201011072150 METAR COR EGLL 072150Z 21005KT 170V230 9000 NSC 06/03 Q0998
                        NOSIG=
201011072120 METAR COR EGLL 072120Z 17005KT CAVOK 06/03 Q0999 NOSIG=
201011072050 METAR COR EGLL 072050Z 14005KT 9999 FEW042 06/03 Q0999 NOSIG=
201011072020 METAR COR EGLL 072020Z 11002KT 9999 FEW037 05/03 Q1000 NOSIG=
201011071950 METAR COR EGLL 071950Z 10002KT 9999 FEW037 05/03 Q1001 NOSIG=
201011071920 METAR COR EGLL 071920Z VRB03KT 9999 FEW037 06/03 Q1002 NOSIG=
201011071850 METAR COR EGLL 071850Z 04003KT 9999 SCT035 07/03 Q1002 NOSIG=
201011071820 METAR COR EGLL 071820Z 35002KT 9999 SCT034 07/03 Q1003 NOSIG=
201011071750 METAR COR EGLL 071750Z VRB02KT 9999 SCT033 07/03 Q1004 NOSIG=
201011071720 METAR COR EGLL 071720Z VRB03KT 9999 FEW038 06/03 Q1005 NOSIG=
201011071650 METAR COR EGLL 071650Z VRB03KT 9999 FEW048 07/03 Q1005 NOSIG=
201011071620 METAR COR EGLL 071620Z 35004KT 9999 FEW037 08/03 Q1005 NOSIG=
201011071550 METAR COR EGLL 071550Z 36004KT 320V030 9999 SCT037 08/03
                        Q1005 NOSIG=
201011071520 METAR COR EGLL 071520Z 03004KT 330V060 9999 SCT039 09/03
                        Q1006 NOSIG=
201011071450 METAR COR EGLL 071450Z 04006KT 360V080 9999 FEW029 BKN044
                        09/03 Q1006 NOSIG=
201011071420 METAR COR EGLL 071420Z 03007KT 330V070 9999 FEW023 SCT045
                        09/03 Q1006 NOSIG=
201011071350 METAR COR EGLL 071350Z 04007KT 350V080 9999 SCT032 09/03
                        Q1006 NOSIG=
201011071320 METAR COR EGLL 071320Z 04007KT 360V080 9999 FEW037 SCT042
                        08/03 Q1007 NOSIG=
201011071250 METAR COR EGLL 071250Z 02007KT 350V060 9999 FEW023 SCT034
                        09/03 Q1007 NOSIG=
201011071220 METAR COR EGLL 071220Z 04007KT 340V080 9999 FEW024 SCT039
                        08/03 Q1008 NOSIG=
201011071150 METAR COR EGLL 071150Z 02005KT 320V070 9999 FEW018 SCT042
                        08/04 Q1008 NOSIG=
201011071120 METAR EGLL 071120Z 02005KT 340V060 9999 FEW047 07/03 Q1009=
201011071050 METAR COR EGLL 071050Z 36005KT 310V030 9999 FEW047 06/03
                        Q1009 NOSIG=
201011071020 METAR COR EGLL 071020Z 36005KT 320V040 CAVOK 05/03 Q1009
                        NOSIG=
201011070950 METAR COR EGLL 070950Z 36006KT CAVOK 05/03 Q1009 NOSIG=
201011070920 METAR COR EGLL 070920Z 36006KT 320V030 9000 NSC 05/02 Q1009
                        NOSIG=
201011070850 METAR COR EGLL 070850Z 01007KT 330V050 8000 NSC 05/02 Q1009
                        NOSIG=
201011070820 METAR COR EGLL 070820Z 36005KT 310V030 7000 NSC 05/03 Q1009
                        NOSIG=
201011070750 METAR COR EGLL 070750Z 36005KT 6000 NSC 05/03 Q1009 NOSIG=
201011070720 METAR COR EGLL 070720Z 36005KT 5000 BR NSC 05/03 Q1008 NOSIG=
201011070650 METAR COR EGLL 070650Z 36005KT 320V030 5000 BR NSC 05/03
                        Q1008 NOSIG=
201011070620 METAR COR EGLL 070620Z 36004KT 6000 FEW010 05/04 Q1008 NOSIG=
201011070550 METAR COR EGLL 070550Z 36005KT 4800 HZ FEW010 05/04 Q1008
                        BECMG 8000 NSW=
201011070520 METAR COR EGLL 070520Z 32004KT 290V360 3900 HZ FEW010 05/03
                        Q1008 BECMG 7000 NSW=
201011070450 METAR COR EGLL 070450Z 32005KT 3400 HZ NSC 05/03 Q1008 BECMG
                        6000 NSW=
201011070420 METAR COR EGLL 070420Z 35004KT 310V020 3700 HZ FEW040 05/03
                        Q1008 BECMG 6000 NSW=
201011070350 METAR COR EGLL 070350Z 36004KT 4300 HZ FEW043 05/03 Q1008
                        BECMG 6000 NSW=
201011070320 METAR EGLL 070320Z 04004KT 5000 HZ FEW030 05/03 Q1008=
201011070250 METAR COR EGLL 070250Z 04004KT 6000 NSC 05/03 Q1008 NOSIG=
201011070220 METAR COR EGLL 070220Z 01003KT 6000 NSC 05/03 Q1009 NOSIG=
201011070150 METAR COR EGLL 070150Z 02003KT 6000 NSC 05/04 Q1009 NOSIG=
201011070120 METAR COR EGLL 070120Z 02004KT 5000 FU NSC 05/04 Q1009 TEMPO
                        4500=
201011070050 METAR COR EGLL 070050Z 00000KT 5000 FU NSC 05/03 Q1010 TEMPO
                        4500=
201011070020 METAR COR EGLL 070020Z 30002KT 5000 FU NSC 05/03 Q1010 TEMPO
                        4500=
201011062350 METAR COR EGLL 062350Z 36002KT 6000 NSC 04/03 Q1010 TEMPO
                        4500 FU=
201011062320 METAR COR EGLL 062320Z 00000KT 7000 NSC 05/03 Q1010 TEMPO
                        4500 FU=
201011062250 METAR COR EGLL 062250Z 01003KT 7000 NSC 06/04 Q1011 TEMPO
                        4500 FU=
201011062220 METAR EGLL 062220Z 33002KT 7000 NSC 07/04 Q1011=
201011062150 METAR COR EGLL 062150Z VRB02KT 6000 NSC 07/04 Q1012 TEMPO
                        SHRA=
201011062120 METAR COR EGLL 062120Z 31002KT 7000 NSC 07/04 Q1012 NOSIG=
201011062050 METAR COR EGLL 062050Z 32003KT 9000 NSC 07/04 Q1012 NOSIG=
201011062020 METAR COR EGLL 062020Z 32003KT CAVOK 07/04 Q1012 NOSIG=
201011061950 METAR COR EGLL 061950Z 30003KT CAVOK 07/04 Q1013 NOSIG=
201011061920 METAR COR EGLL 061920Z VRB03KT CAVOK 07/04 Q1013 NOSIG=
201011061850 METAR COR EGLL 061850Z 05003KT CAVOK 09/05 Q1013 NOSIG=
201011061820 METAR COR EGLL 061820Z VRB02KT CAVOK 09/05 Q1013 NOSIG=
201011061750 METAR COR EGLL 061750Z 31003KT CAVOK 09/05 Q1014 NOSIG=
201011061720 METAR EGLL 061720Z VRB02KT CAVOK 09/05 Q1014=
201011061650 METAR EGLL 061650Z VRB03KT CAVOK 10/04 Q1014 NOSIG=
201011061620 METAR EGLL 061620Z VRB03KT CAVOK 10/04 Q1014=
201011061550 METAR COR EGLL 061550Z 35004KT 310V030 CAVOK 10/04 Q1014
                        NOSIG=
201011061520 METAR COR EGLL 061520Z 32005KT 300V360 9999 FEW025 SCT048
                        10/04 Q1015 NOSIG=
201011061450 METAR COR EGLL 061450Z 36005KT 9999 VCSH FEW025 SCT035 11/05
                        Q1015 NOSIG=
201011061420 METAR COR EGLL 061420Z 33005KT 290V010 9999 FEW027 SCT038
                        11/05 Q1015 NOSIG=
201011061350 METAR COR EGLL 061350Z 31005KT 270V360 9999 FEW028 BKN043
                        11/05 Q1016 NOSIG=
201011061320 METAR COR EGLL 061320Z 31007KT 9999 FEW043 SCT049 11/05 Q1016
                        NOSIG=
201011061250 METAR COR EGLL 061250Z 31006KT 270V360 9999 FEW026 11/05
                        Q1016 NOSIG=
201011061220 METAR COR EGLL 061220Z 31006KT 280V340 9999 FEW027 12/06
                        Q1017 NOSIG=
201011061150 METAR COR EGLL 061150Z 31006KT 270V330 CAVOK 11/05 Q1017
                        NOSIG=
201011061120 METAR COR EGLL 061120Z 31005KT 280V350 9999 BKN045 11/05
                        Q1017 NOSIG=
201011061050 METAR COR EGLL 061050Z 31005KT 270V010 9999 SCT047 11/07
                        Q1018 NOSIG=
201011061020 METAR COR EGLL 061020Z 30005KT 9999 FEW035 BKN043 10/07 Q1018
                        NOSIG=
201011060950 METAR COR EGLL 060950Z 28006KT 9999 FEW037 SCT047 10/07 Q1018
                        NOSIG=
201011060920 METAR COR EGLL 060920Z 29007KT 9999 FEW044 09/08 Q1018 NOSIG=
201011060850 METAR COR EGLL 060850Z 27007KT 8000 NSC 09/08 Q1018=
201011060820 METAR COR EGLL 060820Z 28007KT 7000 NSC 09/07 Q1018 NOSIG=
201011060750 METAR COR EGLL 060750Z 28007KT CAVOK 08/07 Q1018 NOSIG=
201011060720 METAR COR EGLL 060720Z 28008KT CAVOK 07/06 Q1017 NOSIG=
201011060650 METAR COR EGLL 060650Z 28008KT CAVOK 07/07 Q1017 NOSIG=
201011060620 METAR COR EGLL 060620Z 27007KT CAVOK 08/07 Q1017 NOSIG=
201011060550 METAR COR EGLL 060550Z 27006KT CAVOK 08/07 Q1017 NOSIG=
201011060520 METAR COR EGLL 060520Z 27008KT CAVOK 09/07 Q1017 NOSIG=
201011060450 METAR COR EGLL 060450Z 27008KT CAVOK 09/08 Q1017 NOSIG=
201011060420 METAR COR EGLL 060420Z 27008KT CAVOK 09/08 Q1017 NOSIG=
201011060350 METAR COR EGLL 060350Z 27006KT 9000 NSC 09/08 Q1017 NOSIG=
201011060320 METAR COR EGLL 060320Z 26007KT 9999 FEW010 09/08 Q1017 NOSIG=
201011060250 METAR COR EGLL 060250Z 27006KT 9999 FEW009 09/08 Q1017 NOSIG=
201011060220 METAR COR EGLL 060220Z 28006KT 9999 FEW010 09/08 Q1017 NOSIG=
201011060150 METAR COR EGLL 060150Z 28005KT 9999 -RA FEW010 SCT038 09/08
                        Q1017 NOSIG=
201011060120 METAR COR EGLL 060120Z 32004KT 290V350 9999 -RA SCT031 09/08
                        Q1017 NOSIG=
201011060050 METAR COR EGLL 060050Z VRB03KT 9999 -RA FEW048 09/08 Q1017
                        NOSIG=
201011060020 METAR COR EGLL 060020Z VRB03KT 9000 RA FEW004 SCT045 09/08
                        Q1017 TEMPO BKN010=
201011052350 METAR COR EGLL 052350Z VRB03KT 6000 RA BKN004 09/08 Q1017
                        TEMPO 4000 RA=
201011052320 METAR COR EGLL 052320Z 31003KT 3000 RA SCT003 SCT021 10/09
                        Q1017 TEMPO BKN004=
201011052250 METAR COR EGLL 052250Z VRB03KT 3000 RA FEW003 SCT028 BKN035
                        10/09 Q1017 TEMPO BKN010=
201011052220 METAR COR EGLL 052220Z 35005KT 320V030 4500 RA FEW005 SCT016
                        BKN028 10/09 Q1017 RERA BECMG BKN011=
201011052150 METAR COR EGLL 052150Z 36006KT 6000 -RA FEW005 SCT016 BKN020
                        10/08 Q1017 TEMPO 4000 RA BKN010=
201011052120 METAR EGLL 052120Z 34009KT 290V060 4000 -RADZ FEW009 SCT018CB
                        BKN042CB 13/11 Q1016 TEMPO BKN014=
201011052050 METAR COR EGLL 052050Z 24014KT 9999 FEW020 SCT035 15/12 Q1016
                        TEMPO 4000 RA BKN010=
201011052020 METAR COR EGLL 052020Z 23014KT 9999 SCT013 15/13 Q1016 BECMG
                        BKN014=
201011051950 METAR COR EGLL 051950Z 23014KT 9999 FEW016 15/13 Q1016 TEMPO
                        BKN014=
201011051920 METAR EGLL 051920Z 22013KT 9999 FEW016 15/13 Q1017=
201011051850 METAR COR EGLL 051850Z 24012KT 9999 FEW014 15/13 Q1017 TEMPO
                        BKN013=
201011051820 METAR COR EGLL 051820Z 25013KT 9999 SCT015 SCT024 15/13 Q1018
                        TEMPO BKN013=
201011051750 METAR COR EGLL 051750Z 26018KT 9000 RA SCT022 BKN032 15/13
                        Q1017 TEMPO BKN013=
201011051720 METAR COR EGLL 051720Z 25014KT 7000 RA SCT009 BKN016 15/14
                        Q1017 TEMPO BKN012=
201011051650 METAR EGLL 051650Z 25012KT 9999 FEW007 SCT010 BKN023 15/14
                        Q1017 RERA=
201011051620 METAR EGLL 051620Z 24014KT 3800 -RA SCT010 SCT015 BKN022
                        16/14 Q1017=
201011051550 METAR COR EGLL 051550Z 23016KT 8000 SCT013 BKN024 17/14 Q1017
                        NOSIG=
201011051520 METAR COR EGLL 051520Z 23015KT 9999 SCT013 BKN024 17/14 Q1017
                        NOSIG=
201011051450 METAR COR EGLL 051450Z 23015KT 9999 BKN014 17/14 Q1018 BECMG
                        BKN016=
201011051420 METAR COR EGLL 051420Z 24015KT 9999 SCT014 BKN018 17/14 Q1018
                        TEMPO BKN010=
201011051350 METAR COR EGLL 051350Z 24014KT 9999 OVC010 16/14 Q1018 BECMG
                        SCT012 BKN020=
201011051320 METAR COR EGLL 051320Z 23010KT 200V260 9999 BKN008 16/14
                        Q1019 NOSIG=
201011051250 METAR COR EGLL 051250Z 25009KT 7000 BKN005 BKN009 15/14 Q1019
                        TEMPO 4500 -RADZ SCT010 BKN020=
201011051220 METAR COR EGLL 051220Z 26009KT 4500 -RA FEW006 BKN012 15/14
                        Q1020 BECMG 9999 NSW SCT012 BKN020=
201011051150 METAR COR EGLL 051150Z 25010KT 210V280 7000 BKN010 15/13
                        Q1020 TEMPO SCT010 BKN015=
201011051120 METAR EGLL 051120Z 25011KT 8000 -RA FEW018 BKN023 15/13 Q1021=
201011051050 METAR COR EGLL 051050Z 25013KT 9999 VCSH SCT015 BKN040 16/13
                        Q1021 TEMPO -DZ BKN013=
201011051020 METAR COR EGLL 051020Z 24012G22KT 9999 BKN015 16/13 Q1021
                        BECMG BKN012=
201011050950 METAR COR EGLL 050950Z 24011KT 200V270 9999 FEW020 SCT046
                        17/13 Q1020 TEMPO BKN014=
201011050920 METAR COR EGLL 050920Z 25010KT 210V270 9999 BKN040 16/13
                        Q1020 TEMPO BKN012=
201011050850 METAR COR EGLL 050850Z 24011KT 9999 SCT013 16/14 Q1020 TEMPO
                        BKN008=
201011050820 METAR COR EGLL 050820Z 25012KT 9999 BKN012 16/14 Q1020 TEMPO
                        BKN008=
201011050750 METAR COR EGLL 050750Z 26011KT 9999 BKN010 16/14 Q1020 TEMPO
                        7000 -DZ BKN008=
201011050720 METAR COR EGLL 050720Z 25012KT 9999 BKN010 BKN020 15/13 Q1020
                        NOSIG=
201011050650 METAR COR EGLL 050650Z 25012KT 9999 BKN010 15/13 Q1020 NOSIG=
201011050620 METAR COR EGLL 050620Z 25012KT 9999 BKN014 16/13 Q1019 TEMPO
                        BKN016=
201011050550 METAR COR EGLL 050550Z 25012KT 9999 BKN015 16/13 Q1019 BECMG
                        BKN014=
201011050520 METAR COR EGLL 050520Z 25014KT 9999 BKN015 16/13 Q1019 BECMG
                        BKN014=
201011050450 METAR COR EGLL 050450Z 24012KT 9999 BKN014 16/13 Q1019 NOSIG=
201011050420 METAR COR EGLL 050420Z 25014KT 9999 BKN014 15/13 Q1019 NOSIG=
201011050350 METAR COR EGLL 050350Z 25016KT 9999 BKN017 16/13 Q1019 BECMG
                        BKN014=
201011050320 METAR COR EGLL 050320Z 24018KT 9999 BKN018 15/12 Q1018 BECMG
                        BKN014=
201011050250 METAR COR EGLL 050250Z 24016KT 9999 FEW015 BKN019 15/12 Q1018
                        BECMG BKN014=
201011050220 METAR COR EGLL 050220Z 24015KT 9999 BKN017 15/12 Q1019 BECMG
                        BKN014=
201011050150 METAR COR EGLL 050150Z 25017KT 9999 BKN017 15/12 Q1019 TEMPO
                        BKN014=
201011050120 METAR COR EGLL 050120Z 25017KT 9999 BKN018 15/12 Q1019 TEMPO
                        BKN014=
201011050050 METAR COR EGLL 050050Z 24016KT 9999 BKN019 15/12 Q1019 NOSIG=
201011050020 METAR EGLL 050020Z 25015KT 9999 BKN018 15/12 Q1019=
201011042350 METAR COR EGLL 042350Z 25018KT 9999 SCT019 BKN022 15/12 Q1019
                        NOSIG=
201011042320 METAR COR EGLL 042320Z 24019KT 9999 SCT018 BKN021 15/12 Q1019
                        NOSIG=
201011042250 METAR COR EGLL 042250Z 25017KT 9999 SCT018 BKN021 15/11 Q1019
                        TEMPO BKN014=
201011042220 METAR COR EGLL 042220Z 24017KT 9999 SCT018 BKN023 15/11 Q1019
                        TEMPO BKN014=
201011042150 METAR COR EGLL 042150Z 24015G28KT 9999 FEW017 BKN024 15/12
                        Q1019 TEMPO BKN014=
201011042120 METAR COR EGLL 042120Z 24014KT 9999 FEW016 SCT021 15/12 Q1019
                        TEMPO BKN014=
201011042050 METAR COR EGLL 042050Z 24014KT 9999 SCT016 BKN021 15/12 Q1019
                        TEMPO BKN014=
201011042020 METAR COR EGLL 042020Z 24014KT 9999 SCT018 BKN028 15/12 Q1019
                        NOSIG=
201011041950 METAR COR EGLL 041950Z 23014KT 9999 FEW019 BKN031 15/12 Q1019
                        TEMPO BKN014=
201011041920 METAR EGLL 041920Z 24016KT 9999 SCT016 BKN031 16/12 Q1019=
201011041850 METAR COR EGLL 041850Z 24015KT 9999 SCT015 BKN030 16/13 Q1019
                        TEMPO BKN014=
201011041820 METAR COR EGLL 041820Z 24016KT 9999 SCT015 BKN028 15/13 Q1019
                        TEMPO BKN014=
201011041750 METAR COR EGLL 041750Z 23015KT 9999 SCT014 BKN027 16/13 Q1019
                        TEMPO BKN014=
201011041720 METAR COR EGLL 041720Z 23014KT 9999 OVC015 16/13 Q1019 TEMPO
                        BKN014=
201011041650 METAR COR EGLL 041650Z 24015KT 9999 BKN015 16/13 Q1019 NOSIG=
201011041620 METAR EGLL 041620Z 24015KT 9999 FEW016 SCT019 16/13 Q1019=
201011041550 METAR COR EGLL 041550Z 24016KT 9999 FEW023 17/13 Q1018 NOSIG=
201011041520 METAR EGLL 041520Z 24019KT 9999 FEW023 17/13 Q1018=
201011041450 METAR COR EGLL 041450Z 25017KT 9999 FEW023 18/13 Q1018 NOSIG=
201011041420 METAR COR EGLL 041420Z 25018KT 9999 FEW020 18/13 Q1018 NOSIG=
201011041350 METAR COR EGLL 041350Z 25019KT 9999 FEW023 18/13 Q1018 NOSIG=
201011041320 METAR COR EGLL 041320Z 23016KT 9999 BKN024 18/13 Q1019 NOSIG=
201011041250 METAR COR EGLL 041250Z 24018KT 9999 BKN024 18/13 Q1018 NOSIG=
201011041220 METAR COR EGLL 041220Z 24020KT 9999 BKN024 18/12 Q1019 NOSIG=
201011041150 METAR COR EGLL 041150Z 24017KT 9999 FEW025 18/12 Q1018 NOSIG=
201011041120 METAR EGLL 041120Z 23018KT CAVOK 17/12 Q1019 NOSIG=
201011041050 METAR COR EGLL 041050Z 24017KT 9999 FEW025 17/12 Q1019 NOSIG=
201011041020 METAR EGLL 041020Z 24015KT 9999 FEW025 16/12 Q1019=
201011040950 METAR EGLL 040950Z 23017G27KT 9999 FEW025 17/12 Q1018=
201011040920 METAR COR EGLL 040920Z 24016KT 9999 FEW020 16/12 Q1018 NOSIG=
201011040850 METAR COR EGLL 040850Z 25014KT 9999 SCT021 16/12 Q1018 NOSIG=
201011040820 METAR COR EGLL 040820Z 24014KT 9999 SCT023 15/12 Q1018 NOSIG=
201011040750 METAR COR EGLL 040750Z 24015KT 9999 SCT025 16/12 Q1017 NOSIG=
201011040720 METAR COR EGLL 040720Z 24017KT 9999 FEW020 SCT045 15/11 Q1017
                        NOSIG=
201011040650 METAR COR EGLL 040650Z 24017KT 9999 FEW024 15/11 Q1017 NOSIG=
201011040620 METAR COR EGLL 040620Z 24016KT 9999 FEW022 15/11 Q1016 NOSIG=
201011040550 METAR COR EGLL 040550Z 24015KT 9999 FEW021 15/12 Q1016 NOSIG=
201011040520 METAR COR EGLL 040520Z 24016KT 9999 FEW020 SCT023 15/12 Q1016
                        NOSIG=
201011040450 METAR COR EGLL 040450Z 24017KT 9999 FEW023 15/12 Q1015 NOSIG=
201011040420 METAR EGLL 040420Z 24015KT 9999 SCT020 BKN025 16/12 Q1015=
201011040350 METAR COR EGLL 040350Z 24017KT 9999 SCT020 BKN025 16/12 Q1015
                        NOSIG=
201011040320 METAR COR EGLL 040320Z 24018KT 9999 SCT021 SCT029 16/12 Q1015
                        NOSIG=
201011040250 METAR COR EGLL 040250Z 25016KT 9999 FEW020 SCT025 16/12 Q1015
                        NOSIG=
201011040220 METAR COR EGLL 040220Z 25016KT 9999 FEW021 SCT033 16/12 Q1015
                        NOSIG=
201011040150 METAR COR EGLL 040150Z 24017KT 9999 SCT020 SCT027 16/13 Q1015
                        NOSIG=
201011040120 METAR COR EGLL 040120Z 24016KT 9999 SCT019 SCT030 16/13 Q1015
                        NOSIG=
201011040050 METAR COR EGLL 040050Z 24015KT 9999 SCT017 SCT023 16/13 Q1015
                        NOSIG=
201011040020 METAR COR EGLL 040020Z 23014KT 9999 SCT015 SCT026 16/13 Q1015
                        NOSIG=
201011032350 METAR COR EGLL 032350Z 23016G26KT 9999 SCT017 SCT023 16/13
                        Q1015 NOSIG=
201011032320 METAR COR EGLL 032320Z 24013KT 9999 BKN019 16/12 Q1015 NOSIG=
201011032250 METAR COR EGLL 032250Z 25014KT 9999 SCT020 SCT047 16/12 Q1015
                        NOSIG=
201011032220 METAR COR EGLL 032220Z 25012KT 9999 SCT019 SCT025 16/12 Q1015
                        NOSIG=
201011032150 METAR COR EGLL 032150Z 25011KT 9999 SCT018 BKN026 16/12 Q1015
                        NOSIG=
201011032120 METAR COR EGLL 032120Z 26012KT 9999 SCT018 SCT027 16/12 Q1014
                        TEMPO BKN014=
201011032050 METAR COR EGLL 032050Z 26015KT 9999 SCT018 SCT028 16/12 Q1014
                        TEMPO BKN014=
201011032020 METAR COR EGLL 032020Z 25012KT 9999 SCT017 SCT023 16/13 Q1014
                        TEMPO BKN014=
201011031950 METAR COR EGLL 031950Z 25013KT 9999 BKN017 16/13 Q1014 TEMPO
                        BKN014=
201011031920 METAR COR EGLL 031920Z 25014KT 9999 BKN017 16/13 Q1013 TEMPO
                        -RA BKN014=
201011031850 METAR COR EGLL 031850Z 23014KT 9999 BKN018 16/13 Q1013 TEMPO
                        -RADZ BKN014=
201011031820 METAR COR EGLL 031820Z 24015KT 9999 BKN014 16/13 Q1013 NOSIG=
201011031750 METAR COR EGLL 031750Z 23014KT 9999 BKN014 16/13 Q1013 NOSIG=
201011031720 METAR COR EGLL 031720Z 23014KT 9999 BKN015 16/13 Q1012 TEMPO
                        -RA BKN013=
201011031650 METAR COR EGLL 031650Z 23016KT 9999 BKN015 16/12 Q1012 TEMPO
                        -RADZ BKN013=
201011031620 METAR COR EGLL 031620Z 23012KT 9999 SCT018 SCT025 16/12 Q1012
                        NOSIG=
201011031550 METAR COR EGLL 031550Z 22012KT 9999 FEW021 SCT026 16/11 Q1012
                        NOSIG=
201011031520 METAR COR EGLL 031520Z 22011KT 9999 BKN023 16/11 Q1012 NOSIG=
201011031450 METAR COR EGLL 031450Z 23011KT 9999 BKN029 15/10 Q1013 NOSIG=
201011031420 METAR COR EGLL 031420Z 24013KT 9999 BKN028 15/10 Q1013 NOSIG=
201011031350 METAR COR EGLL 031350Z 24014KT 9999 BKN031 16/09 Q1013 NOSIG=
201011031320 METAR COR EGLL 031320Z 25014KT 9999 SCT031 16/09 Q1013 NOSIG=
201011031250 METAR COR EGLL 031250Z 25013KT 9999 SCT035 15/09 Q1013 NOSIG=
201011031220 METAR COR EGLL 031220Z 25013KT 9999 SCT031 15/09 Q1013 NOSIG=
201011031150 METAR COR EGLL 031150Z 25011KT 9999 FEW031 15/09 Q1013 NOSIG=
201011031120 METAR COR EGLL 031120Z 26013KT 9999 FEW020 15/09 Q1013 NOSIG=
201011031050 METAR COR EGLL 031050Z 27014KT 9999 FEW020 14/09 Q1013 NOSIG=
201011031020 METAR COR EGLL 031020Z 26012KT 9999 FEW019 14/09 Q1013 NOSIG=
201011030950 METAR COR EGLL 030950Z 27012KT 9999 FEW020 14/10 Q1013 NOSIG=
201011030920 METAR COR EGLL 030920Z 27012KT 9999 FEW016 14/10 Q1013 NOSIG=
201011030850 METAR COR EGLL 030850Z 28009KT 9999 FEW020 13/09 Q1012 NOSIG=
201011030820 METAR COR EGLL 030820Z 27011KT 9999 FEW020 13/09 Q1012 NOSIG=
201011030750 METAR COR EGLL 030750Z 28010KT CAVOK 13/09 Q1011 NOSIG=
201011030720 METAR COR EGLL 030720Z 27009KT 9999 FEW018 13/10 Q1010 NOSIG=
201011030650 METAR COR EGLL 030650Z 26010KT 9999 FEW019 13/11 Q1010 NOSIG=
201011030620 METAR COR EGLL 030620Z 27009KT 9999 FEW019 13/11 Q1009 NOSIG=
201011030550 METAR EGLL 030550Z 26011KT 9999 FEW022 14/11 Q1009=
201011030520 METAR EGLL 030520Z 27012KT 9999 FEW019 SCT022 14/11 Q1009=
201011030450 METAR COR EGLL 030450Z 26017KT 9999 FEW018 14/11 Q1008 NOSIG=
201011030420 METAR COR EGLL 030420Z 25017KT 9999 FEW018 15/12 Q1007 NOSIG=
201011030350 METAR COR EGLL 030350Z 25017KT 9999 BKN018 BKN035 15/12 Q1007
                        NOSIG=
201011030320 METAR COR EGLL 030320Z 24016G26KT 9999 BKN017 15/12 Q1007
                        TEMPO BKN014=
201011030250 METAR COR EGLL 030250Z 24016KT 9999 BKN021 15/11 Q1007 NOSIG=
201011030220 METAR COR EGLL 030220Z 24016KT 9999 FEW015 BKN023 14/11 Q1007
                        NOSIG=
201011030150 METAR COR EGLL 030150Z 24016KT 9999 FEW016 BKN024 14/11 Q1007
                        NOSIG=
201011030120 METAR COR EGLL 030120Z 24016KT 9999 FEW018 BKN021 14/11 Q1007
                        NOSIG=
201011030050 METAR EGLL 030050Z 23016KT 9999 SCT020 SCT025 14/10 Q1007=
201011030020 METAR COR EGLL 030020Z 24017KT 9999 SCT021 BKN030 14/10 Q1007
                        NOSIG=
201011022350 METAR COR EGLL 022350Z 24018KT 9999 SCT021 BKN031 14/10 Q1007
                        NOSIG=
201011022320 METAR COR EGLL 022320Z 23017KT 9999 FEW023 BKN030 14/10 Q1007
                        NOSIG=
201011022250 METAR COR EGLL 022250Z 23022G34KT 9999 FEW030 BKN043 14/10
                        Q1007 NOSIG=
201011022220 METAR EGLL 022220Z 23019KT 9999 FEW025 BKN031 14/10 Q1008=
201011022150 METAR COR EGLL 022150Z 23018KT 9999 FEW023 SCT038 14/10 Q1008
                        NOSIG=
201011022120 METAR COR EGLL 022120Z 23017KT 9999 FEW025 SCT034 14/10 Q1008
                        NOSIG=
201011022050 METAR COR EGLL 022050Z 23017G28KT 9999 SCT032 13/10 Q1008
                        NOSIG=
201011022020 METAR COR EGLL 022020Z 23017KT 9999 BKN041 14/10 Q1008 NOSIG=
201011021950 METAR COR EGLL 021950Z 22014KT 9000 FEW038 13/10 Q1008 NOSIG=
201011021920 METAR COR EGLL 021920Z 22014KT 8000 FEW041 13/10 Q1009 NOSIG=
201011021850 METAR COR EGLL 021850Z 22011KT 8000 FEW032 SCT042 13/10 Q1009
                        NOSIG=
201011021820 METAR COR EGLL 021820Z 22012KT 9000 SCT040 13/10 Q1009 NOSIG=
201011021750 METAR EGLL 021750Z 21012KT CAVOK 13/10 Q1009=
201011021720 METAR COR EGLL 021720Z 21010KT 9999 FEW042 14/09 Q1009 NOSIG=
201011021650 METAR COR EGLL 021650Z 22010KT 9999 SCT042 14/09 Q1009 NOSIG=
201011021620 METAR EGLL 021620Z 22012KT 210V270 9999 FEW032 14/09 Q1009=
201011021550 METAR COR EGLL 021550Z 22015KT 9999 FEW031 14/09 Q1009 NOSIG=
201011021520 METAR COR EGLL 021520Z 24015KT 9999 SCT033 15/09 Q1009 NOSIG=
201011021450 METAR COR EGLL 021450Z 24016KT 9999 FEW033 BKN048 15/09 Q1010
                        NOSIG=
201011021420 METAR COR EGLL 021420Z 24016KT 9999 FEW030 BKN043 15/10 Q1010
                        NOSIG=
201011021350 METAR COR EGLL 021350Z 24014KT 9999 FEW028 SCT046 15/10 Q1010
                        NOSIG=
201011021320 METAR COR EGLL 021320Z 25014KT 9999 FEW040 SCT048 15/10 Q1010
                        NOSIG=
201011021250 METAR COR EGLL 021250Z 24015KT 9999 FEW026 15/10 Q1010 NOSIG=
201011021220 METAR COR EGLL 021220Z 25015G25KT 9999 FEW025 14/10 Q1010
                        NOSIG=
201011021150 METAR COR EGLL 021150Z 25015KT 9999 FEW022 14/10 Q1010 NOSIG=
201011021120 METAR COR EGLL 021120Z 25015KT 9999 SCT021 13/09 Q1011 NOSIG=
201011021050 METAR COR EGLL 021050Z 25016KT 9999 BKN022 14/10 Q1011 NOSIG=
201011021020 METAR COR EGLL 021020Z 25013KT 9999 BKN021 13/10 Q1011 NOSIG=
201011020950 METAR COR EGLL 020950Z 24012KT 9999 FEW018 13/10 Q1011 NOSIG=
201011020920 METAR COR EGLL 020920Z 25014KT 9999 FEW020 13/09 Q1011 NOSIG=
201011020850 METAR COR EGLL 020850Z 25012KT CAVOK 12/09 Q1010 NOSIG=
201011020820 METAR COR EGLL 020820Z 26011KT 9999 FEW022 BKN027 12/09 Q1010
                        NOSIG=
201011020750 METAR COR EGLL 020750Z 25012KT 9999 FEW023 BKN025 12/09 Q1010
                        NOSIG=
201011020720 METAR COR EGLL 020720Z 25013KT 9999 FEW015 13/10 Q1010 NOSIG=
201011020650 METAR COR EGLL 020650Z 27014KT 9999 FEW015 13/10 Q1010 TEMPO
                        BKN012=
201011020620 METAR COR EGLL 020620Z 24012KT 9999 FEW015 13/11 Q1009 TEMPO
                        BKN012=
201011020550 METAR COR EGLL 020550Z 24011KT 9999 SCT010 14/12 Q1009 TEMPO
                        BKN008=
201011020520 METAR COR EGLL 020520Z 22011KT 9999 SCT010 14/12 Q1009 TEMPO
                        BKN008=
201011020450 METAR EGLL 020450Z 22011KT 9999 FEW008 SCT010 14/12 Q1009=
201011020420 METAR COR EGLL 020420Z 22009KT 9000 SCT007 OVC011 13/12 Q1009
                        TEMPO BKN008=
201011020350 METAR COR EGLL 020350Z 21010KT 9000 BKN010 13/12 Q1009 TEMPO
                        BKN006=
201011020320 METAR COR EGLL 020320Z 21010KT 6000 FEW007 OVC009 12/11 Q1009
                        NOSIG=
201011020250 METAR COR EGLL 020250Z 21011KT 9999 BKN014 12/11 Q1010 TEMPO
                        BKN008=
201011020220 METAR COR EGLL 020220Z 20008KT 9999 FEW009 BKN013 12/10 Q1010
                        NOSIG=
201011020150 METAR COR EGLL 020150Z 20008KT 9999 FEW012 SCT014 BKN030
                        12/10 Q1011 BECMG BKN012=
201011020120 METAR COR EGLL 020120Z 21008KT 8000 -RA FEW016 BKN038 12/10
                        Q1011 BECMG BKN012=
201011020050 METAR COR EGLL 020050Z 21009KT 9999 SCT018 SCT043 12/10 Q1011
                        NOSIG=
201011020020 METAR COR EGLL 020020Z 21008KT 9999 SCT017 12/10 Q1012 NOSIG=
201011012350 METAR COR EGLL 012350Z 21008KT 9999 FEW019 11/10 Q1012 NOSIG=
201011012320 METAR COR EGLL 012320Z 22007KT 8000 NSC 11/09 Q1013 NOSIG=
201011012250 METAR COR EGLL 012250Z 20008KT 7000 FEW020 11/09 Q1012 NOSIG=
201011012220 METAR COR EGLL 012220Z 19008KT 7000 FEW036 SCT049 10/09 Q1013
                        NOSIG=
201011012150 METAR COR EGLL 012150Z 20007KT 160V230 6000 FEW047 11/09
                        Q1013 NOSIG=
201011012120 METAR COR EGLL 012120Z 21008KT 5000 BR NSC 10/09 Q1013 NOSIG=
201011012050 METAR COR EGLL 012050Z 21009KT 5000 BR NSC 10/09 Q1013 NOSIG=
201011012020 METAR COR EGLL 012020Z 20009KT 6000 NSC 10/08 Q1013 NOSIG=
201011011950 METAR COR EGLL 011950Z 19007KT 160V230 6000 NSC 10/08 Q1014
                        NOSIG=
201011011920 METAR COR EGLL 011920Z 20006KT 170V240 6000 NSC 10/08 Q1014
                        NOSIG=
201011011850 METAR COR EGLL 011850Z 22006KT 190V250 7000 NSC 10/08 Q1014
                        NOSIG=
201011011820 METAR COR EGLL 011820Z 21007KT 8000 NSC 11/08 Q1014 NOSIG=
201011011750 METAR COR EGLL 011750Z 20006KT 170V250 9000 NSC 11/08 Q1014
                        NOSIG=
201011011720 METAR COR EGLL 011720Z 22007KT 190V260 CAVOK 11/08 Q1015
                        NOSIG=
201011011650 METAR COR EGLL 011650Z 21005KT 190V270 9999 FEW020 12/08
                        Q1015 NOSIG=
201011011620 METAR COR EGLL 011620Z 22007KT 9999 FEW020 12/08 Q1015 NOSIG=
201011011550 METAR COR EGLL 011550Z 23008KT 9999 FEW022 13/08 Q1014 NOSIG=
201011011520 METAR COR EGLL 011520Z 22005KT 190V260 9999 FEW022 13/09
                        Q1014 NOSIG=
201011011450 METAR COR EGLL 011450Z 24006KT 210V290 9999 FEW019 14/09
                        Q1014 NOSIG=
201011011420 METAR EGLL 011420Z 26006KT 220V280 9999 FEW018 14/09 Q1014=
201011011350 METAR COR EGLL 011350Z 28005KT 9999 FEW018 14/09 Q1015 NOSIG=
201011011320 METAR COR EGLL 011320Z 28005KT 220V310 9999 FEW017 13/09
                        Q1015 NOSIG=
201011011250 METAR COR EGLL 011250Z VRB03KT 9999 FEW017 13/09 Q1015 NOSIG=
201011011220 METAR COR EGLL 011220Z VRB03KT 9999 SCT015 12/09 Q1015 NOSIG=
201011011150 METAR COR EGLL 011150Z 30005KT 260V330 9999 BKN014 11/08
                        Q1015 BECMG BKN015=
201011011120 METAR COR EGLL 011120Z 35004KT 290V040 9000 BKN013 11/09
                        Q1016 BECMG BKN015=
201011011050 METAR COR EGLL 011050Z VRB03KT 8000 BKN012 11/08 Q1016 NOSIG=
201011011020 METAR COR EGLL 011020Z VRB03KT 8000 BKN010 11/08 Q1015 NOSIG=
201011010950 METAR COR EGLL 010950Z VRB03KT 8000 BKN009 10/08 Q1015 BECMG
                        BKN010=
201011010920 METAR COR EGLL 010920Z 33004KT 300V020 8000 BKN009 10/08
                        Q1015 BECMG BKN010=
201011010850 METAR COR EGLL 010850Z 34004KT 290V020 6000 BKN008 10/08
                        Q1015 TEMPO BKN010=
201011010820 METAR COR EGLL 010820Z 31004KT 280V350 5000 HZ BKN008 09/08
                        Q1015 TEMPO 4000 BR BKN010=
201011010750 METAR COR EGLL 010750Z 32004KT 290V360 6000 BKN010 09/08
                        Q1015 TEMPO BKN009=
201011010720 METAR COR EGLL 010720Z 30004KT 6000 BKN010 09/08 Q1014 TEMPO
                        BKN009=
201011010650 METAR COR EGLL 010650Z 28003KT 5000 BR BKN011 09/08 Q1014
                        NOSIG=
201011010620 METAR EGLL 010620Z 27004KT 200V290 7000 FEW010 09/07 Q1013=
201011010550 METAR COR EGLL 010550Z VRB03KT 9000 SCT013 09/07 Q1013 TEMPO
                        BKN012=
201011010520 METAR COR EGLL 010520Z 36004KT 320V040 8000 BKN012 10/08
                        Q1013 NOSIG=
201011010450 METAR COR EGLL 010450Z 36005KT 320V030 7000 BKN011 10/08
                        Q1012 NOSIG=
201011010420 METAR COR EGLL 010420Z 35005KT 310V040 7000 BKN012 10/08
                        Q1012 TEMPO BKN009=
201011010350 METAR COR EGLL 010350Z 33005KT 5000 BR BKN011 10/08 Q1011
                        TEMPO BKN009=
201011010320 METAR COR EGLL 010320Z 34004KT 300V010 5000 BR FEW008 BKN010
                        10/09 Q1011 TEMPO 4000 BKN009=
201011010250 METAR EGLL 010250Z 32004KT 5000 BR BKN010 09/08 Q1011=
201011010220 METAR COR EGLL 010220Z 32004KT 5000 BR BKN010 09/08 Q1010
                        TEMPO 4000 BKN009=
201011010150 METAR COR EGLL 010150Z 30004KT 4500 BR SCT010 08/07 Q1010
                        TEMPO 6000 NSW BKN009=
201011010120 METAR COR EGLL 010120Z VRB02KT 5000 BR FEW010 08/07 Q1010
                        TEMPO 4000=
201011010050 METAR COR EGLL 010050Z 29003KT 4500 BR NSC 08/07 Q1009 TEMPO
                        6000 NSW=
201011010020 METAR COR EGLL 010020Z 32002KT 6000 NSC 09/07 Q1009 NOSIG=

# No short TAF reports from EGLL in databse.

###################################
#  large TAF from EGLL
###################################
201012012256 TAF EGLL 012256Z 0200/0306 05012KT 8000 -SN SCT008 BKN018
                      TEMPO 0200/0215 1400 SN BKN003
                      PROB30 TEMPO 0200/0203 0500 +SN BKN001
                      BECMG 0216/0219 9999 NSW
                      PROB30 TEMPO 0219/0302 9000 -SN
                      BECMG 0300/0303 34005KT=
201012011710 TAF EGLL 011710Z 0118/0224 03010KT 9999 BKN030
                      TEMPO 0121/0212 4000 -SN BKN007
                      PROB40 TEMPO 0122/0208 1400 SN BKN002=
201012011108 TAF EGLL 011108Z 0112/0218 02012KT 9999 SCT020 BKN040
                      TEMPO 0112/0122 04015G25KT
                      PROB30 TEMPO 0113/0119 5000 -SN BKN010
                      TEMPO 0119/0218 4000 -SN BKN005
                      PROB40 TEMPO 0121/0212 1400 SN BKN002=
201012010502 TAF EGLL 010502Z 0106/0212 03012KT 9999 SCT020
                      TEMPO 0106/0208 6000 -SN BKN012
                      TEMPO 0109/0206 04017G28KT
                      PROB30 TEMPO 0111/0206 2000 SN BKN005=
201011302301 TAF EGLL 302301Z 0100/0206 04012KT 9999 SCT018 BKN025
                      TEMPO 0100/0206 6000 -SN BKN012
                      PROB30 TEMPO 0100/0106 2000 SN BKN007
                      BECMG 0109/0112 04015G25KT
                      PROB30 TEMPO 0118/0206 2000 SN BKN007=
201011301659 TAF EGLL 301659Z 3018/0124 03010KT 9999 BKN018
                      TEMPO 3018/0106 6000 -SN BKN012
                      PROB30 TEMPO 0106/0120 6000 -SN
                      PROB30 TEMPO 0120/0124 2000 SN BKN008=
201011301057 TAF EGLL 301057Z 3012/0118 03010KT 4000 -SN BKN008
                      TEMPO 3012/3024 9000 NSW BKN020
                      PROB30 TEMPO 3012/3016 1000 SN BKN003
                      BECMG 0103/0106 9999 SCT015
                      TEMPO 0106/0112 03015G25KT 4000 -SN=
201011300455 TAF EGLL 300455Z 3006/0112 03010KT 4000 -SN BKN008
                      PROB30 TEMPO 3006/3013 1400 SN BKN003
                      TEMPO 3009/3013 6000 NSW
                      BECMG 3013/3016 7000 NSW BKN012
                      PROB30 TEMPO 3016/0103 4000 -SN BKN006
                      BECMG 0103/0106 9999 SCT015=
201011292255 TAF EGLL 292255Z 3000/0106 35005KT 9000 BKN012
                      BECMG 3000/3003 4000 -SN BKN006
                      TEMPO 3000/3013 1200 SN BKN002
                      BECMG 3006/3009 07015KT 7000 NSW
                      BECMG 3013/3016 BKN012
                      PROB30 TEMPO 3016/0106 4000 -SN BKN006=
201011291701 TAF EGLL 291701Z 2918/3024 35010KT 9999 BKN018
                      PROB40 TEMPO 2918/2922 8000 BKN010
                      BECMG 2922/3001 4000 -SN BKN006
                      TEMPO 3000/3013 1200 SN BKN002
                      BECMG 3006/3009 07015KT
                      BECMG 3013/3016 9999 NSW BKN020
                      PROB30 TEMPO 3016/3024 5000 -SN BKN010=
201011291056 TAF EGLL 291056Z 2912/3018 36008KT 8000 BKN007
                      PROB40 TEMPO 2912/2921 9999 BKN016
                      BECMG 2921/2924 4000 -SN BKN006
                      TEMPO 2922/3009 1200 SN BKN002
                      BECMG 3004/3007 06012KT
                      BECMG 3009/3012 9999 NSW BKN018
                      PROB40 TEMPO 3012/3018 5000 -SN BKN010=
201011290946 TAF AMD EGLL 290946Z 2909/3012 01007KT 9999 SCT012
                      PROB40 TEMPO 2909/2922 7000 BKN008
                      BECMG 2922/3001 6000 -SN BKN008
                      PROB40 TEMPO 3000/3012 2000 SN BR BKN002=
201011290453 TAF EGLL 290453Z 2906/3012 01007KT 9999 FEW040
                      PROB30 2906/2911 7000
                      BECMG 2922/3001 6000 -SN BKN010
                      PROB40 TEMPO 3000/3012 2000 SN BR BKN002=
201011282303 TAF EGLL 282303Z 2900/3006 03007KT 9999 FEW040
                      PROB30 2906/2911 7000
                      BECMG 2922/3001 6000 -SN BKN007
                      TEMPO 3000/3006 2000 SN BKN002=
201011281658 TAF EGLL 281658Z 2818/2924 03007KT 9999 FEW040
                      PROB30 TEMPO 2818/2823 5000 -SN BR BKN008
                       PROB30 2906/2911 7000
                      PROB40 2922/2924 4000 -SN BKN005=
201011281100 TAF EGLL 281100Z 2812/2918 02007KT 9999 FEW040
                      PROB30 TEMPO 2819/2824 5000 -SHSN BKN008
                       PROB30 2906/2911 7000=
201011280503 TAF EGLL 280503Z 2806/2912 02005KT 9999 FEW025
                      PROB30 2806/2809 8000
                      PROB40 TEMPO 2818/2822 5000 -SHSN BKN008=
201011272302 TAF EGLL 272302Z 2800/2906 02005KT 9999 FEW025
                      PROB40 TEMPO 2802/2809 8000 BKN010
                      PROB40 TEMPO 2815/2819 5000 -SHSN BKN010=
201011271658 TAF EGLL 271658Z 2718/2824 02007KT 9999 SCT015
                      PROB40 2800/2809 7000 BKN007
                      PROB40 TEMPO 2813/2817 BKN012
                      PROB30 2818/2824 7000=
201011271558 TAF AMD EGLL 271558Z 2715/2818 04010KT 9999 SCT015
                      BECMG 2718/2721 7000
                      PROB40 2800/2806 4000 -SN BKN004
                      PROB30 2806/2812 BKN008
                      BECMG 2812/2815 9999=
201011271059 TAF EGLL 271059Z 2712/2818 04010KT 7000 BKN010
                      PROB30 TEMPO 2712/2715 4000 BR BKN006
                      PROB30 2715/2720 9999
                      PROB40 2800/2806 4000 -SN BKN004
                      PROB30 2806/2812 BKN008=
201011270550 TAF AMD EGLL 270550Z 2706/2812 VRB03KT CAVOK
                      PROB40 2707/2712 5000 BR BKN010
                      PROB30 TEMPO 2708/2711 BKN006
                      BECMG 2710/2713 04010KT
                      PROB30 2800/2806 5000 -SN=
201011270453 TAF EGLL 270453Z 2706/2812 VRB03KT CAVOK
                      PROB40 2707/2711 5000 BR BKN010
                      BECMG 2710/2713 04010KT
                      PROB30 2800/2806 5000 -SN=
201011262259 TAF EGLL 262259Z 2700/2806 29005KT CAVOK
                      BECMG 2703/2706 BKN014
                      PROB30 2705/2710 5000 BR BKN006
                      BECMG 2708/2711 02010KT
                      BECMG 2710/2712 SCT015
                      PROB40 2800/2804 3000 SN BKN010=
201011261659 TAF EGLL 261659Z 2618/2724 29005KT CAVOK
                      BECMG 2623/2702 BKN009
                      PROB40 2703/2710 4000 BR BKN004
                      BECMG 2708/2711 02010KT
                      BECMG 2710/2712 SCT015=
201011261100 TAF EGLL 261100Z 2612/2718 30005KT CAVOK
                      BECMG 2622/2701 BKN009
                      PROB40 2702/2709 4000 BR BKN004
                      BECMG 2706/2709 02010KT
                      BECMG 2709/2711 SCT015=
201011260754 TAF AMD EGLL 260754Z 2607/2712 30005KT 9000 SCT025
                      BECMG 2609/2611 9999
                      BECMG 2621/2624 BKN010
                      PROB30 2702/2709 5000 BR BKN006
                      BECMG 2706/2709 02010KT
                      BECMG 2709/2712 SCT015
                      PROB30 TEMPO 2709/2712 6000 -SHSN=
201011260500 TAF EGLL 260500Z 2606/2712 30005KT 9999 SCT025
                      BECMG 2621/2624 BKN010
                      PROB30 2702/2709 5000 BR BKN006
                      BECMG 2706/2709 02010KT
                      BECMG 2709/2712 SCT015
                      PROB30 TEMPO 2709/2712 6000 -SHSN=
201011252301 TAF EGLL 252301Z 2600/2706 31006KT 9999 SCT025
                      PROB30 TEMPO 2600/2611 BKN014
                      PROB40 2621/2706 6000 BKN009=
201011251653 TAF EGLL 251653Z 2518/2624 32005KT 9999 SCT025
                      PROB30 TEMPO 2519/2523 BKN014
                      BECMG 2605/2608 7000 BKN012
                      PROB30 TEMPO 2606/2611 BKN006
                      BECMG 2614/2617 9999 SCT014
                      PROB30 2621/2624 9000=
201011251103 TAF EGLL 251103Z 2512/2618 33005KT 9999 SCT025
                      PROB30 TEMPO 2512/2515 BKN014
                      PROB40 TEMPO 2521/2601 BKN010
                      BECMG 2601/2604 6000 BKN010
                      PROB30 TEMPO 2603/2612 3000 BR BKN004
                      BECMG 2610/2613 9999 SCT014=
201011250453 TAF EGLL 250453Z 2506/2612 33005KT 9999 SCT025
                      TEMPO 2506/2510 7000 -SHSN BKN012
                      PROB30 TEMPO 2510/2515 6000 SHRASN -SHSN
                       BKN010
                      PROB40 2521/2524 3000 BR BKN004
                      BECMG 2600/2603 3000 BR BKN004
                      PROB30 TEMPO 2610/2612 6000 NSW BKN009=
201011242255 TAF EGLL 242255Z 2500/2606 33005KT 9999 SCT025
                      TEMPO 2503/2510 7000 -SHSN BKN014
                      PROB30 TEMPO 2508/2515 6000 SHRASN -SHSN
                       BKN009
                      PROB40 2521/2606 3000 BR BKN004=
201011241656 TAF EGLL 241656Z 2418/2524 30006KT 9999 FEW015
                      PROB40 TEMPO 2418/2509 7000 BKN010
                      BECMG 2509/2512 36010KT
                      TEMPO 2509/2520 6000 SHRASN -SHSN BKN008
                       PROB30
                      TEMPO 2510/2516 2000 SHSN BKN004=
201011241105 TAF EGLL 241105Z 2412/2518 30007KT 9999 FEW040
                      TEMPO 2418/2510 7000
                      PROB30 TEMPO 2423/2510 BKN010
                      BECMG 2509/2512 36010KT
                      TEMPO 2510/2518 6000 SHRASN -SHSN BKN008
                       PROB30
                      TEMPO 2512/2515 2000 SHSN BKN004=
201011240924 TAF AMD EGLL 240924Z 2409/2512 30007KT 8000 SCT040
                      BECMG 2409/2412 9999
                      PROB30 TEMPO 2423/2509 3000 MIFG BR
                      PROB40 TEMPO 2509/2512 4000 -RASN -SN BKN008
                       BECMG 2509/2512 36010KT=
201011240500 TAF EGLL 240500Z 2406/2512 30007KT 8000 SCT040
                      BECMG 2406/2409 9999
                      PROB30 TEMPO 2423/2509 3000 MIFG BR
                      PROB40 TEMPO 2509/2512 4000 -RASN -SN BKN008
                       BECMG 2509/2512 36010KT=
201011232257 TAF EGLL 232257Z 2400/2506 31008KT 9999 SCT040
                      PROB30 TEMPO 2402/2410 3000 MIFG BR
                      PROB40 TEMPO 2500/2506 2500 MIFG BR=
201011231652 TAF EGLL 231652Z 2318/2424 32010KT 9999 SCT030
                      PROB30 2402/2410 4000 BR
                      PROB40 2418/2424 7000=
201011231057 TAF EGLL 231057Z 2312/2418 32010KT 9999 SCT030
                      PROB30 2402/2410 4000 BR=
201011230500 TAF EGLL 230500Z 2306/2412 34010KT 9999 SCT030
                      PROB40 TEMPO 2306/2310 BKN010
                      PROB30 TEMPO 2402/2410 4000 BR BKN008=
201011222257 TAF EGLL 222257Z 2300/2406 01008KT 9999 SCT035
                      PROB30 TEMPO 2300/2310 8000 BKN008
                      BECMG 2312/2315 31010KT
                      TEMPO 2320/2406 7000 BKN008
                      PROB30 TEMPO 2402/2406 3000 BR BKN004=
201011221705 TAF EGLL 221705Z 2218/2324 36006KT 9999 FEW015 SCT045
                      PROB30 TEMPO 2218/2224 8000 -SHRA BKN014
                       PROB40
                      TEMPO 2300/2311 8000 BKN008
                      BECMG 2309/2312 30010KT=
201011221059 TAF EGLL 221059Z 2212/2318 01007KT 9999 SCT030
                      PROB30 TEMPO 2212/2220 9000 -SHRA
                      PROB40 TEMPO 2220/2310 8000 BKN008=
201011220500 TAF EGLL 220500Z 2206/2312 01008KT 8000 SCT030
                      BECMG 2206/2209 9999
                      PROB40 TEMPO 2206/2209 BKN008
                      TEMPO 2221/2309 8000 BKN008=
201011212257 TAF EGLL 212257Z 2200/2306 01007KT 9999 SCT020
                      TEMPO 2200/2208 8000 BKN008
                      PROB30 TEMPO 2222/2306 8000 BKN008=
201011212030 TAF AMD EGLL 212030Z 2120/2224 01007KT 9999 FEW015
                      PROB40 TEMPO 2120/2224 BKN012
                      PROB30 TEMPO 2121/2208 8000 BKN008=
201011211700 TAF EGLL 211700Z 2118/2224 01010KT 9999 SCT012 BKN018
                      TEMPO 2118/2224 BKN012
                      PROB30 TEMPO 2121/2208 8000 BKN008=
201011211059 TAF EGLL 211059Z 2112/2218 02010KT 9999 BKN015
                      PROB30 TEMPO 2112/2218 8000 -RA BKN012=
201011210659 TAF AMD EGLL 210659Z 2107/2212 03008KT 9999 BKN007
                      TEMPO 2107/2109 6000 BKN004
                      BECMG 2108/2111 BKN014
                      BECMG 2111/2114 BKN030
                      TEMPO 2115/2209 7000 -RA BKN014=
201011210459 TAF EGLL 210459Z 2106/2212 03008KT 7000 BKN007
                      TEMPO 2106/2109 3000 BR BKN004
                      BECMG 2108/2111 9999 BKN012
                      BECMG 2111/2114 BKN030
                      TEMPO 2115/2209 7000 -RA BKN014=
201011202258 TAF EGLL 202258Z 2100/2206 03007KT 7000 BKN007
                      TEMPO 2100/2109 2000 BR BKN004
                      BECMG 2109/2112 9999 BKN018
                      TEMPO 2115/2206 7000 -RA BKN009=
201011201757 TAF AMD EGLL 201757Z 2018/2124 04008KT 7000 BKN008
                      TEMPO 2018/2105 3000 BR BKN004
                      BECMG 2105/2108 9999 BKN015
                      PROB40 TEMPO 2105/2124 7000 -RA BKN008=
201011201704 TAF EGLL 201704Z 2018/2124 04008KT 8000 SCT012 BKN018
                      BECMG 2018/2021 BKN012
                      TEMPO 2019/2105 4000 BR BKN005
                      BECMG 2105/2108 9999 BKN015
                      PROB40 TEMPO 2105/2124 7000 -RA BKN008=
201011201157 TAF AMD EGLL 201157Z 2012/2118 08005KT 9999 SCT012 BKN018
                      PROB30 TEMPO 2012/2019 8000 BKN012
                      PROB40 TEMPO 2019/2108 4000 BR BKN007
                      BECMG 2108/2111 02010KT
                      PROB30 TEMPO 2108/2118 7000 -RA BKN008=
201011201056 TAF EGLL 201056Z 2012/2118 08005KT 8000 SCT012 BKN018
                      PROB30 TEMPO 2012/2019 BKN012
                      TEMPO 2019/2108 4000 BR BKN007
                      BECMG 2108/2111 02010KT 9999
                      PROB40 TEMPO 2111/2118 7000 -RA BKN008=
201011200505 TAF EGLL 200505Z 2006/2112 06007KT 5000 BR SCT010 BKN020
                      PROB40 TEMPO 2006/2012 3000 BKN006
                      TEMPO 2011/2017 9999 NSW
                      TEMPO 2012/2110 BKN009
                      BECMG 2103/2106 9999=
201011192306 TAF EGLL 192306Z 2000/2106 08005KT 9999 FEW010
                      BECMG 2000/2003 8000
                      PROB40 TEMPO 2000/2005 0800 BCFG BKN001
                      TEMPO 2002/2024 BKN010
                      PROB40 TEMPO 2005/2009 2000 BR BKN003
                      BECMG 2009/2012 9999
                      PROB40 TEMPO 2020/2106 7000 BKN007=
201011192131 TAF AMD EGLL 192131Z 1921/2024 12005KT 9999 FEW020
                      BECMG 1922/2001 8000
                      PROB40 TEMPO 1923/2004 0800 BCFG BKN001
                      TEMPO 2002/2024 BKN010
                      PROB40 TEMPO 2004/2009 2000 BR BKN003
                      BECMG 2009/2012 9999
                      PROB40 TEMPO 2020/2024 BKN007=
201011191702 TAF EGLL 191702Z 1918/2024 12005KT 9999 SCT020
                      BECMG 1918/1921 6000
                      PROB40 TEMPO 1919/2009 3000 BR
                      TEMPO 1923/2024 BKN014
                      PROB30 TEMPO 2001/2009 BKN008
                      BECMG 2009/2012 9999=
201011191101 TAF EGLL 191101Z 1912/2018 14005KT 6000 SCT025
                      TEMPO 1912/1919 9999
                      PROB40 1919/2009 3000 BR
                      TEMPO 1923/2018 BKN014
                      PROB30 TEMPO 2001/2009 BKN008
                      BECMG 2009/2012 9999=
201011190814 TAF AMD EGLL 190814Z 1906/2012 25004KT 1500 BR SCT002
                      PROB40 1906/1911 0200 FG VV///
                      BECMG 1910/1913 10010KT 6000 NSW SCT010
                      TEMPO 1912/1924 9999
                      BECMG 1923/2002 BKN012
                      TEMPO 2003/2012 BKN008=
201011190500 TAF EGLL 190500Z 1906/2012 25004KT 0400 FG VV///
                      PROB40 1906/1911 0200
                      BECMG 1910/1913 10010KT 6000 NSW SCT010
                      TEMPO 1912/1924 9999
                      BECMG 1923/2002 BKN012
                      TEMPO 2003/2012 BKN008=
201011190334 TAF AMD EGLL 190334Z 1903/2006 21006KT 0700 FG FEW010
                      PROB40 1904/1912 0200 VV///
                      BECMG 1910/1913 10010KT 6000 NSW
                      TEMPO 1912/1924 9999
                      BECMG 2000/2003 BKN012
                      TEMPO 2003/2006 4000 RA BKN008=
201011190012 TAF AMD EGLL 190012Z 1900/2006 21006KT 9999 SCT030
                      BECMG 1900/1903 3000 BR
                      PROB40 1904/1912 0200 FG VV///
                      BECMG 1910/1913 10010KT 6000 NSW
                      TEMPO 1912/1924 9999
                      BECMG 2000/2003 BKN012
                      TEMPO 2003/2006 4000 RA BKN008=
201011182312 TAF EGLL 182312Z 1900/2006 21006KT CAVOK
                      BECMG 1900/1903 3000 BR SCT005
                      PROB40 1904/1912 0200 FG VV///
                      BECMG 1910/1913 10010KT 6000 NSW
                      TEMPO 1912/1924 9999
                      BECMG 2000/2003 BKN012
                      TEMPO 2003/2006 4000 RA BKN008=
201011182300 TAF AMD EGLL 190334Z 1903/2006 21006KT 0700 FG FEW010
                      PROB40 1904/1912 0200 VV///
                      BECMG 1910/1913 10010KT 6000 NSW
                      TEMPO 1912/1924 9999
                      BECMG 2000/2003 BKN012
                      TEMPO 2003/2006 4000 RA BKN008=
201011181704 TAF EGLL 181704Z 1818/1924 15007KT 9999 FEW010 SCT025
                      BECMG 1819/1822 8000
                      BECMG 1900/1903 3000 BR MIFG
                      BECMG 1903/1906 0300 FG VV///
                      BECMG 1910/1913 3000 BR SCT002
                      TEMPO 1914/1924 5000 HZ
                      TEMPO 1918/1924 BKN005=
201011181102 TAF EGLL 181102Z 1812/1918 14007KT 9999 FEW010 SCT025
                      PROB30 TEMPO 1812/1819 9000 -SHRA BKN014
                       BECMG 1819/1822 8000
                      BECMG 1900/1903 3000 BR MIFG
                      BECMG 1903/1906 0300 FG VV///
                      BECMG 1910/1913 3000 BR SCT002
                      PROB40 1914/1918 5000 HZ=
201011180453 TAF EGLL 180453Z 1806/1912 11010KT 6000 BKN022
                      TEMPO 1806/1808 9999
                      PROB40 1806/1808 4000 -RADZ BKN009
                      BECMG 1808/1811 RA BKN014
                      BECMG 1812/1815 9999 NSW SCT030
                      PROB30 TEMPO 1814/1818 7000 SHRA
                      BECMG 1815/1818 20007KT
                      BECMG 1821/1824 7000
                      PROB40 1900/1910 0300 FG VV///=
201011180056 TAF AMD EGLL 180056Z 1800/1906 11010KT 9999 BKN022
                      PROB40 1800/1807 4000 -RADZ BKN009
                      BECMG 1807/1810 7000 RA BKN014
                      BECMG 1812/1815 9999 NSW SCT030
                      PROB30 TEMPO 1814/1818 7000 SHRA
                      BECMG 1815/1818 20007KT
                      PROB30 1903/1906 7000=
201011172300 TAF AMD EGLL 180056Z 1800/1906 11010KT 9999 BKN022
                      PROB40 1800/1807 4000 -RADZ BKN009
                      BECMG 1807/1810 7000 RA BKN014
                      BECMG 1812/1815 9999 NSW SCT030
                      PROB30 TEMPO 1814/1818 7000 SHRA
                      BECMG 1815/1818 20007KT
                      PROB30 1903/1906 7000=
201011172257 TAF EGLL 172257Z 1800/1906 11010KT 9999 BKN022
                      PROB40 1800/1807 6000 -RADZ BKN009
                      BECMG 1807/1810 7000 RA BKN014
                      BECMG 1812/1815 9999 NSW SCT030
                      PROB30 TEMPO 1814/1818 7000 SHRA
                      BECMG 1815/1818 20007KT
                      PROB30 1903/1906 7000=
201011171656 TAF EGLL 171656Z 1718/1824 12014KT 9999 BKN030
                      PROB40 1718/1807 6000 -RADZ BKN009
                      BECMG 1807/1810 7000 RA BKN014
                      BECMG 1812/1815 9999 NSW SCT030
                      PROB30 TEMPO 1814/1818 7000 SHRA
                      BECMG 1815/1818 20007KT=
201011171100 TAF EGLL 171100Z 1712/1818 12014KT 9999 BKN022
                      PROB30 1712/1721 6000 -RADZ BKN012
                      PROB40 1721/1807 4000 -RADZ BKN009
                      BECMG 1807/1810 7000 RA BKN014
                      BECMG 1811/1814 9999 NSW SCT030
                      PROB30 TEMPO 1814/1818 7000 SHRA
                      BECMG 1815/1818 18007KT=
201011170806 TAF AMD EGLL 170806Z 1708/1812 13013KT 9999 BKN022
                      PROB40 1708/1715 6000 -RADZ BKN008
                      TEMPO 1721/1812 6000 -RA BKN009=
201011170455 TAF EGLL 170455Z 1706/1812 13013KT 9999 BKN018
                      BECMG 1706/1708 BKN014
                      PROB30 1708/1715 6000 -RADZ BKN008
                      TEMPO 1715/1721 BKN016
                      TEMPO 1721/1812 6000 -RA BKN009=
201011162254 TAF EGLL 162254Z 1700/1806 13010KT 9999 SCT022
                      BECMG 1702/1705 BKN014
                      PROB30 1703/1715 6000 -RADZ BKN008
                      TEMPO 1715/1721 BKN016
                      TEMPO 1721/1806 6000 -RA BKN009=
201011162059 TAF AMD EGLL 162059Z 1620/1724 13007KT 9999 FEW030
                      PROB40 1622/1703 6000 BKN008
                      BECMG 1703/1706 BKN014
                      PROB40 TEMPO 1707/1724 6000 -RADZ BKN008=
201011161701 TAF EGLL 161701Z 1618/1724 VRB03KT 0400 FG BKN001
                      BECMG 1618/1621 13010KT 5000 BR SCT004
                      PROB40 1621/1702 BKN004
                      TEMPO 1702/1707 BKN008
                      BECMG 1707/1710 9999 NSW BKN014
                      PROB40 TEMPO 1707/1724 6000 -RADZ BKN008=
201011161455 TAF AMD EGLL 161455Z 1615/1718 VRB03KT 0400 FG BKN001
                      BECMG 1616/1619 5000 BR SCT004
                      BECMG 1618/1621 13010KT 9999 NSW
                      PROB30 1619/1621 6000 BKN004
                      PROB40 1621/1707 8000 BKN008
                      BECMG 1707/1710 BKN012
                      PROB40 TEMPO 1707/1718 6000 RA BKN008=
201011161355 TAF AMD EGLL 161355Z 1614/1718 VRB03KT 0900 BCFG BKN001
                      BECMG 1614/1616 5000 BR SCT004
                      PROB30 1616/1618 BKN004
                      BECMG 1618/1621 12010KT 9999 NSW
                      PROB40 1623/1707 8000 BKN008
                      BECMG 1707/1710 BKN012
                      PROB40 TEMPO 1707/1718 6000 RA BKN008=
201011161101 TAF EGLL 161101Z 1612/1718 VRB03KT 0600 BCFG BKN001
                      BECMG 1612/1614 2000 BR SCT004
                      BECMG 1614/1616 6000 NSW
                      PROB30 1614/1618 BKN004
                      BECMG 1618/1621 12010KT 9999
                      PROB40 1623/1707 8000 BKN008
                      BECMG 1707/1710 BKN012
                      PROB40 TEMPO 1707/1718 6000 RA BKN008=
201011160501 TAF EGLL 160501Z 1606/1712 VRB05KT 0200 FG FZFG VV///
                      PROB30 TEMPO 1606/1609 1500 BR SCT002
                      BECMG 1609/1612 6000 NSW SCT020
                      PROB40 TEMPO 1612/1616 4000 BR BKN004
                      BECMG 1614/1617 9999
                      BECMG 1621/1624 15010KT
                      PROB40 TEMPO 1700/1712 8000 BKN012=
201011152300 TAF EGLL 152300Z 1600/1706 VRB05KT 0200 FG FZFG VV///
                      PROB40 TEMPO 1600/1609 1500 BR SCT002
                      BECMG 1609/1611 7000 NSW SCT020
                      PROB40 TEMPO 1611/1615 BKN004
                      BECMG 1613/1616 9999
                      BECMG 1616/1619 15010KT
                      TEMPO 1623/1706 BKN012=
201011151733 TAF COR EGLL 151733Z 1518/1624 VRB05KT 9999 FEW020
                      BECMG 1518/1521 3000 BR
                      PROB40 1518/1611 0200 FG FZFG VV///
                      TEMPO 1611/1614 BKN004
                      BECMG 1612/1615 6000 NSW
                      BECMG 1615/1618 15010KT 9999
                      PROB30 TEMPO 1618/1624 4000 BR=
201011151654 TAF EGLL 151654Z 1518/1624 VRB05KT 9999 FEW020
                      BECMG 1518/1521 3000 BR
                      PROB40 1518/1611 0200 FG VV///
                      TEMPO 1611/1614 BKN004
                      BECMG 1612/1615 6000 NSW
                      BECMG 1615/1618 15010KT 9999
                      PROB30 TEMPO 1618/1624 4000 BR=
201011151247 TAF AMD EGLL 151247Z 1512/1618 VRB05KT 6000 FEW020
                      PROB40 1512/1514 3000 BR
                      PROB40 1522/1611 0200 FZFG FG VV///
                      TEMPO 1611/1614 BKN004
                      TEMPO 1615/1618 9999=
201011151209 TAF AMD EGLL 151209Z 1512/1618 VRB05KT 3500 BR FEW020
                      PROB40 1512/1514 1200 BR
                      TEMPO 1515/1518 6000
                      PROB40 1522/1611 0200=
201011151102 TAF EGLL 151102Z 1512/1618 VRB05KT 1200 BR FEW020
                      PROB40 1512/1514 0500 FG VV///
                      BECMG 1515/1518 6000
                      BECMG 1518/1521 3000 BR
                      PROB40 1522/1611 0200 FZFG FG VV///
                      BECMG 1611/1614 6000 NSW
                      TEMPO 1611/1614 BKN004
                      TEMPO 1615/1618 9999=
201011151101 TAF AMD EGLL 151101Z 1511/1612 VRB05KT 1200 BR FEW040
                      TEMPO 1512/1514 0300 FG BKN001
                      BECMG 1515/1518 6000 NSW
                      BECMG 1518/1521 3000 BR
                      PROB40 1522/1611 0200 FZFG FG VV///=
201011150500 TAF EGLL 150500Z 1506/1612 VRB05KT 1500 BR FEW040
                      TEMPO 1506/1510 0300 FG BKN001
                      BECMG 1509/1512 7000 NSW
                      BECMG 1518/1521 3000 BR
                      PROB40 1522/1611 0200 FZFG FG VV///=
201011142257 TAF EGLL 142257Z 1500/1606 28005KT 9999 FEW040
                      BECMG 1500/1502 6000
                      BECMG 1502/1504 3000 BR
                      PROB30 1503/1511 0300 FG BKN001
                      BECMG 1518/1521 3000 BR
                      PROB40 1521/1606 0200 FG VV///=
201011142158 TAF AMD EGLL 142158Z 1422/1524 25005KT 9999 FEW030
                      BECMG 1422/1501 3000 BR
                      PROB40 1501/1511 0300 FG BKN000
                      BECMG 1512/1515 6000 NSW
                      BECMG 1518/1521 3000 BR
                      PROB40 1521/1524 0300 FG VV///=
201011142055 TAF AMD EGLL 142055Z 1421/1524 25005KT 9999 FEW030
                      BECMG 1421/1423 6000
                      BECMG 1423/1502 3000 BR
                      PROB40 1500/1511 0300 FG BKN000
                      BECMG 1512/1515 6000 NSW
                      BECMG 1518/1521 3000 BR
                      PROB40 1521/1524 0300 FG VV///=
201011141654 TAF EGLL 141654Z 1418/1524 25005KT 9999 FEW030
                      BECMG 1418/1421 6000
                      BECMG 1423/1502 3000 BR
                      PROB40 1500/1511 0300 FG BKN000
                      BECMG 1512/1515 6000 NSW
                      BECMG 1518/1521 3000 BR
                      PROB40 1521/1524 0300 FG VV///=
201011141117 TAF EGLL 141117Z 1412/1518 25005KT 8000 FEW030
                      TEMPO 1412/1418 9999
                      PROB30 TEMPO 1412/1415 RA
                      BECMG 1418/1421 6000
                      BECMG 1423/1502 0300 FG BKN000
                      BECMG 1512/1515 6000 NSW=
201011141100 TAF EGLL 141100Z NIL=
201011140909 TAF AMD EGLL 140909Z 1409/1512 VRB04KT 7000 -RADZ BKN004
                      TEMPO 1409/1411 1200 BR
                      BECMG 1409/1412 9999 NSW FEW030
                      TEMPO 1410/1414 6000 RA
                      BECMG 1410/1413 27010KT
                      BECMG 1420/1423 6000
                      PROB30 1502/1508 3000 BR MIFG
                      BECMG 1508/1510 9999=
201011140508 TAF EGLL 140508Z 1406/1512 VRB04KT 7000 -RADZ BKN004
                      BECMG 1406/1408 9999 NSW FEW030
                      TEMPO 1408/1414 6000 RA
                      BECMG 1410/1413 27010KT
                      BECMG 1420/1423 6000
                      PROB30 1502/1508 3000 BR MIFG
                      BECMG 1508/1510 9999=
201011132309 TAF EGLL 132309Z 1400/1506 VRB04KT 9999 FEW012 SCT030
                      BECMG 1400/1402 7000 -RADZ SCT004 BKN012
                       TEMPO 1400/1405 3000 DZ BKN004
                      BECMG 1405/1408 9999 NSW FEW030
                      TEMPO 1408/1412 6000 RA
                      BECMG 1410/1413 27010KT=
201011131700 TAF EGLL 131700Z 1318/1424 14005KT 9999 SCT040
                      TEMPO 1322/1410 7000 -RA BKN012
                      PROB30 TEMPO 1400/1408 4000 RA BKN008
                      BECMG 1409/1412 27010KT=
201011131101 TAF EGLL 131101Z 1312/1418 23010KT 9999 SCT040
                      BECMG 1314/1317 13005KT
                      TEMPO 1320/1408 7000 -RA BKN012
                      PROB30 TEMPO 1321/1406 4000 RADZ BKN006
                      BECMG 1409/1412 26010KT=
201011130500 TAF EGLL 130500Z 1306/1412 24010KT 9999 FEW035
                      BECMG 1313/1316 14004KT
                      PROB40 TEMPO 1319/1401 4000 RADZ BKN007
                      BECMG 1406/1409 28010KT
                      TEMPO 1408/1412 7000 SHRA=
201011122316 TAF EGLL 122316Z 1300/1406 24010KT 9999 SCT028
                      PROB30 1300/1303 6000 BKN008
                      PROB30 TEMPO 1309/1312 7000 -RADZ BKN010
                       BECMG 1312/1315 14004KT
                      BECMG 1318/1321 6000 -RADZ BKN012
                      TEMPO 1320/1406 2500 RADZ BKN005=
201011122300 TAF EGLL 122300Z NIL=
201011122014 TAF AMD EGLL 122014Z 1220/1324 24010KT 9999 BKN012
                      TEMPO 1220/1222 3000 RADZ BKN007
                      BECMG 1222/1224 SCT028
                      BECMG 1314/1317 16004KT
                      PROB30 TEMPO 1321/1324 7000 SHRA BKN012=
201011121700 TAF EGLL 121700Z 1218/1324 24010KT 9999 BKN020
                      TEMPO 1218/1223 7000 RA BKN012
                      PROB30 TEMPO 1218/1220 3000 RADZ BKN007
                      BECMG 1314/1317 16004KT
                      PROB30 TEMPO 1321/1324 7000 SHRA BKN012=
201011121102 TAF EGLL 121102Z 1212/1318 25020G32KT 9999 SCT035
                      BECMG 1213/1216 24010KT
                      TEMPO 1215/1224 6000 RA BKN014
                      TEMPO 1306/1312 24015G25KT
                      BECMG 1314/1317 18004KT=
201011120500 TAF EGLL 120500Z 1206/1312 25020G32KT 9999 SCT035
                      BECMG 1213/1216 23010KT
                      TEMPO 1215/1224 6000 RA BKN014
                      TEMPO 1306/1312 24015G25KT=
201011112302 TAF EGLL 112302Z 1200/1306 25020G30KT 9999 SCT025 BKN040
                      TEMPO 1200/1206 25025G40KT
                      BECMG 1213/1216 23010KT
                      TEMPO 1215/1305 6000 RA BKN014
                      PROB30 TEMPO 1221/1305 3000 +RA BKN009=
201011111700 TAF EGLL 111700Z 1118/1224 25020G30KT 9999 SCT030
                      PROB40 TEMPO 1118/1206 25028G40KT 8000 -SHRA
                       BECMG 1213/1216 24014KT
                      TEMPO 1215/1224 6000 RA BKN014
                      PROB30 TEMPO 1218/1224 25016G26KT 4500 RADZ
                       BKN009=
201011111103 TAF EGLL 111103Z 1112/1218 21015G25KT 9999 SCT015 BKN025
                      BECMG 1112/1114 25017G27KT
                      TEMPO 1112/1117 6000 RA BKN014
                      PROB40 TEMPO 1112/1115 24025G40KT 4500 +RA
                       BKN009
                      TEMPO 1116/1206 26022G37KT
                      TEMPO 1215/1218 6000 RA BKN014=
201011110501 TAF EGLL 110501Z 1106/1212 19020KT 9999 SCT015 BKN020
                      TEMPO 1106/1113 6000 RA BKN014
                      PROB40 TEMPO 1107/1113 3000 +RA BKN008
                      BECMG 1110/1113 25020G30KT
                      TEMPO 1113/1124 26025G40KT
                      PROB40 TEMPO 1114/1118 6000 SHRA=
201011102307 TAF EGLL 102307Z 1100/1206 20005KT CAVOK
                      BECMG 1103/1106 19020KT SCT015 BKN020
                      TEMPO 1105/1113 6000 RA BKN014
                      PROB40 TEMPO 1107/1113 3000 +RA BKN008
                      BECMG 1110/1113 25020G30KT
                      TEMPO 1113/1124 26025G40KT=
201011101705 TAF EGLL 101705Z 1018/1124 24004KT CAVOK
                      BECMG 1103/1106 19016G28KT -RA BKN018
                      TEMPO 1105/1110 6000 RA BKN010
                      BECMG 1110/1114 27017KT NSW
                      PROB40 TEMPO 1110/1113 3500 +RA RADZ BKN008
                       TEMPO 1114/1121 26020G34KT=
201011101105 TAF EGLL 101105Z 1012/1118 33012KT 9999 SCT045
                      BECMG 1016/1019 24004KT
                      BECMG 1103/1106 19016G28KT -RA
                      TEMPO 1105/1110 6000 RA BKN010
                      BECMG 1109/1111 24016KT BKN012
                      PROB40 TEMPO 1110/1113 4000 +RA RADZ BKN007
                       BECMG 1113/1116 NSW SCT030
                      PROB30 TEMPO 1114/1118 26020G34KT=
201011100457 TAF EGLL 100457Z 1006/1112 02010KT 9999 FEW020 SCT030
                      PROB30 TEMPO 1006/1009 BKN014
                      BECMG 1012/1015 32010KT
                      BECMG 1016/1019 23010KT
                      BECMG 1103/1106 19022G32KT -RA BKN014
                      TEMPO 1104/1112 3000 RA BKN007=
201011092253 TAF EGLL 092253Z 1000/1106 02010KT 9999 FEW020 SCT030
                      PROB30 TEMPO 1000/1009 BKN014
                      BECMG 1012/1015 32010KT
                      BECMG 1016/1019 23010KT
                      BECMG 1103/1106 19015G25KT
                      PROB30 TEMPO 1104/1106 6000 -RA=
201011091701 TAF EGLL 091701Z 0918/1024 02012KT 9999 FEW020 SCT030
                      TEMPO 1000/1009 BKN014
                      BECMG 1012/1015 32010KT
                      BECMG 1016/1019 23010KT=
201011091101 TAF EGLL 091101Z 0912/1018 05012KT 9999 BKN010
                      TEMPO 0912/0918 06018G28KT 6000 SHRA
                      PROB30 0912/0916 FEW010 BKN015
                      BECMG 0916/0919 FEW010
                      BECMG 0922/1001 35012KT
                      BECMG 1015/1018 29006KT=
201011090924 TAF AMD EGLL 090924Z 0909/1012 05012KT 8000 FEW010 SCT015
                      BECMG 0909/0912 9999
                      PROB30 TEMPO 0909/0912 BKN010
                      TEMPO 0912/0918 6000 SHRA BKN014
                      TEMPO 0922/1006 BKN010
                      BECMG 1007/1010 31010KT=
201011090627 TAF AMD EGLL 090627Z 0906/1012 09012KT 9999 SCT015
                      PROB30 TEMPO 0906/0908 6000 BKN008
                      BECMG 0907/0910 02013KT
                      TEMPO 0909/0918 02017G30KT 6000 RADZ BKN014
                       TEMPO 0922/1006 BKN010
                      BECMG 1007/1010 31010KT=
201011090455 TAF EGLL 090455Z 0906/1012 09012KT 8000 BKN012
                      PROB30 TEMPO 0906/0907 4000 RADZ BKN004
                      BECMG 0907/0910 02013KT 9999 BKN016
                      TEMPO 0909/0918 02017G30KT 6000 RADZ BKN014
                       TEMPO 0922/1006 BKN010
                      BECMG 1007/1010 31010KT=
201011082255 TAF EGLL 082255Z 0900/1006 09012KT 9999 BKN008
                      TEMPO 0900/0906 BKN015
                      PROB30 TEMPO 0900/0906 5000 RADZ BKN004
                      BECMG 0906/0909 02014KT BKN016
                      TEMPO 0909/0918 02017G30KT 6000 RADZ BKN014
                       TEMPO 0922/1006 BKN010=
201011082154 TAF AMD EGLL 082154Z 0821/0924 09012KT 9999 SCT008
                      PROB30 TEMPO 0821/0908 5000 RADZ BKN004
                      BECMG 0906/0910 02014KT
                      TEMPO 0908/0918 02017G30KT 6000 RADZ BKN014=
201011082134 TAF AMD EGLL 082134Z 0821/0924 09012KT 9999 BKN008
                      PROB30 TEMPO 0821/0908 5000 RADZ BKN004
                      BECMG 0906/0910 02014KT
                      TEMPO 0908/0918 02017G30KT 6000 RADZ BKN014=
201011081654 TAF EGLL 081654Z 0818/0924 14005KT 9999 SCT015 BKN030
                      BECMG 0820/0823 08012KT
                      PROB30 TEMPO 0820/0908 5000 RADZ BKN009
                      BECMG 0906/0910 02014KT
                      TEMPO 0908/0918 02017G30KT 6000 RADZ BKN014=
201011081052 TAF EGLL 081052Z 0812/0918 15015KT 9999 -RA SCT015 BKN030
                      TEMPO 0812/0816 15020G33KT 6000 RA BKN013
                       PROB30
                      TEMPO 0816/0908 4500 SHRA RADZ BKN008
                      BECMG 0821/0824 09013KT
                      BECMG 0906/0910 02018G30KT
                      TEMPO 0908/0918 6000 SHRA RADZ BKN013=
201011080500 TAF EGLL 080500Z 0806/0912 15015KT 9999 -RA SCT015 BKN030
                      TEMPO 0807/0816 15020G33KT 6000 RA BKN013
                       TEMPO 0816/0908 4500 SHRA RADZ BKN008
                      BECMG 0821/0824 09013KT
                      BECMG 0906/0910 04018G30KT
                      TEMPO 0908/0912 6000 SHRA BKN013=
201011072304 TAF EGLL 072304Z 0800/0906 17010KT 9999 FEW020 SCT040
                      TEMPO 0800/0807 8000
                      BECMG 0807/0810 16018G30KT RA BKN013
                      BECMG 0814/0817 13010KT 4500 RADZ BKN009
                       TEMPO 0817/0821 8000 NSW SCT010 BKN022
                      BECMG 0821/0824 9999 NSW FEW012 BKN025
                      BECMG 0900/0904 07013KT
                      TEMPO 0900/0906 7000 SHRA BKN010=
201011071657 TAF EGLL 071657Z 0718/0824 VRB05KT 9999 SCT020
                      PROB30 TEMPO 0721/0801 5000 BR BKN008
                      BECMG 0804/0807 17012KT
                      BECMG 0806/0809 -RA BKN012
                      TEMPO 0806/0815 16018G28KT 7000 RA
                      PROB40 TEMPO 0810/0821 4000 RA BKN009
                      TEMPO 0818/0824 6000=
201011071054 TAF EGLL 071054Z 0712/0818 01010KT 9999 SCT020
                      PROB30 TEMPO 0712/0718 7000 SHRA
                      BECMG 0718/0721 VRB03KT 8000
                      PROB30 0721/0801 4500 BR BKN008
                      BECMG 0802/0805 17012KT 9999
                      BECMG 0806/0810 16018G28KT 6000 -RA BKN012
                       PROB40
                      TEMPO 0810/0815 4000 RA BKN009
                      BECMG 0815/0818 9999 BKN015=
201011070756 TAF AMD EGLL 070756Z 0708/0812 01010KT 6000 SCT020
                      BECMG 0708/0709 9999 NSW
                      TEMPO 0709/0718 7000 SHRA
                      BECMG 0718/0721 VRB03KT 8000
                      PROB30 0721/0801 4500 BR BKN008
                      BECMG 0802/0805 17012KT 9999
                      BECMG 0806/0810 16020G32KT 6000 RA BKN012=
201011070558 TAF COR EGLL 070558Z 0706/0812 01010KT 4500 HZ SCT020
                      BECMG 0706/0709 9999 NSW
                      TEMPO 0709/0718 7000 SHRA
                      BECMG 0718/0721 VRB03KT 8000
                      PROB30 0721/0801 4500 BR BKN008
                      BECMG 0800/0804 17012KT
                      BECMG 0806/0810 16020G32KT 6000 RA BKN012=
201011070505 TAF EGLL 070505Z 0706/0812 01010KT 4500 HZ SCT020
                      BECMG 0706/0709 9999 NSW
                      TEMPO 0709/0718 7000 SHRA
                      BECMG 0718/0721 VRB03KT
                      BECMG 0800/0804 17012KT
                      BECMG 0806/0810 16020G32KT 6000 RA BKN012=
201011070412 TAF AMD EGLL 070412Z 0704/0806 VRB05KT 4000 HZ SCT020
                      BECMG 0704/0706 7000 NSW
                      BECMG 0706/0709 01012KT 9999
                      PROB30 TEMPO 0704/0707 SHRA
                      TEMPO 0709/0718 7000 SHRA
                      BECMG 0719/0722 VRB05KT
                      BECMG 0800/0804 18013KT
                      PROB30 0804/0806 17017G27KT 7000 RA BKN014=
201011062305 TAF EGLL 062305Z 0700/0806 VRB05KT 6000 SCT020
                      TEMPO 0700/0702 4500 FU
                      BECMG 0702/0704 9999
                      TEMPO 0704/0718 7000 SHRA
                      BECMG 0706/0709 01012KT
                      BECMG 0719/0722 VRB05KT
                      BECMG 0800/0804 18013KT
                      PROB30 0804/0806 17017G27KT 7000 RA BKN014=
201011062300 TAF AMD EGLL 070412Z 0704/0806 VRB05KT 4000 HZ SCT020
                      BECMG 0704/0706 7000 NSW
                      BECMG 0706/0709 01012KT 9999
                      PROB30 TEMPO 0704/0707 SHRA
                      TEMPO 0709/0718 7000 SHRA
                      BECMG 0719/0722 VRB05KT
                      BECMG 0800/0804 18013KT
                      PROB30 0804/0806 17017G27KT 7000 RA BKN014=
201011062215 TAF AMD EGLL 062215Z 0622/0724 VRB05KT 7000 SCT020
                      TEMPO 0622/0701 4000 FU
                      BECMG 0701/0703 9999 NSW
                      TEMPO 0703/0718 7000 SHRA
                      BECMG 0706/0709 01012KT=
201011061656 TAF EGLL 061656Z 0618/0724 VRB05KT 9999 SCT025
                      PROB30 TEMPO 0618/0703 7000 SHRA
                      BECMG 0706/0709 01012KT=
201011061057 TAF EGLL 061057Z 0612/0718 28008KT 9999 SCT030
                      PROB30 TEMPO 0701/0705 7000 SHRA
                      BECMG 0706/0709 01012KT=
201011060853 TAF AMD EGLL 060853Z 0608/0712 28008KT 9999 SCT030
                      TEMPO 0608/0610 7000
                      PROB30 TEMPO 0701/0705 7000 SHRA
                      BECMG 0706/0709 01012KT=
201011060504 TAF EGLL 060504Z 0606/0712 28008KT 9999 SCT030
                      PROB30 TEMPO 0701/0705 7000 SHRA
                      BECMG 0706/0709 01012KT=
201011060400 TAF AMD EGLL 060400Z 0604/0706 28008KT 9999 SCT020
                      TEMPO 0604/0607 8000=
201011052301 TAF EGLL 052301Z 0600/0706 33009KT 9999 SCT018 BKN025
                      PROB40 TEMPO 0600/0603 4000 RA BKN007=
201011052300 TAF AMD EGLL 060400Z 0604/0706 28008KT 9999 SCT020
                      TEMPO 0604/0607 8000=
201011052153 TAF AMD EGLL 052153Z 0521/0624 33010KT 9999 SCT018 BKN025
                      BECMG 0521/0523 6000 RA BKN010
                      TEMPO 0522/0601 4000 +RA BKN007
                      BECMG 0601/0604 9999 NSW SCT025=
201011051704 TAF EGLL 051704Z 0518/0624 24015KT 9999 SCT012 BKN025
                      TEMPO 0518/0523 25017G28KT
                      TEMPO 0518/0520 7000 -DZ BKN011
                      BECMG 0520/0522 6000 RA BKN010
                      TEMPO 0522/0601 4000 +RA BKN007
                      BECMG 0523/0602 31008KT
                      BECMG 0601/0604 9999 NSW SCT025=
201011051254 TAF AMD EGLL 051254Z 0512/0618 24013KT 9999 SCT013 BKN025
                      TEMPO 0512/0516 4500 -RADZ BKN007
                      TEMPO 0516/0523 25017G28KT
                      BECMG 0519/0522 6000 RA BKN012
                      TEMPO 0522/0601 4000 +RA BKN008
                      BECMG 0523/0602 31008KT
                      BECMG 0601/0604 9999 NSW SCT025=
201011051242 TAF AMD EGLL 051242Z 0512/0618 24013KT 9999 SCT013 BKN025
                      TEMPO 0512/0516 4500 -RADZ BKN010
                      TEMPO 0516/0523 25017G28KT
                      BECMG 0519/0522 6000 RA BKN012
                      TEMPO 0522/0601 4000 +RA BKN008
                      BECMG 0523/0602 31008KT
                      BECMG 0601/0604 9999 NSW SCT025=
201011051106 TAF EGLL 051106Z 0512/0618 24013KT 9999 SCT013 BKN025
                      TEMPO 0512/0516 7000 -RADZ BKN010
                      TEMPO 0516/0523 25017G28KT
                      BECMG 0519/0522 6000 RA BKN012
                      TEMPO 0522/0601 4000 +RA BKN008
                      BECMG 0523/0602 31008KT
                      BECMG 0601/0604 9999 NSW SCT025=
201011050601 TAF AMD EGLL 050601Z 0506/0612 24014KT 9999 BKN016
                      BECMG 0506/0509 BKN014
                      PROB40 TEMPO 0506/0516 4500 RADZ BKN008
                      PROB30 TEMPO 0509/0514 SCT014 BKN025
                      BECMG 0514/0517 BKN020
                      TEMPO 0518/0523 4000 RA BKN012
                      BECMG 0522/0601 32008KT=
201011050457 TAF EGLL 050457Z 0506/0612 24014KT 9999 BKN014
                      PROB40 TEMPO 0506/0516 4500 RADZ BKN008
                      PROB30 TEMPO 0508/0514 SCT014 BKN025
                      BECMG 0514/0517 BKN020
                      TEMPO 0518/0523 4000 RA BKN012
                      BECMG 0522/0601 32008KT=
201011042300 TAF EGLL 042300Z 0500/0606 24014KT 9999 SCT018 BKN020
                      TEMPO 0500/0503 24018G30KT 9000 BKN013
                      BECMG 0503/0506 7000 -RADZ BKN012
                      TEMPO 0503/0524 4500 RADZ BKN007
                      PROB40 TEMPO 0508/0518 9999 NSW SCT012 BKN020
                       BECMG 0522/0601 32008KT 9999 NSW SCT030=
201011041706 TAF EGLL 041706Z 0418/0524 23014KT 9999 SCT014 BKN020
                      TEMPO 0418/0424 24018G30KT
                      TEMPO 0418/0502 9000 BKN013
                      BECMG 0502/0505 7000 -RADZ BKN011
                      TEMPO 0505/0524 4500 RADZ BKN007
                      PROB40 TEMPO 0512/0524 9999 NSW SCT012 BKN020
                       BECMG 0518/0521 32008KT=
201011041103 TAF EGLL 041103Z 0412/0518 23015KT 9999 SCT020
                      TEMPO 0412/0424 24018G30KT
                      TEMPO 0421/0503 8000 -RA BKN014
                      BECMG 0503/0506 6000 -RADZ BKN012
                      TEMPO 0506/0518 4500 RADZ BKN008
                      PROB40 TEMPO 0512/0518 9999 NSW SCT010 BKN020=
201011040500 TAF EGLL 040500Z 0406/0512 24017KT 9999 FEW010 BKN020
                      TEMPO 0406/0424 23020G30KT
                      TEMPO 0418/0512 7000 -RA BKN014
                      PROB30 TEMPO 0506/0512 4500 -RADZ BKN007=
201011032258 TAF EGLL 032258Z 0400/0506 25013KT 9999 FEW010 BKN018
                      PROB40 TEMPO 0400/0406 24016G26KT 7000 -RA
                       FEW008 BKN014
                      BECMG 0406/0409 23018G30KT
                      TEMPO 0415/0506 7000 -RA BKN012
                      BECMG 0416/0419 23013KT
                      PROB40 TEMPO 0419/0506 23016G26KT
                      PROB30 0500/0506 BKN008=
201011031658 TAF EGLL 031658Z 0318/0424 25015KT 9999 FEW010 BKN015
                      TEMPO 0318/0409 7000 -RA FEW008 BKN012
                      PROB40 TEMPO 0319/0406 24016G26KT BKN006
                       BECMG 0406/0409 24018G30KT
                      PROB40 TEMPO 0415/0424 5000 -RADZ BKN009=
201011031107 TAF EGLL 031107Z 0312/0418 25014KT 9999 FEW012 SCT020
                      TEMPO 0317/0409 8000 -RA FEW008 BKN014
                      PROB40 TEMPO 0319/0406 24015G25KT BKN006
                       BECMG 0406/0409 24018G30KT=
201011030458 TAF EGLL 030458Z 0306/0412 23012KT 9999 SCT030
                      TEMPO 0306/0308 23015G25KT 7000 -RA BKN012
                       TEMPO 0310/0403 8000 -RA
                      BECMG 0313/0316 BKN014
                      TEMPO 0314/0318 22016G26KT
                      PROB40 0320/0406 BKN007
                      BECMG 0409/0412 24018G28KT
                      TEMPO 0409/0412 BKN016=
201011022304 TAF EGLL 022304Z 0300/0406 23012KT 9999 SCT030
                      TEMPO 0300/0305 23018G28KT
                      TEMPO 0300/0308 7000 -RA BKN012
                      TEMPO 0310/0403 8000 -RA
                      BECMG 0313/0316 BKN014
                      TEMPO 0314/0318 22016G26KT
                      PROB40 0315/0406 BKN007=
201011021832 TAF AMD EGLL 021832Z 0218/0324 23012KT 9999 SCT030
                      TEMPO 0218/0305 23018G28KT
                      TEMPO 0218/0221 9000
                      TEMPO 0301/0308 7000 -RA BKN012
                      TEMPO 0310/0324 8000 -RA
                      BECMG 0313/0316 BKN014
                      TEMPO 0314/0318 22016G26KT
                      PROB40 0315/0324 BKN007=
201011021701 TAF EGLL 021701Z 0218/0324 23012KT 9999 SCT030
                      TEMPO 0218/0305 23018G28KT
                      TEMPO 0301/0308 7000 -RA BKN012
                      TEMPO 0310/0324 8000 -RA
                      BECMG 0313/0316 BKN014
                      TEMPO 0314/0318 22016G26KT
                      PROB40 0315/0324 BKN007=
201011021100 TAF EGLL 021100Z 0212/0318 24012KT 9999 FEW020
                      PROB40 TEMPO 0212/0218 25015G25KT
                      TEMPO 0218/0306 23018G28KT 8000 -RA
                      BECMG 0223/0302 BKN014
                      PROB30 TEMPO 0305/0307 BKN008
                      BECMG 0306/0309 SCT018
                      TEMPO 0312/0317 23016G26KT 6000 RA BKN008=
201011020631 TAF AMD EGLL 020631Z 0206/0312 22012KT 9999 SCT018
                      PROB30 TEMPO 0206/0208 8000 -RA BKN012
                      TEMPO 0210/0218 25015G25KT
                      TEMPO 0218/0221 8000 -RA BKN014
                      BECMG 0221/0300 BKN012
                      PROB30 TEMPO 0221/0303 23015G25KT
                      TEMPO 0300/0310 7000 -RA BKN007=
201011020454 TAF EGLL 020454Z 0206/0312 22012KT 8000 -RA BKN012
                      TEMPO 0206/0208 4000 RADZ BKN005
                      BECMG 0207/0210 9999 SCT018
                      TEMPO 0210/0218 25015G25KT
                      TEMPO 0218/0221 8000 -RA BKN014
                      BECMG 0221/0300 BKN012
                      PROB30 TEMPO 0221/0303 23015G25KT
                      TEMPO 0300/0310 7000 -RA BKN007=
201011012300 TAF EGLL 012300Z 0200/0306 22012KT 9999 FEW020
                      PROB30 TEMPO 0200/0202 7000
                      BECMG 0201/0203 BKN012
                      TEMPO 0203/0208 4000 -RADZ BKN004
                      BECMG 0207/0210 SCT018
                      TEMPO 0210/0218 25015G25KT
                      TEMPO 0218/0221 23015G25KT 8000 -RA BKN014
                       BECMG 0221/0300 23018G28KT 6000 -RA BKN012
                       TEMPO 0300/0306 BKN006=
201011011752 TAF AMD EGLL 011752Z 0118/0224 22012KT 9999 FEW020
                      TEMPO 0118/0123 7000
                      BECMG 0201/0203 BKN012
                      TEMPO 0203/0207 4000 -RADZ BKN004
                      BECMG 0206/0208 SCT025
                      TEMPO 0210/0217 25015G25KT
                      TEMPO 0222/0224 23016G26KT 8000 -RA BKN014=
201011011701 TAF EGLL 011701Z 0118/0224 22012KT 9999 FEW020
                      BECMG 0201/0203 BKN012
                      TEMPO 0203/0207 4000 -RADZ BKN004
                      BECMG 0206/0208 SCT025
                      TEMPO 0210/0217 25015G25KT
                      TEMPO 0222/0224 23016G26KT 8000 -RA BKN014=
201011011100 TAF EGLL 011100Z 0112/0218 VRB05KT 8000 BKN010
                      BECMG 0112/0115 9999 BKN015
                      BECMG 0118/0121 20010KT
                      BECMG 0201/0203 BKN012
                      TEMPO 0202/0207 4500 -RADZ BKN004
                      BECMG 0206/0208 26012KT SCT025
                      TEMPO 0211/0215 26015G25KT=
201011010912 TAF AMD EGLL 010912Z 0109/0212 33006KT 6000 BKN010
                      TEMPO 0109/0111 4000 BR BKN008
                      BECMG 0110/0113 9999 BKN017
                      BECMG 0117/0120 21010KT
                      PROB40 TEMPO 0117/0120 9000 BKN013
                      BECMG 0201/0203 BKN012
                      TEMPO 0202/0205 7000 -RA FEW002 BKN006
                      BECMG 0205/0207 26010KT SCT018
                      PROB40 TEMPO 0211/0212 26015G25KT=
201011010510 TAF EGLL 010510Z 0106/0212 33006KT 7000 BKN011
                      TEMPO 0106/0109 4000 BKN008
                      BECMG 0109/0112 9999 BKN017
                      BECMG 0117/0120 21010KT
                      PROB40 TEMPO 0117/0120 9000 BKN013
                      BECMG 0201/0203 BKN012
                      TEMPO 0202/0205 7000 -RA FEW002 BKN006
                      BECMG 0205/0207 26010KT SCT018
                      PROB40 TEMPO 0211/0212 26015G25KT=
201011010500 TAF EGLL 010500Z NIL=
201011010116 TAF AMD EGLL 010116Z 0100/0206 35006KT 8000 NSC
                      BECMG 0101/0104 FEW010 BKN017
                      TEMPO 0101/0110 4000 BR BKN010
                      PROB40 TEMPO 0105/0108 BKN006
                      BECMG 0108/0110 9999
                      BECMG 0116/0119 21010KT
                      TEMPO 0202/0205 7000 -RADZ BKN010=
