##########################################################
# Query made at 01/13/2020 12:03:21 UTC
# Time interval: from 10/01/2015 00:00  to 10/31/2015 23:59  UTC
##########################################################

##########################################################
# EGLL, London / Heathrow Airport (United Kingdom)
# WMO index: 03772
# Latitude 51-29N. Longitude 000-27W. Altitude 24 m.
##########################################################

###################################
#  METAR/SPECI from EGLL
###################################
201510312350 METAR COR EGLL 312350Z AUTO VRB02KT 0050 R09L/P1500 FG NCD
                        09/08 Q1027 BECMG 1200 MIFG=
201510312320 METAR COR EGLL 312320Z AUTO 01002KT 1600 BR NCD 10/09 Q1027
                        TEMPO 1200 MIFG=
201510312250 METAR COR EGLL 312250Z AUTO VRB01KT 2200 BR NCD 11/10 Q1026
                        TEMPO 1200 MIFG=
201510312220 METAR COR EGLL 312220Z AUTO 02002KT 0700 R09L/P1500 FG NCD
                        11/10 Q1026 BECMG 1200 BR=
201510312150 METAR COR EGLL 312150Z AUTO 06001KT 2600 HZ NCD 11/10 Q1026
                        NOSIG=
201510312120 METAR COR EGLL 312120Z AUTO VRB01KT 2600 HZ NCD 11/10 Q1026
                        NOSIG=
201510312050 METAR COR EGLL 312050Z AUTO 06001KT 4900 HZ NCD 12/10 Q1025
                        NOSIG=
201510312020 METAR COR EGLL 312020Z AUTO 05002KT 5000 HZ NCD 12/11 Q1025
                        BECMG 4000 BR=
201510311950 METAR COR EGLL 311950Z AUTO 09003KT 6000 NCD 12/11 Q1025
                        TEMPO 4000 BR=
201510311920 METAR COR EGLL 311920Z AUTO VRB02KT 9000 NCD 13/11 Q1025
                        NOSIG=
201510311850 METAR COR EGLL 311850Z AUTO VRB02KT 8000 NCD 13/11 Q1024
                        NOSIG=
201510311820 METAR COR EGLL 311820Z AUTO 13004KT 9999 NCD 13/10 Q1024
                        NOSIG=
201510311750 METAR COR EGLL 311750Z AUTO 10002KT 9999 NCD 14/11 Q1024
                        NOSIG=
201510311720 METAR COR EGLL 311720Z AUTO 12003KT 9999 NCD 14/10 Q1023
                        NOSIG=
201510311650 METAR COR EGLL 311650Z AUTO 13003KT 9999 NCD 15/11 Q1023
                        NOSIG=
201510311620 METAR COR EGLL 311620Z AUTO 18003KT 9999 NCD 16/11 Q1023
                        NOSIG=
201510311550 METAR COR EGLL 311550Z AUTO 16003KT 9999 NCD 17/11 Q1022
                        NOSIG=
201510311520 METAR COR EGLL 311520Z AUTO VRB02KT 9999 NCD 17/11 Q1022
                        NOSIG=
201510311450 METAR EGLL 311450Z AUTO VRB01KT 9999 NCD 17/11 Q1022 NOSIG=
201510311420 METAR COR EGLL 311420Z AUTO VRB01KT 9999 NCD 17/11 Q1022
                        NOSIG=
201510311350 METAR EGLL 311350Z AUTO VRB02KT 9999 NCD 17/11 Q1022 NOSIG=
201510311320 METAR COR EGLL 311320Z AUTO VRB03KT 9999 NCD 16/11 Q1021
                        NOSIG=
201510311250 METAR COR EGLL 311250Z AUTO VRB02KT 9999 NCD 16/11 Q1021
                        NOSIG=
201510311220 METAR COR EGLL 311220Z AUTO VRB03KT 9999 NCD 16/11 Q1022
                        NOSIG=
201510311150 METAR COR EGLL 311150Z AUTO VRB03KT 9000 FEW011 14/11 Q1022
                        NOSIG=
201510311120 METAR EGLL 311120Z AUTO VRB03KT 8000 SCT009 14/11 Q1022=
201510311050 METAR COR EGLL 311050Z AUTO 17005KT 140V200 7000 OVC008 13/11
                        Q1022 BECMG SCT012=
201510311020 METAR COR EGLL 311020Z AUTO 14006KT 6000 OVC006 12/10 Q1022
                        NOSIG=
201510310950 METAR EGLL 310950Z AUTO 13004KT 100V160 4900 HZ OVC005 12/10
                        Q1022 BECMG 7000=
201510310920 METAR COR EGLL 310920Z AUTO 13004KT 100V170 4500 HZ OVC005
                        11/10 Q1022 BECMG 7000=
201510310850 METAR COR EGLL 310850Z AUTO 13005KT 4400 HZ OVC005 11/10
                        Q1021 NOSIG=
201510310820 METAR COR EGLL 310820Z AUTO 14006KT 100V170 4800 HZ OVC005
                        11/10 Q1021 NOSIG=
201510310750 METAR EGLL 310750Z AUTO 11007KT 5000 HZ OVC006 11/10 Q1021
                        NOSIG=
201510310720 METAR COR EGLL 310720Z AUTO 12006KT 4500 HZ OVC005 11/10
                        Q1021 TEMPO BKN004=
201510310650 METAR EGLL 310650Z AUTO 14005KT 4100 HZ OVC005 11/10 Q1021
                        TEMPO BKN004=
201510310620 METAR COR EGLL 310620Z AUTO 10006KT 4000 HZ OVC005 11/10
                        Q1020 TEMPO BKN004=
201510310550 METAR COR EGLL 310550Z AUTO 10006KT 4200 HZ OVC005 11/10
                        Q1020 TEMPO BKN004=
201510310520 METAR COR EGLL 310520Z AUTO 11005KT 4200 BR OVC006 11/10
                        Q1020 TEMPO BKN004=
201510310450 METAR EGLL 310450Z AUTO 11006KT 4100 BR OVC006 11/10 Q1020=
201510310420 METAR COR EGLL 310420Z AUTO 09005KT 3900 BR BKN007 10/10
                        Q1020 TEMPO BKN004=
201510310350 METAR COR EGLL 310350Z AUTO 08004KT 4700 BR OVC007 10/09
                        Q1020 TEMPO BKN004=
201510310320 METAR COR EGLL 310320Z AUTO 06002KT 3900 BR BKN007 10/09
                        Q1020 TEMPO BKN004=
201510310250 METAR EGLL 310250Z AUTO 11002KT 6000 FEW008 10/10 Q1020 TEMPO
                        3500 BR BKN006=
201510310220 METAR COR EGLL 310220Z AUTO 07004KT 7000 NCD 10/09 Q1020
                        NOSIG=
201510310150 METAR EGLL 310150Z AUTO 07004KT 8000 NCD 10/10 Q1020 NOSIG=
201510310120 METAR COR EGLL 310120Z AUTO 10005KT 9999 NCD 11/10 Q1020
                        NOSIG=
201510310050 METAR EGLL 310050Z AUTO 11005KT 9999 NCD 12/10 Q1020 NOSIG=
201510310020 METAR COR EGLL 310020Z AUTO 12008KT 9999 NCD 12/11 Q1021
                        NOSIG=
201510302350 METAR COR EGLL 302350Z AUTO 11005KT 9999 NCD 12/10 Q1021
                        NOSIG=
201510302320 METAR COR EGLL 302320Z AUTO 08004KT 9999 NCD 12/10 Q1020
                        NOSIG=
201510302250 METAR EGLL 302250Z AUTO 12005KT 9999 NCD 13/11 Q1020 NOSIG=
201510302220 METAR COR EGLL 302220Z AUTO 10006KT 9999 NCD 13/11 Q1020
                        NOSIG=
201510302150 METAR EGLL 302150Z AUTO 11007KT 9999 NCD 14/11 Q1021 NOSIG=
201510302120 METAR COR EGLL 302120Z AUTO 10006KT 9999 NCD 13/10 Q1021
                        NOSIG=
201510302050 METAR COR EGLL 302050Z AUTO 10006KT 9999 NCD 13/10 Q1021
                        NOSIG=
201510302020 METAR COR EGLL 302020Z AUTO 12006KT 9999 NCD 13/10 Q1021
                        NOSIG=
201510301950 METAR COR EGLL 301950Z AUTO 09003KT 9999 NCD 13/10 Q1021
                        NOSIG=
201510301920 METAR COR EGLL 301920Z AUTO 09004KT 9999 NCD 13/10 Q1021
                        NOSIG=
201510301850 METAR EGLL 301850Z AUTO VRB02KT 9999 NCD 14/10 Q1021 NOSIG=
201510301820 METAR COR EGLL 301820Z AUTO 13004KT 9999 NCD 14/10 Q1020
                        NOSIG=
201510301750 METAR EGLL 301750Z AUTO 14005KT 100V160 9999 NCD 14/10 Q1020
                        NOSIG=
201510301720 METAR COR EGLL 301720Z AUTO 15004KT 120V180 9999 NCD 15/11
                        Q1020 NOSIG=
201510301650 METAR COR EGLL 301650Z AUTO 15009KT 9999 NCD 15/11 Q1019
                        NOSIG=
201510301620 METAR COR EGLL 301620Z AUTO 12006KT 9999 NCD 15/12 Q1019
                        NOSIG=
201510301550 METAR EGLL 301550Z AUTO 16008KT 9999 NCD 15/11 Q1019 NOSIG=
201510301520 METAR COR EGLL 301520Z AUTO 16007KT 9999 NCD 16/12 Q1019
                        NOSIG=
201510301450 METAR EGLL 301450Z AUTO 14009KT 9999 NCD 16/13 Q1019 NOSIG=
201510301420 METAR COR EGLL 301420Z AUTO 14008KT 9999 FEW020 16/13 Q1019
                        NOSIG=
201510301350 METAR EGLL 301350Z AUTO 15007KT 9999 BKN019 16/13 Q1018 NOSIG=
201510301320 METAR COR EGLL 301320Z AUTO 16008KT 9999 SCT018 16/13 Q1019
                        NOSIG=
201510301250 METAR EGLL 301250Z AUTO 18010KT 9999 FEW015 16/13 Q1019 NOSIG=
201510301220 METAR COR EGLL 301220Z AUTO 17010KT 9999 SCT012 16/13 Q1019
                        NOSIG=
201510301150 METAR EGLL 301150Z AUTO 19010KT 9999 BKN011 16/13 Q1019 BECMG
                        SCT012=
201510301120 METAR COR EGLL 301120Z AUTO 18010KT 9999 OVC009 15/13 Q1018
                        BECMG SCT009 BKN012=
201510301050 METAR COR EGLL 301050Z AUTO 17012KT 9999 -RA BKN008 15/13
                        Q1018 BECMG BKN011=
201510301020 METAR COR EGLL 301020Z AUTO 16012KT 9999 -RA BKN008 BKN019
                        14/13 Q1018 BECMG NSW SCT008=
201510300950 METAR COR EGLL 300950Z AUTO 17012KT 9999 -RA BKN009 14/13
                        Q1018 BECMG SCT009=
201510300920 METAR COR EGLL 300920Z AUTO 16013KT 9999 -RA BKN010/// BKN023///
                        OVC036/// //////TCU 14/13 Q1018 TEMPO
                        BKN008=
201510300850 METAR EGLL 300850Z AUTO 16012KT 9999 -RA FEW007 BKN025 14/13
                        Q1017 TEMPO 4000 RADZ BKN007=
201510300820 METAR COR EGLL 300820Z AUTO 17013KT 8000 -RA BKN008/// BKN021///
                        //////TCU 14/13 Q1017 TEMPO 4000
                        RADZ=
201510300750 METAR EGLL 300750Z AUTO 17012KT 9999 -RA BKN007/// //////TCU
                        14/13 Q1016 TEMPO 4000 RADZ=
201510300720 METAR COR EGLL 300720Z AUTO 16013KT 8000 -RA BKN005/// //////TCU
                        14/13 Q1015 TEMPO 4000 RADZ=
201510300650 METAR EGLL 300650Z AUTO 16013KT 7000 -RA OVC006/// //////TCU
                        14/13 Q1015 TEMPO 4000 RADZ=
201510300620 METAR COR EGLL 300620Z AUTO 16012KT 6000 -RA BKN007 OVC017
                        14/13 Q1015 TEMPO 4000 RADZ=
201510300550 METAR EGLL 300550Z AUTO 16013KT 9999 -RA BKN007/// BKN019///
                        //////TCU 14/13 Q1014 TEMPO 4000
                        RADZ BKN012=
201510300520 METAR COR EGLL 300520Z AUTO 15012KT 5000 -RA BKN008 BKN032
                        14/13 Q1014 RERA REDZ TEMPO 4000
                        RADZ BKN012=
201510300450 METAR EGLL 300450Z AUTO 15011KT 4600 -RADZ SCT011/// BKN025///
                        //////TCU 14/13 Q1014 TEMPO RA BKN012=
201510300420 METAR COR EGLL 300420Z AUTO 14010KT 9999 FEW011 OVC024 14/13
                        Q1014 TEMPO 4000 RA BKN012=
201510300350 METAR EGLL 300350Z AUTO 14009KT 9999 SCT008 OVC025 14/13
                        Q1015 TEMPO 4000 RA BKN008=
201510300320 METAR COR EGLL 300320Z AUTO 15009KT 9999 BKN008 14/13 Q1015
                        TEMPO 4000 RA BKN012=
201510300250 METAR EGLL 300250Z AUTO 15007KT 9000 OVC008 14/13 Q1015 TEMPO
                        4000 RA OVC012=
201510300220 METAR COR EGLL 300220Z AUTO 13007KT 6000 OVC009 13/13 Q1015
                        TEMPO 4000 RA BKN012=
201510300150 METAR EGLL 300150Z AUTO 11005KT 5000 BR BKN004 12/12 Q1015
                        TEMPO 4000 -RADZ BKN008=
201510300120 METAR COR EGLL 300120Z AUTO 09003KT 3700 -DZ BKN002 12/12
                        Q1015 REDZ TEMPO 6000 NSW BKN008=
201510300050 METAR EGLL 300050Z AUTO VRB03KT 3600 -DZ OVC007 12/11 Q1015
                        REDZ TEMPO 6000 NSW=
201510300020 METAR COR EGLL 300020Z AUTO 17003KT 3600 -DZ SCT002 OVC009
                        12/11 Q1015 REDZ TEMPO 6000 NSW=
201510292350 METAR EGLL 292350Z AUTO 18005KT 3500 -DZ FEW003 OVC010 12/11
                        Q1016 REDZ TEMPO 6000 -RA BKN008=
201510292320 METAR COR EGLL 292320Z AUTO 20005KT 170V250 3300 DZ FEW002
                        OVC011 12/11 Q1016 TEMPO 6000 -RA
                        BKN008=
201510292250 METAR COR EGLL 292250Z AUTO 20004KT 100V240 4800 -DZ OVC010
                        11/11 Q1015 TEMPO 6000 -RA BKN008=
201510292220 METAR COR EGLL 292220Z AUTO 21004KT 180V240 6000 -RA FEW005
                        BKN012 11/11 Q1015 REDZ TEMPO 4000
                        -RADZ BKN008=
201510292150 METAR COR EGLL 292150Z AUTO 24005KT 6000 -RA SCT004 BKN011
                        12/11 Q1015 REDZ TEMPO 4500 RADZ
                        BKN008=
201510292120 METAR COR EGLL 292120Z AUTO 24006KT 3300 DZ SCT003 OVC012
                        12/11 Q1015 TEMPO 6000 -DZ BKN004=
201510292050 METAR COR EGLL 292050Z AUTO 26008KT 230V290 3600 -RADZ BKN002
                        OVC011 13/12 Q1015 RERA REDZ TEMPO
                        FEW004 BKN008=
201510292020 METAR COR EGLL 292020Z AUTO 17008KT 140V210 3800 RADZ BKN002
                        14/13 Q1014 TEMPO 6000 -RADZ FEW004
                        BKN008=
201510291950 METAR COR EGLL 291950Z AUTO 15008KT 110V180 3300 DZ BKN003
                        14/13 Q1014 TEMPO 6000 FEW004 BKN008=
201510291920 METAR COR EGLL 291920Z AUTO 16009KT 4400 -DZ BKN002 14/13
                        Q1014 REDZ BECMG 6000 SCT003 BKN008=
201510291850 METAR COR EGLL 291850Z AUTO 16008KT 3200 DZ BKN004 OVC013
                        14/13 Q1014 BECMG 9999 NSW SCT004
                        BKN013=
201510291820 METAR COR EGLL 291820Z AUTO 16009KT 120V190 3800 -DZ OVC004
                        14/13 Q1014 REDZ BECMG 9999 NSW BKN006=
201510291750 METAR EGLL 291750Z AUTO 17009KT 4500 -RADZ OVC005 14/13 Q1014
                        BECMG 9999 NSW=
201510291720 METAR COR EGLL 291720Z AUTO 16008KT 120V200 4700 -DZ OVC006
                        14/13 Q1013 BECMG 9999 NSW=
201510291650 METAR COR EGLL 291650Z AUTO 16009KT 130V210 9999 BKN007 14/13
                        Q1013 TEMPO 4500 DZRA=
201510291620 METAR COR EGLL 291620Z AUTO 17009KT 140V210 9000 -RA BKN006
                        14/13 Q1013 TEMPO 4500 DZRA=
201510291550 METAR EGLL 291550Z AUTO 18011KT 9000 -RA BKN006 14/13 Q1013
                        TEMPO 4500 DZRA=
201510291520 METAR COR EGLL 291520Z AUTO 18011KT 160V220 9000 BKN007 14/13
                        Q1012 TEMPO BKN012=
201510291450 METAR EGLL 291450Z AUTO 19012KT 160V230 9999 BKN006 14/13
                        Q1012 NOSIG=
201510291420 METAR COR EGLL 291420Z AUTO 19011KT 170V230 7000 -RA BKN006
                        OVC015 14/13 Q1012 TEMPO 4500 DZRA=
201510291350 METAR EGLL 291350Z AUTO 18014KT 150V230 9000 BKN007 OVC019
                        15/13 Q1012 TEMPO 4500 DZRA=
201510291320 METAR COR EGLL 291320Z AUTO 18013KT 150V220 9999 BKN011 15/13
                        Q1012 TEMPO 4500 -RADZ BKN009=
201510291250 METAR EGLL 291250Z AUTO 17013KT 150V230 9999 OVC011 15/12
                        Q1012 TEMPO 4800 -DZRA BKN009=
201510291220 METAR COR EGLL 291220Z AUTO 18012G22KT 130V230 9999 OVC012
                        15/12 Q1012 TEMPO 4500 -DZRA BKN009=
201510291150 METAR EGLL 291150Z AUTO 18011KT 9999 OVC010 15/12 Q1012 TEMPO
                        4000 DZRA BKN009=
201510291120 METAR COR EGLL 291120Z AUTO 17010KT 9999 OVC010 14/12 Q1012
                        TEMPO 4500 RADZ BKN009=
201510291050 METAR EGLL 291050Z AUTO 17013KT 9000 OVC013 14/12 Q1012 TEMPO
                        4500 DZRA BKN009=
201510291020 METAR COR EGLL 291020Z AUTO 17011KT 9999 BKN016 15/12 Q1012
                        TEMPO -RA BKN014=
201510290950 METAR EGLL 290950Z AUTO 17012KT 9999 BKN016 14/12 Q1012 TEMPO
                        -RA BKN014=
201510290920 METAR COR EGLL 290920Z AUTO 17011KT 9999 OVC015 14/11 Q1011
                        TEMPO BKN012=
201510290850 METAR EGLL 290850Z AUTO 17010KT 9999 BKN014 14/11 Q1011 TEMPO
                        SCT014=
201510290820 METAR COR EGLL 290820Z AUTO 16008KT 9999 BKN015 13/11 Q1011
                        TEMPO BKN014=
201510290750 METAR EGLL 290750Z AUTO 13007KT 9999 SCT012 12/11 Q1011 NOSIG=
201510290720 METAR COR EGLL 290720Z AUTO 14006KT 9999 BKN013 12/11 Q1011
                        NOSIG=
201510290650 METAR EGLL 290650Z AUTO 14006KT 9999 BKN013 11/10 Q1011 TEMPO
                        FEW013=
201510290620 METAR COR EGLL 290620Z AUTO 13006KT 9999 BKN019 12/11 Q1010
                        TEMPO BKN012=
201510290550 METAR EGLL 290550Z AUTO 14007KT 9999 FEW021 BKN026 12/11
                        Q1010 NOSIG=
201510290520 METAR COR EGLL 290520Z AUTO 14006KT 090V180 9999 OVC024 12/11
                        Q1010 NOSIG=
201510290450 METAR EGLL 290450Z AUTO 15005KT 080V180 9999 BKN027 11/10
                        Q1010 TEMPO BKN012=
201510290420 METAR COR EGLL 290420Z AUTO 14006KT 9999 OVC023 11/10 Q1010
                        TEMPO BKN012=
201510290350 METAR EGLL 290350Z AUTO 13006KT 9999 SCT023 10/10 Q1010 TEMPO
                        BKN012=
201510290320 METAR COR EGLL 290320Z AUTO 14006KT 9999 FEW013 10/09 Q1010
                        TEMPO BKN012=
201510290250 METAR EGLL 290250Z AUTO 13007KT 9999 BKN015 10/10 Q1010 NOSIG=
201510290220 METAR COR EGLL 290220Z AUTO 13006KT 9999 SCT015 10/09 Q1009
                        TEMPO BKN012=
201510290150 METAR EGLL 290150Z AUTO 13007KT 7000 FEW023 08/07 Q1009 NOSIG=
201510290120 METAR COR EGLL 290120Z AUTO 13006KT 5000 BR FEW028 08/08
                        Q1010 NOSIG=
201510290050 METAR COR EGLL 290050Z AUTO 14005KT 9999 SCT026 09/09 Q1010
                        NOSIG=
201510290020 METAR COR EGLL 290020Z AUTO 15004KT 6000 SCT026 09/08 Q1010
                        NOSIG=
201510282350 METAR COR EGLL 282350Z AUTO 13005KT 8000 NCD 09/09 Q1009
                        NOSIG=
201510282320 METAR COR EGLL 282320Z AUTO 14005KT 8000 NCD 10/09 Q1009
                        NOSIG=
201510282250 METAR EGLL 282250Z AUTO 14004KT 8000 SCT017 10/09 Q1010 NOSIG=
201510282220 METAR COR EGLL 282220Z AUTO 14006KT 9000 NCD 10/09 Q1009
                        NOSIG=
201510282150 METAR EGLL 282150Z AUTO 14006KT 9999 NCD 10/09 Q1009 NOSIG=
201510282120 METAR COR EGLL 282120Z AUTO 15006KT 100V170 9999 FEW028 11/09
                        Q1009 NOSIG=
201510282050 METAR COR EGLL 282050Z AUTO 14005KT 100V180 9999 FEW018 11/10
                        Q1009 NOSIG=
201510282020 METAR COR EGLL 282020Z AUTO 15007KT 120V190 9999 NCD 11/10
                        Q1009 NOSIG=
201510281950 METAR COR EGLL 281950Z AUTO 17007KT 120V200 9999 NCD 11/10
                        Q1009 NOSIG=
201510281920 METAR COR EGLL 281920Z AUTO 18008KT 150V220 9999 NCD 12/10
                        Q1009 NOSIG=
201510281850 METAR EGLL 281850Z AUTO 18008KT 160V230 9999 NCD 11/09 Q1008
                        NOSIG=
201510281820 METAR COR EGLL 281820Z AUTO 18008KT 130V220 9999 NCD 12/09
                        Q1008 NOSIG=
201510281750 METAR EGLL 281750Z AUTO 20009KT 9999 NCD 13/09 Q1008 NOSIG=
201510281720 METAR COR EGLL 281720Z AUTO 19008KT 9999 NCD 13/10 Q1008
                        NOSIG=
201510281650 METAR EGLL 281650Z AUTO 22007KT 9999 NCD 14/09 Q1007 NOSIG=
201510281620 METAR COR EGLL 281620Z AUTO 22008KT 9999 NCD 15/09 Q1007
                        NOSIG=
201510281550 METAR COR EGLL 281550Z AUTO 21007KT 170V250 9999 FEW031 16/09
                        Q1007 NOSIG=
201510281520 METAR COR EGLL 281520Z AUTO 22008KT 190V270 9999 FEW030 16/09
                        Q1007 NOSIG=
201510281450 METAR COR EGLL 281450Z AUTO 24008KT 180V290 9999 FEW029 16/10
                        Q1007 NOSIG=
201510281420 METAR COR EGLL 281420Z AUTO 24008KT 9999 FEW024 16/10 Q1007
                        NOSIG=
201510281350 METAR COR EGLL 281350Z AUTO 24007KT 9999 SCT017 15/11 Q1007
                        NOSIG=
201510281320 METAR COR EGLL 281320Z AUTO 27006KT 230V290 9999 FEW015 15/11
                        Q1007 NOSIG=
201510281250 METAR EGLL 281250Z AUTO 25008KT 200V280 9999 FEW016 15/12
                        Q1007 NOSIG=
201510281220 METAR COR EGLL 281220Z AUTO 25008KT 9999 NCD 14/11 Q1007
                        NOSIG=
201510281150 METAR EGLL 281150Z AUTO 25007KT 210V280 9999 NCD 14/11 Q1007
                        NOSIG=
201510281120 METAR COR EGLL 281120Z AUTO 25009KT 9999 NCD 14/11 Q1007
                        NOSIG=
201510281050 METAR EGLL 281050Z AUTO 28005KT 250V310 9999 NCD 13/11 Q1006
                        NOSIG=
201510281020 METAR COR EGLL 281020Z AUTO 28008KT 9999 FEW006 13/11 Q1007
                        NOSIG=
201510280950 METAR EGLL 280950Z AUTO 27009KT 9999 NCD 12/11 Q1007 NOSIG=
201510280920 METAR COR EGLL 280920Z AUTO 28006KT 9999 FEW024 12/11 Q1007
                        NOSIG=
201510280850 METAR EGLL 280850Z AUTO 28005KT 7000 -RA FEW024 12/11 Q1007
                        NOSIG=
201510280820 METAR COR EGLL 280820Z AUTO 27005KT 7000 -RA FEW026/// //////TCU
                        12/11 Q1007 TEMPO BKN006=
201510280750 METAR EGLL 280750Z AUTO 29006KT 6000 -RA //////TCU 11/11
                        Q1006 TEMPO BKN006=
201510280720 METAR COR EGLL 280720Z AUTO 27008KT 8000 -RA BKN047/// //////CB
                        12/11 Q1006 TEMPO BKN006=
201510280650 METAR EGLL 280650Z AUTO 23007KT 200V270 5000 -RA FEW003///
                        BKN037/// //////CB 12/11 Q1007 RERA
                        TEMPO 4000 RA BKN004=
201510280620 METAR COR EGLL 280620Z AUTO 25006KT 6000 -RA SCT003/// BKN049///
                        //////CB 12/11 Q1006 TEMPO 4000 RADZ
                        BKN004=
201510280550 METAR COR EGLL 280550Z AUTO 26004KT 230V290 6000 -RA FEW003///
                        BKN046/// //////TCU 12/11 Q1006 TEMPO
                        4000 RA BKN004=
201510280520 METAR COR EGLL 280520Z 29004KT 6000 -RA FEW005 12/11 Q1006
                        TEMPO 4000 RA BKN004=
201510280450 METAR COR EGLL 280450Z 27004KT 7000 -RA FEW004 BKN020 12/11
                        Q1006 TEMPO 4000 RA BKN004=
201510280420 METAR COR EGLL 280420Z 27004KT 6000 -RA FEW004 BKN020 12/11
                        Q1006 TEMPO 4000 RA BKN004=
201510280350 METAR EGLL 280350Z 27004KT 8000 -RA SCT004 SCT015 12/11 Q1007
                        TEMPO 4000 RA BKN004=
201510280320 METAR COR EGLL 280320Z 26005KT 9999 FEW004 SCT018 12/11 Q1007
                        TEMPO 4000 BR BKN004=
201510280250 METAR COR EGLL 280250Z 28005KT 9999 FEW004 SCT018 12/11 Q1007
                        TEMPO BKN012=
201510280220 METAR COR EGLL 280220Z AUTO 27005KT 9999 SCT003 OVC017 12/11
                        Q1007 TEMPO BKN012=
201510280150 METAR EGLL 280150Z AUTO 26007KT 8000 -RA FEW003/// BKN016///
                        OVC046/// //////TCU 12/11 Q1007 TEMPO
                        BKN012=
201510280120 METAR COR EGLL 280120Z AUTO 26007KT 9000 -RA FEW006/// BKN011///
                        //////TCU 12/11 Q1008 RERA REDZ TEMPO
                        4000 RA BKN008=
201510280050 METAR EGLL 280050Z AUTO 25009KT 7000 -RA OVC008/// //////CB
                        13/11 Q1007 TEMPO BKN010=
201510280020 METAR COR EGLL 280020Z AUTO 27007KT 9999 OVC007 14/12 Q1007
                        TEMPO RA=
201510272350 METAR COR EGLL 272350Z AUTO 13004KT 9999 OVC011 15/13 Q1007
                        TEMPO RA=
201510272320 METAR COR EGLL 272320Z AUTO 12006KT 9999 BKN012 15/13 Q1007
                        TEMPO RA=
201510272250 METAR EGLL 272250Z AUTO 12007KT 9999 FEW026 BKN038 15/13
                        Q1007 TEMPO -RA BKN014=
201510272220 METAR COR EGLL 272220Z AUTO 12008KT 9999 SCT039 SCT048 15/13
                        Q1007 TEMPO -RA BKN014=
201510272150 METAR EGLL 272150Z AUTO 13006KT 9999 SCT037 BKN049 15/12
                        Q1007 TEMPO -RA BKN014=
201510272120 METAR COR EGLL 272120Z AUTO 13006KT 100V170 9999 OVC033 15/12
                        Q1008 TEMPO -RA BKN014=
201510272050 METAR COR EGLL 272050Z AUTO 12006KT 9999 OVC032 15/12 Q1007
                        TEMPO -RA BKN014=
201510272020 METAR COR EGLL 272020Z AUTO 08005KT 9999 BKN029 14/12 Q1007
                        NOSIG=
201510271950 METAR EGLL 271950Z AUTO 09005KT 9999 SCT029 14/12 Q1008 NOSIG=
201510271920 METAR COR EGLL 271920Z AUTO 11005KT 9999 FEW028 15/12 Q1008
                        NOSIG=
201510271850 METAR EGLL 271850Z AUTO 13005KT 9999 NCD 15/12 Q1008 NOSIG=
201510271820 METAR COR EGLL 271820Z AUTO 12006KT 9999 FEW025 SCT049 15/12
                        Q1008 NOSIG=
201510271750 METAR EGLL 271750Z AUTO 14007KT 9999 FEW024 15/12 Q1008 NOSIG=
201510271720 METAR COR EGLL 271720Z AUTO 14008KT 9999 FEW023 16/12 Q1008
                        NOSIG=
201510271650 METAR COR EGLL 271650Z AUTO 15007KT 9999 FEW024 16/11 Q1008
                        NOSIG=
201510271620 METAR EGLL 271620Z AUTO 16006KT 9999 NCD 16/12 Q1008=
201510271550 METAR EGLL 271550Z AUTO 15007KT 9999 NCD 16/12 Q1008 NOSIG=
201510271520 METAR COR EGLL 271520Z AUTO 16008KT 9999 NCD 17/12 Q1008
                        NOSIG=
201510271450 METAR EGLL 271450Z AUTO 15009KT 9999 FEW027 18/12 Q1008 NOSIG=
201510271420 METAR COR EGLL 271420Z AUTO 15008KT 9999 FEW028 18/12 Q1008
                        NOSIG=
201510271350 METAR EGLL 271350Z AUTO 17010KT 9999 FEW028 18/12 Q1008 NOSIG=
201510271320 METAR COR EGLL 271320Z AUTO 12008KT 9999 FEW025 19/13 Q1008
                        NOSIG=
201510271250 METAR EGLL 271250Z AUTO 13010KT 100V170 9999 FEW019 18/13
                        Q1008 NOSIG=
201510271220 METAR COR EGLL 271220Z AUTO 12011KT 9999 SCT016 18/13 Q1008
                        NOSIG=
201510271150 METAR EGLL 271150Z AUTO 11009KT 9999 FEW016 17/13 Q1009 NOSIG=
201510271120 METAR COR EGLL 271120Z AUTO 11008KT 9999 FEW011 17/13 Q1009
                        TEMPO BKN012=
201510271050 METAR EGLL 271050Z AUTO 11006KT 9000 FEW009 15/13 Q1009 TEMPO
                        BKN012=
201510271020 METAR COR EGLL 271020Z AUTO 10005KT 7000 BKN008 14/12 Q1010
                        TEMPO FEW010=
201510270950 METAR EGLL 270950Z AUTO 11005KT 6000 OVC006 14/13 Q1010 TEMPO
                        FEW008=
201510270920 METAR COR EGLL 270920Z AUTO 11008KT 5000 HZ OVC005 13/12
                        Q1010 TEMPO FEW005=
201510270850 METAR EGLL 270850Z AUTO 10008KT 4100 HZ OVC005 13/12 Q1010
                        TEMPO FEW005=
201510270820 METAR COR EGLL 270820Z AUTO 09007KT 3500 BR BKN004 12/12
                        Q1010 TEMPO FEW004=
201510270750 METAR COR EGLL 270750Z AUTO 09008KT 3500 BR FEW004 12/11
                        Q1010 NOSIG=
201510270720 METAR COR EGLL 270720Z AUTO 08005KT 3500 BR FEW004 12/11
                        Q1010 TEMPO BKN004=
201510270650 METAR EGLL 270650Z AUTO 08006KT 3400 BR FEW005 12/11 Q1010
                        TEMPO BKN006=
201510270620 METAR COR EGLL 270620Z AUTO 09007KT 3300 BR FEW005 11/11
                        Q1010 TEMPO BKN006=
201510270550 METAR EGLL 270550Z 09007KT 3200 BR FEW005 11/11 Q1010 TEMPO
                        BKN004=
201510270520 METAR COR EGLL 270520Z 10007KT 2500 BR FEW005 11/11 Q1010
                        TEMPO BKN004=
201510270450 METAR COR EGLL 270450Z 09008KT 2000 BR SCT002 11/11 Q1010
                        TEMPO BKN002=
201510270420 METAR COR EGLL 270420Z 09007KT 1500 BR BKN002 11/11 Q1010
                        TEMPO 0800 FG=
201510270350 METAR EGLL 270350Z AUTO 08007KT 0450 R09L/P1500 FG BKN001
                        11/11 Q1010 TEMPO 1400 BR SCT001
                        BKN003=
201510270320 METAR COR EGLL 270320Z AUTO 08005KT 2400 BR NCD 11/10 Q1010
                        TEMPO BKN003=
201510270250 METAR COR EGLL 270250Z AUTO 09005KT 2500 BR FEW006 10/10
                        Q1011 TEMPO BKN004=
201510270220 METAR COR EGLL 270220Z AUTO 09004KT 2600 BR BKN006 11/10
                        Q1011 TEMPO BKN004=
201510270150 METAR EGLL 270150Z AUTO 08004KT 3000 BR BKN007 11/10 Q1011
                        NOSIG=
201510270120 METAR COR EGLL 270120Z AUTO 10005KT 3200 HZ BKN008 11/10
                        Q1011 NOSIG=
201510270050 METAR COR EGLL 270050Z AUTO 11004KT 090V170 3900 HZ BKN009
                        11/10 Q1011 NOSIG=
201510270020 METAR COR EGLL 270020Z AUTO 08004KT 4600 HZ SCT009 11/10
                        Q1011 TEMPO BKN009=
201510262350 METAR EGLL 262350Z AUTO 13005KT 6000 SCT011 13/11 Q1012 TEMPO
                        BKN009=
201510262320 METAR COR EGLL 262320Z AUTO 13006KT 7000 OVC010 13/11 Q1012
                        TEMPO BKN009=
201510262250 METAR EGLL 262250Z AUTO 11006KT 7000 OVC010 13/11 Q1012 NOSIG=
201510262220 METAR COR EGLL 262220Z AUTO 10006KT 7000 OVC009 12/11 Q1012
                        NOSIG=
201510262150 METAR COR EGLL 262150Z AUTO 09006KT 8000 OVC009 12/11 Q1012
                        TEMPO BKN010=
201510262120 METAR COR EGLL 262120Z AUTO 11005KT 7000 BKN010 12/10 Q1012
                        BECMG BKN009=
201510262050 METAR COR EGLL 262050Z AUTO 14007KT 8000 OVC009 12/10 Q1012
                        NOSIG=
201510262020 METAR COR EGLL 262020Z AUTO 13007KT 8000 OVC009 12/10 Q1012
                        TEMPO BKN011=
201510261950 METAR EGLL 261950Z AUTO 13008KT 9000 OVC010 12/10 Q1012 NOSIG=
201510261920 METAR COR EGLL 261920Z AUTO 12007KT 9000 OVC009 12/10 Q1012
                        TEMPO BKN010=
201510261850 METAR EGLL 261850Z AUTO 13007KT 9000 OVC009 13/10 Q1012 BECMG
                        BKN010=
201510261820 METAR COR EGLL 261820Z AUTO 13005KT 9000 OVC010 13/11 Q1012
                        NOSIG=
201510261750 METAR EGLL 261750Z AUTO 12007KT 9999 OVC010 13/10 Q1012 NOSIG=
201510261720 METAR COR EGLL 261720Z AUTO 13009KT 9999 OVC011 13/11 Q1012
                        NOSIG=
201510261650 METAR EGLL 261650Z AUTO 12009KT 9999 OVC012 13/10 Q1012 NOSIG=
201510261620 METAR COR EGLL 261620Z AUTO 13009KT 9999 BKN013 13/11 Q1012
                        NOSIG=
201510261550 METAR EGLL 261550Z AUTO 16010KT 9999 FEW014 14/10 Q1012 TEMPO
                        BKN012=
201510261520 METAR COR EGLL 261520Z AUTO 14011KT 9999 FEW018 15/11 Q1012
                        TEMPO BKN014=
201510261450 METAR EGLL 261450Z AUTO 15009KT 9999 NCD 16/11 Q1012 NOSIG=
201510261420 METAR COR EGLL 261420Z AUTO 12010KT 9999 NCD 17/11 Q1012
                        NOSIG=
201510261350 METAR COR EGLL 261350Z AUTO 12007KT 090V170 9999 FEW023 17/11
                        Q1012 NOSIG=
201510261320 METAR COR EGLL 261320Z AUTO 13008KT 9999 NCD 16/11 Q1013
                        NOSIG=
201510261250 METAR EGLL 261250Z AUTO 11009KT 9999 BKN015 16/11 Q1013 NOSIG=
201510261220 METAR COR EGLL 261220Z AUTO 12011KT 9999 BKN014 15/11 Q1013
                        BECMG BKN015=
201510261150 METAR COR EGLL 261150Z AUTO 12010KT 9999 OVC012 14/11 Q1014
                        BECMG BKN015=
201510261120 METAR EGLL 261120Z AUTO 13009KT 9999 OVC012 13/11 Q1014=
201510261050 METAR EGLL 261050Z AUTO 14009KT 100V170 9999 OVC011 13/10
                        Q1014 BECMG SCT012=
201510261020 METAR COR EGLL 261020Z AUTO 11009KT 9999 BKN012 12/10 Q1015
                        NOSIG=
201510260950 METAR EGLL 260950Z AUTO 10009KT 9999 FEW014 12/10 Q1015 NOSIG=
201510260920 METAR COR EGLL 260920Z AUTO 10009KT 9000 FEW023 11/09 Q1015
                        NOSIG=
201510260850 METAR EGLL 260850Z AUTO 11009KT 9000 NCD 11/09 Q1015 NOSIG=
201510260820 METAR COR EGLL 260820Z AUTO 10008KT 9000 NCD 10/08 Q1015
                        NOSIG=
201510260750 METAR COR EGLL 260750Z AUTO 09007KT 8000 FEW028 09/08 Q1015
                        NOSIG=
201510260720 METAR COR EGLL 260720Z AUTO 09008KT 8000 OVC028 09/08 Q1015
                        NOSIG=
201510260650 METAR EGLL 260650Z AUTO 09006KT 7000 OVC027 09/08 Q1016 NOSIG=
201510260620 METAR COR EGLL 260620Z AUTO 09007KT 6000 OVC026 08/07 Q1016
                        NOSIG=
201510260550 METAR EGLL 260550Z AUTO 09007KT 5000 BR OVC026 08/07 Q1016
                        TEMPO 4800=
201510260520 METAR COR EGLL 260520Z AUTO 09006KT 5000 BR BKN026 07/06
                        Q1016 TEMPO 4800=
201510260450 METAR COR EGLL 260450Z AUTO 10006KT 5000 HZ FEW030/// 06/05
                        Q1017 NOSIG=
201510260420 METAR COR EGLL 260420Z AUTO 09007KT 8000 SCT026/// 07/06
                        Q1017 NOSIG=
201510260350 METAR COR EGLL 260350Z AUTO 09007KT 9999 OVC027/// 08/07
                        Q1017 NOSIG=
201510260320 METAR EGLL 260320Z AUTO 09007KT 9999 OVC026/// 08/07 Q1018=
201510260250 METAR EGLL 260250Z AUTO 09008KT 9999 OVC026 08/07 Q1018 NOSIG=
201510260220 METAR COR EGLL 260220Z AUTO 09006KT 9999 BKN026 07/06 Q1019
                        NOSIG=
201510260150 METAR COR EGLL 260150Z AUTO 09007KT 9999 BKN027 07/06 Q1019
                        NOSIG=
201510260120 METAR COR EGLL 260120Z AUTO 09007KT 9999 BKN027 07/06 Q1019
                        NOSIG=
201510260050 METAR EGLL 260050Z AUTO 09006KT 9999 OVC029 06/05 Q1020 NOSIG=
201510260020 METAR COR EGLL 260020Z AUTO 09006KT 9999 BKN029 06/05 Q1020
                        NOSIG=
201510252350 METAR COR EGLL 252350Z AUTO 09006KT 9999 BKN028 05/04 Q1020
                        NOSIG=
201510252320 METAR COR EGLL 252320Z AUTO 09005KT 9999 NCD 05/03 Q1021
                        NOSIG=
201510252250 METAR EGLL 252250Z AUTO 09006KT 9999 NCD 05/03 Q1021 NOSIG=
201510252220 METAR COR EGLL 252220Z AUTO 09006KT 9999 NCD 05/03 Q1022
                        NOSIG=
201510252150 METAR EGLL 252150Z AUTO 09004KT 9999 NCD 06/04 Q1022 NOSIG=
201510252120 METAR COR EGLL 252120Z AUTO 09005KT 9999 NCD 05/04 Q1022
                        NOSIG=
201510252050 METAR COR EGLL 252050Z AUTO 12006KT 9999 NCD 06/04 Q1023
                        NOSIG=
201510252020 METAR COR EGLL 252020Z AUTO 14004KT 9999 NCD 06/04 Q1023
                        NOSIG=
201510251950 METAR COR EGLL 251950Z AUTO 14007KT 9999 NCD 07/05 Q1023
                        NOSIG=
201510251920 METAR COR EGLL 251920Z AUTO 12008KT 9999 NCD 06/04 Q1023
                        NOSIG=
201510251850 METAR EGLL 251850Z AUTO 13005KT 100V170 9999 NCD 06/04 Q1023
                        NOSIG=
201510251820 METAR COR EGLL 251820Z AUTO 14006KT 110V220 9999 NCD 07/04
                        Q1023 NOSIG=
201510251750 METAR COR EGLL 251750Z AUTO 13006KT 110V170 9999 NCD 07/04
                        Q1024 NOSIG=
201510251720 METAR COR EGLL 251720Z AUTO 14005KT 110V220 9999 NCD 09/05
                        Q1024 NOSIG=
201510251650 METAR EGLL 251650Z AUTO 16004KT 110V230 9999 NCD 09/05 Q1024
                        NOSIG=
201510251620 METAR COR EGLL 251620Z AUTO VRB03KT 9999 NCD 10/05 Q1024
                        NOSIG=
201510251550 METAR EGLL 251550Z AUTO 16004KT 100V230 9999 NCD 11/06 Q1024
                        NOSIG=
201510251520 METAR COR EGLL 251520Z AUTO 18005KT 130V240 9999 NCD 12/05
                        Q1025 NOSIG=
201510251450 METAR EGLL 251450Z AUTO 18004KT 150V220 9999 NCD 12/05 Q1025
                        NOSIG=
201510251420 METAR COR EGLL 251420Z AUTO VRB05KT 9999 NCD 12/05 Q1025
                        NOSIG=
201510251350 METAR EGLL 251350Z AUTO 19004KT 140V230 9999 NCD 11/05 Q1025
                        NOSIG=
201510251320 METAR COR EGLL 251320Z AUTO 22004KT 170V260 9999 NCD 12/06
                        Q1026 NOSIG=
201510251250 METAR EGLL 251250Z AUTO 22005KT 180V250 9999 NCD 12/06 Q1026
                        NOSIG=
201510251220 METAR COR EGLL 251220Z AUTO 23004KT 200V270 9999 NCD 11/06
                        Q1026 NOSIG=
201510251150 METAR EGLL 251150Z AUTO VRB03KT 9999 NCD 11/06 Q1027 NOSIG=
201510251120 METAR COR EGLL 251120Z AUTO VRB03KT 9999 NCD 11/06 Q1027
                        NOSIG=
201510251050 METAR COR EGLL 251050Z AUTO VRB03KT 9999 NCD 10/06 Q1027
                        NOSIG=
201510251020 METAR COR EGLL 251020Z AUTO VRB02KT 9999 NCD 08/05 Q1027
                        NOSIG=
201510250950 METAR EGLL 250950Z AUTO VRB03KT 9999 NCD 08/06 Q1027 NOSIG=
201510250920 METAR COR EGLL 250920Z AUTO VRB03KT 9999 NCD 06/05 Q1027
                        NOSIG=
201510250850 METAR EGLL 250850Z AUTO VRB03KT 9999 NCD 06/05 Q1027 NOSIG=
201510250820 METAR COR EGLL 250820Z AUTO 23004KT 9999 NCD 05/05 Q1027
                        NOSIG=
201510250750 METAR EGLL 250750Z AUTO 21004KT 9999 NCD 05/04 Q1026 NOSIG=
201510250720 METAR COR EGLL 250720Z AUTO VRB01KT 9999 NCD 04/03 Q1026
                        NOSIG=
201510250650 METAR EGLL 250650Z AUTO VRB03KT 7000 NCD 03/03 Q1026 NOSIG=
201510250620 METAR COR EGLL 250620Z AUTO VRB02KT 9999 NCD 04/03 Q1025
                        NOSIG=
201510250550 METAR EGLL 250550Z AUTO 30002KT 9999 NCD 03/03 Q1025 TEMPO
                        4000 BR=
201510250520 METAR COR EGLL 250520Z AUTO VRB02KT 9999 NCD 04/03 Q1025
                        TEMPO 4000 BR=
201510250450 METAR COR EGLL 250450Z AUTO 28003KT 4900 BR NCD 04/04 Q1025
                        TEMPO 5000=
201510250420 METAR COR EGLL 250420Z AUTO 28005KT 9999 NCD 04/03 Q1025
                        NOSIG=
201510250350 METAR COR EGLL 250350Z AUTO 27006KT 9999 NCD 04/03 Q1024
                        NOSIG=
201510250320 METAR COR EGLL 250320Z AUTO 27004KT 9999 NCD 05/04 Q1024
                        NOSIG=
201510250250 METAR EGLL 250250Z AUTO 27006KT 9999 NCD 05/04 Q1024 NOSIG=
201510250220 METAR COR EGLL 250220Z AUTO 27006KT 9999 NCD 05/04 Q1024
                        NOSIG=
201510250150 METAR EGLL 250150Z AUTO 28005KT 9999 NCD 05/04 Q1024=
201510250120 METAR COR EGLL 250120Z AUTO 28006KT 9999 NCD 05/04 Q1023
                        NOSIG=
201510250050 METAR EGLL 250050Z AUTO 28004KT 9999 NCD 05/04 Q1023 NOSIG=
201510250020 METAR COR EGLL 250020Z AUTO 29005KT 9999 NCD 06/05 Q1023
                        NOSIG=
201510242350 METAR EGLL 242350Z AUTO 28006KT 9999 NCD 06/05 Q1022 NOSIG=
201510242320 METAR COR EGLL 242320Z AUTO 28006KT 9999 NCD 06/06 Q1022
                        NOSIG=
201510242250 METAR COR EGLL 242250Z AUTO 29006KT 7000 NCD 06/06 Q1021
                        NOSIG=
201510242220 METAR COR EGLL 242220Z AUTO 30003KT 7000 NCD 07/06 Q1021
                        NOSIG=
201510242150 METAR COR EGLL 242150Z AUTO 30004KT 6000 NCD 08/07 Q1021
                        NOSIG=
201510242120 METAR COR EGLL 242120Z AUTO 30004KT 6000 NCD 09/08 Q1020
                        NOSIG=
201510242050 METAR COR EGLL 242050Z AUTO 30004KT 9999 NCD 09/08 Q1020
                        NOSIG=
201510242020 METAR COR EGLL 242020Z AUTO 29004KT 9999 NCD 10/08 Q1019
                        NOSIG=
201510241950 METAR COR EGLL 241950Z AUTO 31003KT 9999 NCD 10/08 Q1018
                        NOSIG=
201510241920 METAR COR EGLL 241920Z AUTO 31004KT 9999 -RA FEW036/// //////TCU
                        10/08 Q1018 NOSIG=
201510241850 METAR EGLL 241850Z AUTO 32006KT 280V350 9999 -RA BKN033 10/08
                        Q1017 NOSIG=
201510241820 METAR COR EGLL 241820Z AUTO 33007KT 9999 -RA BKN027 10/08
                        Q1017 NOSIG=
201510241750 METAR EGLL 241750Z AUTO 34007KT 310V020 9999 -RA SCT025///
                        OVC041/// //////TCU 10/08 Q1016 NOSIG=
201510241720 METAR COR EGLL 241720Z AUTO 35010KT 4900 -RA SCT002/// BKN013///
                        //////CB 11/10 Q1015 RERA BECMG 9999
                        NSW SCT025=
201510241650 METAR COR EGLL 241650Z AUTO 33006KT 310V020 4200 RA BKN003///
                        BKN013/// //////TCU 12/11 Q1014 RERA
                        REDZ BECMG 6000 -RA BKN012=
201510241620 METAR COR EGLL 241620Z AUTO 21004KT 170V250 3400 -RADZ BKN006///
                        //////TCU 13/11 Q1013 REDZ BECMG
                        5000 -RA BKN010=
201510241550 METAR EGLL 241550Z AUTO 20005KT 160V240 5000 -DZ OVC011 13/11
                        Q1013 TEMPO 4000 RADZ BKN009=
201510241520 METAR COR EGLL 241520Z AUTO 17005KT 130V240 9999 -RA OVC018
                        13/11 Q1013 TEMPO BKN014=
201510241450 METAR EGLL 241450Z AUTO 19007KT 150V240 9999 OVC027 13/10
                        Q1013 TEMPO BKN014=
201510241420 METAR COR EGLL 241420Z AUTO 21007KT 160V250 9999 -RA OVC030
                        13/10 Q1013 TEMPO BKN014=
201510241350 METAR EGLL 241350Z AUTO 22008KT 9999 BKN029 OVC044 14/10
                        Q1013 TEMPO BKN014=
201510241320 METAR COR EGLL 241320Z AUTO 21008KT 9999 OVC034/// //////TCU
                        14/10 Q1012 NOSIG=
201510241250 METAR EGLL 241250Z AUTO 21008KT 180V240 9999 BKN034 14/10
                        Q1012 NOSIG=
201510241220 METAR COR EGLL 241220Z AUTO 21009KT 9999 FEW013/// SCT033///
                        //////TCU 14/10 Q1012 TEMPO BKN013=
201510241150 METAR COR EGLL 241150Z AUTO 21009KT 160V240 9999 -RA SCT020
                        BKN038 13/11 Q1012 TEMPO BKN014=
201510241120 METAR COR EGLL 241120Z AUTO 21009KT 180V240 9999 -RA FEW024
                        SCT044 14/10 Q1012 NOSIG=
201510241050 METAR EGLL 241050Z AUTO 20009KT 140V230 9999 -RA FEW037 14/10
                        Q1012 NOSIG=
201510241020 METAR COR EGLL 241020Z AUTO 18007KT 130V220 9999 FEW017 BKN025
                        13/11 Q1013 TEMPO BKN014=
201510240950 METAR EGLL 240950Z AUTO 20007KT 170V240 9999 BKN015 12/11
                        Q1013 TEMPO BKN014=
201510240920 METAR COR EGLL 240920Z AUTO 20009KT 170V230 6000 BKN011 12/11
                        Q1013 TEMPO 4500 -RADZ=
201510240850 METAR EGLL 240850Z AUTO 22009KT 6000 -RA OVC014 13/10 Q1013
                        BECMG OVC018=
201510240820 METAR COR EGLL 240820Z AUTO 20008KT 160V240 9999 BKN021 12/10
                        Q1013 NOSIG=
201510240750 METAR EGLL 240750Z AUTO 18007KT 150V240 9999 OVC029 12/09
                        Q1013 NOSIG=
201510240720 METAR COR EGLL 240720Z AUTO 17007KT 140V210 9999 OVC028 12/09
                        Q1013 NOSIG=
201510240650 METAR COR EGLL 240650Z AUTO 17006KT 130V210 9999 OVC024 12/09
                        Q1013 NOSIG=
201510240620 METAR COR EGLL 240620Z AUTO 17006KT 130V230 9999 OVC025 12/08
                        Q1013 NOSIG=
201510240550 METAR EGLL 240550Z AUTO 18007KT 150V240 9999 OVC025 12/08
                        Q1013 NOSIG=
201510240520 METAR EGLL 240520Z AUTO VRB06KT 9999 OVC026 12/08 Q1013=
201510240450 METAR EGLL 240450Z AUTO 17006KT 130V200 9999 OVC030 12/08
                        Q1013 NOSIG=
201510240420 METAR COR EGLL 240420Z AUTO 17004KT 140V230 9999 OVC031 12/08
                        Q1014 NOSIG=
201510240350 METAR COR EGLL 240350Z AUTO 18004KT 9999 OVC031 12/08 Q1014
                        NOSIG=
201510240320 METAR COR EGLL 240320Z AUTO 18005KT 9999 OVC032 12/08 Q1014
                        NOSIG=
201510240250 METAR EGLL 240250Z AUTO 18007KT 9999 OVC033 12/08 Q1015 NOSIG=
201510240220 METAR COR EGLL 240220Z AUTO 17005KT 9999 BKN027 11/08 Q1015
                        NOSIG=
201510240150 METAR EGLL 240150Z AUTO 18005KT 9999 OVC028 11/08 Q1015 NOSIG=
201510240120 METAR COR EGLL 240120Z AUTO 18005KT 9999 OVC033 11/08 Q1016
                        NOSIG=
201510240050 METAR EGLL 240050Z AUTO 18006KT 9999 OVC031 11/08 Q1016 NOSIG=
201510240020 METAR COR EGLL 240020Z AUTO 16005KT 9999 OVC029 11/08 Q1016
                        NOSIG=
201510232350 METAR EGLL 232350Z AUTO 16005KT 9999 OVC031 11/08 Q1016 NOSIG=
201510232320 METAR COR EGLL 232320Z AUTO 16005KT 9999 OVC031 11/08 Q1017
                        NOSIG=
201510232250 METAR EGLL 232250Z AUTO 15007KT 9999 OVC033 12/08 Q1017 NOSIG=
201510232220 METAR COR EGLL 232220Z AUTO 16007KT 130V230 9999 OVC032 12/08
                        Q1017 NOSIG=
201510232150 METAR EGLL 232150Z AUTO 18006KT 100V250 9999 OVC029 12/07
                        Q1018 NOSIG=
201510232120 METAR COR EGLL 232120Z AUTO 17005KT 130V260 9999 OVC032 12/07
                        Q1018 NOSIG=
201510232050 METAR EGLL 232050Z AUTO 18008KT 140V240 9999 OVC029 12/08
                        Q1018 NOSIG=
201510232020 METAR COR EGLL 232020Z AUTO 17006KT 120V230 9999 OVC033 12/08
                        Q1018 NOSIG=
201510231950 METAR COR EGLL 231950Z AUTO 17006KT 140V280 9999 OVC032 12/07
                        Q1018 NOSIG=
201510231920 METAR COR EGLL 231920Z AUTO 18007KT 140V230 9999 OVC033 12/07
                        Q1019 NOSIG=
201510231850 METAR EGLL 231850Z AUTO 18008KT 140V230 9999 OVC033 12/08
                        Q1019 NOSIG=
201510231820 METAR COR EGLL 231820Z AUTO 20007KT 170V240 9999 OVC032 12/08
                        Q1019 NOSIG=
201510231750 METAR EGLL 231750Z AUTO 19007KT 150V240 9999 OVC030 13/08
                        Q1019 NOSIG=
201510231720 METAR COR EGLL 231720Z AUTO 18007KT 160V220 9999 OVC026 13/08
                        Q1019 NOSIG=
201510231650 METAR EGLL 231650Z AUTO 19006KT 140V240 9999 OVC029 13/08
                        Q1019 NOSIG=
201510231620 METAR COR EGLL 231620Z AUTO 19007KT 140V230 9999 OVC033 13/08
                        Q1019 NOSIG=
201510231550 METAR EGLL 231550Z AUTO 19006KT 130V250 9999 OVC036 13/08
                        Q1019=
201510231520 METAR COR EGLL 231520Z AUTO 19007KT 160V240 9999 OVC036 13/07
                        Q1019 NOSIG=
201510231450 METAR EGLL 231450Z AUTO 20007KT 170V250 9999 OVC035 13/07
                        Q1020 NOSIG=
201510231420 METAR COR EGLL 231420Z AUTO 22006KT 180V240 9999 OVC035 13/07
                        Q1020 NOSIG=
201510231350 METAR EGLL 231350Z AUTO 21006KT 170V240 9999 OVC034 13/07
                        Q1020 NOSIG=
201510231320 METAR COR EGLL 231320Z AUTO 23007KT 9999 OVC035 13/07 Q1021
                        NOSIG=
201510231250 METAR EGLL 231250Z AUTO 22008KT 9999 OVC036 14/07 Q1021 NOSIG=
201510231220 METAR COR EGLL 231220Z AUTO 24007KT 180V270 9999 OVC037 13/07
                        Q1021 NOSIG=
201510231150 METAR COR EGLL 231150Z AUTO 22007KT 9999 OVC038 13/06 Q1021
                        NOSIG=
201510231120 METAR COR EGLL 231120Z AUTO 22008KT 190V250 9999 OVC037 13/06
                        Q1022 NOSIG=
201510231050 METAR EGLL 231050Z AUTO 22007KT 170V250 9999 OVC037 13/06
                        Q1022 NOSIG=
201510231020 METAR COR EGLL 231020Z AUTO 21006KT 180V240 9999 OVC039 13/07
                        Q1022 NOSIG=
201510230950 METAR EGLL 230950Z AUTO 21006KT 180V280 9999 OVC040 12/08
                        Q1022 NOSIG=
201510230920 METAR COR EGLL 230920Z AUTO 21006KT 170V250 9999 OVC040 12/08
                        Q1022 NOSIG=
201510230850 METAR COR EGLL 230850Z AUTO 18005KT 150V260 9999 OVC041 11/08
                        Q1022 NOSIG=
201510230820 METAR COR EGLL 230820Z AUTO 18004KT 110V210 9999 OVC041 11/08
                        Q1022 NOSIG=
201510230750 METAR EGLL 230750Z AUTO VRB03KT 9999 OVC041 11/08 Q1022 NOSIG=
201510230720 METAR COR EGLL 230720Z AUTO VRB03KT 9999 OVC041 10/08 Q1022
                        NOSIG=
201510230650 METAR COR EGLL 230650Z AUTO 17004KT 9999 OVC042 10/08 Q1022
                        NOSIG=
201510230620 METAR COR EGLL 230620Z AUTO VRB02KT 9999 OVC041 10/08 Q1022
                        NOSIG=
201510230550 METAR COR EGLL 230550Z AUTO 24004KT 210V270 9999 OVC040 10/08
                        Q1023 NOSIG=
201510230520 METAR COR EGLL 230520Z AUTO VRB03KT 9999 OVC041 10/08 Q1022
                        NOSIG=
201510230450 METAR COR EGLL 230450Z AUTO VRB03KT 9999 OVC041 10/08 Q1022
                        NOSIG=
201510230420 METAR COR EGLL 230420Z AUTO VRB02KT 9999 OVC041 10/08 Q1022
                        NOSIG=
201510230350 METAR EGLL 230350Z AUTO 27003KT 9999 OVC042 10/08 Q1022 NOSIG=
201510230320 METAR COR EGLL 230320Z AUTO VRB01KT 9999 OVC042 10/08 Q1022
                        NOSIG=
201510230250 METAR EGLL 230250Z AUTO 27002KT 9999 OVC042 10/08 Q1022 NOSIG=
201510230220 METAR COR EGLL 230220Z AUTO 27002KT 9999 OVC043 10/08 Q1022
                        NOSIG=
201510230150 METAR EGLL 230150Z AUTO 21003KT 9999 OVC042 11/08 Q1022 NOSIG=
201510230120 METAR COR EGLL 230120Z AUTO 25001KT 9999 OVC043 11/08 Q1022
                        NOSIG=
201510230050 METAR EGLL 230050Z AUTO VRB02KT 9999 OVC043 11/08 Q1023 NOSIG=
201510230020 METAR COR EGLL 230020Z AUTO VRB01KT 9999 OVC042 11/07 Q1023
                        NOSIG=
201510222350 METAR EGLL 222350Z AUTO 30002KT 9999 OVC042 11/07 Q1023 NOSIG=
201510222320 METAR COR EGLL 222320Z AUTO VRB02KT 9999 OVC043 11/07 Q1023
                        NOSIG=
201510222250 METAR EGLL 222250Z AUTO 29003KT 9999 OVC042 11/07 Q1023 NOSIG=
201510222220 METAR COR EGLL 222220Z AUTO 32003KT 9999 OVC041 12/07 Q1022
                        NOSIG=
201510222150 METAR EGLL 222150Z AUTO 30004KT 280V340 9999 OVC043 12/07
                        Q1022=
201510222120 METAR COR EGLL 222120Z AUTO 30004KT 9999 OVC043 12/07 Q1022
                        NOSIG=
201510222050 METAR EGLL 222050Z AUTO 29005KT 9999 OVC044 12/07 Q1022 NOSIG=
201510222020 METAR EGLL 222020Z AUTO 28006KT 9999 OVC044 12/07 Q1022=
201510221950 METAR COR EGLL 221950Z AUTO 29006KT 9999 OVC044 12/06 Q1021
                        NOSIG=
201510221920 METAR COR EGLL 221920Z AUTO 28006KT 9999 OVC043 12/06 Q1021
                        NOSIG=
201510221850 METAR EGLL 221850Z AUTO 29005KT 9999 OVC041 12/06 Q1021 NOSIG=
201510221820 METAR COR EGLL 221820Z AUTO 28006KT 9999 OVC043 13/06 Q1021
                        NOSIG=
201510221750 METAR EGLL 221750Z AUTO 28005KT 9999 BKN043 12/06 Q1020 NOSIG=
201510221720 METAR COR EGLL 221720Z AUTO 30004KT 9999 BKN040 13/05 Q1020
                        NOSIG=
201510221650 METAR EGLL 221650Z AUTO 31005KT 260V340 9999 BKN040 14/06
                        Q1019 NOSIG=
201510221620 METAR COR EGLL 221620Z AUTO 30006KT 270V340 9999 OVC040 14/06
                        Q1019 NOSIG=
201510221550 METAR COR EGLL 221550Z AUTO 30005KT 9999 OVC041 14/05 Q1019
                        NOSIG=
201510221520 METAR COR EGLL 221520Z AUTO 30006KT 260V350 9999 OVC041 14/06
                        Q1019 NOSIG=
201510221450 METAR COR EGLL 221450Z AUTO 30006KT 9999 OVC040 14/06 Q1018
                        NOSIG=
201510221420 METAR COR EGLL 221420Z AUTO 31007KT 270V340 9999 OVC038 14/06
                        Q1018 NOSIG=
201510221350 METAR COR EGLL 221350Z AUTO 31007KT 270V340 9999 OVC037 15/06
                        Q1018 NOSIG=
201510221320 METAR COR EGLL 221320Z AUTO 30009KT 9999 OVC035 14/06 Q1018
                        NOSIG=
201510221250 METAR EGLL 221250Z AUTO 30009KT 9999 OVC036 14/06 Q1018 NOSIG=
201510221220 METAR COR EGLL 221220Z AUTO 32006KT 9999 OVC038 14/06 Q1017
                        NOSIG=
201510221150 METAR EGLL 221150Z AUTO 29010KT 9999 OVC037 14/06 Q1017 NOSIG=
201510221120 METAR COR EGLL 221120Z AUTO 29010KT 9999 OVC031 14/07 Q1017
                        NOSIG=
201510221050 METAR COR EGLL 221050Z AUTO 29007KT 9999 OVC034 14/08 Q1017
                        NOSIG=
201510221020 METAR COR EGLL 221020Z AUTO 30009KT 280V340 9999 OVC026 14/09
                        Q1016 NOSIG=
201510220950 METAR EGLL 220950Z AUTO 30010KT 9999 BKN026 14/09 Q1016 NOSIG=
201510220920 METAR COR EGLL 220920Z AUTO 29009KT 9999 FEW010 OVC027 14/11
                        Q1016 NOSIG=
201510220850 METAR COR EGLL 220850Z AUTO 29007KT 5000 -RA BKN010 OVC021
                        14/12 Q1015 BECMG 9999 NSW SCT010=
201510220820 METAR COR EGLL 220820Z AUTO 25009KT 9999 SCT014 OVC029 14/11
                        Q1015 NOSIG=
201510220750 METAR EGLL 220750Z AUTO 25009KT 9999 FEW013 OVC036 14/11
                        Q1014 NOSIG=
201510220720 METAR COR EGLL 220720Z AUTO 24010KT 9999 BKN039 13/10 Q1014
                        NOSIG=
201510220650 METAR EGLL 220650Z AUTO 24008KT 9999 BKN037 13/10 Q1014 NOSIG=
201510220620 METAR COR EGLL 220620Z AUTO 25009KT 9999 BKN032 13/10 Q1014
                        NOSIG=
201510220550 METAR EGLL 220550Z AUTO 26007KT 9999 BKN031 13/10 Q1014 NOSIG=
201510220520 METAR COR EGLL 220520Z AUTO 26008KT 9999 BKN026 12/10 Q1014
                        NOSIG=
201510220450 METAR EGLL 220450Z AUTO 28010KT 9999 OVC023 13/10 Q1014 NOSIG=
201510220420 METAR COR EGLL 220420Z AUTO 27012KT 9999 OVC020 13/10 Q1013
                        NOSIG=
201510220350 METAR EGLL 220350Z AUTO 27012KT 9999 OVC022 13/10 Q1013 NOSIG=
201510220320 METAR COR EGLL 220320Z AUTO 27012KT 9999 OVC021 13/10 Q1013
                        NOSIG=
201510220250 METAR EGLL 220250Z AUTO 26011KT 9999 OVC020 13/10 Q1013 NOSIG=
201510220220 METAR COR EGLL 220220Z AUTO 27011KT 9999 OVC018 13/10 Q1013
                        NOSIG=
201510220150 METAR EGLL 220150Z AUTO 26011KT 9999 OVC009 13/11 Q1013 BECMG
                        SCT012 BKN018=
201510220120 METAR COR EGLL 220120Z AUTO 27013KT 9999 OVC007 13/12 Q1013
                        NOSIG=
201510220050 METAR EGLL 220050Z AUTO 26010KT 8000 OVC007 14/12 Q1013 NOSIG=
201510220020 METAR COR EGLL 220020Z AUTO 26010KT 9999 OVC007 14/12 Q1013
                        TEMPO SCT008 BKN012=
201510212350 METAR EGLL 212350Z AUTO 26012KT 9999 OVC006 14/13 Q1013 TEMPO
                        SCT008 BKN012=
201510212320 METAR COR EGLL 212320Z AUTO 25010KT 6000 OVC006 14/13 Q1014
                        TEMPO SCT006 BKN010=
201510212250 METAR EGLL 212250Z AUTO 26009KT 6000 OVC007 14/13 Q1014 TEMPO
                        FEW007 BKN014=
201510212220 METAR COR EGLL 212220Z AUTO 25008KT 9999 OVC009 15/13 Q1014
                        TEMPO SCT009 BKN014=
201510212150 METAR EGLL 212150Z AUTO 23008KT 9999 OVC015 15/13 Q1014 TEMPO
                        BKN014=
201510212120 METAR COR EGLL 212120Z AUTO 24009KT 9999 OVC014 15/13 Q1014
                        TEMPO SCT013 BKN018=
201510212050 METAR EGLL 212050Z AUTO 24008KT 9999 OVC010 15/13 Q1015 TEMPO
                        SCT010 BKN015=
201510212020 METAR COR EGLL 212020Z AUTO 25008KT 9999 BKN008 15/13 Q1015
                        TEMPO FEW008 BKN014=
201510211950 METAR EGLL 211950Z AUTO 24007KT 9999 FEW011 OVC021 15/14
                        Q1014 TEMPO BKN014=
201510211920 METAR COR EGLL 211920Z AUTO 24007KT 9999 OVC023 15/14 Q1014
                        NOSIG=
201510211850 METAR EGLL 211850Z AUTO 24007KT 9999 FEW010 OVC023 15/13
                        Q1015 NOSIG=
201510211820 METAR COR EGLL 211820Z AUTO 24007KT 9999 OVC022 15/13 Q1015
                        NOSIG=
201510211750 METAR EGLL 211750Z AUTO 24007KT 9999 OVC020 15/13 Q1015 NOSIG=
201510211720 METAR COR EGLL 211720Z AUTO 24008KT 9999 BKN014 OVC022 14/13
                        Q1015 BECMG SCT014 OVC022=
201510211650 METAR COR EGLL 211650Z AUTO 23007KT 190V260 9999 BKN008 OVC022
                        14/13 Q1015 TEMPO SCT008=
201510211620 METAR COR EGLL 211620Z AUTO 23008KT 9999 FEW007 OVC012 14/13
                        Q1015 BECMG SCT012 BKN020=
201510211550 METAR EGLL 211550Z AUTO 24008KT 9999 FEW006 BKN013 14/13
                        Q1015 TEMPO SCT013 BKN020=
201510211520 METAR COR EGLL 211520Z AUTO 24009KT 9999 BKN006 OVC015 14/13
                        Q1015 NOSIG=
201510211450 METAR COR EGLL 211450Z AUTO 24008KT 9999 BKN006 OVC017 14/13
                        Q1015 NOSIG=
201510211420 METAR COR EGLL 211420Z AUTO 24009KT 9999 OVC006 14/13 Q1015
                        NOSIG=
201510211350 METAR EGLL 211350Z AUTO 23008KT 9999 OVC006 13/12 Q1016 NOSIG=
201510211320 METAR COR EGLL 211320Z AUTO 24009KT 7000 OVC006 13/12 Q1016
                        NOSIG=
201510211250 METAR EGLL 211250Z AUTO 25009KT 9999 OVC005 13/12 Q1016 NOSIG=
201510211220 METAR COR EGLL 211220Z AUTO 24009KT 9999 OVC004 12/11 Q1016
                        BECMG BKN005=
201510211150 METAR EGLL 211150Z AUTO 24008KT 7000 OVC005 12/11 Q1017 NOSIG=
201510211120 METAR COR EGLL 211120Z AUTO 23009KT 9999 -RA OVC005 12/11
                        Q1017 NOSIG=
201510211050 METAR COR EGLL 211050Z AUTO 23009KT 6000 -RA OVC004 12/11
                        Q1017 TEMPO BKN005=
201510211020 METAR COR EGLL 211020Z AUTO 22008KT 6000 -RA OVC005 11/11
                        Q1017 TEMPO 4000 -RADZ=
201510210950 METAR EGLL 210950Z AUTO 22009KT 7000 -RA BKN005 OVC015 11/10
                        Q1018 TEMPO 4000 -RADZ=
201510210920 METAR COR EGLL 210920Z AUTO 21009KT 8000 -RA BKN005 OVC015
                        11/10 Q1018 TEMPO 4000 -RADZ=
201510210850 METAR COR EGLL 210850Z AUTO 22009KT 8000 -RA BKN004/// //////TCU
                        10/10 Q1018 TEMPO BKN005=
201510210820 METAR COR EGLL 210820Z AUTO 21009KT 7000 -RA BKN005 BKN014
                        10/09 Q1018 NOSIG=
201510210750 METAR EGLL 210750Z AUTO 21009KT 7000 -RA FEW005 BKN022 10/09
                        Q1018 BECMG BKN010=
201510210720 METAR COR EGLL 210720Z AUTO 21010KT 150V240 7000 -RA FEW007
                        BKN031 10/09 Q1018 BECMG BKN010=
201510210650 METAR EGLL 210650Z AUTO 22009KT 8000 -RA SCT007 BKN021 OVC035
                        10/09 Q1019 BECMG BKN008=
201510210620 METAR COR EGLL 210620Z AUTO 22009KT 9000 -RA FEW007 BKN020
                        10/09 Q1020 TEMPO BKN012=
201510210550 METAR EGLL 210550Z AUTO 23008KT 9000 -RA BKN023 10/09 Q1020
                        TEMPO BKN014=
201510210520 METAR COR EGLL 210520Z AUTO 22008G18KT 8000 -RA FEW037 10/09
                        Q1020 TEMPO BKN014=
201510210450 METAR EGLL 210450Z AUTO 22008KT 9999 -RA FEW021 10/09 Q1020
                        TEMPO BKN014=
201510210420 METAR COR EGLL 210420Z AUTO 22007KT 8000 -RA BKN022 10/09
                        Q1020 TEMPO RA BKN014=
201510210350 METAR EGLL 210350Z AUTO 22008KT 170V250 7000 -RA FEW024 10/09
                        Q1021 TEMPO RA=
201510210320 METAR COR EGLL 210320Z AUTO 22006KT 8000 -RA NCD 09/08 Q1022
                        TEMPO RA=
201510210250 METAR COR EGLL 210250Z AUTO 21005KT 8000 -RA FEW036 09/08
                        Q1022 TEMPO RA=
201510210220 METAR COR EGLL 210220Z AUTO 22006KT 9000 NCD 09/08 Q1023
                        TEMPO RA=
201510210150 METAR EGLL 210150Z AUTO 20005KT 8000 NCD 09/07 Q1023 TEMPO
                        RA=
201510210120 METAR COR EGLL 210120Z AUTO 21003KT 9000 FEW033 09/07 Q1024
                        NOSIG=
201510210050 METAR COR EGLL 210050Z AUTO 23003KT 9999 NCD 09/07 Q1024
                        NOSIG=
201510210020 METAR COR EGLL 210020Z AUTO 21003KT 9999 NCD 09/07 Q1024
                        NOSIG=
201510202350 METAR COR EGLL 202350Z AUTO 18005KT 9999 FEW039 08/07 Q1024
                        NOSIG=
201510202320 METAR COR EGLL 202320Z AUTO 19004KT 9999 SCT037 08/07 Q1024
                        NOSIG=
201510202250 METAR COR EGLL 202250Z AUTO 22003KT 9999 SCT035 09/07 Q1025
                        NOSIG=
201510202220 METAR COR EGLL 202220Z AUTO 22005KT 170V240 9999 NCD 08/06
                        Q1025 NOSIG=
201510202150 METAR COR EGLL 202150Z AUTO 28005KT 9999 FEW038 10/07 Q1025
                        NOSIG=
201510202120 METAR EGLL 202120Z AUTO 28004KT 250V310 9000 BKN036 09/07
                        Q1025=
201510202050 METAR COR EGLL 202050Z AUTO 21005KT 160V280 9999 FEW042 09/07
                        Q1025 NOSIG=
201510202020 METAR COR EGLL 202020Z AUTO 27006KT 230V300 9999 NCD 09/06
                        Q1026 NOSIG=
201510201950 METAR EGLL 201950Z AUTO 29004KT 9999 NCD 11/07 Q1026 NOSIG=
201510201920 METAR EGLL 201920Z AUTO 28004KT 9999 NCD 11/07 Q1026=
201510201850 METAR EGLL 201850Z AUTO 28005KT 9999 NCD 10/07 Q1026 NOSIG=
201510201820 METAR COR EGLL 201820Z AUTO 31002KT 9999 FEW041 12/07 Q1026
                        NOSIG=
201510201750 METAR EGLL 201750Z AUTO 30003KT 9999 SCT035 12/07 Q1026 NOSIG=
201510201720 METAR COR EGLL 201720Z AUTO 31003KT 9999 NCD 13/07 Q1026
                        NOSIG=
201510201650 METAR COR EGLL 201650Z AUTO 30004KT 9999 NCD 14/07 Q1026
                        NOSIG=
201510201620 METAR EGLL 201620Z AUTO 31004KT 9999 BKN046 14/07 Q1026=
201510201550 METAR COR EGLL 201550Z AUTO 33004KT 290V010 9999 BKN036 14/07
                        Q1026 NOSIG=
201510201520 METAR COR EGLL 201520Z AUTO 34004KT 240V020 9999 BKN036 15/07
                        Q1026 NOSIG=
201510201450 METAR EGLL 201450Z AUTO 30005KT 280V340 9999 FEW034 15/06
                        Q1026 NOSIG=
201510201420 METAR COR EGLL 201420Z AUTO 32006KT 290V360 9999 FEW033 14/06
                        Q1026 NOSIG=
201510201350 METAR COR EGLL 201350Z 34004KT 290V040 9999 SCT029 SCT044
                        15/07 Q1027 NOSIG=
201510201320 METAR COR EGLL 201320Z 36005KT 310V050 9999 SCT029 15/07
                        Q1027 NOSIG=
201510201250 METAR COR EGLL 201250Z 35006KT 270V020 9999 SCT031 15/07
                        Q1027 NOSIG=
201510201220 METAR COR EGLL 201220Z 36005KT 310V080 9999 FEW023 14/07
                        Q1027 NOSIG=
201510201150 METAR COR EGLL 201150Z AUTO 33005KT 300V020 9999 FEW022 15/08
                        Q1027 NOSIG=
201510201120 METAR COR EGLL 201120Z AUTO 33006KT 290V360 9999 FEW021 14/08
                        Q1028 NOSIG=
201510201050 METAR EGLL 201050Z AUTO 32005KT 290V010 9999 FEW019 13/08
                        Q1028 NOSIG=
201510201020 METAR COR EGLL 201020Z AUTO 33004KT 300V020 9999 NCD 13/09
                        Q1028 NOSIG=
201510200950 METAR EGLL 200950Z AUTO 29004KT 260V330 8000 NCD 12/09 Q1028
                        NOSIG=
201510200920 METAR COR EGLL 200920Z AUTO 29004KT 8000 NCD 11/09 Q1027
                        NOSIG=
201510200850 METAR EGLL 200850Z AUTO 29004KT 260V320 9000 NCD 11/08 Q1027
                        NOSIG=
201510200820 METAR COR EGLL 200820Z AUTO VRB03KT 9999 NCD 11/08 Q1027
                        NOSIG=
201510200750 METAR EGLL 200750Z AUTO VRB02KT 9999 NCD 10/08 Q1027 NOSIG=
201510200720 METAR COR EGLL 200720Z AUTO VRB03KT 9999 NCD 10/07 Q1027
                        NOSIG=
201510200650 METAR EGLL 200650Z AUTO VRB03KT 9999 NCD 09/07 Q1027 NOSIG=
201510200620 METAR COR EGLL 200620Z AUTO 30003KT 9999 NCD 09/07 Q1027
                        NOSIG=
201510200550 METAR COR EGLL 200550Z AUTO VRB02KT 9999 NCD 09/07 Q1026
                        NOSIG=
201510200520 METAR COR EGLL 200520Z AUTO VRB02KT 9999 NCD 09/08 Q1026
                        NOSIG=
201510200450 METAR EGLL 200450Z AUTO 36002KT 9999 NCD 09/08 Q1026 NOSIG=
201510200420 METAR COR EGLL 200420Z AUTO 36003KT 9999 NCD 09/08 Q1026
                        NOSIG=
201510200350 METAR EGLL 200350Z AUTO VRB02KT 9999 NCD 08/07 Q1026 NOSIG=
201510200320 METAR COR EGLL 200320Z AUTO VRB03KT 9999 NCD 09/07 Q1026
                        NOSIG=
201510200250 METAR EGLL 200250Z AUTO VRB02KT 9999 NCD 09/08 Q1026 NOSIG=
201510200220 METAR COR EGLL 200220Z AUTO 36003KT 9999 NCD 09/08 Q1026
                        NOSIG=
201510200150 METAR EGLL 200150Z AUTO VRB03KT 9999 NCD 10/08 Q1026=
201510200120 METAR COR EGLL 200120Z AUTO VRB03KT 9999 OVC047 11/08 Q1026
                        NOSIG=
201510200050 METAR EGLL 200050Z AUTO VRB03KT 9999 OVC046 11/08 Q1026 NOSIG=
201510200020 METAR COR EGLL 200020Z AUTO 35003KT 9999 OVC044 11/08 Q1026
                        NOSIG=
201510192350 METAR COR EGLL 192350Z AUTO VRB02KT 9999 OVC046/// 11/08
                        Q1026 NOSIG=
201510192320 METAR COR EGLL 192320Z AUTO 36004KT 9999 OVC046 11/08 Q1026
                        NOSIG=
201510192250 METAR EGLL 192250Z AUTO 01004KT 330V060 9999 OVC044 11/08
                        Q1026 NOSIG=
201510192220 METAR COR EGLL 192220Z AUTO VRB03KT 9999 OVC043 10/08 Q1026
                        NOSIG=
201510192150 METAR EGLL 192150Z AUTO 34003KT 9999 BKN044 09/07 Q1026 NOSIG=
201510192120 METAR COR EGLL 192120Z AUTO 35003KT 9999 FEW042 10/08 Q1026
                        NOSIG=
201510192050 METAR EGLL 192050Z AUTO VRB03KT 9999 NCD 10/08 Q1026 NOSIG=
201510192020 METAR COR EGLL 192020Z AUTO 35003KT 9999 NCD 11/08 Q1026
                        NOSIG=
201510191950 METAR EGLL 191950Z AUTO 33004KT 300V010 9999 NCD 11/09 Q1026
                        NOSIG=
201510191920 METAR COR EGLL 191920Z AUTO VRB03KT 9999 NCD 11/09 Q1026
                        NOSIG=
201510191850 METAR EGLL 191850Z AUTO 35003KT 9999 BKN047 12/09 Q1026 NOSIG=
201510191820 METAR COR EGLL 191820Z AUTO 35004KT 320V020 9999 OVC046 13/09
                        Q1025 NOSIG=
201510191750 METAR EGLL 191750Z AUTO 32004KT 9999 OVC045 13/09 Q1025 NOSIG=
201510191720 METAR COR EGLL 191720Z AUTO VRB03KT 9999 OVC043 13/09 Q1025
                        NOSIG=
201510191650 METAR EGLL 191650Z AUTO 02004KT 340V060 9999 OVC042 13/09
                        Q1025 NOSIG=
201510191620 METAR COR EGLL 191620Z AUTO 01004KT 330V060 9999 OVC040 13/09
                        Q1025 NOSIG=
201510191550 METAR EGLL 191550Z AUTO 36005KT 310V050 9999 OVC031 13/09
                        Q1025 NOSIG=
201510191520 METAR COR EGLL 191520Z AUTO 36005KT 9999 OVC032 13/10 Q1025
                        NOSIG=
201510191450 METAR EGLL 191450Z AUTO 36006KT 330V040 9999 FEW014 OVC031
                        13/10 Q1025 NOSIG=
201510191420 METAR COR EGLL 191420Z AUTO 01007KT 340V040 9999 FEW013 OVC039
                        13/10 Q1025 NOSIG=
201510191350 METAR EGLL 191350Z AUTO 03006KT 340V060 9999 SCT018 OVC043
                        14/09 Q1025 NOSIG=
201510191320 METAR COR EGLL 191320Z AUTO 04006KT 360V070 9999 SCT018 OVC043
                        14/09 Q1025 NOSIG=
201510191250 METAR EGLL 191250Z AUTO 04007KT 350V080 9999 FEW017 OVC043
                        14/10 Q1025 NOSIG=
201510191220 METAR COR EGLL 191220Z AUTO 04007KT 340V070 9999 FEW014 OVC043
                        14/10 Q1025 NOSIG=
201510191150 METAR EGLL 191150Z AUTO 02005KT 330V050 9999 FEW013 OVC042
                        13/10 Q1025 NOSIG=
201510191120 METAR COR EGLL 191120Z AUTO 03006KT 360V070 9999 BKN012 13/10
                        Q1025 BECMG SCT015=
201510191050 METAR EGLL 191050Z AUTO 01005KT 330V050 9999 BKN011 OVC040
                        13/10 Q1025 BECMG SCT035=
201510191020 METAR COR EGLL 191020Z AUTO 03005KT 340V070 9999 FEW011 OVC038
                        12/10 Q1025 TEMPO BKN014=
201510190950 METAR COR EGLL 190950Z AUTO 01007KT 9999 SCT010 OVC030 12/10
                        Q1025 TEMPO BKN014=
201510190920 METAR COR EGLL 190920Z AUTO 01006KT 350V050 9999 BKN008 12/10
                        Q1025 BECMG BKN012=
201510190850 METAR EGLL 190850Z AUTO 36005KT 310V030 9999 SCT010 OVC033
                        12/10 Q1025 TEMPO BKN012=
201510190820 METAR COR EGLL 190820Z AUTO 36005KT 320V030 9999 FEW008 OVC039
                        12/10 Q1025 TEMPO BKN012=
201510190750 METAR EGLL 190750Z AUTO 36004KT 330V040 9999 BKN009 12/10
                        Q1025 BECMG SCT009 BKN013=
201510190720 METAR COR EGLL 190720Z AUTO VRB03KT 9999 OVC009 12/10 Q1024
                        BECMG SCT035=
201510190650 METAR EGLL 190650Z AUTO 36004KT 320V050 9999 OVC008 12/10
                        Q1024 BECMG SCT030=
201510190620 METAR COR EGLL 190620Z AUTO 36004KT 9999 OVC008 11/10 Q1024
                        BECMG SCT012=
201510190550 METAR COR EGLL 190550Z AUTO 03004KT 350V060 9999 BKN008 OVC041
                        11/10 Q1024 BECMG SCT008 BKN040=
201510190520 METAR COR EGLL 190520Z AUTO VRB03KT 9999 SCT008 OVC041 11/10
                        Q1023 TEMPO BKN008=
201510190450 METAR EGLL 190450Z AUTO VRB03KT 9999 BKN008 11/10 Q1023 TEMPO
                        BKN010=
201510190420 METAR COR EGLL 190420Z AUTO VRB03KT 9999 BKN008 OVC041 11/10
                        Q1023 TEMPO BKN010=
201510190350 METAR EGLL 190350Z AUTO 01004KT 330V050 9999 OVC008 11/10
                        Q1023 TEMPO BKN010=
201510190320 METAR COR EGLL 190320Z AUTO 01004KT 340V040 9999 OVC008 11/10
                        Q1023 TEMPO BKN010=
201510190250 METAR EGLL 190250Z AUTO 03004KT 350V060 9999 BKN008 11/10
                        Q1023 TEMPO SCT008 BKN045=
201510190220 METAR COR EGLL 190220Z AUTO 03004KT 360V070 9999 BKN009 OVC045
                        11/09 Q1023 TEMPO SCT009 OVC045=
201510190150 METAR EGLL 190150Z AUTO VRB02KT 9999 FEW010 OVC044 11/09
                        Q1023 TEMPO BKN010=
201510190120 METAR COR EGLL 190120Z AUTO VRB03KT 9999 SCT011 OVC042 11/09
                        Q1023 TEMPO BKN011=
201510190050 METAR EGLL 190050Z AUTO VRB03KT 9999 OVC044 11/09 Q1023 TEMPO
                        BKN012=
201510190020 METAR COR EGLL 190020Z AUTO 04004KT 350V060 9999 OVC045 12/09
                        Q1023 TEMPO BKN012=
201510182350 METAR COR EGLL 182350Z AUTO 04004KT 010V080 9999 NCD 12/09
                        Q1023 TEMPO BKN012=
201510182320 METAR COR EGLL 182320Z AUTO 04005KT 360V080 9999 OVC049 12/09
                        Q1023 TEMPO BKN012=
201510182250 METAR COR EGLL 182250Z AUTO 02004KT 320V080 9999 NCD 12/09
                        Q1023 TEMPO BKN012=
201510182220 METAR COR EGLL 182220Z AUTO 02005KT 340V060 9999 NCD 12/09
                        Q1023 TEMPO BKN012=
201510182150 METAR EGLL 182150Z AUTO 03005KT 350V060 9999 OVC049 12/09
                        Q1023 TEMPO BKN012=
201510182120 METAR COR EGLL 182120Z AUTO 03006KT 330V070 9999 FEW011 12/09
                        Q1023 TEMPO BKN011=
201510182050 METAR EGLL 182050Z AUTO 02005KT 9999 FEW013 OVC049 12/10
                        Q1023 TEMPO BKN012=
201510182020 METAR COR EGLL 182020Z AUTO 03004KT 340V060 9999 FEW012 12/10
                        Q1022 TEMPO BKN012=
201510181950 METAR COR EGLL 181950Z AUTO 04004KT 360V060 9999 BKN012 13/10
                        Q1022 TEMPO SCT012=
201510181920 METAR COR EGLL 181920Z AUTO VRB03KT 9999 SCT014 SCT034 13/11
                        Q1022 TEMPO BKN014=
201510181850 METAR EGLL 181850Z AUTO 02004KT 340V050 9999 FEW028 13/11
                        Q1022 NOSIG=
201510181820 METAR COR EGLL 181820Z AUTO VRB03KT 9999 SCT021 SCT036 13/11
                        Q1022 NOSIG=
201510181750 METAR EGLL 181750Z AUTO 36003KT 9999 SCT022 SCT038 13/11
                        Q1022 NOSIG=
201510181720 METAR COR EGLL 181720Z AUTO VRB03KT 8000 -RA BKN027 12/11
                        Q1021 TEMPO BKN014=
201510181650 METAR EGLL 181650Z AUTO 03005KT 350V060 6000 -RA SCT011 BKN023
                        OVC040 13/11 Q1021 TEMPO BKN014=
201510181620 METAR COR EGLL 181620Z AUTO 35005KT 9999 BKN026 14/10 Q1021
                        NOSIG=
201510181550 METAR EGLL 181550Z AUTO 36006KT 330V040 9999 FEW018 BKN026
                        14/10 Q1021 NOSIG=
201510181520 METAR COR EGLL 181520Z AUTO 36005KT 330V050 9999 SCT019 OVC032
                        14/09 Q1021 NOSIG=
201510181450 METAR EGLL 181450Z AUTO 01006KT 320V050 9999 FEW023 SCT036
                        14/09 Q1021 NOSIG=
201510181420 METAR COR EGLL 181420Z AUTO 01006KT 320V070 9999 SCT022 15/09
                        Q1021 NOSIG=
201510181350 METAR EGLL 181350Z AUTO 06008KT 9999 SCT023 15/09 Q1021 NOSIG=
201510181320 METAR COR EGLL 181320Z AUTO 04007KT 010V090 9999 SCT023 SCT037
                        15/09 Q1021 NOSIG=
201510181250 METAR EGLL 181250Z AUTO 04007KT 350V070 9999 BKN022 15/09
                        Q1021 NOSIG=
201510181220 METAR COR EGLL 181220Z AUTO 04006KT 360V070 9999 FEW022 BKN029
                        14/09 Q1021 NOSIG=
201510181150 METAR EGLL 181150Z AUTO 04007KT 010V070 9999 BKN024 OVC036
                        14/09 Q1021 NOSIG=
201510181120 METAR COR EGLL 181120Z AUTO 06006KT 350V110 9999 BKN016 14/09
                        Q1021 NOSIG=
201510181050 METAR EGLL 181050Z AUTO 05006KT 010V090 9999 SCT015 SCT049
                        14/09 Q1021 NOSIG=
201510181020 METAR COR EGLL 181020Z AUTO 01006KT 340V040 9999 FEW015 13/09
                        Q1021 NOSIG=
201510180950 METAR EGLL 180950Z AUTO 03006KT 350V070 9999 FEW012 13/10
                        Q1021 NOSIG=
201510180920 METAR COR EGLL 180920Z AUTO 04007KT 360V070 9999 FEW010 SCT031
                        12/09 Q1021 NOSIG=
201510180850 METAR EGLL 180850Z AUTO 04007KT 9999 SCT027 12/10 Q1021 NOSIG=
201510180820 METAR COR EGLL 180820Z AUTO 04004KT 350V060 9999 SCT029 12/09
                        Q1021 NOSIG=
201510180750 METAR COR EGLL 180750Z AUTO 03004KT 360V060 9999 FEW029 SCT046
                        11/09 Q1021 NOSIG=
201510180720 METAR COR EGLL 180720Z AUTO 02004KT 340V060 9999 NCD 11/09
                        Q1020 NOSIG=
201510180650 METAR EGLL 180650Z AUTO 02004KT 340V050 9999 NCD 11/09 Q1020
                        NOSIG=
201510180620 METAR COR EGLL 180620Z AUTO 01005KT 340V040 9999 NCD 11/10
                        Q1020 NOSIG=
201510180550 METAR EGLL 180550Z AUTO 01004KT 9999 FEW035 OVC047 11/10
                        Q1020 NOSIG=
201510180520 METAR COR EGLL 180520Z AUTO 02004KT 350V050 9999 OVC048 11/10
                        Q1019 NOSIG=
201510180450 METAR EGLL 180450Z AUTO 03005KT 350V050 9999 NCD 11/10 Q1019
                        NOSIG=
201510180420 METAR COR EGLL 180420Z AUTO 02005KT 350V070 9999 NCD 11/10
                        Q1019 NOSIG=
201510180350 METAR EGLL 180350Z AUTO 03004KT 9999 NCD 11/10 Q1019 NOSIG=
201510180320 METAR COR EGLL 180320Z AUTO 02004KT 340V060 9999 NCD 11/10
                        Q1019 TEMPO BKN010=
201510180250 METAR EGLL 180250Z AUTO 01005KT 330V050 9999 SCT008 11/10
                        Q1019 TEMPO BKN008=
201510180220 METAR COR EGLL 180220Z AUTO 36004KT 330V030 9999 BKN007 11/10
                        Q1019 TEMPO SCT007 BKN012=
201510180150 METAR EGLL 180150Z AUTO 36004KT 9999 OVC007 11/10 Q1019 NOSIG=
201510180120 METAR COR EGLL 180120Z AUTO 36004KT 330V030 9999 OVC007 11/10
                        Q1019 NOSIG=
201510180050 METAR EGLL 180050Z AUTO 36004KT 8000 -RA OVC007 11/10 Q1019
                        NOSIG=
201510180020 METAR COR EGLL 180020Z AUTO VRB02KT 5000 HZ OVC007 11/09
                        Q1019 NOSIG=
201510172350 METAR EGLL 172350Z AUTO 36004KT 330V040 7000 OVC007 11/09
                        Q1019=
201510172320 METAR COR EGLL 172320Z AUTO 36005KT 330V030 9999 OVC007 11/09
                        Q1019 NOSIG=
201510172250 METAR COR EGLL 172250Z AUTO 01005KT 310V040 9999 OVC007 11/09
                        Q1019 NOSIG=
201510172220 METAR COR EGLL 172220Z AUTO 02006KT 340V060 9999 OVC008 11/09
                        Q1020 NOSIG=
201510172150 METAR COR EGLL 172150Z AUTO 02005KT 330V070 9999 OVC008 11/09
                        Q1020 NOSIG=
201510172120 METAR COR EGLL 172120Z AUTO 02006KT 340V050 4500 HZ OVC009
                        11/09 Q1020 BECMG 9999 NSW BKN012=
201510172050 METAR EGLL 172050Z AUTO 01006KT 330V030 6000 OVC010 11/09
                        Q1019 TEMPO BKN008=
201510172020 METAR COR EGLL 172020Z AUTO 01005KT 330V060 8000 OVC013 11/08
                        Q1019 NOSIG=
201510171950 METAR EGLL 171950Z AUTO 02005KT 340V050 9999 BKN014 11/08
                        Q1019 NOSIG=
201510171920 METAR COR EGLL 171920Z AUTO 02007KT 340V050 9999 OVC015 12/08
                        Q1019 TEMPO BKN014=
201510171850 METAR COR EGLL 171850Z AUTO 01006KT 340V050 9999 BKN018 12/08
                        Q1019 NOSIG=
201510171820 METAR COR EGLL 171820Z AUTO 01005KT 340V040 9999 BKN019 12/07
                        Q1019 NOSIG=
201510171750 METAR COR EGLL 171750Z AUTO 01006KT 320V040 9999 SCT021 12/07
                        Q1019 TEMPO BKN014=
201510171720 METAR COR EGLL 171720Z AUTO 01006KT 350V050 9999 BKN020 12/08
                        Q1019 TEMPO BKN014=
201510171650 METAR EGLL 171650Z AUTO 01008KT 340V050 9999 BKN021 12/07
                        Q1019 TEMPO BKN014=
201510171620 METAR COR EGLL 171620Z AUTO 02006KT 330V070 9999 BKN023 12/07
                        Q1019 NOSIG=
201510171550 METAR EGLL 171550Z AUTO 02008KT 330V050 9999 BKN023 12/07
                        Q1019 NOSIG=
201510171520 METAR COR EGLL 171520Z AUTO 01007KT 340V050 9999 OVC022 12/08
                        Q1019 NOSIG=
201510171450 METAR EGLL 171450Z AUTO 01008KT 330V050 9999 BKN022 12/07
                        Q1019 NOSIG=
201510171420 METAR COR EGLL 171420Z AUTO 01006KT 320V060 9999 BKN023 13/08
                        Q1020 NOSIG=
201510171350 METAR EGLL 171350Z AUTO 01008KT 340V050 9999 SCT023 BKN036
                        13/07 Q1020 NOSIG=
201510171320 METAR COR EGLL 171320Z AUTO 01006KT 330V040 9999 BKN022 12/07
                        Q1020 NOSIG=
201510171250 METAR EGLL 171250Z AUTO 36008KT 320V050 9999 BKN023 12/07
                        Q1020 NOSIG=
201510171220 METAR COR EGLL 171220Z AUTO 01007KT 340V040 9999 SCT022 OVC031
                        12/07 Q1020 NOSIG=
201510171150 METAR EGLL 171150Z AUTO 02009KT 340V050 9999 OVC035 12/07
                        Q1020 NOSIG=
201510171120 METAR COR EGLL 171120Z AUTO 02008KT 340V050 9999 FEW021 OVC040
                        12/07 Q1020 NOSIG=
201510171050 METAR EGLL 171050Z AUTO 02010KT 340V050 9999 SCT021 OVC038
                        12/07 Q1020 NOSIG=
201510171020 METAR COR EGLL 171020Z AUTO 02008KT 340V050 9999 FEW022 OVC037
                        12/07 Q1021 NOSIG=
201510170950 METAR EGLL 170950Z AUTO 36007KT 330V050 9999 OVC037 12/07
                        Q1021 NOSIG=
201510170920 METAR COR EGLL 170920Z AUTO 36007KT 9999 OVC034 11/07 Q1021
                        NOSIG=
201510170850 METAR COR EGLL 170850Z AUTO 36006KT 320V030 9999 FEW025 OVC036
                        11/07 Q1021 NOSIG=
201510170820 METAR COR EGLL 170820Z AUTO 35005KT 320V020 9999 OVC043 11/07
                        Q1021 NOSIG=
201510170750 METAR EGLL 170750Z AUTO 35006KT 300V040 9999 OVC043 11/07
                        Q1021 NOSIG=
201510170720 METAR COR EGLL 170720Z AUTO 36006KT 9999 OVC040 10/07 Q1021
                        NOSIG=
201510170650 METAR EGLL 170650Z AUTO 36005KT 320V040 9999 OVC037 10/07
                        Q1020 NOSIG=
201510170620 METAR COR EGLL 170620Z AUTO 36006KT 9999 OVC038 10/08 Q1020
                        NOSIG=
201510170550 METAR EGLL 170550Z AUTO 36006KT 9999 OVC040 11/08 Q1020 NOSIG=
201510170520 METAR COR EGLL 170520Z AUTO 36005KT 9999 OVC039 11/08 Q1020
                        NOSIG=
201510170450 METAR COR EGLL 170450Z AUTO 36006KT 320V030 9999 OVC044 11/08
                        Q1020 NOSIG=
201510170420 METAR COR EGLL 170420Z AUTO 36006KT 330V030 9999 OVC044 11/08
                        Q1020 NOSIG=
201510170350 METAR EGLL 170350Z AUTO 36006KT 9999 OVC046 11/08 Q1021 NOSIG=
201510170320 METAR COR EGLL 170320Z AUTO 36006KT 320V020 9999 FEW031 OVC044
                        11/08 Q1021 NOSIG=
201510170250 METAR EGLL 170250Z AUTO 36006KT 330V040 9999 FEW035 OVC042
                        11/08 Q1021 NOSIG=
201510170220 METAR COR EGLL 170220Z AUTO 36006KT 320V030 9999 FEW035 OVC042
                        11/08 Q1021 NOSIG=
201510170150 METAR EGLL 170150Z AUTO 35006KT 9999 OVC036 11/08 Q1021 NOSIG=
201510170120 METAR COR EGLL 170120Z AUTO 36005KT 330V030 9999 BKN030 11/08
                        Q1021 NOSIG=
201510170050 METAR EGLL 170050Z AUTO 36006KT 330V030 9999 BKN026 OVC038
                        11/08 Q1022 NOSIG=
201510170020 METAR COR EGLL 170020Z AUTO 01006KT 340V040 9999 FEW013 BKN020
                        OVC038 11/09 Q1022 NOSIG=
201510162350 METAR EGLL 162350Z AUTO 36005KT 330V030 9999 OVC012 11/09
                        Q1022 BECMG BKN016=
201510162320 METAR COR EGLL 162320Z AUTO 36006KT 9999 BKN015 BKN032 11/08
                        Q1022 NOSIG=
201510162250 METAR COR EGLL 162250Z AUTO 35006KT 320V040 9999 BKN016 OVC041
                        11/08 Q1022 NOSIG=
201510162220 METAR COR EGLL 162220Z AUTO 36006KT 320V030 9999 SCT016 OVC037
                        11/08 Q1022 NOSIG=
201510162150 METAR EGLL 162150Z AUTO 01007KT 330V040 9999 FEW015 BKN023
                        OVC046 11/08 Q1022 NOSIG=
201510162120 METAR COR EGLL 162120Z AUTO 36007KT 9999 FEW016 BKN025 12/09
                        Q1022 NOSIG=
201510162050 METAR EGLL 162050Z AUTO 02007KT 340V060 9999 FEW013 OVC027
                        12/09 Q1022 NOSIG=
201510162020 METAR COR EGLL 162020Z AUTO 01007KT 330V050 9999 FEW013 BKN029
                        12/09 Q1022 NOSIG=
201510161950 METAR EGLL 161950Z AUTO 01007KT 340V040 9999 FEW017 BKN038
                        12/09 Q1022 NOSIG=
201510161920 METAR COR EGLL 161920Z AUTO 01005KT 330V050 9999 FEW017 OVC041
                        12/09 Q1022 NOSIG=
201510161850 METAR COR EGLL 161850Z AUTO 02006KT 340V060 9999 FEW018 OVC040
                        12/09 Q1022 NOSIG=
201510161820 METAR COR EGLL 161820Z AUTO 01006KT 310V050 9999 BKN017 OVC037
                        12/09 Q1022 NOSIG=
201510161750 METAR EGLL 161750Z AUTO 01006KT 330V060 9999 FEW021 OVC035
                        13/08 Q1022 NOSIG=
201510161720 METAR COR EGLL 161720Z AUTO 03007KT 340V050 9999 FEW021 OVC032
                        13/08 Q1022 NOSIG=
201510161650 METAR EGLL 161650Z AUTO 03007KT 9999 BKN021 13/08 Q1021 NOSIG=
201510161620 METAR COR EGLL 161620Z AUTO 02008KT 350V050 9999 BKN024 13/08
                        Q1021 NOSIG=
201510161550 METAR EGLL 161550Z AUTO 03009KT 340V060 9999 BKN021 BKN036
                        13/08 Q1021 NOSIG=
201510161520 METAR COR EGLL 161520Z AUTO 02009KT 9999 BKN020 BKN036 13/09
                        Q1021 NOSIG=
201510161450 METAR COR EGLL 161450Z AUTO 02007KT 350V050 9999 OVC019 13/09
                        Q1021 NOSIG=
201510161420 METAR COR EGLL 161420Z AUTO 01008KT 340V050 9999 BKN019 13/09
                        Q1021 NOSIG=
201510161350 METAR EGLL 161350Z AUTO 03007KT 340V060 9999 BKN019 13/09
                        Q1021 NOSIG=
201510161320 METAR COR EGLL 161320Z AUTO 03011KT 350V060 9999 BKN018 13/09
                        Q1021 NOSIG=
201510161250 METAR EGLL 161250Z AUTO 02010KT 340V070 9999 BKN018 13/09
                        Q1021 NOSIG=
201510161220 METAR COR EGLL 161220Z AUTO 02010KT 350V050 9999 BKN019 OVC046
                        13/09 Q1021 NOSIG=
201510161150 METAR COR EGLL 161150Z AUTO 02010G21KT 340V050 9999 BKN019
                        13/09 Q1021 NOSIG=
201510161120 METAR EGLL 161120Z AUTO 03012KT 360V070 9999 BKN019 13/09
                        Q1021=
201510161050 METAR COR EGLL 161050Z AUTO 03010KT 350V060 9999 FEW018 BKN044
                        13/09 Q1021 NOSIG=
201510161020 METAR COR EGLL 161020Z AUTO 02009KT 350V070 9999 SCT015 OVC036
                        13/09 Q1022 NOSIG=
201510160950 METAR EGLL 160950Z AUTO 01010KT 340V040 9999 BKN015 BKN037
                        12/09 Q1022 TEMP0 BKN014=
201510160920 METAR COR EGLL 160920Z AUTO 01008KT 340V040 9999 SCT013 BKN021
                        OVC040 12/09 Q1022 TEMPO BKN013=
201510160850 METAR COR EGLL 160850Z AUTO 01008KT 330V050 9999 SCT013 BKN036
                        12/09 Q1022 TEMPO BKN013=
201510160820 METAR COR EGLL 160820Z AUTO 01008KT 9999 FEW011 BKN046 11/09
                        Q1021 TEMPO BKN012=
201510160750 METAR EGLL 160750Z AUTO 36008KT 9000 SCT011 BKN033 11/09
                        Q1021 TEMPO BKN011=
201510160720 METAR COR EGLL 160720Z AUTO 36009G19KT 9999 BKN012 11/09
                        Q1021 BECMG SCT012 BKN030=
201510160650 METAR EGLL 160650Z AUTO 36009KT 330V040 9999 BKN014 OVC029
                        11/08 Q1021 TEMPO SCT014 BKN030=
201510160620 METAR COR EGLL 160620Z AUTO 36009KT 330V030 9999 FEW014 OVC037
                        11/08 Q1021 TEMPO BKN012=
201510160550 METAR EGLL 160550Z AUTO 36007KT 310V030 9999 FEW014 OVC040
                        11/08 Q1021 TEMPO BKN012=
201510160520 METAR COR EGLL 160520Z AUTO 35008KT 320V030 9999 BKN013 OVC036
                        11/08 Q1021 TEMPO SCT012=
201510160450 METAR EGLL 160450Z AUTO 36007KT 9999 BKN014 11/08 Q1021 TEMPO
                        SCT014=
201510160420 METAR COR EGLL 160420Z AUTO 01007KT 9999 BKN013 11/08 Q1021
                        TEMPO SCT012=
201510160350 METAR EGLL 160350Z AUTO 36007KT 320V040 9999 BKN014 11/08
                        Q1021 TEMPO SCT014=
201510160320 METAR COR EGLL 160320Z AUTO 01007KT 9999 BKN012 BKN029 11/09
                        Q1021 TEMPO SCT012=
201510160250 METAR EGLL 160250Z AUTO 36007KT 330V040 9999 BKN012 11/09
                        Q1021 TEMPO SCT012=
201510160220 METAR COR EGLL 160220Z AUTO 36006KT 320V030 9999 SCT011 11/09
                        Q1021 TEMPO BKN012=
201510160150 METAR EGLL 160150Z AUTO 36007KT 330V030 9999 BKN045 11/08
                        Q1021 TEMPO BKN012=
201510160120 METAR COR EGLL 160120Z AUTO 35008KT 310V020 9999 FEW012 SCT040
                        11/08 Q1021 TEMPO BKN012=
201510160050 METAR EGLL 160050Z AUTO 35009KT 9999 FEW012 11/09 Q1021 TEMPO
                        BKN012=
201510160020 METAR COR EGLL 160020Z AUTO 36009KT 330V040 9999 FEW011 11/09
                        Q1021 TEMPO BKN012=
201510152350 METAR EGLL 152350Z AUTO 36008KT 320V030 9999 FEW012 11/09
                        Q1021 TEMPO BKN012=
201510152320 METAR COR EGLL 152320Z AUTO 36007KT 9999 FEW011 11/09 Q1022
                        TEMPO BKN012=
201510152250 METAR EGLL 152250Z AUTO 36007KT 330V030 9999 FEW011 11/09
                        Q1022 TEMPO BKN012=
201510152220 METAR COR EGLL 152220Z AUTO 36007KT 9999 FEW012 11/09 Q1022
                        TEMPO BKN012=
201510152150 METAR EGLL 152150Z AUTO 35006KT 310V020 9999 FEW013 11/09
                        Q1022 TEMPO BKN012=
201510152120 METAR COR EGLL 152120Z AUTO 35006KT 320V030 9999 FEW012 SCT037
                        11/09 Q1022 TEMPO BKN012=
201510152050 METAR EGLL 152050Z AUTO 36007KT 9999 -RA FEW014 11/09 Q1022
                        NOSIG=
201510152020 METAR COR EGLL 152020Z AUTO 36005KT 320V030 9999 NCD 11/08
                        Q1022 NOSIG=
201510151950 METAR EGLL 151950Z AUTO 36006KT 9999 FEW014 11/08 Q1022 NOSIG=
201510151920 METAR COR EGLL 151920Z AUTO 36005KT 320V030 9999 FEW043 11/09
                        Q1022 NOSIG=
201510151850 METAR COR EGLL 151850Z AUTO 01006KT 9999 -RA OVC046 11/09
                        Q1021 NOSIG=
201510151820 METAR COR EGLL 151820Z AUTO 36006KT 9999 NCD 11/08 Q1021
                        NOSIG=
201510151750 METAR COR EGLL 151750Z AUTO 35005KT 320V030 9999 -RA NCD
                        11/08 Q1021 NOSIG=
201510151720 METAR COR EGLL 151720Z AUTO 35004KT 310V020 9999 FEW018 11/08
                        Q1021 NOSIG=
201510151650 METAR EGLL 151650Z AUTO 35004KT 310V020 9999 NCD 11/08 Q1021
                        NOSIG=
201510151620 METAR COR EGLL 151620Z AUTO 33006KT 290V020 9999 NCD 11/07
                        Q1021 NOSIG=
201510151550 METAR EGLL 151550Z AUTO 33006KT 300V010 9999 SCT040 12/07
                        Q1021 NOSIG=
201510151520 METAR COR EGLL 151520Z AUTO 34006KT 310V020 9999 BKN039 12/07
                        Q1021 NOSIG=
201510151450 METAR EGLL 151450Z AUTO 36006KT 9999 FEW038 12/06 Q1021 NOSIG=
201510151420 METAR COR EGLL 151420Z AUTO 01006KT 320V040 9999 SCT039 12/06
                        Q1021 NOSIG=
201510151350 METAR EGLL 151350Z AUTO 36006KT 320V040 9999 FEW031 BKN036
                        12/06 Q1021 NOSIG=
201510151320 METAR COR EGLL 151320Z AUTO 01007KT 9999 BKN033 12/05 Q1022
                        NOSIG=
201510151250 METAR EGLL 151250Z AUTO 04006KT 360V090 9999 BKN034 13/05
                        Q1022 NOSIG=
201510151220 METAR COR EGLL 151220Z AUTO 05008KT 010V090 9999 FEW031 OVC042
                        12/05 Q1022 NOSIG=
201510151150 METAR COR EGLL 151150Z AUTO 04008KT 350V080 9999 BKN032 BKN046
                        12/06 Q1022 NOSIG=
201510151120 METAR COR EGLL 151120Z AUTO 07007KT 030V100 9999 FEW027 12/05
                        Q1022 NOSIG=
201510151050 METAR COR EGLL 151050Z AUTO 06009KT 020V090 9999 FEW027 12/06
                        Q1022 NOSIG=
201510151020 METAR COR EGLL 151020Z AUTO 05008KT 9999 FEW023 BKN044 11/06
                        Q1021 NOSIG=
201510150950 METAR EGLL 150950Z AUTO 05008KT 020V080 9999 FEW022 BKN048
                        11/06 Q1021 NOSIG=
201510150920 METAR COR EGLL 150920Z AUTO 04008KT 350V070 9999 FEW018 11/07
                        Q1021 NOSIG=
201510150850 METAR COR EGLL 150850Z AUTO 02006KT 340V060 9999 BKN040 10/08
                        Q1021 NOSIG=
201510150820 METAR COR EGLL 150820Z AUTO 02006KT 350V050 9999 BKN048 10/08
                        Q1021 NOSIG=
201510150750 METAR EGLL 150750Z AUTO 01006KT 350V050 9999 FEW008 BKN041
                        10/08 Q1021 NOSIG=
201510150720 METAR COR EGLL 150720Z AUTO 02005KT 9999 FEW010 OVC036 10/08
                        Q1021 NOSIG=
201510150650 METAR EGLL 150650Z AUTO 03005KT 360V070 9999 FEW019 BKN033
                        09/08 Q1021 NOSIG=
201510150620 METAR COR EGLL 150620Z AUTO 02004KT 340V060 9999 BKN020 09/08
                        Q1021 NOSIG=
201510150550 METAR EGLL 150550Z AUTO 36005KT 320V070 9999 BKN021 09/08
                        Q1020 NOSIG=
201510150520 METAR COR EGLL 150520Z AUTO 01006KT 340V040 9999 BKN031 09/07
                        Q1020 TEMPO BKN010=
201510150450 METAR EGLL 150450Z AUTO 01005KT 9999 FEW011 OVC045 09/07
                        Q1020 TEMPO BKN010=
201510150420 METAR COR EGLL 150420Z AUTO 02004KT 340V070 9999 SCT041 09/07
                        Q1020 TEMPO BKN010=
201510150350 METAR EGLL 150350Z AUTO 01006KT 9999 NCD 09/07 Q1020 TEMPO
                        BKN010=
201510150320 METAR COR EGLL 150320Z AUTO 36007KT 330V040 9999 FEW011 09/07
                        Q1020 TEMPO BKN010=
201510150250 METAR EGLL 150250Z AUTO 36006KT 330V040 9999 BKN010 09/08
                        Q1020 TEMPO BKN008=
201510150220 METAR COR EGLL 150220Z AUTO 36004KT 330V040 9999 BKN011 09/08
                        Q1021 TEMPO BKN008=
201510150150 METAR EGLL 150150Z AUTO 35006KT 320V020 9999 FEW011/// BKN025///
                        //////TCU 09/07 Q1021 TEMPO BKN010=
201510150120 METAR COR EGLL 150120Z AUTO 34004KT 300V020 9999 FEW009 SCT038
                        09/08 Q1021 TEMPO BKN010=
201510150050 METAR EGLL 150050Z AUTO 35006KT 310V010 9999 FEW010 OVC048
                        09/08 Q1021 TEMPO BKN010=
201510150020 METAR COR EGLL 150020Z AUTO 35005KT 320V020 9999 FEW010 OVC048
                        10/08 Q1021 TEMPO BKN010=
201510142350 METAR EGLL 142350Z AUTO 34004KT 300V030 9999 OVC049 10/08
                        Q1021 NOSIG=
201510142320 METAR COR EGLL 142320Z AUTO 36005KT 330V030 9999 OVC037 10/08
                        Q1021 NOSIG=
201510142250 METAR EGLL 142250Z AUTO 36005KT 330V040 9999 BKN037 10/08
                        Q1021 NOSIG=
201510142220 METAR COR EGLL 142220Z AUTO 36005KT 9999 FEW012 BKN034 10/08
                        Q1021 TEMPO BKN012=
201510142150 METAR EGLL 142150Z AUTO 01004KT 320V040 9999 SCT010 BKN020
                        BKN037 10/08 Q1021 TEMPO BKN010=
201510142120 METAR COR EGLL 142120Z AUTO 01006KT 320V040 9999 -RA SCT013
                        SCT027 10/08 Q1021 NOSIG=
201510142050 METAR EGLL 142050Z AUTO 02007KT 350V050 9999 -RA FEW014 10/08
                        Q1021 NOSIG=
201510142020 METAR COR EGLL 142020Z AUTO 36007KT 9999 SCT039 10/08 Q1022
                        NOSIG=
201510141950 METAR COR EGLL 141950Z AUTO 36007KT 320V050 9999 SCT042 10/08
                        Q1022 NOSIG=
201510141920 METAR COR EGLL 141920Z AUTO 36008KT 330V030 9999 -RA SCT019
                        BKN034 10/08 Q1022 NOSIG=
201510141850 METAR EGLL 141850Z AUTO 36006KT 320V030 9999 FEW027 BKN047
                        11/08 Q1022 NOSIG=
201510141820 METAR COR EGLL 141820Z AUTO 01006KT 9999 -RA SCT033 BKN048
                        10/08 Q1022 NOSIG=
201510141750 METAR EGLL 141750Z AUTO 01007KT 9999 -RA FEW030 BKN037 11/07
                        Q1022 NOSIG=
201510141720 METAR COR EGLL 141720Z AUTO 01006KT 330V050 9999 FEW024 BKN034
                        12/07 Q1021 NOSIG=
201510141650 METAR EGLL 141650Z AUTO 35006KT 320V030 9999 FEW024 OVC049
                        12/07 Q1021 NOSIG=
201510141620 METAR COR EGLL 141620Z AUTO 36006KT 320V040 9999 NCD 11/07
                        Q1021 NOSIG=
201510141550 METAR COR EGLL 141550Z AUTO 02007KT 350V050 9999 FEW021 OVC038
                        12/07 Q1021 NOSIG=
201510141520 METAR COR EGLL 141520Z AUTO 35007KT 320V030 9999 SCT022///
                        BKN037/// //////TCU 13/07 Q1021 NOSIG=
201510141450 METAR COR EGLL 141450Z AUTO 35008KT 320V030 9999 FEW021///
                        //////TCU 13/08 Q1021 NOSIG=
201510141420 METAR COR EGLL 141420Z AUTO 36007KT 320V040 9999 NCD 12/09
                        Q1022 NOSIG=
201510141350 METAR EGLL 141350Z AUTO 01007KT 340V050 9999 -RA FEW023///
                        BKN032/// //////TCU 11/08 Q1022 NOSIG=
201510141320 METAR COR EGLL 141320Z AUTO 01006KT 340V050 9999 -RA BKN027///
                        BKN042/// //////TCU 12/08 Q1022 TEMPO
                        SHRA=
201510141250 METAR EGLL 141250Z AUTO 02007KT 340V060 9999 FEW028 13/07
                        Q1022 TEMPO SHRA=
201510141220 METAR COR EGLL 141220Z AUTO 01008KT 340V050 9999 BKN027 BKN042
                        13/07 Q1022 NOSIG=
201510141150 METAR EGLL 141150Z AUTO 01007KT 330V050 9999 BKN027 BKN043
                        12/06 Q1023 NOSIG=
201510141120 METAR COR EGLL 141120Z AUTO 03009KT 340V060 9999 BKN024 13/06
                        Q1023 NOSIG=
201510141050 METAR COR EGLL 141050Z AUTO 03008KT 350V060 9999 BKN023 12/06
                        Q1023 NOSIG=
201510141020 METAR COR EGLL 141020Z AUTO 01009KT 330V050 9999 BKN022 12/07
                        Q1023 NOSIG=
201510140950 METAR COR EGLL 140950Z AUTO 01008KT 330V050 9999 FEW021 12/07
                        Q1024 NOSIG=
201510140920 METAR COR EGLL 140920Z AUTO 01008KT 340V050 9999 SCT038 10/06
                        Q1024 NOSIG=
201510140850 METAR COR EGLL 140850Z AUTO 01008KT 320V040 9999 NCD 10/06
                        Q1024 NOSIG=
201510140820 METAR COR EGLL 140820Z AUTO 36006KT 330V040 9999 NCD 09/06
                        Q1024 NOSIG=
201510140750 METAR EGLL 140750Z AUTO 36007KT 9999 NCD 08/05 Q1024 NOSIG=
201510140720 METAR COR EGLL 140720Z AUTO 35005KT 320V040 9999 NCD 07/05
                        Q1024 NOSIG=
201510140650 METAR EGLL 140650Z AUTO 35005KT 320V030 9999 NCD 07/04 Q1024
                        NOSIG=
201510140620 METAR COR EGLL 140620Z AUTO 34005KT 310V020 9999 NCD 07/04
                        Q1024 NOSIG=
201510140550 METAR EGLL 140550Z AUTO 35005KT 320V030 9999 NCD 07/04 Q1024
                        NOSIG=
201510140520 METAR COR EGLL 140520Z AUTO 34004KT 310V040 9999 NCD 06/04
                        Q1024 NOSIG=
201510140450 METAR EGLL 140450Z AUTO VRB03KT 9999 NCD 06/04 Q1024 NOSIG=
201510140420 METAR COR EGLL 140420Z AUTO VRB02KT 9999 NCD 06/04 Q1024
                        NOSIG=
201510140350 METAR EGLL 140350Z AUTO 30004KT 9999 NCD 06/04 Q1024 NOSIG=
201510140320 METAR COR EGLL 140320Z AUTO 31005KT 9999 NCD 06/04 Q1025
                        NOSIG=
201510140250 METAR EGLL 140250Z AUTO 32005KT 9999 NCD 06/04 Q1025 NOSIG=
201510140220 METAR COR EGLL 140220Z AUTO 34003KT 9999 NCD 07/04 Q1025
                        NOSIG=
201510140150 METAR EGLL 140150Z AUTO 34004KT 9999 NCD 07/04 Q1025 NOSIG=
201510140120 METAR COR EGLL 140120Z AUTO 35004KT 320V020 9999 NCD 07/05
                        Q1025 NOSIG=
201510140050 METAR COR EGLL 140050Z AUTO 35005KT 9999 NCD 07/05 Q1025
                        NOSIG=
201510140020 METAR COR EGLL 140020Z AUTO 36005KT 9999 NCD 07/05 Q1025
                        NOSIG=
201510132350 METAR COR EGLL 132350Z AUTO 35004KT 320V030 9999 NCD 07/05
                        Q1025 NOSIG=
201510132320 METAR COR EGLL 132320Z AUTO 35005KT 320V020 9999 NCD 08/05
                        Q1025 NOSIG=
201510132250 METAR COR EGLL 132250Z AUTO 35004KT 9999 NCD 08/05 Q1025
                        NOSIG=
201510132220 METAR COR EGLL 132220Z AUTO 36004KT 9999 NCD 08/05 Q1025
                        NOSIG=
201510132150 METAR EGLL 132150Z AUTO 35004KT 320V020 9999 NCD 09/05 Q1025
                        NOSIG=
201510132120 METAR COR EGLL 132120Z AUTO 35005KT 320V020 9999 NCD 10/05
                        Q1025 NOSIG=
201510132050 METAR EGLL 132050Z AUTO 35004KT 310V020 9999 NCD 10/05 Q1025
                        NOSIG=
201510132020 METAR COR EGLL 132020Z AUTO 35005KT 310V030 9999 NCD 10/05
                        Q1025 NOSIG=
201510131950 METAR EGLL 131950Z AUTO 35005KT 310V020 9999 NCD 10/05 Q1025
                        NOSIG=
201510131920 METAR COR EGLL 131920Z AUTO 01005KT 330V040 9999 NCD 10/05
                        Q1025 NOSIG=
201510131850 METAR EGLL 131850Z AUTO 01005KT 9999 OVC048 10/05 Q1025 NOSIG=
201510131820 METAR COR EGLL 131820Z AUTO 01005KT 330V040 9999 NCD 11/05
                        Q1025 NOSIG=
201510131750 METAR EGLL 131750Z AUTO 01005KT 340V060 9999 NCD 11/04 Q1025
                        NOSIG=
201510131720 METAR COR EGLL 131720Z AUTO 03008KT 350V090 9999 SCT035 OVC041
                        11/04 Q1025 NOSIG=
201510131650 METAR EGLL 131650Z AUTO 05009KT 9999 BKN034 OVC046 11/04
                        Q1024 NOSIG=
201510131620 METAR COR EGLL 131620Z AUTO 04007KT 360V070 9999 SCT036 12/04
                        Q1024 NOSIG=
201510131550 METAR EGLL 131550Z AUTO 03007KT 360V070 9999 SCT038 12/04
                        Q1024 NOSIG=
201510131520 METAR COR EGLL 131520Z AUTO 03005KT 350V060 9999 SCT036 BKN048
                        12/04 Q1024 NOSIG=
201510131450 METAR EGLL 131450Z AUTO 04010KT 010V070 9999 BKN034 12/05
                        Q1024 NOSIG=
201510131420 METAR COR EGLL 131420Z AUTO 03008KT 340V060 9999 FEW037 BKN048
                        13/05 Q1024 NOSIG=
201510131350 METAR COR EGLL 131350Z AUTO 03008KT 350V060 9999 BKN034 12/04
                        Q1024 NOSIG=
201510131320 METAR COR EGLL 131320Z AUTO 03009KT 340V060 9999 FEW033 OVC045
                        13/05 Q1024 NOSIG=
201510131250 METAR EGLL 131250Z AUTO 01009KT 330V040 9999 SCT032 13/06
                        Q1024 NOSIG=
201510131220 METAR COR EGLL 131220Z AUTO 03008KT 350V060 9999 SCT028 13/06
                        Q1024 NOSIG=
201510131150 METAR EGLL 131150Z AUTO 04009KT 9999 SCT024 13/06 Q1024 NOSIG=
201510131120 METAR COR EGLL 131120Z AUTO 01008KT 340V050 9999 NCD 12/07
                        Q1024 NOSIG=
201510131050 METAR EGLL 131050Z AUTO 03008KT 9999 FEW022 11/07 Q1024 NOSIG=
201510131020 METAR COR EGLL 131020Z AUTO 01006KT 340V050 9999 FEW020 11/06
                        Q1024 NOSIG=
201510130950 METAR EGLL 130950Z AUTO 01008KT 330V050 9999 BKN020 11/07
                        Q1023 NOSIG=
201510130920 METAR COR EGLL 130920Z AUTO 36008KT 320V030 9999 FEW022 BKN032
                        11/06 Q1023 NOSIG=
201510130850 METAR EGLL 130850Z AUTO 01007KT 340V040 9999 NCD 10/07 Q1023
                        NOSIG=
201510130820 METAR COR EGLL 130820Z AUTO 36008KT 320V040 9999 NCD 10/07
                        Q1023 NOSIG=
201510130750 METAR EGLL 130750Z AUTO 36007KT 9999 NCD 09/06 Q1023 NOSIG=
201510130720 METAR COR EGLL 130720Z AUTO 36006KT 330V030 9999 NCD 09/06
                        Q1022 NOSIG=
201510130650 METAR EGLL 130650Z AUTO 36008KT 9999 OVC047 09/06 Q1022 NOSIG=
201510130620 METAR COR EGLL 130620Z AUTO 36007KT 330V030 9999 FEW037 OVC049
                        08/06 Q1022 NOSIG=
201510130550 METAR EGLL 130550Z AUTO 34006KT 9999 -RA FEW025 SCT033 08/05
                        Q1022 NOSIG=
201510130520 METAR COR EGLL 130520Z AUTO 34005KT 310V020 9999 FEW037 08/05
                        Q1021 NOSIG=
201510130450 METAR EGLL 130450Z AUTO 35006KT 320V020 9999 NCD 08/05 Q1021
                        NOSIG=
201510130420 METAR COR EGLL 130420Z AUTO 35008KT 9999 FEW037 08/05 Q1021
                        NOSIG=
201510130350 METAR EGLL 130350Z AUTO 35006KT 310V020 9999 NCD 08/06 Q1021
                        NOSIG=
201510130320 METAR COR EGLL 130320Z AUTO 35006KT 310V030 9999 NCD 08/06
                        Q1021 NOSIG=
201510130250 METAR EGLL 130250Z AUTO 35005KT 310V020 9999 OVC043 08/06
                        Q1021 NOSIG=
201510130220 METAR COR EGLL 130220Z AUTO 35004KT 300V030 9999 SCT013 BKN029
                        OVC041 09/06 Q1021 NOSIG=
201510130150 METAR EGLL 130150Z AUTO VRB03KT 9999 BKN014 08/06 Q1021 BECMG
                        FEW014 BKN022=
201510130120 METAR COR EGLL 130120Z AUTO 35005KT 320V030 9999 BKN020 08/05
                        Q1021 NOSIG=
201510130050 METAR COR EGLL 130050Z AUTO 34004KT 290V020 9999 SCT018 08/05
                        Q1021 NOSIG=
201510130020 METAR COR EGLL 130020Z AUTO VRB03KT 9999 BKN019 09/06 Q1021
                        NOSIG=
201510122350 METAR EGLL 122350Z AUTO 33005KT 9999 NCD 08/06 Q1021 NOSIG=
201510122320 METAR COR EGLL 122320Z AUTO 34004KT 300V010 9999 NCD 08/06
                        Q1021 NOSIG=
201510122250 METAR EGLL 122250Z AUTO 33005KT 300V020 9999 NCD 09/06 Q1021
                        NOSIG=
201510122220 METAR COR EGLL 122220Z AUTO 32004KT 9999 FEW020 10/06 Q1021
                        NOSIG=
201510122150 METAR EGLL 122150Z AUTO 35005KT 320V030 9999 NCD 11/07 Q1021
                        NOSIG=
201510122120 METAR COR EGLL 122120Z AUTO 35005KT 320V020 9999 SCT021 11/07
                        Q1021 NOSIG=
201510122050 METAR EGLL 122050Z AUTO 36005KT 320V030 9999 FEW022 11/07
                        Q1020 NOSIG=
201510122020 METAR COR EGLL 122020Z AUTO 36004KT 340V040 9999 BKN048 12/07
                        Q1020 NOSIG=
201510121950 METAR COR EGLL 121950Z AUTO 33003KT 9999 SCT028 BKN046 12/06
                        Q1020 NOSIG=
201510121920 METAR COR EGLL 121920Z AUTO 32003KT 9999 BKN031 12/06 Q1020
                        NOSIG=
201510121850 METAR EGLL 121850Z AUTO VRB03KT 9999 OVC033 13/06 Q1020 NOSIG=
201510121820 METAR COR EGLL 121820Z AUTO 35003KT 9999 BKN035 12/05 Q1020
                        NOSIG=
201510121750 METAR EGLL 121750Z AUTO 36004KT 9999 NCD 12/05 Q1020 NOSIG=
201510121720 METAR COR EGLL 121720Z AUTO 36004KT 330V030 9999 FEW039 12/05
                        Q1020 NOSIG=
201510121650 METAR EGLL 121650Z AUTO 35005KT 9999 NCD 13/05 Q1020 NOSIG=
201510121620 METAR COR EGLL 121620Z AUTO 36006KT 320V030 9999 NCD 14/05
                        Q1019 NOSIG=
201510121550 METAR EGLL 121550Z AUTO 36008KT 330V030 9999 NCD 14/05 Q1019
                        NOSIG=
201510121520 METAR EGLL 121520Z AUTO 35007KT 310V020 9999 NCD 14/05 Q1019=
201510121450 METAR EGLL 121450Z AUTO 36005KT 300V050 9999 NCD 14/05 Q1019=
201510121420 METAR EGLL 121420Z AUTO 35006KT 310V030 9999 FEW033 14/05
                        Q1019=
201510121350 METAR EGLL 121350Z AUTO 35006KT 300V040 9999 SCT032 14/06
                        Q1019 NOSIG=
201510121320 METAR COR EGLL 121320Z AUTO 36007KT 330V050 9999 SCT031 13/06
                        Q1019 NOSIG=
201510121250 METAR EGLL 121250Z AUTO 02008KT 330V060 9999 BKN029 13/06
                        Q1020 NOSIG=
201510121220 METAR COR EGLL 121220Z AUTO 02007KT 340V060 9999 BKN028 13/06
                        Q1020 NOSIG=
201510121150 METAR EGLL 121150Z AUTO 03006KT 350V090 9999 BKN027 12/06
                        Q1020 NOSIG=
201510121120 METAR COR EGLL 121120Z AUTO 01007KT 320V050 9999 BKN026 12/06
                        Q1020 NOSIG=
201510121050 METAR EGLL 121050Z AUTO 03006KT 330V070 9999 BKN026 12/06
                        Q1020 NOSIG=
201510121020 METAR COR EGLL 121020Z AUTO 04007KT 360V080 9999 BKN024 12/06
                        Q1020 NOSIG=
201510120950 METAR EGLL 120950Z AUTO 03007KT 340V060 9999 BKN025 12/06
                        Q1020 NOSIG=
201510120920 METAR COR EGLL 120920Z AUTO 36006KT 330V030 9999 OVC028 11/07
                        Q1020 NOSIG=
201510120850 METAR EGLL 120850Z AUTO 35006KT 310V020 9999 OVC027 11/06
                        Q1020 NOSIG=
201510120820 METAR COR EGLL 120820Z AUTO 36005KT 9999 OVC026 10/06 Q1020
                        NOSIG=
201510120750 METAR EGLL 120750Z AUTO 36005KT 9999 OVC025 09/06 Q1020 NOSIG=
201510120720 METAR COR EGLL 120720Z AUTO 36005KT 9999 OVC027 08/06 Q1020
                        NOSIG=
201510120650 METAR EGLL 120650Z AUTO 36004KT 9999 BKN030 08/06 Q1019 NOSIG=
201510120620 METAR COR EGLL 120620Z AUTO 36004KT 9999 BKN031 08/05 Q1019
                        NOSIG=
201510120550 METAR EGLL 120550Z AUTO 02004KT 360V060 9999 FEW031 08/05
                        Q1019 NOSIG=
201510120520 METAR COR EGLL 120520Z AUTO 02004KT 350V060 9999 BKN029 09/06
                        Q1019 NOSIG=
201510120450 METAR COR EGLL 120450Z AUTO 01004KT 9999 OVC029 09/06 Q1019
                        NOSIG=
201510120420 METAR COR EGLL 120420Z AUTO 36005KT 9999 OVC029 09/06 Q1018
                        NOSIG=
201510120350 METAR EGLL 120350Z AUTO 35004KT 9999 OVC027 09/06 Q1018 NOSIG=
201510120320 METAR COR EGLL 120320Z AUTO 34004KT 310V020 9999 FEW027 08/06
                        Q1018 NOSIG=
201510120250 METAR EGLL 120250Z AUTO 36004KT 9999 NCD 08/06 Q1018 NOSIG=
201510120220 METAR COR EGLL 120220Z AUTO 36004KT 330V030 9999 NCD 08/05
                        Q1018 NOSIG=
201510120150 METAR EGLL 120150Z AUTO 36003KT 9999 NCD 08/05 Q1018 NOSIG=
201510120120 METAR COR EGLL 120120Z AUTO 36004KT 330V030 9999 NCD 08/05
                        Q1018 NOSIG=
201510120050 METAR EGLL 120050Z AUTO 36003KT 9999 NCD 08/05 Q1018 NOSIG=
201510120020 METAR COR EGLL 120020Z AUTO 01003KT 9999 NCD 09/05 Q1018
                        NOSIG=
201510112350 METAR COR EGLL 112350Z AUTO 35004KT 9999 NCD 09/05 Q1018
                        NOSIG=
201510112320 METAR COR EGLL 112320Z AUTO 35003KT 9999 NCD 09/05 Q1018
                        NOSIG=
201510112250 METAR EGLL 112250Z AUTO 03004KT 350V060 9999 NCD 09/05 Q1018
                        NOSIG=
201510112220 METAR COR EGLL 112220Z AUTO VRB03KT 9999 NCD 10/05 Q1018
                        NOSIG=
201510112150 METAR EGLL 112150Z AUTO 04004KT 340V060 9999 NCD 10/05 Q1018
                        NOSIG=
201510112120 METAR COR EGLL 112120Z AUTO 04005KT 9999 NCD 10/05 Q1018
                        NOSIG=
201510112050 METAR COR EGLL 112050Z AUTO 05005KT 9999 NCD 11/05 Q1018
                        NOSIG=
201510112020 METAR COR EGLL 112020Z AUTO 06006KT 9999 NCD 11/05 Q1018
                        NOSIG=
201510111950 METAR EGLL 111950Z AUTO 06006KT 9999 NCD 11/05 Q1018 NOSIG=
201510111920 METAR COR EGLL 111920Z AUTO 05005KT 9999 NCD 12/06 Q1017
                        NOSIG=
201510111850 METAR EGLL 111850Z AUTO 04005KT 360V080 9999 NCD 12/06 Q1017
                        NOSIG=
201510111820 METAR COR EGLL 111820Z AUTO 04006KT 360V070 9999 NCD 12/06
                        Q1017 NOSIG=
201510111750 METAR COR EGLL 111750Z AUTO 03005KT 340V060 9999 NCD 12/06
                        Q1017 NOSIG=
201510111720 METAR COR EGLL 111720Z AUTO 04006KT 010V070 9999 NCD 13/06
                        Q1017 NOSIG=
201510111650 METAR COR EGLL 111650Z AUTO 04006KT 010V070 9999 NCD 13/06
                        Q1017 NOSIG=
201510111620 METAR COR EGLL 111620Z AUTO 04007KT 350V070 9999 NCD 14/06
                        Q1017 NOSIG=
201510111550 METAR EGLL 111550Z AUTO 05007KT 9999 NCD 14/06 Q1017 NOSIG=
201510111520 METAR COR EGLL 111520Z AUTO 05007KT 9999 NCD 14/06 Q1016
                        NOSIG=
201510111450 METAR EGLL 111450Z AUTO 06009KT 010V090 9999 NCD 15/07 Q1016
                        NOSIG=
201510111420 METAR COR EGLL 111420Z AUTO 05008KT 010V080 9999 NCD 15/07
                        Q1016 NOSIG=
201510111350 METAR COR EGLL 111350Z AUTO 06007KT 9999 FEW032 15/07 Q1016
                        NOSIG=
201510111320 METAR COR EGLL 111320Z AUTO 04007KT 010V080 9999 FEW030 15/07
                        Q1017 NOSIG=
201510111250 METAR EGLL 111250Z AUTO 05009KT 020V090 9999 NCD 15/08 Q1017
                        NOSIG=
201510111220 METAR COR EGLL 111220Z AUTO 06009KT 9999 NCD 15/08 Q1017
                        NOSIG=
201510111150 METAR EGLL 111150Z AUTO 08009KT 040V110 9999 FEW026 15/08
                        Q1017 NOSIG=
201510111120 METAR COR EGLL 111120Z AUTO 06008KT 010V080 9999 FEW025 14/08
                        Q1017 NOSIG=
201510111050 METAR EGLL 111050Z AUTO 07010KT 040V100 9999 NCD 14/08 Q1017
                        NOSIG=
201510111020 METAR COR EGLL 111020Z AUTO 07010KT 040V100 9999 FEW021 13/08
                        Q1017 NOSIG=
201510110950 METAR COR EGLL 110950Z AUTO 08010KT 9999 FEW020 14/08 Q1017
                        NOSIG=
201510110920 METAR COR EGLL 110920Z AUTO 06008KT 020V080 9999 NCD 13/09
                        Q1017 NOSIG=
201510110850 METAR COR EGLL 110850Z AUTO 06007KT 9000 NCD 12/08 Q1017
                        NOSIG=
201510110820 METAR COR EGLL 110820Z AUTO 05005KT 8000 NCD 11/08 Q1017
                        NOSIG=
201510110750 METAR EGLL 110750Z AUTO 05005KT 7000 NCD 11/08 Q1017 NOSIG=
201510110720 METAR EGLL 110720Z AUTO 05004KT 020V080 5000 HZ NCD 10/08
                        Q1017 BECMG 6000 NSW=
201510110650 METAR EGLL 110650Z AUTO 05003KT 4700 HZ NCD 10/08 Q1017 BECMG
                        6000 NSW=
201510110620 METAR COR EGLL 110620Z AUTO 05003KT 4700 HZ NCD 10/09 Q1017
                        BECMG 6000 NSW=
201510110550 METAR EGLL 110550Z AUTO VRB03KT 4600 HZ FEW022 10/09 Q1017
                        BECMG 6000 NSW=
201510110520 METAR COR EGLL 110520Z AUTO 04004KT 360V070 4200 HZ BKN021
                        10/09 Q1017 BECMG 6000 NSW=
201510110450 METAR COR EGLL 110450Z AUTO 04004KT 4800 HZ BKN021 10/09
                        Q1017 BECMG 6000 NSW=
201510110420 METAR COR EGLL 110420Z AUTO 05003KT 5000 HZ BKN014 11/09
                        Q1017 BECMG SCT014=
201510110350 METAR EGLL 110350Z AUTO 05004KT 5000 HZ BKN014 11/09 Q1017
                        TEMPO SCT014=
201510110320 METAR COR EGLL 110320Z AUTO 05005KT 5000 HZ BKN014 11/09
                        Q1017 TEMPO SCT014=
201510110250 METAR EGLL 110250Z AUTO 04005KT 5000 HZ BKN013 11/09 Q1017
                        NOSIG=
201510110220 METAR COR EGLL 110220Z AUTO 04005KT 6000 BKN013 11/09 Q1017
                        NOSIG=
201510110150 METAR EGLL 110150Z AUTO 04004KT 7000 BKN015 11/09 Q1017 TEMPO
                        BKN014=
201510110120 METAR COR EGLL 110120Z AUTO 04005KT 8000 BKN014 11/09 Q1017
                        TEMPO SCT014=
201510110050 METAR COR EGLL 110050Z AUTO 05004KT 020V080 8000 OVC014 12/10
                        Q1017 NOSIG=
201510110020 METAR COR EGLL 110020Z AUTO 04005KT 360V060 8000 BKN022 11/10
                        Q1017 NOSIG=
201510102350 METAR EGLL 102350Z AUTO 04004KT 9000 NCD 11/10 Q1017 NOSIG=
201510102320 METAR COR EGLL 102320Z AUTO 04005KT 9000 NCD 12/10 Q1017
                        NOSIG=
201510102250 METAR EGLL 102250Z AUTO 05004KT 9999 NCD 12/10 Q1018 NOSIG=
201510102220 METAR COR EGLL 102220Z AUTO 06005KT 020V090 9999 FEW011 12/10
                        Q1018 NOSIG=
201510102150 METAR EGLL 102150Z AUTO 06006KT 9999 FEW012 12/10 Q1018 NOSIG=
201510102120 METAR COR EGLL 102120Z AUTO 06007KT 9999 NCD 13/10 Q1018
                        NOSIG=
201510102050 METAR EGLL 102050Z AUTO 06008KT 9999 FEW015 13/10 Q1018 NOSIG=
201510102020 METAR COR EGLL 102020Z AUTO 06007KT 9999 FEW018 13/10 Q1018
                        NOSIG=
201510101950 METAR EGLL 101950Z AUTO 06007KT 9999 FEW015 13/10 Q1018 NOSIG=
201510101920 METAR COR EGLL 101920Z AUTO 07006KT 9999 NCD 13/10 Q1018
                        NOSIG=
201510101850 METAR EGLL 101850Z AUTO 07008KT 9999 FEW024 13/10 Q1019 NOSIG=
201510101820 METAR COR EGLL 101820Z AUTO 07008KT 9999 FEW022 14/10 Q1019
                        NOSIG=
201510101750 METAR EGLL 101750Z AUTO 07007KT 9999 FEW023 14/10 Q1019 NOSIG=
201510101720 METAR EGLL 101720Z AUTO 08009KT 9999 FEW025 14/10 Q1018=
201510101650 METAR EGLL 101650Z AUTO 08006KT 9999 SCT024 15/10 Q1018 NOSIG=
201510101620 METAR COR EGLL 101620Z AUTO 07006KT 9999 SCT025 15/11 Q1018
                        NOSIG=
201510101550 METAR COR EGLL 101550Z AUTO 08008KT 9999 FEW032 15/10 Q1018
                        NOSIG=
201510101520 METAR COR EGLL 101520Z AUTO 08009KT 9999 FEW026 BKN048 16/10
                        Q1018 NOSIG=
201510101450 METAR COR EGLL 101450Z AUTO 06008KT 9999 FEW025/// //////CB
                        16/10 Q1018 NOSIG=
201510101420 METAR EGLL 101420Z AUTO 07006KT 9999 SCT024 16/11 Q1018=
201510101350 METAR EGLL 101350Z AUTO 07007KT 9999 BKN027 BKN045 16/11
                        Q1019 NOSIG=
201510101320 METAR COR EGLL 101320Z AUTO 06006KT 9999 BKN025 BKN040 16/11
                        Q1019 NOSIG=
201510101250 METAR EGLL 101250Z AUTO 06006KT 9999 SCT025 BKN041 16/11
                        Q1019 NOSIG=
201510101220 METAR COR EGLL 101220Z AUTO 06006KT 9999 SCT023 15/10 Q1019
                        NOSIG=
201510101150 METAR EGLL 101150Z AUTO 07008KT 9999 BKN017 15/10 Q1020 NOSIG=
201510101120 METAR EGLL 101120Z AUTO 07007KT 9999 BKN017 15/11 Q1020=
201510101050 METAR EGLL 101050Z AUTO 06006KT 9999 FEW022 14/11 Q1020 NOSIG=
201510101020 METAR COR EGLL 101020Z AUTO 06006KT 020V090 9999 FEW018 14/10
                        Q1020 NOSIG=
201510100950 METAR EGLL 100950Z AUTO 06005KT 020V090 9999 NCD 13/10 Q1020
                        NOSIG=
201510100920 METAR COR EGLL 100920Z AUTO 06007KT 9999 NCD 13/10 Q1021
                        NOSIG=
201510100850 METAR EGLL 100850Z AUTO 06005KT 9999 NCD 12/10 Q1021 NOSIG=
201510100820 METAR COR EGLL 100820Z AUTO 05005KT 020V080 9999 NCD 11/09
                        Q1021 NOSIG=
201510100750 METAR EGLL 100750Z AUTO 04005KT 010V080 9999 FEW012 11/09
                        Q1021 NOSIG=
201510100720 METAR COR EGLL 100720Z AUTO 04004KT 9999 BKN011 10/09 Q1021
                        BECMG SCT013=
201510100650 METAR EGLL 100650Z AUTO VRB02KT 9999 NCD 09/08 Q1021 NOSIG=
201510100620 METAR COR EGLL 100620Z AUTO VRB02KT 9999 NCD 09/08 Q1021
                        NOSIG=
201510100550 METAR EGLL 100550Z AUTO 04003KT 9999 NCD 09/08 Q1021 NOSIG=
201510100520 METAR COR EGLL 100520Z AUTO 03003KT 9999 NCD 09/08 Q1021
                        NOSIG=
201510100450 METAR EGLL 100450Z AUTO 01003KT 9999 NCD 08/07 Q1021 NOSIG=
201510100420 METAR COR EGLL 100420Z AUTO 01002KT 9999 FEW020 09/08 Q1021
                        NOSIG=
201510100350 METAR EGLL 100350Z AUTO 04003KT 9999 FEW021 09/08 Q1021 NOSIG=
201510100320 METAR COR EGLL 100320Z AUTO 04004KT 9999 FEW018 10/08 Q1021
                        NOSIG=
201510100250 METAR EGLL 100250Z AUTO 04004KT 9999 SCT016 09/07 Q1022 NOSIG=
201510100220 METAR COR EGLL 100220Z AUTO 04003KT 9999 FEW016 09/08 Q1022
                        NOSIG=
201510100150 METAR EGLL 100150Z AUTO 05003KT 9999 SCT013 09/08 Q1022 NOSIG=
201510100120 METAR COR EGLL 100120Z AUTO VRB02KT 9999 FEW017 08/07 Q1022
                        NOSIG=
201510100050 METAR EGLL 100050Z AUTO 01002KT 9999 NCD 09/07 Q1022 NOSIG=
201510100020 METAR COR EGLL 100020Z AUTO 02002KT 9999 FEW016 09/08 Q1022
                        NOSIG=
201510092350 METAR COR EGLL 092350Z AUTO 01003KT 9999 NCD 09/08 Q1022
                        NOSIG=
201510092320 METAR COR EGLL 092320Z AUTO 01003KT 9999 NCD 09/08 Q1022
                        NOSIG=
201510092250 METAR EGLL 092250Z AUTO 02003KT 9999 NCD 10/08 Q1022 NOSIG=
201510092220 METAR COR EGLL 092220Z AUTO 03004KT 9999 NCD 11/09 Q1023
                        NOSIG=
201510092150 METAR COR EGLL 092150Z AUTO 03003KT 9999 NCD 11/08 Q1023
                        NOSIG=
201510092120 METAR COR EGLL 092120Z AUTO 02002KT 9999 NCD 12/09 Q1023
                        NOSIG=
201510092050 METAR EGLL 092050Z AUTO 03002KT 9999 NCD 12/08 Q1023 NOSIG=
201510092020 METAR COR EGLL 092020Z AUTO 05002KT 9999 NCD 11/08 Q1023
                        NOSIG=
201510091950 METAR EGLL 091950Z AUTO 07003KT 9999 NCD 10/08 Q1022 NOSIG=
201510091920 METAR EGLL 091920Z AUTO 08003KT 9999 NCD 11/08 Q1022=
201510091850 METAR COR EGLL 091850Z AUTO 08003KT 9999 FEW040 11/08 Q1022
                        NOSIG=
201510091820 METAR COR EGLL 091820Z AUTO 07004KT 9999 SCT039 13/08 Q1022
                        NOSIG=
201510091750 METAR EGLL 091750Z AUTO 07003KT 9999 NCD 13/08 Q1022 NOSIG=
201510091720 METAR COR EGLL 091720Z AUTO 09003KT 9999 NCD 13/08 Q1022
                        NOSIG=
201510091650 METAR EGLL 091650Z AUTO 08003KT 9999 NCD 14/08 Q1022 NOSIG=
201510091620 METAR COR EGLL 091620Z AUTO 07003KT 9999 NCD 15/07 Q1022
                        NOSIG=
201510091550 METAR EGLL 091550Z AUTO 06004KT 9999 NCD 15/08 Q1022 NOSIG=
201510091520 METAR COR EGLL 091520Z AUTO 07006KT 9999 OVC049 16/08 Q1022
                        NOSIG=
201510091450 METAR EGLL 091450Z AUTO 08005KT 9999 BKN047 16/07 Q1022 NOSIG=
201510091420 METAR COR EGLL 091420Z AUTO 06004KT 9999 SCT045 17/06 Q1022
                        NOSIG=
201510091350 METAR COR EGLL 091350Z AUTO 06004KT 9999 BKN043 16/07 Q1022
                        NOSIG=
201510091320 METAR COR EGLL 091320Z AUTO 06004KT 030V090 9999 BKN039 16/07
                        Q1022 NOSIG=
201510091250 METAR EGLL 091250Z AUTO 07005KT 040V120 9999 FEW040 18/08
                        Q1022 NOSIG=
201510091220 METAR COR EGLL 091220Z AUTO 13004KT 090V180 9999 FEW034 17/08
                        Q1023 NOSIG=
201510091150 METAR EGLL 091150Z AUTO VRB03KT 9999 NCD 16/07 Q1023=
201510091120 METAR COR EGLL 091120Z AUTO 13004KT 070V210 9999 NCD 17/09
                        Q1023 NOSIG=
201510091050 METAR EGLL 091050Z AUTO VRB02KT 9999 NCD 16/09 Q1023 NOSIG=
201510091020 METAR COR EGLL 091020Z AUTO VRB02KT 9999 NCD 15/10 Q1023
                        NOSIG=
201510090950 METAR EGLL 090950Z AUTO VRB03KT 9999 NCD 14/10 Q1024 NOSIG=
201510090920 METAR COR EGLL 090920Z AUTO VRB03KT 9999 NCD 13/09 Q1023
                        NOSIG=
201510090850 METAR EGLL 090850Z AUTO VRB02KT 9999 NCD 11/09 Q1023 NOSIG=
201510090820 METAR COR EGLL 090820Z 03001KT 8000 VCFG NSC 10/08 Q1023
                        NOSIG=
201510090750 METAR COR EGLL 090750Z VRB02KT 6000 2500SW VCFG NSC 09/08
                        Q1023 NOSIG=
201510090720 METAR COR EGLL 090720Z VRB02KT 3500 VCFG NSC 09/07 Q1023
                        BECMG 6000 NSW=
201510090650 METAR COR EGLL 090650Z VRB01KT 3000 1000E R27R/1300 R27L/P1500
                        PRFG NSC 08/07 Q1023 TEMPO 0800 FG
                        BKN001=
201510090620 METAR COR EGLL 090620Z 34002KT 4000 1000E R27R/1100 R27L/P1500
                        PRFG NSC 08/07 Q1023 TEMPO 0800 FG
                        BKN001=
201510090550 METAR COR EGLL 090550Z VRB01KT 3500 0900NW R27R/0750 R27L/P1500
                        PRFG FEW001 08/07 Q1023 TEMPO 0800
                        FG=
201510090520 METAR COR EGLL 090520Z 34001KT 3500 0900N PRFG NSC 08/07
                        Q1023 TEMPO 0800 FG=
201510090450 METAR COR EGLL 090450Z 34001KT 7000 VCFG NSC 07/07 Q1023
                        TEMPO 3000 BR MIFG=
201510090420 METAR COR EGLL 090420Z 36001KT 8000 VCFG NSC 08/07 Q1023
                        BECMG 3000 BR MIFG=
201510090350 METAR COR EGLL 090350Z 36001KT 8000 VCFG NSC 08/07 Q1023
                        BECMG 3000 BR MIFG=
201510090320 METAR COR EGLL 090320Z 00000KT CAVOK 08/07 Q1023 BECMG 3000
                        BR MIFG=
201510090250 METAR COR EGLL 090250Z 02001KT CAVOK 09/08 Q1023 BECMG 3000
                        BR MIFG=
201510090220 METAR COR EGLL 090220Z 02001KT CAVOK 08/08 Q1023 BECMG 4000
                        BR MIFG=
201510090150 METAR EGLL 090150Z AUTO 00000KT 9999 NCD 10/09 Q1023=
201510090120 METAR COR EGLL 090120Z AUTO 27004KT 9999 NCD 11/09 Q1023
                        NOSIG=
201510090050 METAR EGLL 090050Z AUTO 26002KT 9999 NCD 11/09 Q1023 NOSIG=
201510090020 METAR COR EGLL 090020Z AUTO 27003KT 9999 NCD 11/09 Q1023
                        NOSIG=
201510082350 METAR EGLL 082350Z AUTO 30003KT 9999 NCD 11/10 Q1023 NOSIG=
201510082320 METAR COR EGLL 082320Z AUTO VRB02KT 9999 NCD 11/09 Q1023
                        NOSIG=
201510082250 METAR EGLL 082250Z AUTO 22002KT 9999 NCD 11/09 Q1023 NOSIG=
201510082220 METAR COR EGLL 082220Z AUTO 24004KT 220V290 9999 NCD 12/09
                        Q1023 NOSIG=
201510082150 METAR COR EGLL 082150Z AUTO 23005KT 190V280 9999 NCD 12/09
                        Q1023 NOSIG=
201510082120 METAR COR EGLL 082120Z AUTO 24006KT 190V270 9999 NCD 12/10
                        Q1023 NOSIG=
201510082050 METAR EGLL 082050Z AUTO 25005KT 9999 NCD 13/10 Q1023 NOSIG=
201510082020 METAR COR EGLL 082020Z AUTO VRB01KT 9999 NCD 12/10 Q1023
                        NOSIG=
201510081950 METAR EGLL 081950Z AUTO VRB03KT 9999 NCD 13/10 Q1023 NOSIG=
201510081920 METAR COR EGLL 081920Z AUTO 25004KT 220V320 9999 NCD 13/09
                        Q1023 NOSIG=
201510081850 METAR EGLL 081850Z AUTO 29003KT 9999 NCD 14/09 Q1023 NOSIG=
201510081820 METAR COR EGLL 081820Z AUTO 30003KT 9999 NCD 14/09 Q1023
                        NOSIG=
201510081750 METAR EGLL 081750Z AUTO 31003KT 9999 NCD 14/08 Q1022 NOSIG=
201510081720 METAR COR EGLL 081720Z AUTO 31003KT 9999 NCD 14/08 Q1022
                        NOSIG=
201510081650 METAR EGLL 081650Z AUTO 31003KT 9999 FEW032 14/08 Q1022 NOSIG=
201510081620 METAR EGLL 081620Z AUTO 29005KT 9999 NCD 15/08 Q1022=
201510081550 METAR EGLL 081550Z AUTO 28006KT 9999 NCD 15/09 Q1022 NOSIG=
201510081520 METAR COR EGLL 081520Z AUTO 29006KT 9999 FEW044 15/08 Q1022
                        NOSIG=
201510081450 METAR EGLL 081450Z AUTO 29006KT 9999 FEW036 16/08 Q1022 NOSIG=
201510081420 METAR COR EGLL 081420Z AUTO 29006KT 9999 BKN039 15/07 Q1022
                        NOSIG=
201510081350 METAR EGLL 081350Z AUTO 26006KT 9999 BKN039 16/07 Q1022 NOSIG=
201510081320 METAR COR EGLL 081320Z AUTO 24007KT 180V300 9999 BKN039 17/06
                        Q1022 NOSIG=
201510081250 METAR COR EGLL 081250Z AUTO 27005KT 190V340 9999 BKN041 16/06
                        Q1022 NOSIG=
201510081220 METAR COR EGLL 081220Z AUTO 27006KT 210V310 9999 FEW029 16/08
                        Q1022 NOSIG=
201510081150 METAR EGLL 081150Z AUTO 27006KT 240V310 9999 NCD 16/08 Q1022
                        NOSIG=
201510081120 METAR COR EGLL 081120Z AUTO 24005KT 200V290 9999 NCD 16/09
                        Q1022 NOSIG=
201510081050 METAR EGLL 081050Z AUTO 24004KT 200V280 9999 NCD 15/09 Q1022
                        NOSIG=
201510081020 METAR COR EGLL 081020Z AUTO VRB03KT 9999 NCD 14/08 Q1022
                        NOSIG=
201510080950 METAR EGLL 080950Z AUTO VRB03KT 9999 NCD 13/08 Q1022 NOSIG=
201510080920 METAR COR EGLL 080920Z AUTO 24004KT 190V280 9999 NCD 12/08
                        Q1022 NOSIG=
201510080850 METAR EGLL 080850Z AUTO 24004KT 210V270 9999 NCD 11/07 Q1021
                        NOSIG=
201510080820 METAR COR EGLL 080820Z AUTO 24004KT 190V270 9999 NCD 09/07
                        Q1021 NOSIG=
201510080750 METAR EGLL 080750Z AUTO 24005KT 9999 NCD 08/07 Q1021 NOSIG=
201510080720 METAR COR EGLL 080720Z AUTO 27004KT 9999 NCD 07/06 Q1020
                        NOSIG=
201510080650 METAR EGLL 080650Z AUTO VRB03KT 9999 NCD 06/05 Q1020 NOSIG=
201510080620 METAR COR EGLL 080620Z AUTO 25004KT 220V300 9999 NCD 06/05
                        Q1020 NOSIG=
201510080550 METAR EGLL 080550Z AUTO 24005KT 9999 NCD 06/05 Q1020 NOSIG=
201510080520 METAR COR EGLL 080520Z AUTO 26005KT 220V290 9999 NCD 06/05
                        Q1019 NOSIG=
201510080450 METAR EGLL 080450Z AUTO 27005KT 9999 NCD 07/05 Q1019 NOSIG=
201510080420 METAR COR EGLL 080420Z AUTO 26005KT 9999 NCD 07/06 Q1019
                        NOSIG=
201510080350 METAR EGLL 080350Z AUTO 27004KT 9999 NCD 07/06 Q1019 NOSIG=
201510080320 METAR COR EGLL 080320Z AUTO 26004KT 9999 NCD 07/06 Q1019
                        NOSIG=
201510080250 METAR EGLL 080250Z AUTO 25004KT 9999 NCD 07/06 Q1018 NOSIG=
201510080220 METAR COR EGLL 080220Z AUTO 28004KT 9999 NCD 07/06 Q1018
                        NOSIG=
201510080150 METAR EGLL 080150Z AUTO 28004KT 9999 NCD 07/06 Q1018 NOSIG=
201510080120 METAR COR EGLL 080120Z AUTO 27007KT 9999 NCD 07/06 Q1018
                        NOSIG=
201510080050 METAR COR EGLL 080050Z AUTO 27006KT 9999 NCD 07/06 Q1018
                        NOSIG=
201510080020 METAR COR EGLL 080020Z AUTO 27007KT 9999 FEW044 08/06 Q1018
                        NOSIG=
201510072350 METAR EGLL 072350Z AUTO 27007KT 9999 SCT042 09/07 Q1018 NOSIG=
201510072320 METAR COR EGLL 072320Z AUTO 27007KT 9999 BKN042 10/07 Q1017
                        NOSIG=
201510072250 METAR EGLL 072250Z AUTO 27006KT 9999 OVC044 10/07 Q1017 NOSIG=
201510072220 METAR COR EGLL 072220Z AUTO 27007KT 9999 OVC044 11/07 Q1017
                        NOSIG=
201510072150 METAR EGLL 072150Z AUTO 28008KT 9999 BKN044 11/08 Q1017 NOSIG=
201510072120 METAR COR EGLL 072120Z AUTO 28010KT 9999 BKN046 11/08 Q1017
                        NOSIG=
201510072050 METAR EGLL 072050Z AUTO 27010KT 9999 BKN047 11/08 Q1016 NOSIG=
201510072020 METAR COR EGLL 072020Z AUTO 27010KT 9999 BKN047 12/08 Q1016
                        NOSIG=
201510071950 METAR EGLL 071950Z AUTO 28007KT 9999 BKN047 12/09 Q1016 NOSIG=
201510071920 METAR COR EGLL 071920Z AUTO 28009KT 9999 BKN046 13/09 Q1015
                        NOSIG=
201510071850 METAR EGLL 071850Z AUTO 27011KT 9999 OVC042 13/09 Q1015 NOSIG=
201510071820 METAR COR EGLL 071820Z AUTO 27011KT 9999 OVC040 14/09 Q1014
                        NOSIG=
201510071750 METAR EGLL 071750Z AUTO 27010KT 9999 OVC037 14/09 Q1014 NOSIG=
201510071720 METAR COR EGLL 071720Z AUTO 27012KT 9999 FEW026 OVC036 14/10
                        Q1013 NOSIG=
201510071650 METAR EGLL 071650Z AUTO 27009KT 9999 FEW025 OVC039 14/10
                        Q1013 NOSIG=
201510071620 METAR COR EGLL 071620Z AUTO 29008KT 9999 BKN024 15/10 Q1012
                        NOSIG=
201510071550 METAR EGLL 071550Z AUTO 31005KT 9999 BKN022 OVC037 15/10
                        Q1012 NOSIG=
201510071520 METAR COR EGLL 071520Z AUTO 29010KT 9999 BKN022 15/11 Q1012
                        NOSIG=
201510071450 METAR COR EGLL 071450Z AUTO 28011KT 9999 FEW018 SCT028 15/11
                        Q1011 NOSIG=
201510071420 METAR COR EGLL 071420Z AUTO 29011KT 9999 BKN018 OVC047 15/11
                        Q1011 NOSIG=
201510071350 METAR COR EGLL 071350Z AUTO 28008KT 9999 SCT013 BKN026 OVC041
                        14/12 Q1011 NOSIG=
201510071320 METAR COR EGLL 071320Z AUTO 29008KT 6000 BKN008 OVC024 14/12
                        Q1011 BECMG SCT012=
201510071250 METAR EGLL 071250Z AUTO 29010KT 4500 -DZ BKN006 OVC015 14/12
                        Q1010 BECMG 9999 NSW SCT014=
201510071220 METAR COR EGLL 071220Z AUTO 28013KT 2800 -RA BKN007/// OVC016///
                        14/12 Q1010 BECMG 9999 NSW SCT012=
201510071150 METAR EGLL 071150Z AUTO 29010KT 9999 BKN010 OVC023 15/12
                        Q1010=
201510071120 METAR COR EGLL 071120Z AUTO 28011KT 9999 OVC010 14/12 Q1009
                        BECMG SCT013=
201510071050 METAR COR EGLL 071050Z AUTO 28012KT 9999 OVC010 14/12 Q1009
                        BECMG SCT014=
201510071020 METAR COR EGLL 071020Z AUTO 28011KT 9999 OVC009 14/12 Q1008
                        BECMG SCT014=
201510070950 METAR EGLL 070950Z AUTO 27012KT 4900 HZ BKN008 14/13 Q1008
                        BECMG SCT012=
201510070920 METAR COR EGLL 070920Z AUTO 27013KT 6000 -RA BKN009 14/13
                        Q1008 BECMG SCT012=
201510070850 METAR EGLL 070850Z AUTO 27012KT 9999 OVC006 14/13 Q1007 BECMG
                        SCT006 SCT012=
201510070820 METAR COR EGLL 070820Z AUTO 26012KT 9999 BKN006 OVC015 14/13
                        Q1006 BECMG SCT010=
201510070750 METAR EGLL 070750Z AUTO 26012KT 9999 -RA OVC007/// //////TCU
                        14/13 Q1006 TEMPO SCT007 BKN014=
201510070720 METAR COR EGLL 070720Z AUTO 26011KT 9999 BKN007 15/13 Q1005
                        TEMPO SCT007 BKN013=
201510070650 METAR EGLL 070650Z AUTO 27008KT 9999 BKN008 15/14 Q1005 TEMPO
                        SCT007 BKN014=
201510070620 METAR COR EGLL 070620Z AUTO 26010KT 9000 BKN007 15/14 Q1004
                        TEMPO SCT007 BKN014=
201510070550 METAR COR EGLL 070550Z AUTO 26008KT 7000 BKN007 15/14 Q1004
                        TEMPO SCT007 BKN014=
201510070520 METAR COR EGLL 070520Z AUTO 26008KT 8000 BKN007 15/14 Q1003
                        TEMPO SCT008 BKN014=
201510070450 METAR COR EGLL 070450Z AUTO 26008KT 9999 BKN007/// OVC022///
                        //////TCU 15/14 Q1003 TEMPO SCT007
                        BKN022=
201510070420 METAR COR EGLL 070420Z AUTO 27008KT 9999 OVC006 15/14 Q1002
                        TEMPO SCT007 BKN012=
201510070350 METAR EGLL 070350Z AUTO 27007KT 9000 OVC007 15/14 Q1002 TEMPO
                        SCT007 BKN012=
201510070320 METAR COR EGLL 070320Z AUTO 26008KT 8000 OVC006 15/14 Q1002
                        TEMPO SCT007 BKN015=
201510070250 METAR EGLL 070250Z AUTO 27008KT 6000 OVC006 15/14 Q1001 TEMPO
                        SCT007 BKN015=
201510070220 METAR COR EGLL 070220Z AUTO 26007KT 6000 BKN007 14/13 Q1001
                        TEMPO SCT007 BKN012=
201510070150 METAR EGLL 070150Z AUTO 27009KT 5000 HZ FEW009 SCT018 14/13
                        Q1001 TEMPO 9999 NSW BKN008=
201510070120 METAR EGLL 070120Z AUTO 26011KT 6000 -RA SCT007 BKN018 BKN026
                        14/13 Q1000=
201510070050 METAR COR EGLL 070050Z AUTO 26009KT 8000 BKN006 14/13 Q1000
                        TEMPO SCT006=
201510070020 METAR COR EGLL 070020Z AUTO 27009KT 9000 BKN005 14/13 Q1000
                        TEMPO SCT005=
201510062350 METAR COR EGLL 062350Z AUTO 27010KT 8000 BKN005/// //////TCU
                        14/14 Q0999 TEMPO SCT004 BKN007=
201510062320 METAR COR EGLL 062320Z AUTO 26010KT 7000 BKN005/// //////TCU
                        15/14 Q0999 TEMPO SCT006 BKN010=
201510062250 METAR EGLL 062250Z AUTO 27008KT 8000 SCT005/// BKN019///
                        //////CB 15/14 Q0998 TEMPO BKN006=
201510062220 METAR COR EGLL 062220Z AUTO 27012KT 8000 SCT004/// BKN017///
                        //////CB 15/14 Q0998 TEMPO BKN007=
201510062150 METAR EGLL 062150Z AUTO 27009KT 9000 BKN003/// BKN013///
                        //////TCU 15/14 Q0997 BECMG SCT004
                        BKN013=
201510062120 METAR COR EGLL 062120Z AUTO 28008KT 9999 BKN004/// BKN018///
                        //////TCU 15/14 Q0997 BECMG SCT009
                        BKN014=
201510062050 METAR EGLL 062050Z AUTO 26005KT 9999 FEW005/// SCT012///
                        BKN029/// //////CB 15/14 Q0996 TEMPO
                        BKN012=
201510062020 METAR COR EGLL 062020Z AUTO 22005KT 9999 FEW007/// BKN016///
                        //////CB 15/14 Q0996 TEMPO BKN011=
201510061950 METAR EGLL 061950Z AUTO 20002KT 5000 -DZ BKN004/// BKN026///
                        //////TCU 15/14 Q0996 RERA REDZ BECMG
                        9999 NSW SCT012 BKN020=
201510061920 METAR COR EGLL 061920Z AUTO VRB03KT 8000 BKN007 15/14 Q0995
                        BECMG SCT007 BKN015=
201510061850 METAR EGLL 061850Z AUTO 11003KT 6000 -RA BKN009 OVC034 15/14
                        Q0995 BECMG FEW009 BKN012=
201510061820 METAR COR EGLL 061820Z AUTO 11005KT 9999 SCT010 BKN015 15/14
                        Q0995 TEMPO SHRA=
201510061750 METAR COR EGLL 061750Z AUTO 13008KT 9999 SCT007/// BKN016///
                        OVC032/// //////TCU 15/14 Q0994 TEMPO
                        SHRA=
201510061720 METAR COR EGLL 061720Z AUTO 12007KT 9999 -RA BKN009/// BKN022///
                        //////TCU 15/14 Q0994 BECMG SCT010=
201510061650 METAR COR EGLL 061650Z AUTO 12009KT 9999 -RA FEW016/// BKN044///
                        //////TCU 15/14 Q0994 TEMPO SHRA=
201510061620 METAR COR EGLL 061620Z AUTO 15009KT 9999 -RA FEW019/// BKN048///
                        //////CB 16/14 Q0995 TEMPO SHRA BKN014CB=
201510061550 METAR EGLL 061550Z 16011KT 9999 -SHRA FEW011CB SCT018 BKN021
                        17/13 Q0995=
201510061520 METAR COR EGLL 061520Z 16010KT 9999 FEW016 FEW022TCU 17/14
                        Q0995 TEMPO SHRA BKN014CB=
201510061450 METAR COR EGLL 061450Z 16012KT 9999 FEW016 FEW022TCU 18/14
                        Q0995 BECMG 4500 RA BKN014CB=
201510061420 METAR COR EGLL 061420Z AUTO 17010KT 9999 FEW004/// SCT020///
                        //////CB 18/14 Q0995 NOSIG=
201510061350 METAR COR EGLL 061350Z AUTO 17011KT 9999 SCT019/// //////CB
                        18/13 Q0995 NOSIG=
201510061320 METAR COR EGLL 061320Z AUTO 17012KT 9999 FEW014 19/14 Q0995
                        NOSIG=
201510061250 METAR EGLL 061250Z AUTO 19015KT 9999 SCT021/// //////CB 19/14
                        Q0995 NOSIG=
201510061220 METAR EGLL 061220Z AUTO 17013KT 9999 BKN018/// //////TCU
                        19/14 Q0995=
201510061150 METAR EGLL 061150Z AUTO 18013KT 9999 SCT018 19/14 Q0996 NOSIG=
201510061120 METAR COR EGLL 061120Z AUTO 17015KT 9999 BKN013/// //////TCU
                        19/14 Q0996 BECMG SCT013=
201510061050 METAR COR EGLL 061050Z AUTO 16011KT 9999 BKN011/// //////CB
                        18/15 Q0996 BECMG SCT012=
201510061020 METAR COR EGLL 061020Z AUTO 14010KT 9999 -RA BKN009/// //////CB
                        17/16 Q0996 BECMG SCT010=
201510060950 METAR COR EGLL 060950Z AUTO 13010KT 9999 BKN008/// //////CB
                        17/16 Q0996 BECMG SCT008=
201510060920 METAR COR EGLL 060920Z AUTO 12009KT 9000 -RA BKN007/// //////CB
                        16/15 Q0996 RERA REDZ BECMG SCT008=
201510060850 METAR COR EGLL 060850Z AUTO 10008KT 9999 BKN007/// //////CB
                        17/16 Q0996 TEMPO 3000 +SHRA=
201510060820 METAR COR EGLL 060820Z AUTO 10007KT 9999 -RA BKN009/// OVC025///
                        //////CB 16/15 Q0997 BECMG SCT009=
201510060750 METAR COR EGLL 060750Z AUTO 11008KT 7000 -RA OVC010/// //////CB
                        16/15 Q0997 TEMPO SHRA=
201510060720 METAR COR EGLL 060720Z AUTO 10007KT 9999 BKN009/// //////CB
                        16/15 Q0997 TEMPO SHRA=
201510060650 METAR COR EGLL 060650Z AUTO 12006KT 8000 BKN008 BKN026 15/15
                        Q0997 TEMPO SHRA=
201510060620 METAR COR EGLL 060620Z AUTO 14006KT 9999 BKN008 15/15 Q0998
                        BECMG BKN012=
201510060550 METAR EGLL 060550Z AUTO 12005KT 7000 BKN009 14/13 Q0998 BECMG
                        BKN015=
201510060520 METAR COR EGLL 060520Z AUTO 14005KT 8000 BKN010 15/14 Q0998
                        TEMPO BKN008=
201510060450 METAR COR EGLL 060450Z AUTO 15005KT 6000 SCT010 BKN020 15/14
                        Q0998 TEMPO BKN012=
201510060420 METAR COR EGLL 060420Z AUTO 14005KT 8000 FEW013 BKN019 15/15
                        Q0998 TEMPO BKN012=
201510060350 METAR COR EGLL 060350Z AUTO 15004KT 9999 OVC023 16/15 Q0998
                        TEMPO BKN012=
201510060320 METAR COR EGLL 060320Z AUTO 14004KT 9999 SCT014 BKN025 16/15
                        Q0999 TEMPO BKN008=
201510060250 METAR EGLL 060250Z AUTO 16006KT 9999 SCT011 BKN023 16/15
                        Q0999 TEMPO BKN008=
201510060220 METAR COR EGLL 060220Z AUTO 15005KT 9999 BKN011 OVC044 16/15
                        Q0999 TEMPO BKN008=
201510060150 METAR COR EGLL 060150Z AUTO 14005KT 9999 OVC016 16/15 Q0999
                        TEMPO BKN008=
201510060120 METAR COR EGLL 060120Z AUTO 16005KT 9999 SCT007 SCT015 16/15
                        Q0999 TEMPO BKN005=
201510060050 METAR COR EGLL 060050Z AUTO 14006KT 9999 BKN002 16/15 Q1000
                        TEMPO BKN005=
201510060020 METAR COR EGLL 060020Z AUTO 15007KT 7000 -RA BKN002/// BKN010///
                        //////TCU 16/15 Q1000 RERA REDZ TEMPO
                        FEW003 BKN005=
201510052350 METAR EGLL 052350Z AUTO 15008KT 3400 RADZ BKN003/// //////TCU
                        16/15 Q1000 TEMPO 6000 NSW BKN005=
201510052320 METAR COR EGLL 052320Z AUTO 14007KT 6000 -RA OVC003 16/15
                        Q1000 REDZ BECMG BKN005=
201510052250 METAR COR EGLL 052250Z AUTO 14007KT 3300 DZ BKN003 16/15
                        Q1000 BECMG 6000 -DZ BKN005=
201510052220 METAR COR EGLL 052220Z AUTO 13007KT 4400 -RA BKN003/// //////TCU
                        16/15 Q1001 RERA REDZ BECMG 6000
                        -RA BKN006=
201510052150 METAR COR EGLL 052150Z AUTO 15008KT 3900 RA OVC004/// //////TCU
                        16/15 Q1001 REDZ BECMG 6000 -RA BKN006=
201510052120 METAR COR EGLL 052120Z AUTO 14007KT 4100 RADZ BKN004/// OVC019///
                        //////TCU 16/15 Q1001 BECMG 6000
                        -RADZ BKN006=
201510052050 METAR COR EGLL 052050Z AUTO 15007KT 120V210 8000 -RA BKN005///
                        //////TCU 16/15 Q1001 TEMPO SCT005
                        BKN020=
201510052020 METAR COR EGLL 052020Z AUTO 15009KT 130V220 9000 -RA BKN005
                        OVC022 16/15 Q1002 TEMPO SCT005 BKN020=
201510051950 METAR COR EGLL 051950Z AUTO VRB07KT 9999 -RA FEW006/// BKN023///
                        //////TCU 16/15 Q1002 TEMPO 6000
                        RA BKN006=
201510051920 METAR EGLL 051920Z AUTO 14008KT 110V200 9999 -RA SCT004 SCT016
                        16/15 Q1002 RERA=
201510051850 METAR COR EGLL 051850Z AUTO 15009KT 130V220 6000 -RA BKN005
                        16/15 Q1002 TEMPO 4000 RA BKN004=
201510051820 METAR COR EGLL 051820Z AUTO 16008KT 120V220 9999 -RA OVC004
                        16/15 Q1003 TEMPO RA BKN006=
201510051750 METAR COR EGLL 051750Z AUTO 16008KT 120V190 8000 -RA BKN004
                        16/15 Q1003 BECMG RA BKN006=
201510051720 METAR COR EGLL 051720Z AUTO 16008KT 130V220 9999 -RA BKN005
                        16/16 Q1003 TEMPO RA BKN010=
201510051650 METAR EGLL 051650Z AUTO 16007KT 130V210 8000 -RA BKN004 OVC014
                        16/16 Q1003 TEMPO 4800 RA BKN006=
201510051620 METAR COR EGLL 051620Z AUTO 16008KT 130V220 9000 -RA BKN005///
                        //////TCU 17/16 Q1003 TEMPO RA SCT007
                        BKN010=
201510051550 METAR COR EGLL 051550Z AUTO 17007KT 130V230 9000 -RA OVC006
                        17/16 Q1003 TEMPO RA SCT006 BKN010=
201510051520 METAR COR EGLL 051520Z AUTO 17009KT 130V250 5000 -DZ OVC007
                        17/16 Q1003 BECMG 4500 RA=
201510051450 METAR COR EGLL 051450Z AUTO 17008KT 9999 -RA OVC006/// //////TCU
                        17/16 Q1003 TEMPO RA SCT006 BKN012=
201510051420 METAR EGLL 051420Z AUTO 18009KT 9000 OVC006/// //////TCU
                        17/16 Q1003=
201510051350 METAR EGLL 051350Z AUTO 18010KT 6000 -RA OVC007/// //////TCU
                        17/16 Q1004 TEMPO 4800 RA=
201510051320 METAR COR EGLL 051320Z AUTO 17010KT 9999 -RA BKN006/// //////CB
                        17/16 Q1004 TEMPO RA SCT006 BKN012=
201510051250 METAR EGLL 051250Z AUTO 17009KT 8000 -RA BKN005/// OVC035///
                        //////TCU 17/16 Q1004 TEMPO 4800
                        RA BKN008=
201510051220 METAR COR EGLL 051220Z AUTO 18010KT 9999 -RA BKN005/// //////TCU
                        17/16 Q1004 TEMPO RA BKN006=
201510051150 METAR COR EGLL 051150Z AUTO 18010KT 7000 -RA OVC005/// //////TCU
                        17/16 Q1004 TEMPO 4800 RA BKN006=
201510051120 METAR COR EGLL 051120Z AUTO 17009KT 7000 -RA BKN003 17/16
                        Q1004 REDZ BECMG SCT005 BKN011=
201510051050 METAR COR EGLL 051050Z AUTO 16010KT 3200 -RADZ BKN003///
                        OVC018/// //////TCU 16/16 Q1004 RERA
                        REDZ TEMPO 6000 RA SCT004=
201510051020 METAR COR EGLL 051020Z AUTO 16009KT 3800 -RADZ BKN003///
                        //////TCU 16/15 Q1004 RERA REDZ TEMPO
                        6000 RA SCT004 BKN012=
201510050950 METAR COR EGLL 050950Z AUTO 16009KT 2900 +RA BKN003 16/15
                        Q1004 REDZ TEMPO 7000 NSW SCT005
                        BKN008=
201510050920 METAR COR EGLL 050920Z AUTO 15008KT 6000 BKN003 16/15 Q1004
                        RERA REDZ BECMG SCT005 BKN010=
201510050850 METAR EGLL 050850Z AUTO 14008KT 2900 DZ OVC003 15/15 Q1004
                        TEMPO 7000 NSW SCT004 BKN006=
201510050820 METAR COR EGLL 050820Z AUTO 15010KT 3700 -DZ OVC004 15/14
                        Q1004 TEMPO 8000 NSW OVC008=
201510050750 METAR EGLL 050750Z AUTO 15010KT 9999 OVC006 15/14 Q1004 TEMPO
                        4500 RADZ BKN010=
201510050720 METAR COR EGLL 050720Z AUTO 15010KT 9999 OVC005 15/14 Q1005
                        TEMPO 4500 RA BKN010=
201510050650 METAR COR EGLL 050650Z AUTO 15011KT 8000 OVC005 14/13 Q1005
                        TEMPO 4500 RADZ BKN004=
201510050620 METAR COR EGLL 050620Z AUTO 14010KT 100V160 9999 OVC005 14/13
                        Q1005 TEMPO 3000 -RADZ BKN004=
201510050550 METAR COR EGLL 050550Z AUTO 13010KT 9999 OVC005 14/13 Q1005
                        TEMPO 3000 -RADZ BKN004=
201510050520 METAR COR EGLL 050520Z AUTO 14011KT 6000 OVC006 14/13 Q1005
                        TEMPO 3000 -RADZ BKN004=
201510050450 METAR COR EGLL 050450Z AUTO 14010KT 9999 OVC007 14/12 Q1006
                        TEMPO 3000 -RADZ=
201510050420 METAR COR EGLL 050420Z AUTO 15012KT 3500 -DZ OVC010 14/12
                        Q1006 BECMG BKN008=
201510050350 METAR EGLL 050350Z AUTO 14011KT 9999 OVC012 14/12 Q1006 TEMPO
                        -RA BKN008=
201510050320 METAR COR EGLL 050320Z AUTO 13010KT 9999 OVC012 14/11 Q1006
                        TEMPO -RA BKN008=
201510050250 METAR EGLL 050250Z AUTO 12011KT 9999 OVC014 14/11 Q1006 NOSIG=
201510050220 METAR COR EGLL 050220Z AUTO 12010KT 9000 BKN015 14/11 Q1007
                        BECMG BKN012=
201510050150 METAR COR EGLL 050150Z AUTO 12009KT 8000 BKN015 14/11 Q1007
                        TEMPO BKN012=
201510050120 METAR COR EGLL 050120Z AUTO 11010KT 8000 FEW015 14/11 Q1007
                        TEMPO BKN012=
201510050050 METAR EGLL 050050Z AUTO 12009KT 8000 FEW015 14/11 Q1008 NOSIG=
201510050020 METAR COR EGLL 050020Z AUTO 11005KT 7000 FEW021 13/11 Q1009
                        NOSIG=
201510042350 METAR COR EGLL 042350Z AUTO 10006KT 6000 -RA FEW020 13/10
                        Q1009 NOSIG=
201510042320 METAR COR EGLL 042320Z AUTO 09007KT 7000 -RA NCD 13/10 Q1009
                        NOSIG=
201510042250 METAR EGLL 042250Z AUTO 10009KT 9000 NCD 13/09 Q1010 NOSIG=
201510042220 METAR COR EGLL 042220Z AUTO 09008KT 9000 NCD 13/09 Q1010
                        NOSIG=
201510042150 METAR EGLL 042150Z AUTO 09009KT 9000 NCD 13/09 Q1010 NOSIG=
201510042120 METAR EGLL 042120Z AUTO 09008KT 9000 NCD 12/09 Q1010=
201510042050 METAR COR EGLL 042050Z AUTO 10008KT 8000 NCD 12/09 Q1010
                        NOSIG=
201510042020 METAR COR EGLL 042020Z AUTO 10008KT 9000 NCD 13/09 Q1011
                        NOSIG=
201510041950 METAR EGLL 041950Z AUTO 09009KT 9999 NCD 13/09 Q1011 NOSIG=
201510041920 METAR COR EGLL 041920Z AUTO 10008KT 9000 NCD 13/10 Q1011
                        NOSIG=
201510041850 METAR EGLL 041850Z AUTO 11006KT 9000 NCD 13/10 Q1012 NOSIG=
201510041820 METAR COR EGLL 041820Z AUTO 12007KT 9999 NCD 13/10 Q1012
                        NOSIG=
201510041750 METAR COR EGLL 041750Z AUTO 13006KT 9999 NCD 14/10 Q1012
                        NOSIG=
201510041720 METAR COR EGLL 041720Z AUTO 15006KT 9999 NCD 15/10 Q1012
                        NOSIG=
201510041650 METAR COR EGLL 041650Z AUTO 16005KT 9999 NCD 16/10 Q1013
                        NOSIG=
201510041620 METAR COR EGLL 041620Z AUTO 17007KT 9999 NCD 16/09 Q1013
                        NOSIG=
201510041550 METAR EGLL 041550Z AUTO 18008KT 9999 FEW033 17/09 Q1013 NOSIG=
201510041520 METAR COR EGLL 041520Z AUTO 16006KT 130V200 9999 FEW036 17/09
                        Q1013 NOSIG=
201510041450 METAR EGLL 041450Z AUTO 17007KT 130V210 9999 SCT035 18/09
                        Q1013 NOSIG=
201510041420 METAR COR EGLL 041420Z AUTO 16007KT 110V180 9999 BKN033 18/09
                        Q1013 NOSIG=
201510041350 METAR EGLL 041350Z AUTO 19005KT 130V240 9999 SCT032 17/09
                        Q1013 NOSIG=
201510041320 METAR COR EGLL 041320Z AUTO 16006KT 090V240 9999 SCT030 18/10
                        Q1013 NOSIG=
201510041250 METAR EGLL 041250Z AUTO VRB05KT 9999 FEW029 17/10 Q1014 NOSIG=
201510041220 METAR COR EGLL 041220Z AUTO 21008KT 150V260 9999 FEW024 17/10
                        Q1014 NOSIG=
201510041150 METAR EGLL 041150Z AUTO 22005KT 120V270 9999 NCD 17/10 Q1014
                        NOSIG=
201510041120 METAR COR EGLL 041120Z AUTO 19007KT 150V240 9999 NCD 16/10
                        Q1015 NOSIG=
201510041050 METAR COR EGLL 041050Z AUTO VRB04G15KT 9999 NCD 15/09 Q1015
                        NOSIG=
201510041020 METAR COR EGLL 041020Z AUTO VRB04KT 8000 NCD 14/09 Q1015
                        NOSIG=
201510040950 METAR COR EGLL 040950Z AUTO 21006KT 170V250 8000 NCD 13/08
                        Q1016 NOSIG=
201510040920 METAR COR EGLL 040920Z AUTO 20005KT 100V260 9000 NCD 12/08
                        Q1016 NOSIG=
201510040850 METAR EGLL 040850Z AUTO 21004KT 140V260 7000 NCD 11/08 Q1016
                        NOSIG=
201510040820 METAR COR EGLL 040820Z AUTO 20004KT 170V240 7000 NCD 10/07
                        Q1015 NOSIG=
201510040750 METAR EGLL 040750Z AUTO VRB02KT 5000 HZ NCD 09/07 Q1015 NOSIG=
201510040720 METAR EGLL 040720Z AUTO 08002KT 5000 HZ NCD 08/06 Q1015=
201510040650 METAR EGLL 040650Z AUTO 06002KT 4700 HZ NCD 07/06 Q1016 BECMG
                        7000=
201510040620 METAR COR EGLL 040620Z AUTO 02002KT 4700 HZ NCD 06/05 Q1016
                        TEMPO 6000=
201510040550 METAR EGLL 040550Z AUTO 23004KT 190V270 4200 HZ FEW036 07/05
                        Q1016 NOSIG=
201510040520 METAR EGLL 040520Z AUTO VRB03KT 4800 HZ SCT036 07/06 Q1015=
201510040450 METAR EGLL 040450Z AUTO 18003KT 5000 HZ FEW023 BKN038 07/06
                        Q1015 BECMG 4000=
201510040420 METAR COR EGLL 040420Z AUTO VRB03KT 5000 HZ OVC040 08/07
                        Q1015 TEMPO 4000=
201510040350 METAR COR EGLL 040350Z AUTO 27001KT 6000 SCT022 BKN038 08/06
                        Q1015 TEMPO 4000=
201510040320 METAR COR EGLL 040320Z AUTO 29001KT 5000 HZ BKN027 09/07
                        Q1015 TEMPO 4000=
201510040250 METAR COR EGLL 040250Z AUTO 28004KT 4600 HZ OVC034 08/07
                        Q1015 NOSIG=
201510040220 METAR COR EGLL 040220Z AUTO VRB02KT 4800 HZ OVC036 08/07
                        Q1015 NOSIG=
201510040150 METAR COR EGLL 040150Z AUTO 28006KT 3700 HZ BKN037 07/06
                        Q1015 NOSIG=
201510040120 METAR COR EGLL 040120Z AUTO 27007KT 2800 HZ FEW036 07/06
                        Q1015 NOSIG=
201510040050 METAR COR EGLL 040050Z AUTO 27004KT 3800 HZ NCD 08/06 Q1015
                        NOSIG=
201510040020 METAR COR EGLL 040020Z AUTO 27003KT 6000 NCD 08/06 Q1015
                        TEMPO 4000 BR=
201510032350 METAR COR EGLL 032350Z AUTO 30003KT 6000 FEW037 08/06 Q1015
                        TEMPO 4000 BR=
201510032320 METAR COR EGLL 032320Z AUTO 28006KT 5000 HZ SCT036 09/07
                        Q1015 TEMPO 4000 BR=
201510032250 METAR COR EGLL 032250Z AUTO 27007KT 6000 BKN036 10/08 Q1015
                        NOSIG=
201510032220 METAR COR EGLL 032220Z AUTO 30004KT 6000 OVC036 11/08 Q1014
                        NOSIG=
201510032150 METAR COR EGLL 032150Z AUTO 30003KT 6000 SCT036 12/08 Q1014
                        NOSIG=
201510032120 METAR COR EGLL 032120Z AUTO 30004KT 7000 NCD 11/08 Q1014
                        NOSIG=
201510032050 METAR COR EGLL 032050Z AUTO 31003KT 7000 NCD 11/08 Q1014
                        NOSIG=
201510032020 METAR COR EGLL 032020Z AUTO 31005KT 7000 NCD 12/08 Q1014
                        NOSIG=
201510031950 METAR EGLL 031950Z AUTO 31005KT 8000 NCD 13/08 Q1014 NOSIG=
201510031920 METAR COR EGLL 031920Z AUTO 29004KT 9000 NCD 12/08 Q1013
                        NOSIG=
201510031850 METAR EGLL 031850Z AUTO 28006KT 8000 NCD 13/09 Q1013 NOSIG=
201510031820 METAR COR EGLL 031820Z AUTO 28004KT 8000 NCD 14/09 Q1013
                        NOSIG=
201510031750 METAR COR EGLL 031750Z AUTO 24005KT 8000 FEW035 14/09 Q1014
                        NOSIG=
201510031720 METAR COR EGLL 031720Z AUTO 23005KT 9000 FEW033 14/09 Q1014
                        NOSIG=
201510031650 METAR EGLL 031650Z AUTO 25004KT 210V280 9000 SCT037 15/09
                        Q1014 NOSIG=
201510031620 METAR COR EGLL 031620Z AUTO 25004KT 200V280 9000 SCT036 15/09
                        Q1014 NOSIG=
201510031550 METAR EGLL 031550Z AUTO VRB03KT 8000 FEW035 16/09 Q1013 NOSIG=
201510031520 METAR COR EGLL 031520Z AUTO 23005KT 180V270 8000 FEW034 16/09
                        Q1013 NOSIG=
201510031450 METAR COR EGLL 031450Z AUTO 22006KT 190V260 7000 NCD 16/10
                        Q1013 NOSIG=
201510031420 METAR COR EGLL 031420Z AUTO 21007KT 180V250 6000 NCD 16/10
                        Q1014 NOSIG=
201510031350 METAR EGLL 031350Z AUTO 23005KT 200V270 6000 SCT017 16/11
                        Q1014 NOSIG=
201510031320 METAR COR EGLL 031320Z AUTO 29004KT 230V330 6000 SCT016 16/10
                        Q1014 NOSIG=
201510031250 METAR EGLL 031250Z AUTO 22005KT 170V290 5000 HZ SCT015 16/11
                        Q1014 NOSIG=
201510031220 METAR COR EGLL 031220Z AUTO 22004KT 130V280 4500 HZ BKN014
                        15/11 Q1014 BECMG 6000 NSW FEW014=
201510031150 METAR EGLL 031150Z AUTO VRB04KT 4900 HZ OVC011 14/11 Q1014
                        BECMG 6000 NSW FEW011=
201510031120 METAR COR EGLL 031120Z AUTO VRB03KT 4700 HZ BKN009 14/11
                        Q1015 BECMG 6000 NSW FEW009=
201510031050 METAR EGLL 031050Z AUTO 07004KT 350V120 4300 HZ BKN006 13/11
                        Q1015 BECMG 5000 SCT006=
201510031020 METAR COR EGLL 031020Z AUTO 05004KT 360V090 3500 HZ OVC005
                        12/10 Q1015 BECMG 5000=
201510030950 METAR EGLL 030950Z AUTO VRB02KT 3100 HZ OVC004 12/10 Q1015=
201510030920 METAR COR EGLL 030920Z AUTO VRB01KT 2800 HZ OVC005 11/09
                        Q1016 NOSIG=
201510030850 METAR EGLL 030850Z AUTO VRB02KT 3400 HZ OVC005 11/09 Q1016
                        BECMG 5000=
201510030820 METAR COR EGLL 030820Z AUTO VRB02KT 3200 HZ OVC004 10/09
                        Q1016 BECMG BKN006=
201510030750 METAR EGLL 030750Z AUTO VRB02KT 3100 HZ OVC003 10/08 Q1016
                        BECMG SCT003 BKN005=
201510030720 METAR COR EGLL 030720Z AUTO 35003KT 3200 HZ BKN003 BKN025
                        09/08 Q1016 TEMPO SCT003 BKN025=
201510030650 METAR EGLL 030650Z AUTO 36004KT 3900 HZ FEW004 BKN022 09/08
                        Q1016 TEMPO BKN005=
201510030620 METAR COR EGLL 030620Z AUTO VRB03KT 4600 HZ BKN027 09/08
                        Q1016 TEMPO BKN005=
201510030550 METAR COR EGLL 030550Z AUTO VRB02KT 4200 HZ FEW008 OVC024
                        10/08 Q1016 BECMG BKN005=
201510030520 METAR COR EGLL 030520Z AUTO 05002KT 5000 HZ BKN023 09/08
                        Q1016 BECMG 3000 BR BKN004=
201510030450 METAR COR EGLL 030450Z AUTO VRB03KT 5000 HZ OVC023 09/08
                        Q1016 TEMPO 4000 BR BKN005=
201510030420 METAR COR EGLL 030420Z AUTO 36004KT 5000 HZ BKN023 09/07
                        Q1017 TEMPO 4000 BR=
201510030350 METAR COR EGLL 030350Z AUTO VRB03KT 5000 HZ BKN022 09/08
                        Q1017 TEMPO 4000 BR=
201510030320 METAR COR EGLL 030320Z AUTO VRB03KT 5000 HZ OVC022 09/07
                        Q1017 TEMPO 4000 BR=
201510030250 METAR COR EGLL 030250Z AUTO 36004KT 4600 HZ BKN021 08/07
                        Q1017 NOSIG=
201510030220 METAR COR EGLL 030220Z AUTO 35004KT 4700 HZ FEW021 08/07
                        Q1018 NOSIG=
201510030150 METAR COR EGLL 030150Z AUTO 36004KT 4600 HZ NCD 08/07 Q1018
                        TEMPO 5000=
201510030120 METAR COR EGLL 030120Z AUTO 35005KT 5000 HZ NCD 09/08 Q1018
                        TEMPO 4000 BR=
201510030050 METAR COR EGLL 030050Z AUTO 36005KT 6000 NCD 09/07 Q1019
                        NOSIG=
201510030020 METAR COR EGLL 030020Z AUTO 36005KT 6000 FEW023 09/08 Q1019
                        NOSIG=
201510022350 METAR COR EGLL 022350Z AUTO 35004KT 7000 SCT023 10/08 Q1020
                        NOSIG=
201510022320 METAR COR EGLL 022320Z AUTO 35003KT 7000 FEW023 10/08 Q1020
                        NOSIG=
201510022250 METAR EGLL 022250Z AUTO 01003KT 8000 FEW018 11/08 Q1020 NOSIG=
201510022220 METAR COR EGLL 022220Z AUTO VRB03KT 9000 FEW019 11/08 Q1020
                        NOSIG=
201510022150 METAR EGLL 022150Z AUTO 08004KT 9999 NCD 11/08 Q1020 NOSIG=
201510022120 METAR COR EGLL 022120Z AUTO 08003KT 9999 NCD 12/08 Q1020
                        NOSIG=
201510022050 METAR EGLL 022050Z AUTO VRB02KT 9999 NCD 12/08 Q1020 NOSIG=
201510022020 METAR COR EGLL 022020Z AUTO 09002KT 9999 NCD 11/08 Q1020
                        NOSIG=
201510021950 METAR COR EGLL 021950Z AUTO 11004KT 9999 NCD 12/08 Q1020
                        NOSIG=
201510021920 METAR COR EGLL 021920Z AUTO 12007KT 9999 NCD 11/07 Q1020
                        NOSIG=
201510021850 METAR EGLL 021850Z AUTO VRB03KT 9999 NCD 13/08 Q1020 NOSIG=
201510021820 METAR COR EGLL 021820Z AUTO 07004KT 9999 NCD 15/08 Q1020
                        NOSIG=
201510021750 METAR EGLL 021750Z AUTO 07004KT 9999 NCD 15/08 Q1020 NOSIG=
201510021720 METAR COR EGLL 021720Z AUTO 07004KT 9999 NCD 16/08 Q1021
                        NOSIG=
201510021650 METAR EGLL 021650Z AUTO 07005KT 9999 NCD 17/08 Q1021 NOSIG=
201510021620 METAR COR EGLL 021620Z AUTO 06006KT 030V090 9999 NCD 18/08
                        Q1021 NOSIG=
201510021550 METAR EGLL 021550Z AUTO 07007KT 9999 NCD 18/08 Q1021 NOSIG=
201510021520 METAR COR EGLL 021520Z AUTO 05006KT 020V090 9999 NCD 18/09
                        Q1022 NOSIG=
201510021450 METAR EGLL 021450Z AUTO 05006KT 010V080 9999 NCD 18/09 Q1022
                        NOSIG=
201510021420 METAR COR EGLL 021420Z AUTO 06006KT 350V110 9999 NCD 18/08
                        Q1023 NOSIG=
201510021350 METAR EGLL 021350Z AUTO 06005KT 010V110 9999 NCD 18/09 Q1023
                        NOSIG=
201510021320 METAR COR EGLL 021320Z AUTO 07005KT 040V110 9999 NCD 18/09
                        Q1024 NOSIG=
201510021250 METAR EGLL 021250Z AUTO 08004KT 020V120 9999 NCD 18/09 Q1024
                        NOSIG=
201510021220 METAR COR EGLL 021220Z AUTO 08005KT 030V130 9999 NCD 18/09
                        Q1024 NOSIG=
201510021150 METAR COR EGLL 021150Z AUTO 06005KT 010V130 9999 NCD 17/09
                        Q1025 NOSIG=
201510021120 METAR COR EGLL 021120Z AUTO 06007KT 9999 NCD 17/09 Q1025
                        NOSIG=
201510021050 METAR COR EGLL 021050Z AUTO 08006KT 030V130 9999 NCD 17/10
                        Q1026 NOSIG=
201510021020 METAR COR EGLL 021020Z AUTO 07008KT 040V100 9999 NCD 16/09
                        Q1026 NOSIG=
201510020950 METAR EGLL 020950Z AUTO 07007KT 030V090 9999 NCD 15/09 Q1026
                        NOSIG=
201510020920 METAR COR EGLL 020920Z AUTO 07007KT 9999 NCD 14/10 Q1026
                        NOSIG=
201510020850 METAR EGLL 020850Z AUTO 05005KT 020V090 9999 NCD 13/10 Q1027
                        NOSIG=
201510020820 METAR COR EGLL 020820Z AUTO 04004KT 9000 NCD 12/09 Q1027
                        NOSIG=
201510020750 METAR EGLL 020750Z AUTO VRB03KT 8000 NCD 10/09 Q1027 NOSIG=
201510020720 METAR COR EGLL 020720Z AUTO 03004KT 360V060 7000 NCD 09/08
                        Q1027 NOSIG=
201510020650 METAR COR EGLL 020650Z AUTO VRB03KT 6000 NCD 09/08 Q1027
                        NOSIG=
201510020620 METAR COR EGLL 020620Z AUTO VRB02KT 6000 NCD 08/08 Q1027
                        TEMPO 4800 BR=
201510020550 METAR EGLL 020550Z AUTO 02003KT 7000 NCD 08/07 Q1027 NOSIG=
201510020520 METAR COR EGLL 020520Z AUTO 36003KT 7000 NCD 08/07 Q1027
                        NOSIG=
201510020450 METAR EGLL 020450Z AUTO VRB03KT 7000 NCD 09/08 Q1027 NOSIG=
201510020420 METAR COR EGLL 020420Z AUTO 02002KT 9000 NCD 09/08 Q1027
                        NOSIG=
201510020350 METAR EGLL 020350Z AUTO 04004KT 9999 NCD 09/08 Q1027 NOSIG=
201510020320 METAR COR EGLL 020320Z AUTO 04004KT 9999 NCD 10/09 Q1027
                        NOSIG=
201510020250 METAR EGLL 020250Z AUTO VRB02KT 9999 NCD 11/09 Q1027 NOSIG=
201510020220 METAR COR EGLL 020220Z AUTO 04005KT 9999 NCD 11/09 Q1028
                        NOSIG=
201510020150 METAR EGLL 020150Z AUTO 04005KT 9999 NCD 11/09 Q1028 NOSIG=
201510020120 METAR COR EGLL 020120Z AUTO 04003KT 9999 FEW034 11/09 Q1028
                        NOSIG=
201510020050 METAR COR EGLL 020050Z AUTO 04004KT 9999 FEW034 11/09 Q1028
                        NOSIG=
201510020020 METAR COR EGLL 020020Z AUTO 04004KT 9999 FEW034 11/09 Q1028
                        NOSIG=
201510012350 METAR COR EGLL 012350Z AUTO 04005KT 9999 BKN029 12/09 Q1029
                        NOSIG=
201510012320 METAR COR EGLL 012320Z AUTO 04005KT 9999 BKN033 12/10 Q1029
                        NOSIG=
201510012250 METAR COR EGLL 012250Z AUTO 04004KT 9999 OVC027 13/10 Q1029
                        NOSIG=
201510012220 METAR COR EGLL 012220Z AUTO 04005KT 9999 BKN029 13/10 Q1029
                        NOSIG=
201510012150 METAR EGLL 012150Z AUTO 05004KT 9999 BKN022 13/09 Q1030 NOSIG=
201510012120 METAR COR EGLL 012120Z AUTO 06007KT 9999 SCT027 13/09 Q1030
                        NOSIG=
201510012050 METAR COR EGLL 012050Z AUTO 06008KT 9999 BKN025 13/09 Q1030
                        NOSIG=
201510012020 METAR COR EGLL 012020Z AUTO 06010KT 9999 SCT022 13/09 Q1029
                        NOSIG=
201510011950 METAR EGLL 011950Z AUTO 06009KT 9999 NCD 13/08 Q1029 NOSIG=
201510011920 METAR COR EGLL 011920Z AUTO 06009KT 9999 NCD 14/07 Q1029
                        NOSIG=
201510011850 METAR EGLL 011850Z AUTO 06008KT 9999 NCD 15/07 Q1029 NOSIG=
201510011820 METAR COR EGLL 011820Z AUTO 07009KT 9999 NCD 15/07 Q1029
                        NOSIG=
201510011750 METAR EGLL 011750Z AUTO 07010KT 9999 NCD 16/06 Q1029 NOSIG=
201510011720 METAR COR EGLL 011720Z AUTO 06011KT 9999 NCD 17/06 Q1029
                        NOSIG=
201510011650 METAR EGLL 011650Z AUTO 06009KT 9999 NCD 17/06 Q1029 NOSIG=
201510011620 METAR COR EGLL 011620Z AUTO 06008KT 9999 NCD 18/07 Q1029
                        NOSIG=
201510011550 METAR EGLL 011550Z AUTO 06011KT 030V090 9999 NCD 18/07 Q1029
                        NOSIG=
201510011520 METAR COR EGLL 011520Z AUTO 07011KT 9999 NCD 18/07 Q1029
                        NOSIG=
201510011450 METAR COR EGLL 011450Z AUTO 06009KT 9999 NCD 18/08 Q1030
                        NOSIG=
201510011420 METAR COR EGLL 011420Z AUTO 07009KT 9999 NCD 18/07 Q1030
                        NOSIG=
201510011350 METAR EGLL 011350Z AUTO 07010KT 9999 FEW042 18/07 Q1030 NOSIG=
201510011320 METAR COR EGLL 011320Z AUTO 08012KT 9999 FEW040 18/08 Q1031
                        NOSIG=
201510011250 METAR COR EGLL 011250Z AUTO 07011KT 030V100 9999 FEW039 18/08
                        Q1031 NOSIG=
201510011220 METAR COR EGLL 011220Z AUTO 09013KT 9999 FEW041 18/07 Q1031
                        NOSIG=
201510011150 METAR EGLL 011150Z AUTO 07011KT 9999 FEW039 18/08 Q1032 NOSIG=
201510011120 METAR COR EGLL 011120Z AUTO 07011KT 030V090 9999 FEW032 17/08
                        Q1032 NOSIG=
201510011050 METAR COR EGLL 011050Z AUTO 07011KT 030V090 9999 SCT028 17/10
                        Q1032 NOSIG=
201510011020 METAR EGLL 011020Z AUTO 07011KT 040V110 9999 FEW026 16/09
                        Q1032=
201510010950 METAR EGLL 010950Z AUTO 07012KT 9999 BKN023 16/10 Q1032 NOSIG=
201510010920 METAR COR EGLL 010920Z AUTO 06010KT 030V090 9999 FEW020 15/11
                        Q1032 NOSIG=
201510010850 METAR COR EGLL 010850Z AUTO 07008KT 9999 NCD 14/10 Q1032
                        NOSIG=
201510010820 METAR COR EGLL 010820Z AUTO 06008KT 030V100 9999 NCD 13/10
                        Q1032 NOSIG=
201510010750 METAR EGLL 010750Z AUTO 04006KT 9999 NCD 12/10 Q1032 NOSIG=
201510010720 METAR COR EGLL 010720Z AUTO 05004KT 020V080 9999 NCD 11/09
                        Q1032 NOSIG=
201510010650 METAR EGLL 010650Z AUTO VRB01KT 9999 NCD 10/08 Q1032 NOSIG=
201510010620 METAR COR EGLL 010620Z AUTO VRB02KT 9999 NCD 09/07 Q1032
                        NOSIG=
201510010550 METAR EGLL 010550Z AUTO 36004KT 9999 NCD 09/08 Q1032 NOSIG=
201510010520 METAR COR EGLL 010520Z AUTO 36004KT 9999 NCD 09/08 Q1032
                        NOSIG=
201510010450 METAR COR EGLL 010450Z AUTO 01004KT 330V060 9999 NCD 09/08
                        Q1032 NOSIG=
201510010420 METAR COR EGLL 010420Z AUTO 03004KT 340V070 9999 NCD 09/08
                        Q1032 NOSIG=
201510010350 METAR EGLL 010350Z AUTO 02005KT 340V050 9999 NCD 09/08 Q1032
                        NOSIG=
201510010320 METAR COR EGLL 010320Z AUTO 01004KT 340V040 9999 NCD 10/08
                        Q1032 NOSIG=
201510010250 METAR EGLL 010250Z AUTO 01005KT 9999 NCD 10/09 Q1032 NOSIG=
201510010220 METAR EGLL 010220Z AUTO 36005KT 9999 NCD 10/09 Q1032=
201510010150 METAR EGLL 010150Z AUTO 36004KT 340V040 9999 NCD 11/09 Q1032
                        NOSIG=
201510010120 METAR COR EGLL 010120Z AUTO 04005KT 9999 NCD 11/09 Q1032
                        NOSIG=
201510010050 METAR COR EGLL 010050Z 04004KT CAVOK 11/09 Q1032 NOSIG=
201510010020 METAR COR EGLL 010020Z 05004KT CAVOK 12/10 Q1032 NOSIG=

</pre>

</body>
</html>
