##########################################################
# Query made at 12/24/2012 13:47:05 UTC
# Time interval: from 10/01/2012 00:00  to 10/31/2012 23:59  UTC
##########################################################

##########################################################
# EGLL, London / Heathrow Airport (United Kingdom)
# WMO index: 03772
# Latitude 51-29N. Longitude 000-27W. Altitude 24 m.
##########################################################

###################################
#  METAR/SPECI from EGLL
###################################
201210312350 METAR COR EGLL 312350Z 19015KT 9999 SCT021 SCT029 12/08 Q0978
                        TEMPO 17020G30KT 3000 +RA=
201210312320 METAR COR EGLL 312320Z 18015KT 160V220 9999 SCT021 SCT026
                        12/08 Q0978 TEMPO 17020G30KT 3000
                        +RA=
201210312250 METAR COR EGLL 312250Z 18015KT 9999 SCT020 SCT033 11/08 Q0979
                        TEMPO 17018G30KT 3000 +RA=
201210312220 METAR COR EGLL 312220Z 18015KT 9999 SCT019 SCT024 11/08 Q0980
                        TEMPO 17018G30KT 3000 +RA=
201210312150 METAR COR EGLL 312150Z 18015KT 9999 SCT015 BKN019 11/08 Q0980
                        TEMPO 17018G30KT 3000 +RA=
201210312120 METAR COR EGLL 312120Z 17015KT 9999 SCT015 BKN024 11/09 Q0981
                        NOSIG=
201210312050 METAR COR EGLL 312050Z 17016KT 140V200 9999 FEW019 SCT035
                        11/08 Q0981 TEMPO 7000 RA=
201210312020 METAR COR EGLL 312020Z 18015KT 9999 FEW024 SCT030 11/08 Q0982
                        TEMPO 17018G28KT 8000 RA=
201210311950 METAR COR EGLL 311950Z 18014KT 9999 FEW018 SCT044 11/08 Q0983
                        NOSIG=
201210311920 METAR COR EGLL 311920Z 19016KT 9999 -SHRA FEW021 SCT024 11/08
                        Q0983 NOSIG=
201210311850 METAR COR EGLL 311850Z 18016KT 9999 -SHRA SCT026 BKN037 11/08
                        Q0983 TEMPO SHRA=
201210311820 METAR COR EGLL 311820Z 18015KT 9999 -SHRA SCT024 BKN035 12/08
                        Q0984 TEMPO SHRA=
201210311750 METAR COR EGLL 311750Z 18015KT 9999 -SHRA FEW025 BKN038 11/07
                        Q0984 TEMPO SHRA=
201210311720 METAR COR EGLL 311720Z 18015G25KT 9999 FEW024 BKN045 12/07
                        Q0985 NOSIG=
201210311650 METAR COR EGLL 311650Z 18016KT 9999 FEW024 SCT034 BKN047
                        11/07 Q0985 NOSIG=
201210311620 METAR COR EGLL 311620Z 18014KT 9999 FEW021 SCT044 11/07 Q0985
                        NOSIG=
201210311550 METAR COR EGLL 311550Z 18014KT 9999 FEW021 SCT029 11/07 Q0986
                        NOSIG=
201210311520 METAR COR EGLL 311520Z 19015G26KT 9999 -SHRA FEW024 SCT027
                        BKN031 11/08 Q0986 NOSIG=
201210311450 METAR COR EGLL 311450Z 18016KT 160V230 9999 -SHRA FEW019
                        SCT026 BKN031 11/08 Q0986 NOSIG=
201210311420 METAR COR EGLL 311420Z 19015KT 170V230 9999 VCSH FEW021 SCT035
                        11/08 Q0987 NOSIG=
201210311350 METAR COR EGLL 311350Z 20016KT 9999 VCSH FEW023 SCT026 12/08
                        Q0988 NOSIG=
201210311320 METAR COR EGLL 311320Z 20015KT 180V240 9999 SCT023 SCT031
                        12/07 Q0988 NOSIG=
201210311250 METAR COR EGLL 311250Z 20015G26KT 9999 SCT026 SCT031 12/07
                        Q0988 NOSIG=
201210311220 METAR COR EGLL 311220Z 21017KT 9999 SCT029 SCT034 13/07 Q0989
                        NOSIG=
201210311150 METAR COR EGLL 311150Z 21015G26KT 180V240 9999 SCT029 SCT037
                        13/07 Q0989 NOSIG=
201210311120 METAR COR EGLL 311120Z 21014G25KT 9999 -SHRA SCT028 SCT040
                        12/08 Q0990 NOSIG=
201210311050 METAR COR EGLL 311050Z 22014G25KT 9999 FEW024 SCT037 12/07
                        Q0990 NOSIG=
201210311020 METAR COR EGLL 311020Z 21012KT 9999 FEW012 11/08 Q0991 NOSIG=
201210310950 METAR COR EGLL 310950Z 19008KT 150V220 9999 SCT049 10/07
                        Q0991 NOSIG=
201210310920 METAR COR EGLL 310920Z 17007KT 140V220 CAVOK 09/07 Q0992
                        NOSIG=
201210310850 METAR COR EGLL 310850Z 18009KT 9999 FEW033 08/07 Q0992 NOSIG=
201210310820 METAR COR EGLL 310820Z 18008KT 160V230 9999 SCT033 07/06
                        Q0992 NOSIG=
201210310750 METAR COR EGLL 310750Z 23009KT 9999 -SHRA FEW030 BKN038 07/05
                        Q0993 NOSIG=
201210310720 METAR COR EGLL 310720Z 22006KT 190V250 9999 FEW022 SCT030
                        06/04 Q0993 NOSIG=
201210310650 METAR COR EGLL 310650Z 17007KT 140V240 9999 FEW041 06/03
                        Q0993 NOSIG=
201210310620 METAR COR EGLL 310620Z 18007KT 160V230 9999 FEW039 07/03
                        Q0993 NOSIG=
201210310550 METAR COR EGLL 310550Z 18005KT 9999 FEW027 07/04 Q0993 NOSIG=
201210310520 METAR COR EGLL 310520Z VRB05KT 9999 SCT032 07/03 Q0994 NOSIG=
201210310450 METAR COR EGLL 310450Z 20008KT 130V260 9999 FEW040 07/03
                        Q0994 NOSIG=
201210310420 METAR COR EGLL 310420Z 18006KT 9999 FEW042 07/03 Q0995 NOSIG=
201210310350 METAR COR EGLL 310350Z 20007KT 9999 FEW048 07/04 Q0995 NOSIG=
201210310320 METAR COR EGLL 310320Z 19007KT CAVOK 06/04 Q0996 NOSIG=
201210310250 METAR COR EGLL 310250Z 19007KT CAVOK 06/04 Q0996 NOSIG=
201210310220 METAR EGLL 310220Z AUTO 20006KT 9999 NCD 06/04 Q0997=
201210310150 METAR EGLL 310150Z AUTO 20007KT 9999 NCD 06/04 Q0997=
201210310120 METAR EGLL 310120Z AUTO 21006KT 9999 NCD 07/04 Q0997=
201210310050 METAR COR EGLL 310050Z 20005KT CAVOK 06/04 Q0998 NOSIG=
201210310020 METAR COR EGLL 310020Z 20006KT CAVOK 07/05 Q0998 NOSIG=
201210302350 METAR COR EGLL 302350Z 21005KT 9999 FEW043 07/05 Q0999 NOSIG=
201210302320 METAR COR EGLL 302320Z 21006KT 9999 FEW041 BKN044 07/05 Q0999
                        NOSIG=
201210302250 METAR COR EGLL 302250Z 22007KT 9999 FEW034 BKN041 07/05 Q1000
                        NOSIG=
201210302220 METAR COR EGLL 302220Z 24010KT 9999 FEW041 BKN048 08/05 Q1000
                        NOSIG=
201210302150 METAR COR EGLL 302150Z 21006KT 9999 FEW036 BKN047 07/05 Q1000
                        NOSIG=
201210302120 METAR COR EGLL 302120Z 21007KT 9999 BKN047 07/05 Q1001 NOSIG=
201210302050 METAR COR EGLL 302050Z 21007KT 9999 SCT047 06/04 Q1001 NOSIG=
201210302020 METAR COR EGLL 302020Z 21006KT 180V240 9999 FEW045 06/04
                        Q1001 NOSIG=
201210301950 METAR COR EGLL 301950Z 21006KT 9999 BKN046 07/04 Q1001 NOSIG=
201210301920 METAR COR EGLL 301920Z 22007KT 9999 BKN045 07/04 Q1002 NOSIG=
201210301850 METAR COR EGLL 301850Z 22007KT 9999 FEW046 07/04 Q1002 NOSIG=
201210301820 METAR COR EGLL 301820Z 24008KT 9999 FEW044 07/04 Q1002 NOSIG=
201210301750 METAR COR EGLL 301750Z 23008KT CAVOK 08/04 Q1002 NOSIG=
201210301720 METAR COR EGLL 301720Z 25009KT 9999 FEW032 08/04 Q1002 NOSIG=
201210301650 METAR COR EGLL 301650Z 23007KT 200V270 9999 FEW031 08/04
                        Q1002 NOSIG=
201210301620 METAR COR EGLL 301620Z 23006KT 9999 FEW036 09/04 Q1002 NOSIG=
201210301550 METAR COR EGLL 301550Z 24006KT 9999 FEW043 09/04 Q1002 NOSIG=
201210301520 METAR COR EGLL 301520Z 25008KT 9999 SCT040 SCT044 10/04 Q1003
                        NOSIG=
201210301450 METAR COR EGLL 301450Z 27010KT 9999 SCT040 SCT044 10/04 Q1003
                        NOSIG=
201210301420 METAR COR EGLL 301420Z 28009KT 9999 SCT040 10/03 Q1004 NOSIG=
201210301350 METAR COR EGLL 301350Z 26009KT 220V300 9999 SCT041 10/03
                        Q1004 NOSIG=
201210301320 METAR COR EGLL 301320Z 27008KT 9999 FEW031 SCT037 11/04 Q1004
                        NOSIG=
201210301250 METAR COR EGLL 301250Z 26010KT 220V290 9999 SCT029 11/04
                        Q1004 NOSIG=
201210301220 METAR COR EGLL 301220Z 28009KT 9999 FEW021 SCT026 11/04 Q1005
                        NOSIG=
201210301150 METAR COR EGLL 301150Z 29007KT 260V340 9999 FEW021 SCT028
                        10/05 Q1005 NOSIG=
201210301120 METAR COR EGLL 301120Z 30006KT 270V340 9999 FEW020 09/05
                        Q1005 NOSIG=
201210301050 METAR COR EGLL 301050Z 28007KT 9999 FEW016 09/05 Q1006 NOSIG=
201210301020 METAR COR EGLL 301020Z 28007KT 250V320 9999 FEW012 09/06
                        Q1006 NOSIG=
201210300950 METAR COR EGLL 300950Z 29007KT CAVOK 08/06 Q1006 NOSIG=
201210300920 METAR COR EGLL 300920Z 29007KT CAVOK 08/06 Q1006 NOSIG=
201210300850 METAR COR EGLL 300850Z 30005KT CAVOK 07/05 Q1006 NOSIG=
201210300820 METAR COR EGLL 300820Z 29006KT CAVOK 06/05 Q1007 NOSIG=
201210300750 METAR COR EGLL 300750Z 28006KT 8000 NSC 05/05 Q1007 NOSIG=
201210300720 METAR COR EGLL 300720Z 28006KT 7000 NSC 05/04 Q1006 NOSIG=
201210300650 METAR COR EGLL 300650Z 27006KT 7000 NSC 05/05 Q1006 NOSIG=
201210300620 METAR COR EGLL 300620Z 28006KT 8000 NSC 05/05 Q1006 NOSIG=
201210300550 METAR COR EGLL 300550Z 28005KT 7000 NSC 05/04 Q1006 NOSIG=
201210300520 METAR COR EGLL 300520Z 29004KT 9000 NSC 06/05 Q1006 NOSIG=
201210300450 METAR COR EGLL 300450Z 30004KT 9000 NSC 06/06 Q1006 NOSIG=
201210300420 METAR COR EGLL 300420Z 29004KT 9000 NSC 07/06 Q1006 NOSIG=
201210300350 METAR COR EGLL 300350Z 28005KT 9000 NSC 07/06 Q1006 NOSIG=
201210300320 METAR COR EGLL 300320Z 29004KT 9000 FEW042 07/06 Q1006 NOSIG=
201210300250 METAR COR EGLL 300250Z 29005KT 9000 FEW033 07/06 Q1007 NOSIG=
201210300220 METAR EGLL 300220Z AUTO 29004KT 9000 NCD 08/07 Q1007=
201210300150 METAR EGLL 300150Z AUTO 30005KT 9999 NCD 08/07 Q1007=
201210300120 METAR EGLL 300120Z AUTO 30004KT 9000 FEW041/// BKN049///
                        07/07 Q1007=
201210300050 METAR COR EGLL 300050Z 28005KT 9999 FEW049 07/06 Q1007 TEMPO
                        4000 BR=
201210300020 METAR COR EGLL 300020Z 30004KT CAVOK 08/07 Q1007 NOSIG=
201210292350 METAR COR EGLL 292350Z 29005KT CAVOK 07/07 Q1007 TEMPO 4000
                        BR=
201210292320 METAR COR EGLL 292320Z 27006KT 9999 FEW007 08/07 Q1007 NOSIG=
201210292250 METAR COR EGLL 292250Z 27006KT 9999 FEW007 08/07 Q1007 NOSIG=
201210292220 METAR COR EGLL 292220Z 28006KT CAVOK 08/07 Q1007 NOSIG=
201210292150 METAR COR EGLL 292150Z 28006KT CAVOK 09/07 Q1007 NOSIG=
201210292120 METAR COR EGLL 292120Z 28006KT 9999 FEW048 09/08 Q1007 NOSIG=
201210292050 METAR COR EGLL 292050Z 29005KT 9999 FEW006 BKN038 10/09 Q1007
                        RESHRA NOSIG=
201210292020 METAR COR EGLL 292020Z 29004KT 9999 -SHRA FEW006 BKN036 10/09
                        Q1007 NOSIG=
201210291950 METAR COR EGLL 291950Z 28006KT 7000 SHRA FEW005 SCT009 BKN014
                        10/09 Q1007 TEMPO NSW=
201210291920 METAR COR EGLL 291920Z 28005KT 9999 FEW009 SCT023 10/09 Q1008
                        TEMPO 7000 SHRA=
201210291850 METAR COR EGLL 291850Z 29004KT 9999 -SHRA FEW010 SCT028 10/09
                        Q1008 TEMPO 7000 SHRA=
201210291820 METAR EGLL 291820Z 30004KT 9999 FEW010 SCT032 11/09 Q1008
                        RESHRA=
201210291750 METAR COR EGLL 291750Z 30004KT 9999 -SHRA FEW017 SCT041 10/09
                        Q1008 RESHRA TEMPO 7000 SHRA=
201210291720 METAR COR EGLL 291720Z 30006KT 9999 SHRA FEW017 SCT035 11/08
                        Q1008 TEMPO 7000 SHRA=
201210291650 METAR COR EGLL 291650Z 27008KT 9999 VCSH SCT030 11/07 Q1007
                        TEMPO 7000 SHRA=
201210291620 METAR COR EGLL 291620Z 26010KT 9999 VCSH FEW034 12/08 Q1007
                        TEMPO 7000 SHRA=
201210291550 METAR COR EGLL 291550Z 26007KT 9999 FEW041 12/08 Q1007 TEMPO
                        7000 SHRA=
201210291520 METAR COR EGLL 291520Z 28007KT 9999 FEW035 12/08 Q1007 TEMPO
                        7000 SHRA=
201210291450 METAR COR EGLL 291450Z 28007KT 9999 FEW040 12/08 Q1008 NOSIG=
201210291420 METAR COR EGLL 291420Z 28008KT 9999 FEW023 12/08 Q1008 NOSIG=
201210291350 METAR COR EGLL 291350Z AUTO 27011KT 9999 FEW027/// 12/08
                        Q1008 NOSIG=
201210291320 METAR COR EGLL 291320Z 27012KT 9999 SCT024 13/08 Q1008 NOSIG=
201210291250 METAR COR EGLL 291250Z 26012KT 9999 FEW023 SCT038 13/08 Q1008
                        NOSIG=
201210291220 METAR COR EGLL 291220Z 27012KT 9999 SCT025 13/08 Q1008 NOSIG=
201210291150 METAR COR EGLL 291150Z 28012KT 9999 FEW022 SCT028 13/07 Q1008
                        NOSIG=
201210291120 METAR COR EGLL 291120Z 25015KT 9999 SCT024 13/08 Q1008 NOSIG=
201210291050 METAR COR EGLL 291050Z AUTO 23009KT 190V260 9999 SCT019///
                        12/09 Q1009 NOSIG=
201210291020 METAR COR EGLL 291020Z 22007KT 190V250 CAVOK 11/09 Q1009
                        NOSIG=
201210290950 METAR COR EGLL 290950Z 24009KT 9999 FEW032 10/08 Q1009 NOSIG=
201210290920 METAR EGLL 290920Z 22007KT 9999 FEW035 10/08 Q1009=
201210290850 METAR COR EGLL 290850Z 22006KT CAVOK 09/08 Q1009 NOSIG=
201210290820 METAR COR EGLL 290820Z 22008KT CAVOK 09/07 Q1009 NOSIG=
201210290750 METAR COR EGLL 290750Z 22008KT CAVOK 09/07 Q1009 NOSIG=
201210290720 METAR COR EGLL 290720Z 21008KT CAVOK 08/07 Q1009 NOSIG=
201210290650 METAR COR EGLL 290650Z 21007KT 9999 SCT046 08/07 Q1009 TEMPO
                        7000 -RA=
201210290620 METAR COR EGLL 290620Z 20007KT 180V250 9999 SCT048 08/06
                        Q1009 TEMPO 7000 -RA=
201210290550 METAR COR EGLL 290550Z 21007KT CAVOK 08/06 Q1009 TEMPO 7000
                        -RA=
201210290520 METAR COR EGLL 290520Z 21006KT CAVOK 08/06 Q1009 NOSIG=
201210290450 METAR COR EGLL 290450Z 21006KT 180V260 CAVOK 08/06 Q1009
                        NOSIG=
201210290420 METAR COR EGLL 290420Z 21005KT CAVOK 08/06 Q1009 NOSIG=
201210290350 METAR COR EGLL 290350Z 21006KT CAVOK 08/07 Q1009 NOSIG=
201210290320 METAR COR EGLL 290320Z 20005KT CAVOK 08/07 Q1010 NOSIG=
201210290250 METAR COR EGLL 290250Z 20005KT CAVOK 08/07 Q1010 NOSIG=
201210290220 METAR EGLL 290220Z AUTO 21004KT 9999 NCD 08/07 Q1010=
201210290150 METAR EGLL 290150Z AUTO 21005KT 9999 NCD 08/07 Q1010=
201210290120 METAR EGLL 290120Z AUTO 21005KT 9999 NCD 08/07 Q1010=
201210290050 METAR COR EGLL 290050Z 20006KT 9999 -RA SCT043 08/07 Q1011
                        NOSIG=
201210290020 METAR COR EGLL 290020Z 20006KT 9999 -RA BKN037 08/07 Q1011
                        NOSIG=
201210282350 METAR COR EGLL 282350Z 21005KT 9999 -RA BKN036 08/07 Q1011
                        NOSIG=
201210282320 METAR COR EGLL 282320Z 22007KT 190V250 9999 -RA BKN041 08/07
                        Q1011 NOSIG=
201210282250 METAR COR EGLL 282250Z 22008KT 9999 -RA BKN036 08/07 Q1011
                        NOSIG=
201210282220 METAR COR EGLL 282220Z 22008KT 190V250 9999 -RA FEW037 BKN040
                        08/07 Q1011 NOSIG=
201210282150 METAR COR EGLL 282150Z 23010KT 9999 -RA FEW029 BKN036 08/07
                        Q1011 NOSIG=
201210282120 METAR COR EGLL 282120Z 24011KT 9999 -RA FEW020 SCT034 BKN040
                        08/07 Q1011 NOSIG=
201210282050 METAR COR EGLL 282050Z 23010KT 9999 -RA FEW020 BKN032 08/07
                        Q1011 NOSIG=
201210282020 METAR COR EGLL 282020Z 23010KT 9999 -RA BKN032 08/07 Q1012
                        NOSIG=
201210281950 METAR COR EGLL 281950Z 24009KT 9999 -RA FEW027 BKN040 08/07
                        Q1012 NOSIG=
201210281920 METAR COR EGLL 281920Z 23010KT 9999 -RA FEW030 BKN042 08/07
                        Q1012 NOSIG=
201210281850 METAR EGLL 281850Z 24011KT 9999 -RA FEW020 SCT045 09/07 Q1012=
201210281820 METAR COR EGLL 281820Z 24011KT 9999 -RA FEW013 SCT042 09/07
                        Q1012 NOSIG=
201210281750 METAR COR EGLL 281750Z 25011KT 9999 -RA FEW037 09/07 Q1012
                        NOSIG=
201210281720 METAR COR EGLL 281720Z 25010KT CAVOK 09/07 Q1012 NOSIG=
201210281650 METAR EGLL 281650Z 24011KT 9999 FEW045 09/07 Q1012=
201210281620 METAR COR EGLL 281620Z 24011KT 9999 FEW045 09/07 Q1012 NOSIG=
201210281550 METAR COR EGLL 281550Z 24010KT 9999 FEW043 09/07 Q1012 TEMPO
                        BKN012=
201210281520 METAR COR EGLL 281520Z 24010KT 9999 FEW033 10/07 Q1012 NOSIG=
201210281450 METAR COR EGLL 281450Z 24010KT 9999 FEW014 BKN042 09/06 Q1013
                        NOSIG=
201210281420 METAR COR EGLL 281420Z 25010KT 9999 SCT012 09/06 Q1013 TEMPO
                        BKN012=
201210281350 METAR COR EGLL 281350Z 25010KT 9999 SCT013 09/06 Q1013 TEMPO
                        BKN013=
201210281320 METAR EGLL 281320Z 24009KT 9999 SCT013 09/06 Q1013=
201210281250 METAR COR EGLL 281250Z 23009KT 9999 SCT013 08/05 Q1014 NOSIG=
201210281220 METAR COR EGLL 281220Z 22009KT 9999 FEW014 08/05 Q1014 NOSIG=
201210281150 METAR COR EGLL 281150Z 22009KT 9999 BKN013 08/05 Q1015 TEMPO
                        SCT013=
201210281120 METAR COR EGLL 281120Z 23009KT 9999 SCT015 SCT044 08/05 Q1015
                        NOSIG=
201210281050 METAR COR EGLL 281050Z 23009KT 9999 FEW014 08/04 Q1015 NOSIG=
201210281020 METAR COR EGLL 281020Z 23009KT 9999 FEW014 07/04 Q1016 NOSIG
                        NOSIG=
201210280950 METAR COR EGLL 280950Z 21008KT 9999 SCT049 06/03 Q1016 NOSIG=
201210280920 METAR COR EGLL 280920Z 21008KT 160V240 9999 FEW032 05/03
                        Q1016 NOSIG=
201210280850 METAR EGLL 280850Z 20007KT 180V270 9999 FEW033 04/02 Q1016=
201210280820 METAR COR EGLL 280820Z 21006KT 180V260 9999 SCT033 04/02
                        Q1017 NOSIG=
201210280750 METAR COR EGLL 280750Z 20006KT 180V250 9999 FEW035 03/01
                        Q1017 NOSIG=
201210280720 METAR COR EGLL 280720Z 21006KT CAVOK 02/01 Q1017 NOSIG=
201210280650 METAR COR EGLL 280650Z 20005KT 150V260 CAVOK 02/01 Q1017
                        NOSIG=
201210280620 METAR COR EGLL 280620Z 20005KT 170V260 CAVOK 02/01 Q1017
                        NOSIG=
201210280550 METAR COR EGLL 280550Z 23006KT 200V260 CAVOK 02/00 Q1018
                        NOSIG=
201210280520 METAR COR EGLL 280520Z 24007KT CAVOK 02/01 Q1018 NOSIG=
201210280450 METAR COR EGLL 280450Z 26007KT CAVOK 01/00 Q1018 NOSIG=
201210280420 METAR COR EGLL 280420Z 27005KT CAVOK 01/M00 Q1019 NOSIG=
201210280350 METAR COR EGLL 280350Z 22004KT 190V260 CAVOK 01/M00 Q1019
                        NOSIG=
201210280320 METAR EGLL 280320Z 27006KT CAVOK 01/M00 Q1019=
201210280250 METAR COR EGLL 280250Z 27006KT CAVOK 01/M00 Q1019 NOSIG=
201210280220 METAR COR EGLL 280220Z 27006KT CAVOK 01/M00 Q1020 NOSIG=
201210280150 METAR COR EGLL 280150Z 26005KT CAVOK 02/00 Q1020 NOSIG=
201210280120 METAR EGLL 280120Z AUTO 23005KT 9999 NCD 02/00 Q1020=
201210280050 METAR EGLL 280050Z AUTO 27005KT 9999 NCD 02/00 Q1020=
201210280020 METAR EGLL 280020Z AUTO VRB03KT 9999 NCD 02/M00 Q1021=
201210272350 METAR COR EGLL 272350Z 29004KT CAVOK 02/M00 Q1021 NOSIG=
201210272320 METAR COR EGLL 272320Z VRB03KT CAVOK 04/01 Q1021 NOSIG=
201210272250 METAR COR EGLL 272250Z 33004KT 300V020 CAVOK 04/01 Q1021
                        NOSIG=
201210272220 METAR COR EGLL 272220Z 33006KT CAVOK 04/01 Q1021 NOSIG=
201210272150 METAR COR EGLL 272150Z 34005KT 310V020 CAVOK 05/01 Q1021
                        NOSIG=
201210272120 METAR COR EGLL 272120Z 34007KT 310V010 CAVOK 05/01 Q1021
                        NOSIG=
201210272050 METAR COR EGLL 272050Z 35006KT 250V020 CAVOK 05/02 Q1021
                        NOSIG=
201210272020 METAR COR EGLL 272020Z 33006KT 280V010 CAVOK 05/02 Q1021
                        NOSIG=
201210271950 METAR COR EGLL 271950Z 33005KT 280V360 CAVOK 05/02 Q1021
                        NOSIG=
201210271920 METAR COR EGLL 271920Z VRB03KT 9999 FEW031 06/02 Q1021 NOSIG=
201210271850 METAR COR EGLL 271850Z VRB03KT 9999 FEW026 SCT033 06/02 Q1021
                        NOSIG=
201210271820 METAR COR EGLL 271820Z 34005KT 300V030 9999 FEW048 06/02
                        Q1020 NOSIG=
201210271750 METAR COR EGLL 271750Z 34006KT 290V020 9999 FEW043 06/02
                        Q1020 NOSIG=
201210271720 METAR COR EGLL 271720Z 35006KT 310V030 9999 FEW043 06/02
                        Q1019 NOSIG=
201210271650 METAR COR EGLL 271650Z 36008KT 9999 FEW045 06/02 Q1019 NOSIG=
201210271620 METAR COR EGLL 271620Z 01006KT 340V040 9999 SCT045 06/03
                        Q1019 NOSIG=
201210271550 METAR COR EGLL 271550Z 36008KT 9999 SCT022 06/03 Q1018 NOSIG=
201210271520 METAR COR EGLL 271520Z 02011KT 340V050 9999 -RA FEW012 BKN022
                        06/03 Q1019 NOSIG=
201210271450 METAR COR EGLL 271450Z 35011G21KT 310V010 9999 SCT031 SCT038
                        08/02 Q1018 NOSIG=
201210271420 METAR COR EGLL 271420Z 36013KT 320V030 9999 SCT045 09/01
                        Q1017 NOSIG=
201210271350 METAR COR EGLL 271350Z 36014KT 310V030 9999 VCSH SCT034 BKN043
                        09/01 Q1017 NOSIG=
201210271320 METAR COR EGLL 271320Z 36014G27KT 9999 SCT035 09/01 Q1017
                        NOSIG=
201210271250 METAR COR EGLL 271250Z 35012G27KT 320V030 9999 SCT032 09/02
                        Q1017 NOSIG=
201210271220 METAR COR EGLL 271220Z 35012KT 300V020 9999 SCT030 08/02
                        Q1017 NOSIG=
201210271150 METAR COR EGLL 271150Z 34014G25KT 310V020 9999 SCT032 08/01
                        Q1017 NOSIG=
201210271120 METAR COR EGLL 271120Z 36013G23KT 320V030 9999 SCT030 08/01
                        Q1017 NOSIG=
201210271050 METAR COR EGLL 271050Z 35012KT 310V030 9999 FEW033 07/01
                        Q1017 NOSIG=
201210271020 METAR COR EGLL 271020Z 35012KT 300V020 9999 FEW024 07/01
                        Q1017 NOSIG=
201210270950 METAR COR EGLL 270950Z 35011KT 310V020 9999 FEW020 06/00
                        Q1017 NOSIG=
201210270920 METAR COR EGLL 270920Z 36010KT 300V040 9999 FEW015 06/01
                        Q1016 NOSIG=
201210270850 METAR COR EGLL 270850Z 35009KT 310V060 9999 FEW015 05/01
                        Q1016 NOSIG=
201210270820 METAR COR EGLL 270820Z 36010KT 9999 FEW015 04/01 Q1015 NOSIG=
201210270750 METAR COR EGLL 270750Z 35007KT 310V030 9999 FEW015 03/00
                        Q1015 NOSIG=
201210270720 METAR COR EGLL 270720Z 35008KT 310V010 9999 FEW013 02/00
                        Q1015 NOSIG=
201210270650 METAR COR EGLL 270650Z 35008KT 320V020 9999 FEW013 02/00
                        Q1014 NOSIG=
201210270620 METAR COR EGLL 270620Z 36010KT 330V040 9999 SCT018 03/M01
                        Q1014 NOSIG=
201210270550 METAR COR EGLL 270550Z 36009KT 320V040 9999 -RA SCT019 03/M00
                        Q1014 NOSIG=
201210270520 METAR COR EGLL 270520Z 36009KT 320V030 9999 FEW018 02/M01
                        Q1013 NOSIG=
201210270450 METAR COR EGLL 270450Z 36010KT 9999 FEW018 02/M01 Q1013 NOSIG=
201210270420 METAR EGLL 270420Z NIL=
201210270350 METAR COR EGLL 270350Z 36012G22KT 310V030 9999 FEW018 03/M01
                        Q1012 NOSIG=
201210270320 METAR EGLL 270320Z AUTO 36010KT 330V030 9999 SCT020/// 02/M01
                        Q1012=
201210270250 METAR EGLL 270250Z AUTO 36008KT 330V030 9999 SCT019/// 02/M01
                        Q1012=
201210270220 METAR EGLL 270220Z AUTO 36012G25KT 320V040 9999 SCT020///
                        02/M01 Q1012=
201210270150 METAR COR EGLL 270150Z 36011KT 320V030 9999 FEW022 03/M01
                        Q1012 NOSIG=
201210270120 METAR COR EGLL 270120Z 36010KT 330V040 9999 SCT022 03/M01
                        Q1012 NOSIG=
201210270050 METAR COR EGLL 270050Z 36010G20KT 300V030 9999 FEW025 03/M01
                        Q1012 NOSIG=
201210270020 METAR COR EGLL 270020Z 36009KT CAVOK 03/M01 Q1012 NOSIG=
201210262350 METAR COR EGLL 262350Z 36011KT 330V040 9999 FEW022 04/M00
                        Q1012 NOSIG=
201210262320 METAR COR EGLL 262320Z 36010KT 9999 FEW020 03/M00 Q1012 NOSIG=
201210262250 METAR COR EGLL 262250Z 36010KT 330V040 9999 FEW020 04/00
                        Q1012 NOSIG=
201210262220 METAR COR EGLL 262220Z 01011G23KT 340V050 9999 FEW020 04/00
                        Q1012 NOSIG=
201210262150 METAR EGLL 262150Z 36012KT 9999 FEW020 04/01 Q1012=
201210262120 METAR COR EGLL 262120Z 01010KT 9999 FEW020 05/01 Q1012 NOSIG=
201210262050 METAR COR EGLL 262050Z 01009KT 9999 SCT020 05/01 Q1012 NOSIG=
201210262020 METAR COR EGLL 262020Z 02009KT 350V050 9999 FEW029 SCT034
                        05/02 Q1012 NOSIG=
201210261950 METAR COR EGLL 261950Z 01008KT 340V050 9999 -RA FEW028 SCT034
                        05/03 Q1012 NOSIG=
201210261920 METAR COR EGLL 261920Z 03010KT 350V050 9999 SCT022 06/02
                        Q1012 NOSIG=
201210261850 METAR COR EGLL 261850Z 02009KT 340V050 9999 FEW044 06/01
                        Q1012 NOSIG=
201210261820 METAR COR EGLL 261820Z 02010G20KT 350V080 9999 BKN035 06/02
                        Q1011 NOSIG=
201210261750 METAR COR EGLL 261750Z 01009KT 340V040 9999 FEW022 SCT040
                        07/03 Q1011 NOSIG=
201210261720 METAR COR EGLL 261720Z 02009KT 340V050 9999 FEW031 SCT034
                        07/02 Q1011 NOSIG=
201210261650 METAR COR EGLL 261650Z 02008KT 340V050 9999 FEW033 SCT044
                        07/02 Q1011 NOSIG=
201210261620 METAR COR EGLL 261620Z 03009KT 340V050 9999 SCT026 SCT033
                        07/03 Q1011 NOSIG=
201210261550 METAR COR EGLL 261550Z 03010KT 350V070 9999 FEW020 SCT028
                        07/03 Q1011 NOSIG=
201210261520 METAR COR EGLL 261520Z 03011KT 360V060 9999 VCSH BKN027 08/04
                        Q1011 NOSIG=
201210261450 METAR COR EGLL 261450Z 03009KT 340V060 9999 FEW028 SCT045
                        09/03 Q1011 NOSIG=
201210261420 METAR COR EGLL 261420Z 03010KT 350V070 9999 FEW028 SCT035
                        09/04 Q1011 NOSIG=
201210261350 METAR COR EGLL 261350Z 04008KT 360V090 9999 SCT033 09/03
                        Q1011 NOSIG=
201210261320 METAR COR EGLL 261320Z 03007KT 350V060 9999 BKN048 08/04
                        Q1011 NOSIG=
201210261250 METAR COR EGLL 261250Z 03008KT 010V070 9999 -DZ SCT031 SCT038
                        08/04 Q1012 NOSIG=
201210261220 METAR COR EGLL 261220Z 03011KT 360V060 9000 -DZ SCT025 OVC031
                        08/05 Q1012 NOSIG=
201210261150 METAR COR EGLL 261150Z 04008KT 010V080 9999 FEW025 OVC028
                        09/04 Q1012 NOSIG=
201210261120 METAR COR EGLL 261120Z 04009KT 360V090 9999 FEW025 BKN027
                        09/04 Q1012 NOSIG=
201210261050 METAR COR EGLL 261050Z 04009KT 010V080 9999 -DZ BKN022 09/05
                        Q1012 NOSIG=
201210261020 METAR COR EGLL 261020Z 05009KT 010V070 9999 FEW023 BKN026
                        08/05 Q1013 NOSIG=
201210260950 METAR COR EGLL 260950Z 05009KT 9999 BKN027 08/05 Q1013 NOSIG=
201210260920 METAR COR EGLL 260920Z 05010KT 010V070 9999 -DZ BKN028 08/05
                        Q1013 NOSIG=
201210260850 METAR COR EGLL 260850Z 05009KT 010V080 9999 -DZ BKN026 08/05
                        Q1013 NOSIG=
201210260820 METAR COR EGLL 260820Z 05009KT 010V080 9999 -DZ SCT024 SCT029
                        08/05 Q1013 NOSIG=
201210260750 METAR COR EGLL 260750Z 05010KT 010V070 9999 -DZ BKN021 08/05
                        Q1013 NOSIG=
201210260720 METAR COR EGLL 260720Z 05009KT 010V080 9999 BKN022 09/04
                        Q1013 NOSIG=
201210260650 METAR COR EGLL 260650Z 05011KT 010V080 9999 BKN022 09/05
                        Q1013 NOSIG=
201210260620 METAR COR EGLL 260620Z 05010G20KT 9999 BKN020 09/05 Q1013
                        NOSIG=
201210260550 METAR COR EGLL 260550Z 05009KT 9999 BKN017 09/05 Q1013 NOSIG=
201210260520 METAR COR EGLL 260520Z 06010KT 9999 BKN018 09/05 Q1013 NOSIG=
201210260450 METAR COR EGLL 260450Z 06012KT 9999 BKN016 09/06 Q1014 NOSIG=
201210260420 METAR COR EGLL 260420Z 05010KT 010V080 9999 BKN015 09/06
                        Q1014 NOSIG=
201210260350 METAR COR EGLL 260350Z 06009KT 9999 FEW015 BKN034 09/06 Q1014
                        NOSIG=
201210260320 METAR COR EGLL 260320Z 06009KT 010V080 9999 BKN030 09/05
                        Q1014 NOSIG=
201210260250 METAR EGLL 260250Z AUTO 05009KT 360V080 9999 BKN033/// 09/05
                        Q1014=
201210260220 METAR EGLL 260220Z AUTO 06010KT 9999 FEW036/// 09/05 Q1015=
201210260150 METAR EGLL 260150Z AUTO 06011KT 9999 FEW032/// 09/05 Q1015=
201210260120 METAR COR EGLL 260120Z 05009KT CAVOK 09/05 Q1015 NOSIG=
201210260050 METAR COR EGLL 260050Z 06011KT CAVOK 10/05 Q1015 NOSIG=
201210260020 METAR COR EGLL 260020Z 05011KT 010V080 9999 SCT035 10/05
                        Q1015 NOSIG=
201210252350 METAR COR EGLL 252350Z 06012G22KT 9999 BKN029 10/06 Q1015
                        NOSIG=
201210252320 METAR COR EGLL 252320Z 06010KT 9999 FEW019 OVC030 10/06 Q1015
                        NOSIG=
201210252250 METAR COR EGLL 252250Z 06012KT 020V080 9999 BKN018 10/06
                        Q1016 NOSIG=
201210252220 METAR COR EGLL 252220Z 06010KT 020V080 9999 BKN018 10/06
                        Q1016 NOSIG=
201210252150 METAR COR EGLL 252150Z 06010KT 9999 FEW019 BKN023 BKN036
                        10/07 Q1016 NOSIG=
201210252120 METAR COR EGLL 252120Z 06010KT 020V100 9999 FEW018 SCT035
                        BKN045 10/07 Q1016 NOSIG=
201210252050 METAR COR EGLL 252050Z 06012KT 9999 FEW016 SCT045 10/07 Q1016
                        NOSIG=
201210252020 METAR COR EGLL 252020Z 06013KT 030V100 9999 SCT014 SCT036
                        10/07 Q1016 NOSIG=
201210251950 METAR COR EGLL 251950Z 06012KT 9999 SCT013 SCT033 10/07 Q1016
                        NOSIG=
201210251920 METAR COR EGLL 251920Z 06012KT 9999 FEW013 BKN017 11/08 Q1016
                        NOSIG=
201210251850 METAR COR EGLL 251850Z 06012KT 9999 BKN013 11/08 Q1016 NOSIG=
201210251820 METAR COR EGLL 251820Z 06013KT 9999 BKN013 11/08 Q1016 NOSIG=
201210251750 METAR COR EGLL 251750Z 06011KT 9999 BKN013 11/09 Q1016 NOSIG=
201210251720 METAR COR EGLL 251720Z 06011KT 020V080 9999 BKN018 12/09
                        Q1015 TEMPO BKN014=
201210251650 METAR COR EGLL 251650Z 06011KT 9999 BKN018 12/09 Q1015 TEMPO
                        BKN014=
201210251620 METAR COR EGLL 251620Z 06011KT 9999 SCT022 SCT039 12/09 Q1015
                        NOSIG=
201210251550 METAR COR EGLL 251550Z 06011KT 9999 BKN021 12/09 Q1015 NOSIG=
201210251520 METAR COR EGLL 251520Z 06010KT 9999 BKN017 12/09 Q1015 NOSIG=
201210251450 METAR COR EGLL 251450Z 06011KT 9999 BKN015 12/10 Q1015 NOSIG=
201210251420 METAR COR EGLL 251420Z 06011KT 9999 BKN015 13/10 Q1015 NOSIG=
201210251350 METAR COR EGLL 251350Z 06012KT 030V090 9999 SCT012 BKN015
                        13/11 Q1015 NOSIG=
201210251320 METAR COR EGLL 251320Z 06010KT 9999 FEW008 BKN012 13/11 Q1015
                        BECMG SCT012 BKN015=
201210251250 METAR COR EGLL 251250Z 06008KT 9999 FEW006 SCT007 BKN008
                        12/11 Q1016 BECMG SCT008 BKN014=
201210251220 METAR COR EGLL 251220Z 06008KT 5000 -DZ FEW005 SCT006 BKN007
                        12/11 Q1016 BECMG BKN010=
201210251150 METAR COR EGLL 251150Z 06008KT 6000 FEW005 SCT006 BKN007
                        12/11 Q1016 BECMG 9999 BKN010=
201210251120 METAR COR EGLL 251120Z 06008KT 4200 BR SCT005 BKN006 12/11
                        Q1016 BECMG 9999 NSW BKN010=
201210251050 METAR COR EGLL 251050Z 06010KT 3500 -DZ BR BKN005 12/12 Q1017
                        BECMG 9999 NSW BKN010=
201210251020 METAR COR EGLL 251020Z 06009KT 3500 -DZ BR SCT005 BKN008
                        12/12 Q1017 BECMG 9999 NSW BKN010=
201210250950 METAR COR EGLL 250950Z 06010KT 3200 -DZ BR FEW005 SCT007
                        BKN008 12/12 Q1017 BECMG 9999 NSW
                        BKN010=
201210250920 METAR COR EGLL 250920Z 06009KT 2700 -DZ BR FEW004 BKN006
                        13/12 Q1017 BECMG 9999 NSW BKN010=
201210250850 METAR COR EGLL 250850Z 06007KT 3000 -DZ FEW004 SCT006 BKN008
                        13/12 Q1017 BECMG 9999 BKN010=
201210250820 METAR COR EGLL 250820Z 07010KT 8000 FEW008 BKN010 13/12 Q1017
                        TEMPO -DZ BKN008=
201210250750 METAR COR EGLL 250750Z 07009KT 9000 SCT009 BKN012 13/12 Q1017
                        TEMPO BKN009=
201210250720 METAR COR EGLL 250720Z 07009KT 5000 BR BKN007 13/12 Q1017
                        BECMG SCT008 BKN010=
201210250650 METAR COR EGLL 250650Z 07009KT 3000 -DZ BR BKN005 13/12 Q1017
                        BECMG 5000 HZ=
201210250620 METAR COR EGLL 250620Z 07007KT 3800 BR BKN005 13/12 Q1017
                        BECMG 5000=
201210250550 METAR COR EGLL 250550Z 07009KT 4000 BR BKN005 13/12 Q1017
                        BECMG 5000=
201210250520 METAR COR EGLL 250520Z 07009KT 4000 BR BKN005 13/12 Q1017
                        BECMG 5000=
201210250450 METAR COR EGLL 250450Z 07009KT 4000 BR SCT005 BKN006 13/12
                        Q1017 NOSIG=
201210250420 METAR EGLL 250420Z NIL=
201210250350 METAR COR EGLL 250350Z 07009KT 2500 BR BKN004 BKN005 13/12
                        Q1017 BECMG BKN005=
201210250320 METAR COR EGLL 250320Z 07010KT 2000 BR BKN004 BKN006 13/12
                        Q1017 BECMG BKN006=
201210250250 METAR EGLL 250250Z AUTO 07009KT 020V090 1700 BR OVC003///
                        13/12 Q1017=
201210250220 METAR COR EGLL 250220Z 06011KT 3800 BR SCT004 SCT007 13/13
                        Q1017 NOSIG=
201210250150 METAR COR EGLL 250150Z 07009KT 4200 HZ BKN006 13/13 Q1017
                        NOSIG=
201210250120 METAR EGLL 250120Z AUTO 07009KT 5000 BKN005/// 14/13 Q1017=
201210250050 METAR EGLL 250050Z AUTO 07009KT 4300 HZ BKN005/// 14/13 Q1017=
201210250020 METAR EGLL 250020Z AUTO 07009KT 5000 BKN005/// 14/13 Q1017=
201210242350 METAR COR EGLL 242350Z 08010KT 4200 HZ SCT006 BKN009 14/13
                        Q1018 NOSIG=
201210242320 METAR COR EGLL 242320Z 07008KT 4300 HZ SCT006 BKN009 14/13
                        Q1018 NOSIG=
201210242250 METAR COR EGLL 242250Z 07009KT 3000 HZ OVC005 14/13 Q1018
                        NOSIG=
201210242220 METAR COR EGLL 242220Z 07006KT 3800 HZ BKN008 14/13 Q1018
                        TEMPO BKN010=
201210242150 METAR COR EGLL 242150Z 08011KT 3500 HZ BKN010 14/12 Q1018
                        BECMG BKN008=
201210242120 METAR COR EGLL 242120Z 07008KT 3500 HZ OVC011 14/12 Q1018
                        NOSIG=
201210242050 METAR COR EGLL 242050Z 07008KT 3300 HZ BKN012 14/12 Q1018
                        NOSIG=
201210242020 METAR COR EGLL 242020Z 07007KT 3400 HZ BKN012 14/12 Q1018
                        NOSIG=
201210241950 METAR COR EGLL 241950Z 07009KT 3700 HZ BKN012 14/12 Q1018=
201210241920 METAR COR EGLL 241920Z 07009KT 3600 HZ OVC012 14/12 Q1018
                        NOSIG=
201210241850 METAR COR EGLL 241850Z 07009KT 3800 HZ FEW013 14/12 Q1018
                        BECMG BKN012=
201210241820 METAR COR EGLL 241820Z 06008KT 4200 HZ NSC 14/11 Q1018 NOSIG=
201210241750 METAR COR EGLL 241750Z 07007KT 4000 HZ NSC 14/11 Q1017 NOSIG=
201210241720 METAR COR EGLL 241720Z 08006KT 4000 HZ NSC 14/11 Q1017 NOSIG=
201210241650 METAR COR EGLL 241650Z 07008KT 5000 HZ NSC 15/12 Q1017 BECMG
                        4000=
201210241620 METAR COR EGLL 241620Z 06009KT 4500 HZ NSC 15/12 Q1017 NOSIG=
201210241550 METAR COR EGLL 241550Z 06009KT 4500 HZ SCT016 16/13 Q1017
                        NOSIG=
201210241520 METAR COR EGLL 241520Z 07008KT 4500 HZ FEW016 16/13 Q1018
                        NOSIG=
201210241450 METAR COR EGLL 241450Z 06009KT 5000 HZ FEW016 16/13 Q1018
                        NOSIG=
201210241420 METAR COR EGLL 241420Z 08009KT 5000 HZ FEW018 16/13 Q1018
                        NOSIG=
201210241350 METAR COR EGLL 241350Z 08011KT 3500 HZ FEW013 SCT016 16/13
                        Q1018 NOSIG=
201210241320 METAR COR EGLL 241320Z 08010KT 3100 HZ SCT013 SCT015 16/13
                        Q1019 NOSIG=
201210241250 METAR COR EGLL 241250Z 06010KT 3500 HZ SCT012 BKN014 16/13
                        Q1019 TEMPO SCT013 BKN015=
201210241220 METAR COR EGLL 241220Z 07010KT 030V090 2800 HZ OVC012 15/13
                        Q1019 NOSIG=
201210241150 METAR COR EGLL 241150Z 07008KT 2800 HZ OVC011 15/13 Q1019
                        NOSIG=
201210241120 METAR COR EGLL 241120Z 07008KT 3000 HZ OVC011 15/13 Q1020
                        NOSIG=
201210241050 METAR COR EGLL 241050Z 06008KT 040V100 3200 HZ BKN011 15/13
                        Q1020 NOSIG=
201210241020 METAR COR EGLL 241020Z 06007KT 2900 HZ FEW009 BKN010 15/13
                        Q1020 TEMPO BKN009=
201210240950 METAR COR EGLL 240950Z 06008KT 3200 HZ FEW007 BKN008 14/13
                        Q1020 NOSIG=
201210240920 METAR COR EGLL 240920Z 06006KT 3000 HZ SCT006 BKN008 14/13
                        Q1020 NOSIG=
201210240850 METAR COR EGLL 240850Z 06006KT 3000 HZ SCT005 BKN007 14/13
                        Q1020 NOSIG=
201210240820 METAR COR EGLL 240820Z 06006KT 2000 BR SCT003 BKN005 13/13
                        Q1020 TEMPO BKN004=
201210240750 METAR COR EGLL 240750Z 06006KT 1800 -DZ BR FEW002 BKN004
                        13/13 Q1020 NOSIG=
201210240720 METAR COR EGLL 240720Z 06006KT 020V090 1800 -DZ BR FEW002
                        BKN004 13/12 Q1020 NOSIG=
201210240650 METAR COR EGLL 240650Z 05006KT 1800 BR SCT002 BKN004 13/12
                        Q1020 NOSIG=
201210240620 METAR COR EGLL 240620Z 05007KT 010V070 1900 BR SCT002 BKN003
                        13/12 Q1020 NOSIG=
201210240550 METAR COR EGLL 240550Z 04005KT 1900 BR BKN003 13/12 Q1020
                        NOSIG=
201210240520 METAR COR EGLL 240520Z 05006KT 020V080 2400 BR SCT003 BKN004
                        13/12 Q1020 BECMG SCT004 BKN006=
201210240450 METAR COR EGLL 240450Z 04005KT 360V080 2600 BR BKN004 13/12
                        Q1020 BECMG 3500 SCT004 BKN007=
201210240420 METAR COR EGLL 240420Z 03005KT 340V070 2600 BR BKN004 13/12
                        Q1020 BECMG 3500 SCT004 BKN007=
201210240350 METAR COR EGLL 240350Z 03005KT 340V080 2600 BR SCT005 BKN007
                        13/12 Q1021 TEMPO BKN004=
201210240320 METAR COR EGLL 240320Z 02004KT 350V070 2600 BR FEW004 SCT006
                        BKN009 13/12 Q1021 TEMPO BKN004=
201210240250 METAR COR EGLL 240250Z 04004KT 2000 BR FEW003 BKN006 13/13
                        Q1021 TEMPO BKN004=
201210240220 METAR COR EGLL 240220Z 04004KT 350V070 1800 -DZ FEW002 SCT003
                        BKN004 13/13 Q1021 TEMPO 3000 BKN005=
201210240150 METAR COR EGLL 240150Z VRB03KT 1800 -DZ SCT002 BKN003 13/13
                        Q1022 TEMPO 3200 BKN005=
201210240120 METAR EGLL 240120Z AUTO 03004KT 360V060 1200 R09L/P1500 BR
                        OVC002/// 13/13 Q1022=
201210240050 METAR EGLL 240050Z AUTO 02004KT 340V050 1200 R09L/P1500 BR
                        BKN002/// 13/13 Q1022=
201210240020 METAR EGLL 240020Z AUTO 36003KT 1100 R09L/P1500 BR OVC001///
                        13/12 Q1022=
201210232350 METAR COR EGLL 232350Z 36003KT 1700 BR SCT002 BKN004 13/12
                        Q1023 NOSIG=
201210232320 METAR COR EGLL 232320Z 36004KT 330V040 2500 BR BKN004 BKN011
                        13/12 Q1023 NOSIG=
201210232250 METAR COR EGLL 232250Z 01004KT 340V040 3200 HZ BKN005 BKN009
                        13/12 Q1023 NOSIG=
201210232220 METAR COR EGLL 232220Z VRB03KT 3400 HZ SCT005 BKN011 13/12
                        Q1023 TEMPO BKN005=
201210232150 METAR COR EGLL 232150Z VRB03KT 3600 HZ SCT004 BKN009 13/12
                        Q1023 TEMPO 2800 BKN004 OVC007=
201210232120 METAR COR EGLL 232120Z 05005KT 010V080 3400 HZ BKN005 BKN007
                        13/12 Q1024 TEMPO 2800 BKN004 OVC006=
201210232050 METAR COR EGLL 232050Z 05005KT 020V080 3500 HZ SCT004 BKN005
                        13/12 Q1024 TEMPO 2800 BKN004=
201210232020 METAR COR EGLL 232020Z 05006KT 020V090 3200 HZ BKN004 BKN006
                        13/12 Q1024 TEMPO 2800 SCT004 BKN006=
201210231950 METAR COR EGLL 231950Z 03005KT 340V060 3000 HZ BKN004 OVC005
                        13/12 Q1024 TEMPO SCT004 OVC005=
201210231920 METAR COR EGLL 231920Z 03004KT 350V060 3000 HZ BKN005 SCT006
                        13/12 Q1024 TEMPO BKN004=
201210231850 METAR COR EGLL 231850Z 03005KT 3000 HZ FEW004 OVC005 13/12
                        Q1024 TEMPO BKN004=
201210231820 METAR COR EGLL 231820Z 03005KT 350V090 3000 HZ FEW004 BKN005
                        BKN006 13/12 Q1024 NOSIG=
201210231750 METAR COR EGLL 231750Z 05005KT 360V080 3200 HZ FEW004 BKN005
                        BKN006 13/12 Q1024 NOSIG=
201210231720 METAR COR EGLL 231720Z 03005KT 340V060 3200 HZ SCT005 BKN006
                        14/13 Q1023 NOSIG=
201210231650 METAR EGLL 231650Z 02004KT 350V060 3500 HZ FEW004 OVC005
                        14/13 Q1023=
201210231620 METAR COR EGLL 231620Z 04005KT 350V090 3500 HZ FEW004 OVC005
                        14/12 Q1023 NOSIG=
201210231550 METAR COR EGLL 231550Z 03006KT 3500 HZ SCT005 BKN006 13/12
                        Q1023 NOSIG=
201210231520 METAR COR EGLL 231520Z 03004KT 340V070 3600 HZ SCT005 BKN006
                        13/12 Q1024 NOSIG=
201210231450 METAR COR EGLL 231450Z 03005KT 350V070 3700 BR FEW004 BKN005
                        13/12 Q1024 NOSIG=
201210231420 METAR COR EGLL 231420Z 36005KT 330V040 3800 BR SCT004 BKN005
                        13/12 Q1024 NOSIG=
201210231350 METAR COR EGLL 231350Z 01004KT 330V050 4000 HZ SCT004 BKN005
                        13/12 Q1024 NOSIG=
201210231320 METAR COR EGLL 231320Z VRB03KT 5000 HZ SCT004 BKN005 13/12
                        Q1024 NOSIG=
201210231250 METAR COR EGLL 231250Z 02004KT 330V060 3600 BR FEW004 BKN005
                        13/12 Q1024 NOSIG=
201210231220 METAR COR EGLL 231220Z 01004KT 330V060 3500 BR FEW003 BKN005
                        13/12 Q1024 NOSIG=
201210231150 METAR COR EGLL 231150Z VRB03KT 2800 BR FEW002 BKN005 12/12
                        Q1025 NOSIG=
201210231120 METAR COR EGLL 231120Z VRB03KT 1600 -DZ FEW002 BKN004 12/12
                        Q1025 BECMG BKN005=
201210231050 METAR COR EGLL 231050Z 34004KT 290V010 2500 BR FEW002 BKN003
                        BKN004 12/12 Q1025 BECMG BKN005=
201210231020 METAR COR EGLL 231020Z 35004KT 310V040 2700 BR FEW002 BKN003
                        12/12 Q1024 NOSIG=
201210230950 METAR COR EGLL 230950Z 01004KT 330V050 2500 BR FEW001 BKN003
                        12/12 Q1024 NOSIG=
201210230920 METAR COR EGLL 230920Z 36004KT 320V020 2500 BR FEW001 SCT002
                        BKN003 12/12 Q1024 NOSIG=
201210230850 METAR COR EGLL 230850Z 06004KT 1700 BR FEW001 SCT002 BKN003
                        12/12 Q1024 NOSIG=
201210230820 METAR COR EGLL 230820Z 02004KT 340V070 1700 BR FEW001 SCT002
                        BKN003 12/12 Q1024 NOSIG=
201210230750 METAR COR EGLL 230750Z 06004KT 020V080 1500 BR FEW001 SCT002
                        BKN003 12/12 Q1024 NOSIG=
201210230720 METAR COR EGLL 230720Z VRB03KT 1400 BR FEW001 BKN002 BKN003
                        12/12 Q1024 BECMG 1600=
201210230650 METAR EGLL 230650Z 36004KT 330V040 1800 BR FEW001 BKN002
                        12/12 Q1024=
201210230620 METAR COR EGLL 230620Z 02004KT 340V060 2000 BR SCT001 BKN002
                        12/12 Q1024 TEMPO BKN001=
201210230550 METAR COR EGLL 230550Z VRB03KT 1900 BR FEW001 BKN002 BKN003
                        13/12 Q1023 TEMPO BKN001=
201210230520 METAR COR EGLL 230520Z 03004KT 350V060 2200 BR SCT001 BKN002
                        13/12 Q1023 TEMPO BKN001=
201210230450 METAR COR EGLL 230450Z 04004KT 010V080 2300 BR SCT001 BKN002
                        13/13 Q1023 TEMPO BKN001=
201210230420 METAR COR EGLL 230420Z 03004KT 350V070 2700 BR SCT002 BKN003
                        13/13 Q1023 TEMPO SCT001 BKN002=
201210230350 METAR COR EGLL 230350Z 06004KT 3000 BR SCT001 BKN002 13/13
                        Q1023 TEMPO SCT002 BKN003=
201210230320 METAR COR EGLL 230320Z 03004KT 360V070 3000 BR SCT002 BKN003
                        13/13 Q1023 TEMPO 1800 SCT001 BKN002=
201210230250 METAR COR EGLL 230250Z 02004KT 340V050 2900 BR SCT001 BKN002
                        14/13 Q1023 TEMPO SCT002 BKN003=
201210230220 METAR COR EGLL 230220Z VRB03KT 2800 BR SCT002 BKN003 14/13
                        Q1023 TEMPO SCT001 BKN002=
201210230150 METAR COR EGLL 230150Z 04004KT 2400 BR SCT002 BKN004 14/13
                        Q1023 TEMPO SCT001 BKN002=
201210230120 METAR EGLL 230120Z AUTO 01003KT 1800 BR BKN002/// 14/13 Q1023=
201210230050 METAR EGLL 230050Z AUTO VRB03KT 2500 BR OVC002/// 14/13 Q1023=
201210230020 METAR EGLL 230020Z AUTO 05004KT 1700 BR OVC001/// 14/13 Q1023=
201210222350 METAR COR EGLL 222350Z 06004KT 020V090 1800 -DZ SCT001 BKN002
                        14/14 Q1023 TEMPO 3000 BR SCT002
                        BKN004=
201210222320 METAR COR EGLL 222320Z 06005KT 1800 -DZ SCT001 BKN002 14/14
                        Q1023 NOSIG=
201210222250 METAR COR EGLL 222250Z 06005KT 020V080 2300 BR SCT002 BKN003
                        14/14 Q1023 BECMG BKN002=
201210222220 METAR COR EGLL 222220Z 05004KT 020V090 2500 BR BKN002 BKN003
                        14/14 Q1023 TEMPO SCT002 BKN004=
201210222150 METAR COR EGLL 222150Z 08005KT 3500 BR BKN003 BKN005 15/14
                        Q1023 BECMG 2500=
201210222120 METAR COR EGLL 222120Z 07005KT 3500 BR SCT003 BKN004 BKN005
                        15/14 Q1023 BECMG 2500=
201210222050 METAR COR EGLL 222050Z 08005KT 3500 BR SCT003 BKN004 BKN005
                        15/14 Q1023 NOSIG=
201210222020 METAR COR EGLL 222020Z 07004KT 040V100 3500 BR SCT003 BKN005
                        15/14 Q1023 BECMG 2200 BKN003=
201210221950 METAR COR EGLL 221950Z 07005KT 3000 BR FEW002 SCT004 BKN006
                        15/14 Q1022 BECMG 2500 BKN003=
201210221920 METAR COR EGLL 221920Z 06004KT 2500 BR FEW002 BKN004 BKN006
                        15/14 Q1022 NOSIG=
201210221850 METAR COR EGLL 221850Z 04005KT 2000 BR FEW001 SCT002 BKN003
                        15/14 Q1022 NOSIG=
201210221820 METAR COR EGLL 221820Z VRB03KT 1900 BR FEW002 SCT003 BKN005
                        15/14 Q1022 TEMPO BKN003=
201210221750 METAR COR EGLL 221750Z VRB03KT 1500 BR FEW002 BKN003 BKN004
                        15/14 Q1022 NOSIG=
201210221720 METAR COR EGLL 221720Z 05004KT 1500 BR FEW002 BKN003 BKN004
                        15/14 Q1022 NOSIG=
201210221650 METAR COR EGLL 221650Z 06004KT 030V100 1500 BR FEW002 BKN003
                        BKN004 15/14 Q1021 NOSIG=
201210221620 METAR COR EGLL 221620Z 06004KT 1500 BR FEW002 BKN003 BKN004
                        15/14 Q1021 NOSIG=
201210221550 METAR COR EGLL 221550Z 05004KT 020V090 1500 BR FEW002 BKN003
                        BKN004 15/14 Q1021 TEMPO 1200=
201210221520 METAR COR EGLL 221520Z 06005KT 1700 BR FEW002 BKN003 BKN004
                        15/14 Q1021 NOSIG=
201210221450 METAR COR EGLL 221450Z 06005KT 1600 BR FEW002 SCT003 BKN005
                        15/14 Q1021 BECMG BKN004=
201210221420 METAR COR EGLL 221420Z 06005KT 1600 BR FEW002 BKN003 BKN004
                        15/14 Q1021 NOSIG=
201210221350 METAR COR EGLL 221350Z 06005KT 030V090 1900 BR FEW002 BKN003
                        BKN004 15/14 Q1020 NOSIG=
201210221320 METAR COR EGLL 221320Z 06006KT 1900 BR FEW002 BKN003 BKN004
                        15/14 Q1020 NOSIG=
201210221250 METAR COR EGLL 221250Z 07005KT 040V100 1700 BR FEW002 BKN003
                        BKN004 14/14 Q1020 NOSIG=
201210221220 METAR COR EGLL 221220Z 06005KT 1400 BR FEW001 SCT002 BKN003
                        14/14 Q1020 BECMG 1800=
201210221150 METAR COR EGLL 221150Z 07006KT 1800 BR FEW002 SCT003 BKN004
                        14/14 Q1020 NOSIG=
201210221120 METAR COR EGLL 221120Z 05005KT 2000 BR FEW002 SCT003 BKN004
                        14/14 Q1020 BECMG BKN005=
201210221050 METAR COR EGLL 221050Z 06005KT 1400 R09L/P1500 R09R/P1500
                        BR SCT002 BKN003 14/14 Q1020 BECMG
                        1800=
201210221020 METAR COR EGLL 221020Z 06004KT 020V080 1500 BR FEW001 BKN002
                        14/14 Q1020 NOSIG=
201210220950 METAR COR EGLL 220950Z 06005KT 1600 BR FEW001 SCT002 BKN003
                        14/14 Q1020 NOSIG=
201210220920 METAR COR EGLL 220920Z 06005KT 1400 R09L/P1500 R09R/P1500
                        BR SCT001 BKN002 14/13 Q1020 BECMG
                        1800 SCT002 BKN003=
201210220850 METAR COR EGLL 220850Z 06005KT 0900 R09L/P1500 R09R/P1500
                        FG OVC001 14/13 Q1020 BECMG 1500
                        BR BKN003=
201210220820 METAR COR EGLL 220820Z 04005KT 010V080 1100 R09L/P1500 R09R/P1500
                        BR OVC001 13/13 Q1019 TEMPO 0600
                        FG=
201210220750 METAR COR EGLL 220750Z 06005KT 1200 R09L/P1500 R09R/P1500
                        BR BKN001 BKN002 13/13 Q1019 TEMPO
                        0800 FG=
201210220720 METAR COR EGLL 220720Z 05004KT 010V070 1400 BR BKN001 BKN002
                        13/13 Q1019 TEMPO 0800 FG=
201210220650 METAR COR EGLL 220650Z 05004KT 010V080 1600 BR BKN001 BKN002
                        13/12 Q1019 TEMPO 0800 FG=
201210220620 METAR COR EGLL 220620Z 04005KT 020V080 1400 R09L/P1500 R09R/P1500
                        BR BKN002 BKN003 13/12 Q1018 TEMPO
                        0700 FG=
201210220550 METAR COR EGLL 220550Z 06005KT 1100 R09L/P1500 R09R/P1500
                        BR BKN001 BKN002 13/12 Q1018 TEMPO
                        0700 FG=
201210220520 METAR COR EGLL 220520Z 04004KT 360V080 1100 R09L/P1500 R09R/P1500
                        BR BKN001 BKN002 12/12 Q1018 TEMPO
                        0700 FG=
201210220450 METAR COR EGLL 220450Z 05004KT 010V090 1100 R09R/P1500 BR
                        SCT001 BKN002 12/12 Q1018 TEMPO 0700
                        FG BKN001=
201210220420 METAR COR EGLL 220420Z 05005KT 0900 R09R/P1500 -DZ FG BKN001
                        12/12 Q1018 TEMPO SCT001 BKN003=
201210220350 METAR COR EGLL 220350Z 04005KT 360V070 0400 R09R/1100 -DZ
                        FG BKN001 12/12 Q1018 TEMPO 0300=
201210220320 METAR COR EGLL 220320Z 06005KT 0550 R09R/1100 -DZ FG BKN001
                        12/12 Q1018 TEMPO 0300=
201210220250 METAR COR EGLL 220250Z 05005KT 010V080 0900 R09R/1400 -DZ
                        FG BKN001 12/12 Q1018 TEMPO 0300=
201210220220 METAR COR EGLL 220220Z 05005KT 1900 -DZ BR BKN002 12/12 Q1018
                        BECMG 0800 FG BKN000=
201210220150 METAR COR EGLL 220150Z 04005KT 360V080 2500 -DZ BR BKN002
                        12/12 Q1018 BECMG 0800 FG BKN000=
201210220120 METAR EGLL 220120Z AUTO 06005KT 020V080 2600 BR BKN002///
                        12/11 Q1018=
201210220050 METAR EGLL 220050Z AUTO 03005KT 3300 BR BKN003/// 12/11 Q1017=
201210220020 METAR EGLL 220020Z AUTO 05005KT 010V100 6000 OVC003/// 12/11
                        Q1018=
201210212350 METAR COR EGLL 212350Z 05006KT 8000 BKN004 12/11 Q1017 BECMG
                        2000 BR -DZ=
201210212320 METAR COR EGLL 212320Z 04005KT 010V080 8000 BKN004 12/11
                        Q1017 BECMG 2000 BR=
201210212250 METAR COR EGLL 212250Z 05005KT 4000 -DZ BR BKN003 12/11 Q1018
                        TEMPO 1200 DZ VCFG BKN001=
201210212220 METAR COR EGLL 212220Z 04005KT 4000 -DZ BR BKN004 12/11 Q1018
                        TEMPO 1200 DZ VCFG BKN001=
201210212150 METAR COR EGLL 212150Z 04006KT 010V070 4800 -DZ BR BKN004
                        12/11 Q1018 BECMG 2000=
201210212120 METAR COR EGLL 212120Z 03006KT 360V060 5000 -DZ BR BKN005
                        12/11 Q1018 BECMG 2000 BKN003=
201210212050 METAR COR EGLL 212050Z 04006KT 5000 -DZ BKN005 12/11 Q1018
                        BECMG 2500 BKN003=
201210212020 METAR COR EGLL 212020Z 05008KT 010V070 5000 -DZ BKN005 12/11
                        Q1018 BECMG 2000 BKN003=
201210211950 METAR COR EGLL 211950Z 05008KT 020V080 5000 -DZ SCT005 BKN010
                        11/11 Q1018 BECMG 3500 BKN004=
201210211920 METAR COR EGLL 211920Z 05006KT 4000 DZ BKN005 BKN009 11/11
                        Q1018 BECMG BKN004=
201210211850 METAR COR EGLL 211850Z 05008KT 020V080 6000 -DZ SCT006 BKN009
                        11/11 Q1018 BECMG 3500 BKN004=
201210211820 METAR EGLL 211820Z 04007KT 010V080 6000 -DZ SCT006 BKN010
                        12/11 Q1018 BECMG 3500 BKN004=
201210211750 METAR COR EGLL 211750Z 04007KT 5000 -DZ SCT005 BKN010 12/11
                        Q1018 TEMPO 2500 DZ BKN004=
201210211720 METAR COR EGLL 211720Z 04007KT 020V080 6000 DZ SCT006 BKN009
                        12/11 Q1017 TEMPO 4000=
201210211650 METAR COR EGLL 211650Z 04007KT 5000 DZ SCT006 BKN007 12/11
                        Q1017 TEMPO 4000=
201210211620 METAR COR EGLL 211620Z 04008KT 360V070 5000 DZ FEW006 BKN009
                        BKN013 12/11 Q1017 TEMPO 3500=
201210211550 METAR COR EGLL 211550Z 06009KT 5000 DZ BKN009 BKN015 12/11
                        Q1017 TEMPO 3500=
201210211520 METAR COR EGLL 211520Z 05008KT 010V080 9999 -RA BKN011 12/11
                        Q1017 BECMG 4500 -RADZ BKN007=
201210211450 METAR COR EGLL 211450Z 04008KT 010V070 9999 BKN011 12/10
                        Q1017 BECMG BKN008=
201210211420 METAR COR EGLL 211420Z 04008KT 9999 BKN011 12/10 Q1017 BECMG
                        BKN008=
201210211350 METAR COR EGLL 211350Z 05007KT 010V070 9999 BKN010 12/10
                        Q1017 BECMG BKN008=
201210211320 METAR COR EGLL 211320Z 04008KT 360V080 9999 VCSH BKN010 12/10
                        Q1017 BECMG BKN008=
201210211250 METAR COR EGLL 211250Z 05008KT 010V080 9999 VCSH FEW010 BKN012
                        12/10 Q1018 NOSIG=
201210211220 METAR COR EGLL 211220Z 05007KT 360V070 9999 -RA FEW010 BKN013
                        12/10 Q1018 NOSIG=
201210211150 METAR COR EGLL 211150Z 04008KT 360V080 9999 FEW010 BKN012
                        12/10 Q1018 NOSIG=
201210211120 METAR COR EGLL 211120Z 04007KT 9999 SCT010 SCT012 12/10 Q1019
                        BECMG BKN012=
201210211050 METAR COR EGLL 211050Z 05007KT 9999 BKN010 12/10 Q1019 NOSIG=
201210211020 METAR COR EGLL 211020Z 04008KT 360V070 9999 BKN010 11/10
                        Q1019 TEMPO SCT010=
201210210950 METAR COR EGLL 210950Z 04006KT 010V080 9999 BKN010 11/09
                        Q1019 TEMPO SCT011=
201210210920 METAR COR EGLL 210920Z 05005KT 350V090 9999 BKN011 11/09
                        Q1019 TEMPO SCT012=
201210210850 METAR COR EGLL 210850Z 04006KT 9999 FEW010 11/09 Q1019 TEMPO
                        BKN010=
201210210820 METAR COR EGLL 210820Z 04006KT 010V070 9999 FEW010 10/09
                        Q1019 TEMPO BKN010=
201210210750 METAR COR EGLL 210750Z 04005KT 010V070 9999 FEW034 10/09
                        Q1019 TEMPO BKN010=
201210210720 METAR COR EGLL 210720Z 03004KT 350V060 9999 FEW035 10/09
                        Q1019 TEMPO BKN012=
201210210650 METAR COR EGLL 210650Z 02004KT 9999 FEW035 10/09 Q1019 TEMPO
                        BKN012=
201210210620 METAR COR EGLL 210620Z VRB03KT 9999 FEW034 10/09 Q1019 NOSIG=
201210210550 METAR COR EGLL 210550Z 03004KT 350V060 CAVOK 10/09 Q1018
                        NOSIG=
201210210520 METAR COR EGLL 210520Z 04004KT 010V070 9999 FEW013 10/09
                        Q1018 NOSIG=
201210210450 METAR COR EGLL 210450Z 04004KT CAVOK 10/09 Q1018 NOSIG=
201210210420 METAR COR EGLL 210420Z 04004KT CAVOK 10/09 Q1018 NOSIG=
201210210350 METAR COR EGLL 210350Z 05005KT 9999 FEW009 10/09 Q1018 NOSIG=
201210210320 METAR COR EGLL 210320Z 05004KT 9999 FEW008 10/09 Q1018 NOSIG=
201210210250 METAR COR EGLL 210250Z 05004KT 020V090 9999 SCT009 11/09
                        Q1018 NOSIG=
201210210220 METAR COR EGLL 210220Z 06004KT 9999 SCT009 11/09 Q1017 NOSIG=
201210210150 METAR COR EGLL 210150Z 06006KT 9999 FEW006 SCT010 11/10 Q1018
                        TEMPO SCT006 BKN010=
201210210120 METAR EGLL 210120Z AUTO 07004KT 030V090 9999 NCD 10/09 Q1018=
201210210050 METAR EGLL 210050Z AUTO 08006KT 9999 FEW010/// 11/10 Q1018=
201210210020 METAR EGLL 210020Z AUTO 06005KT 020V080 9999 BKN009/// 11/10
                        Q1018=
201210202350 METAR COR EGLL 202350Z 06006KT 9999 -RA NSC 11/10 Q1018 RERA
                        NOSIG=
201210202320 METAR COR EGLL 202320Z 05003KT 9999 RA NSC 11/09 Q1019 BECMG
                        -RA=
201210202250 METAR COR EGLL 202250Z 00000KT 9999 RA NSC 10/09 Q1019 BECMG
                        -RA=
201210202220 METAR COR EGLL 202220Z 00000KT 9999 RA NSC 11/08 Q1019 NOSIG=
201210202150 METAR COR EGLL 202150Z 00000KT 9999 RA FEW047 11/09 Q1019
                        NOSIG=
201210202120 METAR COR EGLL 202120Z 11005KT 9000 RA FEW010 SCT046 11/09
                        Q1019 TEMPO SCT007 BKN010=
201210202050 METAR COR EGLL 202050Z 09005KT 050V130 9999 RA FEW014 SCT038
                        11/09 Q1019 TEMPO BKN012=
201210202020 METAR COR EGLL 202020Z 12005KT 090V170 9999 -RA FEW013 SCT038
                        12/11 Q1019 TEMPO RA BKN012=
201210201950 METAR COR EGLL 201950Z 13004KT 090V180 9999 -RA FEW014 12/11
                        Q1019 TEMPO RA BKN012=
201210201920 METAR COR EGLL 201920Z VRB03KT 9999 -RA FEW042 12/10 Q1018
                        TEMPO RA=
201210201850 METAR COR EGLL 201850Z 10004KT 050V140 9999 FEW044 12/10
                        Q1018 NOSIG=
201210201820 METAR COR EGLL 201820Z 13005KT 100V170 9999 FEW047 12/10
                        Q1018 NOSIG=
201210201750 METAR COR EGLL 201750Z VRB03KT 9999 SCT042 13/10 Q1018 BECMG
                        4500 RA=
201210201720 METAR COR EGLL 201720Z 14004KT 090V180 9999 BKN043 13/10
                        Q1018 NOSIG=
201210201650 METAR COR EGLL 201650Z 14005KT 110V170 9999 BKN044 13/10
                        Q1018 NOSIG=
201210201620 METAR COR EGLL 201620Z VRB03KT 9999 FEW020 13/10 Q1018 NOSIG=
201210201550 METAR COR EGLL 201550Z VRB03KT CAVOK 13/10 Q1017 NOSIG=
201210201520 METAR COR EGLL 201520Z 19004KT 140V250 9999 FEW020 14/09
                        Q1017 NOSIG=
201210201450 METAR COR EGLL 201450Z 21004KT 160V260 9999 FEW020 14/10
                        Q1017 NOSIG=
201210201420 METAR COR EGLL 201420Z VRB02KT 9999 FEW020 14/09 Q1017 NOSIG=
201210201350 METAR COR EGLL 201350Z VRB04KT 9999 FEW019 14/10 Q1017 NOSIG=
201210201320 METAR COR EGLL 201320Z 21004KT 120V260 9999 FEW016 14/10
                        Q1017 NOSIG=
201210201250 METAR COR EGLL 201250Z VRB02KT 9999 FEW016 14/10 Q1017 NOSIG=
201210201220 METAR COR EGLL 201220Z VRB02KT 9999 FEW012 13/10 Q1017 NOSIG=
201210201150 METAR COR EGLL 201150Z 25005KT 160V300 9999 FEW007 13/11
                        Q1018 NOSIG=
201210201120 METAR COR EGLL 201120Z 19004KT 110V280 9999 FEW004 12/11
                        Q1018 NOSIG=
201210201050 METAR COR EGLL 201050Z 18006KT 120V230 7000 FEW003 11/10
                        Q1018 NOSIG=
201210201020 METAR COR EGLL 201020Z 18005KT 100V250 6000 FEW003 11/10
                        Q1018 NOSIG=
201210200950 METAR COR EGLL 200950Z VRB02KT 6000 VCFG FEW001 10/10 Q1017
                        NOSIG=
201210200920 METAR COR EGLL 200920Z 30003KT 5000 1500NW BR BCFG FEW001
                        09/09 Q1017 BECMG 6000=
201210200850 METAR COR EGLL 200850Z 28005KT 240V310 5000 1500W BR BCFG
                        SCT001 09/09 Q1017 BECMG 6000=
201210200820 METAR COR EGLL 200820Z 24005KT 200V300 2000 1000W R27L/P1500
                        R27R/P1500 BCFG BKN001 09/08 Q1017
                        BECMG 4500 BR SCT003=
201210200750 METAR COR EGLL 200750Z 27004KT 210V290 3000 0400W R27L/P1500
                        R27R/P1500 BCFG BKN001 09/08 Q1016
                        BECMG 4000 BR BKN003=
201210200720 METAR COR EGLL 200720Z VRB03KT 1000 R27L/P1500 R27R/P1500
                        BCFG BKN001 08/08 Q1016 TEMPO 0700
                        FG=
201210200650 METAR COR EGLL 200650Z 24004KT 170V270 0400 R27L/P1500 R27R/P1500
                        FG BKN001 08/08 Q1015 BECMG 0900
                        VCFG BKN002=
201210200620 METAR COR EGLL 200620Z VRB03KT 0600 R27L/1000 R27R/1300 FG
                        OVC001 09/09 Q1015 TEMPO 0500 BKN000=
201210200550 METAR COR EGLL 200550Z 21005KT 180V240 0300 R27L/0900 R27R/1100
                        FG OVC001 09/09 Q1014 NOSIG=
201210200520 METAR COR EGLL 200520Z VRB03KT 0600 R27L/0550 R27R/0700 FG
                        OVC001 09/09 Q1014 NOSIG=
201210200450 METAR COR EGLL 200450Z 20004KT 0600 R27L/1400 R27R/1400 FG
                        OVC001 09/09 Q1014 NOSIG=
201210200420 METAR COR EGLL 200420Z VRB03KT 0500 R27L/0800 FG OVC001 09/09
                        Q1013 NOSIG=
201210200350 METAR COR EGLL 200350Z 28004KT 0600 R27L/0700 FG OVC001 09/09
                        Q1013 NOSIG=
201210200320 METAR COR EGLL 200320Z 28005KT 0900 FG SCT001 BKN002 10/09
                        Q1013 BECMG 0500 BKN000=
201210200250 METAR COR EGLL 200250Z 28005KT 3000 1300N BR PRFG FEW002
                        SCT003 10/09 Q1012 TEMPO 0500 FG
                        BKN001=
201210200220 METAR COR EGLL 200220Z 25005KT 8000 FEW008 10/09 Q1012 TEMPO
                        4000 BR=
201210200150 METAR COR EGLL 200150Z 26006KT 8000 FEW005 BKN036 11/10 Q1012
                        TEMPO 4000 BR BKN004=
201210200120 METAR EGLL 200120Z AUTO 26004KT 7000 BKN024/// BKN031///
                        11/10 Q1012=
201210200050 METAR EGLL 200050Z AUTO VRB03KT 7000 BKN026/// OVC031///
                        11/10 Q1011=
201210200020 METAR EGLL 200020Z AUTO 30005KT 6000 BKN005/// BKN028///
                        11/10 Q1011=
201210192350 METAR COR EGLL 192350Z 30005KT 7000 SCT005 BKN006 11/10 Q1011
                        TEMPO 4000 BR BKN004=
201210192320 METAR COR EGLL 192320Z 29009KT 7000 BKN005 11/11 Q1010 TEMPO
                        4000 BR BKN004=
201210192250 METAR COR EGLL 192250Z 29005KT 6000 FEW005 BKN006 BKN013
                        11/11 Q1010 TEMPO SCT006=
201210192220 METAR COR EGLL 192220Z 30006KT 7000 BKN005 BKN013 12/11 Q1009
                        NOSIG=
201210192150 METAR COR EGLL 192150Z 29007KT 9000 SCT005 BKN008 12/11 Q1009
                        NOSIG=
201210192120 METAR EGLL 192120Z 30004KT 270V340 9999 SCT005 BKN009 12/11
                        Q1009 TEMPO 7000 BR BKN005=
201210192050 METAR COR EGLL 192050Z 31004KT 8000 FEW002 SCT003 BKN005
                        12/11 Q1008 NOSIG=
201210192020 METAR COR EGLL 192020Z 32004KT 4600 BR FEW002 BKN003 12/11
                        Q1008 BECMG 7000 FEW004 BKN008=
201210191950 METAR COR EGLL 191950Z VRB03KT 3700 -DZ BKN002 12/11 Q1008
                        BECMG 7000 FEW003 BKN012=
201210191920 METAR COR EGLL 191920Z VRB03KT 2500 -DZ SCT002 BKN003 12/11
                        Q1008 TEMPO 7000 BKN005=
201210191850 METAR COR EGLL 191850Z 36004KT 2800 -DZ FEW002 BKN004 12/11
                        Q1008 TEMPO 7000 FEW004 BKN015=
201210191820 METAR COR EGLL 191820Z VRB03KT 4500 -DZ BKN003 BKN015 12/11
                        Q1008 TEMPO 7000 FEW003 BKN015=
201210191750 METAR COR EGLL 191750Z 36004KT 330V030 4200 RADZ BKN003 BKN016
                        12/11 Q1008 TEMPO 8000 -RADZ SCT004
                        BKN020=
201210191720 METAR COR EGLL 191720Z 01004KT 340V050 4700 -RADZ SCT003
                        BKN009 12/11 Q1007 RERA TEMPO 7000
                        SCT006 BKN012=
201210191650 METAR COR EGLL 191650Z 36004KT 320V040 3600 RADZ SCT003 BKN004
                        12/11 Q1007 BECMG 6000 -RADZ SCT004
                        BKN008=
201210191620 METAR COR EGLL 191620Z 36004KT 330V030 5000 -RADZ SCT003
                        BKN004 12/11 Q1007 RERA REDZ SCT004
                        BKN008=
201210191550 METAR COR EGLL 191550Z 03004KT 350V050 4600 RADZ SCT003 BKN004
                        12/11 Q1007 BECMG SCT004 BKN008=
201210191520 METAR COR EGLL 191520Z VRB03KT 3400 RADZ BKN004 12/11 Q1008
                        TEMPO 6000 -RADZ SCT005 BKN010=
201210191450 METAR COR EGLL 191450Z 07006KT 030V100 4100 -RADZ SCT005
                        BKN022 12/11 Q1007 TEMPO BKN004=
201210191420 METAR COR EGLL 191420Z 07004KT 020V090 7000 -RADZ FEW005
                        BKN026 12/11 Q1008 TEMPO 2500 RADZ
                        SCT004 BKN007=
201210191350 METAR COR EGLL 191350Z 10009KT 8000 -RADZ SCT004 SCT006 BKN013
                        12/11 Q1008 RERA TEMPO 4000 RADZ
                        BKN004=
201210191320 METAR COR EGLL 191320Z 10005KT 3800 RA BKN008 BKN023 13/12
                        Q1008 TEMPO 2000 RADZ BKN004=
201210191250 METAR COR EGLL 191250Z 08003KT 9999 -RA FEW010 SCT018 BKN023
                        13/11 Q1007 TEMPO RA BKN007=
201210191220 METAR COR EGLL 191220Z 07005KT 9999 -RA FEW008 SCT010 BKN030
                        13/12 Q1007 TEMPO RA BKN007=
201210191150 METAR COR EGLL 191150Z 09005KT 9999 FEW008 BKN010 BKN039
                        13/12 Q1008 TEMPO RA BKN007=
201210191120 METAR COR EGLL 191120Z 09003KT 9999 FEW006 BKN011 BKN043
                        13/12 Q1008 TEMPO RA BKN007=
201210191050 METAR COR EGLL 191050Z 13003KT 9999 FEW006 SCT008 13/12 Q1008
                        TEMPO RA BKN007=
201210191020 METAR COR EGLL 191020Z 12003KT 9999 -RA FEW006 SCT009 13/12
                        Q1008 TEMPO RA BKN007=
201210190950 METAR COR EGLL 190950Z 13005KT 9999 SCT009 SCT045 13/12 Q1008
                        TEMPO RA BKN008=
201210190920 METAR COR EGLL 190920Z 11006KT 9999 SCT011 SCT046 13/12 Q1008
                        TEMPO RA BKN010=
201210190850 METAR COR EGLL 190850Z 09004KT 9999 FEW012 SCT026 13/12 Q1008
                        TEMPO RA BKN012=
201210190820 METAR COR EGLL 190820Z 08003KT 9999 FEW013 13/12 Q1008 TEMPO
                        RA BKN012=
201210190750 METAR COR EGLL 190750Z 07003KT 9999 FEW029 SCT033 12/11 Q1008
                        TEMPO RA BKN014=
201210190720 METAR COR EGLL 190720Z 09004KT 9999 FEW029 SCT044 12/11 Q1007
                        NOSIG=
201210190650 METAR COR EGLL 190650Z 08004KT 9999 SCT020 12/11 Q1007 TEMPO
                        SCT006 BKN012=
201210190620 METAR COR EGLL 190620Z 07004KT 9999 VCSH FEW015 BKN022 13/11
                        Q1007 TEMPO BKN014=
201210190550 METAR COR EGLL 190550Z VRB03KT 9999 FEW015 BKN022 12/11 Q1007
                        TEMPO BKN014=
201210190520 METAR COR EGLL 190520Z 00000KT 9999 SCT026 12/12 Q1007 TEMPO
                        BKN014=
201210190450 METAR COR EGLL 190450Z 00000KT 9000 -RA FEW020 BKN023 12/11
                        Q1007 TEMPO BKN014=
201210190420 METAR COR EGLL 190420Z 00000KT 9000 -RA FEW020 BKN023 12/11
                        Q1007 TEMPO BKN014=
201210190350 METAR COR EGLL 190350Z 00000KT 9999 SCT022 BKN030 12/11 Q1007
                        TEMPO 7000 BKN014=
201210190320 METAR COR EGLL 190320Z 09002KT 9999 SCT022 SCT030 11/11 Q1006
                        TEMPO BKN014=
201210190250 METAR COR EGLL 190250Z 08002KT 9000 SCT021 SCT030 11/10 Q1007
                        TEMPO BKN012=
201210190220 METAR COR EGLL 190220Z 13002KT 9999 FEW022 11/10 Q1006 TEMPO
                        BKN012=
201210190150 METAR COR EGLL 190150Z VRB02KT 9999 -RA NSC 12/11 Q1007 NOSIG=
201210190120 METAR EGLL 190120Z AUTO 17003KT 9999 -RA NCD 12/11 Q1007=
201210190050 METAR EGLL 190050Z AUTO 19002KT 9999 BKN049/// 12/11 Q1007=
201210190020 METAR EGLL 190020Z AUTO 19003KT 9999 NCD 12/11 Q1006=
201210182350 METAR COR EGLL 182350Z 19003KT 9999 SCT049 12/10 Q1006 NOSIG=
201210182320 METAR COR EGLL 182320Z 21004KT 9999 BKN043 13/11 Q1006 NOSIG=
201210182250 METAR COR EGLL 182250Z 20005KT 9999 SCT038 SCT043 13/11 Q1006
                        NOSIG=
201210182220 METAR COR EGLL 182220Z 21005KT 9999 FEW037 13/11 Q1006 NOSIG=
201210182150 METAR COR EGLL 182150Z 19008KT 9999 FEW039 14/12 Q1006 NOSIG=
201210182120 METAR EGLL 182120Z AUTO 19007KT 9999 NCD 14/12 Q1006=
201210182050 METAR COR EGLL 182050Z 20009KT 180V250 9999 -RA FEW013 14/12
                        Q1005 NOSIG=
201210182020 METAR COR EGLL 182020Z 19010KT 9999 -RA FEW017 14/12 Q1005
                        TEMPO SHRA=
201210181950 METAR EGLL 181950Z 17010KT 120V210 9999 -RA FEW019 14/12
                        Q1005=
201210181920 METAR COR EGLL 181920Z 15006KT 120V190 9999 SCT046 14/11
                        Q1005 TEMPO SHRA=
201210181850 METAR COR EGLL 181850Z 16009KT CAVOK 14/11 Q1005 TEMPO 7000
                        SHRA=
201210181820 METAR COR EGLL 181820Z 16009KT 120V190 CAVOK 14/11 Q1004
                        TEMPO 7000 SHRA=
201210181750 METAR COR EGLL 181750Z 16009KT CAVOK 14/11 Q1004 NOSIG=
201210181720 METAR COR EGLL 181720Z 16009KT 140V210 9999 FEW022 14/11
                        Q1004 NOSIG=
201210181650 METAR COR EGLL 181650Z 18009KT 9999 FEW027 14/11 Q1004 NOSIG=
201210181620 METAR COR EGLL 181620Z 18009KT 120V210 9999 FEW027 15/11
                        Q1003 NOSIG=
201210181550 METAR COR EGLL 181550Z 18011KT 150V260 9999 FEW028 15/10
                        Q1003 NOSIG=
201210181520 METAR COR EGLL 181520Z 18012KT 9999 FEW027 16/10 Q1003 NOSIG=
201210181450 METAR COR EGLL 181450Z 19013KT 9999 FEW028 16/10 Q1002 NOSIG=
201210181420 METAR COR EGLL 181420Z 19013G24KT 9999 FEW028 16/09 Q1002
                        NOSIG=
201210181350 METAR COR EGLL 181350Z 19014KT 160V250 9999 FEW028 16/09
                        Q1002 NOSIG=
201210181320 METAR COR EGLL 181320Z 19015KT 9999 SCT025 16/10 Q1002 NOSIG=
201210181250 METAR COR EGLL 181250Z 19012KT 160V240 9999 FEW024 15/10
                        Q1002 NOSIG=
201210181220 METAR COR EGLL 181220Z 19014KT 9999 SCT024 15/11 Q1002 NOSIG=
201210181150 METAR COR EGLL 181150Z 20012G22KT 160V240 9999 SCT021 SCT026
                        15/11 Q1002 NOSIG=
201210181120 METAR COR EGLL 181120Z 19012KT 160V240 9999 FEW019 SCT022
                        15/11 Q1002 NOSIG=
201210181050 METAR COR EGLL 181050Z 19012KT 170V230 9999 FEW018 SCT024
                        15/12 Q1002 NOSIG=
201210181020 METAR COR EGLL 181020Z 19012KT 170V240 9999 FEW015 SCT020
                        15/12 Q1002 NOSIG=
201210180950 METAR COR EGLL 180950Z 19010KT 150V240 9999 FEW016 15/12
                        Q1002 NOSIG=
201210180920 METAR COR EGLL 180920Z 18010KT 150V230 9999 FEW017 14/12
                        Q1002 NOSIG=
201210180850 METAR COR EGLL 180850Z 19009KT 160V240 9999 FEW020 13/11
                        Q1002 NOSIG=
201210180820 METAR COR EGLL 180820Z 19006KT 140V250 9999 FEW025 13/11
                        Q1001 NOSIG=
201210180750 METAR COR EGLL 180750Z 18007KT 150V240 9999 VCSH FEW042 12/11
                        Q1001 NOSIG=
201210180720 METAR COR EGLL 180720Z 17008KT 150V230 9999 FEW020 12/11
                        Q1000 NOSIG=
201210180650 METAR COR EGLL 180650Z 17007KT 130V230 9999 FEW023 12/10
                        Q1000 NOSIG=
201210180620 METAR COR EGLL 180620Z 20007KT 170V230 CAVOK 12/10 Q1000
                        NOSIG=
201210180550 METAR COR EGLL 180550Z 18008KT 150V220 CAVOK 12/11 Q0999
                        NOSIG=
201210180520 METAR COR EGLL 180520Z 19007KT 150V240 9999 FEW014 12/11
                        Q0999 NOSIG=
201210180450 METAR COR EGLL 180450Z 18007KT 9999 -SHRA SCT014 13/11 Q0999
                        NOSIG=
201210180420 METAR COR EGLL 180420Z 19007KT 9999 -RA FEW015 13/11 Q0999
                        NOSIG=
201210180350 METAR COR EGLL 180350Z 20008KT 9999 SCT016 13/11 Q0998 TEMPO
                        SHRA=
201210180320 METAR COR EGLL 180320Z 19009KT 9999 -SHRA FEW016 13/11 Q0998
                        TEMPO BKN014=
201210180250 METAR COR EGLL 180250Z 19010KT 9999 FEW014 13/11 Q0998 TEMPO
                        SHRA BKN014=
201210180220 METAR COR EGLL 180220Z 18010KT 9999 FEW016 13/11 Q0998 TEMPO
                        SHRA BKN014=
201210180150 METAR COR EGLL 180150Z 18010KT 9999 -SHRA FEW016 SCT049 13/11
                        Q0998 TEMPO SHRA BKN014=
201210180120 METAR EGLL 180120Z NIL=
201210180050 METAR EGLL 180050Z NIL=
201210180020 METAR EGLL 180020Z NIL=
201210172350 METAR COR EGLL 172350Z 16010KT 9999 -SHRA SCT018 13/11 Q0998
                        TEMPO SHRA BKN014=
201210172320 METAR COR EGLL 172320Z 17011KT 9999 SCT023 13/10 Q0998 TEMPO
                        SHRA BKN014=
201210172250 METAR COR EGLL 172250Z 16011KT 9999 FEW019 13/11 Q0998 NOSIG=
201210172220 METAR COR EGLL 172220Z 18012KT 9999 FEW019 13/11 Q0998 NOSIG=
201210172150 METAR COR EGLL 172150Z 17011KT 9999 SCT018 14/11 Q0998 NOSIG=
201210172120 METAR COR EGLL 172120Z 17013KT 9999 SCT019 14/11 Q0998 NOSIG=
201210172050 METAR COR EGLL 172050Z 17011KT 140V200 9999 SCT022 14/11
                        Q0998 NOSIG=
201210172020 METAR COR EGLL 172020Z 18011KT 9999 FEW018 14/11 Q0999 NOSIG=
201210171950 METAR COR EGLL 171950Z 17011KT 9999 FEW020 14/11 Q0998 TEMPO
                        SHRA=
201210171920 METAR COR EGLL 171920Z 15009KT 9999 VCTS FEW025CB 14/11 Q0998
                        TEMPO SHRA=
201210171850 METAR COR EGLL 171850Z 16010KT 130V190 9999 VCTS -SHRA SCT025CB
                        13/10 Q0998 NOSIG=
201210171820 METAR COR EGLL 171820Z 17011KT 130V210 8000 SHRA SCT033 14/11
                        Q0998 TEMPO TSRA=
201210171750 METAR COR EGLL 171750Z 13007KT 090V160 9999 -SHRA SCT028
                        13/11 Q0998 RESHRA TEMPO 4000 +SHRA=
201210171720 METAR COR EGLL 171720Z 16008KT 130V220 9999 5000S SHRA SCT030
                        14/10 Q0998 TEMPO 4000 +SHRA=
201210171650 METAR COR EGLL 171650Z 18007KT 130V200 9999 FEW016 14/10
                        Q0998 TEMPO SHRA=
201210171620 METAR COR EGLL 171620Z 18011KT 9999 FEW032 14/10 Q0998 TEMPO
                        SHRA=
201210171550 METAR COR EGLL 171550Z 19010KT 160V230 9999 FEW036 15/09
                        Q0998 TEMPO SHRA=
201210171520 METAR COR EGLL 171520Z 18012KT 9999 FEW035 15/09 Q0998 TEMPO
                        SHRA=
201210171450 METAR COR EGLL 171450Z 21014G26KT 9999 FEW035 16/08 Q0998
                        TEMPO SHRA=
201210171420 METAR COR EGLL 171420Z 19013KT 9999 FEW035 16/09 Q0998 TEMPO
                        SHRA=
201210171350 METAR COR EGLL 171350Z 20014KT 9999 SCT037 16/09 Q0998 TEMPO
                        SHRA=
201210171320 METAR COR EGLL 171320Z 21016KT 9999 SCT036 17/09 Q0998 TEMPO
                        SHRA=
201210171250 METAR COR EGLL 171250Z 21014KT 180V240 9999 FEW036 17/09
                        Q0998 TEMPO SHRA=
201210171220 METAR COR EGLL 171220Z 20012KT 170V240 9999 FEW033 16/10
                        Q0998 TEMPO SHRA=
201210171150 METAR COR EGLL 171150Z 20015KT 170V240 9999 FEW033 17/09
                        Q0998 TEMPO SHRA=
201210171120 METAR COR EGLL 171120Z 20014KT 160V230 9999 FEW036 16/10
                        Q0998 TEMPO SHRA=
201210171050 METAR COR EGLL 171050Z 21013KT CAVOK 15/09 Q0998 TEMPO SHRA=
201210171020 METAR COR EGLL 171020Z 22014KT 190V250 9999 BKN023 15/10
                        Q0998 TEMPO SHRA=
201210170950 METAR COR EGLL 170950Z 22011KT 190V250 9999 SCT023 SCT028
                        15/11 Q0997 TEMPO SHRA=
201210170920 METAR COR EGLL 170920Z 21012KT 9999 FEW020 15/11 Q0997 TEMPO
                        SHRA=
201210170850 METAR COR EGLL 170850Z 21010KT 180V240 9999 FEW028 14/11
                        Q0997 TEMPO SHRA=
201210170820 METAR COR EGLL 170820Z 21008KT 9999 FEW020 13/11 Q0996 NOSIG=
201210170750 METAR COR EGLL 170750Z 20008KT 170V240 CAVOK 13/11 Q0996
                        NOSIG=
201210170720 METAR COR EGLL 170720Z 21007KT 9999 FEW023 13/11 Q0996 NOSIG=
201210170650 METAR COR EGLL 170650Z 21009KT 180V240 9999 FEW040 13/11
                        Q0995 NOSIG=
201210170620 METAR COR EGLL 170620Z 22011KT 9999 FEW010 13/11 Q0994 NOSIG=
201210170550 METAR COR EGLL 170550Z 21010KT 180V240 9999 -RA SCT008 13/12
                        Q0994 RERA NOSIG=
201210170520 METAR COR EGLL 170520Z 17010KT 6000 RA FEW006 BKN009 12/11
                        Q0993 BECMG NSW FEW015=
201210170450 METAR COR EGLL 170450Z 14014KT 5000 RA FEW007 BKN009 BKN012
                        12/11 Q0993 TEMPO 4000 +RA=
201210170420 METAR COR EGLL 170420Z 13014KT 7000 -RA BKN009 11/10 Q0994
                        TEMPO 4000 RA=
201210170350 METAR COR EGLL 170350Z 12014KT 8000 -RA FEW008 BKN010 11/10
                        Q0995 RERA TEMPO RA BKN008=
201210170320 METAR COR EGLL 170320Z 13012KT 9999 -RA BKN012 11/09 Q0995
                        RERA TEMPO 4000 +RA BKN009=
201210170250 METAR COR EGLL 170250Z 13016KT 8000 RA BKN013 11/09 Q0997
                        TEMPO 4000 +RA BKN009=
201210170220 METAR COR EGLL 170220Z 13014KT 9999 -RA FEW018 11/09 Q0997
                        BECMG RA BKN014=
201210170150 METAR COR EGLL 170150Z 12012KT 9999 -RA FEW017 11/09 Q0998
                        TEMPO RA=
201210170120 METAR EGLL 170120Z AUTO 12010KT 9999 NCD 11/08 Q0999=
201210170050 METAR EGLL 170050Z AUTO 11011KT 9999 NCD 10/07 Q1000=
201210170020 METAR EGLL 170020Z AUTO 10009KT 9999 NCD 09/07 Q1000=
201210162350 METAR COR EGLL 162350Z 11009KT CAVOK 09/07 Q1002 NOSIG=
201210162320 METAR COR EGLL 162320Z 10007KT CAVOK 08/07 Q1002 NOSIG=
201210162250 METAR COR EGLL 162250Z 11005KT CAVOK 07/06 Q1003 NOSIG=
201210162220 METAR COR EGLL 162220Z 13005KT CAVOK 08/06 Q1003 NOSIG=
201210162150 METAR COR EGLL 162150Z 16006KT 9999 FEW048 09/07 Q1004 NOSIG=
201210162120 METAR COR EGLL 162120Z 15005KT 110V180 9999 FEW034 08/06
                        Q1004 NOSIG=
201210162050 METAR COR EGLL 162050Z 18005KT 140V230 9999 FEW033 09/06
                        Q1004 NOSIG=
201210162020 METAR EGLL 162020Z 19007KT 160V220 9999 FEW042 09/06 Q1004=
201210161950 METAR COR EGLL 161950Z 19008KT CAVOK 10/06 Q1004 NOSIG=
201210161920 METAR COR EGLL 161920Z 19008KT CAVOK 10/07 Q1004 NOSIG=
201210161850 METAR COR EGLL 161850Z 21008KT CAVOK 11/07 Q1004 NOSIG=
201210161820 METAR COR EGLL 161820Z 21009KT CAVOK 11/06 Q1004 NOSIG=
201210161750 METAR COR EGLL 161750Z 21007KT 190V250 CAVOK 12/06 Q1004
                        NOSIG=
201210161720 METAR COR EGLL 161720Z 22008KT CAVOK 12/05 Q1004 NOSIG=
201210161650 METAR COR EGLL 161650Z 23010KT CAVOK 13/04 Q1003 NOSIG=
201210161620 METAR COR EGLL 161620Z 24010KT 9999 FEW045 14/05 Q1003 NOSIG=
201210161550 METAR COR EGLL 161550Z 24012KT 9999 FEW045 14/05 Q1003 NOSIG=
201210161520 METAR COR EGLL 161520Z 25018KT 9999 FEW046 15/04 Q1003 NOSIG=
201210161450 METAR COR EGLL 161450Z 24018KT 9999 FEW044 15/05 Q1003 NOSIG=
201210161420 METAR COR EGLL 161420Z 24018KT 9999 SCT046 15/05 Q1003 NOSIG=
201210161350 METAR COR EGLL 161350Z 26018KT 9999 SCT047 15/04 Q1003 NOSIG=
201210161320 METAR COR EGLL 161320Z 25017KT 9999 SCT041 15/05 Q1003 NOSIG=
201210161250 METAR COR EGLL 161250Z 26018KT 9999 BKN041 15/05 Q1002 NOSIG=
201210161220 METAR COR EGLL 161220Z 24021KT 9999 SCT041 SCT046 15/05 Q1002
                        NOSIG=
201210161150 METAR COR EGLL 161150Z 26019KT 9999 SCT036 14/05 Q1002 NOSIG=
201210161120 METAR COR EGLL 161120Z 26020KT 9999 SCT035 15/06 Q1002 NOSIG=
201210161050 METAR COR EGLL 161050Z 26021KT 9999 SCT041 14/06 Q1002 NOSIG=
201210161020 METAR COR EGLL 161020Z 25018G28KT 220V280 9999 FEW043 13/06
                        Q1001 NOSIG=
201210160950 METAR COR EGLL 160950Z 25018KT 9999 FEW031 13/06 Q1001 NOSIG=
201210160920 METAR COR EGLL 160920Z 25020KT 9999 FEW024 12/06 Q1001 NOSIG=
201210160850 METAR COR EGLL 160850Z 24019KT 9999 FEW037 12/06 Q1000 NOSIG=
201210160820 METAR COR EGLL 160820Z 24018KT 9999 FEW024 11/07 Q0999 NOSIG=
201210160750 METAR COR EGLL 160750Z 23016KT CAVOK 11/06 Q0999 NOSIG=
201210160720 METAR COR EGLL 160720Z 24014KT 9999 FEW033 10/06 Q0999 NOSIG=
201210160650 METAR COR EGLL 160650Z 24015KT CAVOK 10/06 Q0999 NOSIG=
201210160620 METAR COR EGLL 160620Z 24016KT CAVOK 10/07 Q0998 NOSIG=
201210160550 METAR COR EGLL 160550Z 24013KT 9999 FEW027 10/07 Q0998 NOSIG=
201210160520 METAR COR EGLL 160520Z 23012KT CAVOK 10/07 Q0997 NOSIG=
201210160450 METAR COR EGLL 160450Z 24014KT CAVOK 10/07 Q0997 NOSIG=
201210160420 METAR COR EGLL 160420Z 23010KT 9999 FEW021 10/08 Q0997 NOSIG=
201210160350 METAR COR EGLL 160350Z 24012KT 9999 FEW021 10/07 Q0997 NOSIG=
201210160320 METAR COR EGLL 160320Z 24013KT CAVOK 10/07 Q0996 NOSIG=
201210160250 METAR COR EGLL 160250Z 26019KT CAVOK 10/07 Q0996 NOSIG=
201210160220 METAR COR EGLL 160220Z 26022KT 9999 SCT014 SCT024 12/09 Q0995
                        NOSIG=
201210160150 METAR COR EGLL 160150Z 20015KT 9999 FEW013 SCT032 12/11 Q0994
                        TEMPO RA=
201210160120 METAR EGLL 160120Z AUTO 19015KT 9000 -RA BKN007/// BKN016///
                        12/11 Q0995=
201210160050 METAR EGLL 160050Z AUTO 17011KT 5000 -RA SCT007/// SCT012///
                        BKN015/// 12/11 Q0996=
201210160020 METAR EGLL 160020Z AUTO 17012KT 9000 -RA BKN013/// BKN039///
                        12/10 Q0996 RERA=
201210152350 METAR COR EGLL 152350Z 18013KT 9999 SCT041 12/10 Q0997 NOSIG=
201210152320 METAR COR EGLL 152320Z 18010KT 9999 FEW017 SCT033 12/10 Q0998
                        NOSIG=
201210152250 METAR COR EGLL 152250Z 17009KT 9999 -RA FEW030 SCT047 11/10
                        Q0998 RERA TEMPO RA=
201210152220 METAR COR EGLL 152220Z 17008KT 9999 RA FEW018 SCT023 11/10
                        Q0999 NOSIG=
201210152150 METAR COR EGLL 152150Z 18008KT 9999 -SHRA FEW018 SCT038 11/09
                        Q1000 TEMPO RA=
201210152120 METAR COR EGLL 152120Z 18010KT 9999 -SHRA NSC 11/09 Q1000
                        NOSIG=
201210152050 METAR COR EGLL 152050Z 18008KT CAVOK 12/09 Q1000 NOSIG=
201210152020 METAR COR EGLL 152020Z 19008KT 110V230 CAVOK 11/09 Q1001
                        NOSIG=
201210151950 METAR COR EGLL 151950Z 19008KT 140V210 9999 -SHRA NSC 11/09
                        Q1001 NOSIG=
201210151920 METAR COR EGLL 151920Z 19007KT 170V240 CAVOK 11/09 Q1001
                        NOSIG=
201210151850 METAR COR EGLL 151850Z 22008KT 180V250 9999 FEW044 11/09
                        Q1001 NOSIG=
201210151820 METAR COR EGLL 151820Z 23011KT CAVOK 12/09 Q1002 NOSIG=
201210151750 METAR COR EGLL 151750Z 23013KT 9999 FEW048 12/09 Q1002 NOSIG=
201210151720 METAR COR EGLL 151720Z 21010KT 9999 FEW035 13/08 Q1001 TEMPO
                        SHRA=
201210151650 METAR COR EGLL 151650Z 22008KT 190V260 9999 FEW041 13/07
                        Q1001 NOSIG=
201210151620 METAR COR EGLL 151620Z VRB03KT 9999 FEW040 12/07 Q1001 NOSIG=
201210151550 METAR COR EGLL 151550Z 27005KT 230V300 9999 VCSH SCT041 13/07
                        Q1002 NOSIG=
201210151520 METAR COR EGLL 151520Z 26007KT 230V290 9999 FEW047 13/08
                        Q1002 NOSIG=
201210151450 METAR COR EGLL 151450Z 26008KT 9999 FEW045 12/07 Q1002 NOSIG=
201210151420 METAR COR EGLL 151420Z 25012KT 9999 -SHRA FEW040 12/07 Q1002
                        NOSIG=
201210151350 METAR COR EGLL 151350Z 26017KT 9999 FEW036 13/05 Q1002 TEMPO
                        SHRA=
201210151320 METAR COR EGLL 151320Z 25015KT 9999 FEW032 14/06 Q1002 NOSIG=
201210151250 METAR COR EGLL 151250Z 25011KT 9999 FEW022 13/08 Q1002 NOSIG=
201210151220 METAR COR EGLL 151220Z 24010KT 210V270 9999 FEW020 13/08
                        Q1002 TEMPO SHRA=
201210151150 METAR COR EGLL 151150Z 24012KT 9999 FEW020 SCT022 12/07 Q1002
                        TEMPO SHRA=
201210151120 METAR COR EGLL 151120Z 25012KT 9999 FEW035 SCT042 12/07 Q1002
                        TEMPO SHRA=
201210151050 METAR COR EGLL 151050Z 24010KT 9999 FEW015 11/08 Q1002 TEMPO
                        SHRA=
201210151020 METAR COR EGLL 151020Z 23009KT 190V260 9999 FEW012 10/07
                        Q1003 NOSIG=
201210150950 METAR COR EGLL 150950Z 21008KT 190V250 9999 FEW015 10/07
                        Q1003 NOSIG=
201210150920 METAR COR EGLL 150920Z 22009KT 170V250 9999 FEW016 09/06
                        Q1003 NOSIG=
201210150850 METAR COR EGLL 150850Z 21008KT 160V260 CAVOK 08/06 Q1003
                        TEMPO BKN014=
201210150820 METAR COR EGLL 150820Z 21006KT 180V240 CAVOK 07/05 Q1003
                        NOSIG=
201210150750 METAR COR EGLL 150750Z 19004KT 160V250 9999 FEW030 06/05
                        Q1003 NOSIG=
201210150720 METAR COR EGLL 150720Z 19005KT 140V240 CAVOK 06/04 Q1003
                        NOSIG=
201210150650 METAR COR EGLL 150650Z 22006KT 180V250 9999 FEW040 05/04
                        Q1003 NOSIG=
201210150620 METAR EGLL 150620Z 22005KT 170V250 9999 FEW025 05/04 Q1003=
201210150550 METAR COR EGLL 150550Z 20004KT 170V260 9999 SCT046 05/04
                        Q1003 NOSIG=
201210150520 METAR COR EGLL 150520Z VRB03KT CAVOK 05/04 Q1003 NOSIG=
201210150450 METAR COR EGLL 150450Z VRB02KT CAVOK 05/04 Q1003 NOSIG=
201210150420 METAR COR EGLL 150420Z 17004KT CAVOK 04/03 Q1003 NOSIG=
201210150350 METAR COR EGLL 150350Z 18004KT CAVOK 04/03 Q1004 NOSIG=
201210150320 METAR COR EGLL 150320Z 16003KT CAVOK 03/03 Q1004 NOSIG=
201210150250 METAR COR EGLL 150250Z 16002KT CAVOK 03/02 Q1004 NOSIG=
201210150220 METAR COR EGLL 150220Z 28003KT CAVOK 04/03 Q1004 NOSIG=
201210150150 METAR COR EGLL 150150Z 28003KT CAVOK 05/04 Q1004 NOSIG=
201210150120 METAR EGLL 150120Z AUTO VRB02KT 9999 NCD 04/03 Q1004=
201210150050 METAR EGLL 150050Z AUTO 28003KT 9999 NCD 05/04 Q1004=
201210150020 METAR EGLL 150020Z AUTO 30003KT 9999 NCD 05/04 Q1004=
201210142350 METAR COR EGLL 142350Z 28004KT CAVOK 05/04 Q1003 NOSIG=
201210142320 METAR COR EGLL 142320Z 29005KT CAVOK 05/04 Q1003 NOSIG=
201210142250 METAR COR EGLL 142250Z 28005KT CAVOK 06/04 Q1003 NOSIG=
201210142220 METAR COR EGLL 142220Z 29005KT CAVOK 06/04 Q1003 NOSIG=
201210142150 METAR COR EGLL 142150Z 29005KT 9999 FEW040 08/04 Q1003 NOSIG=
201210142120 METAR COR EGLL 142120Z 29005KT 9999 FEW040 08/04 Q1003 NOSIG=
201210142050 METAR COR EGLL 142050Z 31003KT 9999 SCT045 08/04 Q1003 NOSIG=
201210142020 METAR COR EGLL 142020Z 29006KT 9999 SCT044 09/04 Q1003 NOSIG=
201210141950 METAR COR EGLL 141950Z 29005KT CAVOK 09/04 Q1003 NOSIG=
201210141920 METAR COR EGLL 141920Z 31005KT CAVOK 09/04 Q1002 NOSIG=
201210141850 METAR COR EGLL 141850Z 30006KT CAVOK 10/04 Q1002 NOSIG=
201210141820 METAR COR EGLL 141820Z 31005KT CAVOK 10/04 Q1002 NOSIG=
201210141750 METAR COR EGLL 141750Z 30005KT 9999 FEW044 10/04 Q1002 NOSIG=
201210141720 METAR COR EGLL 141720Z 30005KT 9999 FEW038 11/04 Q1002 NOSIG=
201210141650 METAR COR EGLL 141650Z 30005KT 9999 FEW044 11/04 Q1002 NOSIG=
201210141620 METAR COR EGLL 141620Z 30007KT 9999 FEW032 11/03 Q1002 NOSIG=
201210141550 METAR EGLL 141550Z AUTO 31008KT 9999 FEW041/// 12/03 Q1002=
201210141520 METAR EGLL 141520Z AUTO 32007KT 280V010 9999 SCT042/// 12/03
                        Q1001=
201210141450 METAR COR EGLL 141450Z 32008KT 290V350 9999 SCT043 12/02
                        Q1001 NOSIG=
201210141420 METAR COR EGLL 141420Z 33007KT 280V020 9999 SCT043 12/02
                        Q1001 NOSIG=
201210141350 METAR COR EGLL 141350Z 33008KT 9999 SCT040 12/02 Q1001 NOSIG=
201210141320 METAR COR EGLL 141320Z 34008KT 300V020 9999 SCT039 12/02
                        Q1001 NOSIG=
201210141250 METAR EGLL 141250Z AUTO 33007KT 290V360 9999 NCD 12/02 Q1001=
201210141220 METAR COR EGLL 141220Z 36006KT 320V050 9999 FEW035 12/03
                        Q1001 NOSIG=
201210141150 METAR COR EGLL 141150Z 34006KT 290V020 9999 FEW028 12/03
                        Q1002 NOSIG=
201210141120 METAR COR EGLL 141120Z 33007KT 300V020 9999 FEW024 12/05
                        Q1002 NOSIG=
201210141050 METAR COR EGLL 141050Z 36006KT 310V050 9999 FEW024 11/05
                        Q1002 NOSIG=
201210141020 METAR COR EGLL 141020Z 34006KT 290V020 9999 FEW020 10/06
                        Q1002 NOSIG=
201210140950 METAR EGLL 140950Z AUTO VRB03KT 9999 NCD 08/05 Q1002=
201210140920 METAR COR EGLL 140920Z VRB03KT CAVOK 07/04 Q1002 NOSIG=
201210140850 METAR COR EGLL 140850Z VRB03KT CAVOK 06/04 Q1002 NOSIG=
201210140820 METAR COR EGLL 140820Z VRB03KT 5000 2000NE R27R/1300 BCFG
                        NSC 04/04 Q1002 BECMG NSW=
201210140750 METAR COR EGLL 140750Z VRB03KT 0900 R27R/1200 R27L/0800 FG
                        VV/// 03/02 Q1002 BECMG 3000 BR BKN002=
201210140720 METAR COR EGLL 140720Z 30002KT 5000 2000N R27R/0400 PRFG
                        NSC 03/03 Q1002 TEMPO 0600 BCFG BKN000=
201210140650 METAR COR EGLL 140650Z 31003KT 5000 2000N R27R/0800 PRFG
                        NSC 03/03 Q1002 TEMPO 0600 FG BKN000=
201210140620 METAR COR EGLL 140620Z 30003KT 0400 R27R/P1500 R27L/P1500
                        FG NSC 02/02 Q1002 NOSIG=
201210140550 METAR COR EGLL 140550Z VRB03KT 9999 3000NW BCFG NSC 04/03
                        Q1002 TEMPO 0800 FG=
201210140520 METAR COR EGLL 140520Z 30003KT 9999 4000N BCFG NSC 03/03
                        Q1002 TEMPO 2500 BR VCFG=
201210140450 METAR COR EGLL 140450Z 27002KT CAVOK 03/03 Q1003 BECMG 4500
                        BR=
201210140420 METAR COR EGLL 140420Z 00000KT CAVOK 04/03 Q1003 TEMPO 4500
                        BR=
201210140350 METAR COR EGLL 140350Z VRB02KT CAVOK 04/03 Q1003 TEMPO 4500
                        BR=
201210140320 METAR COR EGLL 140320Z 29003KT CAVOK 04/03 Q1003 TEMPO 4500
                        BR=
201210140250 METAR COR EGLL 140250Z VRB02KT CAVOK 03/02 Q1003 TEMPO 4500
                        BR=
201210140220 METAR COR EGLL 140220Z 27007KT CAVOK 04/03 Q1003 NOSIG=
201210140150 METAR EGLL 140150Z NIL=
201210140120 METAR EGLL 140120Z NIL=
201210140050 METAR EGLL 140050Z NIL=
201210140020 METAR COR EGLL 140020Z 27005KT CAVOK 05/04 Q1004 NOSIG=
201210132350 METAR COR EGLL 132350Z 29005KT CAVOK 04/03 Q1004 NOSIG=
201210132320 METAR COR EGLL 132320Z 29005KT CAVOK 05/04 Q1004 NOSIG=
201210132250 METAR COR EGLL 132250Z 290005KT 9999 FEW031 SCT049 05/04
                        Q1004 NOSIG=
201210132220 METAR COR EGLL 132220Z 29007KT 9999 FEW031 06/04 Q1004 NOSIG=
201210132150 METAR COR EGLL 132150Z 28008KT 9999 FEW020 06/05 Q1005 NOSIG=
201210132120 METAR COR EGLL 132120Z 28008KT 9999 FEW020 06/04 Q1005 NOSIG=
201210132050 METAR COR EGLL 132050Z 27012KT CAVOK 06/05 Q1004 BECMG VRB05KT=
201210132020 METAR COR EGLL 132020Z 27010KT 9999 FEW045 07/05 Q1004 BECMG
                        VRB04KT=
201210131950 METAR COR EGLL 131950Z 29009KT 9999 FEW049 07/04 Q1004 NOSIG=
201210131920 METAR COR EGLL 131920Z 28007KT 9999 FEW037 07/05 Q1004 NOSIG=
201210131850 METAR COR EGLL 131850Z 27007KT 9999 SCT037 08/05 Q1004 NOSIG=
201210131820 METAR COR EGLL 131820Z 29008KT 260V340 9999 FEW030 SCT038
                        08/05 Q1004 TEMPO SHRA=
201210131750 METAR COR EGLL 131750Z 29009KT 270V330 9999 -SHRA SCT036CB
                        BKN044 09/06 Q1004 TEMPO SHRA=
201210131720 METAR COR EGLL 131720Z 28009KT 9999 VCSH FEW021 SCT037CB
                        SCT046 10/06 Q1004 TEMPO SHRA=
201210131650 METAR COR EGLL 131650Z 27012KT 9999 -SHRA FEW032CB SCT044
                        10/06 Q1004 NOSIG=
201210131620 METAR COR EGLL 131620Z 27012KT 9999 FEW032CB SCT044 10/06
                        Q1003 NOSIG=
201210131550 METAR COR EGLL 131550Z 27010KT 9999 FEW021CB 11/07 Q1003
                        NOSIG=
201210131520 METAR EGLL 131520Z 27010KT 9999 FEW021CB 11/07 Q1003 NOSIG=
201210131450 METAR COR EGLL 131450Z 25007KT 200V280 9999 FEW018CB 11/07
                        Q1003 NOSIG=
201210131420 METAR COR EGLL 131420Z 25008KT 210V280 9999 FEW018CB SCT031
                        09/06 Q1004 NOSIG=
201210131350 METAR COR EGLL 131350Z 29010KT 9999 7000S -SHRA SCT020CB
                        SCT038 10/06 Q1004 TEMPO SHRA=
201210131320 METAR COR EGLL 131320Z 26008KT 9999 VCSH BKN028CB 13/06 Q1003
                        TEMPO SHRA=
201210131250 METAR COR EGLL 131250Z 29007KT 260V330 9999 FEW018 SCT026
                        12/05 Q1003 NOSIG=
201210131220 METAR COR EGLL 131220Z 27010KT 250V320 9999 SCT018 SCT026
                        13/07 Q1004 NOSIG=
201210131150 METAR COR EGLL 131150Z 31006KT 270V330 9999 SCT017 12/07
                        Q1004 NOSIG=
201210131120 METAR COR EGLL 131120Z 29005KT 9999 SCT016 11/07 Q1004 NOSIG=
201210131050 METAR COR EGLL 131050Z 28006KT 9999 SCT014 10/07 Q1004 NOSIG=
201210131020 METAR COR EGLL 131020Z 28006KT 250V320 9999 FEW014 10/07
                        Q1004 NOSIG=
201210130950 METAR COR EGLL 130950Z 30007KT 260V340 9999 FEW016 10/07
                        Q1004 NOSIG=
201210130920 METAR COR EGLL 130920Z 26005KT 210V310 CAVOK 10/07 Q1005
                        NOSIG=
201210130850 METAR COR EGLL 130850Z 29005KT 9999 FEW049 09/07 Q1005 NOSIG=
201210130820 METAR COR EGLL 130820Z 24005KT 210V300 CAVOK 08/07 Q1005
                        NOSIG=
201210130750 METAR EGLL 130750Z 25005KT 220V290 CAVOK 07/06 Q1005 NOSIG=
201210130720 METAR COR EGLL 130720Z 22005KT 190V260 CAVOK 07/06 Q1005
                        NOSIG=
201210130650 METAR COR EGLL 130650Z 20004KT 170V260 CAVOK 06/05 Q1004
                        NOSIG=
201210130620 METAR COR EGLL 130620Z VRB03KT 9999 FEW026 07/06 Q1004 NOSIG=
201210130550 METAR COR EGLL 130550Z 22005KT 170V280 9999 FEW025 07/06
                        Q1005 NOSIG=
201210130520 METAR COR EGLL 130520Z 20005KT 160V270 CAVOK 06/05 Q1005
                        NOSIG=
201210130450 METAR COR EGLL 130450Z 19004KT CAVOK 06/05 Q1005 NOSIG=
201210130420 METAR COR EGLL 130420Z 18002KT CAVOK 07/06 Q1005 NOSIG=
201210130350 METAR COR EGLL 130350Z VRB02KT CAVOK 07/06 Q1005 NOSIG=
201210130320 METAR COR EGLL 130320Z VRB03KT CAVOK 07/06 Q1006 NOSIG=
201210130250 METAR COR EGLL 130250Z 19002KT CAVOK 07/06 Q1006 NOSIG=
201210130220 METAR COR EGLL 130220Z 17003KT CAVOK 07/06 Q1006 NOSIG=
201210130150 METAR COR EGLL 130150Z 17005KT CAVOK 07/06 Q1006 NOSIG=
201210130120 METAR EGLL 130120Z AUTO 16004KT 9999 NCD 07/06 Q1007=
201210130050 METAR EGLL 130050Z AUTO 17004KT 9999 NCD 08/06 Q1007=
201210130020 METAR EGLL 130020Z AUTO 18004KT 9999 NCD 08/06 Q1007=
201210122350 METAR EGLL 122350Z 20004KT 9999 FEW045 08/06 Q1007 NOSIG=
201210122320 METAR COR EGLL 122320Z 21005KT 9999 FEW043 09/06 Q1008 NOSIG=
201210122250 METAR COR EGLL 122250Z 21005KT 9999 FEW044 09/06 Q1008 NOSIG=
201210122220 METAR COR EGLL 122220Z 21005KT CAVOK 08/06 Q1008 NOSIG=
201210122150 METAR COR EGLL 122150Z 21007KT 160V250 CAVOK 09/06 Q1008
                        NOSIG=
201210122120 METAR COR EGLL 122120Z 20008KT 160V240 CAVOK 08/05 Q1008
                        NOSIG=
201210122050 METAR COR EGLL 122050Z 22006KT 190V250 CAVOK 09/05 Q1008
                        NOSIG=
201210122020 METAR COR EGLL 122020Z 22008KT 190V250 CAVOK 09/05 Q1009
                        NOSIG=
201210121950 METAR COR EGLL 121950Z 22008KT 190V260 CAVOK 09/05 Q1009
                        NOSIG=
201210121920 METAR COR EGLL 121920Z 22008KT CAVOK 09/05 Q1009 NOSIG=
201210121850 METAR COR EGLL 121850Z 21007KT 200V260 CAVOK 09/05 Q1009
                        NOSIG=
201210121820 METAR COR EGLL 121820Z 23007KT 190V270 9999 FEW028 10/05
                        Q1009 NOSIG=
201210121750 METAR COR EGLL 121750Z 25011KT 9999 FEW028 11/05 Q1009 NOSIG=
201210121720 METAR COR EGLL 121720Z 25012KT 9999 FEW028 11/05 Q1009 NOSIG=
201210121650 METAR COR EGLL 121650Z 25010KT 9999 FEW038 12/05 Q1009 NOSIG=
201210121620 METAR COR EGLL 121620Z 27016KT 9999 FEW045 13/04 Q1008 NOSIG=
201210121550 METAR COR EGLL 121550Z 26015KT 9999 FEW040 13/03 Q1008 NOSIG=
201210121520 METAR COR EGLL 121520Z 25016KT 9999 FEW036 14/04 Q1008 NOSIG=
201210121450 METAR EGLL 121450Z 27017KT 9999 FEW039 SCT043 14/05 Q1008=
201210121420 METAR COR EGLL 121420Z 27016KT 9999 VCSH SCT036 SCT043 14/05
                        Q1008 NOSIG=
201210121350 METAR COR EGLL 121350Z 27013KT 9999 SCT037 SCT042 13/05 Q1008
                        NOSIG=
201210121320 METAR COR EGLL 121320Z 26015KT 9999 SCT043 13/05 Q1008 NOSIG=
201210121250 METAR COR EGLL 121250Z 26015KT 9999 SCT043 14/04 Q1008 NOSIG=
201210121220 METAR COR EGLL 121220Z 27016KT 9999 FEW040 14/04 Q1007 NOSIG=
201210121150 METAR COR EGLL 121150Z 27016KT 9999 FEW041 14/05 Q1007 NOSIG=
201210121120 METAR COR EGLL 121120Z 27015KT 9999 FEW034 13/05 Q1007 NOSIG=
201210121050 METAR COR EGLL 121050Z 27017KT 9999 FEW032 13/05 Q1007 NOSIG=
201210121020 METAR COR EGLL 121020Z 28017KT 9999 FEW028 12/05 Q1007 NOSIG=
201210120950 METAR COR EGLL 120950Z 28015KT CAVOK 12/06 Q1007 NOSIG=
201210120920 METAR COR EGLL 120920Z 27014KT CAVOK 11/06 Q1007 NOSIG=
201210120850 METAR COR EGLL 120850Z 27016KT CAVOK 10/07 Q1006 NOSIG=
201210120820 METAR COR EGLL 120820Z 27015KT 9999 FEW048 10/07 Q1006 NOSIG=
201210120750 METAR COR EGLL 120750Z 27014KT 9999 FEW047 10/07 Q1005 NOSIG=
201210120720 METAR COR EGLL 120720Z 28015KT 9999 -SHRA FEW020 SCT040 10/07
                        Q1004 TEMPO SHRA BKN014=
201210120650 METAR COR EGLL 120650Z 28016KT 9999 SCT022 SCT029 10/07 Q1004
                        NOSIG=
201210120620 METAR COR EGLL 120620Z 28015KT 9999 -SHRA SCT024 BKN028 10/08
                        Q1003 TEMPO BKN014=
201210120550 METAR COR EGLL 120550Z 27013KT 9999 SCT020 SCT028 11/08 Q1003
                        TEMPO SHRA BKN014=
201210120520 METAR COR EGLL 120520Z 26014KT 9999 SCT020 BKN025 10/08 Q1002
                        RERA TEMPO SHRA=
201210120450 METAR COR EGLL 120450Z 27014KT 9999 SCT016 BKN019 11/08 Q1002
                        NOSIG=
201210120420 METAR COR EGLL 120420Z 26016KT 9999 BKN016 BKN022 11/08 Q1002
                        NOSIG=
201210120350 METAR COR EGLL 120350Z 26015KT 9999 BKN017 BKN023 11/09 Q1001
                        NOSIG=
201210120320 METAR COR EGLL 120320Z 26016KT 9999 SCT018 11/09 Q1001 NOSIG=
201210120250 METAR EGLL 120250Z AUTO 26014KT 8000 BKN021/// 12/09 Q1001=
201210120220 METAR COR EGLL 120220Z 26015KT 9999 BKN020 12/09 Q1001 NOSIG=
201210120150 METAR COR EGLL 120150Z 26015KT 9999 BKN019 12/10 Q1000 NOSIG=
201210120120 METAR EGLL 120120Z AUTO 26014KT 9999 BKN016/// BKN020///
                        13/10 Q1000=
201210120050 METAR EGLL 120050Z AUTO 26014KT 9999 OVC018/// 13/10 Q1000=
201210120020 METAR EGLL 120020Z AUTO 25013KT 9999 OVC013/// 13/11 Q1000=
201210112350 METAR EGLL 112350Z 25013KT 9999 BKN009 13/12 Q0999=
201210112320 METAR COR EGLL 112320Z 24012KT 9999 BKN009 14/12 Q0999 BECMG
                        SCT009 BKN014=
201210112250 METAR COR EGLL 112250Z 24013KT 9999 BKN009 14/13 Q0999 BECMG
                        SCT009 BKN012=
201210112220 METAR COR EGLL 112220Z 22010KT 9999 FEW006 SCT008 15/14 Q0998
                        TEMPO BKN010=
201210112150 METAR COR EGLL 112150Z 20008KT 160V250 9999 FEW005 SCT010
                        15/14 Q0998 TEMPO BKN012=
201210112120 METAR EGLL 112120Z 20008KT 160V250 9000 SCT006 15/14 Q0998=
201210112050 METAR COR EGLL 112050Z 18008KT 150V240 5000 -DZ FEW009 BKN011
                        15/14 Q0998 TEMPO 4000 BKN009=
201210112020 METAR COR EGLL 112020Z 16008KT 130V250 9999 FEW007 BKN014
                        15/14 Q0998 TEMPO 4500 -DZ BKN009=
201210111950 METAR COR EGLL 111950Z 16008KT 130V220 9999 FEW004 SCT008
                        BKN020 15/14 Q0998 TEMPO 4500 DZ
                        BKN008=
201210111920 METAR COR EGLL 111920Z 16008KT 130V200 7000 -RADZ FEW008
                        SCT010 BKN012 15/14 Q0998 TEMPO 4500
                        DZ BKN008=
201210111850 METAR COR EGLL 111850Z 16008KT 9000 SCT007 BKN010 15/15 Q0999
                        TEMPO BKN008=
201210111820 METAR COR EGLL 111820Z 13006KT 5000 -RADZ FEW008 BKN011 15/15
                        Q0999 BECMG 20010KT 4000 RADZ BKN008=
201210111750 METAR COR EGLL 111750Z 11009KT 4400 BR FEW003 SCT008 BKN012
                        15/14 Q0999 BECMG 20010KT 8000 NSW=
201210111720 METAR COR EGLL 111720Z 10007KT 4000 -RADZ FEW003 BKN008 15/14
                        Q0999 RERA TEMPO 6000 SCT008 BKN014=
201210111650 METAR COR EGLL 111650Z 10008KT 4000 -RADZ FEW005 OVC006 15/14
                        Q0999 RERA TEMPO +RA BKN004=
201210111620 METAR COR EGLL 111620Z 10008KT 5000 RA BKN006 15/14 Q1000
                        TEMPO 2000 +RA BKN004=
201210111550 METAR COR EGLL 111550Z 10008KT 4500 RA SCT005 BKN007 15/14
                        Q1000 TEMPO 6000 SCT007 BKN010=
201210111520 METAR COR EGLL 111520Z 10007KT 6000 -RADZ FEW006 BKN008 15/14
                        Q1000 RERA TEMPO 2000 +RA BKN004
                        SCT035CB=
201210111450 METAR COR EGLL 111450Z 11009KT 7000 RA OVC006 15/14 Q1001
                        TEMPO 2500 +RA BKN004 SCT035CB=
201210111420 METAR COR EGLL 111420Z 11008KT 9000 BKN006 15/13 Q1001 TEMPO
                        2500 +RA=
201210111350 METAR COR EGLL 111350Z 11010KT 9999 FEW007 BKN008 15/14 Q1001
                        TEMPO 4000 RA=
201210111320 METAR COR EGLL 111320Z 11007KT 6000 FEW008 BKN010 15/14 Q1002
                        BECMG BKN007=
201210111250 METAR COR EGLL 111250Z 10007KT 4500 BR FEW004 BKN007 14/14
                        Q1002 TEMPO 6000 NSW=
201210111220 METAR COR EGLL 111220Z 09007KT 1800 RADZ FEW002 SCT003 OVC004
                        14/13 Q1003 BECMG 3000 -DZ SCT004
                        BKN007=
201210111150 METAR COR EGLL 111150Z 09007KT 2000 -RADZ FEW003 SCT004 OVC006
                        13/13 Q1003 TEMPO 3500 BKN004=
201210111120 METAR COR EGLL 111120Z 09007KT 2400 RADZ FEW005 OVC006 13/12
                        Q1004 TEMPO BKN004=
201210111050 METAR COR EGLL 111050Z 09007KT 3100 -RADZ HZ FEW006 BKN007CB
                        OVC009 13/12 Q1004 TEMPO DZ BKN004=
201210111020 METAR COR EGLL 111020Z 09007KT 2800 -RADZ BKN007 OVC008CB
                        12/11 Q1004 TEMPO RA BKN004=
201210110950 METAR COR EGLL 110950Z 10007KT 7000 FEW007CB OVC008 12/10
                        Q1005 TEMPO 2500 RA BKN004=
201210110920 METAR COR EGLL 110920Z 09007KT 8000 BKN008CB 12/10 Q1005
                        TEMPO 2500 RA BKN004=
201210110850 METAR COR EGLL 110850Z 09008KT 8000 SCT007CB BKN008 BKN009
                        11/09 Q1005 TEMPO 3000 RA BKN004=
201210110820 METAR COR EGLL 110820Z 08008KT 8000 SCT007CB BKN008 11/08
                        Q1005 TEMPO 3000 RA=
201210110750 METAR COR EGLL 110750Z 10008KT 9999 BKN008 10/08 Q1006 TEMPO
                        4000 RA=
201210110720 METAR COR EGLL 110720Z 09007KT 9999 SCT010 BKN020 10/08 Q1006
                        BECMG BKN008=
201210110650 METAR COR EGLL 110650Z 09009KT 9999 SCT009 BKN034 10/07 Q1006
                        BECMG BKN008=
201210110620 METAR COR EGLL 110620Z 10007KT 9999 SCT011 SCT032 09/07 Q1006
                        BECMG BKN009=
201210110550 METAR COR EGLL 110550Z 09007KT 9999 SCT031 09/07 Q1006 BECMG
                        BKN010=
201210110520 METAR COR EGLL 110520Z 09008KT 9999 SCT032 09/07 Q1007 BECMG
                        BKN010=
201210110450 METAR COR EGLL 110450Z 09007KT CAVOK 09/07 Q1007 BECMG BKN012=
201210110420 METAR COR EGLL 110420Z 08006KT 9999 FEW016 09/07 Q1007 TEMPO
                        BKN014=
201210110350 METAR COR EGLL 110350Z 09007KT 9999 BKN016 10/07 Q1008 TEMPO
                        BKN014=
201210110320 METAR COR EGLL 110320Z 10008KT 9999 OVC020 11/07 Q1008 NOSIG=
201210110250 METAR EGLL 110250Z AUTO 11009KT 9999 OVC020/// 11/07 Q1009=
201210110220 METAR COR EGLL 110220Z 12010KT 9999 BKN022 11/07 Q1009 NOSIG=
201210110150 METAR COR EGLL 110150Z 12009KT 9999 BKN022 10/07 Q1009 NOSIG=
201210110120 METAR EGLL 110120Z AUTO 09006KT 9999 OVC023/// 10/07 Q1010=
201210110050 METAR EGLL 110050Z AUTO 09005KT 9999 FEW023/// BKN030///
                        09/06 Q1010=
201210110020 METAR EGLL 110020Z AUTO 10006KT 9999 NCD 08/06 Q1011=
201210102350 METAR COR EGLL 102350Z 10006KT 9999 BKN032 09/06 Q1011 NOSIG=
201210102320 METAR COR EGLL 102320Z 10006KT 9999 BKN032 10/06 Q1011 NOSIG=
201210102250 METAR COR EGLL 102250Z 10005KT 9999 OVC033 11/06 Q1012 NOSIG=
201210102220 METAR EGLL 102220Z 11006KT 9999 OVC034 11/06 Q1012=
201210102150 METAR COR EGLL 102150Z 10006KT 9999 OVC035 11/06 Q1012 NOSIG=
201210102120 METAR COR EGLL 102120Z 10007KT 9999 BKN035 11/06 Q1013 NOSIG=
201210102050 METAR COR EGLL 102050Z 11007KT 9999 BKN035 11/06 Q1013 NOSIG=
201210102020 METAR COR EGLL 102020Z 12008KT 9999 BKN035 11/06 Q1013 NOSIG=
201210101950 METAR COR EGLL 101950Z 12008KT 9999 SCT038 11/06 Q1013 NOSIG=
201210101920 METAR COR EGLL 101920Z 12009KT 9999 SCT037 12/06 Q1013 NOSIG=
201210101850 METAR COR EGLL 101850Z 13009KT 9999 BKN036 12/06 Q1013 NOSIG=
201210101820 METAR COR EGLL 101820Z 13008KT 9999 BKN036 13/06 Q1014 NOSIG=
201210101750 METAR COR EGLL 101750Z 12009KT 9999 BKN035 13/07 Q1014 NOSIG=
201210101720 METAR COR EGLL 101720Z 10007KT 9999 BKN035 13/07 Q1014 NOSIG=
201210101650 METAR COR EGLL 101650Z 11008KT 9999 BKN035 13/07 Q1014 NOSIG=
201210101620 METAR COR EGLL 101620Z 11008KT 9999 BKN037 14/07 Q1014 NOSIG=
201210101550 METAR COR EGLL 101550Z 11007KT 9999 FEW034 BKN039 14/07 Q1014
                        NOSIG=
201210101520 METAR COR EGLL 101520Z 13006KT 9999 BKN039 14/07 Q1014 NOSIG=
201210101450 METAR COR EGLL 101450Z 12007KT 9999 BKN039 14/07 Q1014 NOSIG=
201210101420 METAR COR EGLL 101420Z 11006KT 9999 BKN034 14/07 Q1014 NOSIG=
201210101350 METAR COR EGLL 101350Z 10006KT 9999 BKN034 14/07 Q1015 NOSIG=
201210101320 METAR COR EGLL 101320Z 09005KT 9999 BKN036 14/06 Q1015 NOSIG=
201210101250 METAR COR EGLL 101250Z 11006KT 080V160 9999 BKN035 14/06
                        Q1015 NOSIG=
201210101220 METAR COR EGLL 101220Z 10004KT 070V190 9999 BKN035 14/06
                        Q1015 NOSIG=
201210101150 METAR COR EGLL 101150Z 12007KT 090V160 9999 SCT034 15/06
                        Q1015 NOSIG=
201210101120 METAR COR EGLL 101120Z 13007KT 110V170 9999 FEW030 15/07
                        Q1016 NOSIG=
201210101050 METAR COR EGLL 101050Z 10008KT 9999 FEW032 14/07 Q1016 NOSIG=
201210101020 METAR COR EGLL 101020Z 09009KT 9999 FEW041 14/06 Q1016 NOSIG=
201210100950 METAR COR EGLL 100950Z 09007KT 050V120 9999 SCT042 13/06
                        Q1016 NOSIG=
201210100920 METAR COR EGLL 100920Z 09006KT 9999 OVC041 12/06 Q1016 NOSIG=
201210100850 METAR COR EGLL 100850Z 07004KT 9999 BKN040 11/06 Q1016 NOSIG=
201210100820 METAR COR EGLL 100820Z 07004KT 9999 BKN040 10/06 Q1016 NOSIG=
201210100750 METAR COR EGLL 100750Z 07004KT 9999 BKN040 09/06 Q1016 NOSIG=
201210100720 METAR COR EGLL 100720Z 07004KT 9999 BKN040 09/06 Q1016 NOSIG=
201210100650 METAR COR EGLL 100650Z 06003KT 9999 BKN038 09/06 Q1016 NOSIG=
201210100620 METAR COR EGLL 100620Z VRB03KT 9999 FEW038 SCT047 08/05 Q1016
                        NOSIG=
201210100550 METAR COR EGLL 100550Z 05004KT 020V080 9999 FEW040 SCT047
                        08/05 Q1016 NOSIG=
201210100520 METAR COR EGLL 100520Z 06003KT 9999 SCT049 08/05 Q1015 NOSIG=
201210100450 METAR COR EGLL 100450Z 10003KT CAVOK 08/05 Q1015 NOSIG=
201210100420 METAR COR EGLL 100420Z 08004KT 9999 FEW040 09/06 Q1015 NOSIG=
201210100350 METAR COR EGLL 100350Z 10005KT 9999 FEW040 09/06 Q1015 NOSIG=
201210100320 METAR COR EGLL 100320Z 12004KT 9999 BKN040 10/06 Q1015 NOSIG=
201210100250 METAR COR EGLL 100250Z VRB03KT 9999 BKN038 11/06 Q1016 NOSIG=
201210100220 METAR COR EGLL 100220Z 09007KT 9999 FEW036 BKN040 11/06 Q1016
                        NOSIG=
201210100150 METAR COR EGLL 100150Z 08004KT 9999 FEW033 BKN040 11/07 Q1016
                        NOSIG=
201210100120 METAR EGLL 100120Z AUTO 05003KT 9999 OVC038/// 11/07 Q1016=
201210100050 METAR EGLL 100050Z AUTO 08005KT 9999 OVC035/// 11/07 Q1016=
201210100020 METAR EGLL 100020Z AUTO 09005KT 9999 BKN036/// 11/07 Q1016=
201210092350 METAR COR EGLL 092350Z 09006KT 9999 BKN040 10/07 Q1016 NOSIG=
201210092320 METAR COR EGLL 092320Z 09006KT 9999 BKN041 10/07 Q1016 NOSIG=
201210092250 METAR COR EGLL 092250Z 10006KT 9999 BKN041 11/07 Q1016 NOSIG=
201210092220 METAR COR EGLL 092220Z 08004KT 9999 OVC039 11/07 Q1017 NOSIG=
201210092150 METAR COR EGLL 092150Z 09005KT 070V130 9999 OVC039 11/07
                        Q1017 NOSIG=
201210092120 METAR COR EGLL 092120Z 07004KT 9999 OVC039 12/07 Q1017 NOSIG=
201210092050 METAR COR EGLL 092050Z 09006KT 9999 OVC037 12/07 Q1017 NOSIG=
201210092020 METAR COR EGLL 092020Z 09006KT 9999 FEW034 BKN039 11/07 Q1017
                        NOSIG=
201210091950 METAR COR EGLL 091950Z 10008KT 9999 OVC039 12/07 Q1017 NOSIG=
201210091920 METAR COR EGLL 091920Z 10008KT 9999 FEW033 BKN038 12/07 Q1017
                        NOSIG=
201210091850 METAR COR EGLL 091850Z 09008KT 9999 FEW033 BKN039 12/07 Q1016
                        NOSIG=
201210091820 METAR COR EGLL 091820Z 10008KT 9999 BKN038 12/07 Q1016 NOSIG=
201210091750 METAR COR EGLL 091750Z 09007KT 9999 BKN035 12/08 Q1016 NOSIG=
201210091720 METAR COR EGLL 091720Z 10007KT 9999 BKN033 12/07 Q1016 NOSIG=
201210091650 METAR COR EGLL 091650Z 10009KT 9999 SCT026 BKN030 13/08 Q1016
                        NOSIG=
201210091620 METAR COR EGLL 091620Z 09008KT 9999 BKN027 13/08 Q1016 NOSIG=
201210091550 METAR COR EGLL 091550Z 10007KT 9999 BKN029 13/08 Q1016 NOSIG=
201210091520 METAR COR EGLL 091520Z 09006KT 9999 BKN029 13/08 Q1016 NOSIG=
201210091450 METAR COR EGLL 091450Z 07008KT 9999 OVC028 14/08 Q1016 NOSIG=
201210091420 METAR COR EGLL 091420Z 07008KT 9999 OVC027 14/08 Q1016 NOSIG=
201210091350 METAR COR EGLL 091350Z 06007KT 9999 BKN028 14/08 Q1016 NOSIG=
201210091320 METAR COR EGLL 091320Z 06006KT 020V080 9999 SCT031 BKN037
                        14/08 Q1017 NOSIG=
201210091250 METAR COR EGLL 091250Z 06007KT 040V100 9999 FEW026 OVC029
                        14/08 Q1017 NOSIG=
201210091220 METAR COR EGLL 091220Z 08007KT 040V120 9999 FEW024 SCT029
                        14/08 Q1017 NOSIG=
201210091150 METAR COR EGLL 091150Z 07008KT 050V110 9999 SCT029 13/08
                        Q1017 NOSIG=
201210091120 METAR COR EGLL 091120Z 07008KT 040V100 9999 BKN029 14/08
                        Q1017 NOSIG=
201210091050 METAR COR EGLL 091050Z 08008KT 040V110 9999 SCT032 13/08
                        Q1017 NOSIG=
201210091020 METAR COR EGLL 091020Z 09009KT 9999 SCT032 12/08 Q1017 NOSIG=
201210090950 METAR COR EGLL 090950Z 06007KT 9999 SCT032 12/08 Q1017 NOSIG=
201210090920 METAR COR EGLL 090920Z 06008KT 9999 FEW012 11/08 Q1017 NOSIG=
201210090850 METAR COR EGLL 090850Z 06007KT 9999 FEW010 11/08 Q1017 NOSIG=
201210090820 METAR COR EGLL 090820Z 06006KT 9000 FEW008 10/08 Q1017 NOSIG=
201210090750 METAR COR EGLL 090750Z 06006KT 6000 FEW006 SCT030 10/08 Q1017
                        NOSIG=
201210090720 METAR COR EGLL 090720Z 06004KT 030V090 8000 FEW008 SCT011
                        09/08 Q1017 TEMPO BKN013=
201210090650 METAR COR EGLL 090650Z 04004KT 020V090 7000 SCT008 BKN011
                        10/08 Q1016 BECMG SCT011=
201210090620 METAR COR EGLL 090620Z 06005KT 6000 FEW006 BKN008 10/09 Q1016
                        BECMG SCT008 BKN011=
201210090550 METAR COR EGLL 090550Z 05006KT 360V080 5000 BR FEW004 BKN005
                        09/08 Q1016 NOSIG=
201210090520 METAR COR EGLL 090520Z 05005KT 010V080 4500 BR SCT004 BKN005
                        09/08 Q1015 BECMG 6000 NSW=
201210090450 METAR COR EGLL 090450Z 03005KT 360V080 5000 BR BKN006 09/08
                        Q1015 TEMPO 4000=
201210090420 METAR COR EGLL 090420Z 03004KT 6000 NSC 09/08 Q1015 TEMPO
                        4000 BR BKN006=
201210090350 METAR COR EGLL 090350Z 03004KT 350V060 6000 FEW008 09/08
                        Q1015 NOSIG=
201210090320 METAR COR EGLL 090320Z VRB03KT 6000 FEW008 10/09 Q1015 NOSIG=
201210090250 METAR COR EGLL 090250Z 01004KT 4900 BR FEW008 SCT040 10/09
                        Q1014 TEMPO BKN006=
201210090220 METAR COR EGLL 090220Z VRB03KT 4000 BR FEW036 SCT042 11/10
                        Q1014 NOSIG=
201210090150 METAR COR EGLL 090150Z VRB03KT 4000 BR SCT046 11/10 Q1014
                        NOSIG=
201210090120 METAR EGLL 090120Z AUTO VRB03KT 3900 HZ SCT007/// BKN035///
                        12/11 Q1014=
201210090050 METAR EGLL 090050Z AUTO 35003KT 4300 HZ BKN006/// OVC033///
                        12/11 Q1014=
201210090020 METAR EGLL 090020Z AUTO 36004KT 330V040 4100 HZ FEW010///
                        BKN033/// 12/11 Q1014=
201210082350 METAR COR EGLL 082350Z 35003KT 4500 BR FEW013 BKN035 12/11
                        Q1013 BECMG 5000=
201210082320 METAR COR EGLL 082320Z 35003KT 4700 BR SCT014 BKN033 12/11
                        Q1013 BECMG 5000=
201210082250 METAR COR EGLL 082250Z 35003KT 6000 FEW007 SCT020 BKN030
                        12/11 Q1013 NOSIG=
201210082220 METAR COR EGLL 082220Z VRB03KT 6000 SCT006 BKN008 12/11 Q1013
                        BECMG SCT008 BKN030=
201210082150 METAR COR EGLL 082150Z VRB03KT 4700 BR SCT004 BKN006 12/11
                        Q1013 BECMG 7000 NSW SCT006 BKN018=
201210082120 METAR COR EGLL 082120Z 36003KT 3700 -DZ BR SCT004 BKN005
                        12/11 Q1013 REDZ TEMPO BKN004=
201210082050 METAR COR EGLL 082050Z VRB03KT 3500 -DZ BR FEW003 BKN004
                        12/11 Q1013 TEMPO SCT004 BKN005=
201210082020 METAR COR EGLL 082020Z 02004KT 360V060 4800 BR FEW004 BKN005
                        12/11 Q1012 TEMPO BKN004=
201210081950 METAR COR EGLL 081950Z 04004KT 5000 -DZ SCT004 BKN006 12/11
                        Q1012 NOSIG=
201210081920 METAR COR EGLL 081920Z 05004KT 8000 FEW005 BKN006 12/11 Q1012
                        NOSIG=
201210081850 METAR EGLL 081850Z 04006KT 7000 FEW004 BKN005 12/11 Q1012=
201210081820 METAR COR EGLL 081820Z 05004KT 020V090 7000 BKN005 12/11
                        Q1012 TEMPO 4000 -DZ BKN004=
201210081750 METAR COR EGLL 081750Z 05004KT 020V090 5000 BR BKN004 BKN006
                        12/11 Q1012 NOSIG=
201210081720 METAR COR EGLL 081720Z 05005KT 3600 BR FEW003 BKN005 12/11
                        Q1012 TEMPO BKN004=
201210081650 METAR COR EGLL 081650Z 04004KT 010V090 3100 -DZ BR FEW003
                        BKN005 12/11 Q1011 TEMPO BKN004=
201210081620 METAR COR EGLL 081620Z 05005KT 2600 BR FEW003 BKN004 12/11
                        Q1011 BECMG 4500 SCT004 BKN005=
201210081550 METAR COR EGLL 081550Z 06006KT 4900 -DZ HZ OVC005 12/12 Q1012
                        TEMPO BKN004=
201210081520 METAR COR EGLL 081520Z 06005KT 8000 BKN006 13/11 Q1012 TEMPO
                        SCT006 BKN010=
201210081450 METAR COR EGLL 081450Z 07005KT 9000 BKN006 13/11 Q1012 BECMG
                        SCT006 BKN011=
201210081420 METAR COR EGLL 081420Z 08006KT 9000 BKN005 12/11 Q1012 BECMG
                        SCT005 BKN010=
201210081350 METAR COR EGLL 081350Z 08006KT 9999 BKN006 12/11 Q1012 BECMG
                        SCT007 BKN011=
201210081320 METAR COR EGLL 081320Z 08008KT 9999 BKN006 BKN010 12/11 Q1012
                        BECMG SCT007 BKN012=
201210081250 METAR COR EGLL 081250Z 08007KT 9999 BKN005 BKN009 12/11 Q1013
                        BECMG SCT006 BKN012=
201210081220 METAR COR EGLL 081220Z 09007KT 9999 SCT004 BKN010 12/11 Q1013
                        TEMPO BKN008=
201210081150 METAR COR EGLL 081150Z 07006KT 9999 -RADZ SCT004 BKN010 12/11
                        Q1014 TEMPO BKN008=
201210081120 METAR COR EGLL 081120Z 09006KT 4600 BR SCT003 BKN011 12/11
                        Q1014 TEMPO 6000 -DZ BKN008=
201210081050 METAR COR EGLL 081050Z 10007KT 3800 -RADZ SCT005 BKN011 12/11
                        Q1014 TEMPO 6000 RADZ BKN008=
201210081020 METAR COR EGLL 081020Z 10007KT 5000 -RADZ SCT005 BKN011 11/11
                        Q1014 NOSIG=
201210080950 METAR COR EGLL 080950Z 08008KT 4500 -RADZ FEW005 BKN011 11/10
                        Q1015 RERA BECMG 7000 FEW010 BKN020=
201210080920 METAR COR EGLL 080920Z 07007KT 6000 -RADZ BKN011 11/10 Q1015
                        TEMPO 4500 RADZ SCT012 OVC020=
201210080850 METAR COR EGLL 080850Z 07006KT 8000 -RADZ FEW014 SCT022 BKN030
                        11/10 Q1015 TEMPO 4000 RADZ=
201210080820 METAR COR EGLL 080820Z 09007KT 8000 -RADZ FEW015 BKN030 11/10
                        Q1015 TEMPO 4500 RADZ=
201210080750 METAR COR EGLL 080750Z 09005KT 9999 -DZ SCT030 SCT038 11/10
                        Q1015 TEMPO 4500 RADZ=
201210080720 METAR COR EGLL 080720Z 09007KT 9999 7000S -RA SCT032 SCT038
                        11/09 Q1015 TEMPO 4500 RADZ=
201210080650 METAR COR EGLL 080650Z 09006KT 9999 SCT044 11/09 Q1015 NOSIG=
201210080620 METAR COR EGLL 080620Z 09006KT CAVOK 11/09 Q1016 NOSIG=
201210080550 METAR COR EGLL 080550Z 08006KT 9999 FEW048 11/09 Q1016 NOSIG=
201210080520 METAR COR EGLL 080520Z 10008KT CAVOK 11/09 Q1016 NOSIG=
201210080450 METAR COR EGLL 080450Z 09007KT CAVOK 11/09 Q1017 NOSIG=
201210080420 METAR COR EGLL 080420Z 09007KT CAVOK 11/09 Q1017 NOSIG=
201210080350 METAR COR EGLL 080350Z 09007KT CAVOK 10/09 Q1017 NOSIG=
201210080320 METAR COR EGLL 080320Z 09006KT CAVOK 11/09 Q1018 NOSIG=
201210080250 METAR COR EGLL 080250Z 09006KT CAVOK 10/09 Q1018 NOSIG=
201210080220 METAR COR EGLL 080220Z 09006KT CAVOK 11/09 Q1019 NOSIG=
201210080150 METAR COR EGLL 080150Z 10006KT CAVOK 11/09 Q1019 NOSIG=
201210080120 METAR EGLL 080120Z AUTO 09007KT 9000 NCD 11/09 Q1020=
201210080050 METAR EGLL 080050Z AUTO 09005KT 9000 NCD 10/09 Q1020=
201210080020 METAR EGLL 080020Z AUTO 09006KT 9999 NCD 10/09 Q1020=
201210072350 METAR COR EGLL 072350Z 09006KT CAVOK 09/08 Q1021 NOSIG=
201210072320 METAR COR EGLL 072320Z 10006KT CAVOK 09/08 Q1021 NOSIG=
201210072250 METAR COR EGLL 072250Z 09005KT CAVOK 09/07 Q1022 NOSIG=
201210072220 METAR COR EGLL 072220Z 09005KT 9999 FEW035 08/07 Q1022 NOSIG=
201210072150 METAR COR EGLL 072150Z 10005KT CAVOK 09/08 Q1022 NOSIG=
201210072120 METAR COR EGLL 072120Z 09006KT CAVOK 08/07 Q1022 NOSIG=
201210072050 METAR COR EGLL 072050Z 09005KT CAVOK 09/08 Q1023 NOSIG=
201210072020 METAR COR EGLL 072020Z 08004KT CAVOK 11/08 Q1023 NOSIG=
201210071950 METAR COR EGLL 071950Z 09004KT CAVOK 11/08 Q1022 NOSIG=
201210071920 METAR COR EGLL 071920Z 07003KT CAVOK 11/08 Q1022 NOSIG=
201210071850 METAR COR EGLL 071850Z 07004KT CAVOK 12/08 Q1022 NOSIG=
201210071820 METAR COR EGLL 071820Z 06004KT CAVOK 12/09 Q1022 NOSIG=
201210071750 METAR COR EGLL 071750Z 05004KT CAVOK 12/08 Q1022 NOSIG=
201210071720 METAR COR EGLL 071720Z 05003KT CAVOK 13/08 Q1023 NOSIG=
201210071650 METAR COR EGLL 071650Z 36003KT CAVOK 13/08 Q1022 NOSIG=
201210071620 METAR COR EGLL 071620Z VRB02KT 9999 FEW040 13/08 Q1022 NOSIG=
201210071550 METAR COR EGLL 071550Z VRB03KT CAVOK 13/08 Q1022 NOSIG=
201210071520 METAR COR EGLL 071520Z VRB03KT 9999 FEW020 13/08 Q1023 NOSIG=
201210071450 METAR COR EGLL 071450Z VRB02KT 9999 FEW020 13/08 Q1023 NOSIG=
201210071420 METAR COR EGLL 071420Z VRB03KT CAVOK 13/08 Q1023 NOSIG=
201210071350 METAR COR EGLL 071350Z VRB03KT CAVOK 12/08 Q1023 NOSIG=
201210071320 METAR COR EGLL 071320Z VRB03KT 9999 FEW010 12/09 Q1023 NOSIG=
201210071250 METAR COR EGLL 071250Z VRB03KT 9000 SCT009 11/09 Q1023 NOSIG=
201210071220 METAR COR EGLL 071220Z 34004KT 300V040 9000 BKN008 11/08
                        Q1023 BECMG SCT010=
201210071150 METAR COR EGLL 071150Z VRB02KT 7000 BKN007 10/08 Q1023 BECMG
                        SCT008=
201210071120 METAR COR EGLL 071120Z VRB03KT 5000 HZ SCT002 BKN005 10/08
                        Q1023 BECMG SCT008=
201210071050 METAR COR EGLL 071050Z VRB03KT 2500 BR SCT002 BKN004 10/08
                        Q1023 BECMG 5000 HZ BKN005=
201210071020 METAR COR EGLL 071020Z 32004KT 260V360 1000 R27L/P1500 R27R/P1500
                        BR SCT002 BKN004 09/08 Q1023 BECMG
                        3000=
201210070950 METAR COR EGLL 070950Z 34004KT 260V010 1000 R27L/P1500 R27R/P1500
                        HZ SCT001 BKN002 09/07 Q1023 BECMG
                        2500=
201210070920 METAR COR EGLL 070920Z 33005KT 300V010 2200 0900N R27L/P1500
                        R27R/P1500 PRFG BKN002 08/07 Q1023
                        TEMPO BKN001=
201210070850 METAR COR EGLL 070850Z 31004KT 290V360 1200 R27L/P1500 R27R/1400
                        PRFG BKN002 08/07 Q1022 TEMPO BKN001=
201210070820 METAR COR EGLL 070820Z 29004KT 6000 1200SW R27L/P1500 R27R/P1500
                        PRFG SCT003 08/06 Q1022 TEMPO 0900
                        FG BKN002=
201210070750 METAR COR EGLL 070750Z 31004KT 7000 1600W PRFG NSC 07/06
                        Q1021 TEMPO 0600 FG BKN001=
201210070720 METAR COR EGLL 070720Z 32003KT 8000 NSC 07/06 Q1021 TEMPO
                        4000 BR BKN004=
201210070650 METAR COR EGLL 070650Z 31003KT 8000 VCFG NSC 05/05 Q1021
                        TEMPO 4000 BR BKN003=
201210070620 METAR COR EGLL 070620Z 32002KT 8000 VCFG NSC 05/04 Q1020
                        TEMPO 4000 BR BKN003=
201210070550 METAR COR EGLL 070550Z VRB02KT 9000 NSC 05/04 Q1020 NOSIG=
201210070520 METAR COR EGLL 070520Z 28003KT 9000 NSC 06/05 Q1020 NOSIG=
201210070450 METAR COR EGLL 070450Z VRB03KT CAVOK 05/04 Q1020 NOSIG=
201210070420 METAR EGLL 070420Z AUTO 30003KT 9999 NCD 04/03 Q1019=
201210070350 METAR EGLL 070350Z AUTO 29003KT 9999 NCD 05/04 Q1019=
201210070320 METAR EGLL 070320Z AUTO 28003KT 9999 NCD 05/04 Q1018=
201210070250 METAR COR EGLL 070250Z 28003KT CAVOK 06/05 Q1018 NOSIG=
201210070220 METAR COR EGLL 070220Z 28003KT CAVOK 06/04 Q1018 NOSIG=
201210070150 METAR COR EGLL 070150Z 26002KT CAVOK 06/05 Q1018 NOSIG=
201210070120 METAR COR EGLL 070120Z 00000KT CAVOK 06/05 Q1018 NOSIG=
201210070050 METAR COR EGLL 070050Z 31004KT CAVOK 07/05 Q1018 NOSIG=
201210070020 METAR COR EGLL 070020Z 29003KT CAVOK 06/04 Q1018 NOSIG=
201210062350 METAR COR EGLL 062350Z VRB02KT CAVOK 07/05 Q1018 NOSIG=
201210062320 METAR COR EGLL 062320Z VRB03KT CAVOK 08/06 Q1017 NOSIG=
201210062250 METAR COR EGLL 062250Z 36003KT CAVOK 08/06 Q1017 NOSIG=
201210062220 METAR COR EGLL 062220Z 36004KT CAVOK 09/06 Q1017 NOSIG=
201210062150 METAR COR EGLL 062150Z 36004KT CAVOK 11/06 Q1017 NOSIG=
201210062120 METAR COR EGLL 062120Z 36003KT 9999 FEW040 11/07 Q1016 NOSIG=
201210062050 METAR COR EGLL 062050Z 36003KT 9999 FEW040 12/07 Q1016 NOSIG=
201210062020 METAR COR EGLL 062020Z 35003KT 9999 SCT040 12/07 Q1016 NOSIG=
201210061950 METAR COR EGLL 061950Z 35004KT 9999 SCT041 12/07 Q1016 NOSIG=
201210061920 METAR COR EGLL 061920Z 36003KT 9999 SCT041 13/07 Q1016 NOSIG=
201210061850 METAR COR EGLL 061850Z 02002KT 9999 SCT041 13/06 Q1016 NOSIG=
201210061820 METAR COR EGLL 061820Z 00000KT 9999 FEW040 13/06 Q1015 NOSIG=
201210061750 METAR COR EGLL 061750Z VRB02KT 9999 FEW040 14/06 Q1015 NOSIG=
201210061720 METAR COR EGLL 061720Z 04003KT 9999 FEW039 14/06 Q1015 NOSIG=
201210061650 METAR COR EGLL 061650Z 05004KT 010V090 9999 FEW039 14/06
                        Q1014 NOSIG=
201210061620 METAR COR EGLL 061620Z VRB04KT 9999 FEW037 15/06 Q1014 NOSIG=
201210061550 METAR COR EGLL 061550Z 01004KT 310V060 9999 FEW037 15/06
                        Q1014 NOSIG=
201210061520 METAR COR EGLL 061520Z 15004KT 100V180 9999 FEW037 14/06
                        Q1014 NOSIG=
201210061450 METAR COR EGLL 061450Z VRB04KT 9999 FEW035 15/07 Q1014 NOSIG=
201210061420 METAR COR EGLL 061420Z 36005KT 320V070 9999 FEW035 15/06
                        Q1014 NOSIG=
201210061350 METAR EGLL 061350Z 04004KT 010V080 9999 FEW032 15/06 Q1014=
201210061320 METAR COR EGLL 061320Z 02004KT 310V090 9999 FEW032 15/07
                        Q1014 NOSIG=
201210061250 METAR COR EGLL 061250Z 05007KT 020V080 9999 FEW031 15/06
                        Q1014 NOSIG=
201210061220 METAR COR EGLL 061220Z 01006KT 320V050 9999 FEW026 15/07
                        Q1014 NOSIG=
201210061150 METAR COR EGLL 061150Z 03005KT 340V070 9999 FEW026 14/07
                        Q1014 NOSIG=
201210061120 METAR COR EGLL 061120Z 01005KT 290V100 9999 FEW021 14/07
                        Q1014 NOSIG=
201210061050 METAR COR EGLL 061050Z VRB04KT 9999 FEW021 13/07 Q1014 NOSIG=
201210061020 METAR COR EGLL 061020Z 36005KT 280V030 9999 FEW018 12/07
                        Q1013 NOSIG=
201210060950 METAR COR EGLL 060950Z 33005KT 290V020 9999 FEW015 11/07
                        Q1013 NOSIG=
201210060920 METAR COR EGLL 060920Z 36005KT 320V020 9999 FEW015 11/07
                        Q1013 NOSIG=
201210060850 METAR COR EGLL 060850Z 33005KT 300V010 9999 FEW010 10/07
                        Q1013 NOSIG=
201210060820 METAR COR EGLL 060820Z 30004KT 9999 FEW010 09/07 Q1012 NOSIG=
201210060750 METAR EGLL 060750Z 30004KT 9999 FEW006 08/07 Q1012 NOSIG=
201210060720 METAR COR EGLL 060720Z VRB03KT 9999 FEW006 08/07 Q1011 NOSIG=
201210060650 METAR COR EGLL 060650Z VRB03KT 9999 FEW006 08/07 Q1010 NOSIG=
201210060620 METAR COR EGLL 060620Z VRB03KT 9999 SCT006 08/07 Q1010 NOSIG=
201210060550 METAR EGLL 060550Z VRB03KT 9999 FEW006 BKN008 08/07 Q1010=
201210060520 METAR COR EGLL 060520Z 04004KT 9999 SCT007 08/07 Q1010 NOSIG=
201210060450 METAR COR EGLL 060450Z 02004KT 340V050 7000 -RADZ FEW004
                        SCT008 BKN020 08/07 Q1009 NOSIG=
201210060420 METAR COR EGLL 060420Z 03005KT 340V070 6000 -RA FEW006 SCT010
                        BKN022 08/07 Q1009 NOSIG=
201210060350 METAR COR EGLL 060350Z 02004KT 350V060 5000 -RADZ FEW004
                        SCT010 BKN015 08/07 Q1009 NOSIG=
201210060320 METAR COR EGLL 060320Z 03005KT 360V070 6000 -RADZ FEW004
                        SCT010 BKN017 08/07 Q1009 RERA NOSIG=
201210060250 METAR COR EGLL 060250Z 02006KT 340V050 4000 -RADZ FEW004
                        SCT008 BKN012 08/07 Q1009 RERA BECMG
                        6000 SCT012 BKN020=
201210060220 METAR COR EGLL 060220Z 02006KT 340V050 4500 -RADZ FEW004
                        SCT007 BKN012 08/07 Q1009 RERA TEMPO
                        RADZ=
201210060150 METAR COR EGLL 060150Z 36005KT 260V050 5000 RA FEW003 SCT006
                        BKN020 08/08 Q1008 TEMPO 3000 RADZ=
201210060120 METAR EGLL 060120Z AUTO 02005KT 350V050 5000 RA FEW006///
                        SCT020/// BKN026/// 08/08 Q1009=
201210060050 METAR EGLL 060050Z AUTO 02005KT 350V050 3900 RA FEW004///
                        SCT006/// 08/08 Q1009=
201210060020 METAR EGLL 060020Z AUTO 01004KT 340V070 4200 -RA FEW011///
                        BKN019/// 09/08 Q1008 RERA=
201210052350 METAR COR EGLL 052350Z 06004KT 020V090 3000 RADZ FEW002 SCT006
                        BKN014 09/08 Q1009 TEMPO 5000 RA=
201210052320 METAR COR EGLL 052320Z 08005KT 4400 -RADZ FEW002 SCT008 BKN017
                        09/08 Q1009 RERA TEMPO 5000 RA=
201210052250 METAR COR EGLL 052250Z 04004KT 010V080 5000 RA FEW003 SCT010
                        BKN017 09/08 Q1009 NOSIG=
201210052220 METAR COR EGLL 052220Z 05004KT 030V090 3000 RADZ SCT003 SCT005
                        BKN011 09/08 Q1009 TEMPO 5000 RA=
201210052150 METAR COR EGLL 052150Z 06004KT 020V090 4000 RADZ FEW003 SCT006
                        BKN014 09/08 Q1010 NOSIG=
201210052120 METAR COR EGLL 052120Z 07004KT 3000 RADZ FEW004 SCT007 BKN018
                        09/08 Q1010 TEMPO 5000 -RADZ BKN012=
201210052050 METAR COR EGLL 052050Z VRB03KT 3800 RADZ FEW006 SCT008 BKN018
                        09/08 Q1010 TEMPO BKN012=
201210052020 METAR COR EGLL 052020Z VRB03KT 6000 -RA FEW009 BKN017 10/08
                        Q1010 NOSIG=
201210051950 METAR COR EGLL 051950Z VRB03KT 7000 -RA FEW010 BKN019 10/08
                        Q1011 NOSIG=
201210051920 METAR COR EGLL 051920Z VRB02KT 9999 -RA FEW010 BKN018 10/08
                        Q1010 TEMPO RA=
201210051850 METAR COR EGLL 051850Z VRB02KT 7000 -RA FEW005 SCT012 BKN019
                        10/09 Q1010 RERA TEMPO RA=
201210051820 METAR COR EGLL 051820Z 33005KT 290V360 7000 RA SCT004 SCT013
                        BKN024 11/10 Q1011 NOSIG=
201210051750 METAR COR EGLL 051750Z 24007KT 7000 RA FEW018 SCT031 BKN036
                        11/10 Q1010 NOSIG=
201210051720 METAR COR EGLL 051720Z 25006KT 220V280 6000 RA FEW010 SCT029
                        BKN033 12/10 Q1010 NOSIG=
201210051650 METAR COR EGLL 051650Z 26005KT 220V300 7000 RA FEW015 SCT030
                        BKN046 12/10 Q1010 NOSIG=
201210051620 METAR COR EGLL 051620Z 27006KT 9999 -RA FEW030 SCT047 12/10
                        Q1010 NOSIG=
201210051550 METAR COR EGLL 051550Z 28006KT 9999 -RA SCT026 13/10 Q1010
                        NOSIG=
201210051520 METAR COR EGLL 051520Z 28008KT 9999 -RA BKN026 13/10 Q1010
                        NOSIG=
201210051450 METAR COR EGLL 051450Z 28010KT 9999 FEW033 14/09 Q1010 NOSIG=
201210051420 METAR COR EGLL 051420Z 28008KT 9999 FEW035 14/09 Q1009 NOSIG=
201210051350 METAR COR EGLL 051350Z 28010KT 9999 FEW035 14/09 Q1009 NOSIG=
201210051320 METAR COR EGLL 051320Z 27011KT 9999 FEW030 SCT035 14/09 Q1009
                        NOSIG=
201210051250 METAR COR EGLL 051250Z 28011KT 9999 FEW030 SCT036 15/08 Q1009
                        NOSIG=
201210051220 METAR COR EGLL 051220Z 28012KT 9999 FEW029 SCT034 16/09 Q1009
                        NOSIG=
201210051150 METAR COR EGLL 051150Z 26018KT 9999 SCT032 SCT036 15/09 Q1009
                        NOSIG=
201210051120 METAR EGLL 051120Z 27014KT 9999 FEW033 15/09 Q1008=
201210051050 METAR COR EGLL 051050Z 26015KT 9999 FEW020 15/09 Q1008 NOSIG=
201210051020 METAR COR EGLL 051020Z 26013KT 9999 FEW018 15/10 Q1007 NOSIG=
201210050950 METAR COR EGLL 050950Z 27014KT 9999 FEW018 14/10 Q1007 NOSIG=
201210050920 METAR COR EGLL 050920Z 27012KT 9999 FEW015 13/10 Q1007 NOSIG=
201210050850 METAR COR EGLL 050850Z 26012KT 9999 FEW015 13/10 Q1006 NOSIG=
201210050820 METAR EGLL 050820Z 26012KT 9999 FEW010 12/10 Q1006=
201210050750 METAR COR EGLL 050750Z 26011KT 9999 FEW009 12/10 Q1005 NOSIG=
201210050720 METAR COR EGLL 050720Z 26012KT 9999 FEW010 12/10 Q1005 NOSIG=
201210050650 METAR COR EGLL 050650Z 23006KT 200V260 9999 FEW011 11/10
                        Q1004 NOSIG=
201210050620 METAR COR EGLL 050620Z 32004KT 280V350 9999 FEW011 11/10
                        Q1003 NOSIG=
201210050550 METAR COR EGLL 050550Z 30011KT 9999 FEW008 BKN011 12/10 Q1004
                        BECMG FEW012=
201210050520 METAR COR EGLL 050520Z 28019KT 9999 BKN011 14/13 Q1001 RERA
                        BECMG 26012KT FEW012=
201210050450 METAR COR EGLL 050450Z 24020KT 6000 RA FEW012 SCT014 BKN019
                        16/15 Q0999 TEMPO 26022G35KT 4000
                        +RA=
201210050420 METAR COR EGLL 050420Z 23019KT 9999 -RA FEW012 BKN014 16/14
                        Q0999 RERA TEMPO 23022G35KT 4000
                        +RA=
201210050350 METAR COR EGLL 050350Z 22016KT 6000 -RA SCT009 SCT012 15/14
                        Q0999 RERA TEMPO 23022G35KT 4000
                        +RA BKN012=
201210050320 METAR COR EGLL 050320Z 21013KT 6000 -RA FEW008 BKN015 15/14
                        Q0999 TEMPO 21020G32KT 4000 RA BKN008=
201210050250 METAR COR EGLL 050250Z 20012KT 5000 RA SCT006 BKN010 14/13
                        Q1000 TEMPO 21020G32KT 4000 BKN007=
201210050220 METAR COR EGLL 050220Z 16008KT 3500 +RA SCT004 BKN006 12/11
                        Q1001 TEMPO 19016G26KT 5000 RA=
201210050150 METAR COR EGLL 050150Z 13009KT 5000 RA FEW004 BKN007 11/11
                        Q1002 TEMPO 17015G25KT 3000 +RA=
201210050120 METAR EGLL 050120Z AUTO 11008KT 6000 -RA BKN014/// 11/10
                        Q1004 RERA=
201210050050 METAR EGLL 050050Z AUTO 12006KT 7000 RA FEW023/// SCT036///
                        BKN042/// 11/10 Q1005=
201210050020 METAR EGLL 050020Z AUTO 13006KT 9999 RA FEW033/// BKN048///
                        11/10 Q1006=
201210042350 METAR COR EGLL 042350Z 15004KT 9999 -RA FEW023 SCT027 11/09
                        Q1007 RERA TEMPO RA=
201210042320 METAR COR EGLL 042320Z 18004KT 9000 RA FEW023 SCT035 11/09
                        Q1008 TEMPO -RA=
201210042250 METAR COR EGLL 042250Z 19005KT 9999 RA SCT038 SCT045 11/09
                        Q1008 TEMPO -RA=
201210042220 METAR COR EGLL 042220Z 20007KT 180V240 9999 -RA FEW035 12/08
                        Q1009 TEMPO RA=
201210042150 METAR COR EGLL 042150Z 20009KT CAVOK 12/08 Q1009 TEMPO RA=
201210042120 METAR COR EGLL 042120Z 19008KT CAVOK 13/08 Q1009 NOSIG=
201210042050 METAR COR EGLL 042050Z 21007KT CAVOK 12/08 Q1010 NOSIG=
201210042020 METAR COR EGLL 042020Z 21008KT CAVOK 12/07 Q1010 NOSIG=
201210041950 METAR COR EGLL 041950Z 21008KT CAVOK 12/07 Q1010 NOSIG=
201210041920 METAR COR EGLL 041920Z 21009KT CAVOK 13/07 Q1010 NOSIG=
201210041850 METAR COR EGLL 041850Z 22010KT 190V260 CAVOK 13/07 Q1010
                        NOSIG=
201210041820 METAR EGLL 041820Z 22011KT CAVOK 13/07 Q1010=
201210041750 METAR COR EGLL 041750Z 22013KT 9999 FEW036 14/08 Q1010 NOSIG=
201210041720 METAR COR EGLL 041720Z 22010KT 9999 SCT036 14/08 Q1010 NOSIG=
201210041650 METAR COR EGLL 041650Z 22010KT 9999 FEW034 SCT044 15/08 Q1010
                        NOSIG=
201210041620 METAR COR EGLL 041620Z 22007KT 9999 SCT044 15/08 Q1010 NOSIG=
201210041550 METAR COR EGLL 041550Z 24008KT 9999 FEW048 15/08 Q1010 NOSIG=
201210041520 METAR COR EGLL 041520Z 25010KT 9999 FEW045 16/08 Q1010 NOSIG=
201210041450 METAR COR EGLL 041450Z 25012KT 9999 FEW045 15/08 Q1010 NOSIG=
201210041420 METAR COR EGLL 041420Z 25013KT 9999 FEW040 15/07 Q1010 NOSIG=
201210041350 METAR COR EGLL 041350Z 26015KT 9999 FEW038 15/08 Q1010 NOSIG=
201210041320 METAR COR EGLL 041320Z 25014KT 9999 FEW034 SCT047 15/07 Q1010
                        NOSIG=
201210041250 METAR COR EGLL 041250Z 26015KT 9999 FEW034 SCT047 15/07 Q1010
                        NOSIG=
201210041220 METAR COR EGLL 041220Z 25014KT 9999 FEW032 SCT045 15/07 Q1010
                        NOSIG=
201210041150 METAR COR EGLL 041150Z 25015KT 9999 SCT032 15/07 Q1010 NOSIG=
201210041120 METAR COR EGLL 041120Z 25015KT 9999 SCT032 15/07 Q1009 NOSIG=
201210041050 METAR COR EGLL 041050Z 25014KT 9999 FEW034 15/07 Q1009 NOSIG=
201210041020 METAR COR EGLL 041020Z 26011KT 9999 FEW025 14/07 Q1009 NOSIG=
201210040950 METAR COR EGLL 040950Z 27010KT CAVOK 13/07 Q1008 NOSIG=
201210040920 METAR COR EGLL 040920Z 28011KT CAVOK 12/08 Q1008 NOSIG=
201210040850 METAR COR EGLL 040850Z 28009KT CAVOK 11/08 Q1008 NOSIG=
201210040820 METAR COR EGLL 040820Z 28009KT CAVOK 10/08 Q1007 NOSIG=
201210040750 METAR COR EGLL 040750Z 26007KT CAVOK 09/07 Q1007 NOSIG=
201210040720 METAR COR EGLL 040720Z 25008KT CAVOK 08/07 Q1007 NOSIG=
201210040650 METAR COR EGLL 040650Z 26007KT CAVOK 08/07 Q1006 NOSIG=
201210040620 METAR COR EGLL 040620Z 27008KT CAVOK 07/07 Q1006 NOSIG=
201210040550 METAR COR EGLL 040550Z 27005KT 220V310 CAVOK 07/06 Q1006
                        NOSIG=
201210040520 METAR COR EGLL 040520Z 27005KT 230V300 CAVOK 06/06 Q1005
                        NOSIG=
201210040450 METAR COR EGLL 040450Z 27005KT 220V280 CAVOK 07/06 Q1005
                        NOSIG=
201210040420 METAR COR EGLL 040420Z VRB03KT CAVOK 07/06 Q1005 NOSIG=
201210040350 METAR COR EGLL 040350Z 00000KT CAVOK 07/07 Q1005 NOSIG=
201210040320 METAR COR EGLL 040320Z 28004KT CAVOK 07/07 Q1004 NOSIG=
201210040250 METAR COR EGLL 040250Z 27004KT CAVOK 08/07 Q1004 NOSIG=
201210040220 METAR COR EGLL 040220Z 27004KT CAVOK 08/07 Q1005 NOSIG=
201210040150 METAR COR EGLL 040150Z 19002KT CAVOK 08/07 Q1005 NOSIG=
201210040120 METAR EGLL 040120Z AUTO 25002KT 9999 NCD 08/07 Q1005=
201210040050 METAR EGLL 040050Z AUTO 26003KT 9999 NCD 09/07 Q1005=
201210040020 METAR EGLL 040020Z AUTO 26005KT 9999 NCD 09/07 Q1005=
201210032350 METAR COR EGLL 032350Z 26004KT CAVOK 09/08 Q1005 NOSIG=
201210032320 METAR COR EGLL 032320Z 23005KT CAVOK 10/08 Q1006 NOSIG=
201210032250 METAR COR EGLL 032250Z 24005KT CAVOK 10/08 Q1005 NOSIG=
201210032220 METAR COR EGLL 032220Z 22006KT 200V260 CAVOK 10/08 Q1005
                        NOSIG=
201210032150 METAR COR EGLL 032150Z 23006KT 170V270 CAVOK 10/07 Q1005
                        NOSIG=
201210032120 METAR COR EGLL 032120Z 24005KT CAVOK 10/08 Q1006 NOSIG=
201210032050 METAR COR EGLL 032050Z 22007KT CAVOK 10/08 Q1006 NOSIG=
201210032020 METAR COR EGLL 032020Z 21007KT CAVOK 10/08 Q1006 NOSIG=
201210031950 METAR COR EGLL 031950Z 24006KT CAVOK 10/08 Q1006 NOSIG=
201210031920 METAR COR EGLL 031920Z 29005KT CAVOK 10/08 Q1006 NOSIG=
201210031850 METAR COR EGLL 031850Z 28006KT 240V310 8000 SCT022 SCT026
                        10/08 Q1006 RERA NOSIG=
201210031820 METAR COR EGLL 031820Z 23012KT 9999 SCT046CB 13/08 Q1005
                        TEMPO 4500 +SHRAGS=
201210031750 METAR COR EGLL 031750Z AUTO 23012KT 9999 NCD 13/08 Q1005
                        TEMPO 4000 +SHRAGS=
201210031720 METAR COR EGLL 031720Z 22010KT CAVOK 13/08 Q1005 TEMPO 4000
                        +SHRA=
201210031650 METAR COR EGLL 031650Z 22011KT CAVOK 14/08 Q1005 TEMPO SHRA=
201210031620 METAR EGLL 031620Z 22011KT 190V250 9999 FEW033 14/08 Q1005=
201210031550 METAR COR EGLL 031550Z 22010KT 9999 FEW036 14/08 Q1005 NOSIG=
201210031520 METAR COR EGLL 031520Z 23014KT 9999 FEW043 14/06 Q1005 NOSIG=
201210031450 METAR COR EGLL 031450Z 23014KT 9999 FEW041 14/06 Q1005 NOSIG=
201210031420 METAR COR EGLL 031420Z 23011KT 180V260 9999 FEW040 15/07
                        Q1006 NOSIG=
201210031350 METAR COR EGLL 031350Z 24016KT 9999 FEW040 14/06 Q1006 NOSIG=
201210031320 METAR COR EGLL 031320Z 24013KT 9999 FEW040 14/06 Q1006 NOSIG=
201210031250 METAR COR EGLL 031250Z 25013KT 9999 FEW028 14/06 Q1006 NOSIG=
201210031220 METAR COR EGLL 031220Z 24013KT 9999 FEW024 14/07 Q1006 NOSIG=
201210031150 METAR COR EGLL 031150Z 25014KT 9999 FEW020 SCT025CB 14/07
                        Q1006 NOSIG=
201210031120 METAR COR EGLL 031120Z 26015KT 9999 FEW020 FEW025CB 15/07
                        Q1006 NOSIG=
201210031050 METAR COR EGLL 031050Z 25009G19KT 210V290 9999 FEW030CB 13/08
                        Q1006 NOSIG=
201210031020 METAR COR EGLL 031020Z 28009KT 9999 FEW030CB 12/08 Q1007
                        RESHRA RESHGR NOSIG=
201210030950 METAR EGLL 030950Z 29011KT 9999 5000NW -SHRA SCT025CB SCT029
                        11/07 Q1007 RESHRA RESHGR=
201210030920 METAR COR EGLL 030920Z 25011KT 9999 FEW025CB SCT030 14/09
                        Q1006 TEMPO SHRA=
201210030850 METAR COR EGLL 030850Z 25009KT 9999 FEW028 13/09 Q1006 NOSIG=
201210030820 METAR COR EGLL 030820Z 25011KT 9999 FEW020 12/08 Q1006 NOSIG=
201210030750 METAR COR EGLL 030750Z 24009KT 9999 FEW025 11/09 Q1006 NOSIG=
201210030720 METAR COR EGLL 030720Z 23009KT 9999 FEW025 11/09 Q1005 NOSIG=
201210030650 METAR COR EGLL 030650Z 22007KT 9999 FEW025 11/09 Q1005 NOSIG=
201210030620 METAR COR EGLL 030620Z 22009KT 9999 FEW025 11/09 Q1005 NOSIG=
201210030550 METAR COR EGLL 030550Z 23009KT 9999 FEW025 11/09 Q1005 NOSIG=
201210030520 METAR COR EGLL 030520Z 22009KT CAVOK 11/09 Q1005 NOSIG=
201210030450 METAR COR EGLL 030450Z 22009KT CAVOK 12/09 Q1004 NOSIG=
201210030420 METAR COR EGLL 030420Z 22006KT CAVOK 12/10 Q1005 NOSIG=
201210030350 METAR COR EGLL 030350Z 21008KT CAVOK 12/11 Q1005 NOSIG=
201210030320 METAR COR EGLL 030320Z 21007KT CAVOK 12/11 Q1005 NOSIG=
201210030250 METAR COR EGLL 030250Z 22008KT CAVOK 12/11 Q1005 NOSIG=
201210030220 METAR COR EGLL 030220Z 22008KT CAVOK 12/11 Q1005 NOSIG=
201210030150 METAR COR EGLL 030150Z 22008KT CAVOK 13/11 Q1005 NOSIG=
201210030120 METAR EGLL 030120Z AUTO 22008KT 9999 NCD 13/11 Q1005=
201210030050 METAR EGLL 030050Z AUTO 23010KT 9999 NCD 13/11 Q1005=
201210030020 METAR EGLL 030020Z AUTO 22015KT 9999 -RA FEW048/// 13/11
                        Q1005 RERA=
201210022350 METAR COR EGLL 022350Z 22012KT 9999 FEW020 14/11 Q1005 TEMPO
                        4500 SHRA BKN014=
201210022320 METAR COR EGLL 022320Z 23013KT 9999 SCT020 14/12 Q1005 TEMPO
                        4500 SHRA BKN014=
201210022250 METAR COR EGLL 022250Z 21010KT 9999 FEW029 14/12 Q1005 TEMPO
                        4500 SHRA BKN014=
201210022220 METAR COR EGLL 022220Z 21010KT 9999 FEW018 14/12 Q1005 TEMPO
                        4500 SHRA BKN014=
201210022150 METAR COR EGLL 022150Z 22010KT 9999 FEW022 13/12 Q1006 TEMPO
                        SHRA BKN014=
201210022120 METAR COR EGLL 022120Z 21011KT 9999 FEW016 14/12 Q1006 TEMPO
                        BKN014=
201210022050 METAR COR EGLL 022050Z 22010KT 9999 FEW022 SCT030 14/12 Q1006
                        TEMPO 4500 RADZ BKN014=
201210022020 METAR COR EGLL 022020Z 21011KT 9999 FEW026 BKN030 13/12 Q1006
                        TEMPO BKN014=
201210021950 METAR COR EGLL 021950Z 21010KT 9999 -RA FEW020 13/12 Q1007
                        NOSIG=
201210021920 METAR COR EGLL 021920Z 21011KT 9999 -RA FEW012 13/12 Q1007
                        NOSIG=
201210021850 METAR COR EGLL 021850Z 21010KT 9999 -RA FEW015 13/12 Q1007
                        NOSIG=
201210021820 METAR COR EGLL 021820Z 22012KT 9999 -RA FEW019 13/12 Q1007
                        TEMPO 4500 RA BKN014=
201210021750 METAR COR EGLL 021750Z 22013KT 9999 -RA FEW030 14/12 Q1007
                        TEMPO 7000 SHRA=
201210021720 METAR COR EGLL 021720Z 22012G22KT 9999 -SHRA FEW024 15/11
                        Q1007 TEMPO 4000 +SHRA BKN014CB=
201210021650 METAR COR EGLL 021650Z 21012KT 9999 FEW022 15/11 Q1008 TEMPO
                        SHRA=
201210021620 METAR COR EGLL 021620Z 21012KT 9999 FEW022 15/11 Q1008 TEMPO
                        SHRA=
201210021550 METAR COR EGLL 021550Z 21012KT 9999 VCSH FEW021 15/11 Q1008
                        NOSIG=
201210021520 METAR COR EGLL 021520Z 22014KT 9999 VCSH FEW030 16/11 Q1008
                        TEMPO SHRA=
201210021450 METAR COR EGLL 021450Z 21013KT 9999 FEW028 15/12 Q1009 TEMPO
                        SHRA=
201210021420 METAR COR EGLL 021420Z 22017KT 9999 7000SE VCSH FEW035 17/10
                        Q1009 TEMPO SHRA=
201210021350 METAR COR EGLL 021350Z 23015KT 9999 VCSH FEW044 17/11 Q1009
                        NOSIG=
201210021320 METAR COR EGLL 021320Z 23015KT 9999 FEW030 SCT044 16/11 Q1009
                        NOSIG=
201210021250 METAR COR EGLL 021250Z 23018KT 9999 VCSH SCT026 SCT035 16/11
                        Q1010 NOSIG=
201210021220 METAR COR EGLL 021220Z 22016G29KT 9999 FEW025 SCT031 17/11
                        Q1010 NOSIG=
201210021150 METAR COR EGLL 021150Z 22012KT 180V260 9999 SCT031 18/11
                        Q1010 NOSIG=
201210021120 METAR COR EGLL 021120Z 22016G26KT 9999 FEW023 SCT025 16/11
                        Q1010 NOSIG=
201210021050 METAR COR EGLL 021050Z 23016KT 9999 FEW022 SCT026 16/11 Q1010
                        TEMPO SHRA=
201210021020 METAR COR EGLL 021020Z 22014KT 9999 SCT020 16/11 Q1011 TEMPO
                        7000 SHRA=
201210020950 METAR COR EGLL 020950Z 22009KT 170V250 9999 FEW019 15/11
                        Q1011 NOSIG=
201210020920 METAR COR EGLL 020920Z 22009KT 180V260 9999 FEW020 14/11
                        Q1011 NOSIG=
201210020850 METAR COR EGLL 020850Z 23010KT 9999 FEW020 13/11 Q1011 NOSIG=
201210020820 METAR COR EGLL 020820Z 20008KT 180V240 CAVOK 13/11 Q1011
                        NOSIG=
201210020750 METAR COR EGLL 020750Z 21007KT CAVOK 12/11 Q1011 NOSIG=
201210020720 METAR COR EGLL 020720Z 21008KT 190V250 CAVOK 12/10 Q1011
                        NOSIG=
201210020650 METAR COR EGLL 020650Z 20008KT 9999 FEW020 11/10 Q1011 NOSIG=
201210020620 METAR COR EGLL 020620Z 21007KT CAVOK 11/10 Q1011 NOSIG=
201210020550 METAR COR EGLL 020550Z 20007KT 170V260 CAVOK 11/10 Q1011
                        NOSIG=
201210020520 METAR COR EGLL 020520Z 20007KT 170V270 CAVOK 11/10 Q1011
                        NOSIG=
201210020450 METAR COR EGLL 020450Z 20007KT CAVOK 11/10 Q1011 NOSIG=
201210020420 METAR COR EGLL 020420Z 20008KT CAVOK 11/09 Q1011 NOSIG=
201210020350 METAR COR EGLL 020350Z 21007KT CAVOK 11/10 Q1011 NOSIG=
201210020320 METAR COR EGLL 020320Z 21006KT CAVOK 11/09 Q1012 NOSIG=
201210020250 METAR EGLL 020250Z AUTO 21006KT 9999 NCD 11/09 Q1012=
201210020220 METAR COR EGLL 020220Z 21007KT CAVOK 11/09 Q1012 NOSIG=
201210020150 METAR COR EGLL 020150Z 23008KT CAVOK 11/09 Q1012 NOSIG=
201210020120 METAR EGLL 020120Z AUTO 22008KT 9999 NCD 11/09 Q1012=
201210020050 METAR EGLL 020050Z AUTO 23009KT 9999 NCD 11/10 Q1012=
201210020020 METAR EGLL 020020Z AUTO 22008KT 9999 NCD 11/10 Q1012=
201210012350 METAR COR EGLL 012350Z 23008KT CAVOK 11/10 Q1012 NOSIG=
201210012320 METAR COR EGLL 012320Z 21006KT CAVOK 11/10 Q1012 NOSIG=
201210012250 METAR COR EGLL 012250Z 22007KT CAVOK 11/10 Q1012 NOSIG=
201210012220 METAR COR EGLL 012220Z 22007KT CAVOK 12/10 Q1012 NOSIG=
201210012150 METAR COR EGLL 012150Z 21008KT 170V250 CAVOK 12/10 Q1012
                        NOSIG=
201210012120 METAR COR EGLL 012120Z 22007KT CAVOK 12/11 Q1012 NOSIG=
201210012050 METAR COR EGLL 012050Z 23010KT CAVOK 13/11 Q1012 NOSIG=
201210012020 METAR COR EGLL 012020Z 23011KT CAVOK 13/11 Q1012 NOSIG=
201210011950 METAR EGLL 011950Z 23012KT 9999 FEW019 14/12 Q1012=
201210011920 METAR COR EGLL 011920Z 23010KT 9999 FEW019 SCT027 BKN040
                        14/12 Q1011 RERA NOSIG=
201210011850 METAR COR EGLL 011850Z 23011KT 200V260 9999 VCSH FEW016 SCT026
                        14/12 Q1011 TEMPO SHRA=
201210011820 METAR COR EGLL 011820Z 22009KT 9999 SCT031 14/12 Q1011 TEMPO
                        SHRA=
201210011750 METAR COR EGLL 011750Z 21009KT 9999 SCT031 15/11 Q1011 NOSIG=
201210011720 METAR COR EGLL 011720Z 22010KT 9999 FEW030 15/12 Q1011 TEMPO
                        SHRA=
201210011650 METAR COR EGLL 011650Z 21009KT 9999 FEW022 16/12 Q1010 NOSIG=
201210011620 METAR COR EGLL 011620Z 22011KT 9999 FEW022 17/12 Q1010 NOSIG=
201210011550 METAR COR EGLL 011550Z 22011KT 9999 FEW022 SCT029 17/12 Q1011
                        NOSIG=
201210011520 METAR COR EGLL 011520Z 23011KT 9999 SCT018 17/13 Q1010 NOSIG=
201210011450 METAR COR EGLL 011450Z 23013KT 9999 FEW017 17/13 Q1011 NOSIG=
201210011420 METAR COR EGLL 011420Z 23012KT 9999 FEW019 16/13 Q1011 NOSIG=
201210011350 METAR COR EGLL 011350Z 24014KT 9999 FEW019 16/13 Q1011 NOSIG=
201210011320 METAR COR EGLL 011320Z 25012KT 9999 -RA FEW009 BKN016 15/13
                        Q1011 NOSIG=
201210011250 METAR COR EGLL 011250Z 26011KT 9999 FEW009 BKN018 15/13 Q1011
                        NOSIG=
201210011220 METAR COR EGLL 011220Z 25010KT 9999 SCT008 BKN010 15/13 Q1011
                        BECMG SCT012 BKN016=
201210011150 METAR COR EGLL 011150Z 25009KT 9999 -RA FEW009 SCT017 14/13
                        Q1011 RERA TEMPO BKN014=
201210011120 METAR COR EGLL 011120Z 25008KT 9000 RA FEW011 BKN017 14/13
                        Q1011 RERA TEMPO BKN014=
201210011050 METAR COR EGLL 011050Z 25008G18KT 210V280 9000 BKN019 14/13
                        Q1011 TEMPO RA BKN010=
201210011020 METAR COR EGLL 011020Z 25008KT 190V270 9999 VCSH BKN017 14/13
                        Q1011 BECMG 4500 RA BKN010=
201210010950 METAR COR EGLL 010950Z 30005KT 3000 -RADZ SCT004 BKN012 13/13
                        Q1012 TEMPO 9999 SCT010 BKN016=
201210010920 METAR COR EGLL 010920Z 29009KT 5000 -RADZ SCT004 SCT007 BKN012
                        13/13 Q1012 TEMPO 4000 RADZ BKN007=
201210010850 METAR COR EGLL 010850Z 22009KT 180V280 7000 -RA BKN005 BKN010
                        15/15 Q1011 BECMG SCT005 BKN010=
201210010820 METAR COR EGLL 010820Z 20008KT 170V240 6000 SCT005 BKN008
                        15/14 Q1011 BECMG SCT008 BKN012=
201210010750 METAR COR EGLL 010750Z 19008KT 160V240 4500 DZ BKN005 14/14
                        Q1011 TEMPO 9999 -RA SCT006 BKN012=
201210010720 METAR COR EGLL 010720Z 20009KT 180V250 9999 BKN006 BKN013
                        14/14 Q1011 TEMPO 4500 RADZ BKN005=
201210010650 METAR COR EGLL 010650Z 20009KT 170V230 9999 FEW005 BKN007
                        14/13 Q1011 RERA TEMPO 4500 RADZ
                        BKN005=
201210010620 METAR COR EGLL 010620Z 20008KT 170V270 9999 -RA FEW005 SCT007
                        BKN012 14/13 Q1012 TEMPO 4000 RA
                        BKN006=
201210010550 METAR COR EGLL 010550Z 20008KT 9999 RA FEW007 BKN024 13/13
                        Q1012 BECMG 4000 BKN006=
201210010520 METAR COR EGLL 010520Z 20009KT 170V250 9999 RA OVC005 13/13
                        Q1012 RERA TEMPO 4000=
201210010450 METAR COR EGLL 010450Z 19008G20KT 160V240 5000 +RA SCT005
                        BKN011 13/12 Q1012 TEMPO 4000 RADZ
                        BKN006=
201210010420 METAR COR EGLL 010420Z 20008KT 6000 DZ FEW009 OVC011 14/12
                        Q1012 BECMG BKN008=
201210010350 METAR COR EGLL 010350Z 21010KT 9999 OVC012 14/12 Q1012 TEMPO
                        RA BKN008=
201210010320 METAR COR EGLL 010320Z 21010KT 9999 OVC013 14/12 Q1013 TEMPO
                        RA BKN008=
201210010250 METAR COR EGLL 010250Z 21010KT 9999 OVC015 14/11 Q1013 BECMG
                        BKN012=
201210010220 METAR COR EGLL 010220Z 22011KT 9999 BKN018 15/11 Q1013 BECMG
                        BKN014=
201210010150 METAR COR EGLL 010150Z 22011KT 9999 BKN018 15/11 Q1013 BECMG
                        BKN014=
201210010120 METAR EGLL 010120Z 22011KT 9999 OVC015 14/11 Q1014=
201210010050 METAR COR EGLL 010050Z 22010KT 9999 BKN017 14/11 Q1014 BECMG
                        BKN014=
201210010020 METAR COR EGLL 010020Z 22011KT 9999 BKN017 14/11 Q1014 BECMG
                        BKN014=
