##########################################################
# Query made at 12/24/2012 14:13:58 UTC
# Time interval: from 10/01/2011 00:00  to 10/31/2011 23:59  UTC
##########################################################

##########################################################
# EGLL, London / Heathrow Airport (United Kingdom)
# WMO index: 03772
# Latitude 51-29N. Longitude 000-27W. Altitude 24 m.
##########################################################

###################################
#  METAR/SPECI from EGLL
###################################
201110312350 METAR COR EGLL 312350Z 17007KT 9999 FEW045 13/11 Q1008 NOSIG=
201110312320 METAR COR EGLL 312320Z 17008KT 9999 FEW047 13/11 Q1008 NOSIG=
201110312250 METAR COR EGLL 312250Z 17008KT CAVOK 13/11 Q1008 NOSIG=
201110312220 METAR COR EGLL 312220Z 14006KT CAVOK 13/11 Q1008 NOSIG=
201110312150 METAR COR EGLL 312150Z 15008KT 9999 FEW046 13/11 Q1009 NOSIG=
201110312120 METAR COR EGLL 312120Z 14008KT 090V190 9999 FEW033 SCT048
                        14/11 Q1009 NOSIG=
201110312050 METAR COR EGLL 312050Z 14008KT 100V170 9999 BKN048 14/11
                        Q1009 NOSIG=
201110312020 METAR COR EGLL 312020Z 15007KT 110V200 9999 BKN048 14/11
                        Q1009 NOSIG=
201110311950 METAR COR EGLL 311950Z 14008KT 9999 BKN048 14/11 Q1009 NOSIG=
201110311920 METAR COR EGLL 311920Z 15008KT 110V170 9999 SCT042 SCT048
                        14/11 Q1010 NOSIG=
201110311850 METAR COR EGLL 311850Z 14008KT 110V170 9999 BKN042 14/11
                        Q1010 NOSIG=
201110311820 METAR COR EGLL 311820Z 14009KT 100V160 9999 SCT040 14/11
                        Q1010 NOSIG=
201110311750 METAR EGLL 311750Z 14009KT 110V170 9999 FEW035 14/11 Q1010=
201110311720 METAR EGLL 311720Z 15010KT 9999 SCT039 14/11 Q1010=
201110311650 METAR EGLL 311650Z 16009KT 110V210 9999 BKN036 15/11 Q1011=
201110311620 METAR COR EGLL 311620Z 16009KT 110V190 9999 SCT033 14/11
                        Q1011 NOSIG=
201110311550 METAR EGLL 311550Z 16010KT 9999 FEW020 SCT032 15/11 Q1011=
201110311520 METAR COR EGLL 311520Z 16010KT 140V220 9999 SCT024 SCT034
                        15/11 Q1011 NOSIG=
201110311450 METAR EGLL 311450Z 18012KT 150V240 9999 SCT022 BKN028 15/10
                        Q1011=
201110311420 METAR COR EGLL 311420Z 18010KT 150V240 9999 FEW025 BKN027
                        15/10 Q1011 NOSIG=
201110311350 METAR COR EGLL 311350Z 18011KT 150V240 9999 FEW025 BKN031
                        16/10 Q1012 NOSIG=
201110311320 METAR COR EGLL 311320Z 19010KT 140V240 9999 SCT026 SCT036
                        16/11 Q1012 NOSIG=
201110311250 METAR COR EGLL 311250Z 18012KT 140V230 9999 FEW022 SCT026
                        BKN032 16/11 Q1013 NOSIG=
201110311220 METAR COR EGLL 311220Z 18013KT 150V220 9999 SCT021 BKN043
                        16/12 Q1013 NOSIG=
201110311150 METAR COR EGLL 311150Z 19011KT 140V260 9999 SCT018 SCT024
                        16/12 Q1013 NOSIG=
201110311120 METAR COR EGLL 311120Z 19012KT 170V230 9999 SCT016 BKN048
                        16/12 Q1014 NOSIG=
201110311050 METAR COR EGLL 311050Z 18011KT 160V230 9999 SCT012 BKN016
                        16/13 Q1014 NOSIG=
201110311020 METAR COR EGLL 311020Z 19011KT 150V220 9999 SCT009 BKN011
                        15/13 Q1014 BECMG BKN018=
201110310950 METAR COR EGLL 310950Z 18010KT 160V250 9999 BKN009 15/13
                        Q1014 BECMG SCT010 BKN020=
201110310920 METAR COR EGLL 310920Z 19010KT 170V240 9999 SCT008 BKN011
                        15/13 Q1015 BECMG BKN020=
201110310850 METAR COR EGLL 310850Z 18009KT 160V220 9999 BKN005 BKN012
                        15/14 Q1015 BECMG SCT007 BKN012=
201110310820 METAR COR EGLL 310820Z 18009KT 160V220 6000 BKN006 BKN027
                        15/14 Q1015 BECMG BKN010=
201110310750 METAR COR EGLL 310750Z 19009KT 170V240 9000 BKN007 BKN043
                        15/14 Q1015 BECMG BKN012=
201110310720 METAR COR EGLL 310720Z 18008KT 150V220 9999 BKN008 15/13
                        Q1015 BECMG FEW008 BKN020=
201110310650 METAR COR EGLL 310650Z 19009KT 160V250 9999 BKN009 15/13
                        Q1015 BECMG FEW009 BKN020=
201110310620 METAR COR EGLL 310620Z 19008KT 160V230 9999 BKN009 15/13
                        Q1015 BECMG FEW009 BKN020=
201110310550 METAR COR EGLL 310550Z 18007KT 150V220 9000 FEW007 SCT010
                        BKN021 15/14 Q1015 TEMPO BKN007=
201110310520 METAR COR EGLL 310520Z 19007KT 150V220 9000 SCT008 BKN013
                        15/14 Q1015 TEMPO BKN008=
201110310450 METAR COR EGLL 310450Z 19007KT 160V250 9999 SCT007 BKN017
                        15/14 Q1015 TEMPO BKN007=
201110310420 METAR COR EGLL 310420Z 19007KT 9999 FEW008 BKN015 15/14 Q1015
                        TEMPO BKN008=
201110310350 METAR COR EGLL 310350Z 18007KT 9999 FEW014 BKN019 15/14 Q1015
                        TEMPO BKN014=
201110310320 METAR COR EGLL 310320Z 18006KT 9999 FEW007 BKN015 15/14 Q1015
                        TEMPO BKN007=
201110310250 METAR COR EGLL 310250Z 19007KT 9999 BKN008 15/14 Q1015 NOSIG=
201110310220 METAR EGLL 310220Z AUTO 19006KT 9999NDV BKN008/// 15/14 Q1016=
201110310150 METAR EGLL 310150Z AUTO 19006KT 9999NDV BKN008/// BKN014///
                        15/14 Q1016=
201110310120 METAR EGLL 310120Z AUTO 19008KT 9999NDV SCT007/// BKN013///
                        15/14 Q1016=
201110310050 METAR COR EGLL 310050Z 19009KT 9999 SCT007 SCT049 15/14 Q1016
                        BECMG BKN007=
201110310020 METAR COR EGLL 310020Z 19008KT 9999 SCT007 BKN012 15/14 Q1016
                        BECMG BKN007=
201110302350 METAR COR EGLL 302350Z 19007KT 9999 SCT008 SCT012 BKN049
                        15/14 Q1017 BECMG BKN008=
201110302320 METAR COR EGLL 302320Z 18007KT 9999 SCT006 BKN009 15/14 Q1017
                        NOSIG=
201110302250 METAR COR EGLL 302250Z 20008KT 160V250 9999 SCT007 SCT012
                        BKN021 15/14 Q1017 BECMG BKN012=
201110302220 METAR COR EGLL 302220Z 20008KT 170V250 9999 FEW005 BKN006
                        15/14 Q1017 NOSIG=
201110302150 METAR COR EGLL 302150Z 19010KT 150V240 9999 FEW005 BKN006
                        15/14 Q1017 NOSIG=
201110302120 METAR COR EGLL 302120Z 20008KT 160V250 9999 BKN006 15/14
                        Q1017 NOSIG=
201110302050 METAR COR EGLL 302050Z 19008KT 150V230 9000 BKN006 15/14
                        Q1018 NOSIG=
201110302020 METAR COR EGLL 302020Z 19007KT 150V230 8000 BKN006 15/14
                        Q1018 NOSIG=
201110301950 METAR COR EGLL 301950Z 20006KT 160V240 9999 BKN006 15/13
                        Q1018 NOSIG=
201110301920 METAR COR EGLL 301920Z 21006KT 170V250 9999 FEW008 BKN012
                        15/13 Q1018 TEMPO BKN008=
201110301850 METAR COR EGLL 301850Z 22007KT 180V270 9999 SCT012 BKN033
                        15/13 Q1018 TEMPO BKN009=
201110301820 METAR COR EGLL 301820Z 21009KT 180V250 9999 FEW020 BKN030
                        15/13 Q1018 TEMPO BKN012=
201110301750 METAR COR EGLL 301750Z 22009KT 180V260 9999 FEW014 SCT023
                        15/13 Q1018 TEMPO BKN014=
201110301720 METAR COR EGLL 301720Z 21009KT 170V250 9999 FEW006 SCT009
                        BKN014 15/14 Q1018 TEMPO SCT014 BKN025=
201110301650 METAR COR EGLL 301650Z 19007KT 170V240 9999 FEW006 BKN009
                        BKN013 15/14 Q1017 TEMPO SCT009 BKN013=
201110301620 METAR COR EGLL 301620Z 20008KT 160V250 9999 FEW009 BKN011
                        16/14 Q1017 TEMPO BKN009=
201110301550 METAR COR EGLL 301550Z 20008KT 170V250 9999 FEW009 BKN011
                        16/14 Q1017 TEMPO BKN007=
201110301520 METAR COR EGLL 301520Z 21010KT 180V250 9999 7000NE -DZ BKN009
                        16/14 Q1017 TEMPO 4000=
201110301450 METAR COR EGLL 301450Z 21009KT 180V240 9999 BKN009 16/14
                        Q1018 TEMPO 4000 -DZ=
201110301420 METAR COR EGLL 301420Z 21009KT 9999 FEW009 BKN010 16/14 Q1018
                        TEMPO BKN009=
201110301350 METAR EGLL 301350Z 21010KT 9999 FEW009 BKN012 16/14 Q1018=
201110301320 METAR COR EGLL 301320Z 21011KT 9999 FEW011 BKN012 16/14 Q1018
                        TEMPO BKN015=
201110301250 METAR COR EGLL 301250Z 22012KT 9999 BKN013 16/13 Q1018 TEMPO
                        BKN015=
201110301220 METAR COR EGLL 301220Z 22010KT 9999 BKN014 16/13 Q1018 TEMPO
                        SCT014=
201110301150 METAR COR EGLL 301150Z 21012KT 9999 BKN014 16/13 Q1019 TEMPO
                        SCT014=
201110301120 METAR COR EGLL 301120Z 22010KT 190V270 9999 BKN016 16/13
                        Q1019 TEMPO BKN014=
201110301050 METAR COR EGLL 301050Z 21009KT 180V250 9999 SCT014 SCT021
                        16/13 Q1019 BECMG BKN014=
201110301020 METAR COR EGLL 301020Z 22010KT 9999 SCT013 SCT021 16/13 Q1019
                        BECMG BKN013=
201110300950 METAR COR EGLL 300950Z 22011KT 9999 BKN014 BKN019 16/13 Q1019
                        NOSIG=
201110300920 METAR COR EGLL 300920Z 22010KT 9999 BKN014 BKN019 16/13 Q1019
                        TEMPO SCT014 BKN019=
201110300850 METAR COR EGLL 300850Z 22009KT 190V250 9999 BKN014 BKN019
                        16/13 Q1019 TEMPO SCT014 BKN019=
201110300820 METAR COR EGLL 300820Z 22008KT 190V250 9999 BKN015 BKN021
                        15/13 Q1018 TEMPO BKN014=
201110300750 METAR COR EGLL 300750Z 22008KT 9999 BKN022 15/13 Q1018 TEMPO
                        BKN014=
201110300720 METAR COR EGLL 300720Z 21007KT 190V250 9999 FEW014 15/13
                        Q1018 BECMG BKN014=
201110300650 METAR COR EGLL 300650Z 21006G16KT 170V240 9999 SCT014 BKN025
                        15/13 Q1018 BECMG BKN014=
201110300620 METAR COR EGLL 300620Z 21007KT 180V250 9999 FEW009 BKN021
                        14/13 Q1017 BECMG BKN014=
201110300550 METAR COR EGLL 300550Z 20008KT 180V240 9999 FEW017 BKN025
                        15/13 Q1017 BECMG BKN014=
201110300520 METAR COR EGLL 300520Z 21008KT 9999 FEW011 BKN022 15/13 Q1018
                        BECMG BKN010=
201110300450 METAR COR EGLL 300450Z 22008KT 9999 SCT010 BKN022 15/13 Q1017
                        BECMG BKN010=
201110300420 METAR COR EGLL 300420Z 22008KT 9999 BKN011 BKN019 15/13 Q1017
                        NOSIG=
201110300350 METAR COR EGLL 300350Z 22010KT 9999 BKN010 15/13 Q1017 TEMPO
                        BKN008=
201110300320 METAR COR EGLL 300320Z 23010KT 9999 BKN010 15/13 Q1017 TEMPO
                        BKN008=
201110300250 METAR COR EGLL 300250Z 21009KT 9999 BKN010 15/13 Q1017 TEMPO
                        BKN008=
201110300220 METAR COR EGLL 300220Z 22008KT 9999 SCT011 BKN014 15/12 Q1017
                        NOSIG=
201110300150 METAR COR EGLL 300150Z 22010KT 9999 BKN009 14/12 Q1017 NOSIG=
201110300120 METAR EGLL 300120Z 22009KT 9999 BKN008 14/12 Q1018=
201110300050 METAR COR EGLL 300050Z 21009KT 9999 FEW007 BKN008 14/12 Q1018
                        NOSIG=
201110300020 METAR COR EGLL 300020Z 22010KT 9999 BKN008 14/12 Q1018 NOSIG=
201110292350 METAR COR EGLL 292350Z 22011KT 9999 BKN008 14/12 Q1018 NOSIG=
201110292320 METAR COR EGLL 292320Z 22012KT 9999 BKN009 14/12 Q1018 NOSIG=
201110292250 METAR COR EGLL 292250Z 22011KT 9999 BKN010 14/11 Q1018 TEMPO
                        BKN008=
201110292220 METAR COR EGLL 292220Z 21010KT 9999 BKN012 14/11 Q1018 TEMPO
                        BKN008=
201110292150 METAR COR EGLL 292150Z 22011KT 190V250 9999 BKN012 14/11
                        Q1018 TEMPO BKN008=
201110292120 METAR COR EGLL 292120Z 22012KT 180V250 9999 BKN014 14/11
                        Q1018 TEMPO BKN008=
201110292050 METAR COR EGLL 292050Z 22011KT 9999 BKN015 14/10 Q1018 BECMG
                        BKN014=
201110292020 METAR COR EGLL 292020Z 21010KT 180V250 9999 BKN016 13/10
                        Q1018 BECMG BKN014=
201110291950 METAR COR EGLL 291950Z 21010G20KT 180V260 9999 BKN018 13/09
                        Q1019 TEMPO BKN014=
201110291920 METAR COR EGLL 291920Z 21010KT 180V250 9999 BKN020 13/09
                        Q1019 TEMPO BKN014=
201110291850 METAR COR EGLL 291850Z 20010KT 170V250 9999 SCT022 13/09
                        Q1019 NOSIG=
201110291820 METAR COR EGLL 291820Z 20010KT 170V240 9999 FEW026 13/09
                        Q1018 NOSIG=
201110291750 METAR COR EGLL 291750Z 20009KT CAVOK 13/08 Q1019 NOSIG=
201110291720 METAR COR EGLL 291720Z 21009KT CAVOK 13/08 Q1019 NOSIG=
201110291650 METAR COR EGLL 291650Z 22011KT CAVOK 13/08 Q1019 NOSIG=
201110291620 METAR COR EGLL 291620Z 23014KT 9999 FEW025 14/08 Q1018 NOSIG=
201110291550 METAR COR EGLL 291550Z 23017KT 9999 SCT025 15/08 Q1018 NOSIG=
201110291520 METAR COR EGLL 291520Z 23014KT 9999 SCT026 SCT035 15/10 Q1018
                        NOSIG=
201110291450 METAR COR EGLL 291450Z 21012KT 170V250 9999 SCT026 SCT035
                        15/10 Q1018 NOSIG=
201110291420 METAR COR EGLL 291420Z 22013KT 180V250 9999 SCT026 16/10
                        Q1018 NOSIG=
201110291350 METAR COR EGLL 291350Z 20011KT 9999 SCT029 SCT034 16/10 Q1018
                        NOSIG=
201110291320 METAR COR EGLL 291320Z 21013KT 9999 SCT033 16/09 Q1019 NOSIG=
201110291250 METAR COR EGLL 291250Z 22014KT 9999 SCT033 16/08 Q1019 NOSIG=
201110291220 METAR COR EGLL 291220Z 22012KT 9999 SCT033 15/08 Q1020 NOSIG=
201110291150 METAR COR EGLL 291150Z 22012KT 9999 SCT034 16/08 Q1020 NOSIG=
201110291120 METAR COR EGLL 291120Z 22010KT 180V250 9999 FEW036 16/08
                        Q1020 NOSIG=
201110291050 METAR COR EGLL 291050Z 22008G18KT 180V270 9999 FEW036 15/08
                        Q1020 NOSIG=
201110291020 METAR COR EGLL 291020Z 23007KT 190V270 9999 FEW034 14/08
                        Q1021 NOSIG=
201110290950 METAR COR EGLL 290950Z 23009KT 9999 SCT036 13/08 Q1021 NOSIG=
201110290920 METAR COR EGLL 290920Z 24009KT 9999 BKN036 13/08 Q1021 NOSIG=
201110290850 METAR COR EGLL 290850Z 25009KT 9999 FEW012 BKN037 12/09 Q1021
                        NOSIG=
201110290820 METAR COR EGLL 290820Z 25008KT 9999 BKN034 12/10 Q1021 NOSIG=
201110290750 METAR COR EGLL 290750Z 24007KT 7000 BKN033 12/10 Q1021 NOSIG=
201110290720 METAR COR EGLL 290720Z 24007KT 200V270 5000 BR FEW012 BKN031
                        12/11 Q1021 TEMPO BKN012=
201110290650 METAR COR EGLL 290650Z 22006KT 190V250 3400 BR FEW012 SCT032
                        12/11 Q1021 BECMG 7000 NSW=
201110290620 METAR COR EGLL 290620Z 23006KT 170V260 4300 BR FEW020 12/11
                        Q1020 BECMG 7000 NSW=
201110290550 METAR EGLL 290550Z AUTO 24008KT 4200NDV HZ BKN017/// 13/11
                        Q1020=
201110290520 METAR COR EGLL 290520Z 22006KT 2700 BR FEW006 BKN008 12/12
                        Q1021 BECMG 5000=
201110290450 METAR COR EGLL 290450Z 19005KT 120V260 2500 BR SCT006 SCT012
                        12/11 Q1021 BECMG 5000=
201110290420 METAR COR EGLL 290420Z 18003KT 2700 BR SCT007 BKN017 12/12
                        Q1021 TEMPO BKN007=
201110290350 METAR COR EGLL 290350Z 15004KT 2600 BR SCT006 SCT024 12/11
                        Q1021 TEMPO BKN006=
201110290320 METAR COR EGLL 290320Z 14004KT 2900 BR SCT006 SCT012 12/11
                        Q1021 TEMPO BKN006=
201110290250 METAR COR EGLL 290250Z 14004KT 3400 BR BKN007 12/11 Q1021
                        TEMPO SCT007=
201110290220 METAR COR EGLL 290220Z 15003KT 3800 BR BKN007 12/11 Q1022
                        TEMPO SCT007=
201110290150 METAR COR EGLL 290150Z VRB02KT 3800 BR SCT008 12/11 Q1022
                        TEMPO BKN006=
201110290120 METAR COR EGLL 290120Z 00000KT 3500 BR SCT006 BKN008 12/11
                        Q1022 TEMPO SCT008=
201110290050 METAR COR EGLL 290050Z 09002KT 3500 BR FEW007 SCT008 12/11
                        Q1022 TEMPO BKN006=
201110290020 METAR COR EGLL 290020Z 10003KT 3900 BR SCT013 BKN021 12/11
                        Q1023 TEMPO BKN012=
201110282350 METAR COR EGLL 282350Z 12002KT 3700 HZ FEW007 BKN015 13/11
                        Q1023 TEMPO BKN006=
201110282320 METAR COR EGLL 282320Z 14003KT 3900 HZ FEW007 BKN017 13/11
                        Q1023 TEMPO BKN006=
201110282250 METAR COR EGLL 282250Z VRB02KT 3800 BR FEW007 BKN016 12/11
                        Q1023 TEMPO BKN006=
201110282220 METAR COR EGLL 282220Z 09003KT 3900 BR SCT008 BKN015 12/11
                        Q1023 TEMPO BKN008=
201110282150 METAR COR EGLL 282150Z 09003KT 3900 BR FEW006 SCT008 BKN012
                        13/11 Q1023 BECMG BKN008=
201110282120 METAR COR EGLL 282120Z 09004KT 4900 HZ SCT008 BKN009 13/11
                        Q1024 NOSIG=
201110282050 METAR COR EGLL 282050Z 10004KT 8000 BKN009 13/11 Q1024 NOSIG=
201110282020 METAR COR EGLL 282020Z 13004KT 9999 BKN011 13/10 Q1024 BECMG
                        8000 BKN008=
201110281950 METAR COR EGLL 281950Z 13005KT 9999 BKN012 13/10 Q1024 BECMG
                        8000 BKN008=
201110281920 METAR COR EGLL 281920Z 14005KT 9999 BKN013 13/10 Q1024 BECMG
                        8000 BKN008=
201110281850 METAR COR EGLL 281850Z 09005KT 9999 BKN015 13/10 Q1024 BECMG
                        8000 BKN010=
201110281820 METAR COR EGLL 281820Z 08002KT 9999 BKN015 13/09 Q1024 BECMG
                        BKN014=
201110281750 METAR COR EGLL 281750Z 11003KT 9999 BKN015 13/09 Q1024 BECMG
                        BKN014=
201110281720 METAR COR EGLL 281720Z 11006KT 9999 BKN018 14/09 Q1023 BECMG
                        BKN014=
201110281650 METAR COR EGLL 281650Z 14007KT 9999 BKN019 14/09 Q1023 BECMG
                        BKN014=
201110281620 METAR COR EGLL 281620Z 12006KT 9999 FEW027 BKN038 14/09 Q1023
                        NOSIG=
201110281550 METAR COR EGLL 281550Z 13006KT 9999 FEW036 14/08 Q1023 NOSIG=
201110281520 METAR COR EGLL 281520Z 13007KT CAVOK 15/08 Q1023 NOSIG=
201110281450 METAR COR EGLL 281450Z 10007KT CAVOK 15/08 Q1023 NOSIG=
201110281420 METAR COR EGLL 281420Z 11006KT 080V150 CAVOK 16/08 Q1023
                        NOSIG=
201110281350 METAR COR EGLL 281350Z 10005KT 070V140 CAVOK 16/08 Q1023
                        NOSIG=
201110281320 METAR COR EGLL 281320Z 08004KT 040V120 9999 FEW040 15/08
                        Q1023 NOSIG=
201110281250 METAR COR EGLL 281250Z VRB03KT 9999 FEW041 15/08 Q1023 NOSIG=
201110281220 METAR COR EGLL 281220Z 08004KT 030V130 CAVOK 15/08 Q1023
                        NOSIG=
201110281150 METAR COR EGLL 281150Z 06005KT 360V090 CAVOK 15/08 Q1023
                        NOSIG=
201110281120 METAR COR EGLL 281120Z 05005KT 020V100 CAVOK 14/08 Q1023
                        NOSIG=
201110281050 METAR COR EGLL 281050Z 06004KT 010V100 CAVOK 14/08 Q1023
                        NOSIG=
201110281020 METAR COR EGLL 281020Z 07006KT CAVOK 13/08 Q1023 NOSIG=
201110280950 METAR COR EGLL 280950Z 04005KT 350V080 CAVOK 12/09 Q1023
                        NOSIG=
201110280920 METAR COR EGLL 280920Z 03004KT 330V070 CAVOK 12/09 Q1022
                        NOSIG=
201110280850 METAR COR EGLL 280850Z 03004KT 350V070 8000 NSC 11/08 Q1022
                        NOSIG=
201110280820 METAR COR EGLL 280820Z 36004KT 7000 NSC 10/08 Q1022 NOSIG=
201110280750 METAR COR EGLL 280750Z 36004KT 6000 NSC 09/08 Q1022 NOSIG=
201110280720 METAR COR EGLL 280720Z VRB03KT 6000 NSC 10/08 Q1021 NOSIG=
201110280650 METAR COR EGLL 280650Z 34003KT 7000 NSC 10/08 Q1021 NOSIG=
201110280620 METAR COR EGLL 280620Z 35003KT 6000 NSC 10/08 Q1020 TEMPO
                        2000 BR=
201110280550 METAR COR EGLL 280550Z VRB03KT 7000 NSC 10/08 Q1020 TEMPO
                        3000 BR=
201110280520 METAR COR EGLL 280520Z VRB03KT 6000 NSC 10/09 Q1019 TEMPO
                        4000 BR=
201110280450 METAR COR EGLL 280450Z 33003KT 5000 BR FEW010 10/09 Q1019
                        TEMPO BKN010=
201110280420 METAR COR EGLL 280420Z VRB03KT 7000 BKN010 11/09 Q1018 TEMPO
                        4000 BR BKN007=
201110280350 METAR COR EGLL 280350Z 35004KT 300V040 8000 BKN008 BKN044
                        11/10 Q1018 TEMPO 4000 BR=
201110280320 METAR COR EGLL 280320Z VRB03KT 8000 BKN008 11/10 Q1017 TEMPO
                        4000 BR=
201110280250 METAR COR EGLL 280250Z 34004KT 300V020 9999 BKN008 BKN010
                        12/10 Q1017 TEMPO 5000 BR=
201110280220 METAR COR EGLL 280220Z 34004KT 300V020 9999 FEW007 BKN010
                        BKN036 12/10 Q1016 TEMPO 5000 BR
                        BKN007=
201110280150 METAR COR EGLL 280150Z 32004KT 9999 FEW007 BKN010 12/11 Q1016
                        TEMPO BKN006=
201110280120 METAR EGLL 280120Z AUTO 35003KT 9999NDV BKN027/// 12/11 Q1015=
201110280050 METAR EGLL 280050Z AUTO VRB03KT 9999NDV BKN009/// BKN025///
                        13/11 Q1015=
201110280020 METAR EGLL 280020Z AUTO 31003KT 9000NDV BKN005/// BKN024///
                        13/12 Q1014=
201110272350 METAR COR EGLL 272350Z 30004KT 5000 BR SCT004 BKN006 13/12
                        Q1014 NOSIG=
201110272320 METAR COR EGLL 272320Z 30003KT 8000 FEW004 BKN006 13/12 Q1013
                        TEMPO 4000 BR=
201110272250 METAR COR EGLL 272250Z 30004KT 7000 BKN012 13/12 Q1013 TEMPO
                        4000 BKN008=
201110272220 METAR COR EGLL 272220Z 28005KT 230V320 9000 FEW017 BKN033
                        13/12 Q1012 NOSIG=
201110272150 METAR COR EGLL 272150Z VRB03KT 8000 FEW019 BKN032 BKN036
                        13/12 Q1012 NOSIG=
201110272120 METAR COR EGLL 272120Z 23006KT 200V270 9999 FEW019 SCT027
                        BKN032 13/12 Q1011 TEMPO 5000 BR
                        BKN008=
201110272050 METAR COR EGLL 272050Z 23004KT 200V290 5000 -RADZ FEW018
                        BKN026 13/12 Q1011 TEMPO BKN008=
201110272020 METAR COR EGLL 272020Z 25005KT 200V300 9999 FEW014 BKN026
                        13/12 Q1010 NOSIG=
201110271950 METAR COR EGLL 271950Z 00000KT 9999 FEW012 SCT016 BKN040
                        13/11 Q1010 RERA TEMPO 5000 BR=
201110271920 METAR COR EGLL 271920Z VRB03KT 9999 RA SCT020 BKN026 13/11
                        Q1010 NOSIG=
201110271850 METAR COR EGLL 271850Z 16004KT 8000 -RADZ BKN027 13/11 Q1009
                        NOSIG=
201110271820 METAR COR EGLL 271820Z 15004KT 9999 FEW029 BKN038 13/11 Q1009
                        TEMPO RA=
201110271750 METAR COR EGLL 271750Z 14003KT 9999 FEW021 13/10 Q1008 TEMPO
                        RA=
201110271720 METAR COR EGLL 271720Z 13004KT 100V160 9999 FEW021 13/11
                        Q1008 TEMPO RA=
201110271650 METAR COR EGLL 271650Z 13004KT 9999 FEW022 13/11 Q1008 TEMPO
                        RA=
201110271620 METAR COR EGLL 271620Z 10004KT 9999 FEW024 13/11 Q1007 TEMPO
                        RA=
201110271550 METAR COR EGLL 271550Z 12004KT 9999 FEW040 13/11 Q1007 TEMPO
                        RA BKN012=
201110271520 METAR COR EGLL 271520Z 13005KT 9999 BKN040 13/11 Q1007 TEMPO
                        RA BKN012=
201110271450 METAR COR EGLL 271450Z 12006KT 9999 FEW014 BKN024 13/11 Q1007
                        TEMPO RA BKN012=
201110271420 METAR COR EGLL 271420Z 12005KT 9999 FEW018 BKN028 13/11 Q1006
                        TEMPO RA BKN012=
201110271350 METAR COR EGLL 271350Z 13007KT 9999 FEW019 BKN029 13/11 Q1006
                        TEMPO RA BKN012=
201110271320 METAR COR EGLL 271320Z 15008KT 9999 -RA FEW038 13/10 Q1006
                        TEMPO RA BKN012=
201110271250 METAR COR EGLL 271250Z 13006KT 110V170 9999 FEW048 13/10
                        Q1006 TEMPO RA BKN012=
201110271220 METAR COR EGLL 271220Z 13007KT CAVOK 13/10 Q1006 TEMPO RA
                        BKN012=
201110271150 METAR COR EGLL 271150Z 12008KT CAVOK 13/10 Q1006 NOSIG=
201110271120 METAR COR EGLL 271120Z 13008KT CAVOK 13/10 Q1006 NOSIG=
201110271050 METAR COR EGLL 271050Z 12007KT CAVOK 13/10 Q1006 TEMPO RA=
201110271020 METAR COR EGLL 271020Z 11007KT 9999 FEW048 12/09 Q1006 NOSIG=
201110270950 METAR COR EGLL 270950Z 10006KT 9999 SCT048 12/09 Q1005 NOSIG=
201110270920 METAR COR EGLL 270920Z 10009KT CAVOK 12/09 Q1005 NOSIG=
201110270850 METAR COR EGLL 270850Z 11008KT CAVOK 11/09 Q1006 NOSIG=
201110270820 METAR COR EGLL 270820Z 09009KT CAVOK 11/09 Q1006 TEMPO RA=
201110270750 METAR COR EGLL 270750Z 10010KT 9999 FEW044 11/09 Q1006 TEMPO
                        RA=
201110270720 METAR COR EGLL 270720Z 07009KT 040V110 9999 SCT044 11/10
                        Q1005 TEMPO RA=
201110270650 METAR COR EGLL 270650Z 10007KT 9999 -RA SCT046 11/10 Q1006
                        TEMPO RA=
201110270620 METAR COR EGLL 270620Z 09008KT 9999 -RA SCT046 11/10 Q1006
                        NOSIG=
201110270550 METAR EGLL 270550Z 08006KT 9999 -RA FEW047 11/10 Q1005=
201110270520 METAR COR EGLL 270520Z 08005KT 9999 -RA SCT048 11/10 Q1006
                        NOSIG=
201110270450 METAR COR EGLL 270450Z 09006KT 9999 -RA BKN044 11/10 Q1006
                        NOSIG=
201110270420 METAR COR EGLL 270420Z 08006KT 9999 -RA FEW047 11/10 Q1006
                        NOSIG=
201110270350 METAR COR EGLL 270350Z 09005KT CAVOK 11/10 Q1006 NOSIG=
201110270320 METAR COR EGLL 270320Z 12006KT 9999 -RA SCT030 11/10 Q1006
                        RERA NOSIG=
201110270250 METAR COR EGLL 270250Z 13006KT 9999 -RA NSC 12/10 Q1006 NOSIG=
201110270220 METAR COR EGLL 270220Z 13006KT 9999 -RA FEW048 12/10 Q1007
                        NOSIG=
201110270150 METAR COR EGLL 270150Z 13006KT CAVOK 11/10 Q1007 NOSIG=
201110270120 METAR EGLL 270120Z AUTO 10006KT 9999NDV NCD 11/10 Q1007=
201110270050 METAR EGLL 270050Z AUTO 10007KT 9999NDV NCD 11/10 Q1007=
201110270020 METAR EGLL 270020Z AUTO 10006KT 9999NDV NCD 11/10 Q1007=
201110262350 METAR COR EGLL 262350Z 10005KT CAVOK 11/10 Q1007 NOSIG=
201110262320 METAR COR EGLL 262320Z 11004KT 7000 NSC 11/10 Q1007 NOSIG=
201110262250 METAR COR EGLL 262250Z 14005KT 8000 BKN048 11/10 Q1007 NOSIG=
201110262220 METAR COR EGLL 262220Z 14007KT 8000 SCT045 11/10 Q1007 NOSIG=
201110262150 METAR COR EGLL 262150Z 13008KT 9999 5000E HZ FEW028 10/09
                        Q1007 NOSIG=
201110262120 METAR COR EGLL 262120Z 11006KT 9000 4000E HZ SCT027 10/09
                        Q1007 NOSIG=
201110262050 METAR COR EGLL 262050Z 13006KT 080V150 6000 -RA SCT021 10/08
                        Q1007 NOSIG=
201110262020 METAR COR EGLL 262020Z 14006KT 070V230 6000 -RA FEW027 09/08
                        Q1007 NOSIG=
201110261950 METAR COR EGLL 261950Z 08004KT 050V200 8000 NSC 08/07 Q1007
                        NOSIG=
201110261920 METAR COR EGLL 261920Z 13004KT 090V200 CAVOK 08/07 Q1007
                        NOSIG=
201110261850 METAR COR EGLL 261850Z 14004KT 050V220 CAVOK 08/07 Q1007
                        NOSIG=
201110261820 METAR COR EGLL 261820Z 14006KT 110V210 CAVOK 08/07 Q1007
                        NOSIG=
201110261750 METAR COR EGLL 261750Z 18006KT 140V240 9999 FEW046 09/07
                        Q1006 NOSIG=
201110261720 METAR COR EGLL 261720Z 18009KT 150V240 9999 -SHRA FEW033CB
                        10/07 Q1006 NOSIG=
201110261650 METAR COR EGLL 261650Z 20007KT 160V240 9999 FEW032CB 10/07
                        Q1006 NOSIG=
201110261620 METAR COR EGLL 261620Z 21009KT 9999 FEW030CB 11/07 Q1006
                        NOSIG=
201110261550 METAR COR EGLL 261550Z 19011KT 160V240 9999 FEW030CB 12/07
                        Q1006 NOSIG=
201110261520 METAR COR EGLL 261520Z 19010KT 150V230 9999 FEW030CB 12/08
                        Q1005 NOSIG=
201110261450 METAR COR EGLL 261450Z 18009KT 150V250 9999 FEW047 12/08
                        Q1005 NOSIG=
201110261420 METAR COR EGLL 261420Z 19011KT 160V230 9999 FEW035 SCT047
                        11/08 Q1005 NOSIG=
201110261350 METAR COR EGLL 261350Z 19012KT 9999 -SHRA FEW036 SCT047 11/08
                        Q1005 TEMPO SHRA=
201110261320 METAR COR EGLL 261320Z 18011KT 130V210 9999 VCSH FEW020CB
                        SCT035 10/08 Q1005 TEMPO SHRA=
201110261250 METAR COR EGLL 261250Z 19012G22KT 9999 6000SE VCSH SCT035
                        11/08 Q1005 TEMPO SHRA=
201110261220 METAR COR EGLL 261220Z 19009KT 160V230 9999 VCSH FEW035CB
                        12/08 Q1005 TEMPO SHRA=
201110261150 METAR COR EGLL 261150Z 20009KT 9999 FEW040 12/08 Q1005 TEMPO
                        SHRA=
201110261120 METAR COR EGLL 261120Z 19010KT 9999 SCT039CB 12/08 Q1005
                        TEMPO SHRA=
201110261050 METAR COR EGLL 261050Z 18011G21KT 9999 VCSH FEW010 SCT043CB
                        10/07 Q1005 TEMPO 4000 +SHRA=
201110261020 METAR COR EGLL 261020Z 17012KT 9999 -SHRA FEW037 BKN042 10/08
                        Q1005 RESHRA TEMPO 4000 +SHRA=
201110260950 METAR COR EGLL 260950Z 17008KT 130V220 9999 -SHRA FEW037CB
                        SCT042 10/08 Q1004 TEMPO 4000 +SHRA=
201110260920 METAR COR EGLL 260920Z 19008KT 160V220 9999 -SHRA FEW033
                        SCT044CB 10/08 Q1004 TEMPO 4000 +SHRA=
201110260850 METAR COR EGLL 260850Z 18008KT 160V240 9999 VCSH SCT034CB
                        09/07 Q1004 TEMPO 4000 +SHRA=
201110260820 METAR COR EGLL 260820Z 18006KT 130V200 9999 FEW037 09/07
                        Q1004 TEMPO 4000 +SHRA=
201110260750 METAR COR EGLL 260750Z 15006KT 100V200 9999 SCT035 08/07
                        Q1004 TEMPO 4000 +SHRA=
201110260720 METAR COR EGLL 260720Z 14007KT 9999 FEW042 08/07 Q1003 TEMPO
                        4000 +SHRA=
201110260650 METAR COR EGLL 260650Z 15006KT 120V190 9999 SCT046CB 08/07
                        Q1003 RESHRA TEMPO 4000 +SHRA=
201110260620 METAR COR EGLL 260620Z 21007KT 9999 -SHRA FEW030 SCT046 08/07
                        Q1003 TEMPO SHRA=
201110260550 METAR COR EGLL 260550Z 19005KT 150V230 9999 FEW033 08/07
                        Q1002 TEMPO SHRA=
201110260520 METAR COR EGLL 260520Z 17007KT 140V210 CAVOK 08/07 Q1002
                        TEMPO SHRA=
201110260450 METAR COR EGLL 260450Z 16005KT 130V210 9999 FEW046 08/07
                        Q1002 RESHRA NOSIG=
201110260420 METAR COR EGLL 260420Z 19007KT 9999 SHRA SCT025 09/07 Q1002
                        RERA BECMG NSW=
201110260350 METAR COR EGLL 260350Z 18005KT 160V230 9999 FEW038 09/07
                        Q1002 NOSIG=
201110260320 METAR COR EGLL 260320Z 16007KT 9999 SCT040 09/07 Q1001 RESHRA
                        TEMPO SHRA=
201110260250 METAR COR EGLL 260250Z 18007KT 9999 SHRA SCT036 08/07 Q1002
                        BECMG NSW=
201110260220 METAR COR EGLL 260220Z VRB03KT 9999 -SHRA FEW046 08/07 Q1002
                        TEMPO SHRA=
201110260150 METAR COR EGLL 260150Z 17002KT CAVOK 07/06 Q1001 TEMPO SHRA=
201110260120 METAR EGLL 260120Z AUTO 18004KT 9999NDV NCD 07/06 Q1001=
201110260050 METAR EGLL 260050Z AUTO 20004KT 180V240 9999NDV NCD 08/07
                        Q1001=
201110260020 METAR EGLL 260020Z AUTO 18004KT 9999NDV NCD 08/07 Q1000=
201110252350 METAR COR EGLL 252350Z 21004KT CAVOK 08/07 Q1000 NOSIG=
201110252320 METAR COR EGLL 252320Z 20004KT CAVOK 08/07 Q1000 NOSIG=
201110252250 METAR COR EGLL 252250Z 21006KT CAVOK 09/07 Q1000 NOSIG=
201110252220 METAR COR EGLL 252220Z 20006KT CAVOK 09/07 Q1000 NOSIG=
201110252150 METAR COR EGLL 252150Z 19006KT 130V250 9999 FEW019 09/07
                        Q0999 NOSIG=
201110252120 METAR COR EGLL 252120Z 18005KT 150V240 CAVOK 09/08 Q0999
                        NOSIG=
201110252050 METAR COR EGLL 252050Z 17006KT 120V260 CAVOK 10/08 Q0999
                        NOSIG=
201110252020 METAR COR EGLL 252020Z 19007KT 150V250 9999 FEW039 10/08
                        Q0999 NOSIG=
201110251950 METAR COR EGLL 251950Z 18006KT 140V260 9999 FEW049 10/08
                        Q0998 NOSIG=
201110251920 METAR COR EGLL 251920Z 20009KT 160V240 9999 FEW025 11/08
                        Q0998 NOSIG=
201110251850 METAR COR EGLL 251850Z 16008G19KT 130V250 8000 VCSH SCT028CB
                        11/09 Q0998 TEMPO 4000 +SHRA=
201110251820 METAR COR EGLL 251820Z 16007KT 140V220 9999 FEW027 11/09
                        Q0998 TEMPO 4000 +SHRA=
201110251750 METAR COR EGLL 251750Z 15007KT 090V200 9999 SCT027 12/09
                        Q0998 NOSIG=
201110251720 METAR COR EGLL 251720Z 14006KT 110V200 9999 SCT025CB 12/09
                        Q0997 NOSIG=
201110251650 METAR COR EGLL 251650Z 17006KT 130V230 9999 SCT027CB 12/09
                        Q0997 NOSIG=
201110251620 METAR COR EGLL 251620Z 19005KT 140V280 9999 -SHRA FEW015
                        SCT028CB 13/09 Q0997 TEMPO 4000 +SHRA=
201110251550 METAR COR EGLL 251550Z 23010KT 190V260 9999 -SHRA FEW025
                        SCT030CB 13/09 Q0997 RERA TEMPO 4000
                        +SHRA=
201110251520 METAR COR EGLL 251520Z 17010KT 150V230 9999 FEW020CB SCT032
                        14/07 Q0996 TEMPO 4000 +SHRA=
201110251450 METAR COR EGLL 251450Z 18012KT 130V230 9999 SCT032CB 15/07
                        Q0996 NOSIG=
201110251420 METAR COR EGLL 251420Z 17008KT 120V250 9999 SCT028 16/09
                        Q0996 NOSIG=
201110251350 METAR COR EGLL 251350Z 24007KT 180V270 9999 FEW015 BKN032
                        15/09 Q0996 TEMPO 4000 SHRA=
201110251320 METAR COR EGLL 251320Z 17011KT 9999 VCSH FEW015CB BKN032
                        16/08 Q0996 TEMPO 4000 SHRA=
201110251250 METAR COR EGLL 251250Z 15010KT 9999 SCT032CB 16/09 Q0996
                        TEMPO SHRA=
201110251220 METAR COR EGLL 251220Z 15009KT 9999 FEW033 16/08 Q0996 NOSIG=
201110251150 METAR COR EGLL 251150Z 16010KT 130V200 9999 FEW032 16/08
                        Q0996 NOSIG=
201110251120 METAR COR EGLL 251120Z 18009KT 150V210 9999 FEW028 15/09
                        Q0997 NOSIG=
201110251050 METAR COR EGLL 251050Z 16008KT 9999 FEW034 15/10 Q0997 NOSIG=
201110251020 METAR COR EGLL 251020Z 17009KT 9999 FEW023 14/09 Q0997 NOSIG=
201110250950 METAR COR EGLL 250950Z 17008KT 9999 FEW020 15/10 Q0996 NOSIG=
201110250920 METAR COR EGLL 250920Z 15007KT 9999 FEW028 14/10 Q0996 NOSIG=
201110250850 METAR COR EGLL 250850Z 17006KT 9999 FEW028 13/10 Q0996 NOSIG=
201110250820 METAR COR EGLL 250820Z 14005KT 9999 FEW022 12/10 Q0996 NOSIG=
201110250750 METAR COR EGLL 250750Z 13007KT 9999 FEW023 11/10 Q0996 NOSIG=
201110250720 METAR COR EGLL 250720Z 14006KT 9999 FEW029 11/10 Q0996 NOSIG=
201110250650 METAR COR EGLL 250650Z 15004KT 9999 FEW025 11/09 Q0995 NOSIG=
201110250620 METAR COR EGLL 250620Z 16006KT 9999 FEW020 12/10 Q0995 NOSIG=
201110250550 METAR COR EGLL 250550Z 16006KT CAVOK 12/10 Q0995 NOSIG=
201110250520 METAR COR EGLL 250520Z 17006KT 9999 FEW021 12/10 Q0995 NOSIG=
201110250450 METAR COR EGLL 250450Z 18006KT 9999 FEW021 12/11 Q0994 NOSIG=
201110250420 METAR COR EGLL 250420Z 19008KT 9999 FEW017 13/11 Q0994 NOSIG=
201110250350 METAR COR EGLL 250350Z 19007KT 9999 FEW020 13/11 Q0994 NOSIG=
201110250320 METAR COR EGLL 250320Z 20009KT 9999 FEW014 13/11 Q0993 NOSIG=
201110250250 METAR COR EGLL 250250Z 16012KT 9999 SCT017 SCT042 14/12 Q0993
                        NOSIG=
201110250220 METAR COR EGLL 250220Z 15009KT 9999 FEW023 14/12 Q0993 NOSIG=
201110250150 METAR COR EGLL 250150Z 15009KT 9999 SCT018 14/12 Q0993 NOSIG=
201110250120 METAR EGLL 250120Z NIL=
201110250050 METAR EGLL 250050Z NIL=
201110250020 METAR EGLL 250020Z NIL=
201110242350 METAR COR EGLL 242350Z 14009KT 9999 FEW013 SCT020 14/12 Q0992
                        TEMPO BKN013=
201110242320 METAR COR EGLL 242320Z 14011KT 9999 -RA SCT018 SCT025 14/12
                        Q0992 BKN012=
201110242250 METAR COR EGLL 242250Z 13011KT 9999 SCT012 SCT020 14/12 Q0992
                        TEMPO BKN012=
201110242220 METAR COR EGLL 242220Z 13010KT 9999 FEW011 SCT014 BKN019
                        14/12 Q0992 TEMPO BKN013=
201110242150 METAR COR EGLL 242150Z 13010KT 9999 -RA SCT014 SCT025 13/12
                        Q0992 TEMPO BKN012=
201110242120 METAR COR EGLL 242120Z 13011KT 9000 RA SCT021 SCT044 13/11
                        Q0992 BECMG -RA=
201110242050 METAR COR EGLL 242050Z 13011KT 9000 RA FEW014 SCT024 BKN040
                        13/11 Q0992 RERA TEMPO -RA=
201110242020 METAR COR EGLL 242020Z 13013KT 9999 -RA BKN028 14/10 Q0992
                        RERA TEMPO RA=
201110241950 METAR COR EGLL 241950Z 12013KT 9999 BKN034 14/10 Q0992 BECMG
                        RA=
201110241920 METAR COR EGLL 241920Z 12013KT 9999 SCT040 14/09 Q0992 BECMG
                        RA=
201110241850 METAR COR EGLL 241850Z 11013KT 9999 SCT045 14/09 Q0993 BECMG
                        RA=
201110241820 METAR COR EGLL 241820Z 11012KT 9999 SCT047 14/09 Q0993 NOSIG=
201110241750 METAR COR EGLL 241750Z 12013KT 9999 FEW028 14/09 Q0993 NOSIG=
201110241720 METAR COR EGLL 241720Z 12015KT CAVOK 14/09 Q0993 NOSIG=
201110241650 METAR COR EGLL 241650Z 11013KT CAVOK 15/09 Q0993 TEMPO 12015G25KT=
201110241620 METAR COR EGLL 241620Z 11014KT CAVOK 15/09 Q0993 TEMPO 12015G25KT=
201110241550 METAR COR EGLL 241550Z 11015KT CAVOK 15/08 Q0992 TEMPO 12017G28KT=
201110241520 METAR COR EGLL 241520Z 11013KT CAVOK 16/08 Q0992 TEMPO 12015G25KT=
201110241450 METAR COR EGLL 241450Z 11016KT CAVOK 16/09 Q0993 TEMPO 12018G28KT=
201110241420 METAR COR EGLL 241420Z 11015KT CAVOK 17/09 Q0993 TEMPO 13018G25KT=
201110241350 METAR COR EGLL 241350Z 13014KT 100V160 CAVOK 17/09 Q0994
                        TEMPO 13016G28KT=
201110241320 METAR COR EGLL 241320Z 12013KT 090V150 CAVOK 17/09 Q0994
                        NOSIG=
201110241250 METAR COR EGLL 241250Z 12015KT CAVOK 18/09 Q0994 TEMPO 13017G28KT=
201110241220 METAR COR EGLL 241220Z 12012KT CAVOK 17/09 Q0995 NOSIG=
201110241150 METAR COR EGLL 241150Z 12015KT CAVOK 17/10 Q0995 TEMPO TEMPO
                        14018G28KT=
201110241120 METAR COR EGLL 241120Z 11013KT CAVOK 16/10 Q0996 NOSIG=
201110241050 METAR COR EGLL 241050Z 12010KT CAVOK 15/10 Q0996 NOSIG=
201110241020 METAR COR EGLL 241020Z 12010KT CAVOK 14/09 Q0996 NOSIG=
201110240950 METAR COR EGLL 240950Z 10009KT CAVOK 14/09 Q0996 NOSIG=
201110240920 METAR COR EGLL 240920Z 11009KT CAVOK 14/10 Q0997 NOSIG=
201110240850 METAR COR EGLL 240850Z 10010KT CAVOK 13/09 Q0997 NOSIG=
201110240820 METAR COR EGLL 240820Z 11008KT CAVOK 13/09 Q0997 NOSIG=
201110240750 METAR COR EGLL 240750Z 10008KT CAVOK 12/09 Q0997 NOSIG=
201110240720 METAR COR EGLL 240720Z 11009KT CAVOK 12/09 Q0997 NOSIG=
201110240650 METAR COR EGLL 240650Z 11009KT CAVOK 12/09 Q0997 NOSIG=
201110240620 METAR COR EGLL 240620Z 12010KT CAVOK 12/09 Q0997 NOSIG=
201110240550 METAR COR EGLL 240550Z 11010KT CAVOK 12/09 Q0998 NOSIG=
201110240520 METAR COR EGLL 240520Z 12011KT CAVOK 12/09 Q0998 NOSIG=
201110240450 METAR COR EGLL 240450Z 12010KT CAVOK 13/09 Q0998 NOSIG=
201110240420 METAR COR EGLL 240420Z 12011KT CAVOK 13/09 Q0998 NOSIG=
201110240350 METAR EGLL 240350Z 14011KT CAVOK 14/09 Q0998=
201110240320 METAR COR EGLL 240320Z 16009KT 120V180 CAVOK 14/09 Q0999
                        NOSIG=
201110240250 METAR COR EGLL 240250Z 15010KT CAVOK 14/09 Q0999 NOSIG=
201110240220 METAR COR EGLL 240220Z 14011KT CAVOK 14/09 Q0999 NOSIG=
201110240150 METAR COR EGLL 240150Z 14010KT CAVOK 14/09 Q0999 NOSIG=
201110240120 METAR EGLL 240120Z AUTO 14010KT 9999NDV NCD 14/09 Q1000=
201110240050 METAR EGLL 240050Z AUTO 13010KT 9999NDV NCD 14/09 Q1000=
201110240020 METAR EGLL 240020Z AUTO 13010KT 9999NDV NCD 14/08 Q1000=
201110232350 METAR COR EGLL 232350Z 14011KT CAVOK 14/09 Q1001 NOSIG=
201110232320 METAR COR EGLL 232320Z 14011KT CAVOK 14/09 Q1001 NOSIG=
201110232250 METAR COR EGLL 232250Z 14011KT CAVOK 14/09 Q1002 NOSIG=
201110232220 METAR COR EGLL 232220Z 13011KT CAVOK 14/09 Q1002 NOSIG=
201110232150 METAR COR EGLL 232150Z 13011KT CAVOK 14/09 Q1002 NOSIG=
201110232120 METAR COR EGLL 232120Z 14012KT CAVOK 14/09 Q1002 NOSIG=
201110232050 METAR COR EGLL 232050Z 13014KT CAVOK 14/09 Q1002 NOSIG=
201110232020 METAR COR EGLL 232020Z 13013KT CAVOK 14/09 Q1003 NOSIG=
201110231950 METAR COR EGLL 231950Z 13013KT CAVOK 14/09 Q1003 NOSIG=
201110231920 METAR COR EGLL 231920Z 13012KT CAVOK 14/09 Q1003 NOSIG=
201110231850 METAR COR EGLL 231850Z 12014KT CAVOK 14/09 Q1003 NOSIG=
201110231820 METAR COR EGLL 231820Z 13012KT 100V160 CAVOK 14/09 Q1004
                        NOSIG=
201110231750 METAR COR EGLL 231750Z 13011KT CAVOK 15/09 Q1004 NOSIG=
201110231720 METAR COR EGLL 231720Z 14011KT CAVOK 15/09 Q1004 NOSIG=
201110231650 METAR EGLL 231650Z 13011KT CAVOK 15/09 Q1004=
201110231620 METAR COR EGLL 231620Z 13013KT CAVOK 16/09 Q1004 NOSIG=
201110231550 METAR COR EGLL 231550Z 14014KT CAVOK 17/08 Q1005 NOSIG=
201110231520 METAR COR EGLL 231520Z 15014KT CAVOK 18/07 Q1005 NOSIG=
201110231450 METAR COR EGLL 231450Z 16015KT CAVOK 18/07 Q1005 NOSIG=
201110231420 METAR COR EGLL 231420Z 15014KT CAVOK 19/07 Q1005 NOSIG=
201110231350 METAR COR EGLL 231350Z 16014KT CAVOK 19/07 Q1005 NOSIG=
201110231320 METAR COR EGLL 231320Z 16014KT CAVOK 19/08 Q1006 NOSIG=
201110231250 METAR COR EGLL 231250Z 15015KT CAVOK 19/08 Q1006 TEMPO 16017G27KT=
201110231220 METAR COR EGLL 231220Z 16016KT CAVOK 19/08 Q1006 NOSIG=
201110231150 METAR COR EGLL 231150Z 16015KT CAVOK 19/08 Q1006 TEMPO 16017G27KT=
201110231120 METAR COR EGLL 231120Z 16014KT CAVOK 18/09 Q1007 NOSIG=
201110231050 METAR COR EGLL 231050Z 16012KT CAVOK 17/09 Q1007 NOSIG=
201110231020 METAR EGLL 231020Z 16012KT CAVOK 16/10 Q1007=
201110230950 METAR COR EGLL 230950Z 15010KT CAVOK 15/10 Q1007 NOSIG=
201110230920 METAR COR EGLL 230920Z 16011KT CAVOK 15/11 Q1008 NOSIG=
201110230850 METAR COR EGLL 230850Z 16012KT 9999 FEW014 14/12 Q1008 NOSIG=
201110230820 METAR COR EGLL 230820Z 16009KT 9999 SCT015 14/12 Q1008 NOSIG=
201110230750 METAR COR EGLL 230750Z 16008KT 9999 BKN015 13/11 Q1008 TEMPO
                        BKN014=
201110230720 METAR COR EGLL 230720Z 16009KT 9999 FEW016 13/11 Q1008 NOSIG=
201110230650 METAR COR EGLL 230650Z 16008KT 9999 SCT021 12/11 Q1008 TEMPO
                        BKN014=
201110230620 METAR COR EGLL 230620Z 14004KT 9999 FEW016 BKN021 12/11 Q1008
                        NOSIG=
201110230550 METAR COR EGLL 230550Z 15005KT 9999 FEW015 11/10 Q1008 NOSIG=
201110230520 METAR COR EGLL 230520Z 14006KT 9999 FEW020 11/10 Q1008 NOSIG=
201110230450 METAR COR EGLL 230450Z 15006KT CAVOK 12/10 Q1008 NOSIG=
201110230420 METAR COR EGLL 230420Z 15006KT CAVOK 12/10 Q1008 NOSIG=
201110230350 METAR COR EGLL 230350Z 14006KT 9999 FEW021 11/10 Q1008 NOSIG=
201110230320 METAR COR EGLL 230320Z 15007KT 9999 FEW017 BKN049 12/10 Q1008
                        NOSIG=
201110230250 METAR COR EGLL 230250Z 15007KT 9999 SCT017 SCT032 12/10 Q1008
                        NOSIG=
201110230220 METAR COR EGLL 230220Z 14006KT 9999 BKN022 11/09 Q1008 NOSIG=
201110230150 METAR COR EGLL 230150Z 13008KT 9999 SCT024 11/09 Q1009 NOSIG=
201110230120 METAR EGLL 230120Z AUTO 13008KT 9999NDV NCD 10/08 Q1009=
201110230050 METAR EGLL 230050Z AUTO 13007KT 9999NDV BKN025/// 09/07 Q1009=
201110230020 METAR EGLL 230020Z AUTO 12005KT 9999NDV FEW025/// 07/06 Q1009=
201110222350 METAR COR EGLL 222350Z 13005KT CAVOK 07/06 Q1010 NOSIG=
201110222320 METAR COR EGLL 222320Z 13004KT CAVOK 09/07 Q1010 NOSIG=
201110222250 METAR COR EGLL 222250Z 14006KT CAVOK 09/07 Q1010 NOSIG=
201110222220 METAR COR EGLL 222220Z 13007KT 9999 FEW048 08/06 Q1010 NOSIG=
201110222150 METAR COR EGLL 222150Z 13006KT 9999 SCT047 09/06 Q1011 NOSIG=
201110222120 METAR COR EGLL 222120Z 13005KT 090V200 9999 BKN048 10/07
                        Q1011 NOSIG=
201110222050 METAR COR EGLL 222050Z 13007KT 9999 SCT048 10/07 Q1011 NOSIG=
201110222020 METAR COR EGLL 222020Z 13007KT 090V160 9999 SCT041 SCT048
                        11/06 Q1011 NOSIG=
201110221950 METAR COR EGLL 221950Z 18007KT 150V220 9999 BKN041 11/07
                        Q1011 NOSIG=
201110221920 METAR COR EGLL 221920Z 17006KT 120V210 9999 BKN042 11/06
                        Q1012 NOSIG=
201110221850 METAR COR EGLL 221850Z 18006KT 130V210 9999 BKN038 11/06
                        Q1012 NOSIG=
201110221820 METAR COR EGLL 221820Z 20006KT 9999 SCT031 SCT041 11/06 Q1012
                        NOSIG=
201110221750 METAR COR EGLL 221750Z 20007KT 9999 OVC028 11/06 Q1011 NOSIG=
201110221720 METAR COR EGLL 221720Z 19009KT 9999 BKN028 11/06 Q1011 NOSIG=
201110221650 METAR EGLL 221650Z 19011KT 9999 BKN029 11/06 Q1011=
201110221620 METAR COR EGLL 221620Z 19012KT 9999 FEW032 12/05 Q1011 NOSIG=
201110221550 METAR COR EGLL 221550Z 19014KT CAVOK 13/05 Q1011 NOSIG=
201110221520 METAR COR EGLL 221520Z 17012KT 9999 FEW032 13/06 Q1011 NOSIG=
201110221450 METAR COR EGLL 221450Z 18013KT 9999 FEW031 13/06 Q1011 NOSIG=
201110221420 METAR COR EGLL 221420Z 18013KT 9999 FEW036 13/05 Q1012 NOSIG=
201110221350 METAR EGLL 221350Z 17012KT CAVOK 13/04 Q1012=
201110221320 METAR COR EGLL 221320Z 16012KT CAVOK 13/04 Q1012 NOSIG=
201110221250 METAR COR EGLL 221250Z 16013KT CAVOK 14/03 Q1013 NOSIG=
201110221220 METAR EGLL 221220Z 15013KT CAVOK 14/03 Q1013=
201110221150 METAR EGLL 221150Z 15013KT CAVOK 14/02 Q1013=
201110221120 METAR COR EGLL 221120Z 16013KT CAVOK 13/03 Q1014 NOSIG=
201110221050 METAR EGLL 221050Z 16009KT 9999 FEW026 13/05 Q1015=
201110221020 METAR EGLL 221020Z 15010KT 9999 FEW026 12/05 Q1015=
201110220950 METAR COR EGLL 220950Z 15009KT CAVOK 11/05 Q1016 NOSIG=
201110220920 METAR COR EGLL 220920Z 14008KT CAVOK 10/05 Q1016 NOSIG=
201110220850 METAR COR EGLL 220850Z 13006KT CAVOK 09/05 Q1016 NOSIG=
201110220820 METAR COR EGLL 220820Z 12005KT 9999 FEW028 08/05 Q1017 NOSIG=
201110220750 METAR EGLL 220750Z 11006KT 9999 SCT028 07/04 Q1017=
201110220720 METAR COR EGLL 220720Z 11007KT 9999 FEW028 06/03 Q1017 NOSIG=
201110220650 METAR COR EGLL 220650Z 11007KT CAVOK 04/02 Q1017 NOSIG=
201110220620 METAR COR EGLL 220620Z 13006KT CAVOK 04/02 Q1017 NOSIG=
201110220550 METAR COR EGLL 220550Z 13006KT CAVOK 05/03 Q1017 NOSIG=
201110220520 METAR COR EGLL 220520Z 12007KT CAVOK 05/03 Q1018 NOSIG=
201110220450 METAR COR EGLL 220450Z 11007KT CAVOK 05/03 Q1018 NOSIG=
201110220420 METAR COR EGLL 220420Z 12007KT CAVOK 05/03 Q1018 NOSIG=
201110220350 METAR COR EGLL 220350Z 12006KT CAVOK 06/03 Q1018 NOSIG=
201110220320 METAR COR EGLL 220320Z 13007KT CAVOK 08/04 Q1019 NOSIG=
201110220250 METAR COR EGLL 220250Z 13007KT CAVOK 07/04 Q1019 NOSIG=
201110220220 METAR COR EGLL 220220Z 13008KT CAVOK 07/04 Q1019 NOSIG=
201110220150 METAR COR EGLL 220150Z 15006KT 9999 SCT040 09/05 Q1020 NOSIG=
201110220120 METAR EGLL 220120Z AUTO 15005KT 9999NDV OVC039/// 09/05 Q1020=
201110220050 METAR EGLL 220050Z AUTO 14007KT 9999NDV BKN037/// 10/06 Q1020=
201110220020 METAR EGLL 220020Z AUTO 14004KT 9999NDV BKN039/// 09/06 Q1020=
201110212350 METAR COR EGLL 212350Z 15004KT 9999 FEW033 SCT039 09/06 Q1021
                        NOSIG=
201110212320 METAR COR EGLL 212320Z 15005KT CAVOK 09/06 Q1021 NOSIG=
201110212250 METAR COR EGLL 212250Z 16005KT 9999 SCT041 10/06 Q1021 NOSIG=
201110212220 METAR COR EGLL 212220Z 17006KT 9999 BKN036 11/07 Q1021 NOSIG=
201110212150 METAR COR EGLL 212150Z 16007KT 9999 BKN032 11/08 Q1022 NOSIG=
201110212120 METAR COR EGLL 212120Z 15007KT 110V180 9999 BKN031 11/08
                        Q1022 NOSIG=
201110212050 METAR COR EGLL 212050Z 18007KT 120V220 9999 BKN031 11/08
                        Q1022 NOSIG=
201110212020 METAR COR EGLL 212020Z 17008KT 130V220 9999 BKN028 12/08
                        Q1022 NOSIG=
201110211950 METAR COR EGLL 211950Z VRB07KT 9999 SCT026 SCT034 12/08 Q1022
                        NOSIG=
201110211920 METAR COR EGLL 211920Z 21007KT 9999 BKN034 12/08 Q1022 NOSIG=
201110211850 METAR COR EGLL 211850Z 21008KT 9999 BKN034 12/08 Q1023 NOSIG=
201110211820 METAR COR EGLL 211820Z 21008KT 170V250 9999 BKN034 12/08
                        Q1022 NOSIG=
201110211750 METAR COR EGLL 211750Z 19009KT 140V220 9999 BKN037 12/08
                        Q1022 NOSIG=
201110211720 METAR COR EGLL 211720Z 19009KT 9999 BKN036 12/07 Q1022 NOSIG=
201110211650 METAR COR EGLL 211650Z 19008KT 160V220 9999 BKN035 12/07
                        Q1022 NOSIG=
201110211620 METAR COR EGLL 211620Z 21007KT 160V250 9999 BKN037 13/07
                        Q1022 NOSIG=
201110211550 METAR COR EGLL 211550Z 21008KT 190V250 9999 BKN041 13/07
                        Q1022 NOSIG=
201110211520 METAR COR EGLL 211520Z 22008KT 9999 BKN042 13/06 Q1022 NOSIG=
201110211450 METAR COR EGLL 211450Z 22011KT 9999 BKN037 13/06 Q1023 NOSIG=
201110211420 METAR COR EGLL 211420Z 23011KT 9999 FEW038 BKN043 14/06 Q1023
                        NOSIG=
201110211350 METAR COR EGLL 211350Z 25009KT 9999 BKN042 14/06 Q1023 NOSIG=
201110211320 METAR EGLL 211320Z 24011KT 9999 SCT042 15/06 Q1023=
201110211250 METAR COR EGLL 211250Z 25012KT 9999 SCT035 15/06 Q1023 NOSIG=
201110211220 METAR COR EGLL 211220Z 23010KT 200V260 9999 SCT037 15/06
                        Q1024 NOSIG=
201110211150 METAR COR EGLL 211150Z 23011G22KT 190V250 9999 SCT031 14/06
                        Q1024 NOSIG=
201110211120 METAR COR EGLL 211120Z 23009KT 180V260 9999 FEW031 14/06
                        Q1024 NOSIG=
201110211050 METAR COR EGLL 211050Z 22009KT 190V260 CAVOK 14/06 Q1024
                        NOSIG=
201110211020 METAR COR EGLL 211020Z 21008KT 170V260 9999 FEW045 13/06
                        Q1025 NOSIG=
201110210950 METAR COR EGLL 210950Z 21007KT 150V260 CAVOK 12/06 Q1025
                        NOSIG=
201110210920 METAR COR EGLL 210920Z 22006KT 180V260 CAVOK 11/05 Q1025
                        NOSIG=
201110210850 METAR COR EGLL 210850Z 23007KT 200V260 CAVOK 10/05 Q1025
                        NOSIG=
201110210820 METAR COR EGLL 210820Z 21009KT 170V240 CAVOK 08/05 Q1025
                        NOSIG=
201110210750 METAR COR EGLL 210750Z 21007KT 170V250 CAVOK 07/04 Q1025
                        NOSIG=
201110210720 METAR COR EGLL 210720Z 21007KT 180V260 CAVOK 07/04 Q1025
                        NOSIG=
201110210650 METAR COR EGLL 210650Z 22006KT CAVOK 07/04 Q1025 NOSIG=
201110210620 METAR COR EGLL 210620Z 22007KT 190V250 CAVOK 07/04 Q1025
                        NOSIG=
201110210550 METAR COR EGLL 210550Z 21005KT 180V240 CAVOK 07/04 Q1025
                        NOSIG=
201110210520 METAR COR EGLL 210520Z 21006KT 180V270 CAVOK 07/04 Q1025
                        NOSIG=
201110210450 METAR COR EGLL 210450Z 20005KT CAVOK 07/04 Q1025 NOSIG=
201110210420 METAR COR EGLL 210420Z 20005KT CAVOK 06/04 Q1025 NOSIG=
201110210350 METAR COR EGLL 210350Z 19004KT CAVOK 06/04 Q1025 NOSIG=
201110210320 METAR COR EGLL 210320Z 20004KT CAVOK 06/04 Q1025 NOSIG=
201110210250 METAR COR EGLL 210250Z 21003KT CAVOK 06/03 Q1025 NOSIG=
201110210220 METAR COR EGLL 210220Z 22004KT CAVOK 06/03 Q1026 NOSIG=
201110210150 METAR COR EGLL 210150Z 22004KT CAVOK 06/03 Q1026 NOSIG=
201110210120 METAR EGLL 210120Z AUTO 18003KT 9999NDV BKN046/// 05/03 Q1026=
201110210050 METAR EGLL 210050Z AUTO 19003KT 9999NDV OVC046/// 05/03 Q1026=
201110210020 METAR EGLL 210020Z AUTO 21004KT 9999NDV BKN046/// 05/03 Q1027=
201110202350 METAR COR EGLL 202350Z 20004KT CAVOK 05/02 Q1027 NOSIG=
201110202320 METAR COR EGLL 202320Z 22005KT CAVOK 06/03 Q1027 NOSIG=
201110202250 METAR COR EGLL 202250Z 19005KT CAVOK 05/03 Q1027 NOSIG=
201110202220 METAR COR EGLL 202220Z 21005KT CAVOK 06/03 Q1027 NOSIG=
201110202150 METAR COR EGLL 202150Z 20004KT CAVOK 07/04 Q1027 NOSIG=
201110202120 METAR COR EGLL 202120Z 21005KT 170V270 CAVOK 07/04 Q1027
                        NOSIG=
201110202050 METAR COR EGLL 202050Z 20006KT 180V260 CAVOK 08/04 Q1027
                        NOSIG=
201110202020 METAR COR EGLL 202020Z 24006KT CAVOK 08/03 Q1027 NOSIG=
201110201950 METAR COR EGLL 201950Z 23004KT 190V260 CAVOK 08/03 Q1027
                        NOSIG=
201110201920 METAR COR EGLL 201920Z 28004KT CAVOK 09/03 Q1027 NOSIG=
201110201850 METAR COR EGLL 201850Z 28005KT CAVOK 09/03 Q1027 NOSIG=
201110201820 METAR COR EGLL 201820Z 28006KT CAVOK 09/03 Q1027 NOSIG=
201110201750 METAR COR EGLL 201750Z 28006KT CAVOK 09/03 Q1027 NOSIG=
201110201720 METAR COR EGLL 201720Z 28006KT CAVOK 09/02 Q1027 NOSIG=
201110201650 METAR COR EGLL 201650Z 28007KT CAVOK 10/03 Q1027 NOSIG=
201110201620 METAR COR EGLL 201620Z 27006KT 9999 FEW039 11/02 Q1027 NOSIG=
201110201550 METAR COR EGLL 201550Z 28006KT 9999 SCT039 12/02 Q1027 NOSIG=
201110201520 METAR COR EGLL 201520Z 27008KT 240V300 9999 FEW040 12/03
                        Q1027 NOSIG=
201110201450 METAR COR EGLL 201450Z 28007KT 210V330 9999 FEW038 12/02
                        Q1027 NOSIG=
201110201420 METAR COR EGLL 201420Z 27008KT 240V300 9999 FEW038 12/02
                        Q1027 NOSIG=
201110201350 METAR COR EGLL 201350Z 27009KT 9999 SCT036 12/03 Q1027 NOSIG=
201110201320 METAR COR EGLL 201320Z 29008KT 260V320 9999 SCT036 12/03
                        Q1028 NOSIG=
201110201250 METAR COR EGLL 201250Z 29007KT 9999 FEW033 12/03 Q1028 NOSIG=
201110201220 METAR COR EGLL 201220Z 30006KT 280V350 9999 FEW032 12/03
                        Q1028 NOSIG=
201110201150 METAR COR EGLL 201150Z 30009KT 280V340 9999 FEW029 12/04
                        Q1028 NOSIG=
201110201120 METAR COR EGLL 201120Z 30008KT 260V330 9999 FEW027 11/04
                        Q1028 NOSIG=
201110201050 METAR COR EGLL 201050Z 29006KT 260V320 CAVOK 10/04 Q1028
                        NOSIG=
201110201020 METAR COR EGLL 201020Z 29007KT CAVOK 09/04 Q1028 NOSIG=
201110200950 METAR COR EGLL 200950Z 29007KT CAVOK 08/04 Q1028 NOSIG=
201110200920 METAR COR EGLL 200920Z 29007KT CAVOK 07/03 Q1028 NOSIG=
201110200850 METAR COR EGLL 200850Z 29007KT CAVOK 06/03 Q1028 NOSIG=
201110200820 METAR COR EGLL 200820Z 29007KT CAVOK 06/03 Q1028 NOSIG=
201110200750 METAR COR EGLL 200750Z 27007KT CAVOK 05/03 Q1028 NOSIG=
201110200720 METAR COR EGLL 200720Z 28008KT CAVOK 04/03 Q1028 NOSIG=
201110200650 METAR COR EGLL 200650Z 27008KT CAVOK 04/02 Q1027 NOSIG=
201110200620 METAR EGLL 200620Z 27006KT CAVOK 04/02 Q1027=
201110200550 METAR COR EGLL 200550Z 28004KT CAVOK 04/02 Q1027 NOSIG=
201110200520 METAR COR EGLL 200520Z 28004KT CAVOK 03/01 Q1027 NOSIG=
201110200450 METAR EGLL 200450Z 30003KT CAVOK 04/02 Q1026=
201110200420 METAR COR EGLL 200420Z 29004KT CAVOK 03/01 Q1026 NOSIG=
201110200350 METAR EGLL 200350Z 31003KT CAVOK 03/01 Q1026=
201110200320 METAR COR EGLL 200320Z 30003KT CAVOK 02/01 Q1026 NOSIG=
201110200250 METAR COR EGLL 200250Z 30004KT 260V340 CAVOK 03/01 Q1026
                        NOSIG=
201110200220 METAR COR EGLL 200220Z 29008KT CAVOK 03/02 Q1026 NOSIG=
201110200150 METAR COR EGLL 200150Z 29006KT CAVOK 03/02 Q1026 NOSIG=
201110200120 METAR EGLL 200120Z AUTO 29007KT 9999NDV NCD 03/02 Q1026=
201110200050 METAR EGLL 200050Z AUTO 27006KT 9999NDV NCD 03/01 Q1026=
201110200020 METAR EGLL 200020Z AUTO 28007KT 9999NDV NCD 03/01 Q1025=
201110192350 METAR COR EGLL 192350Z 28005KT CAVOK 03/01 Q1025 NOSIG=
201110192320 METAR COR EGLL 192320Z 27004KT CAVOK 03/01 Q1025 NOSIG=
201110192250 METAR COR EGLL 192250Z 29004KT 260V320 CAVOK 04/02 Q1024
                        NOSIG=
201110192220 METAR COR EGLL 192220Z 27006KT CAVOK 04/02 Q1024 NOSIG=
201110192150 METAR COR EGLL 192150Z 28008KT CAVOK 06/03 Q1024 NOSIG=
201110192120 METAR COR EGLL 192120Z 28007KT CAVOK 05/03 Q1024 NOSIG=
201110192050 METAR COR EGLL 192050Z 28006KT CAVOK 06/03 Q1024 NOSIG=
201110192020 METAR COR EGLL 192020Z 28008KT CAVOK 06/04 Q1023 NOSIG=
201110191950 METAR COR EGLL 191950Z 28008KT CAVOK 06/04 Q1023 NOSIG=
201110191920 METAR COR EGLL 191920Z 27008KT CAVOK 06/04 Q1023 NOSIG=
201110191850 METAR COR EGLL 191850Z 29006KT CAVOK 06/04 Q1023 NOSIG=
201110191820 METAR COR EGLL 191820Z 29008KT CAVOK 07/04 Q1022 NOSIG=
201110191750 METAR COR EGLL 191750Z 29008KT CAVOK 07/04 Q1022 NOSIG=
201110191720 METAR COR EGLL 191720Z 28007KT 9999 FEW020CB 07/05 Q1022
                        NOSIG=
201110191650 METAR COR EGLL 191650Z 27008KT 9999 FEW020CB 08/05 Q1021
                        NOSIG=
201110191620 METAR COR EGLL 191620Z 28007KT 9999 VCSH FEW020CB 08/04 Q1021
                        NOSIG=
201110191550 METAR COR EGLL 191550Z 29007KT 9999 FEW020CB SCT037 09/05
                        Q1020 TEMPO SHRA=
201110191520 METAR COR EGLL 191520Z 31012KT 9999 -SHRA FEW020CB SCT038
                        10/05 Q1020 NOSIG=
201110191450 METAR COR EGLL 191450Z 27013KT 9999 VCSH FEW048 10/03 Q1020
                        TEMPO SHRA=
201110191420 METAR COR EGLL 191420Z 30009KT 270V330 9999 VCSH NSC 12/M00
                        Q1019 TEMPO SHRA=
201110191350 METAR COR EGLL 191350Z 29009KT 260V340 9999 FEW048 13/M00
                        Q1019 TEMPO SHRA=
201110191320 METAR COR EGLL 191320Z 29009KT 9999 FEW044 13/02 Q1019 TEMPO
                        SHRA=
201110191250 METAR COR EGLL 191250Z 29012KT 270V330 9999 FEW040 13/02
                        Q1019 NOSIG=
201110191220 METAR COR EGLL 191220Z 29010KT 9999 SCT035 12/02 Q1019 NOSIG=
201110191150 METAR COR EGLL 191150Z 31009KT 280V350 9999 FEW034 12/03
                        Q1019 NOSIG=
201110191120 METAR COR EGLL 191120Z 31011KT 280V340 9999 FEW034 12/03
                        Q1018 NOSIG=
201110191050 METAR COR EGLL 191050Z 31009KT 280V350 9999 FEW028 12/04
                        Q1018 NOSIG=
201110191020 METAR COR EGLL 191020Z 30007KT 270V340 9999 FEW024 11/04
                        Q1018 NOSIG=
201110190950 METAR COR EGLL 190950Z 29010KT CAVOK 10/04 Q1018 NOSIG=
201110190920 METAR COR EGLL 190920Z 29008KT CAVOK 09/04 Q1018 NOSIG=
201110190850 METAR COR EGLL 190850Z 29008KT 260V330 CAVOK 08/04 Q1017
                        NOSIG=
201110190820 METAR COR EGLL 190820Z 28007KT CAVOK 07/04 Q1017 NOSIG=
201110190750 METAR COR EGLL 190750Z 27009KT CAVOK 06/04 Q1017 NOSIG=
201110190720 METAR COR EGLL 190720Z 28008KT CAVOK 06/03 Q1016 NOSIG=
201110190650 METAR COR EGLL 190650Z 28008KT CAVOK 05/03 Q1016 NOSIG=
201110190620 METAR COR EGLL 190620Z 27008KT CAVOK 05/03 Q1015 NOSIG=
201110190550 METAR COR EGLL 190550Z 28007KT CAVOK 05/03 Q1015 NOSIG=
201110190520 METAR COR EGLL 190520Z 27009KT CAVOK 05/03 Q1015 NOSIG=
201110190450 METAR COR EGLL 190450Z 28008KT CAVOK 05/03 Q1014 NOSIG=
201110190420 METAR EGLL 190420Z 28008KT CAVOK 05/03 Q1014=
201110190350 METAR COR EGLL 190350Z 27006KT CAVOK 04/03 Q1014 NOSIG=
201110190320 METAR COR EGLL 190320Z 27008KT CAVOK 05/03 Q1013 NOSIG=
201110190250 METAR EGLL 190250Z 27008KT CAVOK 05/03 Q1013=
201110190220 METAR COR EGLL 190220Z 27009KT CAVOK 06/04 Q1013 NOSIG=
201110190150 METAR COR EGLL 190150Z 28008KT CAVOK 06/04 Q1013 NOSIG=
201110190120 METAR EGLL 190120Z 27008KT CAVOK 07/04 Q1013=
201110190050 METAR COR EGLL 190050Z 27008KT CAVOK 07/04 Q1013 NOSIG=
201110190020 METAR EGLL 190020Z 28010KT CAVOK 07/04 Q1013=
201110182350 METAR COR EGLL 182350Z 26011KT CAVOK 07/04 Q1013 NOSIG=
201110182320 METAR COR EGLL 182320Z 26012KT CAVOK 08/04 Q1013 NOSIG=
201110182250 METAR EGLL 182250Z 26011KT CAVOK 08/04 Q1013=
201110182220 METAR EGLL 182220Z 25010KT CAVOK 08/04 Q1013=
201110182150 METAR COR EGLL 182150Z 25012KT CAVOK 08/04 Q1013 NOSIG=
201110182120 METAR EGLL 182120Z 25012KT CAVOK 09/04 Q1013=
201110182050 METAR COR EGLL 182050Z 24013KT CAVOK 09/04 Q1012 NOSIG=
201110182020 METAR COR EGLL 182020Z 25012KT CAVOK 10/04 Q1012 NOSIG=
201110181950 METAR COR EGLL 181950Z 25011KT CAVOK 10/04 Q1012 NOSIG=
201110181920 METAR COR EGLL 181920Z 25013KT CAVOK 10/03 Q1012 NOSIG=
201110181850 METAR COR EGLL 181850Z 25012KT CAVOK 10/03 Q1012 NOSIG=
201110181820 METAR COR EGLL 181820Z 24011KT CAVOK 10/03 Q1012 NOSIG=
201110181750 METAR COR EGLL 181750Z 25010KT CAVOK 11/02 Q1012 NOSIG=
201110181720 METAR COR EGLL 181720Z 25010KT CAVOK 11/01 Q1011 NOSIG=
201110181650 METAR COR EGLL 181650Z 27012KT CAVOK 11/01 Q1011 NOSIG=
201110181620 METAR COR EGLL 181620Z 27012KT CAVOK 12/01 Q1011 NOSIG=
201110181550 METAR COR EGLL 181550Z 27018KT CAVOK 12/M00 Q1011 NOSIG=
201110181520 METAR COR EGLL 181520Z 28015KT CAVOK 13/00 Q1011 NOSIG=
201110181450 METAR COR EGLL 181450Z 28017KT CAVOK 13/M00 Q1011 NOSIG=
201110181420 METAR COR EGLL 181420Z 27018KT CAVOK 13/M00 Q1011 NOSIG=
201110181350 METAR EGLL 181350Z 27020KT CAVOK 13/M01 Q1011=
201110181320 METAR COR EGLL 181320Z 28019KT 9999 FEW048 13/01 Q1011 NOSIG=
201110181250 METAR COR EGLL 181250Z 27021KT 9999 FEW048 12/01 Q1011 NOSIG=
201110181220 METAR COR EGLL 181220Z 28019KT 9999 FEW042 13/02 Q1011 NOSIG=
201110181150 METAR COR EGLL 181150Z 27019KT 9999 FEW041 13/02 Q1011 NOSIG=
201110181120 METAR COR EGLL 181120Z 27020KT 9999 FEW040 12/03 Q1011 NOSIG=
201110181050 METAR COR EGLL 181050Z 28019KT 9999 FEW042 12/04 Q1011 NOSIG=
201110181020 METAR COR EGLL 181020Z 27016KT CAVOK 11/04 Q1011 NOSIG=
201110180950 METAR COR EGLL 180950Z 27016KT CAVOK 11/05 Q1011 NOSIG=
201110180920 METAR COR EGLL 180920Z 27018KT CAVOK 10/05 Q1010 NOSIG=
201110180850 METAR COR EGLL 180850Z 27017KT CAVOK 10/05 Q1010 NOSIG=
201110180820 METAR COR EGLL 180820Z 26013KT CAVOK 09/05 Q1010 NOSIG=
201110180750 METAR COR EGLL 180750Z 26013KT CAVOK 09/05 Q1010 NOSIG=
201110180720 METAR COR EGLL 180720Z 26012KT CAVOK 08/05 Q1010 NOSIG=
201110180650 METAR COR EGLL 180650Z 26012KT CAVOK 08/05 Q1009 NOSIG=
201110180620 METAR COR EGLL 180620Z 26010KT CAVOK 08/06 Q1009 NOSIG=
201110180550 METAR COR EGLL 180550Z 25010KT CAVOK 09/06 Q1009 NOSIG=
201110180520 METAR COR EGLL 180520Z 25009KT CAVOK 09/07 Q1009 NOSIG=
201110180450 METAR COR EGLL 180450Z 25009KT CAVOK 08/06 Q1009 NOSIG=
201110180420 METAR EGLL 180420Z 25008KT 9999 FEW015 08/07 Q1009=
201110180350 METAR COR EGLL 180350Z 25007KT 9999 FEW049 08/07 Q1008 NOSIG=
201110180320 METAR EGLL 180320Z 26008KT 9999 -RA BKN045 08/06 Q1008=
201110180250 METAR COR EGLL 180250Z 28011KT 9000 -RA SCT030 SCT040 08/06
                        Q1009 NOSIG=
201110180220 METAR COR EGLL 180220Z 29012KT 3000 RA BKN010 BKN015 08/07
                        Q1008 BECMG 9999 NSW SCT025=
201110180150 METAR COR EGLL 180150Z 30014G24KT 3200 RA FEW007 SCT011 BKN028
                        10/09 Q1008 TEMPO 9999 NSW BKN008=
201110180120 METAR EGLL 180120Z AUTO 29012KT 4000NDV -RA FEW008/// SCT014///
                        10/09 Q1008 RERA=
201110180050 METAR EGLL 180050Z AUTO 23015KT 9999NDV BKN018/// 14/11 Q1007=
201110180020 METAR EGLL 180020Z AUTO 23012KT 9999NDV BKN018/// BKN025///
                        14/11 Q1007=
201110172350 METAR COR EGLL 172350Z 22014KT 9999 BKN021 13/11 Q1007 BECMG
                        23020G33KT 4000 +RA BKN014=
201110172320 METAR COR EGLL 172320Z 22016KT 9000 -RA BKN021 14/11 Q1008
                        BECMG RA=
201110172250 METAR COR EGLL 172250Z 23016KT 9999 SCT027 15/09 Q1008 NOSIG=
201110172220 METAR COR EGLL 172220Z 23014KT 9999 FEW025 15/09 Q1009 NOSIG=
201110172150 METAR COR EGLL 172150Z 22017KT 9999 FEW029 15/09 Q1009 NOSIG=
201110172120 METAR COR EGLL 172120Z 22017KT 9999 SCT031 16/08 Q1009 NOSIG=
201110172050 METAR COR EGLL 172050Z 22016KT 9999 FEW035 15/07 Q1010 TEMPO
                        RA=
201110172020 METAR COR EGLL 172020Z 22016G26KT 9999 FEW048 15/08 Q1010
                        TEMPO RA=
201110171950 METAR COR EGLL 171950Z 22016KT 9999 FEW049 15/08 Q1011 NOSIG=
201110171920 METAR EGLL 171920Z 23016KT CAVOK 14/09 Q1011=
201110171850 METAR EGLL 171850Z 23014G26KT 9999 FEW030 14/09 Q1012 NOSIG=
201110171820 METAR COR EGLL 171820Z 23014KT 9999 FEW030 15/09 Q1012 NOSIG=
201110171750 METAR COR EGLL 171750Z 23017KT 9999 FEW032 15/09 Q1012 NOSIG=
201110171720 METAR COR EGLL 171720Z 23017KT 9999 FEW027 SCT036 15/10 Q1012
                        NOSIG=
201110171650 METAR COR EGLL 171650Z 23017KT 9999 FEW025 SCT035 15/10 Q1013
                        NOSIG=
201110171620 METAR COR EGLL 171620Z 23016KT 9999 BKN023 16/11 Q1013 NOSIG=
201110171550 METAR COR EGLL 171550Z 22014KT 9999 SCT021 SCT030 15/11 Q1013
                        NOSIG=
201110171520 METAR COR EGLL 171520Z 22016KT 9999 SCT021 SCT031 16/11 Q1014
                        NOSIG=
201110171450 METAR COR EGLL 171450Z 22016G26KT 9999 SCT029 16/10 Q1014
                        NOSIG=
201110171420 METAR COR EGLL 171420Z 22015KT 9999 BKN033 17/09 Q1015 NOSIG=
201110171350 METAR COR EGLL 171350Z 22016KT 9999 FEW031 SCT035 17/09 Q1015
                        NOSIG=
201110171320 METAR COR EGLL 171320Z 22014KT 190V260 9999 SCT032 17/09
                        Q1016 NOSIG=
201110171250 METAR COR EGLL 171250Z 22014G24KT 190V250 9999 SCT027 16/10
                        Q1016 NOSIG=
201110171220 METAR COR EGLL 171220Z 22014KT 9999 SCT032 16/09 Q1017 NOSIG=
201110171150 METAR COR EGLL 171150Z 21012KT 9999 FEW025 16/10 Q1018 NOSIG=
201110171120 METAR EGLL 171120Z 20012KT 170V240 CAVOK 16/10 Q1018=
201110171050 METAR COR EGLL 171050Z 22014KT 9999 SCT022 16/10 Q1019 NOSIG=
201110171020 METAR COR EGLL 171020Z 23013G23KT 9999 FEW020 14/10 Q1019
                        NOSIG=
201110170950 METAR COR EGLL 170950Z 22012KT 180V270 CAVOK 14/10 Q1019
                        NOSIG=
201110170920 METAR COR EGLL 170920Z 23011KT CAVOK 13/10 Q1020 NOSIG=
201110170850 METAR COR EGLL 170850Z 22008KT CAVOK 12/09 Q1020 NOSIG=
201110170820 METAR COR EGLL 170820Z 23008KT CAVOK 11/09 Q1020 NOSIG=
201110170750 METAR COR EGLL 170750Z 21006KT CAVOK 10/08 Q1020 NOSIG=
201110170720 METAR COR EGLL 170720Z 20004KT 140V290 CAVOK 09/08 Q1020
                        NOSIG=
201110170650 METAR COR EGLL 170650Z 19006KT 160V230 CAVOK 07/07 Q1020
                        NOSIG=
201110170620 METAR COR EGLL 170620Z 19005KT 160V230 CAVOK 07/06 Q1021
                        NOSIG=
201110170550 METAR COR EGLL 170550Z 19004KT 130V230 CAVOK 06/06 Q1021
                        NOSIG=
201110170520 METAR COR EGLL 170520Z 20005KT 160V270 CAVOK 07/06 Q1021
                        NOSIG=
201110170450 METAR COR EGLL 170450Z 20004KT CAVOK 07/06 Q1021 NOSIG=
201110170420 METAR COR EGLL 170420Z 21004KT CAVOK 07/07 Q1021 NOSIG=
201110170350 METAR COR EGLL 170350Z 23006KT CAVOK 08/07 Q1021 NOSIG=
201110170320 METAR COR EGLL 170320Z 23004KT CAVOK 08/07 Q1021 NOSIG=
201110170250 METAR COR EGLL 170250Z 24006KT CAVOK 08/07 Q1022 NOSIG=
201110170220 METAR EGLL 170220Z NIL=
201110170150 METAR COR EGLL 170150Z 24005KT CAVOK 09/08 Q1022 NOSIG=
201110170120 METAR EGLL 170120Z AUTO 23005KT 9999NDV NCD 09/08 Q1022=
201110170050 METAR EGLL 170050Z AUTO 24004KT 9999NDV NCD 09/08 Q1022=
201110170020 METAR EGLL 170020Z AUTO 23004KT 9999NDV NCD 10/08 Q1022=
201110162350 METAR COR EGLL 162350Z 26004KT CAVOK 10/08 Q1022 NOSIG=
201110162320 METAR COR EGLL 162320Z 25005KT CAVOK 10/08 Q1022 NOSIG=
201110162250 METAR COR EGLL 162250Z 27006KT CAVOK 11/09 Q1023 NOSIG=
201110162220 METAR COR EGLL 162220Z 27008KT 9999 FEW035 11/08 Q1023 NOSIG=
201110162150 METAR COR EGLL 162150Z 26009KT 9999 SCT036 12/09 Q1023 NOSIG=
201110162120 METAR COR EGLL 162120Z 28008KT 9999 SCT040 12/09 Q1023 NOSIG=
201110162050 METAR COR EGLL 162050Z 28007KT 9999 BKN036 13/10 Q1023 NOSIG=
201110162020 METAR COR EGLL 162020Z 28008KT 9999 SCT036 13/10 Q1023 NOSIG=
201110161950 METAR COR EGLL 161950Z 28008KT CAVOK 12/09 Q1023 NOSIG=
201110161920 METAR COR EGLL 161920Z 28006KT CAVOK 14/10 Q1023 NOSIG=
201110161850 METAR COR EGLL 161850Z 26008KT CAVOK 14/10 Q1023 NOSIG=
201110161820 METAR COR EGLL 161820Z 27008KT CAVOK 14/10 Q1022 NOSIG=
201110161750 METAR EGLL 161750Z 27010KT 9999 FEW031 15/10 Q1022=
201110161720 METAR COR EGLL 161720Z 27010KT 9999 FEW032 16/10 Q1022 NOSIG=
201110161650 METAR COR EGLL 161650Z 25011KT 9999 FEW033 17/11 Q1022 NOSIG=
201110161620 METAR COR EGLL 161620Z 23008KT 180V260 9999 FEW033 17/11
                        Q1022 NOSIG=
201110161550 METAR COR EGLL 161550Z 23009KT 200V270 9999 FEW025 SCT029
                        17/11 Q1022 NOSIG=
201110161520 METAR COR EGLL 161520Z 25006KT 180V280 9999 SCT025 17/12
                        Q1022 NOSIG=
201110161450 METAR COR EGLL 161450Z 27006KT 190V310 9999 FEW028 17/12
                        Q1022 NOSIG=
201110161420 METAR COR EGLL 161420Z 26008KT 9999 FEW022 17/11 Q1022 NOSIG=
201110161350 METAR COR EGLL 161350Z 25004KT 210V310 9999 FEW022 16/11
                        Q1022 NOSIG=
201110161320 METAR COR EGLL 161320Z 26005KT 210V300 9999 FEW021 16/11
                        Q1023 NOSIG=
201110161250 METAR COR EGLL 161250Z 23005KT 190V260 9999 SCT021 15/10
                        Q1023 NOSIG=
201110161220 METAR COR EGLL 161220Z 22004KT 160V260 9999 SCT021 14/10
                        Q1023 NOSIG=
201110161150 METAR COR EGLL 161150Z 21004KT 170V290 9999 BKN021 13/09
                        Q1023 NOSIG=
201110161120 METAR COR EGLL 161120Z 23004KT 180V270 9999 BKN035 12/09
                        Q1024 NOSIG=
201110161050 METAR COR EGLL 161050Z VRB03KT 9000 BKN030 10/09 Q1024 NOSIG=
201110161020 METAR COR EGLL 161020Z VRB03KT 4700 BR FEW003 09/08 Q1024
                        BECMG 7000 NSW=
201110160950 METAR COR EGLL 160950Z VRB02KT 4000 BR SCT002 08/08 Q1024
                        BECMG 7000 NSW=
201110160920 METAR COR EGLL 160920Z VRB03KT 0400 R27R/P1500 R27L/1200
                        FG SCT001 BKN002 06/06 Q1024 BECMG
                        3500 BR BKN005=
201110160850 METAR COR EGLL 160850Z VRB02KT 0350 R27R/P1500 R27L/0325
                        FG SCT001 BKN002 06/06 Q1024 BECMG
                        1500 BR=
201110160820 METAR COR EGLL 160820Z 30002KT 0250 R27R/0400 R27L/0325 FG
                        SCT000 BKN001 06/06 Q1023 BECMG 1200
                        BR BKN002=
201110160750 METAR COR EGLL 160750Z 29002KT 0250 R27R/0400 R27L/0400 FG
                        SCT000 BKN001 06/05 Q1023 TEMPO 0800=
201110160720 METAR COR EGLL 160720Z 32002KT 0250 R27R/0400 R27L/0325 FG
                        SCT000 BKN001 05/05 Q1023 BECMG 1500
                        BR SCT001=
201110160650 METAR COR EGLL 160650Z 01002KT 0200 R27R/0275 R27L/0250 FG
                        SCT000 BKN001 05/05 Q1023 BECMG 1500
                        BR SCT001=
201110160620 METAR COR EGLL 160620Z 33002KT 0200 R27R/0325 R27L/0250 FG
                        SCT000 BKN001 06/05 Q1023 TEMPO 1500
                        BR SCT001=
201110160550 METAR COR EGLL 160550Z 36002KT 0200 R27R/0350 R27L/0450 FG
                        BKN000 05/05 Q1023 TEMPO 0400 SCT000=
201110160520 METAR COR EGLL 160520Z VRB02KT 0200 R27R/0375 R27L/0300 FG
                        BKN000 05/05 Q1023 TEMPO 0350 SCT000=
201110160450 METAR COR EGLL 160450Z 35002KT 0200 R27L/0275 FG VV/// 05/04
                        Q1023 TEMPO 0350 SCT000=
201110160420 METAR COR EGLL 160420Z 00000KT 0200 R27L/1400 FG VV/// 05/04
                        Q1023 TEMPO 0350 SCT000=
201110160350 METAR COR EGLL 160350Z 00000KT 0200 R27L/0375 FG BKN000 05/04
                        Q1023 TEMPO 0350=
201110160320 METAR COR EGLL 160320Z 27002KT 0350 R27L/0450 FG SCT000 05/04
                        Q1023 TEMPO 0300 VV///=
201110160250 METAR COR EGLL 160250Z 18002KT 0800 R27L/0600 FG FEW000 05/04
                        Q1023 TEMPO 0300 VV///=
201110160220 METAR COR EGLL 160220Z 11002KT 8000 2000S PRFG NSC 05/04
                        Q1023 TEMPO 2500 BR=
201110160150 METAR COR EGLL 160150Z 00000KT 9000 VCFG NSC 05/04 Q1023
                        TEMPO 3000 BR=
201110160120 METAR EGLL 160120Z AUTO VRB02KT 9000NDV ///////// 06/05 Q1023=
201110160050 METAR EGLL 160050Z AUTO 00000KT 8000NDV ///////// 06/05 Q1023=
201110160020 METAR EGLL 160020Z AUTO 00000KT 9000NDV ///////// 07/06 Q1023=
201110152350 METAR COR EGLL 152350Z 34002KT CAVOK 07/06 Q1023 NOSIG=
201110152320 METAR COR EGLL 152320Z 35002KT CAVOK 08/07 Q1023 NOSIG=
201110152250 METAR COR EGLL 152250Z 00000KT CAVOK 09/06 Q1023 NOSIG=
201110152220 METAR COR EGLL 152220Z 00000KT CAVOK 08/07 Q1023 NOSIG=
201110152150 METAR COR EGLL 152150Z VRB02KT CAVOK 09/07 Q1024 NOSIG=
201110152120 METAR COR EGLL 152120Z 24005KT 190V270 CAVOK 09/06 Q1024
                        NOSIG=
201110152050 METAR COR EGLL 152050Z 24005KT 200V270 CAVOK 09/06 Q1024
                        NOSIG=
201110152020 METAR COR EGLL 152020Z 20006KT 150V250 CAVOK 10/07 Q1023
                        NOSIG=
201110151950 METAR COR EGLL 151950Z 17006KT 140V220 CAVOK 10/07 Q1023
                        NOSIG=
201110151920 METAR COR EGLL 151920Z 17005KT 150V210 CAVOK 11/07 Q1023
                        NOSIG=
201110151850 METAR COR EGLL 151850Z 19004KT CAVOK 12/07 Q1023 NOSIG=
201110151820 METAR COR EGLL 151820Z 18005KT CAVOK 13/07 Q1023 NOSIG=
201110151750 METAR COR EGLL 151750Z 18005KT CAVOK 14/06 Q1023 NOSIG=
201110151720 METAR COR EGLL 151720Z 18004KT CAVOK 15/06 Q1023 NOSIG=
201110151650 METAR COR EGLL 151650Z 17004KT CAVOK 16/06 Q1023 NOSIG=
201110151620 METAR COR EGLL 151620Z 16006KT CAVOK 16/06 Q1023 NOSIG=
201110151550 METAR COR EGLL 151550Z 18005KT CAVOK 17/05 Q1023 NOSIG=
201110151520 METAR COR EGLL 151520Z 15005KT 100V200 CAVOK 17/06 Q1023
                        NOSIG=
201110151450 METAR COR EGLL 151450Z 15005KT 120V180 CAVOK 17/06 Q1023
                        NOSIG=
201110151420 METAR COR EGLL 151420Z 19004KT 130V230 CAVOK 17/06 Q1023
                        NOSIG=
201110151350 METAR COR EGLL 151350Z 18006KT 130V220 CAVOK 17/05 Q1024
                        NOSIG=
201110151320 METAR COR EGLL 151320Z 16004KT 110V230 CAVOK 17/06 Q1024
                        NOSIG=
201110151250 METAR COR EGLL 151250Z 17007KT 120V200 CAVOK 16/05 Q1024
                        NOSIG=
201110151220 METAR COR EGLL 151220Z 15008KT CAVOK 16/05 Q1025 NOSIG=
201110151150 METAR COR EGLL 151150Z 16007KT 120V190 CAVOK 16/05 Q1025
                        NOSIG=
201110151120 METAR COR EGLL 151120Z 15005KT 100V190 CAVOK 16/06 Q1025
                        NOSIG=
201110151050 METAR COR EGLL 151050Z 13005KT 090V170 CAVOK 15/07 Q1026
                        NOSIG=
201110151020 METAR COR EGLL 151020Z 13004KT 080V180 CAVOK 15/07 Q1026
                        NOSIG=
201110150950 METAR COR EGLL 150950Z 12005KT 090V160 CAVOK 13/07 Q1026
                        NOSIG=
201110150920 METAR COR EGLL 150920Z 12006KT 090V150 CAVOK 12/07 Q1026
                        NOSIG=
201110150850 METAR COR EGLL 150850Z 11006KT CAVOK 11/07 Q1026 NOSIG=
201110150820 METAR COR EGLL 150820Z 09004KT CAVOK 09/07 Q1026 NOSIG=
201110150750 METAR COR EGLL 150750Z 07003KT CAVOK 08/06 Q1026 NOSIG=
201110150720 METAR COR EGLL 150720Z 05002KT CAVOK 06/05 Q1026 NOSIG=
201110150650 METAR COR EGLL 150650Z 00000KT CAVOK 06/05 Q1026 NOSIG=
201110150620 METAR COR EGLL 150620Z 00000KT CAVOK 06/04 Q1026 NOSIG=
201110150550 METAR COR EGLL 150550Z 00000KT CAVOK 06/04 Q1026 NOSIG=
201110150520 METAR COR EGLL 150520Z 00000KT CAVOK 06/04 Q1026 NOSIG=
201110150450 METAR COR EGLL 150450Z 00000KT CAVOK 06/05 Q1026 NOSIG=
201110150420 METAR COR EGLL 150420Z 01002KT CAVOK 06/05 Q1026 NOSIG=
201110150350 METAR COR EGLL 150350Z 03002KT CAVOK 06/05 Q1027 NOSIG=
201110150320 METAR EGLL 150320Z VRB02KT CAVOK 07/05 Q1027=
201110150250 METAR COR EGLL 150250Z 06002KT CAVOK 07/05 Q1027 NOSIG=
201110150220 METAR COR EGLL 150220Z 07004KT CAVOK 07/04 Q1027 NOSIG=
201110150150 METAR COR EGLL 150150Z 08005KT CAVOK 07/04 Q1027 NOSIG=
201110150120 METAR EGLL 150120Z AUTO 09006KT 9999NDV NCD 07/04 Q1027=
201110150050 METAR EGLL 150050Z AUTO 09006KT 9999NDV NCD 06/04 Q1027=
201110150020 METAR EGLL 150020Z AUTO 08004KT 9999NDV NCD 07/04 Q1028=
201110142350 METAR COR EGLL 142350Z 08004KT CAVOK 08/04 Q1028 NOSIG=
201110142320 METAR COR EGLL 142320Z 09004KT CAVOK 08/04 Q1028 NOSIG=
201110142250 METAR COR EGLL 142250Z 08005KT CAVOK 08/05 Q1028 NOSIG=
201110142220 METAR COR EGLL 142220Z 09006KT CAVOK 08/05 Q1028 NOSIG=
201110142150 METAR COR EGLL 142150Z 09005KT CAVOK 08/05 Q1028 NOSIG=
201110142120 METAR COR EGLL 142120Z 07004KT CAVOK 09/05 Q1028 NOSIG=
201110142050 METAR COR EGLL 142050Z 08004KT CAVOK 09/05 Q1028 NOSIG=
201110142020 METAR COR EGLL 142020Z 08004KT CAVOK 08/04 Q1029 NOSIG=
201110141950 METAR COR EGLL 141950Z 10005KT CAVOK 09/05 Q1029 NOSIG=
201110141920 METAR COR EGLL 141920Z 12006KT CAVOK 09/05 Q1029 NOSIG=
201110141850 METAR COR EGLL 141850Z 12005KT CAVOK 10/04 Q1029 NOSIG=
201110141820 METAR COR EGLL 141820Z 10007KT CAVOK 10/04 Q1029 NOSIG=
201110141750 METAR COR EGLL 141750Z 10008KT CAVOK 11/04 Q1029 NOSIG=
201110141720 METAR COR EGLL 141720Z 09010KT CAVOK 12/05 Q1029 NOSIG=
201110141650 METAR COR EGLL 141650Z 10010KT CAVOK 13/04 Q1029 NOSIG=
201110141620 METAR COR EGLL 141620Z 12007KT CAVOK 15/03 Q1029 NOSIG=
201110141550 METAR COR EGLL 141550Z 12006KT 080V160 CAVOK 15/03 Q1029
                        NOSIG=
201110141520 METAR COR EGLL 141520Z 11006KT 050V170 CAVOK 16/03 Q1029
                        NOSIG=
201110141450 METAR COR EGLL 141450Z 12006KT 080V160 CAVOK 16/04 Q1029
                        NOSIG=
201110141420 METAR COR EGLL 141420Z 11007KT 070V140 CAVOK 16/04 Q1029
                        NOSIG=
201110141350 METAR COR EGLL 141350Z 12007KT 070V140 CAVOK 16/04 Q1030
                        NOSIG=
201110141320 METAR COR EGLL 141320Z 12007KT 090V160 CAVOK 16/04 Q1030
                        NOSIG=
201110141250 METAR COR EGLL 141250Z 11007KT 080V140 CAVOK 16/04 Q1030
                        NOSIG=
201110141220 METAR COR EGLL 141220Z 12009KT 080V140 CAVOK 16/04 Q1031
                        NOSIG=
201110141150 METAR COR EGLL 141150Z 13009KT 080V170 CAVOK 16/04 Q1031
                        NOSIG=
201110141120 METAR COR EGLL 141120Z 10010KT 070V130 CAVOK 16/05 Q1031
                        NOSIG=
201110141050 METAR COR EGLL 141050Z 13007KT 100V200 9999 FEW034 15/05
                        Q1032 NOSIG=
201110141020 METAR COR EGLL 141020Z 09011KT 9999 FEW034 14/06 Q1032 NOSIG=
201110140950 METAR COR EGLL 140950Z 12012KT CAVOK 14/06 Q1032 NOSIG=
201110140920 METAR COR EGLL 140920Z 11010KT CAVOK 14/06 Q1032 NOSIG=
201110140850 METAR COR EGLL 140850Z 12008KT CAVOK 13/07 Q1032 NOSIG=
201110140820 METAR COR EGLL 140820Z 11007KT CAVOK 11/07 Q1032 NOSIG=
201110140750 METAR COR EGLL 140750Z 09004KT CAVOK 11/08 Q1031 NOSIG=
201110140720 METAR COR EGLL 140720Z 09004KT CAVOK 09/07 Q1031 NOSIG=
201110140650 METAR COR EGLL 140650Z 06003KT CAVOK 09/06 Q1031 NOSIG=
201110140620 METAR COR EGLL 140620Z 00000KT 9999 FEW045 09/07 Q1031 NOSIG=
201110140550 METAR COR EGLL 140550Z 08003KT 9999 SCT045 09/07 Q1031 NOSIG=
201110140520 METAR COR EGLL 140520Z 07003KT 9999 FEW045 09/07 Q1031 NOSIG=
201110140450 METAR COR EGLL 140450Z 06003KT CAVOK 08/07 Q1031 NOSIG=
201110140420 METAR COR EGLL 140420Z 05002KT CAVOK 08/07 Q1031 NOSIG=
201110140350 METAR COR EGLL 140350Z 04003KT CAVOK 09/07 Q1031 NOSIG=
201110140320 METAR COR EGLL 140320Z 05002KT CAVOK 09/07 Q1031 NOSIG=
201110140250 METAR COR EGLL 140250Z 06002KT CAVOK 09/08 Q1031 NOSIG=
201110140220 METAR COR EGLL 140220Z 06003KT CAVOK 10/08 Q1031 NOSIG=
201110140150 METAR COR EGLL 140150Z 06004KT CAVOK 10/08 Q1031 NOSIG=
201110140120 METAR EGLL 140120Z AUTO 08003KT 9999NDV NCD 10/08 Q1031=
201110140050 METAR EGLL 140050Z AUTO 08003KT 9999NDV NCD 10/08 Q1031=
201110140020 METAR EGLL 140020Z AUTO 08004KT 9999NDV NCD 10/07 Q1031=
201110132350 METAR COR EGLL 132350Z 10004KT CAVOK 10/07 Q1031 NOSIG=
201110132320 METAR COR EGLL 132320Z 10005KT CAVOK 10/07 Q1031 NOSIG=
201110132250 METAR COR EGLL 132250Z 10005KT CAVOK 11/08 Q1031 NOSIG=
201110132220 METAR COR EGLL 132220Z 10006KT CAVOK 11/08 Q1031 NOSIG=
201110132150 METAR COR EGLL 132150Z 10007KT CAVOK 13/09 Q1031 NOSIG=
201110132120 METAR COR EGLL 132120Z 11007KT CAVOK 13/09 Q1031 NOSIG=
201110132050 METAR COR EGLL 132050Z 11007KT CAVOK 13/10 Q1031 NOSIG=
201110132020 METAR COR EGLL 132020Z 10006KT CAVOK 14/10 Q1031 NOSIG=
201110131950 METAR COR EGLL 131950Z 09006KT 9999 FEW033 14/10 Q1031 NOSIG=
201110131920 METAR COR EGLL 131920Z 08005KT 9999 FEW032 13/10 Q1030 NOSIG=
201110131850 METAR COR EGLL 131850Z 10008KT 9999 SCT032 14/11 Q1030 NOSIG=
201110131820 METAR COR EGLL 131820Z 10005KT 9999 BKN031 14/11 Q1030 NOSIG=
201110131750 METAR COR EGLL 131750Z 10006KT 9000 BKN030 14/11 Q1030 NOSIG=
201110131720 METAR COR EGLL 131720Z 10007KT 9999 SCT030 15/11 Q1030 NOSIG=
201110131650 METAR COR EGLL 131650Z 11007KT 9000 SCT034 15/12 Q1030 NOSIG=
201110131620 METAR COR EGLL 131620Z 10009KT 9999 FEW018 SCT028 15/11 Q1030
                        NOSIG=
201110131550 METAR COR EGLL 131550Z 11008KT 9999 FEW018 SCT030 16/12 Q1030
                        NOSIG=
201110131520 METAR COR EGLL 131520Z 09007KT 9999 SCT018 BKN026 16/12 Q1029
                        NOSIG=
201110131450 METAR COR EGLL 131450Z 10009KT 9999 FEW019 SCT028 16/12 Q1029
                        NOSIG=
201110131420 METAR COR EGLL 131420Z 10010KT 9999 SCT024 17/12 Q1029 NOSIG=
201110131350 METAR COR EGLL 131350Z 09009KT 9999 FEW022 17/12 Q1029 NOSIG=
201110131320 METAR COR EGLL 131320Z 09008KT 9999 FEW014 SCT046 16/12 Q1029
                        NOSIG=
201110131250 METAR COR EGLL 131250Z 08009KT 9999 FEW013 SCT046 16/12 Q1029
                        NOSIG=
201110131220 METAR COR EGLL 131220Z 07007KT 9999 SCT013 SCT018 16/12 Q1029
                        NOSIG=
201110131150 METAR COR EGLL 131150Z 07006KT 9999 SCT013 BKN022 16/12 Q1029
                        NOSIG=
201110131120 METAR COR EGLL 131120Z 06006KT 020V080 9999 SCT013 SCT025
                        16/12 Q1029 NOSIG=
201110131050 METAR COR EGLL 131050Z 04005KT 010V080 9999 FEW013 BKN026
                        17/13 Q1029 NOSIG=
201110131020 METAR COR EGLL 131020Z 06007KT 020V100 9999 SCT015 SCT021
                        17/12 Q1029 NOSIG=
201110130950 METAR COR EGLL 130950Z 06005KT 030V090 9999 FEW010 SCT022
                        16/12 Q1029 NOSIG=
201110130920 METAR COR EGLL 130920Z 05005KT 360V080 9999 SCT011 SCT015
                        15/13 Q1029 NOSIG=
201110130850 METAR COR EGLL 130850Z 03004KT 330V060 9999 FEW011 BKN022
                        15/13 Q1028 NOSIG=
201110130820 METAR COR EGLL 130820Z 35004KT 310V020 9000 FEW016 BKN019
                        15/13 Q1028 NOSIG=
201110130750 METAR COR EGLL 130750Z 35004KT 330V040 9000 FEW010 BKN013
                        15/12 Q1028 BECMG BKN015=
201110130720 METAR COR EGLL 130720Z 08004KT 030V110 8000 FEW010 BKN012
                        14/12 Q1027 BECMG BKN016=
201110130650 METAR COR EGLL 130650Z 08003KT 8000 SCT009 BKN010 14/12 Q1027
                        BECMG SCT010 BKN020=
201110130620 METAR COR EGLL 130620Z 05004KT 020V120 9000 FEW009 BKN010
                        14/12 Q1027 BECMG SCT010 BKN020=
201110130550 METAR COR EGLL 130550Z 05004KT 9999 FEW010 13/11 Q1026 TEMPO
                        BKN010=
201110130520 METAR COR EGLL 130520Z VRB03KT 9999 FEW019 13/12 Q1026 TEMPO
                        BKN012=
201110130450 METAR COR EGLL 130450Z 07004KT 9000 FEW010 SCT014 14/12 Q1026
                        TEMPO BKN012=
201110130420 METAR COR EGLL 130420Z VRB03KT 8000 SCT012 15/13 Q1026 TEMPO
                        BKN012=
201110130350 METAR COR EGLL 130350Z 35003KT 7000 SCT009 SCT012 14/13 Q1026=
201110130320 METAR COR EGLL 130320Z VRB03KT 7000 FEW012 14/13 Q1026 TEMPO
                        BKN012=
201110130250 METAR COR EGLL 130250Z 36002KT 7000 NSC 14/13 Q1025 NOSIG=
201110130220 METAR COR EGLL 130220Z 36002KT 8000 NSC 14/13 Q1025 NOSIG=
201110130150 METAR COR EGLL 130150Z VRB03KT 9999 BKN049 14/13 Q1025 NOSIG=
201110130120 METAR EGLL 130120Z AUTO VRB03KT 9999NDV OVC049/// 15/13 Q1025=
201110130050 METAR EGLL 130050Z AUTO 00000KT 9999NDV NCD 15/13 Q1025=
201110130020 METAR EGLL 130020Z AUTO 30003KT 9999NDV SCT015/// 14/13 Q1024=
201110122350 METAR COR EGLL 122350Z 30003KT 9999 SCT015 14/13 Q1024 NOSIG=
201110122320 METAR COR EGLL 122320Z 28005KT 9000 FEW012 13/12 Q1024 NOSIG=
201110122250 METAR COR EGLL 122250Z 26003KT 9999 FEW037 14/13 Q1024 NOSIG=
201110122220 METAR COR EGLL 122220Z 27005KT 9999 SCT036 15/14 Q1024 NOSIG=
201110122150 METAR COR EGLL 122150Z 27006KT 9999 FEW022 SCT030 15/14 Q1024
                        NOSIG=
201110122120 METAR COR EGLL 122120Z 29006KT 9999 SCT020 16/14 Q1023 NOSIG=
201110122050 METAR COR EGLL 122050Z 28007KT 9999 FEW029 16/14 Q1023 NOSIG=
201110122020 METAR COR EGLL 122020Z 28007KT 9999 FEW036 16/14 Q1023 NOSIG=
201110121950 METAR EGLL 121950Z 28005KT 9999 SCT044 16/14 Q1023=
201110121920 METAR COR EGLL 121920Z 29004KT 9999 FEW035 16/14 Q1022 NOSIG=
201110121850 METAR COR EGLL 121850Z 28007KT 9999 SCT035 17/14 Q1022 NOSIG=
201110121820 METAR COR EGLL 121820Z 30007KT 9999 SCT044 17/14 Q1022 NOSIG=
201110121750 METAR COR EGLL 121750Z 28008KT 9999 SCT047 17/14 Q1022 NOSIG=
201110121720 METAR COR EGLL 121720Z 27011KT 9999 SCT032 18/14 Q1021 NOSIG=
201110121650 METAR COR EGLL 121650Z 28010KT 9999 SCT020 BKN032 18/14 Q1021
                        NOSIG=
201110121620 METAR COR EGLL 121620Z 27009KT 9999 BKN025 18/14 Q1021 NOSIG=
201110121550 METAR COR EGLL 121550Z 27013KT 9999 BKN030 18/13 Q1020 NOSIG=
201110121520 METAR COR EGLL 121520Z 28013KT 9999 BKN034 19/13 Q1020 NOSIG=
201110121450 METAR COR EGLL 121450Z 28011KT 9999 SCT027 SCT038 20/13 Q1020
                        NOSIG=
201110121420 METAR COR EGLL 121420Z 27011KT 9999 FEW026 BKN038 19/13 Q1020
                        NOSIG=
201110121350 METAR EGLL 121350Z 27010KT 9999 FEW024 SCT034 20/13 Q1020=
201110121320 METAR COR EGLL 121320Z 27010KT 9999 FEW022 SCT036 19/13 Q1020
                        NOSIG=
201110121250 METAR COR EGLL 121250Z 27009KT 240V310 9999 FEW018 SCT024
                        18/13 Q1020 NOSIG=
201110121220 METAR COR EGLL 121220Z 26010KT 9999 SCT024 BKN032 17/13 Q1020
                        NOSIG=
201110121150 METAR COR EGLL 121150Z 26011KT 9999 FEW012 BKN016 17/13 Q1020
                        TEMPO BKN012=
201110121120 METAR COR EGLL 121120Z 26013KT 9999 FEW012 BKN018 16/13 Q1020
                        TEMPO BKN013=
201110121050 METAR COR EGLL 121050Z 26011KT 230V290 9999 FEW014 BKN016
                        16/12 Q1021 TEMPO BKN012=
201110121020 METAR COR EGLL 121020Z 26013KT 9999 SCT016 SCT023 16/12 Q1021
                        NOSIG=
201110120950 METAR COR EGLL 120950Z 27011KT 9999 SCT017 SCT036 16/12 Q1021
                        NOSIG=
201110120920 METAR COR EGLL 120920Z 26010KT 9999 BKN017 16/12 Q1021 TEMPO
                        BKN012=
201110120850 METAR COR EGLL 120850Z 26012KT 9999 SCT015 SCT040 15/12 Q1020
                        NOSIG=
201110120820 METAR COR EGLL 120820Z 27010KT 9999 SCT020 15/11 Q1020 NOSIG=
201110120750 METAR COR EGLL 120750Z 26009KT 9999 BKN048 15/11 Q1020 NOSIG=
201110120720 METAR COR EGLL 120720Z 27009KT 9999 FEW016 BKN045 14/11 Q1020
                        NOSIG=
201110120650 METAR COR EGLL 120650Z 25010KT 9999 FEW020 15/11 Q1019 NOSIG=
201110120620 METAR COR EGLL 120620Z 25010KT 9999 FEW018 15/11 Q1019 NOSIG=
201110120550 METAR COR EGLL 120550Z 26010KT 9999 BKN019 15/11 Q1019 NOSIG=
201110120520 METAR COR EGLL 120520Z 26010KT 9999 BKN018 15/11 Q1019 NOSIG=
201110120450 METAR COR EGLL 120450Z 26011KT 9999 SCT020 15/11 Q1019 NOSIG=
201110120420 METAR COR EGLL 120420Z 25010KT 9999 SCT017 15/12 Q1019 NOSIG=
201110120350 METAR COR EGLL 120350Z 26010KT 9999 FEW015 15/12 Q1019 NOSIG=
201110120320 METAR COR EGLL 120320Z 26011KT CAVOK 15/12 Q1019 NOSIG=
201110120250 METAR EGLL 120250Z 26012KT CAVOK 15/12 Q1020=
201110120220 METAR COR EGLL 120220Z 26013KT CAVOK 15/12 Q1020 NOSIG=
201110120150 METAR COR EGLL 120150Z 26013KT CAVOK 15/12 Q1020 NOSIG=
201110120120 METAR EGLL 120120Z AUTO 25012KT 9999NDV NCD 15/12 Q1020=
201110120050 METAR EGLL 120050Z AUTO 26012KT 9999NDV NCD 15/12 Q1020=
201110120020 METAR EGLL 120020Z AUTO 26014KT 9999NDV NCD 15/12 Q1020=
201110112350 METAR COR EGLL 112350Z 25012KT CAVOK 15/12 Q1020 NOSIG=
201110112320 METAR COR EGLL 112320Z 26012KT CAVOK 15/12 Q1021 NOSIG=
201110112250 METAR COR EGLL 112250Z 26012KT CAVOK 15/13 Q1021 NOSIG=
201110112220 METAR COR EGLL 112220Z 26013KT 9999 FEW018 15/13 Q1021 NOSIG=
201110112150 METAR COR EGLL 112150Z 26014KT 9999 FEW016 16/13 Q1021 NOSIG=
201110112120 METAR COR EGLL 112120Z 25013KT 9999 FEW018 16/13 Q1021 NOSIG=
201110112050 METAR COR EGLL 112050Z 26015KT 9999 FEW018 16/13 Q1020 NOSIG=
201110112020 METAR COR EGLL 112020Z 25012KT 9999 FEW018 16/13 Q1020 NOSIG=
201110111950 METAR COR EGLL 111950Z 26013KT 9999 FEW020 16/13 Q1020 NOSIG=
201110111920 METAR COR EGLL 111920Z 27014KT 9999 FEW020 16/13 Q1020 NOSIG=
201110111850 METAR COR EGLL 111850Z 26013KT CAVOK 16/13 Q1020 NOSIG=
201110111820 METAR COR EGLL 111820Z 26012KT 9999 SCT048 17/13 Q1020 NOSIG=
201110111750 METAR COR EGLL 111750Z 26014KT 9999 FEW023 SCT047 17/13 Q1020
                        NOSIG=
201110111720 METAR COR EGLL 111720Z 27015KT 9999 FEW049 17/13 Q1020 NOSIG=
201110111650 METAR COR EGLL 111650Z 26015KT 9999 SCT025 SCT048 17/13 Q1019
                        NOSIG=
201110111620 METAR COR EGLL 111620Z 26015KT 9999 FEW020 SCT025 17/13 Q1019
                        NOSIG=
201110111550 METAR COR EGLL 111550Z 26016KT 9999 SCT022 SCT025 18/13 Q1019
                        NOSIG=
201110111520 METAR COR EGLL 111520Z 27015KT 9999 SCT024 BKN028 18/13 Q1019
                        NOSIG=
201110111450 METAR COR EGLL 111450Z 26016KT 9999 BKN027 18/13 Q1019 NOSIG=
201110111420 METAR COR EGLL 111420Z 26019KT 9999 FEW022 BKN028 18/13 Q1019
                        NOSIG=
201110111350 METAR COR EGLL 111350Z 27016KT 9999 FEW021 SCT024 BKN028
                        18/13 Q1019 NOSIG=
201110111320 METAR COR EGLL 111320Z 26016KT 9999 SCT020 BKN023 18/13 Q1019
                        NOSIG=
201110111250 METAR COR EGLL 111250Z 25013KT 9999 SCT020 BKN025 18/13 Q1019
                        NOSIG=
201110111220 METAR COR EGLL 111220Z 26016KT 9999 SCT023 SCT028 18/13 Q1019
                        NOSIG=
201110111150 METAR COR EGLL 111150Z 26020KT 9999 FEW017 SCT023 19/13 Q1019
                        NOSIG=
201110111120 METAR COR EGLL 111120Z 26018KT 9999 BKN018 BKN024 19/13 Q1019
                        NOSIG=
201110111050 METAR COR EGLL 111050Z 26016KT 9999 BKN015 BKN021 17/13 Q1019
                        NOSIG=
201110111020 METAR COR EGLL 111020Z 26018KT 9999 SCT017 BKN021 18/13 Q1019
                        NOSIG=
201110110950 METAR COR EGLL 110950Z 26017KT 9999 SCT017 SCT021 18/13 Q1019
                        NOSIG=
201110110920 METAR COR EGLL 110920Z 25016KT 9999 SCT018 18/13 Q1019 NOSIG=
201110110850 METAR COR EGLL 110850Z 24016G26KT 9999 FEW012 17/13 Q1019
                        NOSIG=
201110110820 METAR COR EGLL 110820Z 24016KT 9999 FEW021 16/13 Q1019 NOSIG=
201110110750 METAR COR EGLL 110750Z 25014KT 9999 FEW021 BKN027 16/13 Q1019
                        NOSIG=
201110110720 METAR COR EGLL 110720Z 24013KT 9999 BKN030 16/13 Q1018 NOSIG=
201110110650 METAR COR EGLL 110650Z 24013KT 9999 FEW028 BKN035 16/13 Q1018
                        NOSIG=
201110110620 METAR COR EGLL 110620Z 25013KT 9999 FEW021 SCT027 16/13 Q1018
                        NOSIG=
201110110550 METAR COR EGLL 110550Z 25013KT 9999 SCT021 BKN027 16/12 Q1018
                        NOSIG=
201110110520 METAR COR EGLL 110520Z 25015KT 9999 FEW020 BKN030 16/12 Q1018
                        NOSIG=
201110110450 METAR COR EGLL 110450Z 24014KT 9999 SCT020 BKN030 16/12 Q1018
                        NOSIG=
201110110420 METAR COR EGLL 110420Z 25013KT 9999 SCT025 BKN035 16/12 Q1018
                        NOSIG=
201110110350 METAR COR EGLL 110350Z 25013KT 9999 FEW024 SCT028 BKN033
                        16/12 Q1018 NOSIG=
201110110320 METAR COR EGLL 110320Z 25014KT 9999 SCT018 BKN028 BKN034
                        16/12 Q1018 NOSIG=
201110110250 METAR COR EGLL 110250Z 25016KT 9999 SCT022 BKN025 16/12 Q1018
                        NOSIG=
201110110220 METAR COR EGLL 110220Z 25016KT 9999 SCT025 BKN032 16/12 Q1018
                        NOSIG=
201110110150 METAR COR EGLL 110150Z 25017KT 9999 BKN029 16/12 Q1018 NOSIG=
201110102350 METAR COR EGLL 102350Z 25015KT 9999 BKN022 16/12 Q1019 NOSIG=
201110102320 METAR COR EGLL 102320Z 26017KT 9999 BKN022 17/12 Q1019 NOSIG=
201110102250 METAR COR EGLL 102250Z 25015KT 9999 BKN022 17/12 Q1019 NOSIG=
201110102220 METAR COR EGLL 102220Z 26019KT 9999 BKN022 17/12 Q1019 NOSIG=
201110102150 METAR EGLL 102150Z 26017KT 9999 BKN023 17/12 Q1019=
201110102120 METAR COR EGLL 102120Z 26018KT 9999 SCT025 17/12 Q1019 NOSIG=
201110102050 METAR COR EGLL 102050Z 26019KT 9999 BKN021 17/12 Q1019 NOSIG=
201110102020 METAR COR EGLL 102020Z 26019KT 9999 BKN020 17/12 Q1019 NOSIG=
201110101950 METAR COR EGLL 101950Z 26021KT 9999 BKN018 17/13 Q1019 NOSIG=
201110101920 METAR COR EGLL 101920Z 26019KT 9999 BKN018 17/13 Q1019 NOSIG=
201110101850 METAR COR EGLL 101850Z 26019KT 9999 BKN019 17/13 Q1019 NOSIG=
201110101820 METAR COR EGLL 101820Z 26019G30KT 9999 BKN018 17/13 Q1019
                        BECMG 26015KT=
201110101750 METAR COR EGLL 101750Z 26020KT 9999 BKN021 17/13 Q1018 NOSIG=
201110101720 METAR COR EGLL 101720Z 27021KT 9999 BKN021 17/13 Q1018 NOSIG=
201110101650 METAR COR EGLL 101650Z 27021KT 9999 BKN022 18/12 Q1018 NOSIG=
201110101620 METAR COR EGLL 101620Z 26023KT 9999 BKN026 18/12 Q1017 NOSIG=
201110101550 METAR COR EGLL 101550Z 26023KT 9999 SCT026 18/12 Q1017 NOSIG=
201110101520 METAR COR EGLL 101520Z 26022KT 9999 SCT028 18/12 Q1017 NOSIG=
201110101450 METAR COR EGLL 101450Z 27019KT 9999 SCT028 19/12 Q1017 NOSIG=
201110101420 METAR COR EGLL 101420Z 27023KT 9999 SCT029 19/12 Q1017 NOSIG=
201110101350 METAR COR EGLL 101350Z 26022KT 9999 SCT029 19/12 Q1017 NOSIG=
201110101320 METAR COR EGLL 101320Z 26025KT 9999 FEW030 19/12 Q1017 NOSIG=
201110101250 METAR COR EGLL 101250Z 26024KT 9999 SCT028 20/12 Q1017 NOSIG=
201110101220 METAR COR EGLL 101220Z 27021G32KT 9999 BKN024 19/12 Q1018
                        TEMPO 27018KT=
201110101150 METAR COR EGLL 101150Z 26019KT 9999 BKN024 18/13 Q1018 NOSIG=
201110101120 METAR COR EGLL 101120Z 26020KT 9999 BKN022 18/13 Q1018 NOSIG=
201110101050 METAR COR EGLL 101050Z 25022KT 9999 BKN022 18/13 Q1018 NOSIG=
201110101020 METAR COR EGLL 101020Z 26020KT 9999 BKN021 18/13 Q1018 NOSIG=
201110100950 METAR EGLL 100950Z 26020KT 9999 BKN022 18/12 Q1018=
201110100920 METAR COR EGLL 100920Z 26017KT 9999 BKN022 18/12 Q1018 TEMPO
                        26020G30KT=
201110100850 METAR COR EGLL 100850Z 26019G29KT 9999 BKN025 17/12 Q1018
                        TEMPO 26017KT=
201110100820 METAR COR EGLL 100820Z 25017KT 9999 BKN025 17/12 Q1017 NOSIG=
201110100750 METAR COR EGLL 100750Z 26015KT 9999 BKN025 17/12 Q1018 NOSIG=
201110100720 METAR COR EGLL 100720Z 26014KT 9999 BKN026 16/12 Q1018 NOSIG=
201110100650 METAR COR EGLL 100650Z 25014KT 9999 BKN025 16/12 Q1017 NOSIG=
201110100620 METAR COR EGLL 100620Z 25015KT 9999 BKN023 16/12 Q1017 NOSIG=
201110100550 METAR COR EGLL 100550Z 25016KT 9999 BKN022 16/12 Q1017 NOSIG=
201110100520 METAR COR EGLL 100520Z 26020KT 9999 FEW020 16/12 Q1017 NOSIG=
201110100450 METAR COR EGLL 100450Z 26016KT 9999 FEW019 16/13 Q1017 NOSIG=
201110100420 METAR COR EGLL 100420Z 25015KT 9999 SCT020 16/13 Q1017 NOSIG=
201110100350 METAR COR EGLL 100350Z 25016KT 9999 FEW016 BKN019 16/13 Q1017
                        TEMPO BKN014=
201110100320 METAR COR EGLL 100320Z 25020KT 9999 BKN014 16/13 Q1017 TEMPO
                        BKN015=
201110100250 METAR EGLL 100250Z AUTO 25015KT //// SCT014/// BKN018///
                        16/13 Q1017=
201110100220 METAR COR EGLL 100220Z 25015KT 9999 BKN015 16/13 Q1018 TEMPO
                        BKN014=
201110100150 METAR COR EGLL 100150Z 26016KT 9999 BKN017 16/13 Q1018 TEMPO
                        BKN014=
201110100120 METAR EGLL 100120Z AUTO 25016KT //// BKN015/// 17/13 Q1018=
201110100050 METAR EGLL 100050Z AUTO 25014KT //// BKN014/// 17/14 Q1018=
201110100020 METAR EGLL 100020Z AUTO 25015KT //// BKN013/// 17/14 Q1018=
201110092350 METAR COR EGLL 092350Z 25014KT 9999 OVC013 17/14 Q1018 NOSIG=
201110092320 METAR COR EGLL 092320Z 25018KT 9999 BKN013 17/14 Q1018 TEMPO
                        SCT013=
201110092250 METAR COR EGLL 092250Z 25016KT 9999 SCT013 17/14 Q1018 TEMPO
                        BKN014=
201110092220 METAR COR EGLL 092220Z 25016KT 9999 SCT014 17/14 Q1018 TEMPO
                        BKN014=
201110092150 METAR COR EGLL 092150Z 25015KT 9999 SCT014 17/14 Q1018 TEMPO
                        BKN014=
201110092120 METAR COR EGLL 092120Z 26014KT 9999 FEW015 18/14 Q1018 TEMPO
                        BKN014=
201110092050 METAR COR EGLL 092050Z 26012KT 9999 SCT015 18/14 Q1019 TEMPO
                        BKN014=
201110092020 METAR COR EGLL 092020Z 26013KT 9999 BKN015 18/14 Q1019 TEMPO
                        BKN014=
201110091950 METAR COR EGLL 091950Z 25013KT 9999 SCT015 18/14 Q1019 TEMPO
                        BKN014=
201110091920 METAR EGLL 091920Z 25014KT 9999 BKN016 18/14 Q1019=
201110091850 METAR COR EGLL 091850Z 27014KT 9999 BKN016 18/14 Q1018 TEMPO
                        BKN014=
201110091820 METAR COR EGLL 091820Z 26016KT 9999 BKN018 18/14 Q1018 NOSIG=
201110091750 METAR COR EGLL 091750Z 26015KT 9999 SCT017 BKN022 18/14 Q1018
                        NOSIG=
201110091720 METAR COR EGLL 091720Z 27015KT 9999 BKN017 19/15 Q1018 NOSIG=
201110091650 METAR COR EGLL 091650Z 27015KT 9999 SCT019 BKN023 19/15 Q1018
                        NOSIG=
201110091620 METAR COR EGLL 091620Z 27018KT 9999 FEW024 19/14 Q1017 NOSIG=
201110091550 METAR COR EGLL 091550Z 26019KT 9999 FEW025 19/14 Q1017 NOSIG=
201110091520 METAR COR EGLL 091520Z 26020KT 9999 FEW024 20/14 Q1017 NOSIG=
201110091450 METAR COR EGLL 091450Z 27018KT 9999 FEW024 20/15 Q1017 NOSIG=
201110091420 METAR COR EGLL 091420Z 26016KT 9999 FEW024 20/14 Q1017 NOSIG=
201110091350 METAR COR EGLL 091350Z 26018KT 9999 FEW024 20/14 Q1017 NOSIG=
201110091320 METAR COR EGLL 091320Z 26016KT 9999 FEW023 19/14 Q1018 NOSIG=
201110091250 METAR COR EGLL 091250Z 26020KT 9999 SCT020 19/14 Q1018 NOSIG=
201110091220 METAR COR EGLL 091220Z 26018KT 9999 SCT018 19/14 Q1018 NOSIG=
201110091150 METAR COR EGLL 091150Z 27018KT 9999 BKN016 19/14 Q1018 NOSIG=
201110091120 METAR COR EGLL 091120Z 27018KT 9999 BKN016 18/14 Q1019 NOSIG=
201110091050 METAR COR EGLL 091050Z 27016KT 9999 BKN017 18/14 Q1019 NOSIG=
201110091020 METAR COR EGLL 091020Z 26015KT 9999 BKN014 17/14 Q1019 BECMG
                        BKN015=
201110090950 METAR COR EGLL 090950Z 26014KT 9999 BKN013 17/14 Q1019 TEMPO
                        SCT013=
201110090920 METAR COR EGLL 090920Z 26013KT 9999 BKN013 16/14 Q1019 TEMPO
                        SCT014=
201110090850 METAR COR EGLL 090850Z 26014KT 9999 BKN014 17/14 Q1019 TEMPO
                        SCT014=
201110090820 METAR COR EGLL 090820Z 27013KT 9999 SCT014 17/14 Q1018 TEMPO
                        BKN014=
201110090750 METAR COR EGLL 090750Z 26012KT 9999 FEW014 16/14 Q1018 TEMPO
                        BKN014=
201110090720 METAR COR EGLL 090720Z 26011KT 9999 -RA FEW017 16/14 Q1018
                        NOSIG=
201110090650 METAR COR EGLL 090650Z 26010KT 9999 -RA FEW016 SCT018 16/14
                        Q1018 TEMPO RA BKN012=
201110090620 METAR COR EGLL 090620Z 25009KT 9999 -RA FEW014 BKN019 16/14
                        Q1018 TEMPO 7000 RA BKN012=
201110090550 METAR COR EGLL 090550Z 26009KT 9999 -RA BKN015 16/14 Q1018
                        TEMPO 7000 RA BKN012=
201110090520 METAR COR EGLL 090520Z 26009KT 9999 -RA BKN014 16/14 Q1018
                        NOSIG=
201110090450 METAR COR EGLL 090450Z 27008KT 9999 BKN014 16/14 Q1018 NOSIG=
201110090420 METAR COR EGLL 090420Z 26008KT 9999 SCT013 15/14 Q1018 TEMPO
                        BKN012=
201110090350 METAR COR EGLL 090350Z 25006KT 9999 -RA BKN013 15/14 Q1018
                        NOSIG=
201110090320 METAR COR EGLL 090320Z 25007KT 9999 -RA BKN015 15/14 Q1018
                        TEMPO BKN012=
201110090250 METAR COR EGLL 090250Z 26007KT 9999 -RA SCT016 BKN042 15/13
                        Q1018 TEMPO BKN012=
201110090220 METAR EGLL 090220Z NIL=
201110090150 METAR COR EGLL 090150Z 26007KT 9999 BKN015 15/13 Q1019 TEMPO
                        BKN012=
201110090120 METAR COR EGLL 090120Z 25008KT 9999 BKN013 15/13 Q1019 NOSIG=
201110090050 METAR EGLL 090050Z NIL=
201110090020 METAR EGLL 090020Z NIL=
201110082350 METAR EGLL 082350Z NIL=
201110082320 METAR EGLL 082320Z NIL=
201110082250 METAR EGLL 082250Z NIL=
201110082220 METAR COR EGLL 082220Z 28009KT CAVOK 15/12 Q1020 NOSIG=
201110082150 METAR COR EGLL 082150Z 29010KT CAVOK 15/11 Q1020 NOSIG=
201110082120 METAR COR EGLL 082120Z 29011KT CAVOK 15/12 Q1020 NOSIG=
201110082050 METAR COR EGLL 082050Z 29011KT 9999 FEW027 16/12 Q1020 NOSIG=
201110082020 METAR COR EGLL 082020Z 28010KT 9999 SCT027 15/12 Q1020 NOSIG=
201110081950 METAR COR EGLL 081950Z 27009KT 9999 BKN027 15/12 Q1020 NOSIG=
201110081920 METAR COR EGLL 081920Z 27008KT 9999 SCT027 15/12 Q1020 NOSIG=
201110081850 METAR COR EGLL 081850Z 25009KT 9999 SCT029 14/11 Q1020 NOSIG=
201110081820 METAR COR EGLL 081820Z 26009KT 9999 FEW029 14/11 Q1020 NOSIG=
201110081750 METAR COR EGLL 081750Z 27009KT 9999 BKN020 14/11 Q1020 NOSIG=
201110081720 METAR COR EGLL 081720Z 24009KT 9999 BKN022 14/10 Q1020 NOSIG=
201110081650 METAR COR EGLL 081650Z 25008KT 9999 BKN023 14/09 Q1021 NOSIG=
201110081620 METAR COR EGLL 081620Z 25008KT 220V280 9999 BKN025 14/09
                        Q1021 NOSIG=
201110081550 METAR COR EGLL 081550Z 27007KT 9999 BKN028 14/09 Q1021 NOSIG=
201110081520 METAR COR EGLL 081520Z 28008KT 9999 BKN027 14/09 Q1021 NOSIG=
201110081450 METAR COR EGLL 081450Z 29009KT 9999 BKN026 14/08 Q1021 NOSIG=
201110081420 METAR COR EGLL 081420Z 30008KT 9999 BKN027 14/08 Q1021 NOSIG=
201110081350 METAR COR EGLL 081350Z 29008KT 9999 SCT024 SCT029 14/08 Q1022
                        NOSIG=
201110081320 METAR COR EGLL 081320Z 29010KT 9999 SCT023 SCT029 14/08 Q1022
                        NOSIG=
201110081250 METAR COR EGLL 081250Z 29011KT 9999 SCT024 14/08 Q1022 NOSIG=
201110081220 METAR COR EGLL 081220Z 30011KT 9999 BKN025 14/08 Q1022 NOSIG=
201110081150 METAR EGLL 081150Z 29011KT 9999 BKN026 13/07 Q1023=
201110081120 METAR COR EGLL 081120Z 29010KT 9999 SCT025 13/07 Q1023 NOSIG=
201110081050 METAR COR EGLL 081050Z 30011KT 9999 FEW024 14/07 Q1023 NOSIG=
201110081020 METAR COR EGLL 081020Z 29013KT 9999 FEW025 13/07 Q1023 NOSIG=
201110080950 METAR COR EGLL 080950Z 30010KT 270V340 9999 FEW026 12/07
                        Q1023 NOSIG=
201110080920 METAR COR EGLL 080920Z 29010KT 9999 SCT028 12/07 Q1023 NOSIG=
201110080850 METAR COR EGLL 080850Z 29009KT 9999 FEW032 12/07 Q1023 NOSIG=
201110080820 METAR COR EGLL 080820Z 28009KT 9999 FEW032 11/07 Q1023 NOSIG=
201110080750 METAR COR EGLL 080750Z 29009KT 9999 FEW035 11/07 Q1023 NOSIG=
201110080720 METAR COR EGLL 080720Z 28010KT CAVOK 11/07 Q1023 NOSIG=
201110080650 METAR COR EGLL 080650Z 28008KT CAVOK 10/07 Q1023 NOSIG=
201110080620 METAR COR EGLL 080620Z 28009KT 9999 FEW037 10/07 Q1022 NOSIG=
201110080550 METAR COR EGLL 080550Z 28009KT 9999 -RA NSC 10/07 Q1022 NOSIG=
201110080520 METAR COR EGLL 080520Z 29008KT 9999 -RA NSC 10/07 Q1023 NOSIG=
201110080450 METAR COR EGLL 080450Z 28007KT CAVOK 10/07 Q1022 NOSIG=
201110080420 METAR COR EGLL 080420Z 28007KT CAVOK 10/07 Q1022 NOSIG=
201110080350 METAR COR EGLL 080350Z 29010KT CAVOK 10/07 Q1022 NOSIG=
201110080320 METAR COR EGLL 080320Z 28007KT CAVOK 10/07 Q1022 NOSIG=
201110080250 METAR COR EGLL 080250Z 29007KT CAVOK 10/07 Q1022 NOSIG=
201110080220 METAR COR EGLL 080220Z 28007KT CAVOK 10/07 Q1022 NOSIG=
201110080150 METAR COR EGLL 080150Z 28007KT CAVOK 10/07 Q1022 NOSIG=
201110080120 METAR EGLL 080120Z AUTO 29008KT 9999NDV NCD 10/07 Q1023=
201110080050 METAR EGLL 080050Z AUTO 29007KT 9999NDV NCD 10/07 Q1022=
201110080020 METAR EGLL 080020Z AUTO 30006KT 9999NDV NCD 10/07 Q1022=
201110072350 METAR COR EGLL 072350Z 29007KT CAVOK 09/07 Q1023 NOSIG=
201110072320 METAR COR EGLL 072320Z 28007KT CAVOK 09/07 Q1022 NOSIG=
201110072250 METAR COR EGLL 072250Z 29007KT CAVOK 09/07 Q1022 NOSIG=
201110072220 METAR COR EGLL 072220Z 30004KT CAVOK 10/07 Q1022 NOSIG=
201110072150 METAR COR EGLL 072150Z 30006KT CAVOK 11/07 Q1023 NOSIG=
201110072120 METAR COR EGLL 072120Z 30006KT CAVOK 11/07 Q1022 NOSIG=
201110072050 METAR COR EGLL 072050Z 30006KT CAVOK 11/07 Q1022 NOSIG=
201110072020 METAR COR EGLL 072020Z 29007KT CAVOK 11/07 Q1022 NOSIG=
201110071950 METAR COR EGLL 071950Z 28007KT CAVOK 11/08 Q1022 NOSIG=
201110071920 METAR COR EGLL 071920Z 30008KT CAVOK 12/07 Q1022 NOSIG=
201110071850 METAR COR EGLL 071850Z 29007KT 250V310 CAVOK 12/08 Q1021
                        NOSIG=
201110071820 METAR COR EGLL 071820Z 30006KT CAVOK 12/08 Q1021 NOSIG=
201110071750 METAR COR EGLL 071750Z 29007KT CAVOK 12/08 Q1021 NOSIG=
201110071720 METAR COR EGLL 071720Z 29008KT CAVOK 12/08 Q1020 NOSIG=
201110071650 METAR COR EGLL 071650Z 28009KT 9999 FEW026CB 13/07 Q1020
                        NOSIG=
201110071620 METAR COR EGLL 071620Z 29010KT 9999 FEW025CB 14/07 Q1020
                        NOSIG=
201110071550 METAR COR EGLL 071550Z 30012KT 9999 FEW025CB 14/06 Q1020
                        NOSIG=
201110071520 METAR COR EGLL 071520Z 31012KT 270V330 9999 FEW025CB 15/06
                        Q1019 TEMPO 6000 SHRA=
201110071450 METAR COR EGLL 071450Z 32011KT 9999 FEW025CB SCT041 16/06
                        Q1019 TEMPO 6000 SHRA=
201110071420 METAR COR EGLL 071420Z 33008KT 300V010 9999 SCT041 16/06
                        Q1019 NOSIG=
201110071350 METAR COR EGLL 071350Z 31011KT 270V340 9999 SCT036 SCT042
                        15/07 Q1019 NOSIG=
201110071320 METAR COR EGLL 071320Z 30011KT 280V340 9999 FEW048 15/07
                        Q1019 NOSIG=
201110071250 METAR COR EGLL 071250Z 31011KT 9999 SCT031 BKN048 15/08 Q1019
                        NOSIG=
201110071220 METAR COR EGLL 071220Z 29012KT 9999 SCT028 SCT038 15/08 Q1019
                        NOSIG=
201110071150 METAR COR EGLL 071150Z 30009KT 9999 SCT027 BKN039 14/08 Q1019
                        NOSIG=
201110071120 METAR COR EGLL 071120Z 30010KT 9999 FEW027 SCT038 14/08 Q1019
                        NOSIG=
201110071050 METAR COR EGLL 071050Z 31009KT 280V350 9999 SCT025 BKN030
                        13/08 Q1018 NOSIG=
201110071020 METAR COR EGLL 071020Z 30010KT 270V340 9999 BKN025 13/07
                        Q1018 NOSIG=
201110070950 METAR COR EGLL 070950Z 29009KT 9999 SCT026 BKN031 13/08 Q1018
                        NOSIG=
201110070920 METAR COR EGLL 070920Z 28009KT 9999 FEW027 SCT038 12/07 Q1018
                        NOSIG=
201110070850 METAR COR EGLL 070850Z 29010KT 9999 FEW026 12/07 Q1018 NOSIG=
201110070820 METAR COR EGLL 070820Z 28011KT 9999 FEW031 SCT037 12/07 Q1017
                        NOSIG=
201110070750 METAR COR EGLL 070750Z 26011KT 9999 FEW035 11/07 Q1017 NOSIG=
201110070720 METAR COR EGLL 070720Z 27010KT CAVOK 11/07 Q1016 NOSIG=
201110070650 METAR COR EGLL 070650Z 27011KT CAVOK 10/07 Q1016 NOSIG=
201110070620 METAR COR EGLL 070620Z 28011KT CAVOK 10/06 Q1016 NOSIG=
201110070550 METAR COR EGLL 070550Z 28012KT CAVOK 10/06 Q1015 NOSIG=
201110070520 METAR COR EGLL 070520Z 28010KT CAVOK 10/06 Q1015 NOSIG=
201110070450 METAR COR EGLL 070450Z 28010KT CAVOK 09/06 Q1015 NOSIG=
201110070420 METAR COR EGLL 070420Z 28012KT CAVOK 09/06 Q1015 NOSIG=
201110070350 METAR COR EGLL 070350Z 28011KT CAVOK 09/06 Q1015 NOSIG=
201110070320 METAR COR EGLL 070320Z 28011KT CAVOK 09/06 Q1014 NOSIG=
201110070250 METAR COR EGLL 070250Z 28011KT CAVOK 09/06 Q1014 NOSIG=
201110070220 METAR COR EGLL 070220Z 28009KT CAVOK 09/06 Q1014 NOSIG=
201110070150 METAR COR EGLL 070150Z 29011KT 9999 FEW036 10/06 Q1014 NOSIG=
201110070120 METAR EGLL 070120Z AUTO 29012KT 9999NDV SCT046/// 11/06 Q1013=
201110070050 METAR EGLL 070050Z AUTO 29013KT 9999NDV FEW032/// SCT035///
                        11/06 Q1013=
201110070020 METAR EGLL 070020Z AUTO 28015KT 9999NDV FEW032/// 11/06 Q1012=
201110062350 METAR COR EGLL 062350Z 28015KT 9999 FEW036 11/05 Q1012 NOSIG=
201110062320 METAR COR EGLL 062320Z 28015KT 9999 FEW036 11/05 Q1012 NOSIG=
201110062250 METAR COR EGLL 062250Z 28016KT 9999 FEW034 11/05 Q1012 NOSIG=
201110062220 METAR COR EGLL 062220Z 28016KT 9999 FEW040 11/05 Q1011 NOSIG=
201110062150 METAR COR EGLL 062150Z 27016G26KT 9999 FEW040 11/05 Q1011
                        NOSIG=
201110062120 METAR COR EGLL 062120Z 28015KT 9999 FEW044 11/05 Q1011 NOSIG=
201110062050 METAR COR EGLL 062050Z 27016KT 9999 FEW049 12/05 Q1010 NOSIG=
201110062020 METAR COR EGLL 062020Z 27018KT CAVOK 11/05 Q1010 TEMPO 27018G28KT=
201110061950 METAR COR EGLL 061950Z 26019KT CAVOK 11/05 Q1010 TEMPO 26019G29KT=
201110061920 METAR COR EGLL 061920Z 26020KT CAVOK 11/05 Q1010 TEMPO 26020G30KT=
201110061850 METAR COR EGLL 061850Z 25016KT CAVOK 12/04 Q1010 TEMPO 25017G28KT=
201110061820 METAR COR EGLL 061820Z 26017KT CAVOK 12/04 Q1010 TEMPO 26018G28KT=
201110061750 METAR COR EGLL 061750Z 27017KT CAVOK 12/04 Q1010 TEMPO 28018G28KT=
201110061720 METAR COR EGLL 061720Z 26016KT CAVOK 12/05 Q1010 TEMPO 27020G30KT=
201110061650 METAR COR EGLL 061650Z 28013KT 9999 FEW046 13/05 Q1010 TEMPO
                        28020G30KT=
201110061620 METAR COR EGLL 061620Z 27020KT CAVOK 13/05 Q1010 TEMPO 28020G30KT=
201110061550 METAR COR EGLL 061550Z 26018KT 9999 FEW019CB 13/06 Q1010
                        TEMPO 28020G30KT=
201110061520 METAR COR EGLL 061520Z 26016KT 9999 FEW019CB 12/07 Q1011
                        NOSIG=
201110061450 METAR COR EGLL 061450Z 28019G30KT 9999 -SHRA FEW016CB 11/07
                        Q1011 RESHRA NOSIG=
201110061420 METAR COR EGLL 061420Z 27018G28KT CAVOK 15/03 Q1011 NOSIG=
201110061350 METAR COR EGLL 061350Z 27019G30KT CAVOK 15/02 Q1011 NOSIG=
201110061320 METAR COR EGLL 061320Z 27021KT CAVOK 15/03 Q1011 TEMPO 28020G30KT=
201110061250 METAR COR EGLL 061250Z 27021G31KT CAVOK 14/03 Q1011 NOSIG=
201110061220 METAR COR EGLL 061220Z 27020KT CAVOK 14/03 Q1011 TEMPO 28020G30KT=
201110061150 METAR COR EGLL 061150Z 27020KT 9999 FEW044 13/04 Q1012 TEMPO
                        27020G30KT=
201110061120 METAR EGLL 061120Z 27021G31KT 9999 FEW043 13/04 Q1012=
201110061050 METAR COR EGLL 061050Z 28021KT 9999 FEW040 13/04 Q1012 TEMPO
                        28020G30KT=
201110061020 METAR COR EGLL 061020Z 28020KT 9999 FEW044 13/04 Q1012 TEMPO
                        28020G30KT=
201110060950 METAR COR EGLL 060950Z 27017KT 9999 FEW037 13/05 Q1011 TEMPO
                        28018G28KT=
201110060920 METAR COR EGLL 060920Z 27017KT 9999 FEW040 12/06 Q1011 TEMPO
                        28018G28KT=
201110060850 METAR COR EGLL 060850Z 27018KT CAVOK 12/06 Q1011 TEMPO 28018G28KT=
201110060820 METAR COR EGLL 060820Z 27015KT CAVOK 12/06 Q1010 TEMPO 28018G28KT=
201110060750 METAR COR EGLL 060750Z 27015KT CAVOK 12/06 Q1010 TEMPO 28018G28KT=
201110060720 METAR COR EGLL 060720Z 27015KT CAVOK 12/06 Q1010 TEMPO 28018G28KT=
201110060650 METAR COR EGLL 060650Z 27015KT CAVOK 12/06 Q1010 NOSIG=
201110060620 METAR COR EGLL 060620Z 27014KT CAVOK 12/06 Q1009 NOSIG=
201110060550 METAR COR EGLL 060550Z 27014KT CAVOK 12/07 Q1009 NOSIG=
201110060520 METAR COR EGLL 060520Z 27015KT CAVOK 13/09 Q1009 NOSIG=
201110060450 METAR COR EGLL 060450Z 27014KT 9999 SCT044 13/09 Q1008 NOSIG=
201110060420 METAR COR EGLL 060420Z 27017KT 9999 SCT040 14/10 Q1008 NOSIG=
201110060350 METAR COR EGLL 060350Z 27017KT 9999 FEW011 SCT043 14/12 Q1008
                        NOSIG=
201110060320 METAR COR EGLL 060320Z 28019KT 8000 -RA SCT010 SCT022 14/12
                        Q1008 NOSIG=
201110060250 METAR COR EGLL 060250Z 28017KT 9999 -RA FEW014 SCT020 16/14
                        Q1008 RERA NOSIG=
201110060220 METAR COR EGLL 060220Z 24014KT 9999 FEW015 SCT040 17/15 Q1007
                        NOSIG=
201110060150 METAR COR EGLL 060150Z 23014KT 9999 FEW017 SCT036 17/15 Q1008
                        TEMPO SHRA=
201110060120 METAR EGLL 060120Z AUTO 24016KT 9999NDV FEW012/// SCT017///
                        17/15 Q1008=
201110060050 METAR EGLL 060050Z AUTO 23016G26KT 9999NDV -DZ OVC008///
                        17/15 Q1009=
201110060020 METAR EGLL 060020Z AUTO 23014KT 9999NDV -RA FEW008/// SCT010///
                        BKN016/// 17/15 Q1009 RERA=
201110052350 METAR COR EGLL 052350Z 22015KT 6000 RA FEW008 BKN011 17/15
                        Q1009 TEMPO BKN008=
201110052320 METAR COR EGLL 052320Z 22015KT 9000 -RA FEW010 SCT015 BKN021
                        17/15 Q1010 TEMPO RA BKN008=
201110052250 METAR COR EGLL 052250Z 22016G26KT 9999 BKN012 17/15 Q1010
                        NOSIG=
201110052220 METAR COR EGLL 052220Z 22016G26KT 9999 -RA BKN012 17/15 Q1011
                        NOSIG=
201110052150 METAR COR EGLL 052150Z 23016KT 9999 SCT010 BKN012 17/15 Q1011
                        NOSIG=
201110052120 METAR COR EGLL 052120Z 22016KT 9999 -RA FEW010 BKN012 17/15
                        Q1011 NOSIG=
201110052050 METAR EGLL 052050Z 22017G28KT 9999 BKN012 17/15 Q1012=
201110052020 METAR COR EGLL 052020Z 22016G27KT 9999 BKN012 17/15 Q1012
                        NOSIG=
201110051950 METAR COR EGLL 051950Z 22017G27KT 9999 BKN015 17/14 Q1013
                        TEMPO BKN012=
201110051920 METAR COR EGLL 051920Z 22017G28KT 9999 SCT019 17/14 Q1013
                        NOSIG=
201110051850 METAR COR EGLL 051850Z 23015KT 9999 BKN019 18/14 Q1014 NOSIG=
201110051820 METAR COR EGLL 051820Z 23014KT 9999 BKN017 18/14 Q1014 NOSIG=
201110051750 METAR COR EGLL 051750Z 22014G24KT 9999 BKN018 18/14 Q1014
                        NOSIG=
201110051720 METAR COR EGLL 051720Z 22013KT 9999 BKN022 18/14 Q1014 TEMPO
                        22016G26KT=
201110051650 METAR COR EGLL 051650Z 23015KT 9999 SCT021 SCT031 18/14 Q1015
                        TEMPO 23018G28KT=
201110051620 METAR COR EGLL 051620Z 22015KT 9999 VCSH FEW025 18/14 Q1015
                        TEMPO 22018G28KT=
201110051550 METAR COR EGLL 051550Z 23016G26KT 9999 FEW025 19/13 Q1015
                        NOSIG=
201110051520 METAR COR EGLL 051520Z 23015KT 9999 SCT018 BKN028 19/14 Q1015
                        TEMPO 23018G28KT=
201110051450 METAR COR EGLL 051450Z 22012KT 9999 FEW017 SCT025 BKN031
                        18/14 Q1016 TEMPO 24017G28KT=
201110051420 METAR COR EGLL 051420Z 24015G27KT 9999 BKN025 19/13 Q1016
                        NOSIG=
201110051350 METAR COR EGLL 051350Z 24013KT 9999 OVC028 19/13 Q1017 TEMPO
                        24017G28KT=
201110051320 METAR COR EGLL 051320Z 23014KT 9999 BKN026 19/13 Q1017 TEMPO
                        23017G28KT=
201110051250 METAR COR EGLL 051250Z 24016KT 9999 BKN027 19/13 Q1017 TEMPO
                        24017G28KT=
201110051220 METAR COR EGLL 051220Z 25015KT 9999 BKN028 19/12 Q1018 TEMPO
                        25017G27KT=
201110051150 METAR COR EGLL 051150Z 25016KT 9999 FEW026 BKN030 19/12 Q1018
                        TEMPO 25018G28KT=
201110051120 METAR COR EGLL 051120Z 25017KT 9999 FEW025 BKN033 18/12 Q1018
                        TEMPO 25020G30KT=
201110051050 METAR COR EGLL 051050Z 25016KT 9999 SCT024 BKN033 19/13 Q1018
                        NOSIG=
201110051020 METAR COR EGLL 051020Z 25018KT 9999 SCT021 BKN031 18/13 Q1019
                        NOSIG=
201110050950 METAR COR EGLL 050950Z 25015KT 9999 SCT022 BKN031 18/13 Q1019
                        NOSIG=
201110050920 METAR COR EGLL 050920Z 25014KT 9999 SCT024 BKN031 18/13 Q1019
                        NOSIG=
201110050850 METAR COR EGLL 050850Z 25015KT 9999 FEW021 BKN036 18/13 Q1019
                        NOSIG=
201110050820 METAR COR EGLL 050820Z 24013KT 9999 FEW018 BKN034 17/13 Q1019
                        NOSIG=
201110050750 METAR COR EGLL 050750Z 24012KT 9999 FEW020 BKN033 17/13 Q1018
                        NOSIG=
201110050720 METAR COR EGLL 050720Z 24012KT 9999 FEW019 BKN035 16/13 Q1018
                        NOSIG=
201110050650 METAR COR EGLL 050650Z 25012KT 9999 FEW022 BKN028 16/13 Q1018
                        NOSIG=
201110050620 METAR COR EGLL 050620Z 25014KT 9999 FEW018 SCT030 16/13 Q1018
                        NOSIG=
201110050550 METAR COR EGLL 050550Z 25015KT 9999 FEW017 SCT021 BKN028
                        16/14 Q1018 NOSIG=
201110050520 METAR COR EGLL 050520Z 24011KT 8000 -RADZ SCT016 SCT020 16/14
                        Q1018 TEMPO BKN014=
201110050450 METAR COR EGLL 050450Z 23009KT 9999 SCT012 SCT017 16/14 Q1018
                        RERA REDZ TEMPO BKN012=
201110050420 METAR COR EGLL 050420Z 22012KT 5000 RADZ FEW015 SCT017 BKN022
                        16/14 Q1018 BECMG NSW=
201110050350 METAR COR EGLL 050350Z 22011KT 9999 FEW014 BKN035 16/14 Q1018
                        TEMPO BKN014=
201110050320 METAR COR EGLL 050320Z 23009KT 9999 FEW016 BKN040 16/14 Q1018
                        TEMPO BKN014=
201110050250 METAR COR EGLL 050250Z 24011KT 9999 FEW017 BKN042 16/13 Q1019
                        NOSIG=
201110050220 METAR COR EGLL 050220Z 23010KT 9999 BKN040 16/13 Q1019 NOSIG=
201110050150 METAR COR EGLL 050150Z 23008KT 9999 BKN040 16/13 Q1019 NOSIG=
201110050120 METAR EGLL 050120Z AUTO 23007KT 9999NDV OVC034/// 16/14 Q1019=
201110050050 METAR EGLL 050050Z AUTO 22007KT 9999NDV OVC036/// 16/14 Q1019=
201110050020 METAR EGLL 050020Z AUTO 22007KT 9999NDV OVC036/// 15/13 Q1020=
201110042350 METAR COR EGLL 042350Z 22007KT 9999 BKN038 15/13 Q1020 NOSIG=
201110042320 METAR COR EGLL 042320Z 24007KT 9999 SCT039 16/12 Q1020 NOSIG=
201110042250 METAR COR EGLL 042250Z 25008KT 9999 FEW020 15/13 Q1020 NOSIG=
201110042220 METAR COR EGLL 042220Z 24009KT 9999 SCT015 16/13 Q1020 NOSIG=
201110042150 METAR COR EGLL 042150Z 24012KT 9999 SCT015 16/14 Q1020 NOSIG=
201110042120 METAR COR EGLL 042120Z 23007KT 190V250 9999 FEW013 BKN028
                        17/14 Q1021 NOSIG=
201110042050 METAR COR EGLL 042050Z 23008KT 9999 FEW038 16/14 Q1021 NOSIG=
201110042020 METAR COR EGLL 042020Z 23008KT 9999 SCT028 17/14 Q1021 NOSIG=
201110041950 METAR COR EGLL 041950Z 23008KT 9999 SCT025 17/14 Q1021 NOSIG=
201110041920 METAR COR EGLL 041920Z 22008KT 9999 FEW045 17/13 Q1021 NOSIG=
201110041850 METAR COR EGLL 041850Z 24010KT 9999 SCT025 SCT030 17/13 Q1021
                        NOSIG=
201110041820 METAR COR EGLL 041820Z 24009KT 9999 SCT032 SCT040 18/13 Q1021
                        NOSIG=
201110041750 METAR COR EGLL 041750Z 25010KT 9999 SCT028 BKN034 18/13 Q1020
                        NOSIG=
201110041720 METAR COR EGLL 041720Z 25012KT 9999 SCT034 SCT040 18/13 Q1020
                        NOSIG=
201110041650 METAR COR EGLL 041650Z 24011KT 9999 SCT023 BKN038 18/13 Q1020
                        NOSIG=
201110041620 METAR COR EGLL 041620Z 25012KT 9999 SCT020 BKN044 18/13 Q1020
                        NOSIG=
201110041550 METAR COR EGLL 041550Z 27011KT 9999 SCT019 SCT024 18/13 Q1020
                        NOSIG=
201110041520 METAR COR EGLL 041520Z 25012KT 9999 SCT021 BKN033 18/13 Q1020
                        NOSIG=
201110041450 METAR COR EGLL 041450Z 24013KT 9999 SCT023 BKN045 18/13 Q1020
                        NOSIG=
201110041420 METAR COR EGLL 041420Z 26014KT 9999 FEW029 BKN040 18/12 Q1020
                        NOSIG=
201110041350 METAR COR EGLL 041350Z 26012KT 9999 FEW028 BKN034 18/12 Q1020
                        NOSIG=
201110041320 METAR COR EGLL 041320Z 27012KT 9999 FEW022 BKN034 18/13 Q1020
                        NOSIG=
201110041250 METAR COR EGLL 041250Z 25013KT 210V280 9999 SCT021 BKN033
                        18/13 Q1021 NOSIG=
201110041220 METAR COR EGLL 041220Z 25015KT 9999 FEW016 SCT021 18/13 Q1021
                        NOSIG=
201110041150 METAR COR EGLL 041150Z 26015KT 9999 FEW016 BKN021 16/14 Q1021
                        NOSIG=
201110041120 METAR COR EGLL 041120Z 26013KT 9999 SCT014 BKN021 17/13 Q1021
                        NOSIG=
201110041050 METAR COR EGLL 041050Z 25012KT 9999 BKN013 BKN017 17/13 Q1021
                        NOSIG=
201110041020 METAR COR EGLL 041020Z 24012KT 9999 FEW011 SCT013 BKN018
                        17/13 Q1021 NOSIG=
201110040950 METAR COR EGLL 040950Z 24012KT 9999 SCT016 BKN031 17/13 Q1021
                        NOSIG=
201110040920 METAR COR EGLL 040920Z 25012KT 9999 SCT019 SCT033 17/13 Q1021
                        NOSIG=
201110040850 METAR COR EGLL 040850Z 25012KT 9999 SCT018 SCT032 17/13 Q1021
                        NOSIG=
201110040820 METAR COR EGLL 040820Z 25013KT 9999 FEW021 SCT028 BKN033
                        17/13 Q1021 NOSIG=
201110040750 METAR COR EGLL 040750Z 25010KT 9999 SCT015 SCT022 16/13 Q1020
                        NOSIG=
201110040720 METAR COR EGLL 040720Z 27007KT 9999 SCT014 SCT024 16/13 Q1020
                        NOSIG=
201110040650 METAR COR EGLL 040650Z 25012KT 9999 7000NE SCT012 SCT018
                        16/13 Q1020 NOSIG=
201110040620 METAR COR EGLL 040620Z 25012KT 9999 4500E BKN012 16/13 Q1020
                        TEMPO BKN015=
201110040550 METAR COR EGLL 040550Z 25011KT 9999 BKN015 16/13 Q1020 TEMPO
                        BKN014=
201110040520 METAR COR EGLL 040520Z 25011KT 9999 SCT016 BKN033 16/12 Q1019
                        TEMPO BKN014=
201110040450 METAR COR EGLL 040450Z 25009KT 9999 SCT015 SCT017 16/12 Q1019
                        TEMPO BKN014=
201110040420 METAR COR EGLL 040420Z 25010KT 9999 BKN017 16/13 Q1019 TEMPO
                        BKN014=
201110040350 METAR COR EGLL 040350Z 25010KT 9999 BKN014 16/13 Q1019 TEMPO
                        BKN015=
201110040320 METAR COR EGLL 040320Z 26009KT 9999 BKN014 16/13 Q1019 TEMPO
                        BKN016=
201110040250 METAR COR EGLL 040250Z 25009KT 9999 SCT018 16/13 Q1019 NOSIG=
201110040220 METAR EGLL 040220Z 23008KT 9999 SCT019 16/13 Q1019=
201110040150 METAR COR EGLL 040150Z 25009KT 9999 SCT019 16/13 Q1019 NOSIG=
201110040120 METAR EGLL 040120Z AUTO 26008KT 9999NDV OVC016/// 17/13 Q1019=
201110040050 METAR EGLL 040050Z AUTO 26009KT 9999NDV OVC015/// 17/14 Q1019=
201110040020 METAR EGLL 040020Z AUTO 25011KT 9999NDV OVC014/// 17/14 Q1019=
201110032350 METAR COR EGLL 032350Z 25009KT 9999 BKN011 17/14 Q1019 TEMPO
                        SCT010=
201110032320 METAR COR EGLL 032320Z 25009KT 9999 BKN010 16/15 Q1019 TEMPO
                        SCT010=
201110032250 METAR COR EGLL 032250Z 24008KT 9000 FEW014 17/15 Q1019 NOSIG=
201110032220 METAR COR EGLL 032220Z 24009KT 8000 FEW012 17/15 Q1019 NOSIG=
201110032150 METAR COR EGLL 032150Z 22008KT 180V250 CAVOK 17/15 Q1018
                        NOSIG=
201110032120 METAR COR EGLL 032120Z 24009KT CAVOK 18/15 Q1018 NOSIG=
201110032050 METAR COR EGLL 032050Z 25010KT 9000 FEW011 SCT020 18/15 Q1018
                        TEMPO BKN011=
201110032020 METAR COR EGLL 032020Z 25012KT 9000 BKN013 19/15 Q1018 TEMPO
                        SCT013 BKN025=
201110031950 METAR COR EGLL 031950Z 25013KT 9999 FEW016 SCT026 19/15 Q1018
                        TEMPO BKN013=
201110031920 METAR COR EGLL 031920Z 24012KT CAVOK 19/14 Q1017 TEMPO BKN013=
201110031850 METAR COR EGLL 031850Z 21009KT CAVOK 19/12 Q1017 NOSIG=
201110031820 METAR COR EGLL 031820Z 21010KT CAVOK 20/11 Q1017 NOSIG=
201110031750 METAR EGLL 031750Z 21011KT CAVOK 21/11 Q1017=
201110031720 METAR COR EGLL 031720Z 20011KT CAVOK 22/10 Q1016 NOSIG=
201110031650 METAR COR EGLL 031650Z 21012KT CAVOK 23/09 Q1016 NOSIG=
201110031620 METAR COR EGLL 031620Z 21013KT CAVOK 24/09 Q1016 NOSIG=
201110031550 METAR COR EGLL 031550Z 21011KT CAVOK 24/10 Q1017 NOSIG=
201110031520 METAR COR EGLL 031520Z 21012KT CAVOK 25/09 Q1017 NOSIG=
201110031450 METAR COR EGLL 031450Z 23013KT CAVOK 25/09 Q1017 NOSIG=
201110031420 METAR COR EGLL 031420Z 22016KT CAVOK 25/09 Q1018 NOSIG=
201110031350 METAR COR EGLL 031350Z 22015G26KT CAVOK 26/10 Q1018 NOSIG=
201110031320 METAR COR EGLL 031320Z 22013KT CAVOK 26/10 Q1018 NOSIG=
201110031250 METAR COR EGLL 031250Z 22013KT CAVOK 26/10 Q1018 NOSIG=
201110031220 METAR EGLL 031220Z 22015KT CAVOK 25/11 Q1018=
201110031150 METAR COR EGLL 031150Z 22011KT 190V250 CAVOK 25/11 Q1019
                        NOSIG=
201110031120 METAR COR EGLL 031120Z 22014KT 180V250 CAVOK 24/11 Q1019
                        NOSIG=
201110031050 METAR COR EGLL 031050Z 20010KT 140V250 CAVOK 24/12 Q1019
                        NOSIG=
201110031020 METAR COR EGLL 031020Z 22009KT 170V250 CAVOK 23/12 Q1020
                        NOSIG=
201110030950 METAR COR EGLL 030950Z 22010KT CAVOK 22/13 Q1020 NOSIG=
201110030920 METAR COR EGLL 030920Z 22009KT CAVOK 21/13 Q1020 NOSIG=
201110030850 METAR COR EGLL 030850Z 21008KT 170V250 CAVOK 19/13 Q1020
                        NOSIG=
201110030820 METAR COR EGLL 030820Z 22005KT 180V270 CAVOK 17/13 Q1020
                        NOSIG=
201110030750 METAR COR EGLL 030750Z 23006KT 190V250 CAVOK 16/12 Q1020
                        NOSIG=
201110030720 METAR COR EGLL 030720Z 22005KT 190V260 CAVOK 16/12 Q1020
                        NOSIG=
201110030650 METAR COR EGLL 030650Z 22007KT 9000 NSC 16/12 Q1020 NOSIG=
201110030620 METAR COR EGLL 030620Z 22006KT 9000 NSC 15/12 Q1020 NOSIG=
201110030550 METAR COR EGLL 030550Z 22007KT 180V240 CAVOK 15/12 Q1020
                        NOSIG=
201110030520 METAR COR EGLL 030520Z 23006KT CAVOK 16/12 Q1020 NOSIG=
201110030450 METAR COR EGLL 030450Z 22007KT CAVOK 16/12 Q1020 NOSIG=
201110030420 METAR EGLL 030420Z 23004KT CAVOK 15/12 Q1020=
201110030350 METAR COR EGLL 030350Z 21005KT 190V250 CAVOK 15/12 Q1020
                        NOSIG=
201110030320 METAR COR EGLL 030320Z 23005KT CAVOK 15/12 Q1021 NOSIG=
201110030250 METAR COR EGLL 030250Z 22004KT CAVOK 15/12 Q1021 NOSIG=
201110030220 METAR COR EGLL 030220Z 21005KT CAVOK 15/12 Q1021 NOSIG=
201110030150 METAR COR EGLL 030150Z 21005KT 9999 FEW049 15/12 Q1021 NOSIG=
201110030120 METAR EGLL 030120Z AUTO 25005KT 9999NDV NCD 16/12 Q1021=
201110030050 METAR EGLL 030050Z AUTO 24005KT 9999NDV NCD 16/12 Q1021=
201110030020 METAR EGLL 030020Z AUTO 24007KT 9999NDV NCD 16/12 Q1022=
201110022350 METAR COR EGLL 022350Z 23005KT CAVOK 16/12 Q1022 NOSIG=
201110022320 METAR COR EGLL 022320Z 23006KT CAVOK 16/12 Q1022 NOSIG=
201110022250 METAR COR EGLL 022250Z VRB02KT CAVOK 17/13 Q1022 NOSIG=
201110022220 METAR COR EGLL 022220Z 23004KT 200V280 CAVOK 17/13 Q1022
                        NOSIG=
201110022150 METAR COR EGLL 022150Z 24006KT 190V270 CAVOK 17/13 Q1022
                        NOSIG=
201110022120 METAR COR EGLL 022120Z 23007KT 180V280 CAVOK 18/13 Q1022
                        NOSIG=
201110022050 METAR COR EGLL 022050Z 22008KT 190V260 CAVOK 18/13 Q1022
                        NOSIG=
201110022020 METAR EGLL 022020Z AUTO 23007KT 9999NDV NCD 19/13 Q1022=
201110021950 METAR EGLL 021950Z AUTO 21007KT 170V260 9999NDV NCD 19/13
                        Q1022=
201110021920 METAR EGLL 021920Z AUTO 20007KT 170V250 9999NDV NCD 20/13
                        Q1022=
201110021850 METAR COR EGLL 021850Z 21007KT 160V250 CAVOK 20/13 Q1022
                        NOSIG=
201110021820 METAR COR EGLL 021820Z 19007KT 160V250 CAVOK 21/12 Q1022
                        NOSIG=
201110021750 METAR COR EGLL 021750Z 22008KT 170V270 CAVOK 22/12 Q1022
                        NOSIG=
201110021720 METAR COR EGLL 021720Z 21007KT 170V240 CAVOK 23/12 Q1022
                        NOSIG=
201110021650 METAR COR EGLL 021650Z 22008KT CAVOK 25/11 Q1022 NOSIG=
201110021620 METAR COR EGLL 021620Z 22011KT 180V250 CAVOK 26/10 Q1022
                        NOSIG=
201110021550 METAR COR EGLL 021550Z 22012KT CAVOK 26/09 Q1022 NOSIG=
201110021520 METAR COR EGLL 021520Z 21012KT CAVOK 27/09 Q1023 NOSIG=
201110021450 METAR COR EGLL 021450Z 22012KT CAVOK 27/10 Q1023 NOSIG=
201110021420 METAR COR EGLL 021420Z 21012KT 190V250 CAVOK 27/10 Q1023
                        NOSIG=
201110021350 METAR COR EGLL 021350Z 23011KT CAVOK 27/11 Q1023 NOSIG=
201110021320 METAR COR EGLL 021320Z 22010KT 190V250 CAVOK 27/12 Q1023
                        NOSIG=
201110021250 METAR COR EGLL 021250Z 22010KT CAVOK 27/11 Q1023 NOSIG=
201110021220 METAR COR EGLL 021220Z 20008KT 180V270 CAVOK 27/12 Q1024
                        NOSIG=
201110021150 METAR COR EGLL 021150Z 21006KT 180V260 CAVOK 26/12 Q1024
                        NOSIG=
201110021120 METAR EGLL 021120Z 18006KT 140V230 CAVOK 25/13 Q1024=
201110021050 METAR COR EGLL 021050Z 21004KT 170V260 CAVOK 24/13 Q1024
                        NOSIG=
201110021020 METAR COR EGLL 021020Z 21006KT 170V250 CAVOK 23/14 Q1025
                        NOSIG=
201110020950 METAR COR EGLL 020950Z 15004KT 080V220 CAVOK 22/13 Q1025
                        NOSIG=
201110020920 METAR COR EGLL 020920Z 15005KT 090V220 CAVOK 20/13 Q1025
                        NOSIG=
201110020850 METAR COR EGLL 020850Z VRB03KT CAVOK 19/13 Q1025 NOSIG=
201110020820 METAR COR EGLL 020820Z 00000KT 9000 NSC 19/13 Q1025 NOSIG=
201110020750 METAR COR EGLL 020750Z 00000KT 9000 NSC 17/13 Q1025 NOSIG=
201110020720 METAR COR EGLL 020720Z 08002KT 9000 NSC 16/12 Q1025 NOSIG=
201110020650 METAR COR EGLL 020650Z 35003KT 9000 NSC 14/11 Q1025 NOSIG=
201110020620 METAR EGLL 020620Z 36003KT 8000 NSC 13/11 Q1025=
201110020550 METAR COR EGLL 020550Z VRB02KT 8000 NSC 13/11 Q1025 NOSIG=
201110020520 METAR COR EGLL 020520Z VRB02KT CAVOK 13/12 Q1025 NOSIG=
201110020450 METAR COR EGLL 020450Z 00000KT CAVOK 13/11 Q1025 NOSIG=
201110020420 METAR EGLL 020420Z 00000KT CAVOK 13/12 Q1025=
201110020350 METAR COR EGLL 020350Z 36002KT CAVOK 13/12 Q1025 NOSIG=
201110020320 METAR COR EGLL 020320Z 07002KT CAVOK 13/11 Q1025 NOSIG=
201110020250 METAR COR EGLL 020250Z 36003KT CAVOK 14/12 Q1025 NOSIG=
201110020220 METAR COR EGLL 020220Z 00000KT CAVOK 14/12 Q1025 NOSIG=
201110020150 METAR COR EGLL 020150Z 00000KT CAVOK 14/12 Q1025 NOSIG=
201110020120 METAR EGLL 020120Z 00000KT CAVOK 15/12 Q1025=
201110020050 METAR EGLL 020050Z 36002KT CAVOK 15/12 Q1025=
201110020020 METAR COR EGLL 020020Z 34002KT CAVOK 16/12 Q1025 NOSIG=
201110012350 METAR COR EGLL 012350Z 36002KT CAVOK 15/12 Q1025 NOSIG=
201110012320 METAR COR EGLL 012320Z 00000KT CAVOK 15/13 Q1025 NOSIG=
201110012250 METAR EGLL 012250Z 35002KT CAVOK 17/13 Q1025=
201110012220 METAR COR EGLL 012220Z 18002KT CAVOK 16/13 Q1025 NOSIG=
201110012150 METAR COR EGLL 012150Z VRB03KT CAVOK 17/13 Q1025 NOSIG=
201110012120 METAR COR EGLL 012120Z 14003KT CAVOK 17/13 Q1025 NOSIG=
201110012050 METAR EGLL 012050Z 16003KT CAVOK 17/12 Q1025=
201110012020 METAR EGLL 012020Z VRB02KT CAVOK 19/13 Q1025=
201110011950 METAR COR EGLL 011950Z 14004KT 100V170 CAVOK 20/13 Q1025
                        NOSIG=
201110011920 METAR COR EGLL 011920Z 15004KT CAVOK 21/13 Q1025 NOSIG=
201110011850 METAR COR EGLL 011850Z 16003KT CAVOK 21/12 Q1025 NOSIG=
201110011820 METAR COR EGLL 011820Z 18004KT CAVOK 23/12 Q1025 NOSIG=
201110011750 METAR COR EGLL 011750Z 16006KT CAVOK 25/12 Q1024 NOSIG=
201110011720 METAR EGLL 011720Z 16005KT CAVOK 25/11 Q1024=
201110011650 METAR COR EGLL 011650Z 18006KT CAVOK 26/11 Q1024 NOSIG=
201110011620 METAR COR EGLL 011620Z 16006KT CAVOK 27/11 Q1024 NOSIG=
201110011550 METAR COR EGLL 011550Z 20005KT CAVOK 27/11 Q1024 NOSIG=
201110011520 METAR EGLL 011520Z 20007KT CAVOK 27/11 Q1024=
201110011450 METAR COR EGLL 011450Z 17008KT CAVOK 28/11 Q1024 NOSIG=
201110011420 METAR COR EGLL 011420Z 20007KT CAVOK 28/11 Q1024 NOSIG=
201110011350 METAR EGLL 011350Z 22007KT CAVOK 28/12 Q1024=
201110011320 METAR COR EGLL 011320Z 20007KT CAVOK 28/11 Q1024 NOSIG=
201110011250 METAR COR EGLL 011250Z 19005KT CAVOK 28/12 Q1024 NOSIG=
201110011220 METAR COR EGLL 011220Z 19004KT 140V240 CAVOK 27/14 Q1025
                        NOSIG=
201110011150 METAR COR EGLL 011150Z VRB03KT CAVOK 26/15 Q1025 NOSIG=
201110011120 METAR COR EGLL 011120Z VRB02KT CAVOK 25/15 Q1025 NOSIG=
201110011050 METAR COR EGLL 011050Z 18004KT 150V230 CAVOK 25/14 Q1025
                        NOSIG=
201110011020 METAR COR EGLL 011020Z VRB03KT CAVOK 24/14 Q1025 NOSIG=
201110010950 METAR COR EGLL 010950Z VRB02KT CAVOK 22/14 Q1025 NOSIG=
201110010920 METAR COR EGLL 010920Z 00000KT CAVOK 21/14 Q1025 NOSIG=
201110010850 METAR COR EGLL 010850Z VRB03KT 9000 NSC 20/14 Q1025 NOSIG=
201110010820 METAR COR EGLL 010820Z VRB02KT 8000 NSC 18/14 Q1025 NOSIG=
201110010750 METAR COR EGLL 010750Z 00000KT 8000 NSC 17/14 Q1025 NOSIG=
201110010720 METAR COR EGLL 010720Z 08002KT 7000 NSC 15/13 Q1024 NOSIG=
201110010650 METAR EGLL 010650Z 07002KT 7000 NSC 13/12 Q1024=
201110010620 METAR COR EGLL 010620Z VRB02KT 6000 NSC 13/11 Q1024 NOSIG=
201110010550 METAR COR EGLL 010550Z 00000KT 6000 NSC 13/11 Q1024 NOSIG=
201110010520 METAR COR EGLL 010520Z 10002KT 8000 NSC 13/12 Q1024 NOSIG=
201110010450 METAR COR EGLL 010450Z 00000KT 9000 NSC 13/11 Q1024 NOSIG=
201110010420 METAR COR EGLL 010420Z 00000KT CAVOK 13/11 Q1024 NOSIG=
201110010350 METAR COR EGLL 010350Z 34002KT 9000 NSC 14/12 Q1023 NOSIG=
201110010320 METAR COR EGLL 010320Z 00000KT 8000 NSC 14/12 Q1023 NOSIG=
201110010250 METAR COR EGLL 010250Z 04002KT 8000 NSC 14/12 Q1024 NOSIG=
201110010220 METAR COR EGLL 010220Z 01002KT 9000 NSC 14/12 Q1024 NOSIG=
201110010150 METAR COR EGLL 010150Z 35002KT 8000 NSC 15/13 Q1024 NOSIG=
201110010120 METAR COR EGLL 010120Z 00000KT 9000 NSC 15/13 Q1024 NOSIG=
201110010050 METAR COR EGLL 010050Z 00000KT 9000 NSC 15/13 Q1024 NOSIG=
201110010020 METAR COR EGLL 010020Z 00000KT 9000 NSC 15/13 Q1024 NOSIG=

# No short TAF reports from EGLL in databse.

###################################
#  large TAF from EGLL
###################################
201110312303 TAF EGLL 312303Z 0100/0206 17010KT 9999 SCT030
                      TEMPO 0102/0105 7000 -RA BKN012
                      PROB40 TEMPO 0102/0105 RA BKN008
                      BECMG 0104/0106 25007KT
                      BECMG 0203/0206 14010KT=
201110312241 TAF AMD EGLL 312241Z 3122/0124 17010KT 9999 SCT030
                      TEMPO 0102/0105 7000 -RA BKN012
                      PROB40 TEMPO 0102/0105 RA BKN008
                      BECMG 0104/0106 25007KT=
201110311702 TAF EGLL 311702Z 3118/0124 17010KT 9999 BKN025
                      TEMPO 0101/0105 20015G25KT 7000 BKN008
                      PROB30 TEMPO 0102/0105 RA
                      BECMG 0103/0106 24008KT
                      PROB30 TEMPO 0105/0109 9000 BKN010
                      BECMG 0120/0123 17010KT=
201110311101 TAF EGLL 311101Z 3112/0118 19014KT 9999 BKN020
                      TEMPO 0101/0104 20015G25KT 7000 RA BKN008
                       BECMG 0103/0106 25008KT
                      PROB30 TEMPO 0105/0109 9000 BKN010=
201110311028 TAF AMD EGLL 311028Z 3110/0112 19012KT 9999 FEW009 BKN011
                      BECMG 3110/3112 BKN020
                      TEMPO 0101/0104 20015G25KT 7000 RA BKN010
                       BECMG 0103/0106 25010KT=
201110310501 TAF EGLL 310501Z 3106/0112 19012KT 9999 FEW007 BKN020
                      TEMPO 3106/3110 8000 BKN007
                      TEMPO 0101/0104 20015G25KT 7000 RA BKN010
                       BECMG 0103/0106 25010KT=
201110310106 TAF AMD EGLL 310106Z 3101/0106 19012KT 9999 FEW004 SCT008 BKN040
                       TEMPO 3101/3110 8000 BKN008
                      PROB30 TEMPO 3101/3108 4000 DZ BKN004
                      TEMPO 0100/0104 20015G25KT 7000 RA BKN010
                       BECMG 0102/0105 26010KT=
201110302302 TAF EGLL 302302Z 3100/0106 19012KT 9999 FEW004 BKN008
                      TEMPO 3100/3108 4000 DZ BKN004
                      BECMG 3107/3110 SCT020
                      TEMPO 0100/0104 20015G25KT 7000 RA BKN010
                       BECMG 0102/0105 26010KT=
201110302300 TAF AMD EGLL 310106Z 3101/0106 19012KT 9999 FEW004 SCT008 BKN040
                       TEMPO 3101/3110 8000 BKN008
                      PROB30 TEMPO 3101/3108 4000 DZ BKN004
                      TEMPO 0100/0104 20015G25KT 7000 RA BKN010
                       BECMG 0102/0105 26010KT=
201110302103 TAF AMD EGLL 302103Z 3021/3124 20010KT 9999 BKN008
                      TEMPO 3021/3108 4000 DZ BKN012
                      PROB30 TEMPO 3022/3105 BKN004
                      BECMG 3107/3110 SCT018=
201110301705 TAF EGLL 301705Z 3018/3124 20010KT 9999 SCT008 BKN013
                      TEMPO 3018/3108 5000 -DZ BKN008
                      PROB40 TEMPO 3018/3022 SCT015 BKN028
                      PROB30 TEMPO 3022/3105 BKN004
                      BECMG 3107/3110 BKN018=
201110301103 TAF EGLL 301103Z 3012/3118 21010KT 9999 BKN015
                      TEMPO 3012/3109 5000 -DZ BKN009
                      BECMG 3016/3019 BKN014
                      BECMG 3110/3113 SCT020=
201110300724 TAF AMD EGLL 300724Z 3007/3112 21012KT 9999 BKN015
                      TEMPO 3007/3014 4000 -DZ BKN005
                      TEMPO 3014/3017 BKN020
                      TEMPO 3018/3109 4000 -DZ BKN005
                      BECMG 3109/3112 SCT025=
201110300459 TAF EGLL 300459Z 3006/3112 21012KT 9999 BKN010
                      TEMPO 3006/3014 4000 -DZ BKN005
                      TEMPO 3014/3017 BKN020
                      TEMPO 3018/3109 4000 -DZ BKN005
                      BECMG 3109/3112 SCT025=
201110292257 TAF EGLL 292257Z 3000/3106 21012KT 9999 BKN012
                      TEMPO 3000/3014 4000 -DZ BKN005
                      TEMPO 3014/3017 BKN020
                      TEMPO 3018/3106 4000 -DZ BKN005=
201110291657 TAF EGLL 291657Z 2918/3024 21012KT 9999 FEW018 BKN030
                      PROB30 2920/2923 8000 BKN014
                      BECMG 2923/3002 8000 -RA SCT007 BKN012
                      PROB40 TEMPO 3001/3014 4500 -DZ BKN007
                      TEMPO 3018/3024 2500 DZ BR BKN005=
201110291101 TAF EGLL 291101Z 2912/3018 23011KT 9999 FEW018 SCT035
                      PROB30 2917/2923 8000
                      BECMG 2923/3002 8000 -RA SCT007 BKN012
                      PROB40 TEMPO 3001/3018 4500 -DZ BKN007=
201110290458 TAF EGLL 290458Z 2906/3012 16007KT 3000 BR BKN006
                      BECMG 2906/2909 22013KT 9999 NSW SCT025
                      BECMG 2921/2924 -RA BKN010
                      TEMPO 3002/3009 4000 -RADZ BKN007
                      PROB40 3009/3012 NSW SCT015=
201110282257 TAF EGLL 282257Z 2900/3006 16007KT 3000 BR BKN006
                      PROB40 TEMPO 2900/2906 5000 BKN020
                      BECMG 2907/2910 22012KT 9999 NSW SCT025
                      BECMG 2921/2924 -RA BKN010
                      TEMPO 3002/3006 6000 -RADZ BKN007=
201110282225 TAF AMD EGLL 282225Z 2822/2924 14008KT 4000 BR SCT008 BKN015
                      TEMPO 2822/2908 BKN006
                      BECMG 2906/2909 22014KT 9999 FEW008 BKN025
                       TEMPO 2921/2924 7000 -RA BKN014=
201110281701 TAF EGLL 281701Z 2818/2924 14008KT 9999 BKN015
                      BECMG 2818/2821 6000 BKN008
                      TEMPO 2819/2908 2000 BR -DZ BKN004
                      BECMG 2906/2909 22014KT 9999 FEW008 BKN025
                       TEMPO 2921/2924 7000 -RA BKN014=
201110281103 TAF EGLL 281103Z 2812/2918 08010KT CAVOK
                      BECMG 2815/2818 BKN040
                      BECMG 2818/2821 6000 BKN008
                      PROB40 2821/2908 2000 BR BKN003
                      BECMG 2903/2906 16005KT
                      BECMG 2907/2910 22014KT 9999 FEW008 BKN025=
201110280626 TAF AMD EGLL 280626Z 2806/2912 35010KT 6000 SCT010
                      PROB40 2806/2809 0600 FG BKN001
                      BECMG 2808/2811 05005KT 9999
                      BECMG 2816/2819 7000 BKN012
                      BECMG 2819/2822 4000 BR BKN007
                      PROB30 2822/2906 1200 BKN003
                      BECMG 2906/2909 21012KT 9999 NSW SCT025=
201110280501 TAF EGLL 280501Z 2806/2912 35010KT 6000 SCT010
                      PROB40 2806/2808 3000 BR BKN004
                      BECMG 2807/2810 05005KT 9999
                      BECMG 2816/2819 7000 BKN012
                      BECMG 2819/2822 4000 BR BKN007
                      PROB30 2822/2906 1200 BKN003
                      BECMG 2906/2909 21012KT 9999 NSW SCT025=
201110280217 TAF AMD EGLL 280217Z 2802/2906 34007KT 9999 SCT012 BKN020
                      TEMPO 2802/2809 3000 -RADZ BR BKN004
                      BECMG 2808/2811 9999
                      BECMG 2817/2820 7000 BKN012
                      BECMG 2820/2823 4000 BR BKN007
                      PROB30 2900/2906 1200 BKN003=
201110272300 TAF AMD EGLL 280217Z 2802/2906 34007KT 9999 SCT012 BKN020
                      TEMPO 2802/2809 3000 -RADZ BR BKN004
                      BECMG 2808/2811 9999
                      BECMG 2817/2820 7000 BKN012
                      BECMG 2820/2823 4000 BR BKN007
                      PROB30 2900/2906 1200 BKN003=
201110272258 TAF EGLL 272258Z 2800/2906 34007KT 8000 SCT012 BKN020
                      TEMPO 2800/2809 3000 -RADZ BR BKN004
                      BECMG 2808/2811 9999
                      BECMG 2817/2820 7000 BKN012
                      BECMG 2820/2823 4000 BR BKN007
                      PROB30 2900/2906 1200 BKN003=
201110272132 TAF AMD EGLL 272132Z 2721/2824 VRB05KT 9999 SCT012 BKN020
                      BECMG 2721/2724 8000
                      TEMPO 2721/2809 3000 -RADZ BR BKN004
                      BECMG 2808/2811 9999
                      BECMG 2815/2818 7000 BKN013
                      PROB40 TEMPO 2820/2824 4000 BR BKN005=
201110272029 TAF AMD EGLL 272029Z 2720/2824 20010KT 9999 BKN020
                      BECMG 2720/2723 VRB05KT 8000 -RA BKN010
                      TEMPO 2720/2809 3000 -RADZ BR BKN004
                      BECMG 2808/2811 9999 NSW BKN020
                      BECMG 2815/2818 7000 BKN013
                      PROB40 TEMPO 2820/2824 4000 BR BKN005=
201110271908 TAF AMD EGLL 271908Z 2719/2824 17010KT 8000 BKN020
                      BECMG 2719/2721 VRB05KT -RA BKN010
                      TEMPO 2719/2809 3000 -RADZ BR BKN004
                      PROB40 TEMPO 2719/2722 RA
                      BECMG 2808/2811 9999 NSW BKN020
                      BECMG 2815/2818 7000 BKN013
                      PROB40 TEMPO 2820/2824 4000 BR BKN005=
201110271700 TAF EGLL 271700Z 2718/2824 17010KT 9999 BKN020
                      BECMG 2718/2721 VRB05KT 7000 -RA BKN010
                      TEMPO 2720/2809 3000 -RADZ BR BKN004
                      BECMG 2808/2811 9999 NSW BKN020
                      BECMG 2815/2818 7000 BKN013
                      PROB40 TEMPO 2820/2824 4000 BR BKN005=
201110271100 TAF EGLL 271100Z 2712/2818 13010KT 9999 SCT030
                      TEMPO 2712/2717 6000 RA BKN013
                      BECMG 2716/2719 VRB05KT 7000 -RA BKN008
                      TEMPO 2719/2809 3000 -RADZ BR BKN004
                      PROB40 TEMPO 2808/2815 9999 NSW BKN020=
201110270459 TAF EGLL 270459Z 2706/2812 13010KT 9999 SCT030
                      TEMPO 2706/2718 6000 RA
                      TEMPO 2712/2718 BKN008
                      BECMG 2718/2721 VRB04KT 7000 -RA BKN008
                      TEMPO 2720/2808 3000 -RADZ BKN004
                      PROB40 TEMPO 2808/2812 9999 NSW BKN020=
201110262258 TAF EGLL 262258Z 2700/2806 13010KT 9999 SCT020
                      TEMPO 2700/2719 7000 RA
                      BECMG 2719/2722 VRB05KT 7000 -RA BKN008
                      TEMPO 2721/2806 3000 -RADZ BKN004=
201110261939 TAF AMD EGLL 261939Z 2619/2724 16012KT 9999 SCT040
                      TEMPO 2619/2724 8000 RA
                      PROB40 TEMPO 2715/2724 4000 RADZ BKN008=
201110261700 TAF EGLL 261700Z 2618/2724 16012KT 9999 SCT040
                      TEMPO 2621/2724 8000 RA
                      PROB40 TEMPO 2715/2724 4000 RADZ BKN008=
201110261056 TAF EGLL 261056Z 2612/2718 20012KT 9999 SCT040
                      TEMPO 2612/2617 19015G25KT 6000 SHRA
                      PROB30 TEMPO 2612/2616 4000 +SHRA BKN014CB
                       BECMG 2620/2623 14010KT
                      PROB40 TEMPO 2621/2718 9000 RA
                      TEMPO 2715/2718 4000 RADZ BKN008=
201110260459 TAF EGLL 260459Z 2606/2712 19008KT 9999 SCT040
                      TEMPO 2606/2616 20015G25KT 7000 SHRA
                      PROB30 TEMPO 2611/2615 3000 +SHRA BKN014CB
                       BECMG 2619/2622 12012KT
                      TEMPO 2702/2712 8000 RA BKN014=
201110260154 TAF AMD EGLL 260154Z 2601/2706 20008KT 9999 SCT040
                      TEMPO 2601/2616 21015G25KT 7000 SHRA
                      PROB30 2603/2607 3000 BR
                      BECMG 2619/2622 12012KT
                      TEMPO 2702/2706 8000 RA BKN014=
201110252303 TAF EGLL 252303Z 2600/2706 20008KT 9999 SCT040
                      PROB30 2603/2607 3000 BR
                      PROB30 TEMPO 2609/2616 21015G25KT 7000 SHRA
                       BECMG 2619/2622 12012KT
                      TEMPO 2702/2706 8000 RA BKN014=
201110252300 TAF AMD EGLL 260154Z 2601/2706 20008KT 9999 SCT040
                      TEMPO 2601/2616 21015G25KT 7000 SHRA
                      PROB30 2603/2607 3000 BR
                      BECMG 2619/2622 12012KT
                      TEMPO 2702/2706 8000 RA BKN014=
201110251658 TAF EGLL 251658Z 2518/2624 15008KT 9999 SCT025
                      TEMPO 2518/2602 8000 SHRA
                      PROB30 TEMPO 2518/2524 16015G25KT 4000 +SHRA
                       TSGR BKN014CB
                      BECMG 2609/2612 21010KT
                      TEMPO 2610/2619 8000 SHRA=
201110251057 TAF EGLL 251057Z 2512/2618 17010KT 9999 SCT030
                      TEMPO 2512/2602 8000 SHRA
                      PROB30 TEMPO 2516/2524 18015G25KT 4000 +SHRA
                       TSGR
                      TEMPO 2610/2618 7000 SHRA=
201110250503 TAF EGLL 250503Z 2506/2612 17010KT 9999 SCT025
                      TEMPO 2511/2612 7000 SHRA
                      PROB40 TEMPO 2513/2524 3000 +SHRA TSRA BKN014
                       BKN025CB
                      BECMG 2601/2604 22007KT=
201110242305 TAF EGLL 242305Z 2500/2606 16010KT 9999 FEW015 SCT025
                      TEMPO 2500/2503 BKN012
                      TEMPO 2512/2606 8000 SHRA
                      PROB40 TEMPO 2515/2603 3000 +SHRA TSRA BKN014
                       BKN025CB
                      BECMG 2601/2604 23007KT=
201110241657 TAF EGLL 241657Z 2418/2524 12015KT 9999 SCT040
                      TEMPO 2418/2421 12018G28KT
                      TEMPO 2419/2503 8000 RA BKN014
                      PROB30 TEMPO 2420/2501 4000 +RA BKN008
                      BECMG 2500/2503 18012KT
                      BECMG 2515/2518 12005KT
                      PROB30 TEMPO 2515/2524 8000 SHRA=
201110241100 TAF EGLL 241100Z 2412/2518 14015KT 9999 SCT040
                      PROB40 TEMPO 2415/2421 15018G28KT
                      TEMPO 2419/2503 8000 RA BKN014
                      PROB40 TEMPO 2420/2502 4000 +RA BKN008
                      BECMG 2421/2424 16005KT
                      BECMG 2509/2512 23015KT
                      BECMG 2515/2518 16005KT=
201110240453 TAF EGLL 240453Z 2406/2512 15015KT 9999 SCT040
                      PROB40 TEMPO 2415/2421 15017G27KT
                      TEMPO 2418/2502 8000 RA BKN012
                      PROB30 TEMPO 2419/2502 4000 +RA BKN008
                      BECMG 2502/2505 15005KT
                      BECMG 2509/2512 22015KT=
201110232256 TAF EGLL 232256Z 2400/2506 15015KT 9999 SCT040
                      PROB40 TEMPO 2415/2421 15017G27KT
                      TEMPO 2418/2502 8000 RA
                      PROB40 TEMPO 2419/2424 4000 +RA BKN008
                      BECMG 2502/2505 15005KT=
201110231654 TAF EGLL 231654Z 2318/2424 16014KT 9999 SCT040
                      PROB30 TEMPO 2408/2411 15015G25KT
                      BECMG 2414/2417 14018G28KT
                      TEMPO 2420/2424 7000 RA
                      PROB30 TEMPO 2420/2424 4000 +RA BKN009=
201110231052 TAF EGLL 231052Z 2312/2418 16014KT 9999 SCT040
                      TEMPO 2312/2319 17017G27KT
                      BECMG 2407/2410 15017G27KT=
201110230457 TAF EGLL 230457Z 2306/2412 15009KT 9999 SCT040
                      PROB30 TEMPO 2306/2308 8000 BKN014
                      BECMG 2308/2311 17017G27KT
                      BECMG 2318/2321 14014KT
                      BECMG 2407/2410 15017G27KT=
201110222257 TAF EGLL 222257Z 2300/2406 11007KT 9999 SCT045
                      PROB40 2302/2309 8000 BKN012
                      BECMG 2308/2311 17017G27KT
                      BECMG 2318/2321 14014KT=
201110221703 TAF EGLL 221703Z 2218/2324 18011KT 9999 SCT035
                      PROB40 TEMPO 2302/2309 8000 BKN012
                      BECMG 2308/2311 17017G27KT
                      BECMG 2317/2320 14014KT=
201110221053 TAF EGLL 221053Z 2212/2318 17011KT 9999 SCT040
                      PROB30 TEMPO 2212/2219 17015G25KT
                      PROB40 2302/2309 8000 BKN012
                      BECMG 2308/2311 17017G27KT=
201110220458 TAF EGLL 220458Z 2206/2312 11005KT 9999 SCT040
                      BECMG 2206/2209 17012KT
                      PROB40 TEMPO 2209/2220 17015G25KT
                      PROB40 2302/2309 8000 BKN014
                      BECMG 2308/2311 17018G28KT=
201110212259 TAF EGLL 212259Z 2200/2306 VRB05KT 9999 SCT040
                      BECMG 2206/2209 17012KT
                      PROB40 TEMPO 2209/2220 17015G25KT=
201110211658 TAF EGLL 211658Z 2118/2224 21010KT 9999 SCT035
                      BECMG 2118/2121 15006KT
                      BECMG 2209/2212 17015G25KT=
201110211059 TAF EGLL 211059Z 2112/2218 21010KT 9999 FEW045
                      BECMG 2121/2124 15005KT
                      BECMG 2209/2212 17015G25KT=
201110210457 TAF EGLL 210457Z 2106/2212 20006KT 9999 SCT045
                      BECMG 2202/2206 14010KT=
201110202254 TAF EGLL 202254Z 2100/2206 21006KT 9999 SCT045
                      BECMG 2202/2206 15010KT=
201110202029 TAF AMD EGLL 202029Z 2020/2124 28006KT 9999 FEW030
                      BECMG 2110/2113 21010KT=
201110202010 TAF COR EGLL 202010Z 2100/2206 CNL=
201110201703 TAF EGLL 201703Z 2100/2206 28006KT 9999 FEW030
                      BECMG 2110/2013 21010KT=
201110201700 TAF EGLL 201700Z NIL=
201110201101 TAF EGLL 201101Z 2012/2118 28007KT 9999 FEW030
                      BECMG 2110/2013 21010KT=
201110200459 TAF EGLL 200459Z 2006/2112 30004KT 9999 SCT030
                      BECMG 2014/2017 23010KT=
201110192253 TAF EGLL 192253Z 2000/2106 28004KT 9999 FEW030
                      BECMG 2014/2016 22010KT=
201110191701 TAF EGLL 191701Z 1918/2024 27008KT 9999 FEW030=
201110191329 TAF AMD EGLL 191329Z 1913/2018 30009KT 9999 SCT040
                      TEMPO 1914/1919 7000 SHRA=
201110191129 TAF EGLL 191129Z 1912/2018 30009KT 9999 FEW030
                      PROB30 TEMPO 1915/1919 7000 SHRA=
201110191100 TAF EGLL 191100Z NIL=
201110190505 TAF EGLL 190505Z 1906/2012 29012KT 9999 FEW030
                      PROB40 TEMPO 1912/1918 7000 SHRA
                      PROB30 2004/2008 8000=
201110182304 TAF EGLL 182304Z 1900/2006 25010KT 9999 FEW030
                      BECMG 1909/1912 31012KT
                      PROB40 TEMPO 1912/1918 7000 SHRA
                      PROB30 2003/2006 8000=
201110181700 TAF EGLL 181700Z 1818/1924 24009KT 9999 FEW030
                      BECMG 1909/1912 30014KT
                      PROB30 TEMPO 1911/1917 7000 SHRA
                      BECMG 1917/1921 27004KT=
201110181058 TAF EGLL 181058Z 1812/1918 27015G25KT 9999 FEW030
                      BECMG 1817/1821 25009KT
                      BECMG 1909/1912 31013KT
                      PROB30 TEMPO 1911/1917 7000 SHRA=
201110180506 TAF EGLL 180506Z 1806/1912 26012KT 9999 FEW030
                      BECMG 1809/1811 27017G28KT
                      BECMG 1817/1820 25012KT
                      BECMG 1909/1912 31013KT
                      PROB30 TEMPO 1910/1912 7000 SHRA=
201110180206 TAF AMD EGLL 180206Z 1802/1906 28012KT 4000 RA BKN008
                      BECMG 1802/1804 9999 NSW FEW025
                      BECMG 1809/1812 27017G28KT
                      BECMG 1817/1820 26010KT=
201110172300 TAF AMD EGLL 180206Z 1802/1906 28012KT 4000 RA BKN008
                      BECMG 1802/1804 9999 NSW FEW025
                      BECMG 1809/1812 27017G28KT
                      BECMG 1817/1820 26010KT=
201110172259 TAF EGLL 172259Z 1800/1906 22016G26KT 9999 -RA SCT020 BKN040
                      BECMG 1801/1803 23022G36KT 4000 +RA BKN014
                       BECMG 1803/1805 28012KT 9999 NSW FEW025
                       BECMG 1809/1812 27017G28KT
                      BECMG 1817/1820 26010KT=
201110171657 TAF EGLL 171657Z 1718/1824 23015G25KT 9999 SCT020
                      TEMPO 1722/1804 23022G35KT 7000 RA BKN014
                       PROB40
                      TEMPO 1800/1803 4000 +RA BKN008
                      BECMG 1801/1804 29010KT
                      BECMG 1809/1812 27015G25KT
                      BECMG 1817/1820 25010KT=
201110171456 TAF AMD EGLL 171456Z 1715/1818 22015G25KT 9999 SCT020
                      PROB30 TEMPO 1715/1722 8000 -RA BKN014
                      TEMPO 1722/1803 23022G35KT 7000 RA BKN012
                       PROB40
                      TEMPO 1800/1803 4000 +RA BKN008
                      BECMG 1801/1804 29008KT
                      BECMG 1809/1812 26015G25KT=
201110171056 TAF EGLL 171056Z 1712/1818 22018KT 9999 SCT020
                      PROB30 TEMPO 1712/1722 8000 -RA BKN012
                      TEMPO 1722/1803 23022G35KT 7000 RA BKN012
                       PROB40
                      TEMPO 1800/1803 4000 +RA BKN008
                      BECMG 1801/1804 29008KT
                      BECMG 1809/1812 26015G25KT=
201110170503 TAF EGLL 170503Z 1706/1812 24008KT 9999 SCT030
                      PROB30 1706/1708 4000 BR
                      BECMG 1712/1715 23018KT
                      TEMPO 1721/1802 23020G30KT 7000 RA BKN012
                       BECMG 1800/1803 27008KT
                      BECMG 1809/1812 27015G25KT=
201110162300 TAF EGLL 162300Z 1700/1806 24008KT 9999 SCT030
                      PROB40 1702/1708 3000 BR
                      BECMG 1712/1715 23018KT
                      TEMPO 1721/1802 23020G30KT 7000 RA BKN012
                       BECMG 1800/1803 27008KT=
201110161700 TAF EGLL 161700Z 1618/1724 26005KT 9999 SCT030
                      BECMG 1621/1624 8000
                      PROB40 1702/1709 3000 BR
                      BECMG 1708/1711 20014KT 9999
                      PROB30 TEMPO 1713/1717 8000 -RA BKN012
                      TEMPO 1721/1724 22018G30KT 6000 RA BKN014=
201110161100 TAF EGLL 161100Z 1612/1718 VRB03KT 9999 SCT030
                      PROB30 TEMPO 1613/1617 8000 BKN014
                      BECMG 1621/1624 8000
                      PROB40 1702/1709 3000 BR
                      BECMG 1708/1711 21014KT 9999
                      PROB30 TEMPO 1712/1718 7000 -RA BKN012=
201110160756 TAF AMD EGLL 160756Z 1607/1712 23005KT 0300 FG BKN000
                      BECMG 1608/1610 7000 NSW BKN008
                      BECMG 1610/1612 9999 SCT020
                      PROB30 TEMPO 1612/1618 8000 BKN014
                      TEMPO 1618/1709 6000
                      PROB30 1702/1708 3500 BR=
201110160750 TAF AMD EGLL 160750Z 1607/1712 23005KT 0300 FG BKN000
                      BECMG 1608/1610 7000 NSW BKN008
                      BECMG 1610/1612 9999 SCT020
                      PROB30 TEMPO 1612/1618 8000 BKN014
                      TEMPO 1618/1709 6000
                      PROB30 1702/1708 3500 BR=
201110160458 TAF EGLL 160458Z 1606/1712 23005KT 1500 BR NSC
                      TEMPO 1606/1608 0300 FG VV///
                      BECMG 1608/1610 7000 NSW
                      BECMG 1610/1613 9999 BKN020
                      PROB30 TEMPO 1613/1618 8000 BKN014
                      TEMPO 1618/1709 6000
                      PROB30 1702/1708 3500 BR=
201110160258 TAF AMD EGLL 160258Z 1603/1706 VRB05KT 1500 BR NSC
                      TEMPO 1603/1608 0300 FG VV///
                      BECMG 1608/1610 8000 NSW
                      BECMG 1610/1613 9999 BKN020
                      PROB30 TEMPO 1613/1618 8000 BKN014
                      TEMPO 1618/1706 6000
                      PROB30 1702/1706 4000 BR=
201110152301 TAF EGLL 152301Z 1600/1706 18005KT CAVOK
                      BECMG 1600/1603 6000
                      PROB40 1602/1609 2500 BR MIFG
                      BECMG 1608/1611 CAVOK
                      BECMG 1611/1614 BKN020
                      PROB30 TEMPO 1612/1618 8000 BKN014
                      TEMPO 1618/1706 6000
                      PROB30 1702/1706 4000 BR=
201110152300 TAF AMD EGLL 160258Z 1603/1706 VRB05KT 1500 BR NSC
                      TEMPO 1603/1608 0300 FG VV///
                      BECMG 1608/1610 8000 NSW
                      BECMG 1610/1613 9999 BKN020
                      PROB30 TEMPO 1613/1618 8000 BKN014
                      TEMPO 1618/1706 6000
                      PROB30 1702/1706 4000 BR=
201110151656 TAF EGLL 151656Z 1518/1624 18005KT CAVOK
                      BECMG 1523/1601 7000
                      PROB40 1601/1609 3000 BR
                      BECMG 1608/1611 CAVOK
                      BECMG 1610/1613 BKN020
                      PROB30 TEMPO 1612/1621 8000 BKN014=
201110151101 TAF EGLL 151101Z 1512/1618 14007KT CAVOK
                      BECMG 1523/1601 7000
                      PROB40 1601/1609 3000 BR
                      BECMG 1608/1611 CAVOK
                      BECMG 1610/1613 BKN020
                      PROB30 TEMPO 1612/1616 8000 BKN014=
201110150501 TAF EGLL 150501Z 1506/1612 11005KT CAVOK
                      PROB30 1506/1508 7000
                      BECMG 1523/1601 7000
                      PROB40 1601/1609 3000 BR MIFG
                      BECMG 1608/1611 CAVOK=
201110142257 TAF EGLL 142257Z 1500/1606 10005KT CAVOK
                      PROB40 TEMPO 1500/1509 8000
                      BECMG 1521/1524 8000
                      PROB40 1600/1606 3000 BR=
201110141659 TAF EGLL 141659Z 1418/1524 11007KT CAVOK
                      PROB30 1500/1509 6000=
201110141102 TAF EGLL 141102Z 1412/1518 11008KT 9999 FEW040
                      PROB30 1423/1509 8000=
201110140456 TAF EGLL 140456Z 1406/1512 11008KT 9999 SCT040
                      PROB30 1422/1509 8000=
201110132300 TAF EGLL 132300Z 1400/1506 12008KT 9999 SCT045
                      PROB30 TEMPO 1400/1409 8000
                      PROB40 1421/1506 8000=
201110131700 TAF EGLL 131700Z 1318/1424 10006KT 9999 SCT025
                      PROB40 TEMPO 1318/1409 6000=
201110131103 TAF EGLL 131103Z 1312/1418 09005KT 9999 FEW015 SCT025
                      PROB40 TEMPO 1312/1318 9000
                      PROB30 1322/1408 8000=
201110130500 TAF EGLL 130500Z 1306/1412 06005KT 9999 SCT030
                      TEMPO 1306/1310 8000 BKN012
                      PROB30 1400/1408 8000=
201110130354 TAF AMD EGLL 130354Z 1303/1406 VRB05KT 9999 SCT030
                      TEMPO 1303/1310 7000 BKN012
                      PROB30 TEMPO 1303/1309 4000 BR BKN007
                      BECMG 1309/1312 10010KT
                      PROB30 1400/1406 8000=
201110122301 TAF EGLL 122301Z 1300/1406 VRB05KT 9999 SCT030
                      TEMPO 1300/1311 BKN012
                      PROB30 TEMPO 1302/1309 5000 BR BKN007
                      BECMG 1309/1312 10010KT
                      PROB30 1400/1406 8000=
201110122300 TAF AMD EGLL 130354Z 1303/1406 VRB05KT 9999 SCT030
                      TEMPO 1303/1310 7000 BKN012
                      PROB30 TEMPO 1303/1309 4000 BR BKN007
                      BECMG 1309/1312 10010KT
                      PROB30 1400/1406 8000=
201110121659 TAF EGLL 121659Z 1218/1324 27010KT 9999 SCT030
                      TEMPO 1218/1310 8000 -RA BKN012
                      BECMG 1221/1224 VRB05KT
                      PROB30 TEMPO 1303/1309 4000 BR BKN008
                      BECMG 1315/1318 10010KT=
201110121057 TAF EGLL 121057Z 1212/1318 26010KT 9999 SCT020
                      PROB30 TEMPO 1212/1224 8000 -RA BKN012
                      BECMG 1221/1224 VRB05KT
                      TEMPO 1300/1310 7000 BKN008
                      PROB30 TEMPO 1302/1309 4000 BR
                      BECMG 1315/1318 09010KT=
201110120501 TAF EGLL 120501Z 1206/1312 26012KT 9999 SCT020
                      PROB30 TEMPO 1206/1210 BKN014
                      PROB40 TEMPO 1216/1219 8000 -RA BKN012
                      BECMG 1220/1223 VRB04KT
                      PROB30 1223/1309 7000 BKN008=
201110112300 TAF EGLL 112300Z 1200/1306 25014KT 9999 SCT020
                      PROB30 TEMPO 1200/1210 BKN014
                      PROB40 TEMPO 1216/1224 7000 -RA BKN012
                      BECMG 1220/1223 33005KT=
201110111853 TAF AMD EGLL 111853Z 1118/1224 25014KT 9999 FEW025
                      PROB30 TEMPO 1122/1210 BKN014
                      PROB40 TEMPO 1215/1224 7000 -RA BKN012
                      BECMG 1218/1221 31005KT=
201110111658 TAF EGLL 111658Z 1118/1224 25014KT 9999 BKN025
                      PROB30 TEMPO 1122/1210 BKN014
                      PROB40 TEMPO 1215/1224 7000 -RA BKN012
                      BECMG 1218/1221 31005KT=
201110111059 TAF EGLL 111059Z 1112/1218 25012KT 9999 BKN022
                      PROB40 TEMPO 1112/1117 26015G25KT BKN014
                       PROB30
                      TEMPO 1122/1212 BKN014
                      BECMG 1212/1215 BKN010=
201110110502 TAF EGLL 110502Z 1106/1212 25012KT 9999 BKN024
                      TEMPO 1109/1116 26015G25KT
                      PROB30 TEMPO 1122/1212 BKN014=
201110102259 TAF EGLL 102259Z 1100/1206 26015KT 9999 BKN022
                      TEMPO 1100/1109 BKN014
                      TEMPO 1109/1116 26017G27KT
                      TEMPO 1122/1206 BKN014=
201110101825 TAF AMD EGLL 101825Z 1018/1124 26020G30KT 9999 SCT020
                      BECMG 1018/1021 26015KT
                      PROB40 TEMPO 1022/1109 BKN014
                      PROB40 TEMPO 1108/1116 26018G28KT
                      PROB30 TEMPO 1122/1124 BKN014=
201110101700 TAF EGLL 101700Z 1018/1124 26015KT 9999 SCT020
                      PROB40 TEMPO 1022/1109 BKN014
                      PROB40 TEMPO 1108/1116 26018G28KT
                      PROB30 TEMPO 1122/1124 BKN014=
201110101100 TAF EGLL 101100Z 1012/1118 26015KT 9999 SCT020
                      TEMPO 1012/1017 26020G30KT
                      PROB40 TEMPO 1021/1109 BKN014
                      TEMPO 1108/1116 26018G28KT=
201110100504 TAF EGLL 100504Z 1006/1112 25015KT 9999 SCT020
                      BECMG 1008/1010 26018G30KT
                      BECMG 1017/1020 25014KT
                      TEMPO 1021/1109 BKN014
                      TEMPO 1106/1112 26015G25KT=
201110092304 TAF EGLL 092304Z 1000/1106 26014KT 9999 SCT015
                      TEMPO 1000/1008 BKN014
                      BECMG 1008/1010 26018G30KT
                      BECMG 1018/1021 25014KT
                      TEMPO 1022/1106 BKN013=
201110091700 TAF EGLL 091700Z 0918/1024 26015KT 9999 SCT020
                      TEMPO 0919/1008 BKN012
                      BECMG 1007/1010 25020G30KT
                      BECMG 1017/1020 24015KT
                      PROB40 TEMPO 1021/1024 BKN014=
201110091102 TAF EGLL 091102Z 0912/1018 26014KT 9999 SCT018
                      PROB40 TEMPO 0912/0915 BKN014
                      PROB30 TEMPO 0912/0918 26017G27KT
                      TEMPO 0918/1008 BKN012
                      BECMG 1007/1010 25018G30KT=
201110090456 TAF EGLL 090456Z 0906/1012 27013KT 9999 SCT012 BKN025
                      TEMPO 0906/0915 9000 RA BKN012
                      BECMG 0911/0914 27017G27KT
                      PROB30 TEMPO 0915/0918 BKN012
                      BECMG 0918/0921 24013KT BKN012
                      BECMG 1007/1010 25015G25KT SCT025=
201110082254 TAF EGLL 082254Z 0900/1006 27013KT 9999 SCT010 BKN025
                      TEMPO 0900/0909 7000 RA BKN007
                      PROB40 TEMPO 0909/0914 BKN012
                      BECMG 0909/0912 27017G27KT
                      BECMG 0918/0921 24013KT BKN012=
201110081706 TAF EGLL 081706Z 0818/0924 27010KT 9999 BKN020
                      PROB40 TEMPO 0818/0824 8000 -RADZ BKN014
                       BECMG 0900/0903 SCT005 BKN009
                      TEMPO 0900/0908 4000 RA SHRA
                      PROB30 TEMPO 0903/0907 BKN004
                      BECMG 0909/0912 27017G27KT BKN018
                      BECMG 0917/0920 26012KT
                      PROB40 0921/0924 BKN014=
201110081105 TAF EGLL 081105Z 0812/0918 28010KT 9999 FEW020 SCT030
                      PROB40 TEMPO 0816/0824 8000 -RADZ BKN014
                       BECMG 0900/0903 22007KT 7000 -RADZ SCT004
                       BKN008
                      TEMPO 0903/0908 3000 RADZ
                      PROB40 TEMPO 0903/0908 BKN004
                      BECMG 0909/0912 27015G25KT 9999 NSW SCT020=
201110080456 TAF EGLL 080456Z 0806/0912 30010KT 9999 SCT030
                      PROB30 TEMPO 0818/0822 8000 -RA BKN012
                      BECMG 0822/0901 24007KT 7000 -RA BKN010
                      TEMPO 0900/0909 4000 RADZ BKN005
                      BECMG 0909/0912 9999 NSW SCT020=
201110072256 TAF EGLL 072256Z 0800/0906 30008KT 9999 SCT030
                      BECMG 0821/0824 24010KT
                      PROB30 TEMPO 0821/0824 8000 -RA
                      BECMG 0900/0903 7000 -RA BKN010
                      TEMPO 0901/0906 4000 RADZ BKN005=
201110071657 TAF EGLL 071657Z 0718/0824 29010KT 9999 FEW030
                      BECMG 0815/0818 23007KT -RA BKN012
                      TEMPO 0819/0824 5000 -DZ BKN005=
201110071500 TAF AMD EGLL 071500Z 0715/0818 30012KT 9999 FEW025 SCT030
                      PROB40 TEMPO 0715/0717 30015G25KT 6000 SHRA
                       BECMG 0815/0818 23007KT -RA BKN012=
201110071058 TAF EGLL 071058Z 0712/0818 30012KT 9999 FEW025 SCT030
                      PROB40 TEMPO 0712/0716 30015G25KT
                      BECMG 0815/0818 23007KT -RA BKN012=
201110070458 TAF EGLL 070458Z 0706/0812 30012KT 9999 SCT035
                      PROB40 TEMPO 0706/0716 30015G25KT=
201110062257 TAF EGLL 062257Z 0700/0806 29012KT 9999 SCT035
                      PROB40 TEMPO 0700/0717 29015G25KT=
201110061654 TAF EGLL 061654Z 0618/0724 28017KT 9999 SCT030
                      TEMPO 0618/0621 28018G30KT 6000 SHRA
                      PROB30 TEMPO 0621/0703 28015G25KT
                      BECMG 0708/0711 32015G25KT
                      BECMG 0716/0719 32012KT=
201110061102 TAF EGLL 061102Z 0612/0718 28017KT 9999 SCT030
                      TEMPO 0612/0621 28018G30KT
                      PROB30 TEMPO 0612/0619 6000 SHRA
                      PROB30 TEMPO 0621/0703 28015G25KT
                      BECMG 0708/0711 32015G25KT=
201110060455 TAF EGLL 060455Z 0606/0712 29015KT 9999 SCT025
                      TEMPO 0608/0702 28018G30KT
                      PROB30 TEMPO 0613/0618 8000 SHRA=
201110052301 TAF EGLL 052301Z 0600/0706 22015KT 9999 BKN012
                      TEMPO 0600/0603 22018G28KT 6000 RA BKN008
                       BECMG 0601/0604 29015KT SCT025
                      TEMPO 0608/0622 28018G30KT
                      PROB30 TEMPO 0613/0618 8000 SHRA=
201110051700 TAF EGLL 051700Z 0518/0624 22015KT 9999 SCT012 BKN030
                      BECMG 0518/0521 BKN012
                      PROB30 TEMPO 0518/0601 22018G28KT
                      TEMPO 0521/0602 6000 RA BKN008
                      BECMG 0601/0604 29015KT SCT025
                      TEMPO 0608/0619 28018G30KT
                      PROB30 TEMPO 0613/0619 8000 SHRA=
201110051059 TAF EGLL 051059Z 0512/0618 22017KT 9999 BKN030
                      PROB30 TEMPO 0512/0524 22020G30KT
                      BECMG 0517/0520 BKN012
                      TEMPO 0519/0601 7000 RA BKN008
                      BECMG 0600/0603 28015KT SCT030
                      TEMPO 0609/0618 27020G32KT=
201110050501 TAF EGLL 050501Z 0506/0612 22007KT 9999 SCT030
                      TEMPO 0506/0509 8000 -RA BKN014
                      BECMG 0507/0510 22017KT
                      TEMPO 0511/0524 23020G30KT
                      BECMG 0517/0520 BKN012
                      TEMPO 0520/0601 7000 RA BKN008
                      BECMG 0600/0603 28015KT SCT030
                      TEMPO 0609/0612 29018G28KT=
201110050430 TAF AMD EGLL 050430Z 0504/0606 23007KT 9999 BKN030
                      TEMPO 0504/0509 5000 RADZ BKN014
                      BECMG 0508/0511 22017KT
                      PROB40 TEMPO 0511/0524 23020G30KT
                      BECMG 0517/0520 BKN012
                      TEMPO 0520/0601 7000 RA BKN008
                      BECMG 0600/0603 28015KT SCT030=
201110042300 TAF AMD EGLL 050430Z 0504/0606 23007KT 9999 BKN030
                      TEMPO 0504/0509 5000 RADZ BKN014
                      BECMG 0508/0511 22017KT
                      PROB40 TEMPO 0511/0524 23020G30KT
                      BECMG 0517/0520 BKN012
                      TEMPO 0520/0601 7000 RA BKN008
                      BECMG 0600/0603 28015KT SCT030=
201110041701 TAF EGLL 041701Z 0418/0524 24012KT 9999 BKN030
                      PROB40 TEMPO 0420/0508 8000 -RA BKN012
                      BECMG 0509/0512 23017G27KT
                      BECMG 0517/0520 BKN014
                      TEMPO 0520/0524 8000 -RA BKN008=
201110041103 TAF EGLL 041103Z 0412/0518 24012KT 9999 SCT012 BKN025
                      PROB30 TEMPO 0412/0415 BKN012
                      PROB40 TEMPO 0421/0508 8000 BKN012
                      TEMPO 0509/0518 23015G25KT
                      TEMPO 0515/0518 8000 -RA BKN012=
201110041102 TAF AMD EGLL 041102Z 0411/0512 24010KT 9999 FEW015 BKN025
                      TEMPO 0411/0415 BKN012
                      PROB40 TEMPO 0412/0416 26015G25KT
                      TEMPO 0422/0506 8000 -DZ BKN013
                      BECMG 0509/0512 23016G26KT=
201110040502 TAF EGLL 040502Z 0406/0512 24010KT 9999 FEW015 BKN025
                      TEMPO 0406/0408 BKN013
                      PROB40 TEMPO 0412/0416 26015G25KT
                      TEMPO 0422/0506 8000 -DZ BKN013
                      BECMG 0509/0512 23016G26KT=
201110032301 TAF EGLL 032301Z 0400/0506 23010KT 9999 FEW012 SCT020
                      TEMPO 0400/0408 8000 BKN012
                      TEMPO 0422/0506 8000 -DZ BKN013=
201110032149 TAF AMD EGLL 032149Z 0321/0424 22010KT 9999 FEW012 SCT020
                      TEMPO 0321/0408 BKN012
                      PROB40 0322/0403 9000
                      PROB40 TEMPO 0422/0424 BKN012=
201110032044 TAF AMD EGLL 032044Z 0320/0424 22010KT 8000 SCT015 BKN025
                      TEMPO 0320/0409 BKN012
                      BECMG 0400/0403 9999
                      PROB40 TEMPO 0422/0424 BKN012=
201110031700 TAF EGLL 031700Z 0318/0424 22010KT CAVOK
                      BECMG 0318/0321 SCT014 BKN025
                      TEMPO 0321/0410 8000 BKN014=
201110031059 TAF EGLL 031059Z 0312/0418 21010KT CAVOK
                      TEMPO 0312/0319 22015G25KT
                      BECMG 0318/0321 BKN030
                      TEMPO 0321/0410 8000 BKN012=
201110030500 TAF EGLL 030500Z 0306/0412 21005KT CAVOK
                      PROB30 0306/0308 8000
                      BECMG 0308/0311 22015KT
                      TEMPO 0310/0318 22017G27KT
                      BECMG 0319/0322 27010KT BKN030
                      PROB30 TEMPO 0322/0407 9000 -RADZ BKN013=
201110022257 TAF EGLL 022257Z 0300/0406 21008KT CAVOK
                      PROB40 0303/0309 8000
                      TEMPO 0310/0318 22017G27KT
                      BECMG 0319/0322 27010KT BKN030
                      PROB30 TEMPO 0323/0404 9000 -RADZ BKN013=
201110021702 TAF EGLL 021702Z 0218/0324 20008KT CAVOK
                      PROB40 0303/0309 8000
                      BECMG 0318/0321 27010KT BKN030=
201110021055 TAF EGLL 021055Z 0212/0318 20005KT CAVOK
                      PROB40 0303/0309 8000=
201110020504 TAF EGLL 020504Z 0206/0312 20005KT 8000 NSC
                      BECMG 0206/0209 CAVOK
                      PROB40 0303/0309 8000=
201110012307 TAF EGLL 012307Z 0200/0306 18003KT CAVOK
                      BECMG 0200/0203 7000
                      PROB30 0204/0207 4000 HZ
                      BECMG 0208/0210 CAVOK
                      BECMG 0301/0305 8000=
201110011657 TAF EGLL 011657Z 0118/0224 VRB05KT CAVOK
                      BECMG 0122/0201 7000
                      PROB30 0202/0208 4000 BR
                      BECMG 0208/0211 CAVOK
                      TEMPO 0222/0224 7000=
201110011053 TAF EGLL 011053Z 0112/0218 VRB05KT CAVOK
                      BECMG 0122/0201 7000
                      PROB30 0202/0208 4000 BR
                      BECMG 0208/0211 CAVOK=
201110010455 TAF EGLL 010455Z 0106/0212 VRB05KT CAVOK
                      PROB40 0106/0108 7000
                      BECMG 0121/0124 7000
                      PROB40 0200/0208 2000 BR
                      BECMG 0208/0211 CAVOK=
