##########################################################
# Query made at 01/13/2020 13:58:04 UTC
# Time interval: from 10/01/2018 00:00  to 10/31/2018 23:59  UTC
##########################################################

##########################################################
# EGLL, London / Heathrow Airport (United Kingdom)
# WMO index: 03772
# Latitude 51-29N. Longitude 000-27W. Altitude 24 m.
##########################################################

###################################
#  METAR/SPECI from EGLL
###################################
201810312350 METAR COR EGLL 312350Z AUTO 09007KT 9999 -RA SCT019 BKN031
                        10/08 Q1004 TEMPO BKN014=
201810312320 METAR COR EGLL 312320Z AUTO 09006KT 9999 -RA SCT018 BKN032
                        09/08 Q1005 TEMPO BKN014=
201810312250 METAR COR EGLL 312250Z AUTO 09006KT 9999 -RA SCT017 09/07
                        Q1005 TEMPO BKN014=
201810312220 METAR COR EGLL 312220Z AUTO 09007KT 9999 -RA BKN020 10/07
                        Q1005 TEMPO BKN014=
201810312150 METAR COR EGLL 312150Z AUTO 09008KT 9999 BKN022 09/07 Q1006
                        TEMPO -RA BKN014=
201810312120 METAR COR EGLL 312120Z AUTO 10006KT 9999 FEW023 09/07 Q1006
                        TEMPO -RA BKN014=
201810312050 METAR COR EGLL 312050Z AUTO 09007KT 9999 -RA FEW023 09/07
                        Q1006 NOSIG=
201810312020 METAR COR EGLL 312020Z AUTO 09007KT 9999 -RA NCD 09/06 Q1006
                        NOSIG=
201810311950 METAR COR EGLL 311950Z AUTO 08006KT 9999 NCD 10/06 Q1006
                        NOSIG=
201810311920 METAR COR EGLL 311920Z AUTO 10007KT 9999 NCD 10/06 Q1007
                        NOSIG=
201810311850 METAR COR EGLL 311850Z AUTO 10007KT 9999 NCD 10/06 Q1007
                        NOSIG=
201810311820 METAR COR EGLL 311820Z AUTO 10005KT 9999 NCD 10/05 Q1007
                        NOSIG=
201810311750 METAR COR EGLL 311750Z AUTO 10006KT 9999 NCD 10/05 Q1007
                        NOSIG=
201810311720 METAR COR EGLL 311720Z AUTO 10006KT 9999 NCD 11/05 Q1007
                        NOSIG=
201810311650 METAR COR EGLL 311650Z AUTO 13007KT 9999 NCD 11/05 Q1007
                        NOSIG=
201810311620 METAR COR EGLL 311620Z AUTO 12009KT 9999 NCD 11/06 Q1006
                        NOSIG=
201810311550 METAR COR EGLL 311550Z AUTO 12010KT 9999 FEW029 12/06 Q1006
                        NOSIG=
201810311520 METAR COR EGLL 311520Z AUTO 12010KT 9999 NCD 12/06 Q1006
                        NOSIG=
201810311450 METAR EGLL 311450Z AUTO 12010KT 9999 FEW035 13/06 Q1006=
201810311420 METAR COR EGLL 311420Z AUTO 15009KT 9999 SCT036 12/05 Q1007
                        NOSIG=
201810311350 METAR COR EGLL 311350Z AUTO 16009KT 9999 BKN038 13/05 Q1007
                        NOSIG=
201810311320 METAR COR EGLL 311320Z AUTO 18013KT 9999 FEW037 12/05 Q1007
                        NOSIG=
201810311250 METAR COR EGLL 311250Z AUTO 17013KT 9999 NCD 13/05 Q1007
                        NOSIG=
201810311220 METAR COR EGLL 311220Z AUTO 16012KT 9999 NCD 13/04 Q1007
                        NOSIG=
201810311150 METAR COR EGLL 311150Z AUTO 15013KT 9999 NCD 13/05 Q1007
                        NOSIG=
201810311120 METAR COR EGLL 311120Z AUTO 16013KT 9999 NCD 12/06 Q1008
                        NOSIG=
201810311050 METAR COR EGLL 311050Z AUTO 14008KT 9999 NCD 11/05 Q1008
                        NOSIG=
201810311020 METAR COR EGLL 311020Z AUTO 12004KT 080V150 9999 NCD 10/05
                        Q1008 NOSIG=
201810310950 METAR COR EGLL 310950Z AUTO 09004KT 040V130 9999 NCD 09/04
                        Q1008 NOSIG=
201810310920 METAR COR EGLL 310920Z AUTO 06003KT 9999 NCD 06/03 Q1008
                        NOSIG=
201810310850 METAR COR EGLL 310850Z AUTO 06003KT 9999 NCD 04/01 Q1008
                        NOSIG=
201810310820 METAR COR EGLL 310820Z AUTO 03002KT 9999 BKN038 BKN049 02/00
                        Q1008 NOSIG=
201810310750 METAR COR EGLL 310750Z AUTO VRB01KT 9999 FEW041 01/M00 Q1007
                        NOSIG=
201810310720 METAR COR EGLL 310720Z AUTO 07003KT 9999 NCD 00/M01 Q1007
                        NOSIG=
201810310650 METAR COR EGLL 310650Z AUTO 06002KT 9999 FEW045 01/M01 Q1007
                        NOSIG=
201810310620 METAR COR EGLL 310620Z AUTO 09002KT 9999 NCD 01/M01 Q1007
                        NOSIG=
201810310550 METAR COR EGLL 310550Z AUTO 05002KT 9999 NCD 01/M00 Q1007
                        NOSIG=
201810310520 METAR COR EGLL 310520Z AUTO 10001KT 9999 NCD 01/M00 Q1007
                        NOSIG=
201810310450 METAR COR EGLL 310450Z AUTO 00000KT 9999 NCD 01/M00 Q1006
                        NOSIG=
201810310420 METAR COR EGLL 310420Z AUTO 19003KT 9999 NCD 01/M01 Q1006
                        NOSIG=
201810310350 METAR COR EGLL 310350Z AUTO 16001KT 9999 NCD 01/M01 Q1006
                        NOSIG=
201810310320 METAR COR EGLL 310320Z AUTO 26002KT 9999 NCD 01/00 Q1006
                        NOSIG=
201810310250 METAR COR EGLL 310250Z AUTO VRB02KT 9999 NCD 01/00 Q1006
                        NOSIG=
201810310220 METAR COR EGLL 310220Z AUTO 17001KT 9999 NCD 02/00 Q1005
                        NOSIG=
201810310150 METAR COR EGLL 310150Z AUTO VRB01KT 9999 NCD 02/01 Q1005
                        NOSIG=
201810310120 METAR COR EGLL 310120Z AUTO 18003KT 9999 NCD 02/01 Q1005
                        NOSIG=
201810310050 METAR COR EGLL 310050Z AUTO 17005KT 9999 NCD 02/01 Q1005
                        NOSIG=
201810310020 METAR COR EGLL 310020Z AUTO VRB03KT 9999 NCD 03/01 Q1005
                        NOSIG=
201810302350 METAR COR EGLL 302350Z AUTO 21004KT 9999 FEW040 03/02 Q1004
                        NOSIG=
201810302320 METAR COR EGLL 302320Z AUTO 21004KT 9999 FEW041 03/01 Q1004
                        NOSIG=
201810302250 METAR COR EGLL 302250Z AUTO 24004KT 9999 FEW044 04/01 Q1004
                        NOSIG=
201810302220 METAR COR EGLL 302220Z AUTO 23007KT 9999 NCD 06/02 Q1004
                        NOSIG=
201810302150 METAR COR EGLL 302150Z AUTO 24009KT 9999 FEW041 06/03 Q1003
                        NOSIG=
201810302120 METAR COR EGLL 302120Z AUTO 24008KT 9999 BKN039 07/03 Q1003
                        NOSIG=
201810302050 METAR COR EGLL 302050Z AUTO 25010KT 9999 OVC038 07/03 Q1002
                        NOSIG=
201810302020 METAR COR EGLL 302020Z AUTO 25012KT 9999 OVC036 07/03 Q1002
                        NOSIG=
201810301950 METAR COR EGLL 301950Z AUTO 25011KT 9999 OVC040 07/04 Q1001
                        NOSIG=
201810301920 METAR COR EGLL 301920Z AUTO 27010KT 9999 OVC041 08/04 Q1001
                        NOSIG=
201810301850 METAR COR EGLL 301850Z AUTO 27011KT 9999 BKN040 OVC046 08/04
                        Q1000 NOSIG=
201810301820 METAR COR EGLL 301820Z AUTO 27010KT 9999 OVC038 08/04 Q1000
                        NOSIG=
201810301750 METAR COR EGLL 301750Z AUTO 27010KT 9999 OVC037 08/04 Q1000
                        NOSIG=
201810301720 METAR COR EGLL 301720Z AUTO 28009KT 9999 OVC038 08/04 Q0999
                        NOSIG=
201810301650 METAR COR EGLL 301650Z AUTO 28009KT 9999 OVC036 08/04 Q0998
                        NOSIG=
201810301620 METAR COR EGLL 301620Z AUTO 29010KT 9999 OVC031 09/04 Q0998
                        NOSIG=
201810301550 METAR COR EGLL 301550Z AUTO 29010KT 9999 BKN023 09/04 Q0997
                        NOSIG=
201810301520 METAR COR EGLL 301520Z AUTO 29011KT 9999 BKN028 09/04 Q0997
                        NOSIG=
201810301450 METAR COR EGLL 301450Z AUTO 29012KT 9999 FEW019 BKN026 09/05
                        Q0996 NOSIG=
201810301420 METAR COR EGLL 301420Z AUTO 29011KT 9999 OVC018 08/05 Q0996
                        NOSIG=
201810301350 METAR COR EGLL 301350Z AUTO 28010KT 9999 BKN018 OVC024 08/05
                        Q0996 NOSIG=
201810301320 METAR COR EGLL 301320Z AUTO 29010KT 9999 OVC017 08/05 Q0996
                        NOSIG=
201810301250 METAR COR EGLL 301250Z AUTO 30010KT 270V330 9999 BKN015 OVC020
                        08/05 Q0996 NOSIG=
201810301220 METAR COR EGLL 301220Z AUTO 29011KT 9999 OVC014 08/05 Q0995
                        BECMG BKN015=
201810301150 METAR COR EGLL 301150Z AUTO 30009KT 9999 OVC012 07/04 Q0995
                        NOSIG=
201810301120 METAR COR EGLL 301120Z AUTO 30010KT 9999 OVC011 06/04 Q0995
                        NOSIG=
201810301050 METAR COR EGLL 301050Z AUTO 30009KT 9999 OVC010 06/04 Q0995
                        TEMPO BKN009=
201810301020 METAR COR EGLL 301020Z AUTO 29010KT 9999 BKN010 OVC015 06/04
                        Q0995 BECMG SCT010 BKN030=
201810300950 METAR COR EGLL 300950Z AUTO 30009KT 9999 BKN011 06/04 Q0994
                        BECMG SCT010 BKN030=
201810300920 METAR COR EGLL 300920Z AUTO 30009KT 9999 BKN011 BKN026 06/04
                        Q0994 BECMG SCT010 BKN030=
201810300850 METAR COR EGLL 300850Z AUTO 32009KT 9999 BKN010 06/04 Q0994
                        BECMG SCT010 BKN030=
201810300820 METAR COR EGLL 300820Z AUTO 32008KT 290V010 9999 BKN010 OVC043
                        05/04 Q0994 NOSIG=
201810300750 METAR COR EGLL 300750Z AUTO 31007KT 9999 BKN011 BKN031 05/03
                        Q0994 NOSIG=
201810300720 METAR COR EGLL 300720Z AUTO 31007KT 280V350 9999 BKN010 05/03
                        Q0994 TEMPO 4000 RADZ=
201810300650 METAR COR EGLL 300650Z AUTO 32007KT 290V360 9999 BKN010 BKN047
                        05/03 Q0994 TEMPO 4000 RADZ=
201810300620 METAR COR EGLL 300620Z AUTO 32008KT 9999 FEW011 SCT025 BKN033
                        05/03 Q0994 TEMPO BKN012=
201810300550 METAR COR EGLL 300550Z AUTO 32007KT 290V350 3800 -RADZ FEW012
                        SCT019 BKN026 05/03 Q0994 TEMPO BKN012=
201810300520 METAR COR EGLL 300520Z AUTO 32007KT 280V360 9999 SCT012 BKN040
                        05/03 Q0995 TEMPO BKN012=
201810300450 METAR COR EGLL 300450Z AUTO 33007KT 300V020 9999 BKN042 05/03
                        Q0995 NOSIG=
201810300420 METAR COR EGLL 300420Z AUTO 33006KT 290V010 9999 BKN040 05/02
                        Q0995 NOSIG=
201810300350 METAR COR EGLL 300350Z AUTO 33006KT 290V020 9999 SCT028 OVC044
                        05/02 Q0995 NOSIG=
201810300320 METAR COR EGLL 300320Z AUTO 34006KT 290V020 9999 OVC044 05/02
                        Q0995 NOSIG=
201810300250 METAR COR EGLL 300250Z AUTO 34006KT 300V030 9999 OVC045 05/02
                        Q0996 NOSIG=
201810300220 METAR COR EGLL 300220Z AUTO 35006KT 300V040 9999 OVC045 05/02
                        Q0996 NOSIG=
201810300150 METAR COR EGLL 300150Z AUTO 34006KT 300V030 9999 OVC045 05/01
                        Q0996 NOSIG=
201810300120 METAR COR EGLL 300120Z AUTO 34006KT 280V030 9999 OVC044 05/01
                        Q0997 NOSIG=
201810300050 METAR COR EGLL 300050Z AUTO 34006KT 300V020 9999 SCT026 SCT031
                        BKN037 05/02 Q0997 NOSIG=
201810300020 METAR COR EGLL 300020Z AUTO 36006KT 320V030 9999 OVC035 05/01
                        Q0998 NOSIG=
201810292350 METAR COR EGLL 292350Z AUTO 36007KT 320V020 9999 BKN040 BKN048
                        05/01 Q0998 NOSIG=
201810292320 METAR COR EGLL 292320Z AUTO 36007KT 320V030 9999 NCD 04/01
                        Q0998 NOSIG=
201810292250 METAR COR EGLL 292250Z AUTO 36007KT 9999 NCD 04/01 Q0998
                        NOSIG=
201810292220 METAR COR EGLL 292220Z AUTO 36006KT 9999 NCD 04/01 Q0999
                        NOSIG=
201810292150 METAR COR EGLL 292150Z AUTO 01006KT 9999 NCD 04/01 Q1000
                        NOSIG=
201810292120 METAR COR EGLL 292120Z AUTO 01008KT 340V050 9999 NCD 04/01
                        Q1000 NOSIG=
201810292050 METAR COR EGLL 292050Z AUTO 36007KT 330V040 9999 NCD 05/01
                        Q1000 NOSIG=
201810292020 METAR COR EGLL 292020Z AUTO 36007KT 330V040 9999 NCD 05/01
                        Q1000 NOSIG=
201810291950 METAR COR EGLL 291950Z AUTO 01006KT 330V050 9999 NCD 05/01
                        Q1001 NOSIG=
201810291920 METAR COR EGLL 291920Z AUTO 36007KT 9999 NCD 05/01 Q1001
                        NOSIG=
201810291850 METAR COR EGLL 291850Z AUTO 02005KT 360V060 9999 NCD 06/01
                        Q1002 NOSIG=
201810291820 METAR COR EGLL 291820Z AUTO 03004KT 330V060 9999 NCD 06/02
                        Q1002 NOSIG=
201810291750 METAR COR EGLL 291750Z AUTO 36007KT 340V050 9999 NCD 07/01
                        Q1002 NOSIG=
201810291720 METAR COR EGLL 291720Z AUTO 36007KT 330V030 9999 NCD 07/01
                        Q1002 NOSIG=
201810291650 METAR COR EGLL 291650Z AUTO 01006KT 330V050 9999 BKN045 07/01
                        Q1003 NOSIG=
201810291620 METAR COR EGLL 291620Z AUTO 02006KT 340V070 9999 FEW047 08/01
                        Q1004 NOSIG=
201810291550 METAR COR EGLL 291550Z AUTO 01006KT 320V050 9999 BKN047 08/01
                        Q1004 NOSIG=
201810291520 METAR COR EGLL 291520Z AUTO 02007KT 340V060 9999 SCT037 BKN044
                        08/01 Q1004 NOSIG=
201810291450 METAR COR EGLL 291450Z AUTO 03007KT 330V080 9999 SCT037 09/01
                        Q1005 NOSIG=
201810291420 METAR COR EGLL 291420Z AUTO 03007KT 340V060 9999 FEW035 SCT049
                        09/01 Q1005 NOSIG=
201810291350 METAR COR EGLL 291350Z AUTO 03006KT 350V050 9999 SCT033 09/01
                        Q1005 NOSIG=
201810291320 METAR COR EGLL 291320Z AUTO 04009KT 010V070 9999 SCT036 09/01
                        Q1005 NOSIG=
201810291250 METAR COR EGLL 291250Z AUTO 04009KT 350V070 9999 SCT033 09/01
                        Q1006 NOSIG=
201810291220 METAR COR EGLL 291220Z AUTO 03008KT 340V090 9999 FEW032 09/01
                        Q1007 NOSIG=
201810291150 METAR COR EGLL 291150Z AUTO 04007KT 340V080 9999 NCD 09/01
                        Q1007 NOSIG=
201810291120 METAR COR EGLL 291120Z AUTO 03008KT 320V070 9999 NCD 08/02
                        Q1008 NOSIG=
201810291050 METAR COR EGLL 291050Z AUTO 03007KT 340V060 9999 NCD 08/01
                        Q1008 NOSIG=
201810291020 METAR COR EGLL 291020Z AUTO 02006KT 340V050 9999 NCD 07/02
                        Q1009 NOSIG=
201810290950 METAR COR EGLL 290950Z AUTO 04007KT 360V060 9999 NCD 06/02
                        Q1009 NOSIG=
201810290920 METAR COR EGLL 290920Z AUTO 02007KT 330V060 9999 NCD 05/02
                        Q1010 NOSIG=
201810290850 METAR COR EGLL 290850Z AUTO 03006KT 350V050 9999 NCD 04/01
                        Q1010 NOSIG=
201810290820 METAR COR EGLL 290820Z AUTO 02006KT 340V050 9999 NCD 03/01
                        Q1011 NOSIG=
201810290750 METAR COR EGLL 290750Z AUTO 02006KT 340V060 9999 NCD 03/01
                        Q1011 NOSIG=
201810290720 METAR COR EGLL 290720Z AUTO 01007KT 9999 NCD 02/01 Q1011
                        NOSIG=
201810290650 METAR COR EGLL 290650Z AUTO 01004KT 9999 NCD 02/01 Q1011
                        NOSIG=
201810290620 METAR COR EGLL 290620Z AUTO 03004KT 340V060 9999 NCD 02/01
                        Q1011 NOSIG=
201810290550 METAR COR EGLL 290550Z AUTO 02005KT 350V050 9999 NCD 02/01
                        Q1012 NOSIG=
201810290520 METAR COR EGLL 290520Z AUTO 01007KT 340V060 9999 NCD 02/01
                        Q1012 NOSIG=
201810290450 METAR COR EGLL 290450Z AUTO 01006KT 330V050 9999 NCD 02/01
                        Q1013 NOSIG=
201810290420 METAR COR EGLL 290420Z AUTO VRB03KT 9999 NCD 03/01 Q1013
                        NOSIG=
201810290350 METAR COR EGLL 290350Z AUTO VRB02KT 9999 NCD 02/01 Q1013
                        NOSIG=
201810290320 METAR COR EGLL 290320Z AUTO VRB03KT 9999 NCD 02/01 Q1014
                        NOSIG=
201810290250 METAR COR EGLL 290250Z AUTO 01004KT 340V060 9999 NCD 02/01
                        Q1014 NOSIG=
201810290220 METAR COR EGLL 290220Z AUTO 36005KT 9999 NCD 03/01 Q1014
                        NOSIG=
201810290150 METAR COR EGLL 290150Z AUTO 01005KT 340V040 9999 NCD 03/01
                        Q1014 NOSIG=
201810290120 METAR COR EGLL 290120Z AUTO 36005KT 330V040 9999 BKN031 03/02
                        Q1015 NOSIG=
201810290050 METAR COR EGLL 290050Z AUTO 01004KT 340V050 9999 SCT020 BKN033
                        03/02 Q1015 NOSIG=
201810290020 METAR COR EGLL 290020Z AUTO VRB03KT 9999 BKN019 03/01 Q1016
                        NOSIG=
201810282350 METAR COR EGLL 282350Z AUTO 02004KT 350V050 9999 FEW020 03/01
                        Q1016 NOSIG=
201810282320 METAR COR EGLL 282320Z AUTO 01005KT 340V060 9999 NCD 03/02
                        Q1016 NOSIG=
201810282250 METAR COR EGLL 282250Z AUTO 02005KT 350V050 9999 NCD 03/02
                        Q1016 NOSIG=
201810282220 METAR COR EGLL 282220Z AUTO 02005KT 330V060 9999 NCD 04/02
                        Q1016 NOSIG=
201810282150 METAR COR EGLL 282150Z AUTO 01005KT 340V060 9999 NCD 04/02
                        Q1017 NOSIG=
201810282120 METAR COR EGLL 282120Z AUTO 01006KT 340V060 9999 NCD 04/02
                        Q1017 NOSIG=
201810282050 METAR COR EGLL 282050Z AUTO 02006KT 340V060 9999 NCD 05/02
                        Q1017 NOSIG=
201810282020 METAR COR EGLL 282020Z AUTO 36007KT 330V040 9999 NCD 05/02
                        Q1017 NOSIG=
201810281950 METAR COR EGLL 281950Z AUTO 01006KT 340V050 9999 NCD 05/02
                        Q1017 NOSIG=
201810281920 METAR COR EGLL 281920Z AUTO 02005KT 350V070 9999 NCD 06/03
                        Q1018 NOSIG=
201810281850 METAR COR EGLL 281850Z AUTO 01006KT 330V040 9999 NCD 06/03
                        Q1018 NOSIG=
201810281820 METAR COR EGLL 281820Z AUTO 02006KT 330V060 9999 FEW041 07/02
                        Q1018 NOSIG=
201810281750 METAR COR EGLL 281750Z AUTO 01007KT 340V050 9999 NCD 07/02
                        Q1018 NOSIG=
201810281720 METAR COR EGLL 281720Z AUTO 02006KT 340V060 9999 NCD 08/02
                        Q1018 NOSIG=
201810281650 METAR COR EGLL 281650Z AUTO 02007KT 340V060 9999 NCD 08/02
                        Q1018 NOSIG=
201810281620 METAR COR EGLL 281620Z AUTO 01008KT 350V050 9999 NCD 09/02
                        Q1018 NOSIG=
201810281550 METAR COR EGLL 281550Z AUTO 03009KT 340V070 9999 FEW049 09/02
                        Q1018 NOSIG=
201810281520 METAR COR EGLL 281520Z AUTO 02007KT 330V060 9999 NCD 10/M01
                        Q1018 NOSIG=
201810281450 METAR COR EGLL 281450Z AUTO 02009KT 350V070 9999 SCT048 10/M00
                        Q1018 NOSIG=
201810281420 METAR COR EGLL 281420Z AUTO 03009KT 340V070 9999 SCT044///
                        //////TCU 10/01 Q1018 NOSIG=
201810281350 METAR COR EGLL 281350Z AUTO 04010KT 350V070 9999 SCT039 10/02
                        Q1018 TEMPO SHRA=
201810281320 METAR COR EGLL 281320Z AUTO 04010KT 340V070 9999 FEW040 10/02
                        Q1019 NOSIG=
201810281250 METAR COR EGLL 281250Z AUTO 02010KT 340V060 9999 BKN033 09/03
                        Q1019 NOSIG=
201810281220 METAR COR EGLL 281220Z AUTO 04008KT 360V080 9999 BKN029 BKN041
                        09/04 Q1019 NOSIG=
201810281150 METAR COR EGLL 281150Z AUTO 06009KT 010V080 9999 SCT026 BKN031
                        BKN040 09/04 Q1019 NOSIG=
201810281120 METAR COR EGLL 281120Z AUTO 06010KT 9999 FEW025 SCT031 08/04
                        Q1019 NOSIG=
201810281050 METAR COR EGLL 281050Z AUTO 05009KT 360V080 9999 SCT024 08/04
                        Q1019 NOSIG=
201810281020 METAR COR EGLL 281020Z AUTO 04007KT 350V080 9999 SCT034///
                        SCT048/// //////TCU 07/04 Q1020 NOSIG=
201810280950 METAR COR EGLL 280950Z AUTO 04008KT 010V080 9999 FEW018///
                        SCT037/// //////TCU 07/04 Q1020 NOSIG=
201810280920 METAR COR EGLL 280920Z AUTO 04006KT 9999 -RA SCT016/// BKN024///
                        BKN033/// //////CB 06/04 Q1020 TEMPO
                        SHRA=
201810280850 METAR COR EGLL 280850Z AUTO 05006KT 360V080 9999 -RA BKN020///
                        BKN026/// //////TCU 06/04 Q1020 TEMPO
                        SHRA=
201810280820 METAR COR EGLL 280820Z AUTO 04007KT 9999 -RA FEW021/// SCT030///
                        BKN039/// //////CB 06/04 Q1019 TEMPO
                        SHRA=
201810280750 METAR COR EGLL 280750Z AUTO 04009KT 360V070 9999 -RA FEW036///
                        SCT044/// //////CB 06/03 Q1019 NOSIG=
201810280720 METAR COR EGLL 280720Z AUTO 03009KT 350V080 9999 -RA NCD
                        06/04 Q1018 TEMPO SHRA=
201810280650 METAR COR EGLL 280650Z AUTO 03008KT 360V060 9999 FEW044///
                        //////TCU 06/04 Q1018 TEMPO SHRA=
201810280620 METAR COR EGLL 280620Z AUTO 03007KT 350V070 9999 FEW014 SCT029
                        05/03 Q1018 TEMPO SHRA BKN012=
201810280550 METAR COR EGLL 280550Z AUTO 03006KT 350V050 9999 FEW014 05/03
                        Q1018 TEMPO SHRA BKN012=
201810280520 METAR COR EGLL 280520Z AUTO 01007KT 330V040 9999 SCT039 05/03
                        Q1017 TEMPO SHRA=
201810280450 METAR COR EGLL 280450Z AUTO 02006KT 340V050 9999 NCD 04/03
                        Q1017 NOSIG=
201810280420 METAR COR EGLL 280420Z AUTO 04006KT 360V060 9999 NCD 05/03
                        Q1017 NOSIG=
201810280350 METAR COR EGLL 280350Z AUTO 03007KT 350V070 9999 FEW042 05/03
                        Q1017 NOSIG=
201810280320 METAR COR EGLL 280320Z AUTO 01008KT 340V060 9999 NCD 04/03
                        Q1017 NOSIG=
201810280250 METAR COR EGLL 280250Z AUTO 01008KT 9999 NCD 04/02 Q1017
                        NOSIG=
201810280220 METAR COR EGLL 280220Z AUTO 01007KT 330V040 9999 NCD 04/02
                        Q1017 NOSIG=
201810280150 METAR COR EGLL 280150Z AUTO 36008KT 330V030 9999 NCD 04/02
                        Q1017 NOSIG=
201810280120 METAR COR EGLL 280120Z AUTO 36008KT 9999 FEW044 04/02 Q1017
                        NOSIG=
201810280050 METAR COR EGLL 280050Z AUTO 36008KT 9999 FEW040 04/02 Q1017
                        NOSIG=
201810280020 METAR EGLL 280020Z AUTO 36008KT 330V030 9999 NCD 04/02 Q1017=
201810272350 METAR COR EGLL 272350Z AUTO 36009KT 9999 NCD 05/03 Q1016
                        TEMPO BKN014=
201810272320 METAR COR EGLL 272320Z AUTO 36009KT 320V020 9999 SCT014 05/03
                        Q1016 TEMPO BKN014=
201810272250 METAR COR EGLL 272250Z AUTO 36009KT 330V040 9999 BKN013 05/03
                        Q1016 TEMPO SCT013=
201810272220 METAR COR EGLL 272220Z AUTO 36007KT 330V030 9999 SCT016 BKN033
                        BKN045 05/03 Q1016 TEMPO BKN012=
201810272150 METAR COR EGLL 272150Z AUTO 36008KT 320V040 9999 SCT041 05/03
                        Q1016 NOSIG=
201810272120 METAR COR EGLL 272120Z AUTO 36008KT 9999 FEW015 05/03 Q1016
                        NOSIG=
201810272050 METAR COR EGLL 272050Z AUTO 36008KT 9999 -RA FEW032/// BKN047///
                        //////TCU 05/03 Q1016 NOSIG=
201810272020 METAR COR EGLL 272020Z AUTO 36009KT 9999 -RA FEW013/// BKN029///
                        BKN041/// //////TCU 04/03 Q1016 TEMPO
                        RA=
201810271950 METAR COR EGLL 271950Z AUTO 36008KT 320V030 9999 FEW013 BKN034
                        04/02 Q1016 TEMPO RA BKN012=
201810271920 METAR COR EGLL 271920Z AUTO 36008KT 9999 SCT012/// BKN036///
                        BKN044/// //////TCU 04/02 Q1016 TEMPO
                        RA BKN012=
201810271850 METAR COR EGLL 271850Z AUTO 36009KT 330V030 9999 BKN012///
                        OVC038/// //////TCU 04/02 Q1015 TEMPO
                        SCT012=
201810271820 METAR COR EGLL 271820Z AUTO 01011KT 340V040 9999 BKN013///
                        OVC033/// //////CB 04/02 Q1015 TEMPO
                        RA=
201810271750 METAR COR EGLL 271750Z AUTO 01010KT 330V060 9999 BKN014 OVC023
                        05/02 Q1015 TEMPO RA=
201810271720 METAR COR EGLL 271720Z AUTO 36008KT 330V030 9999 BKN014 OVC022
                        05/02 Q1015 TEMPO RA=
201810271650 METAR COR EGLL 271650Z AUTO 01009KT 340V040 9999 OVC012 05/03
                        Q1015 TEMPO RA=
201810271620 METAR COR EGLL 271620Z AUTO 36007KT 310V030 9999 SCT014 BKN018
                        OVC031 05/03 Q1014 TEMPO -RA BKN014=
201810271550 METAR COR EGLL 271550Z AUTO 01010KT 330V050 9999 -RA BKN016
                        OVC032 06/03 Q1014 TEMPO RA BKN012=
201810271520 METAR COR EGLL 271520Z AUTO 36008KT 9999 SCT022 OVC028 06/02
                        Q1014 TEMPO RA BKN014=
201810271450 METAR COR EGLL 271450Z AUTO 35007KT 310V020 9999 FEW022 SCT027
                        OVC033 07/02 Q1013 TEMPO RA BKN014=
201810271420 METAR COR EGLL 271420Z AUTO 35007KT 300V030 9999 BKN026 OVC037
                        07/02 Q1013 TEMPO RA BKN014=
201810271350 METAR COR EGLL 271350Z AUTO 36008KT 320V040 9999 SCT025 OVC030
                        07/01 Q1014 TEMPO RA BKN014=
201810271320 METAR COR EGLL 271320Z AUTO 36008KT 310V030 9999 BKN027 OVC038
                        07/01 Q1014 TEMPO SHRA BKN014=
201810271250 METAR COR EGLL 271250Z AUTO 35008KT 320V030 9999 OVC028 07/01
                        Q1014 NOSIG=
201810271220 METAR COR EGLL 271220Z AUTO 34006KT 280V030 9999 OVC026 07/01
                        Q1014 NOSIG=
201810271150 METAR COR EGLL 271150Z AUTO 34007KT 300V020 9999 BKN025 07/01
                        Q1014 NOSIG=
201810271120 METAR COR EGLL 271120Z AUTO 35008KT 300V040 9999 FEW025 SCT031
                        07/01 Q1014 NOSIG=
201810271050 METAR COR EGLL 271050Z AUTO 33008KT 290V020 9999 NCD 06/00
                        Q1014 NOSIG=
201810271020 METAR COR EGLL 271020Z AUTO 36009KT 320V030 9999 NCD 06/00
                        Q1014 NOSIG=
201810270950 METAR COR EGLL 270950Z AUTO 35008KT 310V030 9999 NCD 06/00
                        Q1014 NOSIG=
201810270920 METAR COR EGLL 270920Z AUTO 36008KT 310V040 9999 NCD 05/M00
                        Q1014 NOSIG=
201810270850 METAR COR EGLL 270850Z AUTO 34006KT 300V020 9999 NCD 04/M01
                        Q1014 NOSIG=
201810270820 METAR COR EGLL 270820Z AUTO 33006KT 300V360 9999 NCD 03/M01
                        Q1014 NOSIG=
201810270750 METAR COR EGLL 270750Z AUTO 32006KT 290V360 9999 NCD 03/M01
                        Q1014 NOSIG=
201810270720 METAR COR EGLL 270720Z AUTO 31005KT 280V360 9999 NCD 02/M01
                        Q1013 NOSIG=
201810270650 METAR COR EGLL 270650Z AUTO 31005KT 270V350 9999 NCD 02/M01
                        Q1013 NOSIG=
201810270620 METAR COR EGLL 270620Z AUTO 33004KT 290V010 9999 NCD 02/M01
                        Q1013 NOSIG=
201810270550 METAR COR EGLL 270550Z AUTO 32006KT 9999 NCD 03/M01 Q1013
                        NOSIG=
201810270520 METAR COR EGLL 270520Z AUTO 32005KT 290V040 9999 NCD 03/M01
                        Q1013 NOSIG=
201810270450 METAR COR EGLL 270450Z AUTO 31007KT 9999 NCD 03/M00 Q1013
                        NOSIG=
201810270420 METAR COR EGLL 270420Z AUTO 31006KT 270V340 9999 NCD 03/M00
                        Q1013 NOSIG=
201810270350 METAR COR EGLL 270350Z AUTO 31004KT 280V010 9999 NCD 03/M00
                        Q1013 NOSIG=
201810270320 METAR COR EGLL 270320Z AUTO 30005KT 9999 NCD 03/00 Q1013
                        NOSIG=
201810270250 METAR COR EGLL 270250Z AUTO 31005KT 9999 NCD 03/00 Q1014
                        NOSIG=
201810270220 METAR COR EGLL 270220Z AUTO 31005KT 9999 NCD 04/00 Q1014
                        NOSIG=
201810270150 METAR COR EGLL 270150Z AUTO 29006KT 9999 NCD 04/00 Q1014
                        NOSIG=
201810270120 METAR COR EGLL 270120Z AUTO 30006KT 9999 NCD 04/01 Q1014
                        NOSIG=
201810270050 METAR COR EGLL 270050Z AUTO 30005KT 9999 NCD 04/01 Q1013
                        NOSIG=
201810270020 METAR COR EGLL 270020Z AUTO 30006KT 9999 NCD 04/01 Q1013
                        NOSIG=
201810262350 METAR COR EGLL 262350Z AUTO 30006KT 9999 NCD 04/01 Q1013
                        NOSIG=
201810262320 METAR COR EGLL 262320Z AUTO 30006KT 9999 NCD 04/02 Q1013
                        NOSIG=
201810262250 METAR COR EGLL 262250Z AUTO 30007KT 9999 NCD 05/02 Q1013
                        NOSIG=
201810262220 METAR COR EGLL 262220Z AUTO 30005KT 9999 NCD 05/02 Q1013
                        NOSIG=
201810262150 METAR COR EGLL 262150Z AUTO 30006KT 9999 NCD 05/02 Q1013
                        NOSIG=
201810262120 METAR COR EGLL 262120Z AUTO 29007KT 9999 NCD 05/02 Q1013
                        NOSIG=
201810262050 METAR COR EGLL 262050Z AUTO 29007KT 9999 NCD 06/03 Q1013
                        NOSIG=
201810262020 METAR COR EGLL 262020Z AUTO 29007KT 9999 NCD 06/03 Q1013
                        NOSIG=
201810261950 METAR COR EGLL 261950Z AUTO 29006KT 9999 NCD 06/03 Q1013
                        NOSIG=
201810261920 METAR COR EGLL 261920Z AUTO 29007KT 9999 NCD 06/03 Q1013
                        NOSIG=
201810261850 METAR COR EGLL 261850Z AUTO 28007KT 9999 NCD 06/03 Q1012
                        NOSIG=
201810261820 METAR COR EGLL 261820Z AUTO 30005KT 9999 NCD 07/03 Q1012
                        NOSIG=
201810261750 METAR EGLL 261750Z AUTO 29006KT 9999 NCD 07/03 Q1012=
201810261720 METAR COR EGLL 261720Z AUTO 30007KT 9999 NCD 07/03 Q1012
                        NOSIG=
201810261650 METAR COR EGLL 261650Z AUTO 31009KT 9999 NCD 08/02 Q1011
                        NOSIG=
201810261620 METAR COR EGLL 261620Z AUTO 30009KT 9999 NCD 09/02 Q1011
                        NOSIG=
201810261550 METAR COR EGLL 261550Z AUTO 30009KT 9999 NCD 09/02 Q1011
                        NOSIG=
201810261520 METAR COR EGLL 261520Z AUTO 29010KT 9999 NCD 09/03 Q1011
                        NOSIG=
201810261450 METAR COR EGLL 261450Z AUTO 30011KT 9999 FEW036 SCT045 10/03
                        Q1010 TEMPO SHRA=
201810261420 METAR COR EGLL 261420Z AUTO 31009KT 280V350 9999 SCT033 SCT048
                        10/03 Q1010 TEMPO SHRA=
201810261350 METAR COR EGLL 261350Z AUTO 29011KT 9999 FEW041 11/04 Q1010
                        TEMPO SHRA=
201810261320 METAR COR EGLL 261320Z AUTO 30011KT 9999 //////CB 09/04 Q1010
                        TEMPO SHRA=
201810261250 METAR COR EGLL 261250Z AUTO 32008KT 9999 -RA SCT031/// SCT047///
                        //////CB 09/04 Q1010 TEMPO SHRA=
201810261220 METAR COR EGLL 261220Z AUTO 30011KT 9999 //////TCU 11/04
                        Q1010 TEMPO SHRA=
201810261150 METAR COR EGLL 261150Z AUTO 31011KT 9999 FEW036 11/04 Q1010
                        TEMPO SHRA=
201810261120 METAR COR EGLL 261120Z AUTO 30011KT 280V350 9999 SCT028 SCT035
                        11/05 Q1011 TEMPO SHRA=
201810261050 METAR COR EGLL 261050Z AUTO 29010KT 9999 FEW025 10/06 Q1011
                        NOSIG=
201810261020 METAR COR EGLL 261020Z AUTO 29008KT 9999 NCD 10/06 Q1011
                        NOSIG=
201810260950 METAR COR EGLL 260950Z AUTO 29008KT 9999 //////CB 09/07 Q1011
                        NOSIG=
201810260920 METAR COR EGLL 260920Z AUTO 29007KT 9999 -RA BKN036/// //////TCU
                        09/07 Q1011 NOSIG=
201810260850 METAR COR EGLL 260850Z AUTO 31005KT 9999 FEW009/// BKN027///
                        BKN037/// //////TCU 09/07 Q1011 RERA
                        REDZ NOSIG=
201810260820 METAR COR EGLL 260820Z 27008KT 2500 RADZ BKN007 BKN012 09/08
                        Q1011 REDZ BECMG 6000 -RA SCT007
                        BKN015=
201810260750 METAR COR EGLL 260750Z 27011KT 3000 -RADZ BKN016 BKN021 OVC033
                        09/08 Q1011 TEMPO BKN014=
201810260720 METAR COR EGLL 260720Z 27010KT 7000 -RA BKN022 BKN031 OVC048
                        10/07 Q1011 TEMPO 3500 -RADZ BKN014=
201810260650 METAR COR EGLL 260650Z AUTO 27011KT 9999 OVC030 10/07 Q1011
                        TEMPO -RA BKN014=
201810260620 METAR COR EGLL 260620Z AUTO 26010KT 9999 BKN037 10/07 Q1011
                        NOSIG=
201810260550 METAR COR EGLL 260550Z AUTO 25010KT 9999 OVC044 10/07 Q1012
                        NOSIG=
201810260520 METAR COR EGLL 260520Z AUTO 26008KT 9999 OVC043 09/06 Q1012
                        NOSIG=
201810260450 METAR COR EGLL 260450Z AUTO 24008KT 9999 OVC041 09/06 Q1012
                        NOSIG=
201810260420 METAR COR EGLL 260420Z AUTO 24008KT 9999 OVC042 09/06 Q1012
                        NOSIG=
201810260350 METAR COR EGLL 260350Z AUTO 25008KT 9999 OVC036 09/06 Q1013
                        NOSIG=
201810260320 METAR COR EGLL 260320Z AUTO 26008KT 9999 OVC033 10/06 Q1013
                        NOSIG=
201810260250 METAR COR EGLL 260250Z AUTO 25007KT 9999 OVC034 09/06 Q1014
                        NOSIG=
201810260220 METAR COR EGLL 260220Z AUTO 26009KT 9999 OVC037 09/06 Q1014
                        NOSIG=
201810260150 METAR COR EGLL 260150Z AUTO 26009KT 9999 BKN035 09/06 Q1014
                        NOSIG=
201810260120 METAR COR EGLL 260120Z AUTO 26008KT 9999 BKN030 09/06 Q1015
                        NOSIG=
201810260050 METAR COR EGLL 260050Z AUTO 27007KT 9999 OVC028 09/07 Q1015
                        NOSIG=
201810260020 METAR COR EGLL 260020Z AUTO 27008KT 9999 OVC028 10/07 Q1016
                        NOSIG=
201810252350 METAR COR EGLL 252350Z AUTO 27007KT 9999 OVC027 10/07 Q1016
                        NOSIG=
201810252320 METAR COR EGLL 252320Z AUTO 27007KT 9999 OVC026 10/07 Q1017
                        NOSIG=
201810252250 METAR COR EGLL 252250Z AUTO 26007KT 9999 OVC025 10/07 Q1017
                        NOSIG=
201810252220 METAR COR EGLL 252220Z AUTO 28005KT 9999 OVC023 10/07 Q1017
                        NOSIG=
201810252150 METAR COR EGLL 252150Z AUTO 30004KT 9999 BKN024 OVC028 10/06
                        Q1018 NOSIG=
201810252120 METAR COR EGLL 252120Z AUTO 30005KT 9999 FEW018 OVC022 10/06
                        Q1018 NOSIG=
201810252050 METAR COR EGLL 252050Z AUTO 29006KT 9999 BKN017 OVC022 10/07
                        Q1018 NOSIG=
201810252020 METAR COR EGLL 252020Z AUTO 30006KT 9999 OVC017 10/07 Q1018
                        NOSIG=
201810251950 METAR COR EGLL 251950Z AUTO 31004KT 270V350 9999 OVC017 11/07
                        Q1019 NOSIG=
201810251920 METAR COR EGLL 251920Z AUTO 30006KT 280V340 9999 OVC017 11/07
                        Q1019 NOSIG=
201810251850 METAR COR EGLL 251850Z AUTO 31005KT 280V340 9999 OVC017 11/07
                        Q1019 NOSIG=
201810251820 METAR COR EGLL 251820Z AUTO 29006KT 9999 OVC019 11/07 Q1019
                        NOSIG=
201810251750 METAR COR EGLL 251750Z AUTO 29004KT 9999 OVC022 11/07 Q1020
                        NOSIG=
201810251720 METAR COR EGLL 251720Z AUTO 30006KT 9999 OVC022 11/07 Q1020
                        NOSIG=
201810251650 METAR COR EGLL 251650Z AUTO 28007KT 9999 OVC023 11/07 Q1020
                        NOSIG=
201810251620 METAR COR EGLL 251620Z AUTO 27010KT 9999 BKN025 11/07 Q1020
                        NOSIG=
201810251550 METAR COR EGLL 251550Z AUTO 26011KT 9999 OVC026 12/07 Q1020
                        NOSIG=
201810251520 METAR COR EGLL 251520Z AUTO 26010KT 9999 OVC026 12/07 Q1020
                        NOSIG=
201810251450 METAR COR EGLL 251450Z AUTO 26008KT 9999 BKN025 13/08 Q1020
                        NOSIG=
201810251420 METAR COR EGLL 251420Z AUTO 27007KT 9999 BKN025 14/08 Q1020
                        NOSIG=
201810251350 METAR COR EGLL 251350Z AUTO 31004KT 270V350 9999 BKN025 14/08
                        Q1021 NOSIG=
201810251320 METAR COR EGLL 251320Z AUTO 29006KT 260V340 9999 SCT024 14/08
                        Q1021 NOSIG=
201810251250 METAR COR EGLL 251250Z AUTO 30006KT 9999 SCT023 14/08 Q1021
                        NOSIG=
201810251220 METAR COR EGLL 251220Z AUTO 31005KT 230V360 9999 FEW023 13/08
                        Q1022 NOSIG=
201810251150 METAR COR EGLL 251150Z AUTO 30005KT 230V360 9999 NCD 13/08
                        Q1022 NOSIG=
201810251120 METAR COR EGLL 251120Z AUTO 28005KT 250V350 9999 NCD 13/08
                        Q1022 NOSIG=
201810251050 METAR COR EGLL 251050Z AUTO 28005KT 250V360 9999 FEW019 12/07
                        Q1023 NOSIG=
201810251020 METAR COR EGLL 251020Z AUTO 28006KT 9999 FEW017 11/07 Q1023
                        NOSIG=
201810250950 METAR COR EGLL 250950Z AUTO 30006KT 270V350 9999 FEW016 11/07
                        Q1023 NOSIG=
201810250920 METAR COR EGLL 250920Z AUTO 28006KT 9999 NCD 10/07 Q1024
                        NOSIG=
201810250850 METAR COR EGLL 250850Z AUTO 28005KT 9999 NCD 10/07 Q1024
                        NOSIG=
201810250820 METAR COR EGLL 250820Z AUTO 29006KT 9999 SCT015 09/07 Q1024
                        NOSIG=
201810250750 METAR COR EGLL 250750Z AUTO 28005KT 9999 BKN015 08/06 Q1024
                        NOSIG=
201810250720 METAR COR EGLL 250720Z AUTO 29004KT 9999 OVC014 08/06 Q1024
                        BECMG BKN015=
201810250650 METAR COR EGLL 250650Z AUTO 30004KT 9999 OVC014 07/06 Q1023
                        TEMPO OVC015=
201810250620 METAR COR EGLL 250620Z AUTO 28004KT 8000 OVC014 06/06 Q1023
                        NOSIG=
201810250550 METAR COR EGLL 250550Z AUTO 28004KT 6000 SCT016 05/05 Q1024
                        TEMPO BKN014=
201810250520 METAR COR EGLL 250520Z AUTO 27005KT 8000 NCD 06/05 Q1024
                        TEMPO BKN014=
201810250450 METAR COR EGLL 250450Z AUTO 25004KT 7000 NCD 06/05 Q1024
                        TEMPO BKN014=
201810250420 METAR COR EGLL 250420Z AUTO 25005KT 6000 NCD 06/06 Q1024
                        TEMPO BKN014=
201810250350 METAR COR EGLL 250350Z AUTO 25004KT 6000 NCD 06/05 Q1024
                        NOSIG=
201810250320 METAR COR EGLL 250320Z AUTO 25004KT 6000 NCD 05/05 Q1024
                        TEMPO BKN014=
201810250250 METAR COR EGLL 250250Z AUTO 27006KT 7000 NCD 06/05 Q1024
                        NOSIG=
201810250220 METAR COR EGLL 250220Z AUTO 28007KT 8000 NCD 06/05 Q1025
                        NOSIG=
201810250150 METAR COR EGLL 250150Z AUTO 27005KT 9999 BKN013 08/06 Q1025
                        NOSIG=
201810250120 METAR COR EGLL 250120Z AUTO 28005KT 260V330 9999 BKN013 07/06
                        Q1025 NOSIG=
201810250050 METAR COR EGLL 250050Z 26005KT 9999 BKN013 07/06 Q1025 NOSIG=
201810250020 METAR COR EGLL 250020Z AUTO 30005KT 9999 SCT014 08/06 Q1026
                        BECMG BKN014=
201810242350 METAR COR EGLL 242350Z AUTO 28003KT 9999 BKN014 08/06 Q1026
                        NOSIG=
201810242320 METAR COR EGLL 242320Z 30002KT 9999 FEW017 08/07 Q1026 NOSIG=
201810242250 METAR COR EGLL 242250Z AUTO 30004KT 9999 NCD 08/07 Q1027
                        NOSIG=
201810242220 METAR COR EGLL 242220Z AUTO 31003KT 9999 NCD 09/07 Q1027
                        NOSIG=
201810242150 METAR COR EGLL 242150Z AUTO VRB03KT 9999 NCD 09/07 Q1026
                        NOSIG=
201810242120 METAR COR EGLL 242120Z AUTO 30003KT 9999 NCD 09/07 Q1026
                        NOSIG=
201810242050 METAR COR EGLL 242050Z AUTO 29003KT 9999 NCD 10/08 Q1026
                        NOSIG=
201810242020 METAR COR EGLL 242020Z AUTO 27004KT 9999 NCD 10/07 Q1026
                        NOSIG=
201810241950 METAR COR EGLL 241950Z AUTO 27005KT 9999 NCD 11/08 Q1026
                        NOSIG=
201810241920 METAR COR EGLL 241920Z AUTO 28004KT 9999 NCD 11/08 Q1027
                        NOSIG=
201810241850 METAR COR EGLL 241850Z AUTO 29004KT 9999 NCD 11/08 Q1027
                        NOSIG=
201810241820 METAR COR EGLL 241820Z AUTO 31003KT 9999 NCD 12/08 Q1027
                        NOSIG=
201810241750 METAR COR EGLL 241750Z AUTO 31003KT 9999 NCD 13/09 Q1027
                        NOSIG=
201810241720 METAR COR EGLL 241720Z AUTO 29003KT 9999 NCD 13/09 Q1027
                        NOSIG=
201810241650 METAR COR EGLL 241650Z AUTO 29005KT 9999 NCD 13/09 Q1027
                        NOSIG=
201810241620 METAR COR EGLL 241620Z AUTO 28007KT 9999 NCD 15/10 Q1027
                        NOSIG=
201810241550 METAR COR EGLL 241550Z AUTO 28010KT 9999 NCD 15/10 Q1027
                        NOSIG=
201810241520 METAR COR EGLL 241520Z AUTO 29007KT 9999 NCD 16/10 Q1027
                        NOSIG=
201810241450 METAR COR EGLL 241450Z AUTO 27007KT 9999 NCD 17/10 Q1027
                        NOSIG=
201810241420 METAR COR EGLL 241420Z AUTO 24009KT 210V270 9999 NCD 17/10
                        Q1028 NOSIG=
201810241350 METAR COR EGLL 241350Z AUTO 28007KT 240V310 9999 NCD 17/10
                        Q1028 NOSIG=
201810241320 METAR COR EGLL 241320Z AUTO 31005KT 260V350 9999 NCD 17/10
                        Q1028 NOSIG=
201810241250 METAR COR EGLL 241250Z AUTO 27006KT 250V310 9999 NCD 17/11
                        Q1029 NOSIG=
201810241220 METAR COR EGLL 241220Z AUTO 27006KT 220V310 9999 NCD 16/11
                        Q1029 NOSIG=
201810241150 METAR COR EGLL 241150Z AUTO 29006KT 230V330 9999 NCD 16/11
                        Q1029 NOSIG=
201810241120 METAR COR EGLL 241120Z AUTO 27005KT 230V310 9999 NCD 15/11
                        Q1030 NOSIG=
201810241050 METAR COR EGLL 241050Z AUTO 30006KT 250V330 9999 FEW014 15/11
                        Q1030 NOSIG=
201810241020 METAR COR EGLL 241020Z AUTO 31006KT 280V010 9999 OVC011 14/11
                        Q1030 BECMG FEW012=
201810240950 METAR COR EGLL 240950Z AUTO 30008KT 9999 OVC011 13/11 Q1030
                        BECMG FEW012=
201810240920 METAR COR EGLL 240920Z 29008KT 9999 BKN010 13/11 Q1030 BECMG
                        SCT010=
201810240850 METAR COR EGLL 240850Z AUTO 31007KT 270V340 9999 OVC010 13/11
                        Q1030 BECMG SCT010=
201810240820 METAR COR EGLL 240820Z 30006KT 270V340 9999 BKN010 13/11
                        Q1030 BECMG SCT012=
201810240750 METAR COR EGLL 240750Z AUTO 29006KT 9999 OVC011 13/11 Q1030
                        BECMG SCT012=
201810240720 METAR COR EGLL 240720Z AUTO 29005KT 9000 BKN010 12/11 Q1029
                        TEMPO SCT010=
201810240650 METAR COR EGLL 240650Z 29003KT 9999 SCT012 12/11 Q1029 TEMPO
                        BKN012=
201810240620 METAR COR EGLL 240620Z AUTO 28005KT 9999 SCT012 11/10 Q1029
                        NOSIG=
201810240550 METAR COR EGLL 240550Z AUTO 28004KT 9999 BKN012 12/10 Q1029
                        NOSIG=
201810240520 METAR COR EGLL 240520Z AUTO 27004KT 9999 BKN013 12/11 Q1029
                        NOSIG=
201810240450 METAR COR EGLL 240450Z AUTO VRB02KT 9999 BKN014 12/11 Q1029
                        NOSIG=
201810240420 METAR COR EGLL 240420Z AUTO 30005KT 9999 FEW014 13/11 Q1029
                        BECMG BKN012=
201810240350 METAR COR EGLL 240350Z AUTO VRB03KT 9999 BKN014 12/11 Q1029
                        TEMPO SCT014=
201810240320 METAR COR EGLL 240320Z AUTO 29006KT 260V350 9999 NCD 11/10
                        Q1029 TEMPO BKN012=
201810240250 METAR COR EGLL 240250Z AUTO VRB03KT 9999 NCD 12/10 Q1029
                        TEMPO BKN012=
201810240220 METAR COR EGLL 240220Z AUTO VRB01KT 9999 NCD 10/09 Q1029
                        NOSIG=
201810240150 METAR COR EGLL 240150Z AUTO VRB02KT 9999 NCD 11/10 Q1029
                        NOSIG=
201810240120 METAR COR EGLL 240120Z AUTO 27006KT 240V310 9999 NCD 12/10
                        Q1029 NOSIG=
201810240050 METAR COR EGLL 240050Z AUTO 29008KT 9999 NCD 12/10 Q1029
                        NOSIG=
201810240020 METAR COR EGLL 240020Z AUTO 27006KT 9999 NCD 12/10 Q1029
                        NOSIG=
201810232350 METAR COR EGLL 232350Z AUTO 29005KT 9999 NCD 12/10 Q1030
                        NOSIG=
201810232320 METAR COR EGLL 232320Z AUTO 29006KT 9999 NCD 13/10 Q1029
                        NOSIG=
201810232250 METAR COR EGLL 232250Z AUTO 29007KT 9999 NCD 13/10 Q1029
                        NOSIG=
201810232220 METAR COR EGLL 232220Z AUTO 29007KT 9999 NCD 13/10 Q1030
                        NOSIG=
201810232150 METAR COR EGLL 232150Z AUTO 29006KT 270V330 9999 NCD 14/10
                        Q1030 NOSIG=
201810232120 METAR COR EGLL 232120Z AUTO 29004KT 260V320 9999 NCD 14/10
                        Q1030 NOSIG=
201810232050 METAR COR EGLL 232050Z AUTO 28004KT 240V350 9999 NCD 14/10
                        Q1030 NOSIG=
201810232020 METAR COR EGLL 232020Z AUTO 30008KT 9999 NCD 14/10 Q1030
                        NOSIG=
201810231950 METAR COR EGLL 231950Z AUTO 30007KT 9999 NCD 14/10 Q1030
                        NOSIG=
201810231920 METAR COR EGLL 231920Z AUTO 30006KT 9999 NCD 15/10 Q1030
                        NOSIG=
201810231850 METAR COR EGLL 231850Z AUTO 30005KT 270V340 9999 NCD 15/10
                        Q1030 NOSIG=
201810231820 METAR COR EGLL 231820Z AUTO 31007KT 9999 NCD 14/10 Q1030
                        NOSIG=
201810231750 METAR COR EGLL 231750Z AUTO 29005KT 9999 NCD 14/08 Q1029
                        NOSIG=
201810231720 METAR COR EGLL 231720Z AUTO 29006KT 9999 NCD 14/08 Q1029
                        NOSIG=
201810231650 METAR COR EGLL 231650Z AUTO 29004KT 9999 NCD 14/08 Q1029
                        NOSIG=
201810231620 METAR COR EGLL 231620Z AUTO 29007KT 9999 NCD 15/08 Q1029
                        NOSIG=
201810231550 METAR COR EGLL 231550Z AUTO 30010KT 9999 NCD 15/08 Q1029
                        NOSIG=
201810231520 METAR COR EGLL 231520Z AUTO 29008KT 9999 NCD 15/08 Q1029
                        NOSIG=
201810231450 METAR COR EGLL 231450Z AUTO 29008KT 9999 NCD 15/07 Q1029
                        NOSIG=
201810231420 METAR COR EGLL 231420Z AUTO 28010KT 9999 NCD 15/07 Q1029
                        NOSIG=
201810231350 METAR COR EGLL 231350Z AUTO 31009KT 9999 NCD 15/07 Q1030
                        NOSIG=
201810231320 METAR COR EGLL 231320Z AUTO 29010KT 9999 NCD 15/06 Q1029
                        NOSIG=
201810231250 METAR COR EGLL 231250Z AUTO 29010KT 9999 NCD 15/06 Q1029
                        NOSIG=
201810231220 METAR COR EGLL 231220Z AUTO 29010KT 270V330 9999 NCD 15/06
                        Q1029 NOSIG=
201810231150 METAR COR EGLL 231150Z AUTO 29010KT 9999 NCD 14/05 Q1030
                        NOSIG=
201810231120 METAR COR EGLL 231120Z AUTO 30009KT 9999 NCD 14/05 Q1030
                        NOSIG=
201810231050 METAR COR EGLL 231050Z AUTO 30008KT 270V350 9999 NCD 13/05
                        Q1030 NOSIG=
201810231020 METAR COR EGLL 231020Z AUTO 27010KT 9999 NCD 12/06 Q1030
                        NOSIG=
201810230950 METAR COR EGLL 230950Z AUTO 27011KT 9999 NCD 11/06 Q1031
                        NOSIG=
201810230920 METAR COR EGLL 230920Z AUTO 27009KT 9999 NCD 10/06 Q1031
                        NOSIG=
201810230850 METAR COR EGLL 230850Z AUTO 27010KT 9999 NCD 09/06 Q1031
                        NOSIG=
201810230820 METAR COR EGLL 230820Z AUTO 25010KT 9999 NCD 08/06 Q1031
                        NOSIG=
201810230750 METAR COR EGLL 230750Z AUTO 26009KT 9999 NCD 08/05 Q1031
                        NOSIG=
201810230720 METAR COR EGLL 230720Z AUTO 24009KT 9999 NCD 07/05 Q1032
                        NOSIG=
201810230650 METAR COR EGLL 230650Z AUTO 24008KT 9999 NCD 07/05 Q1032
                        NOSIG=
201810230620 METAR COR EGLL 230620Z AUTO 25009KT 9999 NCD 07/05 Q1032
                        NOSIG=
201810230550 METAR COR EGLL 230550Z AUTO 22007KT 190V260 9999 NCD 07/05
                        Q1032 NOSIG=
201810230520 METAR COR EGLL 230520Z AUTO 24007KT 9999 NCD 06/04 Q1032
                        NOSIG=
201810230450 METAR COR EGLL 230450Z AUTO 26007KT 9999 NCD 06/04 Q1033
                        NOSIG=
201810230420 METAR COR EGLL 230420Z AUTO 27008KT 9999 NCD 06/05 Q1033
                        NOSIG=
201810230350 METAR COR EGLL 230350Z AUTO 26006KT 9999 NCD 06/05 Q1033
                        NOSIG=
201810230320 METAR COR EGLL 230320Z AUTO 25007KT 9999 NCD 06/04 Q1033
                        NOSIG=
201810230250 METAR COR EGLL 230250Z AUTO 25005KT 9999 NCD 06/04 Q1034
                        NOSIG=
201810230220 METAR COR EGLL 230220Z AUTO VRB02KT 9999 NCD 06/04 Q1035
                        NOSIG=
201810230150 METAR COR EGLL 230150Z AUTO 27006KT 9999 NCD 06/04 Q1034
                        NOSIG=
201810230120 METAR COR EGLL 230120Z AUTO 27005KT 9999 NCD 05/04 Q1035
                        NOSIG=
201810230050 METAR COR EGLL 230050Z AUTO 25006KT 9999 NCD 05/04 Q1035
                        NOSIG=
201810230020 METAR COR EGLL 230020Z AUTO 22005KT 9999 NCD 06/04 Q1036
                        NOSIG=
201810222350 METAR COR EGLL 222350Z AUTO 24006KT 9999 NCD 06/04 Q1036
                        NOSIG=
201810222320 METAR COR EGLL 222320Z AUTO 27006KT 9999 NCD 06/04 Q1037
                        NOSIG=
201810222250 METAR COR EGLL 222250Z AUTO 27006KT 9999 NCD 05/04 Q1037
                        NOSIG=
201810222220 METAR COR EGLL 222220Z AUTO 27005KT 9999 NCD 06/04 Q1037
                        NOSIG=
201810222150 METAR COR EGLL 222150Z AUTO 29006KT 9999 NCD 07/04 Q1037
                        NOSIG=
201810222120 METAR COR EGLL 222120Z AUTO 28004KT 9999 NCD 06/03 Q1037
                        NOSIG=
201810222050 METAR COR EGLL 222050Z AUTO 30004KT 270V340 9999 NCD 07/03
                        Q1038 NOSIG=
201810222020 METAR COR EGLL 222020Z AUTO 28003KT 9999 NCD 08/04 Q1038
                        NOSIG=
201810221950 METAR COR EGLL 221950Z AUTO 30002KT 9999 NCD 08/04 Q1038
                        NOSIG=
201810221920 METAR COR EGLL 221920Z AUTO 30003KT 9999 NCD 08/04 Q1038
                        NOSIG=
201810221850 METAR COR EGLL 221850Z AUTO 28002KT 9999 NCD 09/03 Q1037
                        NOSIG=
201810221820 METAR COR EGLL 221820Z AUTO 30003KT 9999 NCD 09/03 Q1038
                        NOSIG=
201810221750 METAR COR EGLL 221750Z AUTO 30003KT 9999 NCD 10/03 Q1038
                        NOSIG=
201810221720 METAR COR EGLL 221720Z AUTO VRB02KT 9999 NCD 11/03 Q1037
                        NOSIG=
201810221650 METAR COR EGLL 221650Z AUTO VRB03KT 9999 NCD 12/02 Q1037
                        NOSIG=
201810221620 METAR COR EGLL 221620Z AUTO 36004KT 320V030 9999 NCD 12/02
                        Q1037 NOSIG=
201810221550 METAR COR EGLL 221550Z AUTO 35005KT 310V020 9999 NCD 13/03
                        Q1037 NOSIG=
201810221520 METAR COR EGLL 221520Z AUTO 36006KT 320V030 9999 NCD 13/03
                        Q1037 NOSIG=
201810221450 METAR COR EGLL 221450Z AUTO 36006KT 300V040 9999 NCD 13/03
                        Q1038 NOSIG=
201810221420 METAR COR EGLL 221420Z AUTO 35006KT 310V050 9999 NCD 13/03
                        Q1037 NOSIG=
201810221350 METAR COR EGLL 221350Z AUTO 01005KT 320V060 9999 NCD 13/03
                        Q1037 NOSIG=
201810221320 METAR COR EGLL 221320Z AUTO 34006KT 300V050 9999 NCD 13/03
                        Q1037 NOSIG=
201810221250 METAR COR EGLL 221250Z AUTO 01007KT 330V060 9999 NCD 13/03
                        Q1037 NOSIG=
201810221220 METAR COR EGLL 221220Z AUTO 02007KT 340V070 9999 NCD 13/02
                        Q1037 NOSIG=
201810221150 METAR COR EGLL 221150Z AUTO 36008KT 320V040 9999 NCD 13/03
                        Q1037 NOSIG=
201810221120 METAR COR EGLL 221120Z AUTO 02008KT 340V070 9999 NCD 13/03
                        Q1038 NOSIG=
201810221050 METAR COR EGLL 221050Z AUTO 02007KT 340V070 9999 NCD 12/03
                        Q1038 NOSIG=
201810221020 METAR COR EGLL 221020Z AUTO 01007KT 330V040 9999 NCD 12/03
                        Q1037 NOSIG=
201810220950 METAR COR EGLL 220950Z AUTO 03005KT 320V080 9999 NCD 11/03
                        Q1037 NOSIG=
201810220920 METAR COR EGLL 220920Z AUTO 04006KT 350V070 9999 NCD 11/04
                        Q1038 NOSIG=
201810220850 METAR COR EGLL 220850Z AUTO 36005KT 330V030 9999 NCD 09/03
                        Q1038 NOSIG=
201810220820 METAR COR EGLL 220820Z AUTO 36005KT 330V030 9999 NCD 08/03
                        Q1037 NOSIG=
201810220750 METAR COR EGLL 220750Z AUTO 36005KT 320V030 9999 NCD 08/03
                        Q1037 NOSIG=
201810220720 METAR COR EGLL 220720Z AUTO VRB03KT 9999 NCD 07/03 Q1036
                        NOSIG=
201810220650 METAR COR EGLL 220650Z AUTO VRB02KT 9999 NCD 07/03 Q1036
                        NOSIG=
201810220620 METAR COR EGLL 220620Z AUTO VRB03KT 9999 NCD 07/04 Q1035
                        NOSIG=
201810220550 METAR COR EGLL 220550Z AUTO VRB03KT 9999 NCD 07/04 Q1035
                        NOSIG=
201810220520 METAR COR EGLL 220520Z AUTO VRB02KT 9999 NCD 07/04 Q1035
                        NOSIG=
201810220450 METAR COR EGLL 220450Z AUTO VRB03KT 9999 NCD 07/04 Q1035
                        NOSIG=
201810220420 METAR COR EGLL 220420Z AUTO VRB03KT 9999 NCD 08/04 Q1034
                        NOSIG=
201810220350 METAR COR EGLL 220350Z AUTO 36006KT 330V050 9999 NCD 09/04
                        Q1034 NOSIG=
201810220320 METAR COR EGLL 220320Z AUTO 02006KT 340V050 9999 FEW037 09/05
                        Q1034 NOSIG=
201810220250 METAR COR EGLL 220250Z AUTO 01009KT 340V040 9999 NCD 10/05
                        Q1033 NOSIG=
201810220220 METAR COR EGLL 220220Z AUTO 36009KT 340V040 9999 SCT035 11/06
                        Q1033 NOSIG=
201810220150 METAR COR EGLL 220150Z AUTO 36008KT 330V030 9999 OVC033 12/07
                        Q1033 NOSIG=
201810220120 METAR COR EGLL 220120Z AUTO 36007KT 320V040 9999 BKN032 12/07
                        Q1032 NOSIG=
201810220050 METAR COR EGLL 220050Z AUTO 35006KT 310V030 9999 BKN031 12/08
                        Q1032 NOSIG=
201810220020 METAR COR EGLL 220020Z AUTO 36007KT 320V030 9999 OVC025 12/08
                        Q1032 NOSIG=
201810212350 METAR COR EGLL 212350Z AUTO 36007KT 320V040 9999 OVC020 12/08
                        Q1031 NOSIG=
201810212320 METAR COR EGLL 212320Z AUTO 36008KT 320V050 9999 OVC021 13/08
                        Q1031 NOSIG=
201810212250 METAR COR EGLL 212250Z AUTO 35007KT 310V030 9999 BKN023 OVC042
                        13/09 Q1031 NOSIG=
201810212220 METAR COR EGLL 212220Z AUTO 34006KT 290V020 9999 -RA FEW028
                        SCT034 BKN041 13/09 Q1030 NOSIG=
201810212150 METAR COR EGLL 212150Z AUTO 32009KT 9999 -RA SCT011 SCT016
                        BKN028 13/10 Q1030 TEMPO BKN011=
201810212120 METAR COR EGLL 212120Z AUTO 34007KT 300V030 9999 BKN010 OVC042
                        14/12 Q1029 NOSIG=
201810212050 METAR COR EGLL 212050Z AUTO 34008KT 300V020 9999 SCT015 BKN021
                        16/12 Q1029 TEMPO -RA BKN014=
201810212020 METAR COR EGLL 212020Z AUTO 32005KT 300V020 9999 BKN023 BKN030
                        16/12 Q1028 NOSIG=
201810211950 METAR COR EGLL 211950Z AUTO 32005KT 290V010 9999 OVC028 16/12
                        Q1028 NOSIG=
201810211920 METAR COR EGLL 211920Z AUTO 32003KT 9999 OVC027 16/11 Q1028
                        NOSIG=
201810211850 METAR COR EGLL 211850Z AUTO 32004KT 280V360 9999 OVC030 16/11
                        Q1028 NOSIG=
201810211820 METAR COR EGLL 211820Z AUTO 31003KT 9999 OVC030 15/12 Q1028
                        NOSIG=
201810211750 METAR COR EGLL 211750Z AUTO 31003KT 9999 BKN032 15/11 Q1027
                        NOSIG=
201810211720 METAR COR EGLL 211720Z AUTO 32003KT 9999 NCD 16/11 Q1027
                        NOSIG=
201810211650 METAR COR EGLL 211650Z AUTO 30004KT 9999 NCD 17/11 Q1027
                        NOSIG=
201810211620 METAR COR EGLL 211620Z AUTO 28007KT 9999 NCD 17/11 Q1026
                        NOSIG=
201810211550 METAR COR EGLL 211550Z AUTO 27007KT 9999 NCD 18/11 Q1026
                        NOSIG=
201810211520 METAR COR EGLL 211520Z AUTO 27008KT 9999 NCD 18/11 Q1026
                        NOSIG=
201810211450 METAR COR EGLL 211450Z AUTO 25008KT 9999 NCD 18/11 Q1026
                        NOSIG=
201810211420 METAR COR EGLL 211420Z AUTO 27007KT 240V310 9999 NCD 18/11
                        Q1026 NOSIG=
201810211350 METAR COR EGLL 211350Z AUTO 26007KT 220V280 9999 NCD 18/11
                        Q1027 NOSIG=
201810211320 METAR COR EGLL 211320Z AUTO 26008KT 230V300 9999 NCD 18/11
                        Q1027 NOSIG=
201810211250 METAR COR EGLL 211250Z AUTO 27006KT 230V300 9999 NCD 18/11
                        Q1027 NOSIG=
201810211220 METAR COR EGLL 211220Z AUTO 27006KT 220V300 9999 NCD 17/11
                        Q1027 NOSIG=
201810211150 METAR COR EGLL 211150Z AUTO 29006KT 9999 NCD 16/11 Q1028
                        NOSIG=
201810211120 METAR COR EGLL 211120Z AUTO 27007KT 240V300 9999 NCD 16/11
                        Q1028 NOSIG=
201810211050 METAR COR EGLL 211050Z AUTO 27006KT 240V300 9999 NCD 15/11
                        Q1028 NOSIG=
201810211020 METAR COR EGLL 211020Z AUTO 27007KT 9999 NCD 14/11 Q1028
                        NOSIG=
201810210950 METAR COR EGLL 210950Z AUTO 26006KT 9999 NCD 12/11 Q1028
                        NOSIG=
201810210920 METAR COR EGLL 210920Z 24006KT 200V260 8000 FEW001 11/11
                        Q1029 NOSIG=
201810210850 METAR COR EGLL 210850Z 22004KT 180V240 4000 1000NW R27R/P1500
                        R27L/P1500 BR SCT001 10/09 Q1029
                        BECMG 8000 NSW=
201810210820 METAR COR EGLL 210820Z VRB03KT 0500 R27R/P1500 R27L/1100
                        FG FEW001 09/09 Q1028 BECMG 6000
                        NSW=
201810210750 METAR COR EGLL 210750Z 30002KT 0250 R27R/P1500 R27L/0250
                        FG VV/// 08/08 Q1028 BECMG 0800 BKN002=
201810210720 METAR COR EGLL 210720Z VRB02KT 0300 R27R/P1500 R27L/P1500
                        FG VV/// 07/07 Q1028 TEMPO 0100=
201810210650 METAR COR EGLL 210650Z 30001KT 1000 0600N R27R/P1500 R27L/P1500
                        BCFG FEW001 07/07 Q1028 TEMPO 0500
                        FG BKN001=
201810210620 METAR COR EGLL 210620Z 22004KT 180V250 6000 1500W PRFG NSC
                        08/08 Q1028 TEMPO 0500 FG BKN001=
201810210550 METAR COR EGLL 210550Z 20004KT 160V230 6000 FEW001 09/08
                        Q1028 TEMPO 1200 BR BKN002=
201810210520 METAR COR EGLL 210520Z 18004KT 150V220 4000 BR NSC 08/08
                        Q1028 TEMPO 1200 BKN002=
201810210450 METAR COR EGLL 210450Z 25003KT 3000 BR FEW001 08/08 Q1028
                        TEMPO 0600 FG BKN001=
201810210420 METAR COR EGLL 210420Z 27002KT 3000 BR FEW001 08/08 Q1028
                        TEMPO 0600 FG BKN001=
201810210350 METAR COR EGLL 210350Z VRB03KT 1400 0600SW R27R/P1500 BR
                        BCFG BKN001 09/08 Q1029 BECMG 0500
                        FG=
201810210320 METAR COR EGLL 210320Z 24002KT 5000 BR FEW001 09/09 Q1029
                        BECMG 2000 MIFG BKN002=
201810210250 METAR COR EGLL 210250Z 19001KT 5000 BR FEW001 09/08 Q1029
                        BECMG 2000 MIFG BKN002=
201810210220 METAR COR EGLL 210220Z 29001KT 5000 BR NSC 09/08 Q1029 BECMG
                        3000=
201810210150 METAR COR EGLL 210150Z 29001KT 5000 BR NSC 10/09 Q1029 BECMG
                        3000=
201810210120 METAR COR EGLL 210120Z 27003KT 6000 NSC 10/10 Q1029 BECMG
                        3000 BR=
201810210050 METAR COR EGLL 210050Z 19002KT 6000 NSC 10/09 Q1030 BECMG
                        3000 BR=
201810210020 METAR COR EGLL 210020Z 18003KT 6000 NSC 10/10 Q1030 BECMG
                        3000 BR=
201810202350 METAR COR EGLL 202350Z AUTO 23001KT 9000 NCD 11/10 Q1030
                        TEMPO 4000 BR=
201810202320 METAR COR EGLL 202320Z AUTO 19002KT 9999 NCD 12/10 Q1030
                        NOSIG=
201810202250 METAR COR EGLL 202250Z AUTO 18004KT 9999 NCD 12/11 Q1030
                        NOSIG=
201810202220 METAR COR EGLL 202220Z AUTO VRB03KT 9999 NCD 13/11 Q1030
                        NOSIG=
201810202150 METAR COR EGLL 202150Z AUTO 29004KT 9999 NCD 13/11 Q1030
                        NOSIG=
201810202120 METAR COR EGLL 202120Z AUTO 28004KT 9999 NCD 14/11 Q1030
                        NOSIG=
201810202050 METAR COR EGLL 202050Z AUTO 28005KT 9999 NCD 14/11 Q1031
                        NOSIG=
201810202020 METAR COR EGLL 202020Z AUTO 29005KT 9999 NCD 15/11 Q1031
                        NOSIG=
201810201950 METAR COR EGLL 201950Z AUTO 29004KT 9999 NCD 15/11 Q1031
                        NOSIG=
201810201920 METAR COR EGLL 201920Z AUTO 29004KT 9999 NCD 15/11 Q1031
                        NOSIG=
201810201850 METAR COR EGLL 201850Z AUTO 27006KT 9999 NCD 15/10 Q1031
                        NOSIG=
201810201820 METAR COR EGLL 201820Z AUTO 25006KT 9999 NCD 16/10 Q1031
                        NOSIG=
201810201750 METAR COR EGLL 201750Z AUTO 25006KT 9999 NCD 16/10 Q1031
                        NOSIG=
201810201720 METAR COR EGLL 201720Z AUTO 24007KT 9999 NCD 16/10 Q1030
                        NOSIG=
201810201650 METAR COR EGLL 201650Z AUTO 25008KT 9999 NCD 16/10 Q1030
                        NOSIG=
201810201620 METAR COR EGLL 201620Z AUTO 28008KT 9999 NCD 17/10 Q1030
                        NOSIG=
201810201550 METAR COR EGLL 201550Z AUTO 28007KT 9999 NCD 17/10 Q1030
                        NOSIG=
201810201520 METAR COR EGLL 201520Z AUTO 26008KT 9999 NCD 18/10 Q1030
                        NOSIG=
201810201450 METAR COR EGLL 201450Z AUTO 27006KT 9999 NCD 18/10 Q1030
                        NOSIG=
201810201420 METAR COR EGLL 201420Z 24007KT CAVOK 18/10 Q1030 NOSIG=
201810201350 METAR COR EGLL 201350Z 23006KT 180V280 CAVOK 18/10 Q1031
                        NOSIG=
201810201320 METAR COR EGLL 201320Z AUTO 23006KT 9999 NCD 18/10 Q1031
                        NOSIG=
201810201250 METAR COR EGLL 201250Z AUTO 23006KT 9999 NCD 17/11 Q1031
                        NOSIG=
201810201220 METAR COR EGLL 201220Z AUTO 21006KT 150V240 9999 NCD 17/10
                        Q1031 NOSIG=
201810201150 METAR COR EGLL 201150Z AUTO 21005KT 150V240 9999 NCD 16/10
                        Q1032 NOSIG=
201810201120 METAR COR EGLL 201120Z AUTO 24005KT 9999 NCD 15/10 Q1032
                        NOSIG=
201810201050 METAR COR EGLL 201050Z AUTO 22004KT 190V280 9999 NCD 13/10
                        Q1033 NOSIG=
201810201020 METAR COR EGLL 201020Z AUTO 21004KT 180V250 9999 NCD 13/09
                        Q1032 NOSIG=
201810200950 METAR COR EGLL 200950Z AUTO VRB03KT 9999 NCD 12/09 Q1032
                        NOSIG=
201810200920 METAR COR EGLL 200920Z VRB03KT 9000 NSC 11/09 Q1032 NOSIG=
201810200850 METAR COR EGLL 200850Z VRB03KT 8000 NSC 09/08 Q1032 NOSIG=
201810200820 METAR COR EGLL 200820Z 21004KT 170V230 8000 NSC 08/07 Q1032
                        NOSIG=
201810200750 METAR COR EGLL 200750Z VRB03KT 7000 NSC 08/07 Q1032 NOSIG=
201810200720 METAR COR EGLL 200720Z 21004KT 160V250 6000 FEW001 06/06
                        Q1031 NOSIG=
201810200650 METAR COR EGLL 200650Z VRB02KT 6000 NSC 05/05 Q1032 NOSIG=
201810200620 METAR COR EGLL 200620Z AUTO 30001KT 7000 NCD 05/05 Q1031
                        NOSIG=
201810200550 METAR COR EGLL 200550Z AUTO 32001KT 8000 NCD 06/06 Q1031
                        NOSIG=
201810200520 METAR COR EGLL 200520Z AUTO VRB02KT 6000 NCD 06/05 Q1031
                        NOSIG=
201810200450 METAR COR EGLL 200450Z AUTO 32002KT 8000 NCD 06/06 Q1031
                        NOSIG=
201810200420 METAR COR EGLL 200420Z AUTO 32003KT 7000 NCD 06/06 Q1031
                        NOSIG=
201810200350 METAR COR EGLL 200350Z 29003KT 6000 NSC 06/06 Q1030 TEMPO
                        4000 BR=
201810200320 METAR COR EGLL 200320Z VRB01KT 5000 BR NSC 07/06 Q1030 TEMPO
                        3000=
201810200250 METAR COR EGLL 200250Z 15001KT 5000 BR NSC 07/06 Q1029 TEMPO
                        3000=
201810200220 METAR COR EGLL 200220Z 27002KT 6000 NSC 06/06 Q1029 TEMPO
                        3000 BR=
201810200150 METAR COR EGLL 200150Z 29002KT 6000 NSC 07/06 Q1030 TEMPO
                        3000 BR=
201810200120 METAR COR EGLL 200120Z 31002KT 7000 NSC 07/06 Q1030 TEMPO
                        4000 BR=
201810200050 METAR COR EGLL 200050Z AUTO 28004KT 7000 NCD 07/06 Q1029
                        NOSIG=
201810200020 METAR COR EGLL 200020Z AUTO 26003KT 3500 HZ NCD 07/06 Q1029
                        BECMG 8000=
201810192350 METAR COR EGLL 192350Z AUTO VRB01KT 8000 NCD 07/06 Q1029
                        NOSIG=
201810192320 METAR COR EGLL 192320Z AUTO VRB01KT 8000 NCD 08/07 Q1029
                        NOSIG=
201810192250 METAR COR EGLL 192250Z AUTO VRB02KT 8000 NCD 08/07 Q1029
                        NOSIG=
201810192220 METAR COR EGLL 192220Z AUTO VRB01KT 9000 NCD 08/07 Q1029
                        NOSIG=
201810192150 METAR COR EGLL 192150Z AUTO 29002KT 9000 NCD 08/07 Q1029
                        NOSIG=
201810192120 METAR COR EGLL 192120Z AUTO VRB01KT 9999 NCD 09/07 Q1028
                        NOSIG=
201810192050 METAR COR EGLL 192050Z AUTO 35003KT 9999 NCD 10/07 Q1028
                        NOSIG=
201810192020 METAR COR EGLL 192020Z AUTO 35003KT 9999 NCD 10/07 Q1028
                        NOSIG=
201810191950 METAR COR EGLL 191950Z AUTO 35003KT 9999 NCD 10/07 Q1028
                        NOSIG=
201810191920 METAR EGLL 191920Z AUTO 34002KT 9999 NCD 11/08 Q1028=
201810191850 METAR COR EGLL 191850Z AUTO VRB02KT 9999 NCD 11/07 Q1028
                        NOSIG=
201810191820 METAR COR EGLL 191820Z AUTO 34003KT 9999 NCD 12/07 Q1027
                        NOSIG=
201810191750 METAR COR EGLL 191750Z AUTO VRB02KT 9999 NCD 13/07 Q1027
                        NOSIG=
201810191720 METAR COR EGLL 191720Z AUTO VRB02KT 9999 NCD 13/07 Q1027
                        NOSIG=
201810191650 METAR COR EGLL 191650Z AUTO 33004KT 9999 FEW038 14/07 Q1027
                        NOSIG=
201810191620 METAR COR EGLL 191620Z AUTO VRB03KT 9999 NCD 15/07 Q1026
                        NOSIG=
201810191550 METAR COR EGLL 191550Z AUTO VRB03KT 9999 NCD 16/07 Q1026
                        NOSIG=
201810191520 METAR COR EGLL 191520Z AUTO 30004KT 210V360 9999 NCD 16/07
                        Q1026 NOSIG=
201810191450 METAR COR EGLL 191450Z AUTO 36004KT 280V090 9999 NCD 16/07
                        Q1026 NOSIG=
201810191420 METAR COR EGLL 191420Z AUTO VRB02KT 9999 NCD 16/07 Q1026
                        NOSIG=
201810191350 METAR COR EGLL 191350Z AUTO VRB02KT 9999 NCD 16/07 Q1026
                        NOSIG=
201810191320 METAR COR EGLL 191320Z AUTO VRB02KT 9999 NCD 15/07 Q1026
                        NOSIG=
201810191250 METAR COR EGLL 191250Z AUTO VRB03KT 9999 NCD 15/07 Q1026
                        NOSIG=
201810191220 METAR COR EGLL 191220Z AUTO 34004KT 300V050 9999 NCD 15/07
                        Q1027 NOSIG=
201810191150 METAR COR EGLL 191150Z AUTO 35004KT 290V050 9999 NCD 15/07
                        Q1027 NOSIG=
201810191120 METAR COR EGLL 191120Z AUTO 04004KT 330V080 9999 NCD 14/07
                        Q1027 NOSIG=
201810191050 METAR COR EGLL 191050Z AUTO VRB02KT 9999 NCD 12/07 Q1027
                        NOSIG=
201810191020 METAR COR EGLL 191020Z AUTO VRB02KT 9999 NCD 12/07 Q1027
                        NOSIG=
201810190950 METAR COR EGLL 190950Z AUTO VRB02KT 9999 NCD 11/07 Q1027
                        NOSIG=
201810190920 METAR COR EGLL 190920Z AUTO VRB02KT 9999 NCD 10/07 Q1027
                        NOSIG=
201810190850 METAR COR EGLL 190850Z AUTO VRB03KT 9999 NCD 09/07 Q1027
                        NOSIG=
201810190820 METAR COR EGLL 190820Z AUTO VRB02KT 9999 NCD 08/06 Q1027
                        NOSIG=
201810190750 METAR COR EGLL 190750Z AUTO VRB02KT 9999 NCD 07/06 Q1026
                        NOSIG=
201810190720 METAR COR EGLL 190720Z AUTO VRB03KT 9999 NCD 05/04 Q1026
                        NOSIG=
201810190650 METAR COR EGLL 190650Z AUTO 33003KT 9999 NCD 06/05 Q1026
                        NOSIG=
201810190620 METAR COR EGLL 190620Z AUTO VRB02KT 9999 NCD 05/05 Q1026
                        NOSIG=
201810190550 METAR COR EGLL 190550Z AUTO VRB01KT 9999 NCD 05/04 Q1026
                        NOSIG=
201810190520 METAR COR EGLL 190520Z AUTO VRB02KT 9999 NCD 06/05 Q1026
                        NOSIG=
201810190450 METAR COR EGLL 190450Z AUTO VRB02KT 9999 NCD 05/05 Q1026
                        NOSIG=
201810190420 METAR COR EGLL 190420Z AUTO 36002KT 9999 NCD 06/05 Q1026
                        NOSIG=
201810190350 METAR COR EGLL 190350Z AUTO VRB02KT 9999 NCD 05/04 Q1026
                        NOSIG=
201810190320 METAR COR EGLL 190320Z AUTO 36003KT 9999 NCD 06/05 Q1026
                        NOSIG=
201810190250 METAR COR EGLL 190250Z AUTO VRB02KT 9999 NCD 06/05 Q1026
                        NOSIG=
201810190220 METAR COR EGLL 190220Z AUTO 01004KT 9999 NCD 06/05 Q1026
                        NOSIG=
201810190150 METAR COR EGLL 190150Z AUTO VRB03KT 9999 NCD 06/05 Q1026
                        NOSIG=
201810190120 METAR COR EGLL 190120Z AUTO VRB03KT 9999 NCD 07/06 Q1026
                        NOSIG=
201810190050 METAR COR EGLL 190050Z AUTO 36004KT 9999 NCD 07/06 Q1026
                        NOSIG=
201810190020 METAR COR EGLL 190020Z AUTO 01004KT 9999 NCD 07/06 Q1026
                        NOSIG=
201810182350 METAR COR EGLL 182350Z AUTO 36002KT 9999 NCD 08/06 Q1027
                        NOSIG=
201810182320 METAR COR EGLL 182320Z AUTO 01003KT 9999 NCD 08/06 Q1027
                        NOSIG=
201810182250 METAR COR EGLL 182250Z AUTO 02002KT 9999 NCD 08/06 Q1027
                        NOSIG=
201810182220 METAR COR EGLL 182220Z AUTO 03004KT 9999 NCD 09/07 Q1027
                        NOSIG=
201810182150 METAR COR EGLL 182150Z AUTO VRB02KT 9999 NCD 09/07 Q1027
                        NOSIG=
201810182120 METAR COR EGLL 182120Z AUTO VRB03KT 9999 NCD 09/07 Q1027
                        NOSIG=
201810182050 METAR COR EGLL 182050Z AUTO 04004KT 9999 NCD 10/07 Q1027
                        NOSIG=
201810182020 METAR COR EGLL 182020Z AUTO 04004KT 9999 NCD 10/07 Q1027
                        NOSIG=
201810181950 METAR COR EGLL 181950Z AUTO 05004KT 9999 NCD 11/07 Q1027
                        NOSIG=
201810181920 METAR COR EGLL 181920Z AUTO 04005KT 9999 NCD 11/08 Q1027
                        NOSIG=
201810181850 METAR COR EGLL 181850Z AUTO 04006KT 9999 NCD 12/08 Q1027
                        NOSIG=
201810181820 METAR COR EGLL 181820Z AUTO 04006KT 9999 NCD 12/08 Q1026
                        NOSIG=
201810181750 METAR COR EGLL 181750Z AUTO 04005KT 010V080 9999 NCD 13/08
                        Q1026 NOSIG=
201810181720 METAR COR EGLL 181720Z AUTO 04006KT 9999 BKN045 13/08 Q1026
                        NOSIG=
201810181650 METAR COR EGLL 181650Z AUTO 04007KT 350V080 9999 OVC043 14/08
                        Q1026 NOSIG=
201810181620 METAR COR EGLL 181620Z AUTO 04007KT 9999 BKN040 14/08 Q1026
                        NOSIG=
201810181550 METAR COR EGLL 181550Z AUTO 04007KT 350V070 9999 FEW034 BKN041
                        15/09 Q1026 NOSIG=
201810181520 METAR COR EGLL 181520Z AUTO 05006KT 9999 FEW034 BKN040 15/08
                        Q1026 NOSIG=
201810181450 METAR COR EGLL 181450Z AUTO 06006KT 9999 BKN039 15/07 Q1026=
201810181420 METAR COR EGLL 181420Z AUTO 05006KT 010V080 9999 FEW032 SCT038
                        15/08 Q1026 NOSIG=
201810181350 METAR COR EGLL 181350Z AUTO 07006KT 020V100 9999 SCT033 15/08
                        Q1027 NOSIG=
201810181320 METAR COR EGLL 181320Z AUTO 06007KT 020V100 9999 SCT030 BKN038
                        16/09 Q1027 NOSIG=
201810181250 METAR COR EGLL 181250Z AUTO 07007KT 030V090 9999 FEW037 15/09
                        Q1027 NOSIG=
201810181220 METAR COR EGLL 181220Z AUTO 05007KT 010V080 9999 FEW036 14/10
                        Q1027 NOSIG=
201810181150 METAR COR EGLL 181150Z AUTO 02007KT 330V050 9999 FEW032 14/10
                        Q1027 NOSIG=
201810181120 METAR COR EGLL 181120Z AUTO 02006KT 340V060 9999 SCT026 SCT030
                        14/09 Q1027 NOSIG=
201810181050 METAR COR EGLL 181050Z AUTO 06008KT 360V080 9999 SCT020 14/09
                        Q1028 NOSIG=
201810181020 METAR COR EGLL 181020Z AUTO 04007KT 350V080 9999 FEW018 SCT023
                        14/10 Q1028 NOSIG=
201810180950 METAR COR EGLL 180950Z AUTO 06009KT 9999 FEW016 13/09 Q1028
                        NOSIG=
201810180920 METAR COR EGLL 180920Z AUTO 04009KT 010V070 9999 SCT012 SCT018
                        13/10 Q1027 NOSIG=
201810180850 METAR COR EGLL 180850Z 03007KT 360V070 9999 BKN012 11/09
                        Q1027 BECMG SCT015=
201810180820 METAR COR EGLL 180820Z 04006KT 360V080 9999 FEW008 BKN010
                        11/09 Q1027 BECMG SCT015=
201810180750 METAR COR EGLL 180750Z 05006KT 010V080 9999 FEW007 BKN009
                        11/09 Q1027 BECMG SCT010=
201810180720 METAR COR EGLL 180720Z 04006KT 010V090 8000 SCT006 OVC010
                        10/09 Q1027 TEMPO BKN006=
201810180650 METAR COR EGLL 180650Z 04004KT 7000 BKN004 10/09 Q1026 BECMG
                        BKN006=
201810180620 METAR COR EGLL 180620Z 04004KT 350V060 9999 SCT004 09/09
                        Q1026 BECMG BKN005=
201810180550 METAR EGLL 180550Z AUTO 04004KT 350V060 8000 NCD 10/09 Q1026=
201810180520 METAR COR EGLL 180520Z 04005KT 360V060 CAVOK 10/09 Q1026
                        NOSIG=
201810180450 METAR COR EGLL 180450Z 02004KT 340V060 CAVOK 10/09 Q1026
                        NOSIG=
201810180420 METAR COR EGLL 180420Z 02004KT 340V070 CAVOK 11/09 Q1025
                        NOSIG=
201810180350 METAR COR EGLL 180350Z AUTO 01004KT 340V050 9000 NCD 11/10
                        Q1025 NOSIG=
201810180320 METAR COR EGLL 180320Z AUTO 04004KT 350V060 9000 NCD 11/10
                        Q1025 NOSIG=
201810180250 METAR COR EGLL 180250Z AUTO 01004KT 340V050 9999 NCD 12/10
                        Q1025 NOSIG=
201810180220 METAR COR EGLL 180220Z AUTO VRB03KT 9999 NCD 12/10 Q1025
                        NOSIG=
201810180150 METAR COR EGLL 180150Z AUTO 02004KT 340V050 9999 NCD 13/11
                        Q1025 NOSIG=
201810180120 METAR COR EGLL 180120Z AUTO VRB03KT 9999 NCD 13/11 Q1025
                        NOSIG=
201810180050 METAR COR EGLL 180050Z AUTO 03004KT 340V060 9999 FEW023 13/11
                        Q1025 NOSIG=
201810180020 METAR COR EGLL 180020Z AUTO 04004KT 020V080 9999 NCD 13/11
                        Q1025 NOSIG=
201810172350 METAR COR EGLL 172350Z AUTO 36005KT 9999 NCD 13/12 Q1025
                        NOSIG=
201810172320 METAR COR EGLL 172320Z AUTO 36004KT 9999 NCD 13/12 Q1024
                        NOSIG=
201810172250 METAR COR EGLL 172250Z AUTO 02004KT 340V050 9999 NCD 14/12
                        Q1024 NOSIG=
201810172220 METAR COR EGLL 172220Z AUTO 02004KT 340V050 9999 NCD 14/12
                        Q1024 NOSIG=
201810172150 METAR COR EGLL 172150Z AUTO VRB03KT 9999 NCD 14/12 Q1024
                        NOSIG=
201810172120 METAR COR EGLL 172120Z AUTO VRB03KT 9999 NCD 14/12 Q1024
                        NOSIG=
201810172050 METAR COR EGLL 172050Z AUTO VRB03KT 9999 BKN048 14/12 Q1023
                        NOSIG=
201810172020 METAR COR EGLL 172020Z AUTO 36003KT 9999 BKN046 14/12 Q1023
                        NOSIG=
201810171950 METAR COR EGLL 171950Z AUTO VRB02KT 9999 BKN045 14/12 Q1023
                        NOSIG=
201810171920 METAR COR EGLL 171920Z AUTO VRB02KT 9999 BKN043 14/12 Q1022
                        NOSIG=
201810171850 METAR COR EGLL 171850Z AUTO VRB03KT 9999 BKN038 15/12 Q1022
                        NOSIG=
201810171820 METAR COR EGLL 171820Z AUTO VRB02KT 9999 OVC034 15/13 Q1022
                        NOSIG=
201810171750 METAR COR EGLL 171750Z AUTO VRB03KT 9999 OVC033 15/13 Q1021
                        NOSIG=
201810171720 METAR COR EGLL 171720Z AUTO VRB02KT 9999 OVC027 15/13 Q1021
                        NOSIG=
201810171650 METAR COR EGLL 171650Z AUTO VRB03KT 9999 OVC022 15/13 Q1021
                        NOSIG=
201810171620 METAR COR EGLL 171620Z AUTO 36003KT 9999 BKN019 OVC028 15/13
                        Q1020 NOSIG=
201810171550 METAR COR EGLL 171550Z AUTO VRB02KT 9999 SCT013 OVC027 16/13
                        Q1020 TEMPO BKN012=
201810171520 METAR COR EGLL 171520Z AUTO VRB02KT 9999 SCT015 BKN027 OVC031
                        16/13 Q1020 NOSIG=
201810171450 METAR COR EGLL 171450Z AUTO 27002KT 9999 FEW012 SCT017 OVC031
                        16/13 Q1020 TEMPO BKN012=
201810171420 METAR COR EGLL 171420Z AUTO 00000KT 9999 SCT010 BKN030 OVC037
                        16/13 Q1020 TEMPO BKN012=
201810171350 METAR COR EGLL 171350Z AUTO VRB03KT 9999 BKN010 BKN015 OVC037
                        15/13 Q1020 TEMPO 4000 RADZ BKN007=
201810171320 METAR COR EGLL 171320Z AUTO VRB03KT 9000 -RA SCT009 BKN017
                        BKN021 15/13 Q1020 REDZ TEMPO 3000
                        RADZ BKN007=
201810171250 METAR COR EGLL 171250Z AUTO VRB03KT 5000 HZ BKN007 BKN012
                        OVC022 15/13 Q1019 TEMPO 3000 DZ=
201810171220 METAR COR EGLL 171220Z AUTO VRB03KT 9999 BKN008 BKN013 OVC039
                        15/13 Q1019 TEMPO SCT008=
201810171150 METAR COR EGLL 171150Z AUTO VRB02KT 9999 BKN008 BKN013 OVC024
                        14/13 Q1019 TEMPO SCT008=
201810171120 METAR COR EGLL 171120Z VRB03KT 9999 BKN007 OVC013 14/13 Q1019
                        TEMPO 4000=
201810171050 METAR COR EGLL 171050Z 28003KT 9999 -RA SCT004 OVC007 14/13
                        Q1019 TEMPO 4000=
201810171020 METAR COR EGLL 171020Z VRB03KT 4800 BR BKN004 OVC011 14/13
                        Q1019 TEMPO 5000 SCT004 BKN006=
201810170950 METAR COR EGLL 170950Z VRB03KT 4500 -DZ BKN004 OVC017 14/13
                        Q1019 TEMPO 5000 BKN005=
201810170920 METAR COR EGLL 170920Z 23005KT 180V310 3700 -DZ BKN004 BKN008
                        OVC021 13/13 Q1019 TEMPO 5000 SCT004=
201810170850 METAR COR EGLL 170850Z 23005KT 190V270 3800 -DZ BKN004 BKN009
                        OVC013 13/12 Q1019 TEMPO 6000 SCT004=
201810170820 METAR COR EGLL 170820Z 21005KT 190V250 3600 -DZ BKN004 BKN009
                        OVC019 12/12 Q1019 TEMPO 6000=
201810170750 METAR COR EGLL 170750Z 17004KT 130V230 3800 -DZ BKN004 BKN006
                        OVC013 12/12 Q1018 TEMPO 2800 RADZ=
201810170720 METAR COR EGLL 170720Z 21004KT 170V230 3700 -RADZ SCT004
                        BKN006 OVC012 12/12 Q1018 TEMPO 2800
                        RADZ=
201810170650 METAR COR EGLL 170650Z AUTO 21005KT 170V310 5000 -RADZ BKN008
                        OVC015 12/11 Q1018 TEMPO 4000=
201810170620 METAR COR EGLL 170620Z AUTO 18006KT 120V220 5000 -RADZ BKN011
                        BKN018 OVC025 12/11 Q1018 TEMPO 3000
                        -DZ BKN007=
201810170550 METAR COR EGLL 170550Z AUTO 19005KT 160V240 9999 -RA FEW013
                        BKN022 BKN029 12/11 Q1018 TEMPO BKN012=
201810170520 METAR COR EGLL 170520Z AUTO 22004KT 170V260 9999 BKN013 BKN020
                        BKN028 12/11 Q1017 TEMPO 7000 -RA
                        BKN010=
201810170450 METAR COR EGLL 170450Z AUTO VRB03KT 9999 SCT016 BKN027 BKN036
                        12/11 Q1017 TEMPO 7000 -RA BKN014=
201810170420 METAR COR EGLL 170420Z AUTO 21004KT 180V260 9999 SCT049 11/11
                        Q1017 TEMPO 7000 -RA BKN014=
201810170350 METAR COR EGLL 170350Z AUTO 21005KT 190V260 9999 NCD 11/10
                        Q1017 NOSIG=
201810170320 METAR COR EGLL 170320Z AUTO 21006KT 9999 NCD 12/11 Q1017
                        NOSIG=
201810170250 METAR COR EGLL 170250Z AUTO 20005KT 9999 NCD 12/11 Q1017
                        NOSIG=
201810170220 METAR COR EGLL 170220Z AUTO 21005KT 9999 NCD 12/11 Q1017
                        NOSIG=
201810170150 METAR COR EGLL 170150Z AUTO 21005KT 9999 NCD 12/11 Q1017
                        NOSIG=
201810170120 METAR COR EGLL 170120Z AUTO 21005KT 9999 FEW029 12/11 Q1017
                        NOSIG=
201810170050 METAR COR EGLL 170050Z AUTO 23006KT 9999 FEW014 BKN020 BKN027
                        13/11 Q1017 NOSIG=
201810170020 METAR COR EGLL 170020Z AUTO 22005KT 9999 BKN025 13/11 Q1017
                        NOSIG=
201810162350 METAR COR EGLL 162350Z AUTO 23006KT 9999 BKN025 13/11 Q1017
                        NOSIG=
201810162320 METAR COR EGLL 162320Z AUTO 22008KT 9999 FEW024 13/11 Q1017
                        NOSIG=
201810162250 METAR COR EGLL 162250Z AUTO 23008KT 9999 NCD 13/10 Q1017
                        NOSIG=
201810162220 METAR COR EGLL 162220Z AUTO 23008KT 9999 NCD 13/11 Q1017
                        NOSIG=
201810162150 METAR COR EGLL 162150Z AUTO 22008KT 180V250 9999 FEW029 14/11
                        Q1017 NOSIG=
201810162120 METAR COR EGLL 162120Z AUTO 23007KT 9999 SCT029 14/10 Q1017
                        NOSIG=
201810162050 METAR COR EGLL 162050Z AUTO 22008KT 190V260 9999 BKN027 15/10
                        Q1017 NOSIG=
201810162020 METAR COR EGLL 162020Z AUTO 23010KT 190V260 9999 OVC026 15/11
                        Q1017 NOSIG=
201810161950 METAR COR EGLL 161950Z AUTO 23012KT 9999 BKN022 BKN027 15/11
                        Q1017 NOSIG=
201810161920 METAR COR EGLL 161920Z AUTO 25011KT 9999 BKN019 OVC023 16/12
                        Q1017 NOSIG=
201810161850 METAR COR EGLL 161850Z AUTO 24010KT 9999 BKN020 OVC046 16/13
                        Q1017 NOSIG=
201810161820 METAR COR EGLL 161820Z AUTO 21008KT 180V250 9999 FEW023 OVC044
                        16/13 Q1016 NOSIG=
201810161750 METAR COR EGLL 161750Z AUTO 21008KT 9999 FEW016 SCT020 OVC045
                        17/14 Q1016 NOSIG=
201810161720 METAR COR EGLL 161720Z AUTO 19008KT 160V230 9999 SCT018 BKN026
                        BKN039 17/14 Q1016 NOSIG=
201810161650 METAR COR EGLL 161650Z AUTO 20009KT 160V240 9999 FEW019 BKN023
                        17/14 Q1016 NOSIG=
201810161620 METAR COR EGLL 161620Z AUTO 19008KT 150V230 9999 NCD 17/14
                        Q1016 NOSIG=
201810161550 METAR COR EGLL 161550Z AUTO 19008G18KT 140V230 9999 SCT033
                        BKN045 17/14 Q1016 NOSIG=
201810161520 METAR COR EGLL 161520Z AUTO 22010KT 190V250 9999 FEW017 BKN022
                        OVC030 17/14 Q1016 NOSIG=
201810161450 METAR COR EGLL 161450Z AUTO 20011KT 170V240 9999 BKN018 18/14
                        Q1016 NOSIG=
201810161420 METAR COR EGLL 161420Z AUTO 19013KT 160V230 9999 SCT023 18/13
                        Q1016 NOSIG=
201810161350 METAR COR EGLL 161350Z AUTO 18013G25KT 9999 FEW023 BKN028
                        19/14 Q1016 NOSIG=
201810161320 METAR COR EGLL 161320Z AUTO 20013KT 9999 SCT023 BKN032 19/14
                        Q1016 NOSIG=
201810161250 METAR COR EGLL 161250Z AUTO 20011KT 9999 BKN021 BKN030 19/14
                        Q1015 NOSIG=
201810161220 METAR COR EGLL 161220Z AUTO 21009KT 170V250 9999 FEW020 20/15
                        Q1015 NOSIG=
201810161150 METAR COR EGLL 161150Z AUTO 19011KT 160V220 9999 SCT019 19/15
                        Q1015 NOSIG=
201810161120 METAR COR EGLL 161120Z AUTO 16010KT 9999 SCT016 19/15 Q1015
                        NOSIG=
201810161050 METAR COR EGLL 161050Z AUTO 16008KT 090V210 9999 NCD 18/15
                        Q1015 NOSIG=
201810161020 METAR COR EGLL 161020Z AUTO 15006KT 090V200 7000 FEW010 18/15
                        Q1016 NOSIG=
201810160950 METAR COR EGLL 160950Z AUTO 15005KT 110V180 5000 HZ SCT006
                        17/14 Q1016 NOSIG=
201810160920 METAR COR EGLL 160920Z AUTO 16004KT 120V190 4700 HZ BKN006
                        16/14 Q1016 BECMG 5000 BKN010=
201810160850 METAR COR EGLL 160850Z AUTO VRB03KT 5000 HZ BKN005 15/14
                        Q1016 BECMG BKN010=
201810160820 METAR COR EGLL 160820Z AUTO 19004KT 150V230 5000 HZ BKN007
                        OVC011 15/14 Q1016 NOSIG=
201810160750 METAR COR EGLL 160750Z 16004KT 110V210 4000 HZ BKN007 15/13
                        Q1016 BECMG 5000=
201810160720 METAR COR EGLL 160720Z AUTO 18004KT 130V220 3800 HZ BKN006
                        OVC009 15/14 Q1015 BECMG 5000=
201810160650 METAR COR EGLL 160650Z AUTO 15003KT 4000 HZ BKN005 14/13
                        Q1015 BECMG 5000=
201810160620 METAR COR EGLL 160620Z AUTO 18004KT 4200 HZ BKN005 OVC009
                        14/13 Q1015 BECMG 5000=
201810160550 METAR COR EGLL 160550Z 15003KT 6000 BKN005 BKN007 14/13 Q1015
                        TEMPO 4000 BR=
201810160520 METAR COR EGLL 160520Z AUTO 14005KT 4000 HZ BKN005 OVC008
                        14/14 Q1015 TEMPO BKN003=
201810160450 METAR COR EGLL 160450Z AUTO 13004KT 3400 BR BKN005 OVC009
                        14/14 Q1015 TEMPO BKN003=
201810160420 METAR COR EGLL 160420Z AUTO 13004KT 2500 BR SCT002 BKN007
                        OVC011 14/14 Q1015 TEMPO BKN002=
201810160350 METAR COR EGLL 160350Z 11004KT 2000 BR SCT001 BKN002 OVC011
                        14/14 Q1014 TEMPO 1400 BKN001=
201810160320 METAR COR EGLL 160320Z AUTO 10006KT 1300 BR OVC002 14/14
                        Q1014 TEMPO 2000 OVC003=
201810160250 METAR COR EGLL 160250Z AUTO 12007KT 3200 BR OVC003 14/14
                        Q1015 TEMPO 1400 BKN002=
201810160220 METAR COR EGLL 160220Z AUTO 11004KT 3000 BR BKN004 OVC007
                        14/14 Q1014 TEMPO 1400 BKN002=
201810160150 METAR COR EGLL 160150Z AUTO 09004KT 2200 BR BKN004 OVC007
                        14/14 Q1015 TEMPO 1400 BKN002=
201810160120 METAR COR EGLL 160120Z 09004KT 2500 BR SCT002 OVC006 14/14
                        Q1015 TEMPO 1400 BKN002=
201810160050 METAR COR EGLL 160050Z 10003KT 1000 R09L/1400 BR OVC001 14/14
                        Q1015 TEMPO 1800 OVC002=
201810160020 METAR COR EGLL 160020Z AUTO 09004KT 0700 R09L/P1500 FG VV///
                        14/14 Q1015 TEMPO 0400=
201810152350 METAR COR EGLL 152350Z 10003KT 0500 R09L/1300 FG OVC000 14/14
                        Q1015 TEMPO 0700=
201810152320 METAR COR EGLL 152320Z 08003KT 0600 R09L/P1500 FG OVC000
                        14/14 Q1015 TEMPO 0400=
201810152250 METAR COR EGLL 152250Z 11005KT 0600 R09L/1100 FG OVC000 14/14
                        Q1015 TEMPO 0800 OVC001=
201810152220 METAR COR EGLL 152220Z 10004KT 1200 R09L/P1500 R09R/1100
                        BR OVC001 14/13 Q1015 NOSIG=
201810152150 METAR COR EGLL 152150Z 09004KT 1800 BR SCT001 OVC002 14/13
                        Q1015 TEMPO 1400 OVC001=
201810152120 METAR COR EGLL 152120Z 07003KT 2000 BR SCT001 OVC002 13/13
                        Q1014 NOSIG=
201810152050 METAR COR EGLL 152050Z 08005KT 3000 BR OVC002 13/13 Q1014
                        TEMPO 2000 BR=
201810152020 METAR COR EGLL 152020Z AUTO 07005KT 3800 BR BKN003 OVC007
                        13/13 Q1014 NOSIG=
201810151950 METAR COR EGLL 151950Z AUTO 05004KT 360V080 5000 BR OVC004
                        13/13 Q1014 TEMPO 3000=
201810151920 METAR COR EGLL 151920Z AUTO 04005KT 340V060 6000 OVC004 13/13
                        Q1014 NOSIG=
201810151850 METAR EGLL 151850Z AUTO 04005KT 6000 OVC004 13/13 Q1014=
201810151820 METAR COR EGLL 151820Z AUTO 03004KT 360V070 6000 OVC004 13/13
                        Q1014 NOSIG=
201810151750 METAR COR EGLL 151750Z AUTO 04004KT 360V070 6000 OVC003 13/13
                        Q1013 TEMPO 3000 -DZ=
201810151720 METAR COR EGLL 151720Z AUTO 05005KT 7000 BKN004 OVC016 13/13
                        Q1013 TEMPO 3000 BR=
201810151650 METAR COR EGLL 151650Z AUTO 05006KT 7000 OVC004 13/13 Q1013
                        TEMPO 3000 -DZ=
201810151620 METAR COR EGLL 151620Z AUTO 05005KT 020V080 5000 BR BKN004
                        OVC016 13/13 Q1013 TEMPO 3000=
201810151550 METAR COR EGLL 151550Z AUTO 04005KT 010V080 3300 BR BKN004
                        OVC010 13/13 Q1013 TEMPO 6000=
201810151520 METAR COR EGLL 151520Z AUTO 04006KT 4500 HZ OVC004 14/13
                        Q1012 TEMPO 6000 -DZ OVC006=
201810151450 METAR COR EGLL 151450Z AUTO 05005KT 6000 OVC005 14/13 Q1012
                        NOSIG=
201810151420 METAR COR EGLL 151420Z AUTO 04005KT 010V080 7000 -RA BKN005
                        OVC008 14/13 Q1012 NOSIG=
201810151350 METAR COR EGLL 151350Z AUTO 07005KT 020V100 9999 OVC005 14/13
                        Q1012 TEMPO 5000 -DZ=
201810151320 METAR COR EGLL 151320Z 06005KT 9999 OVC006 14/13 Q1011 TEMPO
                        7000=
201810151250 METAR COR EGLL 151250Z 05006KT 3000 -RADZ OVC005 13/13 Q1011
                        TEMPO BKN006=
201810151220 METAR COR EGLL 151220Z 04005KT 360V070 3500 -DZ FEW004 OVC008
                        13/13 Q1011 BECMG 7000=
201810151150 METAR COR EGLL 151150Z AUTO 04005KT 360V070 1800 BR OVC004
                        13/13 Q1011 TEMPO 5000 OVC006=
201810151120 METAR COR EGLL 151120Z AUTO 05005KT 010V090 2400 BR OVC005
                        13/12 Q1011 NOSIG=
201810151050 METAR COR EGLL 151050Z AUTO 04005KT 010V070 3900 HZ OVC005
                        13/12 Q1011 TEMPO 6000=
201810151020 METAR COR EGLL 151020Z AUTO 05004KT 010V090 7000 OVC006 13/12
                        Q1011 TEMPO 4000 -DZ=
201810150950 METAR COR EGLL 150950Z AUTO 02005KT 330V050 9999 OVC007 13/12
                        Q1010 NOSIG=
201810150920 METAR COR EGLL 150920Z AUTO 04004KT 340V080 9999 OVC007 13/12
                        Q1010 NOSIG=
201810150850 METAR COR EGLL 150850Z AUTO 04004KT 360V090 9999 -RA BKN006
                        OVC011 12/12 Q1010 NOSIG=
201810150820 METAR COR EGLL 150820Z AUTO VRB03KT 9999 BKN006 OVC010 12/11
                        Q1009 TEMPO 5000 -DZ BKN004=
201810150750 METAR COR EGLL 150750Z AUTO 02004KT 320V060 9999 OVC006 12/11
                        Q1009 TEMPO 5000 -DZ OVC004=
201810150720 METAR COR EGLL 150720Z 36004KT 330V040 9999 OVC005 12/11
                        Q1009 TEMPO 7000 -DZ BKN004=
201810150650 METAR COR EGLL 150650Z 36004KT 320V040 5000 -RADZ SCT004
                        OVC008 12/11 Q1009 TEMPO 4000 -DZ
                        BKN004=
201810150620 METAR COR EGLL 150620Z 01004KT 340V040 4000 -RADZ FEW004
                        BKN008 12/11 Q1009 RERA REDZ TEMPO
                        BKN004=
201810150550 METAR COR EGLL 150550Z 03004KT 350V050 2500 RADZ BKN005CB
                        OVC008 12/11 Q1008 RERA REDZ BECMG
                        4000 BR=
201810150520 METAR COR EGLL 150520Z AUTO VRB03KT 2900 RADZ BKN005/// OVC009///
                        //////CB 12/11 Q1008 TEMPO BKN004=
201810150450 METAR COR EGLL 150450Z AUTO 05004KT 020V080 2900 -RADZ BKN005///
                        OVC009/// //////CB 12/11 Q1008 RERA
                        BECMG 4000 -DZ=
201810150420 METAR COR EGLL 150420Z AUTO 05005KT 360V080 9999 OVC007 12/11
                        Q1007 NOSIG=
201810150350 METAR COR EGLL 150350Z AUTO 05006KT 020V080 9999 -RA OVC008
                        11/11 Q1007 NOSIG=
201810150320 METAR COR EGLL 150320Z AUTO 04006KT 350V080 9999 -RA OVC008
                        11/10 Q1007 NOSIG=
201810150250 METAR COR EGLL 150250Z AUTO 05008KT 9999 -RA BKN010 OVC017
                        11/10 Q1007 BECMG BKN006=
201810150220 METAR COR EGLL 150220Z AUTO 04007KT 360V070 9999 -RA FEW013///
                        BKN018/// //////TCU 11/10 Q1008 BECMG
                        BKN006=
201810150150 METAR COR EGLL 150150Z 03006KT 5000 -RA SCT010 BKN018TCU
                        11/10 Q1008 TEMPO 4000 RA BKN008=
201810150120 METAR COR EGLL 150120Z AUTO 06004KT 020V080 9999 -RA SCT020///
                        BKN026/// //////TCU 11/10 Q1009 TEMPO
                        4000 RA BKN008=
201810150050 METAR COR EGLL 150050Z AUTO 06007KT 9999 -RA BKN032/// //////TCU
                        11/10 Q1009 TEMPO 4000 RA BKN008=
201810150020 METAR COR EGLL 150020Z 06007KT 9000 -RA BKN011CB BKN033 10/10
                        Q1009 RERA TEMPO 4000 RA BKN006=
201810142350 METAR COR EGLL 142350Z 01004KT 320V060 3000 +RA SCT007CB
                        BKN013 BKN021 10/10 Q1009 TEMPO 6000
                        RA=
201810142320 METAR COR EGLL 142320Z 36004KT 310V050 4000 RA BKN006CB BKN010
                        OVC022 10/10 Q1009 RERA TEMPO 2000
                        +RA=
201810142250 METAR COR EGLL 142250Z 36004KT 320V040 7000 -RA SCT007CB
                        BKN011 OVC034 10/10 Q1008 RERA TEMPO
                        2000 +RA=
201810142220 METAR COR EGLL 142220Z AUTO 03007KT 360V070 4900 RA BKN009///
                        OVC030/// //////CB 10/09 Q1009 REDZ
                        TEMPO 2500 +RA=
201810142150 METAR COR EGLL 142150Z AUTO 05007KT 010V080 7000 -RA SCT007///
                        BKN011/// OVC024/// //////CB 10/09
                        Q1008 TEMPO 2500 +RA=
201810142120 METAR COR EGLL 142120Z 03007KT 350V070 3500 -RADZ BKN007CB
                        OVC025 10/09 Q1009 RERA TEMPO 2500
                        +SHRA=
201810142050 METAR COR EGLL 142050Z 03005KT 350V070 3000 +RA BKN007CB
                        BKN012 OVC023 10/09 Q1009 RERA TEMPO
                        6000 RA=
201810142020 METAR COR EGLL 142020Z 03006KT 330V060 4000 -DZ BKN007CB
                        OVC013 10/09 Q1009 TEMPO 4000 SHRA=
201810141950 METAR COR EGLL 141950Z 02007KT 340V050 6000 -RA BKN008 OVC012
                        10/09 Q1009 TEMPO 4000 SHRA=
201810141920 METAR COR EGLL 141920Z 03005KT 330V060 4000 -DZ OVC008 10/09
                        Q1009 NOSIG=
201810141850 METAR COR EGLL 141850Z AUTO 03006KT 340V070 7000 -RA BKN008
                        OVC014 10/09 Q1009 TEMPO SCT008 BKN012=
201810141820 METAR COR EGLL 141820Z 03005KT 340V070 6000 BKN010 OVC014
                        10/09 Q1008 TEMPO BKN008=
201810141750 METAR COR EGLL 141750Z AUTO 01005KT 330V060 5000 HZ BKN008
                        OVC013 10/09 Q1008 NOSIG=
201810141720 METAR COR EGLL 141720Z 03007KT 340V050 5000 -DZ BKN008 OVC013
                        10/09 Q1008 TEMPO RADZ=
201810141650 METAR COR EGLL 141650Z 01006KT 340V050 5000 -DZ BKN007 OVC020
                        10/09 Q1008 TEMPO RADZ=
201810141620 METAR COR EGLL 141620Z 01006KT 340V050 5000 -RADZ SCT007
                        BKN010 OVC017 11/10 Q1008 TEMPO RADZ=
201810141550 METAR COR EGLL 141550Z 02006KT 340V060 5000 -DZ BKN009 OVC014
                        11/10 Q1007 TEMPO RADZ=
201810141520 METAR COR EGLL 141520Z AUTO 02007KT 340V060 7000 -RA SCT010///
                        OVC014/// //////TCU 11/10 Q1007 NOSIG=
201810141450 METAR COR EGLL 141450Z AUTO 36007KT 330V030 4900 -DZ BKN010///
                        OVC016/// //////TCU 11/10 Q1007 TEMPO
                        9999 -RA=
201810141420 METAR COR EGLL 141420Z AUTO 36011KT 6000 -RA BKN010/// BKN017///
                        OVC027/// //////TCU 12/10 Q1007 NOSIG=
201810141350 METAR COR EGLL 141350Z AUTO 36007KT 320V040 9999 -RA SCT010
                        BKN015 OVC030 12/11 Q1006 NOSIG=
201810141320 METAR COR EGLL 141320Z AUTO 01008KT 340V040 8000 -RA BKN011///
                        OVC028/// //////CB 12/11 Q1006 TEMPO
                        RA=
201810141250 METAR COR EGLL 141250Z AUTO 35006KT 300V040 6000 -RA BKN012///
                        OVC029/// //////CB 13/11 Q1005 TEMPO
                        RA=
201810141220 METAR COR EGLL 141220Z AUTO 35006KT 310V020 9999 -RA BKN010///
                        OVC030/// //////CB 13/12 Q1006 NOSIG=
201810141150 METAR COR EGLL 141150Z AUTO 36006KT 320V030 9999 SCT008///
                        BKN011/// BKN015/// //////CB 13/12
                        Q1005 NOSIG=
201810141120 METAR COR EGLL 141120Z AUTO 36005KT 320V040 7000 -RA SCT009///
                        BKN014/// OVC041/// //////TCU 13/12
                        Q1006 NOSIG=
201810141050 METAR COR EGLL 141050Z AUTO 32006KT 280V010 8000 -RA SCT007///
                        BKN010/// BKN015/// //////CB 13/12
                        Q1006 RERA NOSIG=
201810141020 METAR COR EGLL 141020Z AUTO 32006KT 7000 -RA SCT008/// BKN013///
                        OVC024/// //////CB 13/12 Q1005 TEMPO
                        3000 RA BKN008=
201810140950 METAR COR EGLL 140950Z AUTO 35005KT 320V020 9999 -RA SCT010///
                        OVC022/// //////TCU 13/12 Q1005 NOSIG=
201810140920 METAR COR EGLL 140920Z AUTO VRB03KT 9999 BKN021/// OVC028///
                        //////CB 13/12 Q1005 TEMPO RA=
201810140850 METAR COR EGLL 140850Z AUTO 02005KT 330V070 9999 -RA OVC026///
                        //////CB 13/12 Q1005 TEMPO RA=
201810140820 METAR COR EGLL 140820Z AUTO 36006KT 220V030 9999 -RA BKN019///
                        OVC027/// //////CB 13/12 Q1005 RERA
                        REDZ TEMPO RA=
201810140750 METAR COR EGLL 140750Z AUTO 34007KT 290V030 9999 -RA FEW009///
                        BKN012/// OVC020/// //////CB 13/12
                        Q1005 TEMPO BKN014=
201810140720 METAR COR EGLL 140720Z AUTO VRB03KT 8000 -RA BKN007/// OVC030///
                        //////CB 13/13 Q1006 RERA REDZ TEMPO
                        4000 RA=
201810140650 METAR COR EGLL 140650Z AUTO 05004KT 010V090 9999 -RA OVC030///
                        //////CB 14/13 Q1005 TEMPO 4000 RA
                        BKN014=
201810140620 METAR COR EGLL 140620Z AUTO 31004KT 280V020 9999 -RA FEW016///
                        SCT022/// BKN029/// //////CB 14/13
                        Q1005 RERA TEMPO 3000 +RA BKN012=
201810140550 METAR COR EGLL 140550Z AUTO VRB01KT 3400 +RA FEW015/// BKN027///
                        OVC038/// //////CB 14/13 Q1005 TEMPO
                        BKN012=
201810140520 METAR COR EGLL 140520Z AUTO 31004KT 270V020 9999 -RA BKN028///
                        OVC033/// //////TCU 14/12 Q1005 TEMPO
                        3000 +RA BKN012=
201810140450 METAR COR EGLL 140450Z AUTO 32005KT 290V010 9999 OVC027///
                        //////TCU 15/12 Q1006 TEMPO RA BKN012=
201810140420 METAR EGLL 140420Z AUTO 31004KT 260V330 9999 -RA BKN027 15/12
                        Q1006=
201810140350 METAR COR EGLL 140350Z AUTO 26005KT 9999 FEW034 15/13 Q1006
                        TEMPO RA BKN012=
201810140320 METAR COR EGLL 140320Z AUTO 28010KT 9999 NCD 15/13 Q1006
                        TEMPO -RA BKN014=
201810140250 METAR COR EGLL 140250Z AUTO 26006KT 9999 NCD 16/14 Q1007
                        TEMPO -RA BKN014=
201810140220 METAR COR EGLL 140220Z AUTO 22005KT 9999 NCD 15/13 Q1006
                        NOSIG=
201810140150 METAR COR EGLL 140150Z AUTO 20004KT 9999 NCD 16/14 Q1006
                        NOSIG=
201810140120 METAR COR EGLL 140120Z AUTO 24005KT 9999 NCD 17/14 Q1007
                        NOSIG=
201810140050 METAR COR EGLL 140050Z 25012KT 9999 SCT015 BKN020 17/14 Q1007
                        NOSIG=
201810140020 METAR COR EGLL 140020Z AUTO 19008KT 9999 -RA SCT031 SCT047
                        19/16 Q1006 NOSIG=
201810132350 METAR COR EGLL 132350Z AUTO 20007KT 9999 NCD 18/16 Q1006
                        NOSIG=
201810132320 METAR COR EGLL 132320Z AUTO 20008KT 9999 NCD 19/15 Q1007
                        NOSIG=
201810132250 METAR COR EGLL 132250Z AUTO 20010KT 9999 NCD 19/15 Q1007
                        NOSIG=
201810132220 METAR COR EGLL 132220Z AUTO 20011KT 9999 NCD 19/15 Q1007
                        NOSIG=
201810132150 METAR COR EGLL 132150Z AUTO 20011KT 9999 NCD 20/15 Q1007
                        NOSIG=
201810132120 METAR COR EGLL 132120Z AUTO 20011KT 9999 NCD 20/15 Q1007
                        NOSIG=
201810132050 METAR COR EGLL 132050Z AUTO 20010KT 9999 SCT047 20/15 Q1008
                        NOSIG=
201810132020 METAR COR EGLL 132020Z AUTO 19011KT 9999 NCD 20/15 Q1008
                        NOSIG=
201810131950 METAR COR EGLL 131950Z AUTO 19011KT 9999 NCD 20/15 Q1008
                        NOSIG=
201810131920 METAR COR EGLL 131920Z AUTO 19010KT 9999 NCD 20/15 Q1008
                        NOSIG=
201810131850 METAR COR EGLL 131850Z AUTO 18011KT 130V210 9999 NCD 20/15
                        Q1008 NOSIG=
201810131820 METAR COR EGLL 131820Z AUTO 18011KT 9999 NCD 20/15 Q1008
                        NOSIG=
201810131750 METAR COR EGLL 131750Z AUTO 17012KT 9999 NCD 21/16 Q1007
                        NOSIG=
201810131720 METAR COR EGLL 131720Z AUTO 17013G26KT 150V210 9999 NCD 21/16
                        Q1007 NOSIG=
201810131650 METAR COR EGLL 131650Z AUTO 18013KT 9999 NCD 21/16 Q1007
                        NOSIG=
201810131620 METAR COR EGLL 131620Z AUTO 17014KT 140V210 9999 NCD 22/16
                        Q1007 NOSIG=
201810131550 METAR COR EGLL 131550Z AUTO 18015KT 150V240 9999 NCD 22/16
                        Q1007 NOSIG=
201810131520 METAR EGLL 131520Z AUTO 19015KT 9999 NCD 22/16 Q1008=
201810131450 METAR COR EGLL 131450Z AUTO 18016G26KT 9999 NCD 22/16 Q1008
                        NOSIG=
201810131420 METAR COR EGLL 131420Z AUTO 18017KT 9999 NCD 22/16 Q1008
                        NOSIG=
201810131350 METAR COR EGLL 131350Z AUTO 18018KT 160V220 9999 NCD 23/16
                        Q1008 NOSIG=
201810131320 METAR COR EGLL 131320Z AUTO 19017KT 170V240 9999 NCD 23/16
                        Q1008 NOSIG=
201810131250 METAR COR EGLL 131250Z AUTO 18016KT 160V220 9999 NCD 23/16
                        Q1009 NOSIG=
201810131220 METAR COR EGLL 131220Z AUTO 18016KT 150V240 9999 NCD 23/16
                        Q1009 NOSIG=
201810131150 METAR COR EGLL 131150Z AUTO 19015KT 160V230 9999 NCD 21/15
                        Q1009 NOSIG=
201810131120 METAR COR EGLL 131120Z AUTO 18014KT 150V230 9999 NCD 22/15
                        Q1010 NOSIG=
201810131050 METAR COR EGLL 131050Z AUTO 19015KT 170V230 9999 NCD 20/14
                        Q1010 NOSIG=
201810131020 METAR COR EGLL 131020Z AUTO 18014KT 140V230 9999 NCD 21/14
                        Q1010 NOSIG=
201810130950 METAR COR EGLL 130950Z AUTO 18013KT 150V220 9999 NCD 20/14
                        Q1011 NOSIG=
201810130920 METAR COR EGLL 130920Z AUTO 19013KT 170V240 9999 NCD 19/14
                        Q1011 NOSIG=
201810130850 METAR COR EGLL 130850Z AUTO 20012KT 170V230 9999 -RA //////TCU
                        19/14 Q1012 TEMPO RA=
201810130820 METAR COR EGLL 130820Z 20013KT 9999 -RA FEW018TCU SCT040
                        20/13 Q1012 TEMPO RA=
201810130750 METAR COR EGLL 130750Z AUTO 19011KT 170V230 9999 //////TCU
                        20/13 Q1011 NOSIG=
201810130720 METAR COR EGLL 130720Z AUTO 19013KT 9999 NCD 19/13 Q1011
                        NOSIG=
201810130650 METAR COR EGLL 130650Z AUTO 18012KT 9999 NCD 19/14 Q1010
                        NOSIG=
201810130620 METAR COR EGLL 130620Z AUTO 17011KT 150V220 9999 NCD 19/14
                        Q1010 NOSIG=
201810130550 METAR COR EGLL 130550Z AUTO 16013KT 140V200 9999 NCD 19/13
                        Q1010 NOSIG=
201810130520 METAR COR EGLL 130520Z AUTO 17012KT 9999 NCD 19/13 Q1010
                        NOSIG=
201810130450 METAR COR EGLL 130450Z AUTO 19013KT 9999 FEW045 20/14 Q1011
                        NOSIG=
201810130420 METAR COR EGLL 130420Z AUTO 19012KT 9999 SCT040 20/14 Q1011
                        NOSIG=
201810130350 METAR COR EGLL 130350Z AUTO 18014KT 9999 BKN034 20/14 Q1011
                        NOSIG=
201810130320 METAR COR EGLL 130320Z AUTO 17012KT 9999 BKN031 19/14 Q1011
                        NOSIG=
201810130250 METAR COR EGLL 130250Z AUTO 19015KT 9999 BKN027 OVC035 20/14
                        Q1011 NOSIG=
201810130220 METAR COR EGLL 130220Z AUTO 19015KT 9999 BKN027 20/14 Q1011
                        NOSIG=
201810130150 METAR COR EGLL 130150Z AUTO 19015KT 9999 BKN027 OVC033 20/14
                        Q1011 NOSIG=
201810130120 METAR COR EGLL 130120Z AUTO 18014KT 9999 OVC026 20/14 Q1012
                        NOSIG=
201810130050 METAR COR EGLL 130050Z AUTO 20012KT 9999 OVC024 20/14 Q1011
                        NOSIG=
201810130020 METAR COR EGLL 130020Z AUTO 20015KT 9999 OVC026 20/14 Q1011
                        NOSIG=
201810122350 METAR COR EGLL 122350Z AUTO 20015KT 9999 OVC027 20/14 Q1012
                        NOSIG=
201810122320 METAR COR EGLL 122320Z AUTO 19013KT 9999 OVC028 20/14 Q1011
                        NOSIG=
201810122250 METAR COR EGLL 122250Z AUTO 20014KT 9999 BKN028 20/14 Q1012
                        NOSIG=
201810122220 METAR COR EGLL 122220Z AUTO 20019KT 9999 BKN030 BKN040 20/13
                        Q1012 NOSIG=
201810122150 METAR COR EGLL 122150Z AUTO 19017KT 9999 SCT031 OVC049 21/13
                        Q1011 NOSIG=
201810122120 METAR COR EGLL 122120Z AUTO 20019KT 9999 SCT034 OVC047 21/13
                        Q1011 NOSIG=
201810122050 METAR COR EGLL 122050Z AUTO 20017KT 9999 BKN033 OVC049 21/13
                        Q1011 NOSIG=
201810122020 METAR COR EGLL 122020Z AUTO 21021G33KT 9999 BKN034 OVC047
                        21/13 Q1011 NOSIG=
201810121950 METAR COR EGLL 121950Z AUTO 20021G32KT 9999 BKN035 OVC048
                        21/12 Q1011 NOSIG=
201810121920 METAR COR EGLL 121920Z AUTO 20020G31KT 9999 BKN041 21/13
                        Q1011 NOSIG=
201810121850 METAR COR EGLL 121850Z AUTO 21022G33KT 9999 SCT039 BKN048
                        21/12 Q1011 NOSIG=
201810121820 METAR COR EGLL 121820Z AUTO 20020G33KT 9999 BKN038 21/13
                        Q1011 NOSIG=
201810121750 METAR COR EGLL 121750Z AUTO 21021G33KT 9999 BKN035 BKN043
                        20/13 Q1010 NOSIG=
201810121720 METAR COR EGLL 121720Z AUTO 21020G31KT 9999 BKN029 20/14
                        Q1010 NOSIG=
201810121650 METAR COR EGLL 121650Z AUTO 19017G28KT 9999 SCT035 BKN045
                        20/14 Q1010 NOSIG=
201810121620 METAR COR EGLL 121620Z AUTO 19019KT 9999 BKN038 OVC046 20/14
                        Q1009 NOSIG=
201810121550 METAR COR EGLL 121550Z AUTO 19019KT 9999 OVC036 20/14 Q1009
                        NOSIG=
201810121520 METAR COR EGLL 121520Z AUTO 20021KT 9999 BKN036 20/13 Q1009
                        NOSIG=
201810121450 METAR COR EGLL 121450Z AUTO 19017KT 9999 BKN036 20/13 Q1010
                        NOSIG=
201810121420 METAR COR EGLL 121420Z AUTO 18017G30KT 9999 FEW038 20/12
                        Q1010 NOSIG=
201810121350 METAR COR EGLL 121350Z AUTO 19020G31KT 170V230 9999 NCD 20/11
                        Q1010 NOSIG=
201810121320 METAR COR EGLL 121320Z AUTO 19021KT 170V230 9999 NCD 20/11
                        Q1010 NOSIG=
201810121250 METAR COR EGLL 121250Z AUTO 19020KT 9999 NCD 20/11 Q1010
                        NOSIG=
201810121220 METAR COR EGLL 121220Z AUTO 19021KT 9999 NCD 20/11 Q1010
                        NOSIG=
201810121150 METAR COR EGLL 121150Z AUTO 19021G31KT 9999 FEW040 20/12
                        Q1010 NOSIG=
201810121120 METAR COR EGLL 121120Z AUTO 19019KT 170V230 9999 BKN049 21/12
                        Q1010 NOSIG=
201810121050 METAR COR EGLL 121050Z AUTO 20016KT 170V230 9999 BKN043 20/11
                        Q1010 NOSIG=
201810121020 METAR COR EGLL 121020Z AUTO 19017KT 9999 BKN039 19/12 Q1010
                        NOSIG=
201810120950 METAR COR EGLL 120950Z AUTO 19016KT 9999 BKN038 18/12 Q1010
                        NOSIG=
201810120920 METAR COR EGLL 120920Z AUTO 20018KT 170V230 9999 BKN037 18/12
                        Q1010 NOSIG=
201810120850 METAR COR EGLL 120850Z AUTO 19015G26KT 160V240 9999 SCT032
                        17/12 Q1009 NOSIG=
201810120820 METAR COR EGLL 120820Z AUTO 19014KT 9999 NCD 17/12 Q1009
                        NOSIG=
201810120750 METAR COR EGLL 120750Z AUTO 19012KT 150V230 9999 NCD 17/12
                        Q1009 NOSIG=
201810120720 METAR COR EGLL 120720Z AUTO 19012KT 9999 FEW048 16/12 Q1009
                        NOSIG=
201810120650 METAR COR EGLL 120650Z AUTO 18014KT 9999 NCD 16/12 Q1009
                        NOSIG=
201810120620 METAR COR EGLL 120620Z AUTO 18014KT 9999 NCD 15/12 Q1008
                        NOSIG=
201810120550 METAR COR EGLL 120550Z AUTO 18013KT 9999 NCD 15/12 Q1008
                        NOSIG=
201810120520 METAR COR EGLL 120520Z AUTO 18013G23KT 9999 NCD 15/12 Q1008
                        NOSIG=
201810120450 METAR COR EGLL 120450Z AUTO 19014KT 9999 -RA NCD 15/12 Q1008
                        NOSIG=
201810120420 METAR COR EGLL 120420Z AUTO 18012KT 9999 FEW023 15/12 Q1008
                        NOSIG=
201810120350 METAR COR EGLL 120350Z AUTO 18012KT 9999 NCD 15/12 Q1008
                        NOSIG=
201810120320 METAR COR EGLL 120320Z AUTO 17010KT 9999 FEW021 14/12 Q1008
                        NOSIG=
201810120250 METAR COR EGLL 120250Z AUTO 17009KT 9999 NCD 14/12 Q1008
                        NOSIG=
201810120220 METAR COR EGLL 120220Z AUTO 17008KT 9999 FEW025 14/12 Q1008
                        NOSIG=
201810120150 METAR COR EGLL 120150Z AUTO 18008KT 9999 NCD 14/12 Q1008
                        NOSIG=
201810120120 METAR COR EGLL 120120Z AUTO 19009KT 9999 NCD 14/12 Q1008
                        NOSIG=
201810120050 METAR COR EGLL 120050Z AUTO 19009KT 9999 NCD 14/12 Q1008
                        NOSIG=
201810120020 METAR COR EGLL 120020Z AUTO 18008KT 9999 NCD 14/12 Q1008
                        NOSIG=
201810112350 METAR COR EGLL 112350Z AUTO 17007KT 9999 NCD 14/13 Q1008
                        NOSIG=
201810112320 METAR COR EGLL 112320Z AUTO 18007KT 9999 FEW020 14/13 Q1008
                        NOSIG=
201810112250 METAR COR EGLL 112250Z AUTO 18007KT 9999 SCT018 14/13 Q1008
                        NOSIG=
201810112220 METAR COR EGLL 112220Z AUTO 18009KT 9999 FEW016 14/13 Q1007
                        NOSIG=
201810112150 METAR COR EGLL 112150Z AUTO 19007KT 9999 SCT016 BKN022 BKN041
                        14/13 Q1007 NOSIG=
201810112120 METAR COR EGLL 112120Z AUTO 18007KT 160V220 9999 FEW018 SCT026
                        BKN031 15/13 Q1007 NOSIG=
201810112050 METAR COR EGLL 112050Z AUTO 19007KT 170V260 9999 BKN030 15/13
                        Q1007 NOSIG=
201810112020 METAR COR EGLL 112020Z AUTO 19008KT 9999 FEW031 15/13 Q1006
                        NOSIG=
201810111950 METAR COR EGLL 111950Z AUTO 18008KT 150V210 9999 NCD 15/13
                        Q1006 NOSIG=
201810111920 METAR EGLL 111920Z AUTO 17008KT 9999 FEW037 15/13 Q1006=
201810111850 METAR COR EGLL 111850Z AUTO 20010KT 150V240 9999 SCT026 BKN038
                        15/13 Q1005 NOSIG=
201810111820 METAR COR EGLL 111820Z AUTO 20012KT 9999 -RA SCT013/// BKN034///
                        //////CB 15/14 Q1006 RERA NOSIG=
201810111750 METAR COR EGLL 111750Z 21009KT 4000 +RA SCT018CB BKN028 BKN039
                        16/15 Q1005 BECMG 8000 -RA=
201810111720 METAR COR EGLL 111720Z AUTO 18011KT 4900 RA FEW018/// SCT026///
                        BKN034/// //////CB 17/15 Q1005 BECMG
                        8000 -RA=
201810111650 METAR COR EGLL 111650Z AUTO 19013KT 9999 -RA FEW023 SCT036
                        18/14 Q1005 TEMPO 4000 +RA=
201810111620 METAR COR EGLL 111620Z AUTO 18013G24KT 9999 -RA FEW025 18/14
                        Q1004 TEMPO RA=
201810111550 METAR COR EGLL 111550Z AUTO 18014KT 9999 FEW023 18/14 Q1004
                        TEMPO RA=
201810111520 METAR COR EGLL 111520Z AUTO 18013KT 9999 -RA NCD 19/14 Q1004
                        TEMPO RA=
201810111450 METAR COR EGLL 111450Z AUTO 18014KT 9999 -RA NCD 19/14 Q1004
                        TEMPO RA=
201810111420 METAR COR EGLL 111420Z AUTO 18012KT 160V220 9999 -RA NCD
                        19/14 Q1003 TEMPO RA=
201810111350 METAR COR EGLL 111350Z AUTO 18013KT 9999 -RA SCT023 BKN030
                        19/14 Q1004 TEMPO RA=
201810111320 METAR COR EGLL 111320Z AUTO 19015KT 9999 BKN024 BKN033 20/14
                        Q1003 TEMPO -RA BKN014=
201810111250 METAR COR EGLL 111250Z AUTO 17014KT 9999 SCT026 BKN034 20/14
                        Q1003 NOSIG=
201810111220 METAR COR EGLL 111220Z AUTO 17014KT 9999 SCT028 BKN034 20/14
                        Q1003 NOSIG=
201810111150 METAR COR EGLL 111150Z AUTO 17012KT 9999 SCT028 20/14 Q1003
                        NOSIG=
201810111120 METAR COR EGLL 111120Z AUTO 16014KT 9999 FEW024 20/14 Q1003
                        NOSIG=
201810111050 METAR COR EGLL 111050Z AUTO 16014KT 9999 SCT021 SCT026 19/14
                        Q1004 NOSIG=
201810111020 METAR COR EGLL 111020Z AUTO 16014KT 9999 SCT021 19/14 Q1004
                        NOSIG=
201810110950 METAR COR EGLL 110950Z AUTO 17013KT 9999 BKN019 19/14 Q1004
                        NOSIG=
201810110920 METAR COR EGLL 110920Z AUTO 16013KT 9999 BKN018 18/14 Q1004
                        NOSIG=
201810110850 METAR COR EGLL 110850Z AUTO 16010KT 9999 BKN017 18/14 Q1004
                        NOSIG=
201810110820 METAR COR EGLL 110820Z AUTO 16010KT 9999 BKN017 17/14 Q1004
                        NOSIG=
201810110750 METAR COR EGLL 110750Z AUTO 17009KT 9999 BKN016 16/13 Q1004
                        NOSIG=
201810110720 METAR COR EGLL 110720Z AUTO 15008KT 9999 OVC018 16/13 Q1004
                        NOSIG=
201810110650 METAR COR EGLL 110650Z AUTO 14007KT 9999 BKN019 16/13 Q1004
                        NOSIG=
201810110620 METAR COR EGLL 110620Z AUTO 14009KT 9999 SCT021 16/13 Q1004
                        NOSIG=
201810110550 METAR COR EGLL 110550Z AUTO 15009KT 9999 NCD 16/13 Q1003
                        NOSIG=
201810110520 METAR COR EGLL 110520Z AUTO 16008KT 9999 NCD 16/13 Q1003
                        NOSIG=
201810110450 METAR COR EGLL 110450Z AUTO 15009KT 9999 NCD 16/13 Q1003
                        NOSIG=
201810110420 METAR COR EGLL 110420Z AUTO 14006KT 9999 NCD 16/14 Q1003
                        NOSIG=
201810110350 METAR COR EGLL 110350Z AUTO 15005KT 9999 NCD 16/14 Q1003
                        NOSIG=
201810110320 METAR COR EGLL 110320Z AUTO 14006KT 9999 -RA NCD 16/14 Q1003
                        NOSIG=
201810110250 METAR COR EGLL 110250Z AUTO 14005KT 9999 NCD 16/13 Q1003
                        NOSIG=
201810110220 METAR COR EGLL 110220Z AUTO 15006KT 9999 NCD 15/13 Q1004
                        NOSIG=
201810110150 METAR COR EGLL 110150Z AUTO 14006KT 9999 NCD 16/13 Q1004
                        NOSIG=
201810110120 METAR COR EGLL 110120Z AUTO 14007KT 9999 NCD 16/13 Q1004
                        NOSIG=
201810110050 METAR COR EGLL 110050Z AUTO 13009KT 9999 NCD 16/13 Q1005
                        TEMPO 9000=
201810110020 METAR COR EGLL 110020Z AUTO 11006KT 9000 NCD 16/13 Q1005
                        TEMPO 9999=
201810102350 METAR COR EGLL 102350Z AUTO 12007KT 9999 NCD 16/13 Q1005
                        NOSIG=
201810102320 METAR COR EGLL 102320Z AUTO 12007KT 9000 NCD 16/13 Q1005
                        NOSIG=
201810102250 METAR COR EGLL 102250Z AUTO 10007KT 6000 NCD 16/13 Q1005
                        BECMG 6000=
201810102220 METAR COR EGLL 102220Z AUTO 09008KT 4200 HZ NCD 16/14 Q1005
                        BECMG 6000=
201810102150 METAR COR EGLL 102150Z AUTO 09009KT 3600 HZ NCD 16/14 Q1006
                        NOSIG=
201810102120 METAR COR EGLL 102120Z AUTO 09008KT 3300 HZ NCD 16/14 Q1006
                        NOSIG=
201810102050 METAR COR EGLL 102050Z AUTO 09008KT 2900 HZ NCD 15/14 Q1007
                        NOSIG=
201810102020 METAR COR EGLL 102020Z AUTO 07007KT 3400 HZ NCD 16/13 Q1007
                        NOSIG=
201810101950 METAR COR EGLL 101950Z AUTO 10008KT 4000 HZ NCD 16/13 Q1007
                        NOSIG=
201810101920 METAR COR EGLL 101920Z AUTO 08006KT 4600 HZ NCD 16/14 Q1007
                        NOSIG=
201810101850 METAR COR EGLL 101850Z AUTO 09010KT 5000 HZ NCD 17/14 Q1008
                        TEMPO 4000=
201810101820 METAR COR EGLL 101820Z AUTO 08009KT 5000 HZ NCD 17/14 Q1008
                        TEMPO 4000=
201810101750 METAR COR EGLL 101750Z AUTO 09009KT 6000 NCD 18/14 Q1008
                        NOSIG=
201810101720 METAR COR EGLL 101720Z AUTO 09008KT 8000 NCD 18/13 Q1008
                        NOSIG=
201810101650 METAR COR EGLL 101650Z AUTO 08011KT 9000 NCD 20/14 Q1008
                        NOSIG=
201810101620 METAR COR EGLL 101620Z AUTO 09010KT 9999 NCD 21/14 Q1009
                        NOSIG=
201810101550 METAR COR EGLL 101550Z AUTO 09010KT 9999 NCD 21/13 Q1009
                        NOSIG=
201810101520 METAR COR EGLL 101520Z AUTO 09009KT 9999 NCD 22/14 Q1009
                        NOSIG=
201810101450 METAR COR EGLL 101450Z AUTO 09010KT 9999 NCD 23/14 Q1010
                        NOSIG=
201810101420 METAR COR EGLL 101420Z AUTO 08009KT 9999 NCD 23/13 Q1010
                        NOSIG=
201810101350 METAR COR EGLL 101350Z AUTO 12010KT 9999 NCD 24/12 Q1010
                        NOSIG=
201810101320 METAR COR EGLL 101320Z AUTO 12010KT 9999 NCD 23/12 Q1011
                        NOSIG=
201810101250 METAR COR EGLL 101250Z AUTO 12013KT 9999 NCD 23/12 Q1011
                        NOSIG=
201810101220 METAR COR EGLL 101220Z AUTO 12013KT 9999 NCD 23/13 Q1012
                        NOSIG=
201810101150 METAR COR EGLL 101150Z AUTO 11011KT 9999 NCD 23/12 Q1012
                        NOSIG=
201810101120 METAR COR EGLL 101120Z AUTO 09010KT 9999 NCD 22/14 Q1013
                        NOSIG=
201810101050 METAR COR EGLL 101050Z AUTO 09009KT 9999 NCD 20/14 Q1013
                        NOSIG=
201810101020 METAR COR EGLL 101020Z AUTO 09008KT 9999 NCD 20/14 Q1013
                        NOSIG=
201810100950 METAR COR EGLL 100950Z AUTO 11008KT 9999 NCD 19/14 Q1014
                        NOSIG=
201810100920 METAR COR EGLL 100920Z AUTO 09009KT 9000 NCD 18/14 Q1014
                        NOSIG=
201810100850 METAR COR EGLL 100850Z AUTO 08009KT 7000 NCD 16/14 Q1014
                        NOSIG=
201810100820 METAR COR EGLL 100820Z AUTO 07005KT 6000 NCD 15/13 Q1015
                        NOSIG=
201810100750 METAR COR EGLL 100750Z AUTO 07004KT 5000 HZ NCD 13/12 Q1015
                        NOSIG=
201810100720 METAR COR EGLL 100720Z AUTO 08005KT 4100 HZ NCD 12/11 Q1015
                        BECMG 6000=
201810100650 METAR COR EGLL 100650Z AUTO 07005KT 4800 HZ NCD 11/10 Q1015
                        BECMG 6000=
201810100620 METAR COR EGLL 100620Z AUTO 06006KT 5000 HZ NCD 11/10 Q1015
                        NOSIG=
201810100550 METAR COR EGLL 100550Z AUTO 06003KT 6000 NCD 10/09 Q1015
                        NOSIG=
201810100520 METAR COR EGLL 100520Z AUTO 03002KT 7000 NCD 10/09 Q1015
                        NOSIG=
201810100450 METAR COR EGLL 100450Z AUTO 05002KT 7000 NCD 10/08 Q1015
                        NOSIG=
201810100420 METAR COR EGLL 100420Z AUTO VRB02KT 8000 NCD 10/09 Q1015
                        NOSIG=
201810100350 METAR COR EGLL 100350Z AUTO 36002KT 9000 NCD 10/09 Q1016
                        NOSIG=
201810100320 METAR COR EGLL 100320Z AUTO VRB02KT 9999 NCD 11/09 Q1016
                        NOSIG=
201810100250 METAR COR EGLL 100250Z AUTO 04003KT 9999 NCD 11/09 Q1016
                        NOSIG=
201810100220 METAR COR EGLL 100220Z AUTO 06002KT 9999 NCD 11/09 Q1017
                        NOSIG=
201810100150 METAR COR EGLL 100150Z AUTO 02001KT 9999 NCD 11/09 Q1017
                        NOSIG=
201810100120 METAR COR EGLL 100120Z AUTO 02001KT 9999 NCD 11/09 Q1017
                        NOSIG=
201810100050 METAR COR EGLL 100050Z AUTO 06002KT 9999 NCD 11/09 Q1017
                        NOSIG=
201810100020 METAR COR EGLL 100020Z AUTO 07002KT 9999 NCD 12/10 Q1017
                        NOSIG=
201810092350 METAR COR EGLL 092350Z AUTO 08002KT 9999 NCD 12/10 Q1018
                        NOSIG=
201810092320 METAR COR EGLL 092320Z AUTO 06002KT 8000 NCD 12/10 Q1018
                        NOSIG=
201810092250 METAR COR EGLL 092250Z AUTO 06002KT 9999 NCD 12/10 Q1018
                        NOSIG=
201810092220 METAR COR EGLL 092220Z AUTO 08002KT 9999 NCD 13/10 Q1018
                        NOSIG=
201810092150 METAR COR EGLL 092150Z AUTO VRB02KT 9999 NCD 13/10 Q1018
                        NOSIG=
201810092120 METAR COR EGLL 092120Z AUTO VRB02KT 9999 NCD 14/10 Q1018
                        NOSIG=
201810092050 METAR COR EGLL 092050Z AUTO VRB03KT 9999 NCD 14/11 Q1018
                        NOSIG=
201810092020 METAR COR EGLL 092020Z AUTO VRB03KT 9999 NCD 14/11 Q1018
                        NOSIG=
201810091950 METAR COR EGLL 091950Z AUTO 15005KT 110V210 9999 NCD 14/11
                        Q1018 NOSIG=
201810091920 METAR COR EGLL 091920Z AUTO 16004KT 120V220 9999 NCD 15/11
                        Q1018 NOSIG=
201810091850 METAR COR EGLL 091850Z AUTO 14005KT 110V170 9999 NCD 15/11
                        Q1018 NOSIG=
201810091820 METAR COR EGLL 091820Z AUTO 17005KT 120V200 9999 NCD 16/11
                        Q1018 NOSIG=
201810091750 METAR COR EGLL 091750Z AUTO 17006KT 130V230 9999 NCD 17/11
                        Q1018 NOSIG=
201810091720 METAR COR EGLL 091720Z AUTO 19008KT 9999 NCD 18/10 Q1017
                        NOSIG=
201810091650 METAR COR EGLL 091650Z AUTO 19008KT 9999 NCD 19/10 Q1017
                        NOSIG=
201810091620 METAR COR EGLL 091620Z AUTO 20010KT 9999 NCD 19/09 Q1017
                        NOSIG=
201810091550 METAR COR EGLL 091550Z AUTO 19010KT 9999 NCD 20/09 Q1017
                        NOSIG=
201810091520 METAR COR EGLL 091520Z AUTO 19010G20KT 9999 NCD 20/09 Q1017
                        NOSIG=
201810091450 METAR COR EGLL 091450Z AUTO 20011G21KT 150V220 9999 NCD 21/08
                        Q1017 NOSIG=
201810091420 METAR COR EGLL 091420Z AUTO 19011KT 160V230 9999 NCD 21/08
                        Q1017 NOSIG=
201810091350 METAR COR EGLL 091350Z AUTO 19010KT 160V250 9999 NCD 21/09
                        Q1018 NOSIG=
201810091320 METAR COR EGLL 091320Z AUTO 20010KT 170V240 9999 NCD 20/10
                        Q1018 NOSIG=
201810091250 METAR COR EGLL 091250Z AUTO 20009KT 170V240 9999 NCD 20/10
                        Q1018 NOSIG=
201810091220 METAR COR EGLL 091220Z AUTO 21010KT 9999 NCD 20/10 Q1018
                        NOSIG=
201810091150 METAR COR EGLL 091150Z AUTO 20010KT 170V250 9999 NCD 19/10
                        Q1018 NOSIG=
201810091120 METAR COR EGLL 091120Z AUTO 20010KT 170V240 9999 NCD 19/10
                        Q1019 NOSIG=
201810091050 METAR COR EGLL 091050Z AUTO 20010KT 150V260 9999 NCD 18/09
                        Q1019 NOSIG=
201810091020 METAR COR EGLL 091020Z AUTO 21008KT 180V240 9999 NCD 17/10
                        Q1019 NOSIG=
201810090950 METAR COR EGLL 090950Z AUTO 21009KT 180V250 9999 NCD 16/11
                        Q1019 NOSIG=
201810090920 METAR COR EGLL 090920Z AUTO 22007KT 180V250 9999 NCD 14/11
                        Q1019 NOSIG=
201810090850 METAR COR EGLL 090850Z AUTO 20006KT 140V250 9999 NCD 13/11
                        Q1019 NOSIG=
201810090820 METAR COR EGLL 090820Z AUTO 19005KT 160V250 9999 NCD 12/10
                        Q1019 NOSIG=
201810090750 METAR COR EGLL 090750Z AUTO 20005KT 150V250 9999 NCD 11/10
                        Q1019 NOSIG=
201810090720 METAR COR EGLL 090720Z AUTO 19004KT 150V230 9000 NCD 10/09
                        Q1019 NOSIG=
201810090650 METAR COR EGLL 090650Z AUTO 20004KT 150V230 8000 NCD 09/08
                        Q1019 NOSIG=
201810090620 METAR COR EGLL 090620Z AUTO 20005KT 150V230 7000 NCD 09/09
                        Q1019 NOSIG=
201810090550 METAR COR EGLL 090550Z AUTO VRB03KT 9999 NCD 09/08 Q1019
                        NOSIG=
201810090520 METAR COR EGLL 090520Z AUTO VRB03KT 9999 NCD 10/09 Q1018
                        NOSIG=
201810090450 METAR EGLL 090450Z AUTO 21002KT 9999 NCD 10/09 Q1018=
201810090420 METAR COR EGLL 090420Z AUTO 18005KT 9999 FEW019 10/09 Q1018
                        NOSIG=
201810090350 METAR COR EGLL 090350Z AUTO 19005KT 9999 SCT019 09/09 Q1018
                        NOSIG=
201810090320 METAR COR EGLL 090320Z AUTO 19003KT 9999 SCT020 10/09 Q1018
                        NOSIG=
201810090250 METAR COR EGLL 090250Z AUTO 21005KT 9999 NCD 10/09 Q1019
                        NOSIG=
201810090220 METAR COR EGLL 090220Z AUTO 22005KT 9999 NCD 10/09 Q1019
                        NOSIG=
201810090150 METAR COR EGLL 090150Z AUTO 21005KT 9999 BKN022 11/09 Q1019
                        NOSIG=
201810090120 METAR COR EGLL 090120Z AUTO 20004KT 9999 SCT023 11/09 Q1019
                        NOSIG=
201810090050 METAR COR EGLL 090050Z AUTO 21005KT 9999 BKN023 12/09 Q1020
                        NOSIG=
201810090020 METAR COR EGLL 090020Z AUTO 22007KT 9999 OVC023 12/09 Q1020
                        NOSIG=
201810082350 METAR COR EGLL 082350Z AUTO 22007KT 9999 BKN023 11/09 Q1020
                        NOSIG=
201810082320 METAR COR EGLL 082320Z AUTO 21007KT 9999 NCD 11/09 Q1020
                        NOSIG=
201810082250 METAR COR EGLL 082250Z AUTO 21007KT 9999 NCD 11/09 Q1020
                        NOSIG=
201810082220 METAR COR EGLL 082220Z AUTO 21008KT 9999 NCD 11/09 Q1020
                        NOSIG=
201810082150 METAR COR EGLL 082150Z AUTO 21008KT 9999 NCD 12/09 Q1020
                        NOSIG=
201810082120 METAR COR EGLL 082120Z AUTO 21007KT 9999 NCD 12/09 Q1021
                        NOSIG=
201810082050 METAR COR EGLL 082050Z AUTO 22007KT 9999 NCD 13/09 Q1020
                        NOSIG=
201810082020 METAR COR EGLL 082020Z AUTO 22007KT 9999 NCD 13/09 Q1020
                        NOSIG=
201810081950 METAR COR EGLL 081950Z AUTO 22008KT 190V250 9999 SCT028 13/09
                        Q1020 NOSIG=
201810081920 METAR COR EGLL 081920Z AUTO 23009KT 9999 OVC029 14/09 Q1021
                        NOSIG=
201810081850 METAR COR EGLL 081850Z AUTO 23008KT 9999 OVC031 14/09 Q1020
                        NOSIG=
201810081820 METAR COR EGLL 081820Z AUTO 23009KT 210V270 9999 OVC032 14/09
                        Q1020 NOSIG=
201810081750 METAR COR EGLL 081750Z AUTO 22008KT 9999 OVC033 15/09 Q1020
                        NOSIG=
201810081720 METAR COR EGLL 081720Z AUTO 24009KT 9999 OVC032 15/09 Q1020
                        NOSIG=
201810081650 METAR COR EGLL 081650Z AUTO 24008KT 9999 BKN032 15/09 Q1020
                        NOSIG=
201810081620 METAR COR EGLL 081620Z AUTO 23010KT 9999 BKN033 15/09 Q1020
                        NOSIG=
201810081550 METAR COR EGLL 081550Z AUTO 23011KT 9999 OVC033 16/09 Q1020
                        NOSIG=
201810081520 METAR COR EGLL 081520Z AUTO 24012KT 9999 BKN032 16/09 Q1020
                        NOSIG=
201810081450 METAR COR EGLL 081450Z AUTO 23012KT 9999 BKN031 16/09 Q1020
                        NOSIG=
201810081420 METAR COR EGLL 081420Z AUTO 23011KT 9999 BKN031 16/09 Q1020
                        NOSIG=
201810081350 METAR COR EGLL 081350Z AUTO 24012KT 9999 BKN030 16/09 Q1021
                        NOSIG=
201810081320 METAR EGLL 081320Z AUTO 24012KT 9999 BKN029 16/09 Q1021=
201810081250 METAR COR EGLL 081250Z AUTO 23011KT 200V260 9999 BKN028 16/09
                        Q1021 NOSIG=
201810081220 METAR COR EGLL 081220Z AUTO 23011KT 9999 BKN030 16/09 Q1021
                        NOSIG=
201810081150 METAR COR EGLL 081150Z AUTO 24013KT 9999 SCT027 BKN031 15/09
                        Q1022 NOSIG=
201810081120 METAR COR EGLL 081120Z AUTO 22010KT 9999 OVC027 15/10 Q1022
                        NOSIG=
201810081050 METAR COR EGLL 081050Z AUTO 22010KT 180V260 9999 BKN033 15/09
                        Q1022 NOSIG=
201810081020 METAR COR EGLL 081020Z AUTO 21009KT 9999 BKN030 13/09 Q1022
                        NOSIG=
201810080950 METAR COR EGLL 080950Z AUTO 21007KT 170V250 9999 BKN030 13/09
                        Q1022 NOSIG=
201810080920 METAR COR EGLL 080920Z AUTO 23007KT 200V260 9999 OVC029 12/08
                        Q1022 NOSIG=
201810080850 METAR COR EGLL 080850Z AUTO 23007KT 9999 BKN029 11/08 Q1022
                        NOSIG=
201810080820 METAR COR EGLL 080820Z AUTO 23007KT 9999 BKN028 10/07 Q1022
                        NOSIG=
201810080750 METAR COR EGLL 080750Z AUTO 23007KT 9999 OVC028 09/07 Q1022
                        NOSIG=
201810080720 METAR COR EGLL 080720Z AUTO 23007KT 9999 OVC027 09/07 Q1021
                        NOSIG=
201810080650 METAR COR EGLL 080650Z AUTO 23006KT 9999 BKN028 08/06 Q1021
                        NOSIG=
201810080620 METAR COR EGLL 080620Z AUTO 23005KT 9999 NCD 08/06 Q1021
                        NOSIG=
201810080550 METAR COR EGLL 080550Z AUTO 22006KT 190V270 9999 NCD 07/06
                        Q1021 NOSIG=
201810080520 METAR COR EGLL 080520Z AUTO 21005KT 180V250 9999 NCD 06/05
                        Q1021 NOSIG=
201810080450 METAR COR EGLL 080450Z AUTO 22005KT 9999 NCD 07/05 Q1021
                        NOSIG=
201810080420 METAR COR EGLL 080420Z AUTO 23004KT 9999 NCD 07/05 Q1021
                        NOSIG=
201810080350 METAR COR EGLL 080350Z AUTO 23004KT 9999 NCD 07/04 Q1021
                        NOSIG=
201810080320 METAR COR EGLL 080320Z AUTO 22005KT 9999 NCD 07/04 Q1021
                        NOSIG=
201810080250 METAR COR EGLL 080250Z AUTO 20005KT 9999 NCD 07/04 Q1021
                        NOSIG=
201810080220 METAR COR EGLL 080220Z AUTO 21005KT 9999 NCD 07/04 Q1022
                        NOSIG=
201810080150 METAR COR EGLL 080150Z AUTO 22003KT 9999 NCD 07/03 Q1022
                        NOSIG=
201810080120 METAR COR EGLL 080120Z AUTO 21005KT 9999 NCD 08/03 Q1022
                        NOSIG=
201810080050 METAR COR EGLL 080050Z AUTO 23003KT 9999 NCD 08/03 Q1022
                        NOSIG=
201810080020 METAR COR EGLL 080020Z AUTO VRB02KT 9999 NCD 08/03 Q1023
                        NOSIG=
201810072350 METAR COR EGLL 072350Z AUTO 23004KT 9999 NCD 08/03 Q1023
                        NOSIG=
201810072320 METAR COR EGLL 072320Z AUTO 22004KT 9999 NCD 08/04 Q1023
                        NOSIG=
201810072250 METAR COR EGLL 072250Z AUTO 21004KT 9999 NCD 08/04 Q1023
                        NOSIG=
201810072220 METAR COR EGLL 072220Z AUTO 22006KT 9999 NCD 09/04 Q1023
                        NOSIG=
201810072150 METAR COR EGLL 072150Z AUTO 24009KT 200V270 9999 NCD 10/04
                        Q1023 NOSIG=
201810072120 METAR COR EGLL 072120Z AUTO 25008KT 9999 NCD 10/03 Q1023
                        NOSIG=
201810072050 METAR COR EGLL 072050Z AUTO 24007KT 9999 NCD 10/03 Q1023
                        NOSIG=
201810072020 METAR COR EGLL 072020Z AUTO 25008KT 9999 NCD 10/04 Q1024
                        NOSIG=
201810071950 METAR COR EGLL 071950Z AUTO 25007KT 9999 NCD 09/05 Q1024
                        NOSIG=
201810071920 METAR COR EGLL 071920Z AUTO 27007KT 9999 NCD 11/04 Q1023
                        NOSIG=
201810071850 METAR COR EGLL 071850Z AUTO 25007KT 9999 NCD 11/05 Q1023
                        NOSIG=
201810071820 METAR COR EGLL 071820Z AUTO 26005KT 9999 NCD 11/04 Q1023
                        NOSIG=
201810071750 METAR COR EGLL 071750Z AUTO 27007KT 9999 NCD 10/05 Q1023
                        NOSIG=
201810071720 METAR COR EGLL 071720Z AUTO 28007KT 9999 NCD 11/04 Q1023
                        NOSIG=
201810071650 METAR COR EGLL 071650Z AUTO 27008KT 9999 NCD 12/05 Q1023
                        NOSIG=
201810071620 METAR COR EGLL 071620Z AUTO 28007KT 9999 NCD 13/05 Q1023
                        NOSIG=
201810071550 METAR COR EGLL 071550Z AUTO 28006KT 9999 NCD 13/05 Q1023
                        NOSIG=
201810071520 METAR COR EGLL 071520Z AUTO 29005KT 250V330 9999 NCD 14/04
                        Q1023 NOSIG=
201810071450 METAR COR EGLL 071450Z AUTO VRB03KT 9999 NCD 14/05 Q1023
                        NOSIG=
201810071420 METAR COR EGLL 071420Z AUTO 31004KT 270V360 9999 NCD 14/05
                        Q1023 NOSIG=
201810071350 METAR COR EGLL 071350Z AUTO VRB03KT 9999 NCD 14/05 Q1023
                        NOSIG=
201810071320 METAR COR EGLL 071320Z AUTO VRB02KT 9999 NCD 14/05 Q1023
                        NOSIG=
201810071250 METAR COR EGLL 071250Z AUTO VRB02KT 9999 NCD 14/05 Q1023
                        NOSIG=
201810071220 METAR COR EGLL 071220Z AUTO VRB03KT 9999 NCD 14/05 Q1023
                        NOSIG=
201810071150 METAR COR EGLL 071150Z AUTO 02004KT 310V100 9999 NCD 14/05
                        Q1023 NOSIG=
201810071120 METAR COR EGLL 071120Z AUTO 03005KT 330V070 9999 NCD 13/05
                        Q1024 NOSIG=
201810071050 METAR COR EGLL 071050Z AUTO 35004KT 300V060 9999 NCD 13/06
                        Q1024 NOSIG=
201810071020 METAR COR EGLL 071020Z AUTO 04005KT 360V070 9999 NCD 12/06
                        Q1024 NOSIG=
201810070950 METAR COR EGLL 070950Z AUTO 03006KT 340V060 9999 NCD 12/06
                        Q1024 NOSIG=
201810070920 METAR COR EGLL 070920Z AUTO VRB03KT 9999 NCD 11/06 Q1024
                        NOSIG=
201810070850 METAR COR EGLL 070850Z AUTO 01006KT 330V070 9999 NCD 10/06
                        Q1024 NOSIG=
201810070820 METAR COR EGLL 070820Z AUTO 01005KT 330V050 9999 NCD 08/05
                        Q1023 NOSIG=
201810070750 METAR COR EGLL 070750Z AUTO 36006KT 330V050 9999 NCD 07/04
                        Q1023 NOSIG=
201810070720 METAR COR EGLL 070720Z AUTO 35006KT 310V020 9999 NCD 06/04
                        Q1023 NOSIG=
201810070650 METAR COR EGLL 070650Z AUTO 35004KT 310V030 9999 NCD 06/04
                        Q1022 NOSIG=
201810070620 METAR COR EGLL 070620Z AUTO 36005KT 9999 NCD 05/04 Q1022
                        NOSIG=
201810070550 METAR COR EGLL 070550Z AUTO 35005KT 320V050 9999 NCD 05/04
                        Q1022 NOSIG=
201810070520 METAR COR EGLL 070520Z AUTO 36005KT 320V030 9999 NCD 05/04
                        Q1021 NOSIG=
201810070450 METAR COR EGLL 070450Z AUTO 36005KT 320V030 9999 NCD 06/04
                        Q1021 NOSIG=
201810070420 METAR COR EGLL 070420Z AUTO 36007KT 9999 NCD 06/04 Q1021
                        NOSIG=
201810070350 METAR COR EGLL 070350Z AUTO 36006KT 320V020 9999 NCD 06/04
                        Q1021 NOSIG=
201810070320 METAR COR EGLL 070320Z AUTO 36006KT 9999 NCD 06/04 Q1020
                        NOSIG=
201810070250 METAR COR EGLL 070250Z AUTO 36007KT 320V030 9999 NCD 07/04
                        Q1020 NOSIG=
201810070220 METAR COR EGLL 070220Z AUTO 36007KT 9999 NCD 07/04 Q1020
                        NOSIG=
201810070150 METAR COR EGLL 070150Z AUTO 36008KT 9999 NCD 07/04 Q1019
                        NOSIG=
201810070120 METAR COR EGLL 070120Z AUTO 36008KT 330V030 9999 NCD 07/04
                        Q1019 NOSIG=
201810070050 METAR COR EGLL 070050Z AUTO 01007KT 340V040 9999 NCD 07/04
                        Q1018 NOSIG=
201810070020 METAR COR EGLL 070020Z AUTO 01008KT 310V040 9999 NCD 08/05
                        Q1018 NOSIG=
201810062350 METAR COR EGLL 062350Z AUTO 01008KT 330V050 9999 NCD 08/05
                        Q1018 NOSIG=
201810062320 METAR COR EGLL 062320Z AUTO 36010KT 9999 NCD 08/05 Q1018
                        NOSIG=
201810062250 METAR COR EGLL 062250Z AUTO 01009KT 340V040 9999 NCD 08/06
                        Q1018 NOSIG=
201810062220 METAR COR EGLL 062220Z AUTO 36009KT 9999 NCD 08/06 Q1018
                        NOSIG=
201810062150 METAR COR EGLL 062150Z AUTO 01009KT 340V060 9999 NCD 08/06
                        Q1017 NOSIG=
201810062120 METAR COR EGLL 062120Z AUTO 01010KT 340V040 9999 NCD 09/06
                        Q1017 NOSIG=
201810062050 METAR COR EGLL 062050Z AUTO 01008KT 330V040 9999 NCD 09/07
                        Q1017 NOSIG=
201810062020 METAR COR EGLL 062020Z AUTO 02007KT 340V050 9999 NCD 09/07
                        Q1016 NOSIG=
201810061950 METAR COR EGLL 061950Z AUTO 02008KT 330V070 9999 NCD 09/07
                        Q1016 NOSIG=
201810061920 METAR EGLL 061920Z AUTO 01009KT 340V050 9999 BKN017 BKN029
                        09/07 Q1015=
201810061850 METAR COR EGLL 061850Z AUTO 03009KT 340V060 9999 -RA BKN018
                        09/07 Q1014 NOSIG=
201810061820 METAR COR EGLL 061820Z AUTO 02008KT 340V060 9999 -RA BKN016
                        BKN023 09/07 Q1014 NOSIG=
201810061750 METAR COR EGLL 061750Z AUTO 02010KT 350V050 9999 -RA FEW016
                        SCT023 09/07 Q1014 NOSIG=
201810061720 METAR COR EGLL 061720Z AUTO 02009KT 340V060 9999 -RA SCT016
                        BKN022 BKN043 09/07 Q1013 NOSIG=
201810061650 METAR COR EGLL 061650Z AUTO 03010KT 360V070 9999 -RA FEW017
                        SCT044 09/08 Q1012 TEMPO BKN014=
201810061620 METAR COR EGLL 061620Z AUTO 02009KT 340V050 9999 -RA SCT015
                        BKN021 BKN043 09/08 Q1012 NOSIG=
201810061550 METAR COR EGLL 061550Z AUTO 03009KT 340V050 9999 -RA SCT012
                        BKN017 OVC042 09/08 Q1012 TEMPO BKN014=
201810061520 METAR COR EGLL 061520Z AUTO 01008KT 330V040 9999 -RA BKN011
                        BKN016 OVC039 09/08 Q1011 NOSIG=
201810061450 METAR COR EGLL 061450Z AUTO 01009KT 340V060 9999 -RA BKN011
                        BKN016 OVC039 09/08 Q1011 NOSIG=
201810061420 METAR COR EGLL 061420Z AUTO 01010KT 310V050 9999 -RA BKN011
                        OVC038 09/08 Q1011 NOSIG=
201810061350 METAR COR EGLL 061350Z AUTO 01009KT 320V060 9000 -RA BKN012
                        OVC043 09/08 Q1011 NOSIG=
201810061320 METAR COR EGLL 061320Z AUTO 36008KT 330V030 9999 -RA BKN011
                        OVC015 09/08 Q1011 TEMPO RA=
201810061250 METAR COR EGLL 061250Z 01008KT 340V060 8000 -RA BKN011 OVC031
                        09/08 Q1011 TEMPO RA=
201810061220 METAR COR EGLL 061220Z 01009KT 330V050 9999 -RA BKN011 OVC038
                        09/08 Q1010 TEMPO RA=
201810061150 METAR COR EGLL 061150Z 02009KT 310V060 9999 -RA BKN011 OVC028
                        09/08 Q1010 TEMPO RA=
201810061120 METAR COR EGLL 061120Z 36009KT 340V050 9999 -RA BKN008TCU
                        OVC013 09/08 Q1010 TEMPO RA BKN010=
201810061050 METAR COR EGLL 061050Z AUTO 01007KT 330V050 9000 -RA BKN009///
                        OVC030/// //////TCU 09/09 Q1010 TEMPO
                        4000 RA BKN010=
201810061020 METAR COR EGLL 061020Z AUTO 36009KT 330V040 5000 -RA OVC008///
                        //////CB 09/08 Q1011 TEMPO 4000 RA
                        BKN010=
201810060950 METAR COR EGLL 060950Z AUTO 36006KT 320V040 9999 -RA OVC008
                        10/08 Q1010 TEMPO RA BKN010=
201810060920 METAR COR EGLL 060920Z AUTO 36008KT 9999 OVC008 10/08 Q1010
                        TEMPO -RA BKN010=
201810060850 METAR COR EGLL 060850Z AUTO 01007KT 340V050 9999 OVC007 10/09
                        Q1010 TEMPO -RA BKN010=
201810060820 METAR COR EGLL 060820Z AUTO 36008KT 320V040 9999 OVC006 10/09
                        Q1010 NOSIG=
201810060750 METAR COR EGLL 060750Z AUTO 03008KT 360V070 7000 OVC005 11/10
                        Q1009 NOSIG=
201810060720 METAR COR EGLL 060720Z 02005KT 340V050 9000 FEW004 BKN006
                        OVC009 12/10 Q1009 NOSIG=
201810060650 METAR COR EGLL 060650Z 05007KT 010V080 3500 BR OVC003 12/12
                        Q1009 NOSIG=
201810060620 METAR COR EGLL 060620Z AUTO 01005KT 330V040 2300 BR OVC003
                        12/12 Q1009 NOSIG=
201810060550 METAR COR EGLL 060550Z AUTO 03004KT 350V070 2400 BR OVC002
                        12/11 Q1009 NOSIG=
201810060520 METAR COR EGLL 060520Z AUTO 06005KT 030V090 2700 BR OVC003
                        12/11 Q1009 NOSIG=
201810060450 METAR COR EGLL 060450Z AUTO 04005KT 360V060 3500 BR BKN001
                        OVC005 12/11 Q1009 TEMPO 5000 SCT001
                        BKN005=
201810060420 METAR COR EGLL 060420Z AUTO 31004KT 0450 R27L/0550 FG VV///
                        12/11 Q1009 TEMPO 2000 BR OVC002=
201810060350 METAR COR EGLL 060350Z AUTO 28002KT 2000 BR OVC001 12/11
                        Q1009 NOSIG=
201810060320 METAR COR EGLL 060320Z AUTO 28005KT 4200 BR BKN004 12/11
                        Q1009 NOSIG=
201810060250 METAR COR EGLL 060250Z AUTO 21003KT 5000 BR NCD 11/10 Q1009
                        BECMG BKN004=
201810060220 METAR COR EGLL 060220Z AUTO 16002KT 6000 NCD 11/11 Q1010
                        TEMPO 4000 BR=
201810060150 METAR COR EGLL 060150Z AUTO 16002KT 4300 BR NCD 11/11 Q1010
                        TEMPO 5000=
201810060120 METAR COR EGLL 060120Z AUTO 21002KT 5000 BR NCD 11/11 Q1011
                        TEMPO 4000=
201810060050 METAR COR EGLL 060050Z AUTO 19002KT 7000 NCD 12/11 Q1011
                        TEMPO 4000 BR=
201810060020 METAR COR EGLL 060020Z AUTO VRB02KT 8000 NCD 12/11 Q1011
                        NOSIG=
201810052350 METAR COR EGLL 052350Z AUTO 27003KT 9000 NCD 13/12 Q1011
                        NOSIG=
201810052320 METAR COR EGLL 052320Z AUTO 21002KT 9999 NCD 13/12 Q1011
                        NOSIG=
201810052250 METAR COR EGLL 052250Z AUTO 24003KT 9999 NCD 13/12 Q1011
                        NOSIG=
201810052220 METAR COR EGLL 052220Z AUTO 24004KT 210V290 9999 NCD 15/12
                        Q1012 NOSIG=
201810052150 METAR COR EGLL 052150Z AUTO 24006KT 190V260 9999 NCD 15/12
                        Q1012 NOSIG=
201810052120 METAR COR EGLL 052120Z AUTO 21005KT 180V260 9999 NCD 16/12
                        Q1012 NOSIG=
201810052050 METAR COR EGLL 052050Z AUTO 22004KT 170V250 9999 NCD 16/13
                        Q1012 NOSIG=
201810052020 METAR COR EGLL 052020Z AUTO 22007KT 9999 FEW045 17/13 Q1012
                        NOSIG=
201810051950 METAR COR EGLL 051950Z AUTO 22007KT 170V270 9999 SCT024 BKN029
                        BKN035 18/13 Q1012 NOSIG=
201810051920 METAR COR EGLL 051920Z AUTO 06002KT 9999 BKN024 18/13 Q1012
                        NOSIG=
201810051850 METAR COR EGLL 051850Z AUTO 05002KT 8000 SCT025 BKN030 BKN042
                        17/13 Q1012 NOSIG=
201810051820 METAR COR EGLL 051820Z AUTO VRB02KT 9999 BKN031 17/13 Q1012
                        NOSIG=
201810051750 METAR COR EGLL 051750Z AUTO 36003KT 9999 FEW042 18/13 Q1013
                        NOSIG=
201810051720 METAR COR EGLL 051720Z AUTO VRB03KT 9999 FEW043 18/13 Q1013
                        NOSIG=
201810051650 METAR COR EGLL 051650Z AUTO 32004KT 9999 SCT036 BKN043 19/14
                        Q1013 NOSIG=
201810051620 METAR COR EGLL 051620Z AUTO 22007KT 190V320 9999 BKN035 BKN044
                        20/13 Q1013 NOSIG=
201810051550 METAR COR EGLL 051550Z AUTO 20006G16KT 150V250 9999 BKN034
                        20/13 Q1013 NOSIG=
201810051520 METAR COR EGLL 051520Z AUTO 20006KT 150V260 9999 SCT038 20/13
                        Q1013 NOSIG=
201810051450 METAR COR EGLL 051450Z AUTO 23007KT 200V280 9999 NCD 20/12
                        Q1013 NOSIG=
201810051420 METAR COR EGLL 051420Z AUTO 21008KT 160V260 9999 FEW040 21/13
                        Q1013 NOSIG=
201810051350 METAR COR EGLL 051350Z AUTO 20006KT 150V260 9999 FEW029 21/13
                        Q1014 NOSIG=
201810051320 METAR COR EGLL 051320Z AUTO 22006KT 9999 NCD 21/14 Q1014
                        NOSIG=
201810051250 METAR COR EGLL 051250Z AUTO 22005KT 180V260 9999 NCD 20/14
                        Q1014 NOSIG=
201810051220 METAR COR EGLL 051220Z AUTO 23004KT 140V270 9999 NCD 19/13
                        Q1015 NOSIG=
201810051150 METAR COR EGLL 051150Z AUTO 22004KT 160V280 9000 FEW010 18/13
                        Q1015 NOSIG=
201810051120 METAR EGLL 051120Z AUTO 19005KT 150V230 8000 BKN006 17/13
                        Q1015=
201810051050 METAR COR EGLL 051050Z AUTO 15004KT 110V200 7000 OVC005 15/13
                        Q1016 BECMG SCT005=
201810051020 METAR COR EGLL 051020Z 14005KT 100V190 5000 HZ OVC005 14/13
                        Q1016 NOSIG=
201810050950 METAR COR EGLL 050950Z AUTO 13005KT 100V180 5000 HZ OVC003
                        14/13 Q1016 BECMG BKN006=
201810050920 METAR COR EGLL 050920Z AUTO 14004KT 110V200 4200 HZ BKN003
                        OVC006 14/13 Q1016 BECMG 6000 NSW
                        BKN006=
201810050850 METAR COR EGLL 050850Z AUTO 13004KT 080V190 4300 HZ BKN003
                        14/13 Q1017 BECMG 5000 BKN006=
201810050820 METAR COR EGLL 050820Z 11004KT 080V160 3200 BR OVC004 14/13
                        Q1017 BECMG 5000 BKN006=
201810050750 METAR COR EGLL 050750Z 13005KT 1700 R27L/1400 BR OVC004 14/13
                        Q1017 BECMG 3000 BKN006=
201810050720 METAR COR EGLL 050720Z VRB03KT 1300 R27R/P1500 R27L/1200
                        BR OVC004 14/13 Q1017 BECMG 3000
                        BKN005=
201810050650 METAR COR EGLL 050650Z AUTO VRB02KT 1300 R27R/P1500 R27L/1300
                        BR BKN004 OVC010 13/13 Q1017 BECMG
                        3000 BKN006=
201810050620 METAR COR EGLL 050620Z AUTO VRB03KT 2400 BR BKN003 OVC006
                        13/13 Q1017 TEMPO 1400 BKN002=
201810050550 METAR COR EGLL 050550Z VRB02KT 1800 BR OVC003 13/13 Q1017
                        TEMPO 1400 BR BKN002=
201810050520 METAR COR EGLL 050520Z VRB03KT 2000 HZ OVC003 13/12 Q1017
                        TEMPO 1400 BR BKN002=
201810050450 METAR COR EGLL 050450Z AUTO 11002KT 2600 HZ OVC003 13/12
                        Q1017 TEMPO 1200 BR BKN002=
201810050420 METAR COR EGLL 050420Z AUTO VRB03KT 6000 OVC004 13/12 Q1018
                        BECMG 3000 BR=
201810050350 METAR COR EGLL 050350Z AUTO 15003KT 6000 OVC005 13/12 Q1018
                        BECMG 3000 BR BKN003=
201810050320 METAR COR EGLL 050320Z AUTO 15003KT 8000 OVC006 13/12 Q1018
                        BECMG 4000 BR BKN004=
201810050250 METAR COR EGLL 050250Z AUTO 14004KT 8000 OVC006 14/12 Q1018
                        BECMG 4000 BR BKN004=
201810050220 METAR COR EGLL 050220Z AUTO 17004KT 140V210 9000 OVC007 14/12
                        Q1019 BECMG 4000 BR BKN004=
201810050150 METAR COR EGLL 050150Z AUTO 25006KT 9000 OVC007 14/12 Q1019
                        BECMG 4000=
201810050120 METAR COR EGLL 050120Z AUTO 23006KT 9999 BKN008 OVC013 14/12
                        Q1020 NOSIG=
201810050050 METAR COR EGLL 050050Z AUTO 24005KT 9999 OVC008 14/12 Q1020
                        BECMG FEW008=
201810050020 METAR COR EGLL 050020Z AUTO 23005KT 9999 OVC009 14/12 Q1020
                        BECMG FEW009=
201810042350 METAR COR EGLL 042350Z AUTO 22005KT 9999 BKN010 14/12 Q1020
                        BECMG FEW010=
201810042320 METAR COR EGLL 042320Z AUTO 21005KT 9999 OVC010 14/12 Q1021
                        BECMG FEW010=
201810042250 METAR COR EGLL 042250Z AUTO 18005KT 9999 BKN011 OVC016 14/12
                        Q1021 BECMG FEW011=
201810042220 METAR COR EGLL 042220Z AUTO 19007KT 130V250 9999 BKN011 14/12
                        Q1021 BECMG FEW011=
201810042150 METAR COR EGLL 042150Z AUTO 23008KT 9999 OVC011 14/12 Q1021
                        BECMG FEW011=
201810042120 METAR COR EGLL 042120Z AUTO 21007KT 170V250 9999 OVC011 14/12
                        Q1021 BECMG FEW011=
201810042050 METAR COR EGLL 042050Z AUTO 22009KT 9999 OVC011 14/12 Q1021
                        NOSIG=
201810042020 METAR COR EGLL 042020Z AUTO 21009KT 160V250 9999 OVC012 15/12
                        Q1021 NOSIG=
201810041950 METAR COR EGLL 041950Z AUTO 18009KT 150V230 9999 OVC012 15/12
                        Q1022 NOSIG=
201810041920 METAR COR EGLL 041920Z AUTO 21007KT 170V250 9999 OVC012 15/12
                        Q1022 NOSIG=
201810041850 METAR COR EGLL 041850Z AUTO 24008KT 190V270 9999 OVC012 15/12
                        Q1022 NOSIG=
201810041820 METAR COR EGLL 041820Z AUTO 21010KT 170V240 9999 OVC013 15/12
                        Q1022 NOSIG=
201810041750 METAR COR EGLL 041750Z AUTO 19009KT 150V240 9999 BKN014 15/12
                        Q1022 TEMPO BKN015=
201810041720 METAR COR EGLL 041720Z AUTO 22009KT 180V260 9999 BKN015 16/12
                        Q1022 TEMPO BKN014=
201810041650 METAR COR EGLL 041650Z AUTO 21007KT 9999 BKN015 16/12 Q1022
                        TEMPO BKN014=
201810041620 METAR COR EGLL 041620Z AUTO 21010KT 180V250 9999 BKN016 17/12
                        Q1023 NOSIG=
201810041550 METAR COR EGLL 041550Z AUTO 20010KT 170V250 9999 BKN017 17/13
                        Q1023 NOSIG=
201810041520 METAR COR EGLL 041520Z AUTO 20009G19KT 170V240 9999 BKN017
                        17/13 Q1023 NOSIG=
201810041450 METAR COR EGLL 041450Z AUTO 20011KT 170V230 9999 BKN018 17/13
                        Q1023 NOSIG=
201810041420 METAR COR EGLL 041420Z AUTO 21009KT 170V260 9999 BKN019 18/13
                        Q1024 NOSIG=
201810041350 METAR COR EGLL 041350Z AUTO 22009KT 180V250 9999 BKN018 18/13
                        Q1024 NOSIG=
201810041320 METAR COR EGLL 041320Z AUTO 21009KT 180V250 9999 BKN017 18/13
                        Q1024 NOSIG=
201810041250 METAR COR EGLL 041250Z AUTO 22010KT 9999 BKN015 17/13 Q1024
                        NOSIG=
201810041220 METAR COR EGLL 041220Z AUTO 21006KT 9999 BKN013 OVC017 17/13
                        Q1025 BECMG SCT015=
201810041150 METAR COR EGLL 041150Z AUTO 19006KT 130V260 9999 BKN009 16/13
                        Q1025 BECMG BKN012=
201810041120 METAR COR EGLL 041120Z AUTO 21006KT 9999 OVC008 15/12 Q1025
                        BECMG FEW008 BKN014=
201810041050 METAR COR EGLL 041050Z AUTO 20007KT 180V270 9999 BKN006 OVC011
                        14/12 Q1026 BECMG FEW006 BKN011=
201810041020 METAR COR EGLL 041020Z AUTO 21007KT 170V240 9999 BKN006 OVC009
                        14/12 Q1026 BECMG BKN010=
201810040950 METAR COR EGLL 040950Z AUTO 21007KT 180V240 9999 OVC005 13/12
                        Q1026 BECMG BKN010=
201810040920 METAR COR EGLL 040920Z 23006KT 210V270 9999 SCT003 BKN005
                        13/12 Q1026 NOSIG=
201810040850 METAR COR EGLL 040850Z 23007KT 5000 BR BKN003 BKN005 12/12
                        Q1026 BECMG FEW003 BKN005=
201810040820 METAR COR EGLL 040820Z 23006KT 5000 BR SCT003 BKN005 12/11
                        Q1026 TEMPO BKN004=
201810040750 METAR COR EGLL 040750Z AUTO 22005KT 170V260 5000 BR OVC002
                        12/11 Q1026 BECMG OVC003=
201810040720 METAR COR EGLL 040720Z AUTO 23006KT 4300 BR OVC002 12/11
                        Q1026 BECMG 5000 OVC003=
201810040650 METAR COR EGLL 040650Z AUTO 23005KT 200V270 4200 BR OVC002
                        12/11 Q1026 BECMG 5000 OVC300=
201810040620 METAR COR EGLL 040620Z AUTO 25006KT 200V280 4800 BR OVC002
                        11/11 Q1026 BECMG 5000 OVC003=
201810040550 METAR COR EGLL 040550Z AUTO 24006KT 2300 BR OVC002 11/11
                        Q1026 BECMG 3500 OVC003=
201810040520 METAR COR EGLL 040520Z AUTO 27005KT 1800 BR OVC002 11/11
                        Q1026 TEMPO 1400 OVC001=
201810040450 METAR COR EGLL 040450Z AUTO 26006KT 2100 BR OVC002 11/11
                        Q1026 TEMPO 3000=
201810040420 METAR COR EGLL 040420Z AUTO 27005KT 1900 BR OVC002 11/11
                        Q1026 TEMPO 3000=
201810040350 METAR COR EGLL 040350Z AUTO 28006KT 2700 BR BKN002 OVC005
                        11/10 Q1026 TEMPO 1400=
201810040320 METAR COR EGLL 040320Z AUTO 29005KT 2700 BR OVC001 11/11
                        Q1026 TEMPO 1400=
201810040250 METAR COR EGLL 040250Z AUTO 27007KT 1400 BR OVC001 11/11
                        Q1026 TEMPO 2500 OVC002=
201810040220 METAR COR EGLL 040220Z AUTO 27008KT 5000 BR OVC002 11/11
                        Q1027 BECMG 2000=
201810040150 METAR COR EGLL 040150Z AUTO 27006KT 9000 SCT004 10/10 Q1027
                        TEMPO BKN004=
201810040120 METAR COR EGLL 040120Z AUTO 28004KT 9999 NCD 11/10 Q1027
                        TEMPO 9000 BKN006=
201810040050 METAR COR EGLL 040050Z AUTO 24005KT 9999 NCD 11/10 Q1027
                        TEMPO BKN006=
201810040020 METAR COR EGLL 040020Z AUTO 23006KT 9999 NCD 12/11 Q1027
                        NOSIG=
201810032350 METAR COR EGLL 032350Z AUTO 22004KT 9999 NCD 11/10 Q1027
                        NOSIG=
201810032320 METAR COR EGLL 032320Z AUTO 23004KT 9999 NCD 11/10 Q1027
                        NOSIG=
201810032250 METAR COR EGLL 032250Z AUTO 24007KT 9999 NCD 11/11 Q1027
                        NOSIG=
201810032220 METAR COR EGLL 032220Z AUTO 25004KT 9999 NCD 11/10 Q1027
                        NOSIG=
201810032150 METAR COR EGLL 032150Z AUTO 25008KT 9999 NCD 14/11 Q1027
                        NOSIG=
201810032120 METAR COR EGLL 032120Z AUTO 23007KT 190V260 9999 NCD 13/11
                        Q1027 NOSIG=
201810032050 METAR COR EGLL 032050Z AUTO 24006KT 200V270 9999 NCD 15/11
                        Q1027 NOSIG=
201810032020 METAR COR EGLL 032020Z AUTO 25006KT 9999 NCD 15/11 Q1027
                        NOSIG=
201810031950 METAR COR EGLL 031950Z AUTO 23005KT 190V260 9999 NCD 16/11
                        Q1027 NOSIG=
201810031920 METAR COR EGLL 031920Z AUTO 23005G16KT 170V270 9999 NCD 17/11
                        Q1027 NOSIG=
201810031850 METAR COR EGLL 031850Z AUTO 28004KT 9999 NCD 15/11 Q1027
                        NOSIG=
201810031820 METAR COR EGLL 031820Z AUTO 30003KT 9999 NCD 17/11 Q1027
                        NOSIG=
201810031750 METAR COR EGLL 031750Z AUTO 29004KT 9999 NCD 17/11 Q1027
                        NOSIG=
201810031720 METAR COR EGLL 031720Z AUTO 28006KT 9999 NCD 17/11 Q1027
                        NOSIG=
201810031650 METAR COR EGLL 031650Z AUTO 27008KT 9999 NCD 18/11 Q1027
                        NOSIG=
201810031620 METAR COR EGLL 031620Z AUTO 29006KT 270V350 9999 NCD 19/10
                        Q1027 NOSIG=
201810031550 METAR COR EGLL 031550Z AUTO 28008KT 9999 NCD 19/11 Q1027
                        NOSIG=
201810031520 METAR COR EGLL 031520Z AUTO 28010KT 250V320 9999 NCD 19/10
                        Q1027 NOSIG=
201810031450 METAR COR EGLL 031450Z AUTO 28008KT 260V320 9999 BKN032 19/11
                        Q1027 NOSIG=
201810031420 METAR COR EGLL 031420Z AUTO 28009KT 250V320 9999 BKN033 18/11
                        Q1027 NOSIG=
201810031350 METAR COR EGLL 031350Z AUTO 27008KT 240V320 9999 BKN029 OVC037
                        18/11 Q1028 NOSIG=
201810031320 METAR COR EGLL 031320Z AUTO 28007KT 240V320 9999 BKN030 17/10
                        Q1028 NOSIG=
201810031250 METAR COR EGLL 031250Z AUTO 26009KT 9999 SCT029 OVC034 17/11
                        Q1028 NOSIG=
201810031220 METAR COR EGLL 031220Z AUTO 27009KT 240V300 9999 BKN030 OVC036
                        17/10 Q1028 NOSIG=
201810031150 METAR COR EGLL 031150Z AUTO 30006KT 270V330 9999 BKN029 OVC036
                        16/10 Q1028 NOSIG=
201810031120 METAR COR EGLL 031120Z AUTO 31006KT 280V350 9999 OVC029 16/10
                        Q1028 NOSIG=
201810031050 METAR COR EGLL 031050Z AUTO 30008KT 260V330 9999 BKN028 OVC036
                        16/10 Q1028 NOSIG=
201810031020 METAR COR EGLL 031020Z AUTO 30007KT 9999 FEW029 OVC033 17/10
                        Q1028 NOSIG=
201810030950 METAR COR EGLL 030950Z AUTO 30010KT 9999 BKN032 17/11 Q1028
                        NOSIG=
201810030920 METAR COR EGLL 030920Z AUTO 29008KT 9999 BKN032 16/12 Q1028
                        NOSIG=
201810030850 METAR COR EGLL 030850Z AUTO 27010KT 9999 BKN033 15/12 Q1028
                        NOSIG=
201810030820 METAR COR EGLL 030820Z AUTO 28009KT 9999 BKN035 15/12 Q1027
                        NOSIG=
201810030750 METAR COR EGLL 030750Z AUTO 23004KT 170V270 9999 BKN033 14/12
                        Q1027 NOSIG=
201810030720 METAR COR EGLL 030720Z AUTO 23005KT 200V260 9999 BKN035 13/11
                        Q1027 NOSIG=
201810030650 METAR COR EGLL 030650Z AUTO 26005KT 220V290 9999 SCT037 12/11
                        Q1027 NOSIG=
201810030620 METAR COR EGLL 030620Z AUTO 28004KT 9999 NCD 11/10 Q1026
                        NOSIG=
201810030550 METAR COR EGLL 030550Z AUTO 27006KT 9999 NCD 11/10 Q1026
                        NOSIG=
201810030520 METAR COR EGLL 030520Z AUTO 27006KT 9999 NCD 11/10 Q1026
                        NOSIG=
201810030450 METAR COR EGLL 030450Z AUTO 25006KT 9999 NCD 12/10 Q1026
                        NOSIG=
201810030420 METAR COR EGLL 030420Z AUTO 26003KT 9999 NCD 13/11 Q1025
                        NOSIG=
201810030350 METAR COR EGLL 030350Z AUTO 30004KT 9999 NCD 14/11 Q1025
                        NOSIG=
201810030320 METAR COR EGLL 030320Z AUTO 30005KT 9999 SCT034 14/11 Q1025
                        NOSIG=
201810030250 METAR COR EGLL 030250Z AUTO 30005KT 260V330 9999 BKN029 14/11
                        Q1025 NOSIG=
201810030220 METAR COR EGLL 030220Z AUTO 30005KT 9999 SCT023 BKN041 14/11
                        Q1025 NOSIG=
201810030150 METAR COR EGLL 030150Z AUTO 29005KT 9999 SCT021 BKN026 BKN031
                        15/11 Q1024 NOSIG=
201810030120 METAR EGLL 030120Z AUTO 29005KT 270V330 9999 FEW027 BKN031
                        15/11 Q1024=
201810030050 METAR COR EGLL 030050Z AUTO 29008KT 9999 OVC031 15/12 Q1024
                        NOSIG=
201810030020 METAR COR EGLL 030020Z AUTO 29007KT 9999 SCT021 OVC029 15/12
                        Q1024 NOSIG=
201810022350 METAR COR EGLL 022350Z AUTO 29010KT 9999 BKN032 15/12 Q1024
                        NOSIG=
201810022320 METAR COR EGLL 022320Z AUTO 28010KT 9999 SCT031 15/12 Q1023
                        NOSIG=
201810022250 METAR COR EGLL 022250Z AUTO 29008KT 9999 SCT029 15/12 Q1023
                        NOSIG=
201810022220 METAR COR EGLL 022220Z AUTO 28008KT 9999 BKN030 15/12 Q1023
                        NOSIG=
201810022150 METAR COR EGLL 022150Z AUTO 28010KT 9999 BKN023 15/12 Q1023
                        NOSIG=
201810022120 METAR COR EGLL 022120Z AUTO 28009KT 9999 BKN027 16/12 Q1023
                        NOSIG=
201810022050 METAR COR EGLL 022050Z AUTO 28009KT 9999 BKN028 16/12 Q1023
                        NOSIG=
201810022020 METAR COR EGLL 022020Z AUTO 28008KT 9999 OVC030 16/12 Q1023
                        NOSIG=
201810021950 METAR COR EGLL 021950Z AUTO 29007KT 9999 FEW035 16/12 Q1023
                        NOSIG=
201810021920 METAR COR EGLL 021920Z AUTO 29008KT 9999 FEW029 SCT035 17/12
                        Q1022 NOSIG=
201810021850 METAR COR EGLL 021850Z AUTO 29008KT 9999 SCT032 17/12 Q1022
                        NOSIG=
201810021820 METAR COR EGLL 021820Z AUTO 30010KT 9999 FEW043 18/11 Q1022
                        NOSIG=
201810021750 METAR COR EGLL 021750Z AUTO 29009KT 9999 SCT042 18/12 Q1021
                        NOSIG=
201810021720 METAR COR EGLL 021720Z AUTO 29008KT 9999 FEW041 18/12 Q1021
                        NOSIG=
201810021650 METAR COR EGLL 021650Z AUTO 30009KT 9999 SCT037 BKN044 19/12
                        Q1021 NOSIG=
201810021620 METAR COR EGLL 021620Z AUTO 30012KT 9999 NCD 18/12 Q1021
                        NOSIG=
201810021550 METAR COR EGLL 021550Z AUTO 29011KT 9999 FEW035 19/12 Q1021
                        NOSIG=
201810021520 METAR COR EGLL 021520Z AUTO 29014KT 9999 FEW040 19/11 Q1020
                        NOSIG=
201810021450 METAR COR EGLL 021450Z AUTO 29011KT 9999 FEW035 20/12 Q1020
                        NOSIG=
201810021420 METAR COR EGLL 021420Z AUTO 29012KT 9999 FEW032 SCT040 20/12
                        Q1020 NOSIG=
201810021350 METAR COR EGLL 021350Z AUTO 29011KT 270V360 9999 FEW031 BKN038
                        20/12 Q1020 NOSIG=
201810021320 METAR COR EGLL 021320Z AUTO 31007KT 280V350 9999 BKN030 OVC042
                        19/13 Q1020 NOSIG=
201810021250 METAR COR EGLL 021250Z AUTO 30010KT 9999 SCT029 BKN033 OVC043
                        19/13 Q1020 NOSIG=
201810021220 METAR COR EGLL 021220Z AUTO 29013KT 9999 BKN027 OVC035 20/13
                        Q1020 NOSIG=
201810021150 METAR COR EGLL 021150Z AUTO 29013KT 9999 BKN027 OVC035 19/13
                        Q1020 NOSIG=
201810021120 METAR COR EGLL 021120Z AUTO 31010KT 270V340 9999 BKN026 BKN030
                        19/13 Q1020 NOSIG=
201810021050 METAR COR EGLL 021050Z AUTO 29012KT 260V320 9999 BKN024 19/13
                        Q1020 NOSIG=
201810021020 METAR COR EGLL 021020Z AUTO 29011KT 9999 BKN023 BKN028 19/13
                        Q1020 NOSIG=
201810020950 METAR COR EGLL 020950Z AUTO 29009KT 9999 BKN023 18/13 Q1020
                        NOSIG=
201810020920 METAR COR EGLL 020920Z AUTO 29012KT 9999 BKN022 17/13 Q1020
                        NOSIG=
201810020850 METAR COR EGLL 020850Z AUTO 29010KT 9999 BKN019 17/13 Q1020
                        NOSIG=
201810020820 METAR COR EGLL 020820Z AUTO 27011KT 9999 BKN019 OVC025 16/12
                        Q1020 NOSIG=
201810020750 METAR COR EGLL 020750Z AUTO 25010KT 9999 OVC020 15/12 Q1020
                        NOSIG=
201810020720 METAR COR EGLL 020720Z AUTO 23006KT 9999 SCT019 OVC024 14/12
                        Q1020 NOSIG=
201810020650 METAR COR EGLL 020650Z AUTO 24007KT 9999 BKN018 OVC025 13/11
                        Q1019 TEMPO BKN012=
201810020620 METAR COR EGLL 020620Z AUTO 24009KT 9999 SCT015 BKN020 OVC025
                        13/10 Q1019 TEMPO BKN012=
201810020550 METAR COR EGLL 020550Z AUTO 25010KT 9999 OVC016 13/10 Q1019
                        TEMPO BKN010=
201810020520 METAR COR EGLL 020520Z AUTO 25010KT 9999 BKN016 OVC026 12/09
                        Q1019 TEMPO BKN010=
201810020450 METAR COR EGLL 020450Z AUTO 24009KT 9999 BKN017 OVC021 11/08
                        Q1020 TEMPO BKN010=
201810020420 METAR COR EGLL 020420Z AUTO 25011KT 9999 BKN018 11/08 Q1020
                        TEMPO BKN010=
201810020350 METAR COR EGLL 020350Z AUTO 25011KT 9999 FEW018 SCT046 11/07
                        Q1020 NOSIG=
201810020320 METAR COR EGLL 020320Z AUTO 24011KT 9999 SCT046 11/07 Q1020
                        NOSIG=
201810020250 METAR COR EGLL 020250Z AUTO 25011KT 9999 OVC042 11/07 Q1021
                        NOSIG=
201810020220 METAR COR EGLL 020220Z AUTO 24009KT 9999 BKN044 11/07 Q1021
                        NOSIG=
201810020150 METAR COR EGLL 020150Z AUTO 22008KT 9999 SCT036 BKN048 11/06
                        Q1021 NOSIG=
201810020120 METAR COR EGLL 020120Z AUTO 25013KT 9999 BKN030 11/06 Q1022
                        NOSIG=
201810020050 METAR COR EGLL 020050Z AUTO 25008KT 9999 FEW043 10/05 Q1022
                        NOSIG=
201810020020 METAR COR EGLL 020020Z AUTO 26010KT 9999 NCD 11/05 Q1023
                        NOSIG=
201810012350 METAR COR EGLL 012350Z AUTO 25011KT 9999 NCD 11/06 Q1023
                        NOSIG=
201810012320 METAR COR EGLL 012320Z AUTO 25010KT 9999 NCD 11/06 Q1024
                        NOSIG=
201810012250 METAR COR EGLL 012250Z AUTO 25011KT 9999 NCD 11/06 Q1024
                        NOSIG=
201810012220 METAR COR EGLL 012220Z AUTO 26011KT 9999 NCD 11/06 Q1024
                        NOSIG=
201810012150 METAR COR EGLL 012150Z AUTO 28009KT 9999 NCD 11/06 Q1025
                        NOSIG=
201810012120 METAR COR EGLL 012120Z AUTO 27015KT 9999 NCD 12/06 Q1025
                        NOSIG=
201810012050 METAR COR EGLL 012050Z AUTO 25011KT 9999 NCD 12/06 Q1025
                        NOSIG=
201810012020 METAR COR EGLL 012020Z AUTO 24009KT 9999 NCD 12/05 Q1025
                        NOSIG=
201810011950 METAR COR EGLL 011950Z AUTO 25009KT 220V290 9999 NCD 13/05
                        Q1025 NOSIG=
201810011920 METAR COR EGLL 011920Z AUTO 24008KT 9999 NCD 13/05 Q1025
                        NOSIG=
201810011850 METAR COR EGLL 011850Z AUTO 25008KT 9999 NCD 13/04 Q1025
                        NOSIG=
201810011820 METAR COR EGLL 011820Z AUTO 27009KT 9999 NCD 13/04 Q1026
                        NOSIG=
201810011750 METAR COR EGLL 011750Z AUTO 30005KT 9999 NCD 13/04 Q1026
                        NOSIG=
201810011720 METAR COR EGLL 011720Z AUTO 30005KT 270V340 9999 NCD 14/03
                        Q1026 NOSIG=
201810011650 METAR COR EGLL 011650Z AUTO 30007KT 9999 NCD 14/02 Q1026
                        NOSIG=
201810011620 METAR COR EGLL 011620Z AUTO 30007KT 9999 NCD 14/02 Q1026
                        NOSIG=
201810011550 METAR COR EGLL 011550Z AUTO 30010KT 270V330 9999 NCD 15/03
                        Q1026 NOSIG=
201810011520 METAR COR EGLL 011520Z AUTO 31007KT 270V350 9999 NCD 15/03
                        Q1026 NOSIG=
201810011450 METAR COR EGLL 011450Z AUTO 33007KT 290V030 9999 NCD 15/02
                        Q1027 NOSIG=
201810011420 METAR COR EGLL 011420Z AUTO 32008KT 290V010 9999 NCD 15/02
                        Q1027 NOSIG=
201810011350 METAR COR EGLL 011350Z AUTO 30011KT 9999 SCT049 14/02 Q1027
                        NOSIG=
201810011320 METAR COR EGLL 011320Z AUTO 32007KT 270V010 9999 NCD 15/02
                        Q1027 NOSIG=
201810011250 METAR COR EGLL 011250Z AUTO 30010KT 9999 FEW047 14/02 Q1027
                        NOSIG=
201810011220 METAR COR EGLL 011220Z AUTO 32009KT 270V010 9999 FEW048 14/02
                        Q1027 NOSIG=
201810011150 METAR COR EGLL 011150Z AUTO 33007KT 290V040 9999 FEW045 13/02
                        Q1027 NOSIG=
201810011120 METAR COR EGLL 011120Z AUTO 31010KT 9999 SCT041 13/03 Q1027
                        NOSIG=
201810011050 METAR COR EGLL 011050Z AUTO 33008KT 270V020 9999 SCT039 13/03
                        Q1028 NOSIG=
201810011020 METAR COR EGLL 011020Z AUTO 33008KT 300V030 9999 NCD 12/03
                        Q1028 NOSIG=
201810010950 METAR COR EGLL 010950Z AUTO 34006KT 310V030 9999 NCD 12/04
                        Q1028 NOSIG=
201810010920 METAR COR EGLL 010920Z AUTO 34005KT 290V040 9999 NCD 11/04
                        Q1027 NOSIG=
201810010850 METAR COR EGLL 010850Z AUTO 36007KT 310V040 9999 NCD 10/04
                        Q1027 NOSIG=
201810010820 METAR COR EGLL 010820Z AUTO 34006KT 300V030 9999 NCD 10/04
                        Q1027 NOSIG=
201810010750 METAR COR EGLL 010750Z AUTO 33005KT 290V030 9999 NCD 09/04
                        Q1027 NOSIG=
201810010720 METAR COR EGLL 010720Z AUTO 33005KT 290V020 9999 NCD 08/04
                        Q1026 NOSIG=
201810010650 METAR COR EGLL 010650Z AUTO 32005KT 280V360 9999 NCD 07/04
                        Q1026 NOSIG=
201810010620 METAR COR EGLL 010620Z AUTO 31005KT 290V350 9999 NCD 07/04
                        Q1025 NOSIG=
201810010550 METAR COR EGLL 010550Z AUTO 32005KT 9999 NCD 07/04 Q1025
                        NOSIG=
201810010520 METAR COR EGLL 010520Z AUTO 32005KT 290V360 9999 NCD 07/05
                        Q1025 NOSIG=
201810010450 METAR COR EGLL 010450Z AUTO 32005KT 9999 NCD 07/05 Q1024
                        NOSIG=
201810010420 METAR COR EGLL 010420Z AUTO 32005KT 300V360 9999 NCD 07/05
                        Q1024 NOSIG=
201810010350 METAR COR EGLL 010350Z AUTO 32005KT 290V350 9999 NCD 07/05
                        Q1023 NOSIG=
201810010320 METAR COR EGLL 010320Z AUTO 32005KT 9999 NCD 08/05 Q1023
                        NOSIG=
201810010250 METAR COR EGLL 010250Z AUTO 31006KT 280V340 9999 NCD 08/05
                        Q1023 NOSIG=
201810010220 METAR COR EGLL 010220Z AUTO 30007KT 9999 NCD 08/05 Q1023
                        NOSIG=
201810010150 METAR COR EGLL 010150Z AUTO 30007KT 9999 NCD 08/05 Q1023
                        NOSIG=
201810010120 METAR COR EGLL 010120Z AUTO 30006KT 9999 NCD 09/05 Q1023
                        NOSIG=
201810010050 METAR COR EGLL 010050Z AUTO 32006KT 290V030 9999 NCD 09/05
                        Q1022 NOSIG=
201810010020 METAR COR EGLL 010020Z AUTO 31010KT 9999 NCD 09/05 Q1022
                        NOSIG=

</pre>

</body>
</html>
