##########################################################
# Query made at 12/31/2014 10:23:27 UTC
# Time interval: from 05/01/2013 00:00  to 05/31/2013 23:59  UTC
##########################################################

##########################################################
# EGLL, London / Heathrow Airport (United Kingdom)
# WMO index: 03772
# Latitude 51-29N. Longitude 000-27W. Altitude 24 m.
##########################################################

###################################
#  METAR/SPECI from EGLL
###################################
201305312350 METAR COR EGLL 312350Z 33009KT 290V360 CAVOK 14/09 Q1021
                        NOSIG=
201305312320 METAR COR EGLL 312320Z 33004KT 300V020 CAVOK 14/08 Q1021
                        NOSIG=
201305312250 METAR COR EGLL 312250Z 33005KT 280V020 CAVOK 15/08 Q1020
                        NOSIG=
201305312220 METAR COR EGLL 312220Z 33006KT 300V360 CAVOK 16/09 Q1020
                        NOSIG=
201305312150 METAR COR EGLL 312150Z 33006KT 300V010 CAVOK 17/10 Q1019
                        NOSIG=
201305312120 METAR COR EGLL 312120Z 33005KT 300V010 CAVOK 18/11 Q1019
                        NOSIG=
201305312050 METAR COR EGLL 312050Z 32004KT CAVOK 18/10 Q1019 NOSIG=
201305312020 METAR COR EGLL 312020Z 31004KT CAVOK 19/10 Q1019 NOSIG=
201305311950 METAR COR EGLL 311950Z 31004KT CAVOK 20/10 Q1019 NOSIG=
201305311920 METAR COR EGLL 311920Z 31006KT CAVOK 20/10 Q1019 NOSIG=
201305311850 METAR COR EGLL 311850Z 34004KT 300V030 9999 FEW045 21/10
                        Q1018 NOSIG=
201305311820 METAR COR EGLL 311820Z 32005KT 290V360 9999 FEW045 20/10
                        Q1018 NOSIG=
201305311750 METAR COR EGLL 311750Z 32008KT 290V010 9999 FEW045 21/10
                        Q1018 NOSIG=
201305311720 METAR COR EGLL 311720Z 32009KT 290V350 9999 FEW045 21/10
                        Q1018 NOSIG=
201305311650 METAR EGLL 311650Z AUTO 30008KT 270V340 9999 NCD 21/11 Q1018=
201305311620 METAR EGLL 311620Z AUTO 33007KT 290V020 9999 FEW043/// 21/10
                        Q1018=
201305311550 METAR COR EGLL 311550Z 32007KT 9999 FEW045 21/11 Q1018 NOSIG=
201305311520 METAR COR EGLL 311520Z 34006KT 300V020 9999 SCT045 21/11
                        Q1018 NOSIG=
201305311450 METAR COR EGLL 311450Z 33006KT 290V360 9999 FEW039 SCT047
                        21/10 Q1018 NOSIG=
201305311420 METAR COR EGLL 311420Z 34007KT 310V020 9999 FEW038 SCT045
                        21/10 Q1018 NOSIG=
201305311350 METAR COR EGLL 311350Z 34006KT 300V030 9999 FEW035 SCT040
                        20/11 Q1018 NOSIG=
201305311320 METAR COR EGLL 311320Z 36008KT 320V030 9999 FEW033 SCT038
                        20/11 Q1018 NOSIG=
201305311250 METAR EGLL 311250Z AUTO 35007KT 320V030 9999 BKN030/// 20/12
                        Q1019=
201305311220 METAR EGLL 311220Z AUTO 35007KT 300V050 9999 BKN027/// 20/12
                        Q1019=
201305311150 METAR COR EGLL 311150Z 35007KT 310V030 9999 FEW023 SCT026
                        19/12 Q1019 NOSIG=
201305311120 METAR COR EGLL 311120Z 02006KT 320V050 9999 SCT019 18/12
                        Q1019 NOSIG=
201305311050 METAR COR EGLL 311050Z 01006KT 320V080 9000 SCT019 17/12
                        Q1019 NOSIG=
201305311020 METAR COR EGLL 311020Z 35005KT 310V040 9000 BKN017 16/11
                        Q1019 NOSIG=
201305310950 METAR COR EGLL 310950Z 35006KT 300V020 8000 SCT014 BKN017
                        14/11 Q1019 NOSIG=
201305310920 METAR COR EGLL 310920Z 35006KT 300V020 8000 BKN014 14/10
                        Q1019 BECMG FEW017=
201305310850 METAR COR EGLL 310850Z 33007KT 290V010 8000 BKN014 14/10
                        Q1019 BECMG FEW014 BKN022=
201305310820 METAR COR EGLL 310820Z 33007KT 300V010 8000 BKN013 13/10
                        Q1019 BECMG SCT014 BKN018=
201305310750 METAR COR EGLL 310750Z 34006KT 300V020 9000 SCT012 BKN014
                        13/10 Q1018 BECMG SCT014 BKN018=
201305310720 METAR COR EGLL 310720Z 33006KT 290V020 9000 FEW012 BKN014
                        13/10 Q1018 BECMG FEW014 BKN018=
201305310650 METAR COR EGLL 310650Z 32007KT 290V010 9000 FEW012 BKN014
                        12/09 Q1018 BECMG FEW014 BKN018=
201305310620 METAR COR EGLL 310620Z 31005KT 280V360 9999 FEW012 BKN014
                        12/09 Q1018 BECMG FEW014 BKN020=
201305310550 METAR COR EGLL 310550Z 35005KT 290V030 9999 FEW013 BKN016
                        12/09 Q1018 TEMPO BKN013=
201305310520 METAR COR EGLL 310520Z 33005KT 290V020 9999 BKN014 12/09
                        Q1017 BECMG BKN018=
201305310450 METAR COR EGLL 310450Z 35004KT 310V030 9999 BKN014 12/09
                        Q1017 NOSIG=
201305310420 METAR COR EGLL 310420Z 36004KT 320V050 9999 BKN012 12/09
                        Q1017 NOSIG=
201305310350 METAR COR EGLL 310350Z 02006KT 340V060 9999 BKN012 11/09
                        Q1017 TEMPO BKN008=
201305310320 METAR COR EGLL 310320Z 02005KT 340V060 9000 BKN012 11/09
                        Q1017 TEMPO BKN008=
201305310250 METAR COR EGLL 310250Z 02005KT 340V060 9999 BKN012 11/09
                        Q1017 TEMPO BKN009=
201305310220 METAR COR EGLL 310220Z 01005KT 330V050 9999 BKN012 12/09
                        Q1017 TEMPO BKN009=
201305310150 METAR COR EGLL 310150Z 02004KT 320V080 9999 BKN015 11/09
                        Q1017 BECMG BKN012=
201305310120 METAR EGLL 310120Z AUTO 36005KT 320V030 9999 OVC012/// 11/09
                        Q1017=
201305310050 METAR EGLL 310050Z AUTO 02005KT 340V060 9999 OVC013/// 12/09
                        Q1016=
201305310020 METAR EGLL 310020Z AUTO 01006KT 340V070 9999 BKN013/// 12/09
                        Q1016=
201305302350 METAR COR EGLL 302350Z 35004KT 320V020 9999 BKN020 12/09
                        Q1016 BECMG BKN010=
201305302320 METAR COR EGLL 302320Z 35004KT 300V020 9999 BKN020 12/10
                        Q1016 BECMG BKN010=
201305302250 METAR COR EGLL 302250Z 36005KT 330V040 9999 FEW011 BKN020
                        12/09 Q1016 BECMG BKN010=
201305302220 METAR COR EGLL 302220Z 04005KT 340V080 9999 BKN015 12/09
                        Q1016 BECMG BKN012=
201305302150 METAR COR EGLL 302150Z 03007KT 360V070 9999 BKN016 12/09
                        Q1016 BECMG BKN012=
201305302120 METAR COR EGLL 302120Z 03007KT 350V080 9999 FEW013 BKN026
                        13/10 Q1015 TEMPO BKN012=
201305302050 METAR COR EGLL 302050Z 03006KT 360V080 9999 SCT014 BKN029
                        13/10 Q1015 TEMPO BKN012=
201305302020 METAR COR EGLL 302020Z 03007KT 9999 SCT014 SCT023 BKN030
                        13/10 Q1015 TEMPO BKN012=
201305301950 METAR COR EGLL 301950Z 03007KT 350V050 9999 BKN021 14/10
                        Q1014 NOSIG=
201305301920 METAR COR EGLL 301920Z 04008KT 010V070 9999 FEW016 BKN019
                        14/10 Q1014 TEMPO BKN012=
201305301850 METAR COR EGLL 301850Z 03007KT 9999 SCT014 BKN023 14/10 Q1013
                        TEMPO BKN012=
201305301820 METAR COR EGLL 301820Z 36005KT 320V060 9999 SCT015 BKN020
                        14/11 Q1013 TEMPO BKN012=
201305301750 METAR COR EGLL 301750Z 03007KT 350V060 9999 SCT017 BKN031
                        15/10 Q1013 TEMPO BKN014=
201305301720 METAR COR EGLL 301720Z 36008KT 330V050 9999 FEW021 BKN046
                        15/10 Q1012 NOSIG=
201305301650 METAR COR EGLL 301650Z 01006KT 330V070 9999 SCT016 BKN023
                        BKN040 15/10 Q1012 NOSIG=
201305301620 METAR COR EGLL 301620Z 36007KT 320V030 9999 SCT017 BKN021
                        15/11 Q1012 TEMPO SHRA BKN014TCU=
201305301550 METAR COR EGLL 301550Z 36008KT 340V040 9999 SCT018 BKN031
                        15/11 Q1012 NOSIG=
201305301520 METAR COR EGLL 301520Z 36008KT 9999 SCT018 SCT029 15/10 Q1012
                        NOSIG=
201305301450 METAR COR EGLL 301450Z 01008KT 330V050 9999 SCT020 BKN025
                        BKN031 15/10 Q1012 TEMPO SHRA=
201305301420 METAR COR EGLL 301420Z 36008KT 9999 SCT020 BKN025 BKN033
                        15/10 Q1011 TEMPO SHRA=
201305301350 METAR COR EGLL 301350Z 33008KT 310V030 9999 SCT019 BKN025
                        15/10 Q1011 TEMPO SHRA BKN014TCU=
201305301320 METAR COR EGLL 301320Z 34007KT 300V030 9999 SCT018 BKN026
                        14/10 Q1011 TEMPO SHRA BKN014TCU=
201305301250 METAR COR EGLL 301250Z 35007KT 320V020 9999 SCT016 BKN023
                        14/10 Q1011 TEMPO SHRA BKN014TCU=
201305301220 METAR COR EGLL 301220Z 36008KT 320V030 9999 SCT016 BKN023
                        15/10 Q1011 TEMPO SHRA BKN014TCU=
201305301150 METAR COR EGLL 301150Z 34008KT 310V020 9999 SCT015 SCT023
                        14/10 Q1011 TEMPO SHRA BKN014TCU=
201305301120 METAR COR EGLL 301120Z 02007KT 340V060 9999 VCSH BKN013 BKN019
                        14/10 Q1011 TEMPO SCT012 BKN018=
201305301050 METAR COR EGLL 301050Z 36008KT 9999 SCT012 BKN016 13/10 Q1010
                        TEMPO SHRA BKN014TCU=
201305301020 METAR COR EGLL 301020Z 01009KT 340V040 9999 FEW010 BKN016
                        13/11 Q1010 NOSIG=
201305300950 METAR COR EGLL 300950Z 01008KT 9999 FEW008 SCT010 BKN012
                        13/11 Q1010 NOSIG=
201305300920 METAR COR EGLL 300920Z 01007KT 330V040 9999 SCT007 BKN010
                        12/11 Q1010 NOSIG=
201305300850 METAR COR EGLL 300850Z 36007KT 9999 -DZ FEW007 BKN009 12/11
                        Q1009 BECMG SCT009 BKN014=
201305300820 METAR COR EGLL 300820Z 36006KT 310V030 9000 VCSH SCT009 BKN014
                        12/11 Q1009 TEMPO BKN009=
201305300750 METAR COR EGLL 300750Z 36008KT 9999 SCT009 BKN014 12/11 Q1009
                        TEMPO BKN009=
201305300720 METAR COR EGLL 300720Z 01007KT 340V040 9999 FEW007 BKN009
                        11/11 Q1008 BECMG SCT009 BKN012=
201305300650 METAR COR EGLL 300650Z 36008KT 9999 FEW007 BKN009 11/11 Q1008
                        BECMG SCT009 BKN014=
201305300620 METAR COR EGLL 300620Z 35006KT 310V040 9999 -RA FEW010 BKN012
                        11/11 Q1008 TEMPO BKN009=
201305300550 METAR COR EGLL 300550Z 32004KT 290V350 2700 -RA BR FEW004
                        BKN008 11/11 Q1008 BECMG 5000 FEW008
                        BKN012=
201305300520 METAR COR EGLL 300520Z 29006KT 2700 -RA BR FEW007 BKN014
                        11/11 Q1007 TEMPO BKN008=
201305300450 METAR COR EGLL 300450Z 29004KT 3500 -RA BR FEW007 BKN021
                        11/11 Q1007 TEMPO BKN008=
201305300420 METAR COR EGLL 300420Z 30004KT 4500 -RA BR BKN034 11/11 Q1008
                        RERA TEMPO BKN010=
201305300350 METAR COR EGLL 300350Z 31005KT 4400 RA FEW030 SCT046 11/11
                        Q1008 BECMG BKN014=
201305300320 METAR COR EGLL 300320Z 32004KT 290V360 4600 RA SCT010 SCT028
                        11/11 Q1008 BECMG BKN010=
201305300250 METAR COR EGLL 300250Z VRB03KT 4000 RA FEW006 SCT008 BKN010
                        12/11 Q1008 TEMPO 6000 -RA=
201305300220 METAR COR EGLL 300220Z 34005KT 300V020 5000 -RA SCT006 BKN008
                        12/11 Q1008 TEMPO 4000 RA=
201305300150 METAR COR EGLL 300150Z 34005KT 300V010 5000 -RA BKN006 12/11
                        Q1008 TEMPO 4000 RA=
201305300120 METAR EGLL 300120Z AUTO 34005KT 300V010 4500 HZ BKN006///
                        12/11 Q1008=
201305300050 METAR EGLL 300050Z AUTO 32006KT 290V360 7000 FEW012/// SCT016///
                        BKN019/// 12/11 Q1008=
201305300020 METAR EGLL 300020Z AUTO 32005KT 290V350 7000 OVC018/// 12/11
                        Q1008=
201305292350 METAR COR EGLL 292350Z 33004KT 300V360 7000 FEW012 BKN022
                        12/11 Q1008 BECMG BKN014=
201305292320 METAR COR EGLL 292320Z 32005KT 7000 SCT013 BKN019 12/11 Q1008
                        NOSIG=
201305292250 METAR COR EGLL 292250Z 32004KT 300V360 8000 BKN012 12/11
                        Q1008 TEMPO BKN008=
201305292220 METAR COR EGLL 292220Z 31004KT 290V360 8000 BKN013 12/11
                        Q1008 TEMPO BKN008=
201305292150 METAR COR EGLL 292150Z 31004KT 9000 FEW017 12/11 Q1008 TEMPO
                        BKN014=
201305292120 METAR COR EGLL 292120Z VRB03KT 9999 FEW033 12/11 Q1008 NOSIG=
201305292050 METAR COR EGLL 292050Z 34005KT 300V010 9999 SCT033 12/11
                        Q1008 NOSIG=
201305292020 METAR COR EGLL 292020Z 35006KT 320V020 9999 BKN033 13/11
                        Q1008 TEMPO BKN014=
201305291950 METAR COR EGLL 291950Z 36006KT 330V030 9999 BKN033 13/11
                        Q1007 NOSIG=
201305291920 METAR COR EGLL 291920Z 36006KT 330V040 9999 SCT013 BKN036
                        13/11 Q1007 TEMPO BKN012=
201305291850 METAR COR EGLL 291850Z 36007KT 9999 BKN015 13/11 Q1007 TEMPO
                        BKN012=
201305291820 METAR COR EGLL 291820Z 36006KT 320V020 9999 SCT010 BKN034
                        13/11 Q1007 TEMPO BKN010=
201305291750 METAR COR EGLL 291750Z 36007KT 320V030 9999 SCT012 BKN017
                        BKN024 13/11 Q1006 TEMPO BKN010=
201305291720 METAR COR EGLL 291720Z 34006KT 290V020 9999 SCT011 BKN016
                        13/12 Q1006 TEMPO BKN010=
201305291650 METAR COR EGLL 291650Z 31006KT 6000 FEW008 BKN010 BKN018
                        12/11 Q1006 TEMPO SCT012 BKN020=
201305291620 METAR COR EGLL 291620Z 31006KT 6000 -RADZ FEW006 SCT008 BKN010
                        12/11 Q1006 TEMPO 4000 BKN006=
201305291550 METAR COR EGLL 291550Z 30008KT 6000 -RADZ BKN013 12/11 Q1006
                        TEMPO 4000 BKN008=
201305291520 METAR COR EGLL 291520Z 30007KT 9000 BKN013 12/10 Q1006 TEMPO
                        4500 -DZ BKN008=
201305291450 METAR COR EGLL 291450Z 31006KT 270V340 9999 SCT011 BKN016
                        12/10 Q1006 NOSIG=
201305291420 METAR COR EGLL 291420Z 30007KT 280V350 9999 SCT010 BKN014
                        12/10 Q1006 TEMPO FEW012 BKN018=
201305291350 METAR COR EGLL 291350Z 30007KT 9999 SCT008 BKN011 12/10 Q1006
                        TEMPO SCT012 BKN025=
201305291320 METAR COR EGLL 291320Z 31007KT 280V340 9999 BKN008 11/10
                        Q1006 TEMPO BKN012=
201305291250 METAR COR EGLL 291250Z 34006KT 290V030 9999 -RA SCT007 BKN009
                        BKN014 10/09 Q1005 TEMPO SCT009 BKN015=
201305291220 METAR COR EGLL 291220Z 32006KT 290V360 9999 FEW006 SCT007
                        BKN020 10/10 Q1005 TEMPO BKN007=
201305291150 METAR COR EGLL 291150Z 36006KT 330V030 5000 -RADZ FEW007
                        SCT012 BKN025 10/10 Q1005 TEMPO BKN009=
201305291120 METAR COR EGLL 291120Z 34005KT 290V010 5000 -RADZ FEW008
                        SCT010 BKN014 11/10 Q1005 TEMPO SCT012
                        BKN025=
201305291050 METAR COR EGLL 291050Z 34007KT 300V010 6000 -RADZ FEW013
                        SCT018 BKN024 11/09 Q1005 TEMPO 4500
                        RADZ SCT007 BKN012=
201305291020 METAR COR EGLL 291020Z 30006KT 9999 SCT018 SCT024 13/09 Q1004
                        TEMPO BKN014=
201305290950 METAR COR EGLL 290950Z 31005KT 250V360 9999 SCT018 SCT025
                        13/09 Q1004 TEMPO BKN014=
201305290920 METAR COR EGLL 290920Z 29006KT 270V350 9999 SCT016 12/09
                        Q1004 NOSIG=
201305290850 METAR COR EGLL 290850Z 30005KT 260V350 9999 SCT018 12/09
                        Q1004 NOSIG=
201305290820 METAR COR EGLL 290820Z 30006KT 9999 FEW012 SCT032 11/08 Q1004
                        NOSIG=
201305290750 METAR COR EGLL 290750Z 31006KT 280V350 9999 FEW010 SCT024
                        11/08 Q1004 NOSIG=
201305290720 METAR COR EGLL 290720Z 31005KT 9999 FEW010 SCT030 10/08 Q1003
                        NOSIG=
201305290650 METAR COR EGLL 290650Z 29006KT 9999 FEW010 SCT035 09/08 Q1003
                        TEMPO BKN008=
201305290620 METAR COR EGLL 290620Z 27005KT 9999 FEW006 BKN030 09/08 Q1003
                        TEMPO BKN008=
201305290550 METAR COR EGLL 290550Z 30005KT 270V350 9999 FEW006 08/07
                        Q1003 TEMPO BKN006=
201305290520 METAR COR EGLL 290520Z 28005KT 230V290 9999 FEW032 07/06
                        Q1002 NOSIG=
201305290450 METAR COR EGLL 290450Z 24005KT 9999 FEW035 07/07 Q1002 NOSIG=
201305290420 METAR COR EGLL 290420Z 25005KT 200V270 9999 FEW035 07/06
                        Q1002 TEMPO BKN008=
201305290350 METAR COR EGLL 290350Z 27004KT CAVOK 07/07 Q1002 TEMPO BKN008=
201305290320 METAR COR EGLL 290320Z 26005KT CAVOK 08/07 Q1002 TEMPO BKN008=
201305290250 METAR COR EGLL 290250Z 25006KT 9999 FEW016 BKN025 08/07 Q1002
                        TEMPO BKN008=
201305290220 METAR EGLL 290220Z 27006KT 9999 FEW016 BKN023 09/07 Q1002=
201305290150 METAR COR EGLL 290150Z 27005KT 9999 FEW009 BKN022 08/07 Q1002
                        NOSIG=
201305290120 METAR EGLL 290120Z AUTO 28005KT 9999 FEW009/// BKN021///
                        09/08 Q1002=
201305290050 METAR EGLL 290050Z AUTO 28005KT 9999 FEW010/// BKN020///
                        08/08 Q1001=
201305290020 METAR EGLL 290020Z AUTO 25006KT 9999 SCT023/// 09/08 Q1001=
201305282350 METAR COR EGLL 282350Z 25006KT 9999 FEW010 09/08 Q1001 TEMPO
                        BKN010=
201305282320 METAR COR EGLL 282320Z 24005KT 9999 FEW012 SCT038 09/08 Q1001
                        NOSIG=
201305282250 METAR COR EGLL 282250Z 23005KT 9999 FEW010 09/08 Q1001 NOSIG=
201305282220 METAR COR EGLL 282220Z 22006KT 9999 FEW009 BKN035 10/08 Q1001
                        NOSIG=
201305282150 METAR COR EGLL 282150Z 23006KT 190V260 9999 FEW010 SCT031
                        10/09 Q1001 NOSIG=
201305282120 METAR COR EGLL 282120Z 22006KT 9999 FEW010 SCT022 10/08 Q1001
                        NOSIG=
201305282050 METAR COR EGLL 282050Z 17006KT 110V200 9999 FEW010 SCT022
                        10/08 Q1001 NOSIG=
201305282020 METAR COR EGLL 282020Z 22005KT 190V250 9999 FEW010 10/09
                        Q1000 NOSIG=
201305281950 METAR EGLL 281950Z 23006KT 190V260 9999 SCT033 10/09 Q1000=
201305281920 METAR COR EGLL 281920Z 23005KT 190V260 9999 SCT032 11/08
                        Q1000 NOSIG=
201305281850 METAR COR EGLL 281850Z 21006KT 180V240 9999 FEW027 BKN032
                        11/08 Q1000 NOSIG=
201305281820 METAR COR EGLL 281820Z 22007KT 9999 FEW018 BKN021 11/09 Q0999
                        NOSIG=
201305281750 METAR COR EGLL 281750Z 20005KT 160V250 9999 FEW013 BKN015
                        11/09 Q0999 TEMPO BKN014=
201305281720 METAR COR EGLL 281720Z VRB04KT 9999 SCT015 BKN032 12/09 Q0999
                        NOSIG=
201305281650 METAR COR EGLL 281650Z 22006KT 190V260 9999 FEW028 BKN034
                        12/09 Q0999 NOSIG=
201305281620 METAR COR EGLL 281620Z 22007KT 180V240 9999 FEW010 BKN033
                        12/10 Q0999 NOSIG=
201305281550 METAR COR EGLL 281550Z 22005KT 190V250 9999 FEW010 BKN014
                        11/10 Q0999 BECMG SCT015 BKN035=
201305281520 METAR COR EGLL 281520Z VRB02KT 9999 FEW011 BKN015 11/09 Q0999
                        NOSIG=
201305281450 METAR COR EGLL 281450Z 30004KT 240V340 9999 FEW009 BKN012
                        12/10 Q0999 BECMG SCT012 BKN035=
201305281420 METAR COR EGLL 281420Z 29005KT 260V330 9999 -RA SCT009 BKN011
                        11/10 Q0999 BECMG SCT014 BKN035=
201305281350 METAR COR EGLL 281350Z 25009KT 9999 -RA SCT006 BKN009 10/09
                        Q0999 RERA REDZ BECMG SCT008 BKN035=
201305281320 METAR COR EGLL 281320Z 22008KT 200V260 6000 RADZ SCT005 BKN007
                        10/10 Q0999 BECMG -RA SCT007 BKN014=
201305281250 METAR COR EGLL 281250Z 27008KT 6000 -RADZ FEW005 BKN006 10/10
                        Q0998 BECMG SCT007 BKN014=
201305281220 METAR COR EGLL 281220Z 27007KT 230V290 6000 -RADZ SCT004
                        BKN006 10/10 Q0998 RERA REDZ BECMG
                        SCT008 BKN014=
201305281150 METAR COR EGLL 281150Z 23008KT 3000 RADZ FEW002 SCT003 BKN005
                        10/10 Q0998 BECMG 6000 -RADZ SCT005
                        BKN012=
201305281120 METAR COR EGLL 281120Z 09010KT 4000 RADZ BKN005 11/11 Q0999
                        BECMG 6000 -RADZ SCT007 BKN012=
201305281050 METAR EGLL 281050Z 10005KT 040V140 4500 RADZ BKN006 10/10
                        Q0999=
201305281020 METAR COR EGLL 281020Z 29005KT 3500 -RADZ FEW004 SCT009 BKN011
                        10/10 Q0999 BECMG 6000=
201305280950 METAR COR EGLL 280950Z 31004KT 250V340 5000 -RADZ SCT006
                        BKN008 10/10 Q0999 TEMPO 3500 RADZ=
201305280920 METAR COR EGLL 280920Z VRB03KT 6000 -RADZ FEW006 SCT007 10/10
                        Q1000 TEMPO 4000 RADZ BKN007=
201305280850 METAR COR EGLL 280850Z 04004KT 360V070 5000 -RADZ FEW006
                        BKN009 11/10 Q1000 TEMPO 3500 RADZ=
201305280820 METAR COR EGLL 280820Z 04006KT 7000 -RA SCT006 BKN010 11/10
                        Q1000 TEMPO 4000 RADZ BKN006=
201305280750 METAR COR EGLL 280750Z 02005KT 7000 -RA FEW010 BKN015 10/09
                        Q1000 TEMPO 4000 RA SCT007 BKN012=
201305280720 METAR COR EGLL 280720Z 04005KT 6000 -RA BKN018 10/10 Q1001
                        TEMPO 4000 RA SCT007 BKN012=
201305280650 METAR COR EGLL 280650Z 07004KT 5000 -RA BKN022 10/09 Q1001
                        TEMPO 4000 RA BKN007=
201305280620 METAR COR EGLL 280620Z 08004KT 5000 -RA FEW007 BKN028 10/09
                        Q1001 TEMPO 4000 RA BKN007=
201305280550 METAR COR EGLL 280550Z 07003KT 6000 -RA FEW026 BKN032 10/09
                        Q1001 TEMPO 4000 RA=
201305280520 METAR COR EGLL 280520Z 10003KT 6000 -RA FEW027 BKN031 10/09
                        Q1001 TEMPO 4000 RA=
201305280450 METAR COR EGLL 280450Z VRB03KT 7000 -RA BKN036 10/08 Q1001
                        TEMPO 4000 RA=
201305280420 METAR COR EGLL 280420Z 12004KT 9000 -RA FEW037 BKN049 10/08
                        Q1002 TEMPO 4000 RA=
201305280350 METAR COR EGLL 280350Z 13005KT 9999 -RA FEW046 11/08 Q1002
                        NOSIG=
201305280320 METAR COR EGLL 280320Z 13004KT 9999 -RA NSC 11/08 Q1002 NOSIG=
201305280250 METAR COR EGLL 280250Z 15004KT 9999 -RA NSC 11/08 Q1002 NOSIG=
201305280220 METAR COR EGLL 280220Z VRB03KT 9999 -RA NSC 11/07 Q1002 NOSIG=
201305280150 METAR COR EGLL 280150Z 13004KT CAVOK 11/07 Q1002 NOSIG=
201305280120 METAR EGLL 280120Z AUTO 18004KT 9999 -RA NCD 12/07 Q1002=
201305280050 METAR EGLL 280050Z AUTO 15004KT 9999 NCD 12/06 Q1003=
201305280020 METAR EGLL 280020Z AUTO 17004KT 140V200 9999 NCD 12/05 Q1003=
201305272350 METAR EGLL 272350Z 11005KT CAVOK 12/06 Q1003=
201305272320 METAR COR EGLL 272320Z 13006KT CAVOK 12/05 Q1003 NOSIG=
201305272250 METAR COR EGLL 272250Z 13006KT CAVOK 12/06 Q1004 NOSIG=
201305272220 METAR COR EGLL 272220Z 13007KT 090V150 CAVOK 12/06 Q1004
                        NOSIG=
201305272150 METAR COR EGLL 272150Z 14008KT CAVOK 13/06 Q1004 NOSIG=
201305272120 METAR COR EGLL 272120Z 15006KT CAVOK 12/06 Q1004 NOSIG=
201305272050 METAR COR EGLL 272050Z 15008KT CAVOK 13/05 Q1004 NOSIG=
201305272020 METAR COR EGLL 272020Z 15008KT CAVOK 13/05 Q1004 NOSIG=
201305271950 METAR COR EGLL 271950Z 15008KT 100V170 CAVOK 14/04 Q1004
                        NOSIG=
201305271920 METAR COR EGLL 271920Z 18010KT 130V230 CAVOK 14/03 Q1004
                        NOSIG=
201305271850 METAR COR EGLL 271850Z 17010KT CAVOK 15/03 Q1005 NOSIG=
201305271820 METAR COR EGLL 271820Z 22011KT 150V240 CAVOK 15/03 Q1005
                        NOSIG=
201305271750 METAR COR EGLL 271750Z 22013KT CAVOK 15/02 Q1005 BECMG 15007KT=
201305271720 METAR COR EGLL 271720Z 22012KT CAVOK 16/01 Q1005 BECMG 15007KT=
201305271650 METAR COR EGLL 271650Z 22017G27KT CAVOK 17/M01 Q1005 BECMG
                        18009KT=
201305271620 METAR COR EGLL 271620Z 21018KT CAVOK 17/M03 Q1005 NOSIG=
201305271550 METAR COR EGLL 271550Z 20017KT CAVOK 17/01 Q1006 NOSIG=
201305271520 METAR COR EGLL 271520Z 19017KT CAVOK 17/01 Q1006 NOSIG=
201305271450 METAR COR EGLL 271450Z 22018KT CAVOK 18/03 Q1006 NOSIG=
201305271420 METAR COR EGLL 271420Z 21017KT CAVOK 18/03 Q1006 NOSIG=
201305271350 METAR COR EGLL 271350Z 20017KT 170V240 CAVOK 17/02 Q1007
                        NOSIG=
201305271320 METAR EGLL 271320Z 21015G26KT 180V250 CAVOK 18/03 Q1007=
201305271250 METAR COR EGLL 271250Z 20016KT 180V240 9999 FEW048 17/04
                        Q1007 NOSIG=
201305271220 METAR EGLL 271220Z 22014G24KT 180V250 9999 SCT046 18/04 Q1008=
201305271150 METAR COR EGLL 271150Z 21015KT 180V250 9999 SCT047 17/05
                        Q1008 NOSIG=
201305271120 METAR COR EGLL 271120Z 20015KT 170V230 9999 FEW043 16/05
                        Q1008 NOSIG=
201305271050 METAR COR EGLL 271050Z 21013KT 180V260 9999 SCT043 17/05
                        Q1008 TEMPO 21015G25KT=
201305271020 METAR COR EGLL 271020Z 21015KT 180V250 9999 SCT039 16/06
                        Q1009 NOSIG=
201305270950 METAR COR EGLL 270950Z 23014KT 190V260 9999 FEW036 16/06
                        Q1009 NOSIG=
201305270920 METAR COR EGLL 270920Z 24014KT 9999 FEW036 15/06 Q1009 NOSIG=
201305270850 METAR COR EGLL 270850Z 23012KT 200V270 9999 FEW032 14/06
                        Q1010 NOSIG=
201305270820 METAR COR EGLL 270820Z 23011KT 200V260 CAVOK 13/05 Q1010
                        NOSIG=
201305270750 METAR COR EGLL 270750Z 22010KT 190V250 CAVOK 12/06 Q1010
                        NOSIG=
201305270720 METAR COR EGLL 270720Z 22008KT 190V260 CAVOK 11/07 Q1011
                        NOSIG=
201305270650 METAR COR EGLL 270650Z 22008KT 180V260 9999 FEW009 10/07
                        Q1011 NOSIG=
201305270620 METAR COR EGLL 270620Z 23009KT 200V260 9999 BKN006 BKN008
                        08/07 Q1011 BECMG CAVOK=
201305270550 METAR COR EGLL 270550Z 23012KT 8000 BKN004 07/06 Q1011 BECMG
                        9999 FEW009=
201305270520 METAR COR EGLL 270520Z 22009KT 180V250 8000 2000S BKN003
                        06/05 Q1012 BECMG 9999 FEW008=
201305270450 METAR COR EGLL 270450Z 22005KT CAVOK 05/03 Q1012 NOSIG=
201305270420 METAR COR EGLL 270420Z 21004KT CAVOK 05/03 Q1012 NOSIG=
201305270350 METAR COR EGLL 270350Z 21005KT 180V240 CAVOK 06/03 Q1012
                        NOSIG=
201305270320 METAR COR EGLL 270320Z 21005KT CAVOK 06/03 Q1012 NOSIG=
201305270250 METAR COR EGLL 270250Z 22005KT CAVOK 06/03 Q1012 NOSIG=
201305270220 METAR COR EGLL 270220Z 23005KT CAVOK 07/03 Q1013 NOSIG=
201305270150 METAR COR EGLL 270150Z 20005KT CAVOK 08/04 Q1013 NOSIG=
201305270120 METAR EGLL 270120Z AUTO 20005KT 9999 NCD 08/03 Q1013=
201305270050 METAR EGLL 270050Z AUTO 25006KT 9999 NCD 08/04 Q1014=
201305270020 METAR EGLL 270020Z AUTO 25006KT 9999 NCD 07/03 Q1014=
201305262350 METAR COR EGLL 262350Z 27006KT CAVOK 08/04 Q1014 NOSIG=
201305262320 METAR COR EGLL 262320Z 27007KT CAVOK 08/04 Q1015 NOSIG=
201305262250 METAR COR EGLL 262250Z 26007KT CAVOK 09/04 Q1015 NOSIG=
201305262220 METAR COR EGLL 262220Z 26010KT CAVOK 11/04 Q1015 NOSIG=
201305262150 METAR COR EGLL 262150Z 25010KT CAVOK 12/05 Q1015 NOSIG=
201305262120 METAR COR EGLL 262120Z 25012KT CAVOK 13/05 Q1015 NOSIG=
201305262050 METAR COR EGLL 262050Z 24010KT CAVOK 13/05 Q1015 NOSIG=
201305262020 METAR COR EGLL 262020Z 27010KT CAVOK 14/05 Q1015 NOSIG=
201305261950 METAR COR EGLL 261950Z 28006KT CAVOK 14/05 Q1015 NOSIG=
201305261920 METAR COR EGLL 261920Z 30006KT CAVOK 15/05 Q1015 NOSIG=
201305261850 METAR COR EGLL 261850Z 29007KT CAVOK 16/05 Q1015 NOSIG=
201305261820 METAR COR EGLL 261820Z 30007KT 260V320 CAVOK 17/04 Q1015
                        NOSIG=
201305261750 METAR COR EGLL 261750Z 29007KT CAVOK 18/04 Q1016 NOSIG=
201305261720 METAR COR EGLL 261720Z 28009KT 260V320 CAVOK 18/04 Q1016
                        NOSIG=
201305261650 METAR COR EGLL 261650Z 27009KT 230V300 CAVOK 18/04 Q1016
                        NOSIG=
201305261620 METAR COR EGLL 261620Z 27011KT CAVOK 19/04 Q1017 NOSIG=
201305261550 METAR COR EGLL 261550Z 28008KT 260V320 CAVOK 19/05 Q1017
                        NOSIG=
201305261520 METAR COR EGLL 261520Z 28010KT 230V340 CAVOK 19/05 Q1017
                        NOSIG=
201305261450 METAR COR EGLL 261450Z 28010KT 240V320 CAVOK 19/05 Q1017
                        NOSIG=
201305261420 METAR COR EGLL 261420Z 29009KT 240V330 CAVOK 19/05 Q1018
                        NOSIG=
201305261350 METAR COR EGLL 261350Z 28008KT 240V340 CAVOK 19/04 Q1018
                        NOSIG=
201305261320 METAR COR EGLL 261320Z 27008KT 240V320 CAVOK 18/05 Q1018
                        NOSIG=
201305261250 METAR COR EGLL 261250Z 28008KT 250V310 CAVOK 18/03 Q1018
                        NOSIG=
201305261220 METAR COR EGLL 261220Z 30009KT 250V350 CAVOK 18/04 Q1019
                        NOSIG=
201305261150 METAR COR EGLL 261150Z 29007KT 250V350 CAVOK 18/05 Q1019
                        NOSIG=
201305261120 METAR COR EGLL 261120Z 30008KT 270V330 9999 FEW048 17/05
                        Q1019 NOSIG=
201305261050 METAR COR EGLL 261050Z 30009KT 270V340 9999 FEW048 16/04
                        Q1019 NOSIG=
201305261020 METAR COR EGLL 261020Z 31008KT 280V350 9999 FEW044 16/05
                        Q1019 NOSIG=
201305260950 METAR COR EGLL 260950Z 32008KT 290V350 CAVOK 16/04 Q1020
                        NOSIG=
201305260920 METAR COR EGLL 260920Z 35007KT 300V020 CAVOK 15/03 Q1020
                        NOSIG=
201305260850 METAR COR EGLL 260850Z 34008KT 290V010 CAVOK 15/02 Q1020
                        NOSIG=
201305260820 METAR COR EGLL 260820Z 33007KT 290V010 CAVOK 14/02 Q1020
                        NOSIG=
201305260750 METAR COR EGLL 260750Z 33007KT 300V030 CAVOK 13/02 Q1020
                        NOSIG=
201305260720 METAR COR EGLL 260720Z 31005KT 270V340 CAVOK 12/04 Q1020
                        NOSIG=
201305260650 METAR COR EGLL 260650Z VRB03KT CAVOK 10/04 Q1020 NOSIG=
201305260620 METAR EGLL 260620Z 30005KT 270V330 CAVOK 09/04 Q1020=
201305260550 METAR EGLL 260550Z 30004KT 260V340 CAVOK 08/03 Q1020=
201305260520 METAR COR EGLL 260520Z 31004KT 280V350 CAVOK 07/04 Q1020
                        NOSIG=
201305260450 METAR COR EGLL 260450Z 30005KT CAVOK 06/04 Q1020 NOSIG=
201305260420 METAR COR EGLL 260420Z 29005KT CAVOK 05/04 Q1020 NOSIG=
201305260350 METAR COR EGLL 260350Z 29005KT CAVOK 06/04 Q1020 NOSIG=
201305260320 METAR COR EGLL 260320Z 30005KT CAVOK 06/04 Q1020 NOSIG=
201305260250 METAR COR EGLL 260250Z 30004KT CAVOK 06/04 Q1020 NOSIG=
201305260220 METAR COR EGLL 260220Z 29004KT CAVOK 06/04 Q1020 NOSIG=
201305260150 METAR COR EGLL 260150Z 29006KT CAVOK 06/04 Q1020 NOSIG=
201305260120 METAR EGLL 260120Z AUTO 29007KT 9999 NCD 07/04 Q1020=
201305260050 METAR EGLL 260050Z AUTO 29005KT 9999 NCD 07/04 Q1020=
201305260020 METAR EGLL 260020Z AUTO 29006KT 9999 NCD 07/04 Q1020=
201305252350 METAR COR EGLL 252350Z 27006KT CAVOK 06/04 Q1021 NOSIG=
201305252320 METAR COR EGLL 252320Z 29005KT CAVOK 08/04 Q1021 NOSIG=
201305252250 METAR COR EGLL 252250Z 29005KT CAVOK 08/04 Q1021 NOSIG=
201305252220 METAR COR EGLL 252220Z 29005KT CAVOK 08/04 Q1021 NOSIG=
201305252150 METAR COR EGLL 252150Z 30004KT CAVOK 09/04 Q1021 NOSIG=
201305252120 METAR COR EGLL 252120Z 30003KT CAVOK 10/04 Q1021 NOSIG=
201305252050 METAR COR EGLL 252050Z 31003KT CAVOK 11/04 Q1021 NOSIG=
201305252020 METAR COR EGLL 252020Z 31003KT CAVOK 12/03 Q1021 NOSIG=
201305251950 METAR COR EGLL 251950Z 32004KT CAVOK 13/03 Q1021 NOSIG=
201305251920 METAR COR EGLL 251920Z 35004KT 310V020 CAVOK 14/02 Q1021
                        NOSIG=
201305251850 METAR COR EGLL 251850Z 35005KT 330V030 CAVOK 14/02 Q1021
                        NOSIG=
201305251820 METAR COR EGLL 251820Z 36006KT 330V050 CAVOK 15/02 Q1021
                        NOSIG=
201305251750 METAR COR EGLL 251750Z 34008KT 310V010 CAVOK 14/03 Q1021
                        NOSIG=
201305251720 METAR COR EGLL 251720Z 36005KT CAVOK 15/03 Q1021 NOSIG=
201305251650 METAR COR EGLL 251650Z 35007KT 300V020 CAVOK 15/03 Q1021
                        NOSIG=
201305251620 METAR COR EGLL 251620Z 32008KT 280V360 CAVOK 15/02 Q1021
                        NOSIG=
201305251550 METAR COR EGLL 251550Z 36008KT 330V040 CAVOK 15/02 Q1021
                        NOSIG=
201305251520 METAR COR EGLL 251520Z 35008KT 300V030 CAVOK 15/02 Q1021
                        NOSIG=
201305251450 METAR COR EGLL 251450Z 33008KT 290V020 9999 FEW048 15/03
                        Q1021 NOSIG=
201305251420 METAR COR EGLL 251420Z 35004KT 310V040 9999 FEW046 14/03
                        Q1021 NOSIG=
201305251350 METAR COR EGLL 251350Z 34008KT 310V010 CAVOK 14/04 Q1021
                        NOSIG=
201305251320 METAR COR EGLL 251320Z 35007KT 300V030 9999 FEW047 14/00
                        Q1021 NOSIG=
201305251250 METAR COR EGLL 251250Z 34007KT 9999 SCT042 14/01 Q1021 NOSIG=
201305251220 METAR COR EGLL 251220Z 34005KT 280V040 9999 SCT045 14/04
                        Q1021 NOSIG=
201305251150 METAR COR EGLL 251150Z 34005KT 290V020 9999 FEW037 SCT044
                        13/04 Q1021 NOSIG=
201305251120 METAR COR EGLL 251120Z 01007KT 300V080 9999 FEW030 SCT040
                        12/04 Q1022 NOSIG=
201305251050 METAR COR EGLL 251050Z 01008KT 320V050 9999 SCT030 13/05
                        Q1022 NOSIG=
201305251020 METAR COR EGLL 251020Z 36008KT 330V040 9999 FEW030 SCT040
                        12/05 Q1022 NOSIG=
201305250950 METAR COR EGLL 250950Z 34007KT 310V020 9999 SCT033 12/05
                        Q1022 NOSIG=
201305250920 METAR COR EGLL 250920Z 36006KT 320V060 9999 SCT025 11/05
                        Q1022 NOSIG=
201305250850 METAR COR EGLL 250850Z 01006KT 310V050 9999 FEW018 SCT021
                        10/05 Q1022 NOSIG=
201305250820 METAR COR EGLL 250820Z 35007KT 310V030 9999 SCT020 09/05
                        Q1022 NOSIG=
201305250750 METAR COR EGLL 250750Z 36008KT 320V060 9999 FEW015 BKN020
                        09/05 Q1021 NOSIG=
201305250720 METAR COR EGLL 250720Z 36007KT 330V040 9999 SCT015 09/M09
                        Q1021 NOSIG=
201305250650 METAR COR EGLL 250650Z 01007KT 340V050 9999 FEW010 08/05
                        Q1021 NOSIG=
201305250620 METAR COR EGLL 250620Z 01007KT 340V060 9999 FEW009 07/05
                        Q1021 NOSIG=
201305250550 METAR COR EGLL 250550Z 02006KT 9999 FEW009 SCT012 07/05 Q1020
                        NOSIG=
201305250520 METAR COR EGLL 250520Z 01007KT 350V050 9999 BKN009 06/05
                        Q1020 BECMG SCT012=
201305250450 METAR COR EGLL 250450Z 02005KT 330V050 9999 SCT008 06/05
                        Q1020 NOSIG=
201305250420 METAR COR EGLL 250420Z 36005KT 8000 SCT008 05/04 Q1020 TEMPO
                        BKN008=
201305250350 METAR COR EGLL 250350Z 36005KT 9000 NSC 05/04 Q1019 NOSIG=
201305250320 METAR COR EGLL 250320Z 01004KT 330V060 9000 NSC 05/04 Q1019
                        NOSIG=
201305250250 METAR EGLL 250250Z AUTO 02006KT 340V060 9000 NCD 05/04 Q1019=
201305250220 METAR EGLL 250220Z AUTO 03006KT 350V060 9999 NCD 06/04 Q1019=
201305250150 METAR EGLL 250150Z AUTO 01005KT 330V060 9999 NCD 06/04 Q1019=
201305250120 METAR COR EGLL 250120Z 01006KT CAVOK 06/04 Q1018 NOSIG=
201305250050 METAR COR EGLL 250050Z 01007KT 340V050 9999 SCT019 06/04
                        Q1018 NOSIG=
201305250020 METAR EGLL 250020Z 01006KT 340V040 9999 SCT013 06/05 Q1018=
201305242350 METAR COR EGLL 242350Z 01007KT 340V040 9999 FEW014 SCT023
                        06/05 Q1017 NOSIG=
201305242320 METAR COR EGLL 242320Z 01007KT 9999 BKN019 BKN030 07/05 Q1017
                        NOSIG=
201305242250 METAR COR EGLL 242250Z 01006KT 9999 SCT019 BKN033 06/05 Q1017
                        NOSIG=
201305242220 METAR COR EGLL 242220Z 01005KT 340V050 9999 FEW031 BKN043
                        06/04 Q1017 NOSIG=
201305242150 METAR COR EGLL 242150Z 04008KT 9999 FEW040 SCT044 06/04 Q1016
                        NOSIG=
201305242120 METAR COR EGLL 242120Z 04008KT 340V060 9999 SCT014 SCT023
                        07/05 Q1015 NOSIG=
201305242050 METAR COR EGLL 242050Z 03005KT 330V060 9999 FEW018 SCT023
                        07/04 Q1015 NOSIG=
201305242020 METAR COR EGLL 242020Z 02007KT 340V060 9999 VCSH FEW031 06/04
                        Q1014 NOSIG=
201305241950 METAR COR EGLL 241950Z 04011KT 360V070 9999 5000SW SHRA SCT011
                        BKN017CB 07/05 Q1014 BECMG NSW=
201305241920 METAR COR EGLL 241920Z 03008KT 350V050 9999 VCSH FEW025CB
                        08/05 Q1013 TEMPO SHRA=
201305241850 METAR COR EGLL 241850Z 03009KT 360V060 9999 FEW020 SCT049
                        08/05 Q1012 TEMPO SHRA=
201305241820 METAR COR EGLL 241820Z 04009KT 9999 FEW016 SCT018 08/06 Q1011
                        TEMPO SHRA=
201305241750 METAR COR EGLL 241750Z 05010KT 010V070 9999 SCT016 BKN023
                        08/06 Q1010 TEMPO 4500 SHRA BKN014=
201305241720 METAR COR EGLL 241720Z 05010KT 020V080 9999 -SHRA SCT016
                        BKN026 08/06 Q1009 TEMPO 4500 SHRA
                        BKN014=
201305241650 METAR COR EGLL 241650Z 05013KT 9999 5000E VCSH FEW012 BKN015
                        09/06 Q1008 TEMPO 4000 SHRA BKN012=
201305241620 METAR COR EGLL 241620Z 05012KT 9999 5000SE -SHRA FEW011 BKN015
                        BKN030 08/06 Q1007 TENMPO 4000 +SHRA
                        BKN012=
201305241550 METAR COR EGLL 241550Z 05013G23KT 9999 -SHRA BKN015 BKN028
                        09/06 Q1006 TEMPO 4500 +SHRA BKN014=
201305241520 METAR COR EGLL 241520Z 05010KT 9999 FEW013 SCT015 BKN025
                        09/06 Q1005 TEMPO 4500 +SHRA=
201305241450 METAR COR EGLL 241450Z 01005KT 320V050 9999 FEW008 SCT012
                        BKN019 08/07 Q1004 TEMPO 4500 RA
                        BKN012=
201305241420 METAR COR EGLL 241420Z 30007KT 260V350 9000 -RADZ BKN013
                        08/06 Q1003 BECMG 04012KT SCT013
                        BKN025=
201305241350 METAR COR EGLL 241350Z 29010KT 6000 -RADZ SCT014 BKN018 08/06
                        Q1004 BECMG 04012KT 4500 RADZ BKN012=
201305241320 METAR COR EGLL 241320Z 28014KT 9000 -RA SCT019 BKN023 09/07
                        Q1004 BECMG 04012KT RADZ BKN012=
201305241250 METAR COR EGLL 241250Z 28014KT 9999 -RA SCT020 BKN023 08/06
                        Q1004 TEMPO RADZ BKN013=
201305241220 METAR COR EGLL 241220Z 29013KT 9999 -RA BKN027 08/05 Q1005
                        TEMPO RA BKN014=
201305241150 METAR COR EGLL 241150Z 27013KT 9999 -RA BKN030 08/05 Q1005
                        BECMG RADZ BKN014=
201305241120 METAR COR EGLL 241120Z 28013KT 9999 -RA FEW024 BKN028 08/05
                        Q1006 NOSIG=
201305241050 METAR COR EGLL 241050Z 28013KT 9999 -RA SCT027 BKN034 09/04
                        Q1006 NOSIG=
201305241020 METAR COR EGLL 241020Z 28014KT 9999 -RA SCT026 BKN032 08/04
                        Q1007 NOSIG=
201305240950 METAR COR EGLL 240950Z 29014KT 9999 -RA FEW026 BKN030 08/04
                        Q1007 NOSIG=
201305240920 METAR COR EGLL 240920Z 28013KT 9999 -RA SCT026 BKN032 08/04
                        Q1007 NOSIG=
201305240850 METAR COR EGLL 240850Z 29012KT 9999 -RA FEW021 BKN024 07/05
                        Q1008 NOSIG=
201305240820 METAR COR EGLL 240820Z 29012KT 260V320 9999 FEW018 SCT041
                        07/04 Q1008 NOSIG=
201305240750 METAR COR EGLL 240750Z 28012KT 9999 SCT017 SCT022 07/04 Q1008
                        TEMPO BKN012=
201305240720 METAR COR EGLL 240720Z 29012KT 9999 SCT014 BKN022 07/04 Q1009
                        NOSIG=
201305240650 METAR COR EGLL 240650Z 29011KT 9999 -RA BKN014 BKN018 06/04
                        Q1009 BECMG SCT014 BKN025=
201305240620 METAR COR EGLL 240620Z 28009KT 9999 -RA SCT013 BKN017 06/04
                        Q1009 TEMPO RA BKN014=
201305240550 METAR COR EGLL 240550Z 27012KT 9999 -RA SCT017 BKN021 06/04
                        Q1009 TEMPO RA=
201305240520 METAR COR EGLL 240520Z 27011KT 9999 SCT023 BKN037 05/04 Q1009
                        NOSIG=
201305240450 METAR EGLL 240450Z 28012KT 9999 SCT027 SCT045 06/03 Q1010=
201305240420 METAR COR EGLL 240420Z 28011KT 9999 FEW048 06/02 Q1010 NOSIG=
201305240350 METAR COR EGLL 240350Z 28009KT CAVOK 06/02 Q1010 BECMG BKN040=
201305240320 METAR COR EGLL 240320Z 27010KT CAVOK 06/02 Q1010 NOSIG=
201305240250 METAR EGLL 240250Z AUTO 27010KT 9999 NCD 06/02 Q1010=
201305240220 METAR EGLL 240220Z AUTO 28009KT 9999 NCD 06/02 Q1011=
201305240150 METAR EGLL 240150Z AUTO 28010KT 9999 NCD 05/02 Q1011=
201305240120 METAR EGLL 240120Z AUTO 27010KT 9999 NCD 06/02 Q1011=
201305240050 METAR COR EGLL 240050Z 28009KT CAVOK 06/03 Q1012 NOSIG=
201305240020 METAR EGLL 240020Z 29008KT 9999 FEW048 06/03 Q1012=
201305232350 METAR COR EGLL 232350Z 28009KT 9999 FEW046 06/03 Q1012 NOSIG=
201305232320 METAR COR EGLL 232320Z 29009KT CAVOK 06/03 Q1012 NOSIG=
201305232250 METAR COR EGLL 232250Z 29011KT CAVOK 06/03 Q1013 NOSIG=
201305232220 METAR COR EGLL 232220Z 28010KT 9999 SCT044 06/03 Q1013 NOSIG=
201305232150 METAR EGLL 232150Z 29008KT 9999 SCT041 07/03 Q1013=
201305232120 METAR EGLL 232120Z 29007KT 9999 SCT038 07/03 Q1013=
201305232050 METAR COR EGLL 232050Z 29007KT 9999 FEW037 SCT043 08/02 Q1013
                        NOSIG=
201305232020 METAR COR EGLL 232020Z 29010KT 9999 VCSH FEW045 09/02 Q1013
                        NOSIG=
201305231950 METAR COR EGLL 231950Z 30006KT 9999 VCSH FEW043CB 09/01 Q1013
                        NOSIG=
201305231920 METAR EGLL 231920Z VRB03KT 9999 FEW043 SCT043CB 09/02 Q1013=
201305231850 METAR COR EGLL 231850Z 06005KT 020V080 9999 FEW043 SCT048CB
                        09/02 Q1012 NOSIG=
201305231820 METAR COR EGLL 231820Z 33004KT 270V050 9999 VCSH FEW035 SCT040CB
                        09/02 Q1012 TEMPO SHRA=
201305231750 METAR COR EGLL 231750Z VRB03KT 9999 VCSH FEW048CB 09/02 Q1013
                        TEMPO 4500 SHRA=
201305231720 METAR COR EGLL 231720Z 04005KT 010V090 9999 FEW045CB 09/02
                        Q1013 TEMPO 4500 SHRA=
201305231650 METAR COR EGLL 231650Z 36012KT 9999 VCSH FEW030 SCT040CB
                        10/02 Q1012 TEMPO 4500 SHRA=
201305231620 METAR COR EGLL 231620Z 34010KT 300V020 9999 FEW040CB 11/01
                        Q1012 TEMPO 4500 SHRA=
201305231550 METAR COR EGLL 231550Z 32008KT 280V350 9999 FEW035CB 09/03
                        Q1013 TEMPO 4500 SHRA=
201305231520 METAR COR EGLL 231520Z 31010KT 9999 FEW020 SCT035 08/03 Q1013
                        TEMPO 4500 SHRA=
201305231450 METAR COR EGLL 231450Z 35010KT 320V030 9999 VCSH SCT035CB
                        08/03 Q1013 RESHRA TEMPO 4500 SHRA=
201305231420 METAR COR EGLL 231420Z 33010KT 280V020 9999 VCSH SCT030 11/01
                        Q1012 TEMPO 3500 +SHRA=
201305231350 METAR COR EGLL 231350Z 31012KT 9999 -SHRA FEW023 SCT030 08/03
                        Q1013 TEMPO 4500 SHRA=
201305231320 METAR COR EGLL 231320Z 34008KT 300V020 9999 SCT035 10/01
                        Q1013 TEMPO 4500 SHRA=
201305231250 METAR COR EGLL 231250Z 36009KT 9999 VCSH SCT031 09/02 Q1013
                        TEMPO 4500 SHRA=
201305231220 METAR COR EGLL 231220Z 31011KT 9999 VCSH SCT033 09/03 Q1013
                        TEMPO 4500 SHRA=
201305231150 METAR COR EGLL 231150Z 30012KT 9999 -SHRA FEW018 SCT035 08/M06
                        Q1013 TEMPO 4500 SHRA=
201305231120 METAR EGLL 231120Z 33010KT 290V020 9999 VCSH FEW030 SCT047
                        11/M02 Q1013 TEMPO 4000 +SHRA=
201305231050 METAR COR EGLL 231050Z 32010KT 290V350 9999 SCT044 10/M01
                        Q1013 TEMPO 4500 SHRA=
201305231020 METAR COR EGLL 231020Z 33010KT 290V010 9999 SCT043 10/M00
                        Q1013 TEMPO 4500 SHRA=
201305230950 METAR COR EGLL 230950Z 32012KT 9999 FEW030 SCT038 10/M00
                        Q1013 NOSIG=
201305230920 METAR COR EGLL 230920Z 32011KT 290V360 9999 FEW030 SCT032
                        10/M02 Q1013 TEMPO 4500 SHRA=
201305230850 METAR COR EGLL 230850Z 32009KT 280V360 9999 SCT029 SCT032
                        09/M04 Q1013 TEMPO 4500 SHRA=
201305230820 METAR COR EGLL 230820Z 32009KT 280V020 9999 SCT029 SCT038
                        09/M02 Q1014 TEMPO 4500 SHRA=
201305230750 METAR COR EGLL 230750Z 33009KT 290V010 9999 SCT024 SCT032
                        09/01 Q1014 NOSIG=
201305230720 METAR COR EGLL 230720Z 31012KT 9999 SCT023 SCT027 08/02 Q1014
                        NOSIG=
201305230650 METAR COR EGLL 230650Z 32010KT 280V360 9999 BKN023 08/02
                        Q1014 NOSIG=
201305230620 METAR COR EGLL 230620Z 32009KT 290V350 9999 FEW023 08/03
                        Q1014 NOSIG=
201305230550 METAR COR EGLL 230550Z 31008KT 280V340 9999 FEW025 07/03
                        Q1014 NOSIG=
201305230520 METAR COR EGLL 230520Z 31008KT 280V340 9999 FEW020 06/02
                        Q1014 NOSIG=
201305230450 METAR COR EGLL 230450Z 31006KT CAVOK 06/01 Q1014 NOSIG=
201305230420 METAR COR EGLL 230420Z 31006KT CAVOK 06/M00 Q1014 NOSIG=
201305230350 METAR COR EGLL 230350Z 29007KT 9999 FEW045 06/01 Q1014 NOSIG=
201305230320 METAR EGLL 230320Z AUTO 30005KT 9999 NCD 06/01 Q1014=
201305230250 METAR COR EGLL 230250Z 30006KT CAVOK 06/01 Q1014 NOSIG=
201305230220 METAR COR EGLL 230220Z 30006KT CAVOK 07/M00 Q1015 NOSIG=
201305230150 METAR EGLL 230150Z AUTO 30009KT 9999 NCD 07/01 Q1015=
201305230120 METAR EGLL 230120Z AUTO 30009KT 9999 NCD 07/01 Q1015=
201305230050 METAR EGLL 230050Z AUTO 31010KT 9999 NCD 08/01 Q1015=
201305230020 METAR COR EGLL 230020Z 30009KT CAVOK 08/02 Q1016 NOSIG=
201305222350 METAR COR EGLL 222350Z 30008KT CAVOK 08/01 Q1016 NOSIG=
201305222320 METAR COR EGLL 222320Z 30009KT CAVOK 08/01 Q1016 NOSIG=
201305222250 METAR COR EGLL 222250Z 30006KT CAVOK 08/01 Q1017 NOSIG=
201305222220 METAR COR EGLL 222220Z 31009KT CAVOK 09/01 Q1017 NOSIG=
201305222150 METAR COR EGLL 222150Z 30008KT CAVOK 10/01 Q1017 NOSIG=
201305222120 METAR COR EGLL 222120Z 29007KT CAVOK 10/02 Q1018 NOSIG=
201305222050 METAR COR EGLL 222050Z 32006KT 9999 FEW047 10/02 Q1018 NOSIG=
201305222020 METAR COR EGLL 222020Z 32008KT 9999 FEW047 11/02 Q1018 NOSIG=
201305221950 METAR COR EGLL 221950Z 31008KT 280V350 9999 SCT046 12/M01
                        Q1017 NOSIG=
201305221920 METAR EGLL 221920Z AUTO 32007KT 290V350 9999 NCD 12/00 Q1017=
201305221850 METAR COR EGLL 221850Z 33010KT 290V360 9999 FEW045 13/02
                        Q1017 NOSIG=
201305221820 METAR COR EGLL 221820Z 33010KT 9999 FEW045 13/01 Q1017 NOSIG=
201305221750 METAR COR EGLL 221750Z 32009KT 9999 SCT047 14/03 Q1017 NOSIG=
201305221720 METAR COR EGLL 221720Z 32011KT 9999 SCT046 14/03 Q1018 NOSIG=
201305221650 METAR EGLL 221650Z AUTO 32011KT 290V360 9999 BKN042/// 14/05
                        Q1018=
201305221620 METAR COR EGLL 221620Z 32010KT 290V360 9999 SCT039 BKN047
                        14/05 Q1018 NOSIG=
201305221550 METAR COR EGLL 221550Z 31010KT 9999 FEW037 BKN043 14/06 Q1018
                        NOSIG=
201305221520 METAR COR EGLL 221520Z 31009KT 270V340 9999 BKN043 13/03
                        Q1018 NOSIG=
201305221450 METAR COR EGLL 221450Z 30009KT 9999 BKN027 BKN036 13/03 Q1019
                        NOSIG=
201305221420 METAR COR EGLL 221420Z 30010KT 280V350 9999 SCT027 BKN031
                        13/04 Q1019 NOSIG=
201305221350 METAR COR EGLL 221350Z 29009KT 9999 SCT023 BKN027 13/04 Q1019
                        NOSIG=
201305221320 METAR COR EGLL 221320Z 32008KT 9999 SCT022 BKN025 13/03 Q1019
                        NOSIG=
201305221250 METAR COR EGLL 221250Z 30010KT 9999 BKN023 13/05 Q1019 NOSIG=
201305221220 METAR COR EGLL 221220Z 31009KT 9999 BKN023 13/07 Q1019 NOSIG=
201305221150 METAR COR EGLL 221150Z 30008KT 9999 BKN022 13/05 Q1019 NOSIG=
201305221120 METAR COR EGLL 221120Z 30008KT 280V350 9999 BKN020 13/05
                        Q1019 NOSIG=
201305221050 METAR COR EGLL 221050Z 30007KT 9999 BKN020 13/06 Q1019 NOSIG=
201305221020 METAR COR EGLL 221020Z 30008KT 260V330 9999 BKN020 12/05
                        Q1019 NOSIG=
201305220950 METAR EGLL 220950Z AUTO 30008KT 9999 OVC017/// 12/04 Q1019=
201305220920 METAR EGLL 220920Z AUTO 30008KT 260V350 9999 BKN016/// 12/03
                        Q1019=
201305220850 METAR EGLL 220850Z 32007KT 280V360 9999 FEW015 BKN017 12/07
                        Q1019=
201305220820 METAR COR EGLL 220820Z 30007KT 9999 SCT015 BKN017 11/08 Q1019
                        NOSIG=
201305220750 METAR COR EGLL 220750Z 30007KT 280V350 9999 SCT011 BKN016
                        11/08 Q1019 NOSIG=
201305220720 METAR COR EGLL 220720Z 30007KT 9999 FEW009 SCT011 BKN016
                        11/08 Q1019 NOSIG=
201305220650 METAR COR EGLL 220650Z 29005KT 260V330 7000 FEW007 BKN012
                        10/08 Q1019 BECMG BKN015=
201305220620 METAR COR EGLL 220620Z VRB03KT 6000 FEW006 SCT008 10/08 Q1019
                        TEMPO BKN012=
201305220550 METAR COR EGLL 220550Z VRB03KT 6000 FEW008 BKN012 10/08 Q1019
                        BECMG SCT012=
201305220520 METAR COR EGLL 220520Z 28004KT 8000 FEW014 BKN016 10/06 Q1018
                        TEMPO BKN014=
201305220450 METAR COR EGLL 220450Z 28004KT 260V320 9000 FEW013 BKN015
                        10/05 Q1018 TEMPO BKN013=
201305220420 METAR COR EGLL 220420Z VRB03KT 9999 FEW013 BKN016 10/06 Q1019
                        TEMPO BKN014=
201305220350 METAR EGLL 220350Z 36005KT 310V030 9999 BKN016 10/06 Q1019=
201305220320 METAR COR EGLL 220320Z 36004KT 9999 BKN016 10/06 Q1019 TEMPO
                        BKN014=
201305220250 METAR COR EGLL 220250Z VRB02KT 9999 BKN019 10/06 Q1019 TEMPO
                        BKN014=
201305220220 METAR COR EGLL 220220Z 03004KT 350V060 9999 FEW015 BKN018
                        11/03 Q1019 TEMPO BKN014=
201305220150 METAR COR EGLL 220150Z 36004KT 9999 BKN017 11/00 Q1019 NOSIG=
201305220120 METAR EGLL 220120Z AUTO 36004KT 340V050 9999 OVC016/// 11/01
                        Q1019=
201305220050 METAR EGLL 220050Z AUTO VRB03KT 9999 OVC016/// 11/07 Q1019=
201305220020 METAR EGLL 220020Z AUTO 03005KT 330V070 9999 OVC015/// 11/M00
                        Q1019=
201305212350 METAR COR EGLL 212350Z 03004KT 350V070 9999 BKN015 11/08
                        Q1019 TEMPO BKN014=
201305212320 METAR COR EGLL 212320Z 03004KT 360V070 9999 BKN016 12/08
                        Q1019 TEMPO BKN014=
201305212250 METAR COR EGLL 212250Z VRB03KT 9999 BKN016 12/08 Q1019 TEMPO
                        BKN012=
201305212220 METAR COR EGLL 212220Z 35004KT 9999 FEW011 BKN013 12/10 Q1018
                        TEMPO BKN016=
201305212150 METAR COR EGLL 212150Z 36003KT 9999 BKN020 12/06 Q1018 NOSIG=
201305212120 METAR COR EGLL 212120Z VRB03KT 8000 -SHRA BKN023 13/05 Q1018
                        NOSIG=
201305212050 METAR COR EGLL 212050Z VRB03KT 9999 BKN026 13/04 Q1018 NOSIG=
201305212020 METAR COR EGLL 212020Z VRB02KT 9999 BKN026 13/04 Q1018 NOSIG=
201305211950 METAR COR EGLL 211950Z VRB02KT CAVOK 14/04 Q1017 NOSIG=
201305211920 METAR COR EGLL 211920Z 00000KT 9999 FEW048 14/06 Q1017 NOSIG=
201305211850 METAR COR EGLL 211850Z 35004KT 310V040 9999 FEW038 14/06
                        Q1017 NOSIG=
201305211820 METAR COR EGLL 211820Z 36005KT 320V040 9999 SCT038 14/06
                        Q1017 NOSIG=
201305211750 METAR COR EGLL 211750Z 36004KT 310V050 9999 FEW028 14/06
                        Q1017 NOSIG=
201305211720 METAR EGLL 211720Z AUTO 05005KT 020V080 9999 FEW027/// 14/06
                        Q1017=
201305211650 METAR COR EGLL 211650Z 03005KT 350V070 9999 SCT029 BKN039
                        14/08 Q1017 NOSIG=
201305211620 METAR COR EGLL 211620Z 36006KT 330V040 9999 FEW027 SCT033
                        BKN046 15/08 Q1017 NOSIG=
201305211550 METAR COR EGLL 211550Z 01006KT 330V050 9999 BKN033 BKN039
                        14/08 Q1017 NOSIG=
201305211520 METAR COR EGLL 211520Z 03006KT 340V070 9999 BKN025 BKN033
                        14/08 Q1017 NOSIG=
201305211450 METAR COR EGLL 211450Z 36007KT 320V050 9999 SCT025 BKN034
                        14/07 Q1017 NOSIG=
201305211420 METAR COR EGLL 211420Z 36006KT 320V060 9999 BKN020 BKN025
                        14/08 Q1017 NOSIG=
201305211350 METAR COR EGLL 211350Z 35006KT 320V050 9999 BKN018 BKN022
                        13/07 Q1017 NOSIG=
201305211320 METAR COR EGLL 211320Z 02006KT 330V060 9999 BKN018 13/08
                        Q1017 NOSIG=
201305211250 METAR COR EGLL 211250Z 02007KT 340V050 9999 BKN017 13/08
                        Q1017 NOSIG=
201305211220 METAR COR EGLL 211220Z 36007KT 340V050 9999 BKN018 13/08
                        Q1017 NOSIG=
201305211150 METAR COR EGLL 211150Z 01006KT 320V050 9999 BKN017 14/08
                        Q1017 NOSIG=
201305211120 METAR COR EGLL 211120Z 36006KT 330V060 9999 BKN016 13/06
                        Q1017 NOSIG=
201305211050 METAR COR EGLL 211050Z 01006KT 320V050 9999 BKN017 13/06
                        Q1017 NOSIG=
201305211020 METAR COR EGLL 211020Z 36007KT 340V040 9999 BKN016 13/07
                        Q1016 NOSIG=
201305210950 METAR EGLL 210950Z AUTO 36007KT 330V040 9999 OVC015/// 13/06
                        Q1016=
201305210920 METAR EGLL 210920Z AUTO 36008KT 9999 BKN013/// 13/07 Q1016=
201305210850 METAR COR EGLL 210850Z 01008KT 330V070 9999 BKN013 13/08
                        Q1016 BECMG BKN015=
201305210820 METAR COR EGLL 210820Z 01007KT 340V070 7000 FEW007 BKN008
                        13/10 Q1015 BECMG BKN012=
201305210750 METAR COR EGLL 210750Z 36008KT 320V040 8000 FEW008 BKN009
                        13/08 Q1015 BECMG BKN015=
201305210720 METAR COR EGLL 210720Z 36009KT 330V030 9999 BKN012 14/09
                        Q1015 BECMG BKN015=
201305210650 METAR COR EGLL 210650Z 36009KT 320V030 9999 BKN013 13/10
                        Q1015 BECMG BKN015=
201305210620 METAR COR EGLL 210620Z 36007KT 330V040 9999 BKN016 14/09
                        Q1014 NOSIG=
201305210550 METAR COR EGLL 210550Z 36008KT 340V050 9999 BKN015 13/10
                        Q1014 NOSIG=
201305210520 METAR COR EGLL 210520Z 36009KT 9000 BKN013 13/10 Q1014 TEMPO
                        BKN016=
201305210450 METAR COR EGLL 210450Z 35007KT 320V030 9000 BKN016 14/10
                        Q1014 TEMPO BKN014=
201305210420 METAR COR EGLL 210420Z 01009KT 330V040 9000 BKN014 14/11
                        Q1014 TEMPO SCT014 BKN020=
201305210350 METAR COR EGLL 210350Z 36007KT 330V030 9000 BKN015 14/08
                        Q1013 TEMPO BKN014=
201305210320 METAR COR EGLL 210320Z 36007KT 330V040 9999 BKN015 14/08
                        Q1013 TEMPO BKN014=
201305210250 METAR COR EGLL 210250Z 36007KT 320V030 9999 SCT020 SCT035
                        15/08 Q1013 NOSIG=
201305210220 METAR COR EGLL 210220Z 36008KT 330V040 9999 BKN017 15/08
                        Q1013 NOSIG=
201305210150 METAR COR EGLL 210150Z 36008KT 330V040 9999 BKN018 15/08
                        Q1013 NOSIG=
201305210120 METAR EGLL 210120Z AUTO 36007KT 330V030 9999 OVC015/// 15/09
                        Q1013=
201305210050 METAR EGLL 210050Z AUTO 34006KT 300V030 5000 BKN013/// 16/11
                        Q1013=
201305210020 METAR EGLL 210020Z AUTO 33007KT 280V010 5000 OVC014/// 16/11
                        Q1013=
201305202350 METAR COR EGLL 202350Z 33008KT 6000 FEW016 BKN019 16/12 Q1013
                        NOSIG=
201305202320 METAR COR EGLL 202320Z 31006KT 6000 FEW014 BKN019 16/12 Q1013
                        BECMG BKN014=
201305202250 METAR COR EGLL 202250Z 29005KT 270V330 6000 SCT020 SCT025
                        16/12 Q1013 NOSIG=
201305202220 METAR COR EGLL 202220Z 33005KT 300V010 7000 FEW022 BKN028
                        17/12 Q1013 NOSIG=
201305202150 METAR COR EGLL 202150Z 35006KT 290V030 7000 BKN027 17/12
                        Q1013 NOSIG=
201305202120 METAR COR EGLL 202120Z 33007KT 290V360 7000 BKN025 17/12
                        Q1013 NOSIG=
201305202050 METAR COR EGLL 202050Z 32006KT 290V360 7000 SCT017 BKN021
                        17/15 Q1013 NOSIG=
201305202020 METAR COR EGLL 202020Z 32007KT 290V350 6000 SCT020 BKN027
                        17/13 Q1013 NOSIG=
201305201950 METAR COR EGLL 201950Z 32006KT 290V010 6000 SCT019 BKN023
                        17/15 Q1012 NOSIG=
201305201920 METAR COR EGLL 201920Z 33005KT 280V010 6000 SCT018 BKN021
                        17/13 Q1012 NOSIG=
201305201850 METAR COR EGLL 201850Z 34004KT 290V040 7000 BKN018 17/12
                        Q1012 NOSIG=
201305201820 METAR COR EGLL 201820Z AUTO 36005KT 310V020 7000 BKN024///
                        17/12 Q1012 NOSIG=
201305201750 METAR COR EGLL 201750Z 35006KT 310V030 7000 BKN017 17/12
                        Q1012 NOSIG=
201305201720 METAR COR EGLL 201720Z 36006KT 7000 BKN018 17/12 Q1012 NOSIG=
201305201650 METAR EGLL 201650Z 35006KT 320V020 8000 BKN017 17/12 Q1012=
201305201620 METAR COR EGLL 201620Z 35006KT 310V020 8000 BKN018 17/12
                        Q1012 NOSIG=
201305201550 METAR COR EGLL 201550Z 35007KT 320V020 8000 BKN017 17/12
                        Q1012 NOSIG=
201305201520 METAR COR EGLL 201520Z 35006KT 310V030 8000 BKN017 17/12
                        Q1012 NOSIG=
201305201450 METAR COR EGLL 201450Z 35006KT 310V020 9000 BKN017 17/12
                        Q1012 NOSIG=
201305201420 METAR COR EGLL 201420Z 36007KT 310V030 9999 BKN017 17/12
                        Q1011 NOSIG=
201305201350 METAR EGLL 201350Z 34007KT 310V020 9999 BKN015 17/12 Q1011=
201305201320 METAR COR EGLL 201320Z 35007KT 300V020 9999 BKN015 17/11
                        Q1011 NOSIG=
201305201250 METAR EGLL 201250Z AUTO 35006KT 310V030 9000 BKN011/// 16/12
                        Q1011=
201305201220 METAR COR EGLL 201220Z 36009KT 330V030 8000 BKN012 15/09
                        Q1011 BECMG SCT012=
201305201150 METAR COR EGLL 201150Z 35007KT 310V020 9000 BKN011 15/10
                        Q1011 BECMG SCT012=
201305201120 METAR COR EGLL 201120Z 35008KT 320V030 9999 BKN010 15/07
                        Q1011 BECMG SCT012=
201305201050 METAR EGLL 201050Z 34007KT 290V020 9999 SCT009 BKN010 15/08
                        Q1011 BECMG SCT012=
201305201020 METAR COR EGLL 201020Z 35007KT 310V030 9999 BKN010 14/10
                        Q1011 BECMG SCT014=
201305200950 METAR COR EGLL 200950Z 35007KT 300V030 9999 BKN011 14/11
                        Q1011 BECMG SCT014=
201305200920 METAR COR EGLL 200920Z 35007KT 300V020 9999 BKN010 14/11
                        Q1011 BECMG SCT012=
201305200850 METAR COR EGLL 200850Z 34007KT 310V020 9999 BKN010 14/11
                        Q1011 NOSIG=
201305200820 METAR COR EGLL 200820Z 34007KT 300V010 9999 FEW009 BKN010
                        14/09 Q1011 NOSIG=
201305200750 METAR EGLL 200750Z 33006KT 300V010 7000 FEW008 BKN009 13/07
                        Q1011=
201305200720 METAR COR EGLL 200720Z 34007KT 300V020 6000 FEW007 BKN008
                        13/11 Q1011 TEMPO 4500 -DZ=
201305200650 METAR COR EGLL 200650Z 33007KT 300V010 6000 BKN008 12/10
                        Q1011 TEMPO 4500 -DZ=
201305200620 METAR COR EGLL 200620Z 33007KT 290V360 6000 FEW009 BKN010
                        12/10 Q1011 TEMPO BKN008=
201305200550 METAR COR EGLL 200550Z 32006KT 7000 BKN011 12/10 Q1011 NOSIG=
201305200520 METAR COR EGLL 200520Z 31005KT 7000 BKN012 12/09 Q1011 TEMPO
                        4500 RADZ=
201305200450 METAR COR EGLL 200450Z 31004KT 280V360 7000 OVC035 11/09
                        Q1011 TEMPO 4500 RADZ BKN012=
201305200420 METAR COR EGLL 200420Z 30005KT 6000 FEW014 BKN032 11/09 Q1011
                        TEMPO 4500 RADZ BKN012=
201305200350 METAR COR EGLL 200350Z 30006KT 6000 SCT013 SCT025 11/09 Q1011
                        TEMPO 4500 RADZ BKN012=
201305200320 METAR COR EGLL 200320Z 29006KT 5000 -RADZ SCT014 SCT022 11/09
                        Q1011 TEMPO 4000 RADZ BKN012=
201305200250 METAR COR EGLL 200250Z 30006KT 8000 BKN035 11/09 Q1011 TEMPO
                        4500 RADZ BKN014=
201305200220 METAR COR EGLL 200220Z 31006KT 9000 BKN037 11/09 Q1011 TEMPO
                        4500 RADZ=
201305200150 METAR COR EGLL 200150Z 31006KT 9000 -RA SCT044 12/09 Q1012
                        TEMPO 4500 RADZ=
201305200120 METAR EGLL 200120Z AUTO 32005KT 290V360 9999 -RA NCD 12/09
                        Q1012=
201305200050 METAR EGLL 200050Z AUTO 33007KT 290V360 9999 NCD 13/09 Q1012=
201305200020 METAR EGLL 200020Z AUTO 32007KT 290V360 9999 NCD 13/09 Q1012=
201305192350 METAR COR EGLL 192350Z 32005KT CAVOK 13/09 Q1012 NOSIG=
201305192320 METAR COR EGLL 192320Z 30005KT 9000 NSC 13/09 Q1012 NOSIG=
201305192250 METAR COR EGLL 192250Z 33004KT 300V030 8000 FEW032 SCT047
                        14/10 Q1013 NOSIG=
201305192220 METAR COR EGLL 192220Z VRB03KT 8000 SCT037 SCT047 14/09 Q1013
                        NOSIG=
201305192150 METAR COR EGLL 192150Z 35003KT 9000 SCT040 SCT049 14/09 Q1013
                        NOSIG=
201305192120 METAR COR EGLL 192120Z 35003KT 9999 SCT049 15/09 Q1012 NOSIG=
201305192050 METAR COR EGLL 192050Z 36003KT 9999 FEW049 15/09 Q1012 NOSIG=
201305192020 METAR COR EGLL 192020Z 04003KT 9999 FEW048 16/08 Q1012 NOSIG=
201305191950 METAR COR EGLL 191950Z 05004KT 020V080 9999 FEW042 16/09
                        Q1012 NOSIG=
201305191920 METAR COR EGLL 191920Z 01004KT 320V070 9999 FEW042 17/09
                        Q1012 NOSIG=
201305191850 METAR COR EGLL 191850Z 34006KT 280V010 9999 FEW048 17/08
                        Q1012 NOSIG=
201305191820 METAR COR EGLL 191820Z 33005KT 300V020 9999 SCT043 18/08
                        Q1012 NOSIG=
201305191750 METAR COR EGLL 191750Z 01007KT 340V050 9999 SCT043 18/08
                        Q1012 NOSIG=
201305191720 METAR COR EGLL 191720Z 36007KT 320V040 9999 SCT042 SCT047
                        18/08 Q1012 NOSIG=
201305191650 METAR COR EGLL 191650Z 36007KT 330V040 9999 BKN045 18/08
                        Q1012 NOSIG=
201305191620 METAR COR EGLL 191620Z 01008KT 9999 BKN041 19/09 Q1012 NOSIG=
201305191550 METAR COR EGLL 191550Z 36006KT 330V030 9999 FEW040 18/09
                        Q1011 NOSIG=
201305191520 METAR COR EGLL 191520Z 34006KT 300V020 CAVOK 18/08 Q1011
                        NOSIG=
201305191450 METAR COR EGLL 191450Z 33007KT CAVOK 18/08 Q1012 NOSIG=
201305191420 METAR COR EGLL 191420Z 01007KT 310V060 9999 FEW040 18/08
                        Q1012 NOSIG=
201305191350 METAR COR EGLL 191350Z 34006KT 280V040 9999 FEW038 18/08
                        Q1012 NOSIG=
201305191320 METAR COR EGLL 191320Z 36007KT 310V060 9999 FEW036 SCT039
                        17/08 Q1012 NOSIG=
201305191250 METAR COR EGLL 191250Z 03007KT 360V060 9999 BKN038 17/08
                        Q1012 NOSIG=
201305191220 METAR EGLL 191220Z 01006KT 330V070 9999 BKN036 BKN041 17/08
                        Q1012=
201305191150 METAR COR EGLL 191150Z VRB03KT 9999 BKN037 16/07 Q1012 NOSIG=
201305191120 METAR EGLL 191120Z 07006KT 030V100 9999 BKN035 15/08 Q1012=
201305191050 METAR COR EGLL 191050Z 05005KT 320V130 9999 BKN033 15/08
                        Q1012 NOSIG=
201305191020 METAR COR EGLL 191020Z 07006KT 040V100 9999 BKN030 14/07
                        Q1012 NOSIG=
201305190950 METAR COR EGLL 190950Z 07008KT 020V100 CAVOK 14/02 Q1012
                        NOSIG=
201305190920 METAR COR EGLL 190920Z 06007KT 010V090 CAVOK 14/01 Q1012
                        NOSIG=
201305190850 METAR COR EGLL 190850Z 04007KT 010V080 CAVOK 14/06 Q1011
                        NOSIG=
201305190820 METAR COR EGLL 190820Z 04004KT 350V080 CAVOK 13/07 Q1012
                        NOSIG=
201305190750 METAR EGLL 190750Z 03005KT 330V070 CAVOK 12/07 Q1011=
201305190720 METAR COR EGLL 190720Z 02005KT 350V060 CAVOK 12/07 Q1011
                        NOSIG=
201305190650 METAR COR EGLL 190650Z 03004KT 340V050 CAVOK 12/07 Q1011
                        NOSIG=
201305190620 METAR COR EGLL 190620Z VRB03KT 9000 NSC 11/07 Q1011 NOSIG=
201305190550 METAR COR EGLL 190550Z 36004KT 340V050 7000 NSC 10/07 Q1011
                        NOSIG=
201305190520 METAR COR EGLL 190520Z 36004KT 8000 NSC 09/07 Q1010 NOSIG=
201305190450 METAR COR EGLL 190450Z 36003KT 8000 NSC 09/07 Q1010 NOSIG=
201305190420 METAR COR EGLL 190420Z 36004KT 8000 NSC 09/07 Q1010 NOSIG=
201305190350 METAR COR EGLL 190350Z 05004KT 8000 NSC 09/07 Q1010 NOSIG=
201305190320 METAR COR EGLL 190320Z 04003KT CAVOK 09/07 Q1010 NOSIG=
201305190250 METAR COR EGLL 190250Z 04004KT CAVOK 09/07 Q1009 NOSIG=
201305190220 METAR COR EGLL 190220Z 01004KT CAVOK 09/06 Q1009 NOSIG=
201305190150 METAR COR EGLL 190150Z VRB03KT CAVOK 10/07 Q1009 NOSIG=
201305190120 METAR COR EGLL 190120Z 00000KT CAVOK 10/07 Q1009 NOSIG=
201305190050 METAR EGLL 190050Z AUTO 06002KT 9999 NCD 10/06 Q1009=
201305190020 METAR EGLL 190020Z AUTO 06003KT 9999 NCD 10/06 Q1009=
201305182350 METAR COR EGLL 182350Z VRB02KT CAVOK 11/06 Q1009 NOSIG=
201305182320 METAR COR EGLL 182320Z 09003KT CAVOK 11/06 Q1009 NOSIG=
201305182250 METAR COR EGLL 182250Z 10003KT CAVOK 11/06 Q1009 NOSIG=
201305182220 METAR COR EGLL 182220Z 07004KT CAVOK 11/06 Q1009 NOSIG=
201305182150 METAR COR EGLL 182150Z 10005KT CAVOK 11/07 Q1009 NOSIG=
201305182120 METAR COR EGLL 182120Z 12005KT CAVOK 12/07 Q1008 NOSIG=
201305182050 METAR COR EGLL 182050Z 09004KT 040V160 CAVOK 14/06 Q1008
                        NOSIG=
201305182020 METAR COR EGLL 182020Z 10005KT 080V150 CAVOK 13/06 Q1008
                        NOSIG=
201305181950 METAR COR EGLL 181950Z 08004KT 060V120 9999 FEW039 13/06
                        Q1008 NOSIG=
201305181920 METAR COR EGLL 181920Z 08004KT 9999 FEW042 14/06 Q1008 NOSIG=
201305181850 METAR COR EGLL 181850Z VRB03KT 9999 FEW043 15/06 Q1007 NOSIG=
201305181820 METAR COR EGLL 181820Z VRB03KT 9999 FEW040 15/06 Q1007 NOSIG=
201305181750 METAR COR EGLL 181750Z VRB02KT 9999 SCT040 15/06 Q1007 NOSIG=
201305181720 METAR COR EGLL 181720Z VRB02KT 9999 SCT049 15/06 Q1007 NOSIG=
201305181650 METAR COR EGLL 181650Z VRB02KT 9999 FEW047 15/06 Q1007 NOSIG=
201305181620 METAR COR EGLL 181620Z VRB03KT 9999 SCT047 15/06 Q1007 NOSIG=
201305181550 METAR COR EGLL 181550Z 01005KT 340V080 9999 SCT040 SCT046
                        15/06 Q1007 NOSIG=
201305181520 METAR COR EGLL 181520Z 30007KT 250V350 9999 FEW039 SCT046
                        15/02 Q1006 NOSIG=
201305181450 METAR COR EGLL 181450Z 30006KT 220V360 9999 FEW039 SCT045
                        15/05 Q1007 NOSIG=
201305181420 METAR COR EGLL 181420Z 34006KT 300V020 9999 FEW036 BKN046
                        14/02 Q1007 NOSIG=
201305181350 METAR COR EGLL 181350Z 33006KT 280V040 9999 SCT036 BKN045
                        14/00 Q1007 NOSIG=
201305181320 METAR COR EGLL 181320Z 30004KT 260V010 9999 BKN033 13/03
                        Q1008 NOSIG=
201305181250 METAR COR EGLL 181250Z 32007KT 280V350 9999 BKN035 13/02
                        Q1008 NOSIG=
201305181220 METAR COR EGLL 181220Z 32007KT 280V010 9999 BKN039 13/06
                        Q1007 NOSIG=
201305181150 METAR COR EGLL 181150Z 30008KT 270V340 9999 SCT035 SCT040
                        13/06 Q1007 NOSIG=
201305181120 METAR COR EGLL 181120Z 32008KT 280V360 9999 FEW029 BKN036
                        13/06 Q1007 NOSIG=
201305181050 METAR COR EGLL 181050Z 30008KT 9999 BKN029 13/07 Q1007 NOSIG=
201305181020 METAR COR EGLL 181020Z 30009KT 9999 SCT029 BKN036 12/07 Q1007
                        NOSIG=
201305180950 METAR COR EGLL 180950Z 28008KT 9999 SCT029 SCT037 13/07 Q1008
                        NOSIG=
201305180920 METAR COR EGLL 180920Z 31008KT 280V340 9999 SCT029 SCT034
                        12/06 Q1008 NOSIG=
201305180850 METAR COR EGLL 180850Z 31008KT 9999 BKN025 12/06 Q1008 NOSIG=
201305180820 METAR COR EGLL 180820Z 28011KT CAVOK 12/07 Q1008 NOSIG=
201305180750 METAR COR EGLL 180750Z 27010KT 9999 FEW048 11/07 Q1008 NOSIG=
201305180720 METAR COR EGLL 180720Z 28010KT 9000 FEW047 11/07 Q1008 NOSIG=
201305180650 METAR COR EGLL 180650Z 27009KT 9000 SCT041 10/07 Q1009 NOSIG=
201305180620 METAR COR EGLL 180620Z 27009KT 8000 BKN040 10/07 Q1009 NOSIG=
201305180550 METAR COR EGLL 180550Z 27009KT 8000 BKN038 09/07 Q1009 NOSIG=
201305180520 METAR COR EGLL 180520Z 27007KT 9999 FEW034 BKN039 09/07 Q1009
                        NOSIG=
201305180450 METAR COR EGLL 180450Z 27007KT 9999 FEW034 BKN039 09/07 Q1009
                        NOSIG=
201305180420 METAR COR EGLL 180420Z 28006KT 9999 BKN037 09/06 Q1009 NOSIG=
201305180350 METAR COR EGLL 180350Z 29005KT 9999 BKN049 08/06 Q1008 NOSIG=
201305180320 METAR COR EGLL 180320Z 28003KT 9999 BKN048 09/06 Q1008 NOSIG=
201305180250 METAR COR EGLL 180250Z 29004KT 9999 BKN048 09/06 Q1008 NOSIG=
201305180220 METAR COR EGLL 180220Z 29003KT 9999 BKN044 09/06 Q1009 NOSIG=
201305180150 METAR COR EGLL 180150Z VRB03KT 9999 BKN045 09/06 Q1009 NOSIG=
201305180120 METAR EGLL 180120Z AUTO 35004KT 300V010 9999 BKN047/// 09/07
                        Q1009=
201305180050 METAR EGLL 180050Z AUTO 30004KT 9999 BKN048/// 09/07 Q1009=
201305180020 METAR EGLL 180020Z AUTO 31004KT 270V340 9999 NCD 09/07 Q1009=
201305172350 METAR COR EGLL 172350Z 31004KT 9999 BKN049 09/07 Q1009 NOSIG=
201305172320 METAR COR EGLL 172320Z 28004KT 9999 BKN049 09/07 Q1009 NOSIG=
201305172250 METAR COR EGLL 172250Z 31003KT 9999 FEW043 BKN049 09/07 Q1009
                        NOSIG=
201305172220 METAR COR EGLL 172220Z 35002KT 9999 FEW043 10/07 Q1010 NOSIG=
201305172150 METAR COR EGLL 172150Z 35002KT 9999 SCT035 10/07 Q1010 NOSIG=
201305172120 METAR COR EGLL 172120Z VRB03KT 9999 BKN049 10/07 Q1010 NOSIG=
201305172050 METAR COR EGLL 172050Z VRB03KT 9999 BKN049 10/07 Q1009 NOSIG=
201305172020 METAR COR EGLL 172020Z 05003KT 9999 FEW031 BKN046 10/08 Q1009
                        NOSIG=
201305171950 METAR COR EGLL 171950Z 05003KT 7000 -RA SCT016 SCT032 10/07
                        Q1009 NOSIG=
201305171920 METAR COR EGLL 171920Z VRB03KT 9999 BKN027 11/06 Q1009 NOSIG=
201305171850 METAR COR EGLL 171850Z VRB03KT 9999 BKN029 11/06 Q1009 NOSIG=
201305171820 METAR COR EGLL 171820Z 36005KT 310V030 9999 FEW026 BKN030
                        11/06 Q1008 NOSIG=
201305171750 METAR COR EGLL 171750Z 35005KT 330V040 9999 BKN029 11/06
                        Q1008 NOSIG=
201305171720 METAR COR EGLL 171720Z 36005KT 320V050 9999 FEW030 BKN035
                        11/06 Q1008 NOSIG=
201305171650 METAR COR EGLL 171650Z 36005KT 330V040 9999 SCT028 SCT038
                        BKN044 11/06 Q1008 NOSIG=
201305171550 METAR COR EGLL 171550Z 02006KT 330V050 9999 SCT033 SCT040
                        11/05 Q1008 NOSIG=
201305171520 METAR COR EGLL 171520Z 36005KT 320V060 9999 FEW024 BKN045
                        11/06 Q1008 NOSIG=
201305171450 METAR COR EGLL 171450Z 36006KT 320V020 9999 SCT025 BKN036
                        11/06 Q1008 NOSIG=
201305171420 METAR COR EGLL 171420Z 36007KT 9999 FEW026 SCT033 11/06 Q1008
                        NOSIG=
201305171350 METAR COR EGLL 171350Z 03007KT 330V060 9999 SCT019 BKN030
                        11/06 Q1008 NOSIG=
201305171320 METAR COR EGLL 171320Z 02006KT 340V060 9999 FEW020 BKN028
                        11/06 Q1008 NOSIG=
201305171250 METAR COR EGLL 171250Z 03007KT 360V070 9999 FEW020 BKN024
                        11/06 Q1007 NOSIG=
201305171220 METAR COR EGLL 171220Z 03007KT 9999 BKN024 12/06 Q1007 NOSIG=
201305171150 METAR COR EGLL 171150Z 04008KT 010V080 9999 FEW026 SCT035
                        BKN042 12/06 Q1007 NOSIG=
201305171120 METAR COR EGLL 171120Z 04008KT 010V070 9999 SCT026 SCT031
                        11/06 Q1007 NOSIG=
201305171050 METAR COR EGLL 171050Z 02005KT 340V060 9999 SCT027 BKN036
                        12/06 Q1007 NOSIG=
201305171020 METAR COR EGLL 171020Z 03007KT 350V060 9999 FEW025 BKN038
                        12/06 Q1006 NOSIG=
201305170950 METAR COR EGLL 170950Z 01006KT 340V050 9999 FEW023 BKN042
                        12/06 Q1006 NOSIG=
201305170920 METAR COR EGLL 170920Z 06008KT 360V090 9999 FEW022 BKN040
                        11/06 Q1006 NOSIG=
201305170850 METAR COR EGLL 170850Z 03007KT 360V060 9999 SCT020 BKN026
                        11/06 Q1006 NOSIG=
201305170820 METAR COR EGLL 170820Z 04007KT 360V070 9999 SCT020 SCT024
                        BKN030 10/06 Q1006 NOSIG=
201305170750 METAR EGLL 170750Z 04006KT 360V090 9999 FEW014 SCT020 BKN033
                        10/06 Q1005=
201305170720 METAR COR EGLL 170720Z 05006KT 010V080 9999 SCT010 SCT036
                        10/07 Q1005 NOSIG=
201305170650 METAR COR EGLL 170650Z 05006KT 010V080 9999 FEW010 BKN033
                        09/07 Q1005 NOSIG=
201305170620 METAR COR EGLL 170620Z 06004KT 020V090 9000 FEW016 SCT019
                        09/07 Q1005 NOSIG=
201305170550 METAR COR EGLL 170550Z 06004KT 020V090 8000 FEW014 08/06
                        Q1004 NOSIG=
201305170520 METAR COR EGLL 170520Z VRB03KT 8000 FEW015 07/06 Q1004 NOSIG=
201305170450 METAR COR EGLL 170450Z 04005KT 9000 FEW030 07/06 Q1003 NOSIG=
201305170420 METAR COR EGLL 170420Z VRB03KT 9000 FEW030 07/05 Q1003 NOSIG=
201305170350 METAR COR EGLL 170350Z 01003KT 9999 SCT029 07/05 Q1003 NOSIG=
201305170320 METAR COR EGLL 170320Z 06003KT 9999 SCT026 07/05 Q1003 NOSIG=
201305170250 METAR COR EGLL 170250Z 07002KT 9999 SCT025 07/05 Q1002 NOSIG=
201305170220 METAR COR EGLL 170220Z 12005KT 9999 FEW023 07/05 Q1002 NOSIG=
201305170150 METAR EGLL 170150Z AUTO 12008KT 9999 BKN024/// 08/06 Q1002=
201305170120 METAR EGLL 170120Z AUTO 10005KT 9999 SCT017/// BKN022///
                        08/04 Q1002=
201305170050 METAR EGLL 170050Z AUTO 09003KT 9999 FEW023/// 07/04 Q1002=
201305170020 METAR COR EGLL 170020Z 08003KT CAVOK 08/04 Q1002 NOSIG=
201305162350 METAR COR EGLL 162350Z 10004KT CAVOK 07/04 Q1001 NOSIG=
201305162320 METAR COR EGLL 162320Z 10004KT 9999 FEW048 08/04 Q1001 NOSIG=
201305162250 METAR COR EGLL 162250Z 13006KT CAVOK 07/03 Q1001 NOSIG=
201305162220 METAR COR EGLL 162220Z 14004KT 360V160 CAVOK 08/03 Q1001
                        NOSIG=
201305162150 METAR COR EGLL 162150Z VRB05G17KT CAVOK 09/03 Q1001 NOSIG=
201305162120 METAR COR EGLL 162120Z 18006KT 9999 FEW045 09/03 Q1001 NOSIG=
201305162050 METAR COR EGLL 162050Z 18010KT CAVOK 10/03 Q1000 NOSIG=
201305162020 METAR COR EGLL 162020Z 13008KT CAVOK 11/06 Q1000 NOSIG=
201305161950 METAR COR EGLL 161950Z 08008KT 9999 FEW042 12/08 Q1000 NOSIG=
201305161920 METAR COR EGLL 161920Z 01005KT 340V050 9999 FEW042 FEW060CB
                        12/07 Q0999 NOSIG=
201305161850 METAR COR EGLL 161850Z 36005KT 9999 FEW042 FEW060CB 12/06
                        Q0999 NOSIG=
201305161820 METAR COR EGLL 161820Z 06004KT 010V100 9999 VCSH FEW060CB
                        13/06 Q0999 NOSIG=
201305161750 METAR COR EGLL 161750Z 09009KT 9999 VCTS VCSH FEW060CB 14/04
                        Q0999 NOSIG=
201305161720 METAR COR EGLL 161720Z 05004KT 010V090 9999 VCSH FEW060TCU
                        14/03 Q0998 NOSIG=
201305161650 METAR COR EGLL 161650Z 07004KT 9999 FEW060TCU 14/03 Q0998
                        NOSIG=
201305161620 METAR COR EGLL 161620Z 07005KT 9999 FEW060TCU 16/03 Q0998
                        NOSIG=
201305161550 METAR COR EGLL 161550Z 18006KT 9999 VCSH FEW060TCU 15/04
                        Q0998 NOSIG=
201305161520 METAR COR EGLL 161520Z 09007KT 9999 VCSH FEW060TCU 15/04
                        Q0998 NOSIG=
201305161450 METAR COR EGLL 161450Z 12010KT CAVOK 14/04 Q0998 NOSIG=
201305161420 METAR COR EGLL 161420Z 14007KT 090V180 CAVOK 15/01 Q0998
                        NOSIG=
201305161350 METAR COR EGLL 161350Z VRB05KT CAVOK 15/01 Q0998 NOSIG=
201305161320 METAR COR EGLL 161320Z VRB04KT CAVOK 16/02 Q0998 NOSIG=
201305161250 METAR COR EGLL 161250Z 19006KT 160V240 CAVOK 16/02 Q0999
                        NOSIG=
201305161220 METAR COR EGLL 161220Z 17005KT 110V200 CAVOK 15/02 Q0999
                        NOSIG=
201305161150 METAR COR EGLL 161150Z 16005KT 090V210 9999 FEW048 15/03
                        Q0999 NOSIG=
201305161120 METAR COR EGLL 161120Z 18006KT 080V230 9999 SCT043 SCT047
                        15/03 Q0999 NOSIG=
201305161050 METAR COR EGLL 161050Z VRB04KT 9999 SCT045 14/04 Q0999 NOSIG=
201305161020 METAR COR EGLL 161020Z 16006KT 100V190 9999 SCT041 14/04
                        Q0999 NOSIG=
201305160950 METAR COR EGLL 160950Z 13004KT 070V190 9999 SCT029 14/04
                        Q1000 NOSIG=
201305160920 METAR COR EGLL 160920Z VRB03KT 9999 SCT028 13/06 Q1000 NOSIG=
201305160850 METAR COR EGLL 160850Z VRB03KT 9999 FEW024 12/06 Q1000 NOSIG=
201305160820 METAR COR EGLL 160820Z VRB03KT 9999 FEW016 12/07 Q1000 NOSIG=
201305160750 METAR EGLL 160750Z VRB03KT 9999 FEW016 11/07 Q1000=
201305160720 METAR COR EGLL 160720Z VRB02KT CAVOK 09/06 Q1000 NOSIG=
201305160650 METAR COR EGLL 160650Z VRB02KT CAVOK 08/06 Q1001 NOSIG=
201305160620 METAR COR EGLL 160620Z VRB03KT 9000 NSC 07/06 Q1001 NOSIG=
201305160550 METAR COR EGLL 160550Z VRB02KT 9000 4300SW VCFG NSC 05/05
                        Q1001 NOSIG=
201305160520 METAR COR EGLL 160520Z 00000KT 8000 3000SW VCFG FEW010 04/03
                        Q1000 NOSIG=
201305160450 METAR COR EGLL 160450Z 00000KT 8000 VCFG FEW010 04/04 Q1000
                        NOSIG=
201305160420 METAR COR EGLL 160420Z VRB02KT 8000 VCFG NSC 04/03 Q1000
                        NOSIG=
201305160350 METAR COR EGLL 160350Z VRB02KT 8000 VCFG NSC 04/04 Q1000
                        NOSIG=
201305160320 METAR COR EGLL 160320Z VRB02KT 4900 BR NSC 04/04 Q1000 BECMG
                        CAVOK=
201305160250 METAR COR EGLL 160250Z 16002KT CAVOK 04/03 Q1000 NOSIG=
201305160220 METAR COR EGLL 160220Z 17003KT CAVOK 05/04 Q1000 NOSIG=
201305160150 METAR EGLL 160150Z AUTO 00000KT 9999 NCD 05/04 Q1000=
201305160120 METAR EGLL 160120Z AUTO 00000KT 7000 NCD 05/04 Q1000=
201305160050 METAR EGLL 160050Z AUTO 00000KT 7000 NCD 06/04 Q1000=
201305160020 METAR COR EGLL 160020Z 19002KT CAVOK 06/04 Q1000 NOSIG=
201305152350 METAR COR EGLL 152350Z VRB02KT CAVOK 06/03 Q1000 NOSIG=
201305152320 METAR COR EGLL 152320Z 23006KT CAVOK 07/05 Q1000 NOSIG=
201305152250 METAR COR EGLL 152250Z 24005KT CAVOK 07/06 Q1000 NOSIG=
201305152220 METAR COR EGLL 152220Z 25007KT 9999 FEW024 08/05 Q1001 NOSIG=
201305152150 METAR COR EGLL 152150Z VRB02KT 9999 FEW024 09/04 Q1001 NOSIG=
201305152120 METAR COR EGLL 152120Z 11006KT 080V160 9999 -RA FEW015 SCT045
                        09/05 Q1001 RERA NOSIG=
201305152050 METAR COR EGLL 152050Z 22012KT 9999 4500S SHRA BKN040CB 09/05
                        Q1001 BECMG 9999 NSW=
201305152020 METAR COR EGLL 152020Z 21009KT 180V240 9999 FEW040CB 10/05
                        Q1000 TEMPO 4500 SHRA=
201305151950 METAR COR EGLL 151950Z 18010KT 9999 FEW040CB 10/05 Q1000
                        NOSIG=
201305151920 METAR COR EGLL 151920Z 18010KT 9999 FEW036 11/05 Q0999 NOSIG=
201305151850 METAR COR EGLL 151850Z 22006KT 9999 FEW036 13/04 Q0999 NOSIG=
201305151820 METAR COR EGLL 151820Z 24008KT 210V280 9999 FEW040 13/03
                        Q0999 NOSIG=
201305151750 METAR COR EGLL 151750Z 23009KT 200V270 9999 FEW040 13/03
                        Q0999 NOSIG=
201305151720 METAR COR EGLL 151720Z 24007KT 9999 FEW032 12/04 Q0999 NOSIG=
201305151650 METAR COR EGLL 151650Z 26015KT 9999 FEW049 13/04 Q0998 NOSIG=
201305151620 METAR COR EGLL 151620Z 24009KT 210V290 9999 FEW044 14/03
                        Q0998 TEMPO SHRA=
201305151550 METAR COR EGLL 151550Z 25010KT 9999 FEW040 13/03 Q0998 NOSIG=
201305151520 METAR COR EGLL 151520Z 26012KT 220V280 9999 FEW040 13/03
                        Q0998 NOSIG=
201305151450 METAR COR EGLL 151450Z 26012KT 9999 FEW037 12/03 Q0997 NOSIG=
201305151420 METAR COR EGLL 151420Z 27014KT 9999 SCT037 12/04 Q0997 NOSIG=
201305151350 METAR COR EGLL 151350Z 27014KT 9999 SCT034 12/05 Q0997 NOSIG=
201305151320 METAR COR EGLL 151320Z 26015KT 9999 SCT022 SCT038 11/06 Q0996
                        NOSIG=
201305151250 METAR COR EGLL 151250Z 25015KT 9999 FEW021 SCT034 10/06 Q0996
                        NOSIG=
201305151220 METAR COR EGLL 151220Z 24013KT 9999 -SHRA FEW016 BKN026 09/06
                        Q0996 NOSIG=
201305151150 METAR COR EGLL 151150Z 25016KT 9999 FEW019 SCT023 BKN026
                        09/04 Q0995 NOSIG=
201305151120 METAR COR EGLL 151120Z 26016KT 9999 SCT021 BKN024 09/04 Q0995
                        NOSIG=
201305151050 METAR COR EGLL 151050Z 25014KT 9999 FEW021 BKN025 09/04 Q0994
                        NOSIG=
201305151020 METAR COR EGLL 151020Z 25015KT 9999 FEW021 BKN024 09/04 Q0994
                        NOSIG=
201305150950 METAR COR EGLL 150950Z 25016KT 9999 FEW020 BKN022 08/03 Q0993
                        NOSIG=
201305150920 METAR COR EGLL 150920Z 24016KT 9999 FEW020 BKN024 08/03 Q0993
                        NOSIG=
201305150850 METAR COR EGLL 150850Z 23016KT 9999 BKN021 08/03 Q0992 NOSIG=
201305150820 METAR COR EGLL 150820Z 23015KT 9999 FEW019 SCT024 BKN028
                        07/03 Q0992 NOSIG=
201305150750 METAR COR EGLL 150750Z 22015KT 9999 SCT019 SCT023 07/04 Q0992
                        NOSIG=
201305150720 METAR COR EGLL 150720Z 22013KT 9999 SCT018 BKN024 07/03 Q0991
                        NOSIG=
201305150650 METAR COR EGLL 150650Z 21013KT 9999 FEW019 BKN022 07/03 Q0991
                        NOSIG=
201305150620 METAR COR EGLL 150620Z 22016KT 9999 BKN017 07/02 Q0990 NOSIG=
201305150550 METAR EGLL 150550Z 22013KT 9999 BKN020 07/02 Q0990=
201305150520 METAR COR EGLL 150520Z 21014G25KT 9999 BKN018 06/02 Q0990
                        NOSIG=
201305150450 METAR COR EGLL 150450Z 22013G23KT 9999 FEW019 BKN023 06/01
                        Q0989 NOSIG=
201305150420 METAR COR EGLL 150420Z 22013KT 9999 BKN019 BKN022 06/01 Q0989
                        TEMPO 22015G25KT=
201305150350 METAR EGLL 150350Z 22016KT 9999 BKN018 06/03 Q0988=
201305150320 METAR COR EGLL 150320Z 21015KT 9999 BKN018 BKN042 07/03 Q0988
                        TEMPO 21017G27KT=
201305150250 METAR COR EGLL 150250Z 21016KT 9999 BKN017 07/03 Q0988 TEMPO
                        21018G28KT=
201305150220 METAR COR EGLL 150220Z 20016G28KT 9999 BKN018 07/01 Q0987
                        NOSIG=
201305150150 METAR EGLL 150150Z AUTO 21015KT 9999 OVC016/// OVC018///
                        07/01 Q0987=
201305150120 METAR EGLL 150120Z AUTO 20019KT 9999 BKN016/// 07/01 Q0987=
201305150050 METAR EGLL 150050Z AUTO 18017KT 9999 BKN013/// 07/04 Q0987=
201305150020 METAR COR EGLL 150020Z 18019KT 9999 SCT015 SCT021 BKN029
                        07/05 Q0987 NOSIG=
201305142350 METAR COR EGLL 142350Z 17016KT 9999 SCT018 BKN023 08/05 Q0988
                        TEMPO 18018G28KT 8000 RA=
201305142320 METAR COR EGLL 142320Z 17019G29KT 9999 BKN020 BKN030 08/04
                        Q0989 TEMPO 8000 RA=
201305142250 METAR COR EGLL 142250Z 17017G27KT 9999 FEW020 SCT026 08/05
                        Q0990 TEMPO 8000 RA=
201305142220 METAR COR EGLL 142220Z 17014KT 9999 FEW022 SCT030 09/06 Q0990
                        TEMPO 17018G28KT 8000 RA=
201305142150 METAR COR EGLL 142150Z 19019G36KT 9999 VCSH FEW011 BKN042
                        09/07 Q0991 TEMPO 7000 RA=
201305142120 METAR COR EGLL 142120Z 14014G24KT 8000 -RA FEW011 BKN018
                        10/09 Q0991 RERA BECMG 9999 NSW=
201305142050 METAR COR EGLL 142050Z 12013KT 7000 -RA BKN011 09/08 Q0992
                        BECMG 9999 NSW SCT012 BKN020=
201305142020 METAR COR EGLL 142020Z 12012KT 9000 -RA SCT014 BKN020 09/08
                        Q0993 TEMPO BKN014=
201305141950 METAR COR EGLL 141950Z 13009KT 8000 -RA SCT011 BKN022 09/08
                        Q0994 TEMPO BKN011=
201305141920 METAR COR EGLL 141920Z 13010KT 7000 -RA FEW010 SCT020 BKN031
                        09/08 Q0995 TEMPO RA BKN010=
201305141850 METAR COR EGLL 141850Z 12009KT 7000 -RA SCT012 SCT017 BKN025
                        09/08 Q0995 TEMPO RA BKN012=
201305141820 METAR COR EGLL 141820Z 12009KT 7000 -RA FEW011 SCT015 BKN026
                        09/08 Q0996 TEMPO RA BKN011=
201305141750 METAR COR EGLL 141750Z 13009KT 9000 -RA FEW011 SCT016 BKN032
                        09/08 Q0997 TEMPO RA BKN014=
201305141720 METAR COR EGLL 141720Z 14009KT 9000 -RA SCT012 SCT020 BKN030
                        09/07 Q0998 TEMPO RA BKN012=
201305141650 METAR COR EGLL 141650Z 14008KT 9999 -RA FEW009 SCT027 BKN034
                        09/07 Q0999 TEMPO BKN012=
201305141620 METAR COR EGLL 141620Z 16010KT 130V200 9999 -RA SCT011 BKN027
                        09/07 Q1000 TEMPO RA BKN014=
201305141550 METAR COR EGLL 141550Z 18010KT 150V210 9999 -RA FEW018 SCT025
                        BKN030 09/07 Q1000 NOSIG=
201305141520 METAR COR EGLL 141520Z 18011KT 150V220 9999 -RA FEW015 BKN026
                        09/07 Q1001 TEMPO RA BKN014=
201305141450 METAR COR EGLL 141450Z 18012KT 9999 -RA SCT014 BKN027 09/07
                        Q1001 TEMPO RA BKN014=
201305141420 METAR COR EGLL 141420Z 19011KT 9999 -RA SCT018 BKN030 09/07
                        Q1002 NOSIG=
201305141350 METAR COR EGLL 141350Z 19013KT 170V240 9999 -RA FEW020 SCT024
                        BKN038 10/07 Q1002 NOSIG=
201305141320 METAR COR EGLL 141320Z 19015KT 170V230 9999 -RA FEW020 BKN026
                        10/06 Q1002 NOSIG=
201305141250 METAR COR EGLL 141250Z 20013KT 170V250 9999 -SHRA FEW019
                        BKN025 10/07 Q1003 NOSIG=
201305141220 METAR COR EGLL 141220Z 19013KT 150V230 9999 -SHRA FEW021
                        SCT025 BKN029 10/07 Q1003 RERA NOSIG=
201305141150 METAR COR EGLL 141150Z 20011KT 160V250 9999 SCT023 BKN028
                        11/07 Q1004 NOSIG=
201305141120 METAR COR EGLL 141120Z 22010KT 190V260 9999 FEW022 SCT034
                        12/05 Q1004 NOSIG=
201305141050 METAR COR EGLL 141050Z 25011KT 9999 FEW022 BKN032 10/06 Q1005
                        NOSIG=
201305141020 METAR COR EGLL 141020Z 22013KT 180V250 9999 -SHRA BKN035
                        10/05 Q1005 NOSIG=
201305140950 METAR COR EGLL 140950Z 22012KT 9999 SCT029 12/03 Q1005 NOSIG=
201305140920 METAR COR EGLL 140920Z 23012KT 9999 SCT029 BKN034 12/03 Q1006
                        NOSIG=
201305140850 METAR COR EGLL 140850Z 24011KT 9999 SCT024 BKN034 10/04 Q1006
                        NOSIG=
201305140820 METAR COR EGLL 140820Z 22011KT 9999 SCT023 BKN027 10/04 Q1006
                        NOSIG=
201305140750 METAR COR EGLL 140750Z 23009KT 190V260 9999 SCT022 BKN031
                        10/04 Q1007 NOSIG=
201305140720 METAR COR EGLL 140720Z 23011KT 9999 FEW021 10/04 Q1007 NOSIG=
201305140650 METAR COR EGLL 140650Z 23009KT 9999 FEW016 09/04 Q1007 NOSIG=
201305140620 METAR COR EGLL 140620Z 24010KT 9999 FEW016 08/04 Q1007 NOSIG=
201305140550 METAR COR EGLL 140550Z 24011KT 220V280 9999 FEW016 08/04
                        Q1007 NOSIG=
201305140520 METAR COR EGLL 140520Z 23011KT CAVOK 08/04 Q1008 NOSIG=
201305140450 METAR COR EGLL 140450Z 24009KT CAVOK 07/04 Q1008 NOSIG=
201305140420 METAR COR EGLL 140420Z 24010KT 210V280 CAVOK 07/04 Q1008
                        NOSIG=
201305140350 METAR COR EGLL 140350Z 24009KT CAVOK 08/04 Q1008 NOSIG=
201305140320 METAR COR EGLL 140320Z 23010KT CAVOK 08/04 Q1008 NOSIG=
201305140250 METAR EGLL 140250Z AUTO 23010KT 9999 NCD 08/04 Q1009=
201305140220 METAR EGLL 140220Z AUTO 23009KT 9999 NCD 08/04 Q1009=
201305140150 METAR EGLL 140150Z AUTO 25010KT 9999 NCD 08/04 Q1009=
201305140120 METAR COR EGLL 140120Z 24010KT CAVOK 08/04 Q1009 NOSIG=
201305140050 METAR COR EGLL 140050Z 25010KT CAVOK 08/04 Q1009 NOSIG=
201305140020 METAR COR EGLL 140020Z 25011KT CAVOK 08/04 Q1010 NOSIG=
201305132350 METAR COR EGLL 132350Z 25011KT CAVOK 08/04 Q1010 NOSIG=
201305132320 METAR COR EGLL 132320Z 25012KT CAVOK 09/04 Q1010 NOSIG=
201305132250 METAR COR EGLL 132250Z 25012KT CAVOK 09/04 Q1010 NOSIG=
201305132220 METAR COR EGLL 132220Z 25012KT CAVOK 09/03 Q1010 NOSIG=
201305132150 METAR COR EGLL 132150Z 24012KT CAVOK 09/03 Q1010 NOSIG=
201305132120 METAR COR EGLL 132120Z 27013KT 9999 FEW035 09/03 Q1011 NOSIG=
201305132050 METAR COR EGLL 132050Z 26013KT 9999 FEW036 SCT042 10/04 Q1011
                        NOSIG=
201305132020 METAR COR EGLL 132020Z 25010KT 9999 FEW041 10/04 Q1010 NOSIG=
201305131950 METAR COR EGLL 131950Z 25012KT 9999 VCSH FEW045 09/03 Q1010
                        NOSIG=
201305131920 METAR COR EGLL 131920Z 27017KT 9999 VCSH FEW045 09/04 Q1010
                        NOSIG=
201305131850 METAR COR EGLL 131850Z 27020KT 9999 VCSH FEW045 12/02 Q1010
                        NOSIG=
201305131820 METAR COR EGLL 131820Z 26020KT 9999 FEW045 12/02 Q1009 NOSIG=
201305131750 METAR COR EGLL 131750Z 27018KT 9999 FEW044 13/02 Q1010 NOSIG=
201305131720 METAR COR EGLL 131720Z 26024KT 9999 FEW042 13/03 Q1010 BECMG
                        26014KT=
201305131650 METAR COR EGLL 131650Z 25020KT 9999 VCSH FEW032 12/04 Q1010
                        NOSIG=
201305131620 METAR COR EGLL 131620Z 26019KT 9999 VCSH SCT030 SCT045 11/05
                        Q1011 TEMPO SHRA=
201305131550 METAR COR EGLL 131550Z 26019KT 9999 -SHRA FEW040 SCT045 13/04
                        Q1010 TEMPO SHRA=
201305131520 METAR COR EGLL 131520Z 25016KT 9999 FEW036 14/02 Q1010 TEMPO
                        25018G28KT SHRA=
201305131450 METAR EGLL 131450Z 27016KT CAVOK 15/01 Q1011=
201305131420 METAR COR EGLL 131420Z 25021KT 9999 FEW049 15/01 Q1011 TEMPO
                        SHRA=
201305131350 METAR COR EGLL 131350Z 26019G29KT 9999 FEW045 15/02 Q1011
                        TEMPO SHRA=
201305131320 METAR COR EGLL 131320Z 27021KT 9999 -SHRA FEW035 SCT043 12/04
                        Q1011 TEMPO SHRA=
201305131250 METAR COR EGLL 131250Z 24017KT 9999 SCT042 14/03 Q1012 TEMPO
                        25018G28KT SHRA=
201305131220 METAR COR EGLL 131220Z 26019KT 9999 FEW030 SCT042 13/03 Q1012
                        TEMPO SHRA=
201305131150 METAR COR EGLL 131150Z 27019KT 9999 SCT042 13/03 Q1012 NOSIG=
201305131120 METAR COR EGLL 131120Z 27018KT 9999 SCT042 SCT048 13/02 Q1012
                        NOSIG=
201305131050 METAR COR EGLL 131050Z 25018KT 9999 SCT044 12/03 Q1013 NOSIG=
201305131020 METAR COR EGLL 131020Z 27017KT 9999 SCT048 13/02 Q1013 TEMPO
                        27018G28KT=
201305130950 METAR COR EGLL 130950Z 28015KT 9999 SCT049 13/01 Q1013 TEMPO
                        28018G28KT=
201305130920 METAR COR EGLL 130920Z 28018KT 9999 FEW045 12/01 Q1013 TEMPO
                        28020G30KT=
201305130850 METAR COR EGLL 130850Z 28018KT 9999 FEW043 12/02 Q1013 TEMPO
                        28020G30KT=
201305130820 METAR COR EGLL 130820Z 27018KT 9999 FEW033 SCT040 12/04 Q1013
                        NOSIG=
201305130750 METAR COR EGLL 130750Z 27018KT 9999 FEW034 SCT039 12/04 Q1013
                        NOSIG=
201305130720 METAR COR EGLL 130720Z 26016KT 9999 FEW024 12/05 Q1013 NOSIG=
201305130650 METAR COR EGLL 130650Z 26017KT 9999 FEW012 11/07 Q1013 NOSIG=
201305130620 METAR COR EGLL 130620Z 26015KT 9999 FEW012 11/08 Q1012 NOSIG=
201305130550 METAR COR EGLL 130550Z 25013KT 9999 FEW012 11/08 Q1012 NOSIG=
201305130520 METAR COR EGLL 130520Z 25013KT 9999 FEW010 11/08 Q1012 NOSIG=
201305130450 METAR COR EGLL 130450Z 25011KT 9999 FEW010 11/09 Q1012 NOSIG=
201305130420 METAR EGLL 130420Z 25010KT 9999 FEW010 11/09 Q1012=
201305130350 METAR COR EGLL 130350Z 25011KT 9999 FEW009 11/10 Q1012 NOSIG=
201305130320 METAR EGLL 130320Z AUTO 24010KT 9999 FEW008/// SCT010///
                        BKN014/// 11/10 Q1012 RERA=
201305130250 METAR COR EGLL 130250Z 23010KT 7000 DZ OVC008 11/10 Q1012
                        BECMG NSW SCT016=
201305130220 METAR COR EGLL 130220Z 24010KT 9999 SCT011 BKN018 BKN027
                        11/10 Q1012 NOSIG=
201305130150 METAR EGLL 130150Z AUTO 24011KT 9999 SCT011/// 12/10 Q1012=
201305130120 METAR EGLL 130120Z AUTO 25010KT 9999 OVC009/// 12/10 Q1012=
201305130050 METAR EGLL 130050Z AUTO 25011KT 9999 SCT009/// BKN015///
                        11/10 Q1012=
201305130020 METAR COR EGLL 130020Z 24011KT 9999 SCT007 SCT014 11/10 Q1012
                        TEMPO BKN009=
201305122350 METAR COR EGLL 122350Z 24011KT 7000 -RA BKN009 11/10 Q1013
                        TEMPO BKN011=
201305122320 METAR COR EGLL 122320Z 25012KT 7000 -RA FEW008 BKN010 12/10
                        Q1013 TEMPO BKN008=
201305122250 METAR COR EGLL 122250Z 24011KT 9999 SCT009 BKN012 12/10 Q1013
                        TEMPO BKN008=
201305122220 METAR COR EGLL 122220Z 24011KT 9999 FEW008 BKN010 12/10 Q1013
                        TEMPO BKN008=
201305122150 METAR COR EGLL 122150Z 24011KT 200V270 9999 BKN010 12/10
                        Q1013 TEMPO BKN008=
201305122120 METAR COR EGLL 122120Z 25014KT 9999 BKN010 12/10 Q1013 TEMPO
                        BKN008=
201305122050 METAR COR EGLL 122050Z 25014KT 9999 BKN010 12/10 Q1013 TEMPO
                        BKN008=
201305122020 METAR COR EGLL 122020Z 24012KT 9999 SCT009 BKN011 12/10 Q1013
                        TEMPO BKN008=
201305121950 METAR COR EGLL 121950Z 24014KT 7000 -RADZ BKN008 12/10 Q1013
                        TEMPO 4000 RADZ=
201305121920 METAR COR EGLL 121920Z 24014KT 8000 -RADZ BKN008 12/10 Q1013
                        TEMPO 4000 RADZ=
201305121850 METAR COR EGLL 121850Z 23014G24KT 9999 SCT009 BKN012 11/10
                        Q1013 TEMPO 4000 RADZ BKN008=
201305121820 METAR COR EGLL 121820Z 22014KT 8000 -RA FEW006 BKN013 11/10
                        Q1013 TEMPO 4500 RADZ BKN008=
201305121750 METAR COR EGLL 121750Z 22013KT 9999 SCT009 BKN015 11/10 Q1013
                        TEMPO 4500 RADZ SCT008 BKN010=
201305121720 METAR COR EGLL 121720Z 22014KT 200V260 9999 SCT008 BKN014
                        11/10 Q1013 TEMPO 4500 RADZ BKN008=
201305121650 METAR COR EGLL 121650Z 21011G21KT 9999 -RADZ OVC011 11/09
                        Q1014 TEMPO BKN009=
201305121620 METAR COR EGLL 121620Z 22012KT 9999 -RA BKN012 11/09 Q1014
                        NOSIG=
201305121550 METAR COR EGLL 121550Z 22013KT 180V250 9999 -RA SCT018 BKN025
                        12/09 Q1014 TEMPO RADZ BKN014=
201305121520 METAR COR EGLL 121520Z 23014KT 190V260 9999 -RA FEW021 BKN031
                        12/08 Q1015 TEMPO RADZ BKN014=
201305121450 METAR COR EGLL 121450Z 25015KT 9000 -RADZ BKN031 12/07 Q1015
                        TEMPO BKN014=
201305121420 METAR COR EGLL 121420Z 24014KT 9999 SCT033 BKN037 13/06 Q1015
                        TEMPO BKN014=
201305121350 METAR COR EGLL 121350Z 23014KT 9999 SCT034 BKN039 13/05 Q1016
                        NOSIG=
201305121320 METAR COR EGLL 121320Z 25015KT 9999 BKN038 13/04 Q1016 NOSIG=
201305121250 METAR COR EGLL 121250Z 26015KT 9999 BKN044 14/04 Q1016 NOSIG=
201305121220 METAR COR EGLL 121220Z 28012KT 9999 SCT048 15/03 Q1016 NOSIG=
201305121150 METAR COR EGLL 121150Z 27013KT 230V300 9999 SCT044 14/03
                        Q1016 NOSIG=
201305121120 METAR COR EGLL 121120Z 25015KT 9999 SCT042 14/03 Q1016 NOSIG=
201305121050 METAR COR EGLL 121050Z 27013KT 9999 SCT042 14/03 Q1016 NOSIG=
201305121020 METAR COR EGLL 121020Z 26014KT 9999 SCT040 13/04 Q1016 NOSIG=
201305120950 METAR EGLL 120950Z 26013KT 9999 SCT034 13/04 Q1017=
201305120920 METAR COR EGLL 120920Z 27012KT 9999 SCT030 12/05 Q1017 NOSIG=
201305120850 METAR COR EGLL 120850Z 28013KT 9999 SCT030 11/05 Q1016 NOSIG=
201305120820 METAR COR EGLL 120820Z 27013KT 9999 SCT028 11/05 Q1016 NOSIG=
201305120750 METAR COR EGLL 120750Z 28012KT 9999 FEW022 10/05 Q1016 NOSIG=
201305120720 METAR COR EGLL 120720Z 27012KT 9999 FEW021 09/05 Q1016 NOSIG=
201305120650 METAR COR EGLL 120650Z 27013KT 9999 FEW012 08/05 Q1016 NOSIG=
201305120620 METAR COR EGLL 120620Z 27009KT CAVOK 07/04 Q1015 NOSIG=
201305120550 METAR COR EGLL 120550Z 27013KT CAVOK 07/04 Q1015 NOSIG=
201305120520 METAR COR EGLL 120520Z 27011KT CAVOK 06/04 Q1015 NOSIG=
201305120450 METAR COR EGLL 120450Z 27010KT CAVOK 06/04 Q1015 NOSIG=
201305120420 METAR COR EGLL 120420Z 26011KT CAVOK 06/04 Q1014 NOSIG=
201305120350 METAR COR EGLL 120350Z 27011KT CAVOK 06/04 Q1014 NOSIG=
201305120320 METAR COR EGLL 120320Z 27010KT CAVOK 06/04 Q1014 NOSIG=
201305120250 METAR COR EGLL 120250Z 27011KT CAVOK 06/04 Q1014 NOSIG=
201305120220 METAR EGLL 120220Z AUTO 27011KT 9999 NCD 06/04 Q1014=
201305120150 METAR EGLL 120150Z AUTO 27011KT 9999 NCD 06/04 Q1014=
201305120120 METAR EGLL 120120Z AUTO 27010KT 9999 NCD 06/04 Q1013=
201305120050 METAR COR EGLL 120050Z 27011KT CAVOK 06/04 Q1013 NOSIG=
201305120020 METAR COR EGLL 120020Z 27009KT CAVOK 06/04 Q1013 NOSIG=
201305112350 METAR COR EGLL 112350Z 27010KT CAVOK 06/04 Q1013 NOSIG=
201305112320 METAR COR EGLL 112320Z 27009KT CAVOK 06/04 Q1013 NOSIG=
201305112250 METAR COR EGLL 112250Z 27010KT CAVOK 06/04 Q1013 NOSIG=
201305112220 METAR COR EGLL 112220Z 28012KT CAVOK 06/04 Q1013 NOSIG=
201305112150 METAR COR EGLL 112150Z 27014KT CAVOK 07/04 Q1012 NOSIG=
201305112120 METAR COR EGLL 112120Z 26013KT CAVOK 08/05 Q1012 NOSIG=
201305112050 METAR COR EGLL 112050Z 26010KT 9999 FEW034 SCT043 08/05 Q1012
                        NOSIG=
201305112020 METAR COR EGLL 112020Z 25010KT 9999 SCT034 SCT047 08/05 Q1012
                        NOSIG=
201305111950 METAR COR EGLL 111950Z 28008KT 9999 SCT013 SCT027CB 08/05
                        Q1011 RESHRA NOSIG=
201305111920 METAR COR EGLL 111920Z 29020G30KT 4800 SHRA SCT013 SCT035CB
                        08/05 Q1011 BECMG 9999 NSW=
201305111850 METAR COR EGLL 111850Z 27020KT 9999 VCSH FEW032CB SCT042
                        12/04 Q1010 TEMPO 4500 +SHRA=
201305111820 METAR COR EGLL 111820Z 30006KT 270V360 9999 VCSH FEW032CB
                        SCT038 13/03 Q1010 NOSIG=
201305111750 METAR EGLL 111750Z 27018KT 9999 VCSH FEW032CB SCT043 13/04
                        Q1009=
201305111720 METAR COR EGLL 111720Z 26021KT 9999 FEW032CB SCT042 13/04
                        Q1009 NOSIG=
201305111650 METAR COR EGLL 111650Z 28022KT 9999 VCSH FEW032 SCT044 13/03
                        Q1009 TEMPO 4500 +SHRA=
201305111620 METAR COR EGLL 111620Z 26019KT 9999 FEW038 13/05 Q1009 TEMPO
                        4500 +SHRA=
201305111550 METAR COR EGLL 111550Z 26018KT 9999 FEW037 13/04 Q1009 NOSIG=
201305111520 METAR COR EGLL 111520Z 26023KT 9999 FEW037 13/05 Q1009 NOSIG=
201305111450 METAR COR EGLL 111450Z 26021G33KT 9999 FEW035 14/05 Q1009
                        NOSIG=
201305111420 METAR COR EGLL 111420Z 26019KT 9999 FEW018 14/07 Q1009 NOSIG=
201305111350 METAR COR EGLL 111350Z 25018KT 9999 VCSH FEW028 BKN046 13/09
                        Q1009 NOSIG=
201305111320 METAR COR EGLL 111320Z 23016KT 9999 -SHRA SCT024 SCT042 14/08
                        Q1009 TEMPO 4500 +SHRA=
201305111250 METAR COR EGLL 111250Z 25013KT 9999 VCSH SCT027 SCT047 14/08
                        Q1010 NOSIG=
201305111220 METAR COR EGLL 111220Z 25016KT 9999 BKN027 13/07 Q1010 NOSIG=
201305111150 METAR COR EGLL 111150Z 25013KT 9999 -SHRA BKN030 13/07 Q1010
                        NOSIG=
201305111120 METAR COR EGLL 111120Z 26014KT 9999 BKN030 12/06 Q1010 NOSIG=
201305111050 METAR COR EGLL 111050Z 25016KT 9999 BKN034 13/06 Q1010 NOSIG=
201305111020 METAR COR EGLL 111020Z 26014KT 220V280 9999 SCT031 BKN036
                        12/05 Q1010 NOSIG=
201305110950 METAR COR EGLL 110950Z 25013KT 9999 SCT032 BKN039 12/05 Q1010
                        NOSIG=
201305110920 METAR COR EGLL 110920Z 25014KT 9999 SCT029 OVC036 11/05 Q1010
                        NOSIG=
201305110850 METAR COR EGLL 110850Z 26013KT 9999 SCT030 SCT040 11/05 Q1010
                        NOSIG=
201305110820 METAR COR EGLL 110820Z 26015KT 9999 SCT024 SCT035 11/06 Q1010
                        NOSIG=
201305110750 METAR COR EGLL 110750Z 22011KT 9999 SCT019 SCT028 10/07 Q1010
                        NOSIG=
201305110720 METAR COR EGLL 110720Z 22010KT 180V250 9999 VCSH FEW010 SCT018
                        09/07 Q1010 NOSIG=
201305110650 METAR COR EGLL 110650Z 20010KT 9999 SCT020 SCT028 08/07 Q1010
                        NOSIG=
201305110620 METAR COR EGLL 110620Z 21011G21KT 9999 FEW008 BKN042 08/06
                        Q1011 NOSIG=
201305110550 METAR COR EGLL 110550Z 21009G21KT 180V250 9999 VCSH FEW008
                        BKN040 08/06 Q1011 NOSIG=
201305110520 METAR COR EGLL 110520Z 21008KT 190V250 CAVOK 07/06 Q1011
                        NOSIG=
201305110450 METAR COR EGLL 110450Z 22008KT 9999 FEW006 07/06 Q1011 NOSIG=
201305110420 METAR COR EGLL 110420Z 21007KT CAVOK 07/06 Q1011 NOSIG=
201305110350 METAR COR EGLL 110350Z 22008KT CAVOK 07/06 Q1011 NOSIG=
201305110320 METAR COR EGLL 110320Z 21008KT CAVOK 08/06 Q1011 NOSIG=
201305110250 METAR COR EGLL 110250Z 22008KT 9999 SCT038 08/06 Q1012 NOSIG=
201305110220 METAR COR EGLL 110220Z 22007KT 200V260 9999 BKN031 BKN036
                        08/06 Q1012 NOSIG=
201305110150 METAR COR EGLL 110150Z 20006KT 9999 BKN026 08/06 Q1012 NOSIG=
201305110120 METAR EGLL 110120Z AUTO 25007KT 220V280 9999 FEW010/// SCT013///
                        08/06 Q1012=
201305110050 METAR EGLL 110050Z AUTO 22006KT 9999 -RA FEW030/// SCT034///
                        BKN040/// 08/06 Q1012 RERA=
201305110020 METAR EGLL 110020Z AUTO 26009KT 9999 -RA FEW013/// BKN034///
                        08/06 Q1013=
201305102350 METAR COR EGLL 102350Z 25008KT 9999 -RA BKN034 08/06 Q1013
                        NOSIG=
201305102320 METAR COR EGLL 102320Z 24009KT 9999 -RA BKN032 09/07 Q1013
                        NOSIG=
201305102250 METAR COR EGLL 102250Z 25008KT 9999 -RA BKN032 09/06 Q1013
                        NOSIG=
201305102220 METAR COR EGLL 102220Z 25009KT 9999 -SHRA BKN034 10/07 Q1014
                        NOSIG=
201305102150 METAR COR EGLL 102150Z 27012KT 9999 -SHRA SCT026 BKN030 10/07
                        Q1014 NOSIG=
201305102120 METAR COR EGLL 102120Z 27015KT 9999 VCSH FEW013 SCT022 BKN026
                        10/07 Q1014 TEMPO SHRA BKN014=
201305102050 METAR COR EGLL 102050Z 21011KT 9999 SCT035 12/09 Q1013 TEMPO
                        SHRA=
201305102020 METAR COR EGLL 102020Z 22012G22KT 9999 FEW044 12/09 Q1013
                        TEMPO SHRA=
201305101950 METAR COR EGLL 101950Z 21013KT 180V250 9999 FEW017 12/09
                        Q1013 NOSIG=
201305101920 METAR COR EGLL 101920Z 21012KT 9999 FEW024 13/09 Q1013 TEMPO
                        SHRA=
201305101850 METAR COR EGLL 101850Z 23016KT 9999 FEW026 14/08 Q1012 TEMPO
                        SHRA=
201305101820 METAR COR EGLL 101820Z 22013KT 9999 SCT035 15/09 Q1012 TEMPO
                        SHRA=
201305101750 METAR COR EGLL 101750Z 24015KT 9999 FEW030 15/08 Q1012 NOSIG=
201305101720 METAR COR EGLL 101720Z 24016KT 9999 FEW033 15/08 Q1012 NOSIG=
201305101650 METAR COR EGLL 101650Z 25015KT 9999 FEW034 SCT041 16/08 Q1012
                        NOSIG=
201305101620 METAR COR EGLL 101620Z 26017KT 9999 FEW037 SCT046 16/07 Q1012
                        NOSIG=
201305101550 METAR COR EGLL 101550Z 25015KT 9999 SCT036 17/07 Q1012 NOSIG=
201305101520 METAR COR EGLL 101520Z 26017KT 9999 SCT040 16/07 Q1012 NOSIG=
201305101450 METAR COR EGLL 101450Z 26019KT 9999 SCT040 16/07 Q1012 NOSIG=
201305101420 METAR COR EGLL 101420Z 27020KT 9999 SCT043 17/06 Q1012 NOSIG=
201305101350 METAR COR EGLL 101350Z 26018KT 9999 FEW043 17/06 Q1012 NOSIG=
201305101320 METAR COR EGLL 101320Z 26022KT 9999 FEW044 17/06 Q1012 NOSIG=
201305101250 METAR COR EGLL 101250Z 26018KT 9999 SCT044 17/05 Q1012 NOSIG=
201305101220 METAR COR EGLL 101220Z 26016KT 9999 BKN034 15/05 Q1012 NOSIG=
201305101150 METAR COR EGLL 101150Z 27014KT 9999 BKN027 15/07 Q1012 NOSIG=
201305101120 METAR COR EGLL 101120Z 25018KT 9999 BKN023 13/07 Q1012 NOSIG=
201305101050 METAR EGLL 101050Z 25016KT 9999 BKN021 12/07 Q1012=
201305101020 METAR COR EGLL 101020Z 27014KT 9999 BKN020 12/07 Q1011 NOSIG=
201305100950 METAR COR EGLL 100950Z 26015KT 9999 SCT018 BKN025 13/08 Q1011
                        NOSIG=
201305100920 METAR COR EGLL 100920Z 25016G26KT 9999 SCT017 BKN025 13/08
                        Q1010 NOSIG=
201305100850 METAR COR EGLL 100850Z 26018KT 9999 -RA BKN019 12/08 Q1010
                        NOSIG=
201305100820 METAR COR EGLL 100820Z 24015KT 9999 BKN019 12/08 Q1010 NOSIG=
201305100750 METAR EGLL 100750Z 24014KT 9999 SCT016 BKN020 12/08 Q1009=
201305100720 METAR COR EGLL 100720Z 24015KT 9999 BKN020 12/08 Q1009 NOSIG=
201305100650 METAR EGLL 100650Z 24013G23KT 9999 SCT018 BKN023 12/08 Q1009=
201305100620 METAR COR EGLL 100620Z 24015G26KT 9999 FEW020 BKN039 11/08
                        Q1008 NOSIG=
201305100550 METAR COR EGLL 100550Z 24013KT 9999 FEW018 SCT024 BKN046
                        11/08 Q1008 NOSIG=
201305100520 METAR COR EGLL 100520Z 24015KT 9999 FEW019 SCT027 BKN043
                        11/08 Q1008 NOSIG=
201305100450 METAR COR EGLL 100450Z 24016KT 9999 FEW019 BKN027 11/08 Q1007
                        NOSIG=
201305100420 METAR COR EGLL 100420Z 23016KT 9999 FEW019 BKN026 11/08 Q1007
                        NOSIG=
201305100350 METAR COR EGLL 100350Z 24015KT 9999 SCT019 BKN025 10/08 Q1007
                        NOSIG=
201305100320 METAR COR EGLL 100320Z 24016KT 9999 BKN018 11/08 Q1006 NOSIG=
201305100250 METAR COR EGLL 100250Z 23016KT 9999 BKN019 10/07 Q1006 NOSIG=
201305100220 METAR COR EGLL 100220Z 23016KT 9999 SCT019 BKN025 10/07 Q1006
                        NOSIG=
201305100150 METAR COR EGLL 100150Z 23016KT 9999 SCT018 10/07 Q1006 NOSIG=
201305100120 METAR EGLL 100120Z AUTO 23014KT 9999 FEW019/// 10/07 Q1006=
201305100050 METAR EGLL 100050Z AUTO 23017KT 9999 FEW022/// 10/07 Q1005=
201305100020 METAR EGLL 100020Z AUTO 23016KT 9999 FEW022/// 10/07 Q1005=
201305092350 METAR COR EGLL 092350Z 23016KT 9999 SCT020 SCT025 10/07 Q1006
                        NOSIG=
201305092320 METAR COR EGLL 092320Z 23015KT 9999 SCT021 10/08 Q1005 NOSIG=
201305092250 METAR COR EGLL 092250Z 22015KT 9999 SCT020 10/08 Q1005 NOSIG=
201305092220 METAR COR EGLL 092220Z 22014KT 9999 FEW016 SCT020 10/08 Q1005
                        NOSIG=
201305092150 METAR COR EGLL 092150Z 22014KT 180V250 9999 SCT014 SCT017
                        BKN024 10/08 Q1005 NOSIG=
201305092120 METAR COR EGLL 092120Z 23015KT 7000 -SHRA FEW009 SCT010 BKN015
                        10/09 Q1005 NOSIG=
201305092050 METAR COR EGLL 092050Z 22016KT 8000 -SHRA SCT010 BKN017 10/08
                        Q1005 NOSIG=
201305092020 METAR COR EGLL 092020Z 22015KT 8000 -SHRA SCT012 BKN019 10/08
                        Q1005 TEMPO BKN012=
201305091950 METAR COR EGLL 091950Z 21015G25KT 9000 SCT013 BKN019 10/08
                        Q1005 TEMPO BKN012=
201305091920 METAR COR EGLL 091920Z 21016G27KT 9999 -RA SCT016 BKN023
                        10/08 Q1005 NOSIG=
201305091850 METAR COR EGLL 091850Z 21017KT 9999 -SHRA SCT019 BKN022 10/08
                        Q1005 NOSIG=
201305091820 METAR COR EGLL 091820Z 22018G28KT 9999 -SHRA SCT021 BKN024
                        11/07 Q1005 NOSIG=
201305091750 METAR COR EGLL 091750Z 21019G31KT 9999 -SHRA SCT023 BKN028
                        11/06 Q1005 NOSIG=
201305091720 METAR COR EGLL 091720Z 21018G30KT 9999 -SHRA FEW027 BKN030
                        11/06 Q1005 NOSIG=
201305091650 METAR COR EGLL 091650Z 21018G29KT 9999 -RA BKN035 BKN040
                        12/05 Q1006 NOSIG=
201305091620 METAR COR EGLL 091620Z 22024G35KT 9999 -RA BKN034 BKN041
                        12/05 Q1006 NOSIG=
201305091550 METAR COR EGLL 091550Z 22021G33KT 9999 SCT037 BKN043 13/04
                        Q1006 NOSIG=
201305091520 METAR COR EGLL 091520Z 22022G36KT 9999 SCT040 BKN045 14/04
                        Q1006 NOSIG=
201305091450 METAR COR EGLL 091450Z 22022G34KT 9999 SCT044 14/03 Q1007
                        NOSIG=
201305091420 METAR COR EGLL 091420Z 22024G37KT 9999 SCT044 14/03 Q1007
                        NOSIG=
201305091350 METAR COR EGLL 091350Z 22025G39KT 9999 SCT044 SCT047 14/03
                        Q1007 NOSIG=
201305091320 METAR COR EGLL 091320Z 21020KT 9999 FEW037 SCT044 14/05 Q1007
                        NOSIG=
201305091250 METAR COR EGLL 091250Z 21020G30KT 9999 SCT032 13/05 Q1008
                        NOSIG=
201305091220 METAR COR EGLL 091220Z 21017KT 9999 FEW025 SCT027 11/08 Q1008
                        RESHRA NOSIG=
201305091150 METAR COR EGLL 091150Z 21019KT 9999 SCT026 13/06 Q1008 TEMPO
                        SHRA=
201305091120 METAR COR EGLL 091120Z 21015KT 9999 FEW026 SCT040 12/07 Q1008
                        RESHRA NOSIG=
201305091050 METAR COR EGLL 091050Z 23021KT 9999 5000SE VCSH BKN034 11/06
                        Q1009 NOSIG=
201305091020 METAR COR EGLL 091020Z 21018G29KT 9999 SCT041 SCT047 14/03
                        Q1009 NOSIG=
201305090950 METAR COR EGLL 090950Z 22018KT 9999 SCT040 SCT045 14/03 Q1009
                        NOSIG=
201305090920 METAR COR EGLL 090920Z 21017G29KT 9999 SCT038 SCT048 13/03
                        Q1009 NOSIG=
201305090850 METAR COR EGLL 090850Z 21015G25KT 9999 SCT032 SCT039 12/03
                        Q1009 NOSIG=
201305090820 METAR COR EGLL 090820Z 20015KT 9999 SCT028 12/04 Q1010 BECMG
                        20018G30KT=
201305090750 METAR COR EGLL 090750Z 21014KT 9999 SCT024 SCT031 11/05 Q1010
                        BECMG 20018G30KT=
201305090720 METAR COR EGLL 090720Z 20015KT 9999 FEW020 SCT024 11/06 Q1010
                        NOSIG=
201305090650 METAR COR EGLL 090650Z 20011KT 9999 SCT019 10/06 Q1010 BECMG
                        21015G25KT=
201305090620 METAR COR EGLL 090620Z 21012KT 190V250 CAVOK 09/06 Q1011
                        BECMG 21015G25KT=
201305090550 METAR COR EGLL 090550Z 21010KT CAVOK 09/05 Q1011 BECMG 21015G25KT=
201305090520 METAR COR EGLL 090520Z 20009KT 180V250 CAVOK 08/05 Q1010
                        NOSIG=
201305090450 METAR COR EGLL 090450Z 21008KT CAVOK 07/05 Q1010 NOSIG=
201305090420 METAR COR EGLL 090420Z 21008KT CAVOK 07/05 Q1011 NOSIG=
201305090350 METAR COR EGLL 090350Z 21007KT CAVOK 07/05 Q1011 NOSIG=
201305090320 METAR COR EGLL 090320Z 21006KT CAVOK 07/05 Q1011 NOSIG=
201305090250 METAR COR EGLL 090250Z 21006KT CAVOK 07/05 Q1011 NOSIG=
201305090220 METAR COR EGLL 090220Z 21006KT CAVOK 07/05 Q1010 NOSIG=
201305090150 METAR COR EGLL 090150Z 21006KT CAVOK 08/05 Q1010 NOSIG=
201305090120 METAR EGLL 090120Z AUTO 22008KT 9999 NCD 08/04 Q1010=
201305090050 METAR EGLL 090050Z AUTO 25009KT 9999 NCD 09/04 Q1010=
201305090020 METAR EGLL 090020Z AUTO 24010KT 9999 NCD 09/03 Q1010=
201305082350 METAR COR EGLL 082350Z 25010KT CAVOK 10/03 Q1010 NOSIG=
201305082320 METAR COR EGLL 082320Z 25008KT 9999 FEW030 09/06 Q1010 NOSIG=
201305082250 METAR COR EGLL 082250Z 25006KT 9999 FEW030 10/06 Q1010 NOSIG=
201305082220 METAR COR EGLL 082220Z 28007KT CAVOK 10/06 Q1009 NOSIG=
201305082150 METAR COR EGLL 082150Z 28012KT CAVOK 10/07 Q1009 NOSIG=
201305082120 METAR COR EGLL 082120Z 27012KT CAVOK 11/07 Q1009 NOSIG=
201305082050 METAR COR EGLL 082050Z 27012KT 9999 FEW048 12/07 Q1008 NOSIG=
201305082020 METAR COR EGLL 082020Z 27011KT 9999 FEW020 SCT038 12/08 Q1008
                        NOSIG=
201305081950 METAR COR EGLL 081950Z 27016KT 9999 FEW012 SCT020 BKN030
                        13/09 Q1007 NOSIG=
201305081920 METAR EGLL 081920Z 23013KT 9999 -RADZ FEW012 BKN018 14/11
                        Q1007=
201305081850 METAR COR EGLL 081850Z 22012KT 9999 FEW011 BKN014 14/11 Q1006
                        TEMPO 4000 RADZ BKN009=
201305081820 METAR COR EGLL 081820Z 22013KT 9999 -SHRA FEW013 BKN018 14/11
                        Q1006 TEMPO 4000 RADZ BKN012=
201305081750 METAR COR EGLL 081750Z 22012KT 9999 VCSH FEW016 BKN018 15/11
                        Q1006 TEMPO -SHRA BKN012=
201305081720 METAR COR EGLL 081720Z 22014KT 180V250 9999 FEW018 BKN020
                        15/10 Q1006 TEMPO -SHRA BKN012=
201305081650 METAR COR EGLL 081650Z 22014KT 9999 SCT022 BKN027 15/10 Q1006
                        NOSIG=
201305081620 METAR COR EGLL 081620Z 23014KT 200V260 9999 SCT025 BKN036
                        16/09 Q1006 TEMPO -SHRA BKN012=
201305081550 METAR COR EGLL 081550Z 23016KT 9999 BKN032 17/09 Q1006 TEMPO
                        -SHRA BKN014=
201305081520 METAR COR EGLL 081520Z 22014KT 190V260 9999 FEW030 SCT033
                        18/09 Q1006 NOSIG=
201305081450 METAR COR EGLL 081450Z 23014KT 160V250 9999 BKN030 17/09
                        Q1006 NOSIG=
201305081420 METAR COR EGLL 081420Z 23015KT 9999 BKN029 SCT031 17/09 Q1006
                        NOSIG=
201305081350 METAR COR EGLL 081350Z 24015KT 9999 SCT026 SCT031 16/09 Q1006
                        NOSIG=
201305081320 METAR COR EGLL 081320Z 23013KT 9999 SCT026 BKN033 15/09 Q1006
                        NOSIG=
201305081250 METAR COR EGLL 081250Z 23015KT 9999 BKN022 BKN029 15/10 Q1006
                        NOSIG=
201305081220 METAR COR EGLL 081220Z 21011KT 9999 BKN023 BKN026 15/10 Q1006
                        NOSIG=
201305081150 METAR EGLL 081150Z 23014KT 190V250 9999 BKN019 BKN026 15/10
                        Q1006=
201305081120 METAR COR EGLL 081120Z 22012KT 190V250 9999 BKN019 BKN026
                        15/10 Q1006 NOSIG=
201305081050 METAR COR EGLL 081050Z 22013KT 9999 BKN018 BKN026 15/10 Q1006
                        NOSIG=
201305081020 METAR COR EGLL 081020Z 23015KT 9999 BKN019 BKN026 15/10 Q1006
                        NOSIG=
201305080950 METAR COR EGLL 080950Z 22011KT 9999 FEW016 SCT019 BKN024
                        15/11 Q1006 NOSIG=
201305080920 METAR COR EGLL 080920Z 22013KT 9999 BKN015 BKN021 15/12 Q1006
                        NOSIG=
201305080850 METAR COR EGLL 080850Z 21008KT 9999 BKN010 BKN020 14/12 Q1006
                        BECMG SCT014 BKN020=
201305080820 METAR COR EGLL 080820Z 20009KT 9999 BKN006 BKN012 14/13 Q1006
                        BECMG SCT008 BKN012=
201305080750 METAR COR EGLL 080750Z 17008KT 6000 BKN005 BKN009 14/13 Q1006
                        BECMG SCT008 BKN010=
201305080720 METAR COR EGLL 080720Z 16008KT 4500 -DZ OVC006 13/12 Q1006
                        BECMG 6000 FEW006 BKN010=
201305080650 METAR COR EGLL 080650Z 16007KT 4500 HZ BKN006 13/12 Q1006
                        NOSIG=
201305080620 METAR COR EGLL 080620Z 15006KT 4400 HZ BKN009 13/08 Q1006
                        NOSIG=
201305080550 METAR COR EGLL 080550Z 15006KT 5000 -RA SCT015 BKN027 12/10
                        Q1006 TEMPO 3000 RADZ BKN010=
201305080520 METAR COR EGLL 080520Z 13006KT 7000 -RA FEW021 SCT030 12/09
                        Q1006 TEMPO 4000 RADZ BKN008=
201305080450 METAR COR EGLL 080450Z 16005KT 9000 -RA FEW017 13/09 Q1007
                        TEMPO 4000 RADZ BKN009=
201305080420 METAR COR EGLL 080420Z 17006KT 9999 SCT017 13/08 Q1007 TEMPO
                        4000 RADZ BKN009=
201305080350 METAR COR EGLL 080350Z 13004KT 100V180 9000 -RA NSC 13/09
                        Q1007 TEMPO 4000 RADZ BKN009=
201305080320 METAR COR EGLL 080320Z 12005KT 090V180 7000 -RA NSC 13/09
                        Q1008 TEMPO 4000 RADZ BKN009=
201305080250 METAR EGLL 080250Z 09007KT 8000 NSC 13/08 Q1008=
201305080220 METAR COR EGLL 080220Z 10006KT 8000 NSC 13/08 Q1008 TEMPO
                        RA BKN010=
201305080150 METAR EGLL 080150Z 09006KT CAVOK 13/08 Q1009=
201305080120 METAR EGLL 080120Z AUTO 08006KT 9999 NCD 12/07 Q1009=
201305080050 METAR EGLL 080050Z AUTO 09005KT 9999 NCD 12/05 Q1010=
201305080020 METAR EGLL 080020Z AUTO 08004KT 9999 NCD 12/07 Q1010=
201305072350 METAR COR EGLL 072350Z 09005KT CAVOK 13/07 Q1011 NOSIG=
201305072320 METAR COR EGLL 072320Z 08005KT CAVOK 12/06 Q1011 NOSIG=
201305072250 METAR COR EGLL 072250Z 10006KT CAVOK 13/06 Q1011 NOSIG=
201305072220 METAR COR EGLL 072220Z 13006KT CAVOK 13/06 Q1012 NOSIG=
201305072150 METAR COR EGLL 072150Z 10007KT CAVOK 14/06 Q1012 NOSIG=
201305072120 METAR COR EGLL 072120Z 10008KT CAVOK 15/06 Q1013 NOSIG=
201305072050 METAR COR EGLL 072050Z 11008KT CAVOK 15/06 Q1013 NOSIG=
201305072020 METAR COR EGLL 072020Z 11007KT CAVOK 15/06 Q1013 NOSIG=
201305071950 METAR COR EGLL 071950Z 10008KT CAVOK 16/06 Q1013 NOSIG=
201305071920 METAR COR EGLL 071920Z 09008KT CAVOK 17/06 Q1013 NOSIG=
201305071850 METAR COR EGLL 071850Z 10008KT CAVOK 18/07 Q1013 NOSIG=
201305071820 METAR COR EGLL 071820Z 09009KT CAVOK 18/07 Q1013 NOSIG=
201305071750 METAR EGLL 071750Z 11010KT CAVOK 19/07 Q1013=
201305071720 METAR EGLL 071720Z 10009KT 060V130 CAVOK 20/07 Q1014=
201305071650 METAR COR EGLL 071650Z 10011KT CAVOK 20/08 Q1014 NOSIG=
201305071620 METAR COR EGLL 071620Z 10011KT CAVOK 20/08 Q1014 NOSIG=
201305071550 METAR COR EGLL 071550Z 09012KT CAVOK 20/09 Q1014 NOSIG=
201305071520 METAR COR EGLL 071520Z 09012KT CAVOK 21/09 Q1015 NOSIG=
201305071450 METAR COR EGLL 071450Z 08010KT 050V130 CAVOK 21/09 Q1015
                        NOSIG=
201305071420 METAR COR EGLL 071420Z 09011KT CAVOK 20/08 Q1015 NOSIG=
201305071350 METAR COR EGLL 071350Z 11010KT 070V140 CAVOK 21/07 Q1015
                        NOSIG=
201305071320 METAR COR EGLL 071320Z 16008KT 110V200 CAVOK 22/06 Q1016
                        NOSIG=
201305071250 METAR COR EGLL 071250Z 13007KT 100V160 CAVOK 22/05 Q1016
                        NOSIG=
201305071220 METAR COR EGLL 071220Z 16009KT 110V200 CAVOK 22/05 Q1016
                        NOSIG=
201305071150 METAR COR EGLL 071150Z 13006KT 090V170 CAVOK 21/05 Q1017
                        NOSIG=
201305071120 METAR COR EGLL 071120Z 13007KT 080V200 CAVOK 21/05 Q1017
                        NOSIG=
201305071050 METAR COR EGLL 071050Z 13006KT 070V180 CAVOK 20/06 Q1017
                        NOSIG=
201305071020 METAR COR EGLL 071020Z 09006KT 020V140 CAVOK 20/05 Q1017
                        NOSIG=
201305070950 METAR COR EGLL 070950Z 13008KT CAVOK 19/06 Q1017 NOSIG=
201305070920 METAR COR EGLL 070920Z 11007KT 070V140 CAVOK 18/07 Q1017
                        NOSIG=
201305070850 METAR COR EGLL 070850Z 09006KT 040V120 CAVOK 18/07 Q1018
                        NOSIG=
201305070820 METAR COR EGLL 070820Z 09006KT 060V120 CAVOK 17/07 Q1018
                        NOSIG=
201305070750 METAR COR EGLL 070750Z 08005KT CAVOK 16/07 Q1018 NOSIG=
201305070720 METAR COR EGLL 070720Z 09004KT CAVOK 14/08 Q1018 NOSIG=
201305070650 METAR COR EGLL 070650Z 09002KT CAVOK 14/07 Q1018 NOSIG=
201305070620 METAR COR EGLL 070620Z VRB02KT CAVOK 12/08 Q1018 NOSIG=
201305070550 METAR COR EGLL 070550Z 00000KT CAVOK 10/07 Q1018 NOSIG=
201305070520 METAR COR EGLL 070520Z 00000KT CAVOK 09/07 Q1018 NOSIG=
201305070450 METAR COR EGLL 070450Z 36002KT CAVOK 08/06 Q1018 NOSIG=
201305070420 METAR COR EGLL 070420Z 00000KT CAVOK 09/06 Q1018 NOSIG=
201305070350 METAR COR EGLL 070350Z 00000KT CAVOK 09/06 Q1018 NOSIG=
201305070320 METAR COR EGLL 070320Z 07002KT CAVOK 09/06 Q1018 NOSIG=
201305070250 METAR COR EGLL 070250Z 00000KT CAVOK 10/06 Q1018 NOSIG=
201305070220 METAR EGLL 070220Z AUTO VRB02KT 9999 NCD 09/06 Q1018=
201305070150 METAR EGLL 070150Z AUTO 00000KT 9999 NCD 10/06 Q1018=
201305070120 METAR EGLL 070120Z AUTO 00000KT 9999 NCD 10/06 Q1018=
201305070050 METAR COR EGLL 070050Z 00000KT CAVOK 11/06 Q1018 NOSIG=
201305070020 METAR COR EGLL 070020Z 07002KT CAVOK 11/06 Q1019 NOSIG=
201305062350 METAR COR EGLL 062350Z 18002KT CAVOK 12/05 Q1019 NOSIG=
201305062320 METAR COR EGLL 062320Z 17002KT CAVOK 13/05 Q1019 NOSIG=
201305062250 METAR COR EGLL 062250Z 20003KT CAVOK 13/05 Q1019 NOSIG=
201305062220 METAR COR EGLL 062220Z 18005KT 170V240 CAVOK 14/05 Q1019
                        NOSIG=
201305062150 METAR COR EGLL 062150Z 18006KT 120V240 CAVOK 14/05 Q1019
                        NOSIG=
201305062120 METAR COR EGLL 062120Z 20006KT 160V260 CAVOK 14/05 Q1019
                        NOSIG=
201305062050 METAR COR EGLL 062050Z 20007KT 150V250 CAVOK 15/06 Q1019
                        NOSIG=
201305062020 METAR COR EGLL 062020Z 20008KT 160V240 CAVOK 15/06 Q1018
                        NOSIG=
201305061950 METAR COR EGLL 061950Z 21008KT CAVOK 16/06 Q1018 NOSIG=
201305061920 METAR COR EGLL 061920Z 20009KT CAVOK 17/07 Q1018 NOSIG=
201305061850 METAR COR EGLL 061850Z 20010KT 180V250 CAVOK 18/07 Q1018
                        NOSIG=
201305061820 METAR COR EGLL 061820Z 20010KT 170V240 CAVOK 19/07 Q1017
                        NOSIG=
201305061750 METAR COR EGLL 061750Z 18006KT 120V240 CAVOK 20/07 Q1018
                        NOSIG=
201305061720 METAR COR EGLL 061720Z 19007KT 150V240 CAVOK 20/07 Q1018
                        NOSIG=
201305061650 METAR COR EGLL 061650Z 19006KT 120V250 CAVOK 21/07 Q1018
                        NOSIG=
201305061620 METAR COR EGLL 061620Z 19007KT 150V230 CAVOK 21/07 Q1018
                        NOSIG=
201305061550 METAR EGLL 061550Z 19006G18KT 130V260 CAVOK 21/07 Q1018=
201305061520 METAR COR EGLL 061520Z VRB06KT CAVOK 22/08 Q1018 NOSIG=
201305061450 METAR COR EGLL 061450Z VRB06KT 9999 FEW049 21/07 Q1019 NOSIG=
201305061420 METAR COR EGLL 061420Z VRB03KT 9999 FEW049 21/07 Q1019 NOSIG=
201305061350 METAR COR EGLL 061350Z 21004KT 120V290 9999 FEW049 21/08
                        Q1019 NOSIG=
201305061320 METAR EGLL 061320Z VRB06KT 9999 FEW047 21/08 Q1019=
201305061250 METAR COR EGLL 061250Z VRB04KT 9999 FEW047 20/08 Q1020 NOSIG=
201305061220 METAR COR EGLL 061220Z 23007KT 150V290 9999 SCT044 20/08
                        Q1020 NOSIG=
201305061150 METAR COR EGLL 061150Z VRB04KT 9999 SCT043 20/09 Q1020 NOSIG=
201305061120 METAR COR EGLL 061120Z VRB03KT 9999 SCT048 19/08 Q1020 NOSIG=
201305061050 METAR COR EGLL 061050Z VRB04KT 9999 SCT042 18/08 Q1020 NOSIG=
201305061020 METAR COR EGLL 061020Z VRB04KT 9999 SCT042 19/08 Q1021 NOSIG=
201305060950 METAR COR EGLL 060950Z 11004KT 050V160 9999 FEW034 18/09
                        Q1021 NOSIG=
201305060920 METAR COR EGLL 060920Z VRB03KT 9999 FEW036 18/09 Q1021 NOSIG=
201305060850 METAR COR EGLL 060850Z VRB03KT 9999 FEW030 17/09 Q1021 NOSIG=
201305060820 METAR COR EGLL 060820Z VRB03KT 9999 FEW030 17/09 Q1021 NOSIG=
201305060750 METAR COR EGLL 060750Z VRB03KT 9999 FEW049 15/09 Q1021 NOSIG=
201305060720 METAR COR EGLL 060720Z VRB02KT 9999 FEW048 14/09 Q1021 NOSIG=
201305060650 METAR COR EGLL 060650Z 31003KT 9999 FEW048 12/08 Q1021 NOSIG=
201305060620 METAR COR EGLL 060620Z 31004KT 9999 FEW048 12/09 Q1021 NOSIG=
201305060550 METAR COR EGLL 060550Z 31003KT 9999 SCT049 12/08 Q1021 NOSIG=
201305060520 METAR COR EGLL 060520Z 31002KT 9999 SCT049 11/08 Q1021 NOSIG=
201305060450 METAR COR EGLL 060450Z 32003KT 9999 SCT049 11/08 Q1021 NOSIG=
201305060420 METAR COR EGLL 060420Z VRB03KT 9999 SCT049 12/08 Q1021 NOSIG=
201305060350 METAR COR EGLL 060350Z 23003KT 9999 BKN048 11/08 Q1021 NOSIG=
201305060320 METAR COR EGLL 060320Z 27002KT 9999 BKN049 11/08 Q1021 NOSIG=
201305060250 METAR COR EGLL 060250Z 26003KT 9999 BKN048 12/08 Q1021 NOSIG=
201305060220 METAR EGLL 060220Z AUTO 27003KT 9999 BKN049/// 12/08 Q1021=
201305060150 METAR EGLL 060150Z AUTO 28004KT 9999 OVC045/// 12/08 Q1021=
201305060120 METAR EGLL 060120Z AUTO 26004KT 9999 BKN043/// BKN049///
                        12/08 Q1021=
201305060050 METAR COR EGLL 060050Z VRB03KT 9999 SCT043 12/08 Q1021 NOSIG=
201305060020 METAR COR EGLL 060020Z 22004KT CAVOK 12/08 Q1022 NOSIG=
201305052350 METAR COR EGLL 052350Z 22005KT CAVOK 12/08 Q1022 NOSIG=
201305052320 METAR COR EGLL 052320Z 21004KT CAVOK 13/08 Q1022 NOSIG=
201305052250 METAR COR EGLL 052250Z 21004KT CAVOK 14/09 Q1022 NOSIG=
201305052220 METAR COR EGLL 052220Z 23007KT 9999 FEW049 14/09 Q1022 NOSIG=
201305052150 METAR COR EGLL 052150Z 23004KT 200V260 9999 SCT049 14/09
                        Q1022 NOSIG=
201305052120 METAR COR EGLL 052120Z 24006KT 9999 BKN049 15/09 Q1022 NOSIG=
201305052050 METAR COR EGLL 052050Z 23008KT 9999 FEW049 16/10 Q1022 NOSIG=
201305052020 METAR COR EGLL 052020Z 21007KT 9999 FEW045 BKN048 16/10 Q1021
                        NOSIG=
201305051950 METAR COR EGLL 051950Z 19007KT 150V210 9999 FEW045 16/10
                        Q1021 NOSIG=
201305051920 METAR COR EGLL 051920Z 19008KT 170V240 9999 FEW045 16/10
                        Q1021 NOSIG=
201305051850 METAR COR EGLL 051850Z 20009KT 160V230 9999 FEW045 17/10
                        Q1021 NOSIG=
201305051820 METAR COR EGLL 051820Z 21005KT 160V280 9999 FEW044 17/09
                        Q1021 NOSIG=
201305051750 METAR COR EGLL 051750Z 27005KT 9999 FEW042 18/09 Q1021 NOSIG=
201305051720 METAR COR EGLL 051720Z 24006KT 190V310 9999 FEW043 18/09
                        Q1021 NOSIG=
201305051650 METAR COR EGLL 051650Z 22005KT 170V310 9999 FEW043 18/09
                        Q1021 NOSIG=
201305051620 METAR COR EGLL 051620Z 21006KT 160V250 9999 FEW043 19/09
                        Q1021 NOSIG=
201305051550 METAR COR EGLL 051550Z 21004KT 160V300 9999 FEW043 19/09
                        Q1021 NOSIG=
201305051520 METAR COR EGLL 051520Z 25006KT 200V290 9999 BKN049 18/09
                        Q1021 NOSIG=
201305051450 METAR COR EGLL 051450Z 23006KT 180V270 9999 BKN049 18/09
                        Q1022 NOSIG=
201305051420 METAR COR EGLL 051420Z 23006KT 170V290 9999 OVC045 19/09
                        Q1022 NOSIG=
201305051350 METAR COR EGLL 051350Z 26006KT 210V300 9999 SCT036 SCT042
                        19/09 Q1022 NOSIG=
201305051320 METAR COR EGLL 051320Z 24008KT 190V280 9999 FEW033 SCT037
                        18/09 Q1022 NOSIG=
201305051250 METAR COR EGLL 051250Z 24006KT 200V280 9999 SCT033 SCT038
                        18/09 Q1022 NOSIG=
201305051220 METAR COR EGLL 051220Z 27006KT 210V310 9999 SCT029 SCT034
                        17/09 Q1022 NOSIG=
201305051150 METAR COR EGLL 051150Z 27009KT 230V300 9999 SCT029 BKN035
                        16/09 Q1023 NOSIG=
201305051120 METAR COR EGLL 051120Z 29008KT 240V320 9999 SCT028 BKN034
                        16/09 Q1023 NOSIG=
201305051050 METAR COR EGLL 051050Z 26006KT 210V300 9999 SCT026 BKN036
                        15/09 Q1023 NOSIG=
201305051020 METAR COR EGLL 051020Z 27006KT 190V310 9999 SCT025 BKN029
                        16/08 Q1023 NOSIG=
201305050950 METAR COR EGLL 050950Z 26005KT 210V300 9999 SCT023 BKN027
                        15/09 Q1023 NOSIG=
201305050920 METAR COR EGLL 050920Z 26006KT 200V300 9999 SCT021 BKN023
                        14/08 Q1023 NOSIG=
201305050850 METAR COR EGLL 050850Z 27007KT 230V310 9999 BKN019 13/08
                        Q1023 NOSIG=
201305050820 METAR COR EGLL 050820Z 27007KT 220V310 9999 BKN017 12/08
                        Q1022 NOSIG=
201305050750 METAR COR EGLL 050750Z 29006KT 250V330 9999 BKN016 12/08
                        Q1022 NOSIG=
201305050720 METAR EGLL 050720Z 27006KT 230V300 9999 BKN015 11/08 Q1022=
201305050650 METAR COR EGLL 050650Z 27005KT 230V300 9999 BKN016 11/08
                        Q1022 NOSIG=
201305050620 METAR COR EGLL 050620Z 30004KT 260V330 9999 BKN017 10/08
                        Q1022 NOSIG=
201305050550 METAR COR EGLL 050550Z 28006KT 9999 SCT011 SCT019 09/07 Q1022
                        NOSIG=
201305050520 METAR COR EGLL 050520Z 24005KT 9999 BKN014 08/05 Q1022 BECMG
                        SCT014=
201305050450 METAR COR EGLL 050450Z 25004KT 9999 BKN015 07/05 Q1022 BECMG
                        BKN012=
201305050420 METAR COR EGLL 050420Z 21004KT CAVOK 07/05 Q1021 BECMG BKN012=
201305050350 METAR COR EGLL 050350Z 21005KT CAVOK 07/05 Q1021 TEMPO BKN012=
201305050320 METAR COR EGLL 050320Z 21004KT CAVOK 08/05 Q1021 TEMPO BKN012=
201305050250 METAR COR EGLL 050250Z 21005KT CAVOK 08/05 Q1021 NOSIG=
201305050220 METAR COR EGLL 050220Z 23005KT CAVOK 09/05 Q1021 NOSIG=
201305050150 METAR EGLL 050150Z AUTO 27004KT 9999 NCD 09/05 Q1021=
201305050120 METAR EGLL 050120Z AUTO 25005KT 9999 NCD 09/05 Q1021=
201305050050 METAR EGLL 050050Z AUTO 28006KT 9999 NCD 09/05 Q1021=
201305050020 METAR EGLL 050020Z 28006KT CAVOK 09/05 Q1021=
201305042350 METAR COR EGLL 042350Z 28008KT CAVOK 09/05 Q1021 NOSIG=
201305042320 METAR COR EGLL 042320Z 27011KT CAVOK 10/05 Q1021 NOSIG=
201305042250 METAR COR EGLL 042250Z 28013KT CAVOK 10/04 Q1021 NOSIG=
201305042220 METAR COR EGLL 042220Z 28010KT CAVOK 11/04 Q1021 NOSIG=
201305042150 METAR COR EGLL 042150Z 27011KT CAVOK 11/04 Q1020 NOSIG=
201305042120 METAR COR EGLL 042120Z 27011KT CAVOK 12/03 Q1020 NOSIG=
201305042050 METAR COR EGLL 042050Z 27012KT CAVOK 12/02 Q1020 NOSIG=
201305042020 METAR COR EGLL 042020Z 27013KT CAVOK 12/02 Q1019 NOSIG=
201305041950 METAR COR EGLL 041950Z 26014KT CAVOK 13/02 Q1019 NOSIG=
201305041920 METAR COR EGLL 041920Z 27010KT CAVOK 14/02 Q1018 NOSIG=
201305041850 METAR COR EGLL 041850Z 26013KT CAVOK 14/03 Q1018 NOSIG=
201305041820 METAR COR EGLL 041820Z 25013KT CAVOK 15/04 Q1018 NOSIG=
201305041750 METAR COR EGLL 041750Z 25014KT CAVOK 15/04 Q1017 NOSIG=
201305041720 METAR COR EGLL 041720Z 26013KT CAVOK 16/03 Q1017 NOSIG=
201305041650 METAR COR EGLL 041650Z 26014KT CAVOK 16/02 Q1017 NOSIG=
201305041620 METAR COR EGLL 041620Z 25016KT CAVOK 16/02 Q1017 NOSIG=
201305041550 METAR COR EGLL 041550Z 25016KT CAVOK 16/03 Q1017 NOSIG=
201305041520 METAR COR EGLL 041520Z 26015KT CAVOK 15/02 Q1016 NOSIG=
201305041450 METAR COR EGLL 041450Z 26018KT 9999 FEW046 16/02 Q1016 NOSIG=
201305041420 METAR COR EGLL 041420Z 27021KT 9999 FEW046 16/02 Q1016 BECMG
                        27011KT=
201305041350 METAR COR EGLL 041350Z 27021G31KT 9999 FEW048 17/03 Q1016
                        BECMG 27012KT=
201305041320 METAR COR EGLL 041320Z 27022KT 9999 SCT038 17/06 Q1015 BECMG
                        27012KT=
201305041250 METAR EGLL 041250Z 26016KT 9999 FEW040 SCT043 16/07 Q1015=
201305041220 METAR COR EGLL 041220Z 25012G23KT 220V280 9999 SCT024 16/10
                        Q1016 NOSIG=
201305041150 METAR COR EGLL 041150Z 22008KT 180V250 9999 SCT024 13/09
                        Q1016 NOSIG=
201305041120 METAR COR EGLL 041120Z 23013KT 190V260 9999 VCSH FEW019 SCT040
                        13/10 Q1016 TEMPO 24015G25KT=
201305041050 METAR COR EGLL 041050Z 23016G27KT 7000 SHRA SCT022 SCT028
                        13/09 Q1016 BECMG NSW=
201305041020 METAR COR EGLL 041020Z 23014KT 200V270 9999 FEW024 SCT030
                        14/08 Q1016 TEMPO 25016G26KT SHRA=
201305040950 METAR COR EGLL 040950Z 23015KT 9999 FEW024 SCT032 13/08 Q1016
                        TEMPO 23016G26KT SHRA=
201305040920 METAR COR EGLL 040920Z 23015KT 200V280 9999 FEW019 SCT029
                        13/08 Q1016 NOSIG=
201305040850 METAR COR EGLL 040850Z 23014KT 9999 FEW018 SCT036 12/08 Q1016
                        NOSIG=
201305040820 METAR COR EGLL 040820Z 23011KT 9999 -SHRA SCT018 SCT045 11/08
                        Q1017 NOSIG=
201305040750 METAR COR EGLL 040750Z 23012KT 9999 -SHRA FEW020 SCT049 12/08
                        Q1017 NOSIG=
201305040720 METAR COR EGLL 040720Z 23011KT 9999 FEW022 SCT040 11/07 Q1017
                        NOSIG=
201305040650 METAR COR EGLL 040650Z 22010KT 9999 FEW015 10/07 Q1017 NOSIG=
201305040620 METAR COR EGLL 040620Z 23012KT 9999 FEW049 10/06 Q1017 NOSIG=
201305040550 METAR COR EGLL 040550Z 23010KT 9999 FEW049 10/06 Q1017 NOSIG=
201305040520 METAR COR EGLL 040520Z 21008KT 180V250 CAVOK 08/05 Q1016
                        NOSIG=
201305040450 METAR COR EGLL 040450Z 22007KT CAVOK 08/05 Q1016 NOSIG=
201305040420 METAR COR EGLL 040420Z 22007KT CAVOK 08/05 Q1016 NOSIG=
201305040350 METAR COR EGLL 040350Z 23007KT CAVOK 08/05 Q1016 NOSIG=
201305040320 METAR COR EGLL 040320Z 22008KT CAVOK 08/05 Q1017 NOSIG=
201305040250 METAR EGLL 040250Z AUTO 22007KT 9999 NCD 08/05 Q1017=
201305040220 METAR EGLL 040220Z AUTO 24009KT 9999 NCD 09/05 Q1017=
201305040150 METAR EGLL 040150Z AUTO 24010KT 9999 NCD 09/05 Q1017=
201305040120 METAR COR EGLL 040120Z 24010KT CAVOK 09/05 Q1017 NOSIG=
201305040050 METAR COR EGLL 040050Z 23010KT CAVOK 10/05 Q1017 NOSIG=
201305040020 METAR COR EGLL 040020Z 25009KT CAVOK 10/04 Q1018 NOSIG=
201305032350 METAR COR EGLL 032350Z 24010KT CAVOK 11/04 Q1018 NOSIG=
201305032320 METAR COR EGLL 032320Z 25010KT CAVOK 11/04 Q1018 NOSIG=
201305032250 METAR COR EGLL 032250Z 26010KT CAVOK 11/04 Q1018 NOSIG=
201305032220 METAR COR EGLL 032220Z 27011KT 9999 FEW040 11/05 Q1018 NOSIG=
201305032150 METAR COR EGLL 032150Z 27009KT 9999 SCT037 12/05 Q1019 NOSIG=
201305032120 METAR COR EGLL 032120Z 27011KT 9999 SCT040 11/04 Q1019 NOSIG=
201305032050 METAR COR EGLL 032050Z 28012KT 9999 FEW042 12/04 Q1018 NOSIG=
201305032020 METAR COR EGLL 032020Z 28012KT 9999 SCT041 12/05 Q1018 NOSIG=
201305031950 METAR COR EGLL 031950Z 28010KT 9999 FEW042 13/05 Q1018 NOSIG=
201305031920 METAR COR EGLL 031920Z 28012KT CAVOK 13/05 Q1018 NOSIG=
201305031850 METAR COR EGLL 031850Z 28012KT CAVOK 14/05 Q1018 NOSIG=
201305031820 METAR COR EGLL 031820Z 27013KT CAVOK 15/05 Q1018 NOSIG=
201305031750 METAR COR EGLL 031750Z 27013KT 9999 FEW044 16/06 Q1018 NOSIG=
201305031720 METAR COR EGLL 031720Z 27013KT 9999 FEW048 17/06 Q1018 NOSIG=
201305031650 METAR COR EGLL 031650Z 29012KT 260V320 9999 FEW046 18/06
                        Q1018 NOSIG=
201305031620 METAR COR EGLL 031620Z 28013KT CAVOK 18/06 Q1018 NOSIG=
201305031550 METAR COR EGLL 031550Z 27012KT CAVOK 18/06 Q1018 NOSIG=
201305031520 METAR COR EGLL 031520Z 29011KT 260V330 CAVOK 19/06 Q1018
                        NOSIG=
201305031450 METAR COR EGLL 031450Z 28009KT 240V320 CAVOK 19/06 Q1018
                        NOSIG=
201305031420 METAR COR EGLL 031420Z 27012KT CAVOK 19/05 Q1018 NOSIG=
201305031350 METAR COR EGLL 031350Z 27010KT 220V330 CAVOK 19/04 Q1019
                        NOSIG=
201305031320 METAR COR EGLL 031320Z 28011KT CAVOK 19/03 Q1019 NOSIG=
201305031250 METAR COR EGLL 031250Z 27011KT 240V300 9999 FEW040 18/01
                        Q1019 NOSIG=
201305031220 METAR COR EGLL 031220Z 26009KT 9999 FEW040 18/03 Q1019 NOSIG=
201305031150 METAR COR EGLL 031150Z 27010KT CAVOK 18/03 Q1020 NOSIG=
201305031120 METAR COR EGLL 031120Z 27008KT 210V300 CAVOK 17/03 Q1020
                        NOSIG=
201305031050 METAR COR EGLL 031050Z 30008KT 270V330 CAVOK 17/04 Q1020
                        NOSIG=
201305031020 METAR COR EGLL 031020Z 27007KT 220V330 CAVOK 16/04 Q1020
                        NOSIG=
201305030950 METAR COR EGLL 030950Z 27007KT 230V310 CAVOK 15/04 Q1020
                        NOSIG=
201305030920 METAR COR EGLL 030920Z 28006KT 220V330 CAVOK 14/04 Q1021
                        NOSIG=
201305030850 METAR COR EGLL 030850Z 27007KT 240V310 CAVOK 13/04 Q1021
                        NOSIG=
201305030820 METAR COR EGLL 030820Z 28005KT 240V300 CAVOK 12/04 Q1021
                        NOSIG=
201305030750 METAR COR EGLL 030750Z 28005KT 240V310 CAVOK 11/03 Q1021
                        NOSIG=
201305030720 METAR EGLL 030720Z VRB03KT CAVOK 10/03 Q1021=
201305030650 METAR COR EGLL 030650Z VRB03KT CAVOK 09/03 Q1021 NOSIG=
201305030620 METAR COR EGLL 030620Z VRB02KT CAVOK 08/04 Q1021 NOSIG=
201305030550 METAR COR EGLL 030550Z 00000KT CAVOK 06/04 Q1021 NOSIG=
201305030520 METAR COR EGLL 030520Z VRB03KT CAVOK 05/02 Q1021 NOSIG=
201305030450 METAR COR EGLL 030450Z VRB03KT CAVOK 05/02 Q1020 NOSIG=
201305030420 METAR COR EGLL 030420Z VRB02KT CAVOK 05/02 Q1020 NOSIG=
201305030350 METAR COR EGLL 030350Z 00000KT CAVOK 05/01 Q1021 NOSIG=
201305030320 METAR COR EGLL 030320Z 00000KT CAVOK 05/01 Q1021 NOSIG=
201305030250 METAR COR EGLL 030250Z 35002KT CAVOK 07/02 Q1021 NOSIG=
201305030220 METAR COR EGLL 030220Z 00000KT CAVOK 06/01 Q1021 NOSIG=
201305030150 METAR COR EGLL 030150Z 00000KT CAVOK 07/01 Q1021 NOSIG=
201305030120 METAR EGLL 030120Z AUTO 35002KT 9999 NCD 07/00 Q1021=
201305030050 METAR EGLL 030050Z AUTO 00000KT 9999 NCD 08/01 Q1022=
201305030020 METAR EGLL 030020Z AUTO 00000KT 9999 NCD 08/01 Q1022=
201305022350 METAR COR EGLL 022350Z 00000KT CAVOK 08/01 Q1022 NOSIG=
201305022320 METAR COR EGLL 022320Z 18002KT CAVOK 09/01 Q1022 NOSIG=
201305022250 METAR COR EGLL 022250Z 16004KT CAVOK 09/01 Q1023 NOSIG=
201305022220 METAR COR EGLL 022220Z 14004KT 060V160 CAVOK 09/01 Q1023
                        NOSIG=
201305022150 METAR COR EGLL 022150Z 13006KT CAVOK 09/01 Q1023 NOSIG=
201305022120 METAR COR EGLL 022120Z 11006KT CAVOK 09/01 Q1023 NOSIG=
201305022050 METAR COR EGLL 022050Z 11006KT CAVOK 09/02 Q1022 NOSIG=
201305022020 METAR COR EGLL 022020Z 10007KT CAVOK 09/01 Q1022 NOSIG=
201305021950 METAR COR EGLL 021950Z 10008KT CAVOK 11/01 Q1022 NOSIG=
201305021920 METAR COR EGLL 021920Z 11008KT CAVOK 12/01 Q1022 NOSIG=
201305021850 METAR COR EGLL 021850Z 10009KT CAVOK 13/01 Q1022 NOSIG=
201305021820 METAR COR EGLL 021820Z 10008KT CAVOK 14/01 Q1021 NOSIG=
201305021750 METAR COR EGLL 021750Z 11010KT CAVOK 15/01 Q1021 NOSIG=
201305021720 METAR COR EGLL 021720Z 10007KT CAVOK 16/01 Q1021 NOSIG=
201305021650 METAR COR EGLL 021650Z 36004KT 300V050 CAVOK 17/M02 Q1021
                        NOSIG=
201305021620 METAR COR EGLL 021620Z VRB06KT CAVOK 17/M02 Q1021 NOSIG=
201305021550 METAR COR EGLL 021550Z VRB05KT CAVOK 17/M02 Q1022 NOSIG=
201305021520 METAR COR EGLL 021520Z 03006KT 340V080 CAVOK 17/M02 Q1022
                        NOSIG=
201305021450 METAR COR EGLL 021450Z VRB04KT CAVOK 17/M03 Q1022 NOSIG=
201305021420 METAR COR EGLL 021420Z VRB06KT CAVOK 17/M03 Q1022 NOSIG=
201305021350 METAR COR EGLL 021350Z 03005KT 340V080 CAVOK 17/M05 Q1022
                        NOSIG=
201305021320 METAR COR EGLL 021320Z 05006KT 360V110 CAVOK 17/M05 Q1022
                        NOSIG=
201305021250 METAR COR EGLL 021250Z 05008KT 360V080 CAVOK 17/M05 Q1023
                        NOSIG=
201305021220 METAR COR EGLL 021220Z 03009KT 340V090 CAVOK 16/M07 Q1023
                        NOSIG=
201305021150 METAR COR EGLL 021150Z 04008KT 350V090 CAVOK 16/M07 Q1023
                        NOSIG=
201305021120 METAR COR EGLL 021120Z 04007G18KT 320V090 CAVOK 15/M07 Q1023
                        NOSIG=
201305021050 METAR COR EGLL 021050Z 03009KT 330V070 CAVOK 15/M07 Q1023
                        NOSIG=
201305021020 METAR COR EGLL 021020Z 04009KT 360V080 CAVOK 14/M08 Q1023
                        NOSIG=
201305020950 METAR COR EGLL 020950Z 06007KT 350V110 CAVOK 14/M07 Q1024
                        NOSIG=
201305020920 METAR COR EGLL 020920Z 06009KT 030V090 CAVOK 13/M09 Q1024
                        NOSIG=
201305020850 METAR EGLL 020850Z 04008KT 010V070 CAVOK 13/M09 Q1024=
201305020820 METAR COR EGLL 020820Z 06010KT 020V090 CAVOK 12/M08 Q1024
                        NOSIG=
201305020750 METAR COR EGLL 020750Z 06008KT 020V080 CAVOK 11/M07 Q1024
                        NOSIG=
201305020720 METAR COR EGLL 020720Z 05006KT 020V090 CAVOK 10/M06 Q1024
                        NOSIG=
201305020650 METAR COR EGLL 020650Z 05005KT 010V090 CAVOK 09/M05 Q1023
                        NOSIG=
201305020620 METAR COR EGLL 020620Z 03004KT 350V070 CAVOK 08/M03 Q1023
                        NOSIG=
201305020550 METAR COR EGLL 020550Z VRB02KT CAVOK 07/M02 Q1023 NOSIG=
201305020520 METAR COR EGLL 020520Z 07004KT CAVOK 05/M02 Q1023 NOSIG=
201305020450 METAR COR EGLL 020450Z VRB03KT CAVOK 05/M02 Q1022 NOSIG=
201305020420 METAR EGLL 020420Z 36004KT CAVOK 05/M01 Q1022=
201305020350 METAR COR EGLL 020350Z 04004KT 360V080 CAVOK 06/M01 Q1022
                        NOSIG=
201305020320 METAR COR EGLL 020320Z VRB03KT CAVOK 05/M01 Q1022 NOSIG=
201305020250 METAR COR EGLL 020250Z 03004KT 350V070 CAVOK 06/M01 Q1022
                        NOSIG=
201305020220 METAR COR EGLL 020220Z VRB03KT CAVOK 06/M00 Q1022 NOSIG=
201305020150 METAR COR EGLL 020150Z 36005KT CAVOK 06/M00 Q1023 NOSIG=
201305020120 METAR EGLL 020120Z AUTO VRB03KT 9999 NCD 06/M00 Q1023=
201305020050 METAR EGLL 020050Z AUTO 36003KT 9999 NCD 07/M00 Q1023=
201305020020 METAR EGLL 020020Z AUTO 35004KT 9999 NCD 07/00 Q1023=
201305012350 METAR COR EGLL 012350Z 35004KT CAVOK 07/00 Q1023 NOSIG=
201305012320 METAR COR EGLL 012320Z 35004KT CAVOK 07/00 Q1023 NOSIG=
201305012250 METAR COR EGLL 012250Z 09003KT CAVOK 07/00 Q1023 NOSIG=
201305012220 METAR COR EGLL 012220Z 11006KT 080V150 CAVOK 07/00 Q1023
                        NOSIG=
201305012150 METAR COR EGLL 012150Z 13006KT 080V160 CAVOK 08/00 Q1023
                        NOSIG=
201305012120 METAR COR EGLL 012120Z 10007KT CAVOK 09/00 Q1023 NOSIG=
201305012050 METAR COR EGLL 012050Z 10008KT CAVOK 09/01 Q1023 NOSIG=
201305012020 METAR COR EGLL 012020Z 09006KT CAVOK 10/01 Q1023 NOSIG=
201305011950 METAR COR EGLL 011950Z 08007KT 030V110 CAVOK 12/01 Q1022
                        NOSIG=
201305011920 METAR COR EGLL 011920Z 02006KT CAVOK 13/M03 Q1022 NOSIG=
201305011850 METAR COR EGLL 011850Z 02007KT 340V050 CAVOK 14/M03 Q1022
                        NOSIG=
201305011820 METAR COR EGLL 011820Z 02007KT CAVOK 14/M02 Q1022 NOSIG=
201305011750 METAR COR EGLL 011750Z 04007KT 340V070 CAVOK 15/M02 Q1022
                        NOSIG=
201305011720 METAR COR EGLL 011720Z 02008KT 330V060 CAVOK 15/M01 Q1022
                        NOSIG=
201305011650 METAR COR EGLL 011650Z 03007KT 340V080 CAVOK 16/M00 Q1022
                        NOSIG=
201305011620 METAR COR EGLL 011620Z 02008KT 320V080 CAVOK 16/M00 Q1022
                        NOSIG=
201305011550 METAR COR EGLL 011550Z 02007KT 330V080 CAVOK 16/00 Q1022
                        NOSIG=
201305011520 METAR COR EGLL 011520Z 03008KT 340V080 CAVOK 16/01 Q1022
                        NOSIG=
201305011450 METAR COR EGLL 011450Z 02007KT 330V090 CAVOK 16/01 Q1022
                        NOSIG=
201305011420 METAR COR EGLL 011420Z 04007KT 350V090 CAVOK 16/00 Q1022
                        NOSIG=
201305011350 METAR COR EGLL 011350Z 01006KT 310V060 CAVOK 16/01 Q1022
                        NOSIG=
201305011320 METAR COR EGLL 011320Z VRB05KT CAVOK 15/00 Q1023 NOSIG=
201305011250 METAR COR EGLL 011250Z 07005KT 360V140 CAVOK 15/00 Q1023
                        NOSIG=
201305011220 METAR COR EGLL 011220Z 06007KT 350V120 9999 FEW049 15/01
                        Q1023 NOSIG=
201305011150 METAR COR EGLL 011150Z 06005KT 350V120 CAVOK 14/03 Q1023
                        NOSIG=
201305011120 METAR COR EGLL 011120Z 03006KT 310V070 CAVOK 14/04 Q1024
                        NOSIG=
201305011050 METAR COR EGLL 011050Z 04006KT 300V100 CAVOK 12/04 Q1024
                        NOSIG=
201305011020 METAR COR EGLL 011020Z 05004KT 340V130 CAVOK 11/04 Q1025
                        NOSIG=
201305010950 METAR EGLL 010950Z VRB04KT CAVOK 10/05 Q1025=
201305010920 METAR COR EGLL 010920Z VRB05KT 9999 FEW013 09/05 Q1026 NOSIG=
201305010850 METAR COR EGLL 010850Z 36005KT 310V050 9000 SCT009 08/04
                        Q1026 NOSIG=
201305010820 METAR COR EGLL 010820Z 03005KT 350V070 9000 SCT006 BKN008
                        06/04 Q1026 BECMG SCT010=
201305010750 METAR COR EGLL 010750Z 05004KT 360V090 9000 FEW006 BKN008
                        06/04 Q1026 BECMG SCT010=
201305010720 METAR COR EGLL 010720Z 04005KT 010V090 8000 FEW007 BKN008
                        06/04 Q1026 BECMG SCT010=
201305010650 METAR COR EGLL 010650Z 04005KT 010V070 9000 BKN008 06/04
                        Q1025 BECMG SCT010=
201305010620 METAR COR EGLL 010620Z 06005KT 9000 BKN008 05/04 Q1025 BECMG
                        SCT010=
201305010550 METAR COR EGLL 010550Z 04004KT 350V070 8000 BKN008 05/03
                        Q1025 BECMG BKN010=
201305010520 METAR COR EGLL 010520Z 05004KT 8000 BKN009 05/03 Q1025 BECMG
                        BKN010=
201305010450 METAR COR EGLL 010450Z 06004KT 020V080 8000 BKN008 04/03
                        Q1025 NOSIG=
201305010420 METAR COR EGLL 010420Z 04005KT 9000 BKN009 05/03 Q1025 NOSIG=
201305010350 METAR COR EGLL 010350Z 05004KT 8000 BKN011 04/03 Q1026 TEMPO
                        BKN009=
201305010320 METAR COR EGLL 010320Z 06005KT 9000 SCT011 04/02 Q1026 TEMPO
                        BKN010=
201305010250 METAR COR EGLL 010250Z 05004KT 9000 FEW012 04/02 Q1026 TEMPO
                        BKN010=
201305010220 METAR COR EGLL 010220Z 04004KT CAVOK 04/02 Q1026 TEMPO BKN012=
201305010150 METAR COR EGLL 010150Z 05005KT CAVOK 04/02 Q1026 NOSIG=
201305010120 METAR EGLL 010120Z AUTO 04005KT 9999 NCD 05/02 Q1026=
201305010050 METAR EGLL 010050Z AUTO 04005KT 9999 NCD 05/02 Q1026=
201305010020 METAR EGLL 010020Z AUTO 04004KT 010V070 9999 NCD 06/02 Q1027=
