##########################################################
# Query made at 12/27/2012 10:41:35 UTC
# Time interval: from 09/01/2009 00:00  to 10/01/2009 23:59  UTC
##########################################################

##########################################################
# EGLL, London / Heathrow Airport (United Kingdom)
# WMO index: 03772
# Latitude 51-29N. Longitude 000-27W. Altitude 24 m.
##########################################################

###################################
#  METAR/SPECI from EGLL
###################################
200910012350 METAR COR EGLL 012350Z 29005KT 9999 FEW042 09/04 Q1021 NOSIG=
200910012320 METAR COR EGLL 012320Z 30004KT CAVOK 10/04 Q1021 NOSIG=
200910012250 METAR COR EGLL 012250Z 31005KT 280V340 CAVOK 10/04 Q1021
                        NOSIG=
200910012220 METAR COR EGLL 012220Z 31005KT CAVOK 11/05 Q1021 NOSIG=
200910012150 METAR COR EGLL 012150Z 32005KT CAVOK 11/05 Q1021 NOSIG=
200910012120 METAR COR EGLL 012120Z 33005KT 300V010 CAVOK 12/05 Q1021
                        NOSIG=
200910012050 METAR COR EGLL 012050Z 34004KT 300V010 CAVOK 13/05 Q1021
                        NOSIG=
200910012020 METAR COR EGLL 012020Z 31004KT CAVOK 13/05 Q1021 NOSIG=
200910011950 METAR COR EGLL 011950Z 31003KT CAVOK 14/05 Q1020 NOSIG=
200910011920 METAR COR EGLL 011920Z 31004KT CAVOK 14/05 Q1020 NOSIG=
200910011850 METAR COR EGLL 011850Z AUTO 31004KT 9999NDV NCD 15/05 Q1020=
200910011820 METAR COR EGLL 011820Z 32004KT CAVOK 15/05 Q1020 NOSIG=
200910011750 METAR COR EGLL 011750Z 32005KT CAVOK 15/05 Q1020 NOSIG=
200910011720 METAR COR EGLL 011720Z 32006KT 9999 FEW049 16/05 Q1019 NOSIG=
200910011650 METAR COR EGLL 011650Z 31006KT 9999 FEW049 16/05 Q1019 NOSIG=
200910011620 METAR COR EGLL 011620Z 31005KT 270V350 9999 FEW049 17/05
                        Q1019 NOSIG=
200910011550 METAR EGLL 011550Z AUTO 36004KT 300V060 9999NDV NCD 17/05
                        Q1019=
200910011520 METAR COR EGLL 011520Z 34005KT 280V040 9999 FEW048 17/04
                        Q1019 NOSIG=
200910011450 METAR COR EGLL 011450Z 02006KT 300V070 9999 FEW048 17/05
                        Q1019 NOSIG=
200910011420 METAR COR EGLL 011420Z 32007KT 9999 FEW048 17/05 Q1019 NOSIG=
200910011350 METAR COR EGLL 011350Z 01005KT 300V070 9999 FEW046 17/05
                        Q1019 NOSIG=
200910011320 METAR COR EGLL 011320Z 36005KT 290V070 9999 FEW045 17/05
                        Q1019 NOSIG=
200910011250 METAR COR EGLL 011250Z 33007KT 290V020 9999 FEW044 17/05
                        Q1019 NOSIG=
200910011220 METAR COR EGLL 011220Z 36008KT 330V030 9999 SCT039 17/05
                        Q1019 NOSIG=
200910011150 METAR COR EGLL 011150Z 34006KT 280V040 9999 SCT042 17/06
                        Q1019 NOSIG=
200910011120 METAR COR EGLL 011120Z 35007KT 310V030 9999 FEW041 17/05
                        Q1019 NOSIG=
200910011050 METAR COR EGLL 011050Z 34009KT 290V020 9999 FEW041 17/05
                        Q1019 NOSIG=
200910011020 METAR COR EGLL 011020Z 34009KT 300V020 9999 FEW037 16/05
                        Q1019 NOSIG=
200910010950 METAR COR EGLL 010950Z 33010KT 290V010 9999 FEW034 16/05
                        Q1019 NOSIG=
200910010920 METAR COR EGLL 010920Z 32010KT 290V360 9999 FEW034 15/06
                        Q1019 NOSIG=
200910010850 METAR COR EGLL 010850Z 33008KT 280V020 9999 FEW038 15/06
                        Q1018 NOSIG=
200910010820 METAR COR EGLL 010820Z 34006KT 290V020 9999 FEW038 14/08
                        Q1018 NOSIG=
200910010750 METAR COR EGLL 010750Z 31008KT 9999 FEW037 14/09 Q1018 NOSIG=
200910010720 METAR COR EGLL 010720Z 30006KT 9999 SCT038 14/10 Q1018 NOSIG=
200910010650 METAR COR EGLL 010650Z 30006KT 9999 FEW019 SCT025 14/10 Q1018
                        NOSIG=
200910010620 METAR COR EGLL 010620Z 29007KT 260V330 9999 BKN019 13/10
                        Q1017 NOSIG=
200910010550 METAR COR EGLL 010550Z 28007KT 9999 FEW020 14/10 Q1017 NOSIG=
200910010520 METAR COR EGLL 010520Z 28005KT CAVOK 14/10 Q1017 NOSIG=
200910010450 METAR COR EGLL 010450Z 29007KT CAVOK 14/10 Q1017 NOSIG=
200910010420 METAR COR EGLL 010420Z 29006KT CAVOK 14/10 Q1016 NOSIG=
200910010350 METAR COR EGLL 010350Z 27006KT 9999 SCT044 14/10 Q1016 NOSIG=
200910010320 METAR EGLL 010320Z 28006KT 9999 SCT044 14/10 Q1016=
200910010250 METAR EGLL 010250Z 29006KT CAVOK 14/10 Q1016=
200910010220 METAR EGLL 010220Z NIL=
200910010150 METAR COR EGLL 010150Z 28006KT CAVOK 14/11 Q1016 NOSIG=
200910010120 METAR COR EGLL 010120Z 27006KT CAVOK 13/11 Q1017 NOSIG=
200910010050 METAR COR EGLL 010050Z 27007KT CAVOK 13/11 Q1017 NOSIG=
200910010020 METAR EGLL 010020Z 27005KT CAVOK 14/12 Q1017=
200909302350 METAR EGLL 302350Z 28005KT CAVOK 14/12 Q1017=
200909302320 METAR COR EGLL 302320Z 27004KT CAVOK 15/12 Q1017 NOSIG=
200909302250 METAR EGLL 302250Z 27006KT CAVOK 15/12 Q1017=
200909302220 METAR COR EGLL 302220Z 28007KT CAVOK 15/12 Q1017 NOSIG=
200909302150 METAR COR EGLL 302150Z 28007KT CAVOK 16/12 Q1017 NOSIG=
200909302120 METAR COR EGLL 302120Z 28007KT CAVOK 16/12 Q1017 NOSIG=
200909302050 METAR COR EGLL 302050Z 28006KT CAVOK 16/12 Q1017 NOSIG=
200909302020 METAR COR EGLL 302020Z 28007KT CAVOK 16/12 Q1017 NOSIG=
200909301950 METAR COR EGLL 301950Z 28006KT CAVOK 16/12 Q1017 NOSIG=
200909301920 METAR COR EGLL 301920Z 26007KT CAVOK 16/12 Q1017 NOSIG=
200909301850 METAR COR EGLL 301850Z 28006KT CAVOK 16/12 Q1017 NOSIG=
200909301820 METAR COR EGLL 301820Z 28006KT CAVOK 16/12 Q1017 NOSIG=
200909301750 METAR COR EGLL 301750Z 27006KT CAVOK 17/12 Q1017 NOSIG=
200909301720 METAR COR EGLL 301720Z 30003KT CAVOK 17/12 Q1017 NOSIG=
200909301650 METAR COR EGLL 301650Z 30005KT CAVOK 17/11 Q1017 NOSIG=
200909301620 METAR COR EGLL 301620Z 30005KT CAVOK 18/11 Q1017 NOSIG=
200909301550 METAR COR EGLL 301550Z 29004KT 250V330 CAVOK 18/11 Q1017
                        NOSIG=
200909301520 METAR COR EGLL 301520Z 29006KT 9999 SCT041 18/12 Q1018 NOSIG=
200909301450 METAR COR EGLL 301450Z 31005KT 280V350 9999 SCT041 18/12
                        Q1018 NOSIG=
200909301420 METAR COR EGLL 301420Z 34006KT 290V020 9999 BKN035 18/12
                        Q1018 NOSIG=
200909301350 METAR COR EGLL 301350Z 33007KT 300V360 9999 BKN035 19/11
                        Q1018 NOSIG=
200909301320 METAR COR EGLL 301320Z 32006KT 280V360 9999 FEW018 BKN037
                        19/11 Q1018 NOSIG=
200909301250 METAR COR EGLL 301250Z 30007KT 270V330 9999 FEW018 BKN034
                        19/12 Q1019 NOSIG=
200909301220 METAR COR EGLL 301220Z 30006KT 9999 FEW015 BKN033 18/12 Q1019
                        NOSIG=
200909301150 METAR COR EGLL 301150Z 30006KT 270V340 9999 SCT014 BKN034
                        18/13 Q1019 NOSIG=
200909301120 METAR COR EGLL 301120Z 28006KT 9999 SCT009 BKN035 17/13 Q1020
                        NOSIG=
200909301050 METAR COR EGLL 301050Z 27007KT 9999 SCT010 BKN033 16/14 Q1020
                        TEMPO BKN009=
200909301020 METAR COR EGLL 301020Z 26007KT 8000 -RA FEW005 SCT010 BKN031
                        15/14 Q1020 TEMPO BKN009=
200909300950 METAR COR EGLL 300950Z 27008KT 6000 -DZ FEW005 SCT010 BKN025
                        15/14 Q1020 TEMPO BKN012=
200909300920 METAR COR EGLL 300920Z 28007KT 5000 -RADZ FEW007 SCT010 BKN025
                        15/14 Q1020 TEMPO BKN012=
200909300850 METAR COR EGLL 300850Z 29007KT 8000 -RA FEW010 BKN027 15/13
                        Q1020 NOSIG=
200909300820 METAR COR EGLL 300820Z 29005KT 260V330 9999 FEW025 BKN028
                        16/12 Q1020 NOSIG=
200909300750 METAR COR EGLL 300750Z 28005KT 9999 FEW024 BKN029 15/12 Q1020
                        NOSIG=
200909300720 METAR COR EGLL 300720Z 24005KT 9999 SCT024 BKN029 15/12 Q1020
                        NOSIG=
200909300650 METAR COR EGLL 300650Z 27006KT 9999 SCT025 BKN029 15/12 Q1020
                        NOSIG=
200909300620 METAR COR EGLL 300620Z 25005KT 190V280 9999 FEW017 SCT025
                        BKN029 15/12 Q1020 NOSIG=
200909300550 METAR COR EGLL 300550Z 28003KT 9999 FEW018 BKN021 BKN027
                        14/12 Q1020 NOSIG=
200909300520 METAR COR EGLL 300520Z 27005KT 9999 OVC019 14/12 Q1020 NOSIG=
200909300450 METAR COR EGLL 300450Z 27004KT 9999 BKN020 14/12 Q1020 NOSIG=
200909300420 METAR COR EGLL 300420Z 26002KT 9999 BKN020 14/12 Q1020 NOSIG=
200909300350 METAR COR EGLL 300350Z 29002KT 9999 OVC019 14/12 Q1020 NOSIG=
200909300320 METAR COR EGLL 300320Z 28002KT 9999 OVC024 14/12 Q1020 NOSIG=
200909300250 METAR COR EGLL 300250Z 29002KT 9999 BKN024 14/12 Q1020 NOSIG=
200909300220 METAR EGLL 300220Z NIL=
200909300150 METAR COR EGLL 300150Z 26003KT 9999 OVC020 14/12 Q1021 NOSIG=
200909300120 METAR COR EGLL 300120Z 27004KT 9999 BKN021 14/12 Q1021 NOSIG=
200909300050 METAR COR EGLL 300050Z 27004KT 9999 BKN020 14/12 Q1021 NOSIG=
200909300020 METAR COR EGLL 300020Z 29002KT 9999 SCT019 SCT023 13/11 Q1021
                        NOSIG=
200909292350 METAR COR EGLL 292350Z 27004KT 9999 FEW020 12/10 Q1021 NOSIG=
200909292320 METAR COR EGLL 292320Z 27004KT CAVOK 13/10 Q1022 NOSIG=
200909292250 METAR COR EGLL 292250Z VRB02KT CAVOK 14/11 Q1022 NOSIG=
200909292220 METAR COR EGLL 292220Z VRB02KT CAVOK 15/11 Q1022 NOSIG=
200909292150 METAR COR EGLL 292150Z VRB02KT CAVOK 15/12 Q1022 NOSIG=
200909292120 METAR COR EGLL 292120Z 35003KT CAVOK 16/12 Q1022 NOSIG=
200909292050 METAR COR EGLL 292050Z 36003KT CAVOK 16/12 Q1022 NOSIG=
200909292020 METAR COR EGLL 292020Z VRB02KT CAVOK 17/12 Q1021 NOSIG=
200909291950 METAR COR EGLL 291950Z 32004KT 280V350 CAVOK 17/12 Q1021
                        NOSIG=
200909291920 METAR EGLL 291920Z 31006KT CAVOK 18/12 Q1021 NOSIG=
200909291850 METAR COR EGLL 291850Z 32004KT 9999 FEW042 18/12 Q1021 NOSIG=
200909291820 METAR COR EGLL 291820Z 30005KT 9999 SCT042 19/12 Q1021 NOSIG=
200909291750 METAR COR EGLL 291750Z 29006KT 9999 SCT037 19/12 Q1021 NOSIG=
200909291720 METAR COR EGLL 291720Z 29006KT 9999 SCT036 19/12 Q1021 NOSIG=
200909291650 METAR COR EGLL 291650Z 27008KT 9999 FEW035 19/12 Q1021 NOSIG=
200909291620 METAR COR EGLL 291620Z 28008KT 9999 SCT034 20/12 Q1021 NOSIG=
200909291550 METAR COR EGLL 291550Z 31007KT 9999 BKN035 20/12 Q1021 NOSIG=
200909291520 METAR EGLL 291520Z 31007KT 9999 BKN031 20/12 Q1021=
200909291450 METAR COR EGLL 291450Z 30008KT 9999 BKN031 20/12 Q1021 NOSIG=
200909291420 METAR COR EGLL 291420Z 30007KT 270V340 9999 BKN031 20/12
                        Q1021 NOSIG=
200909291350 METAR COR EGLL 291350Z 30006KT 270V340 9999 BKN034 21/13
                        Q1021 NOSIG=
200909291320 METAR COR EGLL 291320Z 29007KT 260V010 9999 FEW022 BKN030
                        20/12 Q1021 NOSIG=
200909291250 METAR COR EGLL 291250Z 30006KT 250V330 9999 BKN028 20/12
                        Q1022 NOSIG=
200909291220 METAR COR EGLL 291220Z 30007KT 260V340 9999 SCT027 21/12
                        Q1022 NOSIG=
200909291150 METAR COR EGLL 291150Z 29007KT 260V340 CAVOK 20/12 Q1022
                        NOSIG=
200909291120 METAR EGLL 291120Z 28008KT 240V320 9999 FEW023 19/12 Q1022=
200909291050 METAR COR EGLL 291050Z 24007KT 210V290 9999 FEW022 18/12
                        Q1023 NOSIG=
200909291020 METAR COR EGLL 291020Z 25008KT 220V290 9999 FEW045 17/12
                        Q1023 NOSIG=
200909290950 METAR COR EGLL 290950Z 26008KT 9999 FEW045 17/11 Q1023 NOSIG=
200909290920 METAR COR EGLL 290920Z 26008KT 9999 BKN047 16/11 Q1024 NOSIG=
200909290850 METAR COR EGLL 290850Z 27008KT CAVOK 15/11 Q1024 NOSIG=
200909290820 METAR COR EGLL 290820Z 25008KT CAVOK 14/11 Q1023 NOSIG=
200909290750 METAR COR EGLL 290750Z 27008KT CAVOK 13/11 Q1023 NOSIG=
200909290720 METAR COR EGLL 290720Z 27006KT CAVOK 12/10 Q1023 NOSIG=
200909290650 METAR COR EGLL 290650Z 27006KT CAVOK 12/10 Q1023 NOSIG=
200909290620 METAR COR EGLL 290620Z 25005KT 220V290 CAVOK 11/10 Q1023
                        NOSIG=
200909290550 METAR COR EGLL 290550Z 28006KT CAVOK 11/10 Q1023 NOSIG=
200909290520 METAR COR EGLL 290520Z 27005KT CAVOK 11/09 Q1023 NOSIG=
200909290450 METAR COR EGLL 290450Z 27006KT CAVOK 12/10 Q1023 NOSIG=
200909290420 METAR COR EGLL 290420Z 27008KT CAVOK 11/10 Q1023 NOSIG=
200909290350 METAR COR EGLL 290350Z 27006KT CAVOK 12/10 Q1023 NOSIG=
200909290320 METAR COR EGLL 290320Z 27006KT CAVOK 11/10 Q1023 NOSIG=
200909290250 METAR COR EGLL 290250Z 27007KT CAVOK 12/10 Q1024 NOSIG=
200909290220 METAR COR EGLL 290220Z 26006KT CAVOK 12/11 Q1024 NOSIG=
200909290150 METAR COR EGLL 290150Z 27006KT CAVOK 12/11 Q1024 NOSIG=
200909290120 METAR COR EGLL 290120Z 27004KT CAVOK 12/11 Q1024 NOSIG=
200909290050 METAR COR EGLL 290050Z 27005KT CAVOK 12/11 Q1024 NOSIG=
200909290020 METAR EGLL 290020Z 25004KT CAVOK 13/11 Q1024=
200909282350 METAR COR EGLL 282350Z 27004KT 9999 FEW017 13/11 Q1024 NOSIG=
200909282320 METAR COR EGLL 282320Z 29006KT 9999 FEW016 14/11 Q1024 NOSIG=
200909282250 METAR COR EGLL 282250Z 29005KT CAVOK 13/11 Q1024 NOSIG=
200909282220 METAR COR EGLL 282220Z 28005KT CAVOK 13/11 Q1024 NOSIG=
200909282150 METAR COR EGLL 282150Z 27006KT CAVOK 13/11 Q1024 NOSIG=
200909282120 METAR COR EGLL 282120Z 28006KT CAVOK 14/12 Q1024 NOSIG=
200909282050 METAR COR EGLL 282050Z 26008KT CAVOK 15/12 Q1025 NOSIG=
200909282020 METAR COR EGLL 282020Z 28006KT CAVOK 15/11 Q1025 NOSIG=
200909281950 METAR COR EGLL 281950Z 28006KT CAVOK 15/11 Q1024 NOSIG=
200909281920 METAR COR EGLL 281920Z 24007KT CAVOK 16/12 Q1024 NOSIG=
200909281850 METAR COR EGLL 281850Z 27007KT CAVOK 16/12 Q1024 NOSIG=
200909281820 METAR COR EGLL 281820Z 27007KT CAVOK 16/11 Q1024 NOSIG=
200909281750 METAR EGLL 281750Z 28006KT CAVOK 17/11 Q1024=
200909281720 METAR COR EGLL 281720Z 27007KT CAVOK 17/11 Q1024 NOSIG=
200909281650 METAR EGLL 281650Z 29006KT 9999 BKN036 18/11 Q1024=
200909281620 METAR EGLL 281620Z 29006KT 9999 BKN034 18/11 Q1025=
200909281550 METAR COR EGLL 281550Z 30007KT 280V340 9999 BKN033 18/11
                        Q1025 NOSIG=
200909281520 METAR COR EGLL 281520Z 31008KT 9999 BKN032 18/10 Q1025 NOSIG=
200909281450 METAR COR EGLL 281450Z 31008KT 280V360 9999 SCT033 19/10
                        Q1025 NOSIG=
200909281420 METAR COR EGLL 281420Z 29007KT 260V340 9999 SCT032 19/10
                        Q1025 NOSIG=
200909281350 METAR COR EGLL 281350Z 30007KT 260V330 9999 SCT031 19/10
                        Q1025 NOSIG=
200909281320 METAR COR EGLL 281320Z 28007KT 250V310 9999 BKN030 18/10
                        Q1026 NOSIG=
200909281250 METAR COR EGLL 281250Z 31006KT 270V340 9999 BKN025 18/10
                        Q1026 NOSIG=
200909281220 METAR EGLL 281220Z 29007KT 260V330 9999 BKN025 18/10 Q1027=
200909281150 METAR COR EGLL 281150Z 29008KT 9999 OVC028 18/10 Q1027 NOSIG=
200909281120 METAR COR EGLL 281120Z 29008KT 260V320 9999 FEW024 BKN027
                        17/10 Q1027 NOSIG=
200909281050 METAR EGLL 281050Z 29006KT 9999 FEW024 BKN029 17/11 Q1027=
200909281020 METAR EGLL 281020Z 28006KT 9999 BKN031 17/11 Q1027=
200909280950 METAR COR EGLL 280950Z 27006KT 240V300 9999 BKN031 17/11
                        Q1027 NOSIG=
200909280920 METAR COR EGLL 280920Z 28006KT 9999 BKN031 16/11 Q1027 NOSIG=
200909280850 METAR EGLL 280850Z 29005KT 9999 BKN029 16/11 Q1027=
200909280820 METAR COR EGLL 280820Z 27006KT 9999 BKN029 15/11 Q1027 NOSIG=
200909280750 METAR COR EGLL 280750Z 26005KT 9999 BKN027 14/11 Q1027 NOSIG=
200909280720 METAR COR EGLL 280720Z 27005KT 9999 BKN026 13/11 Q1027 NOSIG=
200909280650 METAR COR EGLL 280650Z VRB03KT 9999 BKN025 13/11 Q1027 NOSIG=
200909280620 METAR COR EGLL 280620Z 27005KT 9999 OVC026 13/11 Q1027 NOSIG=
200909280550 METAR COR EGLL 280550Z 24004KT 200V290 9999 BKN028 13/11
                        Q1026 NOSIG=
200909280520 METAR COR EGLL 280520Z VRB03KT 9999 BKN028 13/11 Q1027 NOSIG=
200909280450 METAR COR EGLL 280450Z 29003KT 9999 BKN027 13/11 Q1027 NOSIG=
200909280420 METAR COR EGLL 280420Z 31003KT 9999 BKN027 12/10 Q1027 NOSIG=
200909280350 METAR COR EGLL 280350Z 29004KT 9999 BKN029 12/11 Q1027 NOSIG=
200909280320 METAR COR EGLL 280320Z 32004KT 9999 FEW025 BKN030 12/10 Q1027
                        NOSIG=
200909280250 METAR COR EGLL 280250Z 31002KT CAVOK 11/10 Q1027 NOSIG=
200909280220 METAR COR EGLL 280220Z 27003KT CAVOK 12/10 Q1027 NOSIG=
200909280150 METAR COR EGLL 280150Z 28004KT CAVOK 12/10 Q1028 NOSIG=
200909280120 METAR COR EGLL 280120Z VRB02KT CAVOK 12/10 Q1028 NOSIG=
200909280050 METAR COR EGLL 280050Z 00000KT CAVOK 12/10 Q1028 NOSIG=
200909280020 METAR COR EGLL 280020Z 26002KT CAVOK 13/11 Q1028 NOSIG=
200909272350 METAR COR EGLL 272350Z 26003KT CAVOK 13/11 Q1028 NOSIG=
200909272320 METAR COR EGLL 272320Z 26004KT CAVOK 14/11 Q1028 NOSIG=
200909272250 METAR COR EGLL 272250Z 28003KT CAVOK 13/11 Q1027 NOSIG=
200909272220 METAR COR EGLL 272220Z 27003KT CAVOK 15/11 Q1027 NOSIG=
200909272150 METAR COR EGLL 272150Z VRB02KT CAVOK 16/11 Q1027 NOSIG=
200909272120 METAR COR EGLL 272120Z 00000KT CAVOK 16/11 Q1027 NOSIG=
200909272050 METAR COR EGLL 272050Z VRB02KT CAVOK 17/11 Q1028 NOSIG=
200909272020 METAR COR EGLL 272020Z 34004KT 300V020 CAVOK 17/11 Q1028
                        NOSIG=
200909271950 METAR COR EGLL 271950Z VRB03KT CAVOK 17/11 Q1027 NOSIG=
200909271920 METAR COR EGLL 271920Z 35004KT CAVOK 18/11 Q1027 NOSIG=
200909271850 METAR COR EGLL 271850Z 33004KT 300V360 CAVOK 18/11 Q1027
                        NOSIG=
200909271820 METAR COR EGLL 271820Z 33002KT CAVOK 19/10 Q1027 NOSIG=
200909271750 METAR COR EGLL 271750Z 00000KT CAVOK 20/10 Q1027 NOSIG=
200909271720 METAR EGLL 271720Z VRB03KT CAVOK 20/10 Q1026=
200909271650 METAR COR EGLL 271650Z 35004KT CAVOK 21/10 Q1026 NOSIG=
200909271620 METAR COR EGLL 271620Z 34004KT 300V020 CAVOK 21/10 Q1026
                        NOSIG=
200909271550 METAR COR EGLL 271550Z 35004KT 320V030 CAVOK 21/10 Q1026
                        NOSIG=
200909271520 METAR EGLL 271520Z NIL=
200909271450 METAR COR EGLL 271450Z VRB03KT CAVOK 21/10 Q1027 NOSIG=
200909271420 METAR COR EGLL 271420Z VRB04KT CAVOK 21/10 Q1027 NOSIG=
200909271350 METAR COR EGLL 271350Z 32004KT 260V020 CAVOK 21/10 Q1027
                        NOSIG=
200909271320 METAR COR EGLL 271320Z VRB03KT CAVOK 21/11 Q1027 NOSIG=
200909271250 METAR EGLL 271250Z 06004KT 020V110 CAVOK 20/11 Q1027=
200909271220 METAR EGLL 271220Z VRB04KT CAVOK 19/10 Q1028=
200909271150 METAR COR EGLL 271150Z VRB04KT CAVOK 18/10 Q1028 NOSIG=
200909271120 METAR COR EGLL 271120Z VRB03KT CAVOK 17/10 Q1028 NOSIG=
200909271050 METAR COR EGLL 271050Z VRB03KT CAVOK 16/10 Q1028 NOSIG=
200909271020 METAR COR EGLL 271020Z VRB02KT CAVOK 15/10 Q1028 NOSIG=
200909270950 METAR COR EGLL 270950Z VRB03KT CAVOK 14/10 Q1028 NOSIG=
200909270920 METAR COR EGLL 270920Z 35004KT 310V030 9999 FEW015 14/10
                        Q1028 NOSIG=
200909270850 METAR COR EGLL 270850Z VRB02KT 9000 NSC 13/10 Q1028 NOSIG=
200909270820 METAR COR EGLL 270820Z 28003KT 6000 NSC 12/10 Q1028 NOSIG=
200909270750 METAR COR EGLL 270750Z VRB03KT 6000 NSC 11/09 Q1028 NOSIG=
200909270720 METAR COR EGLL 270720Z 19004KT 150V250 6000 NSC 09/08 Q1028
                        NOSIG=
200909270650 METAR COR EGLL 270650Z 22004KT 170V280 6000 NSC 08/07 Q1028
                        NOSIG=
200909270620 METAR COR EGLL 270620Z 28004KT 6000 VCFG NSC 08/07 Q1028
                        TEMPO 4000=
200909270550 METAR COR EGLL 270550Z 28002KT 7000 VCFG NSC 10/08 Q1027
                        BECMG 4000 BR=
200909270520 METAR COR EGLL 270520Z 27003KT 8000 NSC 10/08 Q1027 BECMG
                        4000 BR=
200909270450 METAR COR EGLL 270450Z 28003KT 8000 NSC 09/08 Q1027 BECMG
                        4000 BR=
200909270420 METAR COR EGLL 270420Z 30004KT 9000 NSC 10/08 Q1027 TEMPO
                        4000 BR=
200909270350 METAR COR EGLL 270350Z 30003KT CAVOK 09/08 Q1027 NOSIG=
200909270320 METAR COR EGLL 270320Z 29002KT CAVOK 09/08 Q1027 NOSIG=
200909270250 METAR COR EGLL 270250Z 28003KT CAVOK 09/07 Q1027 NOSIG=
200909270220 METAR COR EGLL 270220Z 30002KT CAVOK 09/07 Q1027 NOSIG=
200909270150 METAR COR EGLL 270150Z 30003KT CAVOK 10/08 Q1027 NOSIG=
200909270120 METAR COR EGLL 270120Z VRB02KT CAVOK 10/07 Q1027 NOSIG=
200909270050 METAR COR EGLL 270050Z VRB02KT CAVOK 11/08 Q1027 NOSIG=
200909270020 METAR COR EGLL 270020Z 00000KT CAVOK 11/08 Q1027 NOSIG=
200909262350 METAR COR EGLL 262350Z 00000KT CAVOK 12/09 Q1027 NOSIG=
200909262320 METAR COR EGLL 262320Z 30003KT CAVOK 12/09 Q1027 NOSIG=
200909262250 METAR COR EGLL 262250Z 28003KT CAVOK 12/08 Q1027 NOSIG=
200909262220 METAR COR EGLL 262220Z VRB02KT CAVOK 14/09 Q1027 NOSIG=
200909262150 METAR COR EGLL 262150Z 36002KT CAVOK 16/09 Q1027 NOSIG=
200909262120 METAR COR EGLL 262120Z 35003KT CAVOK 16/09 Q1027 NOSIG=
200909262050 METAR COR EGLL 262050Z 35003KT CAVOK 17/09 Q1027 NOSIG=
200909262020 METAR COR EGLL 262020Z 36002KT CAVOK 17/09 Q1027 NOSIG=
200909261950 METAR COR EGLL 261950Z 33002KT CAVOK 17/09 Q1027 NOSIG=
200909261920 METAR COR EGLL 261920Z VRB02KT CAVOK 17/09 Q1027 NOSIG=
200909261850 METAR COR EGLL 261850Z VRB03KT CAVOK 16/08 Q1026 NOSIG=
200909261820 METAR COR EGLL 261820Z 22004KT CAVOK 17/08 Q1026 NOSIG=
200909261750 METAR COR EGLL 261750Z 22005KT CAVOK 17/09 Q1026 NOSIG=
200909261720 METAR COR EGLL 261720Z VRB03KT CAVOK 18/08 Q1026 NOSIG=
200909261650 METAR EGLL 261650Z VRB03KT CAVOK 19/08 Q1026=
200909261620 METAR COR EGLL 261620Z VRB02KT CAVOK 19/08 Q1026 NOSIG=
200909261550 METAR COR EGLL 261550Z VRB03KT CAVOK 19/08 Q1026 NOSIG=
200909261520 METAR COR EGLL 261520Z 16004KT 120V230 CAVOK 19/09 Q1026
                        NOSIG=
200909261450 METAR COR EGLL 261450Z VRB02KT CAVOK 19/08 Q1026 NOSIG=
200909261420 METAR COR EGLL 261420Z VRB03KT CAVOK 19/08 Q1027 NOSIG=
200909261350 METAR COR EGLL 261350Z VRB02KT 9999 FEW037 19/08 Q1027 NOSIG=
200909261320 METAR COR EGLL 261320Z VRB03KT 9999 FEW037 19/08 Q1027 NOSIG=
200909261250 METAR COR EGLL 261250Z 07004KT 010V170 9999 FEW035 19/08
                        Q1027 NOSIG=
200909261220 METAR COR EGLL 261220Z VRB03KT 9999 SCT034 18/08 Q1027 NOSIG=
200909261150 METAR COR EGLL 261150Z VRB03KT 9999 BKN032 17/08 Q1027 NOSIG=
200909261120 METAR EGLL 261120Z VRB03KT 9999 BKN031 17/08 Q1028=
200909261050 METAR COR EGLL 261050Z VRB02KT 9999 FEW029 SCT031 17/08 Q1028
                        NOSIG=
200909261020 METAR COR EGLL 261020Z VRB03KT 9999 SCT031 15/09 Q1028 NOSIG=
200909260950 METAR COR EGLL 260950Z VRB02KT 9999 BKN031 15/09 Q1028 NOSIG=
200909260920 METAR COR EGLL 260920Z VRB03KT 9999 BKN032 14/08 Q1028 NOSIG=
200909260850 METAR COR EGLL 260850Z VRB03KT 9999 BKN032 13/08 Q1028 NOSIG=
200909260820 METAR COR EGLL 260820Z VRB03KT 9999 SCT034 12/09 Q1028 NOSIG=
200909260750 METAR COR EGLL 260750Z 26003KT 9999 FEW048 11/08 Q1028 NOSIG=
200909260720 METAR COR EGLL 260720Z VRB02KT 9999 FEW048 10/08 Q1028 NOSIG=
200909260650 METAR COR EGLL 260650Z 27004KT CAVOK 09/08 Q1027 NOSIG=
200909260620 METAR COR EGLL 260620Z 31002KT CAVOK 09/07 Q1027 NOSIG=
200909260550 METAR EGLL 260550Z 00000KT CAVOK 09/07 Q1027=
200909260520 METAR COR EGLL 260520Z 00000KT CAVOK 09/08 Q1027 NOSIG=
200909260450 METAR COR EGLL 260450Z 29003KT CAVOK 08/07 Q1027 NOSIG=
200909260420 METAR COR EGLL 260420Z VRB02KT CAVOK 09/07 Q1027 NOSIG=
200909260350 METAR EGLL 260350Z 26002KT CAVOK 09/07 Q1027=
200909260320 METAR EGLL 260320Z 27002KT CAVOK 09/08 Q1027=
200909260250 METAR COR EGLL 260250Z 27002KT CAVOK 09/08 Q1027 NOSIG=
200909260220 METAR COR EGLL 260220Z 27002KT CAVOK 09/07 Q1027 NOSIG=
200909260150 METAR COR EGLL 260150Z 28004KT CAVOK 09/07 Q1028 NOSIG=
200909260120 METAR COR EGLL 260120Z 29003KT CAVOK 10/07 Q1028 NOSIG=
200909260050 METAR COR EGLL 260050Z 29004KT CAVOK 10/08 Q1028 NOSIG=
200909260020 METAR EGLL 260020Z 31003KT CAVOK 10/08 Q1028=
200909252350 METAR COR EGLL 252350Z 31003KT CAVOK 11/08 Q1028 NOSIG=
200909252320 METAR EGLL 252320Z 32003KT CAVOK 12/09 Q1028=
200909252250 METAR COR EGLL 252250Z 00000KT CAVOK 12/08 Q1028 NOSIG=
200909252220 METAR EGLL 252220Z 00000KT CAVOK 13/09 Q1027=
200909252150 METAR COR EGLL 252150Z 00000KT CAVOK 14/08 Q1027 NOSIG=
200909252120 METAR COR EGLL 252120Z VRB02KT CAVOK 15/08 Q1027 NOSIG=
200909252050 METAR COR EGLL 252050Z VRB02KT CAVOK 15/08 Q1027 NOSIG=
200909252020 METAR COR EGLL 252020Z 35003KT CAVOK 15/08 Q1027 NOSIG=
200909251950 METAR COR EGLL 251950Z VRB03KT CAVOK 15/08 Q1027 NOSIG=
200909251920 METAR EGLL 251920Z VRB03KT CAVOK 15/08 Q1027=
200909251850 METAR COR EGLL 251850Z 34004KT 290V020 CAVOK 16/08 Q1027
                        NOSIG=
200909251820 METAR COR EGLL 251820Z 31005KT CAVOK 17/08 Q1026 NOSIG=
200909251750 METAR COR EGLL 251750Z 32006KT 300V360 CAVOK 17/08 Q1026
                        NOSIG=
200909251720 METAR COR EGLL 251720Z 31006KT 280V350 CAVOK 18/07 Q1026
                        NOSIG=
200909251650 METAR COR EGLL 251650Z 29005KT 230V360 CAVOK 18/08 Q1026
                        NOSIG=
200909251620 METAR COR EGLL 251620Z 30006KT CAVOK 19/07 Q1026 NOSIG=
200909251550 METAR COR EGLL 251550Z 25007KT 210V290 CAVOK 19/07 Q1026
                        NOSIG=
200909251520 METAR EGLL 251520Z 24005KT 200V300 CAVOK 19/07 Q1026 NOSIG=
200909251450 METAR COR EGLL 251450Z 27006KT 210V320 CAVOK 19/07 Q1026
                        NOSIG=
200909251420 METAR COR EGLL 251420Z 28007KT 210V360 CAVOK 20/07 Q1026
                        NOSIG=
200909251350 METAR COR EGLL 251350Z 27007KT 220V330 9999 FEW044 19/07
                        Q1027 NOSIG=
200909251320 METAR COR EGLL 251320Z VRB06KT 9999 FEW044 19/08 Q1027 NOSIG=
200909251250 METAR COR EGLL 251250Z VRB05KT 9999 FEW044 19/08 Q1027 NOSIG=
200909251220 METAR COR EGLL 251220Z 28006KT 230V310 9999 FEW044 18/08
                        Q1027 NOSIG=
200909251150 METAR COR EGLL 251150Z 27006KT 150V330 9999 FEW044 18/07
                        Q1028 NOSIG=
200909251120 METAR COR EGLL 251120Z 30005KT 240V040 9999 FEW040 18/07
                        Q1028 NOSIG=
200909251050 METAR COR EGLL 251050Z 29006KT 230V340 9999 FEW036 17/08
                        Q1028 NOSIG=
200909251020 METAR COR EGLL 251020Z 30006KT 220V350 9999 FEW032 16/08
                        Q1028 NOSIG=
200909250950 METAR COR EGLL 250950Z 27005KT 230V300 9999 FEW032 16/08
                        Q1028 NOSIG=
200909250920 METAR COR EGLL 250920Z VRB02KT CAVOK 15/09 Q1028 NOSIG=
200909250850 METAR COR EGLL 250850Z VRB03KT CAVOK 14/08 Q1028 NOSIG=
200909250820 METAR COR EGLL 250820Z VRB03KT CAVOK 13/08 Q1028 NOSIG=
200909250750 METAR COR EGLL 250750Z 30003KT CAVOK 12/08 Q1028 NOSIG=
200909250720 METAR COR EGLL 250720Z VRB02KT CAVOK 11/08 Q1028 NOSIG=
200909250650 METAR COR EGLL 250650Z 29005KT CAVOK 10/08 Q1028 NOSIG=
200909250620 METAR EGLL 250620Z 28005KT CAVOK 09/07 Q1028=
200909250550 METAR COR EGLL 250550Z 28004KT CAVOK 09/07 Q1027 NOSIG=
200909250520 METAR COR EGLL 250520Z 27002KT CAVOK 09/07 Q1027 NOSIG=
200909250450 METAR EGLL 250450Z 30004KT CAVOK 10/07 Q1027=
200909250420 METAR EGLL 250420Z 25004KT CAVOK 10/07 Q1027=
200909250350 METAR EGLL 250350Z 28003KT CAVOK 10/07 Q1027=
200909250320 METAR EGLL 250320Z 27004KT CAVOK 10/08 Q1027=
200909250250 METAR EGLL 250250Z 27003KT CAVOK 11/08 Q1027=
200909250220 METAR COR EGLL 250220Z VRB02KT CAVOK 11/08 Q1027 NOSIG=
200909250150 METAR COR EGLL 250150Z 27002KT CAVOK 11/08 Q1027 NOSIG=
200909250120 METAR COR EGLL 250120Z 27004KT CAVOK 11/08 Q1027 NOSIG=
200909250050 METAR COR EGLL 250050Z 29003KT CAVOK 11/08 Q1027 NOSIG=
200909250020 METAR EGLL 250020Z 30003KT CAVOK 11/08 Q1027=
200909242350 METAR COR EGLL 242350Z 26002KT CAVOK 12/08 Q1027 NOSIG=
200909242320 METAR COR EGLL 242320Z 31003KT CAVOK 12/08 Q1027 NOSIG=
200909242250 METAR COR EGLL 242250Z 29004KT CAVOK 12/08 Q1027 NOSIG=
200909242220 METAR EGLL 242220Z 31003KT CAVOK 13/07 Q1027=
200909242150 METAR COR EGLL 242150Z 31004KT CAVOK 14/08 Q1027 NOSIG=
200909242120 METAR COR EGLL 242120Z VRB02KT CAVOK 14/08 Q1027 NOSIG=
200909242050 METAR EGLL 242050Z 29005KT CAVOK 15/08 Q1027=
200909242020 METAR COR EGLL 242020Z 31004KT CAVOK 16/08 Q1027 NOSIG=
200909241950 METAR COR EGLL 241950Z 30004KT CAVOK 16/08 Q1027 NOSIG=
200909241920 METAR COR EGLL 241920Z 31003KT CAVOK 17/07 Q1026 NOSIG=
200909241850 METAR COR EGLL 241850Z VRB03KT CAVOK 17/07 Q1026 NOSIG=
200909241820 METAR COR EGLL 241820Z 31004KT CAVOK 18/07 Q1026 NOSIG=
200909241750 METAR COR EGLL 241750Z 31004KT CAVOK 18/06 Q1025 NOSIG=
200909241720 METAR COR EGLL 241720Z 31005KT CAVOK 18/06 Q1025 NOSIG=
200909241650 METAR COR EGLL 241650Z 29007KT CAVOK 19/07 Q1025 NOSIG=
200909241620 METAR COR EGLL 241620Z 31005KT 280V360 CAVOK 19/06 Q1025
                        NOSIG=
200909241550 METAR COR EGLL 241550Z 31007KT 270V360 9999 FEW048 19/07
                        Q1025 NOSIG=
200909241520 METAR COR EGLL 241520Z 30006KT 260V340 CAVOK 19/07 Q1025
                        NOSIG=
200909241450 METAR COR EGLL 241450Z 27006KT 220V310 CAVOK 19/07 Q1025
                        NOSIG=
200909241420 METAR COR EGLL 241420Z 28005KT 210V350 CAVOK 19/07 Q1026
                        NOSIG=
200909241350 METAR COR EGLL 241350Z 27005KT 190V340 CAVOK 19/07 Q1026
                        NOSIG=
200909241320 METAR COR EGLL 241320Z 30007KT 250V360 CAVOK 19/06 Q1026
                        NOSIG=
200909241250 METAR COR EGLL 241250Z 30006KT 260V350 CAVOK 19/06 Q1026
                        NOSIG=
200909241220 METAR COR EGLL 241220Z 28007KT 240V330 CAVOK 19/05 Q1026
                        NOSIG=
200909241150 METAR COR EGLL 241150Z 29007KT 240V350 CAVOK 19/06 Q1026
                        NOSIG=
200909241120 METAR COR EGLL 241120Z 29006KT 230V350 9999 FEW044 18/07
                        Q1026 NOSIG=
200909241050 METAR COR EGLL 241050Z 29006KT 240V330 9999 FEW044 18/07
                        Q1027 NOSIG=
200909241020 METAR COR EGLL 241020Z 34006KT 280V030 9999 FEW036 17/08
                        Q1027 NOSIG=
200909240950 METAR COR EGLL 240950Z 34005KT 290V040 9999 FEW030 17/09
                        Q1027 NOSIG=
200909240920 METAR COR EGLL 240920Z 31005KT 270V340 9999 FEW028 16/09
                        Q1027 NOSIG=
200909240850 METAR COR EGLL 240850Z 31004KT 260V010 CAVOK 15/10 Q1027
                        NOSIG=
200909240820 METAR COR EGLL 240820Z VRB03KT CAVOK 14/10 Q1027 NOSIG=
200909240750 METAR COR EGLL 240750Z 31004KT 280V340 CAVOK 12/10 Q1027
                        NOSIG=
200909240720 METAR COR EGLL 240720Z VRB03KT CAVOK 12/10 Q1026 NOSIG=
200909240650 METAR COR EGLL 240650Z 29004KT CAVOK 12/09 Q1026 NOSIG=
200909240620 METAR COR EGLL 240620Z 29004KT CAVOK 12/09 Q1026 NOSIG=
200909240550 METAR COR EGLL 240550Z 30002KT CAVOK 12/09 Q1026 NOSIG=
200909240520 METAR COR EGLL 240520Z 30002KT CAVOK 11/09 Q1026 NOSIG=
200909240450 METAR EGLL 240450Z VRB02KT CAVOK 11/09 Q1026=
200909240420 METAR COR EGLL 240420Z 30003KT CAVOK 12/10 Q1025 NOSIG=
200909240350 METAR EGLL 240350Z 32004KT CAVOK 12/10 Q1025=
200909240320 METAR COR EGLL 240320Z 30004KT CAVOK 13/10 Q1025 NOSIG=
200909240250 METAR COR EGLL 240250Z 29005KT CAVOK 13/10 Q1025 NOSIG=
200909240220 METAR COR EGLL 240220Z 32004KT CAVOK 13/10 Q1025 NOSIG=
200909240150 METAR COR EGLL 240150Z 30005KT CAVOK 13/10 Q1025 NOSIG=
200909240120 METAR COR EGLL 240120Z 28004KT CAVOK 13/11 Q1025 NOSIG=
200909240050 METAR COR EGLL 240050Z 29004KT CAVOK 14/11 Q1025 NOSIG=
200909240020 METAR COR EGLL 240020Z 30005KT CAVOK 15/11 Q1025 NOSIG=
200909232350 METAR COR EGLL 232350Z 30004KT CAVOK 15/11 Q1026 NOSIG=
200909232320 METAR COR EGLL 232320Z 31003KT CAVOK 15/11 Q1026 NOSIG=
200909232250 METAR COR EGLL 232250Z 31004KT CAVOK 16/11 Q1026 NOSIG=
200909232220 METAR COR EGLL 232220Z 31003KT CAVOK 16/11 Q1026=
200909232150 METAR COR EGLL 232150Z VRB03KT 9999 FEW030 SCT040 17/11 Q1026
                        NOSIG=
200909232120 METAR COR EGLL 232120Z 32004KT 290V360 9999 SCT030 BKN040
                        17/13 Q1026 NOSIG=
200909232050 METAR COR EGLL 232050Z 30004KT 280V340 9999 FEW021 SCT032
                        BKN040 17/13 Q1026 NOSIG=
200909232020 METAR COR EGLL 232020Z 30005KT 9999 SCT019 BKN023 BKN033
                        18/13 Q1026 NOSIG=
200909231950 METAR COR EGLL 231950Z 31004KT 9999 FEW020 BKN025 BKN031
                        17/14 Q1025 NOSIG=
200909231920 METAR COR EGLL 231920Z 29003KT 9999 FEW014 BKN022 BKN030
                        17/15 Q1025 NOSIG=
200909231850 METAR EGLL 231850Z 27006KT 9999 FEW019 BKN022 17/15 Q1025=
200909231820 METAR COR EGLL 231820Z 24008KT 9999 FEW019 BKN028 18/14 Q1025
                        NOSIG=
200909231750 METAR COR EGLL 231750Z 24007KT 200V270 9999 FEW022 BKN029
                        18/14 Q1025 NOSIG=
200909231720 METAR EGLL 231720Z 24007KT 9999 FEW018 BKN029 18/14 Q1025=
200909231650 METAR COR EGLL 231650Z 23007KT 9999 SCT016 BKN027 18/14 Q1025
                        NOSIG=
200909231620 METAR COR EGLL 231620Z 26007KT 9999 SCT014 BKN026 18/14 Q1025
                        NOSIG=
200909231550 METAR COR EGLL 231550Z 23007KT 9999 -DZ FEW015 BKN025 18/14
                        Q1025 NOSIG=
200909231520 METAR COR EGLL 231520Z 25007KT 210V280 9999 FEW015 BKN025
                        18/14 Q1025 NOSIG=
200909231450 METAR EGLL 231450Z 24008KT 9999 FEW019 BKN025 18/14 Q1025=
200909231420 METAR COR EGLL 231420Z 24007KT 200V270 9999 BKN025 18/14
                        Q1026 NOSIG=
200909231350 METAR COR EGLL 231350Z 27008KT 240V300 9999 BKN022 18/13
                        Q1026 NOSIG=
200909231320 METAR EGLL 231320Z 25010KT 9999 FEW019 BKN027 18/13 Q1026=
200909231250 METAR EGLL 231250Z 27009KT 9999 BKN026 18/13 Q1026=
200909231220 METAR COR EGLL 231220Z 28008KT 240V300 9999 SCT021 BKN025
                        19/13 Q1026 NOSIG=
200909231150 METAR COR EGLL 231150Z 27009KT 9999 BKN023 19/12 Q1026 NOSIG=
200909231120 METAR COR EGLL 231120Z 28008KT 9999 FEW024 SCT042 19/12 Q1026
                        NOSIG=
200909231050 METAR EGLL 231050Z 27008KT 9999 FEW022 BKN036 18/12 Q1026=
200909231020 METAR EGLL 231020Z 28009KT 9999 FEW023 BKN032 19/12 Q1026=
200909230950 METAR COR EGLL 230950Z 28009KT 9999 SCT020 BKN023 18/12 Q1027
                        NOSIG=
200909230920 METAR COR EGLL 230920Z 29008KT 9999 FEW021 BKN030 18/12 Q1027
                        NOSIG=
200909230850 METAR COR EGLL 230850Z 27009KT 9999 FEW017 SCT037 17/13 Q1026
                        NOSIG=
200909230820 METAR COR EGLL 230820Z 26009KT 9999 FEW035 BKN040 17/13 Q1026
                        NOSIG=
200909230750 METAR COR EGLL 230750Z 26009KT 9999 SCT042 16/13 Q1026 NOSIG=
200909230720 METAR COR EGLL 230720Z 26008KT 9999 BKN032 16/13 Q1026 NOSIG=
200909230650 METAR COR EGLL 230650Z 27009KT 9999 FEW015 BKN035 16/13 Q1026
                        TEMPO BKN014=
200909230620 METAR COR EGLL 230620Z 25009KT 9999 FEW034 SCT041 15/13 Q1026
                        NOSIG=
200909230550 METAR COR EGLL 230550Z 26008KT 9999 FEW020 BKN035 15/13 Q1025
                        TEMPO BKN014=
200909230520 METAR COR EGLL 230520Z 25007KT 9999 SCT017 SCT024 15/13 Q1025
                        TEMPO BKN012=
200909230450 METAR COR EGLL 230450Z 26009KT 9999 SCT025 BKN035 15/13 Q1025
                        TEMPO BKN012=
200909230420 METAR COR EGLL 230420Z 26007KT 9999 FEW030 15/14 Q1025 TEMPO
                        BKN012=
200909230350 METAR COR EGLL 230350Z 29004KT 250V330 9999 FEW008 OVC011
                        15/13 Q1025 TEMPO BKN008=
200909230320 METAR COR EGLL 230320Z 30004KT 260V330 9999 OVC010 15/13
                        Q1025 NOSIG=
200909230250 METAR EGLL 230250Z NIL=
200909230220 METAR COR EGLL 230220Z 30005KT 260V320 9999 OVC009 16/14
                        Q1025 NOSIG=
200909230150 METAR COR EGLL 230150Z 23008KT 9999 OVC010 17/14 Q1025 NOSIG=
200909230120 METAR COR EGLL 230120Z 23009KT 9999 FEW012 BKN019 17/14 Q1025
                        NOSIG=
200909230050 METAR EGLL 230050Z 24010KT 9999 FEW015 BKN020 17/14 Q1025=
200909230020 METAR COR EGLL 230020Z 25009KT 9999 BKN013 17/14 Q1025 NOSIG=
200909222350 METAR COR EGLL 222350Z 24008KT 9999 BKN014 17/14 Q1025 NOSIG=
200909222320 METAR EGLL 222320Z 23007KT 9999 FEW015 BKN018 17/14 Q1025=
200909222250 METAR EGLL 222250Z 22009KT 9999 SCT017 BKN022 17/14 Q1025=
200909222220 METAR COR EGLL 222220Z 21009KT 9999 OVC019 17/14 Q1025 NOSIG=
200909222150 METAR COR EGLL 222150Z 22009KT 9999 BKN021 17/14 Q1025 NOSIG=
200909222120 METAR COR EGLL 222120Z 23009KT 9999 BKN023 17/14 Q1025 NOSIG=
200909222050 METAR COR EGLL 222050Z 22009KT 9999 BKN023 17/14 Q1025 NOSIG=
200909222020 METAR COR EGLL 222020Z 23011KT 9999 FEW023 BKN035 18/14 Q1025
                        NOSIG=
200909221950 METAR COR EGLL 221950Z 23011KT 9999 SCT023 SCT029 18/14 Q1025
                        NOSIG=
200909221920 METAR EGLL 221920Z 24010KT 9999 BKN025 18/14 Q1025 NOSIG=
200909221850 METAR COR EGLL 221850Z 24010KT 9999 BKN026 18/14 Q1024 NOSIG=
200909221820 METAR COR EGLL 221820Z 23011KT 9999 BKN027 19/13 Q1024 NOSIG=
200909221750 METAR EGLL 221750Z 24010KT 9999 BKN026 19/13 Q1024=
200909221720 METAR COR EGLL 221720Z 24010KT 9999 BKN026 19/13 Q1024 NOSIG=
200909221650 METAR EGLL 221650Z 26011KT 9999 BKN026 20/13 Q1024=
200909221620 METAR COR EGLL 221620Z 25014KT 9999 BKN028 20/13 Q1024 NOSIG=
200909221550 METAR COR EGLL 221550Z 26013KT 9999 BKN029 20/13 Q1024 NOSIG=
200909221520 METAR COR EGLL 221520Z 25011KT 9999 BKN029 20/13 Q1024 NOSIG=
200909221450 METAR COR EGLL 221450Z 25011KT 9999 BKN029 20/13 Q1024 NOSIG=
200909221420 METAR COR EGLL 221420Z 25012KT 9999 BKN029 20/13 Q1024 NOSIG=
200909221350 METAR COR EGLL 221350Z 26012KT 9999 OVC029 20/13 Q1024 NOSIG=
200909221320 METAR COR EGLL 221320Z 25013KT 9999 BKN030 20/12 Q1024 NOSIG=
200909221250 METAR COR EGLL 221250Z 25013KT 9999 BKN030 21/12 Q1024 NOSIG=
200909221220 METAR COR EGLL 221220Z 23012KT 200V260 9999 BKN028 21/12
                        Q1024 NOSIG=
200909221150 METAR COR EGLL 221150Z 25013KT 9999 BKN025 19/12 Q1024 NOSIG=
200909221120 METAR COR EGLL 221120Z 25014KT 9999 BKN025 18/12 Q1025 NOSIG=
200909221050 METAR COR EGLL 221050Z 26015KT 9999 OVC025 18/12 Q1025 NOSIG=
200909221020 METAR COR EGLL 221020Z 25016KT 9999 BKN028 19/11 Q1025 NOSIG=
200909220950 METAR COR EGLL 220950Z 25014G24KT 9999 BKN027 18/11 Q1025
                        NOSIG=
200909220920 METAR COR EGLL 220920Z 24012KT 210V270 9999 FEW023 17/11
                        Q1024 NOSIG=
200909220850 METAR EGLL 220850Z 24013KT 9999 SCT023 16/11 Q1024=
200909220820 METAR COR EGLL 220820Z 23012KT 9999 BKN024 15/10 Q1024 NOSIG=
200909220750 METAR COR EGLL 220750Z 22010KT 9999 BKN023 14/10 Q1024 NOSIG=
200909220720 METAR COR EGLL 220720Z 22009KT 9999 BKN022 13/10 Q1024 NOSIG=
200909220650 METAR COR EGLL 220650Z 22008KT 9999 BKN023 13/10 Q1024 NOSIG=
200909220620 METAR COR EGLL 220620Z 22009KT 9999 BKN020 12/10 Q1024 NOSIG=
200909220550 METAR COR EGLL 220550Z 22011KT 9999 BKN020 12/10 Q1024 NOSIG=
200909220520 METAR COR EGLL 220520Z 23008KT 190V260 9999 SCT020 12/10
                        Q1024 NOSIG=
200909220450 METAR EGLL 220450Z NIL=
200909220420 METAR COR EGLL 220420Z 22008KT CAVOK 12/10 Q1024 NOSIG=
200909220350 METAR COR EGLL 220350Z 23009KT CAVOK 12/10 Q1024 NOSIG=
200909220320 METAR COR EGLL 220320Z 23009KT CAVOK 12/10 Q1024 NOSIG=
200909220250 METAR COR EGLL 220250Z 23010KT CAVOK 12/11 Q1024 NOSIG=
200909220220 METAR COR EGLL 220220Z 21006KT CAVOK 12/11 Q1024 NOSIG=
200909220150 METAR COR EGLL 220150Z 21006KT CAVOK 12/11 Q1024 NOSIG=
200909220120 METAR EGLL 220120Z AUTO 23008KT 9999NDV NCD 13/11 Q1024=
200909220050 METAR EGLL 220050Z AUTO 22007KT 9999NDV NCD 13/11 Q1024=
200909220020 METAR EGLL 220020Z AUTO 21005KT 9999NDV NCD 13/11 Q1025=
200909212350 METAR COR EGLL 212350Z 21005KT CAVOK 13/11 Q1025 NOSIG=
200909212320 METAR COR EGLL 212320Z 21006KT CAVOK 14/11 Q1025 NOSIG=
200909212250 METAR COR EGLL 212250Z 21006KT CAVOK 14/11 Q1025 NOSIG=
200909212220 METAR COR EGLL 212220Z 21007KT CAVOK 14/11 Q1025 NOSIG=
200909212150 METAR COR EGLL 212150Z 22009KT CAVOK 15/11 Q1025 NOSIG=
200909212120 METAR COR EGLL 212120Z 22010KT CAVOK 15/11 Q1025 NOSIG=
200909212050 METAR COR EGLL 212050Z 22008KT CAVOK 15/10 Q1025 NOSIG=
200909212020 METAR COR EGLL 212020Z 22008KT CAVOK 16/09 Q1025 NOSIG=
200909211950 METAR EGLL 211950Z 22008KT CAVOK 16/09 Q1025=
200909211920 METAR COR EGLL 211920Z 22008KT CAVOK 16/09 Q1025 NOSIG=
200909211850 METAR EGLL 211850Z AUTO 21007KT 9999NDV NCD 17/09 Q1025=
200909211820 METAR EGLL 211820Z AUTO 21007KT 9999NDV NCD 17/09 Q1024=
200909211750 METAR COR EGLL 211750Z 23009KT CAVOK 18/08 Q1024 NOSIG=
200909211720 METAR COR EGLL 211720Z 24011KT CAVOK 18/08 Q1024 NOSIG=
200909211650 METAR COR EGLL 211650Z 23009KT CAVOK 19/08 Q1025 NOSIG=
200909211620 METAR COR EGLL 211620Z 23011KT CAVOK 19/07 Q1024 NOSIG=
200909211550 METAR COR EGLL 211550Z 24010KT CAVOK 19/06 Q1024 NOSIG=
200909211520 METAR EGLL 211520Z AUTO 23012KT 9999NDV NCD 20/04 Q1024=
200909211450 METAR COR EGLL 211450Z 22009KT 190V260 CAVOK 20/07 Q1025
                        NOSIG=
200909211420 METAR COR EGLL 211420Z 24011KT 200V270 CAVOK 20/06 Q1025
                        NOSIG=
200909211350 METAR COR EGLL 211350Z 25011KT CAVOK 20/07 Q1025 NOSIG=
200909211320 METAR COR EGLL 211320Z 25008KT CAVOK 20/07 Q1025 NOSIG=
200909211250 METAR COR EGLL 211250Z 25010KT CAVOK 20/07 Q1026 NOSIG=
200909211220 METAR COR EGLL 211220Z 27010KT 230V300 CAVOK 20/08 Q1026
                        NOSIG=
200909211150 METAR COR EGLL 211150Z 26010KT 220V290 CAVOK 19/08 Q1026
                        NOSIG=
200909211120 METAR COR EGLL 211120Z 24007G17KT 200V270 CAVOK 19/08 Q1026
                        NOSIG=
200909211050 METAR COR EGLL 211050Z 26008KT 230V290 CAVOK 17/07 Q1026
                        NOSIG=
200909211020 METAR COR EGLL 211020Z 24006KT 190V300 CAVOK 17/08 Q1027
                        NOSIG=
200909210950 METAR COR EGLL 210950Z 26006KT CAVOK 15/10 Q1027 NOSIG=
200909210920 METAR COR EGLL 210920Z 28007KT CAVOK 15/10 Q1027 NOSIG=
200909210850 METAR COR EGLL 210850Z 26006KT CAVOK 14/10 Q1027 NOSIG=
200909210820 METAR COR EGLL 210820Z 28005KT CAVOK 13/10 Q1026 NOSIG=
200909210750 METAR COR EGLL 210750Z 29004KT CAVOK 13/10 Q1026 NOSIG=
200909210720 METAR COR EGLL 210720Z 26005KT 230V300 CAVOK 12/09 Q1026
                        NOSIG=
200909210650 METAR COR EGLL 210650Z 21004KT 180V260 CAVOK 12/09 Q1026
                        NOSIG=
200909210620 METAR COR EGLL 210620Z 25004KT 210V280 CAVOK 11/09 Q1026
                        NOSIG=
200909210550 METAR COR EGLL 210550Z 21005KT 190V250 CAVOK 11/09 Q1026
                        NOSIG=
200909210520 METAR COR EGLL 210520Z 18004KT CAVOK 11/09 Q1025 NOSIG=
200909210450 METAR COR EGLL 210450Z 26002KT CAVOK 10/09 Q1025 NOSIG=
200909210420 METAR COR EGLL 210420Z 27005KT CAVOK 11/09 Q1025 NOSIG=
200909210350 METAR COR EGLL 210350Z 27004KT CAVOK 10/08 Q1025 NOSIG=
200909210320 METAR COR EGLL 210320Z 28003KT CAVOK 10/08 Q1025 NOSIG=
200909210250 METAR COR EGLL 210250Z 27003KT CAVOK 11/09 Q1025 NOSIG=
200909210220 METAR COR EGLL 210220Z 26003KT CAVOK 11/08 Q1025 NOSIG=
200909210150 METAR COR EGLL 210150Z 29003KT CAVOK 11/09 Q1025 NOSIG=
200909210120 METAR COR EGLL 210120Z 27005KT CAVOK 11/09 Q1025 NOSIG=
200909210050 METAR COR EGLL 210050Z 22004KT CAVOK 12/10 Q1025 NOSIG=
200909210020 METAR COR EGLL 210020Z 00000KT 9999 FEW035 13/09 Q1025 NOSIG=
200909202350 METAR COR EGLL 202350Z 00000KT 9999 FEW040 13/09 Q1025 NOSIG=
200909202320 METAR COR EGLL 202320Z 00000KT 9999 FEW040 14/09 Q1025 NOSIG=
200909202250 METAR COR EGLL 202250Z VRB03KT 9999 FEW046 14/08 Q1025 NOSIG=
200909202220 METAR COR EGLL 202220Z 02004KT CAVOK 15/08 Q1025 NOSIG=
200909202150 METAR COR EGLL 202150Z 35005KT CAVOK 17/08 Q1025 NOSIG=
200909202120 METAR COR EGLL 202120Z 36003KT CAVOK 17/07 Q1025 NOSIG=
200909202050 METAR COR EGLL 202050Z VRB02KT 9999 SCT043 17/08 Q1024 NOSIG=
200909202020 METAR COR EGLL 202020Z 03002KT 9999 SCT043 17/07 Q1024 NOSIG=
200909201950 METAR COR EGLL 201950Z 02002KT 9999 SCT043 18/07 Q1024 NOSIG=
200909201920 METAR COR EGLL 201920Z VRB02KT 9999 SCT045 18/08 Q1024 NOSIG=
200909201850 METAR COR EGLL 201850Z VRB03KT 9999 BKN047 19/08 Q1024 NOSIG=
200909201820 METAR COR EGLL 201820Z VRB03KT 9999 BKN045 19/09 Q1024 NOSIG=
200909201750 METAR COR EGLL 201750Z VRB03KT 9999 BKN043 19/10 Q1023 NOSIG=
200909201720 METAR COR EGLL 201720Z 09004KT 9999 BKN044 19/10 Q1023 NOSIG=
200909201650 METAR COR EGLL 201650Z 08004KT 030V110 9999 BKN049 19/10
                        Q1023 NOSIG=
200909201620 METAR COR EGLL 201620Z VRB03KT 9999 BKN045 19/10 Q1023 NOSIG=
200909201550 METAR COR EGLL 201550Z 04004KT 360V080 9999 BKN038 19/10
                        Q1023 NOSIG=
200909201520 METAR EGLL 201520Z VRB03KT 9999 BKN042 19/10 Q1023=
200909201450 METAR COR EGLL 201450Z VRB03KT 9999 SCT037 BKN041 19/10 Q1023
                        NOSIG=
200909201420 METAR EGLL 201420Z 07004KT 010V120 9999 SCT037 BKN040 19/11
                        Q1023=
200909201350 METAR COR EGLL 201350Z VRB02KT 9999 BKN034 19/10 Q1023 NOSIG=
200909201320 METAR COR EGLL 201320Z 08004KT 340V150 9999 SCT032 20/11
                        Q1023 NOSIG=
200909201250 METAR COR EGLL 201250Z 04005KT 360V090 9999 FEW031 20/11
                        Q1023 NOSIG=
200909201220 METAR COR EGLL 201220Z 04006KT 360V090 9999 FEW031 19/11
                        Q1023 NOSIG=
200909201150 METAR COR EGLL 201150Z 02005KT 300V070 9999 FEW027 19/11
                        Q1023 NOSIG=
200909201120 METAR COR EGLL 201120Z 01007KT 330V070 9999 FEW024 18/11
                        Q1023 NOSIG=
200909201050 METAR COR EGLL 201050Z 02007KT 340V070 9999 FEW024 18/11
                        Q1023 NOSIG=
200909201020 METAR COR EGLL 201020Z 05006KT 9999 FEW047 17/11 Q1023 NOSIG=
200909200950 METAR EGLL 200950Z 05006KT 020V090 9999 FEW047 17/11 Q1023=
200909200920 METAR EGLL 200920Z 02005KT 330V060 9999 SCT038 16/11 Q1023=
200909200850 METAR COR EGLL 200850Z 03005KT 360V060 9999 SCT036 16/11
                        Q1023 NOSIG=
200909200820 METAR COR EGLL 200820Z 01005KT 330V070 9999 FEW029 SCT037
                        16/11 Q1022 NOSIG=
200909200750 METAR COR EGLL 200750Z 36005KT 340V050 9999 FEW028 SCT044
                        15/11 Q1022=
200909200720 METAR EGLL 200720Z 02005KT 340V050 9999 SCT024 SCT041 15/11
                        Q1022=
200909200650 METAR EGLL 200650Z VRB02KT 9000 SCT024 14/11 Q1021=
200909200620 METAR EGLL 200620Z VRB03KT 8000 SCT024 14/11 Q1021=
200909200550 METAR EGLL 200550Z 35003KT 8000 NSC 15/11 Q1021=
200909200520 METAR EGLL 200520Z VRB03KT 8000 NSC 14/11 Q1020=
200909200450 METAR EGLL 200450Z 01003KT 8000 FEW032 14/11 Q1020=
200909200420 METAR COR EGLL 200420Z 36004KT 320V020 8000 FEW032 BKN043
                        15/12 Q1020 NOSIG=
200909200350 METAR COR EGLL 200350Z VRB03KT 8000 FEW039 SCT044 15/12 Q1020
                        NOSIG=
200909200320 METAR COR EGLL 200320Z VRB03KT 8000 FEW036 SCT042 15/13 Q1019
                        NOSIG=
200909200250 METAR COR EGLL 200250Z 04004KT 360V070 8000 FEW038 16/13
                        Q1019 NOSIG=
200909200220 METAR COR EGLL 200220Z VRB03KT 7000 SCT049 16/13 Q1019 NOSIG=
200909200150 METAR COR EGLL 200150Z 35004KT 300V040 8000 SCT047 16/13
                        Q1019 NOSIG=
200909200120 METAR COR EGLL 200120Z 34004KT 300V040 9000 FEW040 SCT048
                        17/13 Q1019 NOSIG=
200909200050 METAR COR EGLL 200050Z 34004KT 300V030 9999 SCT048 17/13
                        Q1019 NOSIG=
200909200020 METAR COR EGLL 200020Z 35005KT 9999 FEW040 17/13 Q1019 NOSIG=
200909192350 METAR COR EGLL 192350Z 36005KT 330V030 9999 SCT039 18/14
                        Q1019 NOSIG=
200909192320 METAR COR EGLL 192320Z 32004KT 8000 SCT040 18/14 Q1018 NOSIG=
200909192250 METAR COR EGLL 192250Z 33003KT 7000 SCT040 18/15 Q1018 NOSIG=
200909192220 METAR COR EGLL 192220Z VRB03KT 8000 FEW043 BKN047 19/15 Q1018
                        NOSIG=
200909192150 METAR COR EGLL 192150Z 31003KT 8000 BKN039 19/14 Q1018 NOSIG=
200909192120 METAR COR EGLL 192120Z VRB03KT 9999 BKN039 19/13 Q1017 BECMG
                        9000=
200909192050 METAR COR EGLL 192050Z 03004KT 360V060 9000 SCT036 SCT042
                        20/13 Q1017 NOSIG=
200909192020 METAR COR EGLL 192020Z VRB03KT 9999 BKN036 20/14 Q1017 TEMPO
                        9000=
200909191950 METAR COR EGLL 191950Z VRB02KT 9000 FEW042 20/14 Q1017 NOSIG=
200909191920 METAR COR EGLL 191920Z 35004KT 9000 SCT041 21/14 Q1016 NOSIG=
200909191850 METAR COR EGLL 191850Z 35003KT 9999 SCT041 21/13 Q1016 TEMPO
                        9000=
200909191820 METAR COR EGLL 191820Z 35003KT 9000 SCT041 21/14 Q1016 NOSIG=
200909191750 METAR COR EGLL 191750Z VRB03KT 8000 FEW038 SCT046 21/14 Q1015
                        NOSIG=
200909191720 METAR COR EGLL 191720Z 35003KT 8000 FEW046 22/14 Q1015 TEMPO
                        +SHRA=
200909191650 METAR COR EGLL 191650Z 35004KT 8000 BKN035 22/14 Q1015 TEMPO
                        +SHRA=
200909191620 METAR EGLL 191620Z VRB02KT 8000 SCT037 22/14 Q1015=
200909191550 METAR COR EGLL 191550Z VRB02KT 8000 FEW038 23/14 Q1015 NOSIG=
200909191520 METAR COR EGLL 191520Z VRB03KT 8000 FEW040 23/14 Q1015 NOSIG=
200909191450 METAR COR EGLL 191450Z VRB03KT 8000 SCT036 22/14 Q1015 NOSIG=
200909191420 METAR COR EGLL 191420Z 03004KT 310V120 9000 FEW038 22/14
                        Q1015 NOSIG=
200909191350 METAR COR EGLL 191350Z VRB03KT 9000 SCT040 23/14 Q1015 NOSIG=
200909191320 METAR COR EGLL 191320Z 02004KT 350V080 8000 SCT036 22/14
                        Q1015 NOSIG=
200909191250 METAR COR EGLL 191250Z 06005KT 020V120 8000 SCT039 22/14
                        Q1015 NOSIG=
200909191220 METAR COR EGLL 191220Z 06005KT 360V130 7000 SCT043 22/14
                        Q1015 NOSIG=
200909191150 METAR COR EGLL 191150Z 07005KT 020V120 8000 FEW035 21/14
                        Q1015 NOSIG=
200909191120 METAR COR EGLL 191120Z 03004KT 290V100 8000 FEW016 SCT036
                        20/14 Q1015 NOSIG=
200909191050 METAR COR EGLL 191050Z 03004KT 300V080 8000 OVC016 19/14
                        Q1016 NOSIG=
200909191020 METAR COR EGLL 191020Z VRB03KT 8000 SCT016 BKN036 18/14 Q1016
                        NOSIG=
200909190950 METAR COR EGLL 190950Z 04004KT 360V070 8000 SCT039 18/14
                        Q1016 NOSIG=
200909190920 METAR COR EGLL 190920Z 07004KT 040V100 9000 FEW044 16/13
                        Q1016 NOSIG=
200909190850 METAR COR EGLL 190850Z 05005KT 360V090 8000 FEW008 BKN040
                        16/13 Q1016 NOSIG=
200909190820 METAR COR EGLL 190820Z 05004KT 020V090 8000 BKN007 BKN039
                        15/12 Q1016 BECMG BKN018=
200909190750 METAR COR EGLL 190750Z 04004KT 8000 SCT007 BKN040 15/12 Q1016
                        NOSIG=
200909190720 METAR COR EGLL 190720Z VRB03KT 8000 BKN009 14/12 Q1016 BECMG
                        BKN018=
200909190650 METAR COR EGLL 190650Z VRB02KT 8000 BKN010 14/12 Q1015 BECMG
                        BKN015=
200909190620 METAR COR EGLL 190620Z VRB03KT 8000 FEW010 SCT048 13/11 Q1015
                        BECMG 9999=
200909190550 METAR COR EGLL 190550Z 34004KT 9999 FEW043 13/11 Q1015 TEMPO
                        9000=
200909190520 METAR COR EGLL 190520Z VRB02KT 9999 FEW047 14/12 Q1015 NOSIG=
200909190450 METAR COR EGLL 190450Z VRB03KT CAVOK 14/11 Q1015 NOSIG=
200909190420 METAR COR EGLL 190420Z 04004KT 9999 BKN049 14/12 Q1015 NOSIG=
200909190350 METAR COR EGLL 190350Z 04004KT CAVOK 14/12 Q1015 NOSIG=
200909190320 METAR COR EGLL 190320Z VRB03KT CAVOK 14/11 Q1015 NOSIG=
200909190250 METAR COR EGLL 190250Z 03004KT CAVOK 14/11 Q1015 NOSIG=
200909190220 METAR COR EGLL 190220Z 04004KT CAVOK 15/11 Q1015 NOSIG=
200909190150 METAR COR EGLL 190150Z 05004KT 010V100 CAVOK 15/11 Q1015
                        NOSIG=
200909190120 METAR COR EGLL 190120Z 04004KT 010V080 9999 SCT048 15/11
                        Q1015 NOSIG=
200909190050 METAR COR EGLL 190050Z 03004KT 360V060 9999 BKN048 15/11
                        Q1016 NOSIG=
200909190020 METAR COR EGLL 190020Z 04004KT 010V070 9999 BKN044 15/11
                        Q1016 NOSIG=
200909182350 METAR COR EGLL 182350Z 03004KT 9999 BKN043 15/11 Q1016 NOSIG=
200909182320 METAR COR EGLL 182320Z 03004KT 360V060 9999 BKN044 15/11
                        Q1016 NOSIG=
200909182250 METAR COR EGLL 182250Z 05004KT 020V080 9999 SCT043 14/11
                        Q1016 NOSIG=
200909182220 METAR COR EGLL 182220Z 05004KT 020V080 CAVOK 14/11 Q1016
                        NOSIG=
200909182150 METAR COR EGLL 182150Z 06006KT CAVOK 15/11 Q1016 NOSIG=
200909182120 METAR COR EGLL 182120Z 05005KT 350V080 CAVOK 15/11 Q1016
                        NOSIG=
200909182050 METAR COR EGLL 182050Z 07004KT 020V090 CAVOK 15/11 Q1017
                        NOSIG=
200909182020 METAR COR EGLL 182020Z 10006KT CAVOK 14/11 Q1017 NOSIG=
200909181950 METAR COR EGLL 181950Z 09008KT CAVOK 15/10 Q1017 NOSIG=
200909181920 METAR COR EGLL 181920Z 09008KT CAVOK 15/11 Q1016 NOSIG=
200909181850 METAR COR EGLL 181850Z 10006KT CAVOK 16/11 Q1016 NOSIG=
200909181820 METAR COR EGLL 181820Z 07006KT CAVOK 16/11 Q1016 NOSIG=
200909181750 METAR COR EGLL 181750Z 07007KT CAVOK 18/11 Q1016 NOSIG=
200909181720 METAR COR EGLL 181720Z 07009KT CAVOK 18/11 Q1016 NOSIG=
200909181650 METAR COR EGLL 181650Z 07008KT CAVOK 19/11 Q1016 NOSIG=
200909181620 METAR EGLL 181620Z 08009KT 040V100 CAVOK 19/11 Q1016=
200909181550 METAR COR EGLL 181550Z 06009KT CAVOK 20/11 Q1016 NOSIG=
200909181520 METAR COR EGLL 181520Z 07008KT 9999 FEW031 20/11 Q1016 NOSIG=
200909181450 METAR COR EGLL 181450Z 07009KT 9999 FEW031 20/12 Q1016 NOSIG=
200909181420 METAR COR EGLL 181420Z 08009KT 9999 SCT030 20/11 Q1017 NOSIG=
200909181350 METAR COR EGLL 181350Z 08008KT 030V120 9999 SCT031 20/12
                        Q1017 NOSIG=
200909181320 METAR COR EGLL 181320Z 10010KT 9999 SCT031 20/11 Q1017 NOSIG=
200909181250 METAR COR EGLL 181250Z 09010KT 050V110 9999 SCT030 19/11
                        Q1018 NOSIG=
200909181220 METAR COR EGLL 181220Z 10012KT 9999 SCT028 19/11 Q1018 NOSIG=
200909181150 METAR COR EGLL 181150Z 09012KT 9999 FEW028 20/11 Q1018 NOSIG=
200909181120 METAR COR EGLL 181120Z 08010KT 050V110 9999 SCT025 19/11
                        Q1018 NOSIG=
200909181050 METAR COR EGLL 181050Z 09011KT 9999 SCT024 18/11 Q1019 NOSIG=
200909181020 METAR COR EGLL 181020Z 07012KT 9999 FEW024 18/11 Q1019 NOSIG=
200909180950 METAR COR EGLL 180950Z 08011KT 9999 FEW024 BKN048 17/11 Q1019
                        NOSIG=
200909180920 METAR COR EGLL 180920Z 07009KT 9999 FEW024 BKN044 16/11 Q1019
                        NOSIG=
200909180850 METAR COR EGLL 180850Z 07010KT 9999 FEW045 16/11 Q1019 NOSIG=
200909180820 METAR COR EGLL 180820Z 06006KT CAVOK 15/11 Q1019 NOSIG=
200909180750 METAR COR EGLL 180750Z 04005KT CAVOK 14/10 Q1019 NOSIG=
200909180720 METAR COR EGLL 180720Z 05005KT CAVOK 13/09 Q1019 NOSIG=
200909180650 METAR COR EGLL 180650Z VRB03KT CAVOK 12/09 Q1019 NOSIG=
200909180620 METAR EGLL 180620Z VRB03KT 9999 FEW025 11/09 Q1019 NOSIG=
200909180550 METAR COR EGLL 180550Z 04004KT 9999 FEW025 11/08 Q1019 NOSIG=
200909180520 METAR COR EGLL 180520Z 04003KT 9999 FEW025 11/08 Q1019 NOSIG=
200909180450 METAR COR EGLL 180450Z 06004KT CAVOK 11/08 Q1019 NOSIG=
200909180420 METAR COR EGLL 180420Z 06004KT CAVOK 11/08 Q1019 NOSIG=
200909180350 METAR COR EGLL 180350Z 05004KT CAVOK 11/08 Q1019 NOSIG=
200909180320 METAR COR EGLL 180320Z 05004KT 9999 FEW026 12/08 Q1020 NOSIG=
200909180250 METAR COR EGLL 180250Z 05003KT 9999 FEW025 12/08 Q1020 NOSIG=
200909180220 METAR COR EGLL 180220Z 04004KT 010V070 CAVOK 12/08 Q1020
                        NOSIG=
200909180150 METAR COR EGLL 180150Z 05004KT CAVOK 12/08 Q1020 NOSIG=
200909180120 METAR COR EGLL 180120Z 04005KT 9999 FEW028 12/08 Q1020 NOSIG=
200909180050 METAR COR EGLL 180050Z 03004KT 9999 FEW031 13/08 Q1021 NOSIG=
200909180020 METAR COR EGLL 180020Z 04004KT 9999 SCT031 13/08 Q1021 NOSIG=
200909172350 METAR COR EGLL 172350Z 04004KT 010V080 9999 SCT027 13/08
                        Q1021 NOSIG=
200909172320 METAR COR EGLL 172320Z 05004KT 020V080 9999 SCT029 13/08
                        Q1021 NOSIG=
200909172250 METAR COR EGLL 172250Z 05005KT 010V080 9999 SCT031 13/07
                        Q1021 NOSIG=
200909172220 METAR COR EGLL 172220Z VRB03KT 9999 FEW026 BKN031 13/07 Q1021
                        NOSIG=
200909172150 METAR COR EGLL 172150Z VRB03KT 9999 FEW033 13/07 Q1021 NOSIG=
200909172120 METAR COR EGLL 172120Z 03004KT 010V070 CAVOK 14/07 Q1021
                        NOSIG=
200909172050 METAR COR EGLL 172050Z 04004KT 010V070 CAVOK 14/07 Q1021
                        NOSIG=
200909172020 METAR COR EGLL 172020Z 06006KT CAVOK 14/07 Q1021 NOSIG=
200909171950 METAR COR EGLL 171950Z 07008KT 9999 FEW035 14/07 Q1021 NOSIG=
200909171920 METAR COR EGLL 171920Z 06008KT 9999 FEW036 15/07 Q1021 NOSIG=
200909171850 METAR EGLL 171850Z 06008KT 020V080 9999 SCT037 15/07 Q1021=
200909171820 METAR COR EGLL 171820Z 06008KT 9999 BKN039 16/07 Q1021 NOSIG=
200909171750 METAR COR EGLL 171750Z 06009KT 9999 BKN038 16/08 Q1021 NOSIG=
200909171720 METAR COR EGLL 171720Z 06009KT 9999 BKN040 16/07 Q1021 NOSIG=
200909171650 METAR COR EGLL 171650Z 06011KT 010V090 9999 BKN042 17/07
                        Q1021 NOSIG=
200909171620 METAR COR EGLL 171620Z 05009KT 010V080 9999 BKN040 17/07
                        Q1021 NOSIG=
200909171550 METAR COR EGLL 171550Z 06010KT 9999 BKN042 17/07 Q1021 NOSIG=
200909171520 METAR COR EGLL 171520Z 06011KT 9999 BKN040 17/07 Q1021 NOSIG=
200909171450 METAR COR EGLL 171450Z 05010KT 010V090 9999 BKN040 17/07
                        Q1021 NOSIG=
200909171420 METAR COR EGLL 171420Z 06011KT 9999 BKN039 17/07 Q1021 NOSIG=
200909171350 METAR COR EGLL 171350Z 05010KT 010V080 9999 BKN040 17/07
                        Q1022 NOSIG=
200909171320 METAR COR EGLL 171320Z 06010KT 9999 BKN038 17/07 Q1022 NOSIG=
200909171250 METAR COR EGLL 171250Z 06010KT 9999 BKN036 17/07 Q1022 NOSIG=
200909171220 METAR COR EGLL 171220Z 06010KT 020V080 9999 SCT035 BKN041
                        17/08 Q1022 NOSIG=
200909171150 METAR COR EGLL 171150Z 06011KT 9999 FEW036 BKN042 17/08 Q1022
                        NOSIG=
200909171120 METAR COR EGLL 171120Z 05011KT 350V070 9999 BKN044 17/08
                        Q1022 NOSIG=
200909171050 METAR COR EGLL 171050Z 06010KT 9999 FEW035 BKN044 17/08 Q1022
                        NOSIG=
200909171020 METAR COR EGLL 171020Z 05009KT 010V080 9999 FEW034 BKN043
                        17/08 Q1022 NOSIG=
200909170950 METAR COR EGLL 170950Z 05009KT 360V080 9999 FEW034 BKN043
                        16/08 Q1023 NOSIG=
200909170920 METAR COR EGLL 170920Z 05009KT 010V070 9999 BKN043 16/08
                        Q1023 NOSIG=
200909170850 METAR COR EGLL 170850Z 04010KT 360V070 9999 FEW035 BKN042
                        15/08 Q1023 NOSIG=
200909170820 METAR COR EGLL 170820Z 04008KT 360V070 9999 BKN042 14/08
                        Q1023 NOSIG=
200909170750 METAR COR EGLL 170750Z 02007KT 350V060 9999 BKN041 14/08
                        Q1022 NOSIG=
200909170720 METAR COR EGLL 170720Z 02006KT 350V060 9999 BKN038 13/07
                        Q1022 NOSIG=
200909170650 METAR COR EGLL 170650Z 01005KT 330V050 9999 BKN038 13/07
                        Q1022 NOSIG=
200909170620 METAR COR EGLL 170620Z 02004KT 340V050 9999 SCT037 12/07
                        Q1022 NOSIG=
200909170550 METAR COR EGLL 170550Z 03006KT 9999 SCT037 12/07 Q1022 NOSIG=
200909170520 METAR COR EGLL 170520Z 02007KT 340V050 9999 BKN039 12/07
                        Q1022 NOSIG=
200909170450 METAR COR EGLL 170450Z 03008KT 9999 BKN039 12/07 Q1022 NOSIG=
200909170420 METAR COR EGLL 170420Z 03008KT 350V060 9999 BKN041 13/07
                        Q1022 NOSIG=
200909170350 METAR COR EGLL 170350Z 03008KT 350V070 9999 BKN041 13/07
                        Q1022 NOSIG=
200909170320 METAR COR EGLL 170320Z 03008KT 350V060 9999 FEW032 BKN039
                        13/07 Q1022 NOSIG=
200909170250 METAR COR EGLL 170250Z 03008KT 9999 FEW032 SCT039 13/08 Q1022
                        NOSIG=
200909170220 METAR COR EGLL 170220Z 02007KT 350V050 9999 FEW040 12/08
                        Q1022 NOSIG=
200909170150 METAR COR EGLL 170150Z 02007KT 350V060 9999 FEW040 12/08
                        Q1022 NOSIG=
200909170120 METAR COR EGLL 170120Z 02005KT 340V050 9999 SCT036 12/09
                        Q1022 NOSIG=
200909170050 METAR COR EGLL 170050Z 03005KT 9999 BKN036 12/09 Q1022 NOSIG=
200909170020 METAR COR EGLL 170020Z 02006KT 350V050 9999 BKN039 13/09
                        Q1022 NOSIG=
200909162350 METAR COR EGLL 162350Z 03008KT 350V050 9999 OVC039 13/09
                        Q1023 NOSIG=
200909162320 METAR COR EGLL 162320Z 04007KT 360V070 9999 BKN038 13/10
                        Q1023 NOSIG=
200909162250 METAR COR EGLL 162250Z 03007KT 9999 BKN036 13/10 Q1023 NOSIG=
200909162220 METAR COR EGLL 162220Z 03006KT 360V060 9999 FEW037 13/10
                        Q1023 NOSIG=
200909162150 METAR COR EGLL 162150Z 03007KT CAVOK 13/10 Q1023 NOSIG=
200909162120 METAR COR EGLL 162120Z 03007KT 340V050 CAVOK 13/09 Q1023
                        NOSIG=
200909162050 METAR COR EGLL 162050Z 03008KT 350V070 CAVOK 14/10 Q1023
                        NOSIG=
200909162020 METAR COR EGLL 162020Z 03010KT 360V070 9999 FEW022 14/10
                        Q1023 NOSIG=
200909161950 METAR EGLL 161950Z 03007KT CAVOK 14/10 Q1023=
200909161920 METAR COR EGLL 161920Z 02010KT 9999 FEW042 15/09 Q1022 NOSIG=
200909161850 METAR COR EGLL 161850Z 03010KT 350V060 9999 SCT044 15/09
                        Q1022 NOSIG=
200909161820 METAR COR EGLL 161820Z 03012KT 360V070 9999 SCT045 16/09
                        Q1022 NOSIG=
200909161750 METAR COR EGLL 161750Z 03011G21KT 350V060 9999 FEW039 SCT046
                        16/09 Q1022 NOSIG=
200909161720 METAR COR EGLL 161720Z 03012KT 9999 FEW037 SCT046 17/09 Q1022
                        NOSIG=
200909161650 METAR COR EGLL 161650Z 05010KT 9999 FEW039 SCT049 18/09 Q1021
                        NOSIG=
200909161620 METAR COR EGLL 161620Z 03013KT 360V070 9999 FEW038 SCT047
                        18/09 Q1021 NOSIG=
200909161550 METAR COR EGLL 161550Z 03011KT 350V060 9999 FEW035 SCT043
                        18/09 Q1021 NOSIG=
200909161520 METAR COR EGLL 161520Z 03012KT 360V070 9999 FEW042 18/08
                        Q1021 NOSIG=
200909161450 METAR COR EGLL 161450Z 03011G22KT 360V060 9999 FEW042 19/09
                        Q1021 NOSIG=
200909161420 METAR COR EGLL 161420Z 03012KT 360V070 9999 SCT041 BKN046
                        19/09 Q1021 NOSIG=
200909161350 METAR COR EGLL 161350Z 03010KT 360V070 9999 SCT042 BKN049
                        19/09 Q1021 NOSIG=
200909161320 METAR COR EGLL 161320Z 05013KT 360V070 9999 BKN048 19/09
                        Q1021 NOSIG=
200909161250 METAR COR EGLL 161250Z 05012KT 020V080 9999 SCT041 19/09
                        Q1022 NOSIG=
200909161220 METAR COR EGLL 161220Z 03014KT 360V070 9999 SCT038 19/10
                        Q1022 NOSIG=
200909161150 METAR COR EGLL 161150Z 03011KT 360V070 9999 SCT034 19/10
                        Q1022 NOSIG=
200909161120 METAR COR EGLL 161120Z 04011KT 010V080 9999 SCT033 19/10
                        Q1022 TEMPO 03015G25KT=
200909161050 METAR COR EGLL 161050Z 03011KT 350V070 9999 FEW026 SCT034
                        18/11 Q1022 TEMPO 03015G25KT=
200909161020 METAR COR EGLL 161020Z 03011KT 360V070 9999 FEW023 SCT026
                        17/11 Q1022 TEMPO 04015G25KT=
200909160950 METAR COR EGLL 160950Z 05011KT 010V080 9999 FEW022 SCT025
                        17/11 Q1022 TEMPO 05015G25KT=
200909160920 METAR COR EGLL 160920Z 04011KT 9999 FEW020 SCT023 16/11 Q1022
                        TEMPO 04015G25KT=
200909160850 METAR COR EGLL 160850Z 04010KT 9999 FEW017 BKN022 15/11 Q1022
                        NOSIG=
200909160820 METAR EGLL 160820Z 02010KT 350V060 9999 FEW015 SCT018 15/12
                        Q1022 NOSIG=
200909160750 METAR COR EGLL 160750Z 02009KT 9999 SCT014 14/12 Q1022 NOSIG=
200909160720 METAR COR EGLL 160720Z 02009KT 330V050 9999 FEW013 14/12
                        Q1022 NOSIG=
200909160650 METAR EGLL 160650Z 03008KT 350V050 9999 BKN032 14/12 Q1022=
200909160620 METAR COR EGLL 160620Z 02009KT 350V060 9999 BKN028 14/12
                        Q1022 TEMPO BKN013=
200909160550 METAR COR EGLL 160550Z 02008KT 350V050 9999 FEW013 BKN023
                        14/12 Q1022 TEMPO BKN012=
200909160520 METAR COR EGLL 160520Z 03009KT 9999 FEW013 BKN021 14/12 Q1022
                        TEMPO BKN012=
200909160450 METAR COR EGLL 160450Z 02009KT 330V060 9999 FEW021 BKN025
                        14/12 Q1022 TEMPO BKN012=
200909160420 METAR EGLL 160420Z 02009KT 350V050 9999 FEW022 SCT029 14/12
                        Q1021=
200909160350 METAR COR EGLL 160350Z 02010KT 9999 FEW035 SCT043 14/12 Q1021
                        TEMPO BKN013=
200909160320 METAR COR EGLL 160320Z 02008KT 340V050 9999 FEW012 SCT035
                        BKN041 14/12 Q1021 TEMPO BKN011=
200909160250 METAR COR EGLL 160250Z 02006KT 340V050 9999 BKN013 BKN016
                        15/13 Q1021 TEMPO FEW012 BKN020=
200909160220 METAR COR EGLL 160220Z 02007KT 350V050 9999 BKN011 BKN016
                        15/13 Q1021 TEMPO SCT012 BKN020=
200909160150 METAR COR EGLL 160150Z 02006KT 350V060 9000 SCT010 BKN026
                        15/13 Q1021 TEMPO BKN010=
200909160120 METAR EGLL 160120Z 02008KT 360V070 9999 SCT015 BKN027 15/13
                        Q1021=
200909160050 METAR COR EGLL 160050Z 02007KT 350V050 9999 FEW008 BKN013
                        15/13 Q1021 TEMPO SCT012 BKN020=
200909160020 METAR COR EGLL 160020Z 01007KT 340V050 9000 DZ BKN009 15/14
                        Q1021 TEMPO NSW SCT010 BKN020=
200909152350 METAR EGLL 152350Z NIL=
200909152320 METAR EGLL 152320Z 03007KT 7000 DZ BKN011 15/14 Q1021=
200909152250 METAR COR EGLL 152250Z 04007KT 020V080 6000 -RA SCT010 BKN014
                        15/14 Q1021 TEMPO FEW012 BKN025=
200909152220 METAR COR EGLL 152220Z 04006KT 6000 -RA FEW008 SCT012 15/14
                        Q1021 TEMPO BKN010=
200909152150 METAR COR EGLL 152150Z 03007KT 010V070 6000 RA FEW006 BKN010
                        15/14 Q1021 BECMG -RA=
200909152120 METAR COR EGLL 152120Z 03007KT 360V060 4000 RA BKN007 15/14
                        Q1021 BECMG 7000 -RA FEW008 BKN012=
200909152050 METAR COR EGLL 152050Z 02008KT 5000 -RA SCT008 BKN010 15/14
                        Q1021 RERA TEMPO 4000 RA BKN009=
200909152020 METAR COR EGLL 152020Z 02007KT 340V060 5000 RA FEW006 BKN010
                        15/14 Q1021 TEMPO 4000 -RA BKN009=
200909151950 METAR COR EGLL 151950Z 02009KT 360V060 6000 RA FEW009 BKN010
                        15/14 Q1021 TEMPO 4500 -RA BKN009=
200909151920 METAR COR EGLL 151920Z 02008KT 9000 -RA FEW007 BKN010 15/14
                        Q1020 RERA TEMPO 4500 RA BKN009=
200909151850 METAR COR EGLL 151850Z 06006KT 010V090 4000 -RA SCT005 BKN009
                        15/14 Q1020 RERA TEMPO 7000 RA FEW006
                        BKN012=
200909151820 METAR COR EGLL 151820Z 04006KT 360V090 2600 RA SCT005 BKN008
                        15/14 Q1020 NOSIG=
200909151750 METAR COR EGLL 151750Z 03006KT 340V070 3600 -RA SCT005 BKN008
                        15/14 Q1019 NOSIG=
200909151720 METAR COR EGLL 151720Z 06006KT 020V100 8000 3000E -RADZ BKN005
                        BKN014 15/15 Q1019 NOSIG=
200909151650 METAR COR EGLL 151650Z 08006KT 2600 -RADZ FEW007 BKN010 BKN016
                        15/15 Q1019 NOSIG=
200909151620 METAR COR EGLL 151620Z 07005KT 2200 R09R/1500 RADZ SCT010
                        BKN013 16/15 Q1019 NOSIG=
200909151550 METAR COR EGLL 151550Z 06005KT 4000 -RADZ FEW005 BKN013 15/14
                        Q1019 RERA NOSIG=
200909151520 METAR COR EGLL 151520Z 07006KT 3000 RA FEW009 BKN012 BKN017
                        15/14 Q1019 NOSIG=
200909151450 METAR COR EGLL 151450Z 05006KT 020V080 5000 -RA FEW010 BKN014
                        15/14 Q1019 NOSIG=
200909151420 METAR COR EGLL 151420Z 05005KT 010V070 5000 -DZ FEW011 BKN013
                        15/14 Q1019 NOSIG=
200909151350 METAR COR EGLL 151350Z 07008KT 4300 -DZ BKN011 15/14 Q1019
                        NOSIG=
200909151320 METAR COR EGLL 151320Z 05008KT 340V080 8000 -RA BKN015 BKN019
                        15/14 Q1019 TEMPO BKN012=
200909151250 METAR EGLL 151250Z 03007KT 340V070 5000 -RA BKN012 BKN017
                        15/14 Q1020=
200909151220 METAR COR EGLL 151220Z 03010KT 5000 -RA BKN013 BKN020 15/13
                        Q1019 NOSIG=
200909151150 METAR EGLL 151150Z 03012KT 9999 7000E -RA BKN019 BKN021 17/13
                        Q1019=
200909151120 METAR COR EGLL 151120Z 02011KT 340V050 9999 BKN021 17/12
                        Q1020 TEMPO RA BKN014=
200909151050 METAR COR EGLL 151050Z 01010KT 9999 VCSH SCT020 BKN034 16/12
                        Q1020 TEMPO SHRA BKN014=
200909151020 METAR COR EGLL 151020Z 01012KT 340V050 9999 VCSH SCT021 SCT043
                        16/12 Q1020 TEMPO SHRA BKN014=
200909150950 METAR COR EGLL 150950Z 01011G21KT 340V050 9999 -SHRA SCT019
                        SCT043 16/12 Q1020 TEMPO BKN014=
200909150920 METAR COR EGLL 150920Z 01009KT 340V050 9999 BKN018 16/12
                        Q1020 NOSIG=
200909150850 METAR COR EGLL 150850Z 01010KT 330V050 9999 SCT018 16/12
                        Q1020 NOSIG=
200909150820 METAR COR EGLL 150820Z 01009KT 330V080 9999 BKN016 16/12
                        Q1021 TEMPO BKN014=
200909150750 METAR COR EGLL 150750Z 01009KT 330V060 9999 SCT017 16/12
                        Q1021 TEMPO BKN014=
200909150720 METAR COR EGLL 150720Z 02008KT 340V050 9999 SCT015 15/12
                        Q1021 TEMPO BKN014=
200909150650 METAR COR EGLL 150650Z 01007KT 340V040 9999 SCT014 SCT021
                        15/12 Q1021 NOSIG=
200909150620 METAR COR EGLL 150620Z 01007KT 340V050 9999 SCT014 BKN018
                        15/12 Q1021 TEMPO BKN014=
200909150550 METAR COR EGLL 150550Z 01006KT 340V040 9999 SCT016 BKN030
                        15/12 Q1021 NOSIG=
200909150520 METAR COR EGLL 150520Z 02007KT 340V050 9999 SCT013 BKN049
                        14/12 Q1021 NOSIG=
200909150450 METAR COR EGLL 150450Z 02006KT 330V050 9999 SCT015 SCT020
                        14/12 Q1021 NOSIG=
200909150420 METAR COR EGLL 150420Z 02008KT 330V050 9999 FEW014 15/12
                        Q1021 TEMPO BKN014=
200909150350 METAR COR EGLL 150350Z 01008KT 9999 SCT014 BKN020 15/12 Q1022
                        TEMPO BKN014=
200909150320 METAR COR EGLL 150320Z 02008KT 330V050 9999 BKN015 15/12
                        Q1022 TEMPO BKN014=
200909150250 METAR COR EGLL 150250Z 02007KT 320V050 9999 BKN015 15/11
                        Q1022 TEMPO BKN014=
200909150220 METAR EGLL 150220Z 02009KT 340V050 9999 -RA BKN014 15/12
                        Q1022=
200909150150 METAR COR EGLL 150150Z 01009KT 330V040 9999 SCT014 14/11
                        Q1022 TEMPO BKN014=
200909150120 METAR COR EGLL 150120Z 01008KT 340V050 9999 FEW015 14/11
                        Q1023 TEMPO BKN014=
200909150050 METAR COR EGLL 150050Z 01007KT 340V050 9999 SCT014 14/11
                        Q1023 TEMPO BKN014=
200909150020 METAR COR EGLL 150020Z 01008KT 340V050 9999 FEW015 SCT017
                        14/11 Q1023 NOSIG=
200909142350 METAR COR EGLL 142350Z 02007KT 330V060 9999 FEW017 14/11
                        Q1023 NOSIG=
200909142320 METAR COR EGLL 142320Z 02009KT 340V050 9999 FEW016 14/11
                        Q1023 NOSIG=
200909142250 METAR COR EGLL 142250Z 02008KT 340V050 9999 FEW016 14/11
                        Q1024 NOSIG=
200909142220 METAR COR EGLL 142220Z 36008KT 330V040 9999 FEW016 14/11
                        Q1024 NOSIG=
200909142150 METAR COR EGLL 142150Z 02009KT 9999 FEW016 14/11 Q1024 NOSIG=
200909142120 METAR COR EGLL 142120Z 02008KT 340V050 9999 FEW021 15/11
                        Q1024 NOSIG=
200909142050 METAR COR EGLL 142050Z 01008KT 340V040 9999 SCT019 15/11
                        Q1024 NOSIG=
200909142020 METAR COR EGLL 142020Z 01007KT 330V050 9999 FEW023 15/11
                        Q1024 NOSIG=
200909141950 METAR COR EGLL 141950Z 02007KT 340V050 9999 FEW024 15/11
                        Q1024 NOSIG=
200909141920 METAR COR EGLL 141920Z 02008KT 350V070 9999 FEW024 16/11
                        Q1024 NOSIG=
200909141850 METAR EGLL 141850Z 02009KT 340V050 9999 FEW030 16/10 Q1024=
200909141820 METAR COR EGLL 141820Z 02009KT 340V060 9999 FEW031 17/10
                        Q1024 NOSIG=
200909141750 METAR COR EGLL 141750Z 02010KT 340V050 9999 FEW033 17/10
                        Q1024 NOSIG=
200909141720 METAR COR EGLL 141720Z 01010KT 330V060 9999 FEW032 17/10
                        Q1024 NOSIG=
200909141650 METAR COR EGLL 141650Z 03011KT 350V050 9999 VCSH FEW034 18/10
                        Q1024 NOSIG=
200909141620 METAR COR EGLL 141620Z 02010KT 340V050 9999 FEW036 18/10
                        Q1024 NOSIG=
200909141550 METAR EGLL 141550Z 01011KT 330V050 9999 FEW036 SCT043 19/09
                        Q1024=
200909141520 METAR COR EGLL 141520Z 36010KT 9999 SCT041 19/09 Q1024 NOSIG=
200909141450 METAR COR EGLL 141450Z 02009KT 330V060 9999 SCT040 19/09
                        Q1024 NOSIG=
200909141420 METAR COR EGLL 141420Z 03009KT 350V070 9999 SCT040 SCT047
                        19/09 Q1024 NOSIG=
200909141350 METAR COR EGLL 141350Z 02011KT 340V060 9999 SCT039 19/09
                        Q1025 NOSIG=
200909141320 METAR COR EGLL 141320Z 03010KT 330V070 9999 SCT041 20/09
                        Q1025 NOSIG=
200909141250 METAR COR EGLL 141250Z 02009KT 310V080 9999 SCT035 20/09
                        Q1025 NOSIG=
200909141220 METAR COR EGLL 141220Z 02009KT 340V080 9999 FEW032 SCT041
                        19/09 Q1026 NOSIG=
200909141150 METAR COR EGLL 141150Z 02010KT 340V040 9999 SCT034 BKN046
                        18/10 Q1026 NOSIG=
200909141120 METAR COR EGLL 141120Z 01009KT 340V050 9999 SCT029 BKN047
                        18/10 Q1026 NOSIG=
200909141050 METAR EGLL 141050Z 03010KT 350V050 9999 SCT027 BKN043 17/10
                        Q1026=
200909141020 METAR COR EGLL 141020Z 02009KT 340V050 9999 FEW028 BKN036
                        17/10 Q1026 NOSIG=
200909140950 METAR COR EGLL 140950Z 04011KT 9999 SCT025 SCT033 17/10 Q1026
                        NOSIG=
200909140920 METAR COR EGLL 140920Z 01009KT 340V050 9999 SCT024 SCT030
                        16/10 Q1026 NOSIG=
200909140850 METAR COR EGLL 140850Z 01009KT 310V060 9999 SCT022 16/10
                        Q1026 NOSIG=
200909140820 METAR COR EGLL 140820Z 02010KT 340V050 9999 SCT024 16/10
                        Q1026 NOSIG=
200909140750 METAR COR EGLL 140750Z 36008KT 340V040 9999 FEW016 SCT043
                        15/10 Q1027 NOSIG=
200909140720 METAR EGLL 140720Z 36007KT 340V040 9999 FEW016 SCT038 14/10
                        Q1027=
200909140650 METAR COR EGLL 140650Z 01006KT 340V050 9999 BKN037 13/09
                        Q1027 NOSIG=
200909140620 METAR COR EGLL 140620Z 03006KT 340V050 9999 BKN036 13/09
                        Q1027 NOSIG=
200909140550 METAR COR EGLL 140550Z 01006KT 340V050 9999 BKN036 13/09
                        Q1027 NOSIG=
200909140520 METAR COR EGLL 140520Z 01005KT 330V050 9999 BKN038 13/09
                        Q1027 NOSIG=
200909140450 METAR COR EGLL 140450Z 01006KT 9999 BKN038 13/09 Q1027 NOSIG=
200909140420 METAR COR EGLL 140420Z 36007KT 9999 BKN041 13/09 Q1026 NOSIG=
200909140350 METAR COR EGLL 140350Z 36008KT 9999 BKN039 13/09 Q1026 NOSIG=
200909140320 METAR COR EGLL 140320Z 36006KT 320V030 9999 OVC037 13/09
                        Q1027 NOSIG=
200909140250 METAR COR EGLL 140250Z 36008KT 9999 BKN037 13/09 Q1027 NOSIG=
200909140220 METAR COR EGLL 140220Z 36007KT 9999 BKN038 14/09 Q1027 NOSIG=
200909140150 METAR EGLL 140150Z 36007KT 9999 BKN038 14/09 Q1027=
200909140120 METAR COR EGLL 140120Z 36006KT 330V040 9999 BKN035 14/09
                        Q1027 NOSIG=
200909140050 METAR COR EGLL 140050Z 36007KT 330V030 9999 BKN036 14/08
                        Q1027 NOSIG=
200909140020 METAR COR EGLL 140020Z 36006KT 300V040 9999 BKN036 14/08
                        Q1027 NOSIG=
200909132350 METAR COR EGLL 132350Z 36005KT 320V040 9999 BKN035 14/08
                        Q1028 NOSIG=
200909132320 METAR COR EGLL 132320Z 36005KT 330V030 9999 BKN035 14/08
                        Q1028 NOSIG=
200909132250 METAR COR EGLL 132250Z 36006KT 340V040 9999 BKN034 14/08
                        Q1028 NOSIG=
200909132220 METAR COR EGLL 132220Z 36006KT 330V030 9999 BKN035 14/08
                        Q1028 NOSIG=
200909132150 METAR COR EGLL 132150Z 01005KT 330V050 9999 BKN034 14/08
                        Q1028 NOSIG=
200909132120 METAR COR EGLL 132120Z 02009KT 340V050 9999 FEW026 BKN040
                        14/08 Q1028 NOSIG=
200909132050 METAR COR EGLL 132050Z 02007KT 330V060 9999 BKN030 14/08
                        Q1028 NOSIG=
200909132020 METAR COR EGLL 132020Z 03007KT 350V070 9999 BKN030 14/08
                        Q1028 NOSIG=
200909131950 METAR COR EGLL 131950Z 02007KT 350V070 9999 BKN030 14/08
                        Q1028 NOSIG=
200909131920 METAR COR EGLL 131920Z 02008KT 350V050 9999 BKN032 15/08
                        Q1028 NOSIG=
200909131850 METAR COR EGLL 131850Z 02008KT 350V060 9999 SCT029 BKN033
                        15/08 Q1028 NOSIG=
200909131820 METAR COR EGLL 131820Z 03011KT 350V050 9999 BKN028 15/08
                        Q1027 NOSIG=
200909131750 METAR COR EGLL 131750Z 04010KT 360V070 9999 SCT030 15/08
                        Q1027 NOSIG=
200909131720 METAR COR EGLL 131720Z 03010KT 9999 SCT030 16/08 Q1027 NOSIG=
200909131650 METAR COR EGLL 131650Z 03010KT 340V060 9999 SCT035 BKN041
                        16/08 Q1027 NOSIG=
200909131620 METAR COR EGLL 131620Z 03010KT 360V060 9999 SCT033 BKN041
                        17/08 Q1027 NOSIG=
200909131550 METAR COR EGLL 131550Z 02009KT 340V070 9999 SCT035 17/09
                        Q1027 NOSIG=
200909131520 METAR COR EGLL 131520Z 04008KT 350V060 9999 FEW030 BKN040
                        17/09 Q1027 NOSIG=
200909131450 METAR COR EGLL 131450Z 02009KT 330V070 9999 FEW035 BKN043
                        17/09 Q1027 NOSIG=
200909131420 METAR COR EGLL 131420Z 02009KT 350V050 9999 SCT034 BKN039
                        17/09 Q1027 NOSIG=
200909131350 METAR COR EGLL 131350Z 03008KT 350V060 9999 FEW025 BKN040
                        18/09 Q1027 NOSIG=
200909131320 METAR COR EGLL 131320Z 02009KT 340V070 9999 FEW029 BKN043
                        17/09 Q1028 NOSIG=
200909131250 METAR COR EGLL 131250Z 36009KT 340V040 9999 FEW030 BKN036
                        17/09 Q1028 NOSIG=
200909131220 METAR COR EGLL 131220Z 01008KT 330V050 9999 FEW031 BKN037
                        18/09 Q1028 NOSIG=
200909131150 METAR COR EGLL 131150Z 01007KT 330V080 9999 BKN031 17/09
                        Q1028 NOSIG=
200909131120 METAR COR EGLL 131120Z 01008KT 330V060 9999 SCT024 BKN033
                        16/10 Q1028 NOSIG=
200909131050 METAR COR EGLL 131050Z 01007KT 340V060 9999 SCT025 BKN034
                        16/10 Q1028 NOSIG=
200909131020 METAR COR EGLL 131020Z 01007KT 340V040 9999 SCT024 SCT031
                        BKN035 17/10 Q1028 NOSIG=
200909130950 METAR COR EGLL 130950Z 01006KT 330V050 9999 FEW020 BKN033
                        16/11 Q1028 NOSIG=
200909130920 METAR COR EGLL 130920Z 36006KT 310V040 9999 FEW016 BKN032
                        15/11 Q1028 NOSIG=
200909130850 METAR COR EGLL 130850Z 36007KT 9999 FEW012 BKN035 15/11 Q1028
                        NOSIG=
200909130820 METAR COR EGLL 130820Z 36006KT 310V020 9999 SCT011 BKN033
                        14/11 Q1029 NOSIG=
200909130750 METAR COR EGLL 130750Z 36005KT 330V040 9999 FEW021 BKN033
                        13/11 Q1029 NOSIG=
200909130720 METAR COR EGLL 130720Z 36004KT 9000 SCT021 BKN033 13/11 Q1029
                        NOSIG=
200909130650 METAR COR EGLL 130650Z 36004KT 320V050 9000 4000NE BKN021
                        12/11 Q1029 NOSIG=
200909130620 METAR COR EGLL 130620Z 36005KT 340V050 7000 3000E HZ FEW003
                        11/10 Q1029 NOSIG=
200909130550 METAR COR EGLL 130550Z 01005KT 340V040 9000 NSC 11/10 Q1028
                        NOSIG=
200909130520 METAR COR EGLL 130520Z 02005KT 340V050 CAVOK 11/09 Q1028
                        NOSIG=
200909130450 METAR COR EGLL 130450Z 01005KT CAVOK 11/09 Q1028 NOSIG=
200909130420 METAR COR EGLL 130420Z 35004KT 9999 FEW030 11/08 Q1028 NOSIG=
200909130350 METAR COR EGLL 130350Z 35005KT CAVOK 11/08 Q1028 NOSIG=
200909130320 METAR COR EGLL 130320Z VRB03KT CAVOK 11/08 Q1028 NOSIG=
200909130250 METAR COR EGLL 130250Z 36005KT CAVOK 11/09 Q1028 NOSIG=
200909130220 METAR COR EGLL 130220Z 35004KT CAVOK 11/09 Q1028 NOSIG=
200909130150 METAR COR EGLL 130150Z 35003KT CAVOK 12/09 Q1028 NOSIG=
200909130120 METAR COR EGLL 130120Z 34003KT CAVOK 12/09 Q1028 NOSIG=
200909130050 METAR COR EGLL 130050Z 00000KT CAVOK 12/10 Q1028 NOSIG=
200909130020 METAR COR EGLL 130020Z 36004KT CAVOK 13/10 Q1028 NOSIG=
200909122350 METAR COR EGLL 122350Z 33002KT CAVOK 14/10 Q1028 NOSIG=
200909122320 METAR COR EGLL 122320Z 34002KT CAVOK 14/11 Q1028 NOSIG=
200909122250 METAR COR EGLL 122250Z 00000KT CAVOK 14/11 Q1028 NOSIG=
200909122220 METAR COR EGLL 122220Z 08002KT CAVOK 15/11 Q1028 NOSIG=
200909122150 METAR COR EGLL 122150Z 08002KT CAVOK 15/11 Q1028 NOSIG=
200909122120 METAR COR EGLL 122120Z 09003KT CAVOK 15/11 Q1028 NOSIG=
200909122050 METAR COR EGLL 122050Z 10004KT CAVOK 16/11 Q1028 NOSIG=
200909122020 METAR COR EGLL 122020Z 10004KT CAVOK 16/10 Q1028 NOSIG=
200909121950 METAR COR EGLL 121950Z VRB03KT CAVOK 18/10 Q1028 NOSIG=
200909121920 METAR COR EGLL 121920Z VRB02KT CAVOK 19/10 Q1028 NOSIG=
200909121850 METAR COR EGLL 121850Z 02004KT 350V060 CAVOK 19/09 Q1028
                        NOSIG=
200909121820 METAR COR EGLL 121820Z 02006KT 340V070 CAVOK 20/09 Q1028
                        NOSIG=
200909121750 METAR COR EGLL 121750Z 01005KT 340V050 CAVOK 21/09 Q1028
                        NOSIG=
200909121720 METAR COR EGLL 121720Z 02006KT 320V050 CAVOK 21/09 Q1028
                        NOSIG=
200909121650 METAR COR EGLL 121650Z 03006KT 340V060 CAVOK 21/09 Q1028
                        NOSIG=
200909121620 METAR COR EGLL 121620Z 03006KT 320V090 CAVOK 22/10 Q1028
                        NOSIG=
200909121550 METAR COR EGLL 121550Z 05007KT 340V100 CAVOK 22/10 Q1029
                        NOSIG=
200909121520 METAR COR EGLL 121520Z 05008KT 340V100 CAVOK 22/10 Q1029
                        NOSIG=
200909121450 METAR COR EGLL 121450Z 04007KT 310V090 CAVOK 22/09 Q1029
                        NOSIG=
200909121420 METAR COR EGLL 121420Z 04007KT 010V080 CAVOK 22/09 Q1029
                        NOSIG=
200909121350 METAR COR EGLL 121350Z 06007KT 010V100 9999 FEW044 22/10
                        Q1030 NOSIG=
200909121320 METAR COR EGLL 121320Z 05006KT 360V090 9999 BKN042 21/09
                        Q1030 NOSIG=
200909121250 METAR COR EGLL 121250Z 04006KT 330V100 9999 SCT040 21/09
                        Q1030 NOSIG=
200909121220 METAR COR EGLL 121220Z 05008KT 020V080 9999 FEW035 SCT040
                        21/10 Q1030 NOSIG=
200909121150 METAR COR EGLL 121150Z 07007KT 030V100 9999 SCT034 SCT039
                        20/10 Q1031 NOSIG=
200909121120 METAR COR EGLL 121120Z 05007KT 350V100 9999 BKN033 20/10
                        Q1031 NOSIG=
200909121050 METAR COR EGLL 121050Z 05007KT 360V080 9999 SCT029 20/11
                        Q1031 NOSIG=
200909121020 METAR COR EGLL 121020Z 04007KT 010V090 9999 SCT028 19/11
                        Q1031 NOSIG=
200909120950 METAR COR EGLL 120950Z 04007KT 350V090 9999 FEW023 18/11
                        Q1031 NOSIG=
200909120920 METAR COR EGLL 120920Z 05009KT 010V080 9999 FEW022 18/11
                        Q1031 NOSIG=
200909120850 METAR COR EGLL 120850Z 05008KT 010V080 9999 FEW030 17/11
                        Q1031 NOSIG=
200909120820 METAR COR EGLL 120820Z 05008KT 360V070 9999 FEW032 16/11
                        Q1031 NOSIG=
200909120750 METAR COR EGLL 120750Z 04007KT 360V080 9999 FEW030 15/11
                        Q1032 NOSIG=
200909120720 METAR COR EGLL 120720Z 03005KT 350V090 9999 FEW030 14/11
                        Q1032 NOSIG=
200909120650 METAR EGLL 120650Z 02005KT 340V050 CAVOK 12/10 Q1032=
200909120620 METAR COR EGLL 120620Z 02004KT 320V060 9999 FEW037 12/10
                        Q1032 NOSIG=
200909120550 METAR COR EGLL 120550Z 35005KT 320V030 9999 FEW037 12/10
                        Q1032 NOSIG=
200909120520 METAR COR EGLL 120520Z VRB03KT CAVOK 12/10 Q1032 NOSIG=
200909120450 METAR COR EGLL 120450Z VRB02KT 9999 FEW037 12/10 Q1032 NOSIG=
200909120420 METAR COR EGLL 120420Z VRB03KT 9999 FEW036 13/10 Q1032 NOSIG=
200909120350 METAR COR EGLL 120350Z VRB03KT 9999 BKN038 13/10 Q1032 NOSIG=
200909120320 METAR COR EGLL 120320Z 35004KT 9999 BKN036 13/10 Q1032 NOSIG=
200909120250 METAR COR EGLL 120250Z 36004KT 310V050 9999 BKN035 13/10
                        Q1032 NOSIG=
200909120220 METAR COR EGLL 120220Z 03005KT 350V090 9999 BKN035 13/10
                        Q1033 NOSIG=
200909120150 METAR COR EGLL 120150Z 03004KT 330V060 9999 BKN035 13/10
                        Q1033 NOSIG=
200909120120 METAR COR EGLL 120120Z 00000KT 9999 FEW035 12/10 Q1033 NOSIG=
200909120050 METAR COR EGLL 120050Z VRB03KT 9999 FEW035 13/10 Q1033 NOSIG=
200909120020 METAR COR EGLL 120020Z 04005KT 360V070 CAVOK 13/10 Q1033
                        NOSIG=
200909112350 METAR COR EGLL 112350Z 03005KT 010V070 CAVOK 14/10 Q1033
                        NOSIG=
200909112320 METAR COR EGLL 112320Z 05005KT CAVOK 14/10 Q1033 NOSIG=
200909112250 METAR COR EGLL 112250Z 05005KT CAVOK 14/09 Q1034 NOSIG=
200909112220 METAR COR EGLL 112220Z 05005KT 010V080 CAVOK 15/09 Q1034
                        NOSIG=
200909112150 METAR COR EGLL 112150Z 06009KT CAVOK 15/09 Q1034 NOSIG=
200909112120 METAR COR EGLL 112120Z 06012KT CAVOK 16/10 Q1034 NOSIG=
200909112050 METAR COR EGLL 112050Z 06009KT 9999 FEW035 17/09 Q1034 NOSIG=
200909112020 METAR COR EGLL 112020Z 06007KT 9999 SCT037 17/09 Q1034 NOSIG=
200909111950 METAR COR EGLL 111950Z 05006KT 9999 BKN045 18/09 Q1034 NOSIG=
200909111920 METAR COR EGLL 111920Z 05006KT 010V080 9999 BKN042 18/09
                        Q1034 NOSIG=
200909111850 METAR COR EGLL 111850Z 05006KT 9999 BKN046 19/08 Q1034 NOSIG=
200909111820 METAR COR EGLL 111820Z 05006KT 9999 BKN045 19/08 Q1034 NOSIG=
200909111750 METAR COR EGLL 111750Z 05007KT 9999 BKN045 19/08 Q1034 NOSIG=
200909111720 METAR COR EGLL 111720Z 04007KT 360V070 9999 BKN045 19/08
                        Q1034 NOSIG=
200909111650 METAR COR EGLL 111650Z 06009KT 9999 BKN047 19/08 Q1034 NOSIG=
200909111620 METAR COR EGLL 111620Z 03009KT 9999 BKN045 20/08 Q1034 NOSIG=
200909111550 METAR COR EGLL 111550Z 05009KT 010V080 9999 BKN043 20/09
                        Q1034 NOSIG=
200909111520 METAR COR EGLL 111520Z 04008KT 360V080 9999 BKN043 20/09
                        Q1034 NOSIG=
200909111450 METAR COR EGLL 111450Z 04008KT 350V080 9999 BKN047 20/08
                        Q1034 NOSIG=
200909111420 METAR COR EGLL 111420Z 07010KT 9999 BKN045 20/09 Q1034 NOSIG=
200909111350 METAR COR EGLL 111350Z 06009KT 9999 BKN042 20/09 Q1035 NOSIG=
200909111320 METAR COR EGLL 111320Z 05009KT 350V080 9999 BKN043 20/09
                        Q1035 NOSIG=
200909111250 METAR COR EGLL 111250Z 06009KT 020V090 9999 FEW038 SCT043
                        20/09 Q1035 NOSIG=
200909111220 METAR COR EGLL 111220Z 06009KT 020V080 9999 SCT038 19/09
                        Q1036 NOSIG=
200909111150 METAR COR EGLL 111150Z 05007KT 010V090 9999 SCT034 19/09
                        Q1036 NOSIG=
200909111120 METAR COR EGLL 111120Z 07010KT 9999 FEW029 SCT034 18/10 Q1036
                        NOSIG=
200909111050 METAR COR EGLL 111050Z 05008KT 020V100 9999 SCT025 SCT030
                        18/10 Q1037 NOSIG=
200909111020 METAR COR EGLL 111020Z 04008KT 360V080 9999 SCT028 17/10
                        Q1037 NOSIG=
200909110950 METAR COR EGLL 110950Z 04008KT 010V070 9999 FEW022 17/10
                        Q1037 NOSIG=
200909110920 METAR COR EGLL 110920Z 04008KT 330V090 9999 FEW015 16/11
                        Q1037 NOSIG=
200909110850 METAR COR EGLL 110850Z 03005KT 320V060 9999 FEW010 14/11
                        Q1037 NOSIG=
200909110820 METAR COR EGLL 110820Z 02006KT 350V050 9999 FEW010 13/11
                        Q1037 NOSIG=
200909110750 METAR COR EGLL 110750Z 02005KT 330V050 9999 FEW007 13/10
                        Q1038 NOSIG=
200909110720 METAR COR EGLL 110720Z 02005KT 330V050 9999 FEW007 12/11
                        Q1038 NOSIG=
200909110650 METAR COR EGLL 110650Z 02006KT 340V060 9999 SCT006 12/10
                        Q1038 TEMPO BKN006=
200909110620 METAR COR EGLL 110620Z 02006KT 350V050 9999 SCT005 11/09
                        Q1038 TEMPO BKN005=
200909110550 METAR COR EGLL 110550Z 02006KT 340V060 9999 FEW005 10/09
                        Q1037 TEMPO BKN005=
200909110520 METAR COR EGLL 110520Z 01005KT 340V050 CAVOK 10/08 Q1037
                        NOSIG=
200909110450 METAR COR EGLL 110450Z VRB03KT CAVOK 10/08 Q1037 NOSIG=
200909110420 METAR COR EGLL 110420Z 36004KT 330V060 CAVOK 11/09 Q1037
                        NOSIG=
200909110350 METAR COR EGLL 110350Z 35004KT 320V030 CAVOK 11/09 Q1037
                        NOSIG=
200909110320 METAR COR EGLL 110320Z VRB02KT CAVOK 12/09 Q1037 NOSIG=
200909110250 METAR COR EGLL 110250Z VRB03KT CAVOK 12/09 Q1037 NOSIG=
200909110220 METAR COR EGLL 110220Z VRB03KT CAVOK 12/09 Q1037 NOSIG=
200909110150 METAR EGLL 110150Z VRB02KT CAVOK 12/09 Q1037=
200909110120 METAR COR EGLL 110120Z VRB02KT CAVOK 12/09 Q1037 NOSIG=
200909110050 METAR COR EGLL 110050Z 02004KT 340V060 CAVOK 12/09 Q1037
                        NOSIG=
200909110020 METAR COR EGLL 110020Z 03005KT 350V060 CAVOK 12/09 Q1037
                        NOSIG=
200909102350 METAR COR EGLL 102350Z 03006KT 340V060 CAVOK 13/09 Q1037
                        NOSIG=
200909102320 METAR COR EGLL 102320Z 04006KT 360V060 CAVOK 13/09 Q1037
                        NOSIG=
200909102250 METAR COR EGLL 102250Z 04007KT 010V070 CAVOK 13/09 Q1037
                        NOSIG=
200909102220 METAR COR EGLL 102220Z 05006KT CAVOK 14/09 Q1037 NOSIG=
200909102150 METAR COR EGLL 102150Z 04006KT CAVOK 14/08 Q1037 NOSIG=
200909102120 METAR COR EGLL 102120Z 04007KT 010V070 CAVOK 14/08 Q1037
                        NOSIG=
200909102050 METAR COR EGLL 102050Z 04006KT 010V070 CAVOK 15/08 Q1037
                        NOSIG=
200909102020 METAR COR EGLL 102020Z 04007KT CAVOK 15/08 Q1037 NOSIG=
200909101950 METAR COR EGLL 101950Z 04006KT 010V070 CAVOK 16/07 Q1037
                        NOSIG=
200909101920 METAR COR EGLL 101920Z 04008KT 010V070 CAVOK 17/07 Q1036
                        NOSIG=
200909101850 METAR COR EGLL 101850Z 04007KT 9999 FEW046 17/07 Q1036 NOSIG=
200909101820 METAR COR EGLL 101820Z 05006KT 9999 FEW048 18/07 Q1036 NOSIG=
200909101750 METAR COR EGLL 101750Z 05008KT 020V080 9999 SCT046 18/08
                        Q1036 NOSIG=
200909101720 METAR COR EGLL 101720Z 05008KT 010V080 9999 SCT048 18/07
                        Q1036 NOSIG=
200909101650 METAR COR EGLL 101650Z 05010KT 010V070 9999 SCT044 18/07
                        Q1035 NOSIG=
200909101620 METAR COR EGLL 101620Z 05010KT 9999 SCT043 19/08 Q1035 NOSIG=
200909101550 METAR COR EGLL 101550Z 03010KT 360V060 9999 SCT043 19/08
                        Q1035 NOSIG=
200909101520 METAR COR EGLL 101520Z 04010KT 010V070 9999 SCT046 19/07
                        Q1035 NOSIG=
200909101450 METAR COR EGLL 101450Z 02010KT 340V050 9999 SCT046 20/08
                        Q1035 NOSIG=
200909101420 METAR COR EGLL 101420Z 05009KT 010V090 9999 BKN042 19/08
                        Q1035 NOSIG=
200909101350 METAR COR EGLL 101350Z 05010KT 350V090 9999 BKN041 20/07
                        Q1035 NOSIG=
200909101320 METAR EGLL 101320Z 03009KT 340V060 9999 BKN041 20/08 Q1036=
200909101250 METAR COR EGLL 101250Z 03010KT 330V060 9999 BKN041 19/08
                        Q1036 NOSIG=
200909101220 METAR COR EGLL 101220Z 02008KT 330V050 9999 BKN040 20/08
                        Q1035 NOSIG=
200909101150 METAR COR EGLL 101150Z 06008KT 020V100 9999 SCT041 19/08
                        Q1035 NOSIG=
200909101120 METAR COR EGLL 101120Z 04008KT 350V090 9999 SCT035 18/08
                        Q1035 NOSIG=
200909101050 METAR COR EGLL 101050Z 06010KT 020V100 9999 FEW032 18/09
                        Q1035 NOSIG=
200909101020 METAR COR EGLL 101020Z 01009KT 340V060 9999 FEW032 17/09
                        Q1036 NOSIG=
200909100950 METAR COR EGLL 100950Z 02010KT 350V050 9999 FEW028 16/09
                        Q1036 NOSIG=
200909100920 METAR COR EGLL 100920Z 01008KT 340V050 CAVOK 16/09 Q1036
                        NOSIG=
200909100850 METAR COR EGLL 100850Z 01007KT 320V050 CAVOK 16/09 Q1036
                        NOSIG=
200909100820 METAR COR EGLL 100820Z 01008KT 330V040 9999 FEW015 14/10
                        Q1036 NOSIG=
200909100750 METAR COR EGLL 100750Z 02006KT 340V060 CAVOK 13/09 Q1035
                        NOSIG=
200909100720 METAR COR EGLL 100720Z 01006KT 350V060 CAVOK 12/09 Q1035
                        NOSIG=
200909100650 METAR COR EGLL 100650Z 36005KT 330V040 CAVOK 11/08 Q1035
                        NOSIG=
200909100620 METAR COR EGLL 100620Z 36005KT 320V040 CAVOK 10/08 Q1035
                        NOSIG=
200909100550 METAR COR EGLL 100550Z 36005KT 320V040 CAVOK 10/08 Q1035
                        NOSIG=
200909100520 METAR COR EGLL 100520Z 36006KT 330V030 CAVOK 10/08 Q1034
                        NOSIG=
200909100450 METAR COR EGLL 100450Z 01004KT 330V060 CAVOK 10/08 Q1034
                        NOSIG=
200909100420 METAR COR EGLL 100420Z 36004KT 320V050 CAVOK 10/08 Q1034
                        NOSIG=
200909100350 METAR COR EGLL 100350Z 36006KT CAVOK 10/08 Q1034 NOSIG=
200909100320 METAR COR EGLL 100320Z 36005KT CAVOK 10/08 Q1034 NOSIG=
200909100250 METAR COR EGLL 100250Z 35005KT 330V040 CAVOK 10/08 Q1034
                        NOSIG=
200909100220 METAR COR EGLL 100220Z 36005KT CAVOK 10/08 Q1034 NOSIG=
200909100150 METAR COR EGLL 100150Z 36004KT 330V030 CAVOK 10/08 Q1034
                        NOSIG=
200909100120 METAR COR EGLL 100120Z 35004KT 330V040 CAVOK 11/08 Q1034
                        NOSIG=
200909100050 METAR COR EGLL 100050Z VRB03KT CAVOK 12/08 Q1033 NOSIG=
200909100020 METAR COR EGLL 100020Z 03005KT CAVOK 12/08 Q1033 NOSIG=
200909092350 METAR COR EGLL 092350Z 03004KT 360V070 CAVOK 12/07 Q1033
                        NOSIG=
200909092320 METAR COR EGLL 092320Z 01004KT 320V040 CAVOK 12/07 Q1033
                        NOSIG=
200909092250 METAR COR EGLL 092250Z 02003KT CAVOK 13/06 Q1033 NOSIG=
200909092220 METAR COR EGLL 092220Z 04004KT CAVOK 14/06 Q1033 NOSIG=
200909092150 METAR COR EGLL 092150Z 04005KT 360V070 CAVOK 15/06 Q1033
                        NOSIG=
200909092120 METAR COR EGLL 092120Z 04005KT CAVOK 15/06 Q1032 NOSIG=
200909092050 METAR COR EGLL 092050Z 04006KT 010V070 CAVOK 16/06 Q1032
                        NOSIG=
200909092020 METAR COR EGLL 092020Z 04005KT CAVOK 17/06 Q1032 NOSIG=
200909091950 METAR COR EGLL 091950Z 04005KT 010V070 CAVOK 17/06 Q1032
                        NOSIG=
200909091920 METAR COR EGLL 091920Z 05005KT CAVOK 17/06 Q1031 NOSIG=
200909091850 METAR COR EGLL 091850Z 06006KT CAVOK 18/06 Q1031 NOSIG=
200909091820 METAR COR EGLL 091820Z 04006KT 360V070 CAVOK 18/06 Q1031
                        NOSIG=
200909091750 METAR COR EGLL 091750Z 05007KT 010V080 CAVOK 19/06 Q1030
                        NOSIG=
200909091720 METAR COR EGLL 091720Z 05007KT CAVOK 19/07 Q1030 NOSIG=
200909091650 METAR COR EGLL 091650Z 05007KT 010V080 CAVOK 19/07 Q1030
                        NOSIG=
200909091620 METAR COR EGLL 091620Z 04007KT 360V080 CAVOK 19/06 Q1030
                        NOSIG=
200909091550 METAR COR EGLL 091550Z 04006KT 360V080 CAVOK 19/05 Q1030
                        NOSIG=
200909091520 METAR COR EGLL 091520Z 02006KT 340V060 CAVOK 19/05 Q1030
                        NOSIG=
200909091450 METAR COR EGLL 091450Z 02008KT 340V060 CAVOK 19/06 Q1030
                        NOSIG=
200909091420 METAR COR EGLL 091420Z 03007KT 340V090 CAVOK 19/07 Q1030
                        NOSIG=
200909091350 METAR COR EGLL 091350Z 02006KT 330V070 9999 FEW040 18/08
                        Q1030 NOSIG=
200909091320 METAR COR EGLL 091320Z 02007KT 340V060 CAVOK 18/08 Q1030
                        NOSIG=
200909091250 METAR COR EGLL 091250Z 02009KT 9999 FEW036 18/09 Q1030 NOSIG=
200909091220 METAR COR EGLL 091220Z 01007KT 310V050 9999 FEW036 18/09
                        Q1029 NOSIG=
200909091150 METAR COR EGLL 091150Z 01009KT 330V060 9999 FEW036 18/09
                        Q1029 NOSIG=
200909091120 METAR COR EGLL 091120Z 01009KT 320V050 9999 FEW036 18/09
                        Q1029 NOSIG=
200909091050 METAR COR EGLL 091050Z 36008KT 330V050 9999 FEW032 18/09
                        Q1029 NOSIG=
200909091020 METAR COR EGLL 091020Z 02009KT 9999 FEW040 19/09 Q1028 NOSIG=
200909090950 METAR COR EGLL 090950Z 36009KT 340V050 9999 FEW032 19/09
                        Q1028 NOSIG=
200909090920 METAR COR EGLL 090920Z 03008KT 350V080 CAVOK 19/09 Q1028
                        NOSIG=
200909090850 METAR COR EGLL 090850Z 03008KT 350V060 CAVOK 17/09 Q1028
                        NOSIG=
200909090820 METAR COR EGLL 090820Z 03008KT 350V070 9999 SCT047 17/09
                        Q1028 NOSIG=
200909090750 METAR COR EGLL 090750Z 02007KT 330V060 9999 BKN046 16/10
                        Q1027 NOSIG=
200909090720 METAR COR EGLL 090720Z 03007KT 340V070 9999 BKN044 15/09
                        Q1027 NOSIG=
200909090650 METAR COR EGLL 090650Z 36005KT 330V030 9999 BKN043 15/09
                        Q1027 NOSIG=
200909090620 METAR COR EGLL 090620Z 36004KT 320V060 9999 BKN045 15/09
                        Q1026 NOSIG=
200909090550 METAR COR EGLL 090550Z 36004KT 9999 BKN046 14/08 Q1026 NOSIG=
200909090520 METAR COR EGLL 090520Z 36004KT 320V030 9999 BKN045 14/08
                        Q1026 NOSIG=
200909090450 METAR COR EGLL 090450Z 36005KT 340V040 9999 SCT040 SCT047
                        14/08 Q1025 NOSIG=
200909090420 METAR COR EGLL 090420Z 36006KT 320V030 9999 BKN040 15/09
                        Q1025 NOSIG=
200909090350 METAR COR EGLL 090350Z 36005KT 330V030 9999 BKN040 15/09
                        Q1025 NOSIG=
200909090320 METAR COR EGLL 090320Z 35005KT 320V020 9999 SCT034 SCT041
                        15/10 Q1024 NOSIG=
200909090250 METAR COR EGLL 090250Z 34005KT 290V010 9999 SCT030 SCT037
                        15/11 Q1024 NOSIG=
200909090220 METAR EGLL 090220Z 35005KT 320V030 9999 FEW015 BKN039 15/12
                        Q1024=
200909090150 METAR EGLL 090150Z 36006KT 330V040 9999 FEW016 BKN036 15/12
                        Q1023=
200909090120 METAR COR EGLL 090120Z 36007KT 330V050 9999 BKN028 15/12
                        Q1023 NOSIG=
200909090050 METAR COR EGLL 090050Z 35008KT 310V020 9999 BKN013 15/12
                        Q1022 BECMG FEW012 SCT030=
200909090020 METAR COR EGLL 090020Z 34011KT 9999 BKN009 17/13 Q1022 BECMG
                        FEW012 BKN030=
200909082350 METAR COR EGLL 082350Z 27006KT 9999 BKN011 18/16 Q1021 BECMG
                        33012KT FEW012 BKN030=
200909082320 METAR COR EGLL 082320Z 27006KT 9999 BKN011 18/16 Q1021 BECMG
                        34012KT=
200909082250 METAR COR EGLL 082250Z 27006KT 9999 BKN026 18/16 Q1020 NOSIG=
200909082220 METAR COR EGLL 082220Z 25006KT 9999 FEW016 18/15 Q1020 BECMG
                        32010KT=
200909082150 METAR COR EGLL 082150Z 26008KT 9999 FEW023 18/15 Q1020 BECMG
                        32012KT=
200909082120 METAR COR EGLL 082120Z 24007KT CAVOK 19/14 Q1019 BECMG 35010KT=
200909082050 METAR COR EGLL 082050Z 25010KT CAVOK 20/13 Q1019 NOSIG=
200909082020 METAR COR EGLL 082020Z 22011KT CAVOK 20/11 Q1019 NOSIG=
200909081950 METAR COR EGLL 081950Z 22010KT CAVOK 21/11 Q1018 NOSIG=
200909081920 METAR COR EGLL 081920Z 21009KT CAVOK 22/12 Q1018 NOSIG=
200909081850 METAR COR EGLL 081850Z 21009KT 180V270 CAVOK 22/13 Q1017
                        NOSIG=
200909081820 METAR COR EGLL 081820Z 22011KT CAVOK 23/13 Q1017 NOSIG=
200909081750 METAR COR EGLL 081750Z 23013KT CAVOK 24/13 Q1017 NOSIG=
200909081720 METAR COR EGLL 081720Z 21011KT 180V240 CAVOK 25/14 Q1017
                        NOSIG=
200909081650 METAR COR EGLL 081650Z 21011KT CAVOK 26/15 Q1017 NOSIG=
200909081620 METAR COR EGLL 081620Z 21012KT 9999 FEW045 26/15 Q1017 NOSIG=
200909081550 METAR COR EGLL 081550Z 22011KT 9999 FEW045 26/15 Q1017 NOSIG=
200909081520 METAR COR EGLL 081520Z 21011G21KT CAVOK 27/14 Q1017 NOSIG=
200909081450 METAR COR EGLL 081450Z 23013KT 180V250 CAVOK 27/14 Q1017
                        NOSIG=
200909081420 METAR COR EGLL 081420Z 22011KT 180V250 CAVOK 27/13 Q1017
                        NOSIG=
200909081350 METAR COR EGLL 081350Z 21012G24KT 160V240 CAVOK 27/13 Q1017
                        NOSIG=
200909081320 METAR COR EGLL 081320Z 19013KT 150V230 CAVOK 27/13 Q1017
                        NOSIG=
200909081250 METAR COR EGLL 081250Z 21012KT CAVOK 27/13 Q1017 NOSIG=
200909081220 METAR COR EGLL 081220Z 19013KT 170V240 CAVOK 26/14 Q1017
                        NOSIG=
200909081150 METAR COR EGLL 081150Z 20013KT 170V240 9999 FEW040 25/15
                        Q1018 NOSIG=
200909081120 METAR COR EGLL 081120Z 20012KT 170V260 9999 FEW032 25/15
                        Q1018 NOSIG=
200909081050 METAR COR EGLL 081050Z 21013KT 180V250 9999 FEW025 24/16
                        Q1018 NOSIG=
200909081020 METAR COR EGLL 081020Z 21012KT 180V250 9999 FEW012 23/16
                        Q1018 NOSIG=
200909080950 METAR COR EGLL 080950Z 21010KT 9999 SCT017 22/16 Q1019 NOSIG=
200909080920 METAR COR EGLL 080920Z 21011G22KT 180V250 9999 FEW008 BKN011
                        20/16 Q1019 BECMG SCT011=
200909080850 METAR COR EGLL 080850Z 21010KT 9999 BKN009 20/17 Q1019 BECMG
                        BKN012=
200909080820 METAR COR EGLL 080820Z 21008KT 9999 SCT006 BKN009 19/17 Q1019
                        BECMG BKN012=
200909080750 METAR COR EGLL 080750Z 21009KT 190V250 9999 BKN007 18/16
                        Q1018 BECMG BKN012=
200909080720 METAR COR EGLL 080720Z 21009KT 9999 SCT006 BKN008 19/16 Q1018
                        BECMG BKN012=
200909080650 METAR COR EGLL 080650Z 20009KT 9999 BKN006 18/16 Q1018 BECMG
                        BKN012=
200909080620 METAR COR EGLL 080620Z 20008KT 9999 BKN005 18/16 Q1018 BECMG
                        BKN010=
200909080550 METAR COR EGLL 080550Z 20009KT 8000 BKN006 18/16 Q1018 BECMG
                        BKN010=
200909080520 METAR COR EGLL 080520Z 20008KT 180V250 6000 OVC005 18/16
                        Q1018 BECMG BKN008=
200909080450 METAR COR EGLL 080450Z 20008KT 7000 BKN006 17/16 Q1018 BECMG
                        BKN010=
200909080420 METAR COR EGLL 080420Z 20007KT 160V250 6000 BKN005 17/16
                        Q1018 BECMG BKN008=
200909080350 METAR COR EGLL 080350Z 19009KT 7000 BKN005 17/16 Q1018 BECMG
                        BKN008=
200909080320 METAR COR EGLL 080320Z 18008KT 6000 BKN004 17/16 Q1018 BECMG
                        BKN008=
200909080250 METAR COR EGLL 080250Z 19009KT 4000 HZ BKN004 17/16 Q1018
                        BECMG 6000 NSW BKN008=
200909080220 METAR COR EGLL 080220Z 20007KT 7000 BKN005 18/16 Q1018 BECMG
                        BKN006=
200909080150 METAR COR EGLL 080150Z 20008KT 9999 BKN006 18/16 Q1018 NOSIG=
200909080120 METAR COR EGLL 080120Z 20008KT 9999 BKN007 18/16 Q1018 NOSIG=
200909080050 METAR EGLL 080050Z 20007KT 9999 BKN007 18/16 Q1018=
200909080020 METAR COR EGLL 080020Z 20007KT 9999 BKN007 18/16 Q1019 NOSIG=
200909072350 METAR COR EGLL 072350Z 19007KT 9999 BKN009 18/16 Q1019 NOSIG=
200909072320 METAR COR EGLL 072320Z 21006KT 9999 SCT009 BKN011 18/16 Q1019
                        TEMPO BKN009=
200909072250 METAR COR EGLL 072250Z 20008KT 9999 BKN011 18/16 Q1019 NOSIG=
200909072220 METAR COR EGLL 072220Z 21008KT 9999 FEW009 BKN013 18/16 Q1019
                        NOSIG=
200909072150 METAR COR EGLL 072150Z 21008KT 180V240 9999 FEW009 BKN013
                        18/16 Q1019 NOSIG=
200909072120 METAR COR EGLL 072120Z 22008KT 9999 FEW009 BKN013 18/16 Q1019
                        NOSIG=
200909072050 METAR COR EGLL 072050Z 21009KT 180V240 9999 FEW010 BKN015
                        18/16 Q1019 TEMPO BKN012=
200909072020 METAR COR EGLL 072020Z 20008KT 160V230 9999 BKN014 19/16
                        Q1019 NOSIG=
200909071950 METAR COR EGLL 071950Z 21009KT 9999 BKN016 19/16 Q1019 TEMPO
                        BKN014=
200909071920 METAR COR EGLL 071920Z 19008KT 160V260 9999 SCT016 SCT039
                        19/16 Q1019 NOSIG=
200909071850 METAR COR EGLL 071850Z 21006KT 170V240 9999 FEW030 SCT042
                        19/15 Q1019 NOSIG=
200909071820 METAR COR EGLL 071820Z 23009KT 9999 FEW022 SCT033 BKN040
                        20/16 Q1019 NOSIG=
200909071750 METAR COR EGLL 071750Z 22009KT 9999 FEW018 BKN021 20/16 Q1019
                        NOSIG=
200909071720 METAR COR EGLL 071720Z 21008KT 9999 FEW020 BKN023 20/15 Q1018
                        NOSIG=
200909071650 METAR COR EGLL 071650Z 21008KT 190V270 9999 FEW019 BKN023
                        20/15 Q1018 NOSIG=
200909071620 METAR COR EGLL 071620Z 22009KT 180V240 9999 FEW016 BKN019
                        20/16 Q1018 NOSIG=
200909071550 METAR COR EGLL 071550Z 22010KT 9999 BKN017 20/16 Q1018 NOSIG=
200909071520 METAR COR EGLL 071520Z 22008KT 190V250 9999 BKN017 21/16
                        Q1018 NOSIG=
200909071450 METAR COR EGLL 071450Z 20010KT 9999 BKN017 20/16 Q1018 NOSIG=
200909071420 METAR COR EGLL 071420Z 22009KT 180V250 9999 BKN017 BKN040
                        21/16 Q1018 NOSIG=
200909071350 METAR COR EGLL 071350Z 22009KT 180V250 9999 BKN018 20/15
                        Q1019 NOSIG=
200909071320 METAR COR EGLL 071320Z 21010KT 190V250 9999 BKN019 20/15
                        Q1019 NOSIG=
200909071250 METAR COR EGLL 071250Z 19008KT 160V230 9999 BKN019 21/15
                        Q1019 NOSIG=
200909071220 METAR COR EGLL 071220Z 23007KT 180V270 9999 FEW016 BKN020
                        20/15 Q1018 NOSIG=
200909071150 METAR COR EGLL 071150Z 23008KT 9999 SCT015 BKN018 20/15 Q1019
                        TEMPO BKN014=
200909071120 METAR COR EGLL 071120Z 22007KT 180V280 9999 BKN016 19/15
                        Q1019 TEMPO BKN014=
200909071050 METAR COR EGLL 071050Z 25008KT 190V280 9999 BKN016 19/15
                        Q1019 TEMPO BKN014=
200909071020 METAR COR EGLL 071020Z 24008KT 200V280 9999 BKN015 19/14
                        Q1018 TEMPO BKN014=
200909070950 METAR COR EGLL 070950Z 22009KT 190V250 9999 BKN015 19/14
                        Q1018 TEMPO BKN014=
200909070920 METAR COR EGLL 070920Z 20008KT 160V250 9999 FEW017 19/14
                        Q1018 TEMPO BKN014=
200909070850 METAR COR EGLL 070850Z 22010KT 180V250 9999 FEW035 BKN048
                        18/14 Q1018 NOSIG=
200909070820 METAR COR EGLL 070820Z 21008KT 180V250 9999 BKN048 17/14
                        Q1018 NOSIG=
200909070750 METAR COR EGLL 070750Z 22007KT 190V250 9999 BKN023 17/13
                        Q1018 TEMPO BKN014=
200909070720 METAR COR EGLL 070720Z 20006KT 170V240 9999 BKN027 16/13
                        Q1018 TEMPO BKN014=
200909070650 METAR COR EGLL 070650Z 20007KT 180V240 9999 BKN026 16/13
                        Q1018 NOSIG=
200909070620 METAR COR EGLL 070620Z 19007KT 170V230 9999 FEW030 15/13
                        Q1017 NOSIG=
200909070550 METAR COR EGLL 070550Z 20006G16KT 140V240 9999 FEW031 15/13
                        Q1017 NOSIG=
200909070520 METAR COR EGLL 070520Z 20007KT 140V260 9999 FEW038 15/13
                        Q1017 NOSIG=
200909070450 METAR COR EGLL 070450Z 22005KT 9999 FEW040 15/13 Q1017 NOSIG=
200909070420 METAR COR EGLL 070420Z 20007KT CAVOK 15/13 Q1017 NOSIG=
200909070350 METAR COR EGLL 070350Z 21006KT 190V270 CAVOK 15/13 Q1017
                        NOSIG=
200909070320 METAR COR EGLL 070320Z 22005KT CAVOK 14/12 Q1017 NOSIG=
200909070250 METAR COR EGLL 070250Z 19004KT CAVOK 14/12 Q1017 NOSIG=
200909070220 METAR COR EGLL 070220Z 18006KT CAVOK 15/12 Q1017 NOSIG=
200909070150 METAR COR EGLL 070150Z 20007KT CAVOK 15/12 Q1017 NOSIG=
200909070120 METAR COR EGLL 070120Z 20006KT CAVOK 15/12 Q1018 NOSIG=
200909070050 METAR EGLL 070050Z 17003KT CAVOK 15/12 Q1018=
200909070020 METAR COR EGLL 070020Z 18004KT CAVOK 15/12 Q1018 NOSIG=
200909062350 METAR COR EGLL 062350Z 17003KT CAVOK 15/12 Q1018 NOSIG=
200909062320 METAR COR EGLL 062320Z 17003KT CAVOK 15/12 Q1019 NOSIG=
200909062250 METAR COR EGLL 062250Z VRB02KT CAVOK 14/12 Q1019 NOSIG=
200909062220 METAR COR EGLL 062220Z 17004KT CAVOK 14/12 Q1019 NOSIG=
200909062150 METAR COR EGLL 062150Z 19007KT 160V250 CAVOK 15/12 Q1019
                        NOSIG=
200909062120 METAR COR EGLL 062120Z 19009KT 140V250 CAVOK 14/12 Q1019
                        NOSIG=
200909062050 METAR COR EGLL 062050Z 18007KT 130V250 CAVOK 15/12 Q1019
                        NOSIG=
200909062020 METAR COR EGLL 062020Z 17007KT 130V230 CAVOK 15/12 Q1020
                        NOSIG=
200909061950 METAR COR EGLL 061950Z 19007KT 140V240 CAVOK 15/11 Q1020
                        NOSIG=
200909061920 METAR COR EGLL 061920Z 18008KT 150V230 CAVOK 15/11 Q1020
                        NOSIG=
200909061850 METAR COR EGLL 061850Z 19009KT 140V240 CAVOK 16/11 Q1020
                        NOSIG=
200909061820 METAR EGLL 061820Z 20011KT 170V240 9999 FEW025 17/11 Q1020=
200909061750 METAR EGLL 061750Z 20012KT 170V240 9999 SCT025 17/11 Q1020=
200909061720 METAR COR EGLL 061720Z 21012KT 180V240 9999 FEW026 SCT034
                        18/11 Q1020 NOSIG=
200909061650 METAR COR EGLL 061650Z 22012KT 180V250 9999 FEW030 SCT034
                        19/11 Q1021 NOSIG=
200909061620 METAR COR EGLL 061620Z 22012KT 9999 SCT033 SCT041 19/10 Q1021
                        NOSIG=
200909061550 METAR COR EGLL 061550Z 21012KT 180V250 9999 SCT030 SCT037
                        19/10 Q1021 NOSIG=
200909061520 METAR COR EGLL 061520Z 21012KT 180V250 9999 FEW029 BKN033
                        18/10 Q1021 NOSIG=
200909061450 METAR COR EGLL 061450Z 22012KT 9999 SCT036 19/10 Q1021 NOSIG=
200909061420 METAR COR EGLL 061420Z 23013KT 9999 SCT036 19/09 Q1021 NOSIG=
200909061350 METAR EGLL 061350Z 22009KT 9999 SCT040 19/09 Q1022=
200909061320 METAR COR EGLL 061320Z 22013KT 9999 SCT042 19/08 Q1022 NOSIG=
200909061250 METAR COR EGLL 061250Z 23012KT 200V260 9999 SCT040 19/08
                        Q1022 NOSIG=
200909061220 METAR COR EGLL 061220Z 22011KT 180V260 9999 FEW040 19/07
                        Q1023 NOSIG=
200909061150 METAR COR EGLL 061150Z 22013KT 9999 SCT040 19/07 Q1023 NOSIG=
200909061120 METAR COR EGLL 061120Z 24009KT 210V270 9999 BKN040 18/07
                        Q1023 NOSIG=
200909061050 METAR COR EGLL 061050Z 24011KT 9999 BKN040 18/07 Q1024 NOSIG=
200909061020 METAR COR EGLL 061020Z 25011KT 9999 FEW035 BKN040 17/08 Q1024
                        NOSIG=
200909060950 METAR COR EGLL 060950Z 24008KT 210V270 9999 BKN041 17/08
                        Q1024 NOSIG=
200909060920 METAR COR EGLL 060920Z 24008KT 200V270 9999 BKN040 16/07
                        Q1024 NOSIG=
200909060850 METAR COR EGLL 060850Z 25011KT 9999 BKN040 16/07 Q1024 NOSIG=
200909060820 METAR COR EGLL 060820Z 24010KT 9999 BKN042 16/08 Q1024 NOSIG=
200909060750 METAR COR EGLL 060750Z 24009KT 9999 BKN042 15/08 Q1024 NOSIG=
200909060720 METAR COR EGLL 060720Z 23008KT 200V260 9999 BKN040 14/08
                        Q1024 NOSIG=
200909060650 METAR COR EGLL 060650Z 24008KT 210V280 9999 BKN040 14/08
                        Q1024 NOSIG=
200909060620 METAR COR EGLL 060620Z 24009KT 9999 BKN041 14/08 Q1024 NOSIG=
200909060550 METAR COR EGLL 060550Z 24009KT 9999 BKN041 14/09 Q1024 NOSIG=
200909060520 METAR COR EGLL 060520Z 24008KT 9999 BKN039 13/09 Q1024 NOSIG=
200909060450 METAR COR EGLL 060450Z 24007KT 9999 BKN041 14/09 Q1024 NOSIG=
200909060420 METAR COR EGLL 060420Z 24007KT 9999 BKN042 13/09 Q1023 NOSIG=
200909060350 METAR COR EGLL 060350Z 23008KT 9999 BKN039 14/09 Q1024 NOSIG=
200909060320 METAR COR EGLL 060320Z 23008KT 9999 BKN042 14/09 Q1024 NOSIG=
200909060250 METAR COR EGLL 060250Z 23007KT 9999 BKN042 14/10 Q1024 NOSIG=
200909060220 METAR EGLL 060220Z 25008KT 9999 BKN042 14/10 Q1024=
200909060150 METAR COR EGLL 060150Z 25008KT 9999 BKN042 14/10 Q1024 NOSIG=
200909060120 METAR EGLL 060120Z 24007KT 9999 BKN043 14/10 Q1024=
200909060050 METAR COR EGLL 060050Z 25008KT 9999 BKN043 14/10 Q1024 NOSIG=
200909060020 METAR COR EGLL 060020Z 25008KT 9999 OVC045 14/10 Q1024 NOSIG=
200909052350 METAR COR EGLL 052350Z 25008KT 9999 OVC045 14/10 Q1024 NOSIG=
200909052320 METAR COR EGLL 052320Z 25008KT 9999 BKN042 14/10 Q1024 NOSIG=
200909052250 METAR COR EGLL 052250Z 26010KT 9999 BKN045 14/10 Q1024 NOSIG=
200909052220 METAR COR EGLL 052220Z 26010KT 9999 BKN045 14/10 Q1024 NOSIG=
200909052150 METAR COR EGLL 052150Z 26010KT 9999 BKN044 14/10 Q1024 NOSIG=
200909052120 METAR COR EGLL 052120Z 25013KT 9999 FEW030 SCT035 14/11 Q1024
                        NOSIG=
200909052050 METAR COR EGLL 052050Z 27016KT 9999 SCT019 SCT031 15/11 Q1024
                        NOSIG=
200909052020 METAR COR EGLL 052020Z 26015KT 9999 BKN036 16/10 Q1024 NOSIG=
200909051950 METAR COR EGLL 051950Z 26012KT 9999 BKN038 16/10 Q1024 NOSIG=
200909051920 METAR COR EGLL 051920Z 26012KT 9999 BKN038 16/10 Q1024 NOSIG=
200909051850 METAR COR EGLL 051850Z 26010KT 9999 FEW023 BKN037 16/10 Q1023
                        NOSIG=
200909051820 METAR COR EGLL 051820Z 27011KT 9999 VCSH SCT022 BKN035 16/11
                        Q1023 NOSIG=
200909051750 METAR COR EGLL 051750Z 26013KT 9999 SCT037 BKN042 16/11 Q1023
                        NOSIG=
200909051720 METAR COR EGLL 051720Z 26015KT 9999 SCT032 BKN040 17/11 Q1023
                        NOSIG=
200909051650 METAR COR EGLL 051650Z 26012KT 9999 BKN042 17/10 Q1023 NOSIG=
200909051620 METAR COR EGLL 051620Z 27014KT 9999 FEW033 BKN041 17/10 Q1023
                        NOSIG=
200909051550 METAR COR EGLL 051550Z 25014KT 9999 FEW033 BKN038 18/10 Q1023
                        NOSIG=
200909051520 METAR COR EGLL 051520Z 26016KT 9999 FEW036 BKN043 18/09 Q1022
                        NOSIG=
200909051450 METAR COR EGLL 051450Z 26014KT 9999 BKN041 19/09 Q1022 NOSIG=
200909051420 METAR COR EGLL 051420Z 26013KT 9999 BKN043 19/08 Q1022 NOSIG=
200909051350 METAR COR EGLL 051350Z 26011KT 9999 BKN044 19/08 Q1022 NOSIG=
200909051320 METAR COR EGLL 051320Z 26011KT 9999 SCT042 BKN049 18/08 Q1022
                        NOSIG=
200909051250 METAR COR EGLL 051250Z 24012KT 210V280 9999 SCT048 19/08
                        Q1022 NOSIG=
200909051220 METAR COR EGLL 051220Z 27012KT 9999 SCT044 19/08 Q1022 NOSIG=
200909051150 METAR COR EGLL 051150Z 27014KT 9999 SCT043 19/07 Q1022 NOSIG=
200909051120 METAR COR EGLL 051120Z 27011KT 240V320 9999 SCT043 18/07
                        Q1022 NOSIG=
200909051050 METAR COR EGLL 051050Z 27011KT 230V300 9999 FEW037 SCT042
                        18/07 Q1022 NOSIG=
200909051020 METAR COR EGLL 051020Z 27010KT 230V320 9999 FEW040 18/08
                        Q1022 NOSIG=
200909050950 METAR COR EGLL 050950Z 27011KT 9999 FEW033 17/08 Q1022 NOSIG=
200909050920 METAR COR EGLL 050920Z 27010KT 240V300 9999 FEW028 16/08
                        Q1022 NOSIG=
200909050850 METAR COR EGLL 050850Z 27012KT 9999 FEW024 15/09 Q1021 NOSIG=
200909050820 METAR COR EGLL 050820Z 27011KT CAVOK 14/09 Q1021 NOSIG=
200909050750 METAR COR EGLL 050750Z 27011KT CAVOK 13/09 Q1021 NOSIG=
200909050720 METAR COR EGLL 050720Z 26010KT CAVOK 13/09 Q1021 NOSIG=
200909050650 METAR COR EGLL 050650Z 27008KT CAVOK 12/09 Q1020 NOSIG=
200909050620 METAR COR EGLL 050620Z 27009KT CAVOK 11/09 Q1020 NOSIG=
200909050550 METAR COR EGLL 050550Z 27009KT CAVOK 11/08 Q1020 NOSIG=
200909050520 METAR COR EGLL 050520Z 27010KT CAVOK 11/08 Q1020 NOSIG=
200909050450 METAR EGLL 050450Z 27009KT CAVOK 11/08 Q1019=
200909050420 METAR COR EGLL 050420Z 27009KT CAVOK 12/09 Q1019 NOSIG=
200909050350 METAR COR EGLL 050350Z 27010KT CAVOK 11/09 Q1019 NOSIG=
200909050320 METAR COR EGLL 050320Z 27011KT CAVOK 12/09 Q1018 NOSIG=
200909050250 METAR COR EGLL 050250Z 27010KT CAVOK 11/09 Q1018 NOSIG=
200909050220 METAR COR EGLL 050220Z 27010KT CAVOK 12/09 Q1018 NOSIG=
200909050150 METAR COR EGLL 050150Z 27010KT CAVOK 12/09 Q1018 NOSIG=
200909050120 METAR COR EGLL 050120Z 27011KT CAVOK 12/09 Q1018 NOSIG=
200909050050 METAR COR EGLL 050050Z 27012KT CAVOK 12/09 Q1017 NOSIG=
200909050020 METAR COR EGLL 050020Z 27011KT CAVOK 13/09 Q1017 NOSIG=
200909042350 METAR COR EGLL 042350Z 26011KT CAVOK 13/09 Q1017 NOSIG=
200909042320 METAR COR EGLL 042320Z 26011KT CAVOK 13/09 Q1017 NOSIG=
200909042250 METAR COR EGLL 042250Z 27009KT CAVOK 14/10 Q1017 NOSIG=
200909042220 METAR COR EGLL 042220Z 26011KT CAVOK 14/10 Q1017 NOSIG=
200909042150 METAR EGLL 042150Z 26016KT CAVOK 14/10 Q1016=
200909042120 METAR COR EGLL 042120Z 26011KT CAVOK 15/10 Q1016 NOSIG=
200909042050 METAR COR EGLL 042050Z 27012KT 9999 FEW037 15/10 Q1015 NOSIG=
200909042020 METAR COR EGLL 042020Z 27012KT 9999 FEW040 15/09 Q1015 NOSIG=
200909041950 METAR COR EGLL 041950Z 27011KT CAVOK 16/08 Q1015 NOSIG=
200909041920 METAR COR EGLL 041920Z 27014KT CAVOK 16/07 Q1014 NOSIG=
200909041850 METAR COR EGLL 041850Z 28013KT CAVOK 16/07 Q1013 NOSIG=
200909041820 METAR COR EGLL 041820Z 28013KT CAVOK 17/07 Q1013 NOSIG=
200909041750 METAR COR EGLL 041750Z 28015KT CAVOK 17/06 Q1012 NOSIG=
200909041720 METAR COR EGLL 041720Z 28015KT 9999 FEW048 18/06 Q1012 NOSIG=
200909041650 METAR COR EGLL 041650Z 28017KT CAVOK 19/06 Q1011 NOSIG=
200909041620 METAR COR EGLL 041620Z 28016KT CAVOK 18/05 Q1011 NOSIG=
200909041550 METAR COR EGLL 041550Z 28017KT CAVOK 19/05 Q1010 TEMPO 28018G28KT=
200909041520 METAR COR EGLL 041520Z 28017KT CAVOK 19/05 Q1010 TEMPO 28018G28KT=
200909041450 METAR COR EGLL 041450Z 28019KT CAVOK 19/04 Q1010 TEMPO 28020G30KT=
200909041420 METAR COR EGLL 041420Z 28020KT 9999 SCT049 19/05 Q1009 NOSIG=
200909041350 METAR COR EGLL 041350Z 28018KT 9999 SCT046 18/05 Q1009 TEMPO
                        28020G30KT=
200909041320 METAR COR EGLL 041320Z 28020G31KT 9999 FEW047 19/06 Q1009
                        NOSIG=
200909041250 METAR COR EGLL 041250Z 28019G29KT 9999 SCT044 18/06 Q1009
                        NOSIG=
200909041220 METAR COR EGLL 041220Z 29017KT 9999 SCT048 18/06 Q1008 TEMPO
                        29018G28KT=
200909041150 METAR COR EGLL 041150Z 28016KT 9999 SCT046 17/06 Q1008 NOSIG=
200909041120 METAR COR EGLL 041120Z 28016KT 9999 SCT044 17/06 Q1007 TEMPO
                        28018G28KT=
200909041050 METAR EGLL 041050Z 28016KT 9999 FEW038 SCT044 17/06 Q1007=
200909041020 METAR COR EGLL 041020Z 28015KT 9999 SCT037 18/07 Q1007 NOSIG=
200909040950 METAR COR EGLL 040950Z 29017KT 9999 SCT037 17/07 Q1006 TEMPO
                        28017G27KT=
200909040920 METAR COR EGLL 040920Z 29013KT 9999 FEW036 16/07 Q1006 NOSIG=
200909040850 METAR COR EGLL 040850Z 28013KT 9999 FEW027 14/08 Q1006 NOSIG=
200909040820 METAR COR EGLL 040820Z 28012KT 9999 FEW024 15/08 Q1006 NOSIG=
200909040750 METAR COR EGLL 040750Z 27013KT 9999 FEW020 14/09 Q1005 NOSIG=
200909040720 METAR COR EGLL 040720Z 28013KT CAVOK 13/09 Q1005 NOSIG=
200909040650 METAR COR EGLL 040650Z 27011KT CAVOK 12/09 Q1005 NOSIG=
200909040620 METAR COR EGLL 040620Z 26011KT CAVOK 12/09 Q1004 NOSIG=
200909040550 METAR EGLL 040550Z 25009KT CAVOK 11/09 Q1004=
200909040520 METAR COR EGLL 040520Z 25010KT CAVOK 11/09 Q1004 NOSIG=
200909040450 METAR COR EGLL 040450Z 27009KT CAVOK 12/09 Q1003 NOSIG=
200909040420 METAR EGLL 040420Z 25010KT CAVOK 12/09 Q1003=
200909040350 METAR COR EGLL 040350Z 27009KT CAVOK 12/09 Q1003 NOSIG=
200909040320 METAR COR EGLL 040320Z 25009KT CAVOK 12/09 Q1003 NOSIG=
200909040250 METAR COR EGLL 040250Z 24008KT CAVOK 12/09 Q1003 NOSIG=
200909040220 METAR COR EGLL 040220Z 27008KT CAVOK 12/09 Q1003 NOSIG=
200909040150 METAR COR EGLL 040150Z 25007KT CAVOK 12/09 Q1003 NOSIG=
200909040120 METAR COR EGLL 040120Z 25008KT CAVOK 12/09 Q1004 NOSIG=
200909040050 METAR COR EGLL 040050Z 24009KT CAVOK 11/09 Q1004 NOSIG=
200909040020 METAR COR EGLL 040020Z 25009KT CAVOK 12/09 Q1004 NOSIG=
200909032350 METAR COR EGLL 032350Z 24011KT CAVOK 12/09 Q1004 NOSIG=
200909032320 METAR COR EGLL 032320Z 23010KT CAVOK 12/09 Q1004 NOSIG=
200909032250 METAR COR EGLL 032250Z 24010KT CAVOK 13/09 Q1004 NOSIG=
200909032220 METAR COR EGLL 032220Z 26012KT CAVOK 13/09 Q1004 NOSIG=
200909032150 METAR COR EGLL 032150Z 25014KT CAVOK 13/08 Q1004 NOSIG=
200909032120 METAR COR EGLL 032120Z 25014KT CAVOK 14/08 Q1004 NOSIG=
200909032050 METAR COR EGLL 032050Z 24013KT 9999 FEW028 14/08 Q1003 NOSIG=
200909032020 METAR COR EGLL 032020Z 25015KT CAVOK 14/08 Q1003 NOSIG=
200909031950 METAR COR EGLL 031950Z 25018KT CAVOK 14/08 Q1003 NOSIG=
200909031920 METAR COR EGLL 031920Z 26017KT CAVOK 15/08 Q1003 NOSIG=
200909031850 METAR EGLL 031850Z AUTO 26015KT 9999NDV NCD 15/07 Q1003=
200909031820 METAR COR EGLL 031820Z 25015KT 9999 FEW045 16/07 Q1003 NOSIG=
200909031750 METAR COR EGLL 031750Z 26019KT 9999 FEW040 16/06 Q1002 NOSIG=
200909031720 METAR COR EGLL 031720Z 26021KT 9999 FEW039 17/07 Q1002 NOSIG=
200909031650 METAR COR EGLL 031650Z 25021KT 9999 FEW044 17/07 Q1002 NOSIG=
200909031620 METAR COR EGLL 031620Z 27020KT 9999 FEW049 18/06 Q1002 NOSIG=
200909031550 METAR EGLL 031550Z AUTO 26022G33KT 9999NDV SCT044/// 18/07
                        Q1002=
200909031520 METAR COR EGLL 031520Z 26023KT 9999 SCT045 18/07 Q1001 NOSIG=
200909031450 METAR COR EGLL 031450Z 26021KT 9999 VCSH FEW045 19/08 Q1001
                        NOSIG=
200909031420 METAR COR EGLL 031420Z 25025KT 9999 VCSH FEW049 18/07 Q1001
                        NOSIG=
200909031350 METAR COR EGLL 031350Z 25018KT 9999 VCSH FEW042 17/11 Q1001
                        NOSIG=
200909031320 METAR COR EGLL 031320Z 25019KT 9999 SCT040 18/09 Q1001 NOSIG=
200909031250 METAR COR EGLL 031250Z 26021KT 9999 SCT044 19/08 Q1001 NOSIG=
200909031220 METAR COR EGLL 031220Z 26022KT 9999 SCT044 17/07 Q1001 NOSIG=
200909031150 METAR COR EGLL 031150Z 26026KT 9999 SCT045 19/06 Q1001 NOSIG=
200909031120 METAR COR EGLL 031120Z 26024KT 9999 SCT039 18/07 Q1000 NOSIG=
200909031050 METAR COR EGLL 031050Z 25023KT 9999 SCT034 SCT047 18/07 Q1000
                        NOSIG=
200909031020 METAR COR EGLL 031020Z 26021KT 9999 SCT038 BKN048 17/07 Q1000
                        NOSIG=
200909030950 METAR COR EGLL 030950Z 25020KT 9999 SCT036 17/08 Q1000 NOSIG=
200909030920 METAR EGLL 030920Z 26019KT 9999 SCT034 17/08 Q0999 NOSIG=
200909030850 METAR COR EGLL 030850Z 26020KT 9999 BKN032 16/08 Q0999 NOSIG=
200909030820 METAR COR EGLL 030820Z 25021KT 9999 BKN030 15/09 Q0999 NOSIG=
200909030750 METAR COR EGLL 030750Z 25020KT 9999 FEW027 BKN032 15/09 Q0998
                        NOSIG=
200909030720 METAR COR EGLL 030720Z 25022KT 9999 SCT025 BKN032 14/09 Q0997
                        NOSIG=
200909030650 METAR COR EGLL 030650Z 26018KT 9999 FEW027 SCT031 14/09 Q0997
                        NOSIG=
200909030620 METAR COR EGLL 030620Z 26020KT 9999 FEW028 SCT038 14/09 Q0996
                        NOSIG=
200909030550 METAR COR EGLL 030550Z 25019KT 9999 FEW037 14/09 Q0996 NOSIG=
200909030520 METAR COR EGLL 030520Z 25020KT 9999 SCT025 14/10 Q0995 NOSIG=
200909030450 METAR COR EGLL 030450Z 25020KT 9999 SCT026 BKN030 14/10 Q0995
                        NOSIG=
200909030420 METAR COR EGLL 030420Z 25018KT 9999 FEW025 14/10 Q0994 NOSIG=
200909030350 METAR COR EGLL 030350Z 24021KT 9999 SCT027 14/10 Q0994 NOSIG=
200909030320 METAR COR EGLL 030320Z 24019KT 9999 SCT025 14/11 Q0994 NOSIG=
200909030250 METAR COR EGLL 030250Z 24020KT 9999 FEW018 SCT022 14/11 Q0994
                        NOSIG=
200909030220 METAR COR EGLL 030220Z 24018G29KT 9999 FEW018 14/11 Q0994
                        NOSIG=
200909030150 METAR COR EGLL 030150Z 23018KT 9999 SCT022 BKN030 14/11 Q0993
                        NOSIG=
200909030120 METAR COR EGLL 030120Z 23018KT 9999 SCT020 BKN025 14/12 Q0993
                        NOSIG=
200909030050 METAR COR EGLL 030050Z 23017KT 9999 SCT019 BKN026 15/12 Q0993
                        NOSIG=
200909030020 METAR COR EGLL 030020Z 22013KT 9999 SCT027 BKN038 15/12 Q0993
                        NOSIG=
200909022350 METAR COR EGLL 022350Z 22013KT 9999 SCT030 BKN035 16/13 Q0993
                        NOSIG=
200909022320 METAR COR EGLL 022320Z 21011KT 9999 FEW016 SCT022 16/14 Q0994
                        NOSIG=
200909022250 METAR COR EGLL 022250Z 20011KT 170V240 9999 FEW014 SCT024
                        BKN042 16/14 Q0994 NOSIG=
200909022220 METAR COR EGLL 022220Z 19010KT 9999 FEW009 SCT010 BKN015
                        16/14 Q0995 NOSIG=
200909022150 METAR COR EGLL 022150Z 20014KT 170V230 9999 -RA FEW009 SCT010
                        BKN015 16/14 Q0995 RERA NOSIG=
200909022120 METAR COR EGLL 022120Z 19015G25KT 170V230 9999 FEW008 SCT010
                        BKN015 16/14 Q0996 RERA NOSIG=
200909022050 METAR COR EGLL 022050Z 16016KT 140V210 9999 -RA FEW009 SCT013
                        15/14 Q0996 RERA TEMPO 4000 +RA BKN014=
200909022020 METAR COR EGLL 022020Z 16013KT 140V210 9999 RA SCT009 BKN014
                        15/14 Q0997 TEMPO 4000 +RA BKN009=
200909021950 METAR COR EGLL 021950Z 16013KT 140V210 9000 RA FEW010 SCT014
                        BKN022 15/14 Q0998 TEMPO 4000 +RA
                        BKN014=
200909021920 METAR COR EGLL 021920Z 15013KT 130V210 7000 RA FEW011 SCT016
                        15/14 Q0999 BECMG BKN014=
200909021850 METAR COR EGLL 021850Z 16014KT 130V210 7000 RA FEW009 BKN013
                        15/14 Q1000 TEMPO BKN009=
200909021820 METAR COR EGLL 021820Z 16011KT 130V220 8000 RA FEW009 SCT018
                        BKN022 15/14 Q1001 RERA BECMG BKN014=
200909021750 METAR COR EGLL 021750Z 16013KT 130V210 8000 -RA SCT017 SCT022
                        BKN034 16/14 Q1002 BECMG RA BKN014=
200909021720 METAR COR EGLL 021720Z 17011KT 140V230 9999 -RA FEW023 SCT035
                        16/13 Q1002 TEMPO RA=
200909021650 METAR COR EGLL 021650Z 16009KT 140V220 9999 FEW045 16/13
                        Q1003 NOSIG=
200909021620 METAR COR EGLL 021620Z 18010KT 150V220 9999 FEW041 16/13
                        Q1004 NOSIG=
200909021550 METAR COR EGLL 021550Z 19013KT 170V240 9999 -RA FEW027 16/13
                        Q1005 TEMPO RA=
200909021520 METAR COR EGLL 021520Z 20015KT 9999 -SHRA FEW032 SCT045 18/11
                        Q1005 NOSIG=
200909021450 METAR COR EGLL 021450Z 19015KT 170V230 9999 SCT033 18/12
                        Q1006 NOSIG=
200909021420 METAR COR EGLL 021420Z 20013KT 180V240 9999 FEW029 SCT034
                        19/12 Q1006 NOSIG=
200909021350 METAR COR EGLL 021350Z 22015KT 9999 FEW023 SCT034 19/12 Q1007
                        NOSIG=
200909021320 METAR COR EGLL 021320Z 20010KT 9999 SCT025 19/13 Q1007 NOSIG=
200909021250 METAR COR EGLL 021250Z 20011KT 9999 FEW023 17/13 Q1008 NOSIG=
200909021220 METAR COR EGLL 021220Z 22012KT 9999 4500E -SHRA FEW025 SCT029
                        18/13 Q1008 TEMPO SHRA=
200909021150 METAR COR EGLL 021150Z 22011KT 9999 SCT024 17/13 Q1009 NOSIG=
200909021120 METAR COR EGLL 021120Z 23011KT 9999 VCSH FEW023 SCT027 17/12
                        Q1009 NOSIG=
200909021050 METAR COR EGLL 021050Z 21010KT 9999 SCT021 SCT025 18/13 Q1009
                        NOSIG=
200909021020 METAR COR EGLL 021020Z 21009KT 9999 FEW017 SCT024 17/13 Q1009
                        NOSIG=
200909020950 METAR COR EGLL 020950Z 21007KT 170V240 9999 SCT018 16/14
                        Q1010 NOSIG=
200909020920 METAR COR EGLL 020920Z 21006KT 170V250 9999 -SHRA FEW017
                        SCT021 15/13 Q1010 NOSIG=
200909020850 METAR COR EGLL 020850Z 18008KT 9999 -SHRA FEW015 SCT025 15/13
                        Q1010 TEMPO SHRA=
200909020820 METAR COR EGLL 020820Z VRB07KT 9999 -SHRA FEW020 15/13 Q1010
                        NOSIG=
200909020750 METAR COR EGLL 020750Z 19007KT 9999 -SHRA FEW043 15/12 Q1010
                        NOSIG=
200909020720 METAR EGLL 020720Z 18008KT 090V250 9999 FEW044 15/12 Q1011
                        NOSIG=
200909020650 METAR COR EGLL 020650Z 18007KT 150V240 9999 FEW022 15/11
                        Q1011 NOSIG=
200909020620 METAR COR EGLL 020620Z 18008KT 150V230 CAVOK 14/11 Q1011
                        NOSIG=
200909020550 METAR COR EGLL 020550Z 20007KT 180V250 CAVOK 14/11 Q1011
                        NOSIG=
200909020520 METAR COR EGLL 020520Z 20007KT 180V250 CAVOK 14/11 Q1010
                        NOSIG=
200909020450 METAR COR EGLL 020450Z 21007KT CAVOK 14/11 Q1010 NOSIG=
200909020420 METAR COR EGLL 020420Z 22008KT CAVOK 14/11 Q1010 NOSIG=
200909020350 METAR COR EGLL 020350Z 21008KT CAVOK 14/11 Q1010 NOSIG=
200909020320 METAR COR EGLL 020320Z 21006KT CAVOK 14/11 Q1010 NOSIG=
200909020250 METAR COR EGLL 020250Z 22008KT CAVOK 14/10 Q1011 NOSIG=
200909020220 METAR COR EGLL 020220Z 22008KT CAVOK 14/10 Q1011 NOSIG=
200909020150 METAR COR EGLL 020150Z 23008KT CAVOK 14/10 Q1011 NOSIG=
200909020120 METAR COR EGLL 020120Z 23010KT CAVOK 14/10 Q1011 NOSIG=
200909020050 METAR COR EGLL 020050Z 23011KT CAVOK 14/11 Q1011 NOSIG=
200909020020 METAR COR EGLL 020020Z 23010KT CAVOK 14/11 Q1011 NOSIG=
200909012350 METAR COR EGLL 012350Z 23011KT CAVOK 15/11 Q1011 NOSIG=
200909012320 METAR COR EGLL 012320Z 23010KT 210V280 CAVOK 15/11 Q1010
                        NOSIG=
200909012250 METAR COR EGLL 012250Z 23013KT CAVOK 15/11 Q1010 NOSIG=
200909012220 METAR EGLL 012220Z 24015KT 9999 FEW026 15/11 Q1010=
200909012150 METAR COR EGLL 012150Z 23015KT 9999 FEW030 16/11 Q1009 NOSIG=
200909012120 METAR COR EGLL 012120Z 23013KT 9999 FEW030 16/11 Q1009 NOSIG=
200909012050 METAR COR EGLL 012050Z 22014KT 9999 FEW029 16/11 Q1009 NOSIG=
200909012020 METAR COR EGLL 012020Z 22014KT CAVOK 16/11 Q1009 NOSIG=
200909011950 METAR COR EGLL 011950Z 22013KT 9999 FEW030 16/10 Q1009 NOSIG=
200909011920 METAR EGLL 011920Z 22014KT CAVOK 16/10 Q1008=
200909011850 METAR COR EGLL 011850Z 22015G26KT 9999 FEW033 17/10 Q1008
                        BECMG 22014KT=
200909011750 METAR EGLL 011750Z AUTO 22017KT 9999NDV NCD 18/10 Q1007=
200909011720 METAR COR EGLL 011720Z 23022G32KT 9999 FEW038 18/09 Q1007
                        TEMPO 23016KT SHRA=
200909011650 METAR COR EGLL 011650Z 23021G35KT 190V260 9999 FEW039 19/09
                        Q1007 TEMPO 23016KT SHRA=
200909011620 METAR EGLL 011620Z 23015KT 9999 SCT043 19/10 Q1007=
200909011550 METAR COR EGLL 011550Z 25015KT 9999 SCT042 19/09 Q1007 TEMPO
                        23018G28KT SHRA=
200909011520 METAR EGLL 011520Z AUTO 22016KT 9999NDV SCT042/// 19/09 Q1007=
200909011450 METAR COR EGLL 011450Z 23016KT 9999 FEW042 20/09 Q1007 TEMPO
                        24018G30KT SHRA=
200909011420 METAR COR EGLL 011420Z 23011KT 9999 FEW030 19/12 Q1007 TEMPO
                        23018G28KT SHRA=
200909011350 METAR COR EGLL 011350Z 22013KT 9999 FEW028CB 17/11 Q1007
                        TEMPO 22018G30KT SHRA=
200909011320 METAR COR EGLL 011320Z 22017KT 9999 7000NE -SHRA FEW028CB
                        16/11 Q1007 RESHRA TEMPO 22020G30KT
                        SHRA=
200909011250 METAR COR EGLL 011250Z 21015G28KT 9999 -SHRA SCT044 20/09
                        Q1007 TEMPO SHRA=
200909011220 METAR COR EGLL 011220Z 22015KT 9999 SCT043 21/09 Q1007 TEMPO
                        23020G30KT SHRA=
200909011150 METAR COR EGLL 011150Z 23014KT 9999 SCT043 21/09 Q1007 TEMPO
                        23017G27KT SHRA=
200909011120 METAR COR EGLL 011120Z 22015KT 9999 FEW048 21/08 Q1007 TEMPO
                        22018G28KT SHRA=
200909011050 METAR COR EGLL 011050Z 22014KT 9999 FEW047 21/08 Q1007 TEMPO
                        22017G27KT SHRA=
200909011020 METAR COR EGLL 011020Z 23017KT 9999 FEW048 20/08 Q1007 NOSIG=
200909010950 METAR EGLL 010950Z 25014KT 9999 FEW035 SCT039 20/09 Q1007
                        NOSIG=
200909010920 METAR COR EGLL 010920Z 24013KT 9999 FEW031 SCT035 19/10 Q1007
                        NOSIG=
200909010850 METAR COR EGLL 010850Z 23013KT 9999 FEW022 19/10 Q1007 NOSIG=
200909010820 METAR COR EGLL 010820Z 24014KT 9999 SCT022 17/11 Q1007 NOSIG=
200909010750 METAR COR EGLL 010750Z 22010KT 9999 FEW022 17/12 Q1007 NOSIG=
200909010720 METAR COR EGLL 010720Z 21009KT 9999 FEW016 16/12 Q1007 NOSIG=
200909010650 METAR COR EGLL 010650Z 21009KT 9999 FEW015 15/12 Q1007 NOSIG=
200909010620 METAR COR EGLL 010620Z 21007KT 180V250 9999 FEW014 15/13
                        Q1006 NOSIG=
200909010550 METAR COR EGLL 010550Z 24009KT 9999 FEW014 15/13 Q1006 NOSIG=
200909010520 METAR EGLL 010520Z 23007KT 190V270 9999 FEW014 15/13 Q1006=
200909010450 METAR COR EGLL 010450Z 22008KT 9999 FEW014 15/13 Q1006 NOSIG=
200909010420 METAR COR EGLL 010420Z 23010KT 9999 FEW016 SCT027 16/12 Q1005
                        NOSIG=
200909010350 METAR COR EGLL 010350Z 24010KT 9999 SCT027 16/12 Q1005 NOSIG=
200909010320 METAR COR EGLL 010320Z 23008KT CAVOK 16/11 Q1004 NOSIG=
200909010250 METAR COR EGLL 010250Z 25009KT CAVOK 16/11 Q1004 NOSIG=
200909010220 METAR COR EGLL 010220Z 23009KT CAVOK 16/11 Q1004 NOSIG=
200909010150 METAR COR EGLL 010150Z 19005KT CAVOK 16/11 Q1003 NOSIG=
200909010120 METAR COR EGLL 010120Z 23004KT CAVOK 17/11 Q1003 NOSIG=
200909010050 METAR COR EGLL 010050Z 26005KT CAVOK 17/10 Q1003 NOSIG=
200909010020 METAR COR EGLL 010020Z 27009KT CAVOK 17/10 Q1004 NOSIG=

# No short TAF reports from EGLL in databse.

###################################
#  large TAF from EGLL
###################################
200910012257 TAF EGLL 012257Z 0200/0306 29006KT 9999 FEW045
                      BECMG 0222/0301 23012KT BKN012
                      PROB40 0300/0306 6000 BKN009=
200910011700 TAF EGLL 011700Z 0118/0224 29006KT 9999 FEW045=
200910011100 TAF EGLL 011100Z 0112/0218 31006KT 9999 SCT038=
200910010510 TAF EGLL 010510Z 0106/0212 30007KT 9999 SCT030=
200910010500 TAF EGLL 010500Z NIL=
200909302256 TAF EGLL 302256Z 0100/0206 30007KT 9999 FEW025
                      PROB30 TEMPO 0104/0107 8000 -RA BKN014=
200909301701 TAF EGLL 301701Z 3018/0124 31006KT 9999 FEW025
                      PROB30 TEMPO 0103/0106 8000 -RA BKN014=
200909301103 TAF EGLL 301103Z 3012/0118 31006KT 9999 FEW008 BKN020
                      TEMPO 3012/3014 6000 -RA BKN008
                      PROB40 TEMPO 0103/0106 6000 -DZ BKN010
                      BECMG 0106/0109 CAVOK=
200909300857 TAF AMD EGLL 300857Z 3008/0112 31005KT 9999 SCT020
                      TEMPO 3008/3012 6000 -RA BKN014
                      PROB40 TEMPO 0102/0108 6000 -DZ BKN010=
200909300501 TAF EGLL 300501Z 3006/0112 31005KT 9999 SCT020
                      PROB40 TEMPO 0102/0108 6000 -DZ BKN010=
200909292305 TAF EGLL 292305Z 3000/0106 32005KT 9999 SCT030
                      PROB30 TEMPO 3003/3008 8000
                      PROB40 TEMPO 0102/0106 6000 -DZ BKN010=
200909291655 TAF EGLL 291655Z 2918/3024 28007KT 9999 FEW030
                      PROB40 3002/3009 7000=
200909291056 TAF EGLL 291056Z 2912/3018 26007KT 9999 FEW030
                      PROB40 2923/3003 8000 BKN014
                      BECMG 3003/3006 6000 BKN012
                      BECMG 3008/3011 9999 BKN016=
200909290458 TAF EGLL 290458Z 2906/3012 29005KT 9999 FEW030
                      PROB30 2906/2908 8000
                      PROB40 TEMPO 3000/3009 7000 BKN012=
200909282303 TAF EGLL 282303Z 2900/3006 29005KT 9999 FEW030
                      PROB30 2903/2909 8000
                      PROB40 3000/3006 7000 BKN012=
200909281707 TAF EGLL 281707Z 2818/2924 31005KT 9999 SCT030
                      PROB40 2902/2909 8000
                      PROB30 TEMPO 2905/2908 4000 BR BKN012=
200909281104 TAF EGLL 281104Z 2812/2918 31005KT 9999 BKN030
                      PROB30 2902/2909 8000=
200909280500 TAF EGLL 280500Z 2806/2912 31003KT 9999 BKN030
                      PROB30 2806/2809 7000
                      PROB30 2902/2909 8000=
200909272259 TAF EGLL 272259Z 2800/2906 29003KT 9999 FEW025
                      BECMG 2802/2804 7000
                      PROB30 2804/2808 4000 BR MIFG
                      BECMG 2807/2810 9999
                      PROB30 2902/2906 8000=
200909271659 TAF EGLL 271659Z 2718/2824 34005KT 9999 FEW025
                      TEMPO 2802/2809 7000
                      PROB30 2804/2808 4000 BR MIFG=
200909271102 TAF EGLL 271102Z 2712/2818 33005KT 9999 FEW025
                      TEMPO 2802/2809 7000
                      PROB30 TEMPO 2804/2808 4000 BR BKN007=
200909270557 TAF AMD EGLL 270557Z 2706/2812 30003KT 8000 FEW040
                      PROB30 2706/2709 1200 MIFG BKN009
                      BECMG 2707/2710 9999
                      PROB30 2803/2808 8000=
200909270500 TAF EGLL 270500Z 2706/2812 30003KT 8000 FEW040
                      PROB40 2706/2709 4000 BR BKN009
                      BECMG 2707/2710 9999
                      PROB30 2803/2808 8000=
200909262302 TAF EGLL 262302Z 2700/2806 30004KT 9999 FEW035
                      BECMG 2702/2705 7000
                      PROB30 2705/2708 4000 BR
                      BECMG 2707/2709 9999
                      PROB30 2722/2806 8000=
200909261646 TAF EGLL 261646Z 2618/2724 33004KT 9999 SCT030
                      BECMG 2702/2705 7000
                      PROB30 2706/2708 4000 BR
                      PROB30 2708/2711 BKN012
                      BECMG 2707/2710 9999
                      PROB30 2722/2724 8000=
200909261022 TAF EGLL 261022Z 2612/2718 33004KT 9999 FEW030
                      PROB40 2703/2709 6000=
200909260503 TAF EGLL 260503Z 2606/2712 32005KT 9999 FEW030
                      PROB30 2606/2608 9000
                      PROB40 2703/2708 6000=
200909252300 TAF EGLL 252300Z 2600/2706 32004KT 9999 FEW030
                      PROB30 2603/2608 8000
                      PROB40 2701/2706 6000=
200909251701 TAF EGLL 251701Z 2518/2624 30005KT 9999 FEW035
                      PROB30 2602/2608 8000=
200909251100 TAF EGLL 251100Z 2512/2618 29005KT 9999 SCT035
                      PROB40 2603/2608 8000=
200909250500 TAF EGLL 250500Z 2506/2612 30005KT 9999 FEW035
                      PROB30 2506/2508 9000
                      PROB40 2603/2608 7000=
200909242258 TAF EGLL 242258Z 2500/2606 30005KT 9999 FEW035
                      PROB30 2504/2508 8000
                      PROB40 2601/2606 7000=
200909241657 TAF EGLL 241657Z 2418/2524 30005KT 9999 FEW045
                      BECMG 2421/2424 8000
                      BECMG 2507/2509 9999
                      PROB40 2521/2524 7000=
200909241058 TAF EGLL 241058Z 2412/2518 30004KT 9999 FEW030
                      BECMG 2421/2424 8000
                      PROB30 2503/2508 4000 BR
                      BECMG 2507/2510 9999=
200909240454 TAF EGLL 240454Z 2406/2512 31003KT 9999 SCT025
                      PROB30 2406/2408 4000 BR
                      BECMG 2421/2424 8000
                      PROB40 2500/2508 4000 BR
                      BECMG 2507/2510 9999=
200909240049 TAF COR EGLL 240049Z 2400/2506 31003KT 9999 SCT025
                      PROB30 2403/2408 4000 BR
                      BECMG 2421/2424 8000
                      PROB40 2500/2506 4000 BR=
200909232300 TAF COR EGLL 240049Z 2400/2506 31003KT 9999 SCT025
                      PROB30 2403/2408 4000 BR
                      BECMG 2421/2424 8000
                      PROB40 2500/2506 4000 BR=
200909232254 TAF EGLL 232254Z 2400/2506 31003KT 9999 SCT025
                      PROB30 2403/2408 4000 BR
                      BECMG 2407/2410 9999
                      BECMG 2421/2424 8000
                      PROB40 2500/2506 4000 BR=
200909231704 TAF EGLL 231704Z 2318/2424 27006KT 9999 SCT025
                      BECMG 2322/2401 7000
                      PROB30 2403/2407 4000 BR
                      BECMG 2407/2410 9999
                      BECMG 2422/2424 8000=
200909231057 TAF EGLL 231057Z 2312/2418 27008KT 9999 SCT030
                      BECMG 2323/2402 7000
                      PROB30 2404/2407 4000 BR
                      BECMG 2407/2409 9999=
200909230502 TAF EGLL 230502Z 2306/2412 27007KT 9999 SCT030
                      PROB30 TEMPO 2306/2308 7000 BKN007
                      PROB40 2402/2408 4000 BR=
200909230429 TAF AMD EGLL 230429Z 2304/2406 24007KT 9999 SCT020
                      TEMPO 2304/2308 7000 BKN007=
200909222300 TAF AMD EGLL 230429Z 2304/2406 24007KT 9999 SCT020
                      TEMPO 2304/2308 7000 BKN007=
200909221702 TAF EGLL 221702Z 2218/2324 25008KT 9999 BKN023
                      BECMG 2221/2224 7000 BKN013
                      TEMPO 2301/2306 BKN009
                      BECMG 2306/2309 9999 SCT020=
200909221103 TAF EGLL 221103Z 2212/2318 25013KT 9999 BKN022
                      BECMG 2221/2224 7000 BKN012
                      TEMPO 2300/2305 BKN009
                      BECMG 2305/2308 9999 SCT020=
200909220506 TAF EGLL 220506Z 2206/2312 24010KT CAVOK
                      PROB30 2206/2209 8000 BKN012
                      BECMG 2207/2210 BKN020
                      TEMPO 2221/2301 8000 BKN010=
200909212305 TAF EGLL 212305Z 2200/2306 24010KT CAVOK
                      PROB40 2205/2209 8000 BKN012
                      BECMG 2209/2212 BKN025
                      PROB30 TEMPO 2300/2306 8000 BKN010=
200909211658 TAF EGLL 211658Z 2118/2224 25008KT 9999 FEW030
                      PROB40 2204/2210 7000 BKN012
                      PROB30 2217/2221 7000 BKN012=
200909211056 TAF EGLL 211056Z 2112/2218 25008KT 9999 FEW030
                      PROB40 2206/2210 7000 BKN012=
200909210503 TAF EGLL 210503Z 2106/2212 26006KT CAVOK
                      PROB40 2106/2108 7000=
200909202257 TAF EGLL 202257Z 2100/2206 27004KT CAVOK
                      BECMG 2100/2103 9000
                      PROB30 2103/2108 4000 BR
                      BECMG 2108/2110 9999=
200909201659 TAF EGLL 201659Z 2018/2124 05003KT 9999 SCT045
                      PROB40 2021/2108 6000
                      BECMG 2109/2112 25010KT
                      PROB30 2118/2124 8000=
200909201102 TAF EGLL 201102Z 2012/2118 05003KT 9999 SCT045
                      PROB40 2021/2108 6000
                      BECMG 2109/2112 25010KT=
200909200500 TAF EGLL 200500Z 2006/2112 01003KT 8000 SCT045
                      BECMG 2006/2009 9999
                      TEMPO 2021/2108 7000
                      BECMG 2109/2112 25010KT=
200909192300 TAF EGLL 192300Z 2000/2106 32003KT 9999 SCT035
                      PROB30 TEMPO 2000/2003 4000 +SHRA
                      PROB40 2003/2008 8000
                      PROB30 2018/2106 8000=
200909191857 TAF AMD EGLL 191857Z 1919/2024 35003KT 9999 SCT035
                      BECMG 1919/1922 8000
                      PROB30 TEMPO 1919/1921 4000 +SHRA TSRA
                      BECMG 2007/2010 9999
                      PROB30 2018/2024 8000=
200909191630 TAF EGLL 191630Z 1918/2024 35005KT 8000 SCT035
                      PROB30 TEMPO 1918/1921 4000 +SHRA TSRA
                      BECMG 2007/2010 9999
                      PROB30 2018/2024 8000=
200909191035 TAF EGLL 191035Z 1912/2018 35005KT 9999 SCT035
                      PROB30 TEMPO 1914/1923 5000 SHRA
                      PROB30 1923/2008 6000=
200909190723 TAF AMD EGLL 190723Z 1907/2012 04005KT 8000 BKN012
                      PROB30 1907/1910 BKN008
                      BECMG 1908/1911 9999 BKN025
                      PROB30 TEMPO 1914/1919 5000 SHRA
                      PROB30 1922/2008 6000=
200909190706 TAF AMD EGLL 190706Z 1907/2012 04005KT 8000 BKN012
                      BECMG 1907/1910 9999 BKN025
                      PROB30 TEMPO 1914/1919 5000 SHRA
                      PROB30 1922/2008 6000=
200909190504 TAF EGLL 190504Z 1906/2012 04005KT 9999 SCT045
                      PROB30 1906/1909 8000
                      PROB30 TEMPO 1914/1919 5000 SHRA
                      PROB30 1922/2008 6000=
200909182300 TAF EGLL 182300Z 1900/2006 05005KT 9999 SCT035
                      PROB30 1903/1909 8000
                      PROB30 TEMPO 1914/1918 5000 SHRA
                      PROB40 1922/2006 6000=
200909181659 TAF EGLL 181659Z 1818/1924 06010KT 9999 FEW030
                      PROB30 1904/1908 8000
                      BECMG 1912/1915 33006KT
                      PROB30 TEMPO 1914/1924 5000 SHRA=
200909181102 TAF EGLL 181102Z 1812/1918 07012KT 9999 FEW025 SCT038
                      PROB30 1904/1908 8000
                      BECMG 1909/1912 30006KT
                      PROB30 TEMPO 1914/1918 5000 SHRA=
200909180500 TAF EGLL 180500Z 1806/1912 07006KT 9999 SCT038=
200909172301 TAF EGLL 172301Z 1800/1906 05004KT 9999 SCT032=
200909171658 TAF EGLL 171658Z 1718/1824 05007KT 9999 SCT035=
200909171052 TAF EGLL 171052Z 1712/1818 05009KT 9999 FEW035 SCT045=
200909170424 TAF EGLL 170424Z 1706/1812 03009KT 9999 SCT040
                      PROB30 1802/1808 8000=
200909162241 TAF EGLL 162241Z 1700/1806 03009KT 9999 SCT040
                      PROB30 1800/1806 8000=
200909161700 TAF EGLL 161700Z 1618/1724 03010KT 9999 SCT040=
200909161058 TAF EGLL 161058Z 1612/1718 03013KT 9999 SCT032
                      TEMPO 1612/1619 04016G26KT=
200909160504 TAF EGLL 160504Z 1606/1712 03012KT 9999 SCT028
                      TEMPO 1606/1608 BKN012
                      TEMPO 1609/1620 04016G26KT=
200909152259 TAF EGLL 152259Z 1600/1706 04010KT 9999 FEW012 BKN024
                      TEMPO 1600/1608 7000 -RA BKN010
                      PROB30 1609/1619 05015G25KT=
200909151703 TAF EGLL 151703Z 1518/1624 04012KT 9999 SCT018
                      TEMPO 1518/1606 6000 RADZ BKN012
                      PROB30 TEMPO 1518/1606 2500 SHRA BKN009
                      PROB30 TEMPO 1603/1618 03015G26KT=
200909151105 TAF EGLL 151105Z 1512/1618 02012KT 9999 SCT018
                      TEMPO 1512/1606 03017G28KT 7000 -RA BKN012
                       PROB30
                      TEMPO 1512/1520 4500 SHRA BKN009
                      PROB30 TEMPO 1606/1616 03015G26KT=
200909150502 TAF EGLL 150502Z 1506/1612 02010KT 9999 SCT015 BKN020
                      PROB30 1506/1509 BKN014
                      TEMPO 1508/1522 03017G28KT
                      TEMPO 1509/1602 7000 -RA BKN014
                      PROB30 TEMPO 1511/1520 4500 SHRA BKN009
                      PROB40 1602/1609 BKN012=
200909142254 TAF EGLL 142254Z 1500/1606 02010KT 9999 SCT020
                      PROB40 1500/1509 BKN014
                      TEMPO 1508/1606 03017G28KT
                      TEMPO 1509/1522 7000 -RA BKN014
                      PROB30 TEMPO 1512/1520 4500 SHRA
                      PROB40 1522/1606 BKN012=
200909141658 TAF EGLL 141658Z 1418/1524 01010KT 9999 SCT025
                      BECMG 1508/1511 02017G28KT
                      TEMPO 1509/1524 9000 -SHRA=
200909141057 TAF EGLL 141057Z 1412/1518 02013KT 9999 SCT030
                      BECMG 1509/1512 02016G26KT
                      PROB30 1515/1518 9000 RA=
200909140512 TAF EGLL 140512Z 1406/1512 36005KT 9999 BKN035
                      BECMG 1407/1410 03015KT
                      PROB40 TEMPO 1503/1508 BKN014=
200909140500 TAF EGLL 140500Z NIL=
200909132301 TAF EGLL 132301Z 1400/1506 36005KT 9999 SCT035
                      PROB30 TEMPO 1404/1409 BKN014
                      BECMG 1409/1412 03015KT
                      PROB30 TEMPO 1503/1506 BKN014=
200909131656 TAF EGLL 131656Z 1318/1424 03009KT 9999 SCT030
                      PROB30 TEMPO 1400/1408 8000 BKN014
                      PROB30 TEMPO 1414/1419 02015G25KT 8000 -SHRA
                       PROB30 1421/1424 BKN014=
200909131054 TAF EGLL 131054Z 1312/1418 02010KT 9999 SCT030
                      PROB30 TEMPO 1402/1408 8000 BKN014=
200909130556 TAF AMD EGLL 130556Z 1306/1412 02010KT 9000 SCT035
                      BECMG 1306/1308 9999
                      PROB30 1306/1307 BKN008
                      TEMPO 1403/1408 8000 BKN014=
200909130503 TAF EGLL 130503Z 1306/1412 02010KT 9999 SCT035
                      PROB30 1306/1308 BKN008
                      TEMPO 1403/1408 8000 BKN014=
200909122306 TAF EGLL 122306Z 1300/1406 VRB03KT CAVOK
                      PROB40 1304/1309 5000 BR BKN008
                      BECMG 1306/1309 02011KT BKN018=
200909121657 TAF EGLL 121657Z 1218/1324 04005KT 9999 FEW045
                      PROB40 1223/1308 4500 HZ
                      PROB30 1304/1309 BKN008=
200909121053 TAF EGLL 121053Z 1212/1318 04007KT 9999 SCT030
                      PROB40 1223/1308 4500 HZ
                      PROB30 1305/1309 BKN006=
200909120507 TAF EGLL 120507Z 1206/1312 05004KT 9999 SCT035
                      PROB30 TEMPO 1206/1208 8000 BKN009
                      PROB30 1223/1306 5000 HZ
                      TEMPO 1305/1310 BKN014=
200909112259 TAF EGLL 112259Z 1200/1306 05005KT 9999 FEW035
                      TEMPO 1205/1208 8000 BKN005
                      PROB40 1301/1306 5000 HZ BKN009=
200909111704 TAF EGLL 111704Z 1118/1224 03007KT 9999 SCT035
                      TEMPO 1205/1208 8000 BKN005=
200909111105 TAF EGLL 111105Z 1112/1218 04008KT 9999 SCT035
                      TEMPO 1205/1208 8000 BKN005=
200909110559 TAF AMD EGLL 110559Z 1106/1212 02006KT 9999 FEW045
                      PROB30 TEMPO 1106/1108 BKN005
                      PROB30 1203/1208 7000=
200909110507 TAF EGLL 110507Z 1106/1212 03006KT 9999 FEW045
                      PROB30 1203/1208 7000=
200909102257 TAF EGLL 102257Z 1100/1206 04007KT 9999 FEW045
                      PROB30 1203/1206 8000=
200909101658 TAF EGLL 101658Z 1018/1124 03008KT 9999 FEW045=
200909101103 TAF EGLL 101103Z 1012/1118 03010KT 9999 FEW035=
200909100501 TAF EGLL 100501Z 1006/1112 03008KT 9999 SCT030=
200909092258 TAF EGLL 092258Z 1000/1106 04008KT 9999 FEW030=
200909091700 TAF EGLL 091700Z 0918/1024 03008KT 9999 FEW045=
200909091057 TAF EGLL 091057Z 0912/1018 03009KT 9999 SCT035
                      PROB30 TEMPO 0912/0915 9000 -RA=
200909090457 TAF EGLL 090457Z 0906/1012 35006KT 9999 SCT040
                      PROB30 TEMPO 0909/0913 9000 -RA
                      BECMG 0913/0916 06010KT
                      BECMG 0923/1002 35006KT
                      BECMG 1009/1012 05012KT=
200909090030 TAF AMD EGLL 090030Z 0900/1006 34010KT 9999 BKN009
                      BECMG 0900/0903 SCT030
                      PROB30 0900/0912 8000 -RA=
200909082300 TAF AMD EGLL 090030Z 0900/1006 34010KT 9999 BKN009
                      BECMG 0900/0903 SCT030
                      PROB30 0900/0912 8000 -RA=
200909082258 TAF EGLL 082258Z 0900/1006 28008KT 9999 SCT030
                      PROB40 0900/0903 BKN012
                      PROB30 0900/0912 8000 -RA
                      BECMG 0901/0904 01012KT=
200909081703 TAF EGLL 081703Z 0818/0924 21012KT 9999 FEW035
                      PROB30 0823/0903 9000 -RA BKN014
                      BECMG 0901/0904 35010KT
                      BECMG 0915/0918 08009KT=
200909081059 TAF EGLL 081059Z 0812/0918 21012KT 9999 SCT020
                      PROB30 0822/0903 9000 -RA BKN014
                      BECMG 0900/0903 35010KT=
200909080529 TAF AMD EGLL 080529Z 0806/0912 21010KT 7000 BKN005
                      BECMG 0807/0810 9999 FEW030
                      PROB30 0820/0823 8000 -RA BKN014
                      BECMG 0821/0824 34010KT=
200909080457 TAF EGLL 080457Z 0806/0912 21010KT 7000 BKN007
                      BECMG 0807/0810 9999 FEW030
                      PROB30 0820/0823 8000 -RA BKN014
                      BECMG 0821/0824 34010KT=
200909080257 TAF AMD EGLL 080257Z 0802/0906 21008KT 9999 BKN010
                      PROB40 0802/0807 4000 BR BKN005
                      BECMG 0807/0810 FEW030
                      PROB30 0820/0823 8000 -RA BKN014
                      BECMG 0821/0824 34010KT=
200909080224 TAF AMD EGLL 080224Z 0802/0906 21008KT 9999 BKN010
                      PROB40 0800/0807 8000 BKN005
                      BECMG 0807/0810 FEW030
                      PROB30 0820/0823 8000 -RA BKN014
                      BECMG 0821/0824 34010KT=
200909072300 TAF AMD EGLL 080257Z 0802/0906 21008KT 9999 BKN010
                      PROB40 0802/0807 4000 BR BKN005
                      BECMG 0807/0810 FEW030
                      PROB30 0820/0823 8000 -RA BKN014
                      BECMG 0821/0824 34010KT=
200909072256 TAF EGLL 072256Z 0800/0906 21008KT 9999 BKN014
                      PROB40 0800/0807 8000 BKN007
                      BECMG 0807/0810 FEW030
                      PROB30 0820/0823 8000 -RA BKN014
                      BECMG 0821/0824 34010KT=
200909071956 TAF AMD EGLL 071956Z 0720/0824 21009KT 9999 SCT020
                      BECMG 0720/0723 BKN012
                      PROB40 0722/0807 8000 BKN007
                      BECMG 0807/0810 FEW030
                      PROB30 TEMPO 0814/0818 23015G25KT=
200909071711 TAF COR EGLL 071711Z 0718/0824 21009KT 9999 SCT020
                      BECMG 0722/0801 BKN012
                      PROB40 0723/0807 8000 BKN007
                      BECMG 0807/0810 FEW030
                      PROB30 TEMPO 0814/0818 23015G25KT=
200909071659 TAF EGLL 071659Z 0718/0824 21009KT 9999 SCT020
                      BECMG 0722/0801 BKN012
                      PROB40 0723/0807 8000 BKN007
                      BECMG 0807/0810 9999 FEW030
                      PROB30 TEMPO 0814/0818 23015G25KT=
200909071056 TAF EGLL 071056Z 0712/0818 20009KT 9999 SCT030
                      TEMPO 0712/0715 BKN014
                      PROB40 0723/0807 8000 BKN007
                      TEMPO 0812/0818 23015G25KT=
200909070457 TAF EGLL 070457Z 0706/0812 20009KT 9999 FEW045
                      PROB30 0708/0712 BKN014
                      BECMG 0721/0724 BKN010
                      PROB40 0723/0808 7000 BKN005
                      BECMG 0808/0811 SCT035=
200909062259 TAF EGLL 062259Z 0700/0806 20007KT 9999 SCT045
                      PROB40 0708/0712 BKN014
                      BECMG 0721/0724 BKN012
                      PROB40 0723/0806 7000 BKN005=
200909062158 TAF AMD EGLL 062158Z 0622/0724 21009KT 9999 SCT045
                      TEMPO 0705/0712 BKN012
                      PROB30 TEMPO 0705/0710 8000 -RA
                      BECMG 0720/0723 BKN013
                      PROB30 0723/0724 6000 BKN007=
200909061700 TAF EGLL 061700Z 0618/0724 21009KT 9999 BKN040
                      TEMPO 0705/0712 BKN012
                      PROB30 TEMPO 0705/0710 8000 -RA
                      BECMG 0720/0723 BKN013
                      PROB30 0723/0724 6000 BKN007=
200909061057 TAF EGLL 061057Z 0612/0718 23010KT 9999 BKN040
                      TEMPO 0705/0712 8000 -RA BKN014
                      PROB30 0705/0710 BKN009=
200909060456 TAF EGLL 060456Z 0606/0712 23009KT 9999 SCT040
                      PROB40 0702/0709 8000 -RA
                      PROB30 0705/0709 BKN014=
200909052304 TAF EGLL 052304Z 0600/0706 26010KT 9999 SCT035
                      BECMG 0615/0618 20006KT
                      PROB30 0702/0706 8000 -RA=
200909051656 TAF EGLL 051656Z 0518/0624 26012KT 9999 SCT040
                      BECMG 0614/0617 20008KT=
200909051058 TAF EGLL 051058Z 0512/0618 26012KT 9999 SCT040
                      BECMG 0614/0617 20008KT=
200909050452 TAF EGLL 050452Z 0506/0612 26010KT 9999 SCT040=
200909042254 TAF EGLL 042254Z 0500/0606 26010KT 9999 SCT040=
200909041700 TAF EGLL 041700Z 0418/0524 27013KT 9999 SCT040
                      PROB40 TEMPO 0418/0420 28018G28KT=
200909041056 TAF EGLL 041056Z 0412/0518 26015KT 9999 SCT035
                      TEMPO 0412/0419 28018G28KT=
200909040501 TAF EGLL 040501Z 0406/0512 26010KT 9999 FEW040
                      BECMG 0409/0412 28015G25KT
                      BECMG 0418/0420 26009KT=
200909032300 TAF EGLL 032300Z 0400/0506 25010KT 9999 FEW040
                      BECMG 0409/0412 28015G25KT
                      BECMG 0418/0420 27009KT=
200909031704 TAF EGLL 031704Z 0318/0424 25020G30KT 9999 FEW040
                      BECMG 0318/0320 25013KT
                      BECMG 0408/0410 27018G30KT
                      BECMG 0417/0419 27012KT=
200909031057 TAF EGLL 031057Z 0312/0418 25020G32KT 9999 SCT040
                      BECMG 0317/0319 25013KT
                      BECMG 0408/0410 28018G30KT=
200909030507 TAF EGLL 030507Z 0306/0412 26018KT 9999 SCT025 BKN030
                      TEMPO 0306/0318 24020G32KT
                      PROB30 TEMPO 0314/0318 9000 SHRA=
200909022301 TAF EGLL 022301Z 0300/0406 23018KT 9999 BKN015
                      TEMPO 0300/0316 24020G32KT
                      PROB30 TEMPO 0300/0304 7000 SHRA BKN014
                      PROB30 TEMPO 0312/0318 7000 SHRA=
200909022029 TAF AMD EGLL 022029Z 0220/0324 0220/0324 19014KT 9999 -RA FEW015
                       SCT025
                      BECMG 0220/0222 7000 RA BKN014
                      PROB40 TEMPO 0220/0223 17018G30KT 3000 +RA
                       +TSRA BKN009 BKN020CB
                      BECMG 0222/0301 9999 NSW BKN018
                      PROB40 TEMPO 0223/0304 7000 SHRA BKN013
                      BECMG 0301/0304 25020G35KT
                      BECMG 0316/0318 25013KT=
200909021705 TAF EGLL 021705Z 0218/0324 0218/0324 19014KT 9999 -RA FEW015 SCT025
                       BECMG 0218/0220 7000 RA BKN014
                      PROB40 TEMPO 0219/0221 17018G30KT 4000 +RA
                       BKN009 BKN020CB
                      BECMG 0221/0223 9999 NSW BKN018
                      PROB40 TEMPO 0223/0304 7000 SHRA BKN013
                      BECMG 0301/0304 25020G35KT
                      BECMG 0316/0318 25013KT=
200909021104 TAF EGLL 021104Z 0212/0318 0212/0318 18013KT 9999 SCT025
                      PROB40 TEMPO 0212/0217 7000 SHRA
                      BECMG 0217/0219 7000 RA BKN014
                      PROB40 TEMPO 0219/0221 17017G30KT 4000 +RA
                       BKN009 BKN020CB
                      BECMG 0221/0223 9999 NSW BKN018
                      TEMPO 0223/0304 7000 SHRA BKN012
                      BECMG 0301/0304 24018G30KT
                      BECMG 0316/0318 25012KT=
200909020458 TAF EGLL 020458Z 0206/0312 22008KT 9999 SCT020
                      TEMPO 0206/0214 7000 SHRA
                      PROB30 0206/0210 BKN014
                      BECMG 0214/0217 16012KT 7000 RA BKN014
                      PROB40 TEMPO 0217/0222 17017G30KT 4000 +RA
                       BKN009
                      BECMG 0222/0301 26015KT 9999 NSW SCT018
                      TEMPO 0301/0312 26020G32KT
                      PROB40 TEMPO 0301/0304 6000 SHRA BKN014=
200909012258 TAF EGLL 012258Z 0200/0306 23012KT 9999 SCT040
                      TEMPO 0205/0216 7000 SHRA
                      PROB40 0206/0210 BKN014
                      BECMG 0214/0217 17014KT 7000 RA BKN014
                      PROB40 TEMPO 0218/0222 17017G30KT 4000 +RA
                       BKN009
                      BECMG 0300/0303 26022G35KT 9999 NSW BKN015
                       TEMPO 0300/0304 4000 SHRA BKN014=
200909011702 TAF EGLL 011702Z 0118/0224 23012KT 9999 SCT040
                      TEMPO 0118/0121 23018G30KT 7000 SHRA
                      PROB30 TEMPO 0118/0120 +SHRA TSGR
                      PROB40 TEMPO 0206/0216 7000 SHRA
                      BECMG 0216/0219 17014KT 7000 RA BKN014
                      PROB40 TEMPO 0219/0222 17017G27KT 4000 +RA
                       BKN009=
200909011059 TAF EGLL 011059Z 0112/0218 23015KT 9999 SCT040
                      TEMPO 0112/0121 23019G33KT 7000 SHRA
                      PROB30 TEMPO 0112/0120 3000 +SHRA +TSGR
                      TEMPO 0206/0215 7000 SHRA
                      BECMG 0215/0218 17014KT 7000 RA BKN014=
200909010505 TAF EGLL 010505Z 0106/0212 23012KT 9999 SCT027
                      BECMG 0111/0114 23015G28KT
                      TEMPO 0111/0121 7000 SHRA
                      PROB30 TEMPO 0114/0120 23022G40KT 3000 +SHRA
                       TSGR
                      BECMG 0118/0121 24012KT=
