##########################################################
# Query made at 01/13/2020 12:41:40 UTC
# Time interval: from 09/01/2016 00:00  to 10/01/2016 23:59  UTC
##########################################################

##########################################################
# EGLL, London / Heathrow Airport (United Kingdom)
# WMO index: 03772
# Latitude 51-29N. Longitude 000-27W. Altitude 24 m.
##########################################################

###################################
#  METAR/SPECI from EGLL
###################################
201610012350 METAR EGLL 012350Z AUTO 29005KT 9999 NCD 09/08 Q1009=
201610012320 METAR COR EGLL 012320Z AUTO 31004KT 9999 FEW013 09/08 Q1009
                        TEMPO BKN010=
201610012250 METAR COR EGLL 012250Z AUTO 31005KT 9999 SCT009 09/09 Q1009
                        TEMPO BKN009=
201610012220 METAR COR EGLL 012220Z AUTO 31004KT 9999 FEW009 10/09 Q1008
                        TEMPO BKN010=
201610012150 METAR COR EGLL 012150Z AUTO 31004KT 280V340 9999 BKN044 10/09
                        Q1008 NOSIG=
201610012120 METAR COR EGLL 012120Z AUTO 30004KT 9999 FEW025 BKN040 10/09
                        Q1007 NOSIG=
201610012050 METAR COR EGLL 012050Z AUTO 29004KT 9999 BKN049 10/09 Q1007
                        NOSIG=
201610012020 METAR COR EGLL 012020Z AUTO 30003KT 9999 FEW020 BKN038 11/10
                        Q1007 NOSIG=
201610011950 METAR COR EGLL 011950Z AUTO 30003KT 9999 -RA BKN040/// //////TCU
                        10/09 Q1006 NOSIG=
201610011920 METAR COR EGLL 011920Z AUTO 26004KT 230V290 9999 -RA BKN043///
                        //////TCU 11/09 Q1006 NOSIG=
201610011850 METAR COR EGLL 011850Z AUTO 26005KT 9999 -RA BKN033/// OVC048///
                        //////TCU 11/10 Q1006 NOSIG=
201610011820 METAR COR EGLL 011820Z AUTO 27005KT 9999 -RA BKN038/// //////TCU
                        11/09 Q1006 TEMPO SHRA=
201610011750 METAR COR EGLL 011750Z AUTO 28006KT 9999 -RA FEW022/// BKN036///
                        //////CB 11/09 Q1005 TEMPO 4000 +SHRA=
201610011720 METAR COR EGLL 011720Z AUTO 28007KT 9999 -RA SCT029/// OVC043///
                        //////TCU 12/09 Q1005 TEMPO 3500
                        +SHRA=
201610011650 METAR COR EGLL 011650Z AUTO 27008KT 9999 FEW018/// //////CB
                        12/09 Q1005 TEMPO SHRA=
201610011620 METAR COR EGLL 011620Z AUTO 22008KT 9999 -RA FEW035/// SCT048///
                        //////CB 13/09 Q1004 NOSIG=
201610011550 METAR COR EGLL 011550Z AUTO 22008KT 9999 -RA FEW020/// BKN034///
                        //////CB 15/09 Q1004 TEMPO SHRA=
201610011520 METAR COR EGLL 011520Z AUTO 22006KT 180V250 9999 SCT039///
                        //////CB 14/08 Q1004 TEMPO SHRA=
201610011450 METAR COR EGLL 011450Z AUTO 23008KT 180V250 9999 -RA FEW014///
                        SCT027/// BKN048/// //////CB 14/10
                        Q1004 TEMPO SHRA=
201610011420 METAR COR EGLL 011420Z AUTO 22010KT 9999 -RA FEW032/// //////CB
                        15/08 Q1004 TEMPO 4000 TSRA=
201610011350 METAR COR EGLL 011350Z AUTO 22009KT 180V260 9999 FEW025 15/09
                        Q1004 TEMPO 4000 SHRA=
201610011320 METAR COR EGLL 011320Z AUTO 25008KT 9999 SCT019 SCT043 15/10
                        Q1005 TEMPO SHRA=
201610011250 METAR COR EGLL 011250Z AUTO 22006KT 180V270 9999 SCT014 BKN027
                        15/11 Q1005 TEMPO SHRA=
201610011220 METAR COR EGLL 011220Z AUTO 16008KT 130V220 9999 BKN015 BKN027
                        14/11 Q1005 TEMPO SHRA=
201610011150 METAR COR EGLL 011150Z AUTO 16008KT 120V230 9999 FEW017 13/10
                        Q1005 NOSIG=
201610011120 METAR COR EGLL 011120Z AUTO 15006KT 110V240 9999 -RA BKN040///
                        //////TCU 13/11 Q1005 NOSIG=
201610011050 METAR COR EGLL 011050Z AUTO 17007KT 130V240 9999 -RA FEW007///
                        BKN035/// //////CB 12/11 Q1006 TEMPO
                        4000 RA=
201610011020 METAR COR EGLL 011020Z AUTO 17008KT 140V230 9999 -RA SCT007
                        SCT016 BKN034 12/11 Q1006 TEMPO 4000
                        RA=
201610010950 METAR COR EGLL 010950Z AUTO 18008KT 130V250 7000 -RA BKN027///
                        BKN042/// //////TCU 13/11 Q1006 NOSIG=
201610010920 METAR COR EGLL 010920Z AUTO 15005KT 100V220 9999 //////CB
                        12/11 Q1006 TEMPO 4000 RA=
201610010850 METAR COR EGLL 010850Z 15006KT 120V210 9999 -SHRA FEW007
                        SCT021CB BKN049 12/11 Q1006 RESHRA
                        TEMPO 3500 +SHRA=
201610010820 METAR COR EGLL 010820Z 14004KT 100V210 9999 7000E VCTS VCSH
                        SCT035CB BKN037 12/10 Q1006 TEMPO
                        4000 SHRA=
201610010750 METAR COR EGLL 010750Z AUTO 15004KT 100V260 9999 //////CB
                        12/11 Q1006 TEMPO SHRA=
201610010720 METAR COR EGLL 010720Z AUTO VRB03KT 9999 NCD 11/10 Q1006
                        NOSIG=
201610010650 METAR COR EGLL 010650Z AUTO VRB03KT 9999 NCD 10/10 Q1006
                        NOSIG=
201610010620 METAR COR EGLL 010620Z AUTO VRB03KT 9999 R27L/0400 NCD 10/09
                        Q1006 NOSIG=
201610010550 METAR COR EGLL 010550Z VRB02KT 9999 R27L/0275 MIFG NSC 10/09
                        Q1006 NOSIG=
201610010520 METAR COR EGLL 010520Z AUTO 14005KT 090V210 9999 FEW031 10/09
                        Q1007 NOSIG=
201610010450 METAR COR EGLL 010450Z VRB03KT 9999 NSC 10/10 Q1007 NOSIG=
201610010420 METAR COR EGLL 010420Z VRB02KT 9999 NSC 10/10 Q1007 NOSIG=
201610010350 METAR COR EGLL 010350Z AUTO VRB02KT 9999 NCD 11/10 Q1007
                        NOSIG=
201610010320 METAR COR EGLL 010320Z AUTO 08002KT 9999 NCD 11/10 Q1007
                        NOSIG=
201610010250 METAR COR EGLL 010250Z AUTO 10001KT 9999 NCD 11/10 Q1007
                        NOSIG=
201610010220 METAR COR EGLL 010220Z AUTO 09002KT 9999 NCD 11/10 Q1008
                        NOSIG=
201610010150 METAR COR EGLL 010150Z AUTO 13003KT 9999 NCD 10/10 Q1008
                        NOSIG=
201610010120 METAR COR EGLL 010120Z AUTO 00000KT 9999 FEW047 10/10 Q1008
                        NOSIG=
201610010050 METAR COR EGLL 010050Z AUTO 00000KT 9999 BKN049 10/10 Q1009
                        NOSIG=
201610010020 METAR COR EGLL 010020Z AUTO 18002KT 9999 NCD 10/09 Q1009
                        NOSIG=
201609302350 METAR COR EGLL 302350Z AUTO VRB01KT 5000 HZ NCD 10/09 Q1009
                        NOSIG=
201609302320 METAR COR EGLL 302320Z AUTO VRB01KT 2000 HZ NCD 11/10 Q1010
                        TEMPO 5000=
201609302250 METAR COR EGLL 302250Z AUTO 17003KT 9999 NCD 11/10 Q1010
                        NOSIG=
201609302220 METAR COR EGLL 302220Z AUTO 22003KT 9999 NCD 11/10 Q1010
                        NOSIG=
201609302150 METAR COR EGLL 302150Z AUTO 22004KT 9999 NCD 10/10 Q1010
                        NOSIG=
201609302120 METAR COR EGLL 302120Z AUTO 19005KT 170V230 9999 NCD 11/10
                        Q1011 NOSIG=
201609302050 METAR COR EGLL 302050Z AUTO 20005KT 160V250 9999 NCD 11/10
                        Q1011 NOSIG=
201609302020 METAR COR EGLL 302020Z AUTO 17006KT 140V240 9999 NCD 12/10
                        Q1011 NOSIG=
201609301950 METAR COR EGLL 301950Z AUTO 19006KT 130V230 9999 BKN036 13/11
                        Q1011 NOSIG=
201609301920 METAR COR EGLL 301920Z AUTO 20007KT 170V250 9999 BKN035///
                        //////CB 13/11 Q1011 NOSIG=
201609301850 METAR COR EGLL 301850Z AUTO 21006KT 9999 FEW043/// //////TCU
                        13/10 Q1011 NOSIG=
201609301820 METAR COR EGLL 301820Z AUTO 21008KT 9999 -RA FEW018/// BKN042///
                        //////CB 13/11 Q1011 NOSIG=
201609301750 METAR COR EGLL 301750Z AUTO 24008KT 210V290 9999 -RA SCT028///
                        //////CB 14/10 Q1011 TEMPO SHRA=
201609301720 METAR COR EGLL 301720Z AUTO 20009KT 150V240 9999 //////CB
                        16/10 Q1011 TEMPO SHRA=
201609301650 METAR COR EGLL 301650Z AUTO 20011KT 9999 FEW043 16/09 Q1011
                        TEMPO SHRA=
201609301620 METAR COR EGLL 301620Z AUTO 21010KT 9999 SCT041 18/09 Q1011
                        TEMPO SHRA=
201609301550 METAR COR EGLL 301550Z AUTO 23010KT 9999 FEW042 19/08 Q1011
                        TEMPO SHRA=
201609301520 METAR COR EGLL 301520Z AUTO 23008KT 200V260 9999 BKN040 19/08
                        Q1011 NOSIG=
201609301450 METAR COR EGLL 301450Z AUTO 23010KT 9999 SCT039 17/08 Q1011
                        NOSIG=
201609301420 METAR COR EGLL 301420Z AUTO 23012KT 9999 BKN039 17/08 Q1011
                        NOSIG=
201609301350 METAR COR EGLL 301350Z AUTO 22014G24KT 190V250 9999 BKN039
                        18/08 Q1011 NOSIG=
201609301320 METAR COR EGLL 301320Z AUTO 23013KT 9999 FEW041 19/08 Q1012
                        NOSIG=
201609301250 METAR COR EGLL 301250Z AUTO 23013KT 200V260 9999 FEW042 18/07
                        Q1012 NOSIG=
201609301220 METAR COR EGLL 301220Z AUTO 23013KT 200V260 9999 BKN041 17/08
                        Q1012 NOSIG=
201609301150 METAR COR EGLL 301150Z AUTO 24013KT 9999 SCT035 18/08 Q1012
                        TEMPO SHRA=
201609301120 METAR COR EGLL 301120Z AUTO 24011KT 9999 SCT028/// //////CB
                        17/09 Q1013 NOSIG=
201609301050 METAR COR EGLL 301050Z 24015KT 9999 5000E -SHRA BKN030 BKN047
                        16/09 Q1013 NOSIG=
201609301020 METAR COR EGLL 301020Z AUTO 25012KT 210V280 9999 BKN030 17/09
                        Q1013 TEMPO SHRA=
201609300950 METAR COR EGLL 300950Z AUTO 24012KT 9999 SCT029 16/09 Q1013
                        NOSIG=
201609300920 METAR COR EGLL 300920Z AUTO 24010KT 9999 FEW026 16/08 Q1013
                        NOSIG=
201609300850 METAR COR EGLL 300850Z AUTO 24008KT 9999 NCD 15/10 Q1013
                        NOSIG=
201609300820 METAR COR EGLL 300820Z AUTO 23009KT 9999 NCD 14/10 Q1013
                        NOSIG=
201609300750 METAR COR EGLL 300750Z AUTO 23007KT 9999 NCD 13/10 Q1013
                        NOSIG=
201609300720 METAR COR EGLL 300720Z AUTO 22008KT 180V250 9999 NCD 12/09
                        Q1013 NOSIG=
201609300650 METAR COR EGLL 300650Z AUTO 23007KT 9999 NCD 11/09 Q1013
                        NOSIG=
201609300620 METAR COR EGLL 300620Z AUTO 23008KT 9999 NCD 11/09 Q1013
                        NOSIG=
201609300550 METAR COR EGLL 300550Z AUTO 24008KT 9999 NCD 11/09 Q1013
                        NOSIG=
201609300520 METAR COR EGLL 300520Z AUTO 23006KT 9999 NCD 11/09 Q1013
                        NOSIG=
201609300450 METAR COR EGLL 300450Z AUTO 23005KT 9999 NCD 12/09 Q1013
                        NOSIG=
201609300420 METAR COR EGLL 300420Z AUTO 23006KT 9999 NCD 12/09 Q1013
                        NOSIG=
201609300350 METAR COR EGLL 300350Z AUTO 24005KT 9999 NCD 12/09 Q1013
                        NOSIG=
201609300320 METAR COR EGLL 300320Z AUTO 23006KT 9999 NCD 12/09 Q1013
                        NOSIG=
201609300250 METAR COR EGLL 300250Z AUTO 22005KT 9999 NCD 12/09 Q1013
                        NOSIG=
201609300220 METAR COR EGLL 300220Z AUTO 25006KT 9999 NCD 12/09 Q1013
                        NOSIG=
201609300150 METAR COR EGLL 300150Z AUTO 24007KT 9999 NCD 12/09 Q1013
                        NOSIG=
201609300120 METAR COR EGLL 300120Z AUTO 24008KT 9999 NCD 12/09 Q1014
                        NOSIG=
201609300050 METAR COR EGLL 300050Z AUTO 25008KT 9999 NCD 12/09 Q1014
                        NOSIG=
201609300020 METAR COR EGLL 300020Z AUTO 24009KT 9999 NCD 12/09 Q1014
                        NOSIG=
201609292350 METAR COR EGLL 292350Z AUTO 24009KT 9999 NCD 12/09 Q1014
                        NOSIG=
201609292320 METAR COR EGLL 292320Z AUTO 24009KT 9999 NCD 12/09 Q1014
                        NOSIG=
201609292250 METAR COR EGLL 292250Z AUTO 25009KT 9999 NCD 12/09 Q1014
                        NOSIG=
201609292220 METAR COR EGLL 292220Z AUTO 25009KT 9999 NCD 13/09 Q1015
                        NOSIG=
201609292150 METAR COR EGLL 292150Z AUTO 25009KT 9999 NCD 13/09 Q1015
                        NOSIG=
201609292120 METAR COR EGLL 292120Z AUTO 26009KT 9999 NCD 13/09 Q1014
                        NOSIG=
201609292050 METAR COR EGLL 292050Z AUTO 25010KT 9999 NCD 13/09 Q1015
                        NOSIG=
201609292020 METAR COR EGLL 292020Z AUTO 26010KT 9999 NCD 13/09 Q1015
                        NOSIG=
201609291950 METAR COR EGLL 291950Z AUTO 25011KT 9999 NCD 14/09 Q1015
                        NOSIG=
201609291920 METAR COR EGLL 291920Z AUTO 24011KT 9999 NCD 14/09 Q1014
                        NOSIG=
201609291850 METAR COR EGLL 291850Z AUTO 25011KT 9999 NCD 15/08 Q1014
                        NOSIG=
201609291820 METAR COR EGLL 291820Z AUTO 26012KT 9999 NCD 15/08 Q1014
                        NOSIG=
201609291750 METAR COR EGLL 291750Z AUTO 26013KT 9999 NCD 16/07 Q1014
                        NOSIG=
201609291720 METAR COR EGLL 291720Z AUTO 26014KT 9999 NCD 16/07 Q1014
                        NOSIG=
201609291650 METAR COR EGLL 291650Z AUTO 26017KT 9999 NCD 17/07 Q1014
                        NOSIG=
201609291620 METAR COR EGLL 291620Z AUTO 26016KT 9999 NCD 18/07 Q1014
                        NOSIG=
201609291550 METAR COR EGLL 291550Z AUTO 26018KT 9999 NCD 18/07 Q1013
                        NOSIG=
201609291520 METAR COR EGLL 291520Z AUTO 25015KT 9999 FEW043 18/08 Q1013
                        NOSIG=
201609291450 METAR COR EGLL 291450Z AUTO 27016KT 9999 SCT038 18/09 Q1013
                        NOSIG=
201609291420 METAR COR EGLL 291420Z AUTO 26015KT 9999 FEW038 19/10 Q1013
                        NOSIG=
201609291350 METAR COR EGLL 291350Z AUTO 26017KT 9999 BKN042 19/09 Q1014
                        NOSIG=
201609291320 METAR COR EGLL 291320Z AUTO 26017KT 9999 FEW041 19/09 Q1014
                        NOSIG=
201609291250 METAR COR EGLL 291250Z AUTO 27014KT 9999 SCT032 SCT047 19/11
                        Q1014 NOSIG=
201609291220 METAR COR EGLL 291220Z AUTO 27015KT 9999 BKN028 18/11 Q1014
                        NOSIG=
201609291150 METAR COR EGLL 291150Z AUTO 26014KT 230V290 9999 SCT018 18/13
                        Q1014 NOSIG=
201609291120 METAR COR EGLL 291120Z AUTO 26010KT 9999 -RA FEW024 17/14
                        Q1014 NOSIG=
201609291050 METAR COR EGLL 291050Z AUTO 25011KT 9999 NCD 16/14 Q1014
                        NOSIG=
201609291020 METAR COR EGLL 291020Z AUTO 25012KT 9999 -RA BKN041 15/13
                        Q1014 NOSIG=
201609290950 METAR COR EGLL 290950Z AUTO 25013KT 9999 -RA BKN039 15/13
                        Q1014 NOSIG=
201609290920 METAR COR EGLL 290920Z 27015KT 9999 5000E VCSH FEW014 SCT027
                        BKN043 15/13 Q1015 NOSIG=
201609290850 METAR COR EGLL 290850Z 25014KT 9999 FEW005 SCT014 BKN026
                        15/13 Q1015 RERA NOSIG=
201609290820 METAR COR EGLL 290820Z AUTO 23015KT 5000 -RADZ BKN008///
                        OVC024/// //////CB 17/16 Q1014 BECMG
                        SCT010 BKN025=
201609290750 METAR COR EGLL 290750Z AUTO 23015KT 9999 BKN012 OVC045 18/15
                        Q1014 TEMPO -RA BKN009=
201609290720 METAR COR EGLL 290720Z AUTO 23015KT 9999 BKN011 OVC044 17/15
                        Q1014 TEMPO -RA BKN009=
201609290650 METAR COR EGLL 290650Z AUTO 22014KT 9999 BKN010 17/15 Q1014
                        TEMPO -RA BKN008=
201609290620 METAR COR EGLL 290620Z AUTO 22013KT 9999 BKN009 17/15 Q1015
                        TEMPO SCT010 BKN015=
201609290550 METAR COR EGLL 290550Z AUTO 23014KT 9999 BKN009 17/15 Q1015
                        TEMPO SCT010 BKN015=
201609290520 METAR COR EGLL 290520Z AUTO 24015KT 7000 OVC010 17/15 Q1015
                        TEMPO RA BKN008=
201609290450 METAR COR EGLL 290450Z AUTO 24015KT 9999 OVC011 17/15 Q1015
                        TEMPO BKN009=
201609290420 METAR COR EGLL 290420Z AUTO 23014KT 9999 BKN010 17/15 Q1015
                        TEMPO BKN008=
201609290350 METAR COR EGLL 290350Z AUTO 23013KT 9999 BKN009 OVC020 17/16
                        Q1016 TEMPO BKN012=
201609290320 METAR COR EGLL 290320Z AUTO 24013KT 9999 BKN008 17/16 Q1016
                        TEMPO SCT009 BKN014=
201609290250 METAR COR EGLL 290250Z AUTO 24013KT 9999 OVC009 18/16 Q1016
                        TEMPO SCT009 BKN011=
201609290220 METAR COR EGLL 290220Z AUTO 23014KT 9999 OVC010 18/16 Q1016
                        TEMPO BKN008=
201609290150 METAR COR EGLL 290150Z AUTO 23012KT 9999 OVC010 18/16 Q1017
                        TEMPO BKN008=
201609290120 METAR COR EGLL 290120Z AUTO 22013KT 9999 OVC010 18/16 Q1017
                        TEMPO BKN008=
201609290050 METAR COR EGLL 290050Z AUTO 22014KT 9999 OVC008 18/16 Q1018
                        NOSIG=
201609290020 METAR COR EGLL 290020Z AUTO 22011KT 9999 OVC008 17/16 Q1019
                        NOSIG=
201609282350 METAR COR EGLL 282350Z 22009KT 9999 FEW008 BKN010 17/16 Q1019
                        TEMPO BKN008=
201609282320 METAR COR EGLL 282320Z 22009KT 9999 BKN010 17/15 Q1020 TEMPO
                        BKN009=
201609282250 METAR COR EGLL 282250Z AUTO 23015KT 9999 OVC006 17/15 Q1020
                        TEMPO SCT008 BKN012=
201609282220 METAR COR EGLL 282220Z AUTO 23015KT 9999 OVC005 17/15 Q1020
                        BECMG SCT007 BKN012=
201609282150 METAR COR EGLL 282150Z AUTO 22014G24KT 8000 OVC005 17/15
                        Q1021 TEMPO SCT006 BKN010=
201609282120 METAR COR EGLL 282120Z AUTO 23014KT 8000 OVC005 17/15 Q1021
                        TEMPO SCT006 BKN010=
201609282050 METAR COR EGLL 282050Z AUTO 22013KT 8000 OVC005 17/15 Q1021
                        TEMPO SCT006 BKN010=
201609282020 METAR COR EGLL 282020Z AUTO 22015KT 9000 OVC006 17/15 Q1022
                        TEMPO SCT007 BKN012=
201609281950 METAR COR EGLL 281950Z AUTO 21013KT 8000 OVC006 17/15 Q1021
                        TEMPO SCT007 BKN012=
201609281920 METAR COR EGLL 281920Z AUTO 21013KT 8000 BKN008 BKN022 17/15
                        Q1021 TEMPO SCT008 BKN012=
201609281850 METAR COR EGLL 281850Z AUTO 20013KT 180V250 9999 FEW011 OVC022
                        18/15 Q1022 NOSIG=
201609281820 METAR COR EGLL 281820Z AUTO 21014KT 9999 OVC021 19/15 Q1022
                        TEMPO BKN014=
201609281750 METAR COR EGLL 281750Z AUTO 20013KT 9999 OVC021 19/15 Q1022
                        NOSIG=
201609281720 METAR COR EGLL 281720Z AUTO 21013KT 9999 OVC023 20/16 Q1023
                        NOSIG=
201609281650 METAR COR EGLL 281650Z AUTO 21012KT 9999 OVC023 21/16 Q1023
                        NOSIG=
201609281620 METAR COR EGLL 281620Z AUTO 23013KT 9999 OVC023 21/16 Q1023
                        NOSIG=
201609281550 METAR COR EGLL 281550Z AUTO 22012KT 9999 OVC022 21/16 Q1023
                        NOSIG=
201609281520 METAR COR EGLL 281520Z AUTO 23014KT 9999 OVC024 21/15 Q1023
                        NOSIG=
201609281450 METAR COR EGLL 281450Z AUTO 23012KT 9999 BKN024 21/15 Q1023
                        NOSIG=
201609281420 METAR COR EGLL 281420Z AUTO 23013KT 9999 BKN023 22/15 Q1023
                        NOSIG=
201609281350 METAR COR EGLL 281350Z AUTO 23014KT 9999 OVC023 22/15 Q1023
                        NOSIG=
201609281320 METAR COR EGLL 281320Z AUTO 23014KT 9999 BKN022 21/15 Q1024
                        NOSIG=
201609281250 METAR COR EGLL 281250Z AUTO 24011KT 9999 FEW024 BKN031 21/14
                        Q1024 NOSIG=
201609281220 METAR COR EGLL 281220Z AUTO 21010KT 180V250 9999 OVC030 21/14
                        Q1024 NOSIG=
201609281150 METAR COR EGLL 281150Z AUTO 24012KT 9999 FEW022 OVC030 20/14
                        Q1024 NOSIG=
201609281120 METAR COR EGLL 281120Z AUTO 24012KT 9999 OVC035 20/13 Q1025
                        NOSIG=
201609281050 METAR COR EGLL 281050Z AUTO 25012KT 220V280 9999 BKN038 19/13
                        Q1025 NOSIG=
201609281020 METAR COR EGLL 281020Z AUTO 25013KT 9999 NCD 19/12 Q1025
                        NOSIG=
201609280950 METAR COR EGLL 280950Z AUTO 26012KT 9999 NCD 18/12 Q1025
                        NOSIG=
201609280920 METAR COR EGLL 280920Z AUTO 25011KT 9999 NCD 17/12 Q1025
                        NOSIG=
201609280850 METAR COR EGLL 280850Z AUTO 26014KT 9999 NCD 16/12 Q1025
                        NOSIG=
201609280820 METAR COR EGLL 280820Z AUTO 25013KT 9999 NCD 15/12 Q1025
                        NOSIG=
201609280750 METAR COR EGLL 280750Z AUTO 24011KT 9000 NCD 14/12 Q1025
                        NOSIG=
201609280720 METAR COR EGLL 280720Z AUTO 24011KT 8000 NCD 13/11 Q1025=
201609280650 METAR COR EGLL 280650Z AUTO 25010KT 8000 NCD 13/11 Q1025
                        NOSIG=
201609280620 METAR COR EGLL 280620Z AUTO 24008KT 210V270 7000 NCD 12/11
                        Q1025 NOSIG=
201609280550 METAR COR EGLL 280550Z AUTO 23008KT 7000 NCD 12/11 Q1024
                        NOSIG=
201609280520 METAR COR EGLL 280520Z AUTO 24009KT 6000 FEW008 12/11 Q1024
                        NOSIG=
201609280450 METAR COR EGLL 280450Z AUTO 24009KT 7000 SCT007 12/11 Q1025
                        TEMPO BKN008=
201609280420 METAR COR EGLL 280420Z AUTO 25011KT 6000 BKN009 12/11 Q1025
                        TEMPO SCT010=
201609280350 METAR COR EGLL 280350Z AUTO 23008KT 6000 BKN008 13/12 Q1024
                        NOSIG=
201609280320 METAR COR EGLL 280320Z AUTO 23007KT 7000 NCD 12/11 Q1025
                        NOSIG=
201609280250 METAR COR EGLL 280250Z AUTO 24008KT 7000 FEW009 12/11 Q1024
                        NOSIG=
201609280220 METAR COR EGLL 280220Z AUTO 25011KT 8000 BKN009 13/11 Q1024
                        TEMPO SCT010=
201609280150 METAR COR EGLL 280150Z AUTO 25010KT 8000 FEW009 13/12 Q1025
                        TEMPO BKN010=
201609280120 METAR COR EGLL 280120Z AUTO 25008KT 9000 NCD 13/12 Q1025
                        NOSIG=
201609280050 METAR COR EGLL 280050Z AUTO 23008KT 9999 NCD 13/12 Q1025
                        NOSIG=
201609280020 METAR COR EGLL 280020Z AUTO 24005KT 9999 NCD 13/13 Q1025
                        NOSIG=
201609272350 METAR COR EGLL 272350Z AUTO 24007KT 9999 NCD 14/13 Q1024
                        NOSIG=
201609272320 METAR COR EGLL 272320Z 24007KT 9999 FEW010 14/13 Q1025 NOSIG=
201609272250 METAR COR EGLL 272250Z 24007KT 9999 FEW013 15/14 Q1025 TEMPO
                        BKN012=
201609272220 METAR COR EGLL 272220Z 25009KT 9999 FEW012 SCT015 16/14 Q1025
                        TEMPO BKN012=
201609272150 METAR COR EGLL 272150Z 23007KT 9999 FEW009 SCT013 16/15 Q1024
                        NOSIG=
201609272120 METAR COR EGLL 272120Z AUTO 22007KT 9999 FEW012 16/15 Q1024
                        NOSIG=
201609272050 METAR COR EGLL 272050Z AUTO 22007KT 9999 FEW015 16/15 Q1024
                        NOSIG=
201609272020 METAR COR EGLL 272020Z AUTO 22009KT 9999 BKN010 BKN032 16/15
                        Q1024 BECMG FEW010=
201609271950 METAR COR EGLL 271950Z AUTO 22008KT 9999 SCT016 17/15 Q1024
                        NOSIG=
201609271920 METAR COR EGLL 271920Z AUTO 22008KT 9999 FEW009 17/15 Q1024
                        NOSIG=
201609271850 METAR COR EGLL 271850Z AUTO 21009KT 9999 FEW009 BKN027 17/15
                        Q1023 NOSIG=
201609271820 METAR COR EGLL 271820Z AUTO 21009KT 9999 SCT009 OVC018 18/16
                        Q1023 NOSIG=
201609271750 METAR COR EGLL 271750Z AUTO 22010KT 9999 BKN012 18/15 Q1023
                        BECMG SCT015=
201609271720 METAR COR EGLL 271720Z AUTO 22010KT 9999 FEW014 OVC022 18/15
                        Q1023 NOSIG=
201609271650 METAR COR EGLL 271650Z AUTO 22008KT 9999 FEW018 BKN026 19/15
                        Q1023 NOSIG=
201609271620 METAR COR EGLL 271620Z AUTO 22011KT 9999 BKN014 19/15 Q1022
                        TEMPO SCT014 BKN028=
201609271550 METAR COR EGLL 271550Z AUTO 22013KT 9999 OVC016 19/15 Q1022
                        TEMPO BKN013=
201609271520 METAR COR EGLL 271520Z AUTO 21010KT 190V250 9999 BKN014 19/15
                        Q1022 TEMPO SCT014 BKN018=
201609271450 METAR COR EGLL 271450Z AUTO 21009KT 180V240 9999 BKN011 BKN023
                        19/16 Q1022 NOSIG=
201609271420 METAR COR EGLL 271420Z AUTO 21009KT 9999 BKN010 19/16 Q1022
                        NOSIG=
201609271350 METAR COR EGLL 271350Z AUTO 19012KT 160V240 9999 OVC008 19/16
                        Q1022 TEMPO SCT008 BKN014=
201609271320 METAR COR EGLL 271320Z AUTO 19012KT 170V230 9999 OVC009 18/16
                        Q1022 TEMPO SCT009 BKN011=
201609271250 METAR COR EGLL 271250Z 20012KT 160V250 9999 OVC010 18/15
                        Q1022 TEMPO BKN009=
201609271220 METAR COR EGLL 271220Z AUTO 19011KT 150V230 9999 OVC010 18/15
                        Q1022 TEMPO BKN009=
201609271150 METAR COR EGLL 271150Z AUTO 19013KT 160V240 9999 OVC010 18/15
                        Q1022 TEMPO BKN008=
201609271120 METAR COR EGLL 271120Z AUTO 19014KT 160V230 9999 OVC012 18/14
                        Q1022 TEMPO BKN009=
201609271050 METAR COR EGLL 271050Z AUTO 19015KT 160V250 9999 OVC012 18/14
                        Q1022 TEMPO BKN009=
201609271020 METAR COR EGLL 271020Z AUTO 19014KT 160V230 9999 BKN012 18/14
                        Q1022 TEMPO BKN009=
201609270950 METAR COR EGLL 270950Z AUTO 18015KT 160V220 9999 OVC013 17/14
                        Q1022 TEMPO BKN009=
201609270920 METAR COR EGLL 270920Z AUTO 19013KT 160V240 9999 BKN013 17/13
                        Q1022 TEMPO BKN009=
201609270850 METAR COR EGLL 270850Z AUTO 18014KT 150V210 9999 BKN016 BKN038
                        17/13 Q1022 BECMG BKN010=
201609270820 METAR COR EGLL 270820Z AUTO 19014KT 170V230 9999 SCT014 SCT022
                        16/13 Q1022 BECMG BKN012=
201609270750 METAR COR EGLL 270750Z AUTO 18010KT 150V220 9999 BKN021 16/13
                        Q1022 BECMG BKN012=
201609270720 METAR COR EGLL 270720Z AUTO 19012KT 9999 FEW014 OVC024 15/13
                        Q1022 BECMG BKN012=
201609270650 METAR COR EGLL 270650Z AUTO 19010KT 160V220 9999 OVC032 15/13
                        Q1021 TEMPO BKN012=
201609270620 METAR COR EGLL 270620Z AUTO 19011KT 160V230 9999 SCT023 OVC034
                        15/12 Q1021 NOSIG=
201609270550 METAR EGLL 270550Z AUTO 21007KT 160V270 9999 BKN040 14/11
                        Q1021=
201609270520 METAR EGLL 270520Z AUTO 15006KT 120V210 9999 BKN044 14/11
                        Q1021=
201609270450 METAR COR EGLL 270450Z AUTO VRB05KT 9999 OVC040 14/11 Q1021
                        NOSIG=
201609270420 METAR COR EGLL 270420Z AUTO VRB03KT 9999 BKN044 13/11 Q1021
                        NOSIG=
201609270350 METAR COR EGLL 270350Z AUTO 14004KT 100V170 9999 NCD 13/10
                        Q1021 NOSIG=
201609270320 METAR COR EGLL 270320Z AUTO 13003KT 9999 NCD 12/10 Q1021
                        NOSIG=
201609270250 METAR COR EGLL 270250Z AUTO 13003KT 9999 NCD 11/10 Q1021
                        NOSIG=
201609270220 METAR COR EGLL 270220Z AUTO 15002KT 9999 NCD 12/10 Q1022
                        NOSIG=
201609270150 METAR COR EGLL 270150Z AUTO 16003KT 9999 NCD 12/10 Q1022
                        NOSIG=
201609270120 METAR COR EGLL 270120Z AUTO 14003KT 9999 NCD 11/10 Q1022
                        NOSIG=
201609270050 METAR COR EGLL 270050Z AUTO 13003KT 9999 NCD 10/09 Q1022
                        NOSIG=
201609270020 METAR COR EGLL 270020Z AUTO 11003KT 9000 NCD 11/10 Q1022
                        NOSIG=
201609262350 METAR COR EGLL 262350Z AUTO 11003KT 9999 NCD 11/10 Q1022
                        NOSIG=
201609262320 METAR COR EGLL 262320Z AUTO 17004KT 9999 NCD 12/10 Q1022
                        NOSIG=
201609262250 METAR COR EGLL 262250Z AUTO 14003KT 9999 NCD 12/10 Q1022
                        NOSIG=
201609262220 METAR COR EGLL 262220Z AUTO 14004KT 110V180 9999 NCD 13/10
                        Q1022 NOSIG=
201609262150 METAR COR EGLL 262150Z AUTO 15004KT 9999 NCD 13/11 Q1022
                        NOSIG=
201609262120 METAR COR EGLL 262120Z AUTO 13005KT 100V170 9999 NCD 14/11
                        Q1022 NOSIG=
201609262050 METAR COR EGLL 262050Z AUTO 15005KT 080V200 9999 NCD 14/11
                        Q1022 NOSIG=
201609262020 METAR COR EGLL 262020Z AUTO 14005KT 110V170 9999 NCD 14/11
                        Q1022 NOSIG=
201609261950 METAR COR EGLL 261950Z AUTO 15006KT 110V180 9999 NCD 14/11
                        Q1022 NOSIG=
201609261920 METAR COR EGLL 261920Z AUTO 16006KT 110V200 9999 FEW020 15/11
                        Q1022 NOSIG=
201609261850 METAR COR EGLL 261850Z AUTO 15006KT 090V200 9999 NCD 15/11
                        Q1022 NOSIG=
201609261820 METAR COR EGLL 261820Z AUTO 17006KT 110V230 9999 NCD 15/11
                        Q1022 NOSIG=
201609261750 METAR COR EGLL 261750Z AUTO 17007KT 140V210 9999 NCD 16/11
                        Q1021 NOSIG=
201609261720 METAR COR EGLL 261720Z AUTO 18009KT 160V220 9999 NCD 16/10
                        Q1021 NOSIG=
201609261650 METAR COR EGLL 261650Z AUTO 21009KT 9999 NCD 17/09 Q1021
                        NOSIG=
201609261620 METAR COR EGLL 261620Z AUTO 21007KT 160V250 9999 NCD 17/10
                        Q1021 NOSIG=
201609261550 METAR COR EGLL 261550Z AUTO 22009KT 180V250 9999 NCD 17/09
                        Q1022 NOSIG=
201609261520 METAR COR EGLL 261520Z AUTO 22008KT 180V250 9999 -RA NCD
                        17/09 Q1022 NOSIG=
201609261450 METAR COR EGLL 261450Z AUTO 21008KT 160V240 9999 -RA FEW030
                        18/11 Q1022 NOSIG=
201609261420 METAR COR EGLL 261420Z AUTO 23011KT 9999 FEW030 18/10 Q1022
                        NOSIG=
201609261350 METAR COR EGLL 261350Z AUTO 21010KT 170V250 9999 FEW030 18/10
                        Q1021 NOSIG=
201609261320 METAR COR EGLL 261320Z AUTO 22009KT 180V250 9999 NCD 17/12
                        Q1021 NOSIG=
201609261250 METAR COR EGLL 261250Z AUTO 22008KT 180V250 9999 //////CB
                        16/12 Q1022 TEMPO SHRA=
201609261220 METAR COR EGLL 261220Z AUTO 22009KT 190V250 9999 FEW031///
                        //////CB 16/12 Q1022 TEMPO SHRA=
201609261150 METAR COR EGLL 261150Z AUTO 22012KT 190V250 8000 -RA FEW017///
                        SCT024/// BKN039/// //////CB 16/12
                        Q1022 TEMPO SHRA=
201609261120 METAR COR EGLL 261120Z AUTO 22009KT 160V250 9999 -RA FEW018///
                        SCT024/// //////CB 17/12 Q1022 TEMPO
                        SHRA=
201609261050 METAR COR EGLL 261050Z AUTO 19009KT 150V240 9000 SCT025 17/12
                        Q1022 TEMPO SHRA=
201609261020 METAR COR EGLL 261020Z AUTO 18007KT 130V240 9999 FEW036 16/12
                        Q1022 NOSIG=
201609260950 METAR COR EGLL 260950Z AUTO 17006KT 140V240 9999 //////TCU
                        15/11 Q1022 TEMPO SHRA=
201609260920 METAR COR EGLL 260920Z AUTO 17007G17KT 130V240 9999 FEW028
                        15/11 Q1022 NOSIG=
201609260850 METAR COR EGLL 260850Z AUTO 17005KT 100V250 9999 FEW027 15/11
                        Q1022 NOSIG=
201609260820 METAR COR EGLL 260820Z AUTO 18006KT 120V240 9999 FEW028 14/11
                        Q1022 NOSIG=
201609260750 METAR COR EGLL 260750Z AUTO 19005KT 130V230 9999 FEW026 13/11
                        Q1022 NOSIG=
201609260720 METAR COR EGLL 260720Z AUTO 19006KT 140V240 9999 FEW027 13/11
                        Q1022 NOSIG=
201609260650 METAR COR EGLL 260650Z AUTO 19006KT 150V230 9999 FEW031 12/10
                        Q1022 NOSIG=
201609260620 METAR COR EGLL 260620Z AUTO 16004KT 110V230 9999 SCT049 12/10
                        Q1021 NOSIG=
201609260550 METAR COR EGLL 260550Z AUTO 17004KT 120V210 9999 NCD 11/10
                        Q1021 NOSIG=
201609260520 METAR COR EGLL 260520Z AUTO 17005KT 130V220 9999 NCD 11/10
                        Q1021 NOSIG=
201609260450 METAR COR EGLL 260450Z AUTO 18004KT 9999 NCD 11/09 Q1022
                        NOSIG=
201609260420 METAR COR EGLL 260420Z AUTO VRB03KT 9999 NCD 10/09 Q1022
                        NOSIG=
201609260350 METAR COR EGLL 260350Z AUTO VRB01KT 9999 NCD 10/09 Q1022
                        NOSIG=
201609260320 METAR COR EGLL 260320Z AUTO 17001KT 9999 NCD 10/09 Q1022
                        NOSIG=
201609260250 METAR COR EGLL 260250Z AUTO 18003KT 9999 NCD 10/09 Q1022
                        NOSIG=
201609260220 METAR COR EGLL 260220Z AUTO 17001KT 9999 NCD 11/09 Q1022
                        NOSIG=
201609260150 METAR COR EGLL 260150Z AUTO 20004KT 9999 NCD 11/09 Q1022
                        NOSIG=
201609260120 METAR COR EGLL 260120Z AUTO 17003KT 9999 NCD 11/09 Q1022
                        NOSIG=
201609260050 METAR COR EGLL 260050Z AUTO 21005KT 9999 NCD 10/09 Q1022
                        NOSIG=
201609260020 METAR COR EGLL 260020Z AUTO 21004KT 9999 NCD 11/09 Q1022
                        NOSIG=
201609252350 METAR COR EGLL 252350Z AUTO 21002KT 9999 NCD 11/09 Q1022
                        NOSIG=
201609252320 METAR COR EGLL 252320Z AUTO 21006KT 9999 NCD 12/09 Q1021
                        NOSIG=
201609252250 METAR COR EGLL 252250Z AUTO 22006KT 9999 NCD 11/09 Q1021
                        NOSIG=
201609252220 METAR COR EGLL 252220Z AUTO 22007KT 9999 NCD 12/09 Q1021
                        NOSIG=
201609252150 METAR COR EGLL 252150Z AUTO 22008KT 9999 NCD 13/09 Q1021
                        NOSIG=
201609252120 METAR COR EGLL 252120Z AUTO 23010KT 190V250 9999 NCD 13/09
                        Q1021 NOSIG=
201609252050 METAR COR EGLL 252050Z AUTO 22008KT 180V250 9999 NCD 14/09
                        Q1021 NOSIG=
201609252020 METAR COR EGLL 252020Z AUTO 21008KT 170V250 9999 FEW040 14/08
                        Q1020 NOSIG=
201609251950 METAR COR EGLL 251950Z AUTO 23007KT 9999 NCD 14/08 Q1020
                        NOSIG=
201609251920 METAR COR EGLL 251920Z AUTO 24008KT 9999 NCD 14/08 Q1020
                        NOSIG=
201609251850 METAR COR EGLL 251850Z AUTO 24010KT 9999 NCD 15/08 Q1019
                        NOSIG=
201609251820 METAR COR EGLL 251820Z AUTO 24010KT 9999 NCD 15/08 Q1019
                        NOSIG=
201609251750 METAR COR EGLL 251750Z AUTO 22010KT 190V250 9999 NCD 16/08
                        Q1019 NOSIG=
201609251720 METAR COR EGLL 251720Z AUTO 24012KT 9999 FEW049 16/07 Q1018
                        NOSIG=
201609251650 METAR COR EGLL 251650Z AUTO 25013KT 9999 NCD 17/07 Q1018
                        NOSIG=
201609251620 METAR COR EGLL 251620Z AUTO 24014KT 9999 SCT044 18/07 Q1018
                        NOSIG=
201609251550 METAR COR EGLL 251550Z AUTO 27014KT 9999 FEW047 18/08 Q1017
                        NOSIG=
201609251520 METAR COR EGLL 251520Z AUTO 27015KT 9999 FEW048 18/08 Q1017
                        NOSIG=
201609251450 METAR COR EGLL 251450Z AUTO 26015KT 9999 FEW047/// //////TCU
                        19/07 Q1017 NOSIG=
201609251420 METAR COR EGLL 251420Z AUTO 27016KT 9999 SCT047/// //////CB
                        19/08 Q1016 NOSIG=
201609251350 METAR COR EGLL 251350Z AUTO 24014KT 9999 FEW045/// //////CB
                        19/07 Q1016 NOSIG=
201609251320 METAR COR EGLL 251320Z AUTO 24016KT 9999 NCD 20/08 Q1016
                        NOSIG=
201609251250 METAR COR EGLL 251250Z AUTO 24015KT 9999 FEW035/// //////CB
                        20/09 Q1015 NOSIG=
201609251220 METAR COR EGLL 251220Z AUTO 25014KT 9999 FEW035 20/10 Q1015
                        NOSIG=
201609251150 METAR COR EGLL 251150Z AUTO 25015KT 9999 FEW032 SCT043 19/10
                        Q1015 NOSIG=
201609251120 METAR COR EGLL 251120Z AUTO 25014KT 9999 SCT028 18/10 Q1015
                        NOSIG=
201609251050 METAR COR EGLL 251050Z AUTO 24015KT 9999 BKN025 18/12 Q1014
                        NOSIG=
201609251020 METAR COR EGLL 251020Z AUTO 25014KT 9999 BKN021 17/11 Q1014
                        NOSIG=
201609250950 METAR COR EGLL 250950Z AUTO 23012KT 210V270 9999 FEW024 17/12
                        Q1014 NOSIG=
201609250920 METAR COR EGLL 250920Z AUTO 23012KT 9999 FEW016 16/12 Q1013
                        NOSIG=
201609250850 METAR COR EGLL 250850Z AUTO 23011KT 9999 FEW014 16/13 Q1013
                        NOSIG=
201609250820 METAR COR EGLL 250820Z AUTO 22010KT 9999 FEW013 15/13 Q1013
                        NOSIG=
201609250750 METAR COR EGLL 250750Z AUTO 23010KT 9999 -RA NCD 15/13 Q1012
                        NOSIG=
201609250720 METAR COR EGLL 250720Z 23009KT 9999 FEW013 15/13 Q1012 NOSIG=
201609250650 METAR COR EGLL 250650Z AUTO 24010KT 9999 BKN009 BKN021 15/14
                        Q1011 BECMG SCT009=
201609250620 METAR COR EGLL 250620Z AUTO 24008KT 9999 -RA FEW018 SCT024
                        15/14 Q1011 TEMPO BKN012=
201609250550 METAR COR EGLL 250550Z AUTO 23010KT 9999 SCT014 15/14 Q1010
                        TEMPO RA=
201609250520 METAR COR EGLL 250520Z AUTO 21008KT 180V240 9999 -RA BKN037
                        16/14 Q1009 NOSIG=
201609250450 METAR COR EGLL 250450Z 22007KT 190V260 9999 -RA FEW011 BKN042
                        16/14 Q1009 TEMPO RA=
201609250420 METAR COR EGLL 250420Z 20009G20KT 170V230 4900 -RA FEW011
                        SCT015 BKN017 17/15 Q1009 RERA TEMPO
                        RA BKN012=
201609250350 METAR COR EGLL 250350Z AUTO 18010KT 160V220 9999 -RA OVC018///
                        //////CB 18/14 Q1009 TEMPO 3000 +RA
                        BKN012=
201609250320 METAR COR EGLL 250320Z AUTO 18009KT 9999 BKN021 18/14 Q1009
                        TEMPO 6000 RA BKN012=
201609250250 METAR COR EGLL 250250Z AUTO 18009KT 9999 NCD 17/14 Q1009
                        NOSIG=
201609250220 METAR COR EGLL 250220Z AUTO 17009KT 9999 NCD 17/13 Q1009
                        NOSIG=
201609250150 METAR COR EGLL 250150Z AUTO 16008KT 9999 NCD 17/13 Q1009
                        NOSIG=
201609250120 METAR COR EGLL 250120Z AUTO 15008KT 9999 NCD 18/13 Q1009
                        NOSIG=
201609250050 METAR COR EGLL 250050Z AUTO 16009KT 9999 NCD 18/12 Q1009
                        NOSIG=
201609250020 METAR COR EGLL 250020Z AUTO 16010KT 9999 NCD 18/12 Q1010
                        NOSIG=
201609242350 METAR COR EGLL 242350Z AUTO 17008KT 9999 NCD 18/12 Q1010
                        NOSIG=
201609242320 METAR COR EGLL 242320Z AUTO 16009KT 9999 NCD 19/11 Q1010
                        NOSIG=
201609242250 METAR COR EGLL 242250Z AUTO 16008KT 9999 NCD 19/11 Q1011
                        NOSIG=
201609242220 METAR COR EGLL 242220Z AUTO 14006KT 120V220 9999 NCD 19/11
                        Q1011 NOSIG=
201609242150 METAR COR EGLL 242150Z AUTO 16006KT 120V220 9999 NCD 19/11
                        Q1012 NOSIG=
201609242120 METAR COR EGLL 242120Z AUTO 16006KT 120V250 9999 NCD 19/11
                        Q1012 NOSIG=
201609242050 METAR COR EGLL 242050Z AUTO 16007KT 100V230 9999 NCD 19/11
                        Q1012 NOSIG=
201609242020 METAR COR EGLL 242020Z AUTO 15007KT 130V200 9999 NCD 19/11
                        Q1013 NOSIG=
201609241950 METAR COR EGLL 241950Z AUTO 16008KT 130V210 9999 NCD 19/11
                        Q1013 NOSIG=
201609241920 METAR COR EGLL 241920Z AUTO 16008KT 130V240 9999 NCD 19/11
                        Q1013 NOSIG=
201609241850 METAR COR EGLL 241850Z AUTO 15008KT 130V200 9999 NCD 19/11
                        Q1013 NOSIG=
201609241820 METAR COR EGLL 241820Z AUTO 15009KT 130V200 9999 NCD 20/11
                        Q1013 NOSIG=
201609241750 METAR COR EGLL 241750Z AUTO 15008KT 130V210 9999 NCD 20/11
                        Q1014 NOSIG=
201609241720 METAR COR EGLL 241720Z AUTO 16008KT 130V220 9999 FEW047 20/11
                        Q1014 NOSIG=
201609241650 METAR COR EGLL 241650Z AUTO 18010KT 150V230 9999 BKN046 20/11
                        Q1014 NOSIG=
201609241620 METAR COR EGLL 241620Z AUTO 18010KT 140V240 9999 BKN044 21/12
                        Q1014 NOSIG=
201609241550 METAR COR EGLL 241550Z AUTO 18011KT 140V240 9999 BKN044 21/12
                        Q1015 NOSIG=
201609241520 METAR COR EGLL 241520Z AUTO 18012KT 150V230 9999 SCT044 21/12
                        Q1015 NOSIG=
201609241450 METAR COR EGLL 241450Z AUTO 19014KT 140V230 9999 NCD 21/12
                        Q1015 NOSIG=
201609241420 METAR COR EGLL 241420Z AUTO 19014KT 160V240 9999 NCD 21/12
                        Q1016 NOSIG=
201609241350 METAR COR EGLL 241350Z AUTO 19015KT 9999 NCD 21/12 Q1016
                        NOSIG=
201609241320 METAR COR EGLL 241320Z AUTO 19016KT 9999 NCD 22/11 Q1016
                        NOSIG=
201609241250 METAR COR EGLL 241250Z AUTO 20017KT 9999 NCD 22/11 Q1016
                        NOSIG=
201609241220 METAR COR EGLL 241220Z AUTO 19016KT 9999 NCD 22/10 Q1016
                        NOSIG=
201609241150 METAR COR EGLL 241150Z AUTO 20017KT 9999 NCD 22/10 Q1016
                        NOSIG=
201609241120 METAR COR EGLL 241120Z AUTO 19017KT 9999 NCD 22/11 Q1017
                        NOSIG=
201609241050 METAR COR EGLL 241050Z AUTO 19016KT 9999 NCD 22/11 Q1017
                        NOSIG=
201609241020 METAR COR EGLL 241020Z AUTO 18012G22KT 150V230 9999 NCD 21/12
                        Q1018 NOSIG=
201609240950 METAR COR EGLL 240950Z AUTO 18012KT 150V230 9999 NCD 20/12
                        Q1018 NOSIG=
201609240920 METAR COR EGLL 240920Z AUTO 17010KT 140V210 9999 NCD 20/12
                        Q1019 NOSIG=
201609240850 METAR COR EGLL 240850Z AUTO 17010KT 9999 NCD 19/13 Q1019
                        NOSIG=
201609240820 METAR COR EGLL 240820Z AUTO 16008KT 130V200 9999 NCD 18/13
                        Q1019 NOSIG=
201609240750 METAR COR EGLL 240750Z AUTO 15007KT 130V190 9999 NCD 16/13
                        Q1019 NOSIG=
201609240720 METAR COR EGLL 240720Z AUTO 15007KT 120V180 9999 NCD 15/13
                        Q1019 NOSIG=
201609240650 METAR COR EGLL 240650Z AUTO 16006KT 120V230 9999 NCD 14/13
                        Q1019 NOSIG=
201609240620 METAR COR EGLL 240620Z AUTO 17006KT 140V240 9999 NCD 14/13
                        Q1019 NOSIG=
201609240550 METAR COR EGLL 240550Z AUTO 16007KT 120V230 9999 NCD 14/12
                        Q1019 NOSIG=
201609240520 METAR COR EGLL 240520Z AUTO 18007KT 9999 NCD 14/12 Q1019
                        NOSIG=
201609240450 METAR COR EGLL 240450Z AUTO 17007KT 9999 NCD 14/12 Q1019
                        NOSIG=
201609240420 METAR COR EGLL 240420Z AUTO 16008KT 110V180 9999 NCD 14/12
                        Q1019 NOSIG=
201609240350 METAR COR EGLL 240350Z AUTO 15006KT 9999 NCD 14/12 Q1020
                        NOSIG=
201609240320 METAR COR EGLL 240320Z AUTO 16007KT 9999 NCD 14/12 Q1020
                        NOSIG=
201609240250 METAR COR EGLL 240250Z AUTO 17005KT 9999 FEW039 13/11 Q1020
                        NOSIG=
201609240220 METAR COR EGLL 240220Z AUTO 19005KT 9999 OVC045 13/11 Q1021
                        NOSIG=
201609240150 METAR COR EGLL 240150Z AUTO VRB03KT 9999 BKN049 12/10 Q1021
                        NOSIG=
201609240120 METAR COR EGLL 240120Z AUTO 14003KT 9999 NCD 11/09 Q1021
                        NOSIG=
201609240050 METAR COR EGLL 240050Z AUTO 17003KT 9999 NCD 11/09 Q1022
                        NOSIG=
201609240020 METAR COR EGLL 240020Z AUTO 16003KT 9999 NCD 11/09 Q1022
                        NOSIG=
201609232350 METAR COR EGLL 232350Z AUTO 16004KT 9999 NCD 11/09 Q1022
                        NOSIG=
201609232320 METAR COR EGLL 232320Z 17003KT CAVOK 12/09 Q1023 NOSIG=
201609232250 METAR COR EGLL 232250Z 17002KT CAVOK 12/08 Q1023 NOSIG=
201609232220 METAR COR EGLL 232220Z 16003KT CAVOK 12/09 Q1023 NOSIG=
201609232150 METAR COR EGLL 232150Z VRB03KT CAVOK 12/08 Q1023 NOSIG=
201609232120 METAR COR EGLL 232120Z 17004KT CAVOK 12/09 Q1023 NOSIG=
201609232050 METAR COR EGLL 232050Z 19004KT 170V230 CAVOK 13/09 Q1023
                        NOSIG=
201609232020 METAR COR EGLL 232020Z AUTO 19005KT 9999 NCD 13/09 Q1024
                        NOSIG=
201609231950 METAR COR EGLL 231950Z AUTO 19006KT 9999 NCD 14/09 Q1024
                        NOSIG=
201609231920 METAR COR EGLL 231920Z AUTO 19008KT 160V230 9999 NCD 14/08
                        Q1024 NOSIG=
201609231850 METAR COR EGLL 231850Z AUTO 19007KT 160V250 9999 NCD 15/08
                        Q1024 NOSIG=
201609231820 METAR COR EGLL 231820Z AUTO 20009KT 160V250 9999 NCD 15/08
                        Q1023 NOSIG=
201609231750 METAR COR EGLL 231750Z AUTO 22008KT 9999 NCD 16/08 Q1023
                        NOSIG=
201609231720 METAR COR EGLL 231720Z AUTO 22009KT 170V250 9999 NCD 17/07
                        Q1024 NOSIG=
201609231650 METAR COR EGLL 231650Z AUTO 23010KT 190V260 9999 FEW046 18/07
                        Q1024 NOSIG=
201609231620 METAR COR EGLL 231620Z AUTO 20009KT 170V230 9999 FEW046 19/07
                        Q1024 NOSIG=
201609231550 METAR COR EGLL 231550Z AUTO 21010KT 160V250 9999 FEW048 18/07
                        Q1024 NOSIG=
201609231520 METAR COR EGLL 231520Z AUTO 19007KT 150V230 9999 FEW048 19/07
                        Q1024 NOSIG=
201609231450 METAR COR EGLL 231450Z AUTO 22008KT 180V270 9999 FEW048 19/07
                        Q1024 NOSIG=
201609231420 METAR COR EGLL 231420Z AUTO 20007KT 160V250 9999 SCT048 18/06
                        Q1025 NOSIG=
201609231350 METAR COR EGLL 231350Z AUTO 17009KT 110V250 9999 BKN047 18/06
                        Q1025 NOSIG=
201609231320 METAR COR EGLL 231320Z AUTO 17005KT 070V230 9999 BKN048 18/07
                        Q1025 NOSIG=
201609231250 METAR COR EGLL 231250Z AUTO 19008KT 150V220 9999 BKN045 18/06
                        Q1025 NOSIG=
201609231220 METAR COR EGLL 231220Z AUTO 18007KT 120V240 9999 SCT042 18/07
                        Q1025 NOSIG=
201609231150 METAR COR EGLL 231150Z AUTO 20008KT 160V230 9999 BKN041 19/07
                        Q1025 NOSIG=
201609231120 METAR COR EGLL 231120Z AUTO 24006KT 180V290 9999 SCT039 18/07
                        Q1025 NOSIG=
201609231050 METAR COR EGLL 231050Z AUTO 24006KT 180V280 9999 SCT036 18/08
                        Q1025 NOSIG=
201609231020 METAR COR EGLL 231020Z AUTO 22006KT 180V270 9999 NCD 17/08
                        Q1025 NOSIG=
201609230950 METAR COR EGLL 230950Z AUTO 25006KT 200V290 9999 NCD 17/09
                        Q1026 NOSIG=
201609230920 METAR COR EGLL 230920Z AUTO 28004KT 220V330 9999 NCD 16/09
                        Q1026 NOSIG=
201609230850 METAR COR EGLL 230850Z AUTO 24004KT 170V300 9999 NCD 15/09
                        Q1026 NOSIG=
201609230820 METAR COR EGLL 230820Z AUTO VRB03KT 9999 NCD 14/09 Q1025
                        NOSIG=
201609230750 METAR COR EGLL 230750Z AUTO VRB03KT 9999 NCD 13/09 Q1025
                        NOSIG=
201609230720 METAR COR EGLL 230720Z AUTO 19004KT 130V270 9999 NCD 11/09
                        Q1025 NOSIG=
201609230650 METAR COR EGLL 230650Z AUTO 20004KT 150V230 9999 NCD 10/08
                        Q1025 NOSIG=
201609230620 METAR COR EGLL 230620Z AUTO 19005KT 9999 NCD 09/08 Q1024
                        NOSIG=
201609230550 METAR COR EGLL 230550Z AUTO 19005KT 9999 NCD 09/08 Q1024
                        NOSIG=
201609230520 METAR COR EGLL 230520Z AUTO 24004KT 210V270 9999 NCD 09/08
                        Q1024 NOSIG=
201609230450 METAR COR EGLL 230450Z AUTO VRB03KT 9999 NCD 09/08 Q1024
                        NOSIG=
201609230420 METAR COR EGLL 230420Z AUTO 29004KT 9999 NCD 10/08 Q1023
                        NOSIG=
201609230350 METAR COR EGLL 230350Z AUTO 30002KT 9999 NCD 10/08 Q1023
                        NOSIG=
201609230320 METAR COR EGLL 230320Z AUTO 28004KT 270V330 9999 NCD 11/08
                        Q1023 NOSIG=
201609230250 METAR COR EGLL 230250Z AUTO VRB01KT 9999 NCD 11/08 Q1023
                        NOSIG=
201609230220 METAR COR EGLL 230220Z AUTO 25002KT 9999 NCD 12/08 Q1023
                        NOSIG=
201609230150 METAR COR EGLL 230150Z AUTO 27005KT 9999 SCT047 12/08 Q1023
                        NOSIG=
201609230120 METAR COR EGLL 230120Z AUTO 27006KT 9999 BKN041 12/08 Q1023
                        NOSIG=
201609230050 METAR COR EGLL 230050Z AUTO 27006KT 9999 OVC041 13/08 Q1022
                        NOSIG=
201609230020 METAR COR EGLL 230020Z AUTO 26005KT 9999 OVC045 13/08 Q1022
                        NOSIG=
201609222350 METAR COR EGLL 222350Z AUTO 27006KT 9999 OVC047 13/08 Q1022
                        NOSIG=
201609222320 METAR COR EGLL 222320Z AUTO 28006KT 9999 BKN046 12/08 Q1022
                        NOSIG=
201609222250 METAR COR EGLL 222250Z AUTO 27006KT 9999 BKN044 13/08 Q1022
                        NOSIG=
201609222220 METAR COR EGLL 222220Z AUTO 29004KT 9999 BKN042 14/09 Q1022
                        NOSIG=
201609222150 METAR COR EGLL 222150Z AUTO 27007KT 9999 BKN038 14/09 Q1021
                        NOSIG=
201609222120 METAR COR EGLL 222120Z AUTO 29005KT 9999 NCD 15/09 Q1021
                        NOSIG=
201609222050 METAR COR EGLL 222050Z AUTO 30004KT 9999 NCD 15/08 Q1021
                        NOSIG=
201609222020 METAR COR EGLL 222020Z AUTO 29004KT 9999 NCD 15/09 Q1021
                        NOSIG=
201609221950 METAR COR EGLL 221950Z AUTO 29006KT 9999 FEW040 16/11 Q1020
                        NOSIG=
201609221920 METAR COR EGLL 221920Z AUTO 26010KT 9999 FEW042 17/12 Q1020
                        NOSIG=
201609221850 METAR COR EGLL 221850Z AUTO 21008KT 9999 NCD 17/13 Q1020
                        NOSIG=
201609221820 METAR COR EGLL 221820Z AUTO 21009KT 180V240 9999 SCT036 18/13
                        Q1020 NOSIG=
201609221750 METAR COR EGLL 221750Z AUTO 21009KT 180V250 9999 SCT034 SCT049
                        18/13 Q1019 NOSIG=
201609221720 METAR COR EGLL 221720Z AUTO 21008KT 190V260 9999 SCT036 19/13
                        Q1019 NOSIG=
201609221650 METAR COR EGLL 221650Z AUTO 21009KT 180V250 9999 FEW030 19/13
                        Q1019 NOSIG=
201609221620 METAR COR EGLL 221620Z AUTO 21009KT 180V250 9999 SCT024 SCT035
                        19/14 Q1019 NOSIG=
201609221550 METAR COR EGLL 221550Z AUTO 20009KT 150V240 9999 BKN023 20/14
                        Q1019 NOSIG=
201609221520 METAR COR EGLL 221520Z AUTO 20008KT 160V240 9999 SCT021 BKN040
                        19/14 Q1019 NOSIG=
201609221450 METAR COR EGLL 221450Z AUTO 18009KT 150V240 9999 SCT021 BKN041
                        19/14 Q1019 NOSIG=
201609221420 METAR COR EGLL 221420Z AUTO 20009KT 150V250 9999 BKN019 BKN043
                        20/14 Q1019 NOSIG=
201609221350 METAR COR EGLL 221350Z AUTO 21009KT 150V250 9999 SCT017 SCT047
                        19/14 Q1019 NOSIG=
201609221320 METAR COR EGLL 221320Z AUTO 20009KT 170V240 9999 BKN029 18/14
                        Q1019 NOSIG=
201609221250 METAR COR EGLL 221250Z AUTO 21009KT 180V240 9999 FEW015 OVC027
                        17/15 Q1019 NOSIG=
201609221220 METAR COR EGLL 221220Z AUTO 23013KT 200V270 9999 BKN020 18/13
                        Q1019 NOSIG=
201609221150 METAR COR EGLL 221150Z AUTO 21009KT 9999 OVC022 18/13 Q1019
                        NOSIG=
201609221120 METAR COR EGLL 221120Z AUTO 22009KT 180V260 9999 BKN021 18/13
                        Q1019 NOSIG=
201609221050 METAR COR EGLL 221050Z AUTO 22009KT 9999 BKN021 18/13 Q1019
                        NOSIG=
201609221020 METAR COR EGLL 221020Z AUTO 22010KT 9999 BKN028 BKN047 18/13
                        Q1019 NOSIG=
201609220950 METAR COR EGLL 220950Z AUTO 23009KT 200V260 9999 BKN037 17/13
                        Q1019 NOSIG=
201609220920 METAR COR EGLL 220920Z AUTO 22009KT 180V250 9999 FEW047 17/13
                        Q1019 NOSIG=
201609220850 METAR COR EGLL 220850Z AUTO 22007KT 170V250 9999 NCD 17/13
                        Q1019 NOSIG=
201609220820 METAR COR EGLL 220820Z AUTO 22007KT 9999 NCD 15/12 Q1019
                        NOSIG=
201609220750 METAR COR EGLL 220750Z AUTO 21006KT 180V250 9999 NCD 15/12
                        Q1019 NOSIG=
201609220720 METAR COR EGLL 220720Z AUTO 22006KT 9999 NCD 15/13 Q1019
                        NOSIG=
201609220650 METAR COR EGLL 220650Z AUTO 21006KT 9999 NCD 14/13 Q1018
                        NOSIG=
201609220620 METAR COR EGLL 220620Z AUTO 21007KT 180V260 9999 NCD 14/13
                        Q1018 NOSIG=
201609220550 METAR COR EGLL 220550Z AUTO 21006KT 190V250 9999 NCD 14/14
                        Q1018 NOSIG=
201609220520 METAR COR EGLL 220520Z AUTO 23007KT 9999 SCT039 14/14 Q1018
                        NOSIG=
201609220450 METAR COR EGLL 220450Z AUTO 24006KT 9000 BKN035 15/14 Q1018
                        NOSIG=
201609220420 METAR COR EGLL 220420Z 25007KT 8000 FEW011 BKN037 15/15 Q1018
                        NOSIG=
201609220350 METAR COR EGLL 220350Z AUTO 24005KT 5000 BR FEW011 BKN031
                        15/15 Q1018 TEMPO 4500 BR=
201609220320 METAR COR EGLL 220320Z AUTO VRB02KT 4900 BR BKN031 15/15
                        Q1018 TEMPO 6000=
201609220250 METAR COR EGLL 220250Z AUTO 24005KT 4400 BR BKN028 15/15
                        Q1018 TEMPO 6000=
201609220220 METAR COR EGLL 220220Z AUTO 23004KT 4200 BR BKN029 16/15
                        Q1018 NOSIG=
201609220150 METAR COR EGLL 220150Z AUTO VRB03KT 3500 BR BKN026 16/15
                        Q1018 NOSIG=
201609220120 METAR COR EGLL 220120Z AUTO 15002KT 4900 BR BKN037 15/15
                        Q1018 TEMPO 6000=
201609220050 METAR COR EGLL 220050Z AUTO VRB01KT 4300 BR OVC038 15/15
                        Q1018 TEMPO 5000=
201609220020 METAR COR EGLL 220020Z AUTO 13003KT 4300 -RA BKN042 15/15
                        Q1018 RERA TEMPO 5000=
201609212350 METAR COR EGLL 212350Z AUTO 15003KT 5000 BR SCT017 SCT031
                        15/15 Q1018 NOSIG=
201609212320 METAR COR EGLL 212320Z AUTO VRB03KT 6000 SCT018 16/15 Q1018
                        NOSIG=
201609212250 METAR COR EGLL 212250Z AUTO 14004KT 6000 NCD 15/14 Q1018
                        NOSIG=
201609212220 METAR COR EGLL 212220Z AUTO 18004KT 150V240 7000 NCD 16/14
                        Q1018 NOSIG=
201609212150 METAR COR EGLL 212150Z AUTO 18005KT 130V250 8000 NCD 16/14
                        Q1018 NOSIG=
201609212120 METAR COR EGLL 212120Z AUTO 16006KT 100V240 9000 NCD 16/14
                        Q1018 NOSIG=
201609212050 METAR COR EGLL 212050Z AUTO 17006KT 120V250 9999 NCD 16/14
                        Q1018 NOSIG=
201609212020 METAR COR EGLL 212020Z AUTO 16006KT 120V230 9999 NCD 16/13
                        Q1018 NOSIG=
201609211950 METAR COR EGLL 211950Z AUTO 18006KT 140V240 9999 NCD 16/13
                        Q1018 NOSIG=
201609211920 METAR COR EGLL 211920Z AUTO 18007KT 120V250 9999 NCD 16/13
                        Q1018 NOSIG=
201609211850 METAR COR EGLL 211850Z AUTO 18006KT 140V240 9999 NCD 17/13
                        Q1018 NOSIG=
201609211820 METAR COR EGLL 211820Z AUTO 18006KT 130V240 9999 NCD 17/13
                        Q1017 NOSIG=
201609211750 METAR COR EGLL 211750Z AUTO 19008KT 160V230 9999 NCD 18/13
                        Q1017 NOSIG=
201609211720 METAR COR EGLL 211720Z AUTO 19009KT 150V240 9999 FEW030 19/13
                        Q1017 NOSIG=
201609211650 METAR COR EGLL 211650Z AUTO 19011KT 160V240 9999 FEW030 20/12
                        Q1017 NOSIG=
201609211620 METAR COR EGLL 211620Z AUTO 17011KT 140V220 9999 SCT032 20/12
                        Q1017 NOSIG=
201609211550 METAR COR EGLL 211550Z AUTO 18011KT 150V230 9999 SCT034 21/12
                        Q1017 NOSIG=
201609211520 METAR COR EGLL 211520Z AUTO 18011KT 150V230 9999 FEW035 21/12
                        Q1017 NOSIG=
201609211450 METAR COR EGLL 211450Z AUTO 18011KT 150V230 9999 FEW036 21/12
                        Q1017 NOSIG=
201609211420 METAR COR EGLL 211420Z AUTO 17008KT 130V220 9999 FEW036 21/12
                        Q1017 NOSIG=
201609211350 METAR COR EGLL 211350Z AUTO 18010KT 9999 FEW031 21/12 Q1017
                        NOSIG=
201609211320 METAR COR EGLL 211320Z AUTO 17010KT 9999 FEW032 21/13 Q1017
                        NOSIG=
201609211250 METAR COR EGLL 211250Z AUTO 18008KT 140V200 9999 FEW032 21/13
                        Q1017 NOSIG=
201609211220 METAR COR EGLL 211220Z AUTO 17007KT 120V210 9999 BKN028 21/12
                        Q1017 NOSIG=
201609211150 METAR COR EGLL 211150Z AUTO 15006KT 120V190 9999 FEW027 20/13
                        Q1018 NOSIG=
201609211120 METAR COR EGLL 211120Z AUTO 15008KT 9999 FEW024 21/13 Q1018
                        NOSIG=
201609211050 METAR COR EGLL 211050Z AUTO 18007KT 150V220 9999 SCT022 20/13
                        Q1018 NOSIG=
201609211020 METAR COR EGLL 211020Z AUTO 17006KT 9999 SCT020 SCT049 20/14
                        Q1018 NOSIG=
201609210950 METAR COR EGLL 210950Z AUTO 18006KT 150V220 9999 FEW017 19/14
                        Q1018 NOSIG=
201609210920 METAR COR EGLL 210920Z AUTO 14005KT 110V180 9999 NCD 19/14
                        Q1018 NOSIG=
201609210850 METAR COR EGLL 210850Z AUTO 15004KT 120V190 9999 NCD 18/14
                        Q1018 NOSIG=
201609210820 METAR COR EGLL 210820Z AUTO 11004KT 9000 NCD 17/14 Q1018
                        NOSIG=
201609210750 METAR COR EGLL 210750Z AUTO 10005KT 8000 FEW012 16/14 Q1018
                        NOSIG=
201609210720 METAR COR EGLL 210720Z AUTO 10005KT 8000 NCD 16/15 Q1018
                        NOSIG=
201609210650 METAR COR EGLL 210650Z AUTO 09003KT 9000 NCD 15/14 Q1018
                        NOSIG=
201609210620 METAR COR EGLL 210620Z AUTO 05002KT 9999 FEW041 15/13 Q1018
                        NOSIG=
201609210550 METAR COR EGLL 210550Z AUTO 34001KT 9999 FEW040 15/13 Q1018
                        NOSIG=
201609210520 METAR COR EGLL 210520Z AUTO 05002KT 9999 NCD 15/13 Q1018
                        NOSIG=
201609210450 METAR COR EGLL 210450Z AUTO VRB01KT 9999 NCD 15/13 Q1018
                        NOSIG=
201609210420 METAR COR EGLL 210420Z AUTO 08002KT 9999 NCD 15/13 Q1018
                        NOSIG=
201609210350 METAR COR EGLL 210350Z AUTO 06001KT 9999 NCD 15/13 Q1018
                        NOSIG=
201609210320 METAR COR EGLL 210320Z AUTO 04001KT 9999 NCD 15/13 Q1019
                        NOSIG=
201609210250 METAR COR EGLL 210250Z AUTO 03001KT 9999 NCD 15/13 Q1019
                        NOSIG=
201609210220 METAR COR EGLL 210220Z AUTO VRB01KT 9999 NCD 15/13 Q1019
                        NOSIG=
201609210150 METAR COR EGLL 210150Z AUTO 07002KT 9999 FEW040 15/13 Q1019
                        NOSIG=
201609210120 METAR COR EGLL 210120Z AUTO 06002KT 9999 BKN041 15/13 Q1019
                        NOSIG=
201609210050 METAR COR EGLL 210050Z AUTO VRB02KT 9999 OVC039 15/12 Q1019
                        NOSIG=
201609210020 METAR COR EGLL 210020Z AUTO 13001KT 9999 OVC036 16/12 Q1019
                        NOSIG=
201609202350 METAR COR EGLL 202350Z AUTO 04001KT 9999 BKN040 15/12 Q1019
                        NOSIG=
201609202320 METAR COR EGLL 202320Z AUTO 04003KT 9999 NCD 16/11 Q1019
                        NOSIG=
201609202250 METAR COR EGLL 202250Z AUTO 06003KT 9999 NCD 16/12 Q1019
                        NOSIG=
201609202220 METAR COR EGLL 202220Z AUTO 04002KT 9999 FEW040 17/12 Q1019
                        NOSIG=
201609202150 METAR COR EGLL 202150Z AUTO 04003KT 9999 FEW036 17/12 Q1020
                        NOSIG=
201609202120 METAR COR EGLL 202120Z AUTO VRB02KT 9999 BKN036 17/12 Q1020
                        NOSIG=
201609202050 METAR COR EGLL 202050Z AUTO VRB02KT 9999 BKN037 17/12 Q1020
                        NOSIG=
201609202020 METAR COR EGLL 202020Z AUTO VRB02KT 9999 BKN037 17/12 Q1020
                        NOSIG=
201609201950 METAR COR EGLL 201950Z AUTO 35002KT 9999 NCD 17/12 Q1020
                        NOSIG=
201609201920 METAR COR EGLL 201920Z AUTO VRB01KT 9999 NCD 17/12 Q1020
                        NOSIG=
201609201850 METAR COR EGLL 201850Z AUTO 35003KT 9999 FEW036 17/11 Q1020
                        NOSIG=
201609201820 METAR COR EGLL 201820Z AUTO VRB02KT 9999 BKN036 17/12 Q1019
                        NOSIG=
201609201750 METAR COR EGLL 201750Z AUTO VRB03KT 9999 OVC036 17/11 Q1019
                        NOSIG=
201609201720 METAR COR EGLL 201720Z AUTO 36003KT 9999 OVC036 18/12 Q1019
                        NOSIG=
201609201650 METAR COR EGLL 201650Z AUTO 35004KT 9999 OVC035 18/11 Q1019
                        NOSIG=
201609201620 METAR COR EGLL 201620Z AUTO 36004KT 330V040 9999 OVC035 18/11
                        Q1019 NOSIG=
201609201550 METAR COR EGLL 201550Z AUTO VRB03KT 9999 OVC034 18/12 Q1019
                        NOSIG=
201609201520 METAR COR EGLL 201520Z AUTO VRB03KT 9999 OVC029 18/12 Q1019
                        NOSIG=
201609201450 METAR COR EGLL 201450Z AUTO 36004KT 320V040 9999 OVC028 18/12
                        Q1019 NOSIG=
201609201420 METAR COR EGLL 201420Z AUTO VRB03KT 9999 OVC026 18/12 Q1020
                        NOSIG=
201609201350 METAR COR EGLL 201350Z AUTO 08004KT 010V100 9999 BKN027 19/12
                        Q1020 NOSIG=
201609201320 METAR COR EGLL 201320Z AUTO 02004KT 340V050 9999 OVC028 18/12
                        Q1020 NOSIG=
201609201250 METAR COR EGLL 201250Z AUTO 36004KT 320V050 9999 OVC019 18/11
                        Q1020 NOSIG=
201609201220 METAR COR EGLL 201220Z AUTO 07006KT 030V090 9999 BKN016 17/12
                        Q1020 NOSIG=
201609201150 METAR COR EGLL 201150Z AUTO 03004KT 350V060 9999 BKN014 17/13
                        Q1020 BECMG BKN016=
201609201120 METAR COR EGLL 201120Z AUTO 02004KT 310V090 9999 SCT011 OVC019
                        16/13 Q1020 NOSIG=
201609201050 METAR COR EGLL 201050Z AUTO VRB03KT 9999 SCT009 OVC021 16/14
                        Q1021 NOSIG=
201609201020 METAR COR EGLL 201020Z 02004KT 320V050 9999 BKN012 16/14
                        Q1021 BECMG BKN015=
201609200950 METAR COR EGLL 200950Z 03005KT 350V090 9999 FEW008 SCT011
                        BKN012 15/14 Q1021 BECMG BKN015=
201609200920 METAR COR EGLL 200920Z 01004KT 330V040 9999 SCT008 BKN009
                        OVC011 15/14 Q1021 BECMG BKN012=
201609200850 METAR COR EGLL 200850Z 36004KT 330V040 9999 BKN008 15/15
                        Q1021 BECMG BKN012=
201609200820 METAR COR EGLL 200820Z 04004KT 350V080 9999 FEW004 SCT005
                        BKN006 15/15 Q1020 BECMG BKN012=
201609200750 METAR COR EGLL 200750Z 02005KT 320V060 9999 SCT004 BKN006
                        15/15 Q1020 NOSIG=
201609200720 METAR COR EGLL 200720Z AUTO 36005KT 320V030 6000 OVC005 15/15
                        Q1020 TEMPO 4500 -RADZ=
201609200650 METAR COR EGLL 200650Z AUTO VRB03KT 9999 BKN006 15/15 Q1020
                        NOSIG=
201609200620 METAR COR EGLL 200620Z AUTO VRB03KT 8000 OVC005 15/15 Q1020
                        NOSIG=
201609200550 METAR COR EGLL 200550Z AUTO 35003KT 7000 BKN005 15/15 Q1020
                        TEMPO BKN004=
201609200520 METAR COR EGLL 200520Z AUTO 36003KT 7000 BKN004 15/15 Q1020
                        TEMPO BKN006=
201609200450 METAR COR EGLL 200450Z 36003KT 6000 FEW040 15/15 Q1020 NOSIG=
201609200420 METAR COR EGLL 200420Z 36003KT 6000 BKN045 15/15 Q1020 NOSIG=
201609200350 METAR COR EGLL 200350Z 36003KT 7000 BKN045 15/15 Q1020 NOSIG=
201609200320 METAR COR EGLL 200320Z AUTO 36003KT 4200 BR BKN042 15/15
                        Q1020 NOSIG=
201609200250 METAR COR EGLL 200250Z AUTO 35002KT 4400 -RA FEW045 15/15
                        Q1020 NOSIG=
201609200220 METAR COR EGLL 200220Z AUTO VRB02KT 4400 -RA NCD 15/15 Q1020
                        TEMPO 5000=
201609200150 METAR COR EGLL 200150Z AUTO VRB03KT 5000 BR NCD 15/15 Q1020
                        TEMPO 4000 -RADZ=
201609200120 METAR COR EGLL 200120Z AUTO 01001KT 5000 -RA NCD 15/15 Q1021
                        TEMPO 4500 -RADZ BKN008=
201609200050 METAR COR EGLL 200050Z 35002KT 6000 NSC 15/15 Q1021 NOSIG=
201609200020 METAR COR EGLL 200020Z 31002KT 7000 NSC 15/15 Q1021 NOSIG=
201609192350 METAR COR EGLL 192350Z AUTO 30002KT 5000 BR NCD 15/15 Q1021
                        NOSIG=
201609192320 METAR EGLL 192320Z AUTO 30003KT 7000 NCD 15/15 Q1021=
201609192250 METAR COR EGLL 192250Z AUTO 29003KT 7000 FEW046 15/15 Q1021
                        TEMPO -RADZ BKN008=
201609192220 METAR COR EGLL 192220Z AUTO 32002KT 8000 NCD 15/15 Q1021
                        NOSIG=
201609192150 METAR COR EGLL 192150Z AUTO 32002KT 9999 NCD 15/15 Q1021
                        NOSIG=
201609192120 METAR COR EGLL 192120Z AUTO 30003KT 9999 NCD 15/14 Q1022
                        NOSIG=
201609192050 METAR COR EGLL 192050Z AUTO 29003KT 9999 NCD 15/15 Q1022
                        TEMPO -RADZ BKN010=
201609192020 METAR COR EGLL 192020Z AUTO 29004KT 9999 FEW007 15/15 Q1022
                        TEMPO -RA BKN010=
201609191950 METAR COR EGLL 191950Z AUTO 30003KT 9999 FEW006 16/15 Q1022
                        TEMPO -RADZ BKN010=
201609191920 METAR COR EGLL 191920Z AUTO 30003KT 8000 NCD 16/15 Q1021
                        TEMPO -RADZ BKN010=
201609191850 METAR COR EGLL 191850Z AUTO 30003KT 8000 -RA NCD 16/15 Q1021
                        NOSIG=
201609191820 METAR COR EGLL 191820Z AUTO 30004KT 8000 -RA NCD 16/14 Q1021
                        NOSIG=
201609191750 METAR COR EGLL 191750Z AUTO 30004KT 9999 -RA NCD 16/14 Q1021
                        NOSIG=
201609191720 METAR COR EGLL 191720Z AUTO 29005KT 9999 -RA FEW010 16/15
                        Q1021 TEMPO BKN012=
201609191650 METAR COR EGLL 191650Z AUTO 29005KT 9999 -RA FEW007/// //////TCU
                        16/15 Q1021 TEMPO BKN012=
201609191620 METAR COR EGLL 191620Z AUTO 30005KT 9999 -RA FEW040 16/14
                        Q1021 TEMPO BKN014=
201609191550 METAR EGLL 191550Z AUTO 29005KT 9000 -RA BKN033/// //////TCU
                        16/14 Q1021=
201609191520 METAR COR EGLL 191520Z AUTO 31005KT 8000 -RA FEW027/// BKN043///
                        //////TCU 17/15 Q1022 TEMPO BKN014=
201609191450 METAR COR EGLL 191450Z AUTO 31004KT 290V350 9999 -RA FEW021
                        17/14 Q1022 TEMPO BKN014=
201609191420 METAR COR EGLL 191420Z AUTO 32005KT 9999 -RA SCT025 BKN043
                        17/14 Q1022 TEMPO BKN014=
201609191350 METAR COR EGLL 191350Z AUTO 31006KT 9999 -RA FEW013 SCT019
                        18/14 Q1022 TEMPO BKN014=
201609191320 METAR COR EGLL 191320Z AUTO 30005KT 280V340 9999 -RA SCT021
                        SCT035 BKN045 19/14 Q1022 NOSIG=
201609191250 METAR COR EGLL 191250Z AUTO 29004KT 250V330 9999 SCT022 BKN042
                        19/13 Q1022 NOSIG=
201609191220 METAR COR EGLL 191220Z AUTO VRB03KT 9999 BKN023 19/12 Q1022
                        NOSIG=
201609191150 METAR COR EGLL 191150Z AUTO VRB02KT 9999 FEW023 19/12 Q1022
                        NOSIG=
201609191120 METAR COR EGLL 191120Z AUTO VRB02KT 9999 FEW032 19/12 Q1022
                        NOSIG=
201609191050 METAR COR EGLL 191050Z AUTO VRB03KT 9999 NCD 19/12 Q1022
                        NOSIG=
201609191020 METAR COR EGLL 191020Z AUTO VRB03KT 9999 NCD 19/12 Q1022
                        NOSIG=
201609190950 METAR COR EGLL 190950Z AUTO VRB02KT 9999 NCD 18/12 Q1022
                        NOSIG=
201609190920 METAR COR EGLL 190920Z AUTO VRB03KT 9999 NCD 17/12 Q1022
                        NOSIG=
201609190850 METAR COR EGLL 190850Z AUTO 29004KT 260V330 9999 NCD 17/12
                        Q1022 NOSIG=
201609190820 METAR COR EGLL 190820Z AUTO 29003KT 9999 NCD 16/12 Q1022
                        NOSIG=
201609190750 METAR COR EGLL 190750Z AUTO VRB03KT 9999 NCD 16/12 Q1022
                        NOSIG=
201609190720 METAR COR EGLL 190720Z AUTO 29003KT 9999 NCD 16/12 Q1022
                        NOSIG=
201609190650 METAR COR EGLL 190650Z AUTO VRB02KT 9999 NCD 15/12 Q1021
                        NOSIG=
201609190620 METAR COR EGLL 190620Z AUTO VRB03KT 9999 NCD 15/12 Q1021
                        NOSIG=
201609190550 METAR COR EGLL 190550Z AUTO 27002KT 9999 NCD 14/12 Q1021
                        NOSIG=
201609190520 METAR COR EGLL 190520Z AUTO VRB03KT 9999 NCD 14/12 Q1021
                        NOSIG=
201609190450 METAR COR EGLL 190450Z AUTO VRB01KT 9999 NCD 14/12 Q1021
                        NOSIG=
201609190420 METAR COR EGLL 190420Z AUTO 30003KT 9999 NCD 13/13 Q1021
                        NOSIG=
201609190350 METAR COR EGLL 190350Z AUTO VRB02KT 9999 NCD 14/13 Q1021
                        NOSIG=
201609190320 METAR COR EGLL 190320Z AUTO 27006KT 9999 NCD 13/13 Q1021
                        NOSIG=
201609190250 METAR COR EGLL 190250Z AUTO 26003KT 9999 NCD 13/12 Q1021
                        NOSIG=
201609190220 METAR COR EGLL 190220Z AUTO 28003KT 9999 NCD 14/12 Q1021
                        NOSIG=
201609190150 METAR COR EGLL 190150Z AUTO 27005KT 9999 NCD 14/12 Q1021
                        NOSIG=
201609190120 METAR COR EGLL 190120Z AUTO 29003KT 9999 NCD 14/12 Q1021
                        NOSIG=
201609190050 METAR COR EGLL 190050Z AUTO 31004KT 9999 FEW042 15/12 Q1021
                        NOSIG=
201609190020 METAR COR EGLL 190020Z AUTO 31003KT 9999 FEW042 15/12 Q1021
                        NOSIG=
201609182350 METAR COR EGLL 182350Z AUTO 30004KT 9999 BKN045 16/12 Q1021
                        NOSIG=
201609182320 METAR COR EGLL 182320Z AUTO 29005KT 9999 BKN044 16/12 Q1021
                        NOSIG=
201609182250 METAR COR EGLL 182250Z AUTO 30004KT 9999 BKN035 17/12 Q1021
                        NOSIG=
201609182220 METAR EGLL 182220Z AUTO 29006KT 9999 OVC042 18/12 Q1021=
201609182150 METAR COR EGLL 182150Z AUTO 30005KT 9999 OVC040 18/12 Q1021
                        NOSIG=
201609182120 METAR COR EGLL 182120Z AUTO 31003KT 9999 OVC041 18/12 Q1021
                        NOSIG=
201609182050 METAR COR EGLL 182050Z AUTO 31004KT 9999 OVC041 19/12 Q1021
                        NOSIG=
201609182020 METAR COR EGLL 182020Z AUTO 31004KT 9999 OVC037 19/12 Q1021
                        NOSIG=
201609181950 METAR COR EGLL 181950Z AUTO 30005KT 9999 OVC035 18/12 Q1021
                        NOSIG=
201609181920 METAR COR EGLL 181920Z AUTO 30004KT 9999 OVC035 19/12 Q1021
                        NOSIG=
201609181850 METAR COR EGLL 181850Z AUTO 29005KT 9999 OVC037 19/13 Q1021
                        NOSIG=
201609181820 METAR COR EGLL 181820Z AUTO 28006KT 9999 BKN033 18/13 Q1021
                        NOSIG=
201609181750 METAR COR EGLL 181750Z AUTO 28006KT 230V300 9999 OVC033 19/12
                        Q1021 NOSIG=
201609181720 METAR COR EGLL 181720Z AUTO 27006KT 9999 OVC030 19/12 Q1020
                        NOSIG=
201609181650 METAR COR EGLL 181650Z AUTO 29004KT 270V330 9999 BKN029 OVC044
                        19/12 Q1020 NOSIG=
201609181620 METAR COR EGLL 181620Z AUTO VRB03KT 9999 BKN029 19/12 Q1020
                        NOSIG=
201609181550 METAR COR EGLL 181550Z AUTO VRB03KT 9999 OVC028 19/12 Q1020
                        NOSIG=
201609181520 METAR COR EGLL 181520Z AUTO VRB03KT 9999 BKN029 20/12 Q1020
                        NOSIG=
201609181450 METAR COR EGLL 181450Z AUTO VRB03KT 9999 BKN027 19/12 Q1020
                        NOSIG=
201609181420 METAR COR EGLL 181420Z AUTO VRB03KT 9999 FEW024 OVC031 19/12
                        Q1020 NOSIG=
201609181350 METAR COR EGLL 181350Z AUTO 33004KT 290V030 9999 OVC024 18/12
                        Q1021 NOSIG=
201609181320 METAR COR EGLL 181320Z AUTO 31004KT 260V360 9999 OVC026 19/12
                        Q1021 NOSIG=
201609181250 METAR COR EGLL 181250Z AUTO VRB03KT 9999 OVC023 19/12 Q1021
                        NOSIG=
201609181220 METAR COR EGLL 181220Z AUTO 35004KT 310V040 9999 OVC027 18/12
                        Q1021 NOSIG=
201609181150 METAR COR EGLL 181150Z AUTO 36004KT 290V090 9999 OVC026 19/12
                        Q1021 NOSIG=
201609181120 METAR COR EGLL 181120Z AUTO 01005KT 330V050 9999 OVC021 18/12
                        Q1021 NOSIG=
201609181050 METAR COR EGLL 181050Z AUTO 36004KT 320V040 9999 BKN019 18/13
                        Q1021 NOSIG=
201609181020 METAR COR EGLL 181020Z AUTO 33005KT 290V010 9999 BKN015 OVC027
                        18/13 Q1022 NOSIG=
201609180950 METAR COR EGLL 180950Z AUTO VRB03KT 9999 SCT013 BKN024 17/13
                        Q1022 NOSIG=
201609180920 METAR COR EGLL 180920Z AUTO VRB03KT 9999 FEW024 OVC030 17/13
                        Q1022 NOSIG=
201609180850 METAR COR EGLL 180850Z AUTO VRB03KT 9999 BKN022 16/13 Q1021
                        NOSIG=
201609180820 METAR COR EGLL 180820Z AUTO 32004KT 250V010 9999 FEW022 OVC029
                        16/13 Q1021 NOSIG=
201609180750 METAR COR EGLL 180750Z AUTO VRB02KT 9999 FEW007 BKN021 15/14
                        Q1021 NOSIG=
201609180720 METAR COR EGLL 180720Z AUTO VRB03KT 9999 BKN005 15/14 Q1021
                        BECMG FEW005 BKN020=
201609180650 METAR COR EGLL 180650Z AUTO 30004KT 9000 FEW006 OVC021 15/14
                        Q1021 TEMPO BKN006=
201609180620 METAR COR EGLL 180620Z AUTO 30004KT 7000 OVC019 14/14 Q1021
                        NOSIG=
201609180550 METAR COR EGLL 180550Z 32004KT 290V360 7000 SCT016 BKN019
                        OVC021 14/14 Q1021 NOSIG=
201609180520 METAR COR EGLL 180520Z 34004KT 300V020 7000 SCT010 BKN017
                        OVC021 14/14 Q1021 NOSIG=
201609180450 METAR COR EGLL 180450Z 31004KT 280V340 7000 FEW006 SCT010
                        OVC016 14/14 Q1022 TEMPO BKN012=
201609180420 METAR COR EGLL 180420Z 33004KT 310V010 9999 SCT010 OVC018
                        15/14 Q1022 TEMPO BKN012=
201609180350 METAR COR EGLL 180350Z VRB03KT 9999 FEW011 BKN014 14/14 Q1022
                        NOSIG=
201609180320 METAR COR EGLL 180320Z 36004KT 320V030 9999 OVC012 14/14
                        Q1022 NOSIG=
201609180250 METAR COR EGLL 180250Z AUTO 34004KT 9999 OVC005 14/14 Q1022
                        BECMG BKN010=
201609180220 METAR COR EGLL 180220Z AUTO VRB03KT 9999 OVC005 14/14 Q1022
                        NOSIG=
201609180150 METAR COR EGLL 180150Z AUTO 36004KT 320V030 9999 OVC005 14/14
                        Q1022 NOSIG=
201609180120 METAR COR EGLL 180120Z AUTO 36005KT 320V030 9999 OVC005 14/14
                        Q1022 NOSIG=
201609180050 METAR COR EGLL 180050Z AUTO VRB03KT 9999 OVC007 15/14 Q1022
                        NOSIG=
201609180020 METAR COR EGLL 180020Z AUTO 04004KT 010V070 9999 OVC007 15/13
                        Q1022 NOSIG=
201609172350 METAR COR EGLL 172350Z AUTO 36004KT 310V050 9999 OVC008 15/13
                        Q1022 NOSIG=
201609172320 METAR COR EGLL 172320Z AUTO 05005KT 010V080 9999 OVC008 15/13
                        Q1022 NOSIG=
201609172250 METAR COR EGLL 172250Z AUTO VRB03KT 9999 OVC008 15/13 Q1022
                        NOSIG=
201609172220 METAR COR EGLL 172220Z AUTO 01005KT 340V040 9999 OVC008 15/13
                        Q1022 NOSIG=
201609172150 METAR COR EGLL 172150Z AUTO 01005KT 340V040 9999 OVC008 15/13
                        Q1022 NOSIG=
201609172120 METAR COR EGLL 172120Z AUTO 01006KT 340V040 9999 OVC008 16/13
                        Q1022 NOSIG=
201609172050 METAR COR EGLL 172050Z AUTO 02005KT 340V060 9999 OVC009 16/13
                        Q1022 NOSIG=
201609172020 METAR COR EGLL 172020Z AUTO 01005KT 330V040 9999 OVC010 16/13
                        Q1022 TEMPO BKN009=
201609171950 METAR EGLL 171950Z AUTO 36005KT 320V040 9999 OVC010 16/13
                        Q1022=
201609171920 METAR COR EGLL 171920Z AUTO 36006KT 310V030 9999 OVC011 16/13
                        Q1022 NOSIG=
201609171850 METAR COR EGLL 171850Z AUTO 36007KT 330V040 9999 OVC013 16/12
                        Q1021 NOSIG=
201609171820 METAR COR EGLL 171820Z AUTO 35007KT 310V030 9999 OVC014 16/12
                        Q1021 NOSIG=
201609171750 METAR COR EGLL 171750Z AUTO 35007KT 320V030 9999 OVC014 16/12
                        Q1021 NOSIG=
201609171720 METAR COR EGLL 171720Z AUTO 34007KT 310V040 9999 OVC014 16/12
                        Q1021 NOSIG=
201609171650 METAR COR EGLL 171650Z AUTO 34007KT 320V030 9999 OVC015 16/12
                        Q1021 TEMPO BKN014=
201609171620 METAR COR EGLL 171620Z AUTO 34007KT 300V010 9999 OVC015 16/12
                        Q1021 TEMPO BKN014=
201609171550 METAR COR EGLL 171550Z AUTO 34008KT 300V020 9999 OVC015 16/12
                        Q1021 TEMPO BKN014=
201609171520 METAR COR EGLL 171520Z AUTO 35008KT 310V020 9999 OVC015 16/12
                        Q1021 TEMPO BKN014=
201609171450 METAR COR EGLL 171450Z AUTO 34008KT 310V020 9999 OVC014 16/12
                        Q1021 TEMPO BKN016=
201609171420 METAR COR EGLL 171420Z AUTO 34008KT 310V030 9999 OVC013 16/12
                        Q1021 TEMPO BKN015=
201609171350 METAR COR EGLL 171350Z AUTO 34008KT 300V020 9999 OVC012 15/12
                        Q1021 NOSIG=
201609171320 METAR COR EGLL 171320Z AUTO 34009KT 300V030 9999 OVC013 15/12
                        Q1021 NOSIG=
201609171250 METAR COR EGLL 171250Z AUTO 34008KT 310V020 9999 OVC013 15/12
                        Q1021 NOSIG=
201609171220 METAR COR EGLL 171220Z AUTO 33009KT 310V010 9999 OVC014 15/11
                        Q1020 NOSIG=
201609171150 METAR COR EGLL 171150Z AUTO 34008KT 310V030 9999 OVC014 15/11
                        Q1021 TEMPO BKN016=
201609171120 METAR COR EGLL 171120Z AUTO 33008KT 300V010 9999 OVC014 15/11
                        Q1020 TEMPO BKN016=
201609171050 METAR COR EGLL 171050Z AUTO 34008KT 300V020 9999 OVC014 15/11
                        Q1020 TEMPO BKN016=
201609171020 METAR COR EGLL 171020Z AUTO 33009KT 290V360 9999 OVC014 14/11
                        Q1020 TEMPO BKN016=
201609170950 METAR COR EGLL 170950Z AUTO 33009KT 290V020 9999 OVC014 14/11
                        Q1020 TEMPO BKN016=
201609170920 METAR COR EGLL 170920Z AUTO 32009KT 280V010 9999 OVC015 14/11
                        Q1020 TEMPO BKN014=
201609170850 METAR COR EGLL 170850Z AUTO 32008KT 9999 OVC014 13/11 Q1020
                        TEMPO 4500 -RADZ=
201609170820 METAR EGLL 170820Z AUTO 32008KT 290V360 4800 -DZ BKN014 OVC031
                        13/11 Q1020=
201609170750 METAR COR EGLL 170750Z AUTO 32008KT 300V360 6000 -RA BKN015
                        OVC033 13/11 Q1019 NOSIG=
201609170720 METAR COR EGLL 170720Z AUTO 31010KT 290V350 9999 -RA BKN018
                        OVC041 14/10 Q1019 NOSIG=
201609170650 METAR COR EGLL 170650Z AUTO 32008KT 280V030 9999 SCT022 OVC041
                        14/10 Q1019 NOSIG=
201609170620 METAR COR EGLL 170620Z AUTO 31008KT 9999 OVC048 14/10 Q1019
                        NOSIG=
201609170550 METAR COR EGLL 170550Z AUTO 31007KT 270V360 9999 NCD 14/10
                        Q1019 NOSIG=
201609170520 METAR COR EGLL 170520Z AUTO 31007KT 280V340 9999 NCD 13/10
                        Q1018 NOSIG=
201609170450 METAR COR EGLL 170450Z AUTO 31008KT 9999 NCD 13/10 Q1018
                        NOSIG=
201609170420 METAR COR EGLL 170420Z AUTO 30008KT 9999 NCD 13/10 Q1019
                        NOSIG=
201609170350 METAR COR EGLL 170350Z AUTO 30007KT 9999 NCD 13/10 Q1019
                        NOSIG=
201609170320 METAR COR EGLL 170320Z AUTO 31008KT 9999 NCD 13/10 Q1019
                        NOSIG=
201609170250 METAR COR EGLL 170250Z AUTO 30008KT 270V340 9999 NCD 13/10
                        Q1019 NOSIG=
201609170220 METAR COR EGLL 170220Z AUTO 30008KT 9999 NCD 13/10 Q1019
                        NOSIG=
201609170150 METAR COR EGLL 170150Z AUTO 31007KT 9999 NCD 13/10 Q1018
                        NOSIG=
201609170120 METAR COR EGLL 170120Z AUTO 30008KT 9999 NCD 13/10 Q1018
                        NOSIG=
201609170050 METAR COR EGLL 170050Z AUTO 30009KT 9999 NCD 13/10 Q1018
                        NOSIG=
201609170020 METAR COR EGLL 170020Z AUTO 31009KT 9999 NCD 13/10 Q1018
                        NOSIG=
201609162350 METAR COR EGLL 162350Z AUTO 30007KT 9999 NCD 13/10 Q1018
                        NOSIG=
201609162320 METAR COR EGLL 162320Z AUTO 30007KT 9999 NCD 13/10 Q1018
                        NOSIG=
201609162250 METAR COR EGLL 162250Z AUTO 31008KT 9999 NCD 14/10 Q1018
                        NOSIG=
201609162220 METAR COR EGLL 162220Z AUTO 30008KT 9999 NCD 14/10 Q1017
                        NOSIG=
201609162150 METAR COR EGLL 162150Z AUTO 31008KT 9999 NCD 15/10 Q1017
                        NOSIG=
201609162120 METAR COR EGLL 162120Z AUTO 31008KT 280V340 9999 NCD 15/10
                        Q1017 NOSIG=
201609162050 METAR COR EGLL 162050Z AUTO 31008KT 9999 NCD 15/10 Q1017
                        NOSIG=
201609162020 METAR COR EGLL 162020Z AUTO 31007KT 280V340 9999 FEW043 16/09
                        Q1017 NOSIG=
201609161950 METAR COR EGLL 161950Z AUTO 31009KT 9999 SCT048 16/09 Q1016
                        NOSIG=
201609161920 METAR COR EGLL 161920Z AUTO 31008KT 9999 NCD 15/09 Q1015
                        NOSIG=
201609161850 METAR COR EGLL 161850Z AUTO 31008KT 9999 NCD 16/09 Q1014
                        NOSIG=
201609161820 METAR COR EGLL 161820Z AUTO 31008KT 9999 NCD 16/09 Q1014
                        NOSIG=
201609161750 METAR COR EGLL 161750Z AUTO 31008KT 280V360 9999 NCD 16/09
                        Q1014 NOSIG=
201609161720 METAR COR EGLL 161720Z AUTO 31010KT 9999 NCD 17/09 Q1014
                        NOSIG=
201609161650 METAR COR EGLL 161650Z AUTO 31009KT 9999 FEW048 17/09 Q1013
                        NOSIG=
201609161620 METAR COR EGLL 161620Z AUTO 31010KT 9999 NCD 18/09 Q1014
                        NOSIG=
201609161550 METAR COR EGLL 161550Z AUTO 31009KT 9999 FEW049 17/10 Q1011
                        NOSIG=
201609161520 METAR COR EGLL 161520Z AUTO 31007KT 280V340 9999 BKN043 17/11
                        Q1012 NOSIG=
201609161450 METAR COR EGLL 161450Z AUTO 31005KT 9999 NCD 17/13 Q1012
                        NOSIG=
201609161420 METAR COR EGLL 161420Z AUTO 31006KT 280V340 9999 BKN033 16/14
                        Q1012 NOSIG=
201609161350 METAR COR EGLL 161350Z AUTO 32007KT 280V010 9999 FEW019 BKN032
                        16/13 Q1012 NOSIG=
201609161320 METAR COR EGLL 161320Z AUTO 33008KT 300V010 9999 FEW013 OVC027
                        16/13 Q1013 NOSIG=
201609161250 METAR COR EGLL 161250Z 31010KT 9999 6000NE -RA SCT010 BKN020
                        15/13 Q1013 NOSIG=
201609161220 METAR COR EGLL 161220Z AUTO 31008KT 280V340 6000 -RA BKN010///
                        OVC022/// //////TCU 15/14 Q1011 BECMG
                        9999 NSW FEW010=
201609161150 METAR COR EGLL 161150Z AUTO 30006KT 270V340 9999 -RA BKN015///
                        //////TCU 15/13 Q1011 TEMPO 7000
                        SHRA BKN012=
201609161120 METAR COR EGLL 161120Z AUTO 30007KT 270V330 9999 -RA BKN013///
                        //////TCU 15/14 Q1012 TEMPO SHRA=
201609161050 METAR COR EGLL 161050Z AUTO 31007KT 270V340 9999 BKN016 OVC046
                        15/13 Q1012 TEMPO SHRA BKN014=
201609161020 METAR COR EGLL 161020Z AUTO 31006KT 280V360 9999 FEW018///
                        OVC036/// //////TCU 15/13 Q1012 NOSIG=
201609160950 METAR COR EGLL 160950Z AUTO 31006KT 280V340 9999 -RA SCT011
                        OVC036 15/14 Q1012 TEMPO SHRA=
201609160920 METAR COR EGLL 160920Z AUTO 31008KT 9000 -RA BKN010/// BKN029///
                        //////TCU 15/14 Q1011 BECMG FEW010=
201609160850 METAR COR EGLL 160850Z AUTO 31009KT 270V340 9999 -RA BKN008
                        16/14 Q1011 BECMG FEW008 BKN030=
201609160820 METAR COR EGLL 160820Z AUTO 30007KT 7000 -RA BKN010/// BKN034///
                        //////TCU 16/15 Q1011 RESHRA TEMPO
                        SHRA=
201609160750 METAR COR EGLL 160750Z 30006KT 6000 SHRA FEW011CB BKN044
                        16/15 Q1011 NOSIG=
201609160720 METAR COR EGLL 160720Z 30007KT 7000 -SHRA FEW008CB SCT026
                        16/15 Q1011 RESHRA TEMPO SHRA=
201609160650 METAR COR EGLL 160650Z VRB03KT 5000 SHRA FEW006 BKN008CB
                        16/15 Q1011 RETS TEMPO 4000 +SHRA=
201609160620 METAR COR EGLL 160620Z 33005KT 290V020 6000 -TSRA FEW010CB
                        SCT029 16/16 Q1011 TEMPO 4500 +SHRA
                        BKN008=
201609160550 METAR COR EGLL 160550Z 31006KT 280V360 6000 -SHRA VCTS FEW010CB
                        SCT028 16/16 Q1011 RETS RESHRA TEMPO
                        4500 +SHRA BKN009=
201609160520 METAR COR EGLL 160520Z 31007KT 4500 TSRA FEW006CB SCT009
                        BKN019 17/16 Q1011 RETS RESHRA TEMPO
                        7000 SHRA BKN008=
201609160450 METAR COR EGLL 160450Z 25010KT 4400 SHRA FEW008CB SCT019
                        BKN025 17/16 Q1011 RETS TEMPO 7000
                        BKN008=
201609160420 METAR COR EGLL 160420Z 25008KT 7000 -TSRA FEW006 SCT009CB
                        BKN031 17/16 Q1011 TEMPO 4500 TSRA
                        BKN008CB=
201609160350 METAR COR EGLL 160350Z AUTO 24006KT 7000 -RA BKN004/// //////CB
                        17/16 Q1011 RETS BECMG SCT004 BKN010=
201609160320 METAR COR EGLL 160320Z AUTO 21006KT 5000 -RADZ BKN004///
                        BKN014/// OVC046/// //////CB 17/17
                        Q1011 RERA REDZ BECMG SCT004 BKN008=
201609160250 METAR COR EGLL 160250Z AUTO 23006KT 200V280 2900 +RA BKN005///
                        OVC036/// //////CB 17/17 Q1011 RETS
                        RESHGR REDZ TEMPO 6000 RA BKN010=
201609160220 METAR COR EGLL 160220Z AUTO 21006KT 2300 +RA BKN005/// OVC036///
                        //////CB 18/17 Q1009 RETS TEMPO 6000
                        RA BKN010=
201609160150 METAR COR EGLL 160150Z AUTO 21008KT 180V250 9999 TS FEW006///
                        OVC030/// //////CB 18/16 Q1009 TEMPO
                        3000 BKN008=
201609160120 METAR COR EGLL 160120Z AUTO 22007KT 9999 -RA VCTS SCT005///
                        OVC026/// //////CB 18/16 Q1009 RETS
                        TEMPO 3000 TSRA BKN008CB=
201609160050 METAR COR EGLL 160050Z AUTO 20007KT 9999 BKN005/// OVC022///
                        //////CB 18/16 Q1009 BECMG SCT005=
201609160020 METAR COR EGLL 160020Z AUTO 19007KT 9999 FEW007/// OVC022///
                        //////CB 19/16 Q1009 TEMPO 4500 +SHRA=
201609152350 METAR COR EGLL 152350Z AUTO 21008KT 9999 OVC021/// //////CB
                        19/16 Q1009 RETS TEMPO 4500 +SHRA=
201609152320 METAR COR EGLL 152320Z AUTO 19009KT 9999 TS FEW011/// BKN022///
                        //////CB 19/16 Q1010 TEMPO 4500 +SHRA=
201609152250 METAR COR EGLL 152250Z AUTO 20009KT 180V250 9999 VCTS SCT024///
                        BKN041/// //////CB 19/17 Q1010 TEMPO
                        4500 +SHRA=
201609152220 METAR COR EGLL 152220Z 20008KT 160V230 9999 BKN037CB 19/17
                        Q1009 NOSIG=
201609152150 METAR COR EGLL 152150Z 22008KT 9999 BKN033CB 19/17 Q1009
                        NOSIG=
201609152120 METAR COR EGLL 152120Z 21008KT 9999 BKN033CB 19/16 Q1009
                        RETS NOSIG=
201609152050 METAR COR EGLL 152050Z AUTO 21008KT 9999 TS SCT033/// //////CB
                        19/16 Q1010 NOSIG=
201609152020 METAR COR EGLL 152020Z AUTO 23007KT 9999 NCD 20/16 Q1010
                        NOSIG=
201609151950 METAR COR EGLL 151950Z AUTO 21008KT 170V240 9999 FEW032 20/16
                        Q1010 TEMPO 4500 +SHRA=
201609151920 METAR COR EGLL 151920Z AUTO 22007KT 9999 FEW035 21/17 Q1010
                        TEMPO 4500 +SHRA=
201609151850 METAR COR EGLL 151850Z AUTO 18010G20KT 150V230 9999 //////CB
                        21/17 Q1009 TEMPO 4500 +SHRA=
201609151820 METAR COR EGLL 151820Z AUTO 19009KT 9999 //////CB 22/17 Q1009
                        TEMPO 4000 +TSRA=
201609151750 METAR COR EGLL 151750Z AUTO 19011KT 9999 //////CB 23/17 Q1009
                        TEMPO 4000 +TSRA=
201609151720 METAR COR EGLL 151720Z AUTO 18010G20KT 9999 VCTS //////CB
                        24/17 Q1009 TEMPO 4000 +TSRA=
201609151650 METAR COR EGLL 151650Z AUTO 19009KT 150V230 9999 VCTS FEW037///
                        //////CB 24/16 Q1008 NOSIG=
201609151620 METAR COR EGLL 151620Z AUTO 02004KT 350V080 9999 VCTS FEW036///
                        //////CB 24/16 Q1008 NOSIG=
201609151550 METAR COR EGLL 151550Z 01004KT 310V070 9999 VCTS VCSH BKN035CB
                        25/16 Q1008 RETS TEMPO 4000 +TSRA=
201609151520 METAR COR EGLL 151520Z AUTO 20009KT 160V250 9999 TS SCT042///
                        //////CB 28/17 Q1008 NOSIG=
201609151450 METAR COR EGLL 151450Z AUTO 31006KT 9999 SCT045 28/17 Q1008
                        NOSIG=
201609151420 METAR COR EGLL 151420Z AUTO 21005KT 160V290 9999 BKN044 27/17
                        Q1008 NOSIG=
201609151350 METAR COR EGLL 151350Z AUTO 12004KT 050V180 9999 BKN044 28/16
                        Q1008 TEMPO SHRA=
201609151320 METAR COR EGLL 151320Z AUTO 10004KT 030V190 9999 FEW043 28/16
                        Q1008 TEMPO SHRA=
201609151250 METAR EGLL 151250Z AUTO 05005KT 020V130 9999 NCD 28/16 Q1008=
201609151220 METAR EGLL 151220Z AUTO 06005KT 010V090 9999 NCD 27/16 Q1009=
201609151150 METAR COR EGLL 151150Z AUTO 04006KT 010V100 9999 NCD 26/17
                        Q1009 NOSIG=
201609151120 METAR COR EGLL 151120Z AUTO 07007KT 010V120 9999 NCD 26/17
                        Q1009 NOSIG=
201609151050 METAR COR EGLL 151050Z AUTO 06006KT 350V090 9999 NCD 25/17
                        Q1009 NOSIG=
201609151020 METAR COR EGLL 151020Z AUTO 06006KT 010V090 9999 NCD 24/17
                        Q1009 NOSIG=
201609150950 METAR COR EGLL 150950Z AUTO 06006KT 020V100 9999 NCD 24/17
                        Q1009 NOSIG=
201609150920 METAR COR EGLL 150920Z AUTO 02005KT 350V060 9999 NCD 23/17
                        Q1010 NOSIG=
201609150850 METAR COR EGLL 150850Z AUTO 01005KT 320V060 8000 NCD 22/17
                        Q1010 NOSIG=
201609150820 METAR COR EGLL 150820Z AUTO 01005KT 330V050 6000 NCD 20/17
                        Q1010 NOSIG=
201609150750 METAR COR EGLL 150750Z AUTO 32004KT 280V010 6000 NCD 19/16
                        Q1010 NOSIG=
201609150720 METAR COR EGLL 150720Z AUTO 35003KT 7000 NCD 18/16 Q1010
                        NOSIG=
201609150650 METAR COR EGLL 150650Z AUTO VRB01KT 7000 NCD 18/16 Q1011
                        NOSIG=
201609150620 METAR COR EGLL 150620Z AUTO 21001KT 8000 NCD 18/16 Q1011
                        NOSIG=
201609150550 METAR COR EGLL 150550Z AUTO 35003KT 9000 NCD 17/16 Q1010
                        NOSIG=
201609150520 METAR COR EGLL 150520Z AUTO VRB02KT 9999 NCD 16/15 Q1010
                        NOSIG=
201609150450 METAR COR EGLL 150450Z AUTO VRB02KT 9999 NCD 15/14 Q1010
                        NOSIG=
201609150420 METAR COR EGLL 150420Z AUTO VRB03KT 9999 NCD 15/14 Q1010
                        NOSIG=
201609150350 METAR COR EGLL 150350Z AUTO VRB02KT 9999 NCD 15/14 Q1010
                        NOSIG=
201609150320 METAR COR EGLL 150320Z AUTO 35001KT 9999 NCD 15/14 Q1011
                        NOSIG=
201609150250 METAR COR EGLL 150250Z AUTO VRB02KT 9999 NCD 15/14 Q1011
                        NOSIG=
201609150220 METAR COR EGLL 150220Z AUTO VRB02KT 9999 NCD 15/14 Q1011
                        NOSIG=
201609150150 METAR COR EGLL 150150Z AUTO 36001KT 9999 NCD 15/14 Q1011
                        NOSIG=
201609150120 METAR COR EGLL 150120Z AUTO 31003KT 9999 NCD 16/15 Q1012
                        NOSIG=
201609150050 METAR COR EGLL 150050Z AUTO 01002KT 9999 NCD 16/14 Q1012
                        NOSIG=
201609150020 METAR COR EGLL 150020Z AUTO VRB01KT 9999 NCD 17/15 Q1012
                        NOSIG=
201609142350 METAR COR EGLL 142350Z AUTO VRB01KT 9999 NCD 17/15 Q1012
                        NOSIG=
201609142320 METAR COR EGLL 142320Z AUTO 35003KT 9999 NCD 18/15 Q1012
                        NOSIG=
201609142250 METAR COR EGLL 142250Z AUTO 33002KT 9999 NCD 18/15 Q1012
                        NOSIG=
201609142220 METAR COR EGLL 142220Z AUTO VRB02KT 9999 NCD 18/14 Q1012
                        NOSIG=
201609142150 METAR COR EGLL 142150Z AUTO 00000KT 9999 NCD 19/14 Q1012
                        NOSIG=
201609142120 METAR COR EGLL 142120Z AUTO VRB01KT 9999 NCD 19/14 Q1012
                        NOSIG=
201609142050 METAR COR EGLL 142050Z AUTO 23004KT 9999 NCD 19/14 Q1013
                        NOSIG=
201609142020 METAR COR EGLL 142020Z AUTO 22006KT 9999 NCD 18/14 Q1013
                        NOSIG=
201609141950 METAR COR EGLL 141950Z AUTO 22004KT 150V270 9999 NCD 21/14
                        Q1013 NOSIG=
201609141920 METAR COR EGLL 141920Z AUTO 17005KT 130V220 9999 NCD 21/14
                        Q1013 NOSIG=
201609141850 METAR COR EGLL 141850Z AUTO 18008KT 9999 NCD 22/13 Q1012
                        NOSIG=
201609141820 METAR COR EGLL 141820Z AUTO 20010KT 9999 NCD 22/13 Q1012
                        NOSIG=
201609141750 METAR COR EGLL 141750Z AUTO 21010KT 9999 NCD 23/15 Q1012
                        NOSIG=
201609141720 METAR COR EGLL 141720Z AUTO 18008KT 120V230 9999 NCD 25/15
                        Q1012 NOSIG=
201609141650 METAR COR EGLL 141650Z AUTO 21008KT 170V240 9999 NCD 25/13
                        Q1011 NOSIG=
201609141620 METAR COR EGLL 141620Z AUTO 17009KT 140V210 9999 NCD 26/14
                        Q1011 NOSIG=
201609141550 METAR COR EGLL 141550Z AUTO 19009KT 150V240 9999 NCD 25/15
                        Q1011 NOSIG=
201609141520 METAR COR EGLL 141520Z AUTO 20006KT 150V230 9999 NCD 26/15
                        Q1011 NOSIG=
201609141450 METAR COR EGLL 141450Z AUTO 19008KT 150V240 9999 NCD 27/15
                        Q1011 NOSIG=
201609141420 METAR COR EGLL 141420Z AUTO 20008KT 150V240 9999 NCD 26/16
                        Q1011 NOSIG=
201609141350 METAR COR EGLL 141350Z AUTO 18008KT 140V250 9999 NCD 26/16
                        Q1011 NOSIG=
201609141320 METAR COR EGLL 141320Z AUTO 20011KT 170V240 9999 NCD 26/17
                        Q1011 NOSIG=
201609141250 METAR COR EGLL 141250Z AUTO 19009KT 160V230 9999 NCD 25/18
                        Q1011 NOSIG=
201609141220 METAR COR EGLL 141220Z AUTO 20008KT 160V240 9999 NCD 25/18
                        Q1011 NOSIG=
201609141150 METAR COR EGLL 141150Z AUTO 20013KT 9999 FEW023 25/18 Q1011
                        NOSIG=
201609141120 METAR COR EGLL 141120Z AUTO 18009KT 9999 FEW030 27/16 Q1010
                        NOSIG=
201609141050 METAR COR EGLL 141050Z AUTO 16009KT 9999 NCD 27/16 Q1010
                        NOSIG=
201609141020 METAR COR EGLL 141020Z AUTO 15007KT 100V190 9999 NCD 27/15
                        Q1010 NOSIG=
201609140950 METAR COR EGLL 140950Z AUTO VRB04KT 9999 NCD 26/16 Q1010
                        NOSIG=
201609140920 METAR COR EGLL 140920Z AUTO 13005KT 100V160 9999 NCD 25/16
                        Q1010 NOSIG=
201609140850 METAR COR EGLL 140850Z AUTO 12007KT 080V160 9999 NCD 25/16
                        Q1009 NOSIG=
201609140820 METAR COR EGLL 140820Z AUTO 11006KT 080V140 9999 NCD 24/17
                        Q1009 NOSIG=
201609140750 METAR COR EGLL 140750Z AUTO 08008KT 9999 NCD 23/17 Q1009
                        NOSIG=
201609140720 METAR COR EGLL 140720Z AUTO 06007KT 9999 NCD 22/17 Q1008
                        NOSIG=
201609140650 METAR COR EGLL 140650Z AUTO 06006KT 9999 NCD 21/17 Q1008
                        NOSIG=
201609140620 METAR COR EGLL 140620Z AUTO 05005KT 9999 NCD 20/17 Q1008
                        NOSIG=
201609140550 METAR COR EGLL 140550Z AUTO 07004KT 030V100 9999 NCD 20/16
                        Q1008 NOSIG=
201609140520 METAR COR EGLL 140520Z AUTO 05005KT 020V080 9999 NCD 20/16
                        Q1008 NOSIG=
201609140450 METAR COR EGLL 140450Z AUTO 06006KT 9999 NCD 20/16 Q1008
                        NOSIG=
201609140420 METAR COR EGLL 140420Z AUTO 04004KT 020V090 9999 NCD 20/16
                        Q1008 NOSIG=
201609140350 METAR COR EGLL 140350Z AUTO 06004KT 9000 NCD 20/16 Q1008
                        NOSIG=
201609140320 METAR COR EGLL 140320Z AUTO 05005KT 9999 NCD 20/16 Q1008
                        NOSIG=
201609140250 METAR COR EGLL 140250Z AUTO 04003KT 9999 NCD 20/16 Q1008
                        NOSIG=
201609140220 METAR COR EGLL 140220Z AUTO 06006KT 9999 NCD 21/16 Q1008
                        NOSIG=
201609140150 METAR COR EGLL 140150Z AUTO 05005KT 9999 NCD 21/17 Q1008
                        NOSIG=
201609140120 METAR COR EGLL 140120Z AUTO 05005KT 9999 NCD 21/17 Q1008
                        NOSIG=
201609140050 METAR COR EGLL 140050Z AUTO 05006KT 9999 NCD 21/17 Q1009
                        NOSIG=
201609140020 METAR COR EGLL 140020Z AUTO 06007KT 9999 NCD 22/17 Q1009
                        NOSIG=
201609132350 METAR COR EGLL 132350Z AUTO 06007KT 9999 NCD 21/17 Q1009
                        NOSIG=
201609132320 METAR COR EGLL 132320Z AUTO 05004KT 9999 NCD 22/17 Q1009
                        NOSIG=
201609132250 METAR COR EGLL 132250Z AUTO 05004KT 9999 NCD 22/17 Q1009
                        NOSIG=
201609132220 METAR COR EGLL 132220Z AUTO 05004KT 9999 NCD 22/17 Q1009
                        NOSIG=
201609132150 METAR COR EGLL 132150Z AUTO 07005KT 9999 NCD 23/17 Q1009
                        NOSIG=
201609132120 METAR COR EGLL 132120Z AUTO 06004KT 9999 NCD 23/17 Q1009
                        NOSIG=
201609132050 METAR COR EGLL 132050Z AUTO 04004KT 9999 NCD 23/17 Q1009
                        NOSIG=
201609132020 METAR COR EGLL 132020Z AUTO 04004KT 9999 NCD 24/17 Q1009
                        NOSIG=
201609131950 METAR COR EGLL 131950Z AUTO 04003KT 9999 NCD 25/16 Q1008
                        NOSIG=
201609131920 METAR EGLL 131920Z AUTO 07002KT 9999 NCD 27/16 Q1008=
201609131850 METAR COR EGLL 131850Z AUTO 12004KT 9999 NCD 27/16 Q1008
                        NOSIG=
201609131820 METAR COR EGLL 131820Z AUTO 13004KT 9999 NCD 28/15 Q1008
                        NOSIG=
201609131750 METAR COR EGLL 131750Z AUTO 19005KT 9999 NCD 29/15 Q1008
                        NOSIG=
201609131720 METAR COR EGLL 131720Z AUTO 16005KT 9999 NCD 29/15 Q1008
                        NOSIG=
201609131650 METAR COR EGLL 131650Z AUTO 16008KT 9999 NCD 30/13 Q1008
                        NOSIG=
201609131620 METAR COR EGLL 131620Z AUTO 14007KT 9999 NCD 31/14 Q1008
                        NOSIG=
201609131550 METAR COR EGLL 131550Z AUTO 12010KT 9999 NCD 31/13 Q1008
                        NOSIG=
201609131520 METAR COR EGLL 131520Z AUTO 11011KT 9999 NCD 31/15 Q1008
                        NOSIG=
201609131450 METAR COR EGLL 131450Z AUTO 08006KT 040V130 9999 NCD 31/16
                        Q1008 NOSIG=
201609131420 METAR COR EGLL 131420Z AUTO 12006KT 060V160 9999 NCD 31/16
                        Q1008 NOSIG=
201609131350 METAR COR EGLL 131350Z AUTO VRB03KT 9999 NCD 30/17 Q1008
                        NOSIG=
201609131320 METAR COR EGLL 131320Z AUTO VRB03KT 9999 NCD 30/16 Q1009
                        NOSIG=
201609131250 METAR COR EGLL 131250Z AUTO 25007KT 180V290 9999 NCD 30/16
                        Q1009 NOSIG=
201609131220 METAR COR EGLL 131220Z AUTO 24010KT 200V270 9999 NCD 30/16
                        Q1009 NOSIG=
201609131150 METAR EGLL 131150Z AUTO 18012KT 150V220 9999 NCD 31/14 Q1009=
201609131120 METAR EGLL 131120Z AUTO 10008KT 9999 NCD 31/15 Q1009=
201609131050 METAR EGLL 131050Z AUTO 09008KT 070V140 9999 NCD 30/16 Q1009=
201609131020 METAR COR EGLL 131020Z AUTO 09009KT 9999 NCD 28/16 Q1009
                        NOSIG=
201609130950 METAR COR EGLL 130950Z AUTO 08010KT 9999 NCD 27/16 Q1009
                        NOSIG=
201609130920 METAR COR EGLL 130920Z AUTO 07007KT 9999 NCD 25/16 Q1009
                        NOSIG=
201609130850 METAR COR EGLL 130850Z AUTO 08004KT 9999 NCD 24/16 Q1010
                        NOSIG=
201609130820 METAR COR EGLL 130820Z AUTO 06004KT 9999 NCD 22/17 Q1010
                        NOSIG=
201609130750 METAR COR EGLL 130750Z AUTO 07005KT 9999 NCD 21/17 Q1010
                        NOSIG=
201609130720 METAR COR EGLL 130720Z AUTO 06005KT 9999 NCD 19/16 Q1010
                        NOSIG=
201609130650 METAR COR EGLL 130650Z AUTO 06004KT 9999 NCD 17/15 Q1010
                        NOSIG=
201609130620 METAR COR EGLL 130620Z AUTO 06004KT 9999 NCD 17/15 Q1010
                        NOSIG=
201609130550 METAR COR EGLL 130550Z AUTO VRB02KT 9999 NCD 16/15 Q1010
                        NOSIG=
201609130520 METAR COR EGLL 130520Z AUTO 06002KT 9999 NCD 16/14 Q1010
                        NOSIG=
201609130450 METAR COR EGLL 130450Z AUTO 04002KT 9999 NCD 16/15 Q1010
                        NOSIG=
201609130420 METAR COR EGLL 130420Z AUTO 05002KT 9999 NCD 16/15 Q1010
                        NOSIG=
201609130350 METAR COR EGLL 130350Z AUTO 05002KT 9999 NCD 15/14 Q1010
                        NOSIG=
201609130320 METAR COR EGLL 130320Z AUTO 06003KT 9999 NCD 16/14 Q1010
                        NOSIG=
201609130250 METAR COR EGLL 130250Z AUTO 06003KT 9999 NCD 16/14 Q1010
                        NOSIG=
201609130220 METAR COR EGLL 130220Z AUTO 05003KT 9999 NCD 16/15 Q1010
                        NOSIG=
201609130150 METAR COR EGLL 130150Z AUTO 06004KT 9999 NCD 18/15 Q1011
                        NOSIG=
201609130120 METAR COR EGLL 130120Z AUTO VRB02KT 9999 NCD 18/15 Q1011
                        NOSIG=
201609130050 METAR COR EGLL 130050Z AUTO 08002KT 9999 NCD 18/15 Q1011
                        NOSIG=
201609130020 METAR COR EGLL 130020Z AUTO 07004KT 9999 NCD 19/15 Q1011
                        NOSIG=
201609122350 METAR COR EGLL 122350Z AUTO 09005KT 9999 NCD 19/15 Q1011
                        NOSIG=
201609122320 METAR COR EGLL 122320Z AUTO 10005KT 9999 NCD 18/15 Q1011
                        NOSIG=
201609122250 METAR COR EGLL 122250Z AUTO 10006KT 9999 NCD 19/15 Q1012
                        NOSIG=
201609122220 METAR EGLL 122220Z AUTO 10006KT 9999 NCD 19/15 Q1012=
201609122150 METAR COR EGLL 122150Z AUTO 09005KT 9999 NCD 20/15 Q1012
                        NOSIG=
201609122120 METAR EGLL 122120Z AUTO 10006KT 9999 NCD 21/15 Q1012=
201609122050 METAR COR EGLL 122050Z AUTO 10006KT 9999 NCD 21/15 Q1012
                        NOSIG=
201609122020 METAR COR EGLL 122020Z AUTO 11006KT 9999 NCD 22/15 Q1012
                        NOSIG=
201609121950 METAR COR EGLL 121950Z AUTO 11008KT 9999 NCD 22/15 Q1012
                        NOSIG=
201609121920 METAR COR EGLL 121920Z AUTO 12007KT 9999 NCD 22/15 Q1012
                        NOSIG=
201609121850 METAR COR EGLL 121850Z AUTO 13006KT 9999 NCD 22/15 Q1012
                        NOSIG=
201609121820 METAR COR EGLL 121820Z AUTO 14005KT 9999 NCD 22/16 Q1012
                        NOSIG=
201609121750 METAR EGLL 121750Z AUTO 14006KT 040V190 9999 NCD 22/15 Q1012=
201609121720 METAR COR EGLL 121720Z AUTO 15008KT 100V170 9999 NCD 23/16
                        Q1012 NOSIG=
201609121650 METAR COR EGLL 121650Z AUTO 18006KT 130V250 9999 NCD 23/16
                        Q1012 NOSIG=
201609121620 METAR COR EGLL 121620Z AUTO 17008KT 130V210 9999 NCD 23/15
                        Q1013 NOSIG=
201609121550 METAR COR EGLL 121550Z AUTO 20009KT 180V240 9999 NCD 24/15
                        Q1013 NOSIG=
201609121520 METAR COR EGLL 121520Z AUTO 21008KT 170V250 9999 NCD 24/15
                        Q1013 NOSIG=
201609121450 METAR COR EGLL 121450Z AUTO 17010KT 120V230 9999 FEW033 24/15
                        Q1013 NOSIG=
201609121420 METAR COR EGLL 121420Z AUTO 19009KT 130V260 9999 NCD 25/15
                        Q1013 NOSIG=
201609121350 METAR COR EGLL 121350Z AUTO 21010KT 170V240 9999 FEW030 23/15
                        Q1013 NOSIG=
201609121320 METAR COR EGLL 121320Z AUTO 21010KT 140V240 9999 FEW031 23/16
                        Q1013 NOSIG=
201609121250 METAR COR EGLL 121250Z AUTO 19010KT 140V230 9999 FEW032 24/16
                        Q1013 NOSIG=
201609121220 METAR COR EGLL 121220Z AUTO 20011KT 170V240 9999 SCT025 22/16
                        Q1013 NOSIG=
201609121150 METAR COR EGLL 121150Z AUTO 20009KT 160V240 9999 FEW028 22/16
                        Q1013 NOSIG=
201609121120 METAR COR EGLL 121120Z AUTO 18010KT 140V230 9999 -RA BKN022
                        20/16 Q1013 NOSIG=
201609121050 METAR COR EGLL 121050Z AUTO 19009KT 150V240 9999 -RA BKN033///
                        //////TCU 20/16 Q1014 NOSIG=
201609121020 METAR COR EGLL 121020Z AUTO 16007KT 110V240 9999 -RA FEW013
                        SCT019 19/16 Q1014 NOSIG=
201609120950 METAR COR EGLL 120950Z AUTO 17008KT 140V250 9999 -RA FEW025
                        SCT036 20/15 Q1014 NOSIG=
201609120920 METAR COR EGLL 120920Z AUTO 18007KT 120V240 9999 FEW040 19/15
                        Q1014 NOSIG=
201609120850 METAR COR EGLL 120850Z AUTO 18006KT 120V260 9999 NCD 18/15
                        Q1014 NOSIG=
201609120820 METAR COR EGLL 120820Z AUTO 19006KT 150V220 9999 NCD 18/15
                        Q1013 NOSIG=
201609120750 METAR COR EGLL 120750Z AUTO 19005KT 150V230 9999 NCD 17/14
                        Q1013 NOSIG=
201609120720 METAR COR EGLL 120720Z AUTO 18006KT 150V230 9999 NCD 16/14
                        Q1013 NOSIG=
201609120650 METAR COR EGLL 120650Z AUTO 16005KT 130V250 9999 NCD 15/13
                        Q1013 NOSIG=
201609120620 METAR COR EGLL 120620Z AUTO 16008KT 120V210 9999 SCT032 15/13
                        Q1013 NOSIG=
201609120550 METAR COR EGLL 120550Z AUTO 15007KT 100V200 9999 BKN033 14/12
                        Q1013 NOSIG=
201609120520 METAR COR EGLL 120520Z AUTO 15005KT 100V220 9999 FEW034 13/12
                        Q1013 NOSIG=
201609120450 METAR COR EGLL 120450Z AUTO 15004KT 9999 NCD 12/11 Q1013
                        NOSIG=
201609120420 METAR COR EGLL 120420Z AUTO 16005KT 9999 NCD 12/11 Q1013
                        NOSIG=
201609120350 METAR COR EGLL 120350Z AUTO 14004KT 100V180 9999 NCD 12/11
                        Q1013 NOSIG=
201609120320 METAR COR EGLL 120320Z AUTO 09003KT 9999 NCD 12/11 Q1013
                        NOSIG=
201609120250 METAR COR EGLL 120250Z AUTO VRB02KT 9999 NCD 12/11 Q1013
                        NOSIG=
201609120220 METAR COR EGLL 120220Z AUTO 15001KT 9999 NCD 12/11 Q1013
                        NOSIG=
201609120150 METAR COR EGLL 120150Z AUTO 15002KT 9999 NCD 12/11 Q1014
                        NOSIG=
201609120120 METAR COR EGLL 120120Z AUTO 13002KT 9999 NCD 12/11 Q1014
                        NOSIG=
201609120050 METAR COR EGLL 120050Z AUTO 15003KT 9999 NCD 13/11 Q1014
                        NOSIG=
201609120020 METAR COR EGLL 120020Z AUTO 14004KT 9999 NCD 13/11 Q1014
                        NOSIG=
201609112350 METAR COR EGLL 112350Z AUTO 16003KT 9999 NCD 13/11 Q1015
                        NOSIG=
201609112320 METAR COR EGLL 112320Z AUTO 14004KT 9999 NCD 13/10 Q1015
                        NOSIG=
201609112250 METAR COR EGLL 112250Z AUTO 16004KT 9999 NCD 13/10 Q1015
                        NOSIG=
201609112220 METAR COR EGLL 112220Z AUTO VRB03KT 9999 NCD 13/11 Q1015
                        NOSIG=
201609112150 METAR COR EGLL 112150Z AUTO 19006KT 090V260 9999 NCD 14/10
                        Q1015 NOSIG=
201609112120 METAR COR EGLL 112120Z AUTO 20007KT 140V240 9999 NCD 14/10
                        Q1015 NOSIG=
201609112050 METAR COR EGLL 112050Z AUTO 19007KT 140V250 9999 NCD 15/10
                        Q1015 NOSIG=
201609112020 METAR COR EGLL 112020Z AUTO 19008KT 150V250 9999 NCD 15/10
                        Q1015 NOSIG=
201609111950 METAR COR EGLL 111950Z AUTO 19007KT 150V240 9999 NCD 15/10
                        Q1016 NOSIG=
201609111920 METAR COR EGLL 111920Z AUTO 20008KT 150V240 9999 NCD 16/09
                        Q1015 NOSIG=
201609111850 METAR COR EGLL 111850Z AUTO 19008KT 140V240 9999 NCD 16/09
                        Q1015 NOSIG=
201609111820 METAR COR EGLL 111820Z AUTO 21009KT 180V240 9999 NCD 17/09
                        Q1015 NOSIG=
201609111750 METAR COR EGLL 111750Z AUTO 20010KT 170V230 9999 NCD 18/08
                        Q1015 NOSIG=
201609111720 METAR COR EGLL 111720Z AUTO 20010KT 160V240 9999 NCD 19/07
                        Q1015 NOSIG=
201609111650 METAR COR EGLL 111650Z AUTO 18010KT 150V220 9999 NCD 20/07
                        Q1015 NOSIG=
201609111620 METAR COR EGLL 111620Z AUTO 20010KT 170V250 9999 NCD 20/08
                        Q1015 NOSIG=
201609111550 METAR COR EGLL 111550Z AUTO 19007KT 140V250 9999 NCD 21/07
                        Q1016 NOSIG=
201609111520 METAR COR EGLL 111520Z AUTO 17007KT 130V250 9999 NCD 21/07
                        Q1016 NOSIG=
201609111450 METAR COR EGLL 111450Z AUTO 20008KT 150V250 9999 NCD 21/07
                        Q1016 NOSIG=
201609111420 METAR COR EGLL 111420Z AUTO 21009KT 160V250 9999 NCD 21/07
                        Q1016 NOSIG=
201609111350 METAR COR EGLL 111350Z AUTO VRB04KT 9999 FEW042 21/08 Q1017
                        NOSIG=
201609111320 METAR COR EGLL 111320Z AUTO 21007KT 170V250 9999 FEW040 20/09
                        Q1017 NOSIG=
201609111250 METAR COR EGLL 111250Z AUTO 22007KT 120V280 9999 SCT039 19/09
                        Q1017 NOSIG=
201609111220 METAR COR EGLL 111220Z AUTO 22007KT 170V250 9999 FEW041 20/09
                        Q1017 NOSIG=
201609111150 METAR COR EGLL 111150Z AUTO VRB05KT 9999 FEW036 19/09 Q1018
                        NOSIG=
201609111120 METAR COR EGLL 111120Z AUTO 15006KT 090V220 9999 NCD 19/09
                        Q1018 NOSIG=
201609111050 METAR COR EGLL 111050Z AUTO 20005KT 130V270 9999 NCD 18/10
                        Q1018 NOSIG=
201609111020 METAR COR EGLL 111020Z AUTO 18004KT 120V280 9999 NCD 17/09
                        Q1018 NOSIG=
201609110950 METAR COR EGLL 110950Z AUTO 20004KT 130V250 9999 NCD 17/10
                        Q1019 NOSIG=
201609110920 METAR COR EGLL 110920Z AUTO 14004KT 080V200 9999 NCD 16/09
                        Q1019 NOSIG=
201609110850 METAR COR EGLL 110850Z AUTO VRB03KT 9999 NCD 15/11 Q1019
                        NOSIG=
201609110820 METAR COR EGLL 110820Z AUTO VRB02KT 9999 NCD 13/11 Q1019
                        NOSIG=
201609110750 METAR COR EGLL 110750Z AUTO VRB03KT 9999 NCD 12/11 Q1019
                        NOSIG=
201609110720 METAR COR EGLL 110720Z AUTO VRB02KT 9999 NCD 12/11 Q1018
                        NOSIG=
201609110650 METAR COR EGLL 110650Z AUTO VRB03KT 9999 NCD 11/10 Q1018
                        NOSIG=
201609110620 METAR COR EGLL 110620Z AUTO 19004KT 9999 NCD 10/10 Q1018
                        NOSIG=
201609110550 METAR COR EGLL 110550Z 17004KT 140V210 9999 4000SW VCFG NSC
                        09/09 Q1018 TEMPO 4000 BR=
201609110520 METAR COR EGLL 110520Z VRB03KT 9999 R27L/0900 VCFG NSC 10/09
                        Q1017 TEMPO 4000 BR MIFG=
201609110450 METAR COR EGLL 110450Z VRB02KT CAVOK 10/09 Q1017 NOSIG=
201609110420 METAR COR EGLL 110420Z AUTO 25001KT 9999 NCD 10/09 Q1017
                        TEMPO 3500 BR MIFG=
201609110350 METAR COR EGLL 110350Z 27004KT CAVOK 10/10 Q1017 TEMPO 4000
                        BR MIFG=
201609110320 METAR COR EGLL 110320Z 27005KT CAVOK 10/10 Q1017 NOSIG=
201609110250 METAR COR EGLL 110250Z AUTO 26005KT 9999 NCD 10/09 Q1017
                        NOSIG=
201609110220 METAR COR EGLL 110220Z AUTO VRB02KT 9999 NCD 10/10 Q1017
                        NOSIG=
201609110150 METAR COR EGLL 110150Z AUTO 27003KT 9999 NCD 10/10 Q1016
                        NOSIG=
201609110120 METAR COR EGLL 110120Z AUTO 26004KT 9999 NCD 11/10 Q1016
                        NOSIG=
201609110050 METAR COR EGLL 110050Z AUTO 28006KT 9999 NCD 11/10 Q1016
                        NOSIG=
201609110020 METAR COR EGLL 110020Z AUTO 27006KT 9999 NCD 11/10 Q1016
                        NOSIG=
201609102350 METAR COR EGLL 102350Z AUTO 27006KT 9999 NCD 11/11 Q1015
                        NOSIG=
201609102320 METAR COR EGLL 102320Z AUTO 27007KT 9999 NCD 12/11 Q1015
                        NOSIG=
201609102250 METAR COR EGLL 102250Z AUTO 28008KT 9999 NCD 13/11 Q1015
                        NOSIG=
201609102220 METAR COR EGLL 102220Z AUTO 28008KT 9999 NCD 13/11 Q1015
                        NOSIG=
201609102150 METAR COR EGLL 102150Z AUTO 28007KT 9999 FEW040 14/12 Q1015
                        NOSIG=
201609102120 METAR COR EGLL 102120Z 28008KT 9999 SCT036 15/13 Q1014 NOSIG=
201609102050 METAR COR EGLL 102050Z 27011KT 9999 BKN030 16/12 Q1014 NOSIG=
201609102020 METAR COR EGLL 102020Z 27009KT 9999 SCT007 BKN030 16/15 Q1014
                        NOSIG=
201609101950 METAR COR EGLL 101950Z 27007KT 9999 SCT008 SCT014 BKN030
                        17/16 Q1013 TEMPO BKN010=
201609101920 METAR COR EGLL 101920Z AUTO 27007KT 9999 SCT007 BKN017 17/16
                        Q1013 TEMPO BKN010=
201609101850 METAR COR EGLL 101850Z AUTO 24008KT 9999 SCT007 BKN041 18/16
                        Q1012 TEMPO BKN010=
201609101820 METAR COR EGLL 101820Z AUTO 26008KT 9999 SCT039 17/16 Q1012
                        NOSIG=
201609101750 METAR COR EGLL 101750Z AUTO 25009KT 9999 BKN034 BKN048 18/16
                        Q1012 NOSIG=
201609101720 METAR COR EGLL 101720Z 26011KT 9999 -RA FEW005 BKN017 17/16
                        Q1011 TEMPO BKN010=
201609101650 METAR COR EGLL 101650Z 22010KT 190V250 9999 4000NW -RA SCT010
                        BKN016 18/17 Q1011 BECMG 28006KT
                        9999 NSW BKN010=
201609101620 METAR COR EGLL 101620Z AUTO 22011KT 9999 -RA OVC006 18/17
                        Q1011 TEMPO 3000 -RADZ BKN004=
201609101550 METAR COR EGLL 101550Z AUTO 21011KT 180V240 7000 -RA OVC007
                        18/17 Q1011 TEMPO 3500 -RADZ=
201609101520 METAR COR EGLL 101520Z 20010KT 160V240 9999 -RA BKN006 19/18
                        Q1011 TEMPO 3500 DZ BKN004=
201609101450 METAR COR EGLL 101450Z AUTO 18011KT 160V240 5000 -RADZ BKN004
                        OVC014 18/18 Q1011 TEMPO 3500 DZ=
201609101420 METAR COR EGLL 101420Z AUTO 19012KT 160V260 7000 -RADZ FEW005///
                        BKN006/// BKN011/// 18/17 Q1011 TEMPO
                        4000 -RADZ=
201609101350 METAR COR EGLL 101350Z 19011KT 160V230 9999 -RA FEW004 BKN006
                        BKN011 18/18 Q1011 TEMPO 8000=
201609101320 METAR COR EGLL 101320Z AUTO 20011KT 170V240 6000 -RA BKN004
                        19/18 Q1011 TEMPO 4000 -RADZ=
201609101250 METAR COR EGLL 101250Z AUTO 20012KT 4300 -DZ OVC008 19/17
                        Q1012 TEMPO 6000 BKN012=
201609101220 METAR COR EGLL 101220Z AUTO VRB12KT 9999 -RA BKN007 19/17
                        Q1012 NOSIG=
201609101150 METAR COR EGLL 101150Z AUTO 19012KT 9999 -RA BKN006/// //////TCU
                        19/17 Q1012 TEMPO 4000 RA=
201609101120 METAR COR EGLL 101120Z AUTO 19013KT 8000 -RA BKN007/// OVC019///
                        //////TCU 19/17 Q1012 TEMPO 4000
                        RA=
201609101050 METAR COR EGLL 101050Z AUTO 19013G24KT 9999 BKN008/// //////TCU
                        19/17 Q1012 TEMPO 4000 RA=
201609101020 METAR COR EGLL 101020Z AUTO 19012KT 9999 BKN008 19/17 Q1012
                        TEMPO 4000 RA=
201609100950 METAR COR EGLL 100950Z AUTO 19012KT 9999 BKN011 OVC035 19/17
                        Q1012 NOSIG=
201609100920 METAR COR EGLL 100920Z AUTO 19010KT 9999 BKN012 BKN028 19/17
                        Q1013 NOSIG=
201609100850 METAR COR EGLL 100850Z AUTO 20010KT 6000 -RA BKN010 BKN025
                        OVC041 18/17 Q1013 TEMPO 4000 -RADZ
                        BKN008=
201609100820 METAR COR EGLL 100820Z AUTO 20009KT 160V220 8000 -RA SCT012
                        BKN026 OVC043 18/17 Q1012 TEMPO 4000
                        -RADZ BKN010=
201609100750 METAR COR EGLL 100750Z AUTO 19009KT 160V220 9999 -RA OVC040
                        18/16 Q1012 TEMPO 4000 -RADZ BKN010=
201609100720 METAR COR EGLL 100720Z AUTO 21010KT 170V240 9999 -RA FEW015
                        OVC047 18/16 Q1012 TEMPO BKN014=
201609100650 METAR COR EGLL 100650Z AUTO 20010KT 9999 -RA SCT013/// SCT030///
                        //////TCU 18/16 Q1012 TEMPO RA BKN012=
201609100620 METAR COR EGLL 100620Z AUTO 19009KT 120V230 9999 -RA FEW015///
                        OVC037/// //////TCU 19/16 Q1012 TEMPO
                        RA BKN014=
201609100550 METAR COR EGLL 100550Z AUTO 19007KT 150V250 9999 -RA FEW016
                        BKN029 18/16 Q1012 TEMPO RA BKN014=
201609100520 METAR COR EGLL 100520Z AUTO 21007KT 180V270 9999 FEW017 OVC035
                        19/15 Q1012 TEMPO -RA BKN014=
201609100450 METAR COR EGLL 100450Z AUTO 19007KT 9999 FEW017 OVC042 19/15
                        Q1012 TEMPO -RA BKN014=
201609100420 METAR COR EGLL 100420Z AUTO 20009KT 9999 FEW017 OVC044 19/15
                        Q1012 TEMPO -RA BKN014=
201609100350 METAR COR EGLL 100350Z AUTO 20007KT 9999 FEW018 OVC046 19/15
                        Q1013 TEMPO -RA BKN014=
201609100320 METAR COR EGLL 100320Z AUTO 21009KT 9999 OVC049 18/15 Q1013
                        TEMPO -RA BKN014=
201609100250 METAR COR EGLL 100250Z AUTO 20010KT 9999 FEW017 18/15 Q1013
                        TEMPO -RA BKN014=
201609100220 METAR COR EGLL 100220Z AUTO 20009KT 9999 NCD 18/15 Q1013
                        NOSIG=
201609100150 METAR COR EGLL 100150Z AUTO 20008KT 9999 NCD 18/15 Q1013
                        NOSIG=
201609100120 METAR COR EGLL 100120Z AUTO 20009KT 9999 NCD 18/15 Q1013
                        NOSIG=
201609100050 METAR COR EGLL 100050Z AUTO 20009KT 9999 NCD 18/15 Q1013
                        NOSIG=
201609100020 METAR COR EGLL 100020Z AUTO 20009KT 9999 FEW019 18/15 Q1014
                        NOSIG=
201609092350 METAR COR EGLL 092350Z AUTO 20008KT 9999 NCD 18/15 Q1014
                        NOSIG=
201609092320 METAR COR EGLL 092320Z AUTO 19008KT 9999 NCD 18/15 Q1014
                        NOSIG=
201609092250 METAR COR EGLL 092250Z AUTO 19006KT 9999 SCT021 18/15 Q1014
                        NOSIG=
201609092220 METAR COR EGLL 092220Z AUTO 19007KT 150V240 9999 NCD 18/15
                        Q1014 NOSIG=
201609092150 METAR COR EGLL 092150Z AUTO 19009KT 160V230 9999 NCD 19/15
                        Q1014 NOSIG=
201609092120 METAR COR EGLL 092120Z AUTO 18009KT 150V250 9999 NCD 19/15
                        Q1014 NOSIG=
201609092050 METAR COR EGLL 092050Z AUTO 19009KT 160V240 9999 NCD 19/15
                        Q1014 NOSIG=
201609092020 METAR COR EGLL 092020Z AUTO 19011KT 160V240 9999 FEW039 OVC049
                        19/15 Q1014 NOSIG=
201609091950 METAR COR EGLL 091950Z AUTO 19010KT 170V250 9999 SCT028 20/15
                        Q1014 NOSIG=
201609091920 METAR COR EGLL 091920Z AUTO 20010KT 170V240 9999 BKN028 20/15
                        Q1014 NOSIG=
201609091850 METAR COR EGLL 091850Z AUTO 20011KT 170V240 9999 SCT030 20/15
                        Q1014 NOSIG=
201609091820 METAR COR EGLL 091820Z AUTO 21011KT 170V240 9999 FEW031 20/15
                        Q1014 NOSIG=
201609091750 METAR COR EGLL 091750Z AUTO 21012KT 9999 SCT033 20/15 Q1014
                        NOSIG=
201609091720 METAR COR EGLL 091720Z AUTO 21014KT 9999 BKN022 BKN038 21/16
                        Q1014 NOSIG=
201609091650 METAR COR EGLL 091650Z AUTO 21014KT 9999 BKN022 21/15 Q1014
                        NOSIG=
201609091620 METAR COR EGLL 091620Z AUTO 22015KT 190V250 9999 BKN019 21/15
                        Q1014 NOSIG=
201609091550 METAR COR EGLL 091550Z AUTO 21015KT 170V230 9999 BKN020 21/15
                        Q1014 NOSIG=
201609091520 METAR COR EGLL 091520Z AUTO 21014G25KT 180V240 9999 BKN020
                        BKN041 21/15 Q1014 NOSIG=
201609091450 METAR COR EGLL 091450Z AUTO 20014KT 9999 BKN019 22/15 Q1014
                        NOSIG=
201609091420 METAR COR EGLL 091420Z AUTO 21013KT 190V250 9999 -RA BKN020
                        BKN036 21/16 Q1014 NOSIG=
201609091350 METAR COR EGLL 091350Z AUTO 20016KT 9999 -RA BKN025 OVC039
                        21/15 Q1014 NOSIG=
201609091320 METAR COR EGLL 091320Z AUTO 22016KT 9999 SCT026 BKN041 22/15
                        Q1014 NOSIG=
201609091250 METAR COR EGLL 091250Z AUTO 21016KT 9999 SCT025 BKN040 22/15
                        Q1014 NOSIG=
201609091220 METAR COR EGLL 091220Z AUTO 21016KT 9999 SCT026 BKN043 23/15
                        Q1014 NOSIG=
201609091150 METAR COR EGLL 091150Z AUTO 21014KT 9999 SCT025 BKN041 23/15
                        Q1015 NOSIG=
201609091120 METAR COR EGLL 091120Z AUTO 20014KT 9999 FEW025 BKN049 22/15
                        Q1015 NOSIG=
201609091050 METAR COR EGLL 091050Z AUTO 20015KT 9999 FEW025 22/14 Q1015
                        NOSIG=
201609091020 METAR COR EGLL 091020Z AUTO 22014G24KT 9999 SCT024 21/14
                        Q1015 NOSIG=
201609090950 METAR COR EGLL 090950Z AUTO 20012KT 160V240 9999 SCT021 21/14
                        Q1015 NOSIG=
201609090920 METAR COR EGLL 090920Z AUTO 20012KT 9999 SCT019 20/15 Q1016
                        NOSIG=
201609090850 METAR COR EGLL 090850Z 20014KT 9999 BKN028 20/15 Q1016 NOSIG=
201609090820 METAR COR EGLL 090820Z 20010KT 140V230 9999 BKN014 19/15
                        Q1015 BECMG SCT014=
201609090750 METAR COR EGLL 090750Z 22008KT 190V250 9999 FEW016 BKN018
                        18/15 Q1015 NOSIG=
201609090720 METAR COR EGLL 090720Z 21008KT 9999 BKN011 18/15 Q1015 BECMG
                        FEW011=
201609090650 METAR COR EGLL 090650Z 21008KT 170V240 9999 FEW010 BKN013
                        17/15 Q1015 BECMG FEW013=
201609090620 METAR COR EGLL 090620Z 20010KT 9999 FEW009 BKN014 17/15 Q1015
                        TEMPO SCT014=
201609090550 METAR COR EGLL 090550Z 20009KT 9999 SCT010 BKN015 17/15 Q1015
                        TEMPO BKN008=
201609090520 METAR COR EGLL 090520Z 21008KT 190V250 9999 SCT012 BKN018
                        17/15 Q1015 TEMPO BKN008=
201609090450 METAR COR EGLL 090450Z 21009KT 9999 FEW010 BKN022 16/15 Q1015
                        TEMPO BKN010=
201609090420 METAR COR EGLL 090420Z 21011KT 9999 BKN022 BKN032 16/15 Q1015
                        TEMPO BKN014=
201609090350 METAR COR EGLL 090350Z AUTO 21010KT 9999 BKN023 OVC039 17/14
                        Q1015 TEMPO BKN014=
201609090320 METAR COR EGLL 090320Z AUTO 20010KT 9999 BKN018 OVC034 17/14
                        Q1015 NOSIG=
201609090250 METAR COR EGLL 090250Z AUTO 20009KT 9999 FEW020 BKN027 OVC039
                        17/14 Q1015 NOSIG=
201609090220 METAR COR EGLL 090220Z AUTO 19008KT 9999 FEW022 BKN045 16/14
                        Q1015 NOSIG=
201609090150 METAR COR EGLL 090150Z AUTO 19007KT 9999 FEW023 OVC034 16/14
                        Q1015 NOSIG=
201609090120 METAR COR EGLL 090120Z AUTO 20008KT 9999 FEW020 15/13 Q1015
                        NOSIG=
201609090050 METAR COR EGLL 090050Z AUTO 19008KT 9999 BKN019 15/13 Q1015
                        NOSIG=
201609090020 METAR COR EGLL 090020Z AUTO 17006KT 9999 OVC018 15/13 Q1015
                        NOSIG=
201609082350 METAR COR EGLL 082350Z AUTO 18006KT 9999 SCT020 15/12 Q1016
                        NOSIG=
201609082320 METAR COR EGLL 082320Z AUTO 18006KT 9999 FEW048 15/12 Q1016
                        NOSIG=
201609082250 METAR COR EGLL 082250Z AUTO 20006KT 9999 FEW046 16/12 Q1016
                        NOSIG=
201609082220 METAR COR EGLL 082220Z AUTO 21009KT 190V250 9999 NCD 16/12
                        Q1015 NOSIG=
201609082150 METAR COR EGLL 082150Z AUTO 22008KT 9999 NCD 16/12 Q1015
                        NOSIG=
201609082120 METAR COR EGLL 082120Z AUTO 23009KT 9999 NCD 17/12 Q1015
                        NOSIG=
201609082050 METAR COR EGLL 082050Z AUTO 22010KT 9999 NCD 17/12 Q1015
                        NOSIG=
201609082020 METAR COR EGLL 082020Z AUTO 22010KT 9999 NCD 17/12 Q1015
                        NOSIG=
201609081950 METAR COR EGLL 081950Z AUTO 23011KT 9999 NCD 18/12 Q1015
                        NOSIG=
201609081920 METAR COR EGLL 081920Z AUTO 23010KT 9999 SCT045 18/11 Q1014
                        NOSIG=
201609081850 METAR COR EGLL 081850Z AUTO 25009KT 9999 NCD 19/10 Q1014
                        NOSIG=
201609081820 METAR COR EGLL 081820Z AUTO 25011KT 9999 NCD 20/10 Q1014
                        NOSIG=
201609081750 METAR COR EGLL 081750Z AUTO 25012KT 9999 NCD 20/09 Q1013
                        NOSIG=
201609081720 METAR COR EGLL 081720Z AUTO 25013KT 9999 FEW048 21/09 Q1013
                        NOSIG=
201609081650 METAR COR EGLL 081650Z AUTO 27013KT 9999 FEW045 21/10 Q1013
                        NOSIG=
201609081620 METAR COR EGLL 081620Z AUTO 27013KT 9999 BKN047 22/10 Q1013
                        NOSIG=
201609081550 METAR COR EGLL 081550Z AUTO 27013KT 9999 SCT046 22/10 Q1013
                        NOSIG=
201609081520 METAR COR EGLL 081520Z AUTO 26015KT 230V290 9999 SCT045 22/10
                        Q1013 NOSIG=
201609081450 METAR COR EGLL 081450Z AUTO 27014KT 9999 BKN044 22/11 Q1013
                        NOSIG=
201609081420 METAR EGLL 081420Z AUTO 27015KT 9999 BKN045 21/10 Q1012=
201609081350 METAR COR EGLL 081350Z AUTO 26014G24KT 9999 BKN044 22/10
                        Q1012 NOSIG=
201609081320 METAR COR EGLL 081320Z AUTO 26013KT 9999 BKN045 22/10 Q1012
                        NOSIG=
201609081250 METAR COR EGLL 081250Z AUTO 26015KT 9999 FEW045 23/10 Q1012
                        NOSIG=
201609081220 METAR COR EGLL 081220Z AUTO 27016KT 9999 FEW042 22/10 Q1012
                        NOSIG=
201609081150 METAR COR EGLL 081150Z AUTO 25016KT 9999 FEW040 23/10 Q1011
                        NOSIG=
201609081120 METAR COR EGLL 081120Z AUTO 26017KT 230V300 9999 FEW038 22/11
                        Q1011 NOSIG=
201609081050 METAR COR EGLL 081050Z AUTO 27014KT 9999 FEW033 22/11 Q1011
                        NOSIG=
201609081020 METAR COR EGLL 081020Z AUTO 26015KT 9999 SCT027 22/12 Q1011
                        NOSIG=
201609080950 METAR COR EGLL 080950Z AUTO 27014KT 250V310 9999 FEW029 21/13
                        Q1010 NOSIG=
201609080920 METAR COR EGLL 080920Z AUTO 26012KT 9999 FEW020 20/14 Q1010
                        NOSIG=
201609080850 METAR COR EGLL 080850Z AUTO 27011KT 9999 SCT014 20/14 Q1010
                        NOSIG=
201609080820 METAR COR EGLL 080820Z AUTO 28013KT 9999 BKN013 19/15 Q1010
                        BECMG FEW013=
201609080750 METAR COR EGLL 080750Z AUTO 24010G20KT 210V290 9999 SCT014
                        19/15 Q1010 TEMPO BKN014=
201609080720 METAR COR EGLL 080720Z AUTO 24010KT 9999 NCD 18/15 Q1009
                        TEMPO BKN014=
201609080650 METAR COR EGLL 080650Z AUTO 20005KT 150V250 9999 NCD 17/14
                        Q1008 NOSIG=
201609080620 METAR COR EGLL 080620Z AUTO VRB03KT 9999 NCD 17/14 Q1007
                        NOSIG=
201609080550 METAR COR EGLL 080550Z AUTO 17005KT 140V240 9999 NCD 17/14
                        Q1007 NOSIG=
201609080520 METAR COR EGLL 080520Z AUTO VRB05KT 9999 NCD 17/14 Q1008
                        NOSIG=
201609080450 METAR COR EGLL 080450Z AUTO 15003KT 9999 NCD 16/13 Q1008
                        NOSIG=
201609080420 METAR COR EGLL 080420Z AUTO 09003KT 9999 NCD 15/13 Q1008
                        NOSIG=
201609080350 METAR COR EGLL 080350Z AUTO 09003KT 9999 NCD 16/13 Q1008
                        NOSIG=
201609080320 METAR COR EGLL 080320Z AUTO VRB03KT 9999 NCD 16/13 Q1009
                        NOSIG=
201609080250 METAR COR EGLL 080250Z AUTO 07002KT 9999 NCD 17/13 Q1009
                        NOSIG=
201609080220 METAR COR EGLL 080220Z AUTO 08004KT 9999 NCD 16/13 Q1009
                        NOSIG=
201609080150 METAR COR EGLL 080150Z AUTO 08003KT 9999 NCD 16/13 Q1010
                        NOSIG=
201609080120 METAR COR EGLL 080120Z AUTO VRB03KT 9999 NCD 17/13 Q1010
                        NOSIG=
201609080050 METAR COR EGLL 080050Z AUTO 09005KT 9999 NCD 18/13 Q1010
                        NOSIG=
201609080020 METAR COR EGLL 080020Z AUTO 09005KT 9999 NCD 17/13 Q1011
                        NOSIG=
201609072350 METAR COR EGLL 072350Z AUTO 09006KT 9999 NCD 18/13 Q1011
                        NOSIG=
201609072320 METAR COR EGLL 072320Z AUTO 10007KT 9999 NCD 19/13 Q1012
                        NOSIG=
201609072250 METAR COR EGLL 072250Z AUTO 10007KT 9999 NCD 18/13 Q1012
                        NOSIG=
201609072220 METAR COR EGLL 072220Z AUTO 11006KT 9999 NCD 19/14 Q1012
                        NOSIG=
201609072150 METAR COR EGLL 072150Z AUTO 12005KT 010V170 9999 NCD 21/14
                        Q1013 NOSIG=
201609072120 METAR COR EGLL 072120Z AUTO 13007KT 090V200 9999 NCD 22/14
                        Q1013 NOSIG=
201609072050 METAR COR EGLL 072050Z AUTO 13006KT 070V210 9999 NCD 22/13
                        Q1013 NOSIG=
201609072020 METAR COR EGLL 072020Z AUTO 12006KT 090V210 9999 NCD 22/13
                        Q1013 NOSIG=
201609071950 METAR COR EGLL 071950Z AUTO 16006KT 080V220 9999 NCD 23/13
                        Q1013 NOSIG=
201609071920 METAR COR EGLL 071920Z AUTO 15005KT 080V240 9999 NCD 23/13
                        Q1013=
201609071850 METAR COR EGLL 071850Z AUTO 16006KT 120V220 9999 NCD 24/13
                        Q1013 NOSIG=
201609071820 METAR COR EGLL 071820Z AUTO 17007KT 120V230 9999 NCD 24/13
                        Q1014 NOSIG=
201609071750 METAR COR EGLL 071750Z AUTO 15008KT 120V220 9999 NCD 25/13
                        Q1014 NOSIG=
201609071720 METAR COR EGLL 071720Z AUTO 15007KT 120V210 9999 NCD 26/13
                        Q1014 NOSIG=
201609071650 METAR COR EGLL 071650Z AUTO 16007KT 100V220 9999 NCD 26/13
                        Q1014 NOSIG=
201609071620 METAR COR EGLL 071620Z AUTO 17006KT 090V220 9999 NCD 27/13
                        Q1015 NOSIG=
201609071550 METAR COR EGLL 071550Z AUTO 16006KT 130V260 9999 NCD 27/14
                        Q1015 NOSIG=
201609071520 METAR COR EGLL 071520Z AUTO 17007KT 120V240 9999 NCD 27/15
                        Q1015 NOSIG=
201609071450 METAR COR EGLL 071450Z AUTO 17006KT 110V240 9999 NCD 27/15
                        Q1016 NOSIG=
201609071420 METAR COR EGLL 071420Z AUTO 21006KT 170V250 9999 FEW035 27/16
                        Q1016 NOSIG=
201609071350 METAR COR EGLL 071350Z AUTO 17006KT 130V270 9999 FEW038 26/17
                        Q1017 NOSIG=
201609071320 METAR COR EGLL 071320Z AUTO 26004KT 210V320 9999 FEW027 26/17
                        Q1017 NOSIG=
201609071250 METAR COR EGLL 071250Z 18005KT 090V260 9999 FEW029 BKN031
                        25/18 Q1017 NOSIG=
201609071220 METAR COR EGLL 071220Z VRB04KT 9999 SCT029 BKN034 24/17 Q1018
                        NOSIG=
201609071150 METAR COR EGLL 071150Z 14005KT 090V210 9999 SCT023 BKN031
                        24/17 Q1018 NOSIG=
201609071120 METAR COR EGLL 071120Z 17005KT 140V200 9999 FEW015 BKN027
                        23/17 Q1018 NOSIG=
201609071050 METAR COR EGLL 071050Z AUTO VRB03KT 9999 FEW012 OVC025 22/18
                        Q1019 NOSIG=
201609071020 METAR COR EGLL 071020Z VRB03KT 9999 SCT012 OVC025 21/18 Q1019
                        NOSIG=
201609070950 METAR COR EGLL 070950Z 14005KT 9999 SCT009 OVC022 20/18 Q1019
                        NOSIG=
201609070920 METAR COR EGLL 070920Z AUTO 13005KT 9999 SCT009 OVC019 20/18
                        Q1019 NOSIG=
201609070850 METAR COR EGLL 070850Z 13005KT 090V160 9999 FEW009 OVC022
                        20/17 Q1019 NOSIG=
201609070820 METAR COR EGLL 070820Z AUTO 10004KT 9000 BKN009 19/17 Q1020
                        BECMG SCT020=
201609070750 METAR COR EGLL 070750Z AUTO 08004KT 9999 -RA BKN009 19/17
                        Q1020 BECMG BKN015=
201609070720 METAR COR EGLL 070720Z AUTO 04003KT 9999 SCT009 OVC021 19/16
                        Q1020 TEMPO BKN010=
201609070650 METAR COR EGLL 070650Z AUTO VRB03KT 9999 FEW013 OVC022 19/16
                        Q1021 TEMPO BKN013=
201609070620 METAR COR EGLL 070620Z AUTO VRB02KT 9999 FEW014 OVC022 19/16
                        Q1021 NOSIG=
201609070550 METAR COR EGLL 070550Z AUTO VRB02KT 9999 OVC021 19/16 Q1020
                        NOSIG=
201609070520 METAR COR EGLL 070520Z AUTO VRB03KT 9999 OVC021 19/16 Q1020
                        NOSIG=
201609070450 METAR COR EGLL 070450Z AUTO VRB02KT 9999 OVC020 19/16 Q1020
                        NOSIG=
201609070420 METAR COR EGLL 070420Z AUTO VRB02KT 9999 OVC021 19/16 Q1021
                        NOSIG=
201609070350 METAR COR EGLL 070350Z AUTO VRB01KT 9999 OVC022 19/16 Q1021
                        NOSIG=
201609070320 METAR COR EGLL 070320Z AUTO 09001KT 9999 FEW016 OVC022 19/16
                        Q1021 NOSIG=
201609070250 METAR COR EGLL 070250Z AUTO 08001KT 9999 BKN015 18/16 Q1021
                        NOSIG=
201609070220 METAR COR EGLL 070220Z AUTO 30001KT 9999 OVC022 19/16 Q1021
                        NOSIG=
201609070150 METAR COR EGLL 070150Z AUTO 30001KT 9999 OVC021 19/16 Q1022
                        NOSIG=
201609070120 METAR COR EGLL 070120Z AUTO 32002KT 9999 OVC018 19/16 Q1022
                        NOSIG=
201609070050 METAR COR EGLL 070050Z AUTO VRB01KT 9999 OVC017 19/16 Q1022
                        NOSIG=
201609070020 METAR COR EGLL 070020Z AUTO VRB01KT 9999 OVC016 19/16 Q1022
                        NOSIG=
201609062350 METAR COR EGLL 062350Z AUTO 18003KT 9999 OVC016 19/16 Q1022
                        NOSIG=
201609062320 METAR COR EGLL 062320Z AUTO 17003KT 9999 BKN018 18/16 Q1022
                        NOSIG=
201609062250 METAR COR EGLL 062250Z 17005KT 9999 FEW018 19/16 Q1022 NOSIG=
201609062220 METAR COR EGLL 062220Z 18006KT 9999 FEW020 19/16 Q1022 NOSIG=
201609062150 METAR COR EGLL 062150Z AUTO 18008KT 140V230 9999 OVC018 20/17
                        Q1023 NOSIG=
201609062120 METAR COR EGLL 062120Z AUTO 20008KT 150V240 9999 OVC024 20/17
                        Q1023 NOSIG=
201609062050 METAR COR EGLL 062050Z AUTO 19008KT 140V240 9999 OVC022 20/17
                        Q1023 NOSIG=
201609062020 METAR COR EGLL 062020Z AUTO 20008KT 160V240 9999 OVC020 21/18
                        Q1023 NOSIG=
201609061950 METAR COR EGLL 061950Z AUTO 23007KT 190V260 9999 OVC020 22/18
                        Q1023 NOSIG=
201609061920 METAR COR EGLL 061920Z AUTO 23006KT 190V270 9999 OVC021 22/17
                        Q1023 NOSIG=
201609061850 METAR COR EGLL 061850Z AUTO 23006KT 180V260 9999 OVC021 22/17
                        Q1022 NOSIG=
201609061820 METAR COR EGLL 061820Z AUTO 22005KT 170V250 9999 OVC021 22/17
                        Q1022 NOSIG=
201609061750 METAR COR EGLL 061750Z AUTO 20006KT 120V260 9999 OVC022 22/17
                        Q1022 NOSIG=
201609061720 METAR COR EGLL 061720Z AUTO 20004KT 140V250 9999 OVC020 22/18
                        Q1023 NOSIG=
201609061650 METAR COR EGLL 061650Z AUTO 24005KT 190V290 9999 OVC021 23/18
                        Q1023 NOSIG=
201609061620 METAR COR EGLL 061620Z AUTO 21006KT 170V260 9999 OVC020 23/18
                        Q1023 NOSIG=
201609061550 METAR COR EGLL 061550Z AUTO 23006KT 180V270 9999 OVC019 22/18
                        Q1023 NOSIG=
201609061520 METAR COR EGLL 061520Z AUTO 26006KT 210V290 9999 OVC019 23/18
                        Q1023 NOSIG=
201609061450 METAR EGLL 061450Z AUTO 25007KT 180V280 9999 OVC020 23/18
                        Q1023=
201609061420 METAR COR EGLL 061420Z AUTO 26008KT 9999 OVC019 22/18 Q1024
                        NOSIG=
201609061350 METAR COR EGLL 061350Z AUTO 23006KT 180V260 9999 OVC020 23/18
                        Q1024 NOSIG=
201609061320 METAR COR EGLL 061320Z AUTO 21005KT 160V250 9999 OVC024 24/18
                        Q1024 NOSIG=
201609061250 METAR COR EGLL 061250Z AUTO 23007KT 200V260 9999 OVC016 23/18
                        Q1024 NOSIG=
201609061220 METAR COR EGLL 061220Z AUTO 22007KT 9999 OVC015 23/18 Q1024
                        NOSIG=
201609061150 METAR COR EGLL 061150Z 23006KT 9999 OVC017 23/19 Q1024 NOSIG=
201609061120 METAR COR EGLL 061120Z 25007KT 200V280 9999 BKN014 23/19
                        Q1024 BECMG BKN015=
201609061050 METAR COR EGLL 061050Z 24007KT 9999 BKN014 22/19 Q1024 BECMG
                        BKN015=
201609061020 METAR COR EGLL 061020Z 22006KT 180V270 9999 BKN014 22/19
                        Q1024 BECMG BKN015=
201609060950 METAR COR EGLL 060950Z 22008KT 190V250 9999 BKN014 23/19
                        Q1024 BECMG BKN015=
201609060920 METAR COR EGLL 060920Z AUTO 22007KT 9999 OVC009 22/19 Q1024
                        BECMG BKN015=
201609060850 METAR COR EGLL 060850Z AUTO 24006KT 9999 BKN006 BKN015 OVC041
                        21/19 Q1024 BECMG BKN015=
201609060820 METAR COR EGLL 060820Z 23006KT 190V270 9999 5000NE HZ OVC006
                        21/19 Q1024 TEMPO 4000 BR SCT006=
201609060750 METAR COR EGLL 060750Z AUTO 23006KT 9999 OVC006 20/19 Q1024
                        TEMPO BKN010=
201609060720 METAR COR EGLL 060720Z AUTO 23005KT 180V260 9999 OVC006 20/19
                        Q1024 TEMPO BKN010=
201609060650 METAR COR EGLL 060650Z AUTO 23006KT 200V260 9999 OVC007 20/19
                        Q1024 TEMPO BKN010=
201609060620 METAR COR EGLL 060620Z AUTO 23006KT 9999 BKN006 20/19 Q1024
                        TEMPO BKN010=
201609060550 METAR COR EGLL 060550Z AUTO 23006KT 9999 BKN006 OVC015 20/19
                        Q1023 TEMPO SCT006 BKN012=
201609060520 METAR COR EGLL 060520Z AUTO 23006KT 9999 SCT006 OVC015 20/19
                        Q1023 TEMPO BKN006=
201609060450 METAR COR EGLL 060450Z 24007KT 9999 FEW008 SCT018 20/19 Q1023
                        TEMPO BKN008=
201609060420 METAR EGLL 060420Z 24007KT 9999 FEW009 SCT014 20/19 Q1023=
201609060350 METAR COR EGLL 060350Z 23006KT 9999 FEW007 BKN014 20/19 Q1023
                        TEMPO BKN007=
201609060320 METAR COR EGLL 060320Z 23006KT 9999 FEW005 SCT008 20/19 Q1023
                        TEMPO BKN004=
201609060250 METAR COR EGLL 060250Z AUTO 24005KT 9999 BKN005 OVC014 20/19
                        Q1023 TEMPO SCT005 BKN014=
201609060220 METAR COR EGLL 060220Z AUTO 24006KT 7000 BKN004 OVC013 20/19
                        Q1023 TEMPO SCT004 BKN013=
201609060150 METAR COR EGLL 060150Z AUTO 24007KT 9999 BKN008 20/19 Q1023
                        TEMPO SCT008 BKN012=
201609060120 METAR COR EGLL 060120Z AUTO 25006KT 9999 BKN013 20/19 Q1023
                        TEMPO BKN009=
201609060050 METAR COR EGLL 060050Z 23006KT 9999 FEW009 SCT014 20/19 Q1023
                        TEMPO BKN012=
201609060020 METAR COR EGLL 060020Z 23006KT 9999 FEW008 SCT014 20/19 Q1023
                        TEMPO BKN012=
201609052350 METAR COR EGLL 052350Z 23008KT 9000 FEW009 SCT012 21/19 Q1023
                        TEMPO BKN012=
201609052320 METAR COR EGLL 052320Z AUTO 23005KT 9999 OVC008 21/19 Q1023
                        TEMPO SCT008 BKN012=
201609052250 METAR COR EGLL 052250Z 24007KT 9999 SCT012 21/19 Q1022 TEMPO
                        BKN012=
201609052220 METAR COR EGLL 052220Z 24007KT 9999 SCT019 21/19 Q1022 TEMPO
                        BKN014=
201609052150 METAR COR EGLL 052150Z 24007KT 9999 FEW022 21/19 Q1022 TEMPO
                        BKN012=
201609052120 METAR COR EGLL 052120Z AUTO 23007KT 200V260 9999 OVC018 21/19
                        Q1022 TEMPO BKN012=
201609052050 METAR COR EGLL 052050Z AUTO 24006KT 9999 OVC017 21/20 Q1022
                        TEMPO BKN012=
201609052020 METAR COR EGLL 052020Z AUTO 23007KT 9999 OVC021 21/19 Q1022
                        TEMPO BKN012=
201609051950 METAR COR EGLL 051950Z AUTO 24006KT 200V280 9999 OVC024 21/20
                        Q1021 TEMPO BKN012=
201609051920 METAR COR EGLL 051920Z AUTO 23007KT 9999 -RA BKN011 OVC024
                        21/20 Q1021 TEMPO SCT011 BKN016=
201609051850 METAR COR EGLL 051850Z AUTO 24007KT 9999 BKN012 OVC025 21/19
                        Q1021 TEMPO SCT012 BKN018=
201609051820 METAR COR EGLL 051820Z 23007KT 210V270 9999 VCSH SCT015 BKN020
                        22/19 Q1020 TEMPO BKN014=
201609051750 METAR EGLL 051750Z 24008KT 9999 SCT014 BKN018 22/19 Q1020=
201609051720 METAR COR EGLL 051720Z AUTO 25007KT 9999 OVC016 22/19 Q1020
                        NOSIG=
201609051650 METAR COR EGLL 051650Z AUTO 24009KT 9999 OVC018 22/19 Q1020
                        NOSIG=
201609051620 METAR COR EGLL 051620Z AUTO 24007KT 190V270 9999 BKN018 OVC044
                        22/18 Q1020 NOSIG=
201609051550 METAR COR EGLL 051550Z AUTO 24007KT 9999 BKN015 OVC026 22/18
                        Q1019 NOSIG=
201609051520 METAR COR EGLL 051520Z AUTO 24006KT 9999 OVC016 22/18 Q1019
                        NOSIG=
201609051450 METAR COR EGLL 051450Z 25007KT 210V290 9999 SCT013 BKN026
                        22/18 Q1019 NOSIG=
201609051420 METAR COR EGLL 051420Z 25007KT 210V280 9999 SCT013 BKN032
                        21/18 Q1019 NOSIG=
201609051350 METAR COR EGLL 051350Z 24006KT 210V270 9999 SCT015 SCT021
                        21/18 Q1019 TEMPO BKN014=
201609051320 METAR COR EGLL 051320Z 24006KT 200V300 9999 SCT010 BKN014
                        21/18 Q1019 TEMPO BKN009=
201609051250 METAR COR EGLL 051250Z 24005KT 9999 FEW008 BKN010 20/17 Q1019
                        TEMPO BKN009=
201609051220 METAR COR EGLL 051220Z 20005KT 160V240 9999 FEW007 BKN009
                        19/17 Q1019 TEMPO BKN010=
201609051150 METAR COR EGLL 051150Z 18006KT 9999 FEW007 BKN010 19/17 Q1019
                        TEMPO BKN008=
201609051120 METAR COR EGLL 051120Z 16006KT 9999 FEW006 BKN008 18/16 Q1019
                        TEMPO BKN010=
201609051050 METAR COR EGLL 051050Z 14005KT 9999 FEW006 BKN008 17/16 Q1019
                        TEMPO BKN010=
201609051020 METAR COR EGLL 051020Z 15005KT 9999 FEW006 BKN008 17/15 Q1019
                        NOSIG=
201609050950 METAR COR EGLL 050950Z 14006KT 9999 FEW006 BKN007 16/15 Q1019
                        NOSIG=
201609050920 METAR COR EGLL 050920Z 13005KT 100V160 9999 FEW005 BKN007
                        16/15 Q1018 TEMPO BKN010=
201609050850 METAR COR EGLL 050850Z 13005KT 9999 FEW005 BKN008 15/15 Q1018
                        NOSIG=
201609050820 METAR COR EGLL 050820Z 13003KT 7000 FEW004 SCT006 BKN009
                        15/14 Q1018 NOSIG=
201609050750 METAR COR EGLL 050750Z 13005KT 6000 -RA FEW003 SCT005 BKN009
                        15/14 Q1018 TEMPO FEW008 BKN010=
201609050720 METAR COR EGLL 050720Z 13006KT 8000 -RA FEW003 SCT006 BKN017
                        14/13 Q1018 TEMPO BKN008=
201609050650 METAR COR EGLL 050650Z AUTO 13006KT 5000 -DZ FEW004 BKN010
                        14/13 Q1018 TEMPO BKN008=
201609050620 METAR COR EGLL 050620Z AUTO 14005KT 080V190 8000 -RA SCT004///
                        BKN014/// //////TCU 14/13 Q1018 TEMPO
                        RA BKN008=
201609050550 METAR COR EGLL 050550Z AUTO 16006KT 110V200 5000 -RA FEW004
                        BKN015 OVC027 14/13 Q1018 TEMPO BKN008=
201609050520 METAR COR EGLL 050520Z AUTO 18006KT 140V220 6000 -RA FEW005
                        BKN021 OVC035 14/13 Q1018 TEMPO BKN006=
201609050450 METAR COR EGLL 050450Z AUTO 19008G22KT 7000 -RA SCT005 BKN019
                        15/14 Q1017 TEMPO BKN006=
201609050420 METAR COR EGLL 050420Z AUTO 17004KT 130V220 9000 -RA SCT041
                        15/14 Q1017 NOSIG=
201609050350 METAR COR EGLL 050350Z AUTO 16004KT 150V210 9999 -RA //////TCU
                        15/14 Q1017 NOSIG=
201609050320 METAR COR EGLL 050320Z AUTO 17002KT 9999 -RA NCD 15/14 Q1018
                        NOSIG=
201609050250 METAR COR EGLL 050250Z AUTO 20003KT 9999 OVC049 15/14 Q1018
                        NOSIG=
201609050220 METAR COR EGLL 050220Z AUTO VRB03KT 9999 NCD 15/14 Q1018
                        NOSIG=
201609050150 METAR COR EGLL 050150Z AUTO 25003KT 9999 -RA NCD 15/14 Q1018
                        NOSIG=
201609050120 METAR COR EGLL 050120Z AUTO 24005KT 9999 -RA NCD 15/14 Q1017
                        NOSIG=
201609050050 METAR COR EGLL 050050Z AUTO 25005KT 9999 -RA //////TCU 15/13
                        Q1017 NOSIG=
201609050020 METAR COR EGLL 050020Z AUTO 25008KT 9999 -RA NCD 15/13 Q1017
                        NOSIG=
201609042350 METAR COR EGLL 042350Z AUTO 26006KT 9999 -RA NCD 15/13 Q1017
                        NOSIG=
201609042320 METAR COR EGLL 042320Z AUTO 25009KT 9999 -RA NCD 15/13 Q1017
                        NOSIG=
201609042250 METAR COR EGLL 042250Z AUTO 26008KT 9999 -RA NCD 16/13 Q1017
                        NOSIG=
201609042220 METAR COR EGLL 042220Z AUTO 27007KT 9999 -RA NCD 16/13 Q1017
                        NOSIG=
201609042150 METAR COR EGLL 042150Z AUTO 26007KT 9999 -RA NCD 16/13 Q1017
                        NOSIG=
201609042120 METAR COR EGLL 042120Z AUTO 27007KT 9999 -RA NCD 17/14 Q1017
                        NOSIG=
201609042050 METAR COR EGLL 042050Z AUTO 27008KT 9999 NCD 17/13 Q1016
                        NOSIG=
201609042020 METAR COR EGLL 042020Z AUTO 25009KT 9999 FEW027 17/13 Q1016
                        NOSIG=
201609041950 METAR COR EGLL 041950Z AUTO 25009KT 9999 FEW024 17/13 Q1016
                        NOSIG=
201609041920 METAR COR EGLL 041920Z AUTO 27008KT 9999 FEW029 18/14 Q1016
                        NOSIG=
201609041850 METAR COR EGLL 041850Z AUTO 27008KT 9999 SCT026 18/14 Q1016
                        NOSIG=
201609041820 METAR COR EGLL 041820Z AUTO 26009KT 9999 BKN025 18/14 Q1015
                        NOSIG=
201609041750 METAR COR EGLL 041750Z AUTO 27009KT 9999 BKN027 19/13 Q1015
                        NOSIG=
201609041720 METAR COR EGLL 041720Z AUTO 27008KT 9999 BKN027 BKN047 19/13
                        Q1015 NOSIG=
201609041650 METAR COR EGLL 041650Z AUTO 27010KT 9999 BKN030 BKN045 19/13
                        Q1015 NOSIG=
201609041620 METAR COR EGLL 041620Z AUTO 27011KT 9999 FEW032 OVC040 19/13
                        Q1015 NOSIG=
201609041550 METAR COR EGLL 041550Z AUTO 26013KT 9999 BKN031 19/13 Q1015
                        NOSIG=
201609041520 METAR COR EGLL 041520Z AUTO 28012KT 9999 BKN030 20/13 Q1014
                        NOSIG=
201609041450 METAR COR EGLL 041450Z AUTO 27013KT 9999 OVC030 20/13 Q1014
                        NOSIG=
201609041420 METAR COR EGLL 041420Z AUTO 28012KT 9999 BKN029 21/13 Q1014
                        NOSIG=
201609041350 METAR COR EGLL 041350Z AUTO 27014KT 9999 OVC028 19/13 Q1014
                        NOSIG=
201609041320 METAR COR EGLL 041320Z AUTO 27013KT 9999 OVC027 19/13 Q1014
                        NOSIG=
201609041250 METAR COR EGLL 041250Z AUTO 28015KT 9999 BKN027 19/13 Q1013
                        NOSIG=
201609041220 METAR COR EGLL 041220Z AUTO 27016KT 9999 OVC028 19/13 Q1013
                        NOSIG=
201609041150 METAR COR EGLL 041150Z AUTO 27013KT 9999 SCT026 BKN038 19/13
                        Q1013 NOSIG=
201609041120 METAR COR EGLL 041120Z AUTO 27015KT 9999 BKN021 OVC037 19/13
                        Q1012 NOSIG=
201609041050 METAR COR EGLL 041050Z AUTO 26013KT 9999 BKN020 OVC036 18/14
                        Q1012 NOSIG=
201609041020 METAR EGLL 041020Z AUTO 26015KT 9999 BKN020 BKN043 18/13
                        Q1012=
201609040950 METAR EGLL 040950Z AUTO 25011KT 9999 FEW018 BKN033 18/14
                        Q1012=
201609040920 METAR COR EGLL 040920Z 27013KT 9000 -RA BKN015 16/14 Q1012
                        NOSIG=
201609040850 METAR COR EGLL 040850Z 25012KT 9999 BKN022 17/13 Q1011 NOSIG=
201609040820 METAR COR EGLL 040820Z AUTO 25015KT 9999 BKN018 OVC044 17/13
                        Q1011 NOSIG=
201609040750 METAR COR EGLL 040750Z AUTO 25015KT 9999 BKN018 17/13 Q1011
                        NOSIG=
201609040720 METAR COR EGLL 040720Z AUTO 25015KT 9999 SCT018 SCT031 BKN043
                        17/13 Q1010 NOSIG=
201609040650 METAR COR EGLL 040650Z AUTO 25012KT 9999 SCT018 OVC046 16/13
                        Q1010 NOSIG=
201609040620 METAR COR EGLL 040620Z AUTO 24012KT 9999 OVC038 16/13 Q1010
                        NOSIG=
201609040550 METAR COR EGLL 040550Z AUTO 23011KT 9999 FEW025 OVC038 16/12
                        Q1010 NOSIG=
201609040520 METAR COR EGLL 040520Z AUTO 24010KT 9999 SCT029 SCT038 16/12
                        Q1010 NOSIG=
201609040450 METAR COR EGLL 040450Z AUTO 24013KT 9999 SCT033 SCT040 16/12
                        Q1010 NOSIG=
201609040420 METAR COR EGLL 040420Z AUTO 24013KT 9999 BKN037 16/12 Q1010
                        NOSIG=
201609040350 METAR COR EGLL 040350Z AUTO 26014KT 9999 SCT026 16/12 Q1009
                        NOSIG=
201609040320 METAR COR EGLL 040320Z AUTO 26015G25KT 9999 SCT015 BKN028
                        17/14 Q1009 NOSIG=
201609040250 METAR COR EGLL 040250Z AUTO 23012KT 9999 BKN015 18/16 Q1009
                        NOSIG=
201609040220 METAR EGLL 040220Z AUTO 23012KT 9999 BKN014 18/16 Q1009=
201609040150 METAR COR EGLL 040150Z AUTO 22012KT 9999 FEW014 18/16 Q1009
                        NOSIG=
201609040120 METAR COR EGLL 040120Z AUTO 22012KT 9999 FEW011 SCT023 18/17
                        Q1009 NOSIG=
201609040050 METAR COR EGLL 040050Z AUTO 21011KT 9999 BKN007 18/17 Q1009
                        BECMG FEW007=
201609040020 METAR COR EGLL 040020Z AUTO 21010KT 6000 -RA OVC008 18/17
                        Q1010 NOSIG=
201609032350 METAR COR EGLL 032350Z AUTO 21011KT 9999 BKN012 18/17 Q1010
                        NOSIG=
201609032320 METAR COR EGLL 032320Z AUTO 21010KT 9999 OVC013 18/17 Q1010
                        NOSIG=
201609032250 METAR COR EGLL 032250Z AUTO 21008KT 9999 BKN009 18/17 Q1010
                        BECMG FEW010 BKN020=
201609032220 METAR COR EGLL 032220Z AUTO 23008KT 9999 OVC009/// //////CB
                        18/17 Q1011 BECMG FEW010 BKN020=
201609032150 METAR COR EGLL 032150Z AUTO 20009KT 9999 BKN007 18/17 Q1011
                        BECMG SCT008=
201609032120 METAR COR EGLL 032120Z AUTO 20009KT 9999 -RA SCT009 18/17
                        Q1011 NOSIG=
201609032050 METAR COR EGLL 032050Z AUTO 22008KT 9999 -RA BKN009 18/17
                        Q1012 TEMPO RA=
201609032020 METAR COR EGLL 032020Z AUTO 22009KT 9999 -RA OVC009 18/17
                        Q1012 TEMPO BKN012=
201609031950 METAR COR EGLL 031950Z AUTO 23010KT 9999 -RA OVC009 18/17
                        Q1012 BECMG BKN010=
201609031920 METAR COR EGLL 031920Z AUTO 22010KT 9999 -RA OVC009 18/17
                        Q1012 TEMPO BKN012=
201609031850 METAR COR EGLL 031850Z AUTO 23011KT 9999 -RA OVC007 17/16
                        Q1012 TEMPO 4000 RADZ=
201609031820 METAR COR EGLL 031820Z AUTO 21012KT 9999 BKN006 17/16 Q1011
                        BECMG BKN010=
201609031750 METAR COR EGLL 031750Z AUTO 20012KT 160V220 9999 -RA BKN007
                        OVC016 17/16 Q1011 TEMPO RA BKN010=
201609031720 METAR COR EGLL 031720Z AUTO 20013KT 9999 -RA BKN007 17/16
                        Q1012 TEMPO RA BKN010=
201609031650 METAR COR EGLL 031650Z AUTO 20012KT 9999 -RA SCT009/// SCT023///
                        BKN033/// //////TCU 16/15 Q1013 TEMPO
                        4000 RA BKN010=
201609031620 METAR COR EGLL 031620Z AUTO 20013KT 8000 -RA BKN024/// //////CB
                        17/15 Q1013 TEMPO 4000 RA BKN014=
201609031550 METAR COR EGLL 031550Z AUTO 22014KT 9999 -RA BKN024/// OVC039///
                        //////TCU 17/15 Q1013 TEMPO 4000
                        RA BKN014=
201609031520 METAR COR EGLL 031520Z AUTO 21012KT 9999 -RA BKN035/// //////TCU
                        19/15 Q1013 TEMPO 4000 RA=
201609031450 METAR COR EGLL 031450Z AUTO 21015KT 9999 FEW027 BKN042 21/14
                        Q1013 TEMPO RA=
201609031420 METAR COR EGLL 031420Z AUTO 20014KT 170V240 9999 BKN043 21/14
                        Q1014 TEMPO RA=
201609031350 METAR COR EGLL 031350Z AUTO 20014KT 9999 SCT020 20/14 Q1014
                        TEMPO -RA BKN014=
201609031320 METAR COR EGLL 031320Z AUTO 20013KT 9999 BKN018 20/14 Q1015
                        TEMPO -RA BKN014=
201609031250 METAR COR EGLL 031250Z AUTO 19012KT 160V240 9999 OVC020 20/14
                        Q1015 NOSIG=
201609031220 METAR COR EGLL 031220Z AUTO 20013KT 9999 -RA BKN022 19/14
                        Q1015 NOSIG=
201609031150 METAR COR EGLL 031150Z AUTO 22013KT 9999 -RA OVC022 19/14
                        Q1016 NOSIG=
201609031120 METAR COR EGLL 031120Z AUTO 21013KT 9999 OVC024 19/13 Q1016
                        NOSIG=
201609031050 METAR COR EGLL 031050Z AUTO 21012KT 160V240 9999 BKN024 20/13
                        Q1016 NOSIG=
201609031020 METAR COR EGLL 031020Z AUTO 21011KT 180V240 9999 SCT023 19/13
                        Q1017 NOSIG=
201609030950 METAR COR EGLL 030950Z AUTO 21010KT 170V250 9999 SCT022 19/12
                        Q1017 NOSIG=
201609030920 METAR COR EGLL 030920Z AUTO 23012KT 9999 FEW022 19/13 Q1018
                        NOSIG=
201609030850 METAR COR EGLL 030850Z AUTO 21010KT 170V250 9999 NCD 17/13
                        Q1018 NOSIG=
201609030820 METAR COR EGLL 030820Z AUTO 23008KT 160V250 9999 NCD 17/13
                        Q1017 NOSIG=
201609030750 METAR COR EGLL 030750Z AUTO 24005KT 190V280 9999 NCD 16/13
                        Q1018 NOSIG=
201609030720 METAR COR EGLL 030720Z AUTO 25006KT 9999 NCD 15/13 Q1018
                        NOSIG=
201609030650 METAR COR EGLL 030650Z AUTO 22005KT 9999 NCD 14/12 Q1018
                        NOSIG=
201609030620 METAR COR EGLL 030620Z AUTO 22005KT 190V250 9999 //////CB
                        13/12 Q1018 NOSIG=
201609030550 METAR COR EGLL 030550Z AUTO 22006KT 180V240 9999 NCD 12/11
                        Q1018 NOSIG=
201609030520 METAR COR EGLL 030520Z AUTO 24006KT 9999 NCD 11/10 Q1018
                        NOSIG=
201609030450 METAR COR EGLL 030450Z AUTO 25004KT 210V280 9999 NCD 12/11
                        Q1018 NOSIG=
201609030420 METAR COR EGLL 030420Z AUTO 25004KT 210V270 9999 NCD 12/11
                        Q1018 NOSIG=
201609030350 METAR COR EGLL 030350Z AUTO 28004KT 9999 NCD 13/11 Q1018
                        NOSIG=
201609030320 METAR COR EGLL 030320Z AUTO 25006KT 9999 NCD 13/12 Q1018
                        NOSIG=
201609030250 METAR COR EGLL 030250Z AUTO 24007KT 9999 NCD 13/12 Q1018
                        NOSIG=
201609030220 METAR COR EGLL 030220Z AUTO 25006KT 9999 NCD 13/12 Q1018
                        NOSIG=
201609030150 METAR COR EGLL 030150Z AUTO 27006KT 9999 NCD 12/11 Q1018
                        NOSIG=
201609030120 METAR COR EGLL 030120Z AUTO 27005KT 9999 NCD 13/11 Q1018
                        NOSIG=
201609030050 METAR COR EGLL 030050Z AUTO 27004KT 9999 NCD 13/11 Q1018
                        NOSIG=
201609030020 METAR COR EGLL 030020Z AUTO 27006KT 9999 NCD 13/12 Q1018
                        NOSIG=
201609022350 METAR COR EGLL 022350Z AUTO 26007KT 9999 NCD 14/12 Q1018
                        NOSIG=
201609022320 METAR COR EGLL 022320Z AUTO 25004KT 9999 FEW047 14/12 Q1018
                        NOSIG=
201609022250 METAR COR EGLL 022250Z AUTO 27006KT 9999 BKN042 15/13 Q1018
                        NOSIG=
201609022220 METAR COR EGLL 022220Z AUTO 25007KT 9999 BKN041/// 16/14
                        Q1018 NOSIG=
201609022150 METAR COR EGLL 022150Z AUTO 23006KT 9999 OVC038 16/14 Q1018
                        NOSIG=
201609022120 METAR COR EGLL 022120Z AUTO 23008KT 9999 OVC039 16/15 Q1018
                        NOSIG=
201609022050 METAR COR EGLL 022050Z AUTO 22007KT 9999 FEW006 OVC038 17/17
                        Q1018 NOSIG=
201609022020 METAR COR EGLL 022020Z AUTO 22008KT 9999 SCT004 BKN030 17/17
                        Q1018 NOSIG=
201609021950 METAR COR EGLL 021950Z AUTO 22009KT 6000 -RA BKN005 BKN023
                        17/17 Q1018 BECMG 9999 NSW BKN026=
201609021920 METAR COR EGLL 021920Z AUTO 22010KT 7000 -RA BKN006 17/17
                        Q1018 BECMG 9999 NSW BKN026=
201609021850 METAR COR EGLL 021850Z AUTO 21010KT 190V250 9999 OVC005 17/17
                        Q1018 TEMPO 4000 -RADZ=
201609021820 METAR COR EGLL 021820Z AUTO 21010KT 6000 OVC005 17/17 Q1017
                        TEMPO 3000 -RADZ=
201609021750 METAR COR EGLL 021750Z 21010KT 6000 FEW004 BKN006 17/17 Q1017
                        TEMPO 3000 -RADZ=
201609021720 METAR COR EGLL 021720Z AUTO 20010G20KT 6000 OVC004 17/17
                        Q1017 BECMG BKN006=
201609021650 METAR COR EGLL 021650Z AUTO 21010KT 180V240 4200 -RADZ BKN005
                        17/17 Q1018 TEMPO 8000 NSW BKN010=
201609021620 METAR COR EGLL 021620Z AUTO 21011KT 9999 OVC009 18/16 Q1018
                        TEMPO BKN010=
201609021550 METAR COR EGLL 021550Z AUTO 21011KT 180V240 9999 OVC009 19/16
                        Q1017 BECMG BKN011=
201609021520 METAR COR EGLL 021520Z AUTO 21010G20KT 170V240 9999 OVC012
                        19/15 Q1018 NOSIG=
201609021450 METAR COR EGLL 021450Z AUTO 21011KT 9999 OVC015 19/15 Q1018
                        TEMPO BKN014=
201609021420 METAR COR EGLL 021420Z AUTO 22011KT 180V260 9999 OVC015 19/15
                        Q1018 TEMPO BKN014=
201609021350 METAR COR EGLL 021350Z AUTO 23010KT 9999 OVC017 19/15 Q1018
                        NOSIG=
201609021320 METAR COR EGLL 021320Z AUTO 24012KT 9999 OVC017 20/15 Q1018
                        NOSIG=
201609021250 METAR COR EGLL 021250Z AUTO 24010KT 200V270 9999 OVC018 20/15
                        Q1018 NOSIG=
201609021220 METAR COR EGLL 021220Z AUTO 23011KT 9999 OVC019 20/15 Q1018
                        NOSIG=
201609021150 METAR COR EGLL 021150Z AUTO 23011KT 9999 OVC018 20/14 Q1018
                        NOSIG=
201609021120 METAR COR EGLL 021120Z AUTO 24011KT 9999 OVC018 20/14 Q1018
                        NOSIG=
201609021050 METAR COR EGLL 021050Z AUTO 24012KT 9999 OVC018 19/14 Q1019
                        NOSIG=
201609021020 METAR COR EGLL 021020Z AUTO 24012G22KT 9999 OVC018 19/14
                        Q1019 NOSIG=
201609020950 METAR COR EGLL 020950Z AUTO 25011KT 210V270 9999 OVC019 19/14
                        Q1019 NOSIG=
201609020920 METAR COR EGLL 020920Z AUTO 24012KT 210V270 9999 OVC019 19/13
                        Q1019 NOSIG=
201609020850 METAR COR EGLL 020850Z AUTO 23012KT 9999 BKN016 19/14 Q1019
                        NOSIG=
201609020820 METAR COR EGLL 020820Z AUTO 22010KT 9999 BKN032 18/14 Q1019
                        NOSIG=
201609020750 METAR COR EGLL 020750Z AUTO 22009KT 9999 SCT035 17/14 Q1019
                        NOSIG=
201609020720 METAR COR EGLL 020720Z AUTO 23009KT 9999 SCT037 16/14 Q1020
                        NOSIG=
201609020650 METAR COR EGLL 020650Z AUTO 23009KT 9999 BKN037 16/14 Q1019
                        NOSIG=
201609020620 METAR COR EGLL 020620Z AUTO 23010KT 9999 NCD 15/14 Q1019
                        NOSIG=
201609020550 METAR COR EGLL 020550Z AUTO 23009KT 9999 NCD 15/14 Q1019
                        NOSIG=
201609020520 METAR COR EGLL 020520Z AUTO 22007KT 9999 NCD 14/14 Q1019
                        NOSIG=
201609020450 METAR COR EGLL 020450Z AUTO 23006KT 200V260 9999 NCD 14/14
                        Q1020 NOSIG=
201609020420 METAR COR EGLL 020420Z AUTO 20006KT 170V250 9999 NCD 14/13
                        Q1019 NOSIG=
201609020350 METAR COR EGLL 020350Z AUTO 21007KT 9999 -RA NCD 14/13 Q1020
                        NOSIG=
201609020320 METAR COR EGLL 020320Z AUTO 22009KT 9999 -RA NCD 15/13 Q1020
                        NOSIG=
201609020250 METAR COR EGLL 020250Z AUTO 21008KT 9999 -RA NCD 15/13 Q1020
                        NOSIG=
201609020220 METAR COR EGLL 020220Z AUTO 22006KT 9999 NCD 15/12 Q1020
                        NOSIG=
201609020150 METAR COR EGLL 020150Z AUTO 20005KT 9999 NCD 15/12 Q1020
                        NOSIG=
201609020120 METAR COR EGLL 020120Z AUTO 23007KT 9999 FEW007 15/12 Q1021
                        NOSIG=
201609020050 METAR COR EGLL 020050Z AUTO 24006KT 9999 NCD 15/12 Q1021
                        NOSIG=
201609020020 METAR COR EGLL 020020Z AUTO 22006KT 9999 NCD 15/12 Q1021
                        NOSIG=
201609012350 METAR COR EGLL 012350Z AUTO 23007KT 9999 NCD 15/13 Q1021
                        NOSIG=
201609012320 METAR COR EGLL 012320Z AUTO 21006KT 9999 NCD 15/13 Q1021
                        NOSIG=
201609012250 METAR COR EGLL 012250Z AUTO 22006KT 9999 NCD 15/12 Q1021
                        NOSIG=
201609012220 METAR COR EGLL 012220Z AUTO 22006KT 9999 NCD 16/12 Q1021
                        NOSIG=
201609012150 METAR COR EGLL 012150Z AUTO 23007KT 9999 NCD 16/12 Q1021
                        NOSIG=
201609012120 METAR COR EGLL 012120Z AUTO 22008KT 9999 NCD 17/12 Q1022
                        NOSIG=
201609012050 METAR COR EGLL 012050Z AUTO 22008KT 9999 NCD 17/12 Q1022
                        NOSIG=
201609012020 METAR COR EGLL 012020Z AUTO 22009KT 9999 NCD 18/13 Q1022
                        NOSIG=
201609011950 METAR COR EGLL 011950Z AUTO 22008KT 9999 NCD 19/13 Q1022
                        NOSIG=
201609011920 METAR COR EGLL 011920Z AUTO 22009KT 190V250 9999 NCD 19/13
                        Q1022 NOSIG=
201609011850 METAR COR EGLL 011850Z AUTO 23010KT 9999 NCD 20/13 Q1021
                        NOSIG=
201609011820 METAR COR EGLL 011820Z AUTO 23012KT 9999 NCD 21/13 Q1021
                        NOSIG=
201609011750 METAR COR EGLL 011750Z AUTO 23009KT 9999 NCD 22/12 Q1021
                        NOSIG=
201609011720 METAR COR EGLL 011720Z AUTO 25009KT 9999 NCD 23/10 Q1022
                        NOSIG=
201609011650 METAR COR EGLL 011650Z AUTO 24009KT 9999 NCD 23/10 Q1022
                        NOSIG=
201609011620 METAR COR EGLL 011620Z AUTO 25007KT 210V280 9999 NCD 23/09
                        Q1022 NOSIG=
201609011550 METAR COR EGLL 011550Z AUTO 25007KT 210V280 9999 NCD 24/09
                        Q1022 NOSIG=
201609011520 METAR COR EGLL 011520Z AUTO 23009KT 9999 NCD 24/09 Q1022
                        NOSIG=
201609011450 METAR COR EGLL 011450Z AUTO 23008KT 9999 NCD 24/10 Q1022
                        NOSIG=
201609011420 METAR COR EGLL 011420Z AUTO 25008KT 210V300 9999 NCD 24/10
                        Q1022 NOSIG=
201609011350 METAR COR EGLL 011350Z AUTO 24008KT 190V270 9999 NCD 23/10
                        Q1023 NOSIG=
201609011320 METAR COR EGLL 011320Z AUTO 22005KT 160V280 9999 NCD 23/10
                        Q1023 NOSIG=
201609011250 METAR COR EGLL 011250Z AUTO 25007KT 210V320 9999 FEW041 23/10
                        Q1023 NOSIG=
201609011220 METAR COR EGLL 011220Z AUTO 20007KT 140V260 9999 FEW037 20/11
                        Q1023 NOSIG=
201609011150 METAR COR EGLL 011150Z AUTO 22008KT 170V280 9999 FEW036 21/11
                        Q1024 NOSIG=
201609011120 METAR COR EGLL 011120Z AUTO 25007KT 210V290 9999 FEW032 22/11
                        Q1024 NOSIG=
201609011050 METAR COR EGLL 011050Z AUTO 26006G17KT 200V350 9999 FEW026
                        21/12 Q1024 NOSIG=
201609011020 METAR COR EGLL 011020Z AUTO 24007KT 190V300 9999 FEW024 20/12
                        Q1024 NOSIG=
201609010950 METAR COR EGLL 010950Z AUTO 25006KT 210V290 9999 NCD 19/13
                        Q1024 NOSIG=
201609010920 METAR COR EGLL 010920Z AUTO 26007KT 210V310 9999 NCD 18/13
                        Q1024 NOSIG=
201609010850 METAR COR EGLL 010850Z AUTO 26005KT 230V300 9999 NCD 17/13
                        Q1024 NOSIG=
201609010820 METAR COR EGLL 010820Z AUTO VRB03KT 9999 NCD 16/13 Q1024
                        NOSIG=
201609010750 METAR COR EGLL 010750Z AUTO 27004KT 230V300 9999 FEW034 15/13
                        Q1024 NOSIG=
201609010720 METAR COR EGLL 010720Z AUTO 28005KT 250V310 9999 BKN027 15/12
                        Q1024 NOSIG=
201609010650 METAR COR EGLL 010650Z AUTO 28003KT 9999 BKN032 14/12 Q1024
                        NOSIG=
201609010620 METAR COR EGLL 010620Z AUTO 29005KT 9999 BKN032 14/13 Q1023
                        NOSIG=
201609010550 METAR COR EGLL 010550Z AUTO 25004KT 9999 FEW045 13/12 Q1023
                        NOSIG=
201609010520 METAR COR EGLL 010520Z AUTO 24004KT 200V280 9999 BKN035 13/12
                        Q1023 NOSIG=
201609010450 METAR COR EGLL 010450Z AUTO 24004KT 190V280 9999 OVC035 13/12
                        Q1023 NOSIG=
201609010420 METAR COR EGLL 010420Z AUTO VRB03KT 9999 BKN036 13/12 Q1022
                        NOSIG=
201609010350 METAR COR EGLL 010350Z AUTO 27004KT 9999 BKN043 13/11 Q1022
                        NOSIG=
201609010320 METAR COR EGLL 010320Z AUTO 27004KT 9999 BKN042 13/11 Q1023
                        NOSIG=
201609010250 METAR COR EGLL 010250Z AUTO 27004KT 9999 SCT039 14/12 Q1023
                        NOSIG=
201609010220 METAR COR EGLL 010220Z AUTO 27002KT 9999 SCT039 13/11 Q1023
                        NOSIG=
201609010150 METAR COR EGLL 010150Z AUTO 27004KT 9999 NCD 13/11 Q1023
                        NOSIG=
201609010120 METAR COR EGLL 010120Z AUTO 27006KT 9999 FEW044 14/11 Q1023
                        NOSIG=
201609010050 METAR EGLL 010050Z AUTO 27006KT 9999 NCD 14/11 Q1022=
201609010020 METAR COR EGLL 010020Z AUTO 27007KT 9999 NCD 15/11 Q1022
                        NOSIG=

</pre>

</body>
</html>
