##########################################################
# Query made at 01/13/2020 14:36:23 UTC
# Time interval: from 09/01/2019 00:00  to 10/01/2019 23:59  UTC
##########################################################

##########################################################
# EGLL, London / Heathrow Airport (United Kingdom)
# WMO index: 03772
# Latitude 51-29N. Longitude 000-27W. Altitude 24 m.
##########################################################

###################################
#  METAR/SPECI from EGLL
###################################
201910012350 METAR COR EGLL 012350Z AUTO 36007KT 320V040 9999 NCD 11/08
                        Q1009 NOSIG=
201910012320 METAR COR EGLL 012320Z AUTO 36007KT 330V040 9999 BKN047 11/09
                        Q1009 NOSIG=
201910012250 METAR COR EGLL 012250Z AUTO 01008KT 340V050 9999 FEW038 SCT045
                        11/09 Q1008 NOSIG=
201910012220 METAR COR EGLL 012220Z AUTO 02007KT 320V060 9999 FEW030 BKN038
                        11/09 Q1007 NOSIG=
201910012150 METAR COR EGLL 012150Z AUTO 02006KT 340V060 9999 OVC036 12/09
                        Q1007 NOSIG=
201910012120 METAR COR EGLL 012120Z AUTO 03008KT 320V070 9999 BKN033 12/10
                        Q1006 NOSIG=
201910012050 METAR COR EGLL 012050Z AUTO 03011G22KT 9999 FEW018 SCT031
                        BKN040 12/10 Q1005 NOSIG=
201910012020 METAR COR EGLL 012020Z AUTO 03013KT 360V070 9999 -RA FEW010
                        BKN016 BKN032 12/11 Q1004 TEMPO BKN010=
201910011950 METAR COR EGLL 011950Z AUTO 03010G20KT 330V060 5000 HZ SCT010///
                        BKN015/// BKN021/// //////TCU 12/12
                        Q1003 TEMPO BKN010=
201910011920 METAR COR EGLL 011920Z 03010G20KT 350V060 9999 -RA SCT008
                        BKN012CB OVC027 13/12 Q1002 RESHRA
                        TEMPO BKN008=
201910011850 METAR COR EGLL 011850Z 01010G20KT 340V040 6000 +SHRA SCT008
                        BKN014CB BKN039 14/13 Q1001 RESHRA
                        TEMPO -SHRA=
201910011820 METAR COR EGLL 011820Z 01005KT 330V030 9999 SHRA SCT015CB
                        SCT031 BKN043 15/14 Q1000 RERA TEMPO
                        BKN014=
201910011750 METAR COR EGLL 011750Z 02005KT 340V060 9999 RA SCT022CB SCT037
                        BKN044 15/14 Q0999 RERA NOSIG=
201910011720 METAR COR EGLL 011720Z AUTO 36006KT 2900 +RA FEW012/// SCT021///
                        BKN027/// //////CB 16/14 Q0999 RETS
                        TEMPO 5000 SHRA BKN012=
201910011650 METAR COR EGLL 011650Z AUTO 36006KT 310V040 9999 SCT017///
                        BKN043/// //////CB 17/14 Q0998 TEMPO
                        4000 TSRA=
201910011620 METAR EGLL 011620Z AUTO 27009KT 9999 VCTS SCT049/// //////CB
                        18/14 Q0998=
201910011550 METAR EGLL 011550Z AUTO 26010KT 9999 FEW046/// //////CB 18/13
                        Q0998=
201910011520 METAR EGLL 011520Z AUTO 26009KT 9999 //////CB 18/13 Q0998
                        RETS=
201910011450 METAR EGLL 011450Z AUTO 28009KT 9999 TS //////CB 18/13 Q0997=
201910011420 METAR COR EGLL 011420Z AUTO 30008KT 9999 -RA VCTS BKN027///
                        BKN042/// //////CB 18/14 Q0997 TEMPO
                        SHRA=
201910011350 METAR COR EGLL 011350Z AUTO 23011KT 9999 VCTS SCT029/// BKN049///
                        //////CB 20/13 Q0997 TEMPO 4000 TSRA=
201910011320 METAR COR EGLL 011320Z AUTO 23009KT 9999 SCT025/// //////CB
                        20/14 Q0997 TEMPO 4000 +SHRA=
201910011250 METAR COR EGLL 011250Z AUTO 22012KT 9999 SCT018/// SCT028///
                        //////CB 20/15 Q0997 TEMPO SHRA=
201910011220 METAR COR EGLL 011220Z AUTO 22010KT 180V250 9999 BKN017///
                        BKN031/// //////CB 19/16 Q0997 TEMPO
                        SHRA=
201910011150 METAR COR EGLL 011150Z AUTO 21008KT 170V250 9999 FEW013 SCT018
                        BKN026 18/16 Q0997 TEMPO SHRA=
201910011120 METAR COR EGLL 011120Z AUTO 20007KT 170V230 9999 FEW032///
                        //////CB 17/16 Q0998 TEMPO SHRA=
201910011050 METAR COR EGLL 011050Z AUTO 20007KT 160V250 8000 -RA SCT010///
                        SCT023/// BKN031/// //////CB 16/15
                        Q0998 RERA TEMPO SHRA=
201910011020 METAR COR EGLL 011020Z AUTO 22008KT 7000 -RA FEW022/// SCT036///
                        BKN047/// //////CB 16/15 Q0998 TEMPO
                        SHRA=
201910010950 METAR COR EGLL 010950Z AUTO 22006KT 190V250 9999 -RA FEW022///
                        SCT048/// //////TCU 17/15 Q0998 TEMPO
                        4000 SHRA BKN014=
201910010920 METAR COR EGLL 010920Z AUTO 21010KT 9999 -RA BKN018/// //////TCU
                        17/15 Q0998 TEMPO +4000 SHRA BKN014=
201910010850 METAR COR EGLL 010850Z AUTO 23010KT 9999 BKN014 17/15 Q0998
                        TEMPO SCT014=
201910010820 METAR COR EGLL 010820Z AUTO 20006KT 170V260 9999 FEW012 SCT016
                        17/15 Q0998 NOSIG=
201910010750 METAR COR EGLL 010750Z AUTO 21007KT 170V270 9999 FEW027 SCT048
                        16/15 Q0999 NOSIG=
201910010720 METAR COR EGLL 010720Z AUTO 21008KT 9999 SCT017 SCT025 16/15
                        Q0999 NOSIG=
201910010650 METAR COR EGLL 010650Z AUTO 21008KT 160V270 9999 FEW033 SCT041
                        15/14 Q0999 NOSIG=
201910010620 METAR EGLL 010620Z AUTO 21006KT 170V270 9999 NCD 15/14 Q0999=
201910010550 METAR COR EGLL 010550Z AUTO 22005KT 190V250 9999 FEW036 15/14
                        Q0999 NOSIG=
201910010520 METAR COR EGLL 010520Z AUTO 22006KT 190V260 9999 FEW033 15/14
                        Q0999 NOSIG=
201910010450 METAR COR EGLL 010450Z AUTO 21006KT 9000 NCD 15/14 Q0999
                        NOSIG=
201910010420 METAR COR EGLL 010420Z AUTO 21007KT 9999 FEW047 15/14 Q0999
                        NOSIG=
201910010350 METAR COR EGLL 010350Z AUTO 21006KT 9999 NCD 15/14 Q1000
                        NOSIG=
201910010320 METAR COR EGLL 010320Z AUTO 22007KT 9999 SCT039 15/14 Q1000
                        NOSIG=
201910010250 METAR COR EGLL 010250Z AUTO 21007KT 9999 BKN037 15/15 Q1000
                        NOSIG=
201910010220 METAR COR EGLL 010220Z AUTO 21007KT 9999 NCD 15/15 Q1000
                        NOSIG=
201910010150 METAR COR EGLL 010150Z AUTO 22009KT 9999 NCD 16/15 Q1001
                        NOSIG=
201910010120 METAR COR EGLL 010120Z AUTO 23009KT 9999 FEW022 16/15 Q1001
                        NOSIG=
201910010050 METAR COR EGLL 010050Z AUTO 23008KT 9999 BKN014 BKN020 16/15
                        Q1001 TEMPO SCT014=
201910010020 METAR COR EGLL 010020Z AUTO 24010KT 9999 BKN032 16/15 Q1001
                        TEMPO BKN014=
201909302350 METAR COR EGLL 302350Z AUTO 23009KT 9999 NCD 17/16 Q1002
                        TEMPO BKN009=
201909302320 METAR COR EGLL 302320Z AUTO 23011KT 9999 BKN019 17/16 Q1002
                        TEMPO BKN009=
201909302250 METAR COR EGLL 302250Z AUTO 23011KT 9999 BKN014 17/17 Q1002
                        TEMPO SCT014=
201909302220 METAR COR EGLL 302220Z AUTO 23011KT 9999 -RA SCT006 OVC010
                        17/17 Q1002 TEMPO SCT010 BKN015=
201909302150 METAR COR EGLL 302150Z AUTO 22010G20KT 180V250 3700 -DZ BKN005
                        BKN009 OVC014 17/16 Q1002 BECMG 6000
                        NSW SCT005 BKN010=
201909302120 METAR COR EGLL 302120Z AUTO 21010KT 180V240 7000 -RA BKN007
                        BKN013 OVC040 16/16 Q1002 TEMPO SCT007
                        BKN013=
201909302050 METAR COR EGLL 302050Z AUTO 19012KT 170V250 5000 -RA BKN005///
                        BKN010/// OVC036/// //////TCU 16/16
                        Q1002 RERA REDZ TEMPO 4000 RADZ=
201909302020 METAR COR EGLL 302020Z AUTO 19011KT 170V230 9000 -RA BKN005
                        OVC010 16/16 Q1003 TEMPO 4000 RADZ=
201909301950 METAR COR EGLL 301950Z AUTO 18009KT 140V230 9000 -RA BKN007///
                        OVC014/// //////TCU 15/15 Q1003 TEMPO
                        4000 RADZ=
201909301920 METAR COR EGLL 301920Z AUTO 17009KT 140V240 9999 -RA BKN007///
                        OVC013/// //////TCU 15/14 Q1004 TEMPO
                        4000 RA=
201909301850 METAR COR EGLL 301850Z AUTO 17009KT 150V230 9999 -RA SCT008///
                        BKN013/// //////TCU 15/14 Q1005 TEMPO
                        4000 RA BKN008=
201909301820 METAR COR EGLL 301820Z AUTO 17010KT 140V230 6000 -RA FEW008///
                        BKN012/// OVC029/// //////CB 14/14
                        Q1005 TEMPO 4000 RA BKN007=
201909301750 METAR EGLL 301750Z AUTO 19010KT 160V230 9999 -RA BKN013///
                        BKN020/// OVC035/// //////TCU 15/14
                        Q1006=
201909301720 METAR COR EGLL 301720Z AUTO 18009KT 130V230 9999 -RA BKN017///
                        BKN025/// OVC048/// //////CB 15/14
                        Q1007 TEMPO 4000 RA BKN012=
201909301650 METAR COR EGLL 301650Z AUTO 17005KT 110V240 9999 -RA BKN031///
                        OVC041/// //////CB 15/14 Q1007 RERA
                        TEMPO 4000 +RA BKN012=
201909301620 METAR COR EGLL 301620Z AUTO 20009KT 160V240 9999 -RA SCT016
                        BKN031 OVC042 15/13 Q1008 TEMPO 4000
                        RA BKN014=
201909301550 METAR COR EGLL 301550Z AUTO 19009KT 150V240 9999 -RA FEW026
                        SCT032 BKN039 16/13 Q1008 TEMPO RA=
201909301520 METAR COR EGLL 301520Z AUTO 19013KT 170V230 9999 -RA SCT025
                        BKN031 17/12 Q1009 TEMPO RA=
201909301450 METAR COR EGLL 301450Z AUTO 19006KT 130V260 9999 FEW033 BKN044
                        17/13 Q1009 NOSIG=
201909301420 METAR COR EGLL 301420Z AUTO 20006KT 140V240 9999 FEW027 SCT041
                        17/12 Q1010 NOSIG=
201909301350 METAR COR EGLL 301350Z AUTO 23008KT 9999 FEW027 SCT033 17/12
                        Q1010 NOSIG=
201909301320 METAR COR EGLL 301320Z AUTO 22010KT 9999 NCD 17/12 Q1011
                        NOSIG=
201909301250 METAR COR EGLL 301250Z AUTO 22010KT 190V250 9999 NCD 17/11
                        Q1011 NOSIG=
201909301220 METAR COR EGLL 301220Z AUTO 21008KT 170V250 9999 SCT021 BKN026
                        17/13 Q1011 NOSIG=
201909301150 METAR COR EGLL 301150Z AUTO 20008KT 170V250 9999 -RA FEW034
                        17/13 Q1011 NOSIG=
201909301120 METAR COR EGLL 301120Z AUTO 23007KT 9999 FEW022 17/13 Q1012
                        NOSIG=
201909301050 METAR COR EGLL 301050Z AUTO 22008KT 9999 NCD 16/13 Q1012
                        NOSIG=
201909301020 METAR COR EGLL 301020Z AUTO 23005KT 190V270 9999 SCT017 16/13
                        Q1012 NOSIG=
201909300950 METAR COR EGLL 300950Z AUTO 23006KT 9999 NCD 16/13 Q1012
                        NOSIG=
201909300920 METAR COR EGLL 300920Z AUTO 25005KT 220V280 9999 NCD 15/13
                        Q1012 NOSIG=
201909300850 METAR COR EGLL 300850Z AUTO 23005KT 9999 NCD 14/12 Q1012
                        NOSIG=
201909300820 METAR COR EGLL 300820Z AUTO 22005KT 9999 FEW023 13/11 Q1012
                        NOSIG=
201909300750 METAR COR EGLL 300750Z AUTO 19004KT 160V220 9999 NCD 12/11
                        Q1012 NOSIG=
201909300720 METAR COR EGLL 300720Z AUTO 20005KT 180V240 9999 NCD 11/11
                        Q1012 NOSIG=
201909300650 METAR COR EGLL 300650Z AUTO 21005KT 9999 NCD 11/10 Q1012
                        NOSIG=
201909300620 METAR COR EGLL 300620Z AUTO 25006KT 9999 NCD 11/10 Q1011
                        NOSIG=
201909300550 METAR COR EGLL 300550Z AUTO 25006KT 9999 NCD 10/09 Q1011
                        NOSIG=
201909300520 METAR COR EGLL 300520Z AUTO 22004KT 190V270 9999 NCD 10/10
                        Q1011 NOSIG=
201909300450 METAR COR EGLL 300450Z AUTO 17004KT 9999 NCD 10/09 Q1011
                        NOSIG=
201909300420 METAR COR EGLL 300420Z AUTO 25004KT 210V280 9999 NCD 11/10
                        Q1010 NOSIG=
201909300350 METAR COR EGLL 300350Z AUTO 26007KT 9999 NCD 11/10 Q1010
                        NOSIG=
201909300320 METAR COR EGLL 300320Z AUTO 26007KT 9999 NCD 11/10 Q1010
                        NOSIG=
201909300250 METAR COR EGLL 300250Z AUTO 28007KT 9999 NCD 10/09 Q1010
                        NOSIG=
201909300220 METAR COR EGLL 300220Z AUTO 27007KT 9999 NCD 11/10 Q1010
                        NOSIG=
201909300150 METAR COR EGLL 300150Z AUTO 27008KT 9999 NCD 11/10 Q1009
                        NOSIG=
201909300120 METAR COR EGLL 300120Z AUTO 27008KT 9999 NCD 11/10 Q1009
                        NOSIG=
201909300050 METAR COR EGLL 300050Z AUTO 26007KT 9999 NCD 12/10 Q1009
                        NOSIG=
201909300020 METAR COR EGLL 300020Z AUTO 27007KT 9999 NCD 12/11 Q1009
                        NOSIG=
201909292350 METAR COR EGLL 292350Z AUTO 27008KT 9999 NCD 12/11 Q1008
                        NOSIG=
201909292320 METAR COR EGLL 292320Z AUTO 27007KT 9999 NCD 12/11 Q1008
                        NOSIG=
201909292250 METAR COR EGLL 292250Z AUTO 27007KT 9999 NCD 12/11 Q1008
                        NOSIG=
201909292220 METAR COR EGLL 292220Z AUTO 28009KT 9999 NCD 13/11 Q1007
                        NOSIG=
201909292150 METAR COR EGLL 292150Z AUTO 29009KT 9999 FEW021 14/11 Q1007
                        NOSIG=
201909292120 METAR COR EGLL 292120Z AUTO 29007KT 9999 SCT019 14/12 Q1006
                        NOSIG=
201909292050 METAR COR EGLL 292050Z AUTO 29009KT 9999 FEW017 SCT022 15/12
                        Q1005 NOSIG=
201909292020 METAR COR EGLL 292020Z AUTO 29008KT 9999 FEW022 14/12 Q1005
                        NOSIG=
201909291950 METAR COR EGLL 291950Z AUTO 29008KT 9999 FEW019 SCT029 BKN042
                        14/12 Q1004 NOSIG=
201909291920 METAR COR EGLL 291920Z AUTO 30010KT 6000 -RA FEW015 SCT022
                        BKN028 14/13 Q1003 RERA REDZ TEMPO
                        4000 RADZ BKN012=
201909291850 METAR COR EGLL 291850Z AUTO 30010KT 4800 RADZ BKN012 OVC030
                        14/13 Q1001 BECMG 9999 NSW SCT012=
201909291820 METAR COR EGLL 291820Z AUTO 29011KT 7000 -RA BKN013 BKN017
                        OVC028 15/13 Q1000 TEMPO 4000 RADZ=
201909291750 METAR COR EGLL 291750Z AUTO 30016KT 5000 HZ BKN018 OVC048
                        15/12 Q0999 TEMPO 4000 RADZ BKN014=
201909291720 METAR COR EGLL 291720Z AUTO 30014G24KT 9999 OVC027 17/12
                        Q0997 NOSIG=
201909291650 METAR COR EGLL 291650Z AUTO 29015G26KT 9999 BKN029 OVC036
                        17/12 Q0996 NOSIG=
201909291620 METAR COR EGLL 291620Z AUTO 28014KT 9999 BKN031 17/13 Q0995
                        NOSIG=
201909291550 METAR COR EGLL 291550Z AUTO 28020KT 9999 BKN034/// BKN041///
                        //////TCU 17/13 Q0994 NOSIG=
201909291520 METAR COR EGLL 291520Z AUTO 27017KT 9999 -RA FEW018/// SCT025///
                        BKN033/// //////TCU 17/16 Q0994 RERA
                        NOSIG=
201909291450 METAR COR EGLL 291450Z AUTO 26014KT 9999 FEW015/// BKN029///
                        BKN036/// //////CB 18/16 Q0993 RESHRA
                        TEMPO SHRA=
201909291420 METAR COR EGLL 291420Z 23015KT 2800 SHRA SCT014CB BKN022
                        18/16 Q0993 BECMG 9999 NSW=
201909291350 METAR COR EGLL 291350Z AUTO 24015KT 6000 -RA SCT016/// BKN026///
                        BKN037/// //////TCU 18/16 Q0993 TEMPO
                        4000 SHRA BKN014=
201909291320 METAR COR EGLL 291320Z AUTO 23016G27KT 6000 -RA SCT012///
                        BKN023/// BKN030/// //////CB 18/17
                        Q0993 RESHRA TEMPO 4000 SHRA BKN012=
201909291250 METAR COR EGLL 291250Z AUTO 23012KT 9999 SCT015/// SCT025///
                        BKN037/// //////TCU 18/17 Q0993 RERA
                        TEMPO 4000 SHRA=
201909291220 METAR COR EGLL 291220Z AUTO 23014KT 7000 -RA BKN021/// BKN028///
                        //////CB 19/16 Q0993 TEMPO 4000 SHRA=
201909291150 METAR COR EGLL 291150Z AUTO 23017KT 9999 BKN018/// BKN029///
                        //////TCU 19/15 Q0994 TEMPO SHRA=
201909291120 METAR COR EGLL 291120Z AUTO 23016G27KT 9999 -RA BKN014///
                        BKN022/// OVC044/// //////TCU 18/16
                        Q0994 TEMPO SHRA=
201909291050 METAR COR EGLL 291050Z AUTO 23015KT 9999 FEW015 SCT019 BKN024
                        18/16 Q0994 TEMPO BKN014=
201909291020 METAR COR EGLL 291020Z AUTO 23014KT 9999 BKN013 BKN027 OVC035
                        18/16 Q0994 TEMPO SCT013=
201909290950 METAR COR EGLL 290950Z AUTO 23015KT 9999 BKN014 BKN023 18/16
                        Q0994 TEMPO SCT014=
201909290920 METAR COR EGLL 290920Z AUTO 23015KT 9999 SCT013 BKN019 BKN031
                        17/16 Q0994 TEMPO BKN012=
201909290850 METAR COR EGLL 290850Z AUTO 22012KT 180V250 9999 BKN012 OVC018
                        17/16 Q0994 TEMPO BKN009=
201909290820 METAR COR EGLL 290820Z AUTO 22011KT 190V250 9999 -RA SCT013///
                        BKN021/// BKN033/// //////TCU 17/16
                        Q0994 TEMPO BKN013=
201909290750 METAR COR EGLL 290750Z AUTO 22010KT 9999 -RA SCT014/// BKN020///
                        BKN040/// //////CB 17/16 Q0994 TEMPO
                        BKN014=
201909290720 METAR COR EGLL 290720Z AUTO 21010KT 9999 BKN017/// BKN028///
                        //////CB 17/16 Q0994 TEMPO SHRA BKN014=
201909290650 METAR COR EGLL 290650Z AUTO 21009KT 9999 SCT022/// BKN038///
                        //////CB 16/16 Q0995 TEMPO 4000 SHRA
                        BKN014=
201909290620 METAR COR EGLL 290620Z AUTO 21011KT 9999 SCT019 SCT033 16/16
                        Q0995 TEMPO 4000 SHRA=
201909290550 METAR COR EGLL 290550Z AUTO 22013KT 9999 SCT015 SCT032 BKN041
                        16/15 Q0995 TEMPO 4000 + SHRA BKN012CB=
201909290520 METAR COR EGLL 290520Z AUTO 21014G25KT 9999 -RA SCT009 BKN013
                        BKN020 16/16 Q0995 TEMPO BKN008=
201909290450 METAR COR EGLL 290450Z AUTO 20012KT 6000 -RA BKN007 OVC015
                        16/15 Q0996 TEMPO 4000 RADZ=
201909290420 METAR COR EGLL 290420Z AUTO 20011KT 5000 BR SCT009 BKN013
                        BKN026 15/15 Q0996 TEMPO 4000 RADZ
                        BKN008=
201909290350 METAR COR EGLL 290350Z AUTO 20013KT 9000 -RA BKN009/// BKN016///
                        OVC023/// //////TCU 15/15 Q0997 TEMPO
                        4500 RADZ=
201909290320 METAR COR EGLL 290320Z AUTO 20010KT 6000 -RA BKN008/// OVC032///
                        //////TCU 15/15 Q0998 TEMPO 4000
                        RADZ=
201909290250 METAR COR EGLL 290250Z AUTO 20011KT 9999 -RA BKN010/// BKN015///
                        //////CB 15/15 Q0999 TEMPO 4000 RADZ
                        BKN008=
201909290220 METAR COR EGLL 290220Z AUTO 20016KT 7000 SCT011 BKN016 BKN020
                        15/15 Q1000 TEMPO 3000 +RA BKN008=
201909290150 METAR COR EGLL 290150Z AUTO 20014KT 9000 SCT010 BKN016 OVC024
                        15/15 Q1000 TEMPO 4000 RA BKN008=
201909290120 METAR COR EGLL 290120Z AUTO 20015KT 5000 -RADZ BKN009 OVC033
                        15/15 Q1001 TEMPO 4000 RA=
201909290050 METAR COR EGLL 290050Z AUTO 20015KT 7000 -RA BKN012 BKN019
                        OVC024 15/15 Q1001 TEMPO 4000 RA
                        BKN009=
201909290020 METAR COR EGLL 290020Z AUTO 20014KT 8000 -RA BKN013/// OVC022///
                        //////TCU 15/15 Q1002 TEMPO 4000
                        RA BKN008=
201909282350 METAR COR EGLL 282350Z AUTO 20014KT 9000 -RA SCT011/// OVC016///
                        //////TCU 15/15 Q1002 TEMPO 3000
                        +RA BKN007=
201909282320 METAR COR EGLL 282320Z AUTO 19012KT 9999 BKN007 OVC020 15/15
                        Q1003 TEMPO 3000 +RA=
201909282250 METAR COR EGLL 282250Z AUTO 19013KT 8000 SCT006 BKN009 OVC016
                        15/14 Q1004 TEMPO 3000 +RA=
201909282220 METAR COR EGLL 282220Z AUTO 19012KT 5000 -DZ BKN006 OVC019
                        15/14 Q1005 TEMPO 4000 RADZ=
201909282150 METAR COR EGLL 282150Z AUTO 16009KT 6000 -RA BKN008 OVC012
                        14/14 Q1005 TEMPO 4000 RA=
201909282120 METAR COR EGLL 282120Z AUTO 16009KT 130V200 9999 -RA SCT011
                        BKN015 BKN021 14/14 Q1006 TEMPO 4000
                        RA BKN008=
201909282050 METAR COR EGLL 282050Z AUTO 17008KT 5000 -RA FEW007/// SCT013///
                        BKN020/// //////TCU 14/14 Q1007 RERA
                        TEMPO 4000 RA BKN007=
201909282020 METAR COR EGLL 282020Z AUTO 18009KT 160V220 5000 -RA SCT019///
                        BKN028/// BKN035/// //////TCU 14/13
                        Q1008 TEMPO RA=
201909281950 METAR COR EGLL 281950Z AUTO 19008KT 9999 -RA NCD 14/13 Q1008
                        TEMPO RA=
201909281920 METAR COR EGLL 281920Z AUTO 20009KT 9999 -RA NCD 15/13 Q1008
                        TEMPO RA=
201909281850 METAR COR EGLL 281850Z AUTO 22010KT 9999 -RA FEW027 15/12
                        Q1009 TEMPO RA=
201909281820 METAR COR EGLL 281820Z AUTO 22011KT 9999 NCD 16/11 Q1009
                        TEMPO RA=
201909281750 METAR COR EGLL 281750Z AUTO 23012KT 9999 NCD 17/10 Q1009
                        TEMPO RA=
201909281720 METAR COR EGLL 281720Z AUTO 23014KT 9999 FEW039 SCT048 18/11
                        Q1009 TEMPO RA=
201909281650 METAR COR EGLL 281650Z AUTO 24013KT 9999 SCT035 SCT047 17/11
                        Q1009 TEMPO RA=
201909281620 METAR COR EGLL 281620Z AUTO 24015KT 9999 FEW035 SCT041 18/11
                        Q1009 NOSIG=
201909281550 METAR COR EGLL 281550Z AUTO 24013KT 9999 SCT037 18/11 Q1009
                        NOSIG=
201909281520 METAR COR EGLL 281520Z AUTO 24017KT 9999 FEW039 19/11 Q1009
                        NOSIG=
201909281450 METAR COR EGLL 281450Z AUTO 25016KT 9999 SCT037 19/11 Q1009
                        NOSIG=
201909281420 METAR COR EGLL 281420Z AUTO 25016KT 9999 SCT046 19/11 Q1009
                        NOSIG=
201909281350 METAR COR EGLL 281350Z AUTO 24013KT 9999 SCT040 BKN047 19/10
                        Q1009 NOSIG=
201909281320 METAR COR EGLL 281320Z AUTO 25014KT 9999 FEW042 19/10 Q1009
                        NOSIG=
201909281250 METAR COR EGLL 281250Z AUTO 24014KT 9999 FEW042 19/11 Q1009
                        NOSIG=
201909281220 METAR COR EGLL 281220Z AUTO 25019KT 9999 SCT038 SCT048 19/11
                        Q1009 NOSIG=
201909281150 METAR COR EGLL 281150Z AUTO 24017KT 9999 FEW035 SCT042 19/11
                        Q1009 NOSIG=
201909281120 METAR COR EGLL 281120Z AUTO 24018KT 9999 BKN035 BKN043 18/11
                        Q1009 NOSIG=
201909281050 METAR COR EGLL 281050Z AUTO 25019KT 9999 BKN032 18/11 Q1009
                        NOSIG=
201909281020 METAR COR EGLL 281020Z AUTO 25019KT 9999 SCT030 BKN037 18/11
                        Q1009 NOSIG=
201909280950 METAR COR EGLL 280950Z AUTO 25017KT 9999 SCT028 SCT034 17/12
                        Q1009 NOSIG=
201909280920 METAR COR EGLL 280920Z AUTO 24016KT 9999 BKN025 17/12 Q1009
                        NOSIG=
201909280850 METAR COR EGLL 280850Z AUTO 25016KT 9999 SCT024 16/12 Q1009
                        TEMPO SHRA=
201909280820 METAR COR EGLL 280820Z AUTO 24015KT 9999 SCT021 16/12 Q1008
                        TEMPO SHRA=
201909280750 METAR COR EGLL 280750Z AUTO 24014KT 9999 SCT021 15/12 Q1008
                        TEMPO SHRA=
201909280720 METAR COR EGLL 280720Z AUTO 23015KT 9999 NCD 15/12 Q1008
                        TEMPO SHRA=
201909280650 METAR COR EGLL 280650Z AUTO 23014KT 9999 NCD 14/12 Q1008
                        TEMPO SHRA=
201909280620 METAR COR EGLL 280620Z AUTO 23013KT 9999 NCD 14/12 Q1007
                        TEMPO SHRA=
201909280550 METAR COR EGLL 280550Z AUTO 23014KT 9999 NCD 14/12 Q1007
                        NOSIG=
201909280520 METAR COR EGLL 280520Z AUTO 23010KT 9999 NCD 14/12 Q1007
                        NOSIG=
201909280450 METAR COR EGLL 280450Z AUTO 21007KT 9999 FEW017 13/11 Q1007
                        NOSIG=
201909280420 METAR COR EGLL 280420Z AUTO 22008KT 200V270 9999 NCD 12/11
                        Q1008 NOSIG=
201909280350 METAR COR EGLL 280350Z AUTO 22010KT 9999 FEW028 12/11 Q1008
                        NOSIG=
201909280320 METAR COR EGLL 280320Z AUTO 23011KT 9999 NCD 13/11 Q1007
                        NOSIG=
201909280250 METAR COR EGLL 280250Z AUTO 23012KT 9999 NCD 13/11 Q1007
                        NOSIG=
201909280220 METAR COR EGLL 280220Z AUTO 24011KT 9999 NCD 13/11 Q1007
                        NOSIG=
201909280150 METAR COR EGLL 280150Z AUTO 24009KT 9999 NCD 12/11 Q1007
                        NOSIG=
201909280120 METAR COR EGLL 280120Z AUTO 23009KT 9999 NCD 12/11 Q1007
                        NOSIG=
201909280050 METAR COR EGLL 280050Z AUTO 23010KT 9999 NCD 12/11 Q1007
                        NOSIG=
201909280020 METAR COR EGLL 280020Z AUTO 23010KT 9999 NCD 13/11 Q1007
                        NOSIG=
201909272350 METAR COR EGLL 272350Z AUTO 24010KT 9999 NCD 13/11 Q1007
                        NOSIG=
201909272320 METAR COR EGLL 272320Z AUTO 24009KT 9999 NCD 13/11 Q1007
                        NOSIG=
201909272250 METAR COR EGLL 272250Z AUTO 24009KT 9999 NCD 13/12 Q1007
                        NOSIG=
201909272220 METAR COR EGLL 272220Z AUTO 24010KT 9999 NCD 13/12 Q1007
                        NOSIG=
201909272150 METAR COR EGLL 272150Z AUTO 23010KT 9999 NCD 14/12 Q1006
                        NOSIG=
201909272120 METAR COR EGLL 272120Z AUTO 24010KT 9999 NCD 14/12 Q1006
                        NOSIG=
201909272050 METAR COR EGLL 272050Z AUTO 24009KT 9999 NCD 14/12 Q1006
                        NOSIG=
201909272020 METAR COR EGLL 272020Z AUTO 24011KT 9999 NCD 14/12 Q1005
                        NOSIG=
201909271950 METAR COR EGLL 271950Z AUTO 24011KT 9999 NCD 15/12 Q1005
                        NOSIG=
201909271920 METAR EGLL 271920Z AUTO 25013KT 9999 NCD 15/12 Q1005=
201909271850 METAR COR EGLL 271850Z AUTO 24015KT 9999 FEW028 15/12 Q1004
                        NOSIG=
201909271820 METAR COR EGLL 271820Z AUTO 23013KT 9999 FEW039 15/13 Q1004
                        TEMPO SHRA=
201909271750 METAR COR EGLL 271750Z AUTO 23014G24KT 9999 FEW021 SCT025
                        BKN029 16/13 Q1003 TEMPO 4000 +SHRA=
201909271720 METAR COR EGLL 271720Z AUTO 23015KT 9999 FEW028 16/13 Q1003
                        NOSIG=
201909271650 METAR COR EGLL 271650Z AUTO 23016KT 9999 -RA SCT032/// SCT047///
                        //////CB 17/13 Q1003 NOSIG=
201909271620 METAR COR EGLL 271620Z AUTO 24017KT 9999 BKN031/// BKN047///
                        //////CB 18/12 Q1002 TEMPO 4000 +SHRA=
201909271550 METAR COR EGLL 271550Z AUTO 22015KT 9999 SCT032/// BKN041///
                        //////CB 18/12 Q1002 TEMPO 2500 +TSRA
                        BKN012CB=
201909271520 METAR COR EGLL 271520Z AUTO 23018KT 9999 SCT031/// BKN044///
                        //////CB 18/13 Q1002 TEMPO 3000 +SHRA
                        BKN014CB=
201909271450 METAR COR EGLL 271450Z AUTO 22016KT 9999 SCT027/// //////CB
                        18/13 Q1002 TEMPO 4000 +SHRA BKN014CB=
201909271420 METAR COR EGLL 271420Z AUTO 22015KT 9999 FEW023 17/14 Q1002
                        TEMPO 4000 +SHRA BKN014CB=
201909271350 METAR COR EGLL 271350Z AUTO 23015KT 9999 FEW033/// //////CB
                        16/14 Q1003 RESHRA TEMPO SHRA=
201909271320 METAR COR EGLL 271320Z AUTO 22013KT 190V250 9999 -RA FEW028///
                        //////CB 17/14 Q1002 TEMPO 4500 +SHRA
                        BKN014CB=
201909271250 METAR COR EGLL 271250Z AUTO 22015KT 9999 FEW049/// //////CB
                        17/13 Q1003 TEMPO 4000 +SHRA BKN014CB=
201909271220 METAR COR EGLL 271220Z AUTO 23019KT 9999 SCT034/// //////CB
                        18/13 Q1003 TEMPO 4000 +SHRA BKN014CB=
201909271150 METAR COR EGLL 271150Z AUTO 23015KT 9999 FEW029 SCT037 17/14
                        Q1003 TEMPO SHRA=
201909271120 METAR COR EGLL 271120Z AUTO 21011KT 170V250 9999 -RA SCT022///
                        //////CB 17/15 Q1003 RESHRA TEMPO
                        SHRA=
201909271050 METAR COR EGLL 271050Z 22014G24KT 4000 SHRA FEW012 SCT022CB
                        BKN027 16/14 Q1003 TEMPO 9999 NSW=
201909271020 METAR COR EGLL 271020Z AUTO 22016KT 9999 SCT025 SCT030 18/13
                        Q1003 TEMPO 4500 SHRA=
201909270950 METAR COR EGLL 270950Z AUTO 23016G26KT 9999 BKN026 17/12
                        Q1003 TEMPO 4500 SHRA=
201909270920 METAR COR EGLL 270920Z AUTO 23017KT 9999 BKN025 17/12 Q1004
                        TEMPO SHRA=
201909270850 METAR COR EGLL 270850Z AUTO 23015KT 9999 FEW025 17/12 Q1004
                        NOSIG=
201909270820 METAR COR EGLL 270820Z AUTO 22012KT 9999 NCD 16/13 Q1004
                        NOSIG=
201909270750 METAR COR EGLL 270750Z AUTO 22011KT 9999 NCD 15/13 Q1004
                        NOSIG=
201909270720 METAR COR EGLL 270720Z AUTO 21010KT 9999 NCD 15/12 Q1004
                        NOSIG=
201909270650 METAR COR EGLL 270650Z AUTO 21010KT 9999 NCD 14/12 Q1004
                        NOSIG=
201909270620 METAR COR EGLL 270620Z AUTO 21008KT 9999 NCD 13/12 Q1004
                        NOSIG=
201909270550 METAR COR EGLL 270550Z AUTO 20009KT 9999 NCD 13/12 Q1004
                        NOSIG=
201909270520 METAR COR EGLL 270520Z AUTO 21009G19KT 180V250 9999 NCD 13/12
                        Q1004 NOSIG=
201909270450 METAR COR EGLL 270450Z AUTO 22007KT 9999 NCD 14/12 Q1004
                        NOSIG=
201909270420 METAR COR EGLL 270420Z AUTO 21009KT 9999 NCD 14/12 Q1004
                        NOSIG=
201909270350 METAR COR EGLL 270350Z AUTO 21008KT 9999 NCD 14/12 Q1004
                        NOSIG=
201909270320 METAR COR EGLL 270320Z AUTO 21008KT 9999 NCD 14/12 Q1004
                        NOSIG=
201909270250 METAR COR EGLL 270250Z AUTO 21008KT 9999 NCD 14/12 Q1004
                        NOSIG=
201909270220 METAR COR EGLL 270220Z AUTO 21008KT 9999 FEW049 14/12 Q1004
                        NOSIG=
201909270150 METAR COR EGLL 270150Z AUTO 21008KT 9999 SCT024 14/12 Q1005
                        NOSIG=
201909270120 METAR COR EGLL 270120Z AUTO 20009KT 9999 NCD 14/12 Q1005
                        NOSIG=
201909270050 METAR COR EGLL 270050Z AUTO 21009KT 9999 FEW042 14/12 Q1005
                        NOSIG=
201909270020 METAR COR EGLL 270020Z AUTO 22009KT 9999 BKN023 14/12 Q1005
                        NOSIG=
201909262350 METAR COR EGLL 262350Z AUTO 22009KT 9999 NCD 14/12 Q1005
                        NOSIG=
201909262320 METAR COR EGLL 262320Z AUTO 22009KT 9999 FEW024 14/12 Q1005
                        NOSIG=
201909262250 METAR COR EGLL 262250Z AUTO 22008KT 9999 NCD 14/12 Q1005
                        NOSIG=
201909262220 METAR COR EGLL 262220Z AUTO 21009KT 9999 NCD 14/12 Q1005
                        NOSIG=
201909262150 METAR COR EGLL 262150Z AUTO 22010KT 9999 NCD 15/12 Q1005
                        NOSIG=
201909262120 METAR COR EGLL 262120Z AUTO 23010KT 190V260 9999 NCD 15/12
                        Q1005 NOSIG=
201909262050 METAR COR EGLL 262050Z AUTO 22011KT 9999 NCD 15/12 Q1005
                        NOSIG=
201909262020 METAR COR EGLL 262020Z AUTO 21012KT 9999 NCD 15/12 Q1005
                        NOSIG=
201909261950 METAR COR EGLL 261950Z AUTO 22012KT 9999 NCD 15/12 Q1004
                        NOSIG=
201909261920 METAR COR EGLL 261920Z 23014G24KT CAVOK 16/12 Q1004 NOSIG=
201909261850 METAR COR EGLL 261850Z 22011KT 9999 FEW028 16/12 Q1004 NOSIG=
201909261820 METAR COR EGLL 261820Z AUTO 23010KT 9999 SCT031/// BKN038///
                        //////CB 17/12 Q1004 TEMPO SHRA=
201909261750 METAR COR EGLL 261750Z AUTO 26010KT 9999 SCT026/// BKN033///
                        BKN046/// //////CB 17/13 Q1004 TEMPO
                        6000 SHRA=
201909261720 METAR COR EGLL 261720Z AUTO 23015KT 9999 SCT038/// //////CB
                        17/13 Q1003 TEMPO 6000 SHRA=
201909261650 METAR COR EGLL 261650Z AUTO 22009KT 9999 -RA SCT035/// BKN045///
                        //////CB 17/13 Q1003 TEMPO 6000 SHRA=
201909261620 METAR COR EGLL 261620Z AUTO 23012KT 9999 NCD 18/13 Q1003
                        TEMPO 6000 SHRA=
201909261550 METAR COR EGLL 261550Z AUTO 25011KT 9999 //////TCU 17/14
                        Q1003 TEMPO 6000 SHRA=
201909261520 METAR COR EGLL 261520Z AUTO 26010KT 9999 -RA SCT038/// SCT044///
                        //////CB 16/14 Q1003 TEMPO 6000 SHRA=
201909261450 METAR COR EGLL 261450Z AUTO 27011KT 9999 SCT035/// BKN042///
                        //////CB 17/14 Q1003 TEMPO 6000 SHRA=
201909261420 METAR COR EGLL 261420Z AUTO 24013KT 9999 -RA SCT036/// BKN047///
                        //////CB 19/12 Q1003 TEMPO 6000 SHRA=
201909261350 METAR COR EGLL 261350Z AUTO 23014G24KT 200V260 9999 FEW037
                        20/12 Q1003 TEMPO 6000 SHRA=
201909261320 METAR COR EGLL 261320Z AUTO 24016KT 9999 FEW043 19/12 Q1003
                        TEMPO SHRA=
201909261250 METAR COR EGLL 261250Z AUTO 24013KT 9999 FEW033 SCT044 19/13
                        Q1002 TEMPO SHRA=
201909261220 METAR COR EGLL 261220Z AUTO 24015KT 9999 NCD 19/13 Q1003
                        TEMPO SHRA=
201909261150 METAR COR EGLL 261150Z AUTO 24014KT 9999 NCD 19/12 Q1003
                        TEMPO SHRA=
201909261120 METAR COR EGLL 261120Z AUTO 23014KT 9999 FEW024 19/14 Q1003
                        TEMPO SHRA=
201909261050 METAR COR EGLL 261050Z AUTO 23010KT 9999 SCT017 SCT023 BKN037
                        18/15 Q1003 NOSIG=
201909261020 METAR COR EGLL 261020Z AUTO 23010KT 9999 SCT026/// BKN048///
                        //////TCU 18/16 Q1003 NOSIG=
201909260950 METAR COR EGLL 260950Z AUTO 23011KT 200V260 9999 SCT030///
                        BKN038/// BKN047/// //////TCU 17/15
                        Q1002 NOSIG=
201909260920 METAR COR EGLL 260920Z AUTO 24012KT 9999 SCT030/// BKN035///
                        //////TCU 16/15 Q1002 NOSIG=
201909260850 METAR COR EGLL 260850Z AUTO 23012KT 9999 -RA FEW012/// BKN030///
                        //////TCU 17/15 Q1002 TEMPO BKN012=
201909260820 METAR COR EGLL 260820Z AUTO 23012KT 9999 -RA SCT018 SCT027
                        BKN034 18/17 Q1002 TEMPO 6000 RA=
201909260750 METAR COR EGLL 260750Z AUTO 22010KT 9999 FEW011 BKN015 BKN021
                        17/17 Q1002 TEMPO 6000 RA=
201909260720 METAR COR EGLL 260720Z 22011KT 9999 BKN008 BKN018 17/17 Q1001
                        TEMPO 6000 RA=
201909260650 METAR COR EGLL 260650Z AUTO 21011KT 9999 -RA SCT006 BKN010
                        BKN016 17/17 Q1001 RERA REDZ TEMPO
                        5000 RA=
201909260620 METAR COR EGLL 260620Z 21010KT 5000 -RA BKN008 BKN015 BKN029
                        17/17 Q1001 RERA REDZ TEMPO 4000
                        RA=
201909260550 METAR COR EGLL 260550Z AUTO 21009KT 180V240 9999 -RA SCT010///
                        BKN015/// OVC048/// //////TCU 17/17
                        Q1001 BECMG BKN010=
201909260520 METAR COR EGLL 260520Z AUTO 21009KT 9999 BKN007 OVC015 17/17
                        Q1001 TEMPO SCT007 BKN012=
201909260450 METAR COR EGLL 260450Z AUTO 20009KT 9999 OVC006 17/16 Q1001
                        TEMPO SCT006 BKN010=
201909260420 METAR COR EGLL 260420Z AUTO 21008G18KT 9999 BKN007 OVC012
                        16/16 Q1001 TEMPO SCT007=
201909260350 METAR COR EGLL 260350Z AUTO 20009KT 9999 SCT007 BKN010 OVC041
                        16/16 Q1001 TEMPO BKN007=
201909260320 METAR COR EGLL 260320Z AUTO 20008KT 7000 -RA SCT008 SCT013
                        BKN025 16/16 Q1002 TEMPO BKN008=
201909260250 METAR COR EGLL 260250Z AUTO 20008KT 9999 -RA BKN012 BKN016
                        OVC046 16/16 Q1002 TEMPO BKN008=
201909260220 METAR COR EGLL 260220Z AUTO 21007KT 9999 -RA SCT007/// BKN012///
                        BKN016/// //////CB 16/16 Q1002 TEMPO
                        BKN007=
201909260150 METAR COR EGLL 260150Z AUTO 20009KT 6000 -RA BKN009/// OVC015///
                        //////TCU 16/15 Q1002 TEMPO 4000
                        RA=
201909260120 METAR COR EGLL 260120Z AUTO 21007KT 9999 BKN012/// BKN017///
                        OVC023/// //////TCU 16/15 Q1003 TEMPO
                        4000 RA BKN008=
201909260050 METAR COR EGLL 260050Z AUTO 21008KT 9999 BKN011 OVC020 16/15
                        Q1003 TEMPO RA BKN008=
201909260020 METAR COR EGLL 260020Z AUTO 21007KT 9999 -RA SCT024 16/15
                        Q1003 BECMG BKN012=
201909252350 METAR COR EGLL 252350Z AUTO 20007KT 9999 FEW026 16/15 Q1003
                        BECMG BKN012=
201909252320 METAR COR EGLL 252320Z AUTO 21009KT 9999 -RA //////TCU 16/15
                        Q1003 BECMG BKN014=
201909252250 METAR COR EGLL 252250Z AUTO 21007KT 9999 NCD 16/14 Q1003
                        TEMPO BKN010=
201909252220 METAR COR EGLL 252220Z AUTO 21005KT 9999 SCT043 16/14 Q1003
                        TEMPO BKN010=
201909252150 METAR COR EGLL 252150Z AUTO 22008KT 9999 NCD 16/14 Q1003
                        NOSIG=
201909252120 METAR COR EGLL 252120Z AUTO 23010KT 9999 NCD 16/14 Q1003
                        NOSIG=
201909252050 METAR COR EGLL 252050Z AUTO 22008KT 9999 NCD 16/14 Q1003
                        NOSIG=
201909252020 METAR COR EGLL 252020Z AUTO 23009KT 9999 NCD 17/14 Q1003
                        NOSIG=
201909251950 METAR COR EGLL 251950Z AUTO 24008KT 9999 NCD 17/14 Q1003
                        NOSIG=
201909251920 METAR COR EGLL 251920Z AUTO 24010KT 9999 NCD 17/13 Q1003
                        NOSIG=
201909251850 METAR COR EGLL 251850Z AUTO 24009KT 9999 FEW044 18/14 Q1003
                        NOSIG=
201909251820 METAR COR EGLL 251820Z AUTO 25010KT 9999 NCD 18/14 Q1002
                        NOSIG=
201909251750 METAR COR EGLL 251750Z AUTO 27012KT 9999 NCD 18/13 Q1002
                        NOSIG=
201909251720 METAR EGLL 251720Z AUTO 26014KT 9999 FEW029 19/13 Q1002=
201909251650 METAR COR EGLL 251650Z AUTO 26012KT 9999 FEW041 OVC048 19/14
                        Q1002 NOSIG=
201909251620 METAR COR EGLL 251620Z AUTO 27014KT 9999 FEW033 SCT041 BKN048
                        19/13 Q1001 NOSIG=
201909251550 METAR COR EGLL 251550Z AUTO 26014KT 9999 FEW034 20/13 Q1001
                        NOSIG=
201909251520 METAR COR EGLL 251520Z AUTO 26015KT 9999 FEW037/// //////TCU
                        21/13 Q1001 NOSIG=
201909251450 METAR COR EGLL 251450Z AUTO 25015KT 9999 FEW032/// SCT046///
                        //////CB 21/13 Q1001 NOSIG=
201909251420 METAR COR EGLL 251420Z AUTO 24015KT 9999 FEW030/// BKN040///
                        //////TCU 21/14 Q1000 NOSIG=
201909251350 METAR COR EGLL 251350Z AUTO 24013KT 9999 FEW027 BKN047 21/15
                        Q1000 NOSIG=
201909251320 METAR COR EGLL 251320Z AUTO 25014KT 9999 FEW027 BKN046 20/15
                        Q1000 NOSIG=
201909251250 METAR COR EGLL 251250Z AUTO 25011KT 210V280 9999 FEW019 BKN042
                        18/16 Q1000 NOSIG=
201909251220 METAR COR EGLL 251220Z AUTO 25013KT 9999 -RA SCT020 SCT027
                        BKN037 18/16 Q1000 NOSIG=
201909251150 METAR COR EGLL 251150Z AUTO 25015KT 9999 SCT019 OVC040 19/15
                        Q1000 NOSIG=
201909251120 METAR COR EGLL 251120Z AUTO 25015KT 9999 FEW016/// BKN034///
                        BKN042/// //////CB 19/15 Q1000 NOSIG=
201909251050 METAR COR EGLL 251050Z AUTO 24015KT 9999 SCT015 SCT032 BKN038
                        18/16 Q0999 TEMPO 6000 BKN014=
201909251020 METAR COR EGLL 251020Z 24013KT 9999 -RA SCT015 SCT019 BKN026
                        18/16 Q0999 TEMPO 6000=
201909250950 METAR COR EGLL 250950Z AUTO 24012KT 9999 FEW015 BKN019 18/15
                        Q0999 NOSIG=
201909250920 METAR COR EGLL 250920Z AUTO 24014KT 9999 SCT012 BKN017 BKN022
                        17/16 Q0999 TEMPO BKN012=
201909250850 METAR COR EGLL 250850Z AUTO 24012KT 9999 BKN012 OVC018 17/16
                        Q0999 BECMG FEW012 BKN016=
201909250820 METAR COR EGLL 250820Z AUTO 23013KT 9999 -RA BKN010 BKN016
                        OVC028 16/16 Q0998 NOSIG=
201909250750 METAR COR EGLL 250750Z AUTO 23013KT 9999 BKN011 OVC031 16/15
                        Q0998 TEMPO SHRA=
201909250720 METAR COR EGLL 250720Z AUTO 22010KT 9999 -RA BKN010 OVC017
                        16/15 Q0998 TEMPO SHRA=
201909250650 METAR COR EGLL 250650Z AUTO 22009KT 9999 BKN010 16/15 Q0998
                        TEMPO SHRA=
201909250620 METAR COR EGLL 250620Z AUTO 21009KT 9999 -RA BKN012 16/15
                        Q0998 TEMPO SHRA=
201909250550 METAR COR EGLL 250550Z AUTO 21009KT 9999 -RA SCT010/// BKN015///
                        BKN020/// //////TCU 16/15 Q0998 TEMPO
                        SHRA BKN010=
201909250520 METAR COR EGLL 250520Z AUTO 20010KT 6000 -RA SCT006/// BKN009///
                        OVC029/// //////CB 15/15 Q0998 RESHRA
                        RERA REDZ TEMPO SCT009 BKN012=
201909250450 METAR COR EGLL 250450Z AUTO 16008KT 120V190 9999 -RA SCT016///
                        BKN021/// BKN033/// //////CB 15/15
                        Q0998 TEMPO 4000 +SHRA BKN008=
201909250420 METAR COR EGLL 250420Z AUTO 18009KT 9999 FEW010 SCT017 BKN031
                        15/14 Q0998 TEMPO 4000 +SHRA BKN008=
201909250350 METAR COR EGLL 250350Z AUTO 18009KT 9999 -RA SCT010 BKN018
                        15/14 Q0999 TEMPO 4000 +SHRA BKN008=
201909250320 METAR COR EGLL 250320Z AUTO 18009KT 9999 -RA SCT007 SCT018
                        BKN029 15/14 Q0999 TEMPO 4000 +SHRA
                        BKN008=
201909250250 METAR COR EGLL 250250Z AUTO 19010KT 9999 BKN010 15/14 Q0999
                        TEMPO SHRA BKN008=
201909250220 METAR COR EGLL 250220Z AUTO 19009KT 9999 -RA SCT011 BKN017
                        15/14 Q1000 TEMPO SHRA BKN012=
201909250150 METAR COR EGLL 250150Z AUTO 18009KT 9999 -RA SCT013 BKN018
                        BKN025 15/14 Q1000 TEMPO RA BKN012=
201909250120 METAR COR EGLL 250120Z AUTO 19008KT 9999 -RA SCT021 15/14
                        Q1000 TEMPO RA BKN014=
201909250050 METAR COR EGLL 250050Z AUTO 20009KT 9999 -RA SCT019 15/14
                        Q1001 NOSIG=
201909250020 METAR COR EGLL 250020Z AUTO 21008KT 9999 FEW019 SCT045 15/14
                        Q1001 NOSIG=
201909242350 METAR COR EGLL 242350Z AUTO 21007KT 9999 BKN014 BKN020 BKN048
                        15/14 Q1001 TEMPO RA=
201909242320 METAR COR EGLL 242320Z AUTO 20008KT 9999 BKN011 OVC048 15/15
                        Q1001 NOSIG=
201909242250 METAR COR EGLL 242250Z AUTO 21008KT 9999 BKN013 OVC048 15/15
                        Q1001 TEMPO SCT012 BKN015=
201909242220 METAR COR EGLL 242220Z AUTO 21008KT 9999 -RA BKN017 BKN025
                        15/14 Q1001 TEMPO BKN014=
201909242150 METAR COR EGLL 242150Z AUTO 21008KT 180V240 9999 -RA FEW019
                        SCT031 BKN039 15/15 Q1001 TEMPO BKN014=
201909242120 METAR COR EGLL 242120Z AUTO 21008KT 9999 -RA SCT042 15/14
                        Q1002 TEMPO RA BKN014=
201909242050 METAR COR EGLL 242050Z AUTO 22010KT 9999 -RA FEW037/// //////TCU
                        15/14 Q1002 NOSIG=
201909242020 METAR COR EGLL 242020Z AUTO 22009KT 9000 -RA FEW023 SCT049
                        15/14 Q1002 TEMPO SHRA BKN014=
201909241950 METAR COR EGLL 241950Z AUTO 21009KT 180V240 9000 -RA FEW034
                        16/14 Q1002 NOSIG=
201909241920 METAR COR EGLL 241920Z AUTO 22008KT 9999 NCD 16/14 Q1001
                        NOSIG=
201909241850 METAR COR EGLL 241850Z AUTO 22010KT 9999 NCD 16/14 Q1001
                        NOSIG=
201909241820 METAR COR EGLL 241820Z AUTO 21010KT 180V260 9999 NCD 16/15
                        Q1001 NOSIG=
201909241750 METAR COR EGLL 241750Z AUTO 21007KT 180V240 9999 NCD 16/15
                        Q1001 NOSIG=
201909241720 METAR COR EGLL 241720Z AUTO 23009KT 9999 FEW039 17/15 Q1001
                        NOSIG=
201909241650 METAR COR EGLL 241650Z AUTO 24007KT 210V270 9999 NCD 18/15
                        Q1001 NOSIG=
201909241620 METAR COR EGLL 241620Z AUTO 23010KT 9999 NCD 18/16 Q1001
                        NOSIG=
201909241550 METAR COR EGLL 241550Z AUTO 22010KT 9999 //////CB 17/16 Q1000
                        NOSIG=
201909241520 METAR COR EGLL 241520Z 23011KT 9999 FEW020CB SCT030 BKN047
                        16/16 Q1000 RETS TEMPO 8000 SHRA=
201909241450 METAR COR EGLL 241450Z 26013KT 9999 2000S +SHRA SCT022CB
                        BKN038 BKN045 17/15 Q1000 TEMPO 6000
                        SHRA=
201909241420 METAR COR EGLL 241420Z AUTO 26010KT 9999 -RA SCT026/// SCT034///
                        BKN041/// //////CB 19/15 Q1000 TEMPO
                        4000 SHRA=
201909241350 METAR COR EGLL 241350Z AUTO 27012KT 9999 //////CB 20/15 Q1000
                        NOSIG=
201909241320 METAR COR EGLL 241320Z AUTO 25016KT 9999 FEW019/// SCT029///
                        //////CB 19/15 Q1000 RERA NOSIG=
201909241250 METAR COR EGLL 241250Z AUTO 23012KT 190V250 9999 SCT014///
                        SCT019/// BKN026/// //////CB 20/16
                        Q0999 TEMPO 4000 SHRA BKN014CB=
201909241220 METAR COR EGLL 241220Z AUTO 21011KT 180V250 9999 FEW013///
                        //////CB 19/17 Q0999 TEMPO 4000 SHRA
                        BKN013CB=
201909241150 METAR COR EGLL 241150Z AUTO 21012KT 9999 NCD 18/17 Q1000
                        TEMPO 4000 SHRA BKN014CB=
201909241120 METAR COR EGLL 241120Z 22011KT 180V250 9999 FEW016CB SCT034
                        18/16 Q1000 RESHRA TEMPO 4000 SHRA=
201909241050 METAR COR EGLL 241050Z 22011KT 190V250 9999 4000E VCSH SCT020CB
                        BKN033 BKN048 17/16 Q1000 RESHRA
                        TEMPO 4000 SHRA BKN014CB=
201909241020 METAR COR EGLL 241020Z AUTO 22012KT 9999 -RA SCT015/// SCT026///
                        //////CB 18/17 Q1000 TEMPO 3000 RA
                        BKN008=
201909240950 METAR COR EGLL 240950Z AUTO 22012G24KT 180V250 9999 BKN014
                        18/17 Q1000 TEMPO 4000 RA BKN008=
201909240920 METAR COR EGLL 240920Z AUTO 20011KT 9999 FEW015 SCT038 18/17
                        Q1000 TEMPO 3000 RA BKN008=
201909240850 METAR COR EGLL 240850Z AUTO 19009KT 9999 SCT015/// BKN038///
                        //////CB 17/17 Q0999 NOSIG=
201909240820 METAR COR EGLL 240820Z 16009KT 9999 FEW018CB SCT032 BKN049
                        17/16 Q0999 NOSIG=
201909240750 METAR COR EGLL 240750Z 16009KT 3500 -RA FEW011CB BKN015 BKN026
                        17/16 Q1000 RERA TEMPO 2500 +RA BKN011CB=
201909240720 METAR COR EGLL 240720Z AUTO 15010KT 9999 -RA SCT007/// BKN012///
                        OVC019/// //////CB 17/16 Q1000 TEMPO
                        4000 RA BKN006=
201909240650 METAR COR EGLL 240650Z 16009KT 5000 -RA SCT006 BKN030CB 16/16
                        Q1001 TEMPO 3000 RA BKN006=
201909240620 METAR COR EGLL 240620Z 14009KT 110V190 5000 RA SCT005 BKN009CB
                        BKN013 16/16 Q1001 RERA TEMPO 2000
                        +RA BKN005=
201909240550 METAR COR EGLL 240550Z AUTO 14009KT 8000 -RA FEW006/// BKN012///
                        BKN016/// //////CB 16/16 Q1002 TEMPO
                        4000 RA BKN006=
201909240520 METAR COR EGLL 240520Z AUTO 14008KT 110V180 9999 -RA SCT006///
                        BKN012/// BKN019/// //////CB 16/16
                        Q1002 RERA TEMPO 4000 SHRA BKN006=
201909240450 METAR COR EGLL 240450Z 16009KT 6000 +RA BKN006 BKN010CB 17/16
                        Q1003 TEMPO 4000 RA=
201909240420 METAR COR EGLL 240420Z AUTO 17008KT 9999 OVC006/// //////TCU
                        17/16 Q1003 TEMPO 4000 SHRA=
201909240350 METAR COR EGLL 240350Z AUTO 16008KT 5000 BR OVC005 17/16
                        Q1004 TEMPO 4000 SHRA=
201909240320 METAR COR EGLL 240320Z AUTO 16008KT 6000 -RA SCT006 BKN010
                        OVC015 17/16 Q1004 TEMPO 4000 RA
                        BKN006=
201909240250 METAR COR EGLL 240250Z AUTO 17009KT 8000 BKN006 BKN010 OVC014
                        17/16 Q1005 RERA REDZ TEMPO 4000
                        RA=
201909240220 METAR COR EGLL 240220Z AUTO 17008KT 4000 RADZ BKN006 OVC013
                        17/16 Q1005 NOSIG=
201909240150 METAR COR EGLL 240150Z AUTO 17008KT 9999 BKN007 OVC014 17/16
                        Q1005 TEMPO 4000 SHRA=
201909240120 METAR COR EGLL 240120Z AUTO 17008KT 5000 BR SCT007 BKN011
                        OVC038 16/16 Q1006 TEMPO 4000 RA
                        BKN007=
201909240050 METAR COR EGLL 240050Z AUTO 18009KT 6000 BKN006 BKN012 BKN017
                        16/16 Q1006 TEMPO 4000 RA=
201909240020 METAR COR EGLL 240020Z AUTO 18009KT 6000 -RA BKN006 BKN010
                        OVC027 17/16 Q1007 TEMPO 4000 RA=
201909232350 METAR COR EGLL 232350Z AUTO 18010KT 9999 -RA BKN007 BKN012
                        17/16 Q1007 TEMPO 4000 RA=
201909232320 METAR COR EGLL 232320Z AUTO 18012KT 9999 BKN009 BKN015 17/16
                        Q1007 TEMPO 4000 RA=
201909232250 METAR COR EGLL 232250Z AUTO 18010KT 9999 BKN009 17/16 Q1007
                        TEMPO 4000 RA=
201909232220 METAR COR EGLL 232220Z AUTO 18010KT 9999 -RA BKN008 OVC016
                        17/16 Q1007 TEMPO 4000 RA=
201909232150 METAR COR EGLL 232150Z AUTO 18010KT 9999 BKN007 OVC013 17/16
                        Q1008 TEMPO 4000 RA=
201909232120 METAR COR EGLL 232120Z AUTO 18011KT 7000 BKN009 OVC016 16/16
                        Q1008 TEMPO 4000 RA=
201909232050 METAR COR EGLL 232050Z AUTO 16011KT 6000 -RA SCT007 BKN011
                        OVC024 16/16 Q1008 TEMPO RADZ BKN007=
201909232020 METAR COR EGLL 232020Z AUTO 15009KT 4900 -DZ BKN007 OVC032
                        16/15 Q1008 TEMPO RADZ=
201909231950 METAR COR EGLL 231950Z AUTO 16012KT 5000 -DZ SCT009 BKN012
                        OVC030 15/15 Q1009 TEMPO RADZ BKN009=
201909231920 METAR COR EGLL 231920Z AUTO 16013KT 130V190 9999 BKN010 BKN035
                        15/14 Q1009 TEMPO RADZ=
201909231850 METAR COR EGLL 231850Z AUTO 16011KT 9999 BKN012 OVC047 15/14
                        Q1009 TEMPO RADZ=
201909231820 METAR COR EGLL 231820Z AUTO 17012KT 9999 BKN015 15/14 Q1009
                        TEMPO RADZ BKN012=
201909231750 METAR COR EGLL 231750Z AUTO 16012G23KT 9999 -RA BKN017 BKN049
                        16/14 Q1009 TEMPO RADZ BKN012=
201909231720 METAR COR EGLL 231720Z AUTO 16013KT 9999 -RA FEW016 SCT020
                        BKN027 16/14 Q1009 TEMPO RA BKN014=
201909231650 METAR COR EGLL 231650Z AUTO 16011KT 9999 -RA SCT014 SCT019
                        BKN027 16/15 Q1010 TEMPO RA BKN014=
201909231620 METAR COR EGLL 231620Z AUTO 16011KT 140V220 9999 -RA SCT030
                        16/14 Q1010 TEMPO RA=
201909231550 METAR COR EGLL 231550Z AUTO 18011G21KT 9999 -RA FEW021 SCT033
                        16/15 Q1010 RERA TEMPO RA=
201909231520 METAR COR EGLL 231520Z AUTO 19012KT 9999 -RA FEW032 SCT040
                        16/14 Q1010 RERA TEMPO RA=
201909231450 METAR COR EGLL 231450Z AUTO 19014KT 150V220 9999 -RA FEW026
                        SCT033 BKN047 18/13 Q1010 TEMPO RA=
201909231420 METAR COR EGLL 231420Z AUTO 20012KT 9999 FEW033 19/13 Q1011
                        TEMPO RA=
201909231350 METAR COR EGLL 231350Z AUTO 20012KT 160V240 9999 SCT049 18/13
                        Q1011 TEMPO RA=
201909231320 METAR COR EGLL 231320Z AUTO 21014KT 170V240 9999 -RA SCT033
                        BKN045 19/12 Q1011 TEMPO RA=
201909231250 METAR COR EGLL 231250Z AUTO 21011KT 180V250 9999 FEW032 SCT038
                        20/12 Q1011 NOSIG=
201909231220 METAR COR EGLL 231220Z AUTO 23010KT 9999 FEW035 19/13 Q1011
                        NOSIG=
201909231150 METAR COR EGLL 231150Z AUTO 23010KT 9999 NCD 19/13 Q1011
                        NOSIG=
201909231120 METAR COR EGLL 231120Z AUTO 24009KT 9999 -RA FEW033 SCT044
                        17/14 Q1011 NOSIG=
201909231050 METAR COR EGLL 231050Z AUTO 25010KT 9999 -RA SCT027 SCT039
                        17/13 Q1011 NOSIG=
201909231020 METAR COR EGLL 231020Z AUTO 22011KT 190V260 9999 FEW027 BKN035
                        BKN043 18/12 Q1011 TEMPO SHRA=
201909230950 METAR EGLL 230950Z AUTO 22008KT 180V260 9999 FEW027 SCT033
                        BKN046 18/12 Q1012=
201909230920 METAR COR EGLL 230920Z AUTO 22008KT 180V250 9999 NCD 17/11
                        Q1012 NOSIG=
201909230850 METAR COR EGLL 230850Z AUTO 24008KT 9999 NCD 17/12 Q1012
                        NOSIG=
201909230820 METAR COR EGLL 230820Z AUTO 23008KT 9999 NCD 16/12 Q1012
                        NOSIG=
201909230750 METAR COR EGLL 230750Z AUTO 23009KT 9999 NCD 15/12 Q1011
                        NOSIG=
201909230720 METAR COR EGLL 230720Z AUTO 23008KT 190V250 9999 NCD 14/12
                        Q1011 NOSIG=
201909230650 METAR COR EGLL 230650Z AUTO 22008KT 190V250 9999 NCD 14/12
                        Q1011 NOSIG=
201909230620 METAR COR EGLL 230620Z AUTO 24009KT 9999 FEW038 BKN045 14/12
                        Q1011 NOSIG=
201909230550 METAR EGLL 230550Z AUTO 24009KT 9999 BKN049 14/13 Q1010=
201909230520 METAR COR EGLL 230520Z AUTO 24009KT 9999 SCT013 BKN045 14/13
                        Q1010 NOSIG=
201909230450 METAR COR EGLL 230450Z AUTO 24009KT 9999 BKN013 BKN044 14/13
                        Q1009 NOSIG=
201909230420 METAR COR EGLL 230420Z AUTO 24009KT 9999 BKN013 15/13 Q1009
                        NOSIG=
201909230350 METAR COR EGLL 230350Z AUTO 24010KT 9999 OVC012 15/13 Q1009
                        NOSIG=
201909230320 METAR COR EGLL 230320Z AUTO 24007KT 9999 OVC011 14/13 Q1009
                        NOSIG=
201909230250 METAR COR EGLL 230250Z AUTO 23007KT 9999 OVC012 14/13 Q1008
                        NOSIG=
201909230220 METAR COR EGLL 230220Z AUTO 22006KT 9999 OVC012 14/13 Q1008
                        NOSIG=
201909230150 METAR COR EGLL 230150Z AUTO 21005KT 9999 BKN013 OVC020 14/13
                        Q1008 NOSIG=
201909230120 METAR COR EGLL 230120Z AUTO 20005KT 9999 SCT015 14/13 Q1008
                        NOSIG=
201909230050 METAR COR EGLL 230050Z AUTO 18004KT 9999 SCT013 SCT033 BKN045
                        14/13 Q1008 NOSIG=
201909230020 METAR COR EGLL 230020Z AUTO 17005KT 9999 FEW028 BKN035 BKN043
                        14/13 Q1007 NOSIG=
201909222350 METAR COR EGLL 222350Z AUTO 18005KT 9999 SCT031 BKN043 14/13
                        Q1007 NOSIG=
201909222320 METAR COR EGLL 222320Z AUTO 18005KT 9999 NCD 14/13 Q1007
                        NOSIG=
201909222250 METAR COR EGLL 222250Z AUTO 19005KT 9999 FEW046 14/13 Q1007
                        NOSIG=
201909222220 METAR COR EGLL 222220Z AUTO 20007KT 180V240 9999 SCT046 14/13
                        Q1007 NOSIG=
201909222150 METAR COR EGLL 222150Z AUTO 19006KT 140V250 9999 FEW045 14/13
                        Q1007 NOSIG=
201909222120 METAR COR EGLL 222120Z AUTO 17007KT 110V240 9999 SCT028 14/13
                        Q1006 NOSIG=
201909222050 METAR COR EGLL 222050Z AUTO 19005KT 130V260 9999 NCD 14/12
                        Q1006 NOSIG=
201909222020 METAR COR EGLL 222020Z AUTO 19007KT 150V230 9999 NCD 15/13
                        Q1006 NOSIG=
201909221950 METAR COR EGLL 221950Z AUTO 18007KT 130V230 9999 NCD 16/13
                        Q1006 NOSIG=
201909221920 METAR COR EGLL 221920Z AUTO 22009KT 190V250 9999 NCD 17/13
                        Q1006 NOSIG=
201909221850 METAR COR EGLL 221850Z AUTO 21009KT 170V250 9999 NCD 17/14
                        Q1005 NOSIG=
201909221820 METAR COR EGLL 221820Z AUTO 21009KT 150V240 9999 FEW029 17/15
                        Q1005 NOSIG=
201909221750 METAR COR EGLL 221750Z AUTO 19008KT 150V240 9999 SCT022 SCT027
                        17/15 Q1005 NOSIG=
201909221720 METAR COR EGLL 221720Z AUTO 19009KT 160V240 9999 FEW021 SCT038
                        17/15 Q1005 NOSIG=
201909221650 METAR COR EGLL 221650Z AUTO 20011KT 160V240 9999 SCT018 BKN025
                        BKN033 18/15 Q1004 TEMPO BKN014=
201909221620 METAR COR EGLL 221620Z AUTO 20009KT 150V240 9999 BKN020 18/15
                        Q1004 NOSIG=
201909221550 METAR COR EGLL 221550Z AUTO 20008KT 160V240 9999 FEW028 SCT044
                        18/15 Q1004 NOSIG=
201909221520 METAR COR EGLL 221520Z AUTO 23007KT 170V250 9999 SCT022 BKN048
                        18/16 Q1004 NOSIG=
201909221450 METAR COR EGLL 221450Z AUTO 23008KT 170V270 9999 FEW016 SCT021
                        BKN045 17/16 Q1004 NOSIG=
201909221420 METAR COR EGLL 221420Z AUTO 22012KT 9999 FEW012 SCT017 BKN031
                        18/16 Q1004 TEMPO SHRA=
201909221350 METAR COR EGLL 221350Z AUTO 21011KT 9999 SCT014 BKN018 BKN023
                        18/16 Q1004 TEMPO -SHRA BKN014=
201909221320 METAR COR EGLL 221320Z AUTO 21007KT 170V250 9999 FEW014 SCT037
                        18/17 Q1004 TEMPO -SHRA BKN014=
201909221250 METAR COR EGLL 221250Z AUTO 24007KT 210V270 9999 SCT044 17/16
                        Q1004 NOSIG=
201909221220 METAR COR EGLL 221220Z AUTO 26007KT 9999 SCT034 OVC040 17/16
                        Q1003 NOSIG=
201909221150 METAR COR EGLL 221150Z AUTO 24011KT 7000 -RA FEW013/// SCT023///
                        BKN027/// //////CB 17/16 Q1004 RERA
                        TEMPO RA BKN014=
201909221120 METAR COR EGLL 221120Z AUTO 26014KT 9999 BKN018/// BKN022///
                        OVC029/// //////TCU 18/15 Q1003 TEMPO
                        4000 RA BKN014=
201909221050 METAR COR EGLL 221050Z AUTO 19010KT 160V250 9999 SCT020///
                        BKN026/// //////CB 21/17 Q1003 TEMPO
                        RA=
201909221020 METAR COR EGLL 221020Z AUTO 17012KT 140V220 9999 SCT021///
                        //////CB 23/17 Q1002 TEMPO SHRA=
201909220950 METAR COR EGLL 220950Z AUTO 16011KT 090V190 9999 NCD 21/17
                        Q1003 TEMPO RA=
201909220920 METAR COR EGLL 220920Z AUTO 16008KT 120V220 9999 NCD 21/17
                        Q1003 NOSIG=
201909220850 METAR COR EGLL 220850Z AUTO 18008KT 140V230 9999 NCD 21/17
                        Q1003 NOSIG=
201909220820 METAR COR EGLL 220820Z AUTO 16006KT 9999 NCD 20/17 Q1003
                        NOSIG=
201909220750 METAR COR EGLL 220750Z AUTO 16007KT 9999 //////TCU 18/17
                        Q1003 NOSIG=
201909220720 METAR COR EGLL 220720Z AUTO 13007KT 9999 -RA FEW037/// //////CB
                        18/16 Q1003 NOSIG=
201909220650 METAR COR EGLL 220650Z AUTO 14004KT 9999 //////CB 18/16 Q1003
                        TEMPO SHRA=
201909220620 METAR COR EGLL 220620Z AUTO VRB03KT 9999 NCD 18/16 Q1003
                        TEMPO SHRA=
201909220550 METAR COR EGLL 220550Z AUTO 15004KT 110V180 9999 -RA //////TCU
                        18/15 Q1003 TEMPO SHRA=
201909220520 METAR COR EGLL 220520Z AUTO 11001KT 9999 //////CB 18/14 Q1003
                        NOSIG=
201909220450 METAR COR EGLL 220450Z AUTO 13005KT 9999 -RA //////CB 18/14
                        Q1003 TEMPO SHRA=
201909220420 METAR COR EGLL 220420Z AUTO 08004KT 9999 NCD 17/14 Q1003
                        TEMPO SHRA=
201909220350 METAR COR EGLL 220350Z AUTO 08003KT 9999 NCD 17/14 Q1003
                        TEMPO SHRA=
201909220320 METAR COR EGLL 220320Z AUTO 07002KT 9999 NCD 17/14 Q1004
                        TEMPO SHRA=
201909220250 METAR COR EGLL 220250Z AUTO 06003KT 9999 NCD 18/14 Q1004
                        TEMPO SHRA=
201909220220 METAR COR EGLL 220220Z AUTO 08004KT 9999 //////CB 18/14 Q1004
                        TEMPO SHRA=
201909220150 METAR COR EGLL 220150Z AUTO 08004KT 9999 NCD 17/14 Q1005
                        TEMPO SHRA=
201909220120 METAR COR EGLL 220120Z AUTO 07005KT 9999 NCD 17/14 Q1005
                        TEMPO SHRA=
201909220050 METAR COR EGLL 220050Z AUTO 08005KT 9999 NCD 17/14 Q1005
                        TEMPO SHRA=
201909220020 METAR COR EGLL 220020Z AUTO 07005KT 9999 NCD 17/13 Q1006
                        NOSIG=
201909212350 METAR COR EGLL 212350Z AUTO 08006KT 9999 NCD 17/13 Q1006
                        NOSIG=
201909212320 METAR COR EGLL 212320Z AUTO 08004KT 9999 NCD 17/13 Q1006
                        NOSIG=
201909212250 METAR COR EGLL 212250Z AUTO 08005KT 9999 NCD 17/13 Q1006
                        NOSIG=
201909212220 METAR COR EGLL 212220Z AUTO 09008KT 9999 NCD 17/13 Q1007
                        NOSIG=
201909212150 METAR COR EGLL 212150Z AUTO 09008KT 9999 NCD 17/13 Q1007
                        NOSIG=
201909212120 METAR COR EGLL 212120Z AUTO 09008KT 9999 NCD 18/13 Q1007
                        NOSIG=
201909212050 METAR COR EGLL 212050Z AUTO 09008KT 9999 NCD 18/12 Q1008
                        NOSIG=
201909212020 METAR COR EGLL 212020Z AUTO 07004KT 9999 NCD 18/12 Q1008
                        NOSIG=
201909211950 METAR COR EGLL 211950Z AUTO 07005KT 9999 NCD 19/12 Q1008
                        NOSIG=
201909211920 METAR COR EGLL 211920Z AUTO 06005KT 9999 NCD 19/11 Q1008
                        NOSIG=
201909211850 METAR COR EGLL 211850Z AUTO 09006KT 9999 NCD 19/11 Q1008
                        NOSIG=
201909211820 METAR COR EGLL 211820Z AUTO 09008KT 9999 NCD 19/11 Q1008
                        NOSIG=
201909211750 METAR COR EGLL 211750Z AUTO 10008KT 9999 NCD 20/11 Q1009
                        NOSIG=
201909211720 METAR COR EGLL 211720Z AUTO 10010KT 9999 NCD 22/11 Q1009
                        NOSIG=
201909211650 METAR COR EGLL 211650Z AUTO 09010KT 9999 NCD 23/10 Q1009
                        NOSIG=
201909211620 METAR COR EGLL 211620Z AUTO 09010KT 9999 NCD 24/10 Q1009
                        NOSIG=
201909211550 METAR COR EGLL 211550Z AUTO 11010KT 9999 NCD 25/08 Q1009
                        NOSIG=
201909211520 METAR COR EGLL 211520Z AUTO 12010KT 9999 NCD 25/08 Q1009
                        NOSIG=
201909211450 METAR COR EGLL 211450Z AUTO 12009KT 9999 NCD 26/08 Q1010
                        NOSIG=
201909211420 METAR COR EGLL 211420Z AUTO 12012KT 9999 NCD 26/08 Q1010
                        NOSIG=
201909211350 METAR COR EGLL 211350Z AUTO 13010KT 9999 NCD 25/08 Q1010
                        NOSIG=
201909211320 METAR COR EGLL 211320Z AUTO 12010KT 9999 NCD 25/08 Q1011
                        NOSIG=
201909211250 METAR COR EGLL 211250Z AUTO 10010KT 9999 NCD 25/08 Q1011
                        NOSIG=
201909211220 METAR COR EGLL 211220Z AUTO 12010KT 9999 NCD 24/08 Q1011
                        NOSIG=
201909211150 METAR COR EGLL 211150Z AUTO 11008KT 070V130 9999 NCD 24/08
                        Q1012 NOSIG=
201909211120 METAR COR EGLL 211120Z AUTO 10009KT 070V140 9999 NCD 23/08
                        Q1012 NOSIG=
201909211050 METAR COR EGLL 211050Z AUTO 09009KT 9999 NCD 22/08 Q1013
                        NOSIG=
201909211020 METAR COR EGLL 211020Z AUTO 09008KT 060V130 9999 NCD 20/08
                        Q1013 NOSIG=
201909210950 METAR COR EGLL 210950Z AUTO 11009KT 9999 NCD 19/08 Q1014
                        NOSIG=
201909210920 METAR COR EGLL 210920Z AUTO 10010KT 9999 NCD 18/08 Q1014
                        NOSIG=
201909210850 METAR COR EGLL 210850Z AUTO 09010KT 9999 NCD 17/08 Q1014
                        NOSIG=
201909210820 METAR COR EGLL 210820Z AUTO 10010KT 9999 NCD 16/08 Q1014
                        NOSIG=
201909210750 METAR COR EGLL 210750Z AUTO 10010KT 9999 NCD 15/07 Q1014
                        NOSIG=
201909210720 METAR COR EGLL 210720Z AUTO 10009KT 9999 NCD 14/07 Q1015
                        NOSIG=
201909210650 METAR COR EGLL 210650Z AUTO 09007KT 9999 NCD 13/07 Q1015
                        NOSIG=
201909210620 METAR COR EGLL 210620Z AUTO 09006KT 9999 NCD 12/07 Q1015
                        NOSIG=
201909210550 METAR COR EGLL 210550Z AUTO 09008KT 9999 NCD 12/06 Q1015
                        NOSIG=
201909210520 METAR COR EGLL 210520Z AUTO 09007KT 9999 NCD 12/06 Q1015
                        NOSIG=
201909210450 METAR COR EGLL 210450Z AUTO 09009KT 9999 NCD 12/06 Q1015
                        NOSIG=
201909210420 METAR COR EGLL 210420Z AUTO 09009KT 9999 NCD 12/07 Q1015
                        NOSIG=
201909210350 METAR COR EGLL 210350Z AUTO 09007KT 9999 NCD 12/07 Q1016
                        NOSIG=
201909210320 METAR COR EGLL 210320Z AUTO 09008KT 9999 NCD 13/07 Q1016
                        NOSIG=
201909210250 METAR COR EGLL 210250Z AUTO 09007KT 9999 NCD 13/07 Q1016
                        NOSIG=
201909210220 METAR COR EGLL 210220Z AUTO 08008KT 9999 NCD 13/07 Q1016
                        NOSIG=
201909210150 METAR COR EGLL 210150Z AUTO 09007KT 9999 NCD 13/07 Q1017
                        NOSIG=
201909210120 METAR COR EGLL 210120Z AUTO 09008KT 9999 NCD 13/08 Q1017
                        NOSIG=
201909210050 METAR COR EGLL 210050Z AUTO 08007KT 9999 NCD 14/08 Q1018
                        NOSIG=
201909210020 METAR COR EGLL 210020Z AUTO 08007KT 9999 NCD 14/09 Q1018
                        NOSIG=
201909202350 METAR COR EGLL 202350Z AUTO 08008KT 9999 NCD 14/09 Q1018
                        NOSIG=
201909202320 METAR COR EGLL 202320Z AUTO 09009KT 9999 NCD 14/10 Q1019
                        NOSIG=
201909202250 METAR COR EGLL 202250Z AUTO 09008KT 9999 NCD 14/10 Q1019
                        NOSIG=
201909202220 METAR COR EGLL 202220Z AUTO 09009KT 9999 NCD 15/10 Q1019
                        NOSIG=
201909202150 METAR COR EGLL 202150Z AUTO 09010KT 9999 NCD 15/11 Q1020
                        NOSIG=
201909202120 METAR COR EGLL 202120Z AUTO 09009KT 9999 NCD 15/11 Q1020
                        NOSIG=
201909202050 METAR COR EGLL 202050Z AUTO 09009KT 9999 NCD 15/11 Q1020
                        NOSIG=
201909202020 METAR COR EGLL 202020Z AUTO 10010KT 9999 NCD 15/10 Q1020
                        NOSIG=
201909201950 METAR COR EGLL 201950Z AUTO 09009KT 9999 NCD 15/10 Q1020
                        NOSIG=
201909201920 METAR COR EGLL 201920Z AUTO 09010KT 9999 NCD 15/09 Q1020
                        NOSIG=
201909201850 METAR COR EGLL 201850Z AUTO 08008KT 9999 NCD 16/09 Q1020
                        NOSIG=
201909201820 METAR COR EGLL 201820Z AUTO 09011KT 070V130 9999 NCD 16/09
                        Q1021 NOSIG=
201909201750 METAR COR EGLL 201750Z AUTO 08012KT 9999 NCD 16/09 Q1021
                        NOSIG=
201909201720 METAR COR EGLL 201720Z AUTO 09012KT 9999 NCD 17/08 Q1021
                        NOSIG=
201909201650 METAR COR EGLL 201650Z AUTO 10013KT 9999 NCD 18/07 Q1022
                        NOSIG=
201909201620 METAR COR EGLL 201620Z AUTO 10013KT 9999 NCD 19/06 Q1022
                        NOSIG=
201909201550 METAR COR EGLL 201550Z AUTO 10014KT 9999 NCD 20/06 Q1022
                        NOSIG=
201909201520 METAR COR EGLL 201520Z AUTO 09014KT 9999 NCD 21/06 Q1023
                        NOSIG=
201909201450 METAR COR EGLL 201450Z AUTO 09014KT 9999 NCD 21/07 Q1023
                        NOSIG=
201909201420 METAR COR EGLL 201420Z AUTO 08013KT 9999 NCD 21/07 Q1023
                        NOSIG=
201909201350 METAR COR EGLL 201350Z AUTO 09011KT 9999 NCD 21/08 Q1024
                        NOSIG=
201909201320 METAR COR EGLL 201320Z AUTO 09010KT 050V120 9999 NCD 21/07
                        Q1024 NOSIG=
201909201250 METAR COR EGLL 201250Z AUTO 10012KT 9999 NCD 22/07 Q1025
                        NOSIG=
201909201220 METAR COR EGLL 201220Z AUTO 09012KT 9999 NCD 21/07 Q1025
                        NOSIG=
201909201150 METAR COR EGLL 201150Z AUTO 10011KT 9999 NCD 20/07 Q1025
                        NOSIG=
201909201120 METAR COR EGLL 201120Z AUTO 09010KT 060V130 9999 NCD 21/07
                        Q1026 NOSIG=
201909201050 METAR COR EGLL 201050Z AUTO 11012KT 9999 NCD 20/07 Q1026
                        NOSIG=
201909201020 METAR EGLL 201020Z AUTO 11011KT 9999 NCD 19/07 Q1027=
201909200950 METAR COR EGLL 200950Z AUTO 12013KT 9999 NCD 19/07 Q1027
                        NOSIG=
201909200920 METAR COR EGLL 200920Z AUTO 12011KT 9999 NCD 17/08 Q1027
                        NOSIG=
201909200850 METAR COR EGLL 200850Z AUTO 11011KT 9999 NCD 17/09 Q1028
                        NOSIG=
201909200820 METAR COR EGLL 200820Z AUTO 10008KT 9999 NCD 16/10 Q1028
                        NOSIG=
201909200750 METAR COR EGLL 200750Z AUTO 07005KT 040V100 9999 NCD 14/11
                        Q1028 NOSIG=
201909200720 METAR COR EGLL 200720Z AUTO 07005KT 9999 NCD 13/11 Q1028=
201909200650 METAR COR EGLL 200650Z AUTO 05003KT 9999 NCD 12/11 Q1028
                        NOSIG=
201909200620 METAR COR EGLL 200620Z AUTO 06002KT 9999 NCD 10/10 Q1028
                        NOSIG=
201909200550 METAR COR EGLL 200550Z AUTO 05003KT 9999 NCD 10/09 Q1028
                        NOSIG=
201909200520 METAR COR EGLL 200520Z AUTO 05003KT 9999 NCD 10/09 Q1028
                        NOSIG=
201909200450 METAR COR EGLL 200450Z AUTO 04002KT 9999 NCD 10/09 Q1028
                        NOSIG=
201909200420 METAR COR EGLL 200420Z AUTO 08002KT 9999 NCD 10/09 Q1028
                        NOSIG=
201909200350 METAR COR EGLL 200350Z AUTO 07001KT 9999 NCD 10/09 Q1028
                        NOSIG=
201909200320 METAR COR EGLL 200320Z AUTO 05004KT 9999 NCD 11/09 Q1029
                        NOSIG=
201909200250 METAR COR EGLL 200250Z AUTO 04004KT 9999 NCD 11/10 Q1029
                        NOSIG=
201909200220 METAR COR EGLL 200220Z AUTO 04003KT 9999 NCD 11/10 Q1029
                        NOSIG=
201909200150 METAR COR EGLL 200150Z AUTO 07003KT 9999 NCD 11/09 Q1029
                        NOSIG=
201909200120 METAR COR EGLL 200120Z AUTO 06003KT 9999 NCD 11/09 Q1030
                        NOSIG=
201909200050 METAR COR EGLL 200050Z AUTO 07003KT 9999 NCD 11/09 Q1030
                        NOSIG=
201909200020 METAR COR EGLL 200020Z AUTO 08004KT 9999 NCD 12/09 Q1030
                        NOSIG=
201909192350 METAR COR EGLL 192350Z AUTO 07003KT 9999 NCD 12/09 Q1030
                        NOSIG=
201909192320 METAR COR EGLL 192320Z AUTO 08003KT 9999 NCD 12/08 Q1030
                        NOSIG=
201909192250 METAR COR EGLL 192250Z AUTO 08003KT 9999 NCD 12/08 Q1030
                        NOSIG=
201909192220 METAR COR EGLL 192220Z AUTO 09004KT 9999 NCD 13/08 Q1030
                        NOSIG=
201909192150 METAR COR EGLL 192150Z AUTO 09005KT 9999 NCD 12/08 Q1030
                        NOSIG=
201909192120 METAR COR EGLL 192120Z AUTO 09005KT 9999 NCD 13/07 Q1030
                        NOSIG=
201909192050 METAR COR EGLL 192050Z AUTO 10005KT 9999 NCD 13/08 Q1030
                        NOSIG=
201909192020 METAR COR EGLL 192020Z AUTO 10005KT 9999 NCD 14/08 Q1030
                        NOSIG=
201909191950 METAR COR EGLL 191950Z AUTO 10006KT 9999 NCD 15/08 Q1030
                        NOSIG=
201909191920 METAR COR EGLL 191920Z AUTO 10007KT 9999 NCD 15/08 Q1030
                        NOSIG=
201909191850 METAR COR EGLL 191850Z AUTO 11007KT 9999 NCD 16/08 Q1030
                        NOSIG=
201909191820 METAR COR EGLL 191820Z AUTO 10008KT 9999 NCD 17/08 Q1030
                        NOSIG=
201909191750 METAR COR EGLL 191750Z AUTO 11011KT 9999 NCD 18/09 Q1030
                        NOSIG=
201909191720 METAR COR EGLL 191720Z AUTO 10009KT 9999 NCD 20/09 Q1029
                        NOSIG=
201909191650 METAR COR EGLL 191650Z AUTO 10007KT 9999 NCD 21/09 Q1029
                        NOSIG=
201909191620 METAR COR EGLL 191620Z AUTO 10005KT 060V140 9999 NCD 21/08
                        Q1029 NOSIG=
201909191550 METAR COR EGLL 191550Z AUTO 08006KT 030V140 9999 NCD 21/08
                        Q1030 NOSIG=
201909191520 METAR COR EGLL 191520Z AUTO 07006KT 040V130 9999 NCD 21/09
                        Q1030 NOSIG=
201909191450 METAR COR EGLL 191450Z AUTO 05007KT 350V100 9999 NCD 21/08
                        Q1030 NOSIG=
201909191420 METAR COR EGLL 191420Z AUTO 07006KT 050V110 9999 NCD 21/08
                        Q1030 NOSIG=
201909191350 METAR COR EGLL 191350Z AUTO 11005KT 030V150 9999 NCD 21/08
                        Q1030 NOSIG=
201909191320 METAR COR EGLL 191320Z AUTO VRB03KT 9999 NCD 21/08 Q1030
                        NOSIG=
201909191250 METAR COR EGLL 191250Z AUTO 05004KT 010V170 9999 NCD 20/09
                        Q1031 NOSIG=
201909191220 METAR COR EGLL 191220Z AUTO VRB03KT 9999 NCD 20/08 Q1031
                        NOSIG=
201909191150 METAR COR EGLL 191150Z AUTO VRB02KT 9999 NCD 19/08 Q1032
                        NOSIG=
201909191120 METAR COR EGLL 191120Z AUTO VRB03KT 9999 NCD 19/08 Q1032
                        NOSIG=
201909191050 METAR COR EGLL 191050Z AUTO 11004KT 030V180 9999 NCD 18/08
                        Q1032 NOSIG=
201909191020 METAR COR EGLL 191020Z AUTO 10004KT 050V150 9999 NCD 18/08
                        Q1032 NOSIG=
201909190950 METAR COR EGLL 190950Z AUTO VRB03KT 9999 NCD 17/09 Q1032
                        NOSIG=
201909190920 METAR COR EGLL 190920Z AUTO VRB02KT 9999 NCD 16/09 Q1032
                        NOSIG=
201909190850 METAR COR EGLL 190850Z AUTO VRB02KT 9999 NCD 15/09 Q1032
                        NOSIG=
201909190820 METAR COR EGLL 190820Z AUTO VRB02KT 9999 NCD 13/08 Q1032
                        NOSIG=
201909190750 METAR EGLL 190750Z AUTO VRB02KT 9999 NCD 12/08 Q1032=
201909190720 METAR COR EGLL 190720Z AUTO VRB01KT 9999 NCD 12/09 Q1032
                        NOSIG=
201909190650 METAR COR EGLL 190650Z AUTO 01001KT 9999 NCD 11/08 Q1032
                        NOSIG=
201909190620 METAR COR EGLL 190620Z AUTO 36001KT 9999 NCD 09/07 Q1031
                        NOSIG=
201909190550 METAR COR EGLL 190550Z AUTO 36001KT 9999 NCD 09/08 Q1031
                        NOSIG=
201909190520 METAR COR EGLL 190520Z AUTO 01001KT 9999 NCD 09/07 Q1031
                        NOSIG=
201909190450 METAR COR EGLL 190450Z AUTO 00000KT 9999 NCD 10/08 Q1031
                        NOSIG=
201909190420 METAR COR EGLL 190420Z AUTO 31002KT 9999 NCD 10/08 Q1031
                        NOSIG=
201909190350 METAR COR EGLL 190350Z AUTO 32001KT 9999 NCD 10/08 Q1031
                        NOSIG=
201909190320 METAR COR EGLL 190320Z AUTO 34001KT 9999 NCD 10/07 Q1031
                        NOSIG=
201909190250 METAR COR EGLL 190250Z AUTO 32001KT 9999 NCD 11/08 Q1031
                        NOSIG=
201909190220 METAR COR EGLL 190220Z AUTO 02001KT 9999 NCD 10/08 Q1031
                        NOSIG=
201909190150 METAR COR EGLL 190150Z AUTO VRB02KT 9999 NCD 10/07 Q1031
                        NOSIG=
201909190120 METAR COR EGLL 190120Z AUTO 33001KT 9999 NCD 11/08 Q1031
                        NOSIG=
201909190050 METAR COR EGLL 190050Z AUTO 36001KT 9999 NCD 11/08 Q1031
                        NOSIG=
201909190020 METAR COR EGLL 190020Z AUTO 04001KT 9999 NCD 11/08 Q1031
                        NOSIG=
201909182350 METAR COR EGLL 182350Z AUTO 07001KT 9999 NCD 11/08 Q1031
                        NOSIG=
201909182320 METAR COR EGLL 182320Z AUTO 08002KT 9999 NCD 11/08 Q1031
                        NOSIG=
201909182250 METAR COR EGLL 182250Z AUTO 07001KT 9999 NCD 12/08 Q1031
                        NOSIG=
201909182220 METAR COR EGLL 182220Z AUTO 09002KT 9999 NCD 12/08 Q1031
                        NOSIG=
201909182150 METAR COR EGLL 182150Z AUTO 11003KT 9999 NCD 12/07 Q1031
                        NOSIG=
201909182120 METAR COR EGLL 182120Z AUTO 10005KT 9999 NCD 12/07 Q1030
                        NOSIG=
201909182050 METAR COR EGLL 182050Z AUTO 10005KT 9999 NCD 13/07 Q1030
                        NOSIG=
201909182020 METAR COR EGLL 182020Z AUTO 11006KT 9999 NCD 13/07 Q1030
                        NOSIG=
201909181950 METAR COR EGLL 181950Z AUTO 06003KT 9999 NCD 16/06 Q1030
                        NOSIG=
201909181920 METAR COR EGLL 181920Z AUTO 07004KT 9999 NCD 15/06 Q1029
                        NOSIG=
201909181850 METAR COR EGLL 181850Z AUTO VRB03KT 9999 NCD 16/06 Q1029
                        NOSIG=
201909181820 METAR COR EGLL 181820Z AUTO 05004KT 030V090 9999 NCD 17/05
                        Q1029 NOSIG=
201909181750 METAR COR EGLL 181750Z AUTO VRB03KT 9999 NCD 18/05 Q1029
                        NOSIG=
201909181720 METAR COR EGLL 181720Z AUTO 04005KT 010V080 9999 NCD 19/05
                        Q1028 NOSIG=
201909181650 METAR COR EGLL 181650Z AUTO 02005KT 320V060 9999 NCD 19/05
                        Q1029 NOSIG=
201909181620 METAR COR EGLL 181620Z AUTO 06007KT 030V090 9999 NCD 19/05
                        Q1029 NOSIG=
201909181550 METAR COR EGLL 181550Z AUTO 05005KT 340V090 9999 NCD 19/04
                        Q1029 NOSIG=
201909181520 METAR COR EGLL 181520Z AUTO 36006KT 320V020 9999 NCD 20/04
                        Q1029 NOSIG=
201909181450 METAR COR EGLL 181450Z AUTO 10005KT 360V170 9999 NCD 20/04
                        Q1029 NOSIG=
201909181420 METAR COR EGLL 181420Z AUTO VRB03KT 9999 NCD 19/04 Q1029
                        NOSIG=
201909181350 METAR COR EGLL 181350Z AUTO 33004KT 250V060 9999 NCD 19/05
                        Q1029 NOSIG=
201909181320 METAR COR EGLL 181320Z AUTO 05006KT 350V110 9999 NCD 19/05
                        Q1029 NOSIG=
201909181250 METAR COR EGLL 181250Z AUTO VRB05KT 9999 NCD 19/04 Q1030
                        NOSIG=
201909181220 METAR COR EGLL 181220Z AUTO 02005KT 340V080 9999 NCD 18/04
                        Q1030 NOSIG=
201909181150 METAR COR EGLL 181150Z AUTO 09007KT 020V140 9999 NCD 18/04
                        Q1030 NOSIG=
201909181120 METAR COR EGLL 181120Z AUTO 03005KT 350V070 9999 NCD 18/04
                        Q1030 NOSIG=
201909181050 METAR COR EGLL 181050Z AUTO 07006KT 340V150 9999 NCD 17/05
                        Q1030 NOSIG=
201909181020 METAR COR EGLL 181020Z AUTO 05005KT 360V170 9999 NCD 16/05
                        Q1031 NOSIG=
201909180950 METAR COR EGLL 180950Z AUTO 06004KT 340V140 9999 NCD 16/05
                        Q1031 NOSIG=
201909180920 METAR COR EGLL 180920Z AUTO 08005KT 030V110 9999 NCD 15/06
                        Q1031 NOSIG=
201909180850 METAR COR EGLL 180850Z AUTO 03005KT 320V090 9999 NCD 14/06
                        Q1030 NOSIG=
201909180820 METAR COR EGLL 180820Z AUTO VRB03KT 9999 NCD 13/06 Q1030
                        NOSIG=
201909180750 METAR COR EGLL 180750Z AUTO 04004KT 010V090 9999 NCD 11/06
                        Q1030 NOSIG=
201909180720 METAR COR EGLL 180720Z AUTO 05003KT 9999 NCD 11/06 Q1030
                        NOSIG=
201909180650 METAR COR EGLL 180650Z AUTO VRB01KT 9999 NCD 09/06 Q1030
                        NOSIG=
201909180620 METAR COR EGLL 180620Z AUTO 01001KT 9999 NCD 08/05 Q1029
                        NOSIG=
201909180550 METAR COR EGLL 180550Z AUTO VRB02KT 9999 NCD 08/05 Q1029
                        NOSIG=
201909180520 METAR COR EGLL 180520Z AUTO 01003KT 9999 NCD 08/05 Q1029
                        NOSIG=
201909180450 METAR COR EGLL 180450Z AUTO 36003KT 9999 NCD 08/05 Q1029
                        NOSIG=
201909180420 METAR COR EGLL 180420Z AUTO 36004KT 9999 NCD 08/05 Q1029
                        NOSIG=
201909180350 METAR COR EGLL 180350Z AUTO 36004KT 9999 NCD 08/05 Q1029
                        NOSIG=
201909180320 METAR COR EGLL 180320Z AUTO 36003KT 9999 NCD 09/05 Q1029
                        NOSIG=
201909180250 METAR COR EGLL 180250Z AUTO VRB03KT 9999 NCD 09/05 Q1029
                        NOSIG=
201909180220 METAR COR EGLL 180220Z AUTO 35003KT 9999 NCD 09/05 Q1028
                        NOSIG=
201909180150 METAR COR EGLL 180150Z AUTO 01002KT 9999 NCD 10/06 Q1028
                        NOSIG=
201909180120 METAR COR EGLL 180120Z AUTO VRB02KT 9999 NCD 10/06 Q1029
                        NOSIG=
201909180050 METAR COR EGLL 180050Z AUTO VRB03KT 9999 NCD 11/06 Q1029
                        NOSIG=
201909180020 METAR COR EGLL 180020Z AUTO 04003KT 9999 NCD 11/05 Q1029
                        NOSIG=
201909172350 METAR COR EGLL 172350Z AUTO VRB03KT 9999 NCD 11/06 Q1028
                        NOSIG=
201909172320 METAR COR EGLL 172320Z AUTO VRB03KT 9999 NCD 11/06 Q1028
                        NOSIG=
201909172250 METAR COR EGLL 172250Z AUTO 05005KT 9999 NCD 12/06 Q1028
                        NOSIG=
201909172220 METAR COR EGLL 172220Z AUTO 06008KT 9999 NCD 12/05 Q1028
                        NOSIG=
201909172150 METAR COR EGLL 172150Z AUTO 06007KT 030V090 9999 NCD 13/06
                        Q1028 NOSIG=
201909172120 METAR COR EGLL 172120Z AUTO 06006KT 9999 NCD 14/06 Q1028
                        NOSIG=
201909172050 METAR COR EGLL 172050Z AUTO 05005KT 9999 NCD 14/06 Q1028
                        NOSIG=
201909172020 METAR COR EGLL 172020Z AUTO 04005KT 9999 NCD 15/06 Q1027
                        NOSIG=
201909171950 METAR EGLL 171950Z AUTO 06005KT 020V080 9999 NCD 14/06 Q1027=
201909171920 METAR COR EGLL 171920Z AUTO 05004KT 9999 NCD 15/06 Q1027
                        NOSIG=
201909171850 METAR COR EGLL 171850Z AUTO 05005KT 020V080 9999 NCD 16/06
                        Q1026 NOSIG=
201909171820 METAR COR EGLL 171820Z AUTO 06006KT 9999 NCD 16/06 Q1026
                        NOSIG=
201909171750 METAR COR EGLL 171750Z AUTO 05006KT 9999 NCD 17/06 Q1026
                        NOSIG=
201909171720 METAR COR EGLL 171720Z AUTO 05008KT 020V080 9999 NCD 18/06
                        Q1026 NOSIG=
201909171650 METAR COR EGLL 171650Z AUTO 05007KT 9999 NCD 18/06 Q1025
                        NOSIG=
201909171620 METAR COR EGLL 171620Z AUTO 04006KT 360V080 9999 NCD 19/05
                        Q1025 NOSIG=
201909171550 METAR COR EGLL 171550Z AUTO 02006KT 320V070 9999 NCD 19/05
                        Q1025 NOSIG=
201909171520 METAR COR EGLL 171520Z AUTO 02006KT 300V080 9999 NCD 20/05
                        Q1025 NOSIG=
201909171450 METAR COR EGLL 171450Z AUTO 04008KT 350V070 9999 NCD 20/05
                        Q1025 NOSIG=
201909171420 METAR COR EGLL 171420Z AUTO 02007KT 330V060 9999 NCD 20/05
                        Q1025 NOSIG=
201909171350 METAR COR EGLL 171350Z AUTO 01008KT 310V050 9999 NCD 20/05
                        Q1025 NOSIG=
201909171320 METAR COR EGLL 171320Z AUTO 36005KT 270V060 9999 NCD 20/05
                        Q1025 NOSIG=
201909171250 METAR COR EGLL 171250Z AUTO 34006KT 280V050 9999 NCD 19/04
                        Q1025 NOSIG=
201909171220 METAR COR EGLL 171220Z AUTO 01007KT 310V100 9999 NCD 19/05
                        Q1025 NOSIG=
201909171150 METAR COR EGLL 171150Z AUTO 35006KT 300V040 9999 NCD 18/06
                        Q1025 NOSIG=
201909171120 METAR COR EGLL 171120Z AUTO 36006KT 300V060 9999 NCD 18/06
                        Q1025 NOSIG=
201909171050 METAR COR EGLL 171050Z AUTO 02007KT 310V090 9999 NCD 17/07
                        Q1025 NOSIG=
201909171020 METAR COR EGLL 171020Z AUTO 36007KT 320V030 9999 NCD 16/07
                        Q1025 NOSIG=
201909170950 METAR COR EGLL 170950Z AUTO 36006KT 300V070 9999 NCD 16/07
                        Q1026 NOSIG=
201909170920 METAR COR EGLL 170920Z AUTO 03007KT 330V060 9999 NCD 15/07
                        Q1026 NOSIG=
201909170850 METAR COR EGLL 170850Z AUTO 36005KT 310V050 9999 NCD 15/08
                        Q1025 NOSIG=
201909170820 METAR COR EGLL 170820Z AUTO 36005KT 330V050 9999 NCD 13/08
                        Q1025 NOSIG=
201909170750 METAR COR EGLL 170750Z AUTO 36004KT 320V050 9999 NCD 12/08
                        Q1025 NOSIG=
201909170720 METAR COR EGLL 170720Z AUTO VRB03KT 9999 NCD 12/08 Q1025
                        NOSIG=
201909170650 METAR COR EGLL 170650Z AUTO 33004KT 300V020 9999 NCD 11/08
                        Q1025 NOSIG=
201909170620 METAR COR EGLL 170620Z AUTO 31004KT 9999 NCD 10/08 Q1024
                        NOSIG=
201909170550 METAR COR EGLL 170550Z AUTO 31003KT 9999 NCD 10/08 Q1024
                        NOSIG=
201909170520 METAR COR EGLL 170520Z AUTO VRB03KT 9999 NCD 11/08 Q1024
                        NOSIG=
201909170450 METAR COR EGLL 170450Z AUTO 30004KT 9999 NCD 10/08 Q1024
                        NOSIG=
201909170420 METAR COR EGLL 170420Z AUTO 31004KT 270V340 9999 NCD 11/08
                        Q1024 NOSIG=
201909170350 METAR COR EGLL 170350Z AUTO 30004KT 9999 NCD 11/08 Q1024
                        NOSIG=
201909170320 METAR COR EGLL 170320Z AUTO 32004KT 290V350 9999 FEW030 12/08
                        Q1024 NOSIG=
201909170250 METAR COR EGLL 170250Z AUTO 33004KT 300V360 9999 OVC030 13/09
                        Q1024 NOSIG=
201909170220 METAR COR EGLL 170220Z AUTO 32005KT 290V010 9999 OVC030 13/09
                        Q1024 NOSIG=
201909170150 METAR COR EGLL 170150Z AUTO 34005KT 300V030 9999 OVC029 14/10
                        Q1024 NOSIG=
201909170120 METAR COR EGLL 170120Z AUTO 33004KT 300V040 9999 OVC026 14/11
                        Q1024 NOSIG=
201909170050 METAR COR EGLL 170050Z AUTO 32004KT 290V350 9999 SCT020 BKN033
                        14/11 Q1024 NOSIG=
201909170020 METAR COR EGLL 170020Z AUTO 32004KT 9999 FEW017 14/12 Q1023
                        NOSIG=
201909162350 METAR COR EGLL 162350Z AUTO VRB03KT 9999 FEW017 BKN032 15/13
                        Q1023 NOSIG=
201909162320 METAR COR EGLL 162320Z AUTO 36004KT 9999 BKN033 16/13 Q1023
                        NOSIG=
201909162250 METAR COR EGLL 162250Z AUTO 36004KT 9999 OVC030 16/13 Q1023
                        NOSIG=
201909162220 METAR COR EGLL 162220Z AUTO 36003KT 9999 OVC030 16/13 Q1023
                        NOSIG=
201909162150 METAR COR EGLL 162150Z AUTO VRB03KT 9999 OVC032 16/13 Q1023
                        NOSIG=
201909162120 METAR COR EGLL 162120Z AUTO VRB03KT 9999 OVC030 17/13 Q1023
                        NOSIG=
201909162050 METAR COR EGLL 162050Z AUTO 04004KT 010V070 9999 OVC028 17/13
                        Q1023 NOSIG=
201909162020 METAR COR EGLL 162020Z AUTO 03005KT 360V070 9999 OVC028 17/13
                        Q1023 NOSIG=
201909161950 METAR COR EGLL 161950Z AUTO 01004KT 330V050 9999 BKN023 OVC031
                        17/13 Q1023 NOSIG=
201909161920 METAR COR EGLL 161920Z AUTO 01004KT 330V050 9999 SCT029 OVC038
                        17/13 Q1023 NOSIG=
201909161850 METAR COR EGLL 161850Z AUTO 05004KT 9999 BKN027 BKN041 17/14
                        Q1022 NOSIG=
201909161820 METAR COR EGLL 161820Z AUTO VRB03KT 9999 OVC021 17/14 Q1022
                        NOSIG=
201909161750 METAR COR EGLL 161750Z AUTO 02004KT 340V060 9999 OVC019 17/14
                        Q1022 NOSIG=
201909161720 METAR COR EGLL 161720Z AUTO 01005KT 330V050 9999 SCT014 BKN020
                        BKN042 17/15 Q1022 TEMPO BKN014=
201909161650 METAR COR EGLL 161650Z AUTO 36005KT 320V060 9999 BKN014 BKN019
                        17/15 Q1022 TEMPO SCT014 BKN019=
201909161620 METAR COR EGLL 161620Z AUTO 04005KT 340V080 9999 BKN010 BKN014
                        BKN027 18/16 Q1022 TEMPO SCT010 BKN016=
201909161550 METAR COR EGLL 161550Z 01004KT 350V060 9999 FEW007 BKN011
                        OVC017 17/16 Q1022 REDZ TEMPO 4000
                        DZ BKN007=
201909161520 METAR COR EGLL 161520Z 03004KT 4500 DZ FEW006 SCT010 OVC017
                        17/16 Q1022 TEMPO BKN010=
201909161450 METAR COR EGLL 161450Z 36005KT 330V040 9999 -DZ FEW017 BKN022
                        OVC032 18/16 Q1022 REDZ TEMPO 4000
                        DZ BKN012=
201909161420 METAR COR EGLL 161420Z AUTO 01004KT 330V050 9999 SCT024 BKN030
                        OVC038 19/15 Q1022 NOSIG=
201909161350 METAR COR EGLL 161350Z AUTO 32006KT 290V020 9999 SCT023 BKN027
                        OVC032 20/14 Q1022 NOSIG=
201909161320 METAR COR EGLL 161320Z AUTO 30005KT 270V350 9999 SCT021 OVC026
                        20/15 Q1022 TEMPO -RA BKN014=
201909161250 METAR COR EGLL 161250Z AUTO 28005KT 230V330 9999 BKN020 BKN026
                        20/15 Q1022 NOSIG=
201909161220 METAR COR EGLL 161220Z AUTO 29005KT 250V320 9999 BKN018 OVC023
                        19/15 Q1022 TEMPO BKN014=
201909161150 METAR COR EGLL 161150Z AUTO 29004KT 230V350 9999 BKN019 OVC025
                        19/15 Q1022 NOSIG=
201909161120 METAR COR EGLL 161120Z AUTO 30004KT 260V350 9999 BKN018 19/15
                        Q1022 TEMPO BKN014=
201909161050 METAR COR EGLL 161050Z AUTO 28006KT 250V330 9999 BKN016 19/15
                        Q1022 TEMPO BKN014=
201909161020 METAR COR EGLL 161020Z AUTO 28005KT 200V310 9999 SCT016 19/15
                        Q1022 TEMPO BKN014=
201909160950 METAR COR EGLL 160950Z AUTO 27007KT 9999 SCT015 18/15 Q1022
                        TEMPO BKN014=
201909160920 METAR COR EGLL 160920Z AUTO 27006KT 9999 NCD 18/15 Q1022
                        TEMPO BKN014=
201909160850 METAR COR EGLL 160850Z AUTO 29006KT 9999 NCD 17/15 Q1022
                        TEMPO BKN014=
201909160820 METAR COR EGLL 160820Z AUTO 28006KT 9999 FEW026 17/15 Q1022
                        TEMPO BKN014=
201909160750 METAR COR EGLL 160750Z AUTO 28005KT 9999 FEW026 SCT032 16/15
                        Q1022 NOSIG=
201909160720 METAR COR EGLL 160720Z 29005KT 9999 -RA BKN049 16/15 Q1022
                        NOSIG=
201909160650 METAR COR EGLL 160650Z AUTO 28007KT 9999 NCD 16/14 Q1021
                        NOSIG=
201909160620 METAR COR EGLL 160620Z AUTO 28006KT 9999 NCD 16/14 Q1021
                        NOSIG=
201909160550 METAR COR EGLL 160550Z AUTO 29007KT 9999 NCD 16/14 Q1021
                        NOSIG=
201909160520 METAR COR EGLL 160520Z AUTO 28006KT 8000 NCD 16/14 Q1021
                        NOSIG=
201909160450 METAR COR EGLL 160450Z AUTO 27006KT 7000 NCD 16/14 Q1021
                        TEMPO BKN007=
201909160420 METAR COR EGLL 160420Z AUTO 27007KT 7000 NCD 16/14 Q1021
                        TEMPO BKN007=
201909160350 METAR COR EGLL 160350Z AUTO 27007KT 8000 NCD 16/14 Q1021
                        TEMPO BKN007=
201909160320 METAR COR EGLL 160320Z AUTO 29008KT 8000 SCT027 16/15 Q1021
                        TEMPO BKN007=
201909160250 METAR COR EGLL 160250Z AUTO 28008KT 8000 NCD 16/15 Q1021
                        TEMPO BKN007=
201909160220 METAR COR EGLL 160220Z AUTO 27007KT 9000 NCD 16/15 Q1022
                        TEMPO BKN008=
201909160150 METAR COR EGLL 160150Z AUTO 27007KT 9000 NCD 16/15 Q1022
                        TEMPO BKN008=
201909160120 METAR COR EGLL 160120Z AUTO 26006KT 9000 FEW030 16/15 Q1022
                        TEMPO BKN008=
201909160050 METAR COR EGLL 160050Z AUTO 26005KT 9999 SCT030 16/15 Q1022
                        NOSIG=
201909160020 METAR COR EGLL 160020Z AUTO 27006KT 9999 SCT031 16/15 Q1023
                        NOSIG=
201909152350 METAR COR EGLL 152350Z AUTO 28004KT 9999 NCD 16/15 Q1022
                        NOSIG=
201909152320 METAR COR EGLL 152320Z AUTO 28006KT 9999 NCD 17/15 Q1022
                        NOSIG=
201909152250 METAR COR EGLL 152250Z AUTO 28006KT 9999 NCD 17/14 Q1023
                        NOSIG=
201909152220 METAR COR EGLL 152220Z AUTO 27007KT 9999 NCD 18/14 Q1023
                        NOSIG=
201909152150 METAR COR EGLL 152150Z AUTO 28007KT 9999 NCD 19/15 Q1023
                        NOSIG=
201909152120 METAR COR EGLL 152120Z AUTO 29004KT 9999 NCD 21/14 Q1023
                        NOSIG=
201909152050 METAR COR EGLL 152050Z AUTO 31002KT 9999 NCD 21/14 Q1023
                        NOSIG=
201909152020 METAR COR EGLL 152020Z AUTO 30004KT 9999 NCD 22/14 Q1023
                        NOSIG=
201909151950 METAR COR EGLL 151950Z AUTO 31003KT 9999 NCD 22/14 Q1022
                        NOSIG=
201909151920 METAR COR EGLL 151920Z AUTO 33002KT 9999 NCD 23/14 Q1022
                        NOSIG=
201909151850 METAR COR EGLL 151850Z AUTO 32003KT 9999 NCD 23/14 Q1022
                        NOSIG=
201909151820 METAR COR EGLL 151820Z AUTO 31004KT 9999 NCD 23/14 Q1022
                        NOSIG=
201909151750 METAR COR EGLL 151750Z AUTO 31005KT 9999 NCD 23/14 Q1022
                        NOSIG=
201909151720 METAR COR EGLL 151720Z AUTO 29006KT 9999 NCD 24/14 Q1022
                        NOSIG=
201909151650 METAR COR EGLL 151650Z AUTO 30007KT 9999 NCD 25/14 Q1022
                        NOSIG=
201909151620 METAR COR EGLL 151620Z AUTO 29006KT 250V340 9999 NCD 25/14
                        Q1022 NOSIG=
201909151550 METAR COR EGLL 151550Z AUTO 29006KT 250V320 9999 NCD 26/14
                        Q1022 NOSIG=
201909151520 METAR COR EGLL 151520Z AUTO 30006KT 260V340 9999 NCD 25/13
                        Q1023 NOSIG=
201909151450 METAR COR EGLL 151450Z AUTO 30008KT 250V330 9999 NCD 26/13
                        Q1023 NOSIG=
201909151420 METAR COR EGLL 151420Z AUTO 26007KT 230V290 9999 NCD 25/13
                        Q1023 NOSIG=
201909151350 METAR COR EGLL 151350Z AUTO 28008KT 240V310 9999 NCD 25/13
                        Q1023 NOSIG=
201909151320 METAR COR EGLL 151320Z AUTO 27009KT 240V310 9999 NCD 25/13
                        Q1024 NOSIG=
201909151250 METAR COR EGLL 151250Z AUTO 27009KT 9999 NCD 25/13 Q1024
                        NOSIG=
201909151220 METAR COR EGLL 151220Z AUTO 28008KT 230V330 9999 NCD 24/13
                        Q1024 NOSIG=
201909151150 METAR COR EGLL 151150Z AUTO 26008KT 230V320 9999 NCD 24/13
                        Q1024 NOSIG=
201909151120 METAR COR EGLL 151120Z AUTO 27005KT 210V320 9999 NCD 23/13
                        Q1025 NOSIG=
201909151050 METAR COR EGLL 151050Z AUTO 28004KT 200V320 9999 NCD 22/12
                        Q1025 NOSIG=
201909151020 METAR COR EGLL 151020Z AUTO 28005KT 230V320 9999 NCD 21/12
                        Q1025 NOSIG=
201909150950 METAR COR EGLL 150950Z AUTO 29005KT 250V330 9999 NCD 19/11
                        Q1025 NOSIG=
201909150920 METAR COR EGLL 150920Z AUTO 28006KT 230V310 9999 NCD 18/10
                        Q1026 NOSIG=
201909150850 METAR COR EGLL 150850Z AUTO 26006KT 230V290 9999 NCD 17/11
                        Q1025 NOSIG=
201909150820 METAR COR EGLL 150820Z AUTO 27007KT 9999 NCD 15/11 Q1025
                        NOSIG=
201909150750 METAR COR EGLL 150750Z AUTO 26006KT 230V290 9999 NCD 14/11
                        Q1025 NOSIG=
201909150720 METAR COR EGLL 150720Z AUTO 28006KT 9999 NCD 13/11 Q1025
                        NOSIG=
201909150650 METAR COR EGLL 150650Z AUTO VRB02KT 9999 NCD 12/10 Q1025
                        NOSIG=
201909150620 METAR COR EGLL 150620Z AUTO VRB03KT 9999 NCD 11/09 Q1025
                        NOSIG=
201909150550 METAR COR EGLL 150550Z AUTO VRB02KT 9999 NCD 11/09 Q1025
                        NOSIG=
201909150520 METAR COR EGLL 150520Z AUTO VRB03KT 9999 NCD 10/09 Q1025
                        NOSIG=
201909150450 METAR COR EGLL 150450Z AUTO VRB02KT 9999 NCD 11/10 Q1025
                        NOSIG=
201909150420 METAR COR EGLL 150420Z AUTO VRB02KT 9999 NCD 11/10 Q1025
                        NOSIG=
201909150350 METAR COR EGLL 150350Z AUTO 21003KT 9999 NCD 12/10 Q1025
                        NOSIG=
201909150320 METAR COR EGLL 150320Z AUTO VRB03KT 9999 NCD 11/10 Q1026
                        NOSIG=
201909150250 METAR COR EGLL 150250Z AUTO 18004KT 9999 NCD 11/10 Q1026
                        NOSIG=
201909150220 METAR COR EGLL 150220Z AUTO VRB01KT 9999 NCD 11/09 Q1026
                        NOSIG=
201909150150 METAR COR EGLL 150150Z AUTO VRB02KT 9999 NCD 12/10 Q1026
                        NOSIG=
201909150120 METAR COR EGLL 150120Z AUTO VRB03KT 9999 NCD 12/10 Q1026
                        NOSIG=
201909150050 METAR COR EGLL 150050Z AUTO 28005KT 9999 NCD 12/10 Q1027
                        NOSIG=
201909150020 METAR COR EGLL 150020Z AUTO 26004KT 9999 NCD 13/09 Q1027
                        NOSIG=
201909142350 METAR COR EGLL 142350Z AUTO VRB03KT 9999 NCD 14/10 Q1027
                        NOSIG=
201909142320 METAR COR EGLL 142320Z AUTO 22003KT 9999 NCD 14/10 Q1027
                        NOSIG=
201909142250 METAR COR EGLL 142250Z AUTO 23003KT 9999 NCD 14/10 Q1027
                        NOSIG=
201909142220 METAR COR EGLL 142220Z AUTO 22005KT 9999 NCD 15/10 Q1028
                        NOSIG=
201909142150 METAR COR EGLL 142150Z AUTO 23006KT 9999 NCD 16/09 Q1028
                        NOSIG=
201909142120 METAR COR EGLL 142120Z AUTO 22006KT 200V270 9999 NCD 16/09
                        Q1028 NOSIG=
201909142050 METAR COR EGLL 142050Z AUTO 22007KT 9999 NCD 17/08 Q1028
                        NOSIG=
201909142020 METAR COR EGLL 142020Z AUTO 24006KT 9999 NCD 20/07 Q1028
                        NOSIG=
201909141950 METAR COR EGLL 141950Z AUTO 23006KT 9999 NCD 19/06 Q1028
                        NOSIG=
201909141920 METAR COR EGLL 141920Z AUTO 22006KT 180V270 9999 NCD 19/06
                        Q1028 NOSIG=
201909141850 METAR COR EGLL 141850Z AUTO 23005KT 9999 NCD 20/04 Q1029
                        NOSIG=
201909141820 METAR COR EGLL 141820Z AUTO 23004KT 190V260 9999 NCD 21/04
                        Q1028 NOSIG=
201909141750 METAR COR EGLL 141750Z AUTO 21004KT 150V260 9999 NCD 22/04
                        Q1028 NOSIG=
201909141720 METAR COR EGLL 141720Z AUTO 25005KT 220V290 9999 NCD 22/04
                        Q1029 NOSIG=
201909141650 METAR COR EGLL 141650Z AUTO 22005KT 180V250 9999 NCD 22/04
                        Q1029 NOSIG=
201909141620 METAR COR EGLL 141620Z AUTO 20005KT 170V260 9999 NCD 23/01
                        Q1029 NOSIG=
201909141550 METAR COR EGLL 141550Z AUTO 20004KT 150V270 9999 NCD 23/03
                        Q1029 NOSIG=
201909141520 METAR COR EGLL 141520Z AUTO 25005KT 190V310 9999 NCD 23/03
                        Q1029 NOSIG=
201909141450 METAR COR EGLL 141450Z AUTO VRB02KT 9999 NCD 23/04 Q1030
                        NOSIG=
201909141420 METAR COR EGLL 141420Z AUTO VRB03KT 9999 NCD 23/04 Q1030
                        NOSIG=
201909141350 METAR COR EGLL 141350Z AUTO VRB02KT 9999 NCD 22/05 Q1031
                        NOSIG=
201909141320 METAR COR EGLL 141320Z AUTO 10004KT 050V150 9999 NCD 22/05
                        Q1031 NOSIG=
201909141250 METAR COR EGLL 141250Z AUTO VRB02KT 9999 NCD 22/06 Q1032
                        NOSIG=
201909141220 METAR COR EGLL 141220Z AUTO VRB03KT 9999 NCD 21/06 Q1032
                        NOSIG=
201909141150 METAR COR EGLL 141150Z AUTO 13004KT 060V200 9999 NCD 21/07
                        Q1033 NOSIG=
201909141120 METAR COR EGLL 141120Z AUTO VRB02KT 9999 NCD 20/07 Q1033
                        NOSIG=
201909141050 METAR COR EGLL 141050Z AUTO VRB02KT 9999 NCD 20/08 Q1033
                        NOSIG=
201909141020 METAR COR EGLL 141020Z AUTO 15004KT 110V210 9999 NCD 19/08
                        Q1034 NOSIG=
201909140950 METAR COR EGLL 140950Z AUTO 09004KT 030V150 9999 NCD 18/10
                        Q1034 NOSIG=
201909140920 METAR COR EGLL 140920Z AUTO VRB03KT 9999 NCD 18/11 Q1034
                        NOSIG=
201909140850 METAR COR EGLL 140850Z AUTO VRB02KT 9999 NCD 16/10 Q1034
                        NOSIG=
201909140820 METAR COR EGLL 140820Z AUTO VRB02KT 9999 NCD 15/10 Q1034
                        NOSIG=
201909140750 METAR COR EGLL 140750Z AUTO VRB01KT 9999 NCD 13/10 Q1034
                        NOSIG=
201909140720 METAR COR EGLL 140720Z AUTO VRB02KT 9999 NCD 12/09 Q1034
                        NOSIG=
201909140650 METAR COR EGLL 140650Z AUTO 01001KT 9999 NCD 11/09 Q1035
                        NOSIG=
201909140620 METAR COR EGLL 140620Z AUTO VRB02KT 9999 NCD 10/09 Q1035
                        NOSIG=
201909140550 METAR COR EGLL 140550Z AUTO VRB02KT 9999 NCD 10/08 Q1035
                        NOSIG=
201909140520 METAR COR EGLL 140520Z AUTO 36003KT 9999 NCD 09/08 Q1035
                        NOSIG=
201909140450 METAR COR EGLL 140450Z AUTO 01002KT 9999 NCD 10/08 Q1035
                        NOSIG=
201909140420 METAR COR EGLL 140420Z AUTO 34001KT 9999 NCD 10/08 Q1035
                        NOSIG=
201909140350 METAR COR EGLL 140350Z AUTO VRB01KT 9999 NCD 11/09 Q1035
                        NOSIG=
201909140320 METAR COR EGLL 140320Z AUTO 01003KT 9999 NCD 11/09 Q1035
                        NOSIG=
201909140250 METAR COR EGLL 140250Z AUTO 02001KT 9999 NCD 11/09 Q1035
                        NOSIG=
201909140220 METAR COR EGLL 140220Z AUTO VRB02KT 9999 NCD 11/09 Q1035
                        NOSIG=
201909140150 METAR COR EGLL 140150Z AUTO 01003KT 9999 NCD 12/09 Q1036
                        NOSIG=
201909140120 METAR COR EGLL 140120Z AUTO 01003KT 9999 NCD 12/10 Q1036
                        NOSIG=
201909140050 METAR COR EGLL 140050Z AUTO 01003KT 9999 NCD 12/10 Q1036
                        NOSIG=
201909140020 METAR COR EGLL 140020Z AUTO VRB02KT 9999 NCD 12/10 Q1036
                        NOSIG=
201909132350 METAR COR EGLL 132350Z AUTO 08003KT 9999 NCD 12/10 Q1036
                        NOSIG=
201909132320 METAR COR EGLL 132320Z AUTO 07003KT 9999 NCD 13/10 Q1036
                        NOSIG=
201909132250 METAR COR EGLL 132250Z AUTO 06004KT 9999 NCD 13/10 Q1036
                        NOSIG=
201909132220 METAR COR EGLL 132220Z AUTO 10007KT 9999 NCD 14/11 Q1036
                        NOSIG=
201909132150 METAR COR EGLL 132150Z AUTO 10006KT 9999 NCD 14/11 Q1036
                        NOSIG=
201909132120 METAR COR EGLL 132120Z AUTO 10007KT 9999 NCD 15/12 Q1036
                        NOSIG=
201909132050 METAR COR EGLL 132050Z AUTO 10008KT 9999 NCD 15/12 Q1036
                        NOSIG=
201909132020 METAR COR EGLL 132020Z AUTO 07005KT 9999 NCD 17/08 Q1036
                        NOSIG=
201909131950 METAR COR EGLL 131950Z AUTO 05005KT 9999 NCD 17/03 Q1036
                        NOSIG=
201909131920 METAR COR EGLL 131920Z AUTO 05004KT 9999 NCD 18/03 Q1035
                        NOSIG=
201909131850 METAR COR EGLL 131850Z AUTO 04005KT 360V070 9999 NCD 18/03
                        Q1035 NOSIG=
201909131820 METAR COR EGLL 131820Z AUTO 04006KT 9999 NCD 19/03 Q1035
                        NOSIG=
201909131750 METAR COR EGLL 131750Z AUTO 04005KT 9999 NCD 20/02 Q1035
                        NOSIG=
201909131720 METAR COR EGLL 131720Z AUTO 06005KT 350V130 9999 NCD 20/02
                        Q1035 NOSIG=
201909131650 METAR COR EGLL 131650Z AUTO 04006KT 330V080 9999 NCD 21/03
                        Q1034 NOSIG=
201909131620 METAR COR EGLL 131620Z AUTO 05007KT 020V090 9999 NCD 21/03
                        Q1034 NOSIG=
201909131550 METAR COR EGLL 131550Z AUTO 06005KT 330V110 9999 NCD 21/03
                        Q1034 NOSIG=
201909131520 METAR COR EGLL 131520Z AUTO 03006KT 310V080 9999 NCD 22/04
                        Q1034 NOSIG=
201909131450 METAR COR EGLL 131450Z AUTO 07005KT 010V120 9999 NCD 22/04
                        Q1034 NOSIG=
201909131420 METAR COR EGLL 131420Z AUTO 02006KT 340V060 9999 NCD 21/05
                        Q1035 NOSIG=
201909131350 METAR COR EGLL 131350Z AUTO 03005KT 290V090 9999 NCD 21/05
                        Q1035 NOSIG=
201909131320 METAR COR EGLL 131320Z AUTO 05006KT 010V090 9999 NCD 21/05
                        Q1035 NOSIG=
201909131250 METAR COR EGLL 131250Z AUTO 05006KT 280V090 9999 NCD 21/06
                        Q1035 NOSIG=
201909131220 METAR COR EGLL 131220Z AUTO 01005KT 300V070 9999 NCD 20/06
                        Q1035 NOSIG=
201909131150 METAR COR EGLL 131150Z AUTO 36007KT 320V050 9999 NCD 20/06
                        Q1035 NOSIG=
201909131120 METAR COR EGLL 131120Z AUTO 02006KT 320V060 9999 NCD 20/07
                        Q1035 NOSIG=
201909131050 METAR COR EGLL 131050Z AUTO 35006KT 320V020 9999 NCD 19/07
                        Q1035 NOSIG=
201909131020 METAR COR EGLL 131020Z AUTO 01006KT 320V070 9999 NCD 18/08
                        Q1035 NOSIG=
201909130950 METAR COR EGLL 130950Z AUTO 02006KT 320V060 9999 NCD 18/08
                        Q1035 NOSIG=
201909130920 METAR COR EGLL 130920Z AUTO 03006KT 340V080 9999 NCD 17/08
                        Q1035 NOSIG=
201909130850 METAR COR EGLL 130850Z AUTO 01007KT 340V050 9999 NCD 16/08
                        Q1035 NOSIG=
201909130820 METAR COR EGLL 130820Z AUTO 02006KT 330V050 9999 NCD 15/08
                        Q1035 NOSIG=
201909130750 METAR COR EGLL 130750Z AUTO 03005KT 340V060 9999 NCD 15/09
                        Q1034 NOSIG=
201909130720 METAR COR EGLL 130720Z AUTO 36004KT 320V040 9999 NCD 14/10
                        Q1034 NOSIG=
201909130650 METAR COR EGLL 130650Z AUTO 36004KT 320V030 9999 NCD 14/10
                        Q1034 NOSIG=
201909130620 METAR COR EGLL 130620Z AUTO VRB03KT 9999 FEW020 13/09 Q1034
                        NOSIG=
201909130550 METAR COR EGLL 130550Z AUTO 35004KT 310V040 9999 NCD 14/09
                        Q1033 NOSIG=
201909130520 METAR COR EGLL 130520Z AUTO 36006KT 310V030 9999 NCD 14/09
                        Q1033 NOSIG=
201909130450 METAR COR EGLL 130450Z AUTO 32005KT 300V010 9999 NCD 15/10
                        Q1032 NOSIG=
201909130420 METAR COR EGLL 130420Z AUTO 35006KT 310V030 9999 BKN033 OVC048
                        15/10 Q1032 NOSIG=
201909130350 METAR EGLL 130350Z AUTO 33005KT 300V030 9999 OVC031 16/12
                        Q1031=
201909130320 METAR COR EGLL 130320Z AUTO 35006KT 310V040 9999 BKN033 16/13
                        Q1031 NOSIG=
201909130250 METAR COR EGLL 130250Z AUTO 34004KT 300V020 9999 OVC027 17/14
                        Q1031 NOSIG=
201909130220 METAR COR EGLL 130220Z AUTO 30005KT 280V340 9999 -RA SCT010
                        BKN023 OVC046 17/16 Q1030 TEMPO BKN010=
201909130150 METAR COR EGLL 130150Z AUTO 27007KT 9999 SCT014 SCT020 BKN027
                        18/16 Q1030 TEMPO BKN011=
201909130120 METAR COR EGLL 130120Z AUTO 27007KT 9999 BKN015 OVC048 18/16
                        Q1030 TEMPO BKN014=
201909130050 METAR COR EGLL 130050Z AUTO 26007KT 9999 SCT012 BKN018 BKN022
                        18/16 Q1030 TEMPO BKN012=
201909130020 METAR COR EGLL 130020Z AUTO 26008KT 9999 BKN012 OVC016 18/16
                        Q1030 NOSIG=
201909122350 METAR COR EGLL 122350Z AUTO 25007KT 9999 OVC013 18/16 Q1029
                        NOSIG=
201909122320 METAR COR EGLL 122320Z AUTO 24008KT 9999 OVC015 18/16 Q1029
                        TEMPO BKN010=
201909122250 METAR COR EGLL 122250Z AUTO 24008KT 9999 OVC020 18/16 Q1029
                        TEMPO BKN014=
201909122220 METAR COR EGLL 122220Z AUTO 23010KT 7000 -RA FEW015 BKN021
                        OVC029 18/16 Q1029 TEMPO BKN014=
201909122150 METAR COR EGLL 122150Z AUTO 24009KT 9999 BKN015 OVC026 19/16
                        Q1029 TEMPO BKN013=
201909122120 METAR COR EGLL 122120Z AUTO 23010KT 9999 SCT016 BKN021 BKN029
                        19/16 Q1029 NOSIG=
201909122050 METAR COR EGLL 122050Z AUTO 23010KT 9999 BKN016 BKN020 BKN025
                        19/16 Q1029 TEMPO BKN014=
201909122020 METAR COR EGLL 122020Z AUTO 22009KT 9999 BKN017 OVC032 19/16
                        Q1029 NOSIG=
201909121950 METAR COR EGLL 121950Z AUTO 23010KT 9999 BKN025 19/16 Q1028
                        NOSIG=
201909121920 METAR COR EGLL 121920Z AUTO 22011KT 9999 FEW038 19/16 Q1028
                        NOSIG=
201909121850 METAR COR EGLL 121850Z AUTO 23012KT 9999 FEW021 19/16 Q1028
                        NOSIG=
201909121820 METAR COR EGLL 121820Z AUTO 24011KT 9999 SCT019 BKN023 20/16
                        Q1028 NOSIG=
201909121750 METAR COR EGLL 121750Z AUTO 22011KT 9999 SCT023 20/16 Q1027
                        NOSIG=
201909121720 METAR COR EGLL 121720Z AUTO 22013KT 9999 FEW021 SCT041 21/16
                        Q1027 NOSIG=
201909121650 METAR COR EGLL 121650Z AUTO 22012KT 9999 SCT028 OVC034 22/16
                        Q1027 NOSIG=
201909121620 METAR COR EGLL 121620Z AUTO 23013KT 9999 OVC032 22/15 Q1027
                        NOSIG=
201909121550 METAR COR EGLL 121550Z AUTO 23014KT 9999 BKN030 23/15 Q1027
                        NOSIG=
201909121520 METAR COR EGLL 121520Z AUTO 23014KT 9999 BKN031 23/15 Q1027
                        NOSIG=
201909121450 METAR COR EGLL 121450Z AUTO 23012KT 9999 BKN031 24/15 Q1027
                        NOSIG=
201909121420 METAR COR EGLL 121420Z AUTO 23012KT 9999 BKN033 23/15 Q1027
                        NOSIG=
201909121350 METAR COR EGLL 121350Z AUTO 24014KT 9999 BKN035 24/14 Q1027
                        NOSIG=
201909121320 METAR COR EGLL 121320Z AUTO 24013KT 200V260 9999 NCD 24/14
                        Q1027 NOSIG=
201909121250 METAR COR EGLL 121250Z AUTO 24014KT 9999 FEW033 24/14 Q1027
                        NOSIG=
201909121220 METAR COR EGLL 121220Z AUTO 26014KT 9999 BKN033 23/14 Q1027
                        NOSIG=
201909121150 METAR COR EGLL 121150Z AUTO 25016KT 9999 BKN032 BKN042 22/14
                        Q1027 NOSIG=
201909121120 METAR COR EGLL 121120Z AUTO 25013KT 9999 SCT027 BKN035 22/15
                        Q1028 NOSIG=
201909121050 METAR COR EGLL 121050Z AUTO 25015KT 9999 FEW022 OVC035 22/16
                        Q1028 NOSIG=
201909121020 METAR COR EGLL 121020Z AUTO 27014KT 9999 SCT017 BKN033 21/16
                        Q1028 TEMPO BKN014=
201909120950 METAR COR EGLL 120950Z AUTO 23011KT 9999 BKN015 BKN029 OVC037
                        20/16 Q1028 TEMPO BKN014=
201909120920 METAR COR EGLL 120920Z AUTO 23011KT 190V260 9999 BKN016 OVC037
                        20/16 Q1028 NOSIG=
201909120850 METAR COR EGLL 120850Z AUTO 23008KT 9999 SCT015 BKN033 OVC045
                        18/15 Q1027 TEMPO BKN014=
201909120820 METAR COR EGLL 120820Z AUTO 22007KT 180V250 9999 BKN033 BKN041
                        17/15 Q1027 NOSIG=
201909120750 METAR COR EGLL 120750Z AUTO 23008KT 9999 BKN038 16/14 Q1027
                        NOSIG=
201909120720 METAR COR EGLL 120720Z AUTO 24007KT 9999 OVC037 15/14 Q1027
                        NOSIG=
201909120650 METAR COR EGLL 120650Z AUTO 23007KT 9999 BKN037 OVC046 14/13
                        Q1027 NOSIG=
201909120620 METAR COR EGLL 120620Z AUTO 24008KT 9999 FEW022 SCT035 14/13
                        Q1027 NOSIG=
201909120550 METAR COR EGLL 120550Z AUTO 24009KT 9999 SCT021 13/13 Q1026
                        NOSIG=
201909120520 METAR COR EGLL 120520Z AUTO 24007KT 9999 FEW021 13/13 Q1026
                        NOSIG=
201909120450 METAR COR EGLL 120450Z AUTO 24008KT 9999 NCD 13/13 Q1026
                        NOSIG=
201909120420 METAR COR EGLL 120420Z AUTO 25007KT 9999 NCD 14/13 Q1025
                        NOSIG=
201909120350 METAR COR EGLL 120350Z AUTO 24007KT 9999 NCD 14/13 Q1025
                        NOSIG=
201909120320 METAR COR EGLL 120320Z AUTO 24006KT 9999 NCD 14/13 Q1025
                        NOSIG=
201909120250 METAR COR EGLL 120250Z AUTO 25006KT 9999 NCD 14/13 Q1025
                        NOSIG=
201909120220 METAR COR EGLL 120220Z AUTO 25007KT 9999 SCT034 15/13 Q1025
                        NOSIG=
201909120150 METAR COR EGLL 120150Z AUTO 24006KT 9999 BKN033 15/13 Q1025
                        NOSIG=
201909120120 METAR COR EGLL 120120Z AUTO 24006KT 9999 FEW020 SCT028 BKN032
                        15/13 Q1025 NOSIG=
201909120050 METAR COR EGLL 120050Z AUTO 24007KT 9999 OVC018 15/13 Q1024
                        NOSIG=
201909120020 METAR COR EGLL 120020Z AUTO 25007KT 9999 BKN018 BKN035 15/13
                        Q1024 NOSIG=
201909112350 METAR COR EGLL 112350Z AUTO 24006KT 9999 BKN036 16/13 Q1024
                        NOSIG=
201909112320 METAR COR EGLL 112320Z AUTO 24006KT 9999 SCT034 16/14 Q1024
                        NOSIG=
201909112250 METAR COR EGLL 112250Z AUTO 24007KT 9999 NCD 16/14 Q1024
                        NOSIG=
201909112220 METAR COR EGLL 112220Z AUTO 24008KT 9999 NCD 17/14 Q1024
                        NOSIG=
201909112150 METAR COR EGLL 112150Z AUTO 25009KT 9999 NCD 17/14 Q1023
                        NOSIG=
201909112120 METAR COR EGLL 112120Z AUTO 25009KT 9999 NCD 18/14 Q1023
                        NOSIG=
201909112050 METAR COR EGLL 112050Z AUTO 27008KT 9999 NCD 18/15 Q1023
                        NOSIG=
201909112020 METAR COR EGLL 112020Z AUTO 27008KT 9999 NCD 18/15 Q1023
                        NOSIG=
201909111950 METAR COR EGLL 111950Z AUTO 27009KT 9999 NCD 18/15 Q1022
                        NOSIG=
201909111920 METAR COR EGLL 111920Z AUTO 26010KT 9999 NCD 19/15 Q1022
                        NOSIG=
201909111850 METAR COR EGLL 111850Z AUTO 26012KT 9999 NCD 20/16 Q1021
                        NOSIG=
201909111820 METAR COR EGLL 111820Z AUTO 25012KT 9999 NCD 20/16 Q1021
                        NOSIG=
201909111750 METAR COR EGLL 111750Z AUTO 25016KT 9999 FEW026 21/16 Q1020
                        NOSIG=
201909111720 METAR COR EGLL 111720Z AUTO 26016KT 9999 BKN025 21/16 Q1020
                        NOSIG=
201909111650 METAR COR EGLL 111650Z AUTO 25013KT 9999 BKN020 BKN044 21/16
                        Q1020 NOSIG=
201909111620 METAR COR EGLL 111620Z AUTO 24013KT 9999 SCT020 SCT025 BKN031
                        21/17 Q1020 NOSIG=
201909111550 METAR COR EGLL 111550Z AUTO 23015KT 9999 SCT020 SCT026 BKN032
                        21/17 Q1020 NOSIG=
201909111520 METAR COR EGLL 111520Z AUTO 25015KT 9999 BKN019 BKN028 OVC049
                        21/16 Q1020=
201909111450 METAR COR EGLL 111450Z AUTO 24014KT 9999 BKN019 BKN024 OVC044
                        21/16 Q1020 NOSIG=
201909111420 METAR COR EGLL 111420Z AUTO 25013KT 9999 BKN018 OVC029 20/16
                        Q1020 NOSIG=
201909111350 METAR COR EGLL 111350Z AUTO 24013G23KT 9999 BKN017 OVC024
                        20/16 Q1019 NOSIG=
201909111320 METAR COR EGLL 111320Z AUTO 25014KT 9999 BKN018 OVC027 20/16
                        Q1019 NOSIG=
201909111250 METAR COR EGLL 111250Z AUTO 24015KT 9999 BKN018 BKN023 OVC029
                        20/16 Q1019 TEMPO BKN014=
201909111220 METAR COR EGLL 111220Z AUTO 25017KT 9999 -RA OVC021 20/16
                        Q1019 TEMPO BKN014=
201909111150 METAR COR EGLL 111150Z AUTO 24015KT 9999 BKN024 BKN029 21/15
                        Q1019 TEMPO BKN014=
201909111120 METAR COR EGLL 111120Z AUTO 24017KT 9999 BKN026 BKN031 21/15
                        Q1019 NOSIG=
201909111050 METAR COR EGLL 111050Z AUTO 25017KT 9999 FEW025 SCT037 21/15
                        Q1019 TEMPO BKN014=
201909111020 METAR COR EGLL 111020Z AUTO 24014KT 9999 BKN020 BKN027 21/15
                        Q1019 TEMPO BKN014=
201909110950 METAR COR EGLL 110950Z AUTO 24014KT 9999 BKN015 BKN021 19/15
                        Q1019 TEMPO BKN014=
201909110920 METAR COR EGLL 110920Z AUTO 23015KT 9999 OVC013 18/15 Q1019
                        TEMPO BKN015=
201909110850 METAR COR EGLL 110850Z AUTO 23013G23KT 9999 OVC013 17/14
                        Q1019 TEMPO BKN015=
201909110820 METAR COR EGLL 110820Z AUTO 24014KT 9999 OVC013 17/14 Q1019
                        NOSIG=
201909110750 METAR COR EGLL 110750Z AUTO 23013KT 9999 OVC015 16/13 Q1019
                        TEMPO BKN014=
201909110720 METAR EGLL 110720Z AUTO 23012KT 9999 FEW016 BKN023 OVC045
                        15/12 Q1019=
201909110650 METAR COR EGLL 110650Z AUTO 23012KT 9999 SCT018 BKN044 15/11
                        Q1018 NOSIG=
201909110620 METAR COR EGLL 110620Z AUTO 23009KT 9999 BKN017 14/11 Q1019
                        TEMPO BKN012=
201909110550 METAR COR EGLL 110550Z AUTO 23009KT 9999 BKN016 14/10 Q1018
                        TEMPO BKN014=
201909110520 METAR COR EGLL 110520Z AUTO 22009KT 9999 BKN016 14/10 Q1019
                        TEMPO BKN014=
201909110450 METAR COR EGLL 110450Z AUTO 23011KT 9999 BKN018 14/10 Q1019
                        TEMPO BKN014=
201909110420 METAR COR EGLL 110420Z AUTO 23010KT 9999 NCD 14/10 Q1019
                        NOSIG=
201909110350 METAR COR EGLL 110350Z AUTO 23012KT 9999 -RA SCT043 14/10
                        Q1019 NOSIG=
201909110320 METAR COR EGLL 110320Z AUTO 23010KT 9999 -RA BKN038 OVC047
                        14/09 Q1019 NOSIG=
201909110250 METAR COR EGLL 110250Z AUTO 23011KT 9999 BKN039 BKN048 14/09
                        Q1019 NOSIG=
201909110220 METAR COR EGLL 110220Z AUTO 23010KT 9999 BKN049 14/09 Q1020
                        NOSIG=
201909110150 METAR COR EGLL 110150Z AUTO 22009KT 9999 BKN049 14/09 Q1020
                        NOSIG=
201909110120 METAR COR EGLL 110120Z AUTO 23008KT 9999 NCD 14/09 Q1020
                        NOSIG=
201909110050 METAR COR EGLL 110050Z AUTO 23008KT 9999 NCD 14/09 Q1021
                        NOSIG=
201909110020 METAR COR EGLL 110020Z AUTO 24008KT 9999 -RA NCD 14/09 Q1021
                        NOSIG=
201909102350 METAR COR EGLL 102350Z AUTO 24008KT 9999 NCD 14/09 Q1020
                        NOSIG=
201909102320 METAR COR EGLL 102320Z AUTO 24010KT 9999 NCD 15/09 Q1021
                        NOSIG=
201909102250 METAR COR EGLL 102250Z AUTO 25010KT 9999 NCD 15/09 Q1021
                        NOSIG=
201909102220 METAR COR EGLL 102220Z AUTO 25008KT 9999 NCD 15/10 Q1021
                        NOSIG=
201909102150 METAR COR EGLL 102150Z AUTO 25009KT 9999 NCD 16/10 Q1021
                        NOSIG=
201909102120 METAR COR EGLL 102120Z AUTO 24008KT 9999 NCD 16/11 Q1021
                        NOSIG=
201909102050 METAR COR EGLL 102050Z AUTO 24009KT 9999 NCD 16/11 Q1021
                        NOSIG=
201909102020 METAR COR EGLL 102020Z AUTO 24007KT 9999 NCD 17/11 Q1020
                        NOSIG=
201909101950 METAR COR EGLL 101950Z AUTO 24007KT 9999 NCD 17/11 Q1020
                        NOSIG=
201909101920 METAR COR EGLL 101920Z AUTO 25007KT 9999 NCD 17/11 Q1020
                        NOSIG=
201909101850 METAR COR EGLL 101850Z AUTO 24008KT 9999 NCD 18/11 Q1020
                        NOSIG=
201909101820 METAR COR EGLL 101820Z AUTO 26007KT 9999 NCD 18/10 Q1020
                        NOSIG=
201909101750 METAR COR EGLL 101750Z AUTO 27006KT 9999 NCD 18/10 Q1020
                        NOSIG=
201909101720 METAR COR EGLL 101720Z AUTO 27007KT 9999 NCD 18/11 Q1020
                        NOSIG=
201909101650 METAR COR EGLL 101650Z AUTO 29006KT 260V320 9999 NCD 18/10
                        Q1020 NOSIG=
201909101620 METAR COR EGLL 101620Z AUTO 30005KT 270V340 9999 FEW035 SCT049
                        19/10 Q1020 NOSIG=
201909101550 METAR COR EGLL 101550Z AUTO 26007KT 9999 FEW035 19/11 Q1020
                        NOSIG=
201909101520 METAR COR EGLL 101520Z AUTO 28007KT 9999 NCD 18/10 Q1020
                        NOSIG=
201909101450 METAR COR EGLL 101450Z AUTO 30005KT 240V330 9999 BKN047 18/10
                        Q1020 NOSIG=
201909101420 METAR COR EGLL 101420Z AUTO 32008KT 9999 SCT036 BKN045 19/11
                        Q1020 NOSIG=
201909101350 METAR COR EGLL 101350Z AUTO 26006KT 220V290 9999 NCD 21/09
                        Q1020 NOSIG=
201909101320 METAR COR EGLL 101320Z AUTO 27007KT 240V340 9999 NCD 20/10
                        Q1019 NOSIG=
201909101250 METAR COR EGLL 101250Z AUTO 25006KT 200V300 9999 NCD 20/10
                        Q1019 NOSIG=
201909101220 METAR COR EGLL 101220Z AUTO 28004KT 230V330 9999 SCT028 19/11
                        Q1019 NOSIG=
201909101150 METAR COR EGLL 101150Z AUTO 27007KT 240V340 9999 NCD 18/11
                        Q1020 NOSIG=
201909101120 METAR COR EGLL 101120Z AUTO 31007KT 9999 SCT024 SCT029 17/11
                        Q1020 NOSIG=
201909101050 METAR COR EGLL 101050Z AUTO 32005KT 290V360 9999 SCT023 BKN034
                        BKN047 19/11 Q1020 NOSIG=
201909101020 METAR COR EGLL 101020Z 23006KT 9999 FEW049 17/11 Q1020 NOSIG=
201909100950 METAR COR EGLL 100950Z AUTO 25006KT 220V300 9999 NCD 16/12
                        Q1020 NOSIG=
201909100920 METAR COR EGLL 100920Z AUTO 24006KT 190V270 9999 NCD 15/12
                        Q1019 NOSIG=
201909100850 METAR COR EGLL 100850Z AUTO 26004KT 230V340 9999 NCD 15/12
                        Q1019 NOSIG=
201909100820 METAR COR EGLL 100820Z AUTO VRB03KT 9999 NCD 14/11 Q1019
                        NOSIG=
201909100750 METAR COR EGLL 100750Z AUTO 28004KT 250V320 9999 NCD 12/11
                        Q1019 NOSIG=
201909100720 METAR COR EGLL 100720Z AUTO 29004KT 9000 NCD 12/11 Q1019
                        NOSIG=
201909100650 METAR COR EGLL 100650Z AUTO 30004KT 8000 NCD 11/11 Q1018
                        NOSIG=
201909100620 METAR COR EGLL 100620Z AUTO 29004KT 7000 BKN047 11/11 Q1018
                        NOSIG=
201909100550 METAR COR EGLL 100550Z AUTO 30003KT 7000 NCD 11/11 Q1017
                        NOSIG=
201909100520 METAR COR EGLL 100520Z AUTO 31003KT 8000 NCD 11/11 Q1017
                        NOSIG=
201909100450 METAR COR EGLL 100450Z AUTO VRB02KT 7000 NCD 11/11 Q1017
                        TEMPO 4000 BR=
201909100420 METAR COR EGLL 100420Z AUTO 33003KT 9999 FEW044 12/11 Q1016
                        NOSIG=
201909100350 METAR COR EGLL 100350Z AUTO 31003KT 9999 BKN044 12/11 Q1016
                        TEMPO 4000 BR=
201909100320 METAR COR EGLL 100320Z AUTO 03001KT 9999 OVC046 13/11 Q1016
                        NOSIG=
201909100250 METAR COR EGLL 100250Z AUTO VRB01KT 9999 OVC047 13/11 Q1016
                        NOSIG=
201909100220 METAR COR EGLL 100220Z AUTO 36001KT 9999 OVC048 13/11 Q1015
                        NOSIG=
201909100150 METAR COR EGLL 100150Z AUTO 01002KT 9999 OVC049 13/11 Q1015
                        NOSIG=
201909100120 METAR COR EGLL 100120Z AUTO 36001KT 9999 OVC049 13/10 Q1015
                        NOSIG=
201909100050 METAR COR EGLL 100050Z AUTO VRB02KT 9999 FEW016 BKN021 BKN025
                        14/11 Q1015 NOSIG=
201909100020 METAR COR EGLL 100020Z AUTO 03001KT 9999 BKN049 13/11 Q1015
                        NOSIG=
201909092350 METAR COR EGLL 092350Z AUTO 09001KT 9999 NCD 13/11 Q1015
                        NOSIG=
201909092320 METAR COR EGLL 092320Z AUTO 07002KT 9999 FEW022 BKN049 13/11
                        Q1014 NOSIG=
201909092250 METAR COR EGLL 092250Z AUTO 07001KT 9999 BKN049 13/10 Q1014
                        NOSIG=
201909092220 METAR COR EGLL 092220Z AUTO 10002KT 9999 BKN048 13/10 Q1014
                        NOSIG=
201909092150 METAR COR EGLL 092150Z AUTO 14003KT 9999 OVC044 14/11 Q1014
                        NOSIG=
201909092120 METAR COR EGLL 092120Z AUTO 13004KT 090V170 9999 BKN041 13/11
                        Q1013 NOSIG=
201909092050 METAR COR EGLL 092050Z AUTO 14004KT 9999 BKN042 14/11 Q1013
                        NOSIG=
201909092020 METAR COR EGLL 092020Z AUTO 13004KT 090V170 9999 SCT042 BKN048
                        14/11 Q1013 NOSIG=
201909091950 METAR COR EGLL 091950Z AUTO 13004KT 090V180 9999 BKN040 14/12
                        Q1013 NOSIG=
201909091920 METAR COR EGLL 091920Z AUTO VRB03KT 9999 BKN036 OVC046 14/12
                        Q1012 NOSIG=
201909091850 METAR COR EGLL 091850Z AUTO VRB02KT 9999 FEW035 BKN047 14/12
                        Q1012 TEMPO SHRA=
201909091820 METAR COR EGLL 091820Z AUTO VRB02KT 9999 -RA SCT035 14/12
                        Q1012 TEMPO SHRA=
201909091750 METAR COR EGLL 091750Z AUTO 17004KT 140V300 9999 -RA BKN032
                        14/12 Q1012 TEMPO SHRA=
201909091720 METAR COR EGLL 091720Z AUTO 17006KT 110V220 9999 -RA FEW014
                        SCT020 OVC032 14/12 Q1011 NOSIG=
201909091650 METAR COR EGLL 091650Z AUTO 15006KT 110V190 9999 -RA SCT025
                        BKN033 15/12 Q1011 TEMPO RA BKN012=
201909091620 METAR COR EGLL 091620Z AUTO 17007KT 120V200 9999 -RA FEW033
                        15/11 Q1011 TEMPO 4000 RA BKN012=
201909091550 METAR COR EGLL 091550Z AUTO 15007KT 120V190 9999 -RA SCT018
                        BKN025 BKN032 15/12 Q1011 TEMPO 4000
                        RA BKN012=
201909091520 METAR COR EGLL 091520Z AUTO 18007KT 130V200 9999 -RA SCT021
                        BKN025 OVC047 15/11 Q1011 NOSIG=
201909091450 METAR COR EGLL 091450Z AUTO 16008KT 120V200 9999 -RA SCT023
                        SCT029 15/11 Q1011 NOSIG=
201909091420 METAR COR EGLL 091420Z AUTO 17007KT 110V210 9999 BKN043 15/10
                        Q1011 NOSIG=
201909091350 METAR COR EGLL 091350Z AUTO 20009KT 160V250 9999 OVC042 15/10
                        Q1011 NOSIG=
201909091320 METAR COR EGLL 091320Z AUTO 19007KT 170V240 9999 SCT031 BKN042
                        OVC049 15/11 Q1011 NOSIG=
201909091250 METAR COR EGLL 091250Z AUTO 20010KT 170V240 9999 -RA SCT016
                        SCT030 BKN039 15/12 Q1012 TEMPO SHRA
                        BKN014=
201909091220 METAR COR EGLL 091220Z AUTO 17007KT 140V230 9999 -RA SCT015
                        BKN040 15/12 Q1012 TEMPO SHRA BKN014=
201909091150 METAR COR EGLL 091150Z AUTO 18007KT 140V240 9999 BKN014 BKN033
                        14/11 Q1012 TEMPO SHRA=
201909091120 METAR COR EGLL 091120Z AUTO 18008KT 150V220 9999 FEW018 SCT029
                        BKN043 15/11 Q1012 TEMPO SHRA=
201909091050 METAR COR EGLL 091050Z AUTO 16009KT 130V210 9999 BKN037 BKN046
                        14/11 Q1012 TEMPO SHRA=
201909091020 METAR COR EGLL 091020Z AUTO 16009KT 130V210 9999 FEW043///
                        //////TCU 14/11 Q1012 TEMPO SHRA=
201909090950 METAR COR EGLL 090950Z AUTO 17010KT 130V230 9999 //////TCU
                        14/11 Q1013 TEMPO SHRA=
201909090920 METAR COR EGLL 090920Z AUTO 15009KT 130V230 9999 NCD 14/11
                        Q1013 NOSIG=
201909090850 METAR COR EGLL 090850Z AUTO 17007KT 140V230 9999 NCD 14/11
                        Q1013 NOSIG=
201909090820 METAR COR EGLL 090820Z AUTO 17006KT 130V250 9999 NCD 14/11
                        Q1013 NOSIG=
201909090750 METAR COR EGLL 090750Z AUTO 16005KT 130V240 9999 NCD 14/11
                        Q1013 NOSIG=
201909090720 METAR COR EGLL 090720Z AUTO 18007KT 9999 NCD 13/11 Q1013
                        NOSIG=
201909090650 METAR COR EGLL 090650Z AUTO 18006KT 160V220 9999 NCD 13/11
                        Q1014 NOSIG=
201909090620 METAR COR EGLL 090620Z AUTO 18006KT 9999 BKN048 12/11 Q1014
                        NOSIG=
201909090550 METAR COR EGLL 090550Z AUTO 18005KT 130V220 9999 NCD 12/10
                        Q1014 NOSIG=
201909090520 METAR COR EGLL 090520Z AUTO 14005KT 100V190 9999 NCD 12/10
                        Q1014 NOSIG=
201909090450 METAR COR EGLL 090450Z AUTO 16005KT 9999 -RA FEW039 12/10
                        Q1015 NOSIG=
201909090420 METAR COR EGLL 090420Z AUTO 21005KT 9999 -RA BKN046 13/10
                        Q1015 NOSIG=
201909090350 METAR COR EGLL 090350Z AUTO 21006KT 9999 -RA SCT020 SCT027
                        BKN037 13/10 Q1016 TEMPO RA=
201909090320 METAR COR EGLL 090320Z 20005KT 9999 BKN018 13/09 Q1016 TEMPO
                        4000 RA=
201909090250 METAR COR EGLL 090250Z AUTO 20004KT 9999 NCD 13/09 Q1016
                        NOSIG=
201909090220 METAR COR EGLL 090220Z AUTO 20003KT 9999 NCD 13/09 Q1017
                        NOSIG=
201909090150 METAR COR EGLL 090150Z AUTO 21003KT 9999 NCD 12/09 Q1017
                        NOSIG=
201909090120 METAR COR EGLL 090120Z AUTO 16003KT 9999 NCD 12/08 Q1017
                        NOSIG=
201909090050 METAR COR EGLL 090050Z AUTO 16003KT 9999 -RA NCD 12/08 Q1018
                        NOSIG=
201909090020 METAR COR EGLL 090020Z AUTO VRB02KT 9999 NCD 13/08 Q1018
                        NOSIG=
201909082350 METAR COR EGLL 082350Z AUTO 17003KT 9999 NCD 13/07 Q1019
                        NOSIG=
201909082320 METAR COR EGLL 082320Z AUTO 17003KT 9999 NCD 13/07 Q1019
                        NOSIG=
201909082250 METAR COR EGLL 082250Z AUTO 15003KT 9999 NCD 13/06 Q1019
                        NOSIG=
201909082220 METAR COR EGLL 082220Z AUTO VRB03KT 9999 NCD 13/06 Q1019
                        NOSIG=
201909082150 METAR COR EGLL 082150Z AUTO 20004KT 150V250 9999 NCD 13/06
                        Q1019 NOSIG=
201909082120 METAR COR EGLL 082120Z AUTO 19004KT 140V280 9999 NCD 13/06
                        Q1020 NOSIG=
201909082050 METAR COR EGLL 082050Z AUTO 17004KT 120V260 9999 NCD 12/05
                        Q1020 NOSIG=
201909082020 METAR COR EGLL 082020Z AUTO VRB03KT 9999 NCD 13/04 Q1020
                        NOSIG=
201909081950 METAR COR EGLL 081950Z AUTO 07002KT 9999 NCD 14/03 Q1020
                        NOSIG=
201909081920 METAR COR EGLL 081920Z AUTO 05002KT 9999 NCD 14/04 Q1020
                        NOSIG=
201909081850 METAR COR EGLL 081850Z AUTO 05002KT 9999 NCD 16/03 Q1020
                        NOSIG=
201909081820 METAR COR EGLL 081820Z AUTO VRB02KT 9999 NCD 16/03 Q1021
                        NOSIG=
201909081750 METAR COR EGLL 081750Z AUTO VRB03KT 9999 NCD 17/03 Q1021
                        NOSIG=
201909081720 METAR COR EGLL 081720Z AUTO VRB02KT 9999 NCD 17/03 Q1021
                        NOSIG=
201909081650 METAR COR EGLL 081650Z AUTO VRB02KT 9999 NCD 16/03 Q1021
                        NOSIG=
201909081620 METAR COR EGLL 081620Z AUTO 36004KT 310V040 9999 NCD 17/03
                        Q1021 NOSIG=
201909081550 METAR COR EGLL 081550Z AUTO 35004KT 300V050 9999 NCD 17/03
                        Q1021 NOSIG=
201909081520 METAR COR EGLL 081520Z AUTO 30007KT 250V330 9999 NCD 17/03
                        Q1022 NOSIG=
201909081450 METAR COR EGLL 081450Z AUTO 35006KT 290V040 9999 NCD 17/03
                        Q1022 NOSIG=
201909081420 METAR COR EGLL 081420Z AUTO VRB03KT 9999 NCD 17/03 Q1022
                        NOSIG=
201909081350 METAR COR EGLL 081350Z AUTO 33005KT 270V030 9999 NCD 18/03
                        Q1023 NOSIG=
201909081320 METAR COR EGLL 081320Z AUTO VRB06KT 9999 SCT049 18/04 Q1023
                        NOSIG=
201909081250 METAR COR EGLL 081250Z AUTO VRB05KT 9999 FEW047 17/04 Q1023
                        NOSIG=
201909081220 METAR COR EGLL 081220Z AUTO 30005KT 210V350 9999 FEW043 17/04
                        Q1023 NOSIG=
201909081150 METAR COR EGLL 081150Z AUTO 02005KT 300V100 9999 FEW042 17/05
                        Q1024 NOSIG=
201909081120 METAR COR EGLL 081120Z AUTO 05004KT 340V090 9999 SCT040 15/05
                        Q1024 NOSIG=
201909081050 METAR COR EGLL 081050Z AUTO 34006KT 290V050 9999 SCT036 15/06
                        Q1024 NOSIG=
201909081020 METAR COR EGLL 081020Z AUTO 32004KT 240V030 9999 SCT027 BKN032
                        15/07 Q1025 NOSIG=
201909080950 METAR COR EGLL 080950Z AUTO 33005KT 260V030 9999 SCT021 BKN026
                        14/08 Q1025 NOSIG=
201909080920 METAR COR EGLL 080920Z AUTO VRB03KT 9999 FEW020 14/08 Q1025
                        NOSIG=
201909080850 METAR COR EGLL 080850Z AUTO 31005KT 270V360 9999 NCD 12/08
                        Q1025 NOSIG=
201909080820 METAR COR EGLL 080820Z AUTO VRB03KT 9999 NCD 11/08 Q1025
                        NOSIG=
201909080750 METAR COR EGLL 080750Z AUTO VRB03KT 9999 NCD 10/07 Q1025
                        NOSIG=
201909080720 METAR COR EGLL 080720Z AUTO VRB02KT 9999 NCD 09/07 Q1025
                        NOSIG=
201909080650 METAR COR EGLL 080650Z AUTO VRB03KT 9999 NCD 09/07 Q1025
                        NOSIG=
201909080620 METAR COR EGLL 080620Z AUTO 29005KT 9999 NCD 08/07 Q1025
                        NOSIG=
201909080550 METAR COR EGLL 080550Z AUTO 29004KT 9999 NCD 08/06 Q1025
                        NOSIG=
201909080520 METAR COR EGLL 080520Z AUTO 27004KT 9999 NCD 08/06 Q1025
                        NOSIG=
201909080450 METAR COR EGLL 080450Z AUTO 28003KT 9999 NCD 08/06 Q1025
                        NOSIG=
201909080420 METAR COR EGLL 080420Z AUTO 28002KT 9999 NCD 08/06 Q1025
                        NOSIG=
201909080350 METAR COR EGLL 080350Z AUTO 27002KT 9999 NCD 08/06 Q1025
                        NOSIG=
201909080320 METAR COR EGLL 080320Z AUTO 31003KT 9999 NCD 08/06 Q1026
                        NOSIG=
201909080250 METAR COR EGLL 080250Z AUTO VRB03KT 9999 NCD 08/06 Q1026
                        NOSIG=
201909080220 METAR COR EGLL 080220Z AUTO 32004KT 280V010 9999 NCD 09/07
                        Q1026 NOSIG=
201909080150 METAR COR EGLL 080150Z AUTO VRB03KT 9999 NCD 09/07 Q1026
                        NOSIG=
201909080120 METAR COR EGLL 080120Z AUTO VRB03KT 9999 NCD 09/07 Q1026
                        NOSIG=
201909080050 METAR COR EGLL 080050Z AUTO VRB02KT 9999 NCD 09/07 Q1026
                        NOSIG=
201909080020 METAR COR EGLL 080020Z AUTO VRB02KT 9999 NCD 10/07 Q1026
                        NOSIG=
201909072350 METAR COR EGLL 072350Z AUTO VRB02KT 9999 NCD 10/07 Q1026
                        NOSIG=
201909072320 METAR COR EGLL 072320Z AUTO VRB02KT 9999 NCD 10/07 Q1026
                        NOSIG=
201909072250 METAR COR EGLL 072250Z AUTO VRB03KT 9999 NCD 11/07 Q1026
                        NOSIG=
201909072220 METAR COR EGLL 072220Z AUTO VRB03KT 9999 NCD 12/07 Q1026
                        NOSIG=
201909072150 METAR COR EGLL 072150Z AUTO 04004KT 360V070 9999 FEW047 12/07
                        Q1026 NOSIG=
201909072120 METAR COR EGLL 072120Z AUTO 04006KT 9999 NCD 13/06 Q1026
                        NOSIG=
201909072050 METAR COR EGLL 072050Z AUTO 04005KT 9999 NCD 13/06 Q1026
                        NOSIG=
201909072020 METAR COR EGLL 072020Z AUTO 05005KT 9999 NCD 13/06 Q1026
                        NOSIG=
201909071950 METAR COR EGLL 071950Z AUTO 05005KT 9999 NCD 14/05 Q1026
                        NOSIG=
201909071920 METAR COR EGLL 071920Z AUTO 01004KT 340V040 9999 NCD 15/03
                        Q1025 NOSIG=
201909071850 METAR COR EGLL 071850Z AUTO 36005KT 9999 NCD 15/03 Q1025
                        NOSIG=
201909071820 METAR COR EGLL 071820Z AUTO 36006KT 330V050 9999 NCD 16/04
                        Q1025 NOSIG=
201909071750 METAR COR EGLL 071750Z AUTO 01007KT 340V050 9999 NCD 16/05
                        Q1024 NOSIG=
201909071720 METAR COR EGLL 071720Z AUTO 02007KT 330V050 9999 NCD 17/05
                        Q1024 NOSIG=
201909071650 METAR COR EGLL 071650Z AUTO 36008KT 320V020 9999 NCD 17/05
                        Q1024 NOSIG=
201909071620 METAR COR EGLL 071620Z AUTO 01009KT 340V040 9999 NCD 17/06
                        Q1024 NOSIG=
201909071550 METAR EGLL 071550Z AUTO 36008KT 310V040 9999 FEW048 18/06
                        Q1024=
201909071520 METAR EGLL 071520Z AUTO 01010KT 340V050 9999 FEW045 17/06
                        Q1024=
201909071450 METAR EGLL 071450Z AUTO 01006KT 330V060 9999 NCD 18/07 Q1024=
201909071420 METAR COR EGLL 071420Z AUTO 01008KT 340V040 9999 SCT042 17/07
                        Q1024 NOSIG=
201909071350 METAR COR EGLL 071350Z AUTO 01008KT 340V050 9999 NCD 18/07
                        Q1024 NOSIG=
201909071320 METAR COR EGLL 071320Z AUTO 35008KT 310V030 9999 FEW039 SCT049
                        18/08 Q1024 NOSIG=
201909071250 METAR COR EGLL 071250Z AUTO 34006KT 300V030 9999 SCT036 17/09
                        Q1024 NOSIG=
201909071220 METAR COR EGLL 071220Z AUTO 02006KT 330V060 9999 SCT034 17/09
                        Q1024 NOSIG=
201909071150 METAR COR EGLL 071150Z AUTO 02006KT 330V050 9999 NCD 17/09
                        Q1023 NOSIG=
201909071120 METAR COR EGLL 071120Z AUTO 01007KT 320V060 9999 FEW031 17/09
                        Q1023 NOSIG=
201909071050 METAR COR EGLL 071050Z AUTO 01006KT 330V050 9999 FEW027 SCT032
                        17/10 Q1023 NOSIG=
201909071020 METAR COR EGLL 071020Z AUTO 04007KT 350V060 9999 SCT024 SCT033
                        17/10 Q1023 NOSIG=
201909070950 METAR COR EGLL 070950Z AUTO 01008KT 340V050 9999 FEW023 SCT028
                        16/10 Q1023 NOSIG=
201909070920 METAR COR EGLL 070920Z AUTO 36008KT 310V030 9999 SCT021 16/10
                        Q1023 NOSIG=
201909070850 METAR COR EGLL 070850Z AUTO 34008KT 300V010 9999 FEW022 16/10
                        Q1023 NOSIG=
201909070820 METAR COR EGLL 070820Z AUTO 35007KT 300V030 9999 NCD 15/10
                        Q1023 NOSIG=
201909070750 METAR COR EGLL 070750Z AUTO 33006KT 270V010 9999 NCD 14/11
                        Q1022 NOSIG=
201909070720 METAR COR EGLL 070720Z AUTO 31007KT 9999 NCD 14/10 Q1022
                        NOSIG=
201909070650 METAR COR EGLL 070650Z AUTO 30004KT 9999 NCD 13/10 Q1022
                        NOSIG=
201909070620 METAR COR EGLL 070620Z AUTO 29005KT 9999 SCT042 13/10 Q1022
                        NOSIG=
201909070550 METAR COR EGLL 070550Z AUTO 30004KT 9999 NCD 13/10 Q1022
                        NOSIG=
201909070520 METAR COR EGLL 070520Z AUTO 30004KT 9999 NCD 12/10 Q1021
                        NOSIG=
201909070450 METAR COR EGLL 070450Z AUTO 29004KT 9999 NCD 12/09 Q1021
                        NOSIG=
201909070420 METAR COR EGLL 070420Z AUTO VRB03KT 9999 NCD 12/09 Q1021
                        NOSIG=
201909070350 METAR COR EGLL 070350Z AUTO 29004KT 9999 NCD 12/09 Q1021
                        NOSIG=
201909070320 METAR COR EGLL 070320Z AUTO 30005KT 9999 NCD 12/09 Q1021
                        NOSIG=
201909070250 METAR COR EGLL 070250Z AUTO 27005KT 9999 NCD 12/09 Q1021
                        NOSIG=
201909070220 METAR COR EGLL 070220Z AUTO 27005KT 9999 NCD 12/09 Q1021
                        NOSIG=
201909070150 METAR COR EGLL 070150Z AUTO 28004KT 9999 NCD 12/10 Q1021
                        NOSIG=
201909070120 METAR COR EGLL 070120Z AUTO 29005KT 9999 NCD 12/10 Q1021
                        NOSIG=
201909070050 METAR COR EGLL 070050Z AUTO 28004KT 9999 NCD 12/10 Q1021
                        NOSIG=
201909070020 METAR COR EGLL 070020Z AUTO 28004KT 9999 NCD 12/10 Q1021
                        NOSIG=
201909062350 METAR COR EGLL 062350Z AUTO 29004KT 9999 NCD 13/10 Q1021
                        NOSIG=
201909062320 METAR COR EGLL 062320Z AUTO 30005KT 9999 NCD 14/09 Q1021
                        NOSIG=
201909062250 METAR COR EGLL 062250Z AUTO 30003KT 9999 NCD 14/10 Q1021
                        NOSIG=
201909062220 METAR COR EGLL 062220Z AUTO 30003KT 9999 NCD 14/11 Q1021
                        NOSIG=
201909062150 METAR COR EGLL 062150Z AUTO 29004KT 9999 FEW047 15/12 Q1021
                        NOSIG=
201909062120 METAR COR EGLL 062120Z AUTO 30004KT 9999 NCD 13/12 Q1020
                        NOSIG=
201909062050 METAR COR EGLL 062050Z AUTO 29004KT 9999 NCD 13/12 Q1020
                        NOSIG=
201909062020 METAR COR EGLL 062020Z AUTO 30004KT 9999 NCD 14/13 Q1020
                        NOSIG=
201909061950 METAR COR EGLL 061950Z AUTO 28006KT 9999 NCD 14/13 Q1020
                        NOSIG=
201909061920 METAR COR EGLL 061920Z AUTO 28008KT 9999 NCD 14/13 Q1020
                        NOSIG=
201909061850 METAR COR EGLL 061850Z AUTO 28008KT 9999 NCD 14/13 Q1019
                        NOSIG=
201909061820 METAR COR EGLL 061820Z AUTO 27011KT 9999 NCD 15/12 Q1019
                        NOSIG=
201909061750 METAR COR EGLL 061750Z AUTO 27012KT 9999 //////TCU 15/13
                        Q1019 NOSIG=
201909061720 METAR COR EGLL 061720Z AUTO 27010KT 9999 //////CB 17/14 Q1019
                        NOSIG=
201909061650 METAR COR EGLL 061650Z 26014KT 9999 4000S -SHRA SCT025CB
                        BKN045 18/13 Q1019 BECMG 9999=
201909061620 METAR COR EGLL 061620Z AUTO 25013KT 9999 FEW030/// //////CB
                        18/12 Q1019 TEMPO SHRA=
201909061550 METAR COR EGLL 061550Z AUTO 25014KT 9999 FEW028 18/12 Q1019
                        TEMPO SHRA=
201909061520 METAR COR EGLL 061520Z AUTO 26014KT 9999 SCT026 BKN036 18/12
                        Q1019 TEMPO SHRA=
201909061450 METAR EGLL 061450Z AUTO 26015KT 9999 SCT023 BKN027 18/12
                        Q1020=
201909061420 METAR COR EGLL 061420Z AUTO 26016KT 9999 BKN022 OVC030 17/12
                        Q1020 NOSIG=
201909061350 METAR COR EGLL 061350Z AUTO 24014KT 9999 BKN022 17/12 Q1020
                        NOSIG=
201909061320 METAR COR EGLL 061320Z AUTO 24014KT 9999 OVC025 17/11 Q1021
                        NOSIG=
201909061250 METAR COR EGLL 061250Z AUTO 24012KT 9999 BKN027/// OVC033///
                        //////TCU 16/11 Q1021 NOSIG=
201909061220 METAR COR EGLL 061220Z AUTO 24015KT 9999 -RA BKN028/// OVC033///
                        //////TCU 16/11 Q1021 NOSIG=
201909061150 METAR COR EGLL 061150Z AUTO 25015KT 9999 BKN027 OVC035 17/10
                        Q1021 NOSIG=
201909061120 METAR COR EGLL 061120Z AUTO 24015KT 9999 BKN028 17/11 Q1021
                        NOSIG=
201909061050 METAR COR EGLL 061050Z AUTO 23017KT 9999 FEW027 16/10 Q1022
                        NOSIG=
201909061020 METAR COR EGLL 061020Z AUTO 24014KT 9999 NCD 17/11 Q1022
                        NOSIG=
201909060950 METAR COR EGLL 060950Z AUTO 24013KT 9999 NCD 16/11 Q1022
                        NOSIG=
201909060920 METAR COR EGLL 060920Z AUTO 22012KT 9999 NCD 14/11 Q1023
                        NOSIG=
201909060850 METAR COR EGLL 060850Z AUTO 23013KT 9999 NCD 13/10 Q1023
                        NOSIG=
201909060820 METAR COR EGLL 060820Z AUTO 21009KT 170V250 9999 -RA NCD
                        13/10 Q1023 NOSIG=
201909060750 METAR COR EGLL 060750Z AUTO 22010KT 9999 SCT036 12/10 Q1023
                        NOSIG=
201909060720 METAR COR EGLL 060720Z AUTO 24011KT 9999 SCT028 SCT036 12/09
                        Q1024 NOSIG=
201909060650 METAR COR EGLL 060650Z AUTO 20008KT 180V240 9999 NCD 11/09
                        Q1023 NOSIG=
201909060620 METAR COR EGLL 060620Z AUTO 22009KT 9999 SCT035 11/09 Q1024
                        NOSIG=
201909060550 METAR COR EGLL 060550Z AUTO 23006KT 180V260 9999 NCD 10/08
                        Q1024 NOSIG=
201909060520 METAR COR EGLL 060520Z AUTO 22005KT 180V290 9999 NCD 10/08
                        Q1024 NOSIG=
201909060450 METAR COR EGLL 060450Z AUTO 22005KT 9999 NCD 10/08 Q1025
                        NOSIG=
201909060420 METAR COR EGLL 060420Z AUTO 21007KT 9999 NCD 10/08 Q1025
                        NOSIG=
201909060350 METAR COR EGLL 060350Z AUTO 20004KT 9999 NCD 10/08 Q1025
                        NOSIG=
201909060320 METAR COR EGLL 060320Z AUTO 25004KT 9999 NCD 10/08 Q1026
                        NOSIG=
201909060250 METAR COR EGLL 060250Z AUTO 21005KT 9999 NCD 10/08 Q1025
                        NOSIG=
201909060220 METAR COR EGLL 060220Z AUTO 19005KT 9999 NCD 10/07 Q1026
                        NOSIG=
201909060150 METAR COR EGLL 060150Z AUTO 22004KT 9999 NCD 10/07 Q1026
                        NOSIG=
201909060120 METAR COR EGLL 060120Z AUTO 21004KT 9999 NCD 10/07 Q1026
                        NOSIG=
201909060050 METAR COR EGLL 060050Z AUTO 21005KT 9999 NCD 11/07 Q1026
                        NOSIG=
201909060020 METAR COR EGLL 060020Z AUTO 25006KT 9999 NCD 11/07 Q1027
                        NOSIG=
201909052350 METAR COR EGLL 052350Z AUTO 27006KT 9999 NCD 12/07 Q1027
                        NOSIG=
201909052320 METAR COR EGLL 052320Z AUTO 27007KT 9999 NCD 11/07 Q1027
                        NOSIG=
201909052250 METAR COR EGLL 052250Z AUTO 28007KT 9999 NCD 11/07 Q1027
                        NOSIG=
201909052220 METAR COR EGLL 052220Z AUTO 25008KT 9999 NCD 13/08 Q1027
                        NOSIG=
201909052150 METAR COR EGLL 052150Z AUTO 26007KT 9999 NCD 13/08 Q1027
                        NOSIG=
201909052120 METAR COR EGLL 052120Z AUTO 28007KT 9999 NCD 14/07 Q1027
                        NOSIG=
201909052050 METAR COR EGLL 052050Z AUTO 28006KT 9999 NCD 13/07 Q1027
                        NOSIG=
201909052020 METAR COR EGLL 052020Z AUTO 28006KT 9999 NCD 14/07 Q1027
                        NOSIG=
201909051950 METAR COR EGLL 051950Z AUTO 28006KT 9999 NCD 15/07 Q1027
                        NOSIG=
201909051920 METAR COR EGLL 051920Z AUTO 29004KT 9999 NCD 16/07 Q1027
                        NOSIG=
201909051850 METAR COR EGLL 051850Z AUTO 30004KT 9999 NCD 16/07 Q1027
                        NOSIG=
201909051820 METAR COR EGLL 051820Z AUTO 29005KT 9999 NCD 16/06 Q1027
                        NOSIG=
201909051750 METAR COR EGLL 051750Z AUTO 29007KT 260V330 9999 NCD 17/07
                        Q1027 NOSIG=
201909051720 METAR COR EGLL 051720Z AUTO 31009KT 9999 NCD 17/07 Q1027
                        NOSIG=
201909051650 METAR COR EGLL 051650Z AUTO 32007KT 290V360 9999 NCD 17/07
                        Q1027 NOSIG=
201909051620 METAR COR EGLL 051620Z AUTO 32008KT 9999 SCT048 18/07 Q1027
                        NOSIG=
201909051550 METAR COR EGLL 051550Z AUTO 30008KT 270V360 9999 FEW048 18/06
                        Q1027 NOSIG=
201909051520 METAR COR EGLL 051520Z AUTO 30009KT 9999 FEW049 18/07 Q1027
                        NOSIG=
201909051450 METAR COR EGLL 051450Z AUTO 33008KT 270V020 9999 NCD 18/05
                        Q1027 NOSIG=
201909051420 METAR COR EGLL 051420Z AUTO 34007KT 300V020 9999 NCD 18/04
                        Q1027 NOSIG=
201909051350 METAR COR EGLL 051350Z AUTO 33006KT 280V070 9999 NCD 18/03
                        Q1027 NOSIG=
201909051320 METAR COR EGLL 051320Z AUTO 32008KT 290V020 9999 NCD 18/02
                        Q1027 NOSIG=
201909051250 METAR COR EGLL 051250Z AUTO 29009KT 260V330 9999 NCD 18/01
                        Q1026 NOSIG=
201909051220 METAR COR EGLL 051220Z AUTO 33007KT 280V040 9999 NCD 18/02
                        Q1026 NOSIG=
201909051150 METAR COR EGLL 051150Z AUTO 30009KT 240V340 9999 NCD 18/02
                        Q1026 NOSIG=
201909051120 METAR COR EGLL 051120Z AUTO 31010KT 270V020 9999 NCD 17/02
                        Q1026 NOSIG=
201909051050 METAR COR EGLL 051050Z AUTO 34009KT 300V020 9999 NCD 17/02
                        Q1026 NOSIG=
201909051020 METAR COR EGLL 051020Z AUTO 33008KT 290V360 9999 FEW045 16/03
                        Q1026 NOSIG=
201909050950 METAR COR EGLL 050950Z AUTO 31010KT 9999 SCT040 15/04 Q1026
                        NOSIG=
201909050920 METAR COR EGLL 050920Z AUTO 33008KT 290V010 9999 FEW031 SCT037
                        BKN044 15/07 Q1026 NOSIG=
201909050850 METAR COR EGLL 050850Z AUTO 31008KT 280V350 9999 BKN043 14/08
                        Q1025 NOSIG=
201909050820 METAR COR EGLL 050820Z AUTO 30007KT 260V340 9999 SCT032 BKN039
                        14/08 Q1025 NOSIG=
201909050750 METAR COR EGLL 050750Z AUTO 34006KT 290V040 9999 NCD 14/05
                        Q1025 NOSIG=
201909050720 METAR COR EGLL 050720Z AUTO 34005KT 290V030 9999 NCD 14/05
                        Q1024 NOSIG=
201909050650 METAR COR EGLL 050650Z AUTO 32006KT 290V360 9999 NCD 13/06
                        Q1024 NOSIG=
201909050620 METAR COR EGLL 050620Z AUTO 34005KT 300V020 9999 NCD 13/07
                        Q1024 NOSIG=
201909050550 METAR COR EGLL 050550Z AUTO 33006KT 280V010 9999 NCD 12/07
                        Q1023 NOSIG=
201909050520 METAR COR EGLL 050520Z AUTO 32007KT 280V360 9999 NCD 12/09
                        Q1023 NOSIG=
201909050450 METAR COR EGLL 050450Z AUTO 30007KT 9999 NCD 12/09 Q1022
                        NOSIG=
201909050420 METAR COR EGLL 050420Z AUTO 31006KT 9999 NCD 12/09 Q1022
                        NOSIG=
201909050350 METAR COR EGLL 050350Z AUTO 30007KT 9999 BKN031 12/09 Q1021
                        NOSIG=
201909050320 METAR COR EGLL 050320Z AUTO 31008KT 9999 FEW024 SCT029 BKN035
                        13/09 Q1021 NOSIG=
201909050250 METAR COR EGLL 050250Z AUTO 31008KT 9999 BKN029 13/08 Q1021
                        NOSIG=
201909050220 METAR COR EGLL 050220Z AUTO 30008KT 9999 NCD 13/08 Q1020
                        NOSIG=
201909050150 METAR COR EGLL 050150Z AUTO 30006KT 9999 NCD 13/08 Q1020
                        NOSIG=
201909050120 METAR COR EGLL 050120Z AUTO 30006KT 260V330 9999 FEW048 13/08
                        Q1020 NOSIG=
201909050050 METAR COR EGLL 050050Z AUTO 29008KT 9999 FEW031 SCT040 13/08
                        Q1019 NOSIG=
201909050020 METAR COR EGLL 050020Z AUTO 30010KT 9999 BKN029 14/09 Q1019
                        NOSIG=
201909042350 METAR COR EGLL 042350Z AUTO 31008KT 9999 BKN029 BKN035 15/09
                        Q1019 NOSIG=
201909042320 METAR COR EGLL 042320Z AUTO 30012G22KT 260V330 9999 BKN031
                        15/09 Q1018 NOSIG=
201909042250 METAR COR EGLL 042250Z AUTO 29009KT 9999 BKN032 BKN044 15/09
                        Q1018 NOSIG=
201909042220 METAR COR EGLL 042220Z AUTO 29010KT 9999 NCD 14/10 Q1018
                        NOSIG=
201909042150 METAR COR EGLL 042150Z AUTO 27014KT 9999 NCD 14/10 Q1017
                        NOSIG=
201909042120 METAR COR EGLL 042120Z AUTO 28012KT 9999 NCD 14/10 Q1017
                        NOSIG=
201909042050 METAR COR EGLL 042050Z AUTO 27012KT 9999 NCD 15/10 Q1017
                        NOSIG=
201909042020 METAR COR EGLL 042020Z AUTO 27013KT 9999 NCD 16/10 Q1017
                        NOSIG=
201909041950 METAR COR EGLL 041950Z AUTO 27014KT 9999 FEW046 16/10 Q1016
                        NOSIG=
201909041920 METAR COR EGLL 041920Z AUTO 27014KT 9999 FEW046 17/10 Q1016
                        NOSIG=
201909041850 METAR COR EGLL 041850Z AUTO 26013KT 9999 FEW042 17/10 Q1016
                        NOSIG=
201909041820 METAR COR EGLL 041820Z AUTO 26015KT 9999 SCT042 17/10 Q1016
                        NOSIG=
201909041750 METAR COR EGLL 041750Z AUTO 26018KT 9999 FEW041 18/09 Q1015
                        NOSIG=
201909041720 METAR COR EGLL 041720Z AUTO 27017KT 9999 FEW043 SCT049 19/09
                        Q1015 NOSIG=
201909041650 METAR EGLL 041650Z AUTO 27016KT 9999 FEW049 19/08 Q1015=
201909041620 METAR COR EGLL 041620Z AUTO 26016KT 9999 NCD 19/07 Q1015
                        NOSIG=
201909041550 METAR COR EGLL 041550Z AUTO 27016KT 9999 NCD 19/06 Q1015
                        NOSIG=
201909041520 METAR COR EGLL 041520Z AUTO 28015KT 9999 NCD 20/05 Q1015
                        NOSIG=
201909041450 METAR COR EGLL 041450Z AUTO 29015G26KT 9999 NCD 20/06 Q1015
                        NOSIG=
201909041420 METAR COR EGLL 041420Z AUTO 27016G27KT 9999 NCD 20/06 Q1015
                        NOSIG=
201909041350 METAR COR EGLL 041350Z AUTO 28016KT 9999 NCD 20/06 Q1015
                        NOSIG=
201909041320 METAR COR EGLL 041320Z AUTO 27018KT 9999 NCD 20/06 Q1015
                        NOSIG=
201909041250 METAR COR EGLL 041250Z AUTO 28017KT 9999 NCD 20/06 Q1015
                        NOSIG=
201909041220 METAR COR EGLL 041220Z AUTO 29012G24KT 250V320 9999 SCT049
                        20/07 Q1015 NOSIG=
201909041150 METAR COR EGLL 041150Z AUTO 27018KT 9999 NCD 20/06 Q1015
                        NOSIG=
201909041120 METAR COR EGLL 041120Z AUTO 27016KT 250V310 9999 FEW040 20/09
                        Q1015 NOSIG=
201909041050 METAR COR EGLL 041050Z AUTO 29017KT 9999 NCD 20/10 Q1015
                        NOSIG=
201909041020 METAR COR EGLL 041020Z AUTO 30013KT 9999 FEW029 SCT046 19/11
                        Q1015 NOSIG=
201909040950 METAR COR EGLL 040950Z AUTO 27016KT 9999 FEW024 SCT032 19/13
                        Q1014 NOSIG=
201909040920 METAR COR EGLL 040920Z AUTO 27017KT 9999 FEW021 SCT025 19/14
                        Q1014 NOSIG=
201909040850 METAR COR EGLL 040850Z AUTO 26015KT 9999 SCT018 19/15 Q1014
                        NOSIG=
201909040820 METAR COR EGLL 040820Z AUTO 26012KT 9999 FEW015 18/16 Q1014
                        NOSIG=
201909040750 METAR COR EGLL 040750Z AUTO 25012KT 9999 SCT014 17/16 Q1014
                        NOSIG=
201909040720 METAR COR EGLL 040720Z AUTO 24011KT 9999 NCD 17/16 Q1014
                        NOSIG=
201909040650 METAR COR EGLL 040650Z 24011KT 9999 SCT011 OVC041 16/16 Q1014
                        NOSIG=
201909040620 METAR COR EGLL 040620Z 23011KT 9999 -RA BKN012 16/16 Q1014
                        NOSIG=
201909040550 METAR COR EGLL 040550Z 22010KT 9999 -RA SCT007 BKN012 OVC020
                        16/15 Q1014 NOSIG=
201909040520 METAR COR EGLL 040520Z 21009KT 9999 -RA SCT006 BKN009 BKN016
                        15/15 Q1014 RERA NOSIG=
201909040450 METAR COR EGLL 040450Z 21009KT 6000 RA SCT006 BKN010 OVC044
                        15/15 Q1015 RERA NOSIG=
201909040420 METAR COR EGLL 040420Z 21009KT 6000 RA BKN005 BKN012 BKN016
                        15/15 Q1015 RERA TEMPO 4000 +RA=
201909040350 METAR COR EGLL 040350Z 21008KT 6000 +RA SCT006 BKN010 BKN017
                        15/15 Q1015 REDZ BECMG RA=
201909040320 METAR COR EGLL 040320Z AUTO 22008KT 8000 -RA FEW008 BKN012
                        OVC020 15/14 Q1016 RERA TEMPO RA
                        BKN008=
201909040250 METAR COR EGLL 040250Z 22008KT 6000 RA SCT011 BKN018 OVC029
                        15/14 Q1016 REDZ TEMPO 9999 -RA=
201909040220 METAR COR EGLL 040220Z AUTO 22010KT 7000 -RA BKN020/// BKN027///
                        //////TCU 15/14 Q1017 TEMPO RA=
201909040150 METAR COR EGLL 040150Z AUTO 22011KT 9999 SCT046 16/13 Q1017
                        TEMPO RA=
201909040120 METAR COR EGLL 040120Z AUTO 22008KT 9999 NCD 16/14 Q1018
                        NOSIG=
201909040050 METAR COR EGLL 040050Z AUTO 22008KT 9999 FEW035 SCT044 16/14
                        Q1018 NOSIG=
201909040020 METAR COR EGLL 040020Z AUTO 21009KT 9999 SCT040 16/13 Q1018
                        NOSIG=
201909032350 METAR COR EGLL 032350Z AUTO 20009KT 9999 BKN038 16/13 Q1019
                        NOSIG=
201909032320 METAR COR EGLL 032320Z AUTO 21007KT 9999 SCT037 16/13 Q1019
                        NOSIG=
201909032250 METAR COR EGLL 032250Z AUTO 21008KT 9999 SCT049 16/13 Q1019
                        NOSIG=
201909032220 METAR COR EGLL 032220Z AUTO 21010KT 9999 NCD 17/13 Q1020
                        NOSIG=
201909032150 METAR COR EGLL 032150Z AUTO 22010KT 9999 NCD 17/13 Q1020
                        NOSIG=
201909032120 METAR COR EGLL 032120Z AUTO 22010KT 9999 NCD 17/13 Q1020
                        NOSIG=
201909032050 METAR COR EGLL 032050Z AUTO 22010KT 170V250 9999 NCD 17/13
                        Q1021 NOSIG=
201909032020 METAR COR EGLL 032020Z AUTO 22011KT 9999 SCT031 18/13 Q1021
                        NOSIG=
201909031950 METAR COR EGLL 031950Z AUTO 23010KT 9999 FEW030 BKN039 19/13
                        Q1021 NOSIG=
201909031920 METAR COR EGLL 031920Z AUTO 23010KT 9999 BKN030 BKN042 19/13
                        Q1021 NOSIG=
201909031850 METAR COR EGLL 031850Z AUTO 23011KT 9999 SCT029 OVC048 19/13
                        Q1021 NOSIG=
201909031820 METAR COR EGLL 031820Z AUTO 24012KT 9999 OVC028 19/13 Q1021
                        NOSIG=
201909031750 METAR COR EGLL 031750Z AUTO 25011KT 9999 BKN027 20/13 Q1021
                        NOSIG=
201909031720 METAR COR EGLL 031720Z AUTO 25013KT 9999 BKN030 20/13 Q1021
                        NOSIG=
201909031650 METAR COR EGLL 031650Z AUTO 25013KT 9999 BKN031 20/13 Q1022
                        NOSIG=
201909031620 METAR COR EGLL 031620Z AUTO 26014G24KT 9999 BKN028 20/13
                        Q1022 NOSIG=
201909031550 METAR COR EGLL 031550Z AUTO 26014KT 9999 OVC027 20/13 Q1022
                        NOSIG=
201909031520 METAR COR EGLL 031520Z AUTO 27012KT 9999 OVC027 20/13 Q1022
                        NOSIG=
201909031450 METAR COR EGLL 031450Z AUTO 26014KT 9999 BKN030 BKN037 21/13
                        Q1022 NOSIG=
201909031420 METAR COR EGLL 031420Z AUTO 27014KT 9999 BKN032 BKN039 21/12
                        Q1023 NOSIG=
201909031350 METAR COR EGLL 031350Z AUTO 24014KT 9999 BKN030 21/12 Q1023
                        NOSIG=
201909031320 METAR COR EGLL 031320Z AUTO 26011KT 220V280 9999 BKN033 21/11
                        Q1023 NOSIG=
201909031250 METAR COR EGLL 031250Z AUTO 25012KT 220V290 9999 BKN032 BKN042
                        20/12 Q1023 NOSIG=
201909031220 METAR COR EGLL 031220Z AUTO 26011KT 220V290 9999 BKN033 20/11
                        Q1023 NOSIG=
201909031150 METAR COR EGLL 031150Z AUTO 25012KT 9999 BKN034 20/11 Q1023
                        NOSIG=
201909031120 METAR COR EGLL 031120Z AUTO 25012KT 9999 SCT033 BKN043 19/11
                        Q1024 NOSIG=
201909031050 METAR COR EGLL 031050Z AUTO 26011KT 9999 BKN032 19/10 Q1024
                        NOSIG=
201909031020 METAR COR EGLL 031020Z AUTO 26010KT 9999 BKN032 OVC043 18/11
                        Q1024 NOSIG=
201909030950 METAR COR EGLL 030950Z AUTO 24012KT 9999 SCT029 BKN045 19/11
                        Q1024 NOSIG=
201909030920 METAR COR EGLL 030920Z AUTO 24010KT 9999 BKN043 18/11 Q1024
                        NOSIG=
201909030850 METAR COR EGLL 030850Z AUTO 23008KT 9999 BKN045 17/11 Q1024
                        NOSIG=
201909030820 METAR COR EGLL 030820Z AUTO 25010KT 9999 BKN046 17/11 Q1024
                        NOSIG=
201909030750 METAR COR EGLL 030750Z AUTO 25009KT 9999 OVC046 16/12 Q1024
                        NOSIG=
201909030720 METAR COR EGLL 030720Z AUTO 25011KT 9999 OVC044 16/12 Q1024
                        NOSIG=
201909030650 METAR COR EGLL 030650Z AUTO 25011KT 9999 OVC043 16/12 Q1024
                        NOSIG=
201909030620 METAR COR EGLL 030620Z AUTO 24012KT 9999 OVC043 16/12 Q1024
                        NOSIG=
201909030550 METAR COR EGLL 030550Z AUTO 24010KT 9999 OVC044 16/12 Q1023
                        NOSIG=
201909030520 METAR COR EGLL 030520Z AUTO 24009KT 9999 OVC042 16/12 Q1023
                        NOSIG=
201909030450 METAR COR EGLL 030450Z AUTO 24010KT 9999 OVC045 16/12 Q1023
                        NOSIG=
201909030420 METAR COR EGLL 030420Z AUTO 24008KT 9999 OVC045 16/12 Q1023
                        NOSIG=
201909030350 METAR COR EGLL 030350Z AUTO 24009KT 9999 BKN046 16/12 Q1023
                        NOSIG=
201909030320 METAR COR EGLL 030320Z AUTO 24010KT 9999 OVC045 16/12 Q1023
                        NOSIG=
201909030250 METAR COR EGLL 030250Z AUTO 24009KT 9999 BKN045 16/12 Q1023
                        NOSIG=
201909030220 METAR COR EGLL 030220Z AUTO 24009KT 9999 OVC044 16/12 Q1023
                        NOSIG=
201909030150 METAR COR EGLL 030150Z AUTO 25009KT 9999 OVC041 16/12 Q1023
                        NOSIG=
201909030120 METAR COR EGLL 030120Z AUTO 25010KT 9999 OVC044 16/11 Q1023
                        NOSIG=
201909030050 METAR COR EGLL 030050Z AUTO 25012KT 9999 OVC041 16/11 Q1023
                        NOSIG=
201909030020 METAR COR EGLL 030020Z AUTO 24010KT 9999 BKN040 16/12 Q1023
                        NOSIG=
201909022350 METAR COR EGLL 022350Z AUTO 24009KT 9999 SCT042 16/12 Q1023
                        NOSIG=
201909022320 METAR COR EGLL 022320Z AUTO 24010KT 9999 BKN037 17/12 Q1023
                        NOSIG=
201909022250 METAR COR EGLL 022250Z AUTO 24010KT 9999 BKN031 17/12 Q1023
                        NOSIG=
201909022220 METAR COR EGLL 022220Z AUTO 25011KT 9999 SCT040 17/12 Q1023
                        NOSIG=
201909022150 METAR COR EGLL 022150Z AUTO 25011KT 9999 BKN039 17/12 Q1024
                        NOSIG=
201909022120 METAR COR EGLL 022120Z AUTO 25011KT 9999 BKN040 17/11 Q1024
                        NOSIG=
201909022050 METAR COR EGLL 022050Z AUTO 24013KT 9999 NCD 18/11 Q1024
                        NOSIG=
201909022020 METAR COR EGLL 022020Z AUTO 25012KT 9999 NCD 18/11 Q1024
                        NOSIG=
201909021950 METAR COR EGLL 021950Z AUTO 25012KT 9999 NCD 18/11 Q1023
                        NOSIG=
201909021920 METAR COR EGLL 021920Z AUTO 25012KT 9999 NCD 18/11 Q1023
                        NOSIG=
201909021850 METAR COR EGLL 021850Z AUTO 24012KT 200V260 9999 NCD 18/11
                        Q1023 NOSIG=
201909021820 METAR COR EGLL 021820Z AUTO 24013KT 9999 NCD 19/11 Q1023
                        NOSIG=
201909021750 METAR COR EGLL 021750Z AUTO 25013KT 9999 SCT036 BKN046 19/11
                        Q1023 NOSIG=
201909021720 METAR COR EGLL 021720Z AUTO 26014KT 9999 NCD 20/11 Q1023
                        NOSIG=
201909021650 METAR COR EGLL 021650Z AUTO 26015KT 9999 BKN046 20/10 Q1023
                        NOSIG=
201909021620 METAR COR EGLL 021620Z AUTO 26014KT 9999 FEW046 20/10 Q1023
                        NOSIG=
201909021550 METAR COR EGLL 021550Z AUTO 27011KT 9999 NCD 20/10 Q1023
                        NOSIG=
201909021520 METAR COR EGLL 021520Z AUTO 27015KT 9999 NCD 20/10 Q1023
                        NOSIG=
201909021450 METAR COR EGLL 021450Z AUTO 26015KT 9999 NCD 21/08 Q1023
                        NOSIG=
201909021420 METAR COR EGLL 021420Z AUTO 25012KT 9999 NCD 21/08 Q1023
                        NOSIG=
201909021350 METAR COR EGLL 021350Z AUTO 24009KT 9999 NCD 21/08 Q1023
                        NOSIG=
201909021320 METAR COR EGLL 021320Z AUTO 24011KT 210V270 9999 NCD 21/08
                        Q1023 NOSIG=
201909021250 METAR COR EGLL 021250Z AUTO 26012KT 230V300 9999 NCD 22/07
                        Q1024 NOSIG=
201909021220 METAR COR EGLL 021220Z AUTO 25011KT 9999 SCT049 20/07 Q1024
                        NOSIG=
201909021150 METAR COR EGLL 021150Z AUTO 27010KT 230V300 9999 SCT046 21/07
                        Q1024 NOSIG=
201909021120 METAR COR EGLL 021120Z AUTO 27009KT 230V320 9999 SCT045 21/07
                        Q1024 NOSIG=
201909021050 METAR COR EGLL 021050Z AUTO 24011KT 9999 FEW043 20/08 Q1024
                        NOSIG=
201909021020 METAR COR EGLL 021020Z AUTO 25010KT 220V280 9999 NCD 19/09
                        Q1024 NOSIG=
201909020950 METAR COR EGLL 020950Z AUTO 24010KT 220V300 9999 NCD 19/10
                        Q1024 NOSIG=
201909020920 METAR COR EGLL 020920Z AUTO 26007KT 220V300 9999 NCD 17/10
                        Q1024 NOSIG=
201909020850 METAR COR EGLL 020850Z AUTO 28007KT 230V310 9999 NCD 17/10
                        Q1024 NOSIG=
201909020820 METAR COR EGLL 020820Z AUTO 24007KT 210V280 9999 NCD 15/10
                        Q1024 NOSIG=
201909020750 METAR COR EGLL 020750Z AUTO 24007KT 9999 NCD 14/09 Q1024
                        NOSIG=
201909020720 METAR COR EGLL 020720Z AUTO 23004KT 190V320 9999 NCD 13/08
                        Q1024 NOSIG=
201909020650 METAR COR EGLL 020650Z AUTO VRB03KT 9999 NCD 11/08 Q1024
                        NOSIG=
201909020620 METAR COR EGLL 020620Z AUTO VRB03KT 9999 NCD 10/07 Q1024
                        NOSIG=
201909020550 METAR COR EGLL 020550Z AUTO 26005KT 9999 NCD 10/07 Q1024
                        NOSIG=
201909020520 METAR COR EGLL 020520Z AUTO 23004KT 190V270 9999 NCD 09/06
                        Q1024 NOSIG=
201909020450 METAR COR EGLL 020450Z AUTO 21006KT 170V250 9999 NCD 09/06
                        Q1023 NOSIG=
201909020420 METAR COR EGLL 020420Z AUTO 18006KT 130V210 9999 NCD 09/06
                        Q1023 NOSIG=
201909020350 METAR COR EGLL 020350Z AUTO 17005KT 9999 NCD 09/06 Q1023
                        NOSIG=
201909020320 METAR COR EGLL 020320Z AUTO VRB02KT 9999 NCD 09/06 Q1023
                        NOSIG=
201909020250 METAR COR EGLL 020250Z AUTO 27004KT 9999 NCD 10/06 Q1023
                        NOSIG=
201909020220 METAR COR EGLL 020220Z AUTO 26005KT 9999 NCD 11/06 Q1023
                        NOSIG=
201909020150 METAR COR EGLL 020150Z AUTO 27007KT 9999 NCD 11/06 Q1023
                        NOSIG=
201909020120 METAR COR EGLL 020120Z AUTO 28007KT 9999 NCD 10/06 Q1023
                        NOSIG=
201909020050 METAR COR EGLL 020050Z AUTO 28007KT 9999 NCD 11/06 Q1023
                        NOSIG=
201909020020 METAR COR EGLL 020020Z AUTO 27007KT 9999 NCD 11/06 Q1023
                        NOSIG=
201909012350 METAR COR EGLL 012350Z AUTO 29003KT 9999 NCD 11/06 Q1023
                        NOSIG=
201909012320 METAR COR EGLL 012320Z AUTO 28006KT 9999 NCD 11/06 Q1023
                        NOSIG=
201909012250 METAR COR EGLL 012250Z AUTO 27007KT 9999 NCD 13/06 Q1022
                        NOSIG=
201909012220 METAR COR EGLL 012220Z AUTO 29004KT 9999 NCD 14/05 Q1022
                        NOSIG=
201909012150 METAR COR EGLL 012150Z AUTO 29006KT 9999 NCD 15/05 Q1022
                        NOSIG=
201909012120 METAR COR EGLL 012120Z AUTO 30005KT 9999 NCD 16/05 Q1022
                        NOSIG=
201909012050 METAR COR EGLL 012050Z AUTO 29005KT 9999 NCD 16/05 Q1022
                        NOSIG=
201909012020 METAR COR EGLL 012020Z AUTO 29006KT 9999 NCD 16/05 Q1021
                        NOSIG=
201909011950 METAR COR EGLL 011950Z AUTO 29006KT 9999 NCD 17/04 Q1021
                        NOSIG=
201909011920 METAR COR EGLL 011920Z AUTO 30007KT 9999 NCD 17/05 Q1021
                        NOSIG=
201909011850 METAR COR EGLL 011850Z AUTO 31005KT 9999 NCD 18/04 Q1020
                        NOSIG=
201909011820 METAR COR EGLL 011820Z AUTO 30008KT 9999 NCD 18/03 Q1020
                        NOSIG=
201909011750 METAR COR EGLL 011750Z AUTO 32008KT 290V360 9999 NCD 19/03
                        Q1019 NOSIG=
201909011720 METAR COR EGLL 011720Z AUTO 31010KT 290V350 9999 NCD 20/04
                        Q1019 NOSIG=
201909011650 METAR COR EGLL 011650Z AUTO 31009KT 280V340 9999 NCD 20/04
                        Q1019 NOSIG=
201909011620 METAR COR EGLL 011620Z AUTO 31007KT 9999 NCD 20/04 Q1019
                        NOSIG=
201909011550 METAR COR EGLL 011550Z AUTO 31011KT 270V340 9999 NCD 20/02
                        Q1018 NOSIG=
201909011520 METAR COR EGLL 011520Z AUTO 29010KT 230V330 9999 NCD 20/04
                        Q1018 NOSIG=
201909011450 METAR COR EGLL 011450Z AUTO 31011KT 270V360 9999 NCD 20/05
                        Q1018 NOSIG=
201909011420 METAR EGLL 011420Z AUTO 28011KT 240V310 9999 NCD 20/03 Q1018=
201909011350 METAR EGLL 011350Z AUTO 27014KT 9999 NCD 20/04 Q1018=
201909011320 METAR COR EGLL 011320Z AUTO 27010KT 240V310 9999 NCD 20/05
                        Q1018 NOSIG=
201909011250 METAR COR EGLL 011250Z AUTO 28010KT 250V340 9999 NCD 19/05
                        Q1018 NOSIG=
201909011220 METAR COR EGLL 011220Z AUTO 29010KT 9999 NCD 20/06 Q1018
                        NOSIG=
201909011150 METAR COR EGLL 011150Z AUTO 29009KT 250V320 9999 NCD 20/06
                        Q1018 NOSIG=
201909011120 METAR COR EGLL 011120Z AUTO 28012KT 9999 NCD 19/06 Q1018
                        NOSIG=
201909011050 METAR COR EGLL 011050Z AUTO 28010KT 250V320 9999 FEW047 18/07
                        Q1018 NOSIG=
201909011020 METAR COR EGLL 011020Z AUTO 29008KT 240V320 9999 SCT038 19/07
                        Q1018 NOSIG=
201909010950 METAR COR EGLL 010950Z AUTO 31006KT 270V350 9999 BKN033 BKN041
                        18/08 Q1018 NOSIG=
201909010920 METAR COR EGLL 010920Z AUTO 29004KT 230V020 9999 FEW030 17/09
                        Q1018 NOSIG=
201909010850 METAR COR EGLL 010850Z AUTO 30005KT 250V350 9999 NCD 16/09
                        Q1018 NOSIG=
201909010820 METAR COR EGLL 010820Z AUTO 30005KT 250V350 9999 NCD 16/10
                        Q1017 NOSIG=
201909010750 METAR COR EGLL 010750Z AUTO 28006KT 230V330 9999 NCD 14/10
                        Q1017 NOSIG=
201909010720 METAR COR EGLL 010720Z AUTO 27006KT 9999 NCD 14/10 Q1017
                        NOSIG=
201909010650 METAR COR EGLL 010650Z AUTO 28007KT 9999 NCD 12/10 Q1017
                        NOSIG=
201909010620 METAR COR EGLL 010620Z AUTO 27006KT 9999 NCD 12/10 Q1016
                        NOSIG=
201909010550 METAR COR EGLL 010550Z AUTO 27007KT 9999 NCD 12/10 Q1016
                        NOSIG=
201909010520 METAR COR EGLL 010520Z AUTO 28004KT 9999 NCD 12/10 Q1016
                        NOSIG=
201909010450 METAR COR EGLL 010450Z AUTO 28005KT 9999 NCD 12/10 Q1015
                        NOSIG=
201909010420 METAR COR EGLL 010420Z AUTO 28005KT 9999 NCD 12/10 Q1015
                        NOSIG=
201909010350 METAR COR EGLL 010350Z AUTO 28005KT 9999 NCD 11/10 Q1015
                        NOSIG=
201909010320 METAR COR EGLL 010320Z AUTO 27005KT 9999 NCD 11/09 Q1015
                        NOSIG=
201909010250 METAR COR EGLL 010250Z AUTO 27006KT 9999 NCD 12/10 Q1015
                        NOSIG=
201909010220 METAR COR EGLL 010220Z AUTO 27005KT 9999 NCD 12/09 Q1015
                        NOSIG=
201909010150 METAR COR EGLL 010150Z AUTO 28007KT 9999 NCD 13/09 Q1015
                        NOSIG=
201909010120 METAR COR EGLL 010120Z AUTO 28007KT 9999 NCD 13/09 Q1015
                        NOSIG=
201909010050 METAR COR EGLL 010050Z AUTO 28006KT 9999 NCD 13/09 Q1015
                        NOSIG=
201909010020 METAR COR EGLL 010020Z AUTO 27008KT 9999 NCD 13/09 Q1015
                        NOSIG=

</pre>

</body>
</html>
