##########################################################
# Query made at 01/13/2020 12:00:08 UTC
# Time interval: from 09/01/2015 00:00  to 10/01/2015 23:59  UTC
##########################################################

##########################################################
# EGLL, London / Heathrow Airport (United Kingdom)
# WMO index: 03772
# Latitude 51-29N. Longitude 000-27W. Altitude 24 m.
##########################################################

###################################
#  METAR/SPECI from EGLL
###################################
201510012350 METAR COR EGLL 012350Z AUTO 04005KT 9999 BKN029 12/09 Q1029
                        NOSIG=
201510012320 METAR COR EGLL 012320Z AUTO 04005KT 9999 BKN033 12/10 Q1029
                        NOSIG=
201510012250 METAR COR EGLL 012250Z AUTO 04004KT 9999 OVC027 13/10 Q1029
                        NOSIG=
201510012220 METAR COR EGLL 012220Z AUTO 04005KT 9999 BKN029 13/10 Q1029
                        NOSIG=
201510012150 METAR EGLL 012150Z AUTO 05004KT 9999 BKN022 13/09 Q1030 NOSIG=
201510012120 METAR COR EGLL 012120Z AUTO 06007KT 9999 SCT027 13/09 Q1030
                        NOSIG=
201510012050 METAR COR EGLL 012050Z AUTO 06008KT 9999 BKN025 13/09 Q1030
                        NOSIG=
201510012020 METAR COR EGLL 012020Z AUTO 06010KT 9999 SCT022 13/09 Q1029
                        NOSIG=
201510011950 METAR EGLL 011950Z AUTO 06009KT 9999 NCD 13/08 Q1029 NOSIG=
201510011920 METAR COR EGLL 011920Z AUTO 06009KT 9999 NCD 14/07 Q1029
                        NOSIG=
201510011850 METAR EGLL 011850Z AUTO 06008KT 9999 NCD 15/07 Q1029 NOSIG=
201510011820 METAR COR EGLL 011820Z AUTO 07009KT 9999 NCD 15/07 Q1029
                        NOSIG=
201510011750 METAR EGLL 011750Z AUTO 07010KT 9999 NCD 16/06 Q1029 NOSIG=
201510011720 METAR COR EGLL 011720Z AUTO 06011KT 9999 NCD 17/06 Q1029
                        NOSIG=
201510011650 METAR EGLL 011650Z AUTO 06009KT 9999 NCD 17/06 Q1029 NOSIG=
201510011620 METAR COR EGLL 011620Z AUTO 06008KT 9999 NCD 18/07 Q1029
                        NOSIG=
201510011550 METAR EGLL 011550Z AUTO 06011KT 030V090 9999 NCD 18/07 Q1029
                        NOSIG=
201510011520 METAR COR EGLL 011520Z AUTO 07011KT 9999 NCD 18/07 Q1029
                        NOSIG=
201510011450 METAR COR EGLL 011450Z AUTO 06009KT 9999 NCD 18/08 Q1030
                        NOSIG=
201510011420 METAR COR EGLL 011420Z AUTO 07009KT 9999 NCD 18/07 Q1030
                        NOSIG=
201510011350 METAR EGLL 011350Z AUTO 07010KT 9999 FEW042 18/07 Q1030 NOSIG=
201510011320 METAR COR EGLL 011320Z AUTO 08012KT 9999 FEW040 18/08 Q1031
                        NOSIG=
201510011250 METAR COR EGLL 011250Z AUTO 07011KT 030V100 9999 FEW039 18/08
                        Q1031 NOSIG=
201510011220 METAR COR EGLL 011220Z AUTO 09013KT 9999 FEW041 18/07 Q1031
                        NOSIG=
201510011150 METAR EGLL 011150Z AUTO 07011KT 9999 FEW039 18/08 Q1032 NOSIG=
201510011120 METAR COR EGLL 011120Z AUTO 07011KT 030V090 9999 FEW032 17/08
                        Q1032 NOSIG=
201510011050 METAR COR EGLL 011050Z AUTO 07011KT 030V090 9999 SCT028 17/10
                        Q1032 NOSIG=
201510011020 METAR EGLL 011020Z AUTO 07011KT 040V110 9999 FEW026 16/09
                        Q1032=
201510010950 METAR EGLL 010950Z AUTO 07012KT 9999 BKN023 16/10 Q1032 NOSIG=
201510010920 METAR COR EGLL 010920Z AUTO 06010KT 030V090 9999 FEW020 15/11
                        Q1032 NOSIG=
201510010850 METAR COR EGLL 010850Z AUTO 07008KT 9999 NCD 14/10 Q1032
                        NOSIG=
201510010820 METAR COR EGLL 010820Z AUTO 06008KT 030V100 9999 NCD 13/10
                        Q1032 NOSIG=
201510010750 METAR EGLL 010750Z AUTO 04006KT 9999 NCD 12/10 Q1032 NOSIG=
201510010720 METAR COR EGLL 010720Z AUTO 05004KT 020V080 9999 NCD 11/09
                        Q1032 NOSIG=
201510010650 METAR EGLL 010650Z AUTO VRB01KT 9999 NCD 10/08 Q1032 NOSIG=
201510010620 METAR COR EGLL 010620Z AUTO VRB02KT 9999 NCD 09/07 Q1032
                        NOSIG=
201510010550 METAR EGLL 010550Z AUTO 36004KT 9999 NCD 09/08 Q1032 NOSIG=
201510010520 METAR COR EGLL 010520Z AUTO 36004KT 9999 NCD 09/08 Q1032
                        NOSIG=
201510010450 METAR COR EGLL 010450Z AUTO 01004KT 330V060 9999 NCD 09/08
                        Q1032 NOSIG=
201510010420 METAR COR EGLL 010420Z AUTO 03004KT 340V070 9999 NCD 09/08
                        Q1032 NOSIG=
201510010350 METAR EGLL 010350Z AUTO 02005KT 340V050 9999 NCD 09/08 Q1032
                        NOSIG=
201510010320 METAR COR EGLL 010320Z AUTO 01004KT 340V040 9999 NCD 10/08
                        Q1032 NOSIG=
201510010250 METAR EGLL 010250Z AUTO 01005KT 9999 NCD 10/09 Q1032 NOSIG=
201510010220 METAR EGLL 010220Z AUTO 36005KT 9999 NCD 10/09 Q1032=
201510010150 METAR EGLL 010150Z AUTO 36004KT 340V040 9999 NCD 11/09 Q1032
                        NOSIG=
201510010120 METAR COR EGLL 010120Z AUTO 04005KT 9999 NCD 11/09 Q1032
                        NOSIG=
201510010050 METAR COR EGLL 010050Z 04004KT CAVOK 11/09 Q1032 NOSIG=
201510010020 METAR COR EGLL 010020Z 05004KT CAVOK 12/10 Q1032 NOSIG=
201509302350 METAR COR EGLL 302350Z 05005KT CAVOK 12/10 Q1032 NOSIG=
201509302320 METAR COR EGLL 302320Z 05006KT CAVOK 12/10 Q1033 NOSIG=
201509302250 METAR COR EGLL 302250Z 06007KT CAVOK 12/10 Q1033 NOSIG=
201509302220 METAR COR EGLL 302220Z 06006KT 9999 FEW030 12/09 Q1033 NOSIG=
201509302150 METAR EGLL 302150Z 06006KT 9999 FEW030 13/09 Q1033 NOSIG=
201509302120 METAR COR EGLL 302120Z 06006KT 010V090 CAVOK 13/09 Q1033
                        NOSIG=
201509302050 METAR EGLL 302050Z 06006KT CAVOK 13/09 Q1033 NOSIG=
201509302020 METAR COR EGLL 302020Z 06006KT CAVOK 13/09 Q1033 NOSIG=
201509301950 METAR EGLL 301950Z 06008KT CAVOK 14/08 Q1033 NOSIG=
201509301920 METAR COR EGLL 301920Z 06009KT CAVOK 14/08 Q1032 NOSIG=
201509301850 METAR COR EGLL 301850Z 07010KT CAVOK 14/08 Q1032 NOSIG=
201509301820 METAR COR EGLL 301820Z 07012KT CAVOK 14/07 Q1032 NOSIG=
201509301750 METAR EGLL 301750Z 07011KT CAVOK 15/07 Q1032 NOSIG=
201509301720 METAR COR EGLL 301720Z 07012KT CAVOK 15/06 Q1032 NOSIG=
201509301650 METAR EGLL 301650Z 08011KT CAVOK 16/05 Q1032 NOSIG=
201509301620 METAR COR EGLL 301620Z 08013KT CAVOK 17/05 Q1031 NOSIG=
201509301550 METAR EGLL 301550Z 06011KT CAVOK 17/05 Q1031 NOSIG=
201509301520 METAR COR EGLL 301520Z 07013KT CAVOK 18/04 Q1032 NOSIG=
201509301450 METAR COR EGLL 301450Z 07013KT CAVOK 18/05 Q1032 NOSIG=
201509301420 METAR COR EGLL 301420Z 09014KT 050V120 CAVOK 18/04 Q1032
                        NOSIG=
201509301350 METAR COR EGLL 301350Z 09016KT CAVOK 18/04 Q1032 NOSIG=
201509301320 METAR COR EGLL 301320Z 10016KT CAVOK 18/05 Q1032 NOSIG=
201509301250 METAR COR EGLL 301250Z 07013KT CAVOK 18/05 Q1032 NOSIG=
201509301220 METAR COR EGLL 301220Z 09014KT 9999 FEW044 18/05 Q1032 NOSIG=
201509301150 METAR COR EGLL 301150Z 08014KT 9999 FEW044 18/06 Q1032 NOSIG=
201509301120 METAR COR EGLL 301120Z 09014KT 9999 FEW047 17/07 Q1033 NOSIG=
201509301050 METAR EGLL 301050Z 09013KT 9999 SCT031 17/08 Q1033 NOSIG=
201509301020 METAR COR EGLL 301020Z 07011KT 9999 SCT029 17/10 Q1033 NOSIG=
201509300950 METAR EGLL 300950Z 07010KT 9999 FEW025 16/10 Q1033 NOSIG=
201509300920 METAR COR EGLL 300920Z 07010KT 040V120 9999 FEW022 15/10
                        Q1033 NOSIG=
201509300850 METAR COR EGLL 300850Z 06009KT 9999 FEW022 14/10 Q1033 NOSIG=
201509300820 METAR COR EGLL 300820Z 06007KT CAVOK 13/10 Q1033 NOSIG=
201509300750 METAR EGLL 300750Z 05006KT 9999 FEW022 12/09 Q1033 NOSIG=
201509300720 METAR COR EGLL 300720Z 06006KT 9999 FEW036 12/09 Q1033 NOSIG=
201509300650 METAR EGLL 300650Z 06005KT CAVOK 11/09 Q1033 NOSIG=
201509300620 METAR COR EGLL 300620Z 05005KT CAVOK 11/09 Q1032 NOSIG=
201509300550 METAR COR EGLL 300550Z 05004KT CAVOK 10/08 Q1032 NOSIG=
201509300520 METAR COR EGLL 300520Z 04005KT CAVOK 10/08 Q1032 NOSIG=
201509300450 METAR COR EGLL 300450Z 05005KT CAVOK 11/08 Q1032 NOSIG=
201509300420 METAR COR EGLL 300420Z 05005KT CAVOK 11/08 Q1033 NOSIG=
201509300350 METAR COR EGLL 300350Z 04005KT CAVOK 11/08 Q1033 NOSIG=
201509300320 METAR COR EGLL 300320Z 04006KT 020V080 CAVOK 11/08 Q1033
                        NOSIG=
201509300250 METAR EGLL 300250Z 04006KT 010V070 CAVOK 11/08 Q1033 NOSIG=
201509300220 METAR COR EGLL 300220Z 04006KT CAVOK 11/08 Q1033 NOSIG=
201509300150 METAR EGLL 300150Z 04005KT CAVOK 11/08 Q1033 NOSIG=
201509300120 METAR EGLL 300120Z AUTO 04005KT 9999 NCD 12/09 Q1033=
201509300050 METAR EGLL 300050Z AUTO 05005KT 9999 NCD 12/09 Q1033=
201509300020 METAR EGLL 300020Z AUTO 04005KT 9999 NCD 12/09 Q1034=
201509292350 METAR COR EGLL 292350Z 05005KT CAVOK 12/09 Q1034 NOSIG=
201509292320 METAR COR EGLL 292320Z 06007KT 9999 FEW037 12/09 Q1034 NOSIG=
201509292250 METAR EGLL 292250Z 06008KT 9999 SCT034 13/09 Q1034 NOSIG=
201509292220 METAR COR EGLL 292220Z 05007KT 9999 SCT035 13/10 Q1034 NOSIG=
201509292150 METAR COR EGLL 292150Z 06008KT 9999 FEW030 SCT038 13/10 Q1034
                        NOSIG=
201509292120 METAR COR EGLL 292120Z 06010KT 9999 FEW032 13/10 Q1034 NOSIG=
201509292050 METAR EGLL 292050Z 06008KT 9999 FEW022 13/10 Q1034 NOSIG=
201509292020 METAR COR EGLL 292020Z 06010KT CAVOK 13/09 Q1034 NOSIG=
201509291950 METAR COR EGLL 291950Z 06010KT 9999 FEW020 14/09 Q1034 NOSIG=
201509291920 METAR COR EGLL 291920Z 06010KT CAVOK 14/09 Q1034 NOSIG=
201509291850 METAR EGLL 291850Z 07009KT CAVOK 14/09 Q1034 NOSIG=
201509291820 METAR COR EGLL 291820Z 07007KT CAVOK 15/08 Q1034 NOSIG=
201509291750 METAR COR EGLL 291750Z 07008KT CAVOK 15/08 Q1033 NOSIG=
201509291720 METAR COR EGLL 291720Z 06011KT CAVOK 16/08 Q1033 NOSIG=
201509291650 METAR EGLL 291650Z 07011KT CAVOK 16/08 Q1033 NOSIG=
201509291620 METAR COR EGLL 291620Z 07011KT CAVOK 17/07 Q1033 NOSIG=
201509291550 METAR EGLL 291550Z 06011KT CAVOK 17/08 Q1033 NOSIG=
201509291520 METAR COR EGLL 291520Z 07010KT CAVOK 17/07 Q1034 NOSIG=
201509291450 METAR COR EGLL 291450Z 07011KT CAVOK 18/08 Q1034 NOSIG=
201509291420 METAR COR EGLL 291420Z 07011KT CAVOK 18/08 Q1034 NOSIG=
201509291350 METAR COR EGLL 291350Z 07011KT CAVOK 19/08 Q1034 NOSIG=
201509291320 METAR COR EGLL 291320Z 08009KT CAVOK 18/08 Q1034 NOSIG=
201509291250 METAR COR EGLL 291250Z 07011KT 9999 FEW041 19/09 Q1035 NOSIG=
201509291220 METAR COR EGLL 291220Z 08010KT 9999 FEW036 18/09 Q1035 NOSIG=
201509291150 METAR COR EGLL 291150Z 10012KT 060V120 9999 FEW036 19/09
                        Q1035 NOSIG=
201509291120 METAR COR EGLL 291120Z 09010KT 050V120 9999 FEW036 18/09
                        Q1035 NOSIG=
201509291050 METAR EGLL 291050Z 08011KT 050V120 9999 FEW028 17/10 Q1035
                        NOSIG=
201509291020 METAR COR EGLL 291020Z 08010KT 050V110 9999 FEW027 17/11
                        Q1036 NOSIG=
201509290950 METAR EGLL 290950Z 08009KT 050V110 9999 FEW017 16/10 Q1036
                        NOSIG=
201509290920 METAR COR EGLL 290920Z 07008KT CAVOK 16/11 Q1036 NOSIG=
201509290850 METAR COR EGLL 290850Z 07008KT 9999 FEW017 14/11 Q1036 NOSIG=
201509290820 METAR COR EGLL 290820Z 06005KT 020V090 CAVOK 14/10 Q1036
                        NOSIG=
201509290750 METAR EGLL 290750Z 06005KT CAVOK 13/10 Q1036 NOSIG=
201509290720 METAR COR EGLL 290720Z 06004KT CAVOK 11/09 Q1036 NOSIG=
201509290650 METAR EGLL 290650Z 06006KT CAVOK 11/09 Q1036 NOSIG=
201509290620 METAR COR EGLL 290620Z 05004KT 020V080 CAVOK 10/09 Q1035
                        NOSIG=
201509290550 METAR EGLL 290550Z 04004KT CAVOK 11/09 Q1035 NOSIG=
201509290520 METAR COR EGLL 290520Z 05005KT CAVOK 11/09 Q1035 NOSIG=
201509290450 METAR EGLL 290450Z 05004KT CAVOK 11/09 Q1035 NOSIG=
201509290420 METAR COR EGLL 290420Z 04005KT CAVOK 11/09 Q1035 NOSIG=
201509290350 METAR COR EGLL 290350Z 04005KT CAVOK 11/09 Q1035 NOSIG=
201509290320 METAR COR EGLL 290320Z 04005KT CAVOK 11/09 Q1035 NOSIG=
201509290250 METAR COR EGLL 290250Z 03004KT CAVOK 11/09 Q1035 NOSIG=
201509290220 METAR COR EGLL 290220Z VRB03KT CAVOK 11/08 Q1035 NOSIG=
201509290150 METAR EGLL 290150Z AUTO 05003KT 9999 NCD 11/08 Q1035=
201509290120 METAR EGLL 290120Z AUTO 06002KT 9999 NCD 11/08 Q1035=
201509290050 METAR EGLL 290050Z AUTO 06004KT 9999 FEW033 12/09 Q1036=
201509290020 METAR COR EGLL 290020Z 07005KT 9999 SCT031 12/09 Q1036 NOSIG=
201509282350 METAR COR EGLL 282350Z 08005KT 9999 BKN028 13/09 Q1036 NOSIG=
201509282320 METAR COR EGLL 282320Z 07005KT 9999 BKN028 14/10 Q1035 NOSIG=
201509282250 METAR COR EGLL 282250Z 06006KT 9999 BKN027 14/10 Q1035 NOSIG=
201509282220 METAR COR EGLL 282220Z 06006KT 9999 BKN025 14/10 Q1035 NOSIG=
201509282150 METAR COR EGLL 282150Z 06006KT 9999 BKN027 14/10 Q1036 NOSIG=
201509282120 METAR COR EGLL 282120Z 06006KT 9999 BKN026 14/09 Q1036 NOSIG=
201509282050 METAR EGLL 282050Z 06007KT 9999 BKN028 14/10 Q1036 NOSIG=
201509282020 METAR COR EGLL 282020Z 07007KT 9999 SCT029 13/09 Q1036 NOSIG=
201509281950 METAR COR EGLL 281950Z 07006KT 9999 FEW030 13/09 Q1036 NOSIG=
201509281920 METAR COR EGLL 281920Z 07007KT CAVOK 14/09 Q1036 NOSIG=
201509281850 METAR EGLL 281850Z 08006KT CAVOK 14/08 Q1036 NOSIG=
201509281820 METAR COR EGLL 281820Z 08009KT CAVOK 14/08 Q1036 NOSIG=
201509281750 METAR EGLL 281750Z 08007KT CAVOK 14/08 Q1036 NOSIG=
201509281720 METAR COR EGLL 281720Z 09010KT CAVOK 15/08 Q1036 NOSIG=
201509281650 METAR COR EGLL 281650Z 10010KT CAVOK 16/09 Q1036 NOSIG=
201509281620 METAR COR EGLL 281620Z 10011KT CAVOK 16/08 Q1036 NOSIG=
201509281550 METAR EGLL 281550Z 10015KT CAVOK 17/07 Q1036 NOSIG=
201509281520 METAR COR EGLL 281520Z 08011KT CAVOK 17/08 Q1036 NOSIG=
201509281450 METAR EGLL 281450Z 07010KT CAVOK 18/09 Q1036 NOSIG=
201509281420 METAR COR EGLL 281420Z 09012KT 050V110 CAVOK 18/09 Q1036
                        NOSIG=
201509281350 METAR EGLL 281350Z 09010KT CAVOK 18/09 Q1036 NOSIG=
201509281320 METAR COR EGLL 281320Z 09011KT CAVOK 18/09 Q1036 NOSIG=
201509281250 METAR COR EGLL 281250Z 09013KT 9999 FEW035 18/09 Q1036 NOSIG=
201509281220 METAR COR EGLL 281220Z 09011KT 060V130 9999 FEW033 18/10
                        Q1037 NOSIG=
201509281150 METAR EGLL 281150Z 09012KT 9999 FEW031 18/10 Q1037 NOSIG=
201509281120 METAR COR EGLL 281120Z 11012KT 9999 FEW028 17/11 Q1037 NOSIG=
201509281050 METAR EGLL 281050Z 10011KT 9999 SCT023 17/11 Q1037 NOSIG=
201509281020 METAR COR EGLL 281020Z 09009KT 9999 FEW021 17/11 Q1037 NOSIG=
201509280950 METAR EGLL 280950Z 10010KT 9999 FEW021 16/11 Q1037 NOSIG=
201509280920 METAR COR EGLL 280920Z 11008KT 9999 FEW017 15/11 Q1037 NOSIG=
201509280850 METAR EGLL 280850Z 09006KT 060V120 CAVOK 14/11 Q1037 NOSIG=
201509280820 METAR COR EGLL 280820Z 07005KT CAVOK 13/11 Q1037 NOSIG=
201509280750 METAR EGLL 280750Z 07004KT CAVOK 12/10 Q1037 NOSIG=
201509280720 METAR COR EGLL 280720Z 04004KT CAVOK 10/09 Q1037 NOSIG=
201509280650 METAR EGLL 280650Z 04002KT CAVOK 09/09 Q1037 NOSIG=
201509280620 METAR COR EGLL 280620Z 04002KT CAVOK 09/08 Q1037 NOSIG=
201509280550 METAR EGLL 280550Z 06003KT CAVOK 08/07 Q1036 NOSIG=
201509280520 METAR COR EGLL 280520Z 06003KT CAVOK 08/08 Q1036 NOSIG=
201509280450 METAR EGLL 280450Z VRB02KT CAVOK 09/08 Q1037 NOSIG=
201509280420 METAR COR EGLL 280420Z VRB03KT CAVOK 09/08 Q1036 NOSIG=
201509280350 METAR COR EGLL 280350Z 01003KT CAVOK 09/08 Q1037 NOSIG=
201509280320 METAR COR EGLL 280320Z 36002KT CAVOK 09/08 Q1036 NOSIG=
201509280250 METAR COR EGLL 280250Z 04004KT CAVOK 09/08 Q1036 NOSIG=
201509280220 METAR COR EGLL 280220Z 04004KT CAVOK 10/09 Q1036 NOSIG=
201509280150 METAR EGLL 280150Z 02003KT CAVOK 10/08 Q1036 NOSIG=
201509280120 METAR EGLL 280120Z AUTO 04003KT 9999 NCD 10/09 Q1036=
201509280050 METAR EGLL 280050Z AUTO 04003KT 9999 NCD 10/09 Q1036=
201509280020 METAR EGLL 280020Z AUTO 03004KT 9999 NCD 11/09 Q1036=
201509272350 METAR EGLL 272350Z 05004KT CAVOK 10/09 Q1036 NOSIG=
201509272320 METAR COR EGLL 272320Z 06004KT CAVOK 10/08 Q1036 NOSIG=
201509272250 METAR COR EGLL 272250Z 04004KT CAVOK 11/09 Q1036 NOSIG=
201509272220 METAR COR EGLL 272220Z 06005KT CAVOK 11/08 Q1036 NOSIG=
201509272150 METAR EGLL 272150Z 07005KT CAVOK 13/09 Q1036 NOSIG=
201509272120 METAR COR EGLL 272120Z 07005KT CAVOK 13/09 Q1036 NOSIG=
201509272050 METAR COR EGLL 272050Z 08006KT CAVOK 13/09 Q1036 NOSIG=
201509272020 METAR COR EGLL 272020Z 07007KT CAVOK 13/09 Q1036 NOSIG=
201509271950 METAR COR EGLL 271950Z 07006KT CAVOK 13/09 Q1036 NOSIG=
201509271920 METAR COR EGLL 271920Z 07005KT CAVOK 13/09 Q1036 NOSIG=
201509271850 METAR COR EGLL 271850Z 08007KT CAVOK 14/09 Q1035 NOSIG=
201509271820 METAR COR EGLL 271820Z 07007KT CAVOK 14/09 Q1035 NOSIG=
201509271750 METAR COR EGLL 271750Z 07008KT 9999 FEW024 15/09 Q1035 NOSIG=
201509271720 METAR COR EGLL 271720Z 08008KT 9999 FEW028 16/09 Q1034 NOSIG=
201509271650 METAR EGLL 271650Z 09008KT 9999 FEW032 16/08 Q1034 NOSIG=
201509271620 METAR COR EGLL 271620Z 07009KT 9999 FEW037 17/09 Q1034 NOSIG=
201509271550 METAR COR EGLL 271550Z 08010KT 9999 FEW040 18/08 Q1034 NOSIG=
201509271520 METAR COR EGLL 271520Z 07009KT 9999 FEW040 18/08 Q1033 NOSIG=
201509271450 METAR COR EGLL 271450Z 08011KT 9999 FEW040 18/08 Q1033 NOSIG=
201509271420 METAR COR EGLL 271420Z 07010KT 9999 FEW041 18/09 Q1034 NOSIG=
201509271350 METAR EGLL 271350Z 07009KT 9999 SCT040 19/09 Q1034 NOSIG=
201509271320 METAR COR EGLL 271320Z 07008KT 9999 SCT039 19/09 Q1034 NOSIG=
201509271250 METAR EGLL 271250Z 11010KT 070V130 9999 SCT042 18/08 Q1034
                        NOSIG=
201509271220 METAR COR EGLL 271220Z 08009KT 030V110 9999 SCT037 17/09
                        Q1034 NOSIG=
201509271150 METAR COR EGLL 271150Z 09009KT 030V120 9999 SCT034 17/09
                        Q1034 NOSIG=
201509271120 METAR COR EGLL 271120Z 06008KT 030V100 9999 SCT033 17/09
                        Q1034 NOSIG=
201509271050 METAR EGLL 271050Z 09008KT 060V120 9999 SCT033 17/09 Q1034
                        NOSIG=
201509271020 METAR COR EGLL 271020Z 09009KT 050V110 9999 FEW027 16/10
                        Q1034 NOSIG=
201509270950 METAR EGLL 270950Z 08006KT 050V110 9999 FEW024 16/10 Q1034
                        NOSIG=
201509270920 METAR COR EGLL 270920Z 06006KT CAVOK 15/10 Q1034 NOSIG=
201509270850 METAR EGLL 270850Z 06006KT 9999 FEW046 14/10 Q1034 NOSIG=
201509270820 METAR COR EGLL 270820Z 06005KT 9999 FEW046 13/09 Q1034 NOSIG=
201509270750 METAR COR EGLL 270750Z 04004KT 010V080 9999 FEW027 12/09
                        Q1033 NOSIG=
201509270720 METAR COR EGLL 270720Z 04004KT 9999 SCT027 10/08 Q1033 NOSIG=
201509270650 METAR EGLL 270650Z 04004KT 9999 SCT043 10/08 Q1033 NOSIG=
201509270620 METAR COR EGLL 270620Z 02003KT 9999 BKN047 10/08 Q1032 NOSIG=
201509270550 METAR EGLL 270550Z VRB02KT 9999 BKN043 09/07 Q1032 NOSIG=
201509270520 METAR COR EGLL 270520Z VRB01KT 9999 BKN043 09/07 Q1032 NOSIG=
201509270450 METAR COR EGLL 270450Z VRB02KT CAVOK 08/06 Q1032 NOSIG=
201509270420 METAR COR EGLL 270420Z 36003KT CAVOK 08/06 Q1032 NOSIG=
201509270350 METAR EGLL 270350Z 36001KT CAVOK 08/06 Q1032 NOSIG=
201509270320 METAR COR EGLL 270320Z 36003KT CAVOK 08/06 Q1031 NOSIG=
201509270250 METAR COR EGLL 270250Z 36004KT CAVOK 08/06 Q1031 NOSIG=
201509270220 METAR COR EGLL 270220Z 36003KT CAVOK 09/06 Q1031 NOSIG=
201509270150 METAR COR EGLL 270150Z 02002KT CAVOK 09/07 Q1031 NOSIG=
201509270120 METAR EGLL 270120Z AUTO 02002KT 9999 NCD 09/07 Q1031=
201509270050 METAR EGLL 270050Z AUTO 04003KT 9999 NCD 09/07 Q1031=
201509270020 METAR EGLL 270020Z AUTO VRB03KT 9999 NCD 10/07 Q1031=
201509262350 METAR COR EGLL 262350Z 02003KT CAVOK 10/07 Q1031 NOSIG=
201509262320 METAR COR EGLL 262320Z 03004KT CAVOK 11/07 Q1031 NOSIG=
201509262250 METAR COR EGLL 262250Z 04004KT CAVOK 12/08 Q1031 NOSIG=
201509262220 METAR COR EGLL 262220Z 04003KT CAVOK 11/07 Q1031 NOSIG=
201509262150 METAR COR EGLL 262150Z 06003KT CAVOK 13/08 Q1030 NOSIG=
201509262120 METAR COR EGLL 262120Z 09004KT CAVOK 12/08 Q1030 NOSIG=
201509262050 METAR COR EGLL 262050Z 10005KT 9999 SCT049 13/08 Q1030 NOSIG=
201509262020 METAR COR EGLL 262020Z 09004KT CAVOK 12/08 Q1030 NOSIG=
201509261950 METAR COR EGLL 261950Z 10006KT CAVOK 12/08 Q1030 NOSIG=
201509261920 METAR COR EGLL 261920Z 11007KT 9999 SCT047 13/08 Q1030 NOSIG=
201509261850 METAR COR EGLL 261850Z 07004KT 040V110 9999 SCT049 14/07
                        Q1029 NOSIG=
201509261820 METAR EGLL 261820Z AUTO VRB03KT 9999 NCD 15/06 Q1029=
201509261750 METAR EGLL 261750Z 05003KT CAVOK 15/06 Q1029 NOSIG=
201509261720 METAR COR EGLL 261720Z 06005KT CAVOK 16/07 Q1029 NOSIG=
201509261650 METAR COR EGLL 261650Z 08004KT 040V110 CAVOK 17/06 Q1029
                        NOSIG=
201509261620 METAR COR EGLL 261620Z 05006KT 9999 SCT049 16/06 Q1028 NOSIG=
201509261550 METAR COR EGLL 261550Z 05006KT 360V110 9999 SCT049 17/06
                        Q1028 NOSIG=
201509261520 METAR COR EGLL 261520Z 07007KT 040V100 9999 SCT048 16/06
                        Q1028 NOSIG=
201509261450 METAR COR EGLL 261450Z 06006KT 020V080 9999 SCT045 17/07
                        Q1028 NOSIG=
201509261420 METAR COR EGLL 261420Z 06006KT 030V100 9999 SCT046 18/07
                        Q1028 NOSIG=
201509261350 METAR COR EGLL 261350Z 06006KT 030V090 9999 SCT045 17/06
                        Q1028 NOSIG=
201509261320 METAR COR EGLL 261320Z 36005KT 310V050 9999 SCT044 17/07
                        Q1029 NOSIG=
201509261250 METAR COR EGLL 261250Z 03005KT 350V060 9999 SCT043 17/07
                        Q1029 NOSIG=
201509261220 METAR COR EGLL 261220Z 06005KT 340V130 9999 SCT045 16/07
                        Q1029 NOSIG=
201509261150 METAR COR EGLL 261150Z 02006KT 330V070 9999 SCT045 17/07
                        Q1029 NOSIG=
201509261120 METAR COR EGLL 261120Z 04005KT 320V090 9999 SCT045 17/08
                        Q1029 NOSIG=
201509261050 METAR COR EGLL 261050Z 04004KT 350V090 9999 FEW032 16/08
                        Q1029 NOSIG=
201509261020 METAR COR EGLL 261020Z VRB04KT CAVOK 15/08 Q1029 NOSIG=
201509260950 METAR EGLL 260950Z VRB03KT CAVOK 14/08 Q1029 NOSIG=
201509260920 METAR EGLL 260920Z AUTO VRB03KT 9999 NCD 13/08 Q1029=
201509260850 METAR COR EGLL 260850Z 04004KT 350V090 CAVOK 12/08 Q1029
                        NOSIG=
201509260820 METAR COR EGLL 260820Z 03004KT 360V070 9999 FEW048 11/07
                        Q1029 NOSIG=
201509260750 METAR EGLL 260750Z 35003KT CAVOK 10/07 Q1029 NOSIG=
201509260720 METAR COR EGLL 260720Z 36003KT CAVOK 09/06 Q1029 NOSIG=
201509260650 METAR EGLL 260650Z 33001KT CAVOK 08/06 Q1028 NOSIG=
201509260620 METAR COR EGLL 260620Z 34002KT CAVOK 08/06 Q1028 NOSIG=
201509260550 METAR COR EGLL 260550Z 32001KT CAVOK 07/05 Q1028 NOSIG=
201509260520 METAR COR EGLL 260520Z 33002KT CAVOK 07/05 Q1028 NOSIG=
201509260450 METAR EGLL 260450Z 31002KT CAVOK 07/05 Q1027 NOSIG=
201509260420 METAR COR EGLL 260420Z 33002KT CAVOK 07/05 Q1027 NOSIG=
201509260350 METAR EGLL 260350Z 00000KT CAVOK 07/06 Q1027 NOSIG=
201509260320 METAR COR EGLL 260320Z 30002KT CAVOK 07/05 Q1027 NOSIG=
201509260250 METAR EGLL 260250Z VRB01KT CAVOK 07/05 Q1027 NOSIG=
201509260220 METAR COR EGLL 260220Z 29002KT CAVOK 08/06 Q1027 NOSIG=
201509260150 METAR COR EGLL 260150Z 34002KT CAVOK 09/06 Q1027 NOSIG=
201509260120 METAR COR EGLL 260120Z AUTO 35002KT 9999 NCD 08/06 Q1027
                        NOSIG=
201509260050 METAR COR EGLL 260050Z AUTO 34002KT 9999 NCD 09/06 Q1027
                        NOSIG=
201509260020 METAR COR EGLL 260020Z AUTO 33001KT 9999 NCD 09/06 Q1027
                        NOSIG=
201509252350 METAR COR EGLL 252350Z 31002KT CAVOK 09/07 Q1027 NOSIG=
201509252320 METAR COR EGLL 252320Z 29002KT CAVOK 09/06 Q1027 NOSIG=
201509252250 METAR COR EGLL 252250Z 11001KT CAVOK 10/07 Q1027 NOSIG=
201509252220 METAR COR EGLL 252220Z 34002KT CAVOK 11/06 Q1026 NOSIG=
201509252150 METAR EGLL 252150Z 35003KT CAVOK 13/06 Q1026 NOSIG=
201509252120 METAR COR EGLL 252120Z 34003KT CAVOK 12/06 Q1026 NOSIG=
201509252050 METAR EGLL 252050Z 04002KT CAVOK 13/06 Q1026 NOSIG=
201509252020 METAR COR EGLL 252020Z 01003KT CAVOK 14/06 Q1026 NOSIG=
201509251950 METAR COR EGLL 251950Z 35003KT CAVOK 14/06 Q1026 NOSIG=
201509251920 METAR COR EGLL 251920Z 36003KT CAVOK 14/06 Q1025 NOSIG=
201509251850 METAR EGLL 251850Z VRB02KT CAVOK 15/05 Q1025 NOSIG=
201509251820 METAR COR EGLL 251820Z 35003KT CAVOK 15/05 Q1025 NOSIG=
201509251750 METAR EGLL 251750Z AUTO 36004KT 9999 NCD 16/05 Q1025=
201509251720 METAR EGLL 251720Z AUTO VRB03KT 9999 NCD 16/05 Q1024=
201509251650 METAR EGLL 251650Z 29006KT 260V330 CAVOK 16/05 Q1024 NOSIG=
201509251620 METAR COR EGLL 251620Z 31005KT CAVOK 16/05 Q1024 NOSIG=
201509251550 METAR COR EGLL 251550Z 29006KT CAVOK 17/05 Q1024 NOSIG=
201509251520 METAR COR EGLL 251520Z 32004KT 280V360 9999 FEW044 16/05
                        Q1023 NOSIG=
201509251450 METAR EGLL 251450Z 32005KT 280V360 9999 FEW046 16/05 Q1023
                        NOSIG=
201509251420 METAR COR EGLL 251420Z 29007KT 250V350 9999 FEW048 17/05
                        Q1023 NOSIG=
201509251350 METAR COR EGLL 251350Z 31007KT 270V350 9999 FEW048 17/05
                        Q1023 NOSIG=
201509251320 METAR COR EGLL 251320Z 26007KT 210V320 9999 FEW048 17/05
                        Q1023 NOSIG=
201509251250 METAR EGLL 251250Z AUTO 32005KT 280V360 9999 BKN043 17/05
                        Q1023=
201509251220 METAR COR EGLL 251220Z 30006KT 260V330 9999 BKN042 17/06
                        Q1023 NOSIG=
201509251150 METAR COR EGLL 251150Z 30006KT 270V330 9999 BKN038 16/06
                        Q1023 NOSIG=
201509251120 METAR COR EGLL 251120Z 28007KT 9999 FEW037 SCT042 16/06 Q1023
                        NOSIG=
201509251050 METAR COR EGLL 251050Z 30005KT 260V330 9999 FEW031 SCT040
                        15/07 Q1023 NOSIG=
201509251020 METAR COR EGLL 251020Z 30006KT 250V340 9999 FEW028 15/08
                        Q1023 NOSIG=
201509250950 METAR EGLL 250950Z AUTO 31007KT 9999 NCD 15/09 Q1023=
201509250920 METAR EGLL 250920Z AUTO 29007KT 250V310 9999 NCD 14/09 Q1023=
201509250850 METAR EGLL 250850Z 28008KT 9999 FEW016 13/09 Q1023 NOSIG=
201509250820 METAR COR EGLL 250820Z 29006KT CAVOK 12/09 Q1022 NOSIG=
201509250750 METAR EGLL 250750Z 27006KT CAVOK 11/10 Q1022 NOSIG=
201509250720 METAR COR EGLL 250720Z 28006KT CAVOK 10/09 Q1022 NOSIG=
201509250650 METAR COR EGLL 250650Z 28003KT CAVOK 10/09 Q1022 NOSIG=
201509250620 METAR COR EGLL 250620Z 23005KT CAVOK 09/08 Q1021 NOSIG=
201509250550 METAR EGLL 250550Z 22005KT 180V250 CAVOK 09/08 Q1021 NOSIG=
201509250520 METAR COR EGLL 250520Z 23005KT CAVOK 09/08 Q1020 NOSIG=
201509250450 METAR COR EGLL 250450Z 23005KT CAVOK 09/08 Q1020 NOSIG=
201509250420 METAR COR EGLL 250420Z VRB03KT CAVOK 09/08 Q1020 NOSIG=
201509250350 METAR EGLL 250350Z 25005KT CAVOK 09/08 Q1020 NOSIG=
201509250320 METAR COR EGLL 250320Z 27003KT CAVOK 09/08 Q1020 NOSIG=
201509250250 METAR COR EGLL 250250Z 25004KT CAVOK 09/08 Q1019 NOSIG=
201509250220 METAR EGLL 250220Z AUTO 28003KT 9999 NCD 10/08 Q1019=
201509250150 METAR EGLL 250150Z 24005KT CAVOK 10/08 Q1019 NOSIG=
201509250120 METAR EGLL 250120Z AUTO 26004KT 9999 NCD 11/08 Q1019=
201509250050 METAR EGLL 250050Z AUTO 24004KT 9999 NCD 11/08 Q1019=
201509250020 METAR EGLL 250020Z AUTO 23005KT 9999 NCD 11/08 Q1019=
201509242350 METAR COR EGLL 242350Z 24007KT CAVOK 11/08 Q1019 NOSIG=
201509242320 METAR COR EGLL 242320Z 24007KT CAVOK 12/09 Q1019 NOSIG=
201509242250 METAR EGLL 242250Z 25008KT CAVOK 12/09 Q1019 NOSIG=
201509242220 METAR COR EGLL 242220Z 26008KT CAVOK 11/08 Q1019 NOSIG=
201509242150 METAR COR EGLL 242150Z 25010KT CAVOK 13/08 Q1019 NOSIG=
201509242120 METAR COR EGLL 242120Z 25011KT CAVOK 13/08 Q1018 NOSIG=
201509242050 METAR EGLL 242050Z 26011KT CAVOK 14/08 Q1018 NOSIG=
201509242020 METAR COR EGLL 242020Z 27012KT CAVOK 14/08 Q1018 NOSIG=
201509241950 METAR EGLL 241950Z 27010KT CAVOK 14/08 Q1018 NOSIG=
201509241920 METAR COR EGLL 241920Z 25010KT CAVOK 14/08 Q1017 NOSIG=
201509241850 METAR COR EGLL 241850Z 26012KT CAVOK 14/08 Q1017 NOSIG=
201509241820 METAR COR EGLL 241820Z 25009KT CAVOK 15/08 Q1017 NOSIG=
201509241750 METAR EGLL 241750Z AUTO 25010KT 9999 NCD 15/08 Q1016 NOSIG=
201509241720 METAR COR EGLL 241720Z AUTO 25010KT 9999 NCD 16/08 Q1016
                        NOSIG=
201509241650 METAR COR EGLL 241650Z 26012KT 9999 FEW042 16/08 Q1016 NOSIG=
201509241620 METAR COR EGLL 241620Z 27014KT 9999 FEW041 16/08 Q1015 NOSIG=
201509241550 METAR EGLL 241550Z 26012KT 9999 FEW041 17/07 Q1015 NOSIG=
201509241520 METAR COR EGLL 241520Z 27013KT 9999 SCT041 17/10 Q1015 NOSIG=
201509241450 METAR COR EGLL 241450Z 28010KT 9999 SCT040 16/11 Q1015 NOSIG=
201509241420 METAR COR EGLL 241420Z 27017G27KT 9999 -SHRA FEW030 SCT037
                        17/09 Q1015 NOSIG=
201509241350 METAR COR EGLL 241350Z 25014KT 9999 SCT038 17/08 Q1014 NOSIG=
201509241320 METAR COR EGLL 241320Z 26013KT 9999 SCT037 17/09 Q1014 NOSIG=
201509241250 METAR COR EGLL 241250Z AUTO 25013KT 9999 SCT037 18/08 Q1014
                        NOSIG=
201509241220 METAR COR EGLL 241220Z 26014KT 9999 SCT039 18/08 Q1014 NOSIG=
201509241150 METAR COR EGLL 241150Z 26015KT 9999 SCT033 17/08 Q1014 NOSIG=
201509241120 METAR COR EGLL 241120Z 26014KT 9999 SCT023 16/09 Q1014 NOSIG=
201509241050 METAR COR EGLL 241050Z 25011KT 9999 FEW021 17/11 Q1014 NOSIG=
201509241020 METAR COR EGLL 241020Z 26013KT 9999 SCT020 16/11 Q1013 NOSIG=
201509240950 METAR EGLL 240950Z AUTO 25012KT 9999 SCT020 16/11 Q1013 NOSIG=
201509240920 METAR COR EGLL 240920Z AUTO 25011KT 9999 FEW014 15/12 Q1013
                        NOSIG=
201509240850 METAR COR EGLL 240850Z 23010KT 9999 FEW008 14/12 Q1013 NOSIG=
201509240820 METAR COR EGLL 240820Z 23009KT 9999 FEW028TCU FEW044 13/11
                        Q1013 NOSIG=
201509240750 METAR EGLL 240750Z 24007KT 9999 FEW028TCU SCT044 13/11 Q1012
                        NOSIG=
201509240720 METAR COR EGLL 240720Z 23010KT 9000 -RA SCT014 BKN028TCU
                        13/11 Q1012 NOSIG=
201509240650 METAR COR EGLL 240650Z 27012KT 9999 9000W FEW010 SCT014 BKN032
                        13/11 Q1012 TEMPO 4000 RADZ BKN012=
201509240620 METAR COR EGLL 240620Z 29010KT 6000 -RADZ SCT006TCU BKN014
                        BKN028 13/12 Q1012 RERA REDZ BECMG
                        SCT014=
201509240550 METAR EGLL 240550Z 30014KT 4600 RADZ BR SCT005CB BKN008 OVC015
                        15/14 Q1011 BECMG 9999 NSW SCT008
                        BKN018=
201509240520 METAR COR EGLL 240520Z 22011KT 7000 BKN008 15/14 Q1011 TEMPO
                        4800 RADZ SCT008 BKN008=
201509240450 METAR COR EGLL 240450Z 22010KT 9999 BKN008 15/14 Q1011 TEMPO
                        4800 RADZ SCT007 BKN010=
201509240420 METAR COR EGLL 240420Z 22010KT 9999 -RA BKN007 15/14 Q1011
                        TEMPO 4800 RADZ SCT007 BKN010=
201509240350 METAR EGLL 240350Z 21010KT 6000 -DZ BKN006 15/14 Q1011 TEMPO
                        RADZ SCT006 BKN010=
201509240320 METAR COR EGLL 240320Z 21010KT 9999 BKN006 15/14 Q1011 TEMPO
                        RADZ SCT006 BKN010=
201509240250 METAR COR EGLL 240250Z 21010KT 9999 BKN006 15/14 Q1011 TEMPO
                        RADZ SCT006 BKN010=
201509240220 METAR COR EGLL 240220Z 21010KT 9999 SCT006 15/14 Q1011 TEMPO
                        RADZ BKN009=
201509240150 METAR EGLL 240150Z 21009KT 9999 FEW006 14/14 Q1012 TEMPO
                        RADZ BKN007=
201509240120 METAR EGLL 240120Z AUTO 21010KT 9000 -RA SCT007 BKN019 BKN028
                        14/13 Q1012=
201509240050 METAR EGLL 240050Z AUTO 21008KT 9999 FEW011 BKN027 14/13
                        Q1012=
201509240020 METAR EGLL 240020Z AUTO 21008KT 9999 -RA FEW012 BKN025 15/13
                        Q1012=
201509232350 METAR COR EGLL 232350Z 21007KT 9999 FEW015 BKN020 15/13 Q1012
                        TEMPO BKN012=
201509232320 METAR COR EGLL 232320Z 21007KT 9999 FEW012 SCT025 14/13 Q1013
                        TEMPO BKN012=
201509232250 METAR COR EGLL 232250Z 22007KT 9999 FEW013 BKN030 15/12 Q1013
                        TEMPO BKN012=
201509232220 METAR COR EGLL 232220Z 22007KT 200V260 9999 FEW015 SCT035
                        15/12 Q1013 TEMPO BKN014=
201509232150 METAR COR EGLL 232150Z 22009KT 190V250 9999 SCT030 15/12
                        Q1013 TEMPO BKN014=
201509232120 METAR COR EGLL 232120Z 22010KT 190V250 9999 FEW030 SCT048
                        15/11 Q1013 NOSIG=
201509232050 METAR EGLL 232050Z 22011KT 9999 FEW028 15/11 Q1013 NOSIG=
201509232020 METAR COR EGLL 232020Z 22010KT 9999 FEW033 15/11 Q1013 NOSIG=
201509231950 METAR COR EGLL 231950Z 22009KT 9999 BKN033 15/11 Q1013 NOSIG=
201509231920 METAR COR EGLL 231920Z 22010KT 9999 BKN033 15/10 Q1013 NOSIG=
201509231850 METAR EGLL 231850Z 22009KT 9999 BKN034 16/10 Q1013 NOSIG=
201509231820 METAR COR EGLL 231820Z 23008KT 9999 BKN037 16/10 Q1013 NOSIG=
201509231750 METAR EGLL 231750Z 23009KT 9999 BKN045 16/09 Q1013 NOSIG=
201509231720 METAR COR EGLL 231720Z 23010KT 9999 BKN048 16/09 Q1013 NOSIG=
201509231650 METAR COR EGLL 231650Z 25011KT 9999 BKN046 17/09 Q1012 NOSIG=
201509231620 METAR COR EGLL 231620Z 24011KT 9999 SCT045 17/09 Q1012 NOSIG=
201509231550 METAR COR EGLL 231550Z 25011KT 200V270 9999 FEW032 17/09
                        Q1012 NOSIG=
201509231520 METAR COR EGLL 231520Z 25011KT 9999 FEW035 17/09 Q1012 NOSIG=
201509231450 METAR COR EGLL 231450Z 25012KT 9999 FEW031 16/09 Q1012 NOSIG=
201509231420 METAR COR EGLL 231420Z 25013KT 210V270 9999 FEW031 16/09
                        Q1012 NOSIG=
201509231350 METAR COR EGLL 231350Z 26012KT 9999 FEW032 16/09 Q1012 NOSIG=
201509231320 METAR COR EGLL 231320Z 25011KT 9999 FEW033 16/09 Q1012 NOSIG=
201509231250 METAR EGLL 231250Z 25013KT 9999 FEW033 16/09 Q1013 NOSIG=
201509231220 METAR COR EGLL 231220Z 27013KT 9999 FEW032 16/08 Q1013 NOSIG=
201509231150 METAR EGLL 231150Z 27015KT 9999 FEW031 17/08 Q1013 NOSIG=
201509231120 METAR COR EGLL 231120Z 27010KT 9999 FEW031 16/09 Q1013 NOSIG=
201509231050 METAR EGLL 231050Z 27012KT 9999 FEW024 16/09 Q1013 NOSIG=
201509231020 METAR COR EGLL 231020Z 28011KT 9999 FEW024 15/09 Q1013 NOSIG=
201509230950 METAR COR EGLL 230950Z 27011KT 9999 FEW020 14/09 Q1013 NOSIG=
201509230920 METAR COR EGLL 230920Z 28010KT CAVOK 13/09 Q1012 NOSIG=
201509230850 METAR EGLL 230850Z 28009KT CAVOK 12/09 Q1012 NOSIG=
201509230820 METAR COR EGLL 230820Z 29009KT CAVOK 11/09 Q1012 NOSIG=
201509230750 METAR COR EGLL 230750Z 27009KT CAVOK 10/08 Q1012 NOSIG=
201509230720 METAR COR EGLL 230720Z 27008KT CAVOK 09/08 Q1011 NOSIG=
201509230650 METAR EGLL 230650Z 29007KT CAVOK 09/07 Q1011 NOSIG=
201509230620 METAR COR EGLL 230620Z 29007KT CAVOK 09/07 Q1011 NOSIG=
201509230550 METAR EGLL 230550Z 29009KT CAVOK 08/07 Q1010 NOSIG=
201509230520 METAR COR EGLL 230520Z 27008KT CAVOK 08/07 Q1010 NOSIG=
201509230450 METAR COR EGLL 230450Z 27007KT CAVOK 08/07 Q1010 NOSIG=
201509230420 METAR COR EGLL 230420Z 28007KT CAVOK 08/07 Q1010 NOSIG=
201509230350 METAR COR EGLL 230350Z 29008KT CAVOK 08/07 Q1009 NOSIG=
201509230320 METAR COR EGLL 230320Z 29007KT CAVOK 08/07 Q1009 NOSIG=
201509230250 METAR EGLL 230250Z 28009KT CAVOK 08/07 Q1009 NOSIG=
201509230220 METAR COR EGLL 230220Z 28007KT CAVOK 08/07 Q1009 NOSIG=
201509230150 METAR EGLL 230150Z 29006KT CAVOK 09/08 Q1008 NOSIG=
201509230120 METAR EGLL 230120Z AUTO 29007KT 9999 NCD 09/07 Q1008=
201509230050 METAR EGLL 230050Z AUTO 29008KT 9999 NCD 09/08 Q1008=
201509230020 METAR EGLL 230020Z AUTO 29008KT 9999 NCD 09/08 Q1008=
201509222350 METAR COR EGLL 222350Z 28007KT CAVOK 09/08 Q1008 NOSIG=
201509222320 METAR COR EGLL 222320Z 28008KT CAVOK 10/08 Q1008 NOSIG=
201509222250 METAR EGLL 222250Z 28008KT CAVOK 10/08 Q1007 NOSIG=
201509222220 METAR COR EGLL 222220Z 28008KT CAVOK 10/08 Q1007 NOSIG=
201509222150 METAR EGLL 222150Z 29007KT CAVOK 10/08 Q1007 NOSIG=
201509222120 METAR COR EGLL 222120Z 30006KT CAVOK 11/09 Q1007 NOSIG=
201509222050 METAR EGLL 222050Z 29008KT CAVOK 11/09 Q1006 NOSIG=
201509222020 METAR COR EGLL 222020Z 29008KT CAVOK 11/09 Q1006 NOSIG=
201509221950 METAR EGLL 221950Z 29008KT CAVOK 12/09 Q1006 NOSIG=
201509221920 METAR COR EGLL 221920Z 29007KT CAVOK 12/09 Q1005 NOSIG=
201509221850 METAR COR EGLL 221850Z 29007KT CAVOK 12/09 Q1005 NOSIG=
201509221820 METAR COR EGLL 221820Z 29007KT CAVOK 12/09 Q1004 NOSIG=
201509221750 METAR EGLL 221750Z 29007KT CAVOK 13/10 Q1004 NOSIG=
201509221720 METAR COR EGLL 221720Z 29006KT 9999 FEW048 13/09 Q1004 NOSIG=
201509221650 METAR EGLL 221650Z 32005KT 290V350 9999 FEW048 13/09 Q1003
                        NOSIG=
201509221620 METAR COR EGLL 221620Z 32006KT 300V020 9999 FEW016 SCT023CB
                        13/10 Q1003 TEMPO SHRA=
201509221550 METAR COR EGLL 221550Z 31006KT 9999 4000NW VCSH SCT023CB
                        15/10 Q1002 BECMG 9999=
201509221520 METAR COR EGLL 221520Z 32006KT 280V360 9999 FEW020 14/10
                        Q1002 TEMPO SHRA=
201509221450 METAR COR EGLL 221450Z 33007KT 290V010 9999 FEW021 14/09
                        Q1002 TEMPO SHRA=
201509221420 METAR COR EGLL 221420Z 35007KT 310V020 9999 SCT020 14/09
                        Q1002 TEMPO SHRA=
201509221350 METAR COR EGLL 221350Z 34007KT 310V010 9999 SCT020 15/10
                        Q1001 TEMPO SHRA=
201509221320 METAR COR EGLL 221320Z 33007KT 300V010 9999 SCT020 SCT031
                        15/10 Q1001 TEMPO SHRA=
201509221250 METAR COR EGLL 221250Z 35007KT 320V020 9999 SCT018 15/10
                        Q1001 NOSIG=
201509221220 METAR COR EGLL 221220Z 36006KT 320V030 9999 SCT014 14/10
                        Q1001 TEMPO SHRA=
201509221150 METAR COR EGLL 221150Z 35006KT 320V040 9999 SCT014 14/10
                        Q1000 TEMPO SHRA=
201509221120 METAR COR EGLL 221120Z 36007KT 320V030 9999 -SHRA FEW015
                        SCT020 13/11 Q1000 TEMPO SHRA BKN012=
201509221050 METAR COR EGLL 221050Z 36005KT 310V040 9999 FEW007 SCT013
                        13/11 Q1000 TEMPO SHRA BKN008=
201509221020 METAR COR EGLL 221020Z 34005KT 9999 VCSH FEW008 SCT012 13/11
                        Q0999 TEMPO SHRA BKN008=
201509220950 METAR COR EGLL 220950Z 34005KT 300V010 9000 -SHRA SCT007
                        BKN019 12/10 Q0999 TEMPO SHRA BKN008=
201509220920 METAR COR EGLL 220920Z 32005KT 290V360 9000 -SHRA SCT008
                        BKN021 11/10 Q0999 TEMPO SHRA BKN008=
201509220850 METAR COR EGLL 220850Z 32005KT 9999 -SHRA FEW005 SCT008 BKN014
                        11/10 Q0999 TEMPO SHRA BKN006=
201509220820 METAR COR EGLL 220820Z 30007KT 270V340 9999 -SHRA FEW004
                        BKN006 11/10 Q0999 TEMPO SHRA=
201509220750 METAR COR EGLL 220750Z 31005KT 9999 VCSH FEW005 BKN006 11/10
                        Q0998 TEMPO SHRA=
201509220720 METAR COR EGLL 220720Z 34004KT 310V010 9999 -SHRA FEW003
                        SCT006 11/10 Q0998 TEMPO SHRA SCT004
                        BKN006=
201509220650 METAR EGLL 220650Z 35005KT 9999 -SHRA SCT005 SCT024CB 11/10
                        Q0998 TEMPO SHRA BKN006=
201509220620 METAR COR EGLL 220620Z VRB03KT 9999 VCSH FEW015 SCT025 11/10
                        Q0998 TEMPO RA BKN014=
201509220550 METAR COR EGLL 220550Z 09005KT 060V120 9999 -RA FEW026 10/10
                        Q0998 TEMPO SHRA=
201509220520 METAR COR EGLL 220520Z 11007KT 090V150 8000 -RA SCT012 SCT026TCU
                        BKN033 10/10 Q0999 TEMPO SHRA BKN012=
201509220450 METAR COR EGLL 220450Z VRB03KT 9999 -RA FEW006 SCT012 BKN046TCU
                        10/09 Q0999 TEMPO SHRA BKN012=
201509220420 METAR COR EGLL 220420Z VRB03KT 9000 -RA FEW004 SCT012 BKN037
                        10/09 Q1000 TEMPO SHRA=
201509220350 METAR COR EGLL 220350Z 11003KT 9000 -RA FEW012TCU SCT023
                        BKN037 09/09 Q1001 TEMPO 4000 SHRA
                        BKN010=
201509220320 METAR COR EGLL 220320Z 10003KT 9999 -RA SCT045 09/08 Q1001
                        TEMPO SHRA=
201509220250 METAR COR EGLL 220250Z 13003KT CAVOK 08/08 Q1002 TEMPO SHRA=
201509220220 METAR COR EGLL 220220Z VRB03KT 9999 FEW048 08/07 Q1002 TEMPO
                        SHRA=
201509220150 METAR EGLL 220150Z 21003KT 9999 FEW048 09/08 Q1003 TEMPO
                        SHRA=
201509220120 METAR EGLL 220120Z AUTO VRB02KT 9999 NCD 09/09 Q1004=
201509220050 METAR EGLL 220050Z AUTO 21003KT 9999 NCD 10/09 Q1004=
201509220020 METAR EGLL 220020Z AUTO 20003KT 9999 NCD 10/09 Q1004=
201509212350 METAR COR EGLL 212350Z 20005KT CAVOK 10/09 Q1004 NOSIG=
201509212320 METAR COR EGLL 212320Z 20004KT CAVOK 10/09 Q1005 NOSIG=
201509212250 METAR EGLL 212250Z 23005KT CAVOK 10/09 Q1005 NOSIG=
201509212220 METAR COR EGLL 212220Z 25006KT CAVOK 11/09 Q1006 NOSIG=
201509212150 METAR COR EGLL 212150Z 26010KT CAVOK 12/09 Q1006 NOSIG=
201509212120 METAR COR EGLL 212120Z 27010KT CAVOK 12/10 Q1006 NOSIG=
201509212050 METAR COR EGLL 212050Z 27010KT CAVOK 13/10 Q1006 NOSIG=
201509212020 METAR COR EGLL 212020Z 26011KT CAVOK 13/11 Q1007 NOSIG=
201509211950 METAR COR EGLL 211950Z 26010KT 9999 FEW033 13/11 Q1007 NOSIG=
201509211920 METAR COR EGLL 211920Z 25010KT 9999 FEW033 13/12 Q1006 NOSIG=
201509211850 METAR EGLL 211850Z 25007KT 9999 FEW033 13/12 Q1006 NOSIG=
201509211820 METAR COR EGLL 211820Z 25007KT 9999 FEW045 14/13 Q1006 NOSIG=
201509211750 METAR COR EGLL 211750Z 24007KT 9999 FEW045 15/13 Q1007 NOSIG=
201509211720 METAR COR EGLL 211720Z 24008KT 9999 SCT015 14/14 Q1007 RERA
                        NOSIG=
201509211650 METAR COR EGLL 211650Z 21008KT 180V250 9000 -RA SCT006 BKN015
                        14/14 Q1007 NOSIG=
201509211620 METAR COR EGLL 211620Z 21010KT 180V250 9999 SCT007 BKN014
                        14/13 Q1007 BECMG FEW015=
201509211550 METAR COR EGLL 211550Z 20009KT 170V250 9999 -RA FEW006 SCT013
                        BKN016 14/13 Q1008 NOSIG=
201509211520 METAR COR EGLL 211520Z 21010KT 170V250 9000 -RA SCT008 BKN013
                        14/13 Q1008 TEMPO 4000 +RA BKN006=
201509211450 METAR COR EGLL 211450Z 22010KT 7000 -RA FEW006 BKN011 14/13
                        Q1009 TEMPO 4000 RA BKN006=
201509211420 METAR COR EGLL 211420Z 21010KT 180V240 4900 -RA SCT005 BKN009
                        14/13 Q1009 TEMPO RA=
201509211350 METAR COR EGLL 211350Z 21009KT 9000 -RA FEW006 BKN009 14/13
                        Q1010 TEMPO 4000 RA=
201509211320 METAR COR EGLL 211320Z 21010KT 5000 -RA FEW006 BKN008 14/13
                        Q1010 TEMPO 4000 RA=
201509211250 METAR COR EGLL 211250Z 20010KT 8000 -RA BKN013 14/12 Q1010
                        TEMPO 4000 RA BKN008=
201509211220 METAR COR EGLL 211220Z 20010KT 170V240 9999 SCT010 BKN035
                        14/12 Q1011 TEMPO 5000 RA=
201509211150 METAR COR EGLL 211150Z 21010KT 180V250 9999 SCT010 SCT022
                        14/12 Q1011 TEMPO RA=
201509211120 METAR COR EGLL 211120Z 21011KT 9999 FEW010 SCT025 14/12 Q1012
                        TEMPO RA=
201509211050 METAR EGLL 211050Z 22011KT 9999 SCT015 SCT048 14/12 Q1012
                        NOSIG=
201509211020 METAR COR EGLL 211020Z 23011KT 9999 FEW015 SCT030 15/12 Q1013
                        TEMPO RA=
201509210950 METAR COR EGLL 210950Z 23010KT 9999 FEW038 BKN045 14/11 Q1013
                        TEMPO RA=
201509210920 METAR COR EGLL 210920Z 23010KT 9999 -RA SCT015 SCT035 14/12
                        Q1013 TEMPO BKN012=
201509210850 METAR COR EGLL 210850Z 22008KT 9999 FEW015 SCT035 14/13 Q1014
                        NOSIG=
201509210820 METAR COR EGLL 210820Z 22008KT 9000 -RA FEW020 SCT035 14/13
                        Q1014 NOSIG=
201509210750 METAR EGLL 210750Z 23008KT 8000 -RA FEW025 14/13 Q1014 NOSIG=
201509210720 METAR COR EGLL 210720Z 22007KT 9999 FEW025 13/12 Q1015 NOSIG=
201509210650 METAR COR EGLL 210650Z 21007KT 190V260 9000 FEW025 14/12
                        Q1015 NOSIG=
201509210620 METAR COR EGLL 210620Z 20006KT 9999 FEW015 13/12 Q1015 NOSIG=
201509210550 METAR EGLL 210550Z 22006KT 180V260 9999 SCT015 13/12 Q1015
                        NOSIG=
201509210520 METAR COR EGLL 210520Z 22005KT 190V260 9999 SCT015 BKN026
                        13/12 Q1015 NOSIG=
201509210450 METAR EGLL 210450Z AUTO 19004KT 9999 SCT016 BKN026 13/12
                        Q1016=
201509210420 METAR COR EGLL 210420Z 21005KT 9999 FEW020 SCT032 14/12 Q1016
                        NOSIG=
201509210350 METAR COR EGLL 210350Z 20005KT 9999 FEW030 SCT047 14/12 Q1017
                        NOSIG=
201509210320 METAR COR EGLL 210320Z 19005KT 9000 SCT046 14/12 Q1017 NOSIG=
201509210250 METAR COR EGLL 210250Z 22005KT 9000 FEW030 14/12 Q1018 NOSIG=
201509210220 METAR COR EGLL 210220Z 25004KT 8000 NSC 14/12 Q1018 NOSIG=
201509210150 METAR EGLL 210150Z 20005KT CAVOK 14/12 Q1018 NOSIG=
201509210120 METAR EGLL 210120Z AUTO 19006KT 9000 NCD 13/12 Q1019=
201509210050 METAR EGLL 210050Z AUTO 19006KT 9000 OVC049 13/12 Q1019=
201509210020 METAR EGLL 210020Z AUTO 20005KT 7000 OVC046 13/12 Q1020=
201509202350 METAR EGLL 202350Z 22004KT 190V260 8000 SCT043 13/12 Q1020
                        NOSIG=
201509202320 METAR COR EGLL 202320Z 21005KT 9000 SCT039 13/12 Q1020 NOSIG=
201509202250 METAR EGLL 202250Z 22005KT CAVOK 13/12 Q1021 NOSIG=
201509202220 METAR COR EGLL 202220Z 22005KT 9999 NSC 13/11 Q1021 NOSIG=
201509202150 METAR EGLL 202150Z 22007KT 190V260 CAVOK 13/11 Q1021 NOSIG=
201509202120 METAR COR EGLL 202120Z 22007KT 180V240 CAVOK 13/11 Q1021
                        NOSIG=
201509202050 METAR EGLL 202050Z 22008KT CAVOK 14/11 Q1022 NOSIG=
201509202020 METAR COR EGLL 202020Z 21008KT 9999 FEW037 14/11 Q1022 NOSIG=
201509201950 METAR COR EGLL 201950Z 21007KT 9999 FEW028 14/11 Q1022 NOSIG=
201509201920 METAR COR EGLL 201920Z 22009KT 9999 FEW033 15/11 Q1022 NOSIG=
201509201850 METAR EGLL 201850Z 22008KT 9999 FEW033 16/11 Q1022 NOSIG=
201509201820 METAR COR EGLL 201820Z 22009KT 9999 FEW030 17/11 Q1022 NOSIG=
201509201750 METAR EGLL 201750Z 24009KT 9999 BKN031 18/11 Q1022 NOSIG=
201509201720 METAR COR EGLL 201720Z 26008KT 9999 BKN031 18/11 Q1022 NOSIG=
201509201650 METAR EGLL 201650Z 24008KT 9999 SCT034 18/11 Q1022 NOSIG=
201509201620 METAR COR EGLL 201620Z 24009KT 9999 SCT042 18/11 Q1022 NOSIG=
201509201550 METAR EGLL 201550Z 23009KT 9999 FEW040 19/10 Q1023 NOSIG=
201509201520 METAR COR EGLL 201520Z 22009KT 170V250 9999 FEW039 20/10
                        Q1023 NOSIG=
201509201450 METAR EGLL 201450Z 23008KT 9999 FEW038 19/10 Q1023 NOSIG=
201509201420 METAR COR EGLL 201420Z 25007KT 200V280 9999 SCT035 20/10
                        Q1024 NOSIG=
201509201350 METAR COR EGLL 201350Z 27007KT 240V310 9999 SCT033 19/11
                        Q1024 NOSIG=
201509201320 METAR COR EGLL 201320Z 25008KT 200V290 9999 SCT033 18/11
                        Q1025 NOSIG=
201509201250 METAR EGLL 201250Z 26009KT 210V300 9999 SCT032 19/10 Q1025
                        NOSIG=
201509201220 METAR COR EGLL 201220Z 27008KT 240V300 9999 FEW032 19/11
                        Q1025 NOSIG=
201509201150 METAR EGLL 201150Z 25011KT 9999 SCT025 18/12 Q1025 NOSIG=
201509201120 METAR COR EGLL 201120Z 25009KT 220V290 9999 SCT022 17/12
                        Q1026 NOSIG=
201509201050 METAR COR EGLL 201050Z 26009KT 240V300 9999 FEW010 16/12
                        Q1026 NOSIG=
201509201020 METAR COR EGLL 201020Z 28007KT 240V320 9000 FEW006 16/12
                        Q1026 NOSIG=
201509200950 METAR COR EGLL 200950Z 29008KT 9000 FEW015 16/12 Q1026 NOSIG=
201509200920 METAR COR EGLL 200920Z 23007KT 190V270 CAVOK 16/12 Q1026
                        TEMPO BKN010=
201509200850 METAR EGLL 200850Z 24006KT 200V270 8000 NSC 14/11 Q1026 NOSIG=
201509200820 METAR COR EGLL 200820Z 22005KT 180V260 7000 NSC 13/11 Q1026
                        TEMPO BKN008=
201509200750 METAR EGLL 200750Z 23004KT 190V260 5000 BR NSC 12/10 Q1026
                        TEMPO 1400 BCFG BKN002=
201509200720 METAR COR EGLL 200720Z VRB02KT 4800 BR NSC 11/10 Q1026 TEMPO
                        1400 BCFG BKN002=
201509200650 METAR COR EGLL 200650Z VRB03KT 4600 2000NW BR PRFG NSC 10/09
                        Q1026 TEMPO 1400 BCFG BKN003=
201509200620 METAR COR EGLL 200620Z 02001KT 4000 1900SW R09R/0700 BR PRFG
                        NSC 09/09 Q1026 TEMPO 1400 MIFG BKN004=
201509200550 METAR COR EGLL 200550Z 08001KT 4800 BR NSC 09/08 Q1026 TEMPO
                        1200=
201509200520 METAR COR EGLL 200520Z 00000KT 4400 R09R/1400 BR BCFG NSC
                        09/08 Q1026 TEMPO 1200=
201509200450 METAR EGLL 200450Z 00000KT 5000 BR NSC 09/09 Q1026 BECMG
                        3000=
201509200420 METAR COR EGLL 200420Z 00000KT 5000 BR NSC 09/09 Q1026 BECMG
                        3000=
201509200350 METAR COR EGLL 200350Z 28001KT 5000 BR NSC 09/08 Q1026 BECMG
                        3000=
201509200320 METAR COR EGLL 200320Z 28002KT 6000 NSC 09/09 Q1027 BECMG
                        3000 BR=
201509200250 METAR EGLL 200250Z 25002KT 8000 NSC 10/09 Q1027 NOSIG=
201509200220 METAR COR EGLL 200220Z 27001KT 9000 NSC 10/09 Q1027 NOSIG=
201509200150 METAR EGLL 200150Z 19003KT 9000 NSC 10/09 Q1027 NOSIG=
201509200120 METAR EGLL 200120Z AUTO 17001KT 9999 NCD 10/09 Q1027=
201509200050 METAR EGLL 200050Z AUTO 29003KT 9999 NCD 10/09 Q1027=
201509200020 METAR EGLL 200020Z AUTO 27003KT 9999 NCD 11/09 Q1027=
201509192350 METAR COR EGLL 192350Z 25001KT CAVOK 11/09 Q1027 NOSIG=
201509192320 METAR COR EGLL 192320Z 27003KT CAVOK 11/09 Q1027 NOSIG=
201509192250 METAR EGLL 192250Z 21004KT 190V250 CAVOK 12/10 Q1027 NOSIG=
201509192220 METAR COR EGLL 192220Z 24002KT CAVOK 12/10 Q1027 NOSIG=
201509192150 METAR EGLL 192150Z 15004KT 120V210 CAVOK 13/10 Q1027 NOSIG=
201509192120 METAR COR EGLL 192120Z 19001KT CAVOK 14/09 Q1027 NOSIG=
201509192050 METAR COR EGLL 192050Z 00000KT CAVOK 15/10 Q1027 NOSIG=
201509192020 METAR COR EGLL 192020Z 06001KT CAVOK 14/09 Q1027 NOSIG=
201509191950 METAR COR EGLL 191950Z VRB01KT CAVOK 16/09 Q1027 NOSIG=
201509191920 METAR COR EGLL 191920Z 34001KT 9999 FEW036 17/09 Q1027 NOSIG=
201509191850 METAR COR EGLL 191850Z 35002KT 9999 FEW036 17/09 Q1027 NOSIG=
201509191820 METAR COR EGLL 191820Z 35001KT 9999 FEW040 17/09 Q1026 NOSIG=
201509191750 METAR EGLL 191750Z 36002KT CAVOK 17/08 Q1026 NOSIG=
201509191720 METAR COR EGLL 191720Z 35003KT CAVOK 18/09 Q1026 NOSIG=
201509191650 METAR COR EGLL 191650Z 36005KT 310V030 9999 FEW040 18/08
                        Q1026 NOSIG=
201509191620 METAR COR EGLL 191620Z 35004KT 330V030 9999 FEW040 19/09
                        Q1026 NOSIG=
201509191550 METAR EGLL 191550Z 32004KT 280V020 9999 FEW040 19/09 Q1026
                        NOSIG=
201509191520 METAR COR EGLL 191520Z 34004KT 290V020 9999 SCT040 18/08
                        Q1026 NOSIG=
201509191450 METAR COR EGLL 191450Z 33005KT 290V030 9999 SCT044 18/08
                        Q1026 NOSIG=
201509191420 METAR COR EGLL 191420Z 35005KT 310V020 9999 SCT042 19/09
                        Q1026 NOSIG=
201509191350 METAR COR EGLL 191350Z 29005KT 250V330 9999 SCT040 18/09
                        Q1026 NOSIG=
201509191320 METAR COR EGLL 191320Z 29004KT 240V350 9999 FEW037 18/10
                        Q1026 NOSIG=
201509191250 METAR EGLL 191250Z 03004KT 340V110 9999 FEW036 18/09 Q1026
                        NOSIG=
201509191220 METAR COR EGLL 191220Z 31005KT 250V030 9999 FEW036 18/09
                        Q1026 NOSIG=
201509191150 METAR EGLL 191150Z 32005KT 240V030 9999 FEW032 17/09 Q1026
                        NOSIG=
201509191120 METAR COR EGLL 191120Z VRB03KT 9999 FEW026 17/10 Q1026 NOSIG=
201509191050 METAR EGLL 191050Z VRB03KT 9999 FEW020 16/09 Q1026 NOSIG=
201509191020 METAR COR EGLL 191020Z VRB03KT 9999 FEW020 15/10 Q1026 NOSIG=
201509190950 METAR EGLL 190950Z VRB03KT 9999 FEW016 15/10 Q1025 NOSIG=
201509190920 METAR COR EGLL 190920Z VRB03KT 9999 SCT015 14/10 Q1025 NOSIG=
201509190850 METAR EGLL 190850Z 06005KT 020V090 9999 SCT013 SCT017 13/10
                        Q1025 NOSIG=
201509190820 METAR COR EGLL 190820Z 07005KT 030V100 9999 FEW011 BKN014
                        13/10 Q1025 BECMG SCT014 BKN018=
201509190750 METAR COR EGLL 190750Z 01004KT 330V050 9999 SCT011 SCT015
                        13/11 Q1025 TEMPO BKN014=
201509190720 METAR COR EGLL 190720Z VRB03KT 9999 FEW011 BKN013 13/11 Q1024
                        BECMG SCT012 BKN018=
201509190650 METAR COR EGLL 190650Z 35004KT 320V040 9000 FEW008 BKN015
                        12/11 Q1024 TEMPO BKN010=
201509190620 METAR COR EGLL 190620Z VRB02KT 9000 FEW018 BKN020 12/11 Q1023
                        TEMPO BKN006=
201509190550 METAR COR EGLL 190550Z 36003KT 8000 BKN019 12/11 Q1023 TEMPO
                        BKN006=
201509190520 METAR COR EGLL 190520Z VRB03KT 6000 FEW010 BKN019 12/11 Q1022
                        TEMPO BKN005=
201509190450 METAR COR EGLL 190450Z VRB03KT 6000 FEW004 SCT006 BKN010
                        12/11 Q1022 TEMPO BKN006=
201509190420 METAR COR EGLL 190420Z VRB03KT 6000 FEW003 BKN006 11/11 Q1022
                        TEMPO SCT006=
201509190350 METAR COR EGLL 190350Z 33004KT 290V020 7000 FEW004 BKN006
                        11/11 Q1022 TEMPO SCT006=
201509190320 METAR COR EGLL 190320Z 35004KT 310V020 6000 FEW004 BKN006
                        12/11 Q1021 TEMPO SCT006=
201509190250 METAR EGLL 190250Z VRB03KT 6000 FEW004 BKN006 11/11 Q1021
                        TEMPO SCT006=
201509190220 METAR COR EGLL 190220Z 35004KT 6000 BKN006 11/10 Q1021 TEMPO
                        SCT006=
201509190150 METAR EGLL 190150Z 33002KT 7000 FEW006 11/10 Q1021 TEMPO
                        BKN006=
201509190120 METAR EGLL 190120Z AUTO VRB02KT 6000 BKN005 11/11 Q1020=
201509190050 METAR EGLL 190050Z AUTO VRB03KT 6000 BKN005 12/11 Q1020=
201509190020 METAR EGLL 190020Z AUTO 35003KT 6000 FEW009 12/11 Q1020=
201509182350 METAR COR EGLL 182350Z 34002KT 7000 NSC 12/11 Q1019 NOSIG=
201509182320 METAR COR EGLL 182320Z VRB03KT 7000 NSC 12/11 Q1019 NOSIG=
201509182250 METAR EGLL 182250Z VRB03KT 9000 NSC 12/11 Q1019 NOSIG=
201509182220 METAR COR EGLL 182220Z VRB03KT CAVOK 13/11 Q1018 NOSIG=
201509182150 METAR EGLL 182150Z VRB02KT CAVOK 14/12 Q1018 NOSIG=
201509182120 METAR COR EGLL 182120Z VRB03KT CAVOK 14/12 Q1017 NOSIG=
201509182050 METAR COR EGLL 182050Z 36003KT 9999 FEW039TCU 14/12 Q1017
                        NOSIG=
201509182020 METAR COR EGLL 182020Z VRB03KT 9999 FEW029TCU SCT049 15/12
                        Q1017 NOSIG=
201509181950 METAR EGLL 181950Z 32004KT 300V360 9999 FEW017CB SCT038 15/12
                        Q1016 NOSIG=
201509181920 METAR COR EGLL 181920Z 33004KT 300V030 9999 5000NE -SHRA
                        SCT010CB SCT029 BKN038 14/11 Q1016
                        RESHRA NOSIG=
201509181850 METAR COR EGLL 181850Z VRB03KT 9999 -SHRA FEW034TCU BKN046
                        17/11 Q1015 TEMPO SHRA=
201509181820 METAR COR EGLL 181820Z VRB02KT 9999 FEW028TCU 17/10 Q1014
                        TEMPO SHRA=
201509181750 METAR COR EGLL 181750Z 31004KT 9999 FEW028 17/10 Q1014 NOSIG=
201509181720 METAR COR EGLL 181720Z VRB03KT 9999 FEW036 18/09 Q1013 NOSIG=
201509181650 METAR EGLL 181650Z 35004KT 310V030 9999 FEW036 18/09 Q1013
                        NOSIG=
201509181620 METAR COR EGLL 181620Z 34006KT 300V020 9999 FEW036CB 18/09
                        Q1013 NOSIG=
201509181550 METAR EGLL 181550Z 33005KT 280V030 9999 SCT035CB 19/09 Q1012
                        NOSIG=
201509181520 METAR COR EGLL 181520Z 01007KT 330V050 9999 SCT033CB 19/10
                        Q1012 NOSIG=
201509181450 METAR COR EGLL 181450Z VRB06KT 9999 FEW028TCU 18/10 Q1012
                        TEMPO SHRA=
201509181420 METAR COR EGLL 181420Z 32007KT 290V010 9999 FEW021TCU 18/12
                        Q1012 NOSIG=
201509181350 METAR COR EGLL 181350Z 30005KT 260V340 9999 FEW021TCU 17/12
                        Q1012 NOSIG=
201509181320 METAR COR EGLL 181320Z 30006KT 9999 FEW021TCU 16/11 Q1011
                        NOSIG=
201509181250 METAR EGLL 181250Z 34007KT 300V040 9999 VCSH SCT020 18/12
                        Q1011 TEMPO SHRA=
201509181220 METAR COR EGLL 181220Z 31006KT 280V010 9999 SCT022CB 17/12
                        Q1011 TEMPO SHRA=
201509181150 METAR COR EGLL 181150Z 30006KT 270V340 9999 SCT018 16/12
                        Q1011 TEMPO SHRA=
201509181120 METAR COR EGLL 181120Z 28008KT 250V320 9999 VCSH FEW010 SCT018
                        15/12 Q1010 NOSIG=
201509181050 METAR COR EGLL 181050Z 30007KT 260V330 9999 VCSH FEW011 SCT022
                        17/13 Q1010 TEMPO SHRA=
201509181020 METAR COR EGLL 181020Z 28008KT 9999 FEW010 SCT022 15/12 Q1010
                        NOSIG=
201509180950 METAR EGLL 180950Z 28006KT 9999 -SHRA BKN020 15/13 Q1010
                        NOSIG=
201509180920 METAR COR EGLL 180920Z 24006KT 9999 FEW014 SCT016 14/12 Q1010
                        NOSIG=
201509180850 METAR EGLL 180850Z 26006KT 220V290 9999 SCT014 14/12 Q1009
                        NOSIG=
201509180820 METAR COR EGLL 180820Z 27005KT 230V300 9999 SCT012 SCT015
                        14/12 Q1009 NOSIG=
201509180750 METAR EGLL 180750Z 23005KT 9999 BKN012 13/12 Q1009 BECMG
                        SCT012 BKN015=
201509180720 METAR COR EGLL 180720Z 24007KT 210V270 9999 FEW008 BKN010
                        12/12 Q1008 TEMPO SCT012 BKN015=
201509180650 METAR COR EGLL 180650Z 22005KT 150V270 9999 FEW009 SCT012
                        12/11 Q1008 TEMPO BKN014=
201509180620 METAR COR EGLL 180620Z 26005KT 220V290 9999 SCT012 12/11
                        Q1008 TEMPO BKN012=
201509180550 METAR EGLL 180550Z 23005KT 9999 FEW011 11/10 Q1007 TEMPO
                        BKN014=
201509180520 METAR COR EGLL 180520Z 19004KT 150V250 9999 FEW014 11/10
                        Q1007 TEMPO BKN014=
201509180450 METAR COR EGLL 180450Z 18004KT 9999 FEW013 11/11 Q1007 TEMPO
                        BKN014=
201509180420 METAR COR EGLL 180420Z 18005KT CAVOK 12/11 Q1007 TEMPO BKN014=
201509180350 METAR EGLL 180350Z 19004KT CAVOK 12/11 Q1007 TEMPO BKN014=
201509180320 METAR COR EGLL 180320Z 20004KT 9999 FEW015 12/11 Q1007 TEMPO
                        BKN014=
201509180250 METAR EGLL 180250Z 19005KT 9999 FEW015 12/11 Q1007 TEMPO
                        BKN014=
201509180220 METAR COR EGLL 180220Z 19005KT CAVOK 12/11 Q1007 NOSIG=
201509180150 METAR COR EGLL 180150Z 18005KT 9999 FEW034 12/11 Q1007 NOSIG=
201509180120 METAR EGLL 180120Z AUTO 18005KT 9999 FEW022 12/11 Q1007=
201509180050 METAR EGLL 180050Z AUTO 19005KT 9999 FEW020 12/11 Q1007=
201509180020 METAR EGLL 180020Z AUTO 20005KT 9999 NCD 12/11 Q1007=
201509172350 METAR COR EGLL 172350Z 19005KT CAVOK 12/11 Q1007 NOSIG=
201509172320 METAR COR EGLL 172320Z 20006KT CAVOK 13/11 Q1007 NOSIG=
201509172250 METAR EGLL 172250Z 19007KT 9999 FEW045 13/11 Q1007 NOSIG=
201509172220 METAR COR EGLL 172220Z 21007KT CAVOK 13/11 Q1007 NOSIG=
201509172150 METAR EGLL 172150Z 19006KT 150V220 CAVOK 13/11 Q1007 NOSIG=
201509172120 METAR COR EGLL 172120Z 21008KT CAVOK 14/11 Q1007 NOSIG=
201509172050 METAR EGLL 172050Z 21008KT CAVOK 14/11 Q1006 NOSIG=
201509172020 METAR COR EGLL 172020Z 21008KT 180V240 CAVOK 14/11 Q1006
                        NOSIG=
201509171950 METAR EGLL 171950Z 21009KT CAVOK 14/10 Q1006 NOSIG=
201509171920 METAR COR EGLL 171920Z 21009KT 170V230 CAVOK 15/10 Q1006
                        NOSIG=
201509171850 METAR EGLL 171850Z 23010KT 9999 FEW031 16/10 Q1005 NOSIG=
201509171820 METAR COR EGLL 171820Z 22008KT 9999 FEW041 16/11 Q1005 NOSIG=
201509171750 METAR EGLL 171750Z 20008KT 170V230 9999 SCT039 16/10 Q1005=
201509171720 METAR COR EGLL 171720Z 22010KT 9999 FEW041 17/10 Q1004 NOSIG=
201509171650 METAR COR EGLL 171650Z 24008KT 9999 FEW040 17/09 Q1004 NOSIG=
201509171620 METAR COR EGLL 171620Z 25009KT 9999 FEW036 17/08 Q1004 NOSIG=
201509171550 METAR COR EGLL 171550Z 25011KT 9999 FEW043 17/08 Q1004 NOSIG=
201509171520 METAR COR EGLL 171520Z 25012KT 9999 FEW043 18/08 Q1003 NOSIG=
201509171450 METAR COR EGLL 171450Z 25011KT 9999 FEW045 18/08 Q1003 NOSIG=
201509171420 METAR COR EGLL 171420Z 25011KT 9999 FEW040 17/07 Q1003 NOSIG=
201509171350 METAR COR EGLL 171350Z 27011KT 9999 FEW046 17/07 Q1002 NOSIG=
201509171320 METAR COR EGLL 171320Z 27016KT 9999 FEW049 17/07 Q1002 NOSIG=
201509171250 METAR EGLL 171250Z 25011KT 210V290 9999 FEW037 17/09 Q1002
                        NOSIG=
201509171220 METAR COR EGLL 171220Z 26010KT 230V290 9999 FEW034 16/08
                        Q1001 NOSIG=
201509171150 METAR EGLL 171150Z 27012KT 9999 FEW032 16/08 Q1001 NOSIG=
201509171120 METAR COR EGLL 171120Z 27010KT 9999 FEW032 16/09 Q1000 NOSIG=
201509171050 METAR COR EGLL 171050Z 28010KT 9999 FEW029 16/10 Q1000 NOSIG=
201509171020 METAR COR EGLL 171020Z 27009KT 240V310 9999 FEW024 15/10
                        Q1000 NOSIG=
201509170950 METAR COR EGLL 170950Z 28008KT 9999 FEW016 14/09 Q1000 NOSIG=
201509170920 METAR COR EGLL 170920Z 29007KT 260V320 9999 FEW016 13/10
                        Q0999 NOSIG=
201509170850 METAR EGLL 170850Z 27008KT 9999 FEW047 12/09 Q0999 NOSIG=
201509170820 METAR COR EGLL 170820Z 27010KT 9999 SCT049 12/09 Q0998 NOSIG=
201509170750 METAR EGLL 170750Z 29007KT CAVOK 11/09 Q0998 NOSIG=
201509170720 METAR COR EGLL 170720Z 28008KT CAVOK 11/09 Q0997 NOSIG=
201509170650 METAR COR EGLL 170650Z 27009KT CAVOK 10/09 Q0996 NOSIG=
201509170620 METAR COR EGLL 170620Z 27008KT 7000 NSC 10/09 Q0996 NOSIG=
201509170550 METAR EGLL 170550Z 28007KT 6000 NSC 09/08 Q0995 NOSIG=
201509170520 METAR COR EGLL 170520Z 27006KT 6000 NSC 09/09 Q0994 NOSIG=
201509170450 METAR COR EGLL 170450Z 29006KT 7000 NSC 10/09 Q0994 NOSIG=
201509170420 METAR COR EGLL 170420Z 30006KT 8000 NSC 11/09 Q0993 NOSIG=
201509170350 METAR EGLL 170350Z 29006KT CAVOK 11/09 Q0993 NOSIG=
201509170320 METAR COR EGLL 170320Z 30005KT 8000 -RADZ NSC 12/10 Q0993
                        NOSIG=
201509170250 METAR COR EGLL 170250Z 29006KT 7000 -RA FEW014 12/11 Q0992
                        NOSIG=
201509170220 METAR COR EGLL 170220Z 30005KT 6000 -RA BKN041 12/11 Q0992
                        NOSIG=
201509170150 METAR COR EGLL 170150Z 31006KT 6000 -RADZ OVC037 12/11 Q0991
                        NOSIG=
201509170120 METAR EGLL 170120Z AUTO 31006KT 8000 -RA BKN032 12/11 Q0991=
201509170050 METAR EGLL 170050Z AUTO 31006KT 9000 -RA FEW013 BKN031 12/11
                        Q0990=
201509170020 METAR EGLL 170020Z AUTO 32005KT 4900 -RADZ SCT009 BKN027
                        12/11 Q0989 RERA REDZ=
201509162350 METAR COR EGLL 162350Z 32007KT 4800 -RADZ SCT005 OVC016 12/11
                        Q0989 TEMPO 7000=
201509162320 METAR EGLL 162320Z 35005KT 310V020 3900 -DZ BKN006 BKN026
                        12/11 Q0988=
201509162250 METAR COR EGLL 162250Z 36006KT 320V030 8000 SCT006 BKN015
                        12/11 Q0988 TEMPO BKN008=
201509162220 METAR COR EGLL 162220Z 36006KT 330V030 9000 -RADZ BKN006
                        OVC015 12/11 Q0987 TEMPO BKN010=
201509162150 METAR COR EGLL 162150Z 36007KT 340V040 8000 FEW005 BKN017
                        12/11 Q0987 TEMPO BKN012=
201509162120 METAR COR EGLL 162120Z 36006KT 320V030 6000 -DZ SCT005 BKN009
                        12/11 Q0986 TEMPO 4000 RADZ=
201509162050 METAR EGLL 162050Z 01006KT 340V040 9999 BKN011 12/11 Q0986
                        NOSIG=
201509162020 METAR COR EGLL 162020Z 01006KT 340V040 9999 SCT010 BKN012
                        12/11 Q0986 NOSIG=
201509161950 METAR EGLL 161950Z 01007KT 330V040 9999 -RA SCT008 BKN012
                        13/12 Q0986 NOSIG=
201509161920 METAR COR EGLL 161920Z 03006KT 350V050 6000 -RA FEW011 SCT016
                        BKN021 13/12 Q0986 RERA TEMPO BKN012=
201509161850 METAR COR EGLL 161850Z 02005KT 340V050 5000 RA SCT006 SCT013TCU
                        BKN020 13/12 Q0985 TEMPO -RA=
201509161820 METAR COR EGLL 161820Z 04008KT 9000 -RA SCT012 SCT014TCU
                        BKN023 13/12 Q0985 RERA TEMPO RA=
201509161750 METAR COR EGLL 161750Z 05008KT 010V070 9999 6000NE RA FEW008
                        SCT014TCU BKN028 13/12 Q0985 TEMPO
                        BKN012=
201509161720 METAR COR EGLL 161720Z 02005KT 340V050 5000 RA SCT011 SCT014TCU
                        BKN037 13/12 Q0985 TEMPO 4000 BKN012=
201509161650 METAR COR EGLL 161650Z 06006KT 020V080 9000 -RA SCT006 BKN008
                        BKN012TCU 13/12 Q0985 TEMPO 4000
                        RA BKN012=
201509161620 METAR COR EGLL 161620Z 03008KT 350V060 9000 -RA SCT005 BKN008
                        BKN014TCU 13/12 Q0985 RERA TEMPO
                        RA BKN012=
201509161550 METAR COR EGLL 161550Z 04008KT 5000 RA SCT008 BKN010 BKN014TCU
                        13/12 Q0985 TEMPO BKN008=
201509161520 METAR COR EGLL 161520Z 04008KT 010V070 4600 RA SCT008 BKN011
                        BKN014TCU 13/12 Q0985 NOSIG=
201509161450 METAR COR EGLL 161450Z 03006KT 350V060 4100 RA SCT005 BKN008
                        BKN014TCU 13/13 Q0986 REDZ NOSIG=
201509161420 METAR COR EGLL 161420Z 04009KT 3500 RADZ SCT006 SCT008 BKN010TCU
                        13/13 Q0986 NOSIG=
201509161350 METAR COR EGLL 161350Z 04008KT 4200 RADZ SCT006 SCT012TCU
                        BKN022 14/13 Q0986 TEMPO +RA BKN008=
201509161320 METAR COR EGLL 161320Z 04008KT 350V060 4000 RADZ SCT007 SCT012TCU
                        BKN026 14/13 Q0986 TEMPO BKN008=
201509161250 METAR EGLL 161250Z 04006KT 4400 RADZ SCT006 BKN009 BKN015TCU
                        13/12 Q0987 TEMPO 5000 -RA BKN012=
201509161220 METAR COR EGLL 161220Z 05007KT 020V090 3900 RADZ BKN008 BKN013TCU
                        13/12 Q0987 TEMPO 6000 -RA BKN012=
201509161150 METAR COR EGLL 161150Z 06009KT 6000 -RADZ SCT012 BKN014 BKN026
                        14/12 Q0988 TEMPO RA BKN008=
201509161120 METAR COR EGLL 161120Z 06010KT 9999 -RA SCT019 BKN025 14/12
                        Q0987 TEMPO RA BKN012=
201509161050 METAR EGLL 161050Z 07010KT 9999 SCT020 BKN026 15/11 Q0988
                        TEMPO RA BKN012=
201509161020 METAR COR EGLL 161020Z 07011KT 9999 SCT021 BKN041 15/11 Q0988
                        NOSIG=
201509160950 METAR EGLL 160950Z 07012KT 9999 FEW016 SCT021 BKN046 15/11
                        Q0988 NOSIG=
201509160920 METAR COR EGLL 160920Z 07009KT 9999 FEW016 15/11 Q0988 NOSIG=
201509160850 METAR EGLL 160850Z 06010KT 9999 FEW016 15/12 Q0989 TEMPO
                        BKN012=
201509160820 METAR COR EGLL 160820Z 06009KT 9999 FEW017 15/12 Q0989 TEMPO
                        BKN012=
201509160750 METAR EGLL 160750Z 07007KT 9999 FEW009 14/12 Q0989 TEMPO
                        BKN012=
201509160720 METAR COR EGLL 160720Z 07007KT 9999 FEW009 14/12 Q0989 TEMPO
                        BKN012=
201509160650 METAR EGLL 160650Z 07005KT 9999 FEW008 13/12 Q0990 TEMPO
                        BKN012=
201509160620 METAR COR EGLL 160620Z 06006KT 9999 FEW008 12/11 Q0990 TEMPO
                        BKN012=
201509160550 METAR EGLL 160550Z 07006KT CAVOK 12/11 Q0990 TEMPO BKN012=
201509160520 METAR COR EGLL 160520Z 06007KT 9999 FEW015 12/11 Q0990 NOSIG=
201509160450 METAR COR EGLL 160450Z 06007KT 9999 -RA BKN012 12/11 Q0991
                        TEMPO SCT012=
201509160420 METAR COR EGLL 160420Z 05004KT 9999 -RA SCT015 12/11 Q0992
                        NOSIG=
201509160350 METAR EGLL 160350Z 05005KT 9999 -RA SCT020 12/10 Q0992 NOSIG=
201509160320 METAR COR EGLL 160320Z 06006KT 9000 -RA FEW022 BKN030 12/11
                        Q0992 NOSIG=
201509160250 METAR EGLL 160250Z 08005KT 9999 BKN040 12/11 Q0993 NOSIG=
201509160220 METAR COR EGLL 160220Z AUTO 06004KT 9999 BKN036 12/10 Q0993
                        NOSIG=
201509160150 METAR EGLL 160150Z 06004KT CAVOK 12/10 Q0993 NOSIG=
201509160120 METAR EGLL 160120Z AUTO 05004KT 9999 NCD 11/10 Q0994=
201509160050 METAR EGLL 160050Z AUTO 06003KT 9999 NCD 11/10 Q0994=
201509160020 METAR COR EGLL 160020Z AUTO 07003KT 9999 NCD 11/10 Q0994
                        NOSIG=
201509152350 METAR COR EGLL 152350Z 09005KT CAVOK 11/10 Q0995 NOSIG=
201509152320 METAR COR EGLL 152320Z 09004KT CAVOK 11/10 Q0996 NOSIG=
201509152250 METAR COR EGLL 152250Z 14004KT CAVOK 12/10 Q0996 NOSIG=
201509152220 METAR COR EGLL 152220Z 17006KT CAVOK 13/10 Q0997 NOSIG=
201509152150 METAR COR EGLL 152150Z 18008KT 150V270 CAVOK 13/11 Q0997
                        NOSIG=
201509152120 METAR COR EGLL 152120Z 17006KT 140V220 CAVOK 13/11 Q0997
                        NOSIG=
201509152050 METAR EGLL 152050Z 16006KT 130V190 9999 FEW040 13/11 Q0997
                        NOSIG=
201509152020 METAR COR EGLL 152020Z 20008KT CAVOK 14/10 Q0998 NOSIG=
201509151950 METAR EGLL 151950Z 21008KT CAVOK 14/11 Q0998 NOSIG=
201509151920 METAR COR EGLL 151920Z 22009KT 9999 FEW028 14/11 Q0998 NOSIG=
201509151850 METAR EGLL 151850Z 22009KT 9999 FEW027 15/11 Q0998 NOSIG=
201509151820 METAR COR EGLL 151820Z 21009KT 9999 FEW026 15/11 Q0998 NOSIG=
201509151750 METAR COR EGLL 151750Z 22008KT 9999 FEW028 SCT044 15/11 Q0998
                        NOSIG=
201509151720 METAR COR EGLL 151720Z 22011KT 9999 SCT042 15/11 Q0998 NOSIG=
201509151650 METAR EGLL 151650Z 22012KT 9999 VCSH FEW025 15/11 Q0998 TEMPO
                        SHRA=
201509151620 METAR COR EGLL 151620Z 22016KT 9999 -SHRA SCT032CB 16/12
                        Q0998 TEMPO SHRA=
201509151550 METAR COR EGLL 151550Z 21014KT 9999 -SHRA SCT023 17/12 Q0997
                        NOSIG=
201509151520 METAR COR EGLL 151520Z 22011KT 9999 VCSH BKN031CB BKN045
                        17/11 Q0997 NOSIG=
201509151450 METAR COR EGLL 151450Z 23011KT 9999 -SHRA SCT030 SCT042 17/12
                        Q0997 TEMPO SHRA=
201509151420 METAR COR EGLL 151420Z 24013KT 9999 FEW027 SCT042 18/11 Q0997
                        TEMPO SHRA=
201509151350 METAR EGLL 151350Z 25013KT 9999 BKN026 18/11 Q0997 TEMPO
                        SHRA=
201509151320 METAR COR EGLL 151320Z 24014KT 9999 BKN021 19/12 Q0997 TEMPO
                        SHRA=
201509151250 METAR EGLL 151250Z 25014KT 9999 SCT020 18/12 Q0997 TEMPO
                        SHRA=
201509151220 METAR COR EGLL 151220Z 24015G27KT 9999 SCT020 16/12 Q0997
                        TEMPO SHRA=
201509151150 METAR EGLL 151150Z 26013KT 9999 SCT015 SCT026 16/13 Q0997
                        TEMPO SHRA=
201509151120 METAR COR EGLL 151120Z 25013KT 9999 FEW005 SCT016 BKN037
                        15/13 Q0996 NOSIG=
201509151050 METAR EGLL 151050Z 25016KT 9999 SCT016 SCT028 16/12 Q0996
                        NOSIG=
201509151020 METAR COR EGLL 151020Z 25011KT 9999 SCT015 SCT028 15/12 Q0996
                        NOSIG=
201509150950 METAR COR EGLL 150950Z 27013KT 9999 SCT015 SCT020 14/12 Q0995
                        NOSIG=
201509150920 METAR COR EGLL 150920Z 26014KT 9999 SCT014 SCT018 14/11 Q0995
                        NOSIG=
201509150850 METAR COR EGLL 150850Z 26013KT 9999 SCT013 BKN019 13/11 Q0994
                        TEMPO BKN012=
201509150820 METAR COR EGLL 150820Z 26013KT 9999 BKN012 12/11 Q0994 TEMPO
                        SCT014=
201509150750 METAR COR EGLL 150750Z 25011KT 9999 BKN011 12/11 Q0993 TEMPO
                        SCT014=
201509150720 METAR COR EGLL 150720Z 24011KT 9999 BKN013 12/10 Q0993 TEMPO
                        SCT014=
201509150650 METAR COR EGLL 150650Z 21009KT 9999 SCT009 BKN012 11/10 Q0992
                        TEMPO SCT014=
201509150620 METAR COR EGLL 150620Z 22010KT 9999 SCT014 BKN020 10/09 Q0992
                        TEMPO BKN013=
201509150550 METAR COR EGLL 150550Z 21012G23KT 5000 -RA FEW009 SCT014
                        BKN024 10/09 Q0992 TEMPO BKN012=
201509150520 METAR COR EGLL 150520Z 21013KT 9000 -RA BKN012 BKN028 11/09
                        Q0992 RERA NOSIG=
201509150450 METAR COR EGLL 150450Z 21012KT 9999 -RA SCT024TCU BKN048
                        11/08 Q0993 TEMPO BKN012=
201509150420 METAR COR EGLL 150420Z 20013KT 9999 -RA BKN045TCU 11/08 Q0993
                        RERA TEMPO RA BKN012=
201509150350 METAR COR EGLL 150350Z 20012KT 9999 FEW040 11/08 Q0993 TEMPO
                        RA=
201509150320 METAR COR EGLL 150320Z 20013KT CAVOK 11/08 Q0994 TEMPO SHRA=
201509150250 METAR COR EGLL 150250Z 21010KT 9999 FEW035 11/08 Q0994 TEMPOM
                        SHRA=
201509150220 METAR COR EGLL 150220Z 20010KT CAVOK 10/08 Q0994 TEMPO SHRA=
201509150150 METAR EGLL 150150Z AUTO 20010KT 9999 NCD 11/07 Q0994=
201509150120 METAR EGLL 150120Z AUTO 21012KT 9999 NCD 11/07 Q0995=
201509150050 METAR EGLL 150050Z AUTO 19010KT 9999 NCD 11/07 Q0995=
201509150020 METAR COR EGLL 150020Z 21010KT CAVOK 11/07 Q0995 NOSIG=
201509142350 METAR COR EGLL 142350Z 21010KT CAVOK 11/07 Q0995 NOSIG=
201509142320 METAR COR EGLL 142320Z 20010KT CAVOK 11/08 Q0996 NOSIG=
201509142250 METAR COR EGLL 142250Z 21009KT CAVOK 11/08 Q0996 NOSIG=
201509142220 METAR COR EGLL 142220Z 22012KT CAVOK 12/07 Q0996 NOSIG=
201509142150 METAR COR EGLL 142150Z 21011KT CAVOK 12/07 Q0996 NOSIG=
201509142120 METAR COR EGLL 142120Z 22010KT CAVOK 12/07 Q0996 NOSIG=
201509142050 METAR COR EGLL 142050Z 22012KT CAVOK 12/07 Q0996 NOSIG=
201509142020 METAR COR EGLL 142020Z 21011KT CAVOK 12/08 Q0996 NOSIG=
201509141950 METAR COR EGLL 141950Z 21010KT CAVOK 12/08 Q0996 NOSIG=
201509141920 METAR COR EGLL 141920Z 22011KT 9999 SCT035CB 13/09 Q0995
                        TEMPO SHRA=
201509141850 METAR COR EGLL 141850Z 21010KT 9999 FEW043 13/09 Q0995 TEMPO
                        SHRA=
201509141820 METAR COR EGLL 141820Z 21010KT 180V240 9999 FEW024 13/09
                        Q0995 TEMPO SHRA=
201509141750 METAR COR EGLL 141750Z 23015KT 9999 FEW024 13/09 Q0995 NOSIG=
201509141720 METAR COR EGLL 141720Z 23014KT 9999 FEW025 14/08 Q0995 NOSIG=
201509141650 METAR COR EGLL 141650Z 24019KT 9999 FEW029 14/09 Q0994 NOSIG=
201509141620 METAR COR EGLL 141620Z 24018KT 9999 -SHRA SCT029 14/10 Q0994
                        NOSIG=
201509141550 METAR COR EGLL 141550Z 24017KT 9999 SCT042 14/11 Q0994 NOSIG=
201509141520 METAR COR EGLL 141520Z 24016KT 9999 FEW011 BKN025 14/11 Q0994
                        RESHRA NOSIG=
201509141450 METAR COR EGLL 141450Z 25017G28KT 8000 -SHRA BKN010CB BKN025
                        14/12 Q0993 RESHRA BECMG FEW010=
201509141420 METAR COR EGLL 141420Z 22018KT 9999 4000S SHRA FEW020 BKN025CB
                        15/12 Q0992 TEMPO NSW=
201509141350 METAR COR EGLL 141350Z 21016KT 9999 BKN025CB 18/11 Q0992
                        TEMPO SHRA=
201509141320 METAR COR EGLL 141320Z 21018KT 180V250 9999 SCT026 17/11
                        Q0992 NOSIG=
201509141250 METAR COR EGLL 141250Z 20019G30KT 9999 SCT029CB 19/11 Q0992
                        NOSIG=
201509141220 METAR COR EGLL 141220Z 20014G24KT 9999 FEW020 SCT026CB 17/13
                        Q0992 NOSIG=
201509141150 METAR COR EGLL 141150Z 19012KT 160V240 9999 SCT026CB SCT036
                        18/13 Q0992 NOSIG=
201509141120 METAR COR EGLL 141120Z 18011KT 130V230 9999 FEW020CB SCT026
                        19/14 Q0992 TEMPO SHRA=
201509141050 METAR COR EGLL 141050Z 16008KT 120V210 9999 FEW014 SCT022CB
                        18/15 Q0992 NOSIG=
201509141020 METAR COR EGLL 141020Z 15009KT 9999 SCT012 SCT020CB 17/15
                        Q0992 NOSIG=
201509140950 METAR COR EGLL 140950Z 15007KT 9999 VCSH SCT017CB SCT040
                        16/14 Q0993 TEMPO SHRA=
201509140920 METAR COR EGLL 140920Z 15008KT 9999 FEW016 SCT023 16/14 Q0993
                        TEMPO SHRA=
201509140850 METAR COR EGLL 140850Z 15008KT 9999 FEW011 SCT020TCU 16/14
                        Q0993 TEMPO SHRA=
201509140820 METAR COR EGLL 140820Z 14007KT 9999 -SHRA FEW012 SCT016TCU
                        16/14 Q0993 TEMPO SHRA=
201509140750 METAR COR EGLL 140750Z 14006KT 7000 -SHRA SCT016CB BKN035
                        15/14 Q0993 RESHRA TEMPO SHRA=
201509140720 METAR COR EGLL 140720Z 13005KT 9999 FEW012 SCT023TCU 14/14
                        Q0993 TEMPO SHRA=
201509140650 METAR COR EGLL 140650Z 14005KT 9999 FEW007 FEW023TCU 14/13
                        Q0994 TEMPO SHRA=
201509140620 METAR COR EGLL 140620Z 16004KT 9999 6000W VCSH FEW007 FEW015TCU
                        13/12 Q0994 TEMPO SHRA=
201509140550 METAR COR EGLL 140550Z 14006KT 7000 -RA FEW007 12/12 Q0994
                        TEMPO SHRA BKN010=
201509140520 METAR COR EGLL 140520Z 09004KT 9000 FEW007 12/11 Q0994 TEMPO
                        SHRA BKN010=
201509140450 METAR COR EGLL 140450Z 09006KT 9000 FEW007 SCT013 12/12 Q0994
                        TEMPO SHRA BKN010=
201509140420 METAR COR EGLL 140420Z 10005KT 9000 FEW008 SCT013 BKN022
                        12/12 Q0995 TEMPO SHRA BKN010=
201509140350 METAR COR EGLL 140350Z 10008KT 9000 FEW004 SCT015 BKN020
                        12/12 Q0995 TEMPO 4000 SHRA BKN009=
201509140320 METAR COR EGLL 140320Z 09009KT 8000 FEW005 BKN011 12/11 Q0995
                        TEMPO 4000 SHRA BKN007=
201509140250 METAR COR EGLL 140250Z 10010KT 7000 -SHRA FEW004 SCT006 BKN013
                        12/11 Q0996 RESHRA TEMPO 3500 +SHRA
                        BKN006=
201509140220 METAR COR EGLL 140220Z 08007KT 5000 SHRA SCT006 BKN011 12/11
                        Q0996 TEMPO 3500 +SHRA BKN006=
201509140150 METAR COR EGLL 140150Z 07007KT 7000 -SHRA FEW007 BKN016 12/11
                        Q0997 RERA TEMPO 3500 +SHRA BKN007=
201509140120 METAR EGLL 140120Z AUTO 09007KT 4900 RA BKN011/// BKN024///
                        //////CB 12/11 Q0997=
201509140050 METAR EGLL 140050Z AUTO 08007KT 9999 -RA FEW026/// BKN035///
                        //////CB 12/10 Q0998=
201509140020 METAR EGLL 140020Z AUTO 10008KT 9999 -RA //////TCU 12/09
                        Q0998=
201509132350 METAR COR EGLL 132350Z 10007KT CAVOK 12/09 Q0999 TEMPO RA=
201509132320 METAR COR EGLL 132320Z 10007KT CAVOK 12/09 Q0999 TEMPO SHRA=
201509132250 METAR COR EGLL 132250Z 09008KT CAVOK 12/09 Q1000 TEMPO SHRA=
201509132220 METAR COR EGLL 132220Z 11007KT CAVOK 12/09 Q1000 TEMPO SHRA=
201509132150 METAR COR EGLL 132150Z 10005KT CAVOK 12/09 Q1000 TEMPO SHRA=
201509132120 METAR COR EGLL 132120Z 10006KT CAVOK 12/09 Q1001 TEMPO SHRA=
201509132050 METAR COR EGLL 132050Z 10005KT CAVOK 12/09 Q1001 NOSIG=
201509132020 METAR COR EGLL 132020Z 10005KT CAVOK 11/08 Q1001 NOSIG=
201509131950 METAR COR EGLL 131950Z 11005KT CAVOK 12/08 Q1002 NOSIG=
201509131920 METAR COR EGLL 131920Z 13006KT CAVOK 14/08 Q1002 NOSIG=
201509131850 METAR COR EGLL 131850Z 12008KT CAVOK 14/08 Q1002 NOSIG=
201509131820 METAR COR EGLL 131820Z 10007KT 9999 FEW035 15/08 Q1002 NOSIG=
201509131750 METAR COR EGLL 131750Z 11007KT 9999 FEW034 15/08 Q1002 NOSIG=
201509131720 METAR COR EGLL 131720Z 11008KT 9999 FEW034 15/08 Q1002 NOSIG=
201509131650 METAR COR EGLL 131650Z 10009KT 9999 FEW035 16/09 Q1003 NOSIG=
201509131620 METAR COR EGLL 131620Z 13010KT 9999 FEW033 16/09 Q1003 NOSIG=
201509131550 METAR COR EGLL 131550Z 12010KT 9999 FEW038 17/09 Q1003 NOSIG=
201509131520 METAR COR EGLL 131520Z 11009KT 080V150 9999 FEW037 17/09
                        Q1003 NOSIG=
201509131450 METAR COR EGLL 131450Z 10009KT 060V130 9999 SCT035 17/09
                        Q1003 NOSIG=
201509131420 METAR COR EGLL 131420Z 12008KT 090V160 9999 SCT038 17/09
                        Q1004 NOSIG=
201509131350 METAR COR EGLL 131350Z 10008KT 9999 SCT037 17/09 Q1004 NOSIG=
201509131320 METAR COR EGLL 131320Z 14008KT 9999 FEW038 18/09 Q1004 NOSIG=
201509131250 METAR COR EGLL 131250Z 13009KT 090V170 9999 SCT033 18/09
                        Q1005 NOSIG=
201509131220 METAR COR EGLL 131220Z 10009KT 9999 SCT032 19/09 Q1005 NOSIG=
201509131150 METAR COR EGLL 131150Z 12008KT 080V140 9999 FEW028 18/10
                        Q1006 NOSIG=
201509131120 METAR COR EGLL 131120Z 10007KT 9999 FEW023 17/10 Q1006 NOSIG=
201509131050 METAR COR EGLL 131050Z 12006KT 080V140 9999 FEW021 16/11
                        Q1007 NOSIG=
201509131020 METAR COR EGLL 131020Z 11005KT 9999 FEW016 15/11 Q1007 NOSIG=
201509130950 METAR COR EGLL 130950Z 12006KT 9999 FEW016 15/11 Q1007 NOSIG=
201509130920 METAR COR EGLL 130920Z 11006KT CAVOK 15/11 Q1008 NOSIG=
201509130850 METAR COR EGLL 130850Z 09004KT CAVOK 14/11 Q1008 NOSIG=
201509130820 METAR COR EGLL 130820Z 06003KT CAVOK 13/11 Q1008 NOSIG=
201509130750 METAR COR EGLL 130750Z 10004KT 070V130 CAVOK 12/10 Q1008
                        NOSIG=
201509130720 METAR COR EGLL 130720Z VRB03KT CAVOK 12/10 Q1008 NOSIG=
201509130650 METAR COR EGLL 130650Z 09003KT CAVOK 11/10 Q1008 NOSIG=
201509130620 METAR COR EGLL 130620Z 09002KT CAVOK 11/09 Q1008 NOSIG=
201509130550 METAR COR EGLL 130550Z 15002KT CAVOK 11/09 Q1009 NOSIG=
201509130520 METAR COR EGLL 130520Z VRB03KT CAVOK 10/09 Q1008 NOSIG=
201509130450 METAR COR EGLL 130450Z 17003KT CAVOK 11/10 Q1009 NOSIG=
201509130420 METAR COR EGLL 130420Z 14003KT CAVOK 10/09 Q1009 NOSIG=
201509130350 METAR COR EGLL 130350Z 14003KT CAVOK 10/09 Q1009 NOSIG=
201509130320 METAR COR EGLL 130320Z 14003KT CAVOK 11/10 Q1009 NOSIG=
201509130250 METAR COR EGLL 130250Z 16002KT CAVOK 11/09 Q1009 NOSIG=
201509130220 METAR COR EGLL 130220Z 15003KT CAVOK 11/09 Q1009 NOSIG=
201509130150 METAR COR EGLL 130150Z 14002KT CAVOK 11/09 Q1009 NOSIG=
201509130120 METAR EGLL 130120Z AUTO 18003KT 9999 NCD 11/09 Q1010=
201509130050 METAR EGLL 130050Z AUTO 24004KT 9999 NCD 12/09 Q1010=
201509130020 METAR EGLL 130020Z AUTO 24005KT 9999 NCD 12/09 Q1010=
201509122350 METAR COR EGLL 122350Z 22005KT CAVOK 12/09 Q1010 NOSIG=
201509122320 METAR COR EGLL 122320Z 22005KT CAVOK 13/09 Q1010 NOSIG=
201509122250 METAR COR EGLL 122250Z 21005KT CAVOK 13/08 Q1010 NOSIG=
201509122220 METAR COR EGLL 122220Z 21006KT CAVOK 13/08 Q1010 NOSIG=
201509122150 METAR COR EGLL 122150Z 23004KT CAVOK 14/07 Q1010 NOSIG=
201509122120 METAR COR EGLL 122120Z 26007KT CAVOK 14/07 Q1010 NOSIG=
201509122050 METAR COR EGLL 122050Z 27007KT CAVOK 15/07 Q1010 NOSIG=
201509122020 METAR COR EGLL 122020Z 27008KT 9999 FEW047 14/07 Q1010 NOSIG=
201509121950 METAR COR EGLL 121950Z 27011KT 9999 BKN045 15/07 Q1010 NOSIG=
201509121920 METAR COR EGLL 121920Z 27009KT 9999 SCT040 16/08 Q1010 NOSIG=
201509121850 METAR COR EGLL 121850Z 27013KT 9999 BKN040 17/10 Q1009 NOSIG=
201509121820 METAR COR EGLL 121820Z 27011KT 9999 SCT042 17/10 Q1008 NOSIG=
201509121750 METAR COR EGLL 121750Z 27011KT 9999 FEW044 18/10 Q1008 NOSIG=
201509121720 METAR COR EGLL 121720Z 26012KT 9999 SCT040 18/10 Q1008 NOSIG=
201509121650 METAR COR EGLL 121650Z 27013KT 9999 SCT040 19/10 Q1008 NOSIG=
201509121620 METAR COR EGLL 121620Z 27012KT 9999 FEW037 19/11 Q1007 NOSIG=
201509121550 METAR COR EGLL 121550Z 27011KT 9999 BKN035 20/11 Q1007 NOSIG=
201509121520 METAR COR EGLL 121520Z 27012KT 9999 BKN036 20/10 Q1007 NOSIG=
201509121450 METAR COR EGLL 121450Z 27013KT 9999 FEW037 20/11 Q1007 NOSIG=
201509121420 METAR COR EGLL 121420Z 27011KT 9999 SCT044 20/12 Q1007 NOSIG=
201509121350 METAR COR EGLL 121350Z 25010KT 230V290 9999 FEW032 SCT040
                        20/12 Q1007 NOSIG=
201509121320 METAR COR EGLL 121320Z 27012KT 9999 FEW033 20/12 Q1007 NOSIG=
201509121250 METAR EGLL 121250Z 25013KT 9999 SCT035 20/11 Q1007 NOSIG=
201509121220 METAR COR EGLL 121220Z 23015KT 9999 SCT033 20/11 Q1007 NOSIG=
201509121150 METAR EGLL 121150Z 21014KT 9999 SCT038 20/12 Q1006 NOSIG=
201509121120 METAR COR EGLL 121120Z 22014KT 9999 SCT030 21/12 Q1006 NOSIG=
201509121050 METAR EGLL 121050Z 22012KT 9999 FEW025 SCT044 19/13 Q1006
                        NOSIG=
201509121020 METAR EGLL 121020Z AUTO 22012KT 9999 -RA SCT020/// BKN038///
                        17/13 Q1007=
201509120950 METAR COR EGLL 120950Z 23013KT 9999 SCT021 SCT030 18/13 Q1006
                        NOSIG=
201509120920 METAR COR EGLL 120920Z 22012KT 190V250 9999 SCT022 SCT032
                        18/13 Q1006 NOSIG=
201509120850 METAR EGLL 120850Z 21016KT 9999 SCT018 SCT022 18/13 Q1006
                        NOSIG=
201509120820 METAR COR EGLL 120820Z 21014KT 9999 SCT018 SCT032 17/14 Q1005
                        NOSIG=
201509120750 METAR EGLL 120750Z 19013KT 9999 SCT015 SCT033 18/14 Q1006
                        NOSIG=
201509120720 METAR COR EGLL 120720Z 17011KT 9999 SCT016 SCT036 16/14 Q1006
                        NOSIG=
201509120650 METAR COR EGLL 120650Z 17010KT 130V200 9999 FEW025 16/14
                        Q1006 NOSIG=
201509120620 METAR COR EGLL 120620Z 17010KT 150V230 9999 FEW009 BKN013
                        16/14 Q1006 BECMG SCT012=
201509120550 METAR COR EGLL 120550Z 17012KT 140V210 9999 FEW012 SCT025
                        16/14 Q1006 TEMPO 4500 RADZ BKN013=
201509120520 METAR COR EGLL 120520Z 15008KT 9999 SCT040 16/13 Q1006 TEMPO
                        RADZ BKN014=
201509120450 METAR COR EGLL 120450Z 14008KT 9999 -RA NSC 16/13 Q1006 TEMPO
                        RA BKN014=
201509120420 METAR COR EGLL 120420Z 13008KT 080V190 9999 -RA NSC 16/13
                        Q1006 TEMPO RA BKN012=
201509120350 METAR EGLL 120350Z 13009KT 090V150 9999 FEW040 16/12 Q1006
                        TEMPO RA BKN012=
201509120320 METAR COR EGLL 120320Z 14008KT 9999 SCT040 16/12 Q1007 TEMPO
                        RA BKN012=
201509120250 METAR COR EGLL 120250Z 15008KT 9999 SCT036 16/12 Q1007 TEMPO
                        RA BKN014=
201509120220 METAR COR EGLL 120220Z 14008KT 9999 SCT034 16/11 Q1007 TEMPO
                        RA BKN014=
201509120150 METAR COR EGLL 120150Z 12006KT 9999 FEW040 16/11 Q1008 NOSIG=
201509120120 METAR EGLL 120120Z AUTO 09005KT 9999 NCD 15/11 Q1008=
201509120050 METAR EGLL 120050Z AUTO 10006KT 9999 NCD 16/11 Q1008=
201509120020 METAR EGLL 120020Z AUTO 10008KT 9999 NCD 16/11 Q1009=
201509112350 METAR EGLL 112350Z 10008KT CAVOK 16/10 Q1009 NOSIG=
201509112320 METAR COR EGLL 112320Z 10008KT CAVOK 16/11 Q1010 NOSIG=
201509112250 METAR EGLL 112250Z 10009KT CAVOK 16/11 Q1010 NOSIG=
201509112220 METAR COR EGLL 112220Z 10010KT CAVOK 16/11 Q1010 NOSIG=
201509112150 METAR COR EGLL 112150Z 10009KT CAVOK 16/11 Q1011 NOSIG=
201509112120 METAR COR EGLL 112120Z 09010KT 9999 -RA NSC 15/11 Q1011 NOSIG=
201509112050 METAR EGLL 112050Z 11008KT 9999 -RA NSC 15/11 Q1012 NOSIG=
201509112020 METAR COR EGLL 112020Z 10008KT 9999 -RA FEW032 15/10 Q1012
                        NOSIG=
201509111950 METAR EGLL 111950Z 10008KT 9999 -RA FEW032 16/10 Q1012 NOSIG=
201509111920 METAR COR EGLL 111920Z 12009KT 9999 -RA NSC 17/07 Q1012 NOSIG=
201509111850 METAR EGLL 111850Z 12006KT CAVOK 18/07 Q1012 NOSIG=
201509111820 METAR COR EGLL 111820Z 14009KT CAVOK 18/06 Q1012 NOSIG=
201509111750 METAR COR EGLL 111750Z 13009KT CAVOK 19/07 Q1012 NOSIG=
201509111720 METAR COR EGLL 111720Z 14011KT CAVOK 19/07 Q1012 NOSIG=
201509111650 METAR EGLL 111650Z 13009KT CAVOK 20/07 Q1012 NOSIG=
201509111620 METAR COR EGLL 111620Z 16010KT CAVOK 20/06 Q1012 NOSIG=
201509111550 METAR EGLL 111550Z 16011KT CAVOK 21/06 Q1013 NOSIG=
201509111520 METAR COR EGLL 111520Z 16010KT CAVOK 21/07 Q1013 NOSIG=
201509111450 METAR EGLL 111450Z 15011KT 120V180 CAVOK 21/07 Q1013 NOSIG=
201509111420 METAR COR EGLL 111420Z 16011KT CAVOK 22/07 Q1013 NOSIG=
201509111350 METAR EGLL 111350Z 14011KT 110V170 CAVOK 21/07 Q1013 NOSIG=
201509111320 METAR COR EGLL 111320Z 13010KT CAVOK 21/08 Q1014 NOSIG=
201509111250 METAR EGLL 111250Z 15012KT CAVOK 22/07 Q1014 NOSIG=
201509111220 METAR COR EGLL 111220Z 14010KT 110V180 CAVOK 21/06 Q1014
                        NOSIG=
201509111150 METAR EGLL 111150Z 13013KT CAVOK 21/07 Q1014 NOSIG=
201509111120 METAR COR EGLL 111120Z 11012KT CAVOK 21/08 Q1015 NOSIG=
201509111050 METAR EGLL 111050Z 10011KT CAVOK 20/10 Q1015 NOSIG=
201509111020 METAR COR EGLL 111020Z 10008KT 080V140 9999 FEW040 20/10
                        Q1015 NOSIG=
201509110950 METAR EGLL 110950Z 10009KT CAVOK 19/11 Q1015 NOSIG=
201509110920 METAR COR EGLL 110920Z 10007KT CAVOK 18/11 Q1016 NOSIG=
201509110850 METAR EGLL 110850Z 09009KT CAVOK 17/11 Q1016 NOSIG=
201509110820 METAR COR EGLL 110820Z 09008KT CAVOK 16/11 Q1016 NOSIG=
201509110750 METAR COR EGLL 110750Z 10007KT CAVOK 15/11 Q1016 NOSIG=
201509110720 METAR COR EGLL 110720Z 09007KT CAVOK 14/11 Q1016 NOSIG=
201509110650 METAR EGLL 110650Z VRB02KT 9000 NSC 13/11 Q1016 NOSIG=
201509110620 METAR COR EGLL 110620Z 07004KT 9000 NSC 12/10 Q1016 NOSIG=
201509110550 METAR EGLL 110550Z 07004KT 8000 NSC 10/10 Q1016 NOSIG=
201509110520 METAR COR EGLL 110520Z 07005KT 8000 NSC 11/10 Q1016 NOSIG=
201509110450 METAR COR EGLL 110450Z 06005KT 8000 NSC 11/10 Q1016 NOSIG=
201509110420 METAR COR EGLL 110420Z 06004KT 9000 NSC 11/10 Q1016 NOSIG=
201509110350 METAR EGLL 110350Z 06005KT 9000 NSC 11/10 Q1016 NOSIG=
201509110320 METAR COR EGLL 110320Z 06004KT CAVOK 11/10 Q1016 NOSIG=
201509110250 METAR EGLL 110250Z 06003KT CAVOK 12/11 Q1017 NOSIG=
201509110220 METAR COR EGLL 110220Z 06004KT CAVOK 12/11 Q1017 NOSIG=
201509110150 METAR EGLL 110150Z 07004KT CAVOK 12/11 Q1017 NOSIG=
201509110120 METAR EGLL 110120Z AUTO 07005KT 9999 NCD 12/11 Q1017=
201509110050 METAR EGLL 110050Z AUTO 07005KT 9999 NCD 13/11 Q1018=
201509110020 METAR EGLL 110020Z AUTO 06005KT 9999 NCD 13/11 Q1018=
201509102350 METAR EGLL 102350Z 07005KT CAVOK 13/11 Q1018 NOSIG=
201509102320 METAR COR EGLL 102320Z 07005KT CAVOK 13/11 Q1018 NOSIG=
201509102250 METAR EGLL 102250Z 07005KT CAVOK 14/11 Q1019 NOSIG=
201509102220 METAR COR EGLL 102220Z 06006KT CAVOK 14/11 Q1019 NOSIG=
201509102150 METAR COR EGLL 102150Z 07005KT CAVOK 15/11 Q1019 NOSIG=
201509102120 METAR COR EGLL 102120Z 07006KT CAVOK 15/12 Q1019 NOSIG=
201509102050 METAR EGLL 102050Z 07006KT CAVOK 16/11 Q1019 NOSIG=
201509102020 METAR COR EGLL 102020Z 08008KT CAVOK 16/11 Q1019 NOSIG=
201509101950 METAR EGLL 101950Z 09009KT CAVOK 15/11 Q1019 NOSIG=
201509101920 METAR COR EGLL 101920Z 09009KT CAVOK 16/11 Q1019 NOSIG=
201509101850 METAR EGLL 101850Z 10010KT 9999 FEW024 16/10 Q1019 NOSIG=
201509101820 METAR COR EGLL 101820Z 09010KT 9999 FEW024 16/10 Q1019 NOSIG=
201509101750 METAR EGLL 101750Z 10011KT 9999 FEW040 17/10 Q1019 NOSIG=
201509101720 METAR COR EGLL 101720Z 10012KT 9999 FEW040 18/08 Q1019 NOSIG=
201509101650 METAR COR EGLL 101650Z 10013KT CAVOK 19/06 Q1019 NOSIG=
201509101620 METAR COR EGLL 101620Z 09012KT CAVOK 19/06 Q1019 NOSIG=
201509101550 METAR EGLL 101550Z 10012KT CAVOK 20/06 Q1019 NOSIG=
201509101520 METAR COR EGLL 101520Z 08013KT CAVOK 20/07 Q1020 NOSIG=
201509101450 METAR COR EGLL 101450Z 08010KT 050V110 9999 FEW044 20/09
                        Q1020 NOSIG=
201509101420 METAR COR EGLL 101420Z 11010KT 9999 FEW040 20/10 Q1020 NOSIG=
201509101350 METAR EGLL 101350Z 10009KT 070V140 9999 FEW041 21/11 Q1020
                        NOSIG=
201509101320 METAR COR EGLL 101320Z 11010KT CAVOK 21/10 Q1020 NOSIG=
201509101250 METAR EGLL 101250Z 07009KT CAVOK 21/08 Q1020 NOSIG=
201509101220 METAR COR EGLL 101220Z 09012KT 050V110 9999 FEW048 20/08
                        Q1020 NOSIG=
201509101150 METAR EGLL 101150Z 09013KT 9999 FEW042 20/08 Q1020 NOSIG=
201509101120 METAR COR EGLL 101120Z 10015KT 9999 FEW039 19/09 Q1021 NOSIG=
201509101050 METAR EGLL 101050Z 10010KT 050V130 9999 FEW032 19/11 Q1021
                        NOSIG=
201509101020 METAR COR EGLL 101020Z 09012KT 060V120 9999 FEW038 19/11
                        Q1021 NOSIG=
201509100950 METAR COR EGLL 100950Z 10012KT 9999 FEW028 19/12 Q1022 NOSIG=
201509100920 METAR COR EGLL 100920Z 08007KT CAVOK 18/12 Q1022 NOSIG=
201509100850 METAR EGLL 100850Z 09008KT CAVOK 17/13 Q1022 NOSIG=
201509100820 METAR COR EGLL 100820Z 08006KT CAVOK 16/13 Q1021 NOSIG=
201509100750 METAR EGLL 100750Z 07007KT 8000 NSC 15/13 Q1021 NOSIG=
201509100720 METAR COR EGLL 100720Z 07006KT 7000 NSC 14/12 Q1021 NOSIG=
201509100650 METAR EGLL 100650Z 07005KT 6000 NSC 13/12 Q1021 NOSIG=
201509100620 METAR COR EGLL 100620Z 05004KT 6000 NSC 12/11 Q1021 NOSIG=
201509100550 METAR EGLL 100550Z 06005KT 6000 NSC 12/11 Q1021 NOSIG=
201509100520 METAR COR EGLL 100520Z 06006KT 6000 NSC 12/11 Q1021 NOSIG=
201509100450 METAR COR EGLL 100450Z 06006KT 7000 NSC 12/11 Q1021 NOSIG=
201509100420 METAR COR EGLL 100420Z 05004KT 7000 NSC 12/11 Q1021 NOSIG=
201509100350 METAR EGLL 100350Z 05004KT 8000 NSC 12/11 Q1021 NOSIG=
201509100320 METAR COR EGLL 100320Z 06006KT CAVOK 12/11 Q1021 NOSIG=
201509100250 METAR COR EGLL 100250Z 06006KT CAVOK 12/11 Q1021 NOSIG=
201509100220 METAR COR EGLL 100220Z 05005KT CAVOK 12/11 Q1021 NOSIG=
201509100150 METAR EGLL 100150Z 05005KT CAVOK 13/11 Q1021 NOSIG=
201509100120 METAR EGLL 100120Z AUTO 06005KT 9999 NCD 12/11 Q1021=
201509100050 METAR EGLL 100050Z AUTO 06005KT 9999 NCD 12/11 Q1021=
201509100020 METAR EGLL 100020Z AUTO 06007KT 9999 NCD 13/11 Q1022=
201509092350 METAR COR EGLL 092350Z 06006KT CAVOK 13/11 Q1022 NOSIG=
201509092320 METAR COR EGLL 092320Z 06006KT CAVOK 13/12 Q1022 NOSIG=
201509092250 METAR COR EGLL 092250Z 06006KT CAVOK 14/12 Q1022 NOSIG=
201509092220 METAR COR EGLL 092220Z 06007KT CAVOK 14/12 Q1022 NOSIG=
201509092150 METAR COR EGLL 092150Z 06007KT CAVOK 14/12 Q1022 NOSIG=
201509092120 METAR COR EGLL 092120Z 07006KT CAVOK 14/11 Q1022 NOSIG=
201509092050 METAR COR EGLL 092050Z 07006KT CAVOK 15/11 Q1022 NOSIG=
201509092020 METAR COR EGLL 092020Z 07006KT CAVOK 15/10 Q1022 NOSIG=
201509091950 METAR COR EGLL 091950Z 07006KT CAVOK 15/10 Q1022 NOSIG=
201509091920 METAR COR EGLL 091920Z 08005KT 9999 SCT044 15/10 Q1022 NOSIG=
201509091850 METAR COR EGLL 091850Z 10008KT 9999 BKN044 16/09 Q1021 NOSIG=
201509091820 METAR COR EGLL 091820Z 09011KT 9999 SCT044 17/09 Q1021 NOSIG=
201509091750 METAR EGLL 091750Z 10010KT 9999 BKN046 17/08 Q1021 NOSIG=
201509091720 METAR COR EGLL 091720Z 09011KT 9999 BKN045 17/08 Q1021 NOSIG=
201509091650 METAR EGLL 091650Z 09011KT 9999 BKN047 18/09 Q1021 NOSIG=
201509091620 METAR COR EGLL 091620Z 10011KT 9999 SCT047 18/09 Q1021 NOSIG=
201509091550 METAR COR EGLL 091550Z 08012KT 9999 SCT045 19/10 Q1021 NOSIG=
201509091520 METAR COR EGLL 091520Z 09012KT 9999 SCT042 18/10 Q1021 NOSIG=
201509091450 METAR EGLL 091450Z 09011KT 9999 SCT043 18/10 Q1021 NOSIG=
201509091420 METAR COR EGLL 091420Z 10011KT 9999 SCT043 19/10 Q1022 NOSIG=
201509091350 METAR COR EGLL 091350Z 10009KT 070V140 9999 SCT043 18/09
                        Q1022 NOSIG=
201509091320 METAR COR EGLL 091320Z 10010KT 9999 SCT039 18/09 Q1022 NOSIG=
201509091250 METAR COR EGLL 091250Z 11012KT 9999 FEW032 SCT040 17/10 Q1022
                        NOSIG=
201509091220 METAR COR EGLL 091220Z 09008KT 040V130 9999 SCT035 18/11
                        Q1022 NOSIG=
201509091150 METAR COR EGLL 091150Z 07008KT 9999 SCT025 BKN042 17/12 Q1022
                        NOSIG=
201509091120 METAR COR EGLL 091120Z 07007KT 040V100 9999 SCT022 17/12
                        Q1023 NOSIG=
201509091050 METAR EGLL 091050Z 08006KT 9999 FEW016 BKN049 16/12 Q1023
                        NOSIG=
201509091020 METAR COR EGLL 091020Z 06007KT 030V090 9999 BKN048 15/12
                        Q1023 NOSIG=
201509090950 METAR EGLL 090950Z 05005KT 9999 SCT035 14/12 Q1023 NOSIG=
201509090920 METAR COR EGLL 090920Z 04004KT 9999 SCT019 BKN035 13/12 Q1024
                        RERA REDZ NOSIG=
201509090850 METAR EGLL 090850Z 10006KT 5000 RADZ SCT012 BKN024 13/11
                        Q1024 BECMG NSW=
201509090820 METAR COR EGLL 090820Z 07007KT 9999 VCSH FEW024 BKN035 14/11
                        Q1024 NOSIG=
201509090750 METAR EGLL 090750Z 06006KT 9999 BKN045 14/11 Q1024 NOSIG=
201509090720 METAR COR EGLL 090720Z 05005KT 9999 BKN046 13/11 Q1023 NOSIG=
201509090650 METAR EGLL 090650Z 05006KT 9999 BKN046 13/11 Q1023 NOSIG=
201509090620 METAR COR EGLL 090620Z 04006KT 360V070 9999 SCT046 13/11
                        Q1023 NOSIG=
201509090550 METAR EGLL 090550Z 05006KT 9999 SCT043 13/11 Q1023 NOSIG=
201509090520 METAR COR EGLL 090520Z 06007KT 9999 BKN038 13/11 Q1023 NOSIG=
201509090450 METAR EGLL 090450Z 06007KT 9999 BKN045 13/10 Q1023 NOSIG=
201509090420 METAR COR EGLL 090420Z 06006KT 9999 BKN039 13/10 Q1023 NOSIG=
201509090350 METAR EGLL 090350Z 06007KT 9999 BKN038 13/10 Q1023 NOSIG=
201509090320 METAR COR EGLL 090320Z 05009KT 9999 BKN043 13/10 Q1023 NOSIG=
201509090250 METAR EGLL 090250Z 06006KT 9999 FEW027 BKN036 13/10 Q1024
                        NOSIG=
201509090220 METAR COR EGLL 090220Z 06005KT 9999 BKN035 13/10 Q1024 NOSIG=
201509090150 METAR EGLL 090150Z 06007KT 9999 SCT032 13/10 Q1024 NOSIG=
201509090120 METAR EGLL 090120Z AUTO 05005KT 9999 NCD 13/10 Q1024=
201509090050 METAR EGLL 090050Z AUTO 04005KT 9999 NCD 13/10 Q1024=
201509090020 METAR EGLL 090020Z AUTO 05006KT 9999 NCD 13/10 Q1024=
201509082350 METAR EGLL 082350Z 04005KT 9999 FEW030 14/11 Q1025 NOSIG=
201509082320 METAR COR EGLL 082320Z 05004KT 9999 FEW024 BKN031 14/11 Q1025
                        NOSIG=
201509082250 METAR EGLL 082250Z 05004KT 9999 FEW022 BKN032 14/11 Q1025
                        NOSIG=
201509082220 METAR COR EGLL 082220Z 06005KT 9999 FEW022 BKN034 14/10 Q1025
                        NOSIG=
201509082150 METAR EGLL 082150Z 06006KT 9999 FEW022 BKN031 15/10 Q1025
                        NOSIG=
201509082120 METAR COR EGLL 082120Z 06007KT 9999 BKN033 15/10 Q1025 NOSIG=
201509082050 METAR COR EGLL 082050Z 06005KT 9999 BKN033 15/09 Q1025 NOSIG=
201509082020 METAR COR EGLL 082020Z 07004KT 9999 BKN033 15/08 Q1025 NOSIG=
201509081950 METAR EGLL 081950Z 07005KT 9999 BKN032 15/09 Q1026 NOSIG=
201509081920 METAR COR EGLL 081920Z 07006KT 9999 BKN033 15/09 Q1025 NOSIG=
201509081850 METAR EGLL 081850Z 09005KT 050V120 9999 BKN033 15/09 Q1025
                        NOSIG=
201509081820 METAR COR EGLL 081820Z 07005KT 9999 BKN034 15/09 Q1025 NOSIG=
201509081750 METAR EGLL 081750Z 09006KT 9999 BKN034 16/08 Q1025 NOSIG=
201509081720 METAR COR EGLL 081720Z 07006KT 9999 BKN033 16/08 Q1026 NOSIG=
201509081650 METAR COR EGLL 081650Z 10007KT 040V130 9999 FEW033 16/09
                        Q1026 NOSIG=
201509081620 METAR COR EGLL 081620Z 06006KT 360V090 9999 SCT031 16/09
                        Q1026 NOSIG=
201509081550 METAR COR EGLL 081550Z 07006KT 030V110 9999 BKN030 16/09
                        Q1026 NOSIG=
201509081520 METAR COR EGLL 081520Z 05006KT 010V090 9999 BKN031 16/09
                        Q1027 NOSIG=
201509081450 METAR EGLL 081450Z 05007KT 020V090 9999 BKN029 16/09 Q1027=
201509081420 METAR COR EGLL 081420Z 06007KT 9999 BKN026 16/10 Q1027 NOSIG=
201509081350 METAR COR EGLL 081350Z 05006KT 360V100 9999 BKN024 16/10
                        Q1027 NOSIG=
201509081320 METAR COR EGLL 081320Z 07007KT 030V090 9999 BKN024 16/10
                        Q1028 NOSIG=
201509081250 METAR EGLL 081250Z 04006KT 360V080 9999 BKN026 16/10 Q1028
                        NOSIG=
201509081220 METAR COR EGLL 081220Z 06005KT 010V120 9999 BKN022 16/10
                        Q1028 NOSIG=
201509081150 METAR COR EGLL 081150Z 10005KT 9999 BKN022 15/10 Q1028 NOSIG=
201509081120 METAR COR EGLL 081120Z 07005KT 010V100 9999 BKN020 14/10
                        Q1028 NOSIG=
201509081050 METAR COR EGLL 081050Z 06005KT 020V090 9999 BKN020 14/10
                        Q1029 NOSIG=
201509081020 METAR COR EGLL 081020Z 05004KT 010V100 9999 BKN020 14/10
                        Q1029 NOSIG=
201509080950 METAR EGLL 080950Z 07005KT 9999 SCT015 BKN018 13/10 Q1029
                        NOSIG=
201509080920 METAR COR EGLL 080920Z 06006KT 020V090 9999 SCT013 BKN017
                        13/10 Q1029 NOSIG=
201509080850 METAR COR EGLL 080850Z 03005KT 350V070 9999 SCT013 BKN017
                        13/10 Q1029 NOSIG=
201509080820 METAR COR EGLL 080820Z 03005KT 9999 SCT013 BKN017 13/10 Q1029
                        NOSIG=
201509080750 METAR EGLL 080750Z 05005KT 020V080 9999 SCT011 BKN016 12/10
                        Q1029 NOSIG=
201509080720 METAR COR EGLL 080720Z 04004KT 360V080 9999 SCT011 BKN015
                        12/10 Q1029 TEMPO BKN014=
201509080650 METAR EGLL 080650Z 04006KT 360V070 9999 SCT011 BKN015 12/10
                        Q1029 TEMPO BKN014=
201509080620 METAR COR EGLL 080620Z 03004KT 350V070 9999 FEW012 BKN016
                        12/10 Q1029 TEMPO BKN014=
201509080550 METAR EGLL 080550Z VRB03KT 9999 BKN016 12/09 Q1029 TEMPO
                        BKN014=
201509080520 METAR COR EGLL 080520Z 05004KT 010V070 9999 FEW013 OVC017
                        12/09 Q1029 TEMPO BKN014=
201509080450 METAR COR EGLL 080450Z VRB03KT 9999 BKN016 12/09 Q1029 TEMPO
                        BKN014=
201509080420 METAR COR EGLL 080420Z 04005KT 9999 BKN015 12/09 Q1029 TEMPO
                        BKN014=
201509080350 METAR EGLL 080350Z 05004KT 010V090 9999 OVC014 12/09 Q1029
                        TEMPO SCT014 BKN016=
201509080320 METAR COR EGLL 080320Z 05004KT 020V080 9999 OVC014 12/09
                        Q1030 TEMPO SCT014 BKN016=
201509080250 METAR EGLL 080250Z 03004KT 350V070 9999 OVC014 12/09 Q1030
                        TEMPO SCT014 BKN016=
201509080220 METAR COR EGLL 080220Z VRB02KT 9999 OVC016 11/09 Q1030 TEMPO
                        BKN014=
201509080150 METAR EGLL 080150Z 01003KT 9999 BKN016 11/09 Q1030 TEMPO
                        BKN014=
201509080120 METAR EGLL 080120Z AUTO 01003KT 9999 NCD 10/08 Q1030=
201509080050 METAR EGLL 080050Z AUTO 01003KT 9999 NCD 11/08 Q1030=
201509080020 METAR EGLL 080020Z AUTO 01002KT 9999 NCD 11/09 Q1031=
201509072350 METAR COR EGLL 072350Z 00000KT CAVOK 11/08 Q1031 NOSIG=
201509072320 METAR COR EGLL 072320Z 09002KT CAVOK 11/08 Q1031 NOSIG=
201509072250 METAR EGLL 072250Z 07003KT CAVOK 12/09 Q1031 NOSIG=
201509072220 METAR COR EGLL 072220Z 06004KT CAVOK 12/09 Q1031 NOSIG=
201509072150 METAR EGLL 072150Z 05004KT CAVOK 13/09 Q1031 NOSIG=
201509072120 METAR COR EGLL 072120Z 04005KT CAVOK 14/10 Q1031 NOSIG=
201509072050 METAR COR EGLL 072050Z 06005KT CAVOK 14/10 Q1031 NOSIG=
201509072020 METAR COR EGLL 072020Z VRB03KT CAVOK 14/10 Q1031 NOSIG=
201509071950 METAR EGLL 071950Z 36003KT CAVOK 14/10 Q1031 NOSIG=
201509071920 METAR COR EGLL 071920Z 36004KT CAVOK 14/10 Q1031 NOSIG=
201509071850 METAR COR EGLL 071850Z 35004KT CAVOK 15/10 Q1031 NOSIG=
201509071820 METAR COR EGLL 071820Z 01005KT 330V050 9999 FEW030 15/10
                        Q1031 NOSIG=
201509071750 METAR EGLL 071750Z 02005KT 330V050 9999 FEW029 16/10 Q1030
                        NOSIG=
201509071720 METAR COR EGLL 071720Z 04004KT 350V080 9999 FEW028 16/10
                        Q1030 NOSIG=
201509071650 METAR COR EGLL 071650Z 04006KT 340V070 9999 BKN025 16/10
                        Q1030 NOSIG=
201509071620 METAR COR EGLL 071620Z 04008KT 9999 BKN025 16/10 Q1031 NOSIG=
201509071550 METAR EGLL 071550Z 05008KT 010V080 9999 SCT028 16/10 Q1031
                        NOSIG=
201509071520 METAR COR EGLL 071520Z 05009KT 010V080 9999 SCT030 18/11
                        Q1031 NOSIG=
201509071450 METAR COR EGLL 071450Z 04010KT 010V070 9999 SCT033 18/11
                        Q1031 NOSIG=
201509071420 METAR COR EGLL 071420Z 02007KT 330V080 9999 SCT034 19/10
                        Q1031 NOSIG=
201509071350 METAR COR EGLL 071350Z 02006KT 330V060 9999 SCT034 18/10
                        Q1031 NOSIG=
201509071320 METAR COR EGLL 071320Z 04008KT 010V080 9999 SCT033 18/10
                        Q1031 NOSIG=
201509071250 METAR EGLL 071250Z 36008KT 330V050 9999 FEW030 19/10 Q1031
                        NOSIG=
201509071220 METAR COR EGLL 071220Z 04007KT 350V090 9999 FEW030 19/11
                        Q1031 NOSIG=
201509071150 METAR COR EGLL 071150Z 02006KT 330V070 9999 FEW030 18/11
                        Q1031 NOSIG=
201509071120 METAR COR EGLL 071120Z 04005KT 320V090 9999 FEW028 18/11
                        Q1031 NOSIG=
201509071050 METAR COR EGLL 071050Z 36005KT 300V070 9999 FEW028 17/10
                        Q1031 NOSIG=
201509071020 METAR COR EGLL 071020Z 04005KT 320V090 CAVOK 17/10 Q1031
                        NOSIG=
201509070950 METAR COR EGLL 070950Z 03004KT 310V080 CAVOK 16/10 Q1031
                        NOSIG=
201509070920 METAR COR EGLL 070920Z 03004KT 310V080 CAVOK 15/10 Q1031
                        NOSIG=
201509070850 METAR COR EGLL 070850Z VRB03KT CAVOK 14/10 Q1031 NOSIG=
201509070820 METAR COR EGLL 070820Z 36005KT CAVOK 14/10 Q1031 NOSIG=
201509070750 METAR COR EGLL 070750Z 02004KT 330V050 CAVOK 12/09 Q1031
                        NOSIG=
201509070720 METAR EGLL 070720Z AUTO VRB03KT 9999 NCD 11/09 Q1030=
201509070650 METAR EGLL 070650Z AUTO VRB02KT 9999 NCD 11/08 Q1030=
201509070620 METAR EGLL 070620Z AUTO 29003KT 9999 NCD 10/08 Q1030=
201509070550 METAR EGLL 070550Z AUTO 00000KT 9999 NCD 09/08 Q1030=
201509070520 METAR COR EGLL 070520Z 31002KT CAVOK 09/08 Q1029 NOSIG=
201509070450 METAR COR EGLL 070450Z 28003KT CAVOK 08/07 Q1029 NOSIG=
201509070420 METAR COR EGLL 070420Z 28003KT CAVOK 09/08 Q1029 NOSIG=
201509070350 METAR EGLL 070350Z 30003KT CAVOK 09/08 Q1029 NOSIG=
201509070320 METAR COR EGLL 070320Z 31004KT CAVOK 10/08 Q1029 NOSIG=
201509070250 METAR COR EGLL 070250Z 29005KT CAVOK 10/08 Q1029 NOSIG=
201509070220 METAR COR EGLL 070220Z 30004KT CAVOK 10/08 Q1029 NOSIG=
201509070150 METAR COR EGLL 070150Z 29004KT CAVOK 11/08 Q1030 NOSIG=
201509070120 METAR EGLL 070120Z AUTO 29004KT 9999 NCD 10/08 Q1030=
201509070050 METAR EGLL 070050Z AUTO 29004KT 9999 NCD 11/08 Q1030=
201509070020 METAR EGLL 070020Z AUTO 28004KT 9999 NCD 11/08 Q1030=
201509062350 METAR COR EGLL 062350Z 29003KT CAVOK 11/08 Q1030 NOSIG=
201509062320 METAR COR EGLL 062320Z VRB03KT CAVOK 12/08 Q1030 NOSIG=
201509062250 METAR EGLL 062250Z VRB03KT CAVOK 12/08 Q1030 NOSIG=
201509062220 METAR COR EGLL 062220Z VRB03KT CAVOK 13/09 Q1030 NOSIG=
201509062150 METAR EGLL 062150Z VRB03KT CAVOK 14/09 Q1029 NOSIG=
201509062120 METAR COR EGLL 062120Z 33004KT 300V010 CAVOK 15/08 Q1029
                        NOSIG=
201509062050 METAR EGLL 062050Z 30003KT CAVOK 16/08 Q1029 NOSIG=
201509062020 METAR COR EGLL 062020Z 29003KT CAVOK 16/08 Q1029 NOSIG=
201509061950 METAR EGLL 061950Z 31003KT CAVOK 17/08 Q1029 NOSIG=
201509061920 METAR COR EGLL 061920Z 30003KT CAVOK 17/07 Q1029 NOSIG=
201509061850 METAR COR EGLL 061850Z 31003KT CAVOK 18/07 Q1028 NOSIG=
201509061820 METAR COR EGLL 061820Z VRB03KT CAVOK 18/07 Q1028 NOSIG=
201509061750 METAR COR EGLL 061750Z 31005KT CAVOK 18/07 Q1028 NOSIG=
201509061720 METAR COR EGLL 061720Z 31006KT CAVOK 19/06 Q1028 NOSIG=
201509061650 METAR EGLL 061650Z 32007KT 280V010 CAVOK 19/06 Q1028 NOSIG=
201509061620 METAR COR EGLL 061620Z 31005KT 270V360 CAVOK 19/07 Q1028
                        NOSIG=
201509061550 METAR COR EGLL 061550Z 29006KT 250V330 CAVOK 19/06 Q1028
                        NOSIG=
201509061520 METAR COR EGLL 061520Z 31006KT 270V350 CAVOK 19/06 Q1028
                        NOSIG=
201509061450 METAR COR EGLL 061450Z 31007KT 270V360 CAVOK 19/05 Q1028
                        NOSIG=
201509061420 METAR EGLL 061420Z 31007KT 270V020 9999 FEW048 19/06 Q1029=
201509061350 METAR EGLL 061350Z 32006KT 290V360 9999 FEW047 19/07 Q1029
                        NOSIG=
201509061320 METAR COR EGLL 061320Z 30007KT 270V360 9999 FEW046 18/07
                        Q1029 NOSIG=
201509061250 METAR EGLL 061250Z 30007KT 270V020 9999 FEW048 18/07 Q1029
                        NOSIG=
201509061220 METAR COR EGLL 061220Z 29007KT 250V030 9999 FEW048 18/07
                        Q1029 NOSIG=
201509061150 METAR EGLL 061150Z 30007KT 270V350 9999 FEW043 17/07 Q1029
                        NOSIG=
201509061120 METAR COR EGLL 061120Z 34006KT 260V030 9999 SCT037 17/08
                        Q1029 NOSIG=
201509061050 METAR EGLL 061050Z 30005KT 270V360 9999 FEW027 SCT033 16/08
                        Q1029 NOSIG=
201509061020 METAR COR EGLL 061020Z 27006KT 240V310 9999 FEW024 SCT028
                        15/09 Q1029 NOSIG=
201509060950 METAR EGLL 060950Z 27006KT 220V320 9999 FEW024 15/09 Q1029
                        NOSIG=
201509060920 METAR COR EGLL 060920Z 26006KT 230V300 CAVOK 14/08 Q1029
                        NOSIG=
201509060850 METAR COR EGLL 060850Z 28004KT 250V320 CAVOK 12/08 Q1029
                        NOSIG=
201509060820 METAR COR EGLL 060820Z 29004KT 250V320 CAVOK 11/07 Q1029
                        NOSIG=
201509060750 METAR COR EGLL 060750Z 31004KT CAVOK 10/07 Q1029 NOSIG=
201509060720 METAR COR EGLL 060720Z 28004KT CAVOK 09/07 Q1029 NOSIG=
201509060650 METAR EGLL 060650Z 29003KT CAVOK 08/06 Q1028 NOSIG=
201509060620 METAR COR EGLL 060620Z 27005KT CAVOK 07/06 Q1028 NOSIG=
201509060550 METAR COR EGLL 060550Z 28006KT CAVOK 07/06 Q1028 NOSIG=
201509060520 METAR COR EGLL 060520Z 29003KT CAVOK 06/05 Q1028 NOSIG=
201509060450 METAR COR EGLL 060450Z 29003KT CAVOK 06/05 Q1028 NOSIG=
201509060420 METAR COR EGLL 060420Z 30003KT CAVOK 06/05 Q1028 NOSIG=
201509060350 METAR COR EGLL 060350Z 30004KT CAVOK 07/05 Q1027 NOSIG=
201509060320 METAR COR EGLL 060320Z 31002KT CAVOK 07/05 Q1027 NOSIG=
201509060250 METAR COR EGLL 060250Z VRB02KT CAVOK 07/05 Q1027 NOSIG=
201509060220 METAR COR EGLL 060220Z 31003KT CAVOK 07/05 Q1027 NOSIG=
201509060150 METAR EGLL 060150Z 30002KT CAVOK 07/05 Q1027 NOSIG=
201509060120 METAR EGLL 060120Z AUTO 30003KT 9999 NCD 07/05 Q1027=
201509060050 METAR EGLL 060050Z AUTO 31003KT 9999 NCD 08/06 Q1027=
201509060020 METAR EGLL 060020Z AUTO 27004KT 260V360 9999 NCD 07/05 Q1027=
201509052350 METAR EGLL 052350Z 00000KT CAVOK 08/06 Q1027 NOSIG=
201509052320 METAR COR EGLL 052320Z 35002KT CAVOK 10/07 Q1027 NOSIG=
201509052250 METAR EGLL 052250Z 35002KT CAVOK 10/06 Q1026 NOSIG=
201509052220 METAR COR EGLL 052220Z VRB02KT CAVOK 11/07 Q1026 NOSIG=
201509052150 METAR EGLL 052150Z VRB02KT CAVOK 12/07 Q1026 NOSIG=
201509052120 METAR COR EGLL 052120Z 00000KT CAVOK 12/07 Q1026 NOSIG=
201509052050 METAR COR EGLL 052050Z 01003KT CAVOK 13/07 Q1026 NOSIG=
201509052020 METAR COR EGLL 052020Z VRB03KT CAVOK 13/07 Q1026 NOSIG=
201509051950 METAR EGLL 051950Z VRB03KT CAVOK 13/06 Q1025 NOSIG=
201509051920 METAR COR EGLL 051920Z 35004KT CAVOK 13/06 Q1025 NOSIG=
201509051850 METAR COR EGLL 051850Z 02004KT 340V060 9999 FEW040 14/06
                        Q1024 NOSIG=
201509051820 METAR COR EGLL 051820Z 01005KT 330V040 CAVOK 15/06 Q1024
                        NOSIG=
201509051750 METAR EGLL 051750Z 02004KT 340V060 CAVOK 15/06 Q1024 NOSIG=
201509051720 METAR COR EGLL 051720Z 01007KT 340V040 9999 FEW040 15/06
                        Q1024 NOSIG=
201509051650 METAR EGLL 051650Z 02005KT 340V050 9999 FEW048 16/06 Q1023
                        NOSIG=
201509051620 METAR COR EGLL 051620Z 03005KT 330V060 9999 SCT043 15/06
                        Q1023 NOSIG=
201509051550 METAR EGLL 051550Z 01007KT 330V050 9999 BKN036 16/07 Q1023
                        NOSIG=
201509051520 METAR COR EGLL 051520Z 33008KT 300V010 9999 SCT035 16/08
                        Q1023 NOSIG=
201509051450 METAR COR EGLL 051450Z 34005KT 260V030 9999 SCT039 15/08
                        Q1023 NOSIG=
201509051420 METAR COR EGLL 051420Z 35005KT 300V020 9999 SCT028 SCT044
                        15/08 Q1023 NOSIG=
201509051350 METAR EGLL 051350Z 34006KT 300V020 9999 BKN030 BKN038 14/08
                        Q1023 NOSIG=
201509051320 METAR COR EGLL 051320Z 36008KT 310V030 9999 SCT025 BKN034
                        15/09 Q1023 NOSIG=
201509051250 METAR COR EGLL 051250Z 36007KT 330V030 9999 SCT028 SCT038
                        15/09 Q1023 NOSIG=
201509051220 METAR COR EGLL 051220Z 02007KT 340V060 9999 SCT024 SCT035
                        15/09 Q1023 NOSIG=
201509051150 METAR EGLL 051150Z 35006KT 9999 SCT022 SCT033 14/09 Q1022
                        NOSIG=
201509051120 METAR COR EGLL 051120Z 02006KT 350V060 9999 BKN020 14/09
                        Q1022 NOSIG=
201509051050 METAR COR EGLL 051050Z 01007KT 330V040 9999 BKN017 13/10
                        Q1022 NOSIG=
201509051020 METAR COR EGLL 051020Z 02007KT 340V050 9999 SCT015 SCT022
                        14/10 Q1021 NOSIG=
201509050950 METAR EGLL 050950Z 03007KT 360V090 9999 SCT013 SCT022 14/10
                        Q1021 NOSIG=
201509050920 METAR COR EGLL 050920Z 02007KT 330V060 9999 SCT013 SCT020
                        13/10 Q1020 NOSIG=
201509050850 METAR EGLL 050850Z 36007KT 330V030 9999 BKN013 14/11 Q1020
                        BECMG SCT020=
201509050820 METAR COR EGLL 050820Z 33006KT 290V360 9999 BKN014 13/11
                        Q1020 BECMG SCT020=
201509050750 METAR COR EGLL 050750Z 31005KT 9999 FEW008 BKN015 13/11 Q1019
                        TEMPO BKN008=
201509050720 METAR COR EGLL 050720Z 29006KT 9999 FEW008 BKN036 13/11 Q1019
                        TEMPO 4000 RADZ BKN008=
201509050650 METAR EGLL 050650Z 28006KT 9999 FEW008 SCT032 12/11 Q1019
                        TEMPO BKN008=
201509050620 METAR COR EGLL 050620Z 28006KT 9999 FEW008 SCT040 12/11 Q1019
                        TEMPO BKN008=
201509050550 METAR EGLL 050550Z 27007KT 9999 FEW010 SCT016 BKN045 11/11
                        Q1019 TEMPO BKN012=
201509050520 METAR COR EGLL 050520Z 26006KT 8000 FEW010 SCT016 BKN030
                        11/10 Q1018 TEMPO BKN012=
201509050450 METAR COR EGLL 050450Z 28006KT 8000 -DZ BKN015 11/10 Q1018
                        TEMPO BKN012=
201509050420 METAR COR EGLL 050420Z 29006KT 9999 SCT015 BKN025 11/09 Q1018
                        BECMG BKN012=
201509050350 METAR EGLL 050350Z 29006KT 9999 SCT033 10/08 Q1018 BECMG
                        -RADZ BKN014=
201509050320 METAR COR EGLL 050320Z 28005KT 9999 FEW020 10/08 Q1018 TEMPO
                        BKN014=
201509050250 METAR COR EGLL 050250Z 27005KT 9999 SCT026 09/07 Q1018 TEMPO
                        BKN014=
201509050220 METAR COR EGLL 050220Z 27005KT CAVOK 09/07 Q1018 TEMPO BKN014=
201509050150 METAR EGLL 050150Z 29005KT CAVOK 09/07 Q1019 NOSIG=
201509050120 METAR EGLL 050120Z AUTO 29005KT 9999 NCD 09/07 Q1019=
201509050050 METAR EGLL 050050Z AUTO 28005KT 9999 FEW039 10/08 Q1019=
201509050020 METAR EGLL 050020Z AUTO 27006KT 9999 NCD 10/08 Q1019=
201509042350 METAR COR EGLL 042350Z 27005KT 9999 BKN046 12/08 Q1019 NOSIG=
201509042320 METAR COR EGLL 042320Z 29005KT 9999 BKN034 BKN048 12/08 Q1019
                        NOSIG=
201509042250 METAR COR EGLL 042250Z 29004KT 9999 SCT035 13/08 Q1019 NOSIG=
201509042220 METAR COR EGLL 042220Z 31003KT 9999 FEW035 13/07 Q1019 NOSIG=
201509042150 METAR COR EGLL 042150Z 30003KT CAVOK 14/06 Q1019 NOSIG=
201509042120 METAR COR EGLL 042120Z 30003KT CAVOK 14/06 Q1019 NOSIG=
201509042050 METAR COR EGLL 042050Z 31003KT CAVOK 14/07 Q1019 NOSIG=
201509042020 METAR COR EGLL 042020Z 30003KT CAVOK 15/07 Q1019 NOSIG=
201509041950 METAR COR EGLL 041950Z VRB03KT 9999 FEW049 15/07 Q1019 NOSIG=
201509041920 METAR COR EGLL 041920Z VRB03KT 9999 SCT049 15/07 Q1018 NOSIG=
201509041850 METAR COR EGLL 041850Z 34004KT 310V020 CAVOK 15/07 Q1018
                        NOSIG=
201509041820 METAR COR EGLL 041820Z 34005KT 300V020 CAVOK 15/07 Q1018
                        NOSIG=
201509041750 METAR COR EGLL 041750Z 35005KT 320V020 9999 FEW040 15/07
                        Q1018 NOSIG=
201509041720 METAR COR EGLL 041720Z 35006KT 310V020 9999 FEW042 15/07
                        Q1018 NOSIG=
201509041650 METAR COR EGLL 041650Z 35007KT 310V050 9999 FEW039 16/07
                        Q1018 NOSIG=
201509041620 METAR COR EGLL 041620Z 34007KT 300V010 9999 FEW040 16/07
                        Q1017 NOSIG=
201509041550 METAR EGLL 041550Z 33006KT 300V020 9999 SCT041 16/07 Q1017
                        NOSIG=
201509041520 METAR COR EGLL 041520Z 33006KT 300V010 9999 FEW035 SCT044
                        16/08 Q1017 NOSIG=
201509041450 METAR EGLL 041450Z 35004KT 310V030 9999 BKN029 16/08 Q1018=
201509041420 METAR EGLL 041420Z VRB04KT 9999 FEW033 16/09 Q1018=
201509041350 METAR COR EGLL 041350Z 31004KT 270V340 9999 FEW039 15/08
                        Q1018 NOSIG=
201509041320 METAR COR EGLL 041320Z 32007KT 9999 FEW028 SCT048 15/08 Q1018
                        NOSIG=
201509041250 METAR EGLL 041250Z 31007KT 9999 FEW028 BKN043 15/08 Q1018
                        NOSIG=
201509041220 METAR COR EGLL 041220Z 31008KT 280V340 9999 FEW041 15/08
                        Q1018 NOSIG=
201509041150 METAR COR EGLL 041150Z 31007KT 280V360 9999 FEW030 15/08
                        Q1018 NOSIG=
201509041120 METAR COR EGLL 041120Z 29006KT 260V340 9999 SCT030 16/09
                        Q1018 NOSIG=
201509041050 METAR COR EGLL 041050Z 29007KT 250V320 9999 SCT022 SCT045
                        15/09 Q1018 NOSIG=
201509041020 METAR COR EGLL 041020Z 30006KT 250V330 9999 SCT018 15/10
                        Q1018 NOSIG=
201509040950 METAR EGLL 040950Z 29006KT 270V330 9999 SCT017 15/10 Q1018
                        NOSIG=
201509040920 METAR COR EGLL 040920Z 28007KT 9999 SCT016 14/10 Q1018 NOSIG=
201509040850 METAR COR EGLL 040850Z 28007KT 240V300 9999 FEW016 SCT020
                        14/10 Q1018 NOSIG=
201509040820 METAR COR EGLL 040820Z 29006KT 9999 VCSH FEW012 SCT045 13/10
                        Q1018 NOSIG=
201509040750 METAR EGLL 040750Z 29006KT 260V330 9999 VCSH FEW020 BKN031
                        12/09 Q1018 NOSIG=
201509040720 METAR COR EGLL 040720Z 31005KT 270V330 9999 FEW038 BKN042
                        12/09 Q1018 NOSIG=
201509040650 METAR EGLL 040650Z 30005KT 270V330 9999 FEW042 SCT047 12/09
                        Q1017 NOSIG=
201509040620 METAR COR EGLL 040620Z 30005KT 9999 FEW042 12/09 Q1017 NOSIG=
201509040550 METAR COR EGLL 040550Z 29005KT 9999 FEW047 12/08 Q1017 NOSIG=
201509040520 METAR COR EGLL 040520Z 29005KT 9999 FEW045 12/08 Q1016 NOSIG=
201509040450 METAR COR EGLL 040450Z 29005KT CAVOK 11/08 Q1016 NOSIG=
201509040420 METAR COR EGLL 040420Z 29006KT CAVOK 11/08 Q1016 NOSIG=
201509040350 METAR COR EGLL 040350Z 29007KT 9999 SCT048 11/08 Q1017 NOSIG=
201509040320 METAR COR EGLL 040320Z 29006KT CAVOK 11/08 Q1017 NOSIG=
201509040250 METAR COR EGLL 040250Z 30005KT 9999 FEW040 11/08 Q1017 NOSIG=
201509040220 METAR COR EGLL 040220Z 28006KT CAVOK 10/08 Q1017 NOSIG=
201509040150 METAR EGLL 040150Z 29005KT CAVOK 10/07 Q1017 NOSIG=
201509040120 METAR EGLL 040120Z AUTO 29005KT 9999 NCD 11/07 Q1017=
201509040050 METAR EGLL 040050Z AUTO 29006KT 9999 NCD 12/07 Q1017=
201509040020 METAR EGLL 040020Z AUTO 29005KT 9999 NCD 12/07 Q1017=
201509032350 METAR COR EGLL 032350Z 29006KT CAVOK 12/08 Q1017 NOSIG=
201509032320 METAR COR EGLL 032320Z 29006KT CAVOK 12/08 Q1017 NOSIG=
201509032250 METAR EGLL 032250Z 30005KT CAVOK 12/07 Q1017 NOSIG=
201509032220 METAR COR EGLL 032220Z 30006KT CAVOK 12/07 Q1017 NOSIG=
201509032150 METAR EGLL 032150Z 28004KT CAVOK 13/08 Q1017 NOSIG=
201509032120 METAR COR EGLL 032120Z 27005KT CAVOK 13/07 Q1017 NOSIG=
201509032050 METAR COR EGLL 032050Z 27006KT 9999 SCT044 13/07 Q1017 NOSIG=
201509032020 METAR COR EGLL 032020Z 29005KT 9999 SCT047 13/07 Q1017 NOSIG=
201509031950 METAR EGLL 031950Z VRB03KT 9999 SCT049 13/07 Q1017 NOSIG=
201509031920 METAR COR EGLL 031920Z VRB03KT 9999 FEW049 13/07 Q1016 NOSIG=
201509031850 METAR EGLL 031850Z VRB03KT 9999 FEW047 13/08 Q1016 NOSIG=
201509031820 METAR COR EGLL 031820Z 01005KT 330V040 9999 -SHRA FEW029
                        SCT049 13/09 Q1016 TEMPO SHRA=
201509031750 METAR EGLL 031750Z 36008KT 330V040 9999 SCT025 SCT032 14/08
                        Q1016 NOSIG=
201509031720 METAR COR EGLL 031720Z 28007KT 250V320 9999 FEW038 14/07
                        Q1016 NOSIG=
201509031650 METAR COR EGLL 031650Z 27010KT 9999 FEW040 15/08 Q1015 NOSIG=
201509031620 METAR COR EGLL 031620Z 29007KT 9999 FEW045 15/07 Q1015 NOSIG=
201509031550 METAR EGLL 031550Z 28008KT 240V320 9999 FEW045 16/08 Q1015
                        NOSIG=
201509031520 METAR COR EGLL 031520Z 29006KT 260V340 9999 FEW038 16/08
                        Q1015 NOSIG=
201509031450 METAR COR EGLL 031450Z 30006KT 9999 FEW038 16/08 Q1015 NOSIG=
201509031420 METAR COR EGLL 031420Z 30007KT 9999 FEW042 16/07 Q1015 NOSIG=
201509031350 METAR EGLL 031350Z 31007KT 280V350 9999 FEW038 15/08 Q1015
                        NOSIG=
201509031320 METAR COR EGLL 031320Z 30006KT 260V010 9999 FEW038 15/07
                        Q1015 NOSIG=
201509031250 METAR COR EGLL 031250Z 29005KT 250V320 9999 FEW030 15/07
                        Q1015 NOSIG=
201509031220 METAR COR EGLL 031220Z 32005KT 280V010 9999 FEW035 15/08
                        Q1015 NOSIG=
201509031150 METAR COR EGLL 031150Z 30006KT 280V350 9999 SCT024 SCT030
                        15/09 Q1015 NOSIG=
201509031120 METAR COR EGLL 031120Z 32006KT 300V010 9999 SCT024 SCT030
                        15/09 Q1015 NOSIG=
201509031050 METAR EGLL 031050Z 31007KT 280V340 9999 SCT023 14/09 Q1015
                        NOSIG=
201509031020 METAR COR EGLL 031020Z 30008KT 9999 SCT023 SCT030 14/09 Q1015
                        NOSIG=
201509030950 METAR COR EGLL 030950Z 31006KT 260V010 9999 SCT022 SCT034
                        14/09 Q1016 NOSIG=
201509030920 METAR COR EGLL 030920Z 28008KT 9999 FEW025 13/09 Q1016 NOSIG=
201509030850 METAR COR EGLL 030850Z 29006KT 9999 FEW016 13/08 Q1016 NOSIG=
201509030820 METAR COR EGLL 030820Z 29008KT 9999 FEW016 12/08 Q1016 TEMPO
                        BKN014=
201509030750 METAR EGLL 030750Z 29008KT CAVOK 12/08 Q1016 TEMPO BKN014=
201509030720 METAR COR EGLL 030720Z 27008KT CAVOK 11/09 Q1016 NOSIG=
201509030650 METAR COR EGLL 030650Z 27010KT CAVOK 10/08 Q1016 NOSIG=
201509030620 METAR COR EGLL 030620Z 27007KT CAVOK 10/08 Q1016 NOSIG=
201509030550 METAR EGLL 030550Z 28006KT CAVOK 10/08 Q1016 NOSIG=
201509030520 METAR COR EGLL 030520Z 29005KT CAVOK 10/08 Q1016 NOSIG=
201509030450 METAR COR EGLL 030450Z 28005KT CAVOK 09/08 Q1016 NOSIG=
201509030420 METAR COR EGLL 030420Z 29006KT CAVOK 09/08 Q1016 NOSIG=
201509030350 METAR COR EGLL 030350Z 27007KT CAVOK 10/08 Q1016 NOSIG=
201509030320 METAR COR EGLL 030320Z 26006KT CAVOK 10/08 Q1016 NOSIG=
201509030250 METAR EGLL 030250Z 27006KT CAVOK 10/09 Q1016 NOSIG=
201509030220 METAR COR EGLL 030220Z 29004KT CAVOK 11/09 Q1016 NOSIG=
201509030150 METAR EGLL 030150Z 30004KT CAVOK 12/09 Q1016 NOSIG=
201509030120 METAR EGLL 030120Z AUTO 30005KT 9999 NCD 12/09 Q1017=
201509030050 METAR EGLL 030050Z AUTO 31005KT 9999 NCD 12/09 Q1017=
201509030020 METAR EGLL 030020Z AUTO 30006KT 9999 NCD 13/09 Q1017=
201509022350 METAR COR EGLL 022350Z 30005KT CAVOK 13/09 Q1017 NOSIG=
201509022320 METAR COR EGLL 022320Z 31006KT CAVOK 13/09 Q1017 NOSIG=
201509022250 METAR EGLL 022250Z 31005KT CAVOK 13/10 Q1017 NOSIG=
201509022220 METAR COR EGLL 022220Z 31005KT 9999 FEW030 13/10 Q1017 NOSIG=
201509022150 METAR EGLL 022150Z 31005KT 9999 FEW030 14/10 Q1017 NOSIG=
201509022120 METAR COR EGLL 022120Z 31005KT CAVOK 14/10 Q1017 NOSIG=
201509022050 METAR COR EGLL 022050Z 31004KT 9999 FEW038 14/09 Q1017 NOSIG=
201509022020 METAR COR EGLL 022020Z 32006KT 280V350 9999 FEW033 SCT047
                        15/09 Q1017 NOSIG=
201509021950 METAR EGLL 021950Z 30008KT 270V360 9999 FEW039 15/09 Q1017
                        TEMPO SHRA=
201509021920 METAR COR EGLL 021920Z 28007KT 260V320 9999 SCT034 SCT041
                        16/09 Q1017 TEMPO SHRA=
201509021850 METAR COR EGLL 021850Z VRB02KT 9999 FEW039TCU SCT045 16/08
                        Q1016 TEMPO SHRA=
201509021820 METAR COR EGLL 021820Z 30003KT 9999 FEW039TCU 16/08 Q1016
                        TEMPO SHRA=
201509021750 METAR COR EGLL 021750Z 30004KT 9999 FEW039 16/08 Q1016 TEMPO
                        SHRA=
201509021720 METAR COR EGLL 021720Z 31005KT 290V350 9999 FEW039 16/08
                        Q1016 NOSIG=
201509021650 METAR COR EGLL 021650Z 31005KT 9999 FEW039 17/09 Q1016 NOSIG=
201509021620 METAR COR EGLL 021620Z 31007KT 280V340 9999 FEW039 17/07
                        Q1016 NOSIG=
201509021550 METAR EGLL 021550Z 29008KT 9999 FEW039 18/09 Q1017 NOSIG=
201509021520 METAR COR EGLL 021520Z 32004KT 250V020 9999 FEW040 18/09
                        Q1017 NOSIG=
201509021450 METAR COR EGLL 021450Z 33007KT 280V030 9999 FEW040 18/09
                        Q1017 TEMPO SHRA=
201509021420 METAR COR EGLL 021420Z 30006KT 260V340 9999 FEW038 18/09
                        Q1017 TEMPO SHRA=
201509021350 METAR EGLL 021350Z 32006KT 270V010 9999 FEW032 17/09 Q1017
                        NOSIG=
201509021320 METAR COR EGLL 021320Z 30007KT 270V330 9999 FEW032 17/09
                        Q1017 NOSIG=
201509021250 METAR EGLL 021250Z 32008KT 9999 SCT038 16/09 Q1017 NOSIG=
201509021220 METAR COR EGLL 021220Z 29005KT 250V330 9999 FEW036 18/08
                        Q1017 NOSIG=
201509021150 METAR COR EGLL 021150Z 31006KT 270V020 9999 FEW030 17/09
                        Q1018 NOSIG=
201509021120 METAR COR EGLL 021120Z 31007KT 270V350 9999 SCT022 17/10
                        Q1018 NOSIG=
201509021050 METAR COR EGLL 021050Z 29006KT 260V330 9999 SCT018 16/11
                        Q1018 NOSIG=
201509021020 METAR COR EGLL 021020Z 29005KT 260V340 9999 SCT014 15/11
                        Q1018 NOSIG=
201509020950 METAR EGLL 020950Z 30006KT 260V360 9999 SCT014 14/11 Q1018
                        NOSIG=
201509020920 METAR COR EGLL 020920Z 30005KT 250V350 9999 BKN012 14/11
                        Q1018 BECMG SCT015=
201509020850 METAR EGLL 020850Z 30005KT 260V330 9999 BKN011 13/10 Q1018
                        BECMG SCT013=
201509020820 METAR COR EGLL 020820Z 29006KT 9999 SCT011 13/11 Q1018 NOSIG=
201509020750 METAR COR EGLL 020750Z 29005KT 250V320 9999 FEW010 13/10
                        Q1018 NOSIG=
201509020720 METAR COR EGLL 020720Z 27005KT 9999 FEW010 12/10 Q1018 NOSIG=
201509020650 METAR COR EGLL 020650Z 29004KT 260V330 9999 FEW036 12/10
                        Q1018 NOSIG=
201509020620 METAR COR EGLL 020620Z VRB03KT CAVOK 11/09 Q1018 NOSIG=
201509020550 METAR COR EGLL 020550Z 28003KT 9999 FEW036 10/08 Q1018 NOSIG=
201509020520 METAR COR EGLL 020520Z 29004KT 9999 FEW036 10/09 Q1018 NOSIG=
201509020450 METAR EGLL 020450Z 28004KT CAVOK 09/08 Q1018 NOSIG=
201509020420 METAR COR EGLL 020420Z 29005KT 9999 FEW038 09/08 Q1018 NOSIG=
201509020350 METAR EGLL 020350Z 28004KT CAVOK 09/08 Q1018 NOSIG=
201509020320 METAR COR EGLL 020320Z 29004KT CAVOK 10/09 Q1018 NOSIG=
201509020250 METAR EGLL 020250Z 29003KT CAVOK 09/09 Q1018 NOSIG=
201509020220 METAR COR EGLL 020220Z 28004KT CAVOK 10/09 Q1019 NOSIG=
201509020150 METAR EGLL 020150Z 30004KT CAVOK 11/10 Q1019 NOSIG=
201509020120 METAR EGLL 020120Z AUTO 29004KT 9999 NCD 10/09 Q1019=
201509020050 METAR EGLL 020050Z AUTO 28005KT 9999 NCD 11/09 Q1019=
201509020020 METAR EGLL 020020Z AUTO 27003KT 9999 NCD 11/10 Q1019=
201509012350 METAR EGLL 012350Z 30004KT CAVOK 12/10 Q1019 NOSIG=
201509012320 METAR COR EGLL 012320Z 31003KT CAVOK 12/10 Q1019 NOSIG=
201509012250 METAR EGLL 012250Z 30003KT 9999 FEW044 12/10 Q1019 NOSIG=
201509012220 METAR COR EGLL 012220Z 29004KT CAVOK 13/10 Q1019 NOSIG=
201509012150 METAR EGLL 012150Z 30003KT CAVOK 14/10 Q1019 NOSIG=
201509012120 METAR COR EGLL 012120Z VRB03KT CAVOK 14/10 Q1019 NOSIG=
201509012050 METAR EGLL 012050Z 29003KT CAVOK 15/10 Q1019 NOSIG=
201509012020 METAR COR EGLL 012020Z 00000KT CAVOK 16/09 Q1019 NOSIG=
201509011950 METAR EGLL 011950Z VRB02KT CAVOK 16/10 Q1019 NOSIG=
201509011920 METAR COR EGLL 011920Z VRB03KT 9999 FEW045 16/10 Q1019 NOSIG=
201509011850 METAR COR EGLL 011850Z VRB03KT 9999 FEW036 16/10 Q1019 NOSIG=
201509011820 METAR COR EGLL 011820Z 36004KT 320V030 9999 FEW036 16/10
                        Q1019 NOSIG=
201509011750 METAR EGLL 011750Z 33004KT 300V030 9999 FEW028 17/10 Q1019
                        NOSIG=
201509011720 METAR COR EGLL 011720Z VRB03KT 9999 FEW030TCU 17/09 Q1018
                        NOSIG=
201509011650 METAR COR EGLL 011650Z 36004KT 300V030 9999 VCSH FEW030TCU
                        17/10 Q1018 TEMPO SHRA=
201509011620 METAR COR EGLL 011620Z 33009KT 300V010 9999 7000N -SHRA SCT030TCU
                        18/11 Q1018 TEMPO SHRA=
201509011550 METAR EGLL 011550Z 27008KT 9999 FEW032TCU 18/11 Q1018 TEMPO
                        SHRA=
201509011520 METAR COR EGLL 011520Z 28004KT 230V350 9999 FEW033TCU 19/11
                        Q1018 TEMPO SHRA=
201509011450 METAR COR EGLL 011450Z 28005KT 260V320 9999 SCT030TCU 18/11
                        Q1018 TEMPO SHRA=
201509011420 METAR COR EGLL 011420Z 31005KT 260V340 9999 SCT026TCU 17/11
                        Q1018 NOSIG=
201509011350 METAR COR EGLL 011350Z 27006KT 9999 SCT023 SCT030 17/12 Q1018
                        NOSIG=
201509011320 METAR COR EGLL 011320Z 29006KT 260V330 9999 -SHRA FEW025
                        SCT028 17/11 Q1019 NOSIG=
201509011250 METAR COR EGLL 011250Z 32005KT 260V030 9999 VCSH SCT024 18/10
                        Q1019 NOSIG=
201509011220 METAR COR EGLL 011220Z 35006KT 300V030 9999 SCT024 17/11
                        Q1019 TEMPO SHRA=
201509011150 METAR EGLL 011150Z 33005KT 290V020 9999 SCT019 16/11 Q1019
                        NOSIG=
201509011120 METAR COR EGLL 011120Z 36006KT 330V060 9999 SCT018TCU 16/11
                        Q1019 NOSIG=
201509011050 METAR EGLL 011050Z 01006KT 330V070 9999 SCT017TCU SCT022
                        16/12 Q1018 NOSIG=
201509011020 METAR COR EGLL 011020Z 36007KT 310V050 9999 SCT013TCU SCT021
                        16/12 Q1018 NOSIG=
201509010950 METAR EGLL 010950Z 34006KT 300V030 9999 SCT012TCU 15/12 Q1018
                        NOSIG=
201509010920 METAR COR EGLL 010920Z 35006KT 310V020 9999 -SHRA SCT011TCU
                        15/13 Q1018 NOSIG=
201509010850 METAR COR EGLL 010850Z 31009KT 9999 -SHRA FEW011TCU SCT014
                        15/12 Q1017 TEMPO SHRA BKN014=
201509010820 METAR COR EGLL 010820Z 36005KT 320V030 9000 -SHRA FEW009TCU
                        SCT014 16/13 Q1017 TEMPO SHRA BKN014=
201509010750 METAR EGLL 010750Z 32005KT 280V350 7000 FEW008TCU FEW010
                        SCT020 14/12 Q1017 TEMPO SHRA BKN014=
201509010720 METAR COR EGLL 010720Z 31005KT 6000 -RADZ SCT010 SCT020 BKN039
                        14/13 Q1017 TEMPO SHRA BKN014=
201509010650 METAR COR EGLL 010650Z 30004KT 280V340 7000 3000W -RADZ SCT010
                        SCT020 BKN031 14/12 Q1017 TEMPO BKN010=
201509010620 METAR COR EGLL 010620Z 31004KT 280V350 6000 FEW010 SCT018
                        BKN032 14/12 Q1016 TEMPO SHRA BKN014=
201509010550 METAR COR EGLL 010550Z 30004KT 7000 FEW010 BKN042 14/12 Q1016
                        TEMPO SHRA BKN014=
201509010520 METAR COR EGLL 010520Z 30004KT 7000 FEW020 SCT034 BKN040
                        14/12 Q1016 NOSIG=
201509010450 METAR EGLL 010450Z 31003KT 8000 FEW021 BKN037 14/12 Q1016
                        NOSIG=
201509010420 METAR COR EGLL 010420Z 31004KT 7000 FEW016 SCT021 BKN047
                        14/12 Q1016 TEMPO BKN014=
201509010350 METAR EGLL 010350Z VRB03KT 7000 -RA FEW019 SCT026 14/12 Q1016
                        TEMPO BKN014=
201509010320 METAR COR EGLL 010320Z 30004KT 8000 FEW029 SCT038 14/12 Q1016
                        NOSIG=
201509010250 METAR EGLL 010250Z 30004KT 9000 SCT030 14/12 Q1016 NOSIG=
201509010220 METAR COR EGLL 010220Z VRB02KT 9999 FEW027 14/12 Q1016 NOSIG=
201509010150 METAR EGLL 010150Z VRB03KT 9999 FEW049 14/12 Q1016 TEMPO
                        -RA BKN014=
201509010120 METAR EGLL 010120Z AUTO VRB03KT 9999 OVC049 14/12 Q1016=
201509010050 METAR EGLL 010050Z AUTO 31004KT 280V340 9999 NCD 14/12 Q1016=
201509010020 METAR EGLL 010020Z AUTO 31005KT 9999 SCT016 14/12 Q1016=

</pre>

</body>
</html>
