##########################################################
# Query made at 12/27/2012 09:42:11 UTC
# Time interval: from 09/01/2010 00:00  to 10/01/2010 23:59  UTC
##########################################################

##########################################################
# EGLL, London / Heathrow Airport (United Kingdom)
# WMO index: 03772
# Latitude 51-29N. Longitude 000-27W. Altitude 24 m.
##########################################################

###################################
#  METAR/SPECI from EGLL
###################################
201010012350 METAR COR EGLL 012350Z 27006KT 9000 NSC 12/11 Q1003 NOSIG=
201010012320 METAR COR EGLL 012320Z 27007KT CAVOK 12/11 Q1002 NOSIG=
201010012250 METAR COR EGLL 012250Z 27008KT CAVOK 13/12 Q1002 NOSIG=
201010012220 METAR COR EGLL 012220Z 26011KT 9999 FEW017 14/12 Q1002 NOSIG=
201010012150 METAR COR EGLL 012150Z 27011KT 9999 FEW008 SCT015 BKN049
                        15/13 Q1001 NOSIG=
201010012120 METAR COR EGLL 012120Z 27012KT 9999 FEW006 SCT015 BKN047
                        15/14 Q1001 NOSIG=
201010012050 METAR COR EGLL 012050Z 27011KT 9999 FEW007 SCT010 BKN042
                        15/14 Q1000 NOSIG=
201010012020 METAR COR EGLL 012020Z 27008KT 9999 SCT006 SCT043 16/15 Q1000
                        RERA TEMPO BKN007=
201010011950 METAR COR EGLL 011950Z 27011KT 6000 RA FEW002 SCT006 BKN020
                        16/15 Q0999 TEMPO NSW BKN007=
201010011920 METAR COR EGLL 011920Z 22007KT 190V260 9999 FEW010 SCT020
                        BKN032 16/15 Q0999 TEMPO RA BKN007=
201010011850 METAR COR EGLL 011850Z 21007KT 180V250 9999 FEW005 SCT011
                        BKN031 16/15 Q0999 TEMPO BKN007=
201010011820 METAR COR EGLL 011820Z 21007KT 170V240 6000 -RADZ FEW004
                        SCT007 BKN011 16/15 Q0998 TEMPO BKN007=
201010011750 METAR COR EGLL 011750Z 19007KT 120V250 9000 4000N -DZ FEW006
                        BKN009 15/14 Q0998 TEMPO 4000 RADZ=
201010011720 METAR COR EGLL 011720Z 17007KT 130V250 9999 6000N -RADZ SCT005
                        BKN010 15/14 Q0998 RERA REDZ TEMPO
                        RA BKN004=
201010011650 METAR COR EGLL 011650Z 16009KT 130V220 9999 -RA FEW005 SCT007
                        BKN011 15/14 Q0998 RERA TEMPO RA
                        BKN007=
201010011620 METAR COR EGLL 011620Z 15009KT 120V250 7000 RA SCT008 BKN010
                        15/14 Q0998 TEMPO 4000 BKN008=
201010011550 METAR COR EGLL 011550Z 16011KT 120V210 9999 6000NE RA SCT008
                        BKN011 15/14 Q0998 TEMPO 4000 +RA
                        BKN007=
201010011520 METAR COR EGLL 011520Z 17011KT 120V230 9000 RA SCT008 BKN011
                        15/13 Q0999 TEMPO 4000 +RA BKN007=
201010011450 METAR COR EGLL 011450Z 16012KT 140V210 9000 RA SCT006 BKN012
                        15/13 Q0999 TEMPO 16015G27KT 4000
                        +RA BKN006=
201010011420 METAR COR EGLL 011420Z 17012KT 140V230 5000 -RA FEW007 BKN009
                        OVC013 15/13 Q1000 TEMPO 17018G32KT
                        3000 +RA=
201010011350 METAR COR EGLL 011350Z 16013KT 130V210 9999 -RA FEW008 BKN011
                        15/13 Q1000 TEMPO 17018G30KT 4000
                        +RA BKN007=
201010011320 METAR COR EGLL 011320Z 17015KT 130V210 9999 -RA BKN011 BKN016
                        15/13 Q1000 TEMPO 18018G30KT 4000
                        +RA BKN007=
201010011250 METAR COR EGLL 011250Z 17015KT 150V230 9000 -RA BKN012 BKN015
                        15/13 Q1001 TEMPO 18018G30KT 3000
                        +RA BKN007=
201010011220 METAR EGLL 011220Z 17015KT 150V210 9999 -RA BKN010 BKN017
                        15/13 Q1001 TEMPO 18018G28KT RA BKN008=
201010011150 METAR COR EGLL 011150Z 17016KT 9999 SCT011 BKN016 15/13 Q1002
                        BECMG 18018G28KT RA BKN010=
201010011120 METAR COR EGLL 011120Z 16014KT 9999 -RA BKN010 BKN016 15/13
                        Q1002 RERA TEMPO 4000 RA BKN008=
201010011050 METAR COR EGLL 011050Z 17013KT 9999 RA SCT010 BKN016 15/13
                        Q1002 TEMPO 18016G28KT 4000 RA BKN008=
201010011020 METAR COR EGLL 011020Z 16015KT 8000 -RA FEW008 OVC010 15/13
                        Q1003 RERA TEMPO 16018G28KT 4000
                        RA BKN007=
201010010950 METAR COR EGLL 010950Z 16012KT 8000 -RA FEW008 OVC010 14/13
                        Q1003 TEMPO 16015G28KT 2500 +RA BKN007=
201010010920 METAR COR EGLL 010920Z 16014KT 6000 -RA SCT009 BKN011 14/13
                        Q1003 TEMPO 16018G28KT 4000 RA BKN008=
201010010850 METAR COR EGLL 010850Z 16013KT 8000 -RA FEW008 SCT012 BKN018
                        14/13 Q1004 TEMPO 16018G28KT 3000
                        +RA SCT005 BKN008=
201010010820 METAR COR EGLL 010820Z 16012KT 5000 -RA FEW005 BKN011 14/13
                        Q1004 RERA TEMPO 16015G25KT 2500
                        +RA SCT005 BKN008=
201010010750 METAR COR EGLL 010750Z 17013KT 2000 RA SCT012 BKN019 14/13
                        Q1004 TEMPO 18020G32KT 5000 BKN010=
201010010720 METAR COR EGLL 010720Z 16013KT 9999 3500SW -RA SCT010 BKN019
                        14/12 Q1004 RERA BECMG 16016G27KT
                        RA SCT007 BKN010=
201010010650 METAR COR EGLL 010650Z 16014KT 7000 3200E RA SCT012 SCT019
                        14/12 Q1005 BECMG 16017G27KT SCT007
                        BKN012=
201010010620 METAR COR EGLL 010620Z 16014KT 9999 FEW039 SCT044 14/12 Q1005
                        TEMPO 16015G25KT RA BKN014=
201010010550 METAR COR EGLL 010550Z 16012KT 9999 SCT021 14/11 Q1005 TEMPO
                        16015G25KT RA BKN014=
201010010520 METAR COR EGLL 010520Z 17012KT 9999 SCT019 14/12 Q1006 TEMPO
                        16015G25KT RA BKN014=
201010010450 METAR COR EGLL 010450Z 16010KT 9999 SCT021 14/12 Q1006 TEMPO
                        16015G25KT RA BKN014=
201010010420 METAR COR EGLL 010420Z 15008KT 9999 FEW018 14/12 Q1006 TEMPO
                        16015G25KT RA BKN014=
201010010350 METAR COR EGLL 010350Z 15009KT 9999 FEW018 14/11 Q1007 TEMPO
                        16015G25KT RA BKN014=
201010010320 METAR COR EGLL 010320Z 16008KT 9999 FEW018 13/11 Q1007 TEMPO
                        16015G25KT RA BKN014=
201010010250 METAR COR EGLL 010250Z 15008KT CAVOK 13/11 Q1008 TEMPO RA
                        BKN014=
201010010220 METAR COR EGLL 010220Z 15007KT 9999 -RA NSC 13/11 Q1008 TEMPO
                        RA BKN014=
201010010150 METAR COR EGLL 010150Z 15006KT CAVOK 13/11 Q1009 TEMPO RA
                        BKN014=
201010010120 METAR COR EGLL 010120Z 15007KT CAVOK 13/11 Q1009 TEMPO RA
                        BKN014=
201010010050 METAR COR EGLL 010050Z 15006KT 9999 -RA NSC 13/11 Q1009 NOSIG=
201010010020 METAR COR EGLL 010020Z 16007KT 9999 -RA NSC 13/11 Q1010 NOSIG=
201009302350 METAR COR EGLL 302350Z 16007KT 9999 -RA NSC 13/11 Q1010 NOSIG=
201009302320 METAR COR EGLL 302320Z 16006KT 130V270 CAVOK 13/10 Q1010
                        NOSIG=
201009302250 METAR COR EGLL 302250Z 16005KT 130V230 CAVOK 13/11 Q1011
                        NOSIG=
201009302220 METAR COR EGLL 302220Z 18005KT 160V240 CAVOK 12/10 Q1011
                        NOSIG=
201009302150 METAR COR EGLL 302150Z 18007KT 140V260 CAVOK 13/10 Q1011
                        NOSIG=
201009302120 METAR COR EGLL 302120Z 19007KT 150V250 CAVOK 13/10 Q1011
                        NOSIG=
201009302050 METAR COR EGLL 302050Z 19007KT 140V240 CAVOK 13/10 Q1012
                        NOSIG=
201009302020 METAR COR EGLL 302020Z 18006KT 150V230 CAVOK 13/10 Q1012
                        NOSIG=
201009301950 METAR COR EGLL 301950Z 18007KT 130V240 CAVOK 13/10 Q1012
                        NOSIG=
201009301920 METAR COR EGLL 301920Z 18006KT 140V240 CAVOK 13/10 Q1012
                        NOSIG=
201009301850 METAR COR EGLL 301850Z 17007KT 130V230 CAVOK 13/10 Q1012
                        NOSIG=
201009301820 METAR COR EGLL 301820Z 18007KT 160V240 CAVOK 14/10 Q1012
                        NOSIG=
201009301750 METAR COR EGLL 301750Z 19007KT 150V240 CAVOK 14/10 Q1012
                        NOSIG=
201009301720 METAR COR EGLL 301720Z 19008KT 170V230 9999 FEW030 15/10
                        Q1013 NOSIG=
201009301650 METAR COR EGLL 301650Z 20007KT 140V250 9999 FEW032 16/10
                        Q1013 NOSIG=
201009301620 METAR COR EGLL 301620Z 21008KT 170V250 CAVOK 15/10 Q1013
                        NOSIG=
201009301550 METAR COR EGLL 301550Z 22009KT 170V260 9999 FEW030 16/09
                        Q1013 NOSIG=
201009301520 METAR COR EGLL 301520Z 21008KT 180V250 9999 FEW033 16/09
                        Q1013 NOSIG=
201009301450 METAR COR EGLL 301450Z 21008KT 180V250 9999 FEW029 16/10
                        Q1013 NOSIG=
201009301420 METAR COR EGLL 301420Z 22008KT 180V250 9999 FEW028 16/10
                        Q1013 NOSIG=
201009301350 METAR COR EGLL 301350Z 25007KT 190V290 9999 FEW024 16/10
                        Q1014 NOSIG=
201009301320 METAR COR EGLL 301320Z 25007KT 170V300 9999 FEW024 15/10
                        Q1014 NOSIG=
201009301250 METAR COR EGLL 301250Z 24009KT 190V280 9999 FEW023 16/10
                        Q1014 NOSIG=
201009301220 METAR COR EGLL 301220Z 22009KT 9999 FEW024 16/10 Q1014 NOSIG=
201009301150 METAR COR EGLL 301150Z 24008KT 170V290 9999 FEW020 16/10
                        Q1015 NOSIG=
201009301120 METAR COR EGLL 301120Z 24008KT 180V270 9999 FEW014 15/11
                        Q1015 NOSIG=
201009301050 METAR COR EGLL 301050Z 22006KT 150V260 9999 FEW013 15/11
                        Q1015 NOSIG=
201009301020 METAR COR EGLL 301020Z 28006KT 9999 FEW012 14/10 Q1015 NOSIG=
201009300950 METAR COR EGLL 300950Z 28005KT 240V320 CAVOK 13/11 Q1015
                        NOSIG=
201009300920 METAR COR EGLL 300920Z 28004KT CAVOK 11/11 Q1015 NOSIG=
201009300850 METAR COR EGLL 300850Z 27004KT 210V300 9000 FEW002 10/09
                        Q1015 NOSIG=
201009300820 METAR COR EGLL 300820Z 28004KT 220V300 7000 3000NW FEW001
                        09/09 Q1015 TEMPO 3000 BR=
201009300750 METAR COR EGLL 300750Z 28004KT 4000 0500NW R27L/P1500 R27R/P1500
                        PRFG SCT001 08/08 Q1015 TEMPO 0600
                        FG BKN001=
201009300720 METAR COR EGLL 300720Z 28004KT 1200 R27L/P1500 R27R/1100
                        PRFG BKN001 08/07 Q1015 TEMPO 0400
                        FG=
201009300650 METAR COR EGLL 300650Z 27004KT 0900 0250N R27L/1500 R27R/1000
                        FG BKN001 07/07 Q1015 TEMPO 0400
                        FG BKN001=
201009300620 METAR COR EGLL 300620Z 27006KT 6000 0700W R27L/P1500 R27R/P1500
                        PRFG NSC 07/06 Q1015 TEMPO 0200 FG
                        BKN001=
201009300550 METAR COR EGLL 300550Z 27004KT 6000 2000W PRFG NSC 06/06
                        Q1015 TEMPO 0200 FG BKN001=
201009300520 METAR COR EGLL 300520Z 28004KT CAVOK 07/07 Q1015 TEMPO 2000
                        BR=
201009300450 METAR COR EGLL 300450Z 27004KT 9999 FEW002 07/07 Q1015 TEMPO
                        2000 BR BKN002=
201009300420 METAR COR EGLL 300420Z VRB03KT 9999 2500E NSC 07/07 Q1015
                        TEMPO 2000 BR=
201009300350 METAR COR EGLL 300350Z 28004KT 2000 0800NE R27R/0550 BCFG
                        FEW001 08/07 Q1015 BECMG 0400 FG
                        BKN001=
201009300320 METAR COR EGLL 300320Z 26005KT 0400 R27R/0700 FG VV/// 08/08
                        Q1014 NOSIG=
201009300250 METAR COR EGLL 300250Z 26004KT 0300 R27R/1000 FG VV/// 08/08
                        Q1014 NOSIG=
201009300220 METAR COR EGLL 300220Z 28005KT 0400 R27R/0600 FG VV/// 09/08
                        Q1014 BECMG 2000 BR BKN002=
201009300150 METAR COR EGLL 300150Z 28005KT 0400 R27R/0700 FG VV/// 09/09
                        Q1015 NOSIG=
201009300120 METAR COR EGLL 300120Z 28006KT 0400 R27R/0700 FG OVC001 10/09
                        Q1015 TEMPO 3000 BR BKN004=
201009300050 METAR COR EGLL 300050Z 29005KT 3000 BR BKN001 10/09 Q1015
                        TEMPO 1000 FG=
201009300020 METAR COR EGLL 300020Z 29005KT 4000 BR BKN002 10/09 Q1015
                        BECMG BKN004=
201009292350 METAR COR EGLL 292350Z 27006KT 8000 FEW002 BKN004 10/09 Q1015
                        BECMG 4000 BR=
201009292320 METAR COR EGLL 292320Z 27006KT 9999 FEW010 10/09 Q1015 NOSIG=
201009292250 METAR EGLL 292250Z 22004KT 9999 FEW010 11/09 Q1015=
201009292220 METAR COR EGLL 292220Z 22005KT 190V270 9999 FEW010 12/09
                        Q1015 NOSIG=
201009292150 METAR COR EGLL 292150Z 23007KT 190V270 9999 SCT013 12/09
                        Q1015 NOSIG=
201009292120 METAR COR EGLL 292120Z 27004KT 200V320 9999 -RA FEW045 12/09
                        Q1015 NOSIG=
201009292050 METAR COR EGLL 292050Z 25006KT 9999 -RA FEW022 SCT045 12/09
                        Q1015 TEMPO BKN008=
201009292020 METAR COR EGLL 292020Z 25006KT 9999 -RA FEW011 SCT043 BKN048
                        12/10 Q1015 TEMPO BKN008=
201009291950 METAR COR EGLL 291950Z 26008KT 9999 -RA FEW012 BKN041 12/10
                        Q1015 TEMPO BKN008=
201009291920 METAR COR EGLL 291920Z 26011KT 9000 -RA SCT026 SCT034 12/11
                        Q1015 TEMPO 4000 RA BKN008=
201009291850 METAR COR EGLL 291850Z 26015KT 9000 -RA FEW011 SCT018 BKN029
                        12/10 Q1015 TEMPO 4000 RA BKN008=
201009291820 METAR COR EGLL 291820Z 27008KT 7000 -RADZ FEW005 BKN018 13/12
                        Q1015 TEMPO 4000 RA BKN005=
201009291750 METAR COR EGLL 291750Z 18008KT 160V220 6000 -RADZ SCT005
                        BKN012 15/14 Q1014 TEMPO 4000 RA
                        BKN005=
201009291720 METAR COR EGLL 291720Z 18008KT 140V240 6000 -RADZ SCT009
                        SCT013 15/14 Q1014 BECMG BKN013=
201009291650 METAR COR EGLL 291650Z 16009KT 130V210 9000 -RA SCT009 BKN014
                        15/14 Q1014 TEMPO 4000 RA BKN009=
201009291620 METAR COR EGLL 291620Z 16008KT 140V230 6000 -RADZ SCT012
                        BKN018 15/13 Q1014 TEMPO 4000 RA
                        BKN012=
201009291550 METAR COR EGLL 291550Z 17009KT 110V240 9999 -RA FEW016 BKN021
                        15/13 Q1014 TEMPO RA BKN014=
201009291520 METAR COR EGLL 291520Z 17009KT 140V230 9999 -RA FEW016 BKN022
                        15/13 Q1014 TEMPO RA BKN014=
201009291450 METAR COR EGLL 291450Z 17009KT 140V220 9999 -RA SCT016 BKN023
                        15/13 Q1014 TEMPO RA BKN014=
201009291420 METAR COR EGLL 291420Z 17008KT 140V220 9999 -RA FEW018 BKN024
                        15/13 Q1015 TEMPO RA BKN014=
201009291350 METAR COR EGLL 291350Z 17009KT 140V230 9999 -SHRA FEW017
                        SCT024 16/13 Q1015 TEMPO RA BKN012=
201009291320 METAR COR EGLL 291320Z 18011KT 150V220 9999 FEW018 SCT042
                        16/13 Q1015 NOSIG=
201009291250 METAR COR EGLL 291250Z 19010KT 170V240 9999 -RA FEW022 SCT041
                        17/13 Q1015 NOSIG=
201009291220 METAR COR EGLL 291220Z 18012G24KT 150V220 9999 FEW024 SCT041
                        17/13 Q1015 NOSIG=
201009291150 METAR COR EGLL 291150Z 19013KT 160V240 9999 FEW020 17/13
                        Q1015 NOSIG=
201009291120 METAR COR EGLL 291120Z 18013KT 140V220 9999 FEW020 17/13
                        Q1015 NOSIG=
201009291050 METAR COR EGLL 291050Z 19011KT 160V240 9999 FEW020 16/13
                        Q1015 NOSIG=
201009291020 METAR COR EGLL 291020Z 18011KT 150V230 9999 FEW020 17/13
                        Q1016 NOSIG=
201009290950 METAR COR EGLL 290950Z 19012KT 150V230 9999 FEW016 SCT044
                        17/13 Q1016 NOSIG=
201009290920 METAR COR EGLL 290920Z 18011KT 150V240 9999 FEW011 SCT044
                        17/14 Q1016 NOSIG=
201009290850 METAR COR EGLL 290850Z 17008KT 130V230 9999 SCT014 SCT036
                        16/14 Q1016 NOSIG=
201009290820 METAR COR EGLL 290820Z 17007KT 130V230 9999 FEW009 BKN040
                        15/14 Q1016 NOSIG=
201009290750 METAR COR EGLL 290750Z 17006KT 130V250 9999 SCT009 BKN038
                        15/14 Q1016 NOSIG=
201009290720 METAR COR EGLL 290720Z 17006KT 130V220 9999 -RA FEW020 BKN035
                        15/13 Q1016 REDZ NOSIG=
201009290650 METAR COR EGLL 290650Z 21007KT 9999 FEW010 BKN033 15/13 Q1016
                        TEMPO BKN010=
201009290620 METAR COR EGLL 290620Z 17008KT 150V220 8000 FEW007 SCT008
                        BKN011 15/14 Q1016 TEMPO SCT012=
201009290550 METAR COR EGLL 290550Z 16007KT 110V200 8000 FEW010 BKN016
                        15/14 Q1016 NOSIG=
201009290520 METAR COR EGLL 290520Z 15007KT 100V200 7000 SCT010 BKN017
                        15/13 Q1016 TEMPO BKN010=
201009290450 METAR COR EGLL 290450Z 14006KT 7000 FEW015 SCT020 BKN036
                        14/13 Q1016 NOSIG=
201009290420 METAR EGLL 290420Z NIL=
201009290350 METAR COR EGLL 290350Z 15005KT 7000 SCT015 SCT036 BKN041
                        14/13 Q1016 NOSIG=
201009290320 METAR COR EGLL 290320Z 14005KT 7000 FEW009 BKN045 14/13 Q1016
                        NOSIG=
201009290250 METAR COR EGLL 290250Z 14005KT 8000 FEW009 BKN049 14/13 Q1017
                        NOSIG=
201009290220 METAR COR EGLL 290220Z 13005KT 7000 FEW009 BKN042 14/13 Q1017
                        NOSIG=
201009290150 METAR COR EGLL 290150Z 13004KT 8000 FEW006 BKN012 14/13 Q1017
                        TEMPO SCT012=
201009290120 METAR EGLL 290120Z AUTO 14005KT 3800NDV HZ BKN027/// 14/13
                        Q1018=
201009290050 METAR EGLL 290050Z AUTO 15004KT 8000NDV BKN024/// BKN037///
                        14/13 Q1018=
201009290020 METAR EGLL 290020Z AUTO 15004KT 8000NDV BKN007/// BKN035///
                        14/13 Q1018=
201009282350 METAR COR EGLL 282350Z 14004KT 7000 FEW009 BKN012 14/13 Q1018
                        TEMPO SCT012 BKN020=
201009282320 METAR COR EGLL 282320Z 17004KT 8000 FEW008 BKN012 14/13 Q1018
                        TEMPO SCT012 BKN020=
201009282250 METAR COR EGLL 282250Z 15005KT 7000 FEW015 BKN025 14/13 Q1018
                        TEMPO BKN012=
201009282220 METAR COR EGLL 282220Z VRB03KT 9000 FEW018 SCT023 BKN035
                        14/12 Q1018 TEMPO BKN014=
201009282150 METAR COR EGLL 282150Z 20006KT 140V260 9000 FEW027 BKN031
                        15/12 Q1018 BECMG BKN014=
201009282120 METAR COR EGLL 282120Z 19007KT 150V240 8000 BKN032 15/13
                        Q1018 NOSIG=
201009282050 METAR COR EGLL 282050Z 19007KT 150V240 8000 BKN035 BKN045
                        15/13 Q1018 NOSIG=
201009282020 METAR COR EGLL 282020Z 19007KT 150V240 5000 HZ BKN040 15/13
                        Q1018 NOSIG=
201009281950 METAR COR EGLL 281950Z 18006KT 140V230 4000 HZ BKN045 15/13
                        Q1018 BECMG 6000 NSW=
201009281920 METAR COR EGLL 281920Z 19007KT 150V240 4500 HZ FEW017 BKN046
                        15/13 Q1018 BECMG 6000 NSW=
201009281850 METAR COR EGLL 281850Z 19006KT 140V250 4500 HZ BKN020 15/13
                        Q1018 BECMG 6000 NSW=
201009281820 METAR COR EGLL 281820Z 18005KT 150V240 5000 HZ NSC 15/13
                        Q1018 NOSIG=
201009281750 METAR COR EGLL 281750Z 21006KT 100V260 6000 NSC 15/13 Q1018
                        NOSIG=
201009281720 METAR COR EGLL 281720Z 22005KT 180V250 9000 BKN036 15/13
                        Q1018 NOSIG=
201009281650 METAR COR EGLL 281650Z 23005KT 170V260 8000 FEW015 SCT038
                        16/13 Q1017 NOSIG=
201009281620 METAR COR EGLL 281620Z 25007KT 8000 FEW010 BKN028 16/13 Q1017
                        NOSIG=
201009281550 METAR COR EGLL 281550Z 24007KT 9999 FEW012 BKN015 BKN030
                        16/13 Q1017 NOSIG=
201009281520 METAR COR EGLL 281520Z 25007KT 9999 FEW013 BKN033 16/13 Q1017
                        NOSIG=
201009281450 METAR COR EGLL 281450Z 25007KT 200V290 9999 SCT023 BKN028
                        16/13 Q1017 NOSIG=
201009281420 METAR COR EGLL 281420Z 24006KT 200V280 9999 FEW015 BKN020
                        BKN030 16/13 Q1017 NOSIG=
201009281350 METAR COR EGLL 281350Z 23006KT 190V280 9999 BKN025 OVC035
                        17/13 Q1017 NOSIG=
201009281320 METAR COR EGLL 281320Z 00000KT 9000 SCT017 BKN027 17/13 Q1017
                        NOSIG=
201009281250 METAR COR EGLL 281250Z 00000KT 9999 FEW015 BKN022 17/13 Q1017
                        NOSIG=
201009281220 METAR COR EGLL 281220Z VRB02KT 9000 SCT013 BKN018 17/13 Q1017
                        TEMPO BKN013=
201009281150 METAR COR EGLL 281150Z 28004KT 220V310 9000 BKN013 16/13
                        Q1017 TEMPO BKN015=
201009281120 METAR COR EGLL 281120Z 26004KT 210V350 8000 FEW009 BKN013
                        16/13 Q1017 TEMPO BKN015=
201009281050 METAR COR EGLL 281050Z VRB02KT 7000 FEW009 BKN015 15/13 Q1017
                        NOSIG=
201009281020 METAR COR EGLL 281020Z VRB03KT 6000 SCT008 BKN011 16/13 Q1017
                        BECMG SCT012=
201009280950 METAR COR EGLL 280950Z VRB03KT 6000 FEW008 SCT016 BKN024
                        15/13 Q1017 NOSIG=
201009280920 METAR COR EGLL 280920Z VRB03KT 6000 FEW006 SCT009 BKN017
                        15/13 Q1017 NOSIG=
201009280850 METAR COR EGLL 280850Z VRB02KT 6000 FEW005 SCT010 BKN014
                        14/13 Q1017 BECMG TEMPO SCT014 BKN020=
201009280820 METAR COR EGLL 280820Z 35003KT 5000 HZ FEW004 BKN011 14/13
                        Q1016 NOSIG=
201009280750 METAR COR EGLL 280750Z VRB03KT 5000 BR SCT005 BKN011 14/13
                        Q1016 TEMPO BKN008=
201009280720 METAR COR EGLL 280720Z VRB02KT 4600 BR FEW004 OVC008 14/13
                        Q1016 BECMG 5000=
201009280650 METAR COR EGLL 280650Z 05003KT 3500 HZ FEW003 OVC004 14/13
                        Q1016 NOSIG=
201009280620 METAR COR EGLL 280620Z VRB03KT 4500 HZ SCT004 BKN007 14/12
                        Q1016 BECMG 6000 NSW=
201009280550 METAR COR EGLL 280550Z VRB03KT 4500 BR FEW004 BKN007 14/12
                        Q1015 BECMG 6000 NSW=
201009280520 METAR COR EGLL 280520Z 35003KT 5000 BR FEW005 BKN007 13/12
                        Q1015 TEMPO 4000 BKN004=
201009280450 METAR COR EGLL 280450Z VRB02KT 5000 BR BKN005 13/12 Q1015
                        TEMPO 4000 BKN004=
201009280420 METAR COR EGLL 280420Z VRB02KT 5000 BR SCT005 BKN010 13/12
                        Q1015 TEMPO 4000 BKN004=
201009280350 METAR COR EGLL 280350Z VRB03KT 5000 BR SCT005 BKN011 13/12
                        Q1015 TEMPO 4000 BKN004=
201009280320 METAR COR EGLL 280320Z VRB02KT 5000 BR BKN011 13/12 Q1015
                        TEMPO BKN009=
201009280250 METAR COR EGLL 280250Z VRB03KT 5000 BR SCT010 13/12 Q1015
                        BECMG BKN007=
201009280220 METAR COR EGLL 280220Z VRB03KT 8000 SCT009 13/12 Q1015 BECMG
                        BKN009=
201009280150 METAR COR EGLL 280150Z VRB03KT 8000 FEW008 BKN010 14/12 Q1015
                        TEMPO BKN006=
201009280120 METAR COR EGLL 280120Z VRB03KT 8000 FEW007 BKN009 14/12 Q1015
                        TEMPO BKN007=
201009280050 METAR COR EGLL 280050Z 04004KT 360V080 8000 FEW007 BKN010
                        14/13 Q1015 TEMPO BKN007=
201009280020 METAR COR EGLL 280020Z 03005KT 350V070 6000 SCT006 BKN009
                        14/13 Q1015 NOSIG=
201009272350 METAR EGLL 272350Z NIL=
201009272320 METAR COR EGLL 272320Z 01004KT 340V060 5000 -RA SCT005 BKN014
                        14/13 Q1015 BECMG BKN006=
201009272250 METAR COR EGLL 272250Z 02004KT 330V050 5000 BR FEW006 BKN009
                        14/13 Q1015 NOSIG=
201009272220 METAR COR EGLL 272220Z 02004KT 330V050 4400 -RA SCT004 BKN008
                        14/13 Q1015 BECMG 6000 NSW=
201009272150 METAR COR EGLL 272150Z 02004KT 340V060 2600 RADZ SCT004 BKN008
                        14/13 Q1015 TEMPO BKN004=
201009272120 METAR COR EGLL 272120Z 36004KT 330V040 4000 DZ BKN004 BKN008
                        15/14 Q1014 TEMPO 2500=
201009272050 METAR COR EGLL 272050Z VRB03KT 4000 BR FEW002 BKN005 15/14
                        Q1014 TEMPO 2500 -DZ OVC003=
201009272020 METAR COR EGLL 272020Z 35003KT 9999 SCT006 BKN009 15/13 Q1014
                        TEMPO 4000 -RADZ BKN003=
201009271950 METAR COR EGLL 271950Z VRB03KT 7000 -DZ SCT005 BKN011 15/13
                        Q1014 BECMG BKN006=
201009271920 METAR COR EGLL 271920Z 35003KT 9999 FEW005 BKN012 15/13 Q1014
                        BECMG BKN006=
201009271850 METAR COR EGLL 271850Z 35004KT 9999 SCT007 SCT013 15/13 Q1014
                        BECMG BKN006=
201009271820 METAR COR EGLL 271820Z 31003KT 9999 SCT009 BKN015 15/13 Q1014
                        BECMG BKN009=
201009271750 METAR COR EGLL 271750Z 29004KT 9999 FEW010 BKN015 15/13 Q1013
                        BECMG BKN009=
201009271720 METAR COR EGLL 271720Z 29004KT 9999 FEW008 SCT016 BKN019
                        15/13 Q1013 BECMG BKN009=
201009271650 METAR COR EGLL 271650Z 30004KT 260V330 9999 FEW010 BKN013
                        15/13 Q1013 BECMG BKN009=
201009271620 METAR COR EGLL 271620Z 29005KT 9999 BKN012 15/13 Q1013 BECMG
                        BKN009=
201009271550 METAR COR EGLL 271550Z 29005KT 9999 FEW012 BKN018 15/13 Q1013
                        BECMG BKN010=
201009271520 METAR COR EGLL 271520Z 31004KT 280V350 9999 FEW011 SCT015
                        BKN020 15/13 Q1013 BECMG BKN010=
201009271450 METAR COR EGLL 271450Z 30004KT 270V330 9999 FEW014 SCT024
                        BKN030 15/12 Q1013 NOSIG=
201009271420 METAR COR EGLL 271420Z 30005KT 9999 FEW015 BKN035 15/13 Q1013
                        NOSIG=
201009271350 METAR COR EGLL 271350Z 30004KT 9999 FEW010 BKN015 16/12 Q1013
                        TEMPO BKN012=
201009271320 METAR COR EGLL 271320Z VRB03KT 9999 SCT014 BKN021 15/13 Q1013
                        TEMPO BKN012=
201009271250 METAR COR EGLL 271250Z 32004KT 270V360 9999 SCT012 BKN021
                        15/13 Q1013 TEMPO BKN012=
201009271220 METAR COR EGLL 271220Z VRB02KT 9999 FEW012 BKN023 15/13 Q1013
                        TEMPO BKN014=
201009271150 METAR COR EGLL 271150Z VRB03KT 9999 BKN014 15/12 Q1012 TEMPO
                        BKN018=
201009271120 METAR COR EGLL 271120Z VRB02KT 9999 BKN015 15/12 Q1012 TEMPO
                        BKN013=
201009271050 METAR COR EGLL 271050Z VRB02KT 9999 8000SW FEW010 BKN015
                        15/12 Q1012 TEMPO BKN012=
201009271020 METAR COR EGLL 271020Z VRB03KT 9999 8000SW FEW007 BKN016
                        14/12 Q1012 TEMPO BKN012=
201009270950 METAR COR EGLL 270950Z VRB03KT 8000 SCT005 BKN012 13/12 Q1012
                        TEMPO BKN005=
201009270920 METAR COR EGLL 270920Z 10003KT 5000 HZ FEW002 OVC003 13/12
                        Q1012 BECMG BKN008=
201009270850 METAR COR EGLL 270850Z 00000KT 3600 BR OVC003 12/12 Q1012
                        BECMG 5000 BKN006=
201009270820 METAR COR EGLL 270820Z VRB03KT 3400 BR FEW002 OVC003 12/11
                        Q1012 BECMG 5000 BKN006=
201009270750 METAR COR EGLL 270750Z VRB03KT 3000 BR FEW002 OVC003 12/11
                        Q1012 BECMG 5000 BKN006=
201009270720 METAR COR EGLL 270720Z VRB03KT 5000 BR OVC003 12/11 Q1011
                        BECMG BKN006=
201009270650 METAR COR EGLL 270650Z 32004KT 280V340 3800 BR OVC003 12/11
                        Q1011 BECMG 5000 BKN006=
201009270620 METAR COR EGLL 270620Z 35003KT 5000 BR OVC004 11/10 Q1011
                        BECMG BKN006=
201009270550 METAR COR EGLL 270550Z VRB03KT 5000 HZ OVC006 11/10 Q1011
                        TEMPO 4000 BR=
201009270520 METAR COR EGLL 270520Z 32004KT 280V360 7000 BKN006 OVC008
                        11/10 Q1010 TEMPO 4000 BR=
201009270450 METAR COR EGLL 270450Z 31004KT 7000 FEW005 BKN006 11/10 Q1010
                        TEMPO 4000 BR=
201009270420 METAR COR EGLL 270420Z 31004KT 280V340 6000 BKN007 11/09
                        Q1011 TEMPO 4000 BR=
201009270350 METAR EGLL 270350Z 31006KT 270V340 9999 FEW006 BKN008 11/09
                        Q1011=
201009270320 METAR COR EGLL 270320Z 31005KT 9000 SCT008 BKN010 11/09 Q1011
                        NOSIG=
201009270250 METAR COR EGLL 270250Z 32006KT 290V360 5000 HZ FEW008 OVC010
                        11/09 Q1011 TEMPO 4000 BR BKN008=
201009270220 METAR COR EGLL 270220Z 31006KT 5000 HZ SCT007 BKN009 11/10
                        Q1011 TEMPO 4000 BR=
201009270150 METAR COR EGLL 270150Z 31007KT 4000 HZ SCT006 BKN010 11/10
                        Q1011 TEMPO BKN006=
201009270120 METAR COR EGLL 270120Z 31007KT 8000 FEW008 BKN012 11/09 Q1011
                        TEMPO BKN007=
201009270050 METAR COR EGLL 270050Z 32007KT 290V350 9999 BKN010 11/09
                        Q1011 TEMPO BKN007=
201009270020 METAR COR EGLL 270020Z 32007KT 9999 BKN010 11/09 Q1012 NOSIG=
201009262350 METAR COR EGLL 262350Z 32007KT 9999 FEW008 BKN011 11/10 Q1012
                        NOSIG=
201009262320 METAR COR EGLL 262320Z 33007KT 6000 FEW007 BKN010 11/10 Q1012
                        NOSIG=
201009262250 METAR COR EGLL 262250Z 33007KT 300V010 9999 FEW008 BKN012
                        11/10 Q1012 NOSIG=
201009262220 METAR COR EGLL 262220Z 34007KT 300V020 9999 FEW009 BKN012
                        11/10 Q1012 NOSIG=
201009262150 METAR COR EGLL 262150Z 33007KT 300V360 9999 FEW009 BKN012
                        11/09 Q1012 NOSIG=
201009262120 METAR COR EGLL 262120Z 32007KT 300V010 9999 BKN012 11/09
                        Q1012 TEMPO RA=
201009262050 METAR COR EGLL 262050Z 33007KT 290V010 9999 SCT013 BKN019
                        11/09 Q1012 TEMPO RA BKN012=
201009262020 METAR COR EGLL 262020Z 32009KT 9999 SCT010 BKN019 11/10 Q1012
                        NOSIG=
201009261950 METAR EGLL 261950Z 32008KT 300V360 9999 -RA FEW011 BKN016
                        11/10 Q1012=
201009261920 METAR COR EGLL 261920Z 33009KT 9999 FEW011 BKN016 11/10 Q1012
                        TEMPO RA BKN012=
201009261850 METAR COR EGLL 261850Z 31008KT 9999 FEW009 SCT012 BKN018
                        11/10 Q1012 NOSIG=
201009261820 METAR COR EGLL 261820Z 31008KT 9999 FEW010 BKN015 11/09 Q1012
                        TEMPO RA BKN012=
201009261750 METAR COR EGLL 261750Z 31009KT 9999 FEW008 BKN012 11/10 Q1012
                        NOSIG=
201009261720 METAR COR EGLL 261720Z 31008KT 290V350 9999 FEW009 BKN014
                        11/10 Q1012 TEMPO BKN016=
201009261650 METAR COR EGLL 261650Z 31008KT 9999 FEW008 BKN011 12/10 Q1012
                        NOSIG=
201009261620 METAR COR EGLL 261620Z 31009KT 9999 FEW012 BKN014 11/10 Q1012
                        TEMPO BKN016=
201009261550 METAR COR EGLL 261550Z 31009KT 8000 -RA FEW011 BKN021 11/10
                        Q1012 TEMPO BKN014=
201009261520 METAR COR EGLL 261520Z 31008KT 8000 -RA BKN014 BKN022 11/10
                        Q1012 RERA TEMPO BKN016=
201009261450 METAR COR EGLL 261450Z 31008KT 7000 RA BKN013 BKN022 12/10
                        Q1012 TEMPO -RA BKN016=
201009261420 METAR COR EGLL 261420Z 32009KT 290V350 8000 -RA BKN014 12/09
                        Q1012 TEMPO RA=
201009261350 METAR COR EGLL 261350Z 32011KT 9999 FEW015 BKN019 12/09 Q1012
                        TEMPO BKN014=
201009261320 METAR EGLL 261320Z 33009KT 290V010 9999 BKN019 13/08 Q1012=
201009261250 METAR COR EGLL 261250Z 33009KT 300V010 9999 BKN020 BKN026
                        13/08 Q1012 NOSIG=
201009261220 METAR COR EGLL 261220Z 34012KT 300V360 9999 BKN020 14/08
                        Q1012 NOSIG=
201009261150 METAR COR EGLL 261150Z 33010KT 290V360 9999 BKN020 13/08
                        Q1013 NOSIG=
201009261120 METAR COR EGLL 261120Z 33009G19KT 300V010 9999 BKN025 13/08
                        Q1013 NOSIG=
201009261050 METAR COR EGLL 261050Z 33011KT 300V010 9999 BKN026 13/07
                        Q1013 NOSIG=
201009261020 METAR COR EGLL 261020Z 33011KT 300V010 9999 FEW020 SCT045
                        13/07 Q1013 NOSIG=
201009260950 METAR COR EGLL 260950Z 36012KT 9999 FEW045 12/07 Q1013 NOSIG=
201009260920 METAR COR EGLL 260920Z 35009KT 320V020 9999 FEW020 12/06
                        Q1013 NOSIG=
201009260850 METAR COR EGLL 260850Z 34011KT 300V020 9999 FEW020 11/06
                        Q1013 NOSIG=
201009260820 METAR COR EGLL 260820Z 34011KT 300V010 9999 SCT020 10/06
                        Q1013 NOSIG=
201009260750 METAR COR EGLL 260750Z 34008KT 300V010 9999 SCT020 10/05
                        Q1013 NOSIG=
201009260720 METAR COR EGLL 260720Z 31008KT 9999 SCT021 SCT027 09/05 Q1013
                        NOSIG=
201009260650 METAR COR EGLL 260650Z 32008KT 290V360 9999 SCT026 09/04
                        Q1013 NOSIG=
201009260620 METAR EGLL 260620Z 32009KT 290V350 9999 SCT025 SCT030 09/04
                        Q1013=
201009260550 METAR COR EGLL 260550Z 32010KT 9999 SCT035 09/04 Q1013 NOSIG=
201009260520 METAR COR EGLL 260520Z 32009KT 280V350 9999 FEW042 08/04
                        Q1014 NOSIG=
201009260450 METAR COR EGLL 260450Z 31008KT CAVOK 09/04 Q1014 NOSIG=
201009260420 METAR COR EGLL 260420Z 32009KT CAVOK 09/04 Q1014 NOSIG=
201009260350 METAR COR EGLL 260350Z 31008KT CAVOK 09/04 Q1014 NOSIG=
201009260320 METAR COR EGLL 260320Z 31008KT 280V350 CAVOK 08/04 Q1014
                        NOSIG=
201009260250 METAR COR EGLL 260250Z 31009KT CAVOK 07/03 Q1014 NOSIG=
201009260220 METAR COR EGLL 260220Z 31009KT CAVOK 08/03 Q1015 NOSIG=
201009260150 METAR COR EGLL 260150Z 31008KT 280V340 CAVOK 08/03 Q1015
                        NOSIG=
201009260120 METAR COR EGLL 260120Z 31009KT CAVOK 07/03 Q1015 NOSIG=
201009260050 METAR COR EGLL 260050Z 30007KT CAVOK 07/03 Q1015 NOSIG=
201009260020 METAR COR EGLL 260020Z 30008KT CAVOK 07/03 Q1015 NOSIG=
201009252350 METAR COR EGLL 252350Z 29005KT CAVOK 08/03 Q1016 NOSIG=
201009252320 METAR COR EGLL 252320Z 28006KT CAVOK 08/03 Q1016 NOSIG=
201009252250 METAR COR EGLL 252250Z 29006KT CAVOK 08/03 Q1016 NOSIG=
201009252220 METAR COR EGLL 252220Z 29005KT CAVOK 08/03 Q1017 NOSIG=
201009252150 METAR COR EGLL 252150Z 29006KT CAVOK 09/03 Q1017 NOSIG=
201009252120 METAR COR EGLL 252120Z 29006KT CAVOK 09/04 Q1017 NOSIG=
201009252050 METAR COR EGLL 252050Z 29006KT CAVOK 09/03 Q1017 NOSIG=
201009252020 METAR COR EGLL 252020Z 30005KT CAVOK 09/03 Q1017 NOSIG=
201009251950 METAR COR EGLL 251950Z 30005KT CAVOK 09/03 Q1017 NOSIG=
201009251920 METAR COR EGLL 251920Z 29005KT CAVOK 09/03 Q1017 NOSIG=
201009251850 METAR COR EGLL 251850Z 30004KT CAVOK 10/03 Q1017 NOSIG=
201009251820 METAR COR EGLL 251820Z 32004KT CAVOK 10/03 Q1017 NOSIG=
201009251750 METAR COR EGLL 251750Z 32005KT 290V360 CAVOK 11/04 Q1017
                        NOSIG=
201009251720 METAR COR EGLL 251720Z 32010KT 290V360 CAVOK 12/04 Q1016
                        NOSIG=
201009251650 METAR COR EGLL 251650Z 33008KT CAVOK 13/04 Q1016 NOSIG=
201009251620 METAR COR EGLL 251620Z 33008KT 290V010 CAVOK 13/04 Q1016
                        NOSIG=
201009251550 METAR COR EGLL 251550Z 33010KT 290V360 9999 FEW044 13/04
                        Q1016 NOSIG=
201009251520 METAR COR EGLL 251520Z 32009KT 290V360 9999 FEW040 13/04
                        Q1016 NOSIG=
201009251450 METAR COR EGLL 251450Z 31009KT 9999 FEW040 13/04 Q1016 NOSIG=
201009251420 METAR COR EGLL 251420Z 34008KT 300V020 9999 FEW042 14/04
                        Q1016 NOSIG=
201009251350 METAR COR EGLL 251350Z 32009KT 290V360 9999 FEW042 SCT049
                        13/04 Q1016 NOSIG=
201009251320 METAR COR EGLL 251320Z 32008KT 290V350 9999 FEW040 SCT044
                        13/04 Q1016 NOSIG=
201009251250 METAR COR EGLL 251250Z 35006KT 310V030 9999 BKN038 13/04
                        Q1017 NOSIG=
201009251220 METAR COR EGLL 251220Z 33008KT 300V020 9999 SCT040 13/04
                        Q1017 NOSIG=
201009251150 METAR COR EGLL 251150Z 34008KT 300V020 9999 FEW035 14/05
                        Q1016 NOSIG=
201009251120 METAR COR EGLL 251120Z 36008KT 330V040 9999 FEW034 13/04
                        Q1016 NOSIG=
201009251050 METAR COR EGLL 251050Z 33007KT 300V020 9999 FEW031 12/04
                        Q1016 NOSIG=
201009251020 METAR COR EGLL 251020Z 33009KT 290V010 CAVOK 11/04 Q1017
                        NOSIG=
201009250950 METAR COR EGLL 250950Z 33008KT 290V010 CAVOK 11/04 Q1017
                        NOSIG=
201009250920 METAR COR EGLL 250920Z 33008KT 310V020 CAVOK 10/04 Q1017
                        NOSIG=
201009250850 METAR COR EGLL 250850Z 35008KT 310V020 CAVOK 09/03 Q1016
                        NOSIG=
201009250820 METAR COR EGLL 250820Z 34008KT 300V020 CAVOK 09/03 Q1016
                        NOSIG=
201009250750 METAR COR EGLL 250750Z 35008KT CAVOK 08/03 Q1016 NOSIG=
201009250720 METAR COR EGLL 250720Z 33007KT 290V360 CAVOK 07/03 Q1016
                        NOSIG=
201009250650 METAR COR EGLL 250650Z 32006KT CAVOK 06/03 Q1016 NOSIG=
201009250620 METAR COR EGLL 250620Z 31006KT CAVOK 05/02 Q1016 NOSIG=
201009250550 METAR COR EGLL 250550Z 31006KT CAVOK 05/02 Q1016 NOSIG=
201009250520 METAR COR EGLL 250520Z 31005KT 280V350 CAVOK 05/02 Q1016
                        NOSIG=
201009250450 METAR COR EGLL 250450Z 32005KT CAVOK 05/03 Q1016 NOSIG=
201009250420 METAR EGLL 250420Z 31005KT CAVOK 05/03 Q1016=
201009250350 METAR COR EGLL 250350Z 31005KT CAVOK 05/03 Q1015 NOSIG=
201009250320 METAR COR EGLL 250320Z 31006KT CAVOK 06/03 Q1015 NOSIG=
201009250250 METAR COR EGLL 250250Z 32006KT 300V360 CAVOK 06/03 Q1015
                        NOSIG=
201009250220 METAR COR EGLL 250220Z 34005KT 300V020 CAVOK 07/03 Q1015
                        NOSIG=
201009250150 METAR COR EGLL 250150Z 34007KT 310V010 CAVOK 07/04 Q1015
                        NOSIG=
201009250120 METAR COR EGLL 250120Z 35007KT CAVOK 07/04 Q1015 NOSIG=
201009250050 METAR COR EGLL 250050Z 35007KT 310V020 CAVOK 08/04 Q1015
                        NOSIG=
201009250020 METAR COR EGLL 250020Z 35007KT CAVOK 08/04 Q1014 NOSIG=
201009242350 METAR COR EGLL 242350Z 35007KT 320V020 CAVOK 08/04 Q1014
                        NOSIG=
201009242320 METAR COR EGLL 242320Z 35007KT CAVOK 09/04 Q1014 NOSIG=
201009242250 METAR COR EGLL 242250Z 35007KT CAVOK 09/05 Q1014 NOSIG=
201009242220 METAR COR EGLL 242220Z 35007KT 300V020 9999 SCT030 09/05
                        Q1014 NOSIG=
201009242150 METAR COR EGLL 242150Z 35007KT 310V010 9999 FEW023 SCT036
                        09/05 Q1014 NOSIG=
201009242120 METAR COR EGLL 242120Z 34007KT 310V010 9999 FEW024 SCT033
                        10/05 Q1014 NOSIG=
201009242050 METAR COR EGLL 242050Z 34007KT 310V020 9999 FEW031 10/05
                        Q1013 NOSIG=
201009242020 METAR COR EGLL 242020Z 32007KT 290V350 9999 FEW036 10/04
                        Q1013 NOSIG=
201009241950 METAR COR EGLL 241950Z 33008KT 300V010 CAVOK 10/05 Q1012
                        NOSIG=
201009241920 METAR COR EGLL 241920Z 34007KT 300V020 CAVOK 10/05 Q1012
                        NOSIG=
201009241850 METAR COR EGLL 241850Z 34008KT 280V020 9999 BKN049 11/05
                        Q1012 NOSIG=
201009241820 METAR COR EGLL 241820Z 36009KT 330V040 9999 SCT032 BKN045
                        11/05 Q1011 NOSIG=
201009241750 METAR COR EGLL 241750Z 36009KT 310V030 9999 SCT032 BKN042
                        12/06 Q1011 NOSIG=
201009241720 METAR COR EGLL 241720Z 35009KT 310V050 9999 SCT031 BKN042
                        12/07 Q1010 NOSIG=
201009241650 METAR COR EGLL 241650Z 35011KT 310V010 9999 FEW030 SCT040
                        12/07 Q1010 NOSIG=
201009241620 METAR COR EGLL 241620Z 36012KT 9999 SCT026 BKN034 12/08 Q1009
                        NOSIG=
201009241550 METAR COR EGLL 241550Z 36010KT 330V030 9999 -RA SCT020 BKN024
                        12/08 Q1009 NOSIG=
201009241520 METAR COR EGLL 241520Z 36010KT 330V040 9999 SCT022 BKN026
                        13/08 Q1009 NOSIG=
201009241450 METAR COR EGLL 241450Z 36011KT 320V050 9999 SCT024 BKN030
                        13/08 Q1008 NOSIG=
201009241420 METAR COR EGLL 241420Z 36013KT 9999 BKN020 BKN030 13/09 Q1007
                        NOSIG=
201009241350 METAR COR EGLL 241350Z 36012KT 320V030 9999 -DZ BKN015 BKN020
                        12/10 Q1007 TEMPO BKN014=
201009241320 METAR COR EGLL 241320Z 36011KT 330V030 9999 FEW012 SCT018
                        12/10 Q1006 NOSIG=
201009241250 METAR COR EGLL 241250Z 36010KT 9999 -RA FEW012 SCT020 13/10
                        Q1006 TEMPO 4000 RA BKN012=
201009241220 METAR COR EGLL 241220Z 35009KT 320V020 9999 -RA SCT011 BKN015
                        12/10 Q1005 TEMPO BKN012=
201009241150 METAR COR EGLL 241150Z 35010KT 320V020 6000 -RA SCT009 BKN015
                        13/11 Q1005 TEMPO 4000 RA BKN012=
201009241120 METAR COR EGLL 241120Z 34009KT 290V020 4000 RA SCT011 BKN018
                        13/11 Q1005 TEMPO BKN012=
201009241050 METAR COR EGLL 241050Z 33006KT 300V020 9999 SCT013 BKN021
                        14/11 Q1004 TEMPO BKN013=
201009241020 METAR COR EGLL 241020Z 33008KT 290V010 9999 FEW009 BKN014
                        13/11 Q1004 BECMG SCT014=
201009240950 METAR EGLL 240950Z 32009KT 300V360 5000 -RA FEW008 SCT016
                        13/12 Q1004 NOSIG=
201009240920 METAR COR EGLL 240920Z 32006KT 280V350 4000 RA SCT011 SCT021
                        13/12 Q1003 BECMG 9999 NSW=
201009240850 METAR COR EGLL 240850Z 31007KT 9000 SCT029 14/12 Q1003 NOSIG=
201009240820 METAR COR EGLL 240820Z 32007KT 7000 SCT010 SCT018 14/12 Q1003
                        TEMPO BKN012=
201009240750 METAR COR EGLL 240750Z 31005KT 280V340 6000 SCT029 13/11
                        Q1003 TEMPO BKN012=
201009240720 METAR COR EGLL 240720Z 31005KT 6000 BKN026 13/12 Q1003 TEMPO
                        BKN012=
201009240650 METAR COR EGLL 240650Z 31004KT 6000 BKN017 13/11 Q1002 TEMPO
                        BKN012=
201009240620 METAR COR EGLL 240620Z 30004KT 6000 BKN010 12/11 Q1002 NOSIG=
201009240550 METAR EGLL 240550Z 29006KT 7000 OVC011 12/11 Q1002=
201009240520 METAR COR EGLL 240520Z 28005KT 8000 BKN011 12/11 Q1002 NOSIG=
201009240450 METAR COR EGLL 240450Z 26005KT 8000 BKN011 12/11 Q1001 NOSIG=
201009240420 METAR COR EGLL 240420Z 27006KT 8000 BKN010 12/11 Q1001 NOSIG=
201009240350 METAR COR EGLL 240350Z 27006KT 9000 SCT014 11/11 Q1001 TEMPO
                        BKN010=
201009240320 METAR COR EGLL 240320Z 27005KT 8000 FEW018 11/10 Q1002 TEMPO
                        BKN010=
201009240250 METAR COR EGLL 240250Z 26005KT 8000 FEW008 11/10 Q1002 TEMPO
                        BKN010=
201009240220 METAR COR EGLL 240220Z 27004KT 9000 FEW004 10/10 Q1002 TEMPO
                        BKN010=
201009240150 METAR COR EGLL 240150Z 27005KT 9999 FEW004 10/10 Q1002 TEMPO
                        5000 BR BKN010=
201009240120 METAR COR EGLL 240120Z 27006KT 9999 FEW008 10/10 Q1002 TEMPO
                        5000 BR BKN010=
201009240050 METAR COR EGLL 240050Z 27005KT CAVOK 10/09 Q1002 NOSIG=
201009240020 METAR COR EGLL 240020Z 26005KT CAVOK 10/09 Q1002 NOSIG=
201009232350 METAR COR EGLL 232350Z 27003KT CAVOK 10/09 Q1002 NOSIG=
201009232320 METAR COR EGLL 232320Z 22004KT CAVOK 12/11 Q1002 NOSIG=
201009232250 METAR COR EGLL 232250Z 21005KT 190V250 CAVOK 13/11 Q1002
                        NOSIG=
201009232220 METAR COR EGLL 232220Z 23007KT 200V270 CAVOK 13/11 Q1002
                        NOSIG=
201009232150 METAR COR EGLL 232150Z 27009KT 9999 FEW049 12/11 Q1003 NOSIG=
201009232120 METAR COR EGLL 232120Z 26010KT 9999 FEW022 13/11 Q1003 NOSIG=
201009232050 METAR COR EGLL 232050Z 23008KT 9999 FEW022 13/11 Q1003 NOSIG=
201009232020 METAR COR EGLL 232020Z 23008KT 190V260 CAVOK 13/11 Q1003
                        NOSIG=
201009231950 METAR COR EGLL 231950Z 22007KT 170V270 CAVOK 13/11 Q1003
                        NOSIG=
201009231920 METAR COR EGLL 231920Z 23008KT 190V260 9999 -SHRA FEW020CB
                        13/11 Q1004 NOSIG=
201009231850 METAR COR EGLL 231850Z 26009KT 9999 SHRA SCT020CB 12/11 Q1004
                        TEMPO 4000 TSRA=
201009231820 METAR COR EGLL 231820Z 27012KT 9999 4000N SHRA FEW015 SCT020CB
                        14/11 Q1004 TEMPO 4000 TSRA=
201009231750 METAR COR EGLL 231750Z 22009KT 190V250 9999 FEW025CB 16/13
                        Q1004 TEMPO 4000 TSRA=
201009231720 METAR COR EGLL 231720Z 21010KT 9999 VCSH FEW018 SCT028CB
                        17/13 Q1004 TEMPO 4000 TSRA=
201009231650 METAR COR EGLL 231650Z 21010KT 170V250 9999 FEW018 SCT026
                        17/14 Q1004 TEMPO 4000 TSRA=
201009231620 METAR COR EGLL 231620Z 20011KT 9999 FEW016 SCT025 18/14 Q1004
                        NOSIG=
201009231550 METAR COR EGLL 231550Z 21010KT 170V240 9999 FEW017 SCT028
                        18/14 Q1004 NOSIG=
201009231520 METAR COR EGLL 231520Z 18010KT 150V230 9999 SCT017 SCT025
                        18/14 Q1004 NOSIG=
201009231450 METAR COR EGLL 231450Z 21010KT 180V250 9999 SCT018 SCT030
                        18/14 Q1004 NOSIG=
201009231420 METAR COR EGLL 231420Z 21009KT 190V250 9999 FEW011 SCT018
                        18/14 Q1005 NOSIG=
201009231350 METAR COR EGLL 231350Z 21008KT 170V250 9999 SCT019 18/15
                        Q1005 NOSIG=
201009231320 METAR COR EGLL 231320Z 21008KT 160V250 9999 SCT010 18/15
                        Q1005 NOSIG=
201009231250 METAR COR EGLL 231250Z 21008KT 180V250 9999 FEW006 SCT033
                        17/15 Q1005 NOSIG=
201009231220 METAR COR EGLL 231220Z 20008KT 160V250 9999 FEW005 SCT021
                        16/15 Q1006 NOSIG=
201009231150 METAR COR EGLL 231150Z 20008KT 160V250 9999 SCT009 16/15
                        Q1006 TEMPO BKN009=
201009231120 METAR COR EGLL 231120Z 18007KT 130V300 8000 FEW012 SCT038
                        16/14 Q1007 RERA NOSIG=
201009231050 METAR COR EGLL 231050Z 20009KT 170V240 7000 RA FEW008 BKN032
                        16/14 Q1007 BECMG NSW=
201009231020 METAR COR EGLL 231020Z 17008KT 140V240 5000 RA FEW029 SCT042
                        16/14 Q1007 BECMG 7000 NSW=
201009230950 METAR COR EGLL 230950Z 17008KT 140V230 7000 -RA BKN030 16/14
                        Q1007 RERA TEMPO RA=
201009230920 METAR COR EGLL 230920Z 18008KT 130V240 6000 -RA FEW037 16/14
                        Q1008 TEMPO 4000 RA=
201009230850 METAR COR EGLL 230850Z 18006KT 150V230 5000 -RA FEW031 BKN039
                        16/14 Q1008 TEMPO 4000 RA=
201009230820 METAR COR EGLL 230820Z 17006KT 130V230 6000 -RA FEW035 SCT045
                        15/14 Q1008 TEMPO 4000 RA=
201009230750 METAR COR EGLL 230750Z 17007KT 150V220 8000 -RA FEW020 16/14
                        Q1008 RERA TEMPO 4000 RA=
201009230720 METAR COR EGLL 230720Z VRB06KT 6000 FEW020 15/14 Q1008 TEMPO
                        4000 RA=
201009230650 METAR COR EGLL 230650Z 13005KT 100V200 4000 BR NSC 15/14
                        Q1008 BECMG 6000 NSW=
201009230620 METAR COR EGLL 230620Z 18004KT 120V230 4800 BR BKN045 15/14
                        Q1009 BECMG 6000 NSW=
201009230550 METAR COR EGLL 230550Z VRB02KT 4700 HZ BKN036 15/13 Q1009
                        BECMG 6000 NSW=
201009230520 METAR COR EGLL 230520Z 26005KT 220V290 4700 HZ BKN032 15/14
                        Q1010 BECMG 6000 NSW=
201009230450 METAR COR EGLL 230450Z 26004KT 4700 HZ FEW006 SCT033 15/14
                        Q1010 BECMG 6000=
201009230420 METAR COR EGLL 230420Z 23003KT 5000 HZ SCT006 15/14 Q1010
                        TEMPO BKN006=
201009230350 METAR COR EGLL 230350Z 21003KT 6000 FEW006 15/14 Q1011 TEMPO
                        BKN006=
201009230320 METAR COR EGLL 230320Z 20004KT 6000 FEW006 15/13 Q1011 TEMPO
                        BKN006=
201009230250 METAR COR EGLL 230250Z 19007KT 7000 NSC 15/13 Q1011 NOSIG=
201009230220 METAR COR EGLL 230220Z 20008KT 8000 NSC 15/13 Q1011 NOSIG=
201009230150 METAR COR EGLL 230150Z 20008KT 7000 NSC 14/13 Q1012 NOSIG=
201009230120 METAR COR EGLL 230120Z 20007KT 8000 NSC 14/13 Q1012 NOSIG=
201009230050 METAR COR EGLL 230050Z 19007KT 6000 NSC 14/13 Q1012 TEMPO
                        BKN008=
201009230020 METAR COR EGLL 230020Z 19007KT 8000 FEW008 14/13 Q1012 TEMPO
                        BKN008=
201009222350 METAR COR EGLL 222350Z 19007KT 8000 SCT008 14/13 Q1012 TEMPO
                        BKN008=
201009222320 METAR COR EGLL 222320Z 20005KT 7000 BKN010 14/13 Q1013 TEMPO
                        BKN008=
201009222250 METAR COR EGLL 222250Z 18004KT 7000 NSC 14/13 Q1013 NOSIG=
201009222220 METAR COR EGLL 222220Z 19005KT 150V250 CAVOK 14/13 Q1013
                        NOSIG=
201009222150 METAR COR EGLL 222150Z 22006KT 170V260 CAVOK 15/13 Q1013
                        NOSIG=
201009222120 METAR COR EGLL 222120Z 23008KT CAVOK 15/13 Q1014 NOSIG=
201009222050 METAR COR EGLL 222050Z 24010KT 9999 FEW012 15/13 Q1014 TEMPO
                        BKN012=
201009222020 METAR COR EGLL 222020Z 22011KT 9999 FEW045 16/13 Q1014 TEMPO
                        BKN012=
201009221950 METAR COR EGLL 221950Z 22009KT 180V250 9999 FEW046 16/13
                        Q1014 NOSIG=
201009221920 METAR COR EGLL 221920Z 22010KT 9999 FEW046 17/13 Q1014 NOSIG=
201009221850 METAR COR EGLL 221850Z 21011KT CAVOK 17/12 Q1014 NOSIG=
201009221820 METAR COR EGLL 221820Z 21010KT 170V240 CAVOK 18/12 Q1014
                        NOSIG=
201009221750 METAR COR EGLL 221750Z 21010KT 180V240 CAVOK 19/12 Q1014
                        NOSIG=
201009221720 METAR COR EGLL 221720Z 21011KT CAVOK 19/12 Q1014 NOSIG=
201009221650 METAR COR EGLL 221650Z 21011KT CAVOK 20/12 Q1014 NOSIG=
201009221620 METAR COR EGLL 221620Z 22013KT CAVOK 21/11 Q1014 NOSIG=
201009221550 METAR COR EGLL 221550Z 21012KT CAVOK 22/10 Q1014 NOSIG=
201009221520 METAR COR EGLL 221520Z 21013KT 170V240 CAVOK 22/11 Q1014
                        NOSIG=
201009221450 METAR COR EGLL 221450Z 20011KT 170V240 CAVOK 23/10 Q1014
                        NOSIG=
201009221420 METAR COR EGLL 221420Z 19012KT 160V250 CAVOK 24/10 Q1014
                        NOSIG=
201009221350 METAR COR EGLL 221350Z 19011KT 150V240 CAVOK 23/10 Q1014
                        NOSIG=
201009221320 METAR COR EGLL 221320Z 22012KT 160V250 CAVOK 23/11 Q1014
                        NOSIG=
201009221250 METAR COR EGLL 221250Z 19011KT 150V240 CAVOK 23/11 Q1015
                        NOSIG=
201009221220 METAR COR EGLL 221220Z 20010G20KT 150V250 CAVOK 23/13 Q1015
                        BECMG 20008KT=
201009221150 METAR COR EGLL 221150Z 20011KT 170V240 CAVOK 23/12 Q1016
                        NOSIG=
201009221120 METAR COR EGLL 221120Z 20012KT 160V240 CAVOK 22/12 Q1016
                        NOSIG=
201009221050 METAR COR EGLL 221050Z 19009KT 160V250 CAVOK 22/13 Q1016
                        NOSIG=
201009221020 METAR COR EGLL 221020Z 19005KT 120V240 CAVOK 20/13 Q1016
                        NOSIG=
201009220950 METAR COR EGLL 220950Z 16005KT 100V260 CAVOK 19/13 Q1016
                        NOSIG=
201009220920 METAR COR EGLL 220920Z VRB04KT CAVOK 17/13 Q1017 NOSIG=
201009220850 METAR COR EGLL 220850Z 16005KT 110V220 9000 NSC 17/13 Q1017
                        NOSIG=
201009220820 METAR COR EGLL 220820Z 16007KT 130V220 CAVOK 16/13 Q1017
                        NOSIG=
201009220750 METAR COR EGLL 220750Z 15005KT 100V210 8000 NSC 15/12 Q1017
                        NOSIG=
201009220720 METAR COR EGLL 220720Z VRB03KT 9000 NSC 14/12 Q1017 NOSIG=
201009220650 METAR COR EGLL 220650Z 16004KT 100V230 8000 NSC 14/12 Q1017
                        NOSIG=
201009220620 METAR COR EGLL 220620Z VRB03KT CAVOK 13/11 Q1017 NOSIG=
201009220550 METAR COR EGLL 220550Z 12004KT 040V180 CAVOK 12/10 Q1017
                        NOSIG=
201009220520 METAR COR EGLL 220520Z 10005KT 060V150 CAVOK 12/10 Q1017
                        NOSIG=
201009220450 METAR COR EGLL 220450Z 06002KT CAVOK 11/10 Q1017 NOSIG=
201009220420 METAR COR EGLL 220420Z VRB02KT CAVOK 11/09 Q1017 NOSIG=
201009220350 METAR COR EGLL 220350Z 00000KT CAVOK 11/09 Q1018 NOSIG=
201009220320 METAR COR EGLL 220320Z 03002KT CAVOK 11/10 Q1018 NOSIG=
201009220250 METAR COR EGLL 220250Z 00000KT CAVOK 11/10 Q1018 NOSIG=
201009220220 METAR COR EGLL 220220Z 06002KT CAVOK 12/10 Q1018 NOSIG=
201009220150 METAR COR EGLL 220150Z 03002KT CAVOK 12/10 Q1019 NOSIG=
201009220120 METAR COR EGLL 220120Z 06002KT CAVOK 12/11 Q1019 NOSIG=
201009220050 METAR COR EGLL 220050Z 06003KT CAVOK 13/11 Q1019 NOSIG=
201009220020 METAR COR EGLL 220020Z 05002KT CAVOK 13/11 Q1019 NOSIG=
201009212350 METAR COR EGLL 212350Z 00000KT CAVOK 13/11 Q1019 NOSIG=
201009212320 METAR COR EGLL 212320Z 00000KT CAVOK 13/11 Q1019 NOSIG=
201009212250 METAR COR EGLL 212250Z 14002KT CAVOK 14/11 Q1020 NOSIG=
201009212220 METAR COR EGLL 212220Z VRB02KT CAVOK 14/11 Q1020 NOSIG=
201009212150 METAR COR EGLL 212150Z 20004KT 140V250 CAVOK 15/12 Q1020
                        NOSIG=
201009212120 METAR COR EGLL 212120Z 19005KT 150V250 CAVOK 15/12 Q1020
                        NOSIG=
201009212050 METAR COR EGLL 212050Z 19006KT 160V260 CAVOK 16/12 Q1019
                        NOSIG=
201009212020 METAR COR EGLL 212020Z 19006KT 160V240 CAVOK 16/12 Q1019
                        NOSIG=
201009211950 METAR COR EGLL 211950Z 19006KT 150V240 CAVOK 17/12 Q1019
                        NOSIG=
201009211920 METAR COR EGLL 211920Z 20007KT 170V250 CAVOK 17/12 Q1019
                        NOSIG=
201009211850 METAR COR EGLL 211850Z 18007KT 150V240 CAVOK 18/12 Q1019
                        NOSIG=
201009211820 METAR COR EGLL 211820Z 18006KT 140V240 CAVOK 18/12 Q1019
                        NOSIG=
201009211750 METAR COR EGLL 211750Z 18008KT 150V240 9999 FEW042 19/11
                        Q1019 NOSIG=
201009211720 METAR COR EGLL 211720Z 19009KT 160V240 9999 FEW042 20/11
                        Q1018 NOSIG=
201009211650 METAR COR EGLL 211650Z 17007KT 130V220 9999 SCT042 21/12
                        Q1018 NOSIG=
201009211620 METAR COR EGLL 211620Z 18007KT 130V240 9999 SCT040 20/12
                        Q1018 NOSIG=
201009211550 METAR COR EGLL 211550Z VRB07KT 9999 SCT039 21/11 Q1019 NOSIG=
201009211520 METAR COR EGLL 211520Z VRB08KT 9999 FEW034 21/12 Q1019 NOSIG=
201009211450 METAR COR EGLL 211450Z 19006KT 100V260 9999 SCT040 SCT048
                        20/12 Q1019 NOSIG=
201009211420 METAR COR EGLL 211420Z 16005KT 120V220 9999 FEW033 SCT045
                        20/12 Q1019 NOSIG=
201009211350 METAR COR EGLL 211350Z 17006KT 100V230 9999 FEW033 21/12
                        Q1019 NOSIG=
201009211320 METAR COR EGLL 211320Z 16004KT 080V250 9999 FEW047 21/13
                        Q1019 NOSIG=
201009211250 METAR COR EGLL 211250Z 22009G19KT 180V250 9999 SCT024 SCT049
                        21/13 Q1020 BECMG 22008KT=
201009211220 METAR COR EGLL 211220Z 22008KT 9999 SCT027 BKN040 18/13 Q1020
                        NOSIG=
201009211150 METAR COR EGLL 211150Z 20006KT 140V250 9999 FEW024 BKN034
                        19/13 Q1020 NOSIG=
201009211120 METAR COR EGLL 211120Z 22006KT 140V270 9999 FEW025 BKN031
                        20/13 Q1020 NOSIG=
201009211050 METAR COR EGLL 211050Z VRB05KT 9999 FEW024 BKN031 19/13 Q1020
                        NOSIG=
201009211020 METAR COR EGLL 211020Z 21007KT 170V270 9999 FEW024 SCT032
                        19/13 Q1020 NOSIG=
201009210950 METAR COR EGLL 210950Z 23005KT 200V290 9999 SCT032 18/12
                        Q1020 NOSIG=
201009210920 METAR COR EGLL 210920Z 20005KT 140V270 9999 SCT031 17/12
                        Q1020 NOSIG=
201009210850 METAR COR EGLL 210850Z VRB03KT 9999 FEW032 16/12 Q1020 NOSIG=
201009210820 METAR COR EGLL 210820Z 21004KT 170V240 9999 FEW036 14/12
                        Q1020 NOSIG=
201009210750 METAR COR EGLL 210750Z VRB03KT CAVOK 13/11 Q1019 NOSIG=
201009210720 METAR COR EGLL 210720Z 00000KT CAVOK 12/11 Q1019 NOSIG=
201009210650 METAR COR EGLL 210650Z 35002KT 9999 FEW036 11/10 Q1019 NOSIG=
201009210620 METAR COR EGLL 210620Z 35002KT 9999 FEW048 10/09 Q1019 TEMPO
                        4500 BR BKN004=
201009210550 METAR COR EGLL 210550Z 00000KT CAVOK 10/08 Q1019 TEMPO 4500
                        BR BKN004=
201009210520 METAR COR EGLL 210520Z 00000KT CAVOK 09/08 Q1018 TEMPO 4500
                        BR BKN004=
201009210450 METAR COR EGLL 210450Z 00000KT CAVOK 10/09 Q1018 TEMPO 4500
                        BR BKN004=
201009210420 METAR COR EGLL 210420Z VRB02KT CAVOK 10/09 Q1018 NOSIG=
201009210350 METAR COR EGLL 210350Z 35003KT CAVOK 11/10 Q1018 NOSIG=
201009210320 METAR EGLL 210320Z 00000KT CAVOK 11/09 Q1018=
201009210250 METAR COR EGLL 210250Z 11002KT CAVOK 10/08 Q1018 NOSIG=
201009210220 METAR EGLL 210220Z 00000KT CAVOK 11/09 Q1018=
201009210150 METAR COR EGLL 210150Z 00000KT CAVOK 11/10 Q1018 NOSIG=
201009210120 METAR COR EGLL 210120Z 17002KT CAVOK 11/09 Q1017 NOSIG=
201009210050 METAR COR EGLL 210050Z 00000KT CAVOK 12/10 Q1017 NOSIG=
201009210020 METAR COR EGLL 210020Z 27002KT CAVOK 12/10 Q1017 NOSIG=
201009202350 METAR COR EGLL 202350Z 25002KT CAVOK 12/10 Q1017 NOSIG=
201009202320 METAR COR EGLL 202320Z 23003KT CAVOK 12/10 Q1017 NOSIG=
201009202250 METAR COR EGLL 202250Z 23003KT CAVOK 12/10 Q1017 NOSIG=
201009202220 METAR COR EGLL 202220Z 25005KT 200V280 CAVOK 14/10 Q1017
                        NOSIG=
201009202150 METAR COR EGLL 202150Z 26005KT 190V300 CAVOK 14/10 Q1017
                        NOSIG=
201009202120 METAR COR EGLL 202120Z 27007KT CAVOK 16/10 Q1017 NOSIG=
201009202050 METAR COR EGLL 202050Z 25007KT 200V290 CAVOK 17/10 Q1017
                        NOSIG=
201009202020 METAR COR EGLL 202020Z 23007KT CAVOK 16/10 Q1016 NOSIG=
201009201950 METAR COR EGLL 201950Z 28007KT CAVOK 16/10 Q1016 NOSIG=
201009201920 METAR COR EGLL 201920Z 28005KT CAVOK 16/10 Q1016 NOSIG=
201009201850 METAR COR EGLL 201850Z 28005KT CAVOK 17/10 Q1015 NOSIG=
201009201820 METAR COR EGLL 201820Z 28006KT CAVOK 18/10 Q1015 NOSIG=
201009201750 METAR COR EGLL 201750Z 27008KT CAVOK 18/10 Q1014 NOSIG=
201009201720 METAR COR EGLL 201720Z 25011KT CAVOK 19/10 Q1014 NOSIG=
201009201650 METAR COR EGLL 201650Z 26012KT CAVOK 20/09 Q1014 NOSIG=
201009201620 METAR COR EGLL 201620Z 27012KT 9999 FEW045 20/10 Q1014 NOSIG=
201009201550 METAR COR EGLL 201550Z 27015KT 9999 FEW048 21/09 Q1014 NOSIG=
201009201520 METAR COR EGLL 201520Z 27010KT CAVOK 21/10 Q1014 NOSIG=
201009201450 METAR COR EGLL 201450Z 27013KT 9999 SCT043 21/11 Q1014 NOSIG=
201009201420 METAR COR EGLL 201420Z 28011KT 9999 SCT043 20/10 Q1014 NOSIG=
201009201350 METAR COR EGLL 201350Z 27014KT 9999 SCT041 20/11 Q1014 NOSIG=
201009201320 METAR COR EGLL 201320Z 24014KT 9999 SCT043 22/11 Q1013 NOSIG=
201009201250 METAR COR EGLL 201250Z 25013KT 9999 SCT042 SCT048 21/11 Q1013
                        NOSIG=
201009201220 METAR COR EGLL 201220Z 25015KT 9999 FEW033 SCT039 21/12 Q1013
                        NOSIG=
201009201150 METAR EGLL 201150Z 25013KT 9999 SCT032 SCT044 20/12 Q1013=
201009201120 METAR COR EGLL 201120Z 25015KT 9999 SCT030 SCT034 20/12 Q1013
                        NOSIG=
201009201050 METAR COR EGLL 201050Z 25016KT 9999 FEW029 SCT037 20/12 Q1013
                        NOSIG=
201009201020 METAR COR EGLL 201020Z 25015KT 9999 FEW029 SCT037 20/12 Q1013
                        NOSIG=
201009200950 METAR EGLL 200950Z 25014KT 9999 SCT026 19/12 Q1013=
201009200920 METAR COR EGLL 200920Z 26014KT 9999 FEW020 SCT048 18/13 Q1013
                        NOSIG=
201009200850 METAR COR EGLL 200850Z 26014KT 9999 SCT022 18/13 Q1013 NOSIG=
201009200820 METAR COR EGLL 200820Z 24012KT 9999 FEW016 17/13 Q1013 NOSIG=
201009200750 METAR COR EGLL 200750Z 23010KT 9999 FEW017 SCT049 16/13 Q1013
                        NOSIG=
201009200720 METAR COR EGLL 200720Z 23008KT 200V260 9999 FEW016 16/13
                        Q1013 NOSIG=
201009200650 METAR COR EGLL 200650Z 24010KT 9999 FEW026 BKN049 16/13 Q1013
                        NOSIG=
201009200620 METAR COR EGLL 200620Z 22011KT 9999 BKN027 16/13 Q1012 TEMPO
                        BKN012=
201009200550 METAR COR EGLL 200550Z 23010KT 200V260 9999 BKN035 16/13
                        Q1012 TEMPO -RADZ BKN012=
201009200520 METAR COR EGLL 200520Z 22010KT 9999 FEW028 BKN032 15/13 Q1012
                        TEMPO -RADZ BKN011=
201009200450 METAR COR EGLL 200450Z 22010KT 9999 BKN036 15/13 Q1012 TEMPO
                        -RADZ BKN010=
201009200420 METAR COR EGLL 200420Z 22007KT 9999 BKN015 16/13 Q1012 TEMPO
                        -RADZ BKN012=
201009200350 METAR COR EGLL 200350Z 21008KT 9999 BKN013 BKN018 15/13 Q1012
                        TEMPO BKN015=
201009200320 METAR COR EGLL 200320Z 22010KT 9999 SCT017 BKN037 16/12 Q1012
                        TEMPO BKN013=
201009200250 METAR COR EGLL 200250Z 23010KT 9999 SCT019 15/12 Q1012 TEMPO
                        BKN013=
201009200220 METAR COR EGLL 200220Z 22012KT 9999 FEW019 SCT028 BKN048
                        16/12 Q1012 TEMPO BKN014=
201009200150 METAR COR EGLL 200150Z 22010KT 9999 SCT048 16/12 Q1012 TEMPO
                        BKN014=
201009200120 METAR COR EGLL 200120Z 22010KT 9999 SCT030 16/12 Q1012 TEMPO
                        BKN014=
201009200050 METAR COR EGLL 200050Z 22009KT 9999 BKN020 SCT030 16/12 Q1012
                        TEMPO BKN014=
201009200020 METAR COR EGLL 200020Z 22013KT 9999 BKN045 16/12 Q1013 TEMPO
                        BKN014=
201009192350 METAR COR EGLL 192350Z 22012KT 9999 FEW020 SCT040 OVC045
                        16/12 Q1013 TEMPO BKN014=
201009192320 METAR COR EGLL 192320Z 23013KT 9999 BKN040 16/12 Q1013 TEMPO
                        BKN014=
201009192250 METAR COR EGLL 192250Z 22012KT 9999 SCT045 16/12 Q1013 NOSIG=
201009192220 METAR COR EGLL 192220Z 23011KT CAVOK 15/12 Q1013 NOSIG=
201009192150 METAR COR EGLL 192150Z 23012KT 9999 FEW020 15/12 Q1013 NOSIG=
201009192120 METAR COR EGLL 192120Z 23012KT CAVOK 15/12 Q1013 NOSIG=
201009192050 METAR COR EGLL 192050Z 22013KT 9999 FEW020 15/12 Q1013 NOSIG=
201009192020 METAR COR EGLL 192020Z 23012KT 9999 FEW020 SCT045 16/12 Q1014
                        NOSIG=
201009191950 METAR COR EGLL 191950Z 22010KT 190V250 9999 BKN040 16/12
                        Q1014 NOSIG=
201009191920 METAR COR EGLL 191920Z 22010KT 9999 FEW018 BKN043 16/12 Q1014
                        NOSIG=
201009191850 METAR COR EGLL 191850Z 22012G23KT 9999 FEW021 BKN038 16/12
                        Q1014 NOSIG=
201009191820 METAR COR EGLL 191820Z 22011KT 9999 FEW024 SCT043 16/11 Q1013
                        NOSIG=
201009191750 METAR COR EGLL 191750Z 22011KT 9999 FEW027 16/11 Q1013 NOSIG=
201009191720 METAR COR EGLL 191720Z 22011KT 9999 FEW033 17/11 Q1014 NOSIG=
201009191650 METAR COR EGLL 191650Z 22012KT 9999 FEW034 17/11 Q1014 NOSIG=
201009191620 METAR COR EGLL 191620Z 22013KT 9999 SCT039 18/10 Q1014 NOSIG=
201009191550 METAR COR EGLL 191550Z 24015KT 9999 SCT032 18/10 Q1014 TEMPO
                        24016G26KT=
201009191520 METAR COR EGLL 191520Z 24013G23KT 9999 FEW034 SCT040 18/10
                        Q1014 NOSIG=
201009191450 METAR COR EGLL 191450Z 23014KT 9999 SCT030 SCT037 18/11 Q1014
                        TEMPO 23015G25KT=
201009191420 METAR COR EGLL 191420Z 23012KT 190V260 9999 FEW029 SCT037
                        17/11 Q1015 NOSIG=
201009191350 METAR COR EGLL 191350Z 23014G25KT 9999 SCT036 18/11 Q1015
                        NOSIG=
201009191320 METAR COR EGLL 191320Z 23013KT 9999 SCT041 17/10 Q1015 NOSIG=
201009191250 METAR COR EGLL 191250Z 23013KT 9999 FEW032 17/10 Q1015 NOSIG=
201009191220 METAR COR EGLL 191220Z 23013KT 9999 FEW041 17/10 Q1016 NOSIG=
201009191150 METAR COR EGLL 191150Z 23013KT 9999 SCT029 16/10 Q1016 NOSIG=
201009191120 METAR COR EGLL 191120Z 23015KT 9999 FEW027 16/10 Q1016 NOSIG=
201009191050 METAR COR EGLL 191050Z 23014KT 9999 FEW028 16/10 Q1016 NOSIG=
201009191020 METAR COR EGLL 191020Z 23015KT 9999 FEW024 16/10 Q1017 NOSIG=
201009190950 METAR EGLL 190950Z 23013KT 9999 FEW028 15/10 Q1017=
201009190920 METAR COR EGLL 190920Z 24015KT CAVOK 15/10 Q1017 NOSIG=
201009190850 METAR COR EGLL 190850Z 24012KT CAVOK 14/10 Q1017 NOSIG=
201009190820 METAR COR EGLL 190820Z 24013KT CAVOK 14/09 Q1017 NOSIG=
201009190750 METAR COR EGLL 190750Z 24012KT CAVOK 13/09 Q1016 NOSIG=
201009190720 METAR COR EGLL 190720Z 24012KT CAVOK 12/09 Q1016 NOSIG=
201009190650 METAR COR EGLL 190650Z 24012KT CAVOK 12/08 Q1016 NOSIG=
201009190620 METAR COR EGLL 190620Z 23009KT CAVOK 11/08 Q1016 NOSIG=
201009190550 METAR COR EGLL 190550Z 24011KT CAVOK 11/08 Q1016 NOSIG=
201009190520 METAR COR EGLL 190520Z 24010KT 9999 BKN045 12/08 Q1016 NOSIG=
201009190450 METAR COR EGLL 190450Z 24009KT 9999 SCT040 BKN048 12/08 Q1016
                        NOSIG=
201009190420 METAR COR EGLL 190420Z 23008KT 9999 BKN045 12/08 Q1016 NOSIG=
201009190350 METAR COR EGLL 190350Z 23008KT 9999 FEW039 SCT043 12/08 Q1016
                        NOSIG=
201009190320 METAR COR EGLL 190320Z 24008KT 210V280 9999 BKN045 13/08
                        Q1016 NOSIG=
201009190250 METAR COR EGLL 190250Z 22008KT 9999 BKN039 13/08 Q1017 NOSIG=
201009190220 METAR COR EGLL 190220Z 25008KT 9999 SCT035 BKN044 13/08 Q1017
                        NOSIG=
201009190150 METAR COR EGLL 190150Z 23008KT 9999 BKN046 12/08 Q1017 NOSIG=
201009190120 METAR COR EGLL 190120Z 23008KT 9999 -RA BKN046 12/08 Q1017
                        NOSIG=
201009190050 METAR COR EGLL 190050Z 23008KT 9999 SCT048 12/08 Q1017 NOSIG=
201009190020 METAR COR EGLL 190020Z 23008KT 9999 BKN042 13/08 Q1018 NOSIG=
201009182350 METAR COR EGLL 182350Z 24008KT 9999 OVC039 13/08 Q1018 NOSIG=
201009182320 METAR COR EGLL 182320Z 25009KT 9999 FEW040 OVC044 13/08 Q1018
                        NOSIG=
201009182250 METAR COR EGLL 182250Z 24008KT CAVOK 13/08 Q1018 NOSIG=
201009182220 METAR COR EGLL 182220Z 25008KT CAVOK 13/08 Q1018 NOSIG=
201009182150 METAR COR EGLL 182150Z 24009KT 200V270 CAVOK 14/08 Q1018
                        NOSIG=
201009182120 METAR COR EGLL 182120Z 27011KT CAVOK 13/07 Q1018 NOSIG=
201009182050 METAR COR EGLL 182050Z 28006KT CAVOK 13/07 Q1019 NOSIG=
201009182020 METAR COR EGLL 182020Z 27009KT CAVOK 14/06 Q1019 NOSIG=
201009181950 METAR COR EGLL 181950Z 27009KT CAVOK 14/06 Q1019 NOSIG=
201009181920 METAR COR EGLL 181920Z 25012KT CAVOK 15/06 Q1018 NOSIG=
201009181850 METAR COR EGLL 181850Z 25008KT CAVOK 14/06 Q1018 NOSIG=
201009181820 METAR COR EGLL 181820Z 24008KT CAVOK 14/06 Q1018 NOSIG=
201009181750 METAR COR EGLL 181750Z 27007KT CAVOK 15/05 Q1018 NOSIG=
201009181720 METAR COR EGLL 181720Z 27008KT CAVOK 15/05 Q1018 NOSIG=
201009181650 METAR COR EGLL 181650Z 27010KT CAVOK 16/04 Q1019 NOSIG=
201009181620 METAR EGLL 181620Z 27012KT CAVOK 16/05 Q1019=
201009181550 METAR COR EGLL 181550Z 27007KT 230V290 CAVOK 17/05 Q1019
                        NOSIG=
201009181520 METAR COR EGLL 181520Z 28009KT 9999 BKN045 17/05 Q1019 NOSIG=
201009181450 METAR COR EGLL 181450Z 27010KT 9999 SCT045 16/05 Q1019 NOSIG=
201009181420 METAR COR EGLL 181420Z 28007KT 200V350 9999 FEW045 17/06
                        Q1019 NOSIG=
201009181350 METAR COR EGLL 181350Z 26010KT CAVOK 17/06 Q1019 NOSIG=
201009181320 METAR COR EGLL 181320Z 30006KT 230V340 9999 FEW036 16/07
                        Q1019 NOSIG=
201009181250 METAR COR EGLL 181250Z 27005KT 190V340 9999 SCT034 16/07
                        Q1020 NOSIG=
201009181220 METAR COR EGLL 181220Z 30006KT 220V330 9999 FEW033 16/07
                        Q1020 NOSIG=
201009181150 METAR COR EGLL 181150Z 31005KT 260V020 9999 SCT034 15/07
                        Q1020 NOSIG=
201009181120 METAR COR EGLL 181120Z 33006KT 280V020 9999 SCT032 15/07
                        Q1020 NOSIG=
201009181050 METAR COR EGLL 181050Z 31007KT 280V340 9999 FEW028 15/07
                        Q1020 NOSIG=
201009181020 METAR EGLL 181020Z 34006KT 290V040 9999 FEW028 14/07 Q1020=
201009180950 METAR COR EGLL 180950Z 30009KT 9999 FEW028 14/07 Q1020 NOSIG=
201009180920 METAR EGLL 180920Z 29005KT 250V330 9999 FEW024 13/07 Q1020=
201009180850 METAR COR EGLL 180850Z 29005KT 270V340 CAVOK 11/07 Q1020
                        NOSIG=
201009180820 METAR COR EGLL 180820Z 32007KT CAVOK 10/06 Q1020 NOSIG=
201009180750 METAR EGLL 180750Z 30006KT CAVOK 09/06 Q1020=
201009180720 METAR COR EGLL 180720Z 29005KT CAVOK 08/06 Q1020 NOSIG=
201009180650 METAR COR EGLL 180650Z 29003KT CAVOK 07/06 Q1020 NOSIG=
201009180620 METAR COR EGLL 180620Z 29005KT CAVOK 06/05 Q1020 NOSIG=
201009180550 METAR COR EGLL 180550Z 29006KT CAVOK 06/05 Q1020 NOSIG=
201009180520 METAR COR EGLL 180520Z 28005KT CAVOK 05/04 Q1020 NOSIG=
201009180450 METAR COR EGLL 180450Z 28005KT CAVOK 06/04 Q1020 NOSIG=
201009180420 METAR COR EGLL 180420Z 28005KT CAVOK 05/04 Q1020 NOSIG=
201009180350 METAR COR EGLL 180350Z 29006KT CAVOK 06/04 Q1020 NOSIG=
201009180320 METAR COR EGLL 180320Z 29005KT CAVOK 07/05 Q1020 NOSIG=
201009180250 METAR COR EGLL 180250Z 29005KT CAVOK 06/05 Q1020 NOSIG=
201009180220 METAR COR EGLL 180220Z 29005KT CAVOK 07/05 Q1020 NOSIG=
201009180150 METAR COR EGLL 180150Z 29005KT CAVOK 07/05 Q1020 NOSIG=
201009180120 METAR EGLL 180120Z NIL=
201009180050 METAR COR EGLL 180050Z 28005KT CAVOK 07/05 Q1020 NOSIG=
201009180020 METAR COR EGLL 180020Z 27006KT CAVOK 07/05 Q1020 NOSIG=
201009172350 METAR COR EGLL 172350Z 28005KT CAVOK 07/04 Q1020 NOSIG=
201009172320 METAR COR EGLL 172320Z 29005KT CAVOK 09/05 Q1020 NOSIG=
201009172250 METAR COR EGLL 172250Z 28006KT CAVOK 08/05 Q1020 NOSIG=
201009172220 METAR COR EGLL 172220Z 29005KT CAVOK 09/05 Q1019 NOSIG=
201009172150 METAR COR EGLL 172150Z 29004KT CAVOK 09/05 Q1019 NOSIG=
201009172120 METAR COR EGLL 172120Z 30004KT CAVOK 09/05 Q1019 NOSIG=
201009172050 METAR COR EGLL 172050Z 29005KT CAVOK 10/05 Q1019 NOSIG=
201009172020 METAR COR EGLL 172020Z 29004KT CAVOK 10/05 Q1019 NOSIG=
201009171950 METAR COR EGLL 171950Z 30004KT CAVOK 11/05 Q1019 NOSIG=
201009171920 METAR COR EGLL 171920Z 30002KT CAVOK 11/05 Q1019 NOSIG=
201009171850 METAR COR EGLL 171850Z 30003KT CAVOK 12/05 Q1019 NOSIG=
201009171820 METAR COR EGLL 171820Z VRB03KT CAVOK 13/05 Q1018 NOSIG=
201009171750 METAR COR EGLL 171750Z 31006KT 280V350 CAVOK 14/05 Q1018
                        NOSIG=
201009171720 METAR COR EGLL 171720Z 33006KT 290V020 CAVOK 15/05 Q1018
                        NOSIG=
201009171650 METAR COR EGLL 171650Z 33006KT 300V010 CAVOK 15/05 Q1018
                        NOSIG=
201009171620 METAR COR EGLL 171620Z 31008KT CAVOK 15/04 Q1018 NOSIG=
201009171550 METAR COR EGLL 171550Z 30008KT 9999 FEW048 15/04 Q1017 NOSIG=
201009171520 METAR COR EGLL 171520Z 31008KT 270V340 CAVOK 15/04 Q1017
                        NOSIG=
201009171450 METAR COR EGLL 171450Z 30008KT CAVOK 15/05 Q1017 NOSIG=
201009171420 METAR COR EGLL 171420Z 32008KT 280V010 9999 FEW040 15/04
                        Q1017 NOSIG=
201009171350 METAR COR EGLL 171350Z 31009KT 260V350 9999 FEW043 15/05
                        Q1017 NOSIG=
201009171320 METAR COR EGLL 171320Z 30010KT 9999 FEW045 14/05 Q1017 NOSIG=
201009171250 METAR COR EGLL 171250Z 31008KT 270V350 9999 FEW040 15/05
                        Q1017 NOSIG=
201009171220 METAR COR EGLL 171220Z 30009KT 270V340 9999 FEW043 15/05
                        Q1017 NOSIG=
201009171150 METAR COR EGLL 171150Z 31008KT 270V020 9999 SCT045 15/05
                        Q1017 NOSIG=
201009171120 METAR COR EGLL 171120Z 33008KT 290V030 9999 SCT037 BKN047
                        15/05 Q1017 NOSIG=
201009171050 METAR COR EGLL 171050Z 33008KT 290V020 9999 SCT042 15/05
                        Q1017 NOSIG=
201009171020 METAR COR EGLL 171020Z 30011KT 9999 FEW032 14/06 Q1017 NOSIG=
201009170950 METAR COR EGLL 170950Z 31010KT 280V340 9999 SCT032 13/06
                        Q1016 NOSIG=
201009170920 METAR EGLL 170920Z 32010KT 280V010 9999 SCT030 13/06 Q1016=
201009170850 METAR COR EGLL 170850Z 30010KT 260V350 9999 FEW027 13/07
                        Q1016 NOSIG=
201009170820 METAR COR EGLL 170820Z 29009KT CAVOK 12/08 Q1016 NOSIG=
201009170750 METAR COR EGLL 170750Z 28009KT CAVOK 11/08 Q1016 NOSIG=
201009170720 METAR COR EGLL 170720Z 28008KT CAVOK 10/08 Q1015 NOSIG=
201009170650 METAR COR EGLL 170650Z 27006KT CAVOK 09/07 Q1015 NOSIG=
201009170620 METAR COR EGLL 170620Z 28006KT CAVOK 08/06 Q1015 NOSIG=
201009170550 METAR COR EGLL 170550Z 27006KT CAVOK 07/06 Q1015 NOSIG=
201009170520 METAR COR EGLL 170520Z 28007KT CAVOK 07/06 Q1014 NOSIG=
201009170450 METAR COR EGLL 170450Z 27007KT CAVOK 07/06 Q1014 NOSIG=
201009170420 METAR COR EGLL 170420Z 27008KT CAVOK 07/06 Q1014 NOSIG=
201009170350 METAR COR EGLL 170350Z 27009KT CAVOK 08/06 Q1014 NOSIG=
201009170320 METAR COR EGLL 170320Z 27009KT CAVOK 08/06 Q1014 NOSIG=
201009170250 METAR EGLL 170250Z 27008KT CAVOK 08/06 Q1014=
201009170220 METAR COR EGLL 170220Z 27007KT CAVOK 08/06 Q1014 NOSIG=
201009170150 METAR COR EGLL 170150Z 26006KT CAVOK 08/06 Q1014 NOSIG=
201009170120 METAR COR EGLL 170120Z 27006KT CAVOK 08/06 Q1014 NOSIG=
201009170050 METAR COR EGLL 170050Z 28006KT CAVOK 08/06 Q1014 NOSIG=
201009170020 METAR COR EGLL 170020Z 28007KT CAVOK 08/06 Q1014 NOSIG=
201009162350 METAR COR EGLL 162350Z 28006KT CAVOK 09/06 Q1014 NOSIG=
201009162320 METAR COR EGLL 162320Z 28006KT CAVOK 09/06 Q1014 NOSIG=
201009162250 METAR COR EGLL 162250Z 30006KT CAVOK 11/06 Q1014 NOSIG=
201009162220 METAR COR EGLL 162220Z 29007KT CAVOK 10/06 Q1014 NOSIG=
201009162150 METAR COR EGLL 162150Z 29007KT CAVOK 11/06 Q1013 NOSIG=
201009162120 METAR COR EGLL 162120Z 30007KT CAVOK 12/07 Q1013 NOSIG=
201009162050 METAR COR EGLL 162050Z 29008KT CAVOK 12/07 Q1013 NOSIG=
201009162020 METAR COR EGLL 162020Z 30006KT 9999 FEW049 12/07 Q1013 NOSIG=
201009161950 METAR COR EGLL 161950Z 31006KT CAVOK 13/06 Q1013 NOSIG=
201009161920 METAR COR EGLL 161920Z 32007KT 290V360 9999 FEW040 14/06
                        Q1012 NOSIG=
201009161850 METAR COR EGLL 161850Z 29007KT 9999 FEW040 14/06 Q1012 NOSIG=
201009161820 METAR COR EGLL 161820Z 29007KT 9999 FEW040 15/06 Q1012 NOSIG=
201009161750 METAR COR EGLL 161750Z 30006KT 9999 FEW048 16/07 Q1011 NOSIG=
201009161720 METAR COR EGLL 161720Z 29009KT 9999 FEW036 16/07 Q1011 NOSIG=
201009161650 METAR COR EGLL 161650Z 29011KT 9999 FEW036 17/06 Q1011 NOSIG=
201009161620 METAR COR EGLL 161620Z 29010KT 9999 SCT032 16/07 Q1011 NOSIG=
201009161550 METAR COR EGLL 161550Z 28011KT 9999 SCT032 17/09 Q1011 NOSIG=
201009161520 METAR COR EGLL 161520Z 29010KT 260V320 9999 FEW033 17/09
                        Q1011 NOSIG=
201009161450 METAR COR EGLL 161450Z 29012KT 9999 FEW040 17/09 Q1011 NOSIG=
201009161420 METAR COR EGLL 161420Z 28011KT 9999 FEW030 16/10 Q1011 NOSIG=
201009161350 METAR COR EGLL 161350Z 28008KT 9999 FEW030 BKN041 14/10 Q1011
                        RERA NOSIG=
201009161320 METAR COR EGLL 161320Z 30011KT 9999 SHRA FEW030 SCT040 13/10
                        Q1012 BECMG NSW=
201009161250 METAR COR EGLL 161250Z 30010KT 9999 -SHRA FEW030 16/09 Q1011
                        TEMPO SHRA=
201009161220 METAR COR EGLL 161220Z 29011KT 9999 FEW029 17/09 Q1011 TEMPO
                        SHRA=
201009161150 METAR COR EGLL 161150Z 27010KT 9999 FEW027 16/10 Q1012 NOSIG=
201009161120 METAR COR EGLL 161120Z 28009KT 250V310 9999 FEW020 15/10
                        Q1012 NOSIG=
201009161050 METAR COR EGLL 161050Z 27010KT 9999 SCT020 15/10 Q1012 NOSIG=
201009161020 METAR COR EGLL 161020Z 28009KT 9999 FEW022 15/10 Q1012 NOSIG=
201009160950 METAR COR EGLL 160950Z 27010KT CAVOK 15/10 Q1012 NOSIG=
201009160920 METAR COR EGLL 160920Z 28009KT 260V320 CAVOK 14/10 Q1012
                        NOSIG=
201009160850 METAR COR EGLL 160850Z 29010KT CAVOK 14/10 Q1012 NOSIG=
201009160820 METAR COR EGLL 160820Z 30008KT CAVOK 14/10 Q1011 NOSIG=
201009160750 METAR COR EGLL 160750Z 28010KT CAVOK 13/10 Q1011 NOSIG=
201009160720 METAR COR EGLL 160720Z 27010KT CAVOK 13/10 Q1011 NOSIG=
201009160650 METAR COR EGLL 160650Z 27009KT CAVOK 13/10 Q1011 NOSIG=
201009160620 METAR COR EGLL 160620Z 27010KT CAVOK 13/10 Q1011 NOSIG=
201009160550 METAR COR EGLL 160550Z 27007KT CAVOK 12/10 Q1011 NOSIG=
201009160520 METAR COR EGLL 160520Z 27008KT CAVOK 13/10 Q1011 NOSIG=
201009160450 METAR COR EGLL 160450Z 27008KT CAVOK 13/10 Q1010 NOSIG=
201009160420 METAR COR EGLL 160420Z 27008KT CAVOK 13/10 Q1010 NOSIG=
201009160350 METAR COR EGLL 160350Z 27008KT CAVOK 13/11 Q1010 NOSIG=
201009160320 METAR COR EGLL 160320Z 27008KT CAVOK 12/10 Q1011 NOSIG=
201009160250 METAR COR EGLL 160250Z 27007KT CAVOK 12/10 Q1011 NOSIG=
201009160220 METAR COR EGLL 160220Z 27007KT CAVOK 11/10 Q1011 NOSIG=
201009160150 METAR COR EGLL 160150Z 25008KT 9999 FEW032 12/10 Q1011 NOSIG=
201009160120 METAR COR EGLL 160120Z 26005KT 9999 FEW032 SCT047 12/10 Q1011
                        NOSIG=
201009160050 METAR COR EGLL 160050Z 26005KT 9999 SCT047 13/10 Q1011 NOSIG=
201009160020 METAR COR EGLL 160020Z 27007KT 9999 BKN048 13/10 Q1011 NOSIG=
201009152350 METAR COR EGLL 152350Z 28006KT 9999 FEW036 SCT048 13/10 Q1011
                        NOSIG=
201009152320 METAR COR EGLL 152320Z 28007KT 9999 SCT041 SCT047 13/11 Q1011
                        NOSIG=
201009152250 METAR COR EGLL 152250Z 27009KT CAVOK 13/10 Q1011 NOSIG=
201009152220 METAR COR EGLL 152220Z 28010KT 9999 SCT037 14/11 Q1011 NOSIG=
201009152150 METAR COR EGLL 152150Z 27012KT 9999 BKN039 14/11 Q1011 NOSIG=
201009152120 METAR COR EGLL 152120Z 28009KT 9999 FEW029 14/11 Q1011 TEMPO
                        SHRA=
201009152050 METAR COR EGLL 152050Z 26015KT 9999 SCT039 SCT045 14/10 Q1010
                        TEMPO SHRA=
201009152020 METAR COR EGLL 152020Z 26014KT 9999 SCT039 14/10 Q1010 TEMPO
                        SHRA=
201009151950 METAR COR EGLL 151950Z 26015KT 9999 FEW048 14/10 Q1010 TEMPO
                        SHRA=
201009151920 METAR COR EGLL 151920Z 26015KT 9999 FEW048 15/09 Q1010 NOSIG=
201009151850 METAR COR EGLL 151850Z 26016KT 9999 FEW043 15/09 Q1010 NOSIG=
201009151820 METAR COR EGLL 151820Z 26014KT 9999 FEW034 15/09 Q1010 NOSIG=
201009151750 METAR COR EGLL 151750Z 26016KT 9999 SCT040 15/09 Q1010 NOSIG=
201009151720 METAR COR EGLL 151720Z 25014KT 9999 FEW037 16/09 Q1010 NOSIG=
201009151650 METAR COR EGLL 151650Z 26014KT 9999 FEW037 SCT045 16/09 Q1010
                        NOSIG=
201009151620 METAR COR EGLL 151620Z 26015KT 9999 SCT040 BKN047 16/09 Q1010
                        NOSIG=
201009151550 METAR COR EGLL 151550Z 26016KT 9999 SCT039 BKN044 16/08 Q1010
                        NOSIG=
201009151520 METAR COR EGLL 151520Z 27016KT 9999 SCT042 BKN049 16/08 Q1010
                        NOSIG=
201009151450 METAR COR EGLL 151450Z 26016KT 9999 BKN045 16/08 Q1010 NOSIG=
201009151420 METAR COR EGLL 151420Z 26015KT 9999 SCT045 16/08 Q1010 TEMPO
                        27017G27KT=
201009151350 METAR COR EGLL 151350Z 26017KT 9999 SCT044 16/07 Q1010 TEMPO
                        26018G28KT=
201009151320 METAR COR EGLL 151320Z 27017KT 9999 FEW045 16/07 Q1011 TEMPO
                        27018G28KT=
201009151250 METAR COR EGLL 151250Z 26015KT 9999 FEW045 16/07 Q1011 TEMPO
                        27018G28KT=
201009151220 METAR COR EGLL 151220Z 27020KT 9999 SCT044 16/07 Q1011 TEMPO
                        27020G30KT=
201009151150 METAR COR EGLL 151150Z 27018KT 9999 SCT043 16/07 Q1012 TEMPO
                        26020G30KT=
201009151120 METAR COR EGLL 151120Z 27019KT 9999 SCT040 SCT045 15/07 Q1012
                        TEMPO 26020G30KT=
201009151050 METAR COR EGLL 151050Z 26018KT 9999 FEW039 SCT044 15/07 Q1012
                        TEMPO 26020G30KT=
201009151020 METAR COR EGLL 151020Z 26018KT 9999 SCT035 16/08 Q1012 TEMPO
                        27020G30KT=
201009150950 METAR COR EGLL 150950Z 25018KT 9999 FEW030 15/08 Q1012 TEMPO
                        25018G28KT=
201009150920 METAR COR EGLL 150920Z 25017KT CAVOK 14/09 Q1013 TEMPO 25018G28KT=
201009150850 METAR COR EGLL 150850Z 26015KT CAVOK 14/09 Q1013 NOSIG=
201009150820 METAR COR EGLL 150820Z 25013KT CAVOK 13/08 Q1013 NOSIG=
201009150750 METAR COR EGLL 150750Z 26013KT CAVOK 12/08 Q1013 NOSIG=
201009150720 METAR COR EGLL 150720Z 25012KT CAVOK 11/08 Q1013 NOSIG=
201009150650 METAR COR EGLL 150650Z 25010KT CAVOK 10/08 Q1013 NOSIG=
201009150620 METAR COR EGLL 150620Z 25010KT CAVOK 09/07 Q1013 NOSIG=
201009150550 METAR COR EGLL 150550Z 24009KT CAVOK 09/07 Q1013 NOSIG=
201009150520 METAR COR EGLL 150520Z 24009KT CAVOK 09/07 Q1013 NOSIG=
201009150450 METAR COR EGLL 150450Z 25009KT CAVOK 09/07 Q1013 NOSIG=
201009150420 METAR COR EGLL 150420Z 27007KT CAVOK 09/07 Q1014 NOSIG=
201009150350 METAR COR EGLL 150350Z 25009KT CAVOK 09/07 Q1014 NOSIG=
201009150320 METAR COR EGLL 150320Z 25008KT CAVOK 10/08 Q1014 NOSIG=
201009150250 METAR COR EGLL 150250Z 25007KT CAVOK 10/08 Q1014 NOSIG=
201009150220 METAR COR EGLL 150220Z 26008KT CAVOK 10/08 Q1014 NOSIG=
201009150150 METAR COR EGLL 150150Z 27007KT CAVOK 11/08 Q1014 NOSIG=
201009150120 METAR COR EGLL 150120Z 26007KT CAVOK 12/09 Q1013 NOSIG=
201009150050 METAR COR EGLL 150050Z 25010KT CAVOK 12/10 Q1013 NOSIG=
201009150020 METAR COR EGLL 150020Z 25009KT CAVOK 12/10 Q1014 NOSIG=
201009142350 METAR COR EGLL 142350Z 27007KT CAVOK 13/11 Q1014 NOSIG=
201009142320 METAR COR EGLL 142320Z 27009KT CAVOK 13/11 Q1014 NOSIG=
201009142250 METAR COR EGLL 142250Z 25013KT CAVOK 13/11 Q1014 NOSIG=
201009142220 METAR COR EGLL 142220Z 27013KT CAVOK 13/11 Q1014 NOSIG=
201009142150 METAR COR EGLL 142150Z 26013KT CAVOK 14/11 Q1014 NOSIG=
201009142120 METAR COR EGLL 142120Z 27011KT CAVOK 14/11 Q1014 NOSIG=
201009142050 METAR COR EGLL 142050Z 27014KT CAVOK 14/11 Q1013 NOSIG=
201009142020 METAR COR EGLL 142020Z 27015KT 9999 FEW048 15/12 Q1013 NOSIG=
201009141950 METAR COR EGLL 141950Z 26014KT 9999 FEW046 16/13 Q1013 NOSIG=
201009141920 METAR COR EGLL 141920Z 27013KT 9999 FEW041 SCT046 16/14 Q1013
                        NOSIG=
201009141850 METAR COR EGLL 141850Z 27015KT 9999 FEW010 17/15 Q1012 RERA
                        NOSIG=
201009141820 METAR COR EGLL 141820Z 25013KT 5000 -RA FEW015 SCT023 BKN040
                        18/16 Q1012 TEMPO 4000 RA BKN010=
201009141750 METAR COR EGLL 141750Z 26017KT 9999 -RA SCT020 SCT035 18/16
                        Q1012 TEMPO 4000 RA BKN010=
201009141720 METAR COR EGLL 141720Z 24014KT 9999 -RA SCT013 SCT018 18/16
                        Q1012 TEMPO 4000 RA BKN010=
201009141650 METAR COR EGLL 141650Z 24016KT 9999 -RA SCT011 SCT015 18/16
                        Q1012 TEMPO 4000 RA BKN009=
201009141620 METAR COR EGLL 141620Z 24016KT 9000 -RA FEW011 BKN014 18/17
                        Q1012 TEMPO BKN009=
201009141550 METAR EGLL 141550Z 24016KT 9000 -RA SCT011 BKN022 18/16 Q1013=
201009141520 METAR COR EGLL 141520Z 24015KT 6000 VCSH SCT013 BKN019 BKN026
                        18/17 Q1013 TEMPO BKN014=
201009141450 METAR COR EGLL 141450Z 23017KT 9999 VCSH SCT015 BKN021 19/16
                        Q1014 TEMPO BKN014=
201009141420 METAR COR EGLL 141420Z 24016KT 9999 BKN015 20/16 Q1014 TEMPO
                        BKN014=
201009141350 METAR COR EGLL 141350Z 24016KT 9999 SCT012 BKN015 20/16 Q1014
                        TEMPO BKN012=
201009141320 METAR COR EGLL 141320Z 23017KT 8000 VCSH FEW012 SCT015 BKN028
                        19/16 Q1014 TEMPO BKN014=
201009141250 METAR COR EGLL 141250Z 24017KT 9999 VCSH BKN017 20/16 Q1015
                        TEMPO BKN014=
201009141220 METAR COR EGLL 141220Z 23015KT 9999 BKN015 20/16 Q1015 TEMPO
                        BKN014=
201009141150 METAR COR EGLL 141150Z 23015KT 9999 VCSH BKN014 19/16 Q1015
                        TEMPO BKN015=
201009141120 METAR COR EGLL 141120Z 23016KT 9999 BKN017 19/16 Q1016 TEMPO
                        BKN014=
201009141050 METAR COR EGLL 141050Z 23015KT 9999 BKN017 19/16 Q1016 TEMPO
                        BKN014=
201009141020 METAR COR EGLL 141020Z 23015KT 9999 FEW014 BKN020 19/15 Q1016
                        TEMPO BKN014=
201009140950 METAR COR EGLL 140950Z 23016KT 9999 OVC014 19/15 Q1016 NOSIG=
201009140920 METAR COR EGLL 140920Z 23014KT 9999 OVC014 18/15 Q1017 NOSIG=
201009140850 METAR COR EGLL 140850Z 23015KT 9999 BKN012 18/15 Q1017 NOSIG=
201009140820 METAR COR EGLL 140820Z 23014KT 9999 BKN012 17/15 Q1017 NOSIG=
201009140750 METAR COR EGLL 140750Z 24012KT 9999 BKN013 17/14 Q1017 NOSIG=
201009140720 METAR COR EGLL 140720Z 24013KT 200V260 9999 BKN013 17/14
                        Q1017 NOSIG=
201009140650 METAR COR EGLL 140650Z 23011KT 9999 BKN013 17/14 Q1018 NOSIG=
201009140620 METAR COR EGLL 140620Z 24013KT 9999 OVC014 16/14 Q1018 NOSIG=
201009140550 METAR COR EGLL 140550Z 24013KT 9999 OVC013 16/13 Q1018 NOSIG=
201009140520 METAR COR EGLL 140520Z 23012KT 9999 OVC014 16/13 Q1018 NOSIG=
201009140450 METAR COR EGLL 140450Z 22012KT 9999 OVC014 16/13 Q1018 NOSIG=
201009140420 METAR COR EGLL 140420Z 23013KT 9999 OVC016 15/12 Q1018 BECMG
                        BKN014=
201009140350 METAR COR EGLL 140350Z 23013KT 9999 OVC016 15/12 Q1019 TEMPO
                        BKN014=
201009140320 METAR COR EGLL 140320Z 23012KT 9999 BKN018 15/12 Q1019 NOSIG=
201009140250 METAR COR EGLL 140250Z 23014KT 9999 FEW019 15/12 Q1019 NOSIG=
201009140220 METAR COR EGLL 140220Z 24014KT CAVOK 15/12 Q1019 NOSIG=
201009140150 METAR COR EGLL 140150Z 23012KT 9999 FEW017 15/12 Q1020 NOSIG=
201009140120 METAR COR EGLL 140120Z 24014KT 9999 FEW018 16/12 Q1020 NOSIG=
201009140050 METAR COR EGLL 140050Z 24014KT 9999 FEW017 16/12 Q1020 NOSIG=
201009140020 METAR COR EGLL 140020Z 24012KT 9999 FEW017 16/12 Q1020 NOSIG=
201009132350 METAR COR EGLL 132350Z 23013KT 9999 FEW017 16/13 Q1020 NOSIG=
201009132320 METAR COR EGLL 132320Z 24012KT 9999 SCT017 16/13 Q1021 NOSIG=
201009132250 METAR COR EGLL 132250Z 23012KT 9999 BKN016 BKN020 16/13 Q1021
                        NOSIG=
201009132220 METAR COR EGLL 132220Z 23010KT 9999 SCT017 BKN020 16/13 Q1021
                        NOSIG=
201009132150 METAR COR EGLL 132150Z 24014KT 9999 BKN018 17/13 Q1022 NOSIG=
201009132120 METAR COR EGLL 132120Z 24014KT 9999 BKN019 17/13 Q1022 NOSIG=
201009132050 METAR COR EGLL 132050Z 23015KT 9999 OVC018 17/13 Q1022 NOSIG=
201009132020 METAR COR EGLL 132020Z 24014KT 9999 OVC018 17/13 Q1022 NOSIG=
201009131950 METAR COR EGLL 131950Z 24014KT 9999 BKN018 17/13 Q1022 NOSIG=
201009131920 METAR COR EGLL 131920Z 23013KT 9999 BKN018 17/13 Q1022 NOSIG=
201009131850 METAR COR EGLL 131850Z 23012KT 9999 FEW015 BKN021 17/13 Q1022
                        NOSIG=
201009131820 METAR COR EGLL 131820Z 24013KT 9999 SCT012 BKN016 17/13 Q1022
                        TEMPO BKN014=
201009131750 METAR EGLL 131750Z 24013KT 9999 SCT013 BKN017 17/13 Q1023=
201009131720 METAR COR EGLL 131720Z 23012KT 9999 SCT013 BKN018 16/14 Q1023
                        NOSIG=
201009131650 METAR EGLL 131650Z 22013KT 9999 FEW013 BKN022 16/14 Q1023
                        NOSIG=
201009131620 METAR COR EGLL 131620Z 23013KT 9000 -RA SCT018 BKN022 16/14
                        Q1024 NOSIG=
201009131550 METAR COR EGLL 131550Z 25014KT 9999 SCT023 SCT029 17/13 Q1024
                        NOSIG=
201009131520 METAR EGLL 131520Z 23013G23KT 9999 BKN027 18/12 Q1024=
201009131450 METAR EGLL 131450Z 23013KT 9999 -RA BKN030 18/12 Q1024=
201009131420 METAR COR EGLL 131420Z 23013KT 9999 SCT034 18/12 Q1024 NOSIG=
201009131350 METAR EGLL 131350Z 23013KT 9999 SCT034 18/12 Q1024=
201009131320 METAR COR EGLL 131320Z 24013KT 9999 SCT034 18/12 Q1024 TEMPO
                        24016G26KT=
201009131250 METAR COR EGLL 131250Z 24013KT 9999 BKN033 18/12 Q1025 TEMPO
                        24015G25KT=
201009131220 METAR COR EGLL 131220Z 24015G25KT 9999 SCT030 18/12 Q1025
                        NOSIG=
201009131150 METAR COR EGLL 131150Z 25015KT 9999 SCT028 18/11 Q1025 NOSIG=
201009131120 METAR COR EGLL 131120Z 22013KT 9999 FEW028 BKN040 18/12 Q1025
                        NOSIG=
201009131050 METAR EGLL 131050Z 23012KT 9999 SCT024 18/12 Q1025=
201009131020 METAR COR EGLL 131020Z 23011KT 9999 FEW025 18/12 Q1026 NOSIG=
201009130950 METAR COR EGLL 130950Z 23011KT 9999 SCT046 17/12 Q1026 NOSIG=
201009130920 METAR EGLL 130920Z 23010KT 9999 FEW030 BKN044 16/12 Q1026=
201009130850 METAR EGLL 130850Z 22009KT 9999 FEW026 SCT031 BKN042 15/11
                        Q1026=
201009130820 METAR COR EGLL 130820Z 23008KT 9999 FEW038 BKN043 15/11 Q1027
                        NOSIG=
201009130750 METAR EGLL 130750Z 21005KT 170V250 9999 BKN046 14/10 Q1027=
201009130720 METAR COR EGLL 130720Z 21006KT 190V250 CAVOK 13/10 Q1027
                        NOSIG=
201009130650 METAR COR EGLL 130650Z 20005KT 170V260 CAVOK 13/09 Q1027
                        NOSIG=
201009130620 METAR COR EGLL 130620Z 20006KT 170V250 CAVOK 12/09 Q1026
                        NOSIG=
201009130550 METAR COR EGLL 130550Z 20004KT 170V250 CAVOK 11/09 Q1026
                        NOSIG=
201009130520 METAR COR EGLL 130520Z 20004KT 180V240 CAVOK 11/08 Q1026
                        NOSIG=
201009130450 METAR COR EGLL 130450Z 21005KT CAVOK 10/08 Q1027 NOSIG=
201009130420 METAR COR EGLL 130420Z 21005KT 190V270 CAVOK 10/08 Q1026
                        NOSIG=
201009130350 METAR EGLL 130350Z 21005KT CAVOK 10/08 Q1027=
201009130320 METAR EGLL 130320Z 20005KT CAVOK 11/08 Q1027=
201009130250 METAR COR EGLL 130250Z 27005KT CAVOK 10/08 Q1027 NOSIG=
201009130220 METAR COR EGLL 130220Z 27005KT CAVOK 10/08 Q1027 NOSIG=
201009130150 METAR COR EGLL 130150Z 26005KT CAVOK 10/07 Q1027 NOSIG=
201009130120 METAR COR EGLL 130120Z 27005KT CAVOK 10/08 Q1027 NOSIG=
201009130050 METAR COR EGLL 130050Z 27004KT CAVOK 10/08 Q1027 NOSIG=
201009130020 METAR COR EGLL 130020Z 27004KT CAVOK 10/08 Q1027 NOSIG=
201009122350 METAR COR EGLL 122350Z 29004KT CAVOK 11/08 Q1027 NOSIG=
201009122320 METAR COR EGLL 122320Z 29004KT CAVOK 11/08 Q1027 NOSIG=
201009122250 METAR COR EGLL 122250Z 29004KT CAVOK 11/09 Q1027 NOSIG=
201009122220 METAR COR EGLL 122220Z 29003KT CAVOK 12/09 Q1027 NOSIG=
201009122150 METAR COR EGLL 122150Z 29004KT CAVOK 13/09 Q1027 NOSIG=
201009122120 METAR COR EGLL 122120Z 29005KT CAVOK 13/09 Q1027 NOSIG=
201009122050 METAR EGLL 122050Z 31004KT 270V330 CAVOK 14/09 Q1026=
201009122020 METAR COR EGLL 122020Z 30003KT CAVOK 15/09 Q1026 NOSIG=
201009121950 METAR COR EGLL 121950Z VRB03KT CAVOK 15/09 Q1026 NOSIG=
201009121920 METAR COR EGLL 121920Z VRB03KT 9999 FEW049 16/09 Q1025 NOSIG=
201009121850 METAR COR EGLL 121850Z 31005KT 9999 FEW049 16/09 Q1025 NOSIG=
201009121820 METAR COR EGLL 121820Z VRB03KT 9999 FEW048 17/09 Q1025 NOSIG=
201009121750 METAR COR EGLL 121750Z 33005KT 280V360 9999 FEW045 18/09
                        Q1025 NOSIG=
201009121720 METAR COR EGLL 121720Z 33006KT 9999 FEW046 19/08 Q1024 NOSIG=
201009121650 METAR COR EGLL 121650Z 30007KT 9999 FEW045 18/09 Q1024 NOSIG=
201009121620 METAR COR EGLL 121620Z 31008KT 270V340 CAVOK 19/09 Q1024
                        NOSIG=
201009121550 METAR COR EGLL 121550Z 30008KT 270V340 CAVOK 19/08 Q1024
                        NOSIG=
201009121520 METAR COR EGLL 121520Z 30009KT 270V330 9999 FEW046 19/08
                        Q1024 NOSIG=
201009121450 METAR COR EGLL 121450Z 30011KT 270V330 9999 FEW046 19/08
                        Q1024 NOSIG=
201009121420 METAR COR EGLL 121420Z 30009KT 9999 FEW048 19/08 Q1023 NOSIG=
201009121350 METAR COR EGLL 121350Z 30011KT 270V330 9999 FEW046 20/08
                        Q1023 NOSIG=
201009121320 METAR COR EGLL 121320Z 30011KT 260V320 9999 FEW045 19/08
                        Q1023 NOSIG=
201009121250 METAR COR EGLL 121250Z 29010KT 270V340 9999 FEW045 19/08
                        Q1023 NOSIG=
201009121220 METAR COR EGLL 121220Z 30009KT 270V330 9999 SCT040 19/09
                        Q1023 NOSIG=
201009121150 METAR COR EGLL 121150Z 30009KT 260V330 9999 SCT035 18/09
                        Q1023 NOSIG=
201009121120 METAR COR EGLL 121120Z 29009KT 260V330 9999 SCT035 19/10
                        Q1023 NOSIG=
201009121050 METAR COR EGLL 121050Z 32008KT 270V360 9999 SCT028 17/10
                        Q1023 NOSIG=
201009121020 METAR COR EGLL 121020Z 33008KT 280V010 9999 SCT026 17/10
                        Q1023 NOSIG=
201009120950 METAR COR EGLL 120950Z 31008KT 270V350 9999 FEW023 17/11
                        Q1023 NOSIG=
201009120920 METAR COR EGLL 120920Z 33007KT 280V010 9999 FEW019 16/11
                        Q1022 NOSIG=
201009120850 METAR COR EGLL 120850Z 32007KT 290V350 9999 FEW018 16/11
                        Q1022 NOSIG=
201009120820 METAR COR EGLL 120820Z 31006KT 280V350 CAVOK 15/11 Q1022
                        NOSIG=
201009120750 METAR COR EGLL 120750Z 30007KT CAVOK 14/11 Q1022 NOSIG=
201009120720 METAR COR EGLL 120720Z 29005KT 260V340 CAVOK 13/11 Q1021
                        NOSIG=
201009120650 METAR COR EGLL 120650Z 28006KT CAVOK 12/11 Q1021 NOSIG=
201009120620 METAR COR EGLL 120620Z 28005KT CAVOK 11/10 Q1020 NOSIG=
201009120550 METAR COR EGLL 120550Z 29005KT CAVOK 11/10 Q1020 NOSIG=
201009120520 METAR COR EGLL 120520Z 27007KT CAVOK 11/10 Q1020 NOSIG=
201009120450 METAR EGLL 120450Z 28005KT CAVOK 11/10 Q1020=
201009120420 METAR EGLL 120420Z 28006KT CAVOK 11/10 Q1019=
201009120350 METAR EGLL 120350Z 27005KT CAVOK 11/10 Q1019=
201009120320 METAR COR EGLL 120320Z 26005KT CAVOK 11/10 Q1019 NOSIG=
201009120250 METAR COR EGLL 120250Z 29005KT CAVOK 12/11 Q1019 NOSIG=
201009120220 METAR COR EGLL 120220Z 28007KT CAVOK 12/11 Q1018 NOSIG=
201009120150 METAR COR EGLL 120150Z 26005KT CAVOK 12/10 Q1018 NOSIG=
201009120120 METAR COR EGLL 120120Z 26006KT CAVOK 12/11 Q1018 NOSIG=
201009120050 METAR COR EGLL 120050Z 27005KT CAVOK 13/11 Q1018 NOSIG=
201009120020 METAR COR EGLL 120020Z 28007KT CAVOK 13/12 Q1018 NOSIG=
201009112350 METAR COR EGLL 112350Z 27006KT CAVOK 13/12 Q1018 NOSIG=
201009112320 METAR EGLL 112320Z 28007KT CAVOK 15/12 Q1017=
201009112250 METAR COR EGLL 112250Z 27007KT CAVOK 15/13 Q1017 NOSIG=
201009112220 METAR COR EGLL 112220Z 26006KT CAVOK 15/13 Q1017 NOSIG=
201009112150 METAR COR EGLL 112150Z 26007KT 230V290 CAVOK 15/13 Q1017
                        NOSIG=
201009112120 METAR COR EGLL 112120Z 23008KT CAVOK 16/13 Q1017 NOSIG=
201009112050 METAR COR EGLL 112050Z 22006KT 190V250 CAVOK 16/13 Q1016
                        NOSIG=
201009112020 METAR COR EGLL 112020Z 22008KT CAVOK 17/13 Q1016 NOSIG=
201009111950 METAR COR EGLL 111950Z 23010KT 9999 FEW034CB 17/14 Q1016
                        NOSIG=
201009111920 METAR COR EGLL 111920Z 22010KT 9999 VCSH FEW034CB 18/13 Q1016
                        NOSIG=
201009111850 METAR COR EGLL 111850Z 21009KT 9999 FEW036 18/13 Q1015 NOSIG=
201009111820 METAR COR EGLL 111820Z 21010KT 9999 FEW040 19/14 Q1015 NOSIG=
201009111750 METAR COR EGLL 111750Z 20011KT 9999 FEW024 19/14 Q1015 NOSIG=
201009111720 METAR COR EGLL 111720Z 21012KT 9999 FEW024 20/14 Q1015 NOSIG=
201009111650 METAR COR EGLL 111650Z 21011KT 9999 FEW029 20/14 Q1014 NOSIG=
201009111620 METAR COR EGLL 111620Z 22011KT 190V250 9999 FEW028 20/14
                        Q1014 NOSIG=
201009111550 METAR COR EGLL 111550Z 22011KT 9999 FEW032 21/13 Q1014 NOSIG=
201009111520 METAR COR EGLL 111520Z 22014KT 9999 FEW034 22/14 Q1014 NOSIG=
201009111450 METAR COR EGLL 111450Z 22015KT 9999 FEW032 22/14 Q1014 NOSIG=
201009111420 METAR COR EGLL 111420Z 22014KT 9999 SCT031 21/13 Q1014 NOSIG=
201009111350 METAR COR EGLL 111350Z 23014KT 9999 SCT030 SCT044 20/14 Q1014
                        NOSIG=
201009111320 METAR COR EGLL 111320Z 22013KT 9999 SCT032 20/15 Q1014 NOSIG=
201009111250 METAR COR EGLL 111250Z 24011KT 9999 SCT020 20/16 Q1014 NOSIG=
201009111220 METAR EGLL 111220Z 23012KT 9999 SCT016 19/16 Q1014=
201009111150 METAR EGLL 111150Z 23014KT 200V270 9999 -RA FEW017 BKN022
                        18/15 Q1014=
201009111120 METAR EGLL 111120Z 23015KT 9999 SCT018 BKN024 20/16 Q1014=
201009111050 METAR EGLL 111050Z 23015KT 9999 BKN022 20/16 Q1014=
201009111020 METAR COR EGLL 111020Z 22012KT 180V250 9999 BKN019 20/16
                        Q1014 NOSIG=
201009110950 METAR COR EGLL 110950Z 20011KT 180V240 9999 SCT009 BKN019
                        19/16 Q1014 NOSIG=
201009110920 METAR COR EGLL 110920Z 20011KT 170V240 9999 SCT009 BKN019
                        18/16 Q1014 TEMPO BKN009=
201009110850 METAR COR EGLL 110850Z 21010G20KT 9999 BKN008 18/16 Q1014
                        BECMG BKN012=
201009110820 METAR COR EGLL 110820Z 21011KT 9999 BKN009 17/15 Q1014 BECMG
                        BKN012=
201009110750 METAR COR EGLL 110750Z 21011KT 9999 BKN011 17/15 Q1013 NOSIG=
201009110720 METAR COR EGLL 110720Z 20013KT 9999 FEW013 BKN018 17/15 Q1013
                        TEMPO BKN013=
201009110650 METAR COR EGLL 110650Z 21012KT 5000 -RA BKN016 17/15 Q1013
                        BECMG BKN014=
201009110620 METAR COR EGLL 110620Z 21011KT 9999 BKN014 17/14 Q1013 TEMPO
                        SCT014=
201009110550 METAR COR EGLL 110550Z 21011KT 190V260 9999 BKN015 17/14
                        Q1013 BECMG BKN015=
201009110520 METAR COR EGLL 110520Z 21011KT 9999 OVC015 17/14 Q1013 BECMG
                        BKN014=
201009110450 METAR EGLL 110450Z 21011KT 9999 BKN016 17/14 Q1013=
201009110420 METAR COR EGLL 110420Z 21009KT 9999 -RA BKN017 17/14 Q1013
                        BECMG BKN014=
201009110350 METAR COR EGLL 110350Z 21010KT 170V230 9999 SCT018 17/14
                        Q1013 BECMG BKN014=
201009110320 METAR COR EGLL 110320Z 20010KT 9999 SCT017 BKN038 17/14 Q1013
                        TEMPO BKN014=
201009110250 METAR COR EGLL 110250Z 20009KT 9999 BKN039 17/14 Q1014 TEMPO
                        BKN014=
201009110220 METAR COR EGLL 110220Z 21009KT 9999 FEW021 BKN042 17/14 Q1014
                        TEMPO BKN014=
201009110150 METAR COR EGLL 110150Z 20008KT CAVOK 17/14 Q1014 NOSIG=
201009110120 METAR COR EGLL 110120Z 20009KT 9999 SCT044 17/14 Q1015 TEMPO
                        BKN014=
201009110050 METAR COR EGLL 110050Z 20009KT 9999 BKN044 17/14 Q1015 TEMPO
                        BKN014=
201009110020 METAR COR EGLL 110020Z 18009KT 9999 SCT022 BKN040 17/14 Q1015
                        NOSIG=
201009102350 METAR COR EGLL 102350Z 18010KT 9999 FEW018 BKN040 17/14 Q1015
                        NOSIG=
201009102320 METAR COR EGLL 102320Z 19010KT 170V230 9999 FEW015 BKN040
                        17/14 Q1016 NOSIG=
201009102250 METAR COR EGLL 102250Z 19011KT 170V240 9999 FEW040 17/14
                        Q1016 NOSIG=
201009102220 METAR COR EGLL 102220Z 18010KT 9999 SCT040 17/14 Q1016 NOSIG=
201009102150 METAR COR EGLL 102150Z 20010KT 9999 BKN040 17/14 Q1016 NOSIG=
201009102120 METAR COR EGLL 102120Z 20010KT 9999 BKN040 17/14 Q1016 NOSIG=
201009102050 METAR COR EGLL 102050Z 20009KT 9999 FEW016 SCT042 18/15 Q1017
                        NOSIG=
201009102020 METAR COR EGLL 102020Z 21009KT 9999 FEW015 SCT043 18/15 Q1017
                        TEMPO BKN014=
201009101950 METAR COR EGLL 101950Z 21010KT CAVOK 18/15 Q1017 NOSIG=
201009101920 METAR COR EGLL 101920Z 21009KT 9999 FEW018 18/15 Q1017 NOSIG=
201009101850 METAR COR EGLL 101850Z 21011KT 9999 SCT020 19/15 Q1017 TEMPO
                        BKN014=
201009101820 METAR EGLL 101820Z 21010KT 9999 FEW021 19/15 Q1017=
201009101750 METAR COR EGLL 101750Z 21010KT 9999 FEW018 19/15 Q1016 NOSIG=
201009101720 METAR COR EGLL 101720Z 21012KT 9999 FEW027 20/15 Q1016 NOSIG=
201009101650 METAR COR EGLL 101650Z 21013KT 9999 FEW025 20/15 Q1016 NOSIG=
201009101620 METAR COR EGLL 101620Z 21013KT 9999 FEW024 20/15 Q1016 NOSIG=
201009101550 METAR EGLL 101550Z 22015KT 9999 FEW027 21/15 Q1017=
201009101520 METAR COR EGLL 101520Z 20013KT 9999 FEW022 SCT026 21/15 Q1017
                        NOSIG=
201009101450 METAR COR EGLL 101450Z 21014KT 9999 FEW023 22/16 Q1017 NOSIG=
201009101420 METAR COR EGLL 101420Z 21013KT 9999 FEW019 21/16 Q1017 NOSIG=
201009101350 METAR EGLL 101350Z 22014KT 9999 FEW024 21/16 Q1017=
201009101320 METAR COR EGLL 101320Z 22015KT 9999 FEW020 21/15 Q1017 NOSIG=
201009101250 METAR COR EGLL 101250Z 22017KT 9999 SCT022 21/15 Q1018 NOSIG=
201009101220 METAR COR EGLL 101220Z 23016KT 9999 SCT022 21/15 Q1018 NOSIG=
201009101150 METAR COR EGLL 101150Z 23014KT 9999 BKN022 21/15 Q1018 NOSIG=
201009101120 METAR COR EGLL 101120Z 23014KT 9999 FEW021 BKN026 20/15 Q1018
                        NOSIG=
201009101050 METAR COR EGLL 101050Z 22013KT 9999 BKN022 20/15 Q1018 NOSIG=
201009101020 METAR EGLL 101020Z 22014G24KT 9999 BKN021 19/15 Q1018=
201009100950 METAR COR EGLL 100950Z 22012KT 9999 BKN020 19/15 Q1018 TEMPO
                        BKN014=
201009100920 METAR COR EGLL 100920Z 23013G23KT 9999 BKN018 19/14 Q1018
                        TEMPO BKN014=
201009100850 METAR COR EGLL 100850Z 22014KT 9999 SCT018 18/14 Q1018 TEMPO
                        BKN012=
201009100820 METAR COR EGLL 100820Z 21010G21KT 9999 FEW017 18/14 Q1018
                        NOSIG=
201009100750 METAR EGLL 100750Z 22009KT 9999 FEW012 17/14 Q1018=
201009100720 METAR COR EGLL 100720Z 22010KT 9999 FEW015 SCT035 16/14 Q1018
                        NOSIG=
201009100650 METAR COR EGLL 100650Z 20010KT 180V250 9999 FEW017 BKN043
                        16/13 Q1018 NOSIG=
201009100620 METAR COR EGLL 100620Z 21008KT 9999 FEW020 OVC048 15/13 Q1018
                        NOSIG=
201009100550 METAR COR EGLL 100550Z 21008KT CAVOK 15/13 Q1018 NOSIG=
201009100520 METAR COR EGLL 100520Z 21007KT CAVOK 15/12 Q1018 NOSIG=
201009100450 METAR COR EGLL 100450Z 20006KT CAVOK 15/12 Q1018 NOSIG=
201009100420 METAR COR EGLL 100420Z 20005KT 180V250 CAVOK 14/12 Q1018
                        NOSIG=
201009100350 METAR COR EGLL 100350Z 23006KT CAVOK 14/12 Q1019 NOSIG=
201009100320 METAR COR EGLL 100320Z 23006KT CAVOK 14/12 Q1019 NOSIG=
201009100250 METAR EGLL 100250Z 20004KT CAVOK 14/12 Q1019=
201009100220 METAR COR EGLL 100220Z 21004KT 9999 -RA NSC 14/12 Q1019 NOSIG=
201009100150 METAR COR EGLL 100150Z 22004KT 9999 -RA NSC 14/12 Q1019 NOSIG=
201009100120 METAR COR EGLL 100120Z 22005KT CAVOK 15/11 Q1019 NOSIG=
201009100050 METAR COR EGLL 100050Z 25007KT CAVOK 14/11 Q1019 NOSIG=
201009100020 METAR COR EGLL 100020Z 24005KT CAVOK 14/11 Q1019 NOSIG=
201009092350 METAR COR EGLL 092350Z 26006KT CAVOK 13/11 Q1019 NOSIG=
201009092320 METAR COR EGLL 092320Z 25007KT CAVOK 13/11 Q1019 NOSIG=
201009092250 METAR COR EGLL 092250Z 26009KT CAVOK 14/11 Q1019 NOSIG=
201009092220 METAR COR EGLL 092220Z 25008KT CAVOK 14/11 Q1019 NOSIG=
201009092150 METAR COR EGLL 092150Z 25008KT CAVOK 14/11 Q1019 NOSIG=
201009092120 METAR COR EGLL 092120Z 27008KT CAVOK 14/11 Q1019 NOSIG=
201009092050 METAR COR EGLL 092050Z 26008KT CAVOK 15/11 Q1018 NOSIG=
201009092020 METAR COR EGLL 092020Z 28007KT CAVOK 15/11 Q1018 NOSIG=
201009091950 METAR COR EGLL 091950Z 28008KT 9999 FEW043 15/12 Q1018 NOSIG=
201009091920 METAR COR EGLL 091920Z 25007KT 220V280 9999 FEW042 16/12
                        Q1018 NOSIG=
201009091850 METAR COR EGLL 091850Z 30004KT 270V340 9999 FEW045 16/12
                        Q1017 NOSIG=
201009091820 METAR COR EGLL 091820Z 27006KT 9999 FEW044 18/11 Q1017 NOSIG=
201009091750 METAR COR EGLL 091750Z 28008KT 9999 FEW044 19/12 Q1017 NOSIG=
201009091720 METAR COR EGLL 091720Z 27010KT 9999 FEW044 20/11 Q1016 NOSIG=
201009091650 METAR COR EGLL 091650Z 27012KT 9999 FEW044 21/10 Q1016 NOSIG=
201009091620 METAR COR EGLL 091620Z 27006KT 9999 FEW042 22/11 Q1016 NOSIG=
201009091550 METAR COR EGLL 091550Z 31006KT 270V350 9999 FEW032 20/12
                        Q1016 NOSIG=
201009091520 METAR EGLL 091520Z 28009KT 260V320 9999 FEW032 20/12 Q1016=
201009091450 METAR EGLL 091450Z 27010KT 9999 FEW034 20/12 Q1015=
201009091420 METAR COR EGLL 091420Z 30007KT 9999 FEW032TCU 20/12 Q1015
                        NOSIG=
201009091350 METAR COR EGLL 091350Z 27011KT 9999 FEW032 19/12 Q1015 NOSIG=
201009091320 METAR COR EGLL 091320Z 32005KT 290V360 9999 FEW020CB 20/13
                        Q1015 NOSIG=
201009091250 METAR COR EGLL 091250Z 32006KT 290V350 9999 VCSH FEW020CB
                        SCT030 20/13 Q1015 NOSIG=
201009091220 METAR COR EGLL 091220Z 24009KT 210V270 9999 VCSH SCT031 SCT040
                        19/13 Q1015 TEMPO SHRA=
201009091150 METAR EGLL 091150Z 26010KT 9999 SCT030 SCT039 20/13 Q1015=
201009091120 METAR COR EGLL 091120Z 29007KT 250V330 9999 FEW023 SCT031
                        21/13 Q1015 TEMPO SHRA=
201009091050 METAR COR EGLL 091050Z 27009KT 9999 SCT020 20/13 Q1014 NOSIG=
201009091020 METAR COR EGLL 091020Z 28009KT 9999 SCT020 19/14 Q1014 NOSIG=
201009090950 METAR COR EGLL 090950Z 29007KT 250V330 9999 FEW017 18/14
                        Q1014 NOSIG=
201009090920 METAR COR EGLL 090920Z 27009KT 9999 FEW013 17/13 Q1014 NOSIG=
201009090850 METAR COR EGLL 090850Z 28009KT 9999 FEW012 16/13 Q1014 NOSIG=
201009090820 METAR COR EGLL 090820Z 27010KT 9999 FEW007 16/13 Q1013 NOSIG=
201009090750 METAR COR EGLL 090750Z 26009KT 9999 FEW007 15/13 Q1013 NOSIG=
201009090720 METAR COR EGLL 090720Z 27008KT 9000 FEW007 14/12 Q1013 NOSIG=
201009090650 METAR COR EGLL 090650Z 27005KT 9000 FEW006 13/12 Q1012 NOSIG=
201009090620 METAR COR EGLL 090620Z 27007KT 9000 FEW007 12/11 Q1012 TEMPO
                        BKN007=
201009090550 METAR COR EGLL 090550Z 26008KT 9999 SCT006 12/11 Q1012 TEMPO
                        BKN006=
201009090520 METAR COR EGLL 090520Z 25007KT 9999 SCT006 12/11 Q1011 TEMPO
                        BKN006=
201009090450 METAR COR EGLL 090450Z 26006KT CAVOK 13/12 Q1011 NOSIG=
201009090420 METAR COR EGLL 090420Z 24008KT 9999 FEW015 13/11 Q1010 NOSIG=
201009090350 METAR COR EGLL 090350Z 26007KT CAVOK 13/12 Q1010 NOSIG=
201009090320 METAR COR EGLL 090320Z 26006KT CAVOK 14/12 Q1010 NOSIG=
201009090250 METAR COR EGLL 090250Z 26008KT CAVOK 14/12 Q1010 NOSIG=
201009090220 METAR COR EGLL 090220Z 27007KT CAVOK 14/12 Q1009 NOSIG=
201009090150 METAR COR EGLL 090150Z 27007KT CAVOK 14/12 Q1009 NOSIG=
201009090120 METAR COR EGLL 090120Z 25007KT CAVOK 14/12 Q1009 NOSIG=
201009090050 METAR COR EGLL 090050Z 26004KT CAVOK 13/12 Q1009 NOSIG=
201009090020 METAR COR EGLL 090020Z 25006KT CAVOK 13/12 Q1008 NOSIG=
201009082350 METAR COR EGLL 082350Z 25007KT CAVOK 13/12 Q1008 NOSIG=
201009082320 METAR COR EGLL 082320Z 26006KT CAVOK 14/12 Q1008 NOSIG=
201009082250 METAR COR EGLL 082250Z 27006KT CAVOK 14/12 Q1008 NOSIG=
201009082220 METAR COR EGLL 082220Z 27005KT CAVOK 14/12 Q1008 NOSIG=
201009082150 METAR COR EGLL 082150Z 25007KT CAVOK 14/11 Q1007 NOSIG=
201009082120 METAR COR EGLL 082120Z 27006KT CAVOK 14/11 Q1007 NOSIG=
201009082050 METAR COR EGLL 082050Z 27006KT 9999 SCT045 15/12 Q1007 NOSIG=
201009082020 METAR COR EGLL 082020Z 22006KT 9999 FEW047 17/12 Q1006 NOSIG=
201009081950 METAR COR EGLL 081950Z 22007KT 9999 SCT044 17/12 Q1006 NOSIG=
201009081920 METAR COR EGLL 081920Z 22005KT 9999 SCT048 16/11 Q1006 NOSIG=
201009081850 METAR COR EGLL 081850Z 25006KT 9999 FEW049 17/11 Q1005 NOSIG=
201009081820 METAR COR EGLL 081820Z 28004KT 240V320 CAVOK 18/12 Q1005
                        NOSIG=
201009081750 METAR COR EGLL 081750Z 27005KT CAVOK 18/12 Q1005 NOSIG=
201009081720 METAR COR EGLL 081720Z 26007KT 220V290 CAVOK 19/12 Q1004
                        NOSIG=
201009081650 METAR COR EGLL 081650Z 26008KT CAVOK 18/12 Q1004 NOSIG=
201009081620 METAR COR EGLL 081620Z 25011KT CAVOK 18/12 Q1004 NOSIG=
201009081550 METAR COR EGLL 081550Z 26010KT 9999 FEW035 19/13 Q1004 NOSIG=
201009081520 METAR COR EGLL 081520Z 26010KT 9999 FEW046 19/14 Q1003 NOSIG=
201009081450 METAR COR EGLL 081450Z 26009KT 9999 FEW034 19/13 Q1003 NOSIG=
201009081420 METAR COR EGLL 081420Z 27010KT 9999 FEW026 19/14 Q1003 NOSIG=
201009081350 METAR COR EGLL 081350Z 28008KT 240V320 9999 FEW026 20/13
                        Q1003 NOSIG=
201009081320 METAR COR EGLL 081320Z 28008KT 9999 FEW024 19/13 Q1003 NOSIG=
201009081250 METAR COR EGLL 081250Z 28007KT 9999 SCT020 18/13 Q1003 NOSIG=
201009081220 METAR COR EGLL 081220Z 33004KT 290V050 9999 SCT021 BKN027
                        19/13 Q1003 NOSIG=
201009081150 METAR COR EGLL 081150Z 35005KT 280V030 9000 SCT018 BKN023
                        18/13 Q1003 NOSIG=
201009081120 METAR COR EGLL 081120Z 34005KT 290V040 7000 SCT012 BKN023
                        18/13 Q1003 NOSIG=
201009081050 METAR COR EGLL 081050Z 36004KT 330V040 6000 SCT013 BKN022
                        17/13 Q1003 NOSIG=
201009081020 METAR COR EGLL 081020Z 33004KT 300V010 5000 HZ SCT011 BKN018
                        17/13 Q1003 BECMG NSW=
201009080950 METAR COR EGLL 080950Z 36005KT 310V030 4500 HZ SCT009 BKN017
                        16/14 Q1002 BECMG 7000 NSW=
201009080920 METAR COR EGLL 080920Z 35004KT 290V020 3600 BR FEW008 OVC011
                        15/13 Q1002 BECMG 7000 NSW BKN015=
201009080850 METAR COR EGLL 080850Z 35005KT 2800 BR FEW004 OVC006 15/14
                        Q1002 BECMG BKN010=
201009080820 METAR COR EGLL 080820Z 35004KT 3000 BR FEW004 OVC006 15/14
                        Q1002 NOSIG=
201009080750 METAR COR EGLL 080750Z 34004KT 300V010 2600 BR OVC005 15/14
                        Q1002 NOSIG=
201009080720 METAR COR EGLL 080720Z 34004KT 2400 BR OVC004 15/14 Q1002
                        BECMG BKN006=
201009080650 METAR COR EGLL 080650Z 32004KT 1900 BR FEW002 OVC003 14/13
                        Q1002 TEMPO BKN006=
201009080620 METAR COR EGLL 080620Z VRB03KT 1700 BR OVC002 14/13 Q1001
                        BECMG BKN003=
201009080550 METAR COR EGLL 080550Z VRB03KT 1900 BR OVC002 14/13 Q1001
                        TEMPO BKN003=
201009080520 METAR COR EGLL 080520Z 03005KT 350V090 2100 BR OVC002 14/13
                        Q1001 TEMPO BKN003=
201009080450 METAR COR EGLL 080450Z 01004KT 340V060 3500 BR OVC003 14/13
                        Q1001 TEMPO BKN002=
201009080420 METAR COR EGLL 080420Z 02004KT 340V050 7000 OVC003 14/12
                        Q1001 TEMPO 4000 BR BKN002=
201009080350 METAR COR EGLL 080350Z VRB03KT 9999 BKN005 14/12 Q1001 TEMPO
                        BKN004=
201009080320 METAR COR EGLL 080320Z 34004KT 9999 BKN009 13/12 Q1001 TEMPO
                        BKN010=
201009080250 METAR COR EGLL 080250Z 36004KT 9999 BKN010 BKN034 13/12 Q1001
                        TEMPO BKN008=
201009080220 METAR COR EGLL 080220Z 35004KT 9999 BKN030 13/12 Q1001 TEMPO
                        BKN010=
201009080150 METAR COR EGLL 080150Z 35004KT 9999 FEW030 13/12 Q1001 NOSIG=
201009080120 METAR COR EGLL 080120Z 35004KT CAVOK 13/12 Q1001 NOSIG=
201009080050 METAR COR EGLL 080050Z 35003KT CAVOK 14/12 Q1001 NOSIG=
201009080020 METAR COR EGLL 080020Z 03003KT 9999 FEW038 14/12 Q1001 NOSIG=
201009072350 METAR COR EGLL 072350Z 02002KT 9999 FEW038 14/12 Q1002 NOSIG=
201009072320 METAR COR EGLL 072320Z 04003KT CAVOK 14/12 Q1002 NOSIG=
201009072250 METAR COR EGLL 072250Z 36003KT CAVOK 15/12 Q1002 NOSIG=
201009072220 METAR COR EGLL 072220Z 00000KT CAVOK 14/12 Q1002 NOSIG=
201009072150 METAR COR EGLL 072150Z VRB02KT CAVOK 16/12 Q1002 NOSIG=
201009072120 METAR COR EGLL 072120Z VRB03KT CAVOK 15/12 Q1002 NOSIG=
201009072050 METAR COR EGLL 072050Z 13004KT 100V200 CAVOK 16/12 Q1002
                        NOSIG=
201009072020 METAR EGLL 072020Z VRB03KT CAVOK 16/12 Q1002=
201009071950 METAR COR EGLL 071950Z 15004KT 100V190 CAVOK 16/12 Q1002
                        NOSIG=
201009071920 METAR EGLL 071920Z 16004KT 120V200 CAVOK 16/12 Q1002=
201009071850 METAR COR EGLL 071850Z 19005KT 160V240 CAVOK 16/12 Q1001
                        NOSIG=
201009071820 METAR COR EGLL 071820Z 21008KT 180V250 CAVOK 17/12 Q1001
                        NOSIG=
201009071750 METAR COR EGLL 071750Z 19007KT 160V230 CAVOK 17/12 Q1001
                        NOSIG=
201009071720 METAR COR EGLL 071720Z 20008KT CAVOK 18/12 Q1001 NOSIG=
201009071650 METAR COR EGLL 071650Z 18010KT 9999 FEW044 18/12 Q1001 NOSIG=
201009071620 METAR COR EGLL 071620Z 19009KT 150V220 9999 FEW029 19/12
                        Q1001 NOSIG=
201009071550 METAR COR EGLL 071550Z 20009KT 170V230 9999 FEW020 19/13
                        Q1001 NOSIG=
201009071520 METAR COR EGLL 071520Z 19010KT 150V240 9999 FEW020TCU 18/12
                        Q1000 NOSIG=
201009071450 METAR COR EGLL 071450Z 15008KT 110V180 9999 FEW047 18/13
                        Q1000 NOSIG=
201009071420 METAR COR EGLL 071420Z 19008KT 120V240 9999 FEW045 19/14
                        Q1000 NOSIG=
201009071350 METAR COR EGLL 071350Z 25007KT 210V280 9999 FEW030 17/13
                        Q1001 NOSIG=
201009071320 METAR COR EGLL 071320Z 26010KT 9999 FEW024 SCT032 17/11 Q1001
                        NOSIG=
201009071250 METAR COR EGLL 071250Z 20009KT 170V240 9999 FEW022 18/13
                        Q1001 TEMPO 3000 +SHRA=
201009071220 METAR COR EGLL 071220Z 18010KT 140V250 9999 SCT022 18/13
                        Q1001 TEMPO 3000 +SHRA=
201009071150 METAR COR EGLL 071150Z 17008KT 140V230 9999 SCT014 17/14
                        Q1001 TEMPO SHRA=
201009071120 METAR COR EGLL 071120Z 20008KT 160V250 9999 VCSH FEW019 SCT021CB
                        16/13 Q1001 TEMPO 3000 +SHRA TSRA
                        BKN014CB=
201009071050 METAR COR EGLL 071050Z 17010KT 140V220 9999 -SHRA FEW018
                        SCT021CB 17/13 Q1001 TEMPO 3000 TSRA
                        BKN014CB=
201009071020 METAR COR EGLL 071020Z 18008KT 130V280 9999 SCT017 SCT023
                        18/13 Q1001 TEMPO 4000 SHRA=
201009070950 METAR COR EGLL 070950Z 18009KT 160V240 9999 SCT021 18/13
                        Q1001 NOSIG=
201009070920 METAR COR EGLL 070920Z 20007KT 150V250 9999 FEW015 SCT020
                        17/13 Q1001 NOSIG=
201009070850 METAR COR EGLL 070850Z 18007KT 160V230 9999 SCT012 17/13
                        Q1001 NOSIG=
201009070820 METAR COR EGLL 070820Z 20008KT 160V250 9999 FEW012 16/14
                        Q1000 NOSIG=
201009070750 METAR COR EGLL 070750Z 21006KT 180V240 CAVOK 15/13 Q1000
                        NOSIG=
201009070720 METAR COR EGLL 070720Z 22006KT 180V260 CAVOK 15/13 Q1000
                        NOSIG=
201009070650 METAR COR EGLL 070650Z 21007KT 160V250 9999 FEW030 14/13
                        Q1000 NOSIG=
201009070620 METAR COR EGLL 070620Z 21005KT 170V260 CAVOK 13/13 Q1000
                        NOSIG=
201009070550 METAR COR EGLL 070550Z 20005KT 140V240 7000 1800NW MIFG FEW003
                        13/12 Q1000 TEMPO BKN003=
201009070520 METAR COR EGLL 070520Z 20004KT 140V270 6000 2300E BR SCT002
                        13/12 Q1000 TEMPO BKN003=
201009070450 METAR COR EGLL 070450Z 21004KT 6000 BKN003 BKN006 13/12 Q1000
                        BECMG SCT005=
201009070420 METAR COR EGLL 070420Z 21004KT 180V300 9999 BKN005 BKN010
                        14/12 Q1000 TEMPO SCT008=
201009070350 METAR COR EGLL 070350Z 20004KT 180V270 9999 FEW005 SCT011
                        14/13 Q1000 TEMPO BKN008=
201009070320 METAR COR EGLL 070320Z 20005KT 9999 SCT011 BKN014 14/13 Q1000
                        NOSIG=
201009070250 METAR COR EGLL 070250Z 21004KT 9999 BKN015 14/13 Q1000 TEMPO
                        BKN012=
201009070220 METAR COR EGLL 070220Z 20003KT 9999 FEW006 SCT015 13/12 Q1000
                        NOSIG=
201009070150 METAR COR EGLL 070150Z 21007KT 9999 FEW013 14/13 Q1000 NOSIG=
201009070120 METAR COR EGLL 070120Z 20006KT 9999 FEW011 14/13 Q1000 NOSIG=
201009070050 METAR COR EGLL 070050Z 20005KT 9999 FEW027 14/13 Q1000 NOSIG=
201009070020 METAR COR EGLL 070020Z 22007KT 9999 SCT027 15/14 Q1000 NOSIG=
201009062350 METAR COR EGLL 062350Z 20006KT 9999 BKN030 15/14 Q1000 NOSIG=
201009062320 METAR COR EGLL 062320Z 20006KT 9999 FEW020 SCT029 15/14 Q1001
                        NOSIG=
201009062250 METAR COR EGLL 062250Z 20007KT 9999 FEW019 SCT033 15/14 Q1000
                        NOSIG=
201009062220 METAR COR EGLL 062220Z 21005KT 9999 FEW020 15/14 Q1000 NOSIG=
201009062150 METAR COR EGLL 062150Z 19007KT 8000 -RA FEW006 SCT018 15/14
                        Q1001 RERA NOSIG=
201009062120 METAR COR EGLL 062120Z 14006KT 5000 RA SCT006 SCT017 15/14
                        Q1001 NOSIG=
201009062050 METAR COR EGLL 062050Z 14007KT 5000 RA SCT010 BKN017 15/14
                        Q1001 NOSIG=
201009062020 METAR COR EGLL 062020Z 13007KT 4400 RA BKN011 16/14 Q1001
                        RERA NOSIG=
201009061950 METAR COR EGLL 061950Z 13007KT 8000 RA BKN016 16/14 Q1002
                        TEMPO 4000 +RA BKN012=
201009061920 METAR COR EGLL 061920Z 12009KT 9000 RA BKN020 16/13 Q1002
                        TEMPO 4000 +RA BKN012=
201009061850 METAR COR EGLL 061850Z 11013KT 9000 RA NSC 17/13 Q1001 NOSIG=
201009061820 METAR COR EGLL 061820Z 11011KT 9999 -RA NSC 17/13 Q1002 RERA
                        BECMG RA=
201009061750 METAR COR EGLL 061750Z 11012KT 9999 -RA NSC 18/12 Q1003 BECMG
                        RA=
201009061720 METAR COR EGLL 061720Z 11011KT CAVOK 18/11 Q1003 NOSIG=
201009061650 METAR COR EGLL 061650Z 12012KT CAVOK 18/11 Q1003 NOSIG=
201009061620 METAR COR EGLL 061620Z 11012KT CAVOK 18/11 Q1004 NOSIG=
201009061550 METAR COR EGLL 061550Z 10015KT CAVOK 18/11 Q1004 NOSIG=
201009061520 METAR COR EGLL 061520Z 10015KT CAVOK 18/11 Q1004 NOSIG=
201009061450 METAR COR EGLL 061450Z 10014KT CAVOK 18/11 Q1005 NOSIG=
201009061420 METAR COR EGLL 061420Z 09016G27KT CAVOK 18/09 Q1005 NOSIG=
201009061350 METAR EGLL 061350Z 11016KT CAVOK 19/08 Q1006 NOSIG=
201009061320 METAR COR EGLL 061320Z 11016KT CAVOK 19/09 Q1006 NOSIG=
201009061250 METAR COR EGLL 061250Z 11017KT 9999 -RA FEW045 20/09 Q1006
                        NOSIG=
201009061220 METAR COR EGLL 061220Z 12016KT CAVOK 21/08 Q1007 NOSIG=
201009061150 METAR COR EGLL 061150Z 10014KT CAVOK 20/08 Q1007 NOSIG=
201009061120 METAR COR EGLL 061120Z 10018KT CAVOK 20/08 Q1008 NOSIG=
201009061050 METAR COR EGLL 061050Z 10019KT CAVOK 20/09 Q1008 NOSIG=
201009061020 METAR EGLL 061020Z 10014G24KT CAVOK 18/09 Q1009 TEMPO 10012KT=
201009060950 METAR COR EGLL 060950Z 10013KT CAVOK 18/09 Q1009 NOSIG=
201009060920 METAR COR EGLL 060920Z 11015KT CAVOK 18/10 Q1010 NOSIG=
201009060850 METAR COR EGLL 060850Z 10012KT CAVOK 18/09 Q1010 NOSIG=
201009060820 METAR COR EGLL 060820Z 10012KT CAVOK 17/09 Q1010 NOSIG=
201009060750 METAR COR EGLL 060750Z 10012KT CAVOK 17/10 Q1011 NOSIG=
201009060720 METAR COR EGLL 060720Z 10009KT CAVOK 16/10 Q1011 NOSIG=
201009060650 METAR COR EGLL 060650Z 10010KT CAVOK 16/09 Q1012 NOSIG=
201009060620 METAR COR EGLL 060620Z 10009KT CAVOK 15/09 Q1012 NOSIG=
201009060550 METAR COR EGLL 060550Z 09009KT CAVOK 15/09 Q1012 NOSIG=
201009060520 METAR COR EGLL 060520Z 09009KT CAVOK 13/08 Q1012 NOSIG=
201009060450 METAR COR EGLL 060450Z 09009KT CAVOK 14/08 Q1012 NOSIG=
201009060420 METAR COR EGLL 060420Z 09010KT CAVOK 13/08 Q1013 NOSIG=
201009060350 METAR COR EGLL 060350Z 08008KT CAVOK 13/08 Q1013 NOSIG=
201009060320 METAR COR EGLL 060320Z 09009KT CAVOK 13/08 Q1013 NOSIG=
201009060250 METAR COR EGLL 060250Z 09009KT CAVOK 13/08 Q1014 NOSIG=
201009060220 METAR COR EGLL 060220Z 09008KT CAVOK 13/08 Q1014 NOSIG=
201009060150 METAR COR EGLL 060150Z 09010KT CAVOK 14/08 Q1014 NOSIG=
201009060120 METAR COR EGLL 060120Z 09007KT CAVOK 13/08 Q1015 NOSIG=
201009060050 METAR COR EGLL 060050Z 09009KT CAVOK 14/08 Q1015 NOSIG=
201009060020 METAR COR EGLL 060020Z 10012KT CAVOK 15/08 Q1015 NOSIG=
201009052350 METAR COR EGLL 052350Z 10011KT CAVOK 15/09 Q1015 NOSIG=
201009052320 METAR COR EGLL 052320Z 09010KT CAVOK 15/09 Q1016 NOSIG=
201009052250 METAR COR EGLL 052250Z 09011KT CAVOK 15/09 Q1016 NOSIG=
201009052220 METAR COR EGLL 052220Z 10011KT CAVOK 15/10 Q1016 NOSIG=
201009052150 METAR COR EGLL 052150Z 09010KT CAVOK 15/10 Q1016 NOSIG=
201009052120 METAR COR EGLL 052120Z 09011KT CAVOK 16/10 Q1017 NOSIG=
201009052050 METAR COR EGLL 052050Z 09012KT CAVOK 16/10 Q1017 NOSIG=
201009052020 METAR COR EGLL 052020Z 09012KT CAVOK 16/10 Q1017 NOSIG=
201009051950 METAR COR EGLL 051950Z 09011KT CAVOK 17/11 Q1018 NOSIG=
201009051920 METAR COR EGLL 051920Z 09010KT CAVOK 17/10 Q1018 NOSIG=
201009051850 METAR COR EGLL 051850Z 09009KT CAVOK 18/11 Q1017 NOSIG=
201009051820 METAR COR EGLL 051820Z 09010KT CAVOK 18/11 Q1017 NOSIG=
201009051750 METAR COR EGLL 051750Z 09009KT CAVOK 19/10 Q1017 NOSIG=
201009051720 METAR COR EGLL 051720Z 10010KT CAVOK 19/09 Q1017 NOSIG=
201009051650 METAR COR EGLL 051650Z 10010KT CAVOK 20/08 Q1017 NOSIG=
201009051620 METAR COR EGLL 051620Z 11012KT CAVOK 20/07 Q1017 NOSIG=
201009051550 METAR COR EGLL 051550Z 12013KT CAVOK 20/06 Q1017 NOSIG=
201009051520 METAR COR EGLL 051520Z 11013KT CAVOK 21/06 Q1018 NOSIG=
201009051450 METAR COR EGLL 051450Z 12012KT CAVOK 21/07 Q1018 NOSIG=
201009051420 METAR COR EGLL 051420Z 12012KT CAVOK 21/08 Q1018 NOSIG=
201009051350 METAR COR EGLL 051350Z 12012KT CAVOK 19/08 Q1018 NOSIG=
201009051320 METAR EGLL 051320Z 12012KT CAVOK 19/08 Q1019=
201009051250 METAR COR EGLL 051250Z 11012KT 9999 -SHRA FEW035 18/09 Q1019
                        NOSIG=
201009051220 METAR COR EGLL 051220Z 11013KT CAVOK 19/09 Q1019 NOSIG=
201009051150 METAR COR EGLL 051150Z 10011KT CAVOK 18/09 Q1019 NOSIG=
201009051120 METAR COR EGLL 051120Z 10009KT CAVOK 18/11 Q1019 NOSIG=
201009051050 METAR COR EGLL 051050Z 09009KT 9999 -SHRA FEW040 17/11 Q1019
                        NOSIG=
201009051020 METAR COR EGLL 051020Z 10007KT CAVOK 17/10 Q1020 NOSIG=
201009050950 METAR COR EGLL 050950Z 11009KT CAVOK 17/11 Q1020 NOSIG=
201009050920 METAR COR EGLL 050920Z 11008KT CAVOK 17/11 Q1020 NOSIG=
201009050850 METAR COR EGLL 050850Z 11009KT CAVOK 17/10 Q1020 NOSIG=
201009050820 METAR COR EGLL 050820Z 12009KT CAVOK 16/10 Q1020 NOSIG=
201009050750 METAR COR EGLL 050750Z 11008KT CAVOK 17/11 Q1020 NOSIG=
201009050720 METAR COR EGLL 050720Z 09008KT CAVOK 16/11 Q1019 NOSIG=
201009050650 METAR COR EGLL 050650Z 10009KT CAVOK 15/11 Q1019 NOSIG=
201009050620 METAR COR EGLL 050620Z 09009KT CAVOK 14/11 Q1019 NOSIG=
201009050550 METAR COR EGLL 050550Z 09008KT CAVOK 14/11 Q1019 NOSIG=
201009050520 METAR COR EGLL 050520Z 09007KT CAVOK 14/11 Q1020 NOSIG=
201009050450 METAR COR EGLL 050450Z 09006KT CAVOK 14/11 Q1020 NOSIG=
201009050420 METAR COR EGLL 050420Z 09007KT CAVOK 14/12 Q1020 NOSIG=
201009050350 METAR COR EGLL 050350Z 08006KT CAVOK 15/12 Q1020 NOSIG=
201009050320 METAR COR EGLL 050320Z 08007KT CAVOK 15/12 Q1020 NOSIG=
201009050250 METAR COR EGLL 050250Z 08007KT CAVOK 15/12 Q1020 NOSIG=
201009050220 METAR COR EGLL 050220Z 08007KT CAVOK 14/12 Q1020 NOSIG=
201009050150 METAR COR EGLL 050150Z 09006KT CAVOK 14/11 Q1020 NOSIG=
201009050120 METAR COR EGLL 050120Z 08007KT CAVOK 14/11 Q1020 NOSIG=
201009050050 METAR COR EGLL 050050Z 09005KT CAVOK 14/11 Q1020 NOSIG=
201009050020 METAR COR EGLL 050020Z 09006KT CAVOK 14/11 Q1021 NOSIG=
201009042350 METAR COR EGLL 042350Z 10005KT CAVOK 14/11 Q1021 NOSIG=
201009042320 METAR COR EGLL 042320Z 09006KT CAVOK 13/10 Q1021 NOSIG=
201009042250 METAR COR EGLL 042250Z 09005KT CAVOK 13/10 Q1021 NOSIG=
201009042220 METAR COR EGLL 042220Z 09007KT CAVOK 14/10 Q1021 NOSIG=
201009042150 METAR EGLL 042150Z 08006KT CAVOK 15/11 Q1021 NOSIG=
201009042120 METAR COR EGLL 042120Z 09008KT CAVOK 15/11 Q1021 NOSIG=
201009042050 METAR COR EGLL 042050Z 10008KT CAVOK 15/11 Q1021 NOSIG=
201009042020 METAR COR EGLL 042020Z 10008KT CAVOK 16/11 Q1021 NOSIG=
201009041950 METAR COR EGLL 041950Z 09008KT CAVOK 17/11 Q1021 NOSIG=
201009041920 METAR COR EGLL 041920Z 09008KT 9999 FEW043 17/11 Q1021 NOSIG=
201009041850 METAR COR EGLL 041850Z 09009KT 9999 FEW043 18/11 Q1021 NOSIG=
201009041820 METAR COR EGLL 041820Z 10008KT 9999 SCT042 18/12 Q1020 NOSIG=
201009041750 METAR COR EGLL 041750Z 09011KT 9999 FEW040 18/12 Q1020 NOSIG=
201009041720 METAR COR EGLL 041720Z 09010KT 9999 FEW046 19/12 Q1020 NOSIG=
201009041650 METAR EGLL 041650Z 10010KT 9999 FEW046 19/12 Q1020 NOSIG=
201009041620 METAR COR EGLL 041620Z 10010KT 9999 SCT035 20/12 Q1020 NOSIG=
201009041550 METAR COR EGLL 041550Z 09008KT 9999 FEW040 SCT045 20/12 Q1020
                        NOSIG=
201009041520 METAR COR EGLL 041520Z 12006KT 070V170 9999 SCT040 21/11
                        Q1020 NOSIG=
201009041450 METAR COR EGLL 041450Z 11008KT 9999 SCT040 22/11 Q1020 NOSIG=
201009041420 METAR COR EGLL 041420Z 10006KT 050V130 9999 BKN040 21/11
                        Q1020 NOSIG=
201009041350 METAR COR EGLL 041350Z 12007KT 080V150 9999 SCT037 SCT042
                        22/11 Q1021 NOSIG=
201009041320 METAR COR EGLL 041320Z 13007KT 9999 OVC036 21/11 Q1021 NOSIG=
201009041250 METAR COR EGLL 041250Z 12008KT 9999 BKN035 20/12 Q1021 NOSIG=
201009041220 METAR COR EGLL 041220Z 12004KT 040V200 9999 BKN034 21/11
                        Q1021 NOSIG=
201009041150 METAR COR EGLL 041150Z 11007KT 9999 BKN036 19/11 Q1021 NOSIG=
201009041120 METAR COR EGLL 041120Z 11007KT 9999 SCT035 19/11 Q1021 NOSIG=
201009041050 METAR COR EGLL 041050Z 13007KT 9999 BKN025 18/12 Q1022 NOSIG=
201009041020 METAR COR EGLL 041020Z 13007KT 090V160 9999 BKN021 19/12
                        Q1022 NOSIG=
201009040950 METAR COR EGLL 040950Z 12007KT 9999 SCT018 18/13 Q1022 NOSIG=
201009040920 METAR COR EGLL 040920Z 12007KT 090V160 9999 SCT018 17/13
                        Q1022 NOSIG=
201009040850 METAR COR EGLL 040850Z 11007KT 080V150 CAVOK 17/13 Q1022
                        NOSIG=
201009040820 METAR COR EGLL 040820Z 09006KT 9999 FEW020 16/13 Q1021 NOSIG=
201009040750 METAR EGLL 040750Z 10005KT 9999 FEW020 15/12 Q1021=
201009040720 METAR COR EGLL 040720Z VRB03KT 9999 FEW020 14/12 Q1021 NOSIG=
201009040650 METAR COR EGLL 040650Z 07004KT CAVOK 13/11 Q1021 NOSIG=
201009040620 METAR COR EGLL 040620Z VRB03KT CAVOK 12/10 Q1021 NOSIG=
201009040550 METAR COR EGLL 040550Z 06004KT CAVOK 11/10 Q1021 NOSIG=
201009040520 METAR COR EGLL 040520Z 04004KT CAVOK 11/10 Q1021 NOSIG=
201009040450 METAR COR EGLL 040450Z 04003KT CAVOK 11/10 Q1021 NOSIG=
201009040420 METAR COR EGLL 040420Z 04004KT CAVOK 12/10 Q1021 NOSIG=
201009040350 METAR COR EGLL 040350Z 04004KT CAVOK 12/10 Q1021 NOSIG=
201009040320 METAR COR EGLL 040320Z VRB02KT CAVOK 12/10 Q1021 NOSIG=
201009040250 METAR COR EGLL 040250Z 07003KT CAVOK 12/10 Q1021 NOSIG=
201009040220 METAR COR EGLL 040220Z 05004KT 020V080 CAVOK 12/10 Q1021
                        NOSIG=
201009040150 METAR COR EGLL 040150Z 04003KT CAVOK 13/11 Q1021 NOSIG=
201009040120 METAR COR EGLL 040120Z 05002KT CAVOK 13/11 Q1021 NOSIG=
201009040050 METAR COR EGLL 040050Z 04002KT CAVOK 13/11 Q1021 NOSIG=
201009040020 METAR COR EGLL 040020Z 05003KT CAVOK 13/11 Q1021 NOSIG=
201009032350 METAR EGLL 032350Z 08004KT CAVOK 13/11 Q1021=
201009032320 METAR COR EGLL 032320Z 08006KT CAVOK 13/11 Q1022 NOSIG=
201009032250 METAR COR EGLL 032250Z 09005KT CAVOK 13/11 Q1022 NOSIG=
201009032220 METAR COR EGLL 032220Z 09005KT CAVOK 13/11 Q1021 NOSIG=
201009032150 METAR COR EGLL 032150Z 09006KT CAVOK 14/11 Q1021 NOSIG=
201009032120 METAR COR EGLL 032120Z 09007KT CAVOK 14/10 Q1021 NOSIG=
201009032050 METAR COR EGLL 032050Z 09008KT CAVOK 15/10 Q1021 NOSIG=
201009032020 METAR COR EGLL 032020Z 09009KT CAVOK 16/11 Q1021 NOSIG=
201009031950 METAR COR EGLL 031950Z 09010KT CAVOK 16/11 Q1021 NOSIG=
201009031920 METAR COR EGLL 031920Z 09009KT CAVOK 18/11 Q1021 NOSIG=
201009031850 METAR EGLL 031850Z 11007KT CAVOK 19/10 Q1020=
201009031820 METAR COR EGLL 031820Z 12007KT CAVOK 19/10 Q1020 NOSIG=
201009031750 METAR COR EGLL 031750Z 11008KT 9999 FEW048 19/11 Q1020 NOSIG=
201009031720 METAR COR EGLL 031720Z 09008KT 9999 FEW046 20/11 Q1020 NOSIG=
201009031650 METAR COR EGLL 031650Z 09007KT 9999 FEW049 20/09 Q1020 NOSIG=
201009031620 METAR COR EGLL 031620Z 12009KT 9999 FEW049 21/09 Q1020 NOSIG=
201009031550 METAR COR EGLL 031550Z 05005KT 320V120 CAVOK 21/09 Q1020
                        NOSIG=
201009031520 METAR COR EGLL 031520Z 07006KT 360V120 CAVOK 22/09 Q1020
                        NOSIG=
201009031450 METAR COR EGLL 031450Z 08007KT 020V120 CAVOK 21/09 Q1021
                        NOSIG=
201009031420 METAR COR EGLL 031420Z 10005KT 010V170 9999 SCT048 22/09
                        Q1021 NOSIG=
201009031350 METAR COR EGLL 031350Z 09007KT 040V170 9999 SCT047 21/10
                        Q1021 NOSIG=
201009031320 METAR COR EGLL 031320Z 09004KT 360V160 9999 SCT045 21/10
                        Q1021 NOSIG=
201009031250 METAR COR EGLL 031250Z 06007KT 9999 SCT041 20/10 Q1021 NOSIG=
201009031220 METAR COR EGLL 031220Z 07006KT 020V110 9999 SCT040 21/10
                        Q1022 NOSIG=
201009031150 METAR COR EGLL 031150Z 10007KT 9999 SCT041 21/11 Q1022 NOSIG=
201009031120 METAR COR EGLL 031120Z 06006KT 9999 BKN035 19/11 Q1022 NOSIG=
201009031050 METAR COR EGLL 031050Z 07006KT 010V140 9999 BKN031 20/12
                        Q1022 NOSIG=
201009031020 METAR COR EGLL 031020Z 10007KT 050V150 9999 BKN026 20/12
                        Q1022 NOSIG=
201009030950 METAR COR EGLL 030950Z 07006KT 040V120 9999 SCT025 19/12
                        Q1022 NOSIG=
201009030920 METAR COR EGLL 030920Z 09007KT 060V120 9999 SCT020 18/12
                        Q1022 NOSIG=
201009030850 METAR COR EGLL 030850Z 09007KT 050V120 9999 FEW016 18/13
                        Q1022 NOSIG=
201009030820 METAR COR EGLL 030820Z 07005KT 030V100 9999 FEW012 17/13
                        Q1022 NOSIG=
201009030750 METAR COR EGLL 030750Z 09005KT CAVOK 16/12 Q1022 NOSIG=
201009030720 METAR COR EGLL 030720Z 07004KT CAVOK 14/12 Q1022 NOSIG=
201009030650 METAR COR EGLL 030650Z 05004KT CAVOK 13/11 Q1022 NOSIG=
201009030620 METAR COR EGLL 030620Z 03004KT CAVOK 13/11 Q1022 NOSIG=
201009030550 METAR COR EGLL 030550Z 03005KT CAVOK 12/10 Q1022 NOSIG=
201009030520 METAR COR EGLL 030520Z 03005KT CAVOK 12/10 Q1021 NOSIG=
201009030450 METAR COR EGLL 030450Z 03005KT CAVOK 12/11 Q1021 NOSIG=
201009030420 METAR COR EGLL 030420Z 03005KT CAVOK 12/11 Q1021 NOSIG=
201009030350 METAR COR EGLL 030350Z 03005KT 9999 FEW030 12/11 Q1022 NOSIG=
201009030320 METAR COR EGLL 030320Z 03005KT CAVOK 13/11 Q1022 NOSIG=
201009030250 METAR COR EGLL 030250Z 03005KT 9999 FEW019 13/11 Q1022 NOSIG=
201009030220 METAR COR EGLL 030220Z 03004KT 9999 FEW025 SCT030 13/11 Q1022
                        NOSIG=
201009030150 METAR COR EGLL 030150Z 03004KT 9999 SCT025 13/11 Q1022 NOSIG=
201009030120 METAR COR EGLL 030120Z 04004KT 9999 FEW015 13/11 Q1022 NOSIG=
201009030050 METAR COR EGLL 030050Z 04004KT 9999 FEW026 13/11 Q1022 NOSIG=
201009030020 METAR COR EGLL 030020Z 03004KT CAVOK 13/11 Q1022 NOSIG=
201009022350 METAR COR EGLL 022350Z 05003KT CAVOK 14/11 Q1022 NOSIG=
201009022320 METAR COR EGLL 022320Z 03003KT CAVOK 14/11 Q1022 NOSIG=
201009022250 METAR COR EGLL 022250Z 07003KT CAVOK 14/11 Q1022 NOSIG=
201009022220 METAR COR EGLL 022220Z 06003KT CAVOK 14/11 Q1022 NOSIG=
201009022150 METAR COR EGLL 022150Z 08004KT CAVOK 14/11 Q1022 NOSIG=
201009022120 METAR COR EGLL 022120Z 09005KT CAVOK 14/11 Q1022 NOSIG=
201009022050 METAR COR EGLL 022050Z 10007KT CAVOK 14/11 Q1022 NOSIG=
201009022020 METAR COR EGLL 022020Z 10008KT CAVOK 15/11 Q1022 NOSIG=
201009021950 METAR COR EGLL 021950Z 10007KT CAVOK 15/10 Q1021 NOSIG=
201009021920 METAR COR EGLL 021920Z 10008KT CAVOK 16/11 Q1021 NOSIG=
201009021850 METAR COR EGLL 021850Z 10009KT CAVOK 17/10 Q1021 NOSIG=
201009021820 METAR COR EGLL 021820Z 10009KT CAVOK 17/10 Q1021 NOSIG=
201009021750 METAR COR EGLL 021750Z 10010KT CAVOK 18/11 Q1020 NOSIG=
201009021720 METAR COR EGLL 021720Z 09009KT CAVOK 19/11 Q1020 NOSIG=
201009021650 METAR COR EGLL 021650Z 09011KT 9999 FEW042 19/11 Q1020 NOSIG=
201009021620 METAR COR EGLL 021620Z 10010KT 060V130 9999 FEW041 20/11
                        Q1020 NOSIG=
201009021550 METAR COR EGLL 021550Z 08008KT 040V120 9999 FEW045 21/10
                        Q1020 NOSIG=
201009021520 METAR COR EGLL 021520Z 06008KT 030V090 CAVOK 21/10 Q1020
                        NOSIG=
201009021450 METAR COR EGLL 021450Z 06008KT 030V100 CAVOK 21/09 Q1020
                        NOSIG=
201009021420 METAR COR EGLL 021420Z 07007KT 360V120 CAVOK 21/09 Q1020
                        NOSIG=
201009021350 METAR COR EGLL 021350Z 08008KT CAVOK 21/09 Q1020 NOSIG=
201009021320 METAR COR EGLL 021320Z 07006KT 020V110 CAVOK 21/10 Q1020
                        NOSIG=
201009021250 METAR COR EGLL 021250Z 09009KT 060V120 CAVOK 20/10 Q1021
                        NOSIG=
201009021220 METAR COR EGLL 021220Z 09009KT 050V120 9999 FEW038 20/10
                        Q1021 NOSIG=
201009021150 METAR EGLL 021150Z 06008KT 010V100 9999 FEW036 20/11 Q1021=
201009021120 METAR COR EGLL 021120Z 04006KT 010V120 9999 FEW038 20/11
                        Q1021 NOSIG=
201009021050 METAR COR EGLL 021050Z 06007KT 360V130 9999 FEW033 19/10
                        Q1021 NOSIG=
201009021020 METAR COR EGLL 021020Z 06008KT 010V090 9999 FEW029 18/10
                        Q1022 NOSIG=
201009020950 METAR COR EGLL 020950Z 04006KT 350V060 9999 FEW026 18/11
                        Q1022 NOSIG=
201009020920 METAR COR EGLL 020920Z 06005KT 030V110 9999 FEW024 17/11
                        Q1022 NOSIG=
201009020850 METAR EGLL 020850Z 06007KT CAVOK 17/12 Q1021=
201009020820 METAR COR EGLL 020820Z 06005KT 020V080 CAVOK 16/11 Q1021
                        NOSIG=
201009020750 METAR COR EGLL 020750Z 07006KT CAVOK 15/11 Q1021 NOSIG=
201009020720 METAR COR EGLL 020720Z 06004KT CAVOK 14/10 Q1021 NOSIG=
201009020650 METAR COR EGLL 020650Z 06004KT 010V090 CAVOK 12/10 Q1021
                        NOSIG=
201009020620 METAR COR EGLL 020620Z VRB03KT CAVOK 10/09 Q1021 NOSIG=
201009020550 METAR COR EGLL 020550Z VRB02KT CAVOK 10/08 Q1021 NOSIG=
201009020520 METAR COR EGLL 020520Z VRB02KT CAVOK 10/08 Q1020 NOSIG=
201009020450 METAR COR EGLL 020450Z 01003KT CAVOK 10/09 Q1020 NOSIG=
201009020420 METAR COR EGLL 020420Z 01003KT CAVOK 10/09 Q1020 NOSIG=
201009020350 METAR COR EGLL 020350Z 00000KT CAVOK 10/09 Q1020 NOSIG=
201009020320 METAR COR EGLL 020320Z 36002KT CAVOK 10/09 Q1020 NOSIG=
201009020250 METAR COR EGLL 020250Z 35002KT CAVOK 10/08 Q1020 NOSIG=
201009020220 METAR COR EGLL 020220Z 00000KT CAVOK 11/09 Q1020 NOSIG=
201009020150 METAR COR EGLL 020150Z 36004KT CAVOK 11/09 Q1020 NOSIG=
201009020120 METAR COR EGLL 020120Z 34002KT CAVOK 11/09 Q1020 NOSIG=
201009020050 METAR COR EGLL 020050Z VRB03KT CAVOK 12/09 Q1020 NOSIG=
201009020020 METAR COR EGLL 020020Z 01003KT CAVOK 12/09 Q1020 NOSIG=
201009012350 METAR COR EGLL 012350Z 36003KT CAVOK 12/09 Q1021 NOSIG=
201009012320 METAR COR EGLL 012320Z 03002KT CAVOK 14/09 Q1021 NOSIG=
201009012250 METAR COR EGLL 012250Z 05002KT CAVOK 14/08 Q1021 NOSIG=
201009012220 METAR COR EGLL 012220Z 09004KT CAVOK 15/08 Q1021 NOSIG=
201009012150 METAR COR EGLL 012150Z 10006KT CAVOK 14/08 Q1021 NOSIG=
201009012120 METAR COR EGLL 012120Z 10005KT CAVOK 14/08 Q1021 NOSIG=
201009012050 METAR COR EGLL 012050Z 10005KT CAVOK 15/09 Q1020 NOSIG=
201009012020 METAR COR EGLL 012020Z 11005KT CAVOK 16/09 Q1020 NOSIG=
201009011950 METAR COR EGLL 011950Z 11006KT CAVOK 17/08 Q1020 NOSIG=
201009011920 METAR COR EGLL 011920Z 11006KT CAVOK 17/08 Q1020 NOSIG=
201009011850 METAR COR EGLL 011850Z 12007KT CAVOK 18/07 Q1020 NOSIG=
201009011820 METAR COR EGLL 011820Z 12008KT CAVOK 18/07 Q1020 NOSIG=
201009011750 METAR COR EGLL 011750Z 12008KT CAVOK 19/07 Q1020 NOSIG=
201009011720 METAR COR EGLL 011720Z 12008KT CAVOK 19/08 Q1020 NOSIG=
201009011650 METAR COR EGLL 011650Z 12009KT CAVOK 19/09 Q1020 NOSIG=
201009011620 METAR COR EGLL 011620Z 09008KT 060V120 CAVOK 20/09 Q1020
                        NOSIG=
201009011550 METAR COR EGLL 011550Z 10008KT CAVOK 20/10 Q1020 NOSIG=
201009011520 METAR COR EGLL 011520Z 07007KT 030V120 9999 FEW047 21/10
                        Q1020 NOSIG=
201009011450 METAR COR EGLL 011450Z 10008KT 040V130 CAVOK 21/08 Q1020
                        NOSIG=
201009011420 METAR COR EGLL 011420Z 09007KT CAVOK 21/09 Q1020 NOSIG=
201009011350 METAR COR EGLL 011350Z 09006KT 010V120 9999 FEW048 21/09
                        Q1020 NOSIG=
201009011320 METAR COR EGLL 011320Z 09005KT 050V160 9999 FEW048 21/09
                        Q1021 NOSIG=
201009011250 METAR COR EGLL 011250Z 08005KT 350V140 9999 FEW048 20/09
                        Q1021 NOSIG=
201009011220 METAR COR EGLL 011220Z 08007KT 020V110 9999 FEW042 20/09
                        Q1021 NOSIG=
201009011150 METAR COR EGLL 011150Z 09006KT 040V140 CAVOK 20/09 Q1021
                        NOSIG=
201009011120 METAR COR EGLL 011120Z 08006KT 040V150 CAVOK 19/09 Q1022
                        NOSIG=
201009011050 METAR COR EGLL 011050Z 09006KT 050V130 CAVOK 19/09 Q1022
                        NOSIG=
201009011020 METAR COR EGLL 011020Z 06008KT 020V110 CAVOK 18/08 Q1022
                        NOSIG=
201009010950 METAR COR EGLL 010950Z 09008KT 010V120 CAVOK 18/10 Q1022
                        NOSIG=
201009010920 METAR COR EGLL 010920Z VRB03KT CAVOK 17/09 Q1022 NOSIG=
201009010850 METAR COR EGLL 010850Z VRB02KT CAVOK 16/09 Q1022 NOSIG=
201009010820 METAR COR EGLL 010820Z VRB03KT CAVOK 15/10 Q1022 NOSIG=
201009010750 METAR COR EGLL 010750Z VRB02KT CAVOK 14/09 Q1022 NOSIG=
201009010720 METAR COR EGLL 010720Z VRB02KT CAVOK 13/09 Q1022 NOSIG=
201009010650 METAR COR EGLL 010650Z 00000KT CAVOK 11/09 Q1022 NOSIG=
201009010620 METAR COR EGLL 010620Z 35002KT CAVOK 09/08 Q1022 NOSIG=
201009010550 METAR COR EGLL 010550Z 35002KT CAVOK 09/08 Q1022 NOSIG=
201009010520 METAR COR EGLL 010520Z 00000KT CAVOK 09/07 Q1022 NOSIG=
201009010450 METAR COR EGLL 010450Z 35002KT 9999 9000NW NSC 09/08 Q1022
                        NOSIG=
201009010420 METAR COR EGLL 010420Z 00000KT CAVOK 09/07 Q1022 NOSIG=
201009010350 METAR COR EGLL 010350Z 00000KT CAVOK 09/08 Q1022 NOSIG=
201009010320 METAR COR EGLL 010320Z 36003KT CAVOK 09/07 Q1022 NOSIG=
201009010250 METAR COR EGLL 010250Z 34002KT CAVOK 10/08 Q1022 NOSIG=
201009010220 METAR COR EGLL 010220Z 00000KT CAVOK 11/08 Q1023 NOSIG=
201009010150 METAR COR EGLL 010150Z 19002KT CAVOK 10/08 Q1023 NOSIG=
201009010120 METAR COR EGLL 010120Z VRB02KT CAVOK 11/08 Q1023 NOSIG=
201009010050 METAR COR EGLL 010050Z 09004KT CAVOK 11/07 Q1023 NOSIG=
201009010020 METAR COR EGLL 010020Z 09004KT CAVOK 11/07 Q1023 NOSIG=

# No short TAF reports from EGLL in databse.

###################################
#  large TAF from EGLL
###################################
201010012302 TAF EGLL 012302Z 0200/0306 24007KT 9999 FEW015
                      BECMG 0200/0203 5000 BR
                      PROB30 0202/0209 0600 FG BKN000
                      BECMG 0209/0211 9999 NSW
                      BECMG 0215/0218 12010KT 7000 RA BKN014
                      TEMPO 0218/0303 4500 RADZ BKN008
                      BECMG 0221/0224 18014KT
                      TEMPO 0303/0306 9999 NSW SCT015=
201010012300 TAF AMD EGLL 020341Z 0203/0306 20007KT 9999 FEW015
                      TEMPO 0203/0210 5000 BR
                      PROB30 0204/0209 0600 FG BKN000
                      BECMG 0215/0218 12010KT 7000 RA BKN014
                      TEMPO 0218/0303 4500 RADZ BKN008
                      BECMG 0221/0224 18014KT
                      TEMPO 0303/0306 9999 NSW SCT015=
201010011659 TAF EGLL 011659Z 0118/0224 17012KT 8000 -RA BKN012
                      BECMG 0118/0121 27006KT 9999 NSW FEW015
                      PROB30 0118/0121 3000 BR BKN004
                      BECMG 0123/0202 5000 BR
                      PROB30 0202/0209 0600 FG BKN000
                      BECMG 0209/0211 9999 NSW
                      BECMG 0215/0218 7000 RA BKN014
                      TEMPO 0218/0224 4500 RADZ BKN008
                      BECMG 0221/0224 18014KT=
201010011057 TAF EGLL 011057Z 0112/0218 18014KT 7000 -RA SCT008 BKN014
                      TEMPO 0112/0118 18017G30KT 3000 +RA RADZ
                       BKN007
                      BECMG 0118/0121 26005KT 9999 NSW FEW018
                      PROB30 0118/0121 3000 BR BKN004
                      BECMG 0200/0203 5000 BR
                      PROB30 0203/0208 0800 FG BKN000
                      BECMG 0208/0211 9999 NSW
                      BECMG 0215/0218 6000 RA BKN012=
201010010758 TAF AMD EGLL 010758Z 0108/0212 19014KT 8000 -RA SCT012 BKN030
                      BECMG 0108/0111 16018G28KT BKN012
                      TEMPO 0108/0116 2500 +RA BKN009
                      BECMG 0117/0119 26004KT 9999 NSW SCT020
                      PROB30 0117/0121 BKN004
                      BECMG 0200/0203 3000 BR BKN004
                      PROB40 0203/0208 0200 FG VV///
                      BECMG 0210/0212 9999 NSW SCT020=
201010010459 TAF EGLL 010459Z 0106/0212 19007KT 9999 SCT030
                      TEMPO 0106/0109 16018G28KT 7000 RA BKN014
                       BECMG 0109/0111 16018G28KT 7000 RA BKN012
                       PROB40
                      TEMPO 0111/0116 3000 +RA BKN009
                      BECMG 0117/0119 26004KT 9999 NSW SCT020
                      BECMG 0200/0203 3000 BR BKN004
                      PROB40 0203/0208 0200 FG VV///
                      BECMG 0210/0212 9999 NSW SCT020=
201009302304 TAF EGLL 302304Z 0100/0206 19007KT 9999 SCT030
                      PROB30 TEMPO 0104/0107 16018G28KT 7000 RA
                       BKN014
                      BECMG 0107/0110 16018G28KT 7000 RA BKN012
                       PROB40
                      TEMPO 0110/0116 3000 +RA BKN009
                      BECMG 0117/0119 26004KT 9999 NSW SCT020
                      PROB30 TEMPO 0200/0206 3000 BR BKN004=
201009301701 TAF EGLL 301701Z 3018/0124 19007KT 9999 SCT030
                      PROB30 TEMPO 0103/0107 16018G28KT 8000 RA
                       BKN014
                      BECMG 0107/0110 16018G28KT 8000 RA BKN014
                       PROB30
                      TEMPO 0110/0120 4000 +RA BKN009
                      BECMG 0117/0120 26004KT 9999 NSW SCT030=
201009301101 TAF EGLL 301101Z 3012/0118 28008KT 9999 SCT020
                      BECMG 3012/3015 21010KT
                      TEMPO 0104/0107 6000 RA BKN014
                      BECMG 0107/0110 16018G28KT 6000 RA BKN014
                       PROB30
                      TEMPO 0112/0118 4000 +RA BKN009=
201009300500 TAF EGLL 300500Z 3006/0112 28008KT 9999 SCT020
                      TEMPO 3006/3009 3000 BR BKN002
                      PROB30 TEMPO 3006/3008 0200 FG BKN001
                      BECMG 3012/3015 21010KT
                      TEMPO 0105/0109 6000 RA BKN014
                      BECMG 0109/0112 15015G25KT 6000 RA BKN014=
201009300429 TAF AMD EGLL 300429Z 3004/0106 28008KT 9999 SCT020
                      TEMPO 3004/3009 3000 BR BKN002
                      PROB30 TEMPO 3004/3008 0200 FG BKN001
                      BECMG 3012/3015 21010KT
                      PROB30 0105/0106 6000 RA BKN014=
201009300131 TAF AMD EGLL 300131Z 3001/0106 28008KT 3000 BR BKN004
                      TEMPO 3001/3009 0200 FG BKN001
                      BECMG 3008/3011 9999 NSW SCT020
                      BECMG 3012/3015 21010KT
                      PROB30 0105/0106 6000 RA BKN014=
201009300102 TAF AMD EGLL 300102Z 3001/0106 28008KT 3000 BR BKN004
                      TEMPO 3001/3009 0900 FG BKN001
                      BECMG 3007/3010 9999 NSW SCT020
                      BECMG 3012/3015 21010KT
                      PROB30 0105/0106 6000 RA BKN014=
201009292300 TAF AMD EGLL 300429Z 3004/0106 28008KT 9999 SCT020
                      TEMPO 3004/3009 3000 BR BKN002
                      PROB30 TEMPO 3004/3008 0200 FG BKN001
                      BECMG 3012/3015 21010KT
                      PROB30 0105/0106 6000 RA BKN014=
201009291825 TAF AMD EGLL 291825Z 2918/3024 28008KT 6000 FEW008 SCT020
                      TEMPO 2918/2921 4000 RA BKN008
                      PROB30 3000/3009 4000 BR BKN004
                      BECMG 3009/3012 9999
                      BECMG 3012/3015 21010KT=
201009291700 TAF EGLL 291700Z 2918/3024 17010KT 6000 BKN012
                      TEMPO 2918/2921 4000 RA BKN008
                      BECMG 2920/2923 30008KT FEW012 SCT025
                      PROB30 3000/3009 4000 BR BKN004
                      BECMG 3009/3012 9999
                      BECMG 3012/3015 21010KT=
201009291059 TAF EGLL 291059Z 2912/3018 19010KT 9999 FEW015 SCT040
                      BECMG 2914/2917 6000
                      TEMPO 2915/2921 4000 RA BKN008
                      BECMG 2920/2923 30008KT
                      PROB30 3000/3009 4000 BR BKN004
                      BECMG 3009/3012 9999
                      BECMG 3012/3015 21010KT=
201009290510 TAF EGLL 290510Z 2906/3012 18010KT 7000 SCT020
                      PROB40 TEMPO 2906/2908 4000 -RADZ BKN007
                       BECMG 2907/2910 9999
                      BECMG 2915/2918 7000 -RA BKN012
                      TEMPO 2917/2921 3500 RADZ BKN006
                      BECMG 2921/2924 29005KT 9999 NSW SCT010
                      TEMPO 3000/3008 6000 BKN008=
201009290025 TAF AMD EGLL 290025Z 2900/3006 VRB05KT 7000 BKN025
                      PROB40 TEMPO 2900/2909 4000 -RADZ BKN007
                       BECMG 2909/2912 18010KT 9999
                      BECMG 2913/2916 7000 -RA BKN012
                      PROB40 TEMPO 2916/2920 3500 RADZ BKN006
                      BECMG 2921/2924 30007KT 9999 NSW=
201009282314 TAF EGLL 282314Z 2900/3006 VRB05KT 7000 BKN025
                      PROB40 TEMPO 2900/2909 4000 -RADZ BKN012
                       BECMG 2909/2912 18010KT 9999
                      BECMG 2913/2916 7000 -RA BKN012
                      PROB40 TEMPO 2916/2920 3500 RADZ BKN006
                      BECMG 2921/2924 30007KT 9999 NSW=
201009282300 TAF AMD EGLL 290025Z 2900/3006 VRB05KT 7000 BKN025
                      PROB40 TEMPO 2900/2909 4000 -RADZ BKN007
                       BECMG 2909/2912 18010KT 9999
                      BECMG 2913/2916 7000 -RA BKN012
                      PROB40 TEMPO 2916/2920 3500 RADZ BKN006
                      BECMG 2921/2924 30007KT 9999 NSW=
201009281704 TAF EGLL 281704Z 2818/2924 VRB05KT 8000 FEW010 SCT025
                      PROB40 TEMPO 2819/2901 4000 BR BKN010
                      BECMG 2901/2904 -RADZ BKN010
                      TEMPO 2901/2924 4000 RADZ BR BKN006
                      BECMG 2909/2912 18010KT 9999
                      PROB40 2912/2918 BKN018
                      PROB40 TEMPO 2918/2922 +RA=
201009281103 TAF EGLL 281103Z 2812/2918 VRB04KT 8000 BKN018
                      PROB40 TEMPO 2812/2815 BKN013
                      BECMG 2812/2814 9999
                      BECMG 2818/2821 8000
                      BECMG 2822/2901 BKN012
                      TEMPO 2823/2908 4000 RADZ BR BKN006
                      BECMG 2908/2911 18010KT 9999 SCT014
                      PROB40 TEMPO 2912/2918 8000 -RA BKN014=
201009280959 TAF AMD EGLL 280959Z 2810/2912 VRB04KT 6000 SCT016 BKN025
                      BECMG 2811/2814 9999
                      BECMG 2818/2821 8000
                      BECMG 2822/2901 BKN012
                      TEMPO 2823/2908 4000 RADZ BR BKN006
                      BECMG 2908/2911 18010KT 9999 SCT014=
201009280506 TAF EGLL 280506Z 2806/2912 VRB03KT 6000 BKN008
                      PROB30 TEMPO 2806/2809 3500 -RADZ BR BKN004
                       BECMG 2809/2812 9999 BKN014
                      BECMG 2812/2815 BKN020
                      TEMPO 2902/2912 7000 RA BKN010
                      BECMG 2906/2909 21010KT=
201009280326 TAF AMD EGLL 280326Z 2803/2906 02003KT 6000 BKN010
                      PROB30 TEMPO 2803/2809 4000 -RADZ BR BKN004
                       BECMG 2809/2812 9999
                      BECMG 2812/2815 BKN020
                      TEMPO 2902/2906 7000 RA BKN010=
201009272301 TAF EGLL 272301Z 2800/2906 02003KT 6000 BKN006
                      PROB30 TEMPO 2800/2809 4000 -RADZ BR BKN004
                       BECMG 2809/2812 9999 BKN014
                      BECMG 2812/2815 BKN020
                      TEMPO 2902/2906 7000 RA BKN010=
201009272300 TAF AMD EGLL 280326Z 2803/2906 02003KT 6000 BKN010
                      PROB30 TEMPO 2803/2809 4000 -RADZ BR BKN004
                       BECMG 2809/2812 9999
                      BECMG 2812/2815 BKN020
                      TEMPO 2902/2906 7000 RA BKN010=
201009271700 TAF EGLL 271700Z 2718/2824 35003KT 9999 BKN012
                      BECMG 2718/2721 8000 BKN006
                      TEMPO 2720/2809 3000 -RADZ BR BKN003
                      BECMG 2808/2811 9999 BKN012
                      BECMG 2811/2814 BKN020=
201009271106 TAF EGLL 271106Z 2712/2818 01003KT 9999 BKN013
                      TEMPO 2712/2718 BKN020
                      BECMG 2718/2721 8000 BKN006
                      TEMPO 2720/2809 3000 -RADZ BR BKN003
                      BECMG 2808/2811 9999 BKN025=
201009271056 TAF AMD EGLL 271056Z 2710/2812 35004KT 9999 BKN012
                      TEMPO 2710/2718 9999 BKN025
                      BECMG 2718/2721 8000 BKN006
                      TEMPO 2718/2810 4000 -RADZ BR BKN006=
201009270920 TAF AMD EGLL 270920Z 2709/2812 35004KT 3500 BKN003
                      BECMG 2709/2712 6000 BKN012
                      PROB40 2712/2719 9999 BKN025
                      TEMPO 2717/2810 4000 -RADZ BR BKN006=
201009270702 TAF AMD EGLL 270702Z 2707/2812 35004KT 7000 BKN008
                      TEMPO 2707/2709 3500 -RADZ BR OVC003
                      BECMG 2709/2711 BKN012
                      TEMPO 2710/2713 9999 BKN018
                      BECMG 2713/2716 9999 BKN025
                      BECMG 2719/2722 7000 -RA BKN012
                      PROB30 TEMPO 2801/2804 BKN018
                      PROB40 TEMPO 2803/2810 4000 -RADZ BR BKN006=
201009270507 TAF EGLL 270507Z 2706/2812 35004KT 7000 BKN012
                      PROB40 TEMPO 2706/2710 4000 -RADZ BR BKN006
                       TEMPO 2711/2713 9999 BKN018
                      BECMG 2713/2716 9999 BKN025
                      BECMG 2719/2722 7000 -RA BKN012
                      PROB30 TEMPO 2801/2804 BKN018
                      PROB40 TEMPO 2803/2810 4000 -RADZ BR BKN006=
201009270404 TAF COR EGLL 270404Z 2700/2806 33007KT 7000 BKN012
                      PROB40 TEMPO 2702/2710 4000 -RADZ BR BKN006
                       BECMG 2710/2713 9999 BKN025
                      PROB30 TEMPO 2720/2806 5000 -RADZ BKN010=
201009270253 TAF AMD EGLL 270253Z 2700/2806 33007KT 7000 BKN012
                      PROB40 TEMPO
                      TEMPO 2702/2710 4000 -RADZ BR BKN006
                      BECMG 2710/2713 9999 BKN025
                      PROB30 TEMPO 2720/2806 5000 -RADZ BKN010=
201009262300 TAF AMD EGLL 270253Z 2700/2806 33007KT 7000 BKN012
                      PROB40 TEMPO
                      TEMPO 2702/2710 4000 -RADZ BR BKN006
                      BECMG 2710/2713 9999 BKN025
                      PROB30 TEMPO 2720/2806 5000 -RADZ BKN010=
201009262258 TAF EGLL 262258Z 2700/2806 33007KT 9999 BKN012
                      PROB40 TEMPO 2700/2703 7000 -RA
                      PROB30 TEMPO 2703/2710 4000 -RADZ BR BKN006
                       BECMG 2710/2713 BKN025
                      PROB30 TEMPO 2720/2806 5000 -RADZ BKN010=
201009261702 TAF EGLL 261702Z 2618/2724 33007KT 9999 BKN018
                      PROB30 2618/2622 7000 RA BKN014
                      BECMG 2622/2701 7000 BKN010
                      PROB40 2701/2710 4000 BR BKN006
                      BECMG 2710/2713 9999 BKN025
                      PROB30 TEMPO 2720/2724 5000 -RADZ BKN010=
201009261057 TAF EGLL 261057Z 2612/2718 35015G25KT 9999 BKN025
                      PROB30 2614/2622 7000 RA BKN014
                      BECMG 2617/2620 35008KT
                      BECMG 2622/2701 7000 BKN010
                      PROB40 2701/2710 BKN006
                      BECMG 2710/2713 9999 BKN020=
201009260454 TAF EGLL 260454Z 2606/2712 31010KT CAVOK
                      BECMG 2606/2610 BKN025
                      PROB30 TEMPO 2610/2617 32015G25KT
                      PROB30 2614/2623 7000 RA BKN014
                      BECMG 2623/2702 BKN008
                      BECMG 2708/2711 BKN012=
201009252255 TAF EGLL 252255Z 2600/2706 30010KT 9999 FEW025
                      PROB30 TEMPO 2608/2617 33015G25KT
                      BECMG 2612/2615 9000 -RA BKN014
                      BECMG 2618/2621 BKN008
                      BECMG 2703/2706 03003KT 4000 BR=
201009251701 TAF EGLL 251701Z 2518/2624 33010KT 9999 FEW035
                      TEMPO 2608/2617 33015G25KT
                      TEMPO 2614/2624 8000 -RA BKN012=
201009251057 TAF EGLL 251057Z 2512/2618 33010KT 9999 SCT030
                      PROB30 TEMPO 2603/2610 33015G25KT BKN013
                       PROB40
                      TEMPO 2610/2618 33015G25KT 9000 SHRA BKN013=
201009250504 TAF EGLL 250504Z 2506/2612 35011KT 9999 SCT025
                      PROB30 TEMPO 2512/2519 34015G25KT
                      PROB30 TEMPO 2603/2610 33015G25KT=
201009242251 TAF EGLL 242251Z 2500/2606 35011KT 9999 SCT025
                      PROB30 TEMPO 2512/2519 34015G25KT
                      PROB30 TEMPO 2603/2606 33015G25KT=
201009241658 TAF EGLL 241658Z 2418/2524 35011KT 9999 SCT025
                      PROB30 TEMPO 2512/2519 34015G25KT=
201009241109 TAF EGLL 241109Z 2412/2518 33010KT 9999 SCT030
                      TEMPO 2412/2418 35016G27KT
                      PROB40 TEMPO 2412/2414 4000 SHRA RA BKN011
                       PROB30
                      TEMPO 2512/2518 34015G25KT=
201009240456 TAF EGLL 240456Z 2406/2512 32010KT 9999 SCT018 BKN040
                      TEMPO 2406/2414 4000 SHRA RA BKN012
                      TEMPO 2411/2418 35015G25KT=
201009232304 TAF EGLL 232304Z 2400/2506 26007KT 9999 SCT025
                      BECMG 2403/2406 32010KT
                      TEMPO 2403/2409 8000 BKN012
                      TEMPO 2409/2413 4000 SHRA RA BKN012
                      TEMPO 2410/2418 35015G25KT=
201009231702 TAF EGLL 231702Z 2318/2424 21009KT 9999 SCT025
                      TEMPO 2318/2322 7000 SHRA
                      PROB40 TEMPO 2318/2321 4000 +SHRA TSRA
                      BECMG 2403/2406 32010KT
                      TEMPO 2403/2413 8000 -RA -SHRA BKN012
                      PROB30 TEMPO 2409/2412 4000 +SHRA TSRA
                      TEMPO 2410/2419 35015G25KT=
201009231101 TAF EGLL 231101Z 2312/2418 20009KT 9999 SCT025
                      TEMPO 2312/2321 7000 SHRA
                      PROB30 TEMPO 2316/2319 4000 +SHRA TSRA
                      BECMG 2403/2406 32010KT 8000 -RA BKN012
                      BECMG 2410/2413 9999 NSW SCT020
                      TEMPO 2410/2418 35015G25KT=
201009230500 TAF EGLL 230500Z 2306/2412 21007KT 6000 SCT025
                      TEMPO 2306/2308 4000 BR BKN006
                      TEMPO 2308/2311 SHRA RA BKN010
                      BECMG 2310/2312 9999
                      TEMPO 2314/2321 7000 SHRA
                      PROB30 TEMPO 2316/2319 4000 +SHRA
                      BECMG 2403/2406 32010KT 8000 -RA BKN012
                      TEMPO 2410/2412 34015G25KT=
201009230230 TAF AMD EGLL 230230Z 2300/2406 19005KT 8000 FEW045
                      PROB30 TEMPO 2302/2307 BKN008
                      BECMG 2305/2308 9999
                      TEMPO 2308/2311 6000 SHRA RA BKN012
                      PROB40 TEMPO 2313/2321 7000 SHRA
                      PROB30 TEMPO 2315/2319 3000 TSRA
                      BECMG 2403/2406 32010KT 8000 -RA BKN012=
201009222300 TAF AMD EGLL 230230Z 2300/2406 19005KT 8000 FEW045
                      PROB30 TEMPO 2302/2307 BKN008
                      BECMG 2305/2308 9999
                      TEMPO 2308/2311 6000 SHRA RA BKN012
                      PROB40 TEMPO 2313/2321 7000 SHRA
                      PROB30 TEMPO 2315/2319 3000 TSRA
                      BECMG 2403/2406 32010KT 8000 -RA BKN012=
201009222008 TAF AMD EGLL 222008Z 2220/2324 20010KT 9999 FEW045
                      TEMPO 2221/2313 BKN010
                      TEMPO 2309/2313 7000 RA SHRA
                      TEMPO 2316/2319 7000 SHRA
                      PROB30 TEMPO 2317/2319 3000 +SHRA
                      BECMG 2321/2324 27006KT=
201009221719 TAF EGLL 221719Z 2218/2324 20010KT 9999 FEW045
                      PROB30 TEMPO 2300/2309 BKN012
                      TEMPO 2309/2313 7000 RA SHRA BKN010
                      TEMPO 2316/2319 7000 SHRA
                      PROB30 TEMPO 2317/2319 3000 +SHRA
                      BECMG 2321/2324 27006KT=
201009221700 TAF EGLL 221700Z NIL=
201009221053 TAF EGLL 221053Z 2212/2318 16008KT 9999 FEW045
                      BECMG 2213/2216 22010KT
                      PROB30 TEMPO 2223/2304 BKN010
                      TEMPO 2308/2312 7000 RA SHRA BKN010
                      PROB40 TEMPO 2312/2318 7000 SHRA=
201009220903 TAF AMD EGLL 220903Z 2209/2312 16007KT 9000 FEW045
                      BECMG 2209/2210 9999
                      BECMG 2213/2216 22010KT
                      PROB30 TEMPO 2223/2304 BKN010
                      TEMPO 2308/2312 7000 RA SHRA BKN010=
201009220502 TAF EGLL 220502Z 2206/2312 VRB04KT 9999 FEW045
                      PROB40 2206/2208 6000
                      BECMG 2210/2213 22010KT
                      PROB40 2300/2307 7000 BKN006
                      TEMPO 2308/2312 7000 RA
                      PROB40 TEMPO 2310/2312 BKN007=
201009212302 TAF EGLL 212302Z 2200/2306 VRB04KT 9999 FEW045
                      PROB40 2200/2208 6000
                      PROB30 2202/2208 4000 BR
                      BECMG 2210/2213 22010KT
                      PROB40 2300/2306 7000 BKN006=
201009211659 TAF EGLL 211659Z 2118/2224 16005KT 9999 FEW045
                      PROB40 2203/2208 6000
                      BECMG 2215/2218 22010KT=
201009211058 TAF EGLL 211058Z 2112/2218 18005KT 9999 SCT035
                      PROB30 2203/2208 8000=
201009210705 TAF AMD EGLL 210705Z 2107/2212 VRB04KT 9999 FEW035
                      PROB30 2107/2108 8000=
201009210500 TAF EGLL 210500Z 2106/2212 19006KT 8000 FEW040
                      PROB30 2106/2108 4000 BR BKN004
                      BECMG 2108/2110 9999=
201009210357 TAF AMD EGLL 210357Z 2103/2206 18004KT 9999 FEW045
                      BECMG 2104/2106 7000
                      PROB30 2106/2108 3500 BR BKN004
                      BECMG 2108/2110 9999=
201009202306 TAF EGLL 202306Z 2100/2206 17004KT 9999 FEW045
                      BECMG 2100/2103 7000
                      PROB30 2103/2108 3500 BR
                      BECMG 2108/2110 9999
                      PROB30 2202/2206 7000=
201009202300 TAF AMD EGLL 210357Z 2103/2206 18004KT 9999 FEW045
                      BECMG 2104/2106 7000
                      PROB30 2106/2108 3500 BR BKN004
                      BECMG 2108/2110 9999=
201009201700 TAF EGLL 201700Z 2018/2124 26012KT 9999 FEW035
                      BECMG 2023/2102 VRB03KT 7000
                      PROB40 2103/2108 3000 BR
                      BECMG 2108/2111 9999=
201009201120 TAF EGLL 201120Z 2012/2118 25012KT 9999 SCT035
                      BECMG 2023/2102 VRB03KT 7000
                      PROB40 2103/2108 3000 BR BKN002
                      BECMG 2108/2111 9999
                      PROB30 2108/2111 BKN006=
201009201100 TAF EGLL 201100Z NIL=
201009200504 TAF EGLL 200504Z 2006/2112 25012KT 9999 FEW018 SCT035
                      TEMPO 2006/2008 8000 -RADZ BKN011
                      BECMG 2022/2101 7000
                      BECMG 2102/2106 17004KT
                      PROB40 2103/2108 3000 BR BKN002
                      BECMG 2108/2111 9999=
201009192302 TAF EGLL 192302Z 2000/2106 24012KT 9999 FEW018 SCT030
                      TEMPO 2000/2007 8000 -RA BKN012
                      BECMG 2022/2102 7000
                      PROB30 2103/2106 3000 BR BKN002=
201009191700 TAF EGLL 191700Z 1918/2024 24012KT 9999 SCT035
                      TEMPO 2000/2007 8000 RA BKN012=
201009191355 TAF AMD EGLL 191355Z 1914/2018 24012KT 9999 SCT035
                      TEMPO 1914/1917 24015G25KT
                      TEMPO 2000/2007 8000 RA BKN012=
201009191059 TAF EGLL 191059Z 1912/2018 24012KT 9999 SCT035
                      TEMPO 2000/2007 8000 RA BKN012=
201009190502 TAF EGLL 190502Z 1906/2012 24011KT 9999 SCT035
                      TEMPO 1923/2006 7000 RA BKN012=
201009182256 TAF EGLL 182256Z 1900/2006 24009KT 9999 FEW035
                      PROB30 TEMPO 1900/1909 8000 -RA
                      PROB30 1922/2005 8000 RA BKN013=
201009181703 TAF EGLL 181703Z 1818/1924 24008KT 9999 SCT030
                      PROB30 TEMPO 1900/1910 8000 -RA
                      PROB30 1921/1924 8000 -RA BKN013=
201009181057 TAF EGLL 181057Z 1812/1918 29010KT 9999 SCT035
                      BECMG 1820/1823 23008KT
                      PROB30 TEMPO 1900/1911 8000 -RA BKN014
                      PROB30 TEMPO 1910/1918 23016G26KT=
201009180533 TAF EGLL 180533Z 1806/1912 29005KT 9999 FEW040
                      BECMG 1903/1906 22012KT
                      PROB30 TEMPO 1909/1912 22015G25KT=
201009180500 TAF EGLL 180500Z NIL=
201009172258 TAF EGLL 172258Z 1800/1906 29005KT 9999 FEW040
                      BECMG 1903/1906 23010KT=
201009171700 TAF EGLL 171700Z 1718/1824 29007KT 9999 FEW030=
201009171054 TAF EGLL 171054Z 1712/1818 29007KT 9999 FEW030=
201009170502 TAF EGLL 170502Z 1706/1812 29008KT 9999 FEW030=
201009162300 TAF EGLL 162300Z 1700/1806 29008KT 9999 FEW030=
201009161653 TAF EGLL 161653Z 1618/1724 29009KT 9999 FEW030=
201009161055 TAF EGLL 161055Z 1612/1718 29011KT 9999 FEW030 SCT040
                      PROB40 TEMPO 1612/1619 30015G26KT 6000 SHRA
                       PROB30
                      TEMPO 1709/1717 30015G25KT=
201009160456 TAF EGLL 160456Z 1606/1712 28009KT 9999 FEW030 SCT045
                      PROB30 TEMPO 1611/1619 30015G27KT 6000 SHRA=
201009152258 TAF EGLL 152258Z 1600/1706 28011KT 9999 FEW025 SCT040
                      PROB30 TEMPO 1611/1619 30015G27KT 6000 SHRA=
201009151701 TAF EGLL 151701Z 1518/1624 26013KT 9999 SCT030
                      PROB30 TEMPO 1518/1522 8000 -SHRA
                      PROB40 TEMPO 1612/1619 7000 SHRA=
201009151103 TAF EGLL 151103Z 1512/1618 26017KT 9999 SCT030
                      TEMPO 1512/1518 26020G30KT
                      BECMG 1523/1602 23007KT
                      BECMG 1608/1611 29012KT
                      PROB40 TEMPO 1612/1618 7000 SHRA=
201009150455 TAF EGLL 150455Z 1506/1612 26013KT 9999 SCT035
                      TEMPO 1509/1519 27018G29KT
                      PROB30 TEMPO 1516/1521 9000 -SHRA
                      PROB30 TEMPO 1610/1612 7000 SHRA=
201009142252 TAF EGLL 142252Z 1500/1606 27012KT 9999 SCT040
                      TEMPO 1509/1519 28017G28KT
                      PROB30 TEMPO 1517/1521 8000 -SHRA=
201009141702 TAF EGLL 141702Z 1418/1524 23015KT 9999 BKN014
                      BECMG 1418/1421 29011KT SCT030
                      PROB40 TEMPO 1418/1421 24020G30KT 6000 RA
                       BKN009
                      TEMPO 1510/1518 27016G26KT=
201009141500 TAF AMD EGLL 141500Z 1415/1518 23015KT 9999 SCT015
                      TEMPO 1415/1421 24020G30KT 6000 RA BKN014
                       PROB30
                      TEMPO 1416/1419 BKN009
                      BECMG 1418/1421 29011KT
                      TEMPO 1510/1518 27016G26KT=
201009141056 TAF EGLL 141056Z 1412/1518 23015KT 9999 BKN014
                      TEMPO 1412/1420 24020G30KT 6000 RA
                      PROB40 TEMPO 1412/1416 SCT014 BKN020
                      PROB30 TEMPO 1416/1419 BKN009
                      BECMG 1418/1421 29011KT SCT030
                      TEMPO 1510/1518 27016G26KT=
201009140459 TAF EGLL 140459Z 1406/1512 22015KT 9999 BKN014
                      TEMPO 1409/1422 24020G30KT 6000 RA BKN006
                       PROB40
                      TEMPO 1410/1416 SCT014 BKN020
                      BECMG 1421/1424 28010KT SCT030
                      TEMPO 1509/1512 27016G26KT=
201009132303 TAF EGLL 132303Z 1400/1506 22015KT 9999 FEW014 BKN020
                      TEMPO 1400/1406 BKN014
                      BECMG 1406/1409 BKN014
                      TEMPO 1409/1422 24020G30KT 6000 RA BKN006
                       PROB40
                      TEMPO 1410/1416 SCT014 BKN020
                      BECMG 1421/1424 28010KT SCT030=
201009131707 TAF EGLL 131707Z 1318/1424 24015KT 9999 SCT035
                      PROB30 TEMPO 1318/1323 9000 -RA BKN014
                      BECMG 1404/1407 BKN012
                      PROB30 TEMPO 1406/1410 -RA BKN008
                      PROB30 TEMPO 1415/1421 24017G27KT 4000 RA
                       BKN008
                      BECMG 1419/1422 SCT035=
201009131101 TAF EGLL 131101Z 1312/1418 24014KT 9999 SCT035
                      PROB30 TEMPO 1313/1320 24018G28KT 9000 -RA
                       PROB40 1318/1403 BKN014
                      BECMG 1403/1406 BKN012
                      PROB30 TEMPO 1406/1410 BKN008
                      TEMPO 1416/1418 4000 RA BKN008=
201009130453 TAF EGLL 130453Z 1306/1412 26005KT 9999 SCT035
                      BECMG 1311/1314 24018KT
                      PROB30 TEMPO 1312/1318 9000 -RA
                      PROB40 1318/1403 BKN014
                      BECMG 1403/1406 BKN012
                      PROB30 TEMPO 1406/1412 BKN008=
201009122256 TAF EGLL 122256Z 1300/1406 26005KT 9999 SCT035
                      BECMG 1311/1314 24018KT
                      PROB30 TEMPO 1312/1318 9000 -RA
                      PROB40 1318/1406 BKN014=
201009121657 TAF EGLL 121657Z 1218/1324 32010KT 9999 SCT035
                      BECMG 1300/1303 24005KT
                      BECMG 1309/1312 24017KT
                      PROB30 TEMPO 1312/1318 9000 -RA=
201009121100 TAF EGLL 121100Z 1212/1318 32010KT 9999 SCT035
                      BECMG 1300/1303 24005KT
                      BECMG 1309/1312 24016KT=
201009120456 TAF EGLL 120456Z 1206/1312 26007KT 9999 SCT030
                      PROB30 TEMPO 1206/1208 6000
                      BECMG 1207/1210 34010KT
                      BECMG 1222/1301 24005KT=
201009112253 TAF EGLL 112253Z 1200/1306 26007KT 9999 SCT030
                      PROB30 TEMPO 1203/1207 6000
                      BECMG 1207/1210 34010KT=
201009111657 TAF EGLL 111657Z 1118/1224 21012KT 9999 SCT030
                      BECMG 1119/1122 27007KT
                      BECMG 1207/1210 34010KT=
201009111058 TAF EGLL 111058Z 1112/1218 22014KT 9999 SCT022
                      PROB30 TEMPO 1112/1116 8000 SHRA BKN014
                      BECMG 1118/1121 28008KT
                      BECMG 1207/1210 34010KT=
201009110918 TAF AMD EGLL 110918Z 1109/1212 20011KT 9999 BKN008
                      TEMPO 1109/1113 5000 -RADZ BKN010
                      BECMG 1110/1113 SCT020
                      BECMG 1121/1124 29007KT
                      PROB30 1202/1207 7000=
201009110614 TAF AMD EGLL 110614Z 1106/1212 20011KT 9999 BKN018
                      BECMG 1106/1109 BKN012
                      PROB40 TEMPO 1107/1114 4000 RADZ BKN009
                      BECMG 1113/1116 SCT020
                      BECMG 1121/1124 29007KT
                      PROB30 1202/1207 7000=
201009110459 TAF EGLL 110459Z 1106/1212 20011KT 9999 BKN012
                      PROB30 1106/1109 SCT020
                      PROB40 TEMPO 1107/1114 4000 RADZ BKN009
                      BECMG 1113/1116 SCT020
                      BECMG 1121/1124 29007KT
                      PROB30 1202/1207 7000=
201009102304 TAF EGLL 102304Z 1100/1206 19011KT 9999 SCT020
                      PROB30 TEMPO 1100/1104 BKN012
                      BECMG 1104/1107 BKN011
                      PROB30 TEMPO 1107/1112 6000 -RADZ BKN009
                       BECMG 1112/1115 SCT020
                      BECMG 1121/1124 29007KT
                      PROB30 1202/1206 7000=
201009101947 TAF AMD EGLL 101947Z 1019/1124 21012KT 9999 SCT018
                      PROB30 TEMPO 1019/1103 BKN012
                      TEMPO 1103/1110 6000 -RADZ BKN009
                      PROB40 TEMPO 1110/1122 BKN014=
201009101654 TAF EGLL 101654Z 1018/1124 21012KT 9999 BKN018
                      BECMG 1018/1021 BKN014
                      PROB40 TEMPO 1018/1021 BKN009
                      TEMPO 1103/1110 7000 RA BKN007
                      PROB40 TEMPO 1110/1124 BKN008=
201009101058 TAF EGLL 101058Z 1012/1118 21015KT 9999 BKN018
                      PROB30 TEMPO 1012/1015 BKN014
                      BECMG 1015/1018 BKN014
                      PROB40 TEMPO 1018/1103 BKN016
                      TEMPO 1103/1111 6000 RA BKN008
                      BECMG 1113/1116 BKN018
                      PROB30 TEMPO 1116/1118 7000 SHRA BKN014=
201009100501 TAF EGLL 100501Z 1006/1112 21004KT 9999 SCT020
                      PROB40 TEMPO 1006/1012 BKN014
                      BECMG 1008/1011 20014KT
                      PROB40 1017/1104 BKN012
                      TEMPO 1104/1112 6000 -RA BKN010=
201009092256 TAF EGLL 092256Z 1000/1106 26008KT 9999 SCT020
                      PROB30 TEMPO 1003/1006 8000 -RA
                      TEMPO 1005/1012 BKN010
                      BECMG 1007/1010 20014KT
                      PROB40 1018/1106 BKN012=
201009091653 TAF EGLL 091653Z 0918/1024 27010KT 9999 SCT028
                      PROB40 TEMPO 1005/1009 8000 -RA
                      BECMG 1009/1012 21015KT BKN014
                      PROB30 TEMPO 1015/1024 BKN008=
201009091105 TAF EGLL 091105Z 0912/1018 27007KT 9999 SCT028
                      PROB30 TEMPO 0912/0915 7000 SHRA
                      TEMPO 1003/1012 8000 -RA
                      BECMG 1009/1012 21015KT BKN014
                      TEMPO 1009/1018 BKN008=
201009090500 TAF EGLL 090500Z 0906/1012 24008KT 9999 FEW040
                      TEMPO 0906/0909 BKN008
                      PROB30 TEMPO 0913/0918 7000 SHRA
                      TEMPO 1003/1012 8000 -RA
                      BECMG 1009/1012 BKN014=
201009082300 TAF EGLL 082300Z 0900/1006 25007KT 9999 FEW040
                      PROB40 0904/0908 5000 BR BKN006
                      PROB30 TEMPO 0914/0918 7000 SHRA
                      TEMPO 1003/1006 8000 -RA BKN014=
201009081701 TAF EGLL 081701Z 0818/0924 25008KT 9999 FEW040
                      BECMG 0823/0902 8000
                      PROB30 0904/0908 3000 BR BKN004
                      BECMG 0907/0910 9999=
201009081101 TAF EGLL 081101Z 0812/0918 30005KT 8000 SCT010 BKN020
                      BECMG 0812/0814 9999
                      PROB30 TEMPO 0814/0816 6000 SHRA
                      BECMG 0823/0902 8000
                      PROB40 0904/0908 2000 BR BKN002
                      BECMG 0907/0910 9999=
201009080505 TAF EGLL 080505Z 0806/0912 VRB05KT 3500 BR BKN003
                      TEMPO 0806/0809 SCT004 BKN008
                      PROB40 TEMPO 0808/0818 6000 RA SHRA
                      BECMG 0809/0812 9999 NSW BKN018
                      BECMG 0900/0903 8000
                      PROB40 0904/0908 2000 BR BKN002
                      BECMG 0908/0910 9999
                      BECMG 0909/0912 29010KT=
201009080311 TAF AMD EGLL 080311Z 0803/0906 VRB04KT 9999 SCT010
                      BECMG 0803/0805 7000
                      TEMPO 0803/0809 BKN008
                      PROB40 TEMPO 0804/0808 4000 BR BKN004
                      BECMG 0808/0810 9999
                      PROB40 TEMPO 0808/0818 6000 SHRA
                      BECMG 0900/0903 7000
                      PROB40 0904/0906 2000 BR BKN002=
201009072306 TAF EGLL 072306Z 0800/0906 VRB04KT 9999 FEW025
                      BECMG 0802/0805 7000
                      TEMPO 0804/0809 BKN008
                      PROB30 TEMPO 0805/0807 4000 BR BKN004
                      BECMG 0808/0810 9999
                      PROB40 TEMPO 0808/0818 6000 SHRA
                      BECMG 0900/0903 7000
                      PROB40 0904/0906 2000 BR BKN002=
201009072300 TAF AMD EGLL 080311Z 0803/0906 VRB04KT 9999 SCT010
                      BECMG 0803/0805 7000
                      TEMPO 0803/0809 BKN008
                      PROB40 TEMPO 0804/0808 4000 BR BKN004
                      BECMG 0808/0810 9999
                      PROB40 TEMPO 0808/0818 6000 SHRA
                      BECMG 0900/0903 7000
                      PROB40 0904/0906 2000 BR BKN002=
201009071657 TAF EGLL 071657Z 0718/0824 18010KT 9999 SCT020
                      BECMG 0721/0724 VRB04KT
                      TEMPO 0804/0819 7000 -RA -SHRA
                      PROB30 TEMPO 0804/0809 4000 RADZ BKN008
                      PROB30 TEMPO 0809/0816 4000 +SHRA=
201009071412 TAF AMD EGLL 071412Z 0714/0818 20008KT 9999 SCT020
                      TEMPO 0714/0718 7000 SHRA
                      PROB30 TEMPO 0714/0716 3000 +SHRA
                      BECMG 0719/0722 10010KT
                      TEMPO 0802/0812 7000 -RA
                      PROB30 TEMPO 0802/0809 4000 RADZ BKN008
                      BECMG 0810/0813 25010KT=
201009071327 TAF AMD EGLL 071327Z 0713/0818 20008KT 9999 SCT020
                      TEMPO 0713/0718 7000 SHRA
                      PROB30 TEMPO 0713/0715 3000 +SHRA TSRA BKN012
                       BKN020CB
                      BECMG 0719/0722 10010KT
                      TEMPO 0802/0812 7000 -RA
                      PROB30 TEMPO 0802/0809 4000 RADZ BKN008
                      BECMG 0810/0813 25010KT=
201009071058 TAF EGLL 071058Z 0712/0818 18010KT 9999 SCT020
                      TEMPO 0712/0718 7000 SHRA
                      PROB30 TEMPO 0712/0717 3000 +SHRA TSRA BKN012
                       BKN020CB
                      BECMG 0719/0722 10007KT
                      TEMPO 0802/0812 7000 -RA
                      PROB30 TEMPO 0802/0809 4000 RADZ BKN008
                      BECMG 0810/0813 25010KT=
201009070503 TAF EGLL 070503Z 0706/0812 20010KT 6000 BKN003
                      BECMG 0706/0708 9999 SCT030
                      TEMPO 0711/0719 7000 SHRA
                      PROB30 TEMPO 0712/0718 4000 +SHRA TSRA BKN014
                       BKN020CB
                      BECMG 0719/0722 10007KT
                      TEMPO 0802/0812 7000 -RA
                      PROB40 TEMPO 0803/0809 BKN008
                      BECMG 0806/0809 36010KT=
201009070439 TAF AMD EGLL 070439Z 0704/0806 22010KT 9999 SCT030
                      TEMPO 0704/0708 7000 BKN003
                      PROB40 TEMPO 0711/0719 7000 SHRA
                      BECMG 0718/0721 12007KT
                      PROB40 0803/0806 7000 -RA BKN007
                      BECMG 0803/0806 04010KT=
201009062300 TAF AMD EGLL 070439Z 0704/0806 22010KT 9999 SCT030
                      TEMPO 0704/0708 7000 BKN003
                      PROB40 TEMPO 0711/0719 7000 SHRA
                      BECMG 0718/0721 12007KT
                      PROB40 0803/0806 7000 -RA BKN007
                      BECMG 0803/0806 04010KT=
201009062255 TAF EGLL 062255Z 0700/0806 22010KT 9999 SCT030
                      PROB40 0700/0707 7000 BKN006
                      PROB40 TEMPO 0711/0719 7000 SHRA
                      BECMG 0718/0721 12007KT
                      PROB40 0803/0806 7000 -RA BKN007
                      BECMG 0803/0806 04010KT=
201009061654 TAF EGLL 061654Z 0618/0724 10012KT CAVOK
                      BECMG 0618/0621 -RA SCT020 BKN040
                      TEMPO 0619/0623 7000 RA
                      PROB40 TEMPO 0621/0623 3000 +RA BKN014 BKN022CB
                       BECMG 0623/0701 21007KT
                      PROB40 0623/0707 8000 BKN008
                      PROB40 TEMPO 0711/0719 7000 SHRA=
201009061103 TAF EGLL 061103Z 0612/0718 11013KT CAVOK
                      TEMPO 0612/0623 11017G27KT
                      PROB30 TEMPO 0614/0618 8000 SHRA
                      BECMG 0618/0621 7000 RA BKN020
                      PROB40 TEMPO 0621/0624 3000 +RA BKN014 BKN022CB
                       BECMG 0623/0702 22007KT 9999 NSW
                      PROB40 0623/0707 8000 BKN008
                      PROB40 TEMPO 0711/0718 7000 SHRA=
201009060459 TAF EGLL 060459Z 0606/0712 12012KT CAVOK
                      BECMG 0607/0610 12017G28KT
                      PROB30 TEMPO 0612/0617 8000 SHRA
                      BECMG 0617/0620 7000 RA BKN020
                      PROB40 TEMPO 0619/0622 3500 +RA BKN014 BKN022CB
                       BECMG 0622/0701 23007KT 9999 NSW
                      PROB40 0622/0707 BKN007
                      PROB30 0701/0708 8000
                      PROB40 TEMPO 0708/0712 6000 SHRA=
201009052302 TAF EGLL 052302Z 0600/0706 12010KT CAVOK
                      BECMG 0607/0610 13017G28KT
                      PROB30 TEMPO 0613/0617 8000 SHRA
                      BECMG 0617/0620 8000 RA BKN020
                      PROB40 TEMPO 0619/0623 3500 +RA BKN008 BKN025CB
                       BECMG 0623/0701 22008KT 9999 NSW
                      PROB40 0623/0705 BKN008
                      PROB30 0701/0705 8000=
201009051656 TAF EGLL 051656Z 0518/0624 12012KT CAVOK
                      BECMG 0608/0611 12018G28KT
                      BECMG 0618/0620 -RA BKN020
                      TEMPO 0619/0623 12014KT 7000 RA
                      PROB40 TEMPO 0620/0622 3000 +RA BKN014 BKN025CB
                       BECMG 0622/0624 20010KT
                      TEMPO 0622/0624 BKN009=
201009051056 TAF EGLL 051056Z 0512/0618 11010KT 9999 FEW040
                      PROB30 TEMPO 0512/0517 9000 -SHRA
                      BECMG 0608/0611 12018G28KT=
201009050454 TAF EGLL 050454Z 0506/0612 08010KT 9999 SCT035=
201009042252 TAF EGLL 042252Z 0500/0606 11007KT 9999 SCT035
                      PROB30 0502/0507 6000
                      PROB30 TEMPO 0510/0515 7000 SHRA=
201009041657 TAF EGLL 041657Z 0418/0524 11008KT 9999 SCT035
                      PROB40 0502/0507 6000=
201009041102 TAF EGLL 041102Z 0412/0518 12008KT 9999 SCT025
                      PROB40 0503/0507 6000
                      PROB30 TEMPO 0507/0514 8000 SHRA=
201009040500 TAF EGLL 040500Z 0406/0512 06007KT 9999 FEW045
                      PROB30 0406/0408 6000
                      PROB30 0503/0506 7000=
201009032252 TAF EGLL 032252Z 0400/0506 08007KT 9999 FEW045
                      PROB30 0403/0408 3000 BR
                      PROB30 0503/0506 7000=
201009031658 TAF EGLL 031658Z 0318/0424 09007KT 9999 FEW045
                      PROB30 0403/0408 3000 BR
                      PROB30 TEMPO 0421/0424 8000 SHRA=
201009031057 TAF EGLL 031057Z 0312/0418 09007KT 9999 FEW045
                      PROB30 0403/0408 7000=
201009030502 TAF EGLL 030502Z 0306/0412 07004KT 9999 FEW045
                      PROB40 0306/0308 6000
                      PROB30 0403/0408 7000=
201009022259 TAF EGLL 022259Z 0300/0406 07004KT 9999 FEW045
                      PROB40 0303/0308 6000
                      PROB30 0403/0406 7000=
201009021653 TAF EGLL 021653Z 0218/0324 07007KT 9999 SCT028
                      PROB40 0303/0308 6000=
201009021055 TAF EGLL 021055Z 0212/0318 05007KT 9999 SCT028
                      PROB40 0303/0308 6000=
201009020504 TAF EGLL 020504Z 0206/0312 03004KT 9999 FEW045
                      PROB40 0206/0208 7000
                      PROB30 0303/0308 7000=
201009012255 TAF EGLL 012255Z 0200/0306 08005KT 9999 FEW045
                      PROB40 0203/0208 7000
                      PROB30 0303/0306 7000=
201009011658 TAF EGLL 011658Z 0118/0224 09005KT 9999 FEW040
                      PROB40 0203/0208 5000 BR=
201009011058 TAF EGLL 011058Z 0112/0218 09005KT 9999 FEW040
                      PROB30 TEMPO 0204/0208 5000 BR=
201009010451 TAF EGLL 010451Z 0106/0212 07004KT 9999 FEW040
                      PROB30 TEMPO 0106/0108 5000 BR
                      PROB30 0204/0208 5000 BR=
