##########################################################
# Query made at 12/24/2012 13:48:05 UTC
# Time interval: from 09/01/2012 00:00  to 10/01/2012 23:59  UTC
##########################################################

##########################################################
# EGLL, London / Heathrow Airport (United Kingdom)
# WMO index: 03772
# Latitude 51-29N. Longitude 000-27W. Altitude 24 m.
##########################################################

###################################
#  METAR/SPECI from EGLL
###################################
201210012350 METAR COR EGLL 012350Z 23008KT CAVOK 11/10 Q1012 NOSIG=
201210012320 METAR COR EGLL 012320Z 21006KT CAVOK 11/10 Q1012 NOSIG=
201210012250 METAR COR EGLL 012250Z 22007KT CAVOK 11/10 Q1012 NOSIG=
201210012220 METAR COR EGLL 012220Z 22007KT CAVOK 12/10 Q1012 NOSIG=
201210012150 METAR COR EGLL 012150Z 21008KT 170V250 CAVOK 12/10 Q1012
                        NOSIG=
201210012120 METAR COR EGLL 012120Z 22007KT CAVOK 12/11 Q1012 NOSIG=
201210012050 METAR COR EGLL 012050Z 23010KT CAVOK 13/11 Q1012 NOSIG=
201210012020 METAR COR EGLL 012020Z 23011KT CAVOK 13/11 Q1012 NOSIG=
201210011950 METAR EGLL 011950Z 23012KT 9999 FEW019 14/12 Q1012=
201210011920 METAR COR EGLL 011920Z 23010KT 9999 FEW019 SCT027 BKN040
                        14/12 Q1011 RERA NOSIG=
201210011850 METAR COR EGLL 011850Z 23011KT 200V260 9999 VCSH FEW016 SCT026
                        14/12 Q1011 TEMPO SHRA=
201210011820 METAR COR EGLL 011820Z 22009KT 9999 SCT031 14/12 Q1011 TEMPO
                        SHRA=
201210011750 METAR COR EGLL 011750Z 21009KT 9999 SCT031 15/11 Q1011 NOSIG=
201210011720 METAR COR EGLL 011720Z 22010KT 9999 FEW030 15/12 Q1011 TEMPO
                        SHRA=
201210011650 METAR COR EGLL 011650Z 21009KT 9999 FEW022 16/12 Q1010 NOSIG=
201210011620 METAR COR EGLL 011620Z 22011KT 9999 FEW022 17/12 Q1010 NOSIG=
201210011550 METAR COR EGLL 011550Z 22011KT 9999 FEW022 SCT029 17/12 Q1011
                        NOSIG=
201210011520 METAR COR EGLL 011520Z 23011KT 9999 SCT018 17/13 Q1010 NOSIG=
201210011450 METAR COR EGLL 011450Z 23013KT 9999 FEW017 17/13 Q1011 NOSIG=
201210011420 METAR COR EGLL 011420Z 23012KT 9999 FEW019 16/13 Q1011 NOSIG=
201210011350 METAR COR EGLL 011350Z 24014KT 9999 FEW019 16/13 Q1011 NOSIG=
201210011320 METAR COR EGLL 011320Z 25012KT 9999 -RA FEW009 BKN016 15/13
                        Q1011 NOSIG=
201210011250 METAR COR EGLL 011250Z 26011KT 9999 FEW009 BKN018 15/13 Q1011
                        NOSIG=
201210011220 METAR COR EGLL 011220Z 25010KT 9999 SCT008 BKN010 15/13 Q1011
                        BECMG SCT012 BKN016=
201210011150 METAR COR EGLL 011150Z 25009KT 9999 -RA FEW009 SCT017 14/13
                        Q1011 RERA TEMPO BKN014=
201210011120 METAR COR EGLL 011120Z 25008KT 9000 RA FEW011 BKN017 14/13
                        Q1011 RERA TEMPO BKN014=
201210011050 METAR COR EGLL 011050Z 25008G18KT 210V280 9000 BKN019 14/13
                        Q1011 TEMPO RA BKN010=
201210011020 METAR COR EGLL 011020Z 25008KT 190V270 9999 VCSH BKN017 14/13
                        Q1011 BECMG 4500 RA BKN010=
201210010950 METAR COR EGLL 010950Z 30005KT 3000 -RADZ SCT004 BKN012 13/13
                        Q1012 TEMPO 9999 SCT010 BKN016=
201210010920 METAR COR EGLL 010920Z 29009KT 5000 -RADZ SCT004 SCT007 BKN012
                        13/13 Q1012 TEMPO 4000 RADZ BKN007=
201210010850 METAR COR EGLL 010850Z 22009KT 180V280 7000 -RA BKN005 BKN010
                        15/15 Q1011 BECMG SCT005 BKN010=
201210010820 METAR COR EGLL 010820Z 20008KT 170V240 6000 SCT005 BKN008
                        15/14 Q1011 BECMG SCT008 BKN012=
201210010750 METAR COR EGLL 010750Z 19008KT 160V240 4500 DZ BKN005 14/14
                        Q1011 TEMPO 9999 -RA SCT006 BKN012=
201210010720 METAR COR EGLL 010720Z 20009KT 180V250 9999 BKN006 BKN013
                        14/14 Q1011 TEMPO 4500 RADZ BKN005=
201210010650 METAR COR EGLL 010650Z 20009KT 170V230 9999 FEW005 BKN007
                        14/13 Q1011 RERA TEMPO 4500 RADZ
                        BKN005=
201210010620 METAR COR EGLL 010620Z 20008KT 170V270 9999 -RA FEW005 SCT007
                        BKN012 14/13 Q1012 TEMPO 4000 RA
                        BKN006=
201210010550 METAR COR EGLL 010550Z 20008KT 9999 RA FEW007 BKN024 13/13
                        Q1012 BECMG 4000 BKN006=
201210010520 METAR COR EGLL 010520Z 20009KT 170V250 9999 RA OVC005 13/13
                        Q1012 RERA TEMPO 4000=
201210010450 METAR COR EGLL 010450Z 19008G20KT 160V240 5000 +RA SCT005
                        BKN011 13/12 Q1012 TEMPO 4000 RADZ
                        BKN006=
201210010420 METAR COR EGLL 010420Z 20008KT 6000 DZ FEW009 OVC011 14/12
                        Q1012 BECMG BKN008=
201210010350 METAR COR EGLL 010350Z 21010KT 9999 OVC012 14/12 Q1012 TEMPO
                        RA BKN008=
201210010320 METAR COR EGLL 010320Z 21010KT 9999 OVC013 14/12 Q1013 TEMPO
                        RA BKN008=
201210010250 METAR COR EGLL 010250Z 21010KT 9999 OVC015 14/11 Q1013 BECMG
                        BKN012=
201210010220 METAR COR EGLL 010220Z 22011KT 9999 BKN018 15/11 Q1013 BECMG
                        BKN014=
201210010150 METAR COR EGLL 010150Z 22011KT 9999 BKN018 15/11 Q1013 BECMG
                        BKN014=
201210010120 METAR EGLL 010120Z 22011KT 9999 OVC015 14/11 Q1014=
201210010050 METAR COR EGLL 010050Z 22010KT 9999 BKN017 14/11 Q1014 BECMG
                        BKN014=
201210010020 METAR COR EGLL 010020Z 22011KT 9999 BKN017 14/11 Q1014 BECMG
                        BKN014=
201209302350 METAR COR EGLL 302350Z 21010G20KT 180V250 9999 BKN020 14/11
                        Q1014 BECMG BKN014=
201209302320 METAR COR EGLL 302320Z 22011KT 9999 FEW020 SCT040 14/11 Q1015
                        NOSIG=
201209302250 METAR COR EGLL 302250Z 22012KT 9999 SCT017 14/11 Q1015 NOSIG=
201209302220 METAR COR EGLL 302220Z 22011KT 9999 BKN017 14/11 Q1015 NOSIG=
201209302150 METAR COR EGLL 302150Z 22013KT 9999 BKN018 15/11 Q1015 NOSIG=
201209302120 METAR COR EGLL 302120Z 23015KT 9999 BKN017 15/11 Q1016 NOSIG=
201209302050 METAR COR EGLL 302050Z 23014KT 9999 BKN017 15/11 Q1016 NOSIG=
201209302020 METAR COR EGLL 302020Z 23013KT 9999 OVC016 15/11 Q1016 NOSIG=
201209301950 METAR COR EGLL 301950Z 23012KT 9999 OVC016 15/11 Q1016 NOSIG=
201209301920 METAR COR EGLL 301920Z 23011KT 200V260 9999 OVC016 15/11
                        Q1016 NOSIG=
201209301850 METAR COR EGLL 301850Z 22011KT 9999 BKN018 15/11 Q1016 NOSIG=
201209301820 METAR COR EGLL 301820Z 22011KT 9999 OVC018 15/11 Q1016 NOSIG=
201209301750 METAR COR EGLL 301750Z 23012KT 9999 OVC018 15/11 Q1016 NOSIG=
201209301720 METAR COR EGLL 301720Z 23015KT 9999 OVC019 15/11 Q1017 NOSIG=
201209301650 METAR COR EGLL 301650Z 23011G22KT 9999 BKN021 15/11 Q1016
                        NOSIG=
201209301620 METAR COR EGLL 301620Z 22012KT 9999 SCT023 16/11 Q1016 NOSIG=
201209301550 METAR COR EGLL 301550Z 23015KT 9999 SCT023 16/11 Q1017 NOSIG=
201209301520 METAR COR EGLL 301520Z 23015KT 9999 BKN024 16/11 Q1017 NOSIG=
201209301450 METAR COR EGLL 301450Z 22015KT 9999 BKN027 17/11 Q1017 NOSIG=
201209301420 METAR COR EGLL 301420Z 24016KT 210V270 9999 BKN026 17/10
                        Q1017 NOSIG=
201209301350 METAR COR EGLL 301350Z 23015KT 9999 BKN027 17/10 Q1018 NOSIG=
201209301320 METAR COR EGLL 301320Z 23015KT 9999 BKN026 17/10 Q1018 NOSIG=
201209301250 METAR COR EGLL 301250Z 24017KT 9999 BKN028 17/10 Q1018 NOSIG=
201209301220 METAR COR EGLL 301220Z 23014KT 9999 FEW027 SCT030 17/10 Q1018
                        NOSIG=
201209301150 METAR COR EGLL 301150Z 24016KT 9999 FEW025 BKN028 16/09 Q1019
                        NOSIG=
201209301120 METAR COR EGLL 301120Z 24016KT 9999 SCT025 SCT029 16/09 Q1019
                        NOSIG=
201209301050 METAR COR EGLL 301050Z 24015KT 9999 BKN029 15/09 Q1019 NOSIG=
201209301020 METAR COR EGLL 301020Z 24015KT 9999 FEW027 BKN030 15/09 Q1019
                        NOSIG=
201209300950 METAR COR EGLL 300950Z 25015KT 9999 FEW020 BKN026 14/09 Q1020
                        NOSIG=
201209300920 METAR COR EGLL 300920Z 25015KT 9999 FEW024 BKN026 14/09 Q1020
                        NOSIG=
201209300850 METAR COR EGLL 300850Z 22007KT 190V250 9999 BKN027 12/09
                        Q1020 NOSIG=
201209300820 METAR COR EGLL 300820Z 22007KT 9999 FEW027 11/08 Q1020 NOSIG=
201209300750 METAR COR EGLL 300750Z 21008KT 180V240 9999 FEW031 10/08
                        Q1020 NOSIG=
201209300720 METAR COR EGLL 300720Z 21009KT 190V250 9999 FEW028 09/07
                        Q1020 NOSIG=
201209300650 METAR EGLL 300650Z 21009KT 9999 BKN027 09/07 Q1020=
201209300620 METAR COR EGLL 300620Z 22010KT 9999 BKN028 08/07 Q1020 NOSIG=
201209300550 METAR COR EGLL 300550Z 21009KT 190V260 9999 FEW031 07/06
                        Q1020 NOSIG=
201209300520 METAR COR EGLL 300520Z 21006KT 170V250 CAVOK 07/06 Q1020
                        NOSIG=
201209300450 METAR COR EGLL 300450Z 21007KT 180V270 CAVOK 07/05 Q1020
                        NOSIG=
201209300420 METAR COR EGLL 300420Z 23005KT CAVOK 06/05 Q1020 NOSIG=
201209300350 METAR COR EGLL 300350Z 22004KT CAVOK 06/05 Q1020 NOSIG=
201209300320 METAR COR EGLL 300320Z VRB02KT CAVOK 06/04 Q1020 NOSIG=
201209300250 METAR COR EGLL 300250Z 27002KT CAVOK 07/05 Q1021 NOSIG=
201209300220 METAR COR EGLL 300220Z 19003KT CAVOK 07/05 Q1021 NOSIG=
201209300150 METAR COR EGLL 300150Z VRB02KT CAVOK 07/05 Q1021 NOSIG=
201209300120 METAR EGLL 300120Z AUTO 28002KT 9999 NCD 07/05 Q1021=
201209300050 METAR EGLL 300050Z AUTO 26005KT 180V280 9999 NCD 07/05 Q1021=
201209300020 METAR EGLL 300020Z AUTO 28006KT 9999 NCD 07/05 Q1022=
201209292350 METAR COR EGLL 292350Z 26003KT CAVOK 07/05 Q1022 NOSIG=
201209292320 METAR COR EGLL 292320Z 27005KT CAVOK 08/05 Q1022 NOSIG=
201209292250 METAR COR EGLL 292250Z 28006KT CAVOK 08/05 Q1022 NOSIG=
201209292220 METAR EGLL 292220Z 27006KT CAVOK 09/06 Q1022=
201209292150 METAR COR EGLL 292150Z 28006KT CAVOK 09/05 Q1021 NOSIG=
201209292120 METAR COR EGLL 292120Z 29006KT CAVOK 10/05 Q1021 NOSIG=
201209292050 METAR COR EGLL 292050Z 28006KT CAVOK 10/05 Q1021 NOSIG=
201209292020 METAR COR EGLL 292020Z 28007KT CAVOK 10/06 Q1021 NOSIG=
201209291950 METAR COR EGLL 291950Z 28007KT CAVOK 11/06 Q1021 NOSIG=
201209291920 METAR COR EGLL 291920Z 28007KT CAVOK 12/05 Q1021 NOSIG=
201209291850 METAR COR EGLL 291850Z 28006KT CAVOK 12/05 Q1021 NOSIG=
201209291820 METAR COR EGLL 291820Z 28007KT CAVOK 12/05 Q1020 NOSIG=
201209291750 METAR COR EGLL 291750Z 29005KT CAVOK 13/05 Q1020 NOSIG=
201209291720 METAR COR EGLL 291720Z 29006KT CAVOK 14/04 Q1020 NOSIG=
201209291650 METAR COR EGLL 291650Z 31006KT 9999 FEW049 14/03 Q1019 NOSIG=
201209291620 METAR COR EGLL 291620Z 31006KT 280V340 CAVOK 15/04 Q1019
                        NOSIG=
201209291550 METAR COR EGLL 291550Z 29008KT 9999 FEW049 15/04 Q1019 NOSIG=
201209291520 METAR COR EGLL 291520Z 27013KT 250V320 9999 FEW049 16/04
                        Q1019 NOSIG=
201209291450 METAR COR EGLL 291450Z 28010KT 260V320 9999 SCT049 16/04
                        Q1019 NOSIG=
201209291420 METAR COR EGLL 291420Z 30009KT 9999 SCT045 15/04 Q1019 NOSIG=
201209291350 METAR COR EGLL 291350Z 30007KT 9999 SCT045 15/04 Q1019 NOSIG=
201209291320 METAR COR EGLL 291320Z 29010KT 9999 SCT046 15/04 Q1019 NOSIG=
201209291250 METAR COR EGLL 291250Z 28010KT 240V320 9999 SCT046 16/04
                        Q1019 NOSIG=
201209291220 METAR COR EGLL 291220Z 29010KT 260V330 9999 SCT044 16/04
                        Q1019 NOSIG=
201209291150 METAR COR EGLL 291150Z 30010KT 9999 SCT042 15/04 Q1019 NOSIG=
201209291120 METAR COR EGLL 291120Z 32009KT 9999 FEW038 SCT043 15/05 Q1019
                        NOSIG=
201209291050 METAR COR EGLL 291050Z 29011KT 9999 SCT037 15/05 Q1019 NOSIG=
201209291020 METAR COR EGLL 291020Z 30009KT 9999 FEW033 14/06 Q1019 NOSIG=
201209290950 METAR COR EGLL 290950Z 29010KT 9999 FEW028 14/07 Q1019 NOSIG=
201209290920 METAR COR EGLL 290920Z 28011KT 9999 FEW020 13/08 Q1019 NOSIG=
201209290850 METAR COR EGLL 290850Z 28012KT 9999 FEW016 12/08 Q1018 NOSIG=
201209290820 METAR COR EGLL 290820Z 28009KT CAVOK 11/08 Q1018 NOSIG=
201209290750 METAR COR EGLL 290750Z 28010KT CAVOK 10/08 Q1018 NOSIG=
201209290720 METAR COR EGLL 290720Z 28009KT CAVOK 10/08 Q1017 NOSIG=
201209290650 METAR EGLL 290650Z 28007KT CAVOK 09/08 Q1017=
201209290620 METAR COR EGLL 290620Z 28006KT CAVOK 09/08 Q1016 NOSIG=
201209290550 METAR COR EGLL 290550Z 28006KT CAVOK 09/07 Q1016 NOSIG=
201209290520 METAR COR EGLL 290520Z 28006KT CAVOK 09/08 Q1016 NOSIG=
201209290450 METAR COR EGLL 290450Z 30005KT CAVOK 09/08 Q1015 NOSIG=
201209290420 METAR COR EGLL 290420Z 27008KT CAVOK 09/08 Q1015 NOSIG=
201209290350 METAR COR EGLL 290350Z 27009KT CAVOK 10/08 Q1015 NOSIG=
201209290320 METAR COR EGLL 290320Z 28008KT CAVOK 10/08 Q1015 NOSIG=
201209290250 METAR EGLL 290250Z AUTO 27008KT 9999 NCD 10/08 Q1014=
201209290220 METAR COR EGLL 290220Z 27008KT CAVOK 10/09 Q1014 NOSIG=
201209290150 METAR COR EGLL 290150Z 27007KT CAVOK 10/08 Q1014 NOSIG=
201209290120 METAR EGLL 290120Z AUTO 27008KT 9999 NCD 11/09 Q1014=
201209290050 METAR EGLL 290050Z AUTO 27007KT 9999 NCD 11/09 Q1014=
201209290020 METAR EGLL 290020Z AUTO 25007KT 9999 NCD 11/09 Q1014=
201209282350 METAR COR EGLL 282350Z 27005KT CAVOK 11/09 Q1014 NOSIG=
201209282320 METAR COR EGLL 282320Z 21004KT CAVOK 11/09 Q1014 NOSIG=
201209282250 METAR COR EGLL 282250Z 22005KT CAVOK 10/09 Q1014 NOSIG=
201209282220 METAR COR EGLL 282220Z 25007KT CAVOK 11/08 Q1014 NOSIG=
201209282150 METAR COR EGLL 282150Z 26009KT CAVOK 11/09 Q1014 NOSIG=
201209282120 METAR COR EGLL 282120Z 25009KT CAVOK 11/08 Q1014 NOSIG=
201209282050 METAR COR EGLL 282050Z 24010KT CAVOK 12/09 Q1014 NOSIG=
201209282020 METAR COR EGLL 282020Z 25011KT CAVOK 13/09 Q1013 NOSIG=
201209281950 METAR COR EGLL 281950Z 25010KT CAVOK 12/09 Q1013 NOSIG=
201209281920 METAR COR EGLL 281920Z 25010KT CAVOK 13/10 Q1013 NOSIG=
201209281850 METAR COR EGLL 281850Z 24009KT CAVOK 13/11 Q1013 NOSIG=
201209281820 METAR COR EGLL 281820Z 22008KT 190V250 CAVOK 13/11 Q1013
                        NOSIG=
201209281750 METAR COR EGLL 281750Z 23010KT 9999 FEW020 13/11 Q1012 NOSIG=
201209281720 METAR COR EGLL 281720Z 23008KT 9999 FEW020 14/11 Q1012 NOSIG=
201209281650 METAR COR EGLL 281650Z 24009KT 9999 FEW020 14/11 Q1012 NOSIG=
201209281620 METAR COR EGLL 281620Z 25011KT 9999 FEW020 15/10 Q1012 NOSIG=
201209281550 METAR COR EGLL 281550Z 26014KT 9999 SCT045 14/10 Q1012 NOSIG=
201209281520 METAR COR EGLL 281520Z 25013KT 9999 FEW015 BKN042 14/11 Q1012
                        NOSIG=
201209281450 METAR COR EGLL 281450Z 26013KT 9999 5000NE -DZ SCT020 BKN037
                        14/12 Q1012 NOSIG=
201209281420 METAR COR EGLL 281420Z 25012KT 9999 VCSH FEW011 SCT024 BKN040
                        14/12 Q1012 NOSIG=
201209281350 METAR COR EGLL 281350Z 25011KT 9999 VCSH SCT013 BKN030 15/12
                        Q1012 TEMPO SHRA BKN014=
201209281320 METAR COR EGLL 281320Z 24012KT 9999 FEW016 BKN030 14/12 Q1012
                        TEMPO SHRA=
201209281250 METAR COR EGLL 281250Z 25015KT 220V280 9999 5000S -SHRA SCT028
                        BKN033 17/11 Q1012 TEMPO SHRA=
201209281220 METAR COR EGLL 281220Z 22012KT 9999 8000W VCSH BKN030 17/11
                        Q1012 TEMPO SHRA=
201209281150 METAR COR EGLL 281150Z 24013KT 9999 SCT028 17/10 Q1012 TEMPO
                        SHRA=
201209281120 METAR COR EGLL 281120Z 24014KT 9999 BKN025 17/10 Q1012 TEMPO
                        7000 SHRA=
201209281050 METAR COR EGLL 281050Z 24012KT 210V290 9999 SCT025 17/11
                        Q1012 NOSIG=
201209281020 METAR COR EGLL 281020Z 23013KT 9999 SCT024 16/10 Q1013 NOSIG=
201209280950 METAR COR EGLL 280950Z 23014KT 9999 SCT018 16/11 Q1013 NOSIG=
201209280920 METAR COR EGLL 280920Z 23011KT 9999 BKN014 15/11 Q1013 TEMPO
                        BKN016=
201209280850 METAR COR EGLL 280850Z 22010KT 9999 BKN015 14/11 Q1013 NOSIG=
201209280820 METAR COR EGLL 280820Z 21009KT 9999 FEW040 13/10 Q1013 TEMPO
                        BKN014=
201209280750 METAR COR EGLL 280750Z 21008KT 9999 FEW040 12/09 Q1013 NOSIG=
201209280720 METAR COR EGLL 280720Z 21007KT 170V250 9999 FEW025 11/09
                        Q1013 NOSIG=
201209280650 METAR COR EGLL 280650Z 22007KT 190V260 9999 FEW036 11/09
                        Q1013 NOSIG=
201209280620 METAR COR EGLL 280620Z 21007KT 200V260 9999 FEW040 10/08
                        Q1013 NOSIG=
201209280550 METAR COR EGLL 280550Z 21005KT 160V260 9999 FEW032 SCT036
                        10/08 Q1013 NOSIG=
201209280520 METAR COR EGLL 280520Z 23005KT 9999 FEW033 SCT038 09/08 Q1013
                        NOSIG=
201209280450 METAR COR EGLL 280450Z 21005KT 180V240 9999 FEW032 09/07
                        Q1012 NOSIG=
201209280420 METAR COR EGLL 280420Z 23006KT 9999 FEW047 09/07 Q1012 NOSIG=
201209280350 METAR COR EGLL 280350Z 21006KT 9999 FEW048 08/07 Q1013 NOSIG=
201209280320 METAR COR EGLL 280320Z 22006KT 9999 FEW048 09/07 Q1013 NOSIG=
201209280250 METAR COR EGLL 280250Z 23006KT CAVOK 09/07 Q1013 NOSIG=
201209280220 METAR COR EGLL 280220Z 24006KT CAVOK 09/07 Q1013 NOSIG=
201209280150 METAR COR EGLL 280150Z 23007KT CAVOK 09/07 Q1013 NOSIG=
201209280120 METAR EGLL 280120Z AUTO 24006KT 9999 NCD 09/07 Q1014=
201209280050 METAR EGLL 280050Z AUTO 25007KT 9999 NCD 09/08 Q1014=
201209280020 METAR EGLL 280020Z AUTO 24006KT 9999 NCD 10/08 Q1013=
201209272350 METAR COR EGLL 272350Z 23008KT 190V260 CAVOK 10/08 Q1013
                        NOSIG=
201209272320 METAR COR EGLL 272320Z 21005KT CAVOK 10/08 Q1013 NOSIG=
201209272250 METAR COR EGLL 272250Z 24006KT CAVOK 11/08 Q1013 NOSIG=
201209272220 METAR COR EGLL 272220Z 25007KT CAVOK 11/08 Q1013 NOSIG=
201209272150 METAR COR EGLL 272150Z 25008KT CAVOK 11/08 Q1013 NOSIG=
201209272120 METAR COR EGLL 272120Z 25008KT CAVOK 11/08 Q1013 NOSIG=
201209272050 METAR COR EGLL 272050Z 25010KT CAVOK 12/09 Q1013 NOSIG=
201209272020 METAR COR EGLL 272020Z 25009KT CAVOK 12/09 Q1012 NOSIG=
201209271950 METAR COR EGLL 271950Z 25009KT CAVOK 12/09 Q1012 NOSIG=
201209271920 METAR COR EGLL 271920Z 25007KT CAVOK 13/09 Q1012 NOSIG=
201209271850 METAR COR EGLL 271850Z 26007KT 9999 FEW047 13/09 Q1012 NOSIG=
201209271820 METAR COR EGLL 271820Z 27007KT 9999 FEW047 13/10 Q1011 NOSIG=
201209271750 METAR COR EGLL 271750Z 01003KT 9999 FEW030 13/10 Q1011 NOSIG=
201209271720 METAR COR EGLL 271720Z 28010KT 9999 5000E -SHRA SCT030 SCT042
                        14/10 Q1011 RESHRA NOSIG=
201209271650 METAR COR EGLL 271650Z 29008KT 260V330 9999 -SHRA SCT038
                        15/08 Q1010 NOSIG=
201209271620 METAR COR EGLL 271620Z 27011KT 9999 FEW047 16/08 Q1010 NOSIG=
201209271550 METAR COR EGLL 271550Z 28009KT 9999 SCT042 16/07 Q1010 NOSIG=
201209271520 METAR COR EGLL 271520Z 28005KT 230V010 9999 FEW040 16/07
                        Q1010 NOSIG=
201209271450 METAR COR EGLL 271450Z 27010KT 9999 FEW041 17/08 Q1009 NOSIG=
201209271420 METAR COR EGLL 271420Z 27010KT 250V310 9999 FEW034 SCT046
                        17/07 Q1009 NOSIG=
201209271350 METAR COR EGLL 271350Z 28009KT 9999 FEW034 SCT036 17/08 Q1009
                        NOSIG=
201209271320 METAR COR EGLL 271320Z 29008KT 250V320 9999 SCT032 SCT039
                        17/08 Q1009 NOSIG=
201209271250 METAR COR EGLL 271250Z 30008KT 260V350 9999 SCT032 BKN039
                        17/08 Q1009 NOSIG=
201209271220 METAR COR EGLL 271220Z 30008KT 270V340 9999 BKN034 16/08
                        Q1008 NOSIG=
201209271150 METAR COR EGLL 271150Z 30008KT 270V340 9999 BKN032 16/08
                        Q1008 NOSIG=
201209271120 METAR COR EGLL 271120Z 31009KT 270V350 9999 BKN029 15/08
                        Q1008 NOSIG=
201209271050 METAR COR EGLL 271050Z 35006KT 290V030 9999 SCT023 SCT027
                        15/09 Q1007 NOSIG=
201209271020 METAR COR EGLL 271020Z 32007KT 290V350 9999 SCT020 SCT028
                        15/09 Q1007 NOSIG=
201209270950 METAR COR EGLL 270950Z 33007KT 300V010 9999 SCT016 SCT020
                        14/09 Q1007 NOSIG=
201209270920 METAR COR EGLL 270920Z 34005KT 290V010 9999 BKN014 13/09
                        Q1007 BECMG SCT020=
201209270850 METAR COR EGLL 270850Z 33006KT 290V010 9999 BKN018 12/09
                        Q1006 NOSIG=
201209270820 METAR COR EGLL 270820Z 33006KT 9999 SCT013 BKN040 12/10 Q1006
                        NOSIG=
201209270750 METAR COR EGLL 270750Z 35006KT 310V030 9999 FEW013 BKN035
                        12/10 Q1005 NOSIG=
201209270720 METAR COR EGLL 270720Z 33005KT 300V010 9999 FEW013 BKN018
                        12/10 Q1005 NOSIG=
201209270650 METAR COR EGLL 270650Z 35005KT 320V020 9999 SCT012 BKN018
                        12/10 Q1004 NOSIG=
201209270620 METAR COR EGLL 270620Z 36007KT 310V040 9999 SCT011 BKN014
                        12/10 Q1004 BECMG SCT012 BKN016=
201209270550 METAR COR EGLL 270550Z 34005KT 9999 BKN011 12/10 Q1003 BECMG
                        SCT011 BKN018=
201209270520 METAR COR EGLL 270520Z VRB03KT 9000 -RA FEW007 SCT009 BKN032
                        11/10 Q1003 RERA TEMPO BKN009=
201209270450 METAR COR EGLL 270450Z 35004KT 320V020 8000 -RA FEW009 SCT012
                        BKN032 11/10 Q1003 TEMPO BKN010=
201209270420 METAR COR EGLL 270420Z 35005KT 9999 FEW009 SCT013 BKN043
                        11/10 Q1002 TEMPO BKN012=
201209270350 METAR COR EGLL 270350Z 36005KT 320V030 9999 FEW009 SCT011
                        BKN034 12/10 Q1002 TEMPO BKN012=
201209270320 METAR COR EGLL 270320Z 36004KT 320V040 9999 FEW008 BKN009
                        BKN030 12/10 Q1001 BECMG SCT008 BKN012=
201209270250 METAR COR EGLL 270250Z 01004KT 340V060 9999 SCT010 SCT026
                        12/10 Q1001 TEMPO BKN008=
201209270220 METAR COR EGLL 270220Z 02004KT 340V060 9999 FEW008 SCT010
                        12/10 Q1001 TEMPO BKN008=
201209270150 METAR COR EGLL 270150Z 01004KT 330V040 9999 FEW008 SCT012
                        12/10 Q1001 TEMPO BKN010=
201209270120 METAR EGLL 270120Z AUTO 01004KT 350V060 9999 FEW011/// 11/10
                        Q1000=
201209270050 METAR EGLL 270050Z AUTO VRB03KT 9999 SCT005/// 11/10 Q1000=
201209270020 METAR EGLL 270020Z AUTO 36004KT 9999 NCD 11/10 Q1000=
201209262350 METAR COR EGLL 262350Z 36004KT CAVOK 11/10 Q0999 TEMPO BKN010=
201209262320 METAR COR EGLL 262320Z 01003KT CAVOK 11/09 Q0999 TEMPO BKN010=
201209262250 METAR COR EGLL 262250Z VRB03KT CAVOK 11/09 Q0999 TEMPO BKN010=
201209262220 METAR COR EGLL 262220Z VRB03KT CAVOK 12/10 Q0999 TEMPO BKN012=
201209262150 METAR COR EGLL 262150Z 36004KT CAVOK 12/10 Q0998 TEMPO BKN012=
201209262120 METAR COR EGLL 262120Z 05002KT CAVOK 12/10 Q0998 TEMPO BKN012=
201209262050 METAR COR EGLL 262050Z 36003KT CAVOK 13/10 Q0997 TEMPO BKN012=
201209262020 METAR COR EGLL 262020Z 36003KT 9999 FEW026 12/10 Q0997 NOSIG=
201209261950 METAR EGLL 261950Z VRB02KT CAVOK 11/09 Q0997=
201209261920 METAR COR EGLL 261920Z VRB02KT CAVOK 12/09 Q0996 NOSIG=
201209261850 METAR COR EGLL 261850Z VRB03KT CAVOK 12/09 Q0996 NOSIG=
201209261820 METAR COR EGLL 261820Z 23006KT 9999 FEW020 13/10 Q0995 NOSIG=
201209261750 METAR COR EGLL 261750Z 24007KT 190V270 9999 FEW020 14/10
                        Q0995 TEMPO SHRA=
201209261720 METAR COR EGLL 261720Z 22009KT 180V250 9999 FEW020 14/10
                        Q0995 NOSIG=
201209261650 METAR COR EGLL 261650Z 20008KT 160V250 9999 FEW021 15/10
                        Q0994 NOSIG=
201209261620 METAR COR EGLL 261620Z 19008KT 140V250 9999 FEW015CB 15/11
                        Q0994 NOSIG=
201209261550 METAR COR EGLL 261550Z 19008KT 160V250 9999 FEW020 SCT025
                        15/11 Q0993 NOSIG=
201209261520 METAR COR EGLL 261520Z 20008KT 140V250 9999 SCT023 15/11
                        Q0993 NOSIG=
201209261450 METAR EGLL 261450Z 18009KT 150V240 9999 FEW016 SCT020 15/11
                        Q0993=
201209261420 METAR COR EGLL 261420Z 20008KT 160V240 9999 SCT018 15/12
                        Q0993 NOSIG=
201209261350 METAR COR EGLL 261350Z 16008KT 100V210 9999 SCT016 SCT028
                        15/12 Q0992 NOSIG=
201209261320 METAR COR EGLL 261320Z 17007KT 9999 -SHRA SCT020 SCT039 14/12
                        Q0992 NOSIG=
201209261250 METAR COR EGLL 261250Z 16009KT 110V200 9999 -RA SCT015 SCT020
                        14/12 Q0992 NOSIG=
201209261220 METAR COR EGLL 261220Z 18009KT 140V220 9999 -SHRA SCT020
                        14/12 Q0992 NOSIG=
201209261150 METAR COR EGLL 261150Z 18010KT 150V240 9999 -SHRA SCT015
                        SCT038 13/11 Q0992 TEMPO SHRA=
201209261120 METAR COR EGLL 261120Z 18012KT 150V210 9999 FEW014 SCT018
                        14/10 Q0992 NOSIG=
201209261050 METAR COR EGLL 261050Z 17010KT 130V220 9999 FEW014 BKN016
                        15/11 Q0991 NOSIG=
201209261020 METAR COR EGLL 261020Z 17009KT 120V200 9999 SCT013 SCT019
                        15/11 Q0991 NOSIG=
201209260950 METAR COR EGLL 260950Z 15009KT 100V180 9999 FEW010 SCT012
                        14/12 Q0991 NOSIG=
201209260920 METAR COR EGLL 260920Z 15008KT 090V180 9999 FEW010 SCT039
                        14/12 Q0991 NOSIG=
201209260850 METAR COR EGLL 260850Z 15007KT 110V180 9999 FEW010 SCT045
                        13/11 Q0990 NOSIG=
201209260820 METAR COR EGLL 260820Z 14006KT 100V180 9999 FEW018 SCT048
                        12/11 Q0990 NOSIG=
201209260750 METAR COR EGLL 260750Z 14005KT 110V180 9999 FEW015 SCT030
                        11/10 Q0990 NOSIG=
201209260720 METAR COR EGLL 260720Z 14005KT 080V180 9999 -SHRA SCT014
                        SCT025 BKN030 11/10 Q0989 TEMPO BKN014=
201209260650 METAR COR EGLL 260650Z 15006KT 100V210 9999 -SHRA SCT025
                        SCT040 11/10 Q0989 NOSIG=
201209260620 METAR COR EGLL 260620Z 15008KT 110V190 9999 VCSH SCT047 11/09
                        Q0989 TEMPO SHRA=
201209260550 METAR COR EGLL 260550Z 16008KT 110V180 9999 FEW043 10/09
                        Q0989 TEMPO SHRA BKN013=
201209260520 METAR COR EGLL 260520Z 16009KT 110V210 9999 FEW045 11/09
                        Q0988 TEMPO SHRA BKN013=
201209260450 METAR COR EGLL 260450Z 14008KT 100V170 9999 -SHRA FEW047
                        11/09 Q0988 TEMPO SHRA BKN013=
201209260420 METAR COR EGLL 260420Z 14007KT 9999 FEW044 10/09 Q0988 TEMPO
                        SHRA=
201209260350 METAR COR EGLL 260350Z 15007KT 090V170 9999 FEW044 10/09
                        Q0988 TEMPO SHRA=
201209260320 METAR COR EGLL 260320Z 14006KT 9999 -SHRA FEW041 10/09 Q0988
                        TEMPO SHRA=
201209260250 METAR COR EGLL 260250Z 13007KT 9999 -SHRA FEW040 10/08 Q0988
                        TEMPO SHRA=
201209260220 METAR COR EGLL 260220Z 16005KT 9999 FEW040 10/08 Q0988 TEMPO
                        SHRA=
201209260150 METAR COR EGLL 260150Z 17007KT 9999 -RA FEW033 11/09 Q0989
                        TEMPO SHRA=
201209260120 METAR EGLL 260120Z AUTO 19007KT 9999 NCD 11/09 Q0989=
201209260050 METAR EGLL 260050Z AUTO 18008KT 9999 -RA FEW033/// 11/09
                        Q0989=
201209260020 METAR EGLL 260020Z AUTO 16008KT 9999 NCD 11/09 Q0989=
201209252350 METAR COR EGLL 252350Z 17007KT 9999 FEW030 11/09 Q0988 TEMPO
                        SHRA=
201209252320 METAR COR EGLL 252320Z 16007KT 9999 FEW025 11/09 Q0989 TEMPO
                        SHRA=
201209252250 METAR COR EGLL 252250Z 15005KT 9999 FEW029 11/09 Q0989 NOSIG=
201209252220 METAR COR EGLL 252220Z 15006KT 120V250 9999 FEW035 11/09
                        Q0989 NOSIG=
201209252150 METAR COR EGLL 252150Z 18007KT 130V240 9999 FEW035 11/09
                        Q0988 NOSIG=
201209252120 METAR COR EGLL 252120Z 17008KT 140V240 9999 FEW035 11/09
                        Q0988 NOSIG=
201209252050 METAR COR EGLL 252050Z 17009KT 130V230 CAVOK 11/09 Q0988
                        NOSIG=
201209252020 METAR COR EGLL 252020Z 18007KT 140V250 9999 FEW030 11/08
                        Q0989 NOSIG=
201209251950 METAR COR EGLL 251950Z 19008KT 160V240 9999 FEW033 12/08
                        Q0989 NOSIG=
201209251920 METAR COR EGLL 251920Z 18008KT 150V230 9999 FEW033 12/09
                        Q0989 NOSIG=
201209251850 METAR COR EGLL 251850Z 18008KT 150V230 9999 FEW028 12/09
                        Q0989 NOSIG=
201209251820 METAR COR EGLL 251820Z 19008KT 9999 FEW029 FEW033CB 13/09
                        Q0989 NOSIG=
201209251750 METAR COR EGLL 251750Z 19008KT 160V240 9999 FEW010 FEW038CB
                        13/09 Q0989 NOSIG=
201209251720 METAR COR EGLL 251720Z 20012KT 180V240 9999 FEW010 FEW038CB
                        14/09 Q0988 NOSIG=
201209251650 METAR COR EGLL 251650Z 20012KT 170V240 9999 VCSH SCT033CB
                        15/09 Q0988 NOSIG=
201209251620 METAR COR EGLL 251620Z 19012KT 170V240 9999 VCSH FEW036 SCT041CB
                        15/09 Q0988 NOSIG=
201209251550 METAR COR EGLL 251550Z 20013KT 170V240 9999 FEW033 FEW038CB
                        15/09 Q0988 TEMPO 20015G25KT SHRA=
201209251520 METAR COR EGLL 251520Z 22011KT 9999 FEW027 SCT034CB 15/09
                        Q0988 TEMPO 22015G25KT SHRA=
201209251450 METAR COR EGLL 251450Z 22010KT 170V260 9999 VCSH SCT033CB
                        15/10 Q0988 TEMPO 22015G25KT 4000
                        +SHRA=
201209251420 METAR COR EGLL 251420Z 21010KT 170V250 9999 FEW023 SCT032CB
                        14/10 Q0988 TEMPO 21015G25KT 4000
                        +SHRA=
201209251350 METAR COR EGLL 251350Z 24017KT 9999 -SHRA FEW016 SCT027CB
                        13/10 Q0989 RESHRA TEMPO 4000 +SHRA=
201209251320 METAR COR EGLL 251320Z 21012KT 9999 FEW023 SCT038CB 15/08
                        Q0988 TEMPO 21015G25KT 4000 +SHRA=
201209251250 METAR COR EGLL 251250Z 23019G29KT 9999 VCSH FEW031 SCT037CB
                        15/08 Q0988 TEMPO 4000 +SHRA=
201209251220 METAR COR EGLL 251220Z 22014KT 9999 VCSH SCT031 BKN042CB
                        15/08 Q0988 TEMPO 22015G25KT 4000
                        +SHRA=
201209251150 METAR COR EGLL 251150Z 22017KT 9999 SCT035 BKN043CB 16/08
                        Q0988 NOSIG=
201209251120 METAR COR EGLL 251120Z 21015KT 9999 SCT033CB 16/08 Q0988
                        NOSIG=
201209251050 METAR COR EGLL 251050Z 22016KT 9999 VCSH SCT032CB 16/08 Q0988
                        NOSIG=
201209251020 METAR COR EGLL 251020Z 22014G25KT 9999 SCT030CB 15/08 Q0988
                        NOSIG=
201209250950 METAR COR EGLL 250950Z 22013KT 9999 VCSH SCT032CB 15/08 Q0988
                        NOSIG=
201209250920 METAR COR EGLL 250920Z 21013KT 9999 VCSH SCT026 SCT031CB
                        15/08 Q0988 NOSIG=
201209250850 METAR COR EGLL 250850Z 22012KT 9999 FEW030 14/08 Q0988 NOSIG=
201209250820 METAR COR EGLL 250820Z 22011KT CAVOK 13/08 Q0988 NOSIG=
201209250750 METAR COR EGLL 250750Z 21010KT 190V250 CAVOK 12/08 Q0988
                        NOSIG=
201209250720 METAR COR EGLL 250720Z 21010KT CAVOK 11/08 Q0988 NOSIG=
201209250650 METAR EGLL 250650Z 21009KT CAVOK 10/08 Q0988=
201209250620 METAR COR EGLL 250620Z 20008KT 190V260 CAVOK 10/07 Q0988
                        NOSIG=
201209250550 METAR EGLL 250550Z 21008KT CAVOK 10/07 Q0988=
201209250520 METAR COR EGLL 250520Z 21008KT 180V260 CAVOK 09/07 Q0988
                        NOSIG=
201209250450 METAR COR EGLL 250450Z 21008KT CAVOK 10/07 Q0988 NOSIG=
201209250420 METAR COR EGLL 250420Z 21008KT CAVOK 10/07 Q0988 NOSIG=
201209250350 METAR COR EGLL 250350Z 21008KT CAVOK 10/07 Q0988 NOSIG=
201209250320 METAR COR EGLL 250320Z 21007KT CAVOK 10/07 Q0988 NOSIG=
201209250250 METAR EGLL 250250Z NIL=
201209250220 METAR COR EGLL 250220Z 22009KT CAVOK 10/07 Q0989 NOSIG=
201209250150 METAR COR EGLL 250150Z 22009KT CAVOK 10/07 Q0989 NOSIG=
201209250120 METAR EGLL 250120Z AUTO 23011KT 9999 NCD 10/07 Q0989=
201209250050 METAR EGLL 250050Z AUTO 21008KT 9999 NCD 10/08 Q0989=
201209250020 METAR EGLL 250020Z AUTO 21008KT 9999 NCD 10/08 Q0989=
201209242350 METAR COR EGLL 242350Z 22010KT CAVOK 10/07 Q0989 NOSIG=
201209242320 METAR COR EGLL 242320Z 23013KT CAVOK 11/07 Q0989 NOSIG=
201209242250 METAR COR EGLL 242250Z 22010KT CAVOK 11/08 Q0989 NOSIG=
201209242220 METAR COR EGLL 242220Z 23012KT CAVOK 11/08 Q0989 NOSIG=
201209242150 METAR COR EGLL 242150Z 22010KT CAVOK 11/08 Q0989 NOSIG=
201209242120 METAR COR EGLL 242120Z 22011KT 190V250 CAVOK 11/08 Q0989
                        NOSIG=
201209242050 METAR COR EGLL 242050Z 23011KT CAVOK 12/09 Q0990 NOSIG=
201209242020 METAR COR EGLL 242020Z 22011KT 9999 FEW038 12/09 Q0990 NOSIG=
201209241950 METAR COR EGLL 241950Z 22012KT 9999 SCT038 13/09 Q0990 NOSIG=
201209241920 METAR COR EGLL 241920Z 22010G21KT 160V250 9999 SCT040 13/09
                        Q0990 NOSIG=
201209241850 METAR COR EGLL 241850Z 22010KT 190V250 9999 FEW041 13/08
                        Q0990 NOSIG=
201209241820 METAR COR EGLL 241820Z 24012KT 9999 FEW039 14/08 Q0990 NOSIG=
201209241750 METAR COR EGLL 241750Z 25012KT 9999 FEW037 SCT044 14/08 Q0990
                        NOSIG=
201209241720 METAR COR EGLL 241720Z 24014KT 9999 FEW039 SCT043 15/08 Q0990
                        NOSIG=
201209241650 METAR COR EGLL 241650Z 25017KT 9999 FEW040 15/08 Q0990 NOSIG=
201209241620 METAR COR EGLL 241620Z 25017KT 9999 FEW037 16/08 Q0990 NOSIG=
201209241550 METAR COR EGLL 241550Z 25018KT 9999 FEW042 SCT049 16/09 Q0990
                        NOSIG=
201209241520 METAR COR EGLL 241520Z 24019KT 9999 FEW034 SCT040 BKN049
                        15/09 Q0990 NOSIG=
201209241450 METAR COR EGLL 241450Z 25016G26KT 9999 FEW034 SCT044 14/10
                        Q0989 NOSIG=
201209241420 METAR COR EGLL 241420Z 25018KT 9999 SCT022 BKN028 13/10 Q0989
                        NOSIG=
201209241350 METAR COR EGLL 241350Z 25021KT 9999 FEW016 SCT020 BKN024
                        13/10 Q0989 NOSIG=
201209241320 METAR COR EGLL 241320Z 25018G28KT 9999 FEW018 BKN020 14/11
                        Q0989 NOSIG=
201209241250 METAR COR EGLL 241250Z 26019KT 9999 FEW015 SCT021 13/10 Q0988
                        NOSIG=
201209241220 METAR COR EGLL 241220Z 26019G30KT 9999 BKN013 12/10 Q0988
                        BECMG SCT014 BKN028=
201209241150 METAR COR EGLL 241150Z 26018KT 9999 -RA SCT012 BKN014 12/10
                        Q0988 BECMG SCT014 BKN025=
201209241120 METAR COR EGLL 241120Z 26019KT 9999 -RA SCT009 BKN012 12/11
                        Q0987 TEMPO 4500 RA BKN008=
201209241050 METAR COR EGLL 241050Z 25018KT 9999 -RA SCT009 BKN012 13/11
                        Q0986 TEMPO 4000 +RA BKN008=
201209241020 METAR COR EGLL 241020Z 25018KT 7000 -RA SCT006 BKN010 13/12
                        Q0986 RERA TEMPO 3500 +RA BKN007=
201209240950 METAR COR EGLL 240950Z 15009KT 120V190 3600 -RA BR SCT008
                        BKN010 15/15 Q0985 RERA TEMPO 23015KT
                        +RA BKN008=
201209240920 METAR COR EGLL 240920Z 11007KT 3800 -RA BR SCT005 BKN010
                        15/14 Q0985 BECMG 23015KT +RA BKN007=
201209240850 METAR COR EGLL 240850Z 10009KT 4500 BR SCT005 BKN010 15/14
                        Q0985 BECMG 23015KT +RA=
201209240820 METAR COR EGLL 240820Z 10009KT 3700 BR FEW004 SCT006 BKN016
                        14/14 Q0985 TEMPO 5000 RA BKN009=
201209240750 METAR COR EGLL 240750Z 09009KT 2500 BR SCT003 SCT004 BKN010
                        14/13 Q0986 TEMPO 5000 RA BKN004=
201209240720 METAR COR EGLL 240720Z 09009KT 2000 -RA BR FEW002 SCT003
                        BKN004 14/13 Q0986 BECMG 5000 RA
                        SCT004 BKN009=
201209240650 METAR COR EGLL 240650Z 09008KT 2400 BR FEW003 BKN004 BKN009
                        13/13 Q0986 BECMG 5000 RA SCT005
                        BKN010=
201209240620 METAR COR EGLL 240620Z 08008KT 2700 BR SCT003 SCT004 BKN010
                        13/13 Q0987 TEMPO 5000 RA BKN004=
201209240550 METAR COR EGLL 240550Z 09009KT 2200 BR FEW002 BKN003 13/12
                        Q0987 BECMG 5000 RA=
201209240520 METAR COR EGLL 240520Z 08009KT 1400 0800N BR FEW001 OVC002
                        13/12 Q0987 BECMG 3000=
201209240450 METAR COR EGLL 240450Z 09010KT 2700 BR FEW002 BKN003 12/12
                        Q0988 TEMPO 5000 RA=
201209240420 METAR COR EGLL 240420Z 09009KT 3000 -RA BKN003 12/12 Q0989
                        TEMPO 5000 RA=
201209240350 METAR COR EGLL 240350Z 08008KT 2300 BR BKN002 12/12 Q0989
                        TEMPO 5000 RA=
201209240320 METAR COR EGLL 240320Z 09007KT 2000 -RA BKN002 12/12 Q0990
                        TEMPO 5000 RA=
201209240250 METAR COR EGLL 240250Z 08007KT 1800 BR FEW002 OVC003 12/11
                        Q0991 TEMPO 3000=
201209240220 METAR COR EGLL 240220Z 09006KT 1800 BR FEW002 OVC003 12/11
                        Q0992 TEMPO 3000=
201209240150 METAR COR EGLL 240150Z 09007KT 1600 BR FEW001 OVC002 12/11
                        Q0993 TEMPO 3000 OVC003=
201209240120 METAR EGLL 240120Z AUTO 10007KT 2100 BR OVC002/// 12/11 Q0993=
201209240050 METAR EGLL 240050Z AUTO 08006KT 2600 BR OVC003/// 12/11 Q0993=
201209240020 METAR EGLL 240020Z AUTO 08006KT 3200 BR OVC004/// 12/11 Q0994=
201209232350 METAR COR EGLL 232350Z 09008KT 5000 BR OVC006 12/11 Q0995
                        TEMPO 3000 BR BKN004=
201209232320 METAR COR EGLL 232320Z 08006KT 7000 OVC008 12/11 Q0995 TEMPO
                        4000 BR BKN004=
201209232250 METAR COR EGLL 232250Z 09006KT 9000 BKN008 12/11 Q0996 TEMPO
                        4000 BR BKN004=
201209232220 METAR COR EGLL 232220Z 10006KT 9999 BKN006 12/11 Q0997 TEMPO
                        BKN004=
201209232150 METAR COR EGLL 232150Z 10007KT 9999 BKN007 12/11 Q0997 NOSIG=
201209232120 METAR COR EGLL 232120Z 09008KT 9999 BKN007 12/11 Q0997 NOSIG=
201209232050 METAR COR EGLL 232050Z 08012G22KT 050V110 9999 -RA SCT006
                        12/11 Q0996 RERA BECMG BKN006=
201209232020 METAR COR EGLL 232020Z 08011KT 8000 RA SCT008 SCT010 11/11
                        Q0998 BECMG BKN006=
201209231950 METAR COR EGLL 231950Z 10008KT 8000 RA FEW008 BKN010 11/10
                        Q1000 TEMPO NSW BKN008=
201209231920 METAR COR EGLL 231920Z 10010KT 6000 RA FEW009 BKN010 11/10
                        Q1000 TEMPO 4000=
201209231850 METAR COR EGLL 231850Z 09012KT 9000 RA BKN011 11/10 Q1000
                        TEMPO 4000=
201209231820 METAR COR EGLL 231820Z 09013KT 8000 RA SCT010 SCT015 11/10
                        Q1000 TEMPO 4000 BKN010=
201209231750 METAR COR EGLL 231750Z 09015KT 9000 RA FEW010 BKN012 11/10
                        Q1001 TEMPO -RA SCT012 BKN020=
201209231720 METAR COR EGLL 231720Z 09012KT 9000 RA BKN012 BKN024 10/09
                        Q1002 TEMPO -RA SCT012 BKN022=
201209231650 METAR COR EGLL 231650Z 09014KT 8000 -RA BKN012 BKN031 11/09
                        Q1002 TEMPO SCT012 BKN020=
201209231620 METAR COR EGLL 231620Z 09014KT 9999 -RA SCT012 BKN021 11/09
                        Q1003 TEMPO BKN012=
201209231550 METAR COR EGLL 231550Z 09013KT 9999 SCT012 BKN015 11/09 Q1004
                        TEMPO BKN012=
201209231520 METAR COR EGLL 231520Z 09013KT 9999 BKN012 11/09 Q1004 TEMPO
                        SCT012 BKN035=
201209231450 METAR COR EGLL 231450Z 09015KT 9999 -RA SCT012 BKN049 11/09
                        Q1004 TEMPO BKN014=
201209231420 METAR COR EGLL 231420Z 09014KT 9999 -RA FEW009 BKN012 11/10
                        Q1005 RERA TEMPO SCT012 BKN025=
201209231350 METAR COR EGLL 231350Z 10017KT 8000 RA FEW010 BKN013 11/10
                        Q1006 TEMPO -RA SCT014 BKN030=
201209231320 METAR COR EGLL 231320Z 10013KT 9999 RA SCT010 BKN029 11/10
                        Q1007 RERA TEMPO BKN014=
201209231250 METAR COR EGLL 231250Z 09016KT 5000 +RA FEW011 SCT019 11/09
                        Q1008 BECMG -RA=
201209231220 METAR COR EGLL 231220Z 10008KT 7000 RA FEW014 SCT021 11/09
                        Q1010 TEMPO 4500 +RA BKN014=
201209231150 METAR COR EGLL 231150Z 09012KT 9000 RA FEW032 SCT045 11/09
                        Q1009 TEMPO -RA=
201209231120 METAR COR EGLL 231120Z 09012KT 9999 -RA FEW035 SCT049 11/09
                        Q1010 TEMPO RA=
201209231050 METAR COR EGLL 231050Z 09011KT 9000 -RA FEW044 11/09 Q1011
                        RERA TEMPO RA=
201209231020 METAR COR EGLL 231020Z 09010KT 9999 -RA FEW043 11/09 Q1011
                        NOSIG=
201209230950 METAR COR EGLL 230950Z 09009KT 9999 -RA FEW037 SCT045 11/08
                        Q1012 NOSIG=
201209230920 METAR COR EGLL 230920Z 10009KT 9999 -RA FEW031 11/08 Q1012
                        NOSIG=
201209230850 METAR COR EGLL 230850Z 09009KT 9999 -RA NSC 12/07 Q1013 NOSIG=
201209230820 METAR COR EGLL 230820Z 07006KT CAVOK 12/07 Q1013 NOSIG=
201209230750 METAR COR EGLL 230750Z 09008KT CAVOK 11/07 Q1014 NOSIG=
201209230720 METAR COR EGLL 230720Z 08005KT CAVOK 11/06 Q1014 NOSIG=
201209230650 METAR COR EGLL 230650Z 07006KT CAVOK 11/06 Q1014 NOSIG=
201209230620 METAR COR EGLL 230620Z 08006KT CAVOK 10/06 Q1014 NOSIG=
201209230550 METAR COR EGLL 230550Z 07005KT CAVOK 10/06 Q1014 NOSIG=
201209230520 METAR COR EGLL 230520Z 06005KT CAVOK 10/06 Q1015 NOSIG=
201209230450 METAR COR EGLL 230450Z 06005KT CAVOK 09/06 Q1015 NOSIG=
201209230420 METAR COR EGLL 230420Z 06005KT CAVOK 09/06 Q1015 NOSIG=
201209230350 METAR COR EGLL 230350Z 06005KT CAVOK 09/06 Q1016 NOSIG=
201209230320 METAR COR EGLL 230320Z 06006KT CAVOK 09/06 Q1016 NOSIG=
201209230250 METAR COR EGLL 230250Z 04005KT CAVOK 08/06 Q1017 NOSIG=
201209230220 METAR COR EGLL 230220Z 04004KT CAVOK 08/05 Q1017 NOSIG=
201209230150 METAR COR EGLL 230150Z 04006KT CAVOK 09/05 Q1018 NOSIG=
201209230120 METAR EGLL 230120Z AUTO 03005KT 9999 NCD 09/05 Q1018=
201209230050 METAR EGLL 230050Z AUTO 04005KT 9999 NCD 09/05 Q1018=
201209230020 METAR EGLL 230020Z AUTO 04004KT 9999 NCD 09/05 Q1018=
201209222350 METAR COR EGLL 222350Z 05004KT CAVOK 09/04 Q1019 NOSIG=
201209222320 METAR COR EGLL 222320Z 09004KT CAVOK 09/04 Q1019 NOSIG=
201209222250 METAR COR EGLL 222250Z 10005KT CAVOK 10/04 Q1019 NOSIG=
201209222220 METAR COR EGLL 222220Z 08005KT CAVOK 10/04 Q1019 NOSIG=
201209222150 METAR COR EGLL 222150Z 09006KT CAVOK 10/05 Q1019 NOSIG=
201209222120 METAR COR EGLL 222120Z 09006KT CAVOK 10/04 Q1019 NOSIG=
201209222050 METAR COR EGLL 222050Z 09006KT CAVOK 10/04 Q1019 NOSIG=
201209222020 METAR COR EGLL 222020Z 10006KT CAVOK 10/04 Q1020 NOSIG=
201209221950 METAR COR EGLL 221950Z 09006KT CAVOK 10/03 Q1020 NOSIG=
201209221920 METAR COR EGLL 221920Z 10006KT CAVOK 11/04 Q1020 NOSIG=
201209221850 METAR COR EGLL 221850Z 12008KT CAVOK 12/04 Q1020 NOSIG=
201209221820 METAR COR EGLL 221820Z 11007KT CAVOK 12/04 Q1020 NOSIG=
201209221750 METAR COR EGLL 221750Z 08005KT CAVOK 13/03 Q1020 NOSIG=
201209221720 METAR COR EGLL 221720Z 10006KT CAVOK 13/03 Q1020 NOSIG=
201209221650 METAR COR EGLL 221650Z 08005KT 050V110 CAVOK 14/03 Q1020
                        NOSIG=
201209221620 METAR COR EGLL 221620Z 08005KT 050V110 CAVOK 15/03 Q1020
                        NOSIG=
201209221550 METAR COR EGLL 221550Z 07005KT 020V110 9999 FEW049 15/03
                        Q1020 NOSIG=
201209221520 METAR COR EGLL 221520Z 07005KT 010V130 9999 FEW049 16/03
                        Q1020 NOSIG=
201209221450 METAR COR EGLL 221450Z 07006KT 030V120 9999 FEW049 15/03
                        Q1020 NOSIG=
201209221420 METAR EGLL 221420Z 06007KT 030V090 9999 FEW047 15/03 Q1020=
201209221350 METAR COR EGLL 221350Z 05007KT 350V090 9999 FEW048 16/04
                        Q1020 NOSIG=
201209221320 METAR COR EGLL 221320Z 06005KT 330V110 9999 FEW043 15/04
                        Q1020 NOSIG=
201209221250 METAR COR EGLL 221250Z 07006KT 030V100 9999 FEW042 15/04
                        Q1020 NOSIG=
201209221220 METAR COR EGLL 221220Z 09006KT 030V140 9999 FEW037 15/04
                        Q1020 NOSIG=
201209221150 METAR COR EGLL 221150Z 05006KT 350V120 9999 FEW037 15/04
                        Q1020 NOSIG=
201209221120 METAR COR EGLL 221120Z 04006KT 340V150 9999 FEW035 14/05
                        Q1021 NOSIG=
201209221050 METAR COR EGLL 221050Z 02006KT 340V060 9999 SCT031 14/05
                        Q1021 NOSIG=
201209221020 METAR COR EGLL 221020Z 03006KT 300V080 9999 FEW031 13/05
                        Q1021 NOSIG=
201209220950 METAR COR EGLL 220950Z 03006KT 330V060 9999 FEW024 12/06
                        Q1021 NOSIG=
201209220920 METAR COR EGLL 220920Z 04006KT 360V070 CAVOK 12/06 Q1021
                        NOSIG=
201209220850 METAR COR EGLL 220850Z 03004KT 330V090 CAVOK 11/06 Q1021
                        NOSIG=
201209220820 METAR COR EGLL 220820Z 36004KT CAVOK 09/06 Q1021 NOSIG=
201209220750 METAR COR EGLL 220750Z VRB03KT CAVOK 09/05 Q1021 NOSIG=
201209220720 METAR COR EGLL 220720Z 36004KT 320V030 CAVOK 08/05 Q1020
                        NOSIG=
201209220650 METAR COR EGLL 220650Z VRB02KT CAVOK 07/05 Q1020 NOSIG=
201209220620 METAR COR EGLL 220620Z 36003KT CAVOK 06/05 Q1020 NOSIG=
201209220550 METAR COR EGLL 220550Z 36003KT CAVOK 06/04 Q1019 NOSIG=
201209220520 METAR COR EGLL 220520Z 00000KT CAVOK 06/04 Q1019 NOSIG=
201209220450 METAR COR EGLL 220450Z 35003KT CAVOK 06/05 Q1019 NOSIG=
201209220420 METAR COR EGLL 220420Z 35004KT CAVOK 07/05 Q1018 NOSIG=
201209220350 METAR COR EGLL 220350Z VRB03KT CAVOK 07/05 Q1018 NOSIG=
201209220320 METAR COR EGLL 220320Z VRB03KT CAVOK 08/06 Q1018 NOSIG=
201209220250 METAR COR EGLL 220250Z 36004KT 320V030 CAVOK 08/06 Q1018
                        NOSIG=
201209220220 METAR COR EGLL 220220Z 36005KT 320V040 CAVOK 08/06 Q1017
                        NOSIG=
201209220150 METAR COR EGLL 220150Z 36005KT 330V040 CAVOK 08/07 Q1017
                        NOSIG=
201209220120 METAR EGLL 220120Z AUTO 01006KT 340V040 9999 NCD 09/07 Q1017=
201209220050 METAR EGLL 220050Z AUTO 36007KT 330V050 9999 NCD 10/08 Q1017=
201209220020 METAR EGLL 220020Z AUTO 36005KT 320V030 9999 NCD 10/08 Q1017=
201209212350 METAR COR EGLL 212350Z 35005KT 310V020 9999 FEW016 10/08
                        Q1016 NOSIG=
201209212320 METAR COR EGLL 212320Z 01005KT 340V060 9999 SCT015 11/08
                        Q1016 TEMPO BKN014=
201209212250 METAR COR EGLL 212250Z 01005KT 330V050 9999 FEW011 SCT026
                        11/09 Q1016 TEMPO BKN010=
201209212220 METAR COR EGLL 212220Z 36005KT 330V040 8000 -RADZ FEW013
                        SCT016 BKN024 11/09 Q1016 NOSIG=
201209212150 METAR COR EGLL 212150Z 01006KT 340V050 9999 FEW026 BKN035
                        11/08 Q1016 NOSIG=
201209212120 METAR COR EGLL 212120Z 01006KT 9999 SCT024 SCT039 12/09 Q1015
                        NOSIG=
201209212050 METAR COR EGLL 212050Z 36006KT 9999 BKN013 12/10 Q1015 TEMPO
                        BKN015=
201209212020 METAR COR EGLL 212020Z 36006KT 320V030 9999 FEW010 BKN016
                        12/10 Q1015 NOSIG=
201209211950 METAR COR EGLL 211950Z 35006KT 300V030 9999 BKN009 12/11
                        Q1015 BECMG SCT010 BKN045=
201209211920 METAR COR EGLL 211920Z 36005KT 320V030 9000 -RA FEW007 SCT014
                        13/11 Q1014 TEMPO BKN010=
201209211850 METAR COR EGLL 211850Z 33005KT 310V020 7000 -DZ FEW014 BKN030
                        14/11 Q1014 TEMPO SHRA BKN012=
201209211820 METAR COR EGLL 211820Z 35004KT 9999 BKN040 14/11 Q1014 TEMPO
                        SHRA=
201209211750 METAR COR EGLL 211750Z 36004KT 330V030 9999 VCSH SCT027 BKN032
                        14/11 Q1013 TEMPO SHRA=
201209211720 METAR COR EGLL 211720Z 34005KT 9999 7000N -SHRA SCT023 BKN033
                        13/11 Q1013 TEMPO SHRA=
201209211650 METAR COR EGLL 211650Z 28007KT 9999 7000N VCSH SCT033 16/08
                        Q1013 TEMPO SHRA=
201209211620 METAR COR EGLL 211620Z 28006KT 9999 VCSH SCT034 16/08 Q1013
                        TEMPO SHRA=
201209211550 METAR COR EGLL 211550Z 29005KT 9999 FEW040 16/08 Q1013 TEMPO
                        6000 SHRA=
201209211520 METAR COR EGLL 211520Z 28006KT 9999 FEW032 17/07 Q1013 TEMPO
                        6000 SHRA=
201209211450 METAR COR EGLL 211450Z 27006KT 220V300 9999 FEW032 16/08
                        Q1013 TEMPO 6000 SHRA=
201209211420 METAR COR EGLL 211420Z 28007KT 9999 FEW031 16/08 Q1013 NOSIG=
201209211350 METAR COR EGLL 211350Z 28007KT CAVOK 16/08 Q1014 TEMPO 6000
                        SHRA=
201209211320 METAR COR EGLL 211320Z 29006KT CAVOK 16/08 Q1014 NOSIG=
201209211250 METAR COR EGLL 211250Z 28007KT CAVOK 16/07 Q1014 NOSIG=
201209211220 METAR COR EGLL 211220Z 26006KT 9999 FEW025 15/06 Q1014 NOSIG=
201209211150 METAR COR EGLL 211150Z 24007KT 9999 -RA FEW025 15/08 Q1014
                        NOSIG=
201209211120 METAR COR EGLL 211120Z 26006KT 220V290 9999 FEW025 15/06
                        Q1015 NOSIG=
201209211050 METAR COR EGLL 211050Z 27006KT 250V310 9999 FEW025 15/07
                        Q1015 NOSIG=
201209211020 METAR COR EGLL 211020Z 28007KT 9999 FEW022 15/08 Q1015 NOSIG=
201209210950 METAR COR EGLL 210950Z 28006KT CAVOK 14/09 Q1015 NOSIG=
201209210920 METAR COR EGLL 210920Z 27007KT CAVOK 14/09 Q1015 NOSIG=
201209210850 METAR COR EGLL 210850Z 26005KT CAVOK 14/09 Q1015 NOSIG=
201209210820 METAR COR EGLL 210820Z 27005KT 240V310 CAVOK 13/08 Q1015
                        NOSIG=
201209210750 METAR COR EGLL 210750Z 27004KT 230V300 CAVOK 12/08 Q1015
                        NOSIG=
201209210720 METAR COR EGLL 210720Z 25004KT 210V280 9999 FEW040 11/08
                        Q1016 NOSIG=
201209210650 METAR COR EGLL 210650Z 21004KT 190V260 9999 FEW040 11/08
                        Q1016 NOSIG=
201209210620 METAR COR EGLL 210620Z 22005KT 190V250 9999 FEW040 10/08
                        Q1016 NOSIG=
201209210550 METAR COR EGLL 210550Z 19003KT CAVOK 10/08 Q1016 NOSIG=
201209210520 METAR EGLL 210520Z 22005KT 180V250 CAVOK 10/08 Q1016=
201209210450 METAR COR EGLL 210450Z 22003KT CAVOK 10/08 Q1016 NOSIG=
201209210420 METAR COR EGLL 210420Z 20004KT CAVOK 10/08 Q1016 NOSIG=
201209210350 METAR COR EGLL 210350Z 21004KT CAVOK 11/08 Q1017 NOSIG=
201209210320 METAR COR EGLL 210320Z 19005KT CAVOK 11/08 Q1017 NOSIG=
201209210250 METAR COR EGLL 210250Z 20004KT CAVOK 11/08 Q1017 NOSIG=
201209210220 METAR COR EGLL 210220Z 20003KT CAVOK 11/08 Q1017 NOSIG=
201209210150 METAR COR EGLL 210150Z 19003KT CAVOK 11/08 Q1018 NOSIG=
201209210120 METAR EGLL 210120Z AUTO 25002KT 9999 NCD 11/08 Q1018=
201209210050 METAR EGLL 210050Z AUTO 23003KT 9999 NCD 11/08 Q1018=
201209210020 METAR EGLL 210020Z AUTO 21005KT 9999 NCD 11/08 Q1018=
201209202350 METAR COR EGLL 202350Z 21004KT CAVOK 11/08 Q1018 NOSIG=
201209202320 METAR COR EGLL 202320Z 22006KT CAVOK 11/08 Q1019 NOSIG=
201209202250 METAR COR EGLL 202250Z 22005KT CAVOK 12/08 Q1019 NOSIG=
201209202220 METAR COR EGLL 202220Z 22005KT CAVOK 12/08 Q1019 NOSIG=
201209202150 METAR COR EGLL 202150Z 21006KT CAVOK 13/08 Q1019 NOSIG=
201209202120 METAR COR EGLL 202120Z 22006KT CAVOK 13/08 Q1019 NOSIG=
201209202050 METAR COR EGLL 202050Z 22007KT CAVOK 14/08 Q1019 NOSIG=
201209202020 METAR COR EGLL 202020Z 22007KT CAVOK 14/08 Q1019 NOSIG=
201209201950 METAR COR EGLL 201950Z 21007KT 180V270 CAVOK 14/08 Q1019
                        NOSIG=
201209201920 METAR COR EGLL 201920Z 22006KT 190V270 CAVOK 14/08 Q1019
                        NOSIG=
201209201850 METAR COR EGLL 201850Z 22008KT CAVOK 14/08 Q1019 NOSIG=
201209201820 METAR COR EGLL 201820Z 22008KT CAVOK 15/08 Q1019 NOSIG=
201209201750 METAR COR EGLL 201750Z 22008KT 200V260 CAVOK 15/08 Q1019
                        NOSIG=
201209201720 METAR COR EGLL 201720Z 22008KT CAVOK 16/08 Q1019 NOSIG=
201209201650 METAR COR EGLL 201650Z 23009KT 9999 FEW024 16/08 Q1019 NOSIG=
201209201620 METAR COR EGLL 201620Z 22008KT 150V250 9999 FEW032 16/08
                        Q1019 NOSIG=
201209201550 METAR COR EGLL 201550Z 22008KT 190V260 9999 FEW043 16/08
                        Q1019 NOSIG=
201209201520 METAR COR EGLL 201520Z 23012KT 9999 FEW043 17/07 Q1019 NOSIG=
201209201450 METAR COR EGLL 201450Z 24010KT 9999 SCT047 17/07 Q1019 NOSIG=
201209201420 METAR COR EGLL 201420Z 24009KT 9999 SCT048 17/07 Q1020 NOSIG=
201209201350 METAR COR EGLL 201350Z 25010KT 9999 SCT047 17/06 Q1020 NOSIG=
201209201320 METAR COR EGLL 201320Z 26011KT 9999 SCT046 17/06 Q1020 NOSIG=
201209201250 METAR COR EGLL 201250Z 24011KT 9999 FEW041 BKN047 17/07 Q1020
                        NOSIG=
201209201220 METAR COR EGLL 201220Z 25013KT 9999 BKN040 17/06 Q1021 NOSIG=
201209201150 METAR COR EGLL 201150Z 26011KT 9999 SCT036 18/07 Q1021 NOSIG=
201209201120 METAR COR EGLL 201120Z 26011KT 210V300 9999 FEW038 17/07
                        Q1021 NOSIG=
201209201050 METAR COR EGLL 201050Z 27011KT 9999 FEW031 17/07 Q1021 NOSIG=
201209201020 METAR COR EGLL 201020Z 26011KT 9999 FEW031 16/07 Q1021 NOSIG=
201209200950 METAR COR EGLL 200950Z 26010KT 220V280 9999 FEW024 15/07
                        Q1021 NOSIG=
201209200920 METAR COR EGLL 200920Z 25010KT CAVOK 14/08 Q1021 NOSIG=
201209200850 METAR COR EGLL 200850Z 23010KT CAVOK 14/08 Q1021 NOSIG=
201209200820 METAR COR EGLL 200820Z 23010KT CAVOK 13/07 Q1021 NOSIG=
201209200750 METAR COR EGLL 200750Z 23008KT 180V260 CAVOK 12/08 Q1021
                        NOSIG=
201209200720 METAR COR EGLL 200720Z 23007KT CAVOK 11/07 Q1021 NOSIG=
201209200650 METAR COR EGLL 200650Z 23007KT 190V270 CAVOK 10/07 Q1021
                        NOSIG=
201209200620 METAR COR EGLL 200620Z 22006KT 190V260 CAVOK 10/07 Q1021
                        NOSIG=
201209200550 METAR COR EGLL 200550Z 21005KT 160V250 CAVOK 09/07 Q1021
                        NOSIG=
201209200520 METAR COR EGLL 200520Z 20006KT 170V270 CAVOK 09/07 Q1021
                        NOSIG=
201209200450 METAR COR EGLL 200450Z 19004KT CAVOK 09/07 Q1021 NOSIG=
201209200420 METAR COR EGLL 200420Z 19005KT CAVOK 09/07 Q1021 NOSIG=
201209200350 METAR COR EGLL 200350Z 21004KT CAVOK 09/06 Q1021 NOSIG=
201209200320 METAR COR EGLL 200320Z 21004KT CAVOK 09/07 Q1022 NOSIG=
201209200250 METAR COR EGLL 200250Z 20004KT CAVOK 09/06 Q1022 NOSIG=
201209200220 METAR COR EGLL 200220Z 18005KT CAVOK 09/06 Q1022 NOSIG=
201209200150 METAR COR EGLL 200150Z 20003KT CAVOK 09/06 Q1022 NOSIG=
201209200120 METAR EGLL 200120Z AUTO 21004KT 9999 NCD 09/06 Q1022=
201209200050 METAR EGLL 200050Z AUTO 17004KT 9999 NCD 09/06 Q1023=
201209200020 METAR EGLL 200020Z AUTO VRB03KT 9999 NCD 09/06 Q1023=
201209192350 METAR COR EGLL 192350Z 26006KT CAVOK 09/06 Q1023 NOSIG=
201209192320 METAR COR EGLL 192320Z 27005KT CAVOK 10/06 Q1023 NOSIG=
201209192250 METAR COR EGLL 192250Z 27005KT CAVOK 10/05 Q1023 NOSIG=
201209192220 METAR COR EGLL 192220Z 27007KT CAVOK 11/05 Q1023 NOSIG=
201209192150 METAR COR EGLL 192150Z 27007KT CAVOK 12/06 Q1023 NOSIG=
201209192120 METAR COR EGLL 192120Z 28005KT CAVOK 12/05 Q1023 NOSIG=
201209192050 METAR COR EGLL 192050Z 27006KT CAVOK 13/05 Q1023 NOSIG=
201209192020 METAR COR EGLL 192020Z 28005KT CAVOK 13/05 Q1023 NOSIG=
201209191950 METAR COR EGLL 191950Z 27006KT CAVOK 13/05 Q1023 NOSIG=
201209191920 METAR COR EGLL 191920Z 27006KT CAVOK 13/05 Q1023 NOSIG=
201209191850 METAR COR EGLL 191850Z 28007KT CAVOK 14/05 Q1023 NOSIG=
201209191820 METAR COR EGLL 191820Z 27008KT CAVOK 13/05 Q1023 NOSIG=
201209191750 METAR COR EGLL 191750Z 29009KT CAVOK 15/04 Q1023 NOSIG=
201209191720 METAR COR EGLL 191720Z 29011KT CAVOK 15/04 Q1022 NOSIG=
201209191650 METAR COR EGLL 191650Z 28010KT CAVOK 16/03 Q1022 NOSIG=
201209191620 METAR COR EGLL 191620Z 28012KT CAVOK 16/02 Q1022 NOSIG=
201209191550 METAR COR EGLL 191550Z 26012KT CAVOK 17/02 Q1022 NOSIG=
201209191520 METAR COR EGLL 191520Z 28014KT CAVOK 17/01 Q1022 NOSIG=
201209191450 METAR COR EGLL 191450Z 27011KT 240V300 CAVOK 17/02 Q1022
                        NOSIG=
201209191420 METAR COR EGLL 191420Z 28010KT 260V350 CAVOK 17/02 Q1022
                        NOSIG=
201209191350 METAR COR EGLL 191350Z 28011KT CAVOK 17/02 Q1022 NOSIG=
201209191320 METAR COR EGLL 191320Z 28010KT CAVOK 15/02 Q1022 NOSIG=
201209191250 METAR COR EGLL 191250Z 27012KT 9999 FEW049 15/03 Q1023 NOSIG=
201209191220 METAR COR EGLL 191220Z 28011KT 9999 FEW049 16/03 Q1023 NOSIG=
201209191150 METAR COR EGLL 191150Z 29011KT 260V350 9999 SCT047 16/03
                        Q1023 NOSIG=
201209191120 METAR COR EGLL 191120Z 29013KT 9999 SCT041 16/04 Q1023 NOSIG=
201209191050 METAR COR EGLL 191050Z 30011KT 9999 FEW040 15/04 Q1023 NOSIG=
201209191020 METAR COR EGLL 191020Z 28010KT 9999 FEW035 15/05 Q1023 NOSIG=
201209190950 METAR COR EGLL 190950Z 30009KT 260V330 9999 FEW031 14/05
                        Q1023 NOSIG=
201209190920 METAR COR EGLL 190920Z 29009KT CAVOK 13/06 Q1023 NOSIG=
201209190850 METAR COR EGLL 190850Z 29009KT 250V330 CAVOK 12/06 Q1022
                        NOSIG=
201209190820 METAR COR EGLL 190820Z 29012KT CAVOK 11/06 Q1022 NOSIG=
201209190750 METAR COR EGLL 190750Z 28010KT CAVOK 10/06 Q1022 NOSIG=
201209190720 METAR COR EGLL 190720Z 27009KT CAVOK 09/05 Q1022 NOSIG=
201209190650 METAR COR EGLL 190650Z 27009KT CAVOK 08/05 Q1022 NOSIG=
201209190620 METAR COR EGLL 190620Z 27009KT CAVOK 07/05 Q1021 NOSIG=
201209190550 METAR COR EGLL 190550Z 28009KT CAVOK 06/04 Q1021 NOSIG=
201209190520 METAR COR EGLL 190520Z 28008KT CAVOK 07/05 Q1021 NOSIG=
201209190450 METAR COR EGLL 190450Z 28009KT CAVOK 07/04 Q1021 NOSIG=
201209190420 METAR COR EGLL 190420Z 28007KT CAVOK 08/05 Q1021 NOSIG=
201209190350 METAR COR EGLL 190350Z 28007KT CAVOK 08/05 Q1021 NOSIG=
201209190320 METAR COR EGLL 190320Z 29008KT CAVOK 08/05 Q1020 NOSIG=
201209190250 METAR COR EGLL 190250Z 29008KT CAVOK 08/05 Q1020 NOSIG=
201209190220 METAR COR EGLL 190220Z 29008KT CAVOK 08/05 Q1020 NOSIG=
201209190150 METAR COR EGLL 190150Z 28008KT CAVOK 07/05 Q1020 NOSIG=
201209190120 METAR EGLL 190120Z AUTO 27009KT 9999 NCD 07/05 Q1020=
201209190050 METAR EGLL 190050Z AUTO 27006KT 9999 NCD 07/04 Q1020=
201209190020 METAR EGLL 190020Z AUTO 27007KT 9999 NCD 08/05 Q1020=
201209182350 METAR COR EGLL 182350Z 28006KT CAVOK 08/05 Q1020 NOSIG=
201209182320 METAR COR EGLL 182320Z 28008KT CAVOK 08/05 Q1020 NOSIG=
201209182250 METAR COR EGLL 182250Z 28005KT CAVOK 08/04 Q1019 NOSIG=
201209182220 METAR COR EGLL 182220Z 30005KT CAVOK 10/04 Q1019 NOSIG=
201209182150 METAR COR EGLL 182150Z 29005KT CAVOK 11/04 Q1019 NOSIG=
201209182120 METAR COR EGLL 182120Z 29006KT CAVOK 11/04 Q1019 NOSIG=
201209182050 METAR COR EGLL 182050Z 29006KT CAVOK 12/04 Q1019 NOSIG=
201209182020 METAR COR EGLL 182020Z 31007KT CAVOK 12/03 Q1018 NOSIG=
201209181950 METAR COR EGLL 181950Z 30008KT CAVOK 13/03 Q1018 NOSIG=
201209181920 METAR COR EGLL 181920Z 30007KT CAVOK 13/02 Q1017 NOSIG=
201209181850 METAR COR EGLL 181850Z 30008KT CAVOK 14/01 Q1017 NOSIG=
201209181820 METAR COR EGLL 181820Z 30010KT CAVOK 15/01 Q1016 NOSIG=
201209181750 METAR COR EGLL 181750Z 31006KT 260V330 CAVOK 15/01 Q1016
                        NOSIG=
201209181720 METAR COR EGLL 181720Z 30011KT CAVOK 16/02 Q1015 NOSIG=
201209181650 METAR COR EGLL 181650Z 30010KT CAVOK 16/02 Q1015 NOSIG=
201209181620 METAR COR EGLL 181620Z 30011KT CAVOK 17/01 Q1015 NOSIG=
201209181550 METAR COR EGLL 181550Z 30011KT CAVOK 17/03 Q1015 NOSIG=
201209181520 METAR COR EGLL 181520Z 29012KT 260V320 CAVOK 17/03 Q1014
                        NOSIG=
201209181450 METAR COR EGLL 181450Z 29012KT 9999 FEW044 16/03 Q1014 NOSIG=
201209181420 METAR COR EGLL 181420Z 29011KT 9999 FEW024 16/05 Q1014 NOSIG=
201209181350 METAR COR EGLL 181350Z 31009KT 280V340 9999 VCSH FEW028 SCT070TCU
                        14/06 Q1014 RESHRA TEMPO 31015G25KT
                        SHRA=
201209181320 METAR COR EGLL 181320Z 31010KT 280V350 9999 SCT050TCU 18/03
                        Q1014 TEMPO 31015G25KT=
201209181250 METAR COR EGLL 181250Z 31010KT 280V340 9999 FEW048 18/02
                        Q1013 NOSIG=
201209181220 METAR COR EGLL 181220Z 29012KT 260V330 9999 FEW044 16/03
                        Q1013 NOSIG=
201209181150 METAR COR EGLL 181150Z 30010KT 9999 FEW046 16/05 Q1013 NOSIG=
201209181120 METAR COR EGLL 181120Z 29013KT 9999 SCT040 16/05 Q1013 NOSIG=
201209181050 METAR COR EGLL 181050Z 29012KT 9999 FEW037 17/06 Q1013 NOSIG=
201209181020 METAR COR EGLL 181020Z 28013KT 9999 SCT030 16/06 Q1013 NOSIG=
201209180950 METAR COR EGLL 180950Z 27013KT 9999 SCT028 16/07 Q1013 NOSIG=
201209180920 METAR COR EGLL 180920Z 28013KT 9999 FEW027 15/07 Q1013 NOSIG=
201209180850 METAR COR EGLL 180850Z 28012KT 9999 FEW022 14/08 Q1013 NOSIG=
201209180820 METAR COR EGLL 180820Z 27014KT 9999 FEW019 14/09 Q1012 NOSIG=
201209180750 METAR COR EGLL 180750Z 27013KT CAVOK 13/09 Q1012 NOSIG=
201209180720 METAR COR EGLL 180720Z 26012KT CAVOK 12/09 Q1012 NOSIG=
201209180650 METAR COR EGLL 180650Z 27011KT CAVOK 12/09 Q1011 NOSIG=
201209180620 METAR COR EGLL 180620Z 26010KT CAVOK 12/09 Q1011 NOSIG=
201209180550 METAR COR EGLL 180550Z 26010KT CAVOK 12/09 Q1011 NOSIG=
201209180520 METAR COR EGLL 180520Z 26010KT CAVOK 12/09 Q1011 NOSIG=
201209180450 METAR COR EGLL 180450Z 26010KT CAVOK 13/09 Q1010 NOSIG=
201209180420 METAR COR EGLL 180420Z 26012KT CAVOK 13/09 Q1010 NOSIG=
201209180350 METAR COR EGLL 180350Z 26010KT 9999 FEW040 13/10 Q1010 NOSIG=
201209180320 METAR COR EGLL 180320Z 26010KT 9999 -SHRA FEW040 12/10 Q1010
                        NOSIG=
201209180250 METAR COR EGLL 180250Z 25010KT CAVOK 12/10 Q1010 NOSIG=
201209180220 METAR COR EGLL 180220Z 25009KT CAVOK 12/09 Q1010 NOSIG=
201209180150 METAR COR EGLL 180150Z 25010KT CAVOK 13/10 Q1011 NOSIG=
201209180120 METAR EGLL 180120Z AUTO 25009KT 9999 NCD 13/10 Q1011=
201209180050 METAR EGLL 180050Z AUTO 25008KT 9999 NCD 13/10 Q1011=
201209180020 METAR EGLL 180020Z AUTO 24009KT 9999 NCD 13/10 Q1011=
201209172350 METAR COR EGLL 172350Z 25009KT CAVOK 14/10 Q1011 NOSIG=
201209172320 METAR COR EGLL 172320Z 23010KT CAVOK 14/11 Q1011 NOSIG=
201209172250 METAR COR EGLL 172250Z 24009KT CAVOK 15/11 Q1011 NOSIG=
201209172220 METAR COR EGLL 172220Z 24010KT CAVOK 15/11 Q1011 NOSIG=
201209172150 METAR COR EGLL 172150Z 24010KT 9999 FEW032 15/12 Q1012 NOSIG=
201209172120 METAR COR EGLL 172120Z 25010KT 9999 FEW040 BKN047 15/12 Q1012
                        NOSIG=
201209172050 METAR COR EGLL 172050Z 22010KT 9999 FEW038 SCT040 BKN045
                        15/11 Q1012 NOSIG=
201209172020 METAR COR EGLL 172020Z 23011KT 9999 FEW028 SCT034 16/11 Q1012
                        NOSIG=
201209171950 METAR COR EGLL 171950Z 22009KT 9999 FEW034 SCT043 16/10 Q1012
                        NOSIG=
201209171920 METAR COR EGLL 171920Z 22010KT 9999 FEW040 16/10 Q1012 NOSIG=
201209171850 METAR COR EGLL 171850Z 21008KT 9999 FEW043 16/10 Q1012 NOSIG=
201209171820 METAR COR EGLL 171820Z 22008KT 190V250 9999 FEW043 17/09
                        Q1011 NOSIG=
201209171750 METAR COR EGLL 171750Z 25009KT 9999 FEW043 17/08 Q1011 NOSIG=
201209171720 METAR COR EGLL 171720Z 26010KT 9999 FEW043 SCT044 18/08 Q1011
                        NOSIG=
201209171650 METAR COR EGLL 171650Z 25011KT 9999 FEW047 18/08 Q1011 NOSIG=
201209171620 METAR COR EGLL 171620Z 24011KT 9999 FEW040 18/08 Q1011 NOSIG=
201209171550 METAR COR EGLL 171550Z 24012KT 9999 FEW045 18/08 Q1012 NOSIG=
201209171520 METAR EGLL 171520Z 25012KT 9999 FEW042 SCT047 18/07 Q1012=
201209171450 METAR COR EGLL 171450Z 25011KT 220V280 9999 FEW047 18/07
                        Q1012 NOSIG=
201209171420 METAR COR EGLL 171420Z 25011KT 9999 BKN048 18/07 Q1013 NOSIG=
201209171350 METAR COR EGLL 171350Z 25012KT 9999 FEW044 BKN046 17/07 Q1013
                        NOSIG=
201209171320 METAR COR EGLL 171320Z 25014G25KT 9999 BKN046 17/06 Q1013
                        NOSIG=
201209171250 METAR COR EGLL 171250Z 25013KT 9999 BKN044 17/06 Q1013 NOSIG=
201209171220 METAR COR EGLL 171220Z 25013KT 9999 SCT047 18/06 Q1013 NOSIG=
201209171150 METAR COR EGLL 171150Z 27012KT 9999 SCT045 18/05 Q1013 NOSIG=
201209171120 METAR COR EGLL 171120Z 27012KT 240V310 9999 SCT045 18/05
                        Q1013 NOSIG=
201209171050 METAR COR EGLL 171050Z 27014G24KT 240V320 9999 FEW043 18/06
                        Q1013 NOSIG=
201209171020 METAR COR EGLL 171020Z 27013KT 9999 FEW040 17/06 Q1014 NOSIG=
201209170950 METAR COR EGLL 170950Z 28015KT 9999 FEW040 17/06 Q1014 NOSIG=
201209170920 METAR COR EGLL 170920Z 27013KT 9999 FEW040 16/06 Q1014 NOSIG=
201209170850 METAR COR EGLL 170850Z 26012KT 9999 FEW010 16/07 Q1014 NOSIG=
201209170820 METAR COR EGLL 170820Z 27012KT 9999 FEW010 15/11 Q1014 NOSIG=
201209170750 METAR COR EGLL 170750Z 27013KT 9999 FEW012 14/11 Q1013 NOSIG=
201209170720 METAR COR EGLL 170720Z 27011KT 9999 FEW013 14/11 Q1013 NOSIG=
201209170650 METAR COR EGLL 170650Z 25011KT 9999 SCT016 SCT022 14/12 Q1013
                        NOSIG=
201209170620 METAR COR EGLL 170620Z 24009KT 9999 FEW040 13/12 Q1013 NOSIG=
201209170550 METAR COR EGLL 170550Z 25008KT 9999 FEW040 14/12 Q1012 NOSIG=
201209170520 METAR COR EGLL 170520Z 25006KT 9999 SCT040 14/12 Q1012 NOSIG=
201209170450 METAR COR EGLL 170450Z 22004KT 9999 FEW032 BKN037 13/12 Q1012
                        NOSIG=
201209170420 METAR COR EGLL 170420Z 21004KT 9999 SCT035 13/12 Q1012 NOSIG=
201209170350 METAR COR EGLL 170350Z 21004KT 9999 SCT036 13/12 Q1012 NOSIG=
201209170320 METAR COR EGLL 170320Z 23004KT 200V260 9999 BKN046 14/12
                        Q1012 NOSIG=
201209170250 METAR COR EGLL 170250Z 24005KT 9999 FEW016 13/12 Q1012 NOSIG=
201209170220 METAR COR EGLL 170220Z 27005KT 9999 SCT015 14/12 Q1012 TEMPO
                        BKN014=
201209170150 METAR COR EGLL 170150Z 24005KT 9999 FEW020 14/12 Q1012 NOSIG=
201209170120 METAR EGLL 170120Z AUTO 25006KT 9999 SCT014/// 15/12 Q1012=
201209170050 METAR EGLL 170050Z AUTO 25007KT 9999 BKN015/// 15/12 Q1012=
201209170020 METAR EGLL 170020Z AUTO 25006KT 9999 BKN016/// 15/12 Q1012=
201209162350 METAR COR EGLL 162350Z 25009KT 9999 BKN017 16/12 Q1012 NOSIG=
201209162320 METAR COR EGLL 162320Z 25010KT 9999 BKN019 16/12 Q1012 NOSIG=
201209162250 METAR COR EGLL 162250Z 22008KT 9999 BKN019 15/12 Q1012 NOSIG=
201209162220 METAR COR EGLL 162220Z 22008KT 9999 BKN020 15/11 Q1012 NOSIG=
201209162150 METAR COR EGLL 162150Z 22010KT 190V260 9999 BKN022 15/11
                        Q1012 NOSIG=
201209162120 METAR COR EGLL 162120Z 22008G19KT 190V250 9999 BKN022 15/11
                        Q1012 NOSIG=
201209162050 METAR COR EGLL 162050Z 22008G18KT 9999 BKN023 15/11 Q1012
                        NOSIG=
201209162020 METAR COR EGLL 162020Z 22009KT 9999 BKN023 16/11 Q1012 NOSIG=
201209161950 METAR COR EGLL 161950Z 23011KT 9999 BKN024 16/11 Q1012 NOSIG=
201209161920 METAR COR EGLL 161920Z 23010KT 200V260 9999 BKN024 16/11
                        Q1011 NOSIG=
201209161850 METAR COR EGLL 161850Z 25012KT 9999 BKN026 17/11 Q1011 NOSIG=
201209161820 METAR COR EGLL 161820Z 25012KT 9999 SCT028 17/10 Q1011 NOSIG=
201209161750 METAR COR EGLL 161750Z 25012KT 9999 FEW032 17/10 Q1011 NOSIG=
201209161720 METAR COR EGLL 161720Z 25012KT 9999 FEW032 18/10 Q1011 NOSIG=
201209161650 METAR COR EGLL 161650Z 25013KT CAVOK 18/10 Q1011 NOSIG=
201209161620 METAR COR EGLL 161620Z 26012KT 9999 FEW036 19/10 Q1011 NOSIG=
201209161550 METAR COR EGLL 161550Z 25013KT 9999 SCT032 18/10 Q1011 NOSIG=
201209161520 METAR COR EGLL 161520Z 24013KT 9999 BKN032 19/09 Q1012 NOSIG=
201209161450 METAR COR EGLL 161450Z 24014KT 9999 BKN034 18/10 Q1012 NOSIG=
201209161420 METAR COR EGLL 161420Z 24015KT 9999 BKN034 18/09 Q1012 NOSIG=
201209161350 METAR COR EGLL 161350Z 24013KT 9999 BKN032 18/09 Q1012 NOSIG=
201209161320 METAR COR EGLL 161320Z 25013KT 210V290 9999 BKN032 18/09
                        Q1012 NOSIG=
201209161250 METAR COR EGLL 161250Z 24012KT 9999 BKN032 17/09 Q1012 NOSIG=
201209161220 METAR COR EGLL 161220Z 23010KT 200V260 9999 BKN032 18/09
                        Q1013 NOSIG=
201209161150 METAR COR EGLL 161150Z 26012KT 9999 BKN032 17/09 Q1013 NOSIG=
201209161120 METAR COR EGLL 161120Z 25012KT 9999 BKN030 17/09 Q1013 NOSIG=
201209161050 METAR COR EGLL 161050Z 24013KT 9999 BKN025 17/10 Q1013 NOSIG=
201209161020 METAR COR EGLL 161020Z 25012KT 9999 SCT025 BKN030 16/10 Q1013
                        NOSIG=
201209160950 METAR COR EGLL 160950Z 23013KT 9999 FEW022 BKN028 16/10 Q1014
                        NOSIG=
201209160920 METAR COR EGLL 160920Z 25011KT 9999 BKN024 16/10 Q1014 NOSIG=
201209160850 METAR COR EGLL 160850Z 23012KT 9999 BKN026 BKN030 16/10 Q1014
                        NOSIG=
201209160820 METAR COR EGLL 160820Z 23012KT 9999 SCT024 BKN030 16/10 Q1014
                        NOSIG=
201209160750 METAR COR EGLL 160750Z 24009KT 9999 FEW016 BKN026 15/10 Q1014
                        NOSIG=
201209160720 METAR COR EGLL 160720Z 25011KT 9999 FEW016 BKN025 15/11 Q1014
                        NOSIG=
201209160650 METAR COR EGLL 160650Z 25008KT 9999 BKN030 15/11 Q1014 NOSIG=
201209160620 METAR COR EGLL 160620Z 25011KT 9999 BKN031 15/11 Q1014 NOSIG=
201209160550 METAR COR EGLL 160550Z 25008KT 210V270 9999 BKN035 14/12
                        Q1014 NOSIG=
201209160520 METAR COR EGLL 160520Z 23008KT 9999 FEW028 BKN035 14/12 Q1014
                        NOSIG=
201209160450 METAR EGLL 160450Z 22006KT 9999 FEW024 OVC036 14/12 Q1014=
201209160420 METAR COR EGLL 160420Z 22005KT 9999 FEW025 OVC035 14/12 Q1014
                        NOSIG=
201209160350 METAR COR EGLL 160350Z 21005KT 9999 SCT020 OVC033 14/12 Q1014
                        NOSIG=
201209160320 METAR COR EGLL 160320Z 21006KT 9999 FEW023 OVC035 14/12 Q1014
                        NOSIG=
201209160250 METAR COR EGLL 160250Z 21005KT 9999 OVC034 14/12 Q1014 NOSIG=
201209160220 METAR COR EGLL 160220Z 22005KT 9999 OVC034 14/12 Q1015 NOSIG=
201209160150 METAR COR EGLL 160150Z 21005KT 9999 OVC035 14/12 Q1015 NOSIG=
201209160120 METAR EGLL 160120Z AUTO 21004KT 9999 BKN030/// 14/12 Q1015=
201209160050 METAR EGLL 160050Z AUTO 23005KT 9999 BKN029/// 13/12 Q1015=
201209160020 METAR EGLL 160020Z AUTO 22005KT 9999 OVC029/// 13/12 Q1015=
201209152350 METAR COR EGLL 152350Z 22005KT 9999 SCT030 13/11 Q1016 NOSIG=
201209152320 METAR COR EGLL 152320Z 21005KT 9999 FEW030 13/11 Q1016 NOSIG=
201209152250 METAR COR EGLL 152250Z 20004KT 9999 FEW030 13/11 Q1016 NOSIG=
201209152220 METAR COR EGLL 152220Z 20004KT 9999 FEW029 14/11 Q1016 NOSIG=
201209152150 METAR COR EGLL 152150Z 27008KT 9999 SCT029 15/11 Q1016 NOSIG=
201209152120 METAR COR EGLL 152120Z 27008KT 9999 SCT028 15/11 Q1016 NOSIG=
201209152050 METAR COR EGLL 152050Z 27010KT 9999 BKN026 15/11 Q1016 NOSIG=
201209152020 METAR COR EGLL 152020Z 27009KT 9999 SCT027 16/11 Q1016 NOSIG=
201209151950 METAR COR EGLL 151950Z 28008KT 9999 FEW032 16/11 Q1016 NOSIG=
201209151920 METAR COR EGLL 151920Z 28007KT 250V320 9999 FEW033 17/11
                        Q1016 NOSIG=
201209151850 METAR COR EGLL 151850Z 28010KT 9999 FEW035 18/12 Q1016 NOSIG=
201209151820 METAR COR EGLL 151820Z 22010KT CAVOK 19/12 Q1015 NOSIG=
201209151750 METAR COR EGLL 151750Z 26011KT CAVOK 20/11 Q1015 NOSIG=
201209151720 METAR COR EGLL 151720Z 26012KT CAVOK 21/10 Q1015 NOSIG=
201209151650 METAR COR EGLL 151650Z 26011KT CAVOK 22/09 Q1015 NOSIG=
201209151620 METAR COR EGLL 151620Z 25010KT 210V280 CAVOK 22/10 Q1015
                        NOSIG=
201209151550 METAR COR EGLL 151550Z 25010KT 220V290 CAVOK 22/10 Q1016
                        NOSIG=
201209151520 METAR COR EGLL 151520Z 25010KT 220V280 CAVOK 22/10 Q1016
                        NOSIG=
201209151450 METAR COR EGLL 151450Z 24011KT 190V280 CAVOK 22/10 Q1016
                        NOSIG=
201209151420 METAR COR EGLL 151420Z 23010KT 190V280 CAVOK 22/10 Q1016
                        NOSIG=
201209151350 METAR COR EGLL 151350Z 28009KT CAVOK 21/09 Q1017 NOSIG=
201209151320 METAR EGLL 151320Z 26009KT 220V290 CAVOK 21/09 Q1017=
201209151250 METAR COR EGLL 151250Z 26008KT 220V290 CAVOK 21/09 Q1017
                        NOSIG=
201209151220 METAR COR EGLL 151220Z 28007KT 230V330 CAVOK 21/09 Q1017
                        NOSIG=
201209151150 METAR COR EGLL 151150Z 26009KT 210V300 CAVOK 19/09 Q1018
                        NOSIG=
201209151120 METAR COR EGLL 151120Z 27008KT 190V290 9999 FEW040 19/09
                        Q1018 NOSIG=
201209151050 METAR COR EGLL 151050Z 26008KT 200V300 9999 FEW036 18/09
                        Q1018 NOSIG=
201209151020 METAR COR EGLL 151020Z 26007KT 230V300 9999 FEW032 17/09
                        Q1018 NOSIG=
201209150950 METAR COR EGLL 150950Z 26008KT 220V290 CAVOK 17/09 Q1019
                        NOSIG=
201209150920 METAR COR EGLL 150920Z 28005KT 240V310 CAVOK 16/10 Q1019
                        NOSIG=
201209150850 METAR COR EGLL 150850Z 27005KT 230V310 CAVOK 15/09 Q1019
                        NOSIG=
201209150820 METAR COR EGLL 150820Z 25005KT 210V290 CAVOK 13/09 Q1019
                        NOSIG=
201209150750 METAR COR EGLL 150750Z 28005KT CAVOK 12/09 Q1019 NOSIG=
201209150720 METAR COR EGLL 150720Z 28005KT CAVOK 12/09 Q1019 NOSIG=
201209150650 METAR COR EGLL 150650Z 27005KT CAVOK 10/08 Q1019 NOSIG=
201209150620 METAR COR EGLL 150620Z 29004KT CAVOK 10/08 Q1018 NOSIG=
201209150550 METAR COR EGLL 150550Z 29004KT CAVOK 09/07 Q1018 NOSIG=
201209150520 METAR COR EGLL 150520Z 28006KT CAVOK 09/07 Q1018 NOSIG=
201209150450 METAR COR EGLL 150450Z 28005KT CAVOK 10/07 Q1018 NOSIG=
201209150420 METAR COR EGLL 150420Z 27005KT CAVOK 09/07 Q1018 NOSIG=
201209150350 METAR COR EGLL 150350Z 27006KT CAVOK 09/07 Q1018 NOSIG=
201209150320 METAR COR EGLL 150320Z 28007KT CAVOK 10/07 Q1018 NOSIG=
201209150250 METAR EGLL 150250Z AUTO 28007KT 9999 NCD 10/08 Q1018=
201209150220 METAR COR EGLL 150220Z 27007KT CAVOK 10/08 Q1018 NOSIG=
201209150150 METAR COR EGLL 150150Z 27006KT CAVOK 10/07 Q1018 NOSIG=
201209150120 METAR EGLL 150120Z AUTO 27006KT 9999 NCD 11/08 Q1018=
201209150050 METAR EGLL 150050Z AUTO 28007KT 9999 NCD 11/08 Q1018=
201209150020 METAR EGLL 150020Z AUTO 28006KT 9999 NCD 11/08 Q1018=
201209142350 METAR COR EGLL 142350Z 28006KT CAVOK 11/08 Q1018 NOSIG=
201209142320 METAR COR EGLL 142320Z VRB02KT 9999 FEW040 12/08 Q1017 NOSIG=
201209142250 METAR COR EGLL 142250Z 28004KT 9999 FEW040 11/08 Q1017 NOSIG=
201209142220 METAR COR EGLL 142220Z 30004KT 280V360 CAVOK 12/08 Q1017
                        NOSIG=
201209142150 METAR COR EGLL 142150Z 29004KT 260V330 9999 FEW048 13/08
                        Q1017 NOSIG=
201209142120 METAR COR EGLL 142120Z 29006KT 9999 FEW048 14/08 Q1017 NOSIG=
201209142050 METAR COR EGLL 142050Z 30006KT CAVOK 15/08 Q1016 NOSIG=
201209142020 METAR COR EGLL 142020Z 30007KT CAVOK 15/08 Q1016 NOSIG=
201209141950 METAR COR EGLL 141950Z 30007KT CAVOK 15/08 Q1016 NOSIG=
201209141920 METAR COR EGLL 141920Z 29007KT CAVOK 16/08 Q1015 NOSIG=
201209141850 METAR COR EGLL 141850Z 30008KT CAVOK 16/08 Q1015 NOSIG=
201209141820 METAR COR EGLL 141820Z 30007KT 280V340 CAVOK 17/08 Q1015
                        NOSIG=
201209141750 METAR COR EGLL 141750Z 30009KT 9999 FEW044 17/08 Q1014 NOSIG=
201209141720 METAR COR EGLL 141720Z 30010KT 270V330 9999 SCT044 18/08
                        Q1014 NOSIG=
201209141650 METAR COR EGLL 141650Z 30013KT 9999 SCT044 19/07 Q1014 NOSIG=
201209141620 METAR COR EGLL 141620Z 31011KT 9999 SCT047 19/07 Q1013 NOSIG=
201209141550 METAR COR EGLL 141550Z 29014KT 9999 FEW048 19/07 Q1013 NOSIG=
201209141520 METAR COR EGLL 141520Z 29014KT CAVOK 20/06 Q1013 NOSIG=
201209141450 METAR COR EGLL 141450Z 30013KT 9999 SCT049 20/07 Q1013 NOSIG=
201209141420 METAR COR EGLL 141420Z 30012KT 9999 SCT047 19/07 Q1013 NOSIG=
201209141350 METAR COR EGLL 141350Z 31011KT 280V350 9999 FEW047 20/07
                        Q1013 NOSIG=
201209141320 METAR COR EGLL 141320Z 31013KT 270V340 9999 SCT047 21/07
                        Q1013 NOSIG=
201209141250 METAR COR EGLL 141250Z 31013KT 9999 SCT042 21/08 Q1013 NOSIG=
201209141220 METAR COR EGLL 141220Z 30012KT 280V350 9999 SCT036 SCT042
                        20/09 Q1012 NOSIG=
201209141150 METAR COR EGLL 141150Z 31012KT 270V340 9999 SCT036 21/10
                        Q1012 NOSIG=
201209141120 METAR COR EGLL 141120Z 29015G25KT 9999 FEW024 SCT034 22/11
                        Q1012 NOSIG=
201209141050 METAR EGLL 141050Z 27015KT 9999 SCT018 SCT024 19/13 Q1012=
201209141020 METAR COR EGLL 141020Z 27012KT 9999 FEW015 SCT020 BKN026
                        19/13 Q1012 NOSIG=
201209140950 METAR COR EGLL 140950Z 25014KT 9999 VCSH SCT014 BKN020 18/13
                        Q1012 TEMPO BKN014=
201209140920 METAR COR EGLL 140920Z 25014KT 9999 BKN012 BKN020 17/13 Q1012
                        BECMG SCT014 BKN028=
201209140850 METAR COR EGLL 140850Z 24013KT 9999 SCT013 SCT022 BKN047
                        16/13 Q1012 NOSIG=
201209140820 METAR COR EGLL 140820Z 25013KT 9999 SCT014 BKN046 16/13 Q1012
                        TEMPO BKN014=
201209140750 METAR COR EGLL 140750Z 25013KT 9999 BKN015 16/12 Q1012 TEMPO
                        BKN014=
201209140720 METAR COR EGLL 140720Z 25016KT 9999 BKN016 16/12 Q1012 TEMPO
                        BKN014=
201209140650 METAR COR EGLL 140650Z 25015KT 9999 BKN017 16/12 Q1012 TEMPO
                        BKN014=
201209140620 METAR COR EGLL 140620Z 26015KT 9999 BKN018 16/11 Q1012 TEMPO
                        BKN014=
201209140550 METAR COR EGLL 140550Z 25015KT 9999 SCT018 16/11 Q1012 TEMPO
                        BKN014=
201209140520 METAR COR EGLL 140520Z 25014KT 9999 BKN019 15/11 Q1012 TEMPO
                        BKN014=
201209140450 METAR COR EGLL 140450Z 24014KT 9999 BKN020 15/11 Q1012 NOSIG=
201209140420 METAR COR EGLL 140420Z 25015KT 9999 BKN022 15/11 Q1012 NOSIG=
201209140350 METAR COR EGLL 140350Z 25015KT 9999 BKN022 16/11 Q1012 NOSIG=
201209140320 METAR COR EGLL 140320Z 26017KT 9999 BKN021 15/11 Q1013 NOSIG=
201209140250 METAR EGLL 140250Z AUTO 25018KT 9999 BKN022/// 15/11 Q1013=
201209140220 METAR COR EGLL 140220Z 24013KT 9999 BKN022 15/11 Q1013 NOSIG=
201209140150 METAR COR EGLL 140150Z 24013KT 9999 BKN022 15/10 Q1014 NOSIG=
201209140120 METAR EGLL 140120Z AUTO 24014KT 9999 BKN023/// 15/10 Q1014=
201209140050 METAR EGLL 140050Z AUTO 25015KT 9999 BKN025/// 15/10 Q1015=
201209140020 METAR EGLL 140020Z AUTO 25014KT 9999 OVC024/// 15/10 Q1015=
201209132350 METAR COR EGLL 132350Z 24015KT 9999 BKN022 15/10 Q1015 NOSIG=
201209132320 METAR COR EGLL 132320Z 23012KT 9999 BKN022 14/10 Q1016 NOSIG=
201209132250 METAR COR EGLL 132250Z 22012KT 9999 SCT025 14/10 Q1016 NOSIG=
201209132220 METAR COR EGLL 132220Z 23011KT 9999 FEW025 14/10 Q1016 NOSIG=
201209132150 METAR COR EGLL 132150Z 24011KT 9999 SCT028 14/10 Q1017 NOSIG=
201209132120 METAR COR EGLL 132120Z 25014KT 9999 BKN028 15/10 Q1017 NOSIG=
201209132050 METAR COR EGLL 132050Z 22009G19KT 190V260 9999 BKN028 14/09
                        Q1017 NOSIG=
201209132020 METAR COR EGLL 132020Z 25012KT 9999 BKN030 14/09 Q1017 NOSIG=
201209131950 METAR COR EGLL 131950Z 25011KT CAVOK 15/09 Q1018 NOSIG=
201209131920 METAR COR EGLL 131920Z 25012KT CAVOK 16/09 Q1018 NOSIG=
201209131850 METAR COR EGLL 131850Z 24010KT CAVOK 16/08 Q1018 NOSIG=
201209131820 METAR COR EGLL 131820Z 25011KT CAVOK 17/08 Q1018 NOSIG=
201209131750 METAR COR EGLL 131750Z 25011KT CAVOK 17/08 Q1018 NOSIG=
201209131720 METAR COR EGLL 131720Z 26013KT CAVOK 17/07 Q1018 NOSIG=
201209131650 METAR COR EGLL 131650Z 26012KT CAVOK 18/07 Q1018 NOSIG=
201209131620 METAR COR EGLL 131620Z 26012KT CAVOK 18/06 Q1018 NOSIG=
201209131550 METAR COR EGLL 131550Z 26011KT 230V290 CAVOK 18/06 Q1019
                        NOSIG=
201209131520 METAR COR EGLL 131520Z 24010KT CAVOK 19/06 Q1019 NOSIG=
201209131450 METAR COR EGLL 131450Z 26013KT CAVOK 18/05 Q1019 NOSIG=
201209131420 METAR COR EGLL 131420Z 25011KT 220V310 9999 FEW048 18/06
                        Q1020 NOSIG=
201209131350 METAR COR EGLL 131350Z 27009KT 210V300 9999 FEW041 17/06
                        Q1019 NOSIG=
201209131320 METAR COR EGLL 131320Z 25010KT 9999 FEW041 18/06 Q1020 NOSIG=
201209131250 METAR COR EGLL 131250Z 28010KT 240V320 9999 SCT041 17/06
                        Q1020 NOSIG=
201209131220 METAR COR EGLL 131220Z 27010KT 9999 SCT043 17/06 Q1021 NOSIG=
201209131150 METAR COR EGLL 131150Z 28007KT 260V320 9999 FEW044 15/05
                        Q1020 NOSIG=
201209131120 METAR COR EGLL 131120Z 27009KT 230V300 9999 FEW040 16/05
                        Q1020 NOSIG=
201209131050 METAR COR EGLL 131050Z 27009KT 220V320 CAVOK 15/06 Q1021
                        NOSIG=
201209131020 METAR COR EGLL 131020Z 27008KT CAVOK 14/07 Q1021 NOSIG=
201209130950 METAR COR EGLL 130950Z 28007KT 230V330 CAVOK 14/07 Q1021
                        NOSIG=
201209130920 METAR COR EGLL 130920Z 27005KT 210V340 CAVOK 14/08 Q1021
                        NOSIG=
201209130850 METAR COR EGLL 130850Z 28005KT 230V310 CAVOK 13/04 Q1021
                        NOSIG=
201209130820 METAR COR EGLL 130820Z 28005KT CAVOK 12/05 Q1021 NOSIG=
201209130750 METAR COR EGLL 130750Z 30005KT 270V340 CAVOK 11/04 Q1021
                        NOSIG=
201209130720 METAR COR EGLL 130720Z 31005KT CAVOK 10/04 Q1020 NOSIG=
201209130650 METAR COR EGLL 130650Z 30005KT CAVOK 09/04 Q1020 NOSIG=
201209130620 METAR COR EGLL 130620Z VRB03KT CAVOK 08/04 Q1020 NOSIG=
201209130550 METAR COR EGLL 130550Z 30004KT CAVOK 08/04 Q1020 NOSIG=
201209130520 METAR COR EGLL 130520Z 30004KT CAVOK 08/04 Q1020 NOSIG=
201209130450 METAR COR EGLL 130450Z 31006KT CAVOK 08/04 Q1019 NOSIG=
201209130420 METAR COR EGLL 130420Z 30005KT CAVOK 08/04 Q1019 NOSIG=
201209130350 METAR COR EGLL 130350Z 31004KT CAVOK 08/04 Q1019 NOSIG=
201209130320 METAR COR EGLL 130320Z 29004KT CAVOK 08/05 Q1019 NOSIG=
201209130250 METAR COR EGLL 130250Z 31005KT CAVOK 09/05 Q1018 NOSIG=
201209130220 METAR COR EGLL 130220Z 32004KT 290V360 CAVOK 09/05 Q1018
                        NOSIG=
201209130150 METAR EGLL 130150Z 35004KT 320V020 CAVOK 09/05 Q1017=
201209130120 METAR EGLL 130120Z AUTO 35004KT 310V020 9999 NCD 09/05 Q1017=
201209130050 METAR EGLL 130050Z AUTO 34004KT 9999 NCD 10/05 Q1017=
201209130020 METAR EGLL 130020Z AUTO 34006KT 300V010 9999 NCD 10/06 Q1017=
201209122350 METAR COR EGLL 122350Z 32006KT CAVOK 10/06 Q1016 NOSIG=
201209122320 METAR COR EGLL 122320Z 33006KT 300V360 CAVOK 11/06 Q1016
                        NOSIG=
201209122250 METAR COR EGLL 122250Z 32006KT 9999 FEW039 11/06 Q1016 NOSIG=
201209122220 METAR COR EGLL 122220Z 32006KT 290V360 9999 FEW036 12/07
                        Q1015 NOSIG=
201209122150 METAR COR EGLL 122150Z 32008KT 290V360 CAVOK 12/07 Q1015
                        NOSIG=
201209122120 METAR COR EGLL 122120Z 32008KT 270V360 CAVOK 13/07 Q1015
                        NOSIG=
201209122050 METAR EGLL 122050Z 32010KT 9999 BKN048 13/08 Q1014=
201209122020 METAR COR EGLL 122020Z 33009KT 300V010 9999 BKN043 14/10
                        Q1014 NOSIG=
201209121950 METAR COR EGLL 121950Z 32009KT 290V360 9999 FEW020 BKN041
                        14/10 Q1013 RERA NOSIG=
201209121920 METAR COR EGLL 121920Z 26014KT 9999 -SHRA BKN030 17/11 Q1012
                        TEMPO 30016G26KT 3500 +SHRA=
201209121850 METAR COR EGLL 121850Z 24013KT 9999 SCT046 16/11 Q1012 TEMPO
                        31015G25KT 3500 SHRA=
201209121820 METAR COR EGLL 121820Z 23011KT 9999 FEW038 16/11 Q1012 TEMPO
                        SHRA=
201209121750 METAR COR EGLL 121750Z 24014G25KT 9999 FEW044 17/10 Q1012
                        NOSIG=
201209121720 METAR COR EGLL 121720Z 24012KT 9999 SCT044 16/11 Q1012 NOSIG=
201209121650 METAR COR EGLL 121650Z 24011KT 9999 FEW042 16/10 Q1012 NOSIG=
201209121620 METAR COR EGLL 121620Z 25015KT 9999 VCSH FEW040 SCT047 17/10
                        Q1012 NOSIG=
201209121550 METAR COR EGLL 121550Z 24014KT 9999 SCT039 17/09 Q1013 NOSIG=
201209121520 METAR COR EGLL 121520Z 25014KT 9999 FEW045 18/09 Q1013 NOSIG=
201209121450 METAR COR EGLL 121450Z 26014KT 9999 FEW036 18/09 Q1013 NOSIG=
201209121420 METAR COR EGLL 121420Z 26014KT 9999 FEW038 18/08 Q1013 NOSIG=
201209121350 METAR COR EGLL 121350Z 25013KT 220V280 9999 FEW040 SCT046
                        18/08 Q1013 NOSIG=
201209121320 METAR COR EGLL 121320Z 25012KT 220V280 9999 FEW038 SCT046
                        18/08 Q1014 NOSIG=
201209121250 METAR COR EGLL 121250Z 24014KT 9999 FEW035 SCT043 18/08 Q1014
                        NOSIG=
201209121220 METAR COR EGLL 121220Z 24013KT 9999 SCT032 SCT042 17/08 Q1014
                        NOSIG=
201209121150 METAR COR EGLL 121150Z 26012KT 9999 SCT030 SCT033 17/08 Q1014
                        NOSIG=
201209121120 METAR COR EGLL 121120Z 25014KT 9999 SCT025 SCT031 17/09 Q1015
                        NOSIG=
201209121050 METAR COR EGLL 121050Z 25010KT 210V270 9999 SCT027 BKN038
                        16/09 Q1015 NOSIG=
201209121020 METAR COR EGLL 121020Z 25011KT 220V290 9999 FEW024 BKN040
                        15/09 Q1015 NOSIG=
201209120950 METAR COR EGLL 120950Z 24009KT 200V270 9999 VCSH FEW025 BKN041
                        14/08 Q1016 TEMPO 7000=
201209120920 METAR COR EGLL 120920Z 26010KT CAVOK 14/08 Q1016 NOSIG=
201209120850 METAR COR EGLL 120850Z 25009KT CAVOK 14/08 Q1016 NOSIG=
201209120820 METAR COR EGLL 120820Z 26009KT CAVOK 14/08 Q1016 NOSIG=
201209120750 METAR COR EGLL 120750Z 21005KT 180V260 CAVOK 12/08 Q1015
                        NOSIG=
201209120720 METAR COR EGLL 120720Z 21005KT 160V250 CAVOK 11/08 Q1016
                        NOSIG=
201209120650 METAR COR EGLL 120650Z 20004KT 180V250 CAVOK 10/07 Q1016
                        NOSIG=
201209120620 METAR COR EGLL 120620Z 21004KT 190V250 CAVOK 08/06 Q1016
                        NOSIG=
201209120550 METAR COR EGLL 120550Z 26005KT 210V280 CAVOK 08/06 Q1016
                        NOSIG=
201209120520 METAR COR EGLL 120520Z 27005KT CAVOK 07/05 Q1016 NOSIG=
201209120450 METAR COR EGLL 120450Z 28006KT CAVOK 07/05 Q1016 NOSIG=
201209120420 METAR COR EGLL 120420Z 27006KT CAVOK 07/06 Q1016 NOSIG=
201209120350 METAR COR EGLL 120350Z 28006KT CAVOK 07/06 Q1016 NOSIG=
201209120320 METAR COR EGLL 120320Z 27006KT CAVOK 07/06 Q1016 NOSIG=
201209120250 METAR COR EGLL 120250Z 27007KT CAVOK 07/05 Q1016 NOSIG=
201209120220 METAR COR EGLL 120220Z 28007KT CAVOK 07/05 Q1016 NOSIG=
201209120150 METAR COR EGLL 120150Z 27008KT CAVOK 08/05 Q1016 NOSIG=
201209120120 METAR EGLL 120120Z AUTO 28006KT 9999 NCD 08/05 Q1016=
201209120050 METAR EGLL 120050Z AUTO 27004KT 9999 NCD 08/05 Q1016=
201209120020 METAR EGLL 120020Z AUTO 25006KT 9999 NCD 08/05 Q1016=
201209112350 METAR COR EGLL 112350Z 27006KT CAVOK 09/05 Q1016 NOSIG=
201209112320 METAR COR EGLL 112320Z 27008KT CAVOK 09/05 Q1017 NOSIG=
201209112250 METAR COR EGLL 112250Z 28008KT CAVOK 10/05 Q1017 NOSIG=
201209112220 METAR COR EGLL 112220Z 27008KT CAVOK 10/05 Q1017 NOSIG=
201209112150 METAR COR EGLL 112150Z 28009KT CAVOK 11/05 Q1017 NOSIG=
201209112120 METAR COR EGLL 112120Z 28009KT CAVOK 11/05 Q1016 NOSIG=
201209112050 METAR COR EGLL 112050Z 28007KT CAVOK 11/05 Q1016 NOSIG=
201209112020 METAR COR EGLL 112020Z 28008KT CAVOK 11/05 Q1016 NOSIG=
201209111950 METAR COR EGLL 111950Z 29008KT CAVOK 13/04 Q1016 NOSIG=
201209111920 METAR COR EGLL 111920Z 29008KT CAVOK 13/04 Q1016 NOSIG=
201209111850 METAR COR EGLL 111850Z 29007KT CAVOK 13/05 Q1015 NOSIG=
201209111820 METAR COR EGLL 111820Z 30006KT CAVOK 14/04 Q1015 NOSIG=
201209111750 METAR COR EGLL 111750Z 30008KT CAVOK 15/03 Q1015 NOSIG=
201209111720 METAR COR EGLL 111720Z 30009KT CAVOK 16/03 Q1015 NOSIG=
201209111650 METAR COR EGLL 111650Z 29010KT CAVOK 16/02 Q1014 NOSIG=
201209111620 METAR COR EGLL 111620Z 28013KT CAVOK 17/01 Q1014 NOSIG=
201209111550 METAR COR EGLL 111550Z 28014KT CAVOK 17/03 Q1014 NOSIG=
201209111520 METAR COR EGLL 111520Z 27014KT CAVOK 16/04 Q1014 NOSIG=
201209111450 METAR COR EGLL 111450Z 29009KT CAVOK 17/04 Q1014 NOSIG=
201209111420 METAR COR EGLL 111420Z 29008KT CAVOK 18/02 Q1014 NOSIG=
201209111350 METAR COR EGLL 111350Z 29011G28KT 250V310 CAVOK 17/03 Q1014
                        NOSIG=
201209111320 METAR COR EGLL 111320Z 28015KT CAVOK 17/04 Q1014 NOSIG=
201209111250 METAR COR EGLL 111250Z 27016KT 9999 FEW048 19/03 Q1014 NOSIG=
201209111220 METAR COR EGLL 111220Z 28011KT 9999 SCT048 19/03 Q1014 NOSIG=
201209111150 METAR COR EGLL 111150Z 29012KT 9999 SCT039 17/05 Q1014 NOSIG=
201209111120 METAR COR EGLL 111120Z 29012KT 9999 SCT039 17/05 Q1013 NOSIG=
201209111050 METAR COR EGLL 111050Z 28016KT 9999 FEW041 17/05 Q1013 NOSIG=
201209111020 METAR COR EGLL 111020Z 28016KT 9999 FEW048 17/05 Q1013 NOSIG=
201209110950 METAR COR EGLL 110950Z 28016KT 9999 FEW037 16/06 Q1012 NOSIG=
201209110920 METAR COR EGLL 110920Z 30011KT 260V330 9999 FEW036 17/06
                        Q1012 NOSIG=
201209110850 METAR COR EGLL 110850Z 29012KT 9999 SCT032 16/07 Q1012 NOSIG=
201209110820 METAR COR EGLL 110820Z 28014KT 9999 SCT027 16/08 Q1011 NOSIG=
201209110750 METAR COR EGLL 110750Z 28013KT 9999 SCT024 15/09 Q1011 NOSIG=
201209110720 METAR COR EGLL 110720Z 27012KT 9999 FEW049 15/10 Q1011 NOSIG=
201209110650 METAR COR EGLL 110650Z 27011KT 9999 FEW049 15/10 Q1011 NOSIG=
201209110620 METAR COR EGLL 110620Z 26012KT 9999 FEW048 15/10 Q1010 NOSIG=
201209110550 METAR COR EGLL 110550Z 26014KT 9999 SCT047 15/10 Q1010 NOSIG=
201209110520 METAR COR EGLL 110520Z 25011KT 9999 SCT047 15/11 Q1009 NOSIG=
201209110450 METAR COR EGLL 110450Z 25013KT 9999 SCT047 15/11 Q1009 NOSIG=
201209110420 METAR COR EGLL 110420Z 25012KT 9999 FEW027 16/11 Q1009 NOSIG=
201209110350 METAR COR EGLL 110350Z 24012KT 9999 FEW018 16/12 Q1009 NOSIG=
201209110320 METAR COR EGLL 110320Z 23012KT 9999 FEW018 16/12 Q1009 TEMPO
                        BKN014=
201209110250 METAR COR EGLL 110250Z 23012KT 9999 FEW018 16/13 Q1009 TEMPO
                        BKN012=
201209110220 METAR COR EGLL 110220Z 23012KT 9999 SCT020 16/13 Q1009 TEMPO
                        BKN014=
201209110150 METAR COR EGLL 110150Z 22011KT 9999 BKN020 16/13 Q1009 TEMPO
                        BKN014=
201209110120 METAR EGLL 110120Z AUTO 22011KT 9999 FEW021/// 16/13 Q1009=
201209110050 METAR EGLL 110050Z AUTO 22011KT 9999 SCT018/// SCT025///
                        17/13 Q1009=
201209110020 METAR EGLL 110020Z AUTO 22009KT 9999 SCT018/// 17/13 Q1009=
201209102350 METAR COR EGLL 102350Z 22012KT 9999 FEW026 17/13 Q1009 NOSIG=
201209102320 METAR COR EGLL 102320Z 23013KT 9999 FEW024 17/13 Q1009 NOSIG=
201209102250 METAR COR EGLL 102250Z 23013KT 9999 -RA FEW021 17/12 Q1009
                        NOSIG=
201209102220 METAR COR EGLL 102220Z 22011KT CAVOK 17/12 Q1009 NOSIG=
201209102150 METAR COR EGLL 102150Z 23014G24KT CAVOK 17/12 Q1009 NOSIG=
201209102120 METAR COR EGLL 102120Z 22011KT CAVOK 17/13 Q1010 NOSIG=
201209102050 METAR COR EGLL 102050Z 22011KT CAVOK 17/13 Q1010 NOSIG=
201209102020 METAR COR EGLL 102020Z 21011KT CAVOK 17/13 Q1010 NOSIG=
201209101950 METAR COR EGLL 101950Z 22010KT CAVOK 17/13 Q1010 NOSIG=
201209101920 METAR COR EGLL 101920Z 22011G21KT 9999 FEW025 18/13 Q1010
                        NOSIG=
201209101850 METAR COR EGLL 101850Z 22013KT 200V260 9999 FEW025 18/14
                        Q1010 NOSIG=
201209101820 METAR COR EGLL 101820Z 22014KT 9999 FEW020 18/14 Q1010 NOSIG=
201209101750 METAR COR EGLL 101750Z 22013KT 9999 FEW023 18/13 Q1010 NOSIG=
201209101720 METAR COR EGLL 101720Z 21012KT 9999 SCT013 19/14 Q1010 NOSIG=
201209101650 METAR COR EGLL 101650Z 22014KT 9999 BKN022 19/14 Q1010 NOSIG=
201209101620 METAR COR EGLL 101620Z 22015G25KT 9999 SCT020 BKN046 19/14
                        Q1010 NOSIG=
201209101550 METAR COR EGLL 101550Z 22015G27KT 190V250 9999 FEW022 SCT035
                        20/14 Q1010 NOSIG=
201209101520 METAR COR EGLL 101520Z 22016G27KT 9999 SCT021 SCT035 20/14
                        Q1010 NOSIG=
201209101450 METAR COR EGLL 101450Z 23015KT 200V260 9999 SCT022 21/14
                        Q1010 NOSIG=
201209101420 METAR COR EGLL 101420Z 23015G25KT 190V260 9999 FEW022 BKN035
                        20/14 Q1010 NOSIG=
201209101350 METAR COR EGLL 101350Z 23019G30KT 9999 SCT020 BKN035 20/14
                        Q1010 NOSIG=
201209101320 METAR COR EGLL 101320Z 23018KT 9999 FEW022 SCT030 BKN036
                        20/14 Q1010 NOSIG=
201209101250 METAR COR EGLL 101250Z 23017KT 9999 SCT017 BKN040 21/14 Q1010
                        NOSIG=
201209101220 METAR COR EGLL 101220Z 22015KT 9999 BKN017 20/15 Q1010 NOSIG=
201209101150 METAR COR EGLL 101150Z 21014KT 9999 -SHRA SCT022 BKN029 21/15
                        Q1010 NOSIG=
201209101120 METAR COR EGLL 101120Z 20014KT 9999 SCT023 BKN035 21/14 Q1011
                        NOSIG=
201209101050 METAR EGLL 101050Z 22012KT 180V250 9999 SCT023 SCT026 20/14
                        Q1011=
201209101020 METAR COR EGLL 101020Z 23013KT 9999 SCT021 SCT028 20/14 Q1011
                        NOSIG=
201209100950 METAR COR EGLL 100950Z 21014G27KT 9999 BKN018 19/14 Q1011
                        NOSIG=
201209100920 METAR COR EGLL 100920Z 22012KT 9999 SCT018 BKN032 20/14 Q1011
                        NOSIG=
201209100850 METAR COR EGLL 100850Z 23013KT 9999 SCT018 SCT026 19/14 Q1010
                        NOSIG=
201209100820 METAR COR EGLL 100820Z 22011KT 190V250 9999 FEW011 19/14
                        Q1010 NOSIG=
201209100750 METAR COR EGLL 100750Z 21010KT 190V250 9999 FEW012 SCT037
                        18/14 Q1010 NOSIG=
201209100720 METAR COR EGLL 100720Z 22010KT 9999 SCT015 SCT020 18/14 Q1010
                        NOSIG=
201209100650 METAR COR EGLL 100650Z 21010KT 9999 FEW012 BKN035 17/14 Q1010
                        TEMPO BKN012=
201209100620 METAR COR EGLL 100620Z 22009KT 9999 FEW018 BKN040 17/14 Q1010
                        NOSIG=
201209100550 METAR COR EGLL 100550Z 21008KT 9999 BKN038 17/14 Q1010 TEMPO
                        BKN014=
201209100520 METAR COR EGLL 100520Z 21009KT 190V260 9999 BKN038 17/14
                        Q1009 NOSIG=
201209100450 METAR COR EGLL 100450Z 21009KT 9999 SCT038 16/14 Q1009 NOSIG=
201209100420 METAR COR EGLL 100420Z 21009KT 9999 SCT033 BKN039 17/14 Q1009
                        NOSIG=
201209100350 METAR EGLL 100350Z 23013KT 9999 FEW015 BKN030 17/14 Q1009=
201209100320 METAR COR EGLL 100320Z 23014KT 9999 FEW015 SCT030 17/14 Q1009
                        TEMPO BKN014=
201209100250 METAR COR EGLL 100250Z 21009KT 9999 SCT009 BKN015 17/15 Q1009
                        TEMPO BKN012=
201209100220 METAR EGLL 100220Z 21009KT 9999 -DZ FEW007 SCT009 BKN015
                        17/15 Q1009=
201209100150 METAR COR EGLL 100150Z 21008KT 9999 SCT009 BKN011 17/15 Q1009
                        TEMPO SCT011 BKN030=
201209100120 METAR EGLL 100120Z AUTO 21009KT 8000 -DZ BKN011/// 17/15
                        Q1009=
201209100050 METAR EGLL 100050Z AUTO 21009KT 9999 BKN015/// 18/14 Q1009=
201209100020 METAR EGLL 100020Z AUTO 20009KT 9999 SCT026/// BKN031///
                        17/14 Q1010=
201209092350 METAR COR EGLL 092350Z 22008KT 9999 SCT031 BKN036 17/14 Q1010
                        BECMG BKN012=
201209092320 METAR COR EGLL 092320Z 21008KT 9999 BKN036 17/14 Q1010 BECMG
                        BKN012=
201209092250 METAR COR EGLL 092250Z 21007KT 9999 FEW040 16/13 Q1010 BECMG
                        BKN014=
201209092220 METAR COR EGLL 092220Z 22009KT 190V250 9999 FEW018 17/13
                        Q1010 TEMPO BKN014=
201209092150 METAR COR EGLL 092150Z 23010KT 9999 SCT019 17/13 Q1010 TEMPO
                        BKN014=
201209092120 METAR COR EGLL 092120Z 23010KT 9999 FEW020 17/13 Q1010 NOSIG=
201209092050 METAR COR EGLL 092050Z 22010KT 9999 FEW022 17/13 Q1010 NOSIG=
201209092020 METAR COR EGLL 092020Z 23012KT 9999 FEW021 18/13 Q1010 TEMPO
                        BKN014=
201209091950 METAR COR EGLL 091950Z 23011KT 9999 BKN021 18/14 Q1010 TEMPO
                        BKN014=
201209091920 METAR COR EGLL 091920Z 23012KT 9999 BKN022 18/14 Q1010 TEMPO
                        BKN014=
201209091850 METAR COR EGLL 091850Z 23014KT 9999 SCT021 18/14 Q1009 TEMPO
                        BKN014=
201209091820 METAR COR EGLL 091820Z 23013KT 9999 FEW018 19/14 Q1009 NOSIG=
201209091750 METAR COR EGLL 091750Z 22014KT CAVOK 19/14 Q1009 NOSIG=
201209091720 METAR COR EGLL 091720Z 23017KT CAVOK 20/13 Q1009 NOSIG=
201209091650 METAR COR EGLL 091650Z 22012KT 190V250 CAVOK 21/13 Q1009
                        NOSIG=
201209091620 METAR COR EGLL 091620Z 22009KT CAVOK 22/12 Q1009 NOSIG=
201209091550 METAR COR EGLL 091550Z 23015KT CAVOK 25/08 Q1009 NOSIG=
201209091520 METAR COR EGLL 091520Z 22012KT 190V250 9999 FEW048 26/09
                        Q1009 NOSIG=
201209091450 METAR COR EGLL 091450Z 21013KT 9999 FEW048 26/07 Q1009 NOSIG=
201209091420 METAR COR EGLL 091420Z 20013KT 180V240 CAVOK 28/06 Q1009
                        NOSIG=
201209091350 METAR COR EGLL 091350Z 20012KT 160V240 CAVOK 28/07 Q1009
                        NOSIG=
201209091320 METAR COR EGLL 091320Z 19014KT 160V240 CAVOK 28/07 Q1009
                        NOSIG=
201209091250 METAR EGLL 091250Z 19013KT 160V240 CAVOK 28/08 Q1010=
201209091220 METAR COR EGLL 091220Z 20014KT 180V240 CAVOK 28/07 Q1010
                        NOSIG=
201209091150 METAR COR EGLL 091150Z 20013KT 170V230 CAVOK 28/06 Q1010
                        NOSIG=
201209091120 METAR COR EGLL 091120Z 19007KT 130V240 CAVOK 27/10 Q1010
                        NOSIG=
201209091050 METAR COR EGLL 091050Z 18007KT 110V250 CAVOK 25/10 Q1011
                        NOSIG=
201209091020 METAR COR EGLL 091020Z VRB04KT CAVOK 24/11 Q1011 NOSIG=
201209090950 METAR COR EGLL 090950Z 16004KT 090V230 CAVOK 22/11 Q1011
                        NOSIG=
201209090920 METAR COR EGLL 090920Z 21005KT 150V250 CAVOK 21/11 Q1012
                        NOSIG=
201209090850 METAR COR EGLL 090850Z 22004KT 150V290 CAVOK 19/10 Q1012
                        NOSIG=
201209090820 METAR COR EGLL 090820Z VRB03KT CAVOK 18/10 Q1012 NOSIG=
201209090750 METAR COR EGLL 090750Z 00000KT CAVOK 16/09 Q1012 NOSIG=
201209090720 METAR COR EGLL 090720Z VRB02KT CAVOK 14/09 Q1013 NOSIG=
201209090650 METAR COR EGLL 090650Z VRB03KT CAVOK 13/09 Q1013 NOSIG=
201209090620 METAR COR EGLL 090620Z 31003KT CAVOK 13/08 Q1013 NOSIG=
201209090550 METAR COR EGLL 090550Z VRB02KT CAVOK 13/08 Q1013 NOSIG=
201209090520 METAR COR EGLL 090520Z 00000KT CAVOK 12/09 Q1013 NOSIG=
201209090450 METAR COR EGLL 090450Z 36003KT CAVOK 11/08 Q1013 NOSIG=
201209090420 METAR COR EGLL 090420Z VRB02KT CAVOK 11/09 Q1013 NOSIG=
201209090350 METAR COR EGLL 090350Z VRB03KT CAVOK 11/08 Q1014 NOSIG=
201209090320 METAR COR EGLL 090320Z VRB02KT CAVOK 11/09 Q1014 NOSIG=
201209090250 METAR COR EGLL 090250Z 00000KT CAVOK 11/09 Q1014 NOSIG=
201209090220 METAR COR EGLL 090220Z 09003KT CAVOK 10/09 Q1015 NOSIG=
201209090150 METAR COR EGLL 090150Z 10003KT CAVOK 09/07 Q1015 NOSIG=
201209090120 METAR EGLL 090120Z AUTO 17002KT 9999 NCD 11/09 Q1015=
201209090050 METAR EGLL 090050Z AUTO 11002KT 9999 NCD 12/09 Q1015=
201209090020 METAR EGLL 090020Z AUTO 00000KT 9999 NCD 12/09 Q1016=
201209082350 METAR COR EGLL 082350Z 00000KT CAVOK 13/09 Q1016 NOSIG=
201209082320 METAR COR EGLL 082320Z 00000KT CAVOK 13/09 Q1016 NOSIG=
201209082250 METAR COR EGLL 082250Z 00000KT CAVOK 14/09 Q1017 NOSIG=
201209082220 METAR COR EGLL 082220Z VRB03KT CAVOK 14/08 Q1017 NOSIG=
201209082150 METAR COR EGLL 082150Z VRB02KT CAVOK 16/08 Q1017 NOSIG=
201209082120 METAR COR EGLL 082120Z VRB03KT CAVOK 16/08 Q1017 NOSIG=
201209082050 METAR COR EGLL 082050Z 00000KT CAVOK 16/09 Q1017 NOSIG=
201209082020 METAR COR EGLL 082020Z 18004KT 150V220 CAVOK 17/09 Q1017
                        NOSIG=
201209081950 METAR COR EGLL 081950Z 19005KT 160V240 CAVOK 19/09 Q1017
                        NOSIG=
201209081920 METAR COR EGLL 081920Z 20007KT CAVOK 19/09 Q1017 NOSIG=
201209081850 METAR COR EGLL 081850Z 22006KT 180V250 CAVOK 20/09 Q1017
                        NOSIG=
201209081820 METAR COR EGLL 081820Z 22008KT CAVOK 22/09 Q1017 NOSIG=
201209081750 METAR COR EGLL 081750Z 20008KT 160V230 CAVOK 23/08 Q1017
                        NOSIG=
201209081720 METAR COR EGLL 081720Z 20008KT 170V240 CAVOK 25/07 Q1017
                        NOSIG=
201209081650 METAR COR EGLL 081650Z 19007KT 150V230 CAVOK 26/06 Q1017
                        NOSIG=
201209081620 METAR COR EGLL 081620Z 19006KT 160V230 CAVOK 26/05 Q1018
                        NOSIG=
201209081550 METAR COR EGLL 081550Z 19006KT 140V260 CAVOK 26/03 Q1018
                        NOSIG=
201209081520 METAR COR EGLL 081520Z 20005KT 120V240 CAVOK 27/02 Q1018
                        NOSIG=
201209081450 METAR COR EGLL 081450Z 21006KT 170V250 CAVOK 27/M01 Q1019
                        NOSIG=
201209081420 METAR COR EGLL 081420Z VRB05KT CAVOK 27/M02 Q1019 NOSIG=
201209081350 METAR COR EGLL 081350Z 21005KT 160V260 CAVOK 27/00 Q1019
                        NOSIG=
201209081320 METAR COR EGLL 081320Z VRB05KT CAVOK 27/M02 Q1020 NOSIG=
201209081250 METAR COR EGLL 081250Z 22004KT 130V280 CAVOK 26/01 Q1020
                        NOSIG=
201209081220 METAR COR EGLL 081220Z 20004KT 130V270 CAVOK 25/01 Q1020
                        NOSIG=
201209081150 METAR COR EGLL 081150Z 22006KT 170V260 CAVOK 25/05 Q1020
                        NOSIG=
201209081120 METAR COR EGLL 081120Z 23005KT 190V270 CAVOK 23/06 Q1021
                        NOSIG=
201209081050 METAR COR EGLL 081050Z 21006KT 120V270 CAVOK 22/11 Q1021
                        NOSIG=
201209081020 METAR COR EGLL 081020Z VRB04KT CAVOK 21/11 Q1021 NOSIG=
201209080950 METAR COR EGLL 080950Z VRB04KT CAVOK 20/11 Q1022 NOSIG=
201209080920 METAR COR EGLL 080920Z 22004KT 160V300 CAVOK 19/11 Q1022
                        NOSIG=
201209080850 METAR COR EGLL 080850Z 23004KT 180V280 CAVOK 18/10 Q1022
                        NOSIG=
201209080820 METAR COR EGLL 080820Z VRB02KT CAVOK 16/10 Q1022 NOSIG=
201209080750 METAR COR EGLL 080750Z VRB02KT CAVOK 15/10 Q1022 NOSIG=
201209080720 METAR COR EGLL 080720Z VRB02KT CAVOK 14/09 Q1022 NOSIG=
201209080650 METAR COR EGLL 080650Z 29004KT CAVOK 12/09 Q1022 NOSIG=
201209080620 METAR COR EGLL 080620Z 29004KT CAVOK 11/08 Q1022 NOSIG=
201209080550 METAR COR EGLL 080550Z VRB03KT CAVOK 10/08 Q1022 NOSIG=
201209080520 METAR COR EGLL 080520Z 27005KT CAVOK 09/07 Q1022 NOSIG=
201209080450 METAR COR EGLL 080450Z 28006KT CAVOK 09/07 Q1022 NOSIG=
201209080420 METAR COR EGLL 080420Z 27005KT CAVOK 10/07 Q1022 NOSIG=
201209080350 METAR COR EGLL 080350Z 00000KT CAVOK 10/08 Q1023 NOSIG=
201209080320 METAR COR EGLL 080320Z 00000KT CAVOK 12/09 Q1023 NOSIG=
201209080250 METAR COR EGLL 080250Z 31002KT CAVOK 11/09 Q1023 NOSIG=
201209080220 METAR COR EGLL 080220Z 29004KT CAVOK 12/09 Q1023 NOSIG=
201209080150 METAR COR EGLL 080150Z 28003KT CAVOK 12/09 Q1023 NOSIG=
201209080120 METAR EGLL 080120Z AUTO 26003KT 9999 NCD 12/09 Q1023=
201209080050 METAR EGLL 080050Z AUTO VRB02KT 9999 NCD 13/09 Q1023=
201209080020 METAR EGLL 080020Z AUTO 21003KT 9999 NCD 14/09 Q1023=
201209072350 METAR COR EGLL 072350Z VRB03KT CAVOK 14/09 Q1023 NOSIG=
201209072320 METAR COR EGLL 072320Z 00000KT CAVOK 15/09 Q1023 NOSIG=
201209072250 METAR COR EGLL 072250Z 26003KT CAVOK 15/09 Q1023 NOSIG=
201209072220 METAR COR EGLL 072220Z 26005KT CAVOK 16/09 Q1023 NOSIG=
201209072150 METAR EGLL 072150Z 29004KT CAVOK 18/08 Q1023=
201209072120 METAR COR EGLL 072120Z 30004KT CAVOK 18/08 Q1023 NOSIG=
201209072050 METAR COR EGLL 072050Z 29005KT CAVOK 18/08 Q1023 NOSIG=
201209072020 METAR COR EGLL 072020Z 28006KT CAVOK 19/08 Q1023 NOSIG=
201209071950 METAR COR EGLL 071950Z 28008KT CAVOK 19/08 Q1023 NOSIG=
201209071920 METAR COR EGLL 071920Z 28008KT CAVOK 20/06 Q1023 NOSIG=
201209071850 METAR COR EGLL 071850Z 25008KT CAVOK 21/06 Q1023 NOSIG=
201209071820 METAR COR EGLL 071820Z 24008KT CAVOK 23/05 Q1023 NOSIG=
201209071750 METAR COR EGLL 071750Z 24009KT CAVOK 24/06 Q1023 NOSIG=
201209071720 METAR EGLL 071720Z 26008KT CAVOK 25/06 Q1023=
201209071650 METAR COR EGLL 071650Z 24008KT 200V280 CAVOK 25/06 Q1023
                        NOSIG=
201209071620 METAR COR EGLL 071620Z 24010KT 210V280 CAVOK 26/06 Q1023
                        NOSIG=
201209071550 METAR COR EGLL 071550Z 26009KT CAVOK 26/05 Q1023 NOSIG=
201209071520 METAR COR EGLL 071520Z 24009KT 200V280 CAVOK 26/04 Q1023
                        NOSIG=
201209071450 METAR COR EGLL 071450Z 27009KT 240V320 CAVOK 26/03 Q1023
                        NOSIG=
201209071420 METAR COR EGLL 071420Z 27009KT 230V310 CAVOK 26/03 Q1024
                        NOSIG=
201209071350 METAR COR EGLL 071350Z 29010KT CAVOK 26/06 Q1024 NOSIG=
201209071320 METAR COR EGLL 071320Z 26009KT 230V290 CAVOK 26/07 Q1024
                        NOSIG=
201209071250 METAR COR EGLL 071250Z 26009KT 220V310 CAVOK 25/06 Q1024
                        NOSIG=
201209071220 METAR COR EGLL 071220Z 26010KT CAVOK 24/07 Q1024 NOSIG=
201209071150 METAR COR EGLL 071150Z 27008KT 230V300 CAVOK 24/07 Q1025
                        NOSIG=
201209071120 METAR EGLL 071120Z 26008KT 210V290 CAVOK 22/08 Q1025=
201209071050 METAR COR EGLL 071050Z 27008KT 220V310 CAVOK 21/10 Q1025
                        NOSIG=
201209071020 METAR COR EGLL 071020Z 26007KT 230V300 CAVOK 20/10 Q1025
                        NOSIG=
201209070950 METAR COR EGLL 070950Z 28007KT CAVOK 19/10 Q1025 NOSIG=
201209070920 METAR COR EGLL 070920Z 28005KT 240V340 CAVOK 18/11 Q1025
                        NOSIG=
201209070850 METAR COR EGLL 070850Z 27007KT CAVOK 17/11 Q1025 NOSIG=
201209070820 METAR COR EGLL 070820Z 27008KT CAVOK 16/11 Q1025 NOSIG=
201209070750 METAR COR EGLL 070750Z 23005KT 200V280 CAVOK 15/11 Q1025
                        NOSIG=
201209070720 METAR COR EGLL 070720Z 24005KT 190V290 CAVOK 13/11 Q1025
                        NOSIG=
201209070650 METAR COR EGLL 070650Z 21004KT 170V250 8000 NSC 12/11 Q1025
                        NOSIG=
201209070620 METAR COR EGLL 070620Z 24006KT 200V270 7000 NSC 12/10 Q1025
                        NOSIG=
201209070550 METAR COR EGLL 070550Z 26007KT 7000 NSC 12/10 Q1025 NOSIG=
201209070520 METAR COR EGLL 070520Z 25007KT 8000 NSC 11/09 Q1025 NOSIG=
201209070450 METAR COR EGLL 070450Z 26006KT 8000 NSC 11/09 Q1025 NOSIG=
201209070420 METAR COR EGLL 070420Z 24004KT 190V280 9000 NSC 11/10 Q1025
                        NOSIG=
201209070350 METAR COR EGLL 070350Z 23005KT 200V260 CAVOK 11/09 Q1025
                        NOSIG=
201209070320 METAR COR EGLL 070320Z 21004KT CAVOK 11/09 Q1025 NOSIG=
201209070250 METAR COR EGLL 070250Z 22004KT CAVOK 11/10 Q1025 NOSIG=
201209070220 METAR COR EGLL 070220Z 22005KT CAVOK 12/10 Q1025 NOSIG=
201209070150 METAR COR EGLL 070150Z 22005KT CAVOK 12/10 Q1025 NOSIG=
201209070120 METAR EGLL 070120Z AUTO 22006KT 9999 NCD 12/10 Q1025=
201209070050 METAR EGLL 070050Z AUTO 22007KT 9999 NCD 12/11 Q1026=
201209070020 METAR EGLL 070020Z AUTO 22005KT 9999 NCD 13/11 Q1026=
201209062350 METAR COR EGLL 062350Z 23007KT CAVOK 13/11 Q1026 NOSIG=
201209062320 METAR COR EGLL 062320Z 22007KT CAVOK 13/11 Q1026 NOSIG=
201209062250 METAR COR EGLL 062250Z 23007KT CAVOK 14/11 Q1026 NOSIG=
201209062220 METAR COR EGLL 062220Z 23007KT CAVOK 14/11 Q1026 NOSIG=
201209062150 METAR COR EGLL 062150Z 23009KT 200V260 CAVOK 15/11 Q1026
                        NOSIG=
201209062120 METAR EGLL 062120Z 23009KT CAVOK 15/11 Q1026=
201209062050 METAR COR EGLL 062050Z 22009KT CAVOK 16/11 Q1026 NOSIG=
201209062020 METAR COR EGLL 062020Z 22009KT CAVOK 16/11 Q1026 NOSIG=
201209061950 METAR COR EGLL 061950Z 22009KT CAVOK 17/11 Q1026 NOSIG=
201209061920 METAR COR EGLL 061920Z 22008KT CAVOK 18/09 Q1026 NOSIG=
201209061850 METAR COR EGLL 061850Z 22009KT CAVOK 18/08 Q1026 NOSIG=
201209061820 METAR COR EGLL 061820Z 24010KT CAVOK 19/08 Q1025 NOSIG=
201209061750 METAR COR EGLL 061750Z 23008KT 190V270 CAVOK 20/07 Q1025
                        NOSIG=
201209061720 METAR COR EGLL 061720Z 25009KT CAVOK 21/06 Q1026 NOSIG=
201209061650 METAR COR EGLL 061650Z 25009KT CAVOK 21/06 Q1026 NOSIG=
201209061620 METAR COR EGLL 061620Z 26011KT CAVOK 22/06 Q1026 NOSIG=
201209061550 METAR COR EGLL 061550Z 25010KT 210V280 CAVOK 22/06 Q1026
                        NOSIG=
201209061520 METAR COR EGLL 061520Z 22006KT 170V260 CAVOK 22/07 Q1027
                        NOSIG=
201209061450 METAR COR EGLL 061450Z 24008KT 200V270 CAVOK 21/05 Q1027
                        NOSIG=
201209061420 METAR COR EGLL 061420Z 24009KT 210V280 CAVOK 21/05 Q1027
                        NOSIG=
201209061350 METAR COR EGLL 061350Z 23006KT 190V270 CAVOK 21/06 Q1028
                        NOSIG=
201209061320 METAR COR EGLL 061320Z 23006G18KT 150V290 CAVOK 20/05 Q1028
                        NOSIG=
201209061250 METAR COR EGLL 061250Z 25008KT 200V280 CAVOK 21/04 Q1028
                        NOSIG=
201209061220 METAR COR EGLL 061220Z 23008KT 170V290 CAVOK 20/05 Q1028
                        NOSIG=
201209061150 METAR COR EGLL 061150Z 24009G19KT 190V280 CAVOK 20/04 Q1029
                        NOSIG=
201209061120 METAR COR EGLL 061120Z 23007KT 190V290 CAVOK 20/06 Q1029
                        NOSIG=
201209061050 METAR COR EGLL 061050Z 20007KT 140V250 9999 FEW048 20/05
                        Q1029 NOSIG=
201209061020 METAR COR EGLL 061020Z 21007KT 190V250 9999 FEW044 18/07
                        Q1029 NOSIG=
201209060950 METAR COR EGLL 060950Z 22007KT 160V260 CAVOK 18/06 Q1030
                        NOSIG=
201209060920 METAR COR EGLL 060920Z 22004KT 170V260 CAVOK 16/08 Q1030
                        NOSIG=
201209060850 METAR COR EGLL 060850Z 24005KT 190V280 CAVOK 16/09 Q1030
                        NOSIG=
201209060820 METAR COR EGLL 060820Z 22004KT 150V290 CAVOK 14/09 Q1030
                        NOSIG=
201209060750 METAR COR EGLL 060750Z 19004KT 130V250 CAVOK 13/09 Q1030
                        NOSIG=
201209060720 METAR COR EGLL 060720Z VRB03KT CAVOK 12/09 Q1030 NOSIG=
201209060650 METAR COR EGLL 060650Z 00000KT CAVOK 11/08 Q1030 NOSIG=
201209060620 METAR COR EGLL 060620Z 06002KT CAVOK 10/08 Q1030 NOSIG=
201209060550 METAR COR EGLL 060550Z 00000KT CAVOK 09/07 Q1030 NOSIG=
201209060520 METAR COR EGLL 060520Z 00000KT CAVOK 08/06 Q1029 NOSIG=
201209060450 METAR COR EGLL 060450Z 28002KT CAVOK 08/06 Q1029 NOSIG=
201209060420 METAR COR EGLL 060420Z VRB03KT CAVOK 09/06 Q1029 NOSIG=
201209060350 METAR COR EGLL 060350Z 31003KT CAVOK 09/06 Q1029 NOSIG=
201209060320 METAR COR EGLL 060320Z 31003KT CAVOK 10/07 Q1029 NOSIG=
201209060250 METAR COR EGLL 060250Z 32002KT CAVOK 09/07 Q1029 NOSIG=
201209060220 METAR COR EGLL 060220Z 28002KT CAVOK 10/07 Q1030 NOSIG=
201209060150 METAR COR EGLL 060150Z 34003KT CAVOK 11/08 Q1030 NOSIG=
201209060120 METAR EGLL 060120Z AUTO 00000KT 9999 NCD 12/08 Q1030=
201209060050 METAR EGLL 060050Z AUTO 33002KT 9999 NCD 11/07 Q1030=
201209060020 METAR EGLL 060020Z AUTO 00000KT 9999 NCD 13/07 Q1030=
201209052350 METAR COR EGLL 052350Z 00000KT CAVOK 12/07 Q1029 NOSIG=
201209052320 METAR COR EGLL 052320Z 10002KT CAVOK 13/07 Q1029 NOSIG=
201209052250 METAR COR EGLL 052250Z 04004KT CAVOK 14/07 Q1030 NOSIG=
201209052220 METAR COR EGLL 052220Z 06005KT CAVOK 14/07 Q1029 NOSIG=
201209052150 METAR COR EGLL 052150Z 06003KT CAVOK 14/07 Q1029 NOSIG=
201209052120 METAR COR EGLL 052120Z 08004KT CAVOK 14/07 Q1029 NOSIG=
201209052050 METAR COR EGLL 052050Z 07005KT CAVOK 16/07 Q1029 NOSIG=
201209052020 METAR COR EGLL 052020Z 06005KT CAVOK 16/07 Q1029 NOSIG=
201209051950 METAR COR EGLL 051950Z 07005KT CAVOK 16/07 Q1028 NOSIG=
201209051920 METAR COR EGLL 051920Z 08006KT CAVOK 16/07 Q1028 NOSIG=
201209051850 METAR COR EGLL 051850Z 06004KT 020V080 CAVOK 17/07 Q1028
                        NOSIG=
201209051820 METAR COR EGLL 051820Z 01005KT 330V080 9999 FEW048 18/06
                        Q1027 NOSIG=
201209051750 METAR COR EGLL 051750Z 02005KT 340V050 9999 FEW045 19/06
                        Q1027 NOSIG=
201209051720 METAR COR EGLL 051720Z 01007KT 330V050 CAVOK 19/06 Q1027
                        NOSIG=
201209051650 METAR COR EGLL 051650Z 03007KT 350V070 CAVOK 20/06 Q1027
                        NOSIG=
201209051620 METAR COR EGLL 051620Z 03007KT 340V070 CAVOK 20/06 Q1027
                        NOSIG=
201209051550 METAR COR EGLL 051550Z 36008KT 330V040 CAVOK 21/06 Q1027
                        NOSIG=
201209051520 METAR COR EGLL 051520Z 01007KT 340V050 CAVOK 21/06 Q1027
                        NOSIG=
201209051450 METAR COR EGLL 051450Z 35007KT 280V070 CAVOK 21/06 Q1027
                        NOSIG=
201209051420 METAR COR EGLL 051420Z 01007KT 330V070 CAVOK 21/06 Q1027
                        NOSIG=
201209051350 METAR COR EGLL 051350Z 01006KT 290V080 CAVOK 20/05 Q1027
                        NOSIG=
201209051320 METAR COR EGLL 051320Z 35007KT 310V040 CAVOK 20/06 Q1027
                        NOSIG=
201209051250 METAR COR EGLL 051250Z 36008KT 300V040 CAVOK 20/06 Q1027
                        NOSIG=
201209051220 METAR COR EGLL 051220Z 36007KT 290V060 CAVOK 20/06 Q1027
                        NOSIG=
201209051150 METAR COR EGLL 051150Z 01007KT 330V060 CAVOK 19/06 Q1027
                        NOSIG=
201209051120 METAR COR EGLL 051120Z 35006KT 270V050 CAVOK 19/06 Q1027
                        NOSIG=
201209051050 METAR COR EGLL 051050Z 04007KT 330V090 CAVOK 18/06 Q1027
                        NOSIG=
201209051020 METAR COR EGLL 051020Z 01007KT 320V070 CAVOK 18/06 Q1027
                        NOSIG=
201209050950 METAR COR EGLL 050950Z 01007KT 330V060 CAVOK 17/06 Q1027
                        NOSIG=
201209050920 METAR COR EGLL 050920Z 36007KT 330V040 CAVOK 17/06 Q1027
                        NOSIG=
201209050850 METAR COR EGLL 050850Z 01008KT 330V050 9999 FEW030 16/06
                        Q1027 NOSIG=
201209050820 METAR COR EGLL 050820Z 02007KT 340V050 CAVOK 15/07 Q1027
                        NOSIG=
201209050750 METAR COR EGLL 050750Z 01006KT 340V050 CAVOK 14/07 Q1027
                        NOSIG=
201209050720 METAR COR EGLL 050720Z 01006KT 320V050 CAVOK 13/07 Q1027
                        NOSIG=
201209050650 METAR COR EGLL 050650Z 36006KT 330V040 CAVOK 12/08 Q1027
                        NOSIG=
201209050620 METAR COR EGLL 050620Z 36005KT 330V030 CAVOK 12/08 Q1026
                        NOSIG=
201209050550 METAR COR EGLL 050550Z 35005KT 280V030 CAVOK 11/08 Q1026
                        NOSIG=
201209050520 METAR COR EGLL 050520Z 34004KT 310V030 CAVOK 11/08 Q1026
                        NOSIG=
201209050450 METAR COR EGLL 050450Z 35004KT 310V020 9999 FEW036 11/08
                        Q1026 NOSIG=
201209050420 METAR COR EGLL 050420Z 36004KT 330V030 9999 FEW036 12/08
                        Q1026 NOSIG=
201209050350 METAR COR EGLL 050350Z VRB03KT CAVOK 12/08 Q1026 NOSIG=
201209050320 METAR COR EGLL 050320Z 33004KT 310V020 CAVOK 12/09 Q1026
                        NOSIG=
201209050250 METAR COR EGLL 050250Z 36004KT 9999 FEW040 13/08 Q1026 NOSIG=
201209050220 METAR COR EGLL 050220Z 35004KT 9999 SCT040 13/08 Q1026 NOSIG=
201209050150 METAR COR EGLL 050150Z 35004KT 9999 BKN043 14/09 Q1026 NOSIG=
201209050120 METAR EGLL 050120Z AUTO VRB03KT 9999 OVC038/// 14/08 Q1026=
201209050050 METAR EGLL 050050Z AUTO 36005KT 320V030 9999 BKN038/// 14/08
                        Q1025=
201209050020 METAR EGLL 050020Z AUTO 01005KT 330V040 9999 FEW039/// 14/08
                        Q1025=
201209042350 METAR COR EGLL 042350Z 01006KT 330V040 CAVOK 15/08 Q1025
                        NOSIG=
201209042320 METAR COR EGLL 042320Z 36006KT CAVOK 15/08 Q1025 NOSIG=
201209042250 METAR COR EGLL 042250Z 36006KT 330V030 CAVOK 16/08 Q1025
                        NOSIG=
201209042220 METAR COR EGLL 042220Z 36005KT CAVOK 16/08 Q1024 NOSIG=
201209042150 METAR COR EGLL 042150Z 36007KT 9999 FEW048 18/11 Q1024 NOSIG=
201209042120 METAR COR EGLL 042120Z 36007KT 9999 BKN041 20/13 Q1024 NOSIG=
201209042050 METAR EGLL 042050Z 35006KT 300V030 9999 BKN041 20/14 Q1024
                        NOSIG=
201209042020 METAR COR EGLL 042020Z 34004KT 300V010 9999 BKN041 20/15
                        Q1024 NOSIG=
201209041950 METAR COR EGLL 041950Z 34005KT 290V020 9999 BKN038 21/15
                        Q1024 NOSIG=
201209041920 METAR COR EGLL 041920Z 35005KT 300V020 9999 BKN033 21/15
                        Q1024 NOSIG=
201209041850 METAR COR EGLL 041850Z 35005KT 9999 BKN026 21/15 Q1023 NOSIG=
201209041820 METAR COR EGLL 041820Z 35006KT 320V020 9999 FEW027 BKN031
                        21/15 Q1023 NOSIG=
201209041750 METAR COR EGLL 041750Z 34006KT 300V020 9999 FEW026 BKN029
                        22/15 Q1023 NOSIG=
201209041720 METAR COR EGLL 041720Z 35007KT 310V020 9999 BKN030 22/16
                        Q1023 NOSIG=
201209041650 METAR COR EGLL 041650Z 36006KT 9999 BKN027 BKN036 22/15 Q1023
                        NOSIG=
201209041620 METAR COR EGLL 041620Z 35007KT 9999 FEW027 SCT034 24/16 Q1022
                        NOSIG=
201209041550 METAR COR EGLL 041550Z 32006KT 290V350 9999 FEW032 SCT035
                        24/16 Q1022 NOSIG=
201209041520 METAR COR EGLL 041520Z 35006KT 310V020 9999 SCT028 24/16
                        Q1022 NOSIG=
201209041450 METAR COR EGLL 041450Z 33005KT 280V020 9999 SCT033 24/15
                        Q1023 NOSIG=
201209041420 METAR COR EGLL 041420Z 33005KT 290V020 9999 SCT035 25/15
                        Q1023 NOSIG=
201209041350 METAR COR EGLL 041350Z 31007KT 290V020 9999 BKN033 25/15
                        Q1023 NOSIG=
201209041320 METAR COR EGLL 041320Z 34006KT 290V040 9999 FEW035 25/14
                        Q1023 NOSIG=
201209041250 METAR COR EGLL 041250Z 33006KT 270V040 9999 FEW036 25/15
                        Q1023 NOSIG=
201209041220 METAR COR EGLL 041220Z 30005KT 210V010 CAVOK 24/15 Q1023
                        NOSIG=
201209041150 METAR COR EGLL 041150Z 29004KT 200V350 CAVOK 23/14 Q1023
                        NOSIG=
201209041120 METAR COR EGLL 041120Z 31005KT 260V070 CAVOK 23/14 Q1023
                        NOSIG=
201209041050 METAR COR EGLL 041050Z 31005KT 280V360 CAVOK 22/14 Q1023
                        NOSIG=
201209041020 METAR COR EGLL 041020Z 28007KT CAVOK 21/13 Q1024 NOSIG=
201209040950 METAR COR EGLL 040950Z 28008KT CAVOK 19/13 Q1024 NOSIG=
201209040920 METAR COR EGLL 040920Z 28007KT CAVOK 19/13 Q1024 NOSIG=
201209040850 METAR COR EGLL 040850Z 29006KT 260V350 8000 FEW010 17/13
                        Q1024 NOSIG=
201209040820 METAR COR EGLL 040820Z 26009KT 7000 BKN008 16/13 Q1024 BECMG
                        SCT012=
201209040750 METAR COR EGLL 040750Z 28008KT 6000 BKN007 15/13 Q1024 BECMG
                        SCT012=
201209040720 METAR COR EGLL 040720Z 30007KT 5000 BR BKN005 15/13 Q1024
                        BECMG BKN012=
201209040650 METAR COR EGLL 040650Z 30008KT 3800 BR FEW002 OVC003 14/13
                        Q1024 BECMG 6000 NSW SCT006 BKN008=
201209040620 METAR COR EGLL 040620Z 29008KT 3800 BR SCT002 BKN003 14/12
                        Q1024 BECMG 5000 BR FEW002 SCT003
                        BKN006=
201209040550 METAR COR EGLL 040550Z 27008KT 6000 SCT007 14/12 Q1023 TEMPO
                        BKN004=
201209040520 METAR COR EGLL 040520Z 28006KT 8000 NSC 14/12 Q1023 NOSIG=
201209040450 METAR COR EGLL 040450Z 26006KT 8000 NSC 14/12 Q1023 NOSIG=
201209040420 METAR COR EGLL 040420Z 25005KT 200V280 CAVOK 14/12 Q1023
                        NOSIG=
201209040350 METAR COR EGLL 040350Z VRB03KT CAVOK 14/13 Q1024 NOSIG=
201209040320 METAR COR EGLL 040320Z 21004KT CAVOK 14/13 Q1024 NOSIG=
201209040250 METAR COR EGLL 040250Z 26003KT CAVOK 15/13 Q1024 NOSIG=
201209040220 METAR COR EGLL 040220Z 21003KT CAVOK 15/13 Q1024 NOSIG=
201209040150 METAR COR EGLL 040150Z VRB03KT 9999 FEW049 15/13 Q1024 NOSIG=
201209040120 METAR EGLL 040120Z AUTO 22002KT 9999 NCD 15/13 Q1024=
201209040050 METAR EGLL 040050Z AUTO 25002KT 9999 NCD 16/14 Q1024=
201209040020 METAR EGLL 040020Z AUTO 27003KT 9999 NCD 16/14 Q1024=
201209032350 METAR COR EGLL 032350Z 28002KT CAVOK 16/13 Q1024 NOSIG=
201209032320 METAR COR EGLL 032320Z 29004KT CAVOK 15/13 Q1025 NOSIG=
201209032250 METAR COR EGLL 032250Z 28005KT CAVOK 17/13 Q1025 NOSIG=
201209032220 METAR COR EGLL 032220Z 28005KT CAVOK 17/14 Q1025 NOSIG=
201209032150 METAR COR EGLL 032150Z 22005KT CAVOK 17/14 Q1024 NOSIG=
201209032120 METAR COR EGLL 032120Z 23004KT 190V260 CAVOK 18/13 Q1024
                        NOSIG=
201209032050 METAR COR EGLL 032050Z 30002KT CAVOK 20/12 Q1025 NOSIG=
201209032020 METAR COR EGLL 032020Z 31002KT CAVOK 20/11 Q1025 NOSIG=
201209031950 METAR COR EGLL 031950Z 32002KT CAVOK 21/11 Q1025 NOSIG=
201209031920 METAR COR EGLL 031920Z 31002KT CAVOK 21/10 Q1025 NOSIG=
201209031850 METAR COR EGLL 031850Z 32003KT CAVOK 21/10 Q1025 NOSIG=
201209031820 METAR COR EGLL 031820Z 31003KT CAVOK 22/09 Q1024 NOSIG=
201209031750 METAR COR EGLL 031750Z 31003KT CAVOK 23/09 Q1024 NOSIG=
201209031720 METAR COR EGLL 031720Z 31004KT 280V350 CAVOK 23/09 Q1024
                        NOSIG=
201209031650 METAR COR EGLL 031650Z 30004KT 270V360 CAVOK 24/08 Q1024
                        NOSIG=
201209031620 METAR COR EGLL 031620Z 32004KT 270V010 CAVOK 24/09 Q1025
                        NOSIG=
201209031550 METAR COR EGLL 031550Z 29005KT 230V020 CAVOK 24/10 Q1025
                        NOSIG=
201209031520 METAR COR EGLL 031520Z VRB04KT CAVOK 24/10 Q1025 NOSIG=
201209031450 METAR COR EGLL 031450Z 26004KT 160V320 CAVOK 25/09 Q1025
                        NOSIG=
201209031420 METAR COR EGLL 031420Z 30004KT 230V360 CAVOK 24/09 Q1025
                        NOSIG=
201209031350 METAR COR EGLL 031350Z 27005KT 190V340 9999 FEW041 24/10
                        Q1025 NOSIG=
201209031320 METAR COR EGLL 031320Z 24004KT 170V310 9999 FEW041 24/11
                        Q1026 NOSIG=
201209031250 METAR COR EGLL 031250Z 28005KT 240V330 9999 FEW036 23/12
                        Q1026 NOSIG=
201209031220 METAR COR EGLL 031220Z 29005KT 260V340 9999 FEW044 23/13
                        Q1026 NOSIG=
201209031150 METAR COR EGLL 031150Z VRB03KT CAVOK 22/13 Q1026 NOSIG=
201209031120 METAR COR EGLL 031120Z VRB03KT CAVOK 22/13 Q1026 NOSIG=
201209031050 METAR COR EGLL 031050Z VRB03KT CAVOK 21/13 Q1026 NOSIG=
201209031020 METAR COR EGLL 031020Z VRB03KT CAVOK 21/13 Q1026 NOSIG=
201209030950 METAR COR EGLL 030950Z VRB02KT CAVOK 19/12 Q1027 NOSIG=
201209030920 METAR COR EGLL 030920Z VRB03KT CAVOK 19/13 Q1027 NOSIG=
201209030850 METAR COR EGLL 030850Z VRB03KT CAVOK 18/13 Q1026 NOSIG=
201209030820 METAR COR EGLL 030820Z VRB02KT CAVOK 17/13 Q1026 NOSIG=
201209030750 METAR COR EGLL 030750Z VRB02KT CAVOK 16/13 Q1026 NOSIG=
201209030720 METAR COR EGLL 030720Z VRB02KT 9999 FEW010 15/12 Q1027 NOSIG=
201209030650 METAR COR EGLL 030650Z VRB03KT CAVOK 15/12 Q1027 NOSIG=
201209030620 METAR COR EGLL 030620Z VRB03KT 9999 FEW014 15/12 Q1027 TEMPO
                        BKN014=
201209030550 METAR COR EGLL 030550Z 33002KT 9999 FEW014 15/13 Q1026 TEMPO
                        BKN014=
201209030520 METAR COR EGLL 030520Z 32002KT CAVOK 15/13 Q1026 NOSIG=
201209030450 METAR COR EGLL 030450Z 35003KT 9999 FEW026 15/13 Q1026 NOSIG=
201209030420 METAR COR EGLL 030420Z 32002KT 9999 FEW046 15/13 Q1026 TEMPO
                        7000 BKN006=
201209030350 METAR COR EGLL 030350Z 31003KT 8000 SCT044 15/14 Q1026 NOSIG=
201209030320 METAR COR EGLL 030320Z 30003KT 6000 SCT020 16/15 Q1026 TEMPO
                        3500 BR=
201209030250 METAR COR EGLL 030250Z 29004KT 6000 FEW009 SCT020 15/14 Q1026
                        BECMG 3500 BR=
201209030220 METAR COR EGLL 030220Z 28005KT 7000 FEW007 BKN009 17/15 Q1026
                        NOSIG=
201209030150 METAR COR EGLL 030150Z 31005KT 9000 OVC010 17/15 Q1026 TEMPO
                        BKN007=
201209030120 METAR EGLL 030120Z AUTO 30005KT 9000 OVC007/// 17/15 Q1026=
201209030050 METAR EGLL 030050Z AUTO 28005KT 9000 OVC008/// 17/15 Q1026=
201209030020 METAR EGLL 030020Z AUTO 28005KT 9999 BKN009/// 17/15 Q1026=
201209022350 METAR COR EGLL 022350Z 30005KT 9999 FEW009 BKN011 17/16 Q1026
                        NOSIG=
201209022320 METAR COR EGLL 022320Z 29004KT 9999 BKN013 16/15 Q1026 TEMPO
                        SCT012=
201209022250 METAR COR EGLL 022250Z 26004KT 9999 SCT024 16/15 Q1026 TEMPO
                        BKN007=
201209022220 METAR COR EGLL 022220Z 24004KT 210V270 9999 SCT030 17/15
                        Q1026 TEMPO BKN008=
201209022150 METAR COR EGLL 022150Z 25008KT 9999 FEW016 BKN034 17/16 Q1026
                        NOSIG=
201209022120 METAR COR EGLL 022120Z 25008KT 9999 FEW019 BKN028 17/16 Q1026
                        NOSIG=
201209022050 METAR COR EGLL 022050Z 24007KT 210V270 9999 BKN026 17/16
                        Q1026 NOSIG=
201209022020 METAR COR EGLL 022020Z 23005KT 190V260 9999 FEW007 BKN022
                        17/16 Q1025 NOSIG=
201209021950 METAR COR EGLL 021950Z 25007KT 200V270 9999 FEW008 BKN019
                        17/16 Q1025 NOSIG=
201209021920 METAR COR EGLL 021920Z 25006KT 9999 SCT008 SCT016 17/16 Q1025
                        NOSIG=
201209021850 METAR COR EGLL 021850Z 25007KT 9000 -DZ FEW008 BKN010 17/16
                        Q1025 TEMPO SCT010 BKN018=
201209021820 METAR COR EGLL 021820Z 23005KT 150V300 9000 FEW008 SCT010
                        BKN019 17/16 Q1025 TEMPO BKN010=
201209021750 METAR COR EGLL 021750Z 24007KT 190V270 7000 -DZ FEW009 BKN013
                        18/16 Q1025 BECMG SCT013=
201209021720 METAR COR EGLL 021720Z 26007KT 9999 SCT013 OVC019 18/15 Q1025
                        TEMPO BKN013=
201209021650 METAR COR EGLL 021650Z 25008KT 200V280 9999 FEW013 BKN019
                        19/15 Q1025 TEMPO BKN013=
201209021620 METAR COR EGLL 021620Z 25008KT 200V270 9999 SCT012 BKN022
                        19/15 Q1024 NOSIG=
201209021550 METAR COR EGLL 021550Z 24009KT 9999 FEW012 OVC013 18/15 Q1024
                        BECMG BKN015=
201209021520 METAR COR EGLL 021520Z 23008KT 190V260 9999 OVC011 18/15
                        Q1024 NOSIG=
201209021450 METAR COR EGLL 021450Z 25009KT 200V280 9999 OVC011 18/15
                        Q1024 BECMG BKN015=
201209021420 METAR COR EGLL 021420Z 24009KT 210V270 9999 OVC011 18/15
                        Q1024 BECMG BKN015=
201209021350 METAR COR EGLL 021350Z 25008KT 210V280 9999 OVC012 18/15
                        Q1024 NOSIG=
201209021320 METAR COR EGLL 021320Z 25009KT 9999 OVC012 18/14 Q1025 NOSIG=
201209021250 METAR COR EGLL 021250Z 27009KT 9999 OVC012 18/14 Q1025 BECMG
                        BKN015=
201209021220 METAR COR EGLL 021220Z 28010KT 9999 OVC013 18/14 Q1025 BECMG
                        BKN015=
201209021150 METAR COR EGLL 021150Z 25008KT 9999 OVC012 19/14 Q1024 BECMG
                        BKN015=
201209021120 METAR COR EGLL 021120Z 27009KT 9999 BKN010 18/14 Q1025 BECMG
                        BKN015=
201209021050 METAR COR EGLL 021050Z 25008KT 9999 FEW007 BKN011 17/14 Q1024
                        BECMG BKN015=
201209021020 METAR COR EGLL 021020Z 26010KT 9999 SCT005 BKN009 16/15 Q1025
                        BECMG SCT010=
201209020950 METAR COR EGLL 020950Z 25009KT 5000 -DZ BKN006 16/14 Q1025
                        TEMPO 4000 RADZ=
201209020920 METAR COR EGLL 020920Z 26008KT 9999 BKN006 BKN039 15/14 Q1025
                        BECMG SCT006=
201209020850 METAR COR EGLL 020850Z 24008KT 9999 FEW005 SCT011 15/14 Q1025
                        NOSIG=
201209020820 METAR COR EGLL 020820Z 24007KT 210V270 9000 -RADZ BKN010
                        SCT031 15/13 Q1025 TEMPO SCT010=
201209020750 METAR COR EGLL 020750Z 24008KT 200V260 9999 -RA SCT011 BKN030
                        15/12 Q1025 TEMPO BKN011=
201209020720 METAR COR EGLL 020720Z 21006KT 9999 FEW012 SCT035 14/12 Q1024
                        NOSIG=
201209020650 METAR COR EGLL 020650Z 21006KT 9999 FEW013 SCT034 13/12 Q1024
                        NOSIG=
201209020620 METAR COR EGLL 020620Z 21006KT 180V240 9999 FEW015 SCT040
                        13/12 Q1024 NOSIG=
201209020550 METAR COR EGLL 020550Z 22006KT 180V270 9999 4000W -RADZ FEW020
                        SCT025 13/11 Q1024 NOSIG=
201209020520 METAR COR EGLL 020520Z 22005KT 180V260 CAVOK 12/11 Q1024
                        TEMPO BKN014=
201209020450 METAR COR EGLL 020450Z 22004KT CAVOK 12/11 Q1024 TEMPO BKN014=
201209020420 METAR COR EGLL 020420Z 22005KT 190V250 9999 FEW019 13/11
                        Q1024 NOSIG=
201209020350 METAR COR EGLL 020350Z 22005KT 9999 FEW019 13/11 Q1024 NOSIG=
201209020320 METAR COR EGLL 020320Z 24006KT 9999 FEW019 13/11 Q1024 NOSIG=
201209020250 METAR COR EGLL 020250Z 22006KT CAVOK 13/11 Q1024 NOSIG=
201209020220 METAR COR EGLL 020220Z 24006KT CAVOK 13/11 Q1024 NOSIG=
201209020150 METAR COR EGLL 020150Z 25006KT CAVOK 13/11 Q1024 NOSIG=
201209020120 METAR EGLL 020120Z AUTO 25008KT 9999 NCD 13/11 Q1024=
201209020050 METAR COR EGLL 020050Z 25008KT CAVOK 14/11 Q1024 NOSIG=
201209020020 METAR COR EGLL 020020Z 25008KT CAVOK 14/11 Q1024 NOSIG=
201209012350 METAR COR EGLL 012350Z 26010KT CAVOK 15/11 Q1024 NOSIG=
201209012320 METAR COR EGLL 012320Z 26008KT CAVOK 15/11 Q1025 NOSIG=
201209012250 METAR COR EGLL 012250Z 27008KT CAVOK 15/11 Q1025 NOSIG=
201209012220 METAR COR EGLL 012220Z 27011KT CAVOK 15/11 Q1024 NOSIG=
201209012150 METAR COR EGLL 012150Z 27012KT CAVOK 15/11 Q1024 NOSIG=
201209012120 METAR COR EGLL 012120Z 27012KT CAVOK 16/11 Q1024 NOSIG=
201209012050 METAR COR EGLL 012050Z 27014KT CAVOK 16/11 Q1024 NOSIG=
201209012020 METAR COR EGLL 012020Z 26012KT CAVOK 17/11 Q1024 NOSIG=
201209011950 METAR COR EGLL 011950Z 26011KT CAVOK 18/11 Q1024 NOSIG=
201209011920 METAR COR EGLL 011920Z 27012KT CAVOK 18/11 Q1024 NOSIG=
201209011850 METAR COR EGLL 011850Z 27010KT CAVOK 19/10 Q1024 NOSIG=
201209011820 METAR COR EGLL 011820Z 27011KT CAVOK 20/09 Q1024 NOSIG=
201209011750 METAR COR EGLL 011750Z 28013KT CAVOK 21/07 Q1024 NOSIG=
201209011720 METAR COR EGLL 011720Z 27012KT CAVOK 22/06 Q1024 NOSIG=
201209011650 METAR COR EGLL 011650Z 27013KT CAVOK 22/10 Q1024 NOSIG=
201209011620 METAR COR EGLL 011620Z 26012KT 9999 FEW036 22/13 Q1024 NOSIG=
201209011550 METAR COR EGLL 011550Z 25011KT 9999 FEW040 22/13 Q1024 NOSIG=
201209011520 METAR COR EGLL 011520Z 28011KT 9999 FEW036 22/13 Q1024 NOSIG=
201209011450 METAR COR EGLL 011450Z 24009KT 200V280 9999 FEW040 22/12
                        Q1024 NOSIG=
201209011420 METAR COR EGLL 011420Z 24008KT 190V280 9999 FEW032 21/13
                        Q1025 NOSIG=
201209011350 METAR COR EGLL 011350Z 22006KT 160V280 9999 FEW032 22/13
                        Q1025 NOSIG=
201209011320 METAR COR EGLL 011320Z 20006KT 160V260 9999 SCT022 20/14
                        Q1025 NOSIG=
201209011250 METAR COR EGLL 011250Z 20005KT 160V260 9999 SCT021 SCT028
                        19/14 Q1025 NOSIG=
201209011220 METAR COR EGLL 011220Z 23006KT 170V260 9999 SCT023 SCT030
                        19/13 Q1025 NOSIG=
201209011150 METAR COR EGLL 011150Z 23006KT 9999 SCT024 SCT026 19/13 Q1026
                        NOSIG=
201209011120 METAR COR EGLL 011120Z 21006KT 150V270 9999 FEW018 BKN023
                        18/13 Q1026 NOSIG=
201209011050 METAR COR EGLL 011050Z 22005KT 190V290 9999 SCT017 BKN026
                        18/13 Q1026 NOSIG=
201209011020 METAR COR EGLL 011020Z 23006KT 180V280 9999 FEW014 SCT019
                        BKN027 17/12 Q1026 NOSIG=
201209010950 METAR COR EGLL 010950Z 26005KT 200V290 9999 FEW021 BKN027
                        16/12 Q1027 NOSIG=
201209010920 METAR COR EGLL 010920Z 24005KT 190V270 9999 FEW019 BKN024
                        16/12 Q1027 NOSIG=
201209010850 METAR COR EGLL 010850Z 26006KT 220V310 9999 BKN020 15/12
                        Q1027 NOSIG=
201209010820 METAR COR EGLL 010820Z 25007KT 9999 SCT016 BKN022 15/11 Q1027
                        NOSIG=
201209010750 METAR COR EGLL 010750Z 23007KT 9999 BKN016 BKN021 15/11 Q1027
                        NOSIG=
201209010720 METAR COR EGLL 010720Z 25007KT 9999 BKN015 14/10 Q1027 TEMPO
                        BKN014=
201209010650 METAR COR EGLL 010650Z 22007KT 9999 BKN016 14/10 Q1027 TEMPO
                        BKN014=
201209010620 METAR COR EGLL 010620Z 21006KT 180V250 9999 BKN018 14/09
                        Q1027 NOSIG=
201209010550 METAR COR EGLL 010550Z 21006KT 180V260 9999 BKN019 14/09
                        Q1027 NOSIG=
201209010520 METAR COR EGLL 010520Z 20005KT 140V260 9999 BKN019 13/09
                        Q1027 TEMPO BKN014=
201209010450 METAR COR EGLL 010450Z 19004KT 9999 BKN018 14/09 Q1027 TEMPO
                        BKN014=
201209010420 METAR COR EGLL 010420Z 22006KT 190V260 9999 BKN019 14/09
                        Q1027 TEMPO BKN014=
201209010350 METAR COR EGLL 010350Z 18004KT 9999 BKN022 13/09 Q1027 NOSIG=
201209010320 METAR COR EGLL 010320Z 18002KT 9999 BKN024 13/09 Q1027 NOSIG=
201209010250 METAR COR EGLL 010250Z 25004KT 9999 BKN024 14/09 Q1028 NOSIG=
201209010220 METAR COR EGLL 010220Z VRB03KT 9999 SCT024 BKN028 14/09 Q1028
                        NOSIG=
201209010150 METAR COR EGLL 010150Z 27005KT 9999 FEW024 BKN028 13/10 Q1028
                        NOSIG=
201209010120 METAR EGLL 010120Z AUTO 28005KT 9999 BKN037/// BKN046///
                        14/10 Q1028=
201209010050 METAR EGLL 010050Z AUTO 29005KT 9999 BKN046/// 14/09 Q1028=
201209010020 METAR EGLL 010020Z AUTO VRB02KT 9999 FEW046/// 14/09 Q1028=
