##########################################################
# Query made at 01/13/2020 13:58:11 UTC
# Time interval: from 09/01/2018 00:00  to 10/01/2018 23:59  UTC
##########################################################

##########################################################
# EGLL, London / Heathrow Airport (United Kingdom)
# WMO index: 03772
# Latitude 51-29N. Longitude 000-27W. Altitude 24 m.
##########################################################

###################################
#  METAR/SPECI from EGLL
###################################
201810012350 METAR COR EGLL 012350Z AUTO 25011KT 9999 NCD 11/06 Q1023
                        NOSIG=
201810012320 METAR COR EGLL 012320Z AUTO 25010KT 9999 NCD 11/06 Q1024
                        NOSIG=
201810012250 METAR COR EGLL 012250Z AUTO 25011KT 9999 NCD 11/06 Q1024
                        NOSIG=
201810012220 METAR COR EGLL 012220Z AUTO 26011KT 9999 NCD 11/06 Q1024
                        NOSIG=
201810012150 METAR COR EGLL 012150Z AUTO 28009KT 9999 NCD 11/06 Q1025
                        NOSIG=
201810012120 METAR COR EGLL 012120Z AUTO 27015KT 9999 NCD 12/06 Q1025
                        NOSIG=
201810012050 METAR COR EGLL 012050Z AUTO 25011KT 9999 NCD 12/06 Q1025
                        NOSIG=
201810012020 METAR COR EGLL 012020Z AUTO 24009KT 9999 NCD 12/05 Q1025
                        NOSIG=
201810011950 METAR COR EGLL 011950Z AUTO 25009KT 220V290 9999 NCD 13/05
                        Q1025 NOSIG=
201810011920 METAR COR EGLL 011920Z AUTO 24008KT 9999 NCD 13/05 Q1025
                        NOSIG=
201810011850 METAR COR EGLL 011850Z AUTO 25008KT 9999 NCD 13/04 Q1025
                        NOSIG=
201810011820 METAR COR EGLL 011820Z AUTO 27009KT 9999 NCD 13/04 Q1026
                        NOSIG=
201810011750 METAR COR EGLL 011750Z AUTO 30005KT 9999 NCD 13/04 Q1026
                        NOSIG=
201810011720 METAR COR EGLL 011720Z AUTO 30005KT 270V340 9999 NCD 14/03
                        Q1026 NOSIG=
201810011650 METAR COR EGLL 011650Z AUTO 30007KT 9999 NCD 14/02 Q1026
                        NOSIG=
201810011620 METAR COR EGLL 011620Z AUTO 30007KT 9999 NCD 14/02 Q1026
                        NOSIG=
201810011550 METAR COR EGLL 011550Z AUTO 30010KT 270V330 9999 NCD 15/03
                        Q1026 NOSIG=
201810011520 METAR COR EGLL 011520Z AUTO 31007KT 270V350 9999 NCD 15/03
                        Q1026 NOSIG=
201810011450 METAR COR EGLL 011450Z AUTO 33007KT 290V030 9999 NCD 15/02
                        Q1027 NOSIG=
201810011420 METAR COR EGLL 011420Z AUTO 32008KT 290V010 9999 NCD 15/02
                        Q1027 NOSIG=
201810011350 METAR COR EGLL 011350Z AUTO 30011KT 9999 SCT049 14/02 Q1027
                        NOSIG=
201810011320 METAR COR EGLL 011320Z AUTO 32007KT 270V010 9999 NCD 15/02
                        Q1027 NOSIG=
201810011250 METAR COR EGLL 011250Z AUTO 30010KT 9999 FEW047 14/02 Q1027
                        NOSIG=
201810011220 METAR COR EGLL 011220Z AUTO 32009KT 270V010 9999 FEW048 14/02
                        Q1027 NOSIG=
201810011150 METAR COR EGLL 011150Z AUTO 33007KT 290V040 9999 FEW045 13/02
                        Q1027 NOSIG=
201810011120 METAR COR EGLL 011120Z AUTO 31010KT 9999 SCT041 13/03 Q1027
                        NOSIG=
201810011050 METAR COR EGLL 011050Z AUTO 33008KT 270V020 9999 SCT039 13/03
                        Q1028 NOSIG=
201810011020 METAR COR EGLL 011020Z AUTO 33008KT 300V030 9999 NCD 12/03
                        Q1028 NOSIG=
201810010950 METAR COR EGLL 010950Z AUTO 34006KT 310V030 9999 NCD 12/04
                        Q1028 NOSIG=
201810010920 METAR COR EGLL 010920Z AUTO 34005KT 290V040 9999 NCD 11/04
                        Q1027 NOSIG=
201810010850 METAR COR EGLL 010850Z AUTO 36007KT 310V040 9999 NCD 10/04
                        Q1027 NOSIG=
201810010820 METAR COR EGLL 010820Z AUTO 34006KT 300V030 9999 NCD 10/04
                        Q1027 NOSIG=
201810010750 METAR COR EGLL 010750Z AUTO 33005KT 290V030 9999 NCD 09/04
                        Q1027 NOSIG=
201810010720 METAR COR EGLL 010720Z AUTO 33005KT 290V020 9999 NCD 08/04
                        Q1026 NOSIG=
201810010650 METAR COR EGLL 010650Z AUTO 32005KT 280V360 9999 NCD 07/04
                        Q1026 NOSIG=
201810010620 METAR COR EGLL 010620Z AUTO 31005KT 290V350 9999 NCD 07/04
                        Q1025 NOSIG=
201810010550 METAR COR EGLL 010550Z AUTO 32005KT 9999 NCD 07/04 Q1025
                        NOSIG=
201810010520 METAR COR EGLL 010520Z AUTO 32005KT 290V360 9999 NCD 07/05
                        Q1025 NOSIG=
201810010450 METAR COR EGLL 010450Z AUTO 32005KT 9999 NCD 07/05 Q1024
                        NOSIG=
201810010420 METAR COR EGLL 010420Z AUTO 32005KT 300V360 9999 NCD 07/05
                        Q1024 NOSIG=
201810010350 METAR COR EGLL 010350Z AUTO 32005KT 290V350 9999 NCD 07/05
                        Q1023 NOSIG=
201810010320 METAR COR EGLL 010320Z AUTO 32005KT 9999 NCD 08/05 Q1023
                        NOSIG=
201810010250 METAR COR EGLL 010250Z AUTO 31006KT 280V340 9999 NCD 08/05
                        Q1023 NOSIG=
201810010220 METAR COR EGLL 010220Z AUTO 30007KT 9999 NCD 08/05 Q1023
                        NOSIG=
201810010150 METAR COR EGLL 010150Z AUTO 30007KT 9999 NCD 08/05 Q1023
                        NOSIG=
201810010120 METAR COR EGLL 010120Z AUTO 30006KT 9999 NCD 09/05 Q1023
                        NOSIG=
201810010050 METAR COR EGLL 010050Z AUTO 32006KT 290V030 9999 NCD 09/05
                        Q1022 NOSIG=
201810010020 METAR COR EGLL 010020Z AUTO 31010KT 9999 NCD 09/05 Q1022
                        NOSIG=
201809302350 METAR COR EGLL 302350Z AUTO 30008KT 9999 NCD 09/05 Q1022
                        NOSIG=
201809302320 METAR COR EGLL 302320Z AUTO 30007KT 9999 NCD 10/05 Q1022
                        NOSIG=
201809302250 METAR COR EGLL 302250Z AUTO 30007KT 9999 NCD 10/04 Q1022
                        NOSIG=
201809302220 METAR COR EGLL 302220Z AUTO 30007KT 9999 NCD 10/04 Q1021
                        NOSIG=
201809302150 METAR COR EGLL 302150Z AUTO 30007KT 9999 NCD 10/04 Q1021
                        NOSIG=
201809302120 METAR COR EGLL 302120Z AUTO 30008KT 9999 NCD 11/04 Q1021
                        NOSIG=
201809302050 METAR COR EGLL 302050Z AUTO 31005KT 9999 NCD 11/04 Q1021
                        NOSIG=
201809302020 METAR COR EGLL 302020Z AUTO 30007KT 270V330 9999 NCD 12/04
                        Q1021 NOSIG=
201809301950 METAR COR EGLL 301950Z AUTO 31006KT 270V340 9999 NCD 12/04
                        Q1020 NOSIG=
201809301920 METAR COR EGLL 301920Z AUTO 32006KT 9999 NCD 13/04 Q1020
                        NOSIG=
201809301850 METAR COR EGLL 301850Z AUTO 32006KT 280V010 9999 NCD 13/04
                        Q1020 NOSIG=
201809301820 METAR COR EGLL 301820Z AUTO 32007KT 290V360 9999 NCD 13/05
                        Q1020 NOSIG=
201809301750 METAR COR EGLL 301750Z AUTO 31005KT 9999 NCD 13/06 Q1020
                        NOSIG=
201809301720 METAR COR EGLL 301720Z AUTO 31007KT 270V330 9999 NCD 13/06
                        Q1019 NOSIG=
201809301650 METAR COR EGLL 301650Z AUTO 31006KT 290V350 9999 NCD 14/06
                        Q1019 NOSIG=
201809301620 METAR COR EGLL 301620Z AUTO 31007KT 280V020 9999 SCT035 BKN044
                        14/06 Q1019 NOSIG=
201809301550 METAR COR EGLL 301550Z AUTO 30008KT 9999 FEW040 15/07 Q1019
                        NOSIG=
201809301520 METAR COR EGLL 301520Z AUTO 31005KT 270V340 9999 NCD 15/07
                        Q1019 NOSIG=
201809301450 METAR COR EGLL 301450Z AUTO 32006KT 280V360 9999 OVC048 14/07
                        Q1019 NOSIG=
201809301420 METAR COR EGLL 301420Z AUTO 35006KT 310V030 9999 SCT034 BKN041
                        14/08 Q1019 NOSIG=
201809301350 METAR COR EGLL 301350Z AUTO 34005KT 290V030 9999 FEW033 BKN048
                        15/08 Q1019 NOSIG=
201809301320 METAR COR EGLL 301320Z AUTO 32007KT 290V350 9999 SCT033 OVC047
                        15/07 Q1019 NOSIG=
201809301250 METAR COR EGLL 301250Z AUTO 31006KT 9999 FEW032 OVC046 15/08
                        Q1019 NOSIG=
201809301220 METAR COR EGLL 301220Z AUTO 30006KT 270V340 9999 BKN032 OVC048
                        15/07 Q1019 NOSIG=
201809301150 METAR COR EGLL 301150Z AUTO 30006KT 270V330 9999 OVC032 14/07
                        Q1019 NOSIG=
201809301120 METAR COR EGLL 301120Z AUTO 28007KT 240V330 9999 BKN031 14/07
                        Q1019 NOSIG=
201809301050 METAR COR EGLL 301050Z AUTO 31005KT 260V010 9999 SCT029 14/07
                        Q1020 NOSIG=
201809301020 METAR COR EGLL 301020Z AUTO 29007KT 240V340 9999 NCD 14/07
                        Q1020 NOSIG=
201809300950 METAR COR EGLL 300950Z AUTO 28006KT 230V320 9999 SCT035 13/07
                        Q1020 NOSIG=
201809300920 METAR COR EGLL 300920Z AUTO 29005KT 260V320 9999 BKN035 11/08
                        Q1020 NOSIG=
201809300850 METAR COR EGLL 300850Z AUTO 29007KT 9999 BKN035 10/08 Q1020
                        NOSIG=
201809300820 METAR COR EGLL 300820Z AUTO 28005KT 9999 FEW034 09/07 Q1020
                        NOSIG=
201809300750 METAR COR EGLL 300750Z AUTO 28005KT 9999 SCT034 07/06 Q1020
                        NOSIG=
201809300720 METAR COR EGLL 300720Z AUTO 29004KT 9999 BKN033 06/06 Q1020
                        NOSIG=
201809300650 METAR COR EGLL 300650Z AUTO 28005KT 9999 FEW033 05/05 Q1020
                        NOSIG=
201809300620 METAR COR EGLL 300620Z AUTO 29003KT 9000 NCD 04/04 Q1020
                        NOSIG=
201809300550 METAR COR EGLL 300550Z AUTO 29002KT 9999 NCD 05/04 Q1020
                        NOSIG=
201809300520 METAR COR EGLL 300520Z AUTO 28004KT 9999 NCD 05/05 Q1020
                        NOSIG=
201809300450 METAR COR EGLL 300450Z AUTO 27005KT 9999 NCD 05/05 Q1021
                        NOSIG=
201809300420 METAR COR EGLL 300420Z AUTO 27004KT 9999 NCD 05/04 Q1021
                        NOSIG=
201809300350 METAR COR EGLL 300350Z AUTO 29004KT 9999 NCD 06/05 Q1021
                        NOSIG=
201809300320 METAR COR EGLL 300320Z AUTO 28006KT 9999 NCD 07/05 Q1021
                        NOSIG=
201809300250 METAR COR EGLL 300250Z AUTO 29004KT 9999 NCD 06/05 Q1021
                        NOSIG=
201809300220 METAR COR EGLL 300220Z AUTO 26004KT 9999 NCD 06/05 Q1021
                        NOSIG=
201809300150 METAR COR EGLL 300150Z AUTO 29005KT 9999 NCD 07/05 Q1022
                        NOSIG=
201809300120 METAR COR EGLL 300120Z AUTO 29005KT 9999 NCD 06/05 Q1022
                        NOSIG=
201809300050 METAR COR EGLL 300050Z AUTO 29002KT 9999 NCD 06/05 Q1022
                        NOSIG=
201809300020 METAR COR EGLL 300020Z AUTO VRB03KT 9999 NCD 07/06 Q1022
                        NOSIG=
201809292350 METAR COR EGLL 292350Z AUTO 18002KT 9999 NCD 07/06 Q1022
                        NOSIG=
201809292320 METAR COR EGLL 292320Z AUTO 27002KT 9999 NCD 07/06 Q1022
                        NOSIG=
201809292250 METAR COR EGLL 292250Z AUTO 24003KT 9999 NCD 08/06 Q1023
                        NOSIG=
201809292220 METAR COR EGLL 292220Z AUTO VRB02KT 9999 NCD 08/06 Q1023
                        NOSIG=
201809292150 METAR COR EGLL 292150Z AUTO VRB01KT 9999 NCD 10/06 Q1023
                        NOSIG=
201809292120 METAR COR EGLL 292120Z AUTO VRB01KT 9999 NCD 09/06 Q1023
                        NOSIG=
201809292050 METAR COR EGLL 292050Z AUTO 33002KT 9999 NCD 10/06 Q1023
                        NOSIG=
201809292020 METAR COR EGLL 292020Z AUTO 30003KT 9999 NCD 10/06 Q1023
                        NOSIG=
201809291950 METAR COR EGLL 291950Z AUTO VRB01KT 9999 NCD 11/06 Q1024
                        NOSIG=
201809291920 METAR COR EGLL 291920Z AUTO 33001KT 9999 NCD 11/06 Q1024
                        NOSIG=
201809291850 METAR COR EGLL 291850Z AUTO 33003KT 9999 NCD 14/05 Q1024
                        NOSIG=
201809291820 METAR COR EGLL 291820Z AUTO 29002KT 9999 NCD 14/05 Q1024
                        NOSIG=
201809291750 METAR COR EGLL 291750Z AUTO 30004KT 9999 NCD 15/05 Q1024
                        NOSIG=
201809291720 METAR COR EGLL 291720Z AUTO 29005KT 220V350 9999 NCD 15/05
                        Q1024 NOSIG=
201809291650 METAR COR EGLL 291650Z AUTO 26005KT 210V300 9999 NCD 17/05
                        Q1024 NOSIG=
201809291620 METAR COR EGLL 291620Z AUTO VRB03KT 9999 NCD 17/06 Q1024
                        NOSIG=
201809291550 METAR COR EGLL 291550Z AUTO 29004KT 240V330 9999 NCD 17/06
                        Q1025 NOSIG=
201809291520 METAR COR EGLL 291520Z AUTO 25004KT 180V290 9999 NCD 17/06
                        Q1025 NOSIG=
201809291450 METAR COR EGLL 291450Z AUTO 27004KT 200V340 9999 NCD 17/05
                        Q1026 NOSIG=
201809291420 METAR COR EGLL 291420Z AUTO 20004KT 150V260 9999 NCD 17/05
                        Q1026 NOSIG=
201809291350 METAR COR EGLL 291350Z AUTO VRB03KT 9999 NCD 17/06 Q1027
                        NOSIG=
201809291320 METAR COR EGLL 291320Z AUTO VRB03KT 9999 NCD 17/05 Q1027
                        NOSIG=
201809291250 METAR COR EGLL 291250Z AUTO 26004KT 210V310 9999 NCD 17/06
                        Q1027 NOSIG=
201809291220 METAR COR EGLL 291220Z AUTO 20005KT 140V260 9999 NCD 16/06
                        Q1028 NOSIG=
201809291150 METAR COR EGLL 291150Z AUTO 24007KT 210V270 9999 NCD 16/06
                        Q1028 NOSIG=
201809291120 METAR COR EGLL 291120Z AUTO 21005KT 150V280 9999 NCD 15/07
                        Q1029 NOSIG=
201809291050 METAR COR EGLL 291050Z AUTO 22004KT 170V290 9999 NCD 15/07
                        Q1029 NOSIG=
201809291020 METAR COR EGLL 291020Z AUTO VRB02KT 9999 NCD 15/07 Q1030
                        NOSIG=
201809290950 METAR COR EGLL 290950Z AUTO VRB03KT 9999 NCD 14/07 Q1030
                        NOSIG=
201809290920 METAR COR EGLL 290920Z AUTO VRB02KT 9999 NCD 12/07 Q1030
                        NOSIG=
201809290850 METAR COR EGLL 290850Z AUTO VRB02KT 9999 NCD 10/06 Q1030
                        NOSIG=
201809290820 METAR COR EGLL 290820Z AUTO 01003KT 9999 NCD 09/06 Q1031
                        NOSIG=
201809290750 METAR COR EGLL 290750Z AUTO VRB02KT 9999 NCD 07/06 Q1031
                        NOSIG=
201809290720 METAR COR EGLL 290720Z AUTO VRB02KT 9999 NCD 06/05 Q1031
                        NOSIG=
201809290650 METAR COR EGLL 290650Z AUTO 35002KT 9999 NCD 05/04 Q1031
                        NOSIG=
201809290620 METAR COR EGLL 290620Z AUTO 36001KT 9999 NCD 05/04 Q1031
                        NOSIG=
201809290550 METAR COR EGLL 290550Z AUTO VRB02KT 9999 NCD 05/04 Q1031
                        NOSIG=
201809290520 METAR COR EGLL 290520Z AUTO VRB02KT 9999 NCD 04/03 Q1031
                        NOSIG=
201809290450 METAR COR EGLL 290450Z AUTO VRB01KT 9999 NCD 06/04 Q1031
                        NOSIG=
201809290420 METAR COR EGLL 290420Z AUTO 01002KT 9999 NCD 06/04 Q1031
                        NOSIG=
201809290350 METAR COR EGLL 290350Z AUTO 36004KT 9999 NCD 06/04 Q1031
                        NOSIG=
201809290320 METAR COR EGLL 290320Z AUTO 35004KT 9999 NCD 06/05 Q1031
                        NOSIG=
201809290250 METAR COR EGLL 290250Z AUTO 35004KT 9999 NCD 06/05 Q1032
                        NOSIG=
201809290220 METAR COR EGLL 290220Z AUTO VRB03KT 9999 NCD 06/05 Q1032
                        NOSIG=
201809290150 METAR COR EGLL 290150Z AUTO 02003KT 9999 NCD 07/05 Q1032
                        NOSIG=
201809290120 METAR EGLL 290120Z AUTO 01003KT 9999 NCD 07/05 Q1032=
201809290050 METAR COR EGLL 290050Z AUTO 36003KT 9999 NCD 08/05 Q1032
                        NOSIG=
201809290020 METAR COR EGLL 290020Z AUTO 03003KT 9999 NCD 08/05 Q1032
                        NOSIG=
201809282350 METAR COR EGLL 282350Z AUTO 03003KT 9999 NCD 08/05 Q1032
                        NOSIG=
201809282320 METAR COR EGLL 282320Z AUTO 06003KT 9999 NCD 09/04 Q1033
                        NOSIG=
201809282250 METAR COR EGLL 282250Z AUTO 04002KT 9999 NCD 09/04 Q1033
                        NOSIG=
201809282220 METAR COR EGLL 282220Z AUTO 05004KT 9999 NCD 10/04 Q1033
                        NOSIG=
201809282150 METAR COR EGLL 282150Z AUTO 05004KT 9999 NCD 10/04 Q1033
                        NOSIG=
201809282120 METAR COR EGLL 282120Z AUTO 04004KT 9999 NCD 10/04 Q1033
                        NOSIG=
201809282050 METAR COR EGLL 282050Z AUTO 05005KT 9999 NCD 11/04 Q1033
                        NOSIG=
201809282020 METAR COR EGLL 282020Z AUTO 04006KT 9999 NCD 11/04 Q1033
                        NOSIG=
201809281950 METAR COR EGLL 281950Z AUTO 04006KT 360V070 9999 NCD 12/04
                        Q1032 NOSIG=
201809281920 METAR COR EGLL 281920Z AUTO 03004KT 350V060 9999 NCD 12/04
                        Q1032 NOSIG=
201809281850 METAR COR EGLL 281850Z AUTO 04006KT 010V070 9999 NCD 13/03
                        Q1032 NOSIG=
201809281820 METAR COR EGLL 281820Z AUTO 04006KT 010V070 9999 NCD 13/03
                        Q1032 NOSIG=
201809281750 METAR COR EGLL 281750Z AUTO 04006KT 010V070 9999 NCD 14/03
                        Q1031 NOSIG=
201809281720 METAR COR EGLL 281720Z AUTO 04007KT 360V070 9999 NCD 15/02
                        Q1031 NOSIG=
201809281650 METAR COR EGLL 281650Z AUTO 04008KT 360V070 9999 NCD 16/02
                        Q1031 NOSIG=
201809281620 METAR COR EGLL 281620Z AUTO 05008KT 010V070 9999 NCD 16/03
                        Q1031 NOSIG=
201809281550 METAR COR EGLL 281550Z AUTO 36007KT 9999 NCD 16/03 Q1031
                        NOSIG=
201809281520 METAR COR EGLL 281520Z AUTO 04008KT 360V060 9999 NCD 17/03
                        Q1031 NOSIG=
201809281450 METAR COR EGLL 281450Z AUTO 04009KT 020V080 9999 NCD 16/03
                        Q1031 NOSIG=
201809281420 METAR COR EGLL 281420Z AUTO 04008KT 9999 NCD 16/02 Q1031
                        NOSIG=
201809281350 METAR COR EGLL 281350Z AUTO 03007KT 350V070 9999 NCD 17/03
                        Q1031 NOSIG=
201809281320 METAR COR EGLL 281320Z AUTO 05009KT 9999 BKN049 16/04 Q1031
                        NOSIG=
201809281250 METAR COR EGLL 281250Z AUTO 04008KT 010V080 9999 SCT049 17/04
                        Q1031 NOSIG=
201809281220 METAR COR EGLL 281220Z AUTO 04009KT 330V080 9999 SCT043 16/05
                        Q1031 NOSIG=
201809281150 METAR COR EGLL 281150Z AUTO 03009KT 340V060 9999 SCT039 16/05
                        Q1031 NOSIG=
201809281120 METAR COR EGLL 281120Z AUTO 04010KT 010V070 9999 SCT037 15/06
                        Q1031 NOSIG=
201809281050 METAR COR EGLL 281050Z AUTO 03010KT 360V060 9999 FEW036 15/06
                        Q1031 NOSIG=
201809281020 METAR COR EGLL 281020Z AUTO 04009KT 360V070 9999 FEW035 15/07
                        Q1031 NOSIG=
201809280950 METAR COR EGLL 280950Z AUTO 05009KT 010V080 9999 NCD 15/06
                        Q1031 NOSIG=
201809280920 METAR COR EGLL 280920Z AUTO 06012KT 9999 NCD 14/07 Q1031
                        NOSIG=
201809280850 METAR COR EGLL 280850Z AUTO 03007KT 340V080 9999 NCD 13/08
                        Q1031 NOSIG=
201809280820 METAR COR EGLL 280820Z AUTO 03008KT 340V060 9999 BKN044 12/08
                        Q1030 NOSIG=
201809280750 METAR COR EGLL 280750Z AUTO 04009KT 360V070 9999 BKN040 13/09
                        Q1030 NOSIG=
201809280720 METAR COR EGLL 280720Z AUTO 04007KT 9999 BKN043 12/09 Q1029
                        NOSIG=
201809280650 METAR COR EGLL 280650Z AUTO 04007KT 360V080 9999 SCT016 BKN039
                        12/09 Q1029 NOSIG=
201809280620 METAR COR EGLL 280620Z AUTO 04008KT 360V060 9999 BKN013 OVC045
                        12/10 Q1028 TEMPO BKN015=
201809280550 METAR COR EGLL 280550Z AUTO 02007KT 330V050 9999 BKN015 OVC047
                        12/09 Q1028 TEMPO BKN014=
201809280520 METAR COR EGLL 280520Z AUTO 02005KT 340V060 9999 BKN016 OVC022
                        13/10 Q1027 TEMPO BKN014=
201809280450 METAR COR EGLL 280450Z AUTO 02006KT 330V050 9999 BKN015 OVC043
                        13/10 Q1027 TEMPO BKN014=
201809280420 METAR COR EGLL 280420Z AUTO 03007KT 340V060 9999 BKN015 BKN020
                        OVC040 13/10 Q1027 TEMPO BNK014=
201809280350 METAR COR EGLL 280350Z AUTO 03006KT 350V060 9999 BKN014 OVC019
                        13/11 Q1026 TEMPO BKN016=
201809280320 METAR COR EGLL 280320Z AUTO 02004KT 340V060 9999 BKN014 OVC039
                        14/11 Q1026 TEMPO BKN016=
201809280250 METAR COR EGLL 280250Z AUTO 01004KT 340V060 9999 BKN013 OVC032
                        13/10 Q1026 NOSIG=
201809280220 METAR COR EGLL 280220Z AUTO VRB03KT 9999 SCT013 SCT025 OVC030
                        13/10 Q1026 TEMPO BKN013=
201809280150 METAR COR EGLL 280150Z AUTO VRB03KT 9999 SCT014 BKN020 OVC030
                        12/09 Q1026 BECMG BKN014=
201809280120 METAR COR EGLL 280120Z AUTO VRB03KT 9999 FEW018 BKN029 12/09
                        Q1026 TEMPO BKN014=
201809280050 METAR COR EGLL 280050Z AUTO VRB02KT 9999 FEW020 SCT030 13/08
                        Q1026 TEMPO BKN014=
201809280020 METAR COR EGLL 280020Z AUTO VRB03KT 9999 NCD 13/08 Q1026
                        NOSIG=
201809272350 METAR COR EGLL 272350Z AUTO VRB03KT 9999 NCD 12/07 Q1026
                        NOSIG=
201809272320 METAR COR EGLL 272320Z AUTO VRB03KT 9999 NCD 14/07 Q1025
                        NOSIG=
201809272250 METAR COR EGLL 272250Z AUTO 02004KT 300V060 9999 NCD 14/07
                        Q1025 NOSIG=
201809272220 METAR COR EGLL 272220Z AUTO 01005KT 340V050 9999 NCD 14/07
                        Q1025 NOSIG=
201809272150 METAR COR EGLL 272150Z AUTO 36005KT 320V030 9999 NCD 14/06
                        Q1025 NOSIG=
201809272120 METAR COR EGLL 272120Z AUTO 32004KT 9999 NCD 14/05 Q1024
                        NOSIG=
201809272050 METAR COR EGLL 272050Z AUTO 30004KT 9999 NCD 15/06 Q1024
                        NOSIG=
201809272020 METAR COR EGLL 272020Z AUTO 30002KT 9999 NCD 15/06 Q1024
                        NOSIG=
201809271950 METAR COR EGLL 271950Z AUTO 28004KT 9999 NCD 15/06 Q1024
                        NOSIG=
201809271920 METAR COR EGLL 271920Z AUTO 28004KT 9999 NCD 16/06 Q1024
                        NOSIG=
201809271850 METAR COR EGLL 271850Z AUTO 30003KT 9999 NCD 18/05 Q1024
                        NOSIG=
201809271820 METAR COR EGLL 271820Z AUTO 28002KT 9999 NCD 18/05 Q1023
                        NOSIG=
201809271750 METAR COR EGLL 271750Z AUTO 31004KT 270V330 9999 NCD 19/05
                        Q1023 NOSIG=
201809271720 METAR COR EGLL 271720Z AUTO 27008KT 9999 NCD 19/05 Q1023
                        NOSIG=
201809271650 METAR COR EGLL 271650Z AUTO 27008KT 9999 NCD 21/05 Q1023
                        NOSIG=
201809271620 METAR COR EGLL 271620Z AUTO 27009KT 9999 NCD 22/04 Q1023
                        NOSIG=
201809271550 METAR COR EGLL 271550Z AUTO 27009KT 9999 NCD 22/06 Q1023
                        NOSIG=
201809271520 METAR COR EGLL 271520Z AUTO 26008KT 9999 NCD 22/05 Q1024
                        NOSIG=
201809271450 METAR COR EGLL 271450Z AUTO 25008KT 210V290 9999 NCD 22/04
                        Q1024 NOSIG=
201809271420 METAR COR EGLL 271420Z AUTO 26009KT 230V300 9999 NCD 22/04
                        Q1024 NOSIG=
201809271350 METAR COR EGLL 271350Z AUTO 27009KT 9999 NCD 22/04 Q1024
                        NOSIG=
201809271320 METAR COR EGLL 271320Z AUTO 25008KT 9999 NCD 22/05 Q1024
                        NOSIG=
201809271250 METAR COR EGLL 271250Z AUTO 25009KT 210V270 9999 NCD 21/07
                        Q1025 NOSIG=
201809271220 METAR COR EGLL 271220Z AUTO 23008KT 190V260 9999 NCD 21/08
                        Q1025 NOSIG=
201809271150 METAR COR EGLL 271150Z AUTO 25009KT 220V290 9999 NCD 20/09
                        Q1026 NOSIG=
201809271120 METAR COR EGLL 271120Z AUTO 23007KT 190V250 9999 NCD 20/09
                        Q1026 NOSIG=
201809271050 METAR COR EGLL 271050Z AUTO 24006KT 190V310 9999 NCD 19/09
                        Q1026 NOSIG=
201809271020 METAR COR EGLL 271020Z AUTO 23006KT 190V260 9999 NCD 17/10
                        Q1027 NOSIG=
201809270950 METAR COR EGLL 270950Z AUTO 24006KT 200V280 9999 NCD 17/10
                        Q1027 NOSIG=
201809270920 METAR COR EGLL 270920Z AUTO 23006KT 200V270 9999 NCD 15/10
                        Q1028 NOSIG=
201809270850 METAR COR EGLL 270850Z 23006KT 200V270 CAVOK 14/10 Q1028
                        NOSIG=
201809270820 METAR COR EGLL 270820Z AUTO VRB02KT 9999 NCD 13/09 Q1028
                        NOSIG=
201809270750 METAR COR EGLL 270750Z VRB02KT CAVOK 11/10 Q1028 NOSIG=
201809270720 METAR COR EGLL 270720Z VRB02KT CAVOK 10/10 Q1028 NOSIG=
201809270650 METAR COR EGLL 270650Z AUTO VRB02KT 5000 BR NCD 09/08 Q1028
                        NOSIG=
201809270620 METAR COR EGLL 270620Z AUTO VRB03KT 5000 HZ NCD 09/08 Q1028
                        TEMPO 4000 BR=
201809270550 METAR COR EGLL 270550Z VRB03KT 8000 R27L/1200 NSC 09/08 Q1028
                        TEMPO 4000 BR=
201809270520 METAR COR EGLL 270520Z AUTO VRB02KT 8000 NCD 10/09 Q1028
                        TEMPO 4000 BR=
201809270450 METAR COR EGLL 270450Z AUTO 19005KT 9999 NCD 09/09 Q1029
                        TEMPO 7000=
201809270420 METAR COR EGLL 270420Z AUTO VRB02KT 8000 NCD 10/09 Q1029
                        TEMPO 4000 BR=
201809270350 METAR COR EGLL 270350Z AUTO 22004KT 7000 NCD 10/09 Q1029
                        TEMPO 4000 BR=
201809270320 METAR COR EGLL 270320Z AUTO 20003KT 9999 NCD 11/10 Q1029
                        TEMPO 7000=
201809270250 METAR COR EGLL 270250Z AUTO 22003KT 9999 BKN034 11/10 Q1030
                        TEMPO 7000=
201809270220 METAR COR EGLL 270220Z AUTO 21003KT 7000 BKN035 11/10 Q1030
                        NOSIG=
201809270150 METAR COR EGLL 270150Z AUTO 20002KT 9999 BKN035 11/10 Q1030
                        TEMPO 7000=
201809270120 METAR COR EGLL 270120Z AUTO 21002KT 9000 SCT038 11/10 Q1030
                        TEMPO 7000=
201809270050 METAR COR EGLL 270050Z AUTO 21004KT 9999 NCD 12/10 Q1030
                        NOSIG=
201809270020 METAR COR EGLL 270020Z AUTO 20004KT 9999 NCD 12/11 Q1031
                        NOSIG=
201809262350 METAR COR EGLL 262350Z AUTO 21004KT 9999 NCD 13/11 Q1031
                        NOSIG=
201809262320 METAR COR EGLL 262320Z AUTO 21005KT 9999 NCD 13/11 Q1031
                        NOSIG=
201809262250 METAR COR EGLL 262250Z AUTO 22005KT 9999 NCD 13/11 Q1031
                        NOSIG=
201809262220 METAR COR EGLL 262220Z AUTO 22005KT 9999 NCD 13/10 Q1031
                        NOSIG=
201809262150 METAR COR EGLL 262150Z AUTO 22005KT 9999 NCD 14/09 Q1032
                        NOSIG=
201809262120 METAR COR EGLL 262120Z AUTO 22005KT 9999 BKN045 14/09 Q1032
                        NOSIG=
201809262050 METAR COR EGLL 262050Z AUTO 22005KT 9999 NCD 15/09 Q1032
                        NOSIG=
201809262020 METAR COR EGLL 262020Z AUTO 21006KT 9999 NCD 15/07 Q1031
                        NOSIG=
201809261950 METAR COR EGLL 261950Z AUTO 23006KT 190V260 9999 NCD 16/06
                        Q1031 NOSIG=
201809261920 METAR COR EGLL 261920Z AUTO 24006KT 9999 NCD 16/06 Q1031
                        NOSIG=
201809261850 METAR COR EGLL 261850Z AUTO 24006KT 200V260 9999 NCD 17/06
                        Q1031 NOSIG=
201809261820 METAR COR EGLL 261820Z AUTO 23006KT 9999 NCD 17/06 Q1031
                        NOSIG=
201809261750 METAR COR EGLL 261750Z AUTO 23007KT 9999 NCD 19/05 Q1031
                        NOSIG=
201809261720 METAR COR EGLL 261720Z AUTO 22006KT 9999 NCD 20/05 Q1031
                        NOSIG=
201809261650 METAR COR EGLL 261650Z AUTO 24006KT 9999 NCD 21/04 Q1031
                        NOSIG=
201809261620 METAR COR EGLL 261620Z AUTO 25006KT 9999 NCD 22/03 Q1031
                        NOSIG=
201809261550 METAR COR EGLL 261550Z AUTO 22005KT 180V250 9999 NCD 22/03
                        Q1031 NOSIG=
201809261520 METAR COR EGLL 261520Z AUTO 23007KT 190V260 9999 NCD 22/03
                        Q1031 NOSIG=
201809261450 METAR COR EGLL 261450Z AUTO 25006KT 200V280 9999 NCD 22/03
                        Q1032 NOSIG=
201809261420 METAR COR EGLL 261420Z 26006KT 220V280 CAVOK 22/04 Q1032
                        NOSIG=
201809261350 METAR COR EGLL 261350Z AUTO 27007KT 220V300 9999 NCD 21/04
                        Q1032 NOSIG=
201809261320 METAR COR EGLL 261320Z AUTO 27008KT 230V300 9999 NCD 21/03
                        Q1032 NOSIG=
201809261250 METAR COR EGLL 261250Z AUTO 26008KT 220V300 9999 NCD 21/04
                        Q1032 NOSIG=
201809261220 METAR COR EGLL 261220Z AUTO 25007KT 170V340 9999 NCD 20/05
                        Q1033 NOSIG=
201809261150 METAR COR EGLL 261150Z AUTO 24008KT 210V280 9999 NCD 19/06
                        Q1033 NOSIG=
201809261120 METAR COR EGLL 261120Z AUTO 24008KT 200V280 9999 NCD 19/07
                        Q1033 NOSIG=
201809261050 METAR COR EGLL 261050Z AUTO 25008KT 220V290 9999 NCD 18/08
                        Q1033 NOSIG=
201809261020 METAR COR EGLL 261020Z AUTO 25009KT 220V280 9999 NCD 17/09
                        Q1033 NOSIG=
201809260950 METAR COR EGLL 260950Z AUTO 25008KT 210V280 9999 NCD 16/09
                        Q1034 NOSIG=
201809260920 METAR COR EGLL 260920Z AUTO 27008KT 9999 NCD 14/09 Q1034
                        NOSIG=
201809260850 METAR COR EGLL 260850Z AUTO 27006KT 230V290 9999 NCD 13/09
                        Q1034 NOSIG=
201809260820 METAR COR EGLL 260820Z AUTO 23005KT 200V270 9999 NCD 11/08
                        Q1033 NOSIG=
201809260750 METAR COR EGLL 260750Z AUTO 20004KT 170V240 9999 NCD 10/08
                        Q1033 NOSIG=
201809260720 METAR EGLL 260720Z AUTO VRB01KT 9999 NCD 08/07 Q1033=
201809260650 METAR COR EGLL 260650Z AUTO 21004KT 180V240 9999 NCD 07/06
                        Q1033 NOSIG=
201809260620 METAR COR EGLL 260620Z AUTO 34001KT 9999 NCD 06/05 Q1033
                        NOSIG=
201809260550 METAR COR EGLL 260550Z AUTO VRB02KT 9999 NCD 06/05 Q1033
                        NOSIG=
201809260520 METAR EGLL 260520Z AUTO 22004KT 190V260 9999 NCD 06/05 Q1033=
201809260450 METAR COR EGLL 260450Z AUTO 24004KT 9999 NCD 07/05 Q1033
                        NOSIG=
201809260420 METAR COR EGLL 260420Z AUTO 22004KT 9999 NCD 07/06 Q1033
                        NOSIG=
201809260350 METAR COR EGLL 260350Z AUTO 21003KT 9999 NCD 07/06 Q1033
                        NOSIG=
201809260320 METAR COR EGLL 260320Z AUTO 26002KT 9999 NCD 07/05 Q1034
                        NOSIG=
201809260250 METAR COR EGLL 260250Z AUTO 25003KT 9999 NCD 06/05 Q1034
                        NOSIG=
201809260220 METAR COR EGLL 260220Z AUTO 19002KT 9999 NCD 07/06 Q1034
                        NOSIG=
201809260150 METAR COR EGLL 260150Z AUTO 19003KT 9999 NCD 08/06 Q1034
                        NOSIG=
201809260120 METAR COR EGLL 260120Z AUTO 18003KT 9999 NCD 08/06 Q1034
                        NOSIG=
201809260050 METAR COR EGLL 260050Z AUTO 19002KT 9999 NCD 08/06 Q1035
                        NOSIG=
201809260020 METAR COR EGLL 260020Z AUTO VRB02KT 9999 NCD 08/06 Q1035
                        NOSIG=
201809252350 METAR COR EGLL 252350Z AUTO VRB01KT 9999 NCD 08/06 Q1035
                        NOSIG=
201809252320 METAR COR EGLL 252320Z AUTO 17004KT 9999 NCD 09/06 Q1035
                        NOSIG=
201809252250 METAR COR EGLL 252250Z AUTO 18004KT 9999 NCD 09/06 Q1035
                        NOSIG=
201809252220 METAR COR EGLL 252220Z AUTO 18004KT 9999 NCD 10/06 Q1035
                        NOSIG=
201809252150 METAR COR EGLL 252150Z AUTO 22004KT 9999 NCD 10/06 Q1036
                        NOSIG=
201809252120 METAR COR EGLL 252120Z AUTO 22006KT 190V250 9999 NCD 11/05
                        Q1036 NOSIG=
201809252050 METAR COR EGLL 252050Z AUTO 22007KT 9999 NCD 11/06 Q1036
                        NOSIG=
201809252020 METAR COR EGLL 252020Z AUTO 19006KT 160V230 9999 NCD 12/05
                        Q1036 NOSIG=
201809251950 METAR COR EGLL 251950Z AUTO 20007KT 160V230 9999 NCD 12/05
                        Q1036 NOSIG=
201809251920 METAR EGLL 251920Z AUTO 19007KT 170V230 9999 NCD 13/05 Q1036=
201809251850 METAR COR EGLL 251850Z AUTO 20009KT 140V240 9999 NCD 13/04
                        Q1036 NOSIG=
201809251820 METAR COR EGLL 251820Z AUTO 18008KT 9999 NCD 14/04 Q1036
                        NOSIG=
201809251750 METAR COR EGLL 251750Z AUTO 18009KT 160V220 9999 NCD 14/05
                        Q1036 NOSIG=
201809251720 METAR COR EGLL 251720Z AUTO 20009KT 9999 NCD 15/05 Q1036
                        NOSIG=
201809251650 METAR COR EGLL 251650Z AUTO 20009KT 9999 NCD 16/05 Q1036
                        NOSIG=
201809251620 METAR COR EGLL 251620Z AUTO 19008KT 9999 NCD 16/05 Q1036
                        NOSIG=
201809251550 METAR COR EGLL 251550Z AUTO 19010KT 110V240 9999 NCD 17/05
                        Q1036 NOSIG=
201809251520 METAR COR EGLL 251520Z AUTO 19010G21KT 150V230 9999 NCD 17/05
                        Q1036 NOSIG=
201809251450 METAR COR EGLL 251450Z AUTO 21009KT 160V240 9999 NCD 17/05
                        Q1036 NOSIG=
201809251420 METAR COR EGLL 251420Z AUTO 19010KT 160V230 9999 NCD 17/05
                        Q1036 NOSIG=
201809251350 METAR COR EGLL 251350Z AUTO 21009KT 160V250 9999 NCD 17/05
                        Q1037 NOSIG=
201809251320 METAR COR EGLL 251320Z AUTO 21010KT 180V250 9999 FEW048 17/04
                        Q1037 NOSIG=
201809251250 METAR COR EGLL 251250Z AUTO 22010KT 180V250 9999 FEW045 17/05
                        Q1038 NOSIG=
201809251220 METAR COR EGLL 251220Z AUTO 19007KT 140V250 9999 FEW041 17/06
                        Q1038 NOSIG=
201809251150 METAR COR EGLL 251150Z AUTO 23007KT 160V310 9999 FEW039 16/06
                        Q1038 NOSIG=
201809251120 METAR COR EGLL 251120Z AUTO 20006G16KT 140V260 9999 SCT040
                        16/06 Q1039 NOSIG=
201809251050 METAR COR EGLL 251050Z AUTO VRB06KT 9999 BKN041 15/05 Q1039
                        NOSIG=
201809251020 METAR COR EGLL 251020Z AUTO 18004KT 120V240 9999 SCT041 15/05
                        Q1039 NOSIG=
201809250950 METAR COR EGLL 250950Z AUTO VRB03KT 9999 NCD 14/03 Q1039=
201809250920 METAR COR EGLL 250920Z AUTO VRB01KT 9999 NCD 13/05 Q1039
                        NOSIG=
201809250850 METAR COR EGLL 250850Z AUTO VRB01KT 9999 NCD 11/06 Q1039
                        NOSIG=
201809250820 METAR COR EGLL 250820Z AUTO VRB01KT 9999 R27R/1000 NCD 10/05
                        Q1039 NOSIG=
201809250750 METAR COR EGLL 250750Z AUTO VRB01KT 9999 R27R/1000 NCD 07/05
                        Q1039 NOSIG=
201809250720 METAR COR EGLL 250720Z AUTO VRB01KT 9999 NCD 05/04 Q1039
                        NOSIG=
201809250650 METAR COR EGLL 250650Z AUTO 36002KT 9999 NCD 04/03 Q1039
                        NOSIG=
201809250620 METAR COR EGLL 250620Z AUTO VRB01KT 9999 NCD 04/03 Q1038
                        NOSIG=
201809250550 METAR COR EGLL 250550Z AUTO 30001KT 9999 NCD 04/03 Q1038
                        NOSIG=
201809250520 METAR COR EGLL 250520Z AUTO 30001KT 9999 NCD 03/03 Q1038
                        NOSIG=
201809250450 METAR COR EGLL 250450Z AUTO VRB01KT 9999 NCD 04/03 Q1039
                        NOSIG=
201809250420 METAR COR EGLL 250420Z AUTO 30002KT 9999 NCD 04/03 Q1039
                        NOSIG=
201809250350 METAR COR EGLL 250350Z AUTO 32001KT 9999 NCD 04/03 Q1039
                        NOSIG=
201809250320 METAR COR EGLL 250320Z AUTO 29002KT 9999 NCD 04/03 Q1039
                        NOSIG=
201809250250 METAR COR EGLL 250250Z AUTO VRB01KT 9999 NCD 05/03 Q1039
                        NOSIG=
201809250220 METAR COR EGLL 250220Z AUTO VRB01KT 9999 NCD 05/03 Q1039
                        NOSIG=
201809250150 METAR COR EGLL 250150Z AUTO 32001KT 9999 NCD 05/04 Q1039
                        NOSIG=
201809250120 METAR COR EGLL 250120Z AUTO 01001KT 9999 NCD 05/03 Q1039
                        NOSIG=
201809250050 METAR COR EGLL 250050Z AUTO 34002KT 9999 NCD 05/04 Q1039
                        NOSIG=
201809250020 METAR COR EGLL 250020Z AUTO 32002KT 9999 NCD 05/04 Q1039
                        NOSIG=
201809242350 METAR COR EGLL 242350Z AUTO 36001KT 9999 NCD 07/04 Q1039
                        NOSIG=
201809242320 METAR COR EGLL 242320Z AUTO 34003KT 9999 NCD 07/04 Q1039
                        NOSIG=
201809242250 METAR COR EGLL 242250Z AUTO 00000KT 9999 NCD 07/04 Q1039
                        NOSIG=
201809242220 METAR COR EGLL 242220Z AUTO 36001KT 9999 NCD 08/04 Q1039
                        NOSIG=
201809242150 METAR COR EGLL 242150Z AUTO 06001KT 9999 NCD 07/04 Q1039
                        NOSIG=
201809242120 METAR COR EGLL 242120Z AUTO 03003KT 9999 NCD 08/04 Q1039
                        NOSIG=
201809242050 METAR COR EGLL 242050Z AUTO VRB02KT 9999 NCD 08/03 Q1039
                        NOSIG=
201809242020 METAR COR EGLL 242020Z AUTO 03002KT 9999 NCD 11/03 Q1038
                        NOSIG=
201809241950 METAR COR EGLL 241950Z AUTO 01002KT 9999 NCD 11/02 Q1038
                        NOSIG=
201809241920 METAR COR EGLL 241920Z AUTO 33002KT 9999 NCD 11/02 Q1038
                        NOSIG=
201809241850 METAR COR EGLL 241850Z AUTO VRB02KT 9999 NCD 12/01 Q1038
                        NOSIG=
201809241820 METAR COR EGLL 241820Z AUTO VRB02KT 9999 NCD 13/01 Q1038
                        NOSIG=
201809241750 METAR COR EGLL 241750Z AUTO VRB03KT 9999 NCD 14/M01 Q1038
                        NOSIG=
201809241720 METAR COR EGLL 241720Z AUTO 36005KT 320V030 9999 NCD 15/M01
                        Q1037 NOSIG=
201809241650 METAR COR EGLL 241650Z AUTO 36005KT 330V040 9999 NCD 15/01
                        Q1037 NOSIG=
201809241620 METAR COR EGLL 241620Z AUTO 02006KT 330V050 9999 NCD 15/01
                        Q1037 NOSIG=
201809241550 METAR COR EGLL 241550Z AUTO 36005KT 300V060 9999 NCD 16/01
                        Q1037 NOSIG=
201809241520 METAR COR EGLL 241520Z AUTO 34005KT 290V040 9999 NCD 16/01
                        Q1037 NOSIG=
201809241450 METAR COR EGLL 241450Z AUTO VRB04KT 9999 NCD 16/01 Q1038
                        NOSIG=
201809241420 METAR COR EGLL 241420Z AUTO 01006KT 320V040 9999 NCD 16/02
                        Q1038 NOSIG=
201809241350 METAR COR EGLL 241350Z AUTO 33005KT 280V030 9999 NCD 15/02
                        Q1038 NOSIG=
201809241320 METAR COR EGLL 241320Z AUTO 36006KT 310V040 9999 NCD 15/02
                        Q1038 NOSIG=
201809241250 METAR COR EGLL 241250Z AUTO 32006KT 280V360 9999 NCD 15/03
                        Q1038 NOSIG=
201809241220 METAR COR EGLL 241220Z AUTO 34005KT 300V030 9999 NCD 14/03
                        Q1038 NOSIG=
201809241150 METAR COR EGLL 241150Z AUTO 32006KT 280V010 9999 NCD 14/03
                        Q1038 NOSIG=
201809241120 METAR COR EGLL 241120Z AUTO 33006KT 290V030 9999 NCD 14/04
                        Q1038 NOSIG=
201809241050 METAR COR EGLL 241050Z AUTO 31007KT 270V340 9999 NCD 13/04
                        Q1038 NOSIG=
201809241020 METAR COR EGLL 241020Z AUTO 32007KT 300V010 9999 NCD 13/04
                        Q1038 NOSIG=
201809240950 METAR COR EGLL 240950Z AUTO 32006KT 280V010 9999 NCD 12/05
                        Q1038 NOSIG=
201809240920 METAR COR EGLL 240920Z AUTO 32006KT 270V020 9999 NCD 12/06
                        Q1038 NOSIG=
201809240850 METAR COR EGLL 240850Z AUTO 33004KT 290V020 9999 NCD 10/06
                        Q1038 NOSIG=
201809240820 METAR COR EGLL 240820Z AUTO 29005KT 9999 NCD 09/06 Q1037
                        NOSIG=
201809240750 METAR COR EGLL 240750Z AUTO 28005KT 250V310 9999 NCD 08/06
                        Q1037 NOSIG=
201809240720 METAR COR EGLL 240720Z AUTO VRB03KT 9999 NCD 08/06 Q1037
                        NOSIG=
201809240650 METAR COR EGLL 240650Z AUTO 30004KT 9999 NCD 07/05 Q1036
                        NOSIG=
201809240620 METAR COR EGLL 240620Z AUTO 29003KT 9999 NCD 06/05 Q1036
                        NOSIG=
201809240550 METAR COR EGLL 240550Z AUTO 29004KT 9999 NCD 05/04 Q1036
                        NOSIG=
201809240520 METAR COR EGLL 240520Z AUTO 27006KT 9999 NCD 05/05 Q1036
                        NOSIG=
201809240450 METAR COR EGLL 240450Z AUTO 27004KT 210V280 9999 NCD 05/04
                        Q1035 NOSIG=
201809240420 METAR COR EGLL 240420Z AUTO 28005KT 9999 NCD 06/05 Q1035
                        NOSIG=
201809240350 METAR COR EGLL 240350Z AUTO 27005KT 9999 NCD 05/04 Q1035
                        NOSIG=
201809240320 METAR COR EGLL 240320Z AUTO 26005KT 9999 NCD 05/04 Q1035
                        NOSIG=
201809240250 METAR COR EGLL 240250Z AUTO 29003KT 9999 NCD 06/05 Q1034
                        NOSIG=
201809240220 METAR COR EGLL 240220Z AUTO 30003KT 9999 NCD 06/05 Q1034
                        NOSIG=
201809240150 METAR COR EGLL 240150Z AUTO 29004KT 9999 NCD 06/05 Q1034
                        NOSIG=
201809240120 METAR COR EGLL 240120Z AUTO 28005KT 9999 NCD 07/05 Q1034
                        NOSIG=
201809240050 METAR COR EGLL 240050Z AUTO 29005KT 9999 NCD 07/05 Q1033
                        NOSIG=
201809240020 METAR COR EGLL 240020Z AUTO 29006KT 9999 NCD 07/05 Q1033
                        NOSIG=
201809232350 METAR COR EGLL 232350Z AUTO 29004KT 9999 NCD 08/05 Q1032
                        NOSIG=
201809232320 METAR COR EGLL 232320Z AUTO 29005KT 9999 NCD 07/05 Q1032
                        NOSIG=
201809232250 METAR COR EGLL 232250Z AUTO 28006KT 9999 NCD 07/05 Q1031
                        NOSIG=
201809232220 METAR COR EGLL 232220Z AUTO 29005KT 9999 NCD 07/05 Q1031
                        NOSIG=
201809232150 METAR COR EGLL 232150Z AUTO 28005KT 9999 NCD 08/05 Q1030
                        NOSIG=
201809232120 METAR COR EGLL 232120Z AUTO 31003KT 9999 NCD 09/06 Q1030
                        NOSIG=
201809232050 METAR COR EGLL 232050Z AUTO 36006KT 310V030 9999 FEW038 10/06
                        Q1029 NOSIG=
201809232020 METAR COR EGLL 232020Z AUTO 32004KT 290V360 9999 SCT038///
                        SCT044/// //////TCU 10/06 Q1029 NOSIG=
201809231950 METAR COR EGLL 231950Z AUTO 32004KT 290V010 9999 NCD 10/06
                        Q1028 NOSIG=
201809231920 METAR COR EGLL 231920Z AUTO VRB03KT 9999 NCD 11/06 Q1027
                        NOSIG=
201809231850 METAR COR EGLL 231850Z AUTO 31005KT 9999 NCD 11/05 Q1026
                        NOSIG=
201809231820 METAR COR EGLL 231820Z AUTO 31007KT 9999 NCD 11/04 Q1026
                        NOSIG=
201809231750 METAR COR EGLL 231750Z AUTO 31005KT 9999 NCD 12/03 Q1025
                        NOSIG=
201809231720 METAR COR EGLL 231720Z AUTO 33004KT 300V020 9999 NCD 13/03
                        Q1024 NOSIG=
201809231650 METAR COR EGLL 231650Z AUTO 35007KT 290V050 9999 NCD 14/02
                        Q1023 NOSIG=
201809231620 METAR COR EGLL 231620Z AUTO 33008KT 280V020 9999 NCD 14/03
                        Q1023 NOSIG=
201809231550 METAR COR EGLL 231550Z AUTO 31012KT 9999 NCD 13/03 Q1022
                        NOSIG=
201809231520 METAR COR EGLL 231520Z AUTO 32012G23KT 9999 NCD 13/03 Q1022
                        NOSIG=
201809231450 METAR COR EGLL 231450Z AUTO 31009KT 260V350 9999 FEW044 14/04
                        Q1021 NOSIG=
201809231420 METAR COR EGLL 231420Z AUTO 31009KT 280V340 9999 FEW039 SCT046
                        13/06 Q1021 NOSIG=
201809231350 METAR COR EGLL 231350Z AUTO 31011KT 280V010 9999 SCT037 13/06
                        Q1020 NOSIG=
201809231320 METAR COR EGLL 231320Z AUTO 31012KT 9999 FEW032 12/07 Q1020
                        NOSIG=
201809231250 METAR COR EGLL 231250Z AUTO 31007KT 9999 NCD 11/07 Q1019
                        NOSIG=
201809231220 METAR COR EGLL 231220Z AUTO 32007KT 9999 FEW046 10/07 Q1019
                        NOSIG=
201809231150 METAR COR EGLL 231150Z AUTO 32004KT 260V360 9999 -RA BKN045
                        09/07 Q1019 NOSIG=
201809231120 METAR COR EGLL 231120Z AUTO 34006KT 310V030 9999 -RA FEW045
                        09/07 Q1018 NOSIG=
201809231050 METAR COR EGLL 231050Z AUTO 36007KT 320V030 9999 -RA FEW037
                        09/07 Q1017 NOSIG=
201809231020 METAR COR EGLL 231020Z 36010KT 300V040 9999 -RA FEW017 SCT046
                        09/07 Q1017 NOSIG=
201809230950 METAR COR EGLL 230950Z 36009KT 9999 -RA BKN010 BKN016 OVC042
                        09/08 Q1016 TEMPO 4000 RA=
201809230920 METAR COR EGLL 230920Z AUTO 35006KT 300V030 9999 -RA BKN010///
                        BKN018/// BKN028/// //////TCU 10/09
                        Q1016 TEMPO 4000 RA=
201809230850 METAR COR EGLL 230850Z AUTO 34004KT 310V020 6000 -RA FEW019///
                        BKN024/// BKN030/// //////CB 09/09
                        Q1016 TEMPO 4000 RA BKN014=
201809230820 METAR COR EGLL 230820Z AUTO 35006KT 290V030 6000 -RA SCT010///
                        BKN017/// BKN026/// //////CB 09/08
                        Q1015 RERA TEMPO 3000 +RA BKN012=
201809230750 METAR COR EGLL 230750Z AUTO 36006KT 6000 -RA SCT006/// BKN010///
                        BKN022/// //////CB 09/09 Q1014 TEMPO
                        4000 RA=
201809230720 METAR COR EGLL 230720Z AUTO 01004KT 330V040 6000 -RA SCT005///
                        BKN010/// OVC031/// //////TCU 09/09
                        Q1013 RERA TEMPO 3500 RA BKN006=
201809230650 METAR COR EGLL 230650Z AUTO 04005KT 360V070 3500 RA BKN006///
                        BKN014/// OVC022/// //////TCU 09/09
                        Q1013 REDZ NOSIG=
201809230620 METAR COR EGLL 230620Z AUTO 04006KT 2800 -RADZ FEW005 BKN009
                        BKN012 09/08 Q1013 REDZ TEMPO RADZ=
201809230550 METAR COR EGLL 230550Z AUTO 05007KT 020V080 2500 -RADZ SCT005
                        BKN009 OVC019 09/09 Q1013 TEMPO RA=
201809230520 METAR COR EGLL 230520Z AUTO 04006KT 2200 -RADZ BKN006 BKN011
                        OVC022 09/09 Q1014 REDZ TEMPO RA=
201809230450 METAR COR EGLL 230450Z AUTO 04007KT 3500 -RADZ BKN008 OVC018
                        10/09 Q1014 TEMPO 9999 NSW=
201809230420 METAR COR EGLL 230420Z AUTO 04008KT 3600 HZ SCT008 BKN012
                        OVC024 10/09 Q1014 TEMPO 9999 NSW=
201809230350 METAR COR EGLL 230350Z AUTO 04005KT 360V060 3800 HZ BKN016
                        OVC021 10/09 Q1013 TEMPO 9999 NSW=
201809230320 METAR COR EGLL 230320Z AUTO 04006KT 350V070 9999 OVC015 11/09
                        Q1013 NOSIG=
201809230250 METAR COR EGLL 230250Z AUTO 04004KT 360V070 9999 OVC015 11/09
                        Q1014 NOSIG=
201809230220 METAR COR EGLL 230220Z AUTO 04005KT 9999 SCT006 OVC016 10/10
                        Q1014 TEMPO BKN006=
201809230150 METAR COR EGLL 230150Z AUTO 04006KT 5000 BR BKN005 OVC014
                        10/10 Q1014 NOSIG=
201809230120 METAR COR EGLL 230120Z AUTO 04006KT 360V070 3200 BR BKN005
                        OVC012 11/10 Q1014 BECMG 9999 NSW=
201809230050 METAR COR EGLL 230050Z AUTO 04006KT 010V080 9999 OVC007 11/10
                        Q1014 NOSIG=
201809230020 METAR COR EGLL 230020Z AUTO 04006KT 010V080 9999 BKN005 OVC008
                        11/10 Q1014 NOSIG=
201809222350 METAR COR EGLL 222350Z 04005KT 010V080 5000 -DZ FEW003 BKN006
                        11/10 Q1014 NOSIG=
201809222320 METAR COR EGLL 222320Z 04005KT 010V070 5000 -DZ FEW004 OVC006
                        11/10 Q1014 NOSIG=
201809222250 METAR COR EGLL 222250Z AUTO 05006KT 7000 BKN005 OVC009 11/10
                        Q1013 NOSIG=
201809222220 METAR COR EGLL 222220Z AUTO 05005KT 8000 BKN005 OVC011 11/10
                        Q1013 NOSIG=
201809222150 METAR COR EGLL 222150Z AUTO 07005KT 7000 BKN005 OVC008 11/10
                        Q1013 NOSIG=
201809222120 METAR COR EGLL 222120Z AUTO 06006KT 9000 OVC006 11/10 Q1014
                        NOSIG=
201809222050 METAR COR EGLL 222050Z AUTO 06006KT 9999 SCT005 OVC009 11/10
                        Q1014 TEMPO 4000 RADZ BKN006=
201809222020 METAR COR EGLL 222020Z AUTO 06007KT 8000 SCT006 BKN009 11/10
                        Q1014 TEMPO 4000 RADZ BKN006=
201809221950 METAR COR EGLL 221950Z AUTO 06006KT 9999 BKN007 BKN014 11/10
                        Q1014 TEMPO 4000 RADZ BKN004=
201809221920 METAR COR EGLL 221920Z AUTO 07007KT 6000 -RA SCT008 BKN017
                        BKN030 11/10 Q1014 TEMPO 4000 RADZ
                        BKN008=
201809221850 METAR COR EGLL 221850Z AUTO 08008KT 4700 -RADZ SCT006 BKN009
                        BKN018 11/10 Q1015 TEMPO RADZ BKN006=
201809221820 METAR COR EGLL 221820Z AUTO 09007KT 7000 -RA SCT006 SCT018
                        OVC030 11/10 Q1015 TEMPO 5000 RADZ
                        BKN006=
201809221750 METAR COR EGLL 221750Z AUTO 08007KT 5000 -RADZ SCT006 BKN020
                        BKN026 10/10 Q1015 TEMPO BKN005=
201809221720 METAR COR EGLL 221720Z AUTO 09006KT 7000 -RA FEW008 SCT021
                        BKN032 10/10 Q1015 TEMPO RA BKN008=
201809221650 METAR COR EGLL 221650Z AUTO 10007KT 5000 -RADZ SCT006///
                        SCT011/// BKN019/// //////TCU 11/10
                        Q1015 TEMPO BKN005=
201809221620 METAR COR EGLL 221620Z AUTO 11006KT 5000 -RADZ FEW007 SCT013
                        BKN023 11/10 Q1016 NOSIG=
201809221550 METAR COR EGLL 221550Z AUTO 10008KT 080V150 5000 -RA SCT007
                        BKN012 BKN019 11/10 Q1016 TEMPO BKN008=
201809221520 METAR COR EGLL 221520Z AUTO 10006KT 6000 -RA SCT013 BKN024
                        BKN040 11/10 Q1017 NOSIG=
201809221450 METAR COR EGLL 221450Z AUTO 12005KT 9999 -RA FEW014 BKN040
                        11/09 Q1017 TEMPO RA BKN014=
201809221420 METAR COR EGLL 221420Z AUTO 13004KT 090V170 9999 -RA FEW028
                        SCT038 BKN047 12/09 Q1018 TEMPO RA=
201809221350 METAR COR EGLL 221350Z AUTO 14005KT 110V180 9999 -RA FEW016///
                        SCT045/// //////TCU 12/09 Q1018 TEMPO
                        RA=
201809221320 METAR COR EGLL 221320Z AUTO 22004KT 170V250 9999 -RA FEW019
                        SCT029 BKN038 12/09 Q1018 NOSIG=
201809221250 METAR COR EGLL 221250Z AUTO VRB03KT 9999 -RA FEW024 SCT030
                        BKN036 12/09 Q1019 NOSIG=
201809221220 METAR COR EGLL 221220Z AUTO 27004KT 200V310 9999 -RA SCT033
                        OVC039 12/10 Q1019 NOSIG=
201809221150 METAR COR EGLL 221150Z AUTO 28006KT 9999 -RA BKN038/// //////TCU
                        12/10 Q1020 NOSIG=
201809221120 METAR COR EGLL 221120Z AUTO 28006KT 9999 -RA OVC042/// //////TCU
                        12/10 Q1020 NOSIG=
201809221050 METAR COR EGLL 221050Z AUTO 27010KT 9999 -RA OVC041 12/09
                        Q1020 NOSIG=
201809221020 METAR COR EGLL 221020Z AUTO 27010KT 9999 -RA BKN032/// BKN046///
                        //////TCU 12/10 Q1020 NOSIG=
201809220950 METAR COR EGLL 220950Z AUTO 25008KT 9999 -RA SCT039 BKN046
                        13/10 Q1020 NOSIG=
201809220920 METAR COR EGLL 220920Z AUTO 24007KT 9999 -RA FEW036 13/09
                        Q1020 NOSIG=
201809220850 METAR COR EGLL 220850Z AUTO 24009KT 9999 -RA NCD 13/09 Q1020
                        NOSIG=
201809220820 METAR COR EGLL 220820Z AUTO 25008KT 9999 NCD 12/09 Q1019
                        NOSIG=
201809220750 METAR COR EGLL 220750Z AUTO 23009KT 9999 NCD 12/09 Q1019
                        NOSIG=
201809220720 METAR COR EGLL 220720Z AUTO 24009KT 9999 NCD 11/09 Q1019
                        NOSIG=
201809220650 METAR COR EGLL 220650Z AUTO 24009KT 9999 NCD 11/09 Q1019
                        NOSIG=
201809220620 METAR COR EGLL 220620Z AUTO 26007KT 230V300 9999 -RA FEW040
                        11/09 Q1019 NOSIG=
201809220550 METAR COR EGLL 220550Z AUTO 24008KT 9999 NCD 11/09 Q1019
                        NOSIG=
201809220520 METAR COR EGLL 220520Z AUTO 24007KT 9999 NCD 11/09 Q1019
                        NOSIG=
201809220450 METAR COR EGLL 220450Z AUTO 24007KT 9999 NCD 11/09 Q1019
                        NOSIG=
201809220420 METAR COR EGLL 220420Z AUTO 24007KT 9999 NCD 11/08 Q1019
                        NOSIG=
201809220350 METAR COR EGLL 220350Z AUTO 24008KT 9999 NCD 12/09 Q1019
                        NOSIG=
201809220320 METAR COR EGLL 220320Z AUTO 24007KT 9999 NCD 12/09 Q1019
                        NOSIG=
201809220250 METAR COR EGLL 220250Z AUTO 24009KT 9999 -RA NCD 12/09 Q1019
                        NOSIG=
201809220220 METAR COR EGLL 220220Z AUTO 24008KT 9999 NCD 11/08 Q1019
                        NOSIG=
201809220150 METAR COR EGLL 220150Z AUTO 23007KT 9999 NCD 11/08 Q1019
                        NOSIG=
201809220120 METAR COR EGLL 220120Z AUTO 23008KT 9999 NCD 11/08 Q1019
                        NOSIG=
201809220050 METAR COR EGLL 220050Z AUTO 24008KT 9999 NCD 11/08 Q1019
                        NOSIG=
201809220020 METAR COR EGLL 220020Z AUTO 24009KT 9999 NCD 11/08 Q1019
                        NOSIG=
201809212350 METAR COR EGLL 212350Z AUTO 24008KT 9999 NCD 11/08 Q1018
                        NOSIG=
201809212320 METAR COR EGLL 212320Z AUTO 24009KT 9999 NCD 11/08 Q1019
                        NOSIG=
201809212250 METAR COR EGLL 212250Z AUTO 24009KT 9999 NCD 12/08 Q1018
                        NOSIG=
201809212220 METAR COR EGLL 212220Z AUTO 24012KT 9999 NCD 12/08 Q1018
                        NOSIG=
201809212150 METAR COR EGLL 212150Z AUTO 25012KT 9999 NCD 12/08 Q1018
                        NOSIG=
201809212120 METAR COR EGLL 212120Z AUTO 25012KT 9999 NCD 12/08 Q1017
                        NOSIG=
201809212050 METAR COR EGLL 212050Z AUTO 25012KT 9999 NCD 12/08 Q1017
                        NOSIG=
201809212020 METAR COR EGLL 212020Z AUTO 25012KT 9999 NCD 13/08 Q1017
                        NOSIG=
201809211950 METAR COR EGLL 211950Z AUTO 25013KT 9999 NCD 13/07 Q1016
                        NOSIG=
201809211920 METAR COR EGLL 211920Z AUTO 25013KT 9999 NCD 13/07 Q1016
                        NOSIG=
201809211850 METAR COR EGLL 211850Z AUTO 25013KT 9999 NCD 14/06 Q1015
                        NOSIG=
201809211820 METAR COR EGLL 211820Z AUTO 26013KT 9999 NCD 14/06 Q1015
                        NOSIG=
201809211750 METAR COR EGLL 211750Z AUTO 26017KT 9999 NCD 15/06 Q1014
                        NOSIG=
201809211720 METAR COR EGLL 211720Z AUTO 27017KT 9999 NCD 15/06 Q1013
                        NOSIG=
201809211650 METAR COR EGLL 211650Z AUTO 27018KT 9999 FEW049 16/06 Q1012
                        NOSIG=
201809211620 METAR COR EGLL 211620Z AUTO 26022KT 9999 SCT045 16/07 Q1012
                        NOSIG=
201809211550 METAR COR EGLL 211550Z AUTO 26022KT 9999 NCD 16/08 Q1012
                        NOSIG=
201809211520 METAR COR EGLL 211520Z AUTO 26024KT 9999 NCD 16/08 Q1011
                        NOSIG=
201809211450 METAR COR EGLL 211450Z AUTO 26023KT 9999 SCT041 16/07 Q1011
                        NOSIG=
201809211420 METAR COR EGLL 211420Z AUTO 26024KT 9999 FEW040 16/08 Q1011
                        NOSIG=
201809211350 METAR COR EGLL 211350Z AUTO 25027G39KT 9999 NCD 15/08 Q1010
                        NOSIG=
201809211320 METAR COR EGLL 211320Z AUTO 25021KT 9999 FEW044/// //////TCU
                        14/09 Q1011 NOSIG=
201809211250 METAR COR EGLL 211250Z AUTO 26025G35KT 9999 -RA FEW037///
                        SCT049/// //////CB 13/09 Q1010 TEMPO
                        SHRA=
201809211220 METAR COR EGLL 211220Z AUTO 25013KT 9999 -RA FEW018/// SCT042///
                        //////CB 13/10 Q1010 TEMPO SHRA=
201809211150 METAR COR EGLL 211150Z AUTO 25022G34KT 9999 FEW045/// //////CB
                        16/05 Q1009 TEMPO SHRA=
201809211120 METAR COR EGLL 211120Z AUTO 25023G33KT 9999 BKN041 16/06
                        Q1009 NOSIG=
201809211050 METAR COR EGLL 211050Z AUTO 25018G29KT 9999 FEW047 15/06
                        Q1009 NOSIG=
201809211020 METAR COR EGLL 211020Z AUTO 26021KT 9999 SCT037 BKN048 14/06
                        Q1009 NOSIG=
201809210950 METAR COR EGLL 210950Z AUTO 26020KT 9999 BKN034 14/06 Q1009
                        NOSIG=
201809210920 METAR COR EGLL 210920Z AUTO 26016KT 9999 SCT034 13/06 Q1008
                        NOSIG=
201809210850 METAR COR EGLL 210850Z AUTO 26017KT 9999 NCD 13/06 Q1008
                        NOSIG=
201809210820 METAR COR EGLL 210820Z AUTO 26015KT 9999 NCD 12/05 Q1007
                        NOSIG=
201809210750 METAR COR EGLL 210750Z AUTO 26017KT 9999 NCD 11/06 Q1007
                        NOSIG=
201809210720 METAR COR EGLL 210720Z AUTO 26015KT 9999 NCD 11/06 Q1006
                        NOSIG=
201809210650 METAR COR EGLL 210650Z AUTO 26015KT 9999 NCD 10/07 Q1006
                        NOSIG=
201809210620 METAR COR EGLL 210620Z AUTO 27015KT 9999 NCD 10/06 Q1005
                        NOSIG=
201809210550 METAR COR EGLL 210550Z AUTO 27015KT 9999 SCT027 11/07 Q1004
                        NOSIG=
201809210520 METAR COR EGLL 210520Z AUTO 28014G24KT 9999 SCT027 BKN032
                        BKN039 12/07 Q1003 NOSIG=
201809210450 METAR COR EGLL 210450Z AUTO 27016KT 9999 SCT027 SCT033 BKN040
                        12/08 Q1003 NOSIG=
201809210420 METAR COR EGLL 210420Z AUTO 26018KT 9999 SCT043 12/09 Q1002
                        NOSIG=
201809210350 METAR COR EGLL 210350Z AUTO 26017KT 9999 FEW032 12/09 Q1001
                        NOSIG=
201809210320 METAR COR EGLL 210320Z AUTO 25017KT 9999 FEW030 13/09 Q1000
                        NOSIG=
201809210250 METAR COR EGLL 210250Z AUTO 24016KT 9999 FEW034 13/10 Q1000
                        NOSIG=
201809210220 METAR COR EGLL 210220Z AUTO 25016KT 9999 NCD 14/11 Q0999
                        NOSIG=
201809210150 METAR COR EGLL 210150Z AUTO 25020KT 9999 FEW030 15/12 Q0998
                        NOSIG=
201809210120 METAR COR EGLL 210120Z AUTO 25026G37KT 9999 -RA SCT014///
                        BKN024/// BKN039/// //////CB 15/13
                        Q0998 RERA NOSIG=
201809210050 METAR COR EGLL 210050Z AUTO 22020KT 190V260 3000 +RA SCT012///
                        BKN019/// BKN026/// //////CB 17/16
                        Q0997 BECMG 9999 NSW=
201809210020 METAR COR EGLL 210020Z AUTO 21022G32KT 7000 -RA SCT019///
                        BKN029/// //////CB 18/16 Q0997 TEMPO
                        RA=
201809202350 METAR COR EGLL 202350Z AUTO 20022KT 9999 -RA BKN023/// BKN036///
                        BKN045/// //////TCU 18/16 Q0998 TEMPO
                        7000 RA=
201809202320 METAR COR EGLL 202320Z AUTO 20021G31KT 9999 -RA SCT019 BKN023
                        BKN029 18/16 Q0998 TEMPO 7000 RA=
201809202250 METAR COR EGLL 202250Z AUTO 20019KT 9999 -RA SCT020/// BKN027///
                        //////TCU 18/16 Q0999 TEMPO 7000
                        RA=
201809202220 METAR COR EGLL 202220Z AUTO 21021G32KT 9999 -RA BKN026///
                        BKN035/// //////TCU 19/16 Q1000 TEMPO
                        6000 RA=
201809202150 METAR COR EGLL 202150Z AUTO 21017KT 180V240 9999 -RA BKN028
                        BKN039 19/15 Q1001 TEMPO 7000 RA=
201809202120 METAR COR EGLL 202120Z AUTO 20018G28KT 9999 -RA BKN026 BKN036
                        19/16 Q1002 TEMPO 7000 RA BKN014=
201809202050 METAR COR EGLL 202050Z AUTO 20017KT 180V240 9999 BKN023 BKN029
                        BKN035 19/16 Q1003 TEMPO 7000 RA
                        BKN014=
201809202020 METAR COR EGLL 202020Z AUTO 21016KT 9999 SCT026 BKN045 19/16
                        Q1003 NOSIG=
201809201950 METAR COR EGLL 201950Z AUTO 22017KT 9999 -RA BKN023 BKN030
                        18/16 Q1004 TEMPO SHRA=
201809201920 METAR COR EGLL 201920Z AUTO 21017KT 9999 SCT027 BKN037 20/15
                        Q1004 TEMPO SHRA=
201809201850 METAR COR EGLL 201850Z AUTO 21016KT 190V250 9999 SCT029 BKN048
                        20/14 Q1005 TEMPO SHRA=
201809201820 METAR COR EGLL 201820Z AUTO 21015KT 9999 SCT030 20/14 Q1005
                        NOSIG=
201809201750 METAR COR EGLL 201750Z AUTO 22018G29KT 9999 BKN032 BKN043
                        20/14 Q1006 NOSIG=
201809201720 METAR COR EGLL 201720Z AUTO 22018G28KT 9999 SCT034 20/14
                        Q1006 NOSIG=
201809201650 METAR COR EGLL 201650Z AUTO 22018KT 9999 SCT032 BKN048 20/14
                        Q1007 NOSIG=
201809201620 METAR COR EGLL 201620Z AUTO 22021G32KT 9999 BKN031 BKN039
                        20/14 Q1007 NOSIG=
201809201550 METAR COR EGLL 201550Z AUTO 22020G33KT 9999 SCT031 BKN038
                        21/14 Q1008 NOSIG=
201809201520 METAR COR EGLL 201520Z AUTO 22019KT 190V250 9999 BKN032 21/14
                        Q1008 NOSIG=
201809201450 METAR COR EGLL 201450Z AUTO 22019KT 9999 BKN032 BKN044 21/14
                        Q1008 NOSIG=
201809201420 METAR COR EGLL 201420Z AUTO 22019KT 9999 BKN031 BKN039 20/14
                        Q1009 NOSIG=
201809201350 METAR COR EGLL 201350Z AUTO 22020KT 9999 BKN030 21/14 Q1010
                        NOSIG=
201809201320 METAR COR EGLL 201320Z AUTO 21018KT 9999 BKN028 BKN038 21/14
                        Q1010 NOSIG=
201809201250 METAR COR EGLL 201250Z AUTO 21016G27KT 9999 BKN024 OVC030
                        19/14 Q1010 NOSIG=
201809201220 METAR COR EGLL 201220Z AUTO 21017KT 9999 BKN024 OVC028 19/14
                        Q1010 NOSIG=
201809201150 METAR COR EGLL 201150Z AUTO 21017KT 9999 SCT026 BKN031 OVC038
                        20/15 Q1011 NOSIG=
201809201120 METAR COR EGLL 201120Z AUTO 21016KT 9999 SCT020 BKN028 20/15
                        Q1011 NOSIG=
201809201050 METAR COR EGLL 201050Z AUTO 21012KT 9999 SCT018 BKN023 19/16
                        Q1011 NOSIG=
201809201020 METAR COR EGLL 201020Z AUTO 21011KT 9999 SCT014/// BKN022///
                        BKN026/// //////TCU 18/16 Q1012 TEMPO
                        BKN014=
201809200950 METAR COR EGLL 200950Z 21011KT 8000 -RA BKN015 BKN019 OVC030
                        18/16 Q1012 TEMPO BKN014=
201809200920 METAR COR EGLL 200920Z AUTO 21013KT 9999 -RA BKN016/// OVC023///
                        //////TCU 19/15 Q1012 NOSIG=
201809200850 METAR COR EGLL 200850Z AUTO 22013KT 9999 -RA BKN018/// //////TCU
                        19/15 Q1012 NOSIG=
201809200820 METAR COR EGLL 200820Z AUTO 22014KT 9999 BKN020 19/15 Q1012
                        NOSIG=
201809200750 METAR COR EGLL 200750Z AUTO 22013KT 9999 BKN022 18/15 Q1012
                        NOSIG=
201809200720 METAR COR EGLL 200720Z AUTO 22012KT 9999 FEW022 BKN027 18/15
                        Q1012 NOSIG=
201809200650 METAR COR EGLL 200650Z AUTO 22011KT 9999 FEW023 18/15 Q1012
                        NOSIG=
201809200620 METAR COR EGLL 200620Z AUTO 20012KT 180V240 9999 NCD 18/15
                        Q1012 NOSIG=
201809200550 METAR COR EGLL 200550Z AUTO 21010KT 9999 SCT020 SCT028 BKN049
                        17/15 Q1012 NOSIG=
201809200520 METAR COR EGLL 200520Z AUTO 21010KT 8000 -RA FEW021 SCT029
                        BKN042 17/15 Q1012 TEMPO BKN012=
201809200450 METAR COR EGLL 200450Z AUTO 22012KT 5000 -RA SCT017 BKN022
                        BKN028 17/15 Q1012 TEMPO BKN014=
201809200420 METAR COR EGLL 200420Z AUTO 21013KT 9999 BKN020 BKN030 BKN043
                        18/15 Q1012 TEMPO BKN014=
201809200350 METAR COR EGLL 200350Z AUTO 21014KT 9999 BKN019 BKN026 BKN031
                        18/15 Q1012 NOSIG=
201809200320 METAR COR EGLL 200320Z AUTO 20012KT 9999 SCT020 BKN027 18/15
                        Q1012 NOSIG=
201809200250 METAR COR EGLL 200250Z AUTO 20012KT 9999 OVC018 18/15 Q1013
                        TEMPO BKN012=
201809200220 METAR COR EGLL 200220Z AUTO 21012KT 9999 FEW020 BKN024 BKN030
                        18/15 Q1013 TEMPO BKN012=
201809200150 METAR COR EGLL 200150Z AUTO 21012KT 9999 FEW018 BKN025 BKN045
                        17/15 Q1013 TEMPO BKN012=
201809200120 METAR COR EGLL 200120Z AUTO 21010KT 7000 BKN023 BKN034 OVC042
                        18/15 Q1013 TEMPO 4500 -RADZ BKN012=
201809200050 METAR COR EGLL 200050Z AUTO 22009KT 9999 FEW016 BKN020 BKN026
                        17/16 Q1013 TEMPO 4500 -RADZ BKN012=
201809200020 METAR COR EGLL 200020Z AUTO 21009KT 8000 -RA SCT017 OVC026
                        17/16 Q1013 TEMPO BKN012=
201809192350 METAR COR EGLL 192350Z AUTO 22006KT 9999 -RA FEW020 SCT024
                        OVC034 16/15 Q1014 TEMPO BKN012=
201809192320 METAR COR EGLL 192320Z AUTO 23006KT 9999 -RA SCT016 BKN024
                        BKN030 16/15 Q1014 TEMPO BKN012=
201809192250 METAR COR EGLL 192250Z AUTO 24008KT 9999 BKN017 OVC030 16/15
                        Q1014 TEMPO BKN012=
201809192220 METAR COR EGLL 192220Z AUTO 25010KT 9999 BKN018 16/14 Q1014
                        TEMPO BKN012=
201809192150 METAR COR EGLL 192150Z AUTO 25012KT 8000 -RA FEW016 OVC020
                        16/14 Q1014 TEMPO 4500 BKN012=
201809192120 METAR COR EGLL 192120Z AUTO 26012KT 9000 -RA SCT016 BKN021
                        16/14 Q1014 TEMPO 4500 -RADZ BKN012=
201809192050 METAR COR EGLL 192050Z AUTO 27012KT 9000 -RA FEW015 BKN020
                        BKN024 16/15 Q1014 NOSIG=
201809192020 METAR COR EGLL 192020Z AUTO 23014KT 210V270 9999 BKN021 BKN030
                        18/14 Q1014 NOSIG=
201809191950 METAR COR EGLL 191950Z AUTO 23017KT 9999 BKN025 OVC029 19/14
                        Q1014 NOSIG=
201809191920 METAR COR EGLL 191920Z AUTO 23016KT 9999 BKN024 19/14 Q1014
                        NOSIG=
201809191850 METAR COR EGLL 191850Z AUTO 23016G27KT 9999 BKN026 BKN030
                        19/14 Q1013 NOSIG=
201809191820 METAR COR EGLL 191820Z AUTO 22018KT 9999 BKN027 19/14 Q1013
                        NOSIG=
201809191750 METAR COR EGLL 191750Z AUTO 22017KT 9999 BKN025 BKN032 20/14
                        Q1013 NOSIG=
201809191720 METAR COR EGLL 191720Z AUTO 22019KT 9999 BKN026 20/14 Q1013
                        NOSIG=
201809191650 METAR COR EGLL 191650Z AUTO 22017KT 190V250 9999 BKN028 BKN039
                        20/14 Q1013 NOSIG=
201809191620 METAR COR EGLL 191620Z AUTO 22016G28KT 9999 BKN031 OVC042
                        21/14 Q1012 NOSIG=
201809191550 METAR COR EGLL 191550Z AUTO 22018KT 9999 BKN036 OVC043 21/13
                        Q1012 NOSIG=
201809191520 METAR COR EGLL 191520Z AUTO 22018KT 9999 BKN036 21/13 Q1012
                        NOSIG=
201809191450 METAR COR EGLL 191450Z AUTO 22019KT 9999 BKN034 BKN046 22/13
                        Q1012 NOSIG=
201809191420 METAR COR EGLL 191420Z AUTO 22021KT 9999 BKN034 BKN046 22/13
                        Q1012 NOSIG=
201809191350 METAR COR EGLL 191350Z AUTO 21020G37KT 9999 BKN032 23/13
                        Q1012 NOSIG=
201809191320 METAR COR EGLL 191320Z AUTO 22022G32KT 9999 SCT033 SCT039
                        23/14 Q1011 NOSIG=
201809191250 METAR COR EGLL 191250Z AUTO 22023G35KT 9999 SCT031 BKN049
                        23/14 Q1011 NOSIG=
201809191220 METAR COR EGLL 191220Z AUTO 22021KT 9999 FEW025 SCT029 BKN035
                        22/15 Q1012 NOSIG=
201809191150 METAR COR EGLL 191150Z AUTO 22022G35KT 9999 SCT026 BKN032
                        BKN042 22/15 Q1012 NOSIG=
201809191120 METAR COR EGLL 191120Z AUTO 22021KT 9999 SCT028 SCT033 BKN039
                        22/15 Q1011 NOSIG=
201809191050 METAR COR EGLL 191050Z AUTO 22020KT 9999 FEW025 22/15 Q1011
                        NOSIG=
201809191020 METAR COR EGLL 191020Z AUTO 21019KT 9999 FEW026 22/16 Q1012
                        NOSIG=
201809190950 METAR COR EGLL 190950Z AUTO 21015KT 9999 -RA SCT024 SCT034
                        BKN044 19/16 Q1012 NOSIG=
201809190920 METAR COR EGLL 190920Z AUTO 22012KT 9999 FEW021 SCT026 BKN036
                        19/16 Q1012 NOSIG=
201809190850 METAR COR EGLL 190850Z AUTO 21014G26KT 9999 -RA SCT022 SCT028
                        BKN033 19/16 Q1012 NOSIG=
201809190820 METAR COR EGLL 190820Z AUTO 21013KT 160V230 9999 SCT020 BKN024
                        BKN029 18/16 Q1012 NOSIG=
201809190750 METAR COR EGLL 190750Z AUTO 22013KT 9999 FEW025 SCT033 18/16
                        Q1012 NOSIG=
201809190720 METAR COR EGLL 190720Z AUTO 21012KT 9999 FEW019 SCT033 18/16
                        Q1011 NOSIG=
201809190650 METAR COR EGLL 190650Z AUTO 21010KT 9999 -RA SCT020 BKN024
                        BKN033 18/16 Q1012 NOSIG=
201809190620 METAR COR EGLL 190620Z AUTO 21009KT 9999 SCT020 BKN025 BKN031
                        17/16 Q1012 NOSIG=
201809190550 METAR COR EGLL 190550Z AUTO 21010KT 180V250 9999 SCT020 SCT032
                        17/16 Q1011 NOSIG=
201809190520 METAR COR EGLL 190520Z AUTO 20007KT 180V250 9999 SCT020 BKN026
                        BKN039 17/16 Q1012 TEMPO BKN012=
201809190450 METAR COR EGLL 190450Z AUTO 21007KT 9999 SCT022 SCT031 BKN047
                        17/16 Q1012 NOSIG=
201809190420 METAR COR EGLL 190420Z AUTO 22009KT 9999 -RA SCT016 BKN021
                        BKN030 17/16 Q1011 TEMPO BKN012=
201809190350 METAR COR EGLL 190350Z AUTO 21009KT 7000 -RA BKN015 OVC041
                        17/16 Q1012 TEMPO BKN012=
201809190320 METAR COR EGLL 190320Z AUTO 21012KT 6000 -RA BKN020 BKN028
                        BKN040 18/15 Q1012 TEMPO BKN012=
201809190250 METAR COR EGLL 190250Z AUTO 21010KT 9999 FEW026 BKN039 18/15
                        Q1012 TEMPO BKN014=
201809190220 METAR COR EGLL 190220Z AUTO 21010KT 9999 SCT022 BKN028 BKN039
                        18/14 Q1012 TEMPO BKN014=
201809190150 METAR COR EGLL 190150Z AUTO 21010KT 9999 FEW024 SCT049 18/14
                        Q1012 TEMPO BKN014=
201809190120 METAR COR EGLL 190120Z AUTO 20009KT 9999 NCD 18/14 Q1012
                        NOSIG=
201809190050 METAR COR EGLL 190050Z AUTO 20009KT 9999 FEW025 18/14 Q1012
                        NOSIG=
201809190020 METAR COR EGLL 190020Z AUTO 20009KT 9999 NCD 18/14 Q1012
                        NOSIG=
201809182350 METAR EGLL 182350Z AUTO 22008KT 9999 NCD 18/14 Q1013=
201809182320 METAR COR EGLL 182320Z AUTO 21008KT 9999 NCD 18/14 Q1012
                        NOSIG=
201809182250 METAR COR EGLL 182250Z AUTO 21010KT 9999 NCD 18/14 Q1012
                        NOSIG=
201809182220 METAR COR EGLL 182220Z AUTO 21009KT 9999 NCD 18/14 Q1012
                        NOSIG=
201809182150 METAR COR EGLL 182150Z AUTO 21011KT 9999 NCD 18/15 Q1012
                        NOSIG=
201809182120 METAR COR EGLL 182120Z AUTO 21012KT 180V250 9999 NCD 18/15
                        Q1012 NOSIG=
201809182050 METAR COR EGLL 182050Z AUTO 21012KT 180V250 9999 FEW024 18/14
                        Q1012 NOSIG=
201809182020 METAR COR EGLL 182020Z AUTO 22012KT 9999 NCD 18/14 Q1012
                        NOSIG=
201809181950 METAR COR EGLL 181950Z AUTO 21011KT 9999 NCD 19/14 Q1012
                        NOSIG=
201809181920 METAR COR EGLL 181920Z AUTO 21012KT 9999 BKN043 BKN049 19/14
                        Q1012 NOSIG=
201809181850 METAR COR EGLL 181850Z AUTO 22014KT 9999 OVC043 19/14 Q1012
                        NOSIG=
201809181820 METAR COR EGLL 181820Z AUTO 21012KT 9999 SCT023 SCT044 19/14
                        Q1012 NOSIG=
201809181750 METAR COR EGLL 181750Z AUTO 22012KT 9999 FEW028 19/14 Q1012
                        NOSIG=
201809181720 METAR COR EGLL 181720Z AUTO 22013KT 9999 NCD 20/14 Q1011
                        NOSIG=
201809181650 METAR COR EGLL 181650Z AUTO 22017KT 9999 FEW028 21/14 Q1011
                        NOSIG=
201809181620 METAR COR EGLL 181620Z AUTO 22015KT 190V250 9999 SCT025 BKN031
                        21/14 Q1011 NOSIG=
201809181550 METAR COR EGLL 181550Z AUTO 23018KT 9999 SCT027 SCT031 20/14
                        Q1011 NOSIG=
201809181520 METAR COR EGLL 181520Z AUTO 23018G32KT 9999 FEW033 SCT040
                        21/14 Q1011 NOSIG=
201809181450 METAR COR EGLL 181450Z AUTO 23019G29KT 9999 FEW035 22/13
                        Q1011 NOSIG=
201809181420 METAR COR EGLL 181420Z AUTO 23015KT 9999 SCT036 23/13 Q1011
                        NOSIG=
201809181350 METAR COR EGLL 181350Z AUTO 23015KT 9999 OVC036 22/13 Q1010
                        NOSIG=
201809181320 METAR COR EGLL 181320Z AUTO 25016KT 9999 BKN037 22/12 Q1010
                        NOSIG=
201809181250 METAR COR EGLL 181250Z AUTO 24016KT 9999 NCD 23/12 Q1010
                        NOSIG=
201809181220 METAR COR EGLL 181220Z AUTO 24015KT 9999 FEW036 22/12 Q1010
                        NOSIG=
201809181150 METAR COR EGLL 181150Z AUTO 24015KT 9999 FEW035 21/12 Q1010
                        NOSIG=
201809181120 METAR COR EGLL 181120Z AUTO 24019KT 9999 FEW033 21/12 Q1009
                        NOSIG=
201809181050 METAR COR EGLL 181050Z AUTO 23017KT 9999 BKN031 20/12 Q1009
                        NOSIG=
201809181020 METAR COR EGLL 181020Z AUTO 24018KT 9999 BKN029 BKN034 21/12
                        Q1009 NOSIG=
201809180950 METAR COR EGLL 180950Z AUTO 24017KT 9999 BKN024 20/13 Q1008
                        NOSIG=
201809180920 METAR COR EGLL 180920Z AUTO 23016KT 9999 BKN018 BKN022 OVC027
                        19/14 Q1008 NOSIG=
201809180850 METAR COR EGLL 180850Z AUTO 22018KT 9999 BKN016 OVC028 18/14
                        Q1007 NOSIG=
201809180820 METAR COR EGLL 180820Z AUTO 22016G26KT 180V250 9999 BKN015
                        OVC023 19/15 Q1006 NOSIG=
201809180750 METAR COR EGLL 180750Z AUTO 22015KT 9999 BKN015 OVC019 18/15
                        Q1006 NOSIG=
201809180720 METAR COR EGLL 180720Z AUTO 21014G24KT 9999 BKN015 OVC021
                        18/15 Q1006 TEMPO BKN014=
201809180650 METAR COR EGLL 180650Z AUTO 21016KT 9999 BKN014 OVC019 18/15
                        Q1006 NOSIG=
201809180620 METAR COR EGLL 180620Z AUTO 22015G25KT 190V250 9999 BKN016
                        OVC030 18/15 Q1005 NOSIG=
201809180550 METAR COR EGLL 180550Z AUTO 22017G32KT 9999 BKN020 19/14
                        Q1005 NOSIG=
201809180520 METAR COR EGLL 180520Z AUTO 23017KT 190V250 9999 BKN020 OVC032
                        19/15 Q1005 NOSIG=
201809180450 METAR COR EGLL 180450Z AUTO 21016KT 9999 SCT016 BKN023 BKN029
                        19/15 Q1005 NOSIG=
201809180420 METAR COR EGLL 180420Z AUTO 21014G25KT 9999 BKN019 OVC032
                        19/15 Q1005 NOSIG=
201809180350 METAR COR EGLL 180350Z AUTO 21014KT 9999 BKN021 OVC030 19/15
                        Q1005 NOSIG=
201809180320 METAR COR EGLL 180320Z AUTO 20013KT 9999 BKN027 19/15 Q1005
                        NOSIG=
201809180250 METAR COR EGLL 180250Z AUTO 20010KT 9999 BKN021 19/15 Q1005
                        NOSIG=
201809180220 METAR COR EGLL 180220Z AUTO 21011KT 9999 SCT019 OVC027 18/15
                        Q1006 NOSIG=
201809180150 METAR COR EGLL 180150Z AUTO 21008KT 9999 SCT020 17/14 Q1006
                        NOSIG=
201809180120 METAR COR EGLL 180120Z AUTO 21006KT 9999 NCD 16/12 Q1006
                        NOSIG=
201809180050 METAR COR EGLL 180050Z AUTO 19005KT 9999 NCD 17/11 Q1006
                        NOSIG=
201809180020 METAR COR EGLL 180020Z AUTO 19004KT 9999 NCD 16/10 Q1006
                        NOSIG=
201809172350 METAR COR EGLL 172350Z AUTO 16004KT 9999 NCD 17/10 Q1007
                        NOSIG=
201809172320 METAR COR EGLL 172320Z AUTO 15006KT 9999 NCD 18/10 Q1007
                        NOSIG=
201809172250 METAR COR EGLL 172250Z AUTO 16006KT 9999 NCD 18/09 Q1007
                        NOSIG=
201809172220 METAR COR EGLL 172220Z AUTO 16006KT 140V220 9999 NCD 19/09
                        Q1007 NOSIG=
201809172150 METAR COR EGLL 172150Z AUTO 17006KT 110V250 9999 NCD 19/09
                        Q1008 NOSIG=
201809172120 METAR COR EGLL 172120Z AUTO 16005KT 120V220 9999 NCD 19/09
                        Q1008 NOSIG=
201809172050 METAR COR EGLL 172050Z AUTO 15005KT 110V190 9999 NCD 19/09
                        Q1009 NOSIG=
201809172020 METAR COR EGLL 172020Z AUTO VRB06KT 9999 NCD 19/08 Q1009
                        NOSIG=
201809171950 METAR COR EGLL 171950Z AUTO 14005KT 080V220 9999 NCD 20/09
                        Q1009 NOSIG=
201809171920 METAR COR EGLL 171920Z AUTO 14006KT 110V220 9999 NCD 19/09
                        Q1010 NOSIG=
201809171850 METAR COR EGLL 171850Z AUTO 16007KT 130V230 9999 NCD 20/10
                        Q1010 NOSIG=
201809171820 METAR COR EGLL 171820Z AUTO 16008KT 120V230 9999 NCD 21/10
                        Q1010 NOSIG=
201809171750 METAR COR EGLL 171750Z AUTO 18010KT 9999 NCD 22/09 Q1011
                        NOSIG=
201809171720 METAR COR EGLL 171720Z AUTO 20011KT 9999 NCD 22/09 Q1011
                        NOSIG=
201809171650 METAR COR EGLL 171650Z AUTO 20012KT 170V240 9999 NCD 23/09
                        Q1011 NOSIG=
201809171620 METAR COR EGLL 171620Z AUTO 18013KT 140V240 9999 NCD 23/09
                        Q1011 NOSIG=
201809171550 METAR COR EGLL 171550Z AUTO 18013KT 140V230 9999 NCD 24/09
                        Q1012 NOSIG=
201809171520 METAR COR EGLL 171520Z AUTO 18013KT 150V220 9999 NCD 24/10
                        Q1012 NOSIG=
201809171450 METAR COR EGLL 171450Z AUTO 18014KT 160V230 9999 NCD 24/09
                        Q1012 NOSIG=
201809171420 METAR COR EGLL 171420Z AUTO 19015KT 170V230 9999 NCD 25/07
                        Q1013 NOSIG=
201809171350 METAR COR EGLL 171350Z AUTO 21013KT 9999 NCD 25/09 Q1013
                        NOSIG=
201809171320 METAR COR EGLL 171320Z AUTO 20014KT 9999 NCD 25/09 Q1014
                        NOSIG=
201809171250 METAR COR EGLL 171250Z AUTO 20013KT 9999 NCD 25/11 Q1014
                        NOSIG=
201809171220 METAR COR EGLL 171220Z AUTO 21014KT 9999 NCD 25/12 Q1014
                        NOSIG=
201809171150 METAR COR EGLL 171150Z AUTO 19013KT 160V220 9999 NCD 24/12
                        Q1014 NOSIG=
201809171120 METAR COR EGLL 171120Z AUTO 20012G23KT 170V240 9999 NCD 24/13
                        Q1015 NOSIG=
201809171050 METAR COR EGLL 171050Z AUTO 20012KT 160V230 9999 FEW031 23/13
                        Q1015 NOSIG=
201809171020 METAR COR EGLL 171020Z AUTO 21012KT 9999 FEW029 22/14 Q1016
                        NOSIG=
201809170950 METAR COR EGLL 170950Z AUTO 20012G22KT 9999 FEW024 22/14
                        Q1016 NOSIG=
201809170920 METAR COR EGLL 170920Z AUTO 20012KT 170V230 9999 SCT020 BKN025
                        21/15 Q1016 NOSIG=
201809170850 METAR COR EGLL 170850Z AUTO 20011KT 160V240 9999 SCT017 20/15
                        Q1016 NOSIG=
201809170820 METAR COR EGLL 170820Z AUTO 21012KT 9999 BKN017 19/14 Q1016
                        NOSIG=
201809170750 METAR COR EGLL 170750Z AUTO 21011KT 190V250 9999 BKN014 OVC022
                        19/15 Q1016 BECMG SCT022=
201809170720 METAR COR EGLL 170720Z AUTO 19009KT 9999 OVC015 19/15 Q1016
                        NOSIG=
201809170650 METAR COR EGLL 170650Z AUTO 20008KT 150V240 9999 BKN016 OVC020
                        18/15 Q1016 NOSIG=
201809170620 METAR COR EGLL 170620Z AUTO 21009KT 9999 BKN012 OVC018 18/15
                        Q1016 BECMG FEW012=
201809170550 METAR COR EGLL 170550Z AUTO 22010KT 180V250 9999 OVC012 18/15
                        Q1016 TEMPO BKN008=
201809170520 METAR COR EGLL 170520Z AUTO 22011KT 180V250 9999 OVC012 18/16
                        Q1016 TEMPO BKN007=
201809170450 METAR COR EGLL 170450Z AUTO 21008KT 9999 OVC012 18/16 Q1017
                        TEMPO BKN007=
201809170420 METAR COR EGLL 170420Z AUTO 21007KT 9999 OVC012 18/16 Q1017
                        TEMPO BKN007=
201809170350 METAR COR EGLL 170350Z AUTO 22007KT 9999 BKN011 OVC015 18/16
                        Q1017 TEMPO BKN007=
201809170320 METAR COR EGLL 170320Z AUTO 21006KT 9999 OVC012 18/16 Q1017
                        TEMPO BKN007=
201809170250 METAR COR EGLL 170250Z AUTO 20005KT 9999 OVC012 18/16 Q1017
                        TEMPO BKN007=
201809170220 METAR COR EGLL 170220Z AUTO 18005KT 9999 OVC012 18/16 Q1017
                        TEMPO BKN007=
201809170150 METAR COR EGLL 170150Z AUTO 18005KT 9999 BKN012 18/16 Q1017
                        TEMPO BKN007=
201809170120 METAR COR EGLL 170120Z AUTO 18004KT 9999 OVC011 18/15 Q1017
                        TEMPO BKN007=
201809170050 METAR COR EGLL 170050Z AUTO 20005KT 9999 OVC012 18/16 Q1017
                        TEMPO BKN009=
201809170020 METAR COR EGLL 170020Z AUTO 22006KT 9999 OVC011 18/15 Q1018
                        TEMPO BKN009=
201809162350 METAR COR EGLL 162350Z AUTO 21006KT 9999 BKN013 18/15 Q1018
                        TEMPO BKN007=
201809162320 METAR COR EGLL 162320Z AUTO 21007KT 9999 BKN013 OVC017 18/15
                        Q1018 TEMPO BKN007=
201809162250 METAR COR EGLL 162250Z AUTO 23007KT 9999 OVC012 18/15 Q1018
                        TEMPO BKN007=
201809162220 METAR COR EGLL 162220Z AUTO 22005KT 9999 BKN014 18/15 Q1018
                        TEMPO BKN008=
201809162150 METAR COR EGLL 162150Z AUTO 21007KT 9999 FEW016 BKN036 18/15
                        Q1018 TEMPO BKN014=
201809162120 METAR COR EGLL 162120Z AUTO 22007KT 9999 BKN015 18/15 Q1018
                        TEMPO BKN012=
201809162050 METAR COR EGLL 162050Z AUTO 21008KT 190V250 9999 BKN016 18/15
                        Q1018 TEMPO BKN012=
201809162020 METAR COR EGLL 162020Z AUTO 20008KT 9999 BKN018 18/14 Q1018
                        NOSIG=
201809161950 METAR COR EGLL 161950Z AUTO 22008KT 9999 SCT021 18/14 Q1018
                        NOSIG=
201809161920 METAR COR EGLL 161920Z AUTO 21009KT 170V240 9999 NCD 19/14
                        Q1018 NOSIG=
201809161850 METAR COR EGLL 161850Z AUTO 22008KT 9999 FEW029 19/14 Q1018
                        NOSIG=
201809161820 METAR COR EGLL 161820Z AUTO 22010KT 9999 FEW029 19/14 Q1017
                        NOSIG=
201809161750 METAR COR EGLL 161750Z AUTO 23011KT 9999 FEW034 21/14 Q1017
                        NOSIG=
201809161720 METAR COR EGLL 161720Z AUTO 23010KT 9999 FEW034 21/13 Q1017
                        NOSIG=
201809161650 METAR COR EGLL 161650Z AUTO 23012KT 9999 NCD 22/13 Q1017
                        NOSIG=
201809161620 METAR COR EGLL 161620Z AUTO 22012KT 9999 NCD 22/13 Q1017
                        NOSIG=
201809161550 METAR COR EGLL 161550Z AUTO 23012KT 190V250 9999 FEW041 23/12
                        Q1017 NOSIG=
201809161520 METAR COR EGLL 161520Z AUTO 21012KT 9999 FEW041 23/11 Q1017
                        NOSIG=
201809161450 METAR COR EGLL 161450Z AUTO 23015KT 9999 NCD 24/10 Q1017
                        NOSIG=
201809161420 METAR COR EGLL 161420Z AUTO 23014KT 9999 NCD 24/09 Q1017
                        NOSIG=
201809161350 METAR COR EGLL 161350Z AUTO 23015KT 9999 NCD 24/09 Q1017
                        NOSIG=
201809161320 METAR COR EGLL 161320Z AUTO 23016KT 9999 NCD 23/09 Q1017
                        NOSIG=
201809161250 METAR COR EGLL 161250Z AUTO 21013KT 180V250 9999 NCD 23/09
                        Q1017 NOSIG=
201809161220 METAR COR EGLL 161220Z AUTO 22013KT 9999 NCD 22/09 Q1018
                        NOSIG=
201809161150 METAR COR EGLL 161150Z AUTO 22015KT 200V260 9999 NCD 23/10
                        Q1018 NOSIG=
201809161120 METAR COR EGLL 161120Z AUTO 21014KT 9999 NCD 21/11 Q1018
                        NOSIG=
201809161050 METAR COR EGLL 161050Z AUTO 21016KT 9999 NCD 21/11 Q1018
                        NOSIG=
201809161020 METAR COR EGLL 161020Z AUTO 21011KT 9999 NCD 20/13 Q1018
                        NOSIG=
201809160950 METAR COR EGLL 160950Z AUTO 19009KT 9999 NCD 19/13 Q1019
                        NOSIG=
201809160920 METAR COR EGLL 160920Z AUTO 21011KT 180V240 9999 NCD 18/14
                        Q1019 NOSIG=
201809160850 METAR COR EGLL 160850Z AUTO 21011KT 180V250 9999 NCD 18/14
                        Q1019 NOSIG=
201809160820 METAR COR EGLL 160820Z AUTO 21010KT 190V250 9999 NCD 17/14
                        Q1019 NOSIG=
201809160750 METAR COR EGLL 160750Z AUTO 21008KT 180V240 9999 NCD 16/13
                        Q1019 NOSIG=
201809160720 METAR COR EGLL 160720Z AUTO 19005KT 150V230 9999 NCD 15/13
                        Q1019 NOSIG=
201809160650 METAR COR EGLL 160650Z AUTO 18004KT 130V230 9999 NCD 15/12
                        Q1019 NOSIG=
201809160620 METAR COR EGLL 160620Z AUTO 19007KT 160V240 9999 NCD 14/12
                        Q1019 NOSIG=
201809160550 METAR COR EGLL 160550Z AUTO 21006KT 160V250 9999 NCD 14/12
                        Q1019 NOSIG=
201809160520 METAR COR EGLL 160520Z AUTO 20005KT 120V280 9999 NCD 13/12
                        Q1019 NOSIG=
201809160450 METAR COR EGLL 160450Z AUTO 16003KT 9999 NCD 13/12 Q1019
                        NOSIG=
201809160420 METAR COR EGLL 160420Z AUTO 15003KT 9999 NCD 13/11 Q1019
                        NOSIG=
201809160350 METAR COR EGLL 160350Z AUTO 18005KT 9999 NCD 13/11 Q1019
                        NOSIG=
201809160320 METAR COR EGLL 160320Z AUTO 18005KT 9999 NCD 13/11 Q1020
                        NOSIG=
201809160250 METAR COR EGLL 160250Z AUTO 19006KT 9999 NCD 13/11 Q1020
                        NOSIG=
201809160220 METAR COR EGLL 160220Z AUTO 19007KT 9999 NCD 13/11 Q1020
                        NOSIG=
201809160150 METAR COR EGLL 160150Z AUTO 18008KT 9999 NCD 13/11 Q1021
                        NOSIG=
201809160120 METAR COR EGLL 160120Z AUTO 18006KT 9999 NCD 14/11 Q1021
                        NOSIG=
201809160050 METAR COR EGLL 160050Z AUTO 20005KT 9999 NCD 14/12 Q1022
                        NOSIG=
201809160020 METAR COR EGLL 160020Z AUTO 21006KT 9999 NCD 14/12 Q1022
                        NOSIG=
201809152350 METAR COR EGLL 152350Z AUTO 19007KT 9999 NCD 14/11 Q1022
                        NOSIG=
201809152320 METAR COR EGLL 152320Z AUTO 20007KT 9999 NCD 14/11 Q1022
                        NOSIG=
201809152250 METAR COR EGLL 152250Z AUTO 21008KT 9999 NCD 14/11 Q1023
                        NOSIG=
201809152220 METAR COR EGLL 152220Z AUTO 20008KT 9999 NCD 15/11 Q1023
                        NOSIG=
201809152150 METAR COR EGLL 152150Z AUTO 20008KT 9999 NCD 15/11 Q1023
                        NOSIG=
201809152120 METAR COR EGLL 152120Z AUTO 21007KT 9999 NCD 15/11 Q1023
                        NOSIG=
201809152050 METAR COR EGLL 152050Z AUTO 21007KT 170V240 9999 NCD 15/11
                        Q1023 NOSIG=
201809152020 METAR COR EGLL 152020Z AUTO 21009KT 9999 NCD 16/11 Q1023
                        NOSIG=
201809151950 METAR COR EGLL 151950Z AUTO 21008KT 9999 NCD 16/11 Q1023
                        NOSIG=
201809151920 METAR COR EGLL 151920Z AUTO 22009KT 9999 NCD 17/11 Q1023
                        NOSIG=
201809151850 METAR COR EGLL 151850Z AUTO 21008KT 170V250 9999 NCD 18/11
                        Q1023 NOSIG=
201809151820 METAR COR EGLL 151820Z AUTO 21009KT 180V250 9999 NCD 18/11
                        Q1023 NOSIG=
201809151750 METAR COR EGLL 151750Z AUTO 22008KT 190V260 9999 NCD 19/10
                        Q1022 NOSIG=
201809151720 METAR COR EGLL 151720Z AUTO 23007KT 200V290 9999 NCD 19/09
                        Q1022 NOSIG=
201809151650 METAR COR EGLL 151650Z AUTO 24008KT 200V270 9999 FEW049 20/09
                        Q1022 NOSIG=
201809151620 METAR COR EGLL 151620Z AUTO 23008KT 9999 SCT048 20/09 Q1023
                        NOSIG=
201809151550 METAR COR EGLL 151550Z AUTO 24007KT 200V270 9999 FEW049 21/09
                        Q1023 NOSIG=
201809151520 METAR COR EGLL 151520Z AUTO 23009KT 200V270 9999 NCD 21/09
                        Q1023 NOSIG=
201809151450 METAR COR EGLL 151450Z AUTO 25008KT 220V290 9999 NCD 21/08
                        Q1023 NOSIG=
201809151420 METAR COR EGLL 151420Z AUTO 23006KT 180V290 9999 NCD 21/09
                        Q1023 NOSIG=
201809151350 METAR COR EGLL 151350Z AUTO 25011KT 220V290 9999 NCD 20/09
                        Q1024 NOSIG=
201809151320 METAR COR EGLL 151320Z AUTO 27008KT 230V320 9999 BKN043 20/09
                        Q1024 NOSIG=
201809151250 METAR COR EGLL 151250Z AUTO 24010KT 210V270 9999 NCD 21/09
                        Q1024 NOSIG=
201809151220 METAR COR EGLL 151220Z AUTO 27009KT 9999 SCT040 20/09 Q1024
                        NOSIG=
201809151150 METAR COR EGLL 151150Z AUTO 25011KT 210V280 9999 FEW039 19/10
                        Q1024 NOSIG=
201809151120 METAR COR EGLL 151120Z AUTO 25009KT 220V280 9999 SCT035 SCT047
                        20/09 Q1024 NOSIG=
201809151050 METAR COR EGLL 151050Z AUTO 27008KT 240V320 9999 FEW029 SCT034
                        18/10 Q1024 NOSIG=
201809151020 METAR COR EGLL 151020Z AUTO 26010KT 9999 SCT024 SCT028 19/11
                        Q1025 NOSIG=
201809150950 METAR COR EGLL 150950Z AUTO 28007KT 210V310 9999 FEW020 17/11
                        Q1024 NOSIG=
201809150920 METAR COR EGLL 150920Z AUTO 25006KT 220V310 9999 FEW018 17/12
                        Q1024 NOSIG=
201809150850 METAR COR EGLL 150850Z AUTO 24008KT 9999 FEW013 15/12 Q1025
                        NOSIG=
201809150820 METAR COR EGLL 150820Z AUTO 25006KT 9999 NCD 15/12 Q1024
                        NOSIG=
201809150750 METAR COR EGLL 150750Z AUTO 25005KT 210V300 9999 NCD 13/12
                        Q1024 NOSIG=
201809150720 METAR COR EGLL 150720Z AUTO 22005KT 9999 NCD 13/11 Q1024
                        NOSIG=
201809150650 METAR COR EGLL 150650Z AUTO 21005KT 9999 NCD 12/11 Q1024
                        NOSIG=
201809150620 METAR COR EGLL 150620Z AUTO 21005KT 9999 NCD 11/11 Q1023
                        NOSIG=
201809150550 METAR COR EGLL 150550Z AUTO 23005KT 190V270 9999 NCD 11/10
                        Q1023 NOSIG=
201809150520 METAR COR EGLL 150520Z AUTO 21006KT 9999 NCD 10/10 Q1023
                        NOSIG=
201809150450 METAR COR EGLL 150450Z AUTO VRB03KT 9999 NCD 10/10 Q1023
                        NOSIG=
201809150420 METAR COR EGLL 150420Z AUTO 27007KT 9999 NCD 10/10 Q1023
                        NOSIG=
201809150350 METAR COR EGLL 150350Z AUTO 25007KT 9999 NCD 10/09 Q1022
                        NOSIG=
201809150320 METAR COR EGLL 150320Z AUTO 26005KT 9999 NCD 11/10 Q1022
                        NOSIG=
201809150250 METAR COR EGLL 150250Z AUTO 25005KT 9999 NCD 10/10 Q1022
                        NOSIG=
201809150220 METAR COR EGLL 150220Z AUTO 25006KT 9999 NCD 11/10 Q1022
                        NOSIG=
201809150150 METAR COR EGLL 150150Z AUTO 25006KT 9999 NCD 11/10 Q1022
                        NOSIG=
201809150120 METAR COR EGLL 150120Z AUTO 25005KT 9999 NCD 12/10 Q1022
                        NOSIG=
201809150050 METAR COR EGLL 150050Z AUTO 27006KT 9999 NCD 13/11 Q1022
                        NOSIG=
201809150020 METAR COR EGLL 150020Z AUTO 25005KT 9999 NCD 12/10 Q1022
                        NOSIG=
201809142350 METAR COR EGLL 142350Z AUTO 25006KT 9999 NCD 12/10 Q1022
                        NOSIG=
201809142320 METAR COR EGLL 142320Z AUTO 26007KT 9999 NCD 13/10 Q1022
                        NOSIG=
201809142250 METAR COR EGLL 142250Z AUTO 26010KT 9999 NCD 13/11 Q1022
                        NOSIG=
201809142220 METAR COR EGLL 142220Z AUTO 27009KT 9999 NCD 13/10 Q1022
                        NOSIG=
201809142150 METAR COR EGLL 142150Z AUTO 25009KT 9999 NCD 13/10 Q1022
                        NOSIG=
201809142120 METAR COR EGLL 142120Z AUTO 25011KT 9999 NCD 14/10 Q1021
                        NOSIG=
201809142050 METAR COR EGLL 142050Z AUTO 23007KT 200V260 9999 NCD 14/10
                        Q1021 NOSIG=
201809142020 METAR COR EGLL 142020Z AUTO 24010KT 9999 NCD 14/10 Q1021
                        NOSIG=
201809141950 METAR COR EGLL 141950Z AUTO 24009KT 9999 NCD 14/10 Q1021
                        NOSIG=
201809141920 METAR COR EGLL 141920Z AUTO 24009KT 9999 FEW043 15/10 Q1021
                        NOSIG=
201809141850 METAR COR EGLL 141850Z AUTO 23009KT 9999 FEW043 15/10 Q1020
                        NOSIG=
201809141820 METAR COR EGLL 141820Z AUTO 24010KT 9999 NCD 16/10 Q1020
                        NOSIG=
201809141750 METAR COR EGLL 141750Z AUTO 24009KT 9999 NCD 16/10 Q1020
                        NOSIG=
201809141720 METAR COR EGLL 141720Z AUTO 24010KT 9999 FEW040 17/10 Q1020
                        NOSIG=
201809141650 METAR COR EGLL 141650Z AUTO 23012KT 9999 FEW036 SCT046 17/10
                        Q1020 NOSIG=
201809141620 METAR COR EGLL 141620Z AUTO 24009KT 9999 FEW036 SCT049 17/10
                        Q1020 NOSIG=
201809141550 METAR COR EGLL 141550Z AUTO 23011KT 9999 BKN047 17/10 Q1020
                        NOSIG=
201809141520 METAR COR EGLL 141520Z AUTO 26014KT 9999 FEW033 SCT041 BKN047
                        17/10 Q1020 NOSIG=
201809141450 METAR COR EGLL 141450Z AUTO 25011KT 220V280 9999 FEW031 SCT041
                        17/10 Q1020 NOSIG=
201809141420 METAR COR EGLL 141420Z AUTO 23010KT 9999 FEW043 18/10 Q1020
                        NOSIG=
201809141350 METAR COR EGLL 141350Z AUTO 26014KT 9999 SCT039 SCT046 16/10
                        Q1020 NOSIG=
201809141320 METAR COR EGLL 141320Z 26015KT 8000 -RA BKN033 BKN048 16/10
                        Q1020 NOSIG=
201809141250 METAR COR EGLL 141250Z AUTO 25012KT 9999 SCT036 SCT044 18/09
                        Q1020 NOSIG=
201809141220 METAR COR EGLL 141220Z AUTO 25014KT 9999 SCT034 BKN041 18/09
                        Q1020 NOSIG=
201809141150 METAR COR EGLL 141150Z AUTO 26012KT 9999 SCT033 SCT040 BKN049
                        17/09 Q1021 NOSIG=
201809141120 METAR COR EGLL 141120Z AUTO 25013KT 9999 SCT032 17/09 Q1021
                        NOSIG=
201809141050 METAR COR EGLL 141050Z AUTO 26013KT 9999 FEW037 17/09 Q1021
                        NOSIG=
201809141020 METAR COR EGLL 141020Z AUTO 25014KT 9999 NCD 17/09 Q1021
                        NOSIG=
201809140950 METAR COR EGLL 140950Z AUTO 24012KT 9999 FEW043 16/09 Q1021
                        NOSIG=
201809140920 METAR COR EGLL 140920Z AUTO 25011KT 9999 SCT038 BKN048 15/09
                        Q1021 NOSIG=
201809140850 METAR COR EGLL 140850Z AUTO 26011KT 9999 FEW043 15/09 Q1021
                        NOSIG=
201809140820 METAR COR EGLL 140820Z AUTO 24009KT 9999 NCD 14/09 Q1021
                        NOSIG=
201809140750 METAR COR EGLL 140750Z AUTO 24007KT 9999 OVC046 13/09 Q1021
                        NOSIG=
201809140720 METAR COR EGLL 140720Z AUTO 22006KT 180V250 9999 NCD 13/09
                        Q1021 NOSIG=
201809140650 METAR COR EGLL 140650Z AUTO 24007KT 190V280 9999 OVC043 12/09
                        Q1021 NOSIG=
201809140620 METAR COR EGLL 140620Z AUTO 23005KT 9999 NCD 12/09 Q1021
                        NOSIG=
201809140550 METAR COR EGLL 140550Z AUTO 20007KT 160V240 9999 NCD 11/09
                        Q1021 NOSIG=
201809140520 METAR COR EGLL 140520Z AUTO 21005KT 180V270 9999 OVC049 11/09
                        Q1021 NOSIG=
201809140450 METAR COR EGLL 140450Z AUTO 25005KT 200V280 9999 OVC049 11/08
                        Q1021 NOSIG=
201809140420 METAR COR EGLL 140420Z AUTO 26007KT 9999 BKN049 11/08 Q1021
                        NOSIG=
201809140350 METAR COR EGLL 140350Z AUTO 27006KT 9999 NCD 11/08 Q1021
                        NOSIG=
201809140320 METAR COR EGLL 140320Z AUTO 27004KT 9999 NCD 11/08 Q1021
                        NOSIG=
201809140250 METAR COR EGLL 140250Z AUTO 27004KT 9999 NCD 10/08 Q1021
                        NOSIG=
201809140220 METAR COR EGLL 140220Z AUTO 27006KT 9999 NCD 10/07 Q1021
                        NOSIG=
201809140150 METAR COR EGLL 140150Z AUTO 27007KT 9999 NCD 10/08 Q1022
                        NOSIG=
201809140120 METAR COR EGLL 140120Z AUTO 27004KT 9999 NCD 10/08 Q1022
                        NOSIG=
201809140050 METAR COR EGLL 140050Z AUTO 26004KT 9999 NCD 10/08 Q1022
                        NOSIG=
201809140020 METAR COR EGLL 140020Z AUTO VRB03KT 9999 NCD 10/08 Q1022
                        NOSIG=
201809132350 METAR COR EGLL 132350Z AUTO 25004KT 9999 NCD 10/07 Q1022
                        NOSIG=
201809132320 METAR EGLL 132320Z AUTO 27005KT 9999 NCD 10/07 Q1022=
201809132250 METAR COR EGLL 132250Z AUTO 27006KT 9999 NCD 11/07 Q1022
                        NOSIG=
201809132220 METAR COR EGLL 132220Z AUTO 27006KT 9999 NCD 11/07 Q1022
                        NOSIG=
201809132150 METAR COR EGLL 132150Z AUTO 27005KT 9999 NCD 12/07 Q1022
                        NOSIG=
201809132120 METAR COR EGLL 132120Z AUTO 27007KT 9999 NCD 12/07 Q1022
                        NOSIG=
201809132050 METAR COR EGLL 132050Z AUTO 27007KT 9999 NCD 12/07 Q1022
                        NOSIG=
201809132020 METAR COR EGLL 132020Z AUTO 27007KT 9999 NCD 12/07 Q1022
                        NOSIG=
201809131950 METAR COR EGLL 131950Z AUTO 27007KT 9999 NCD 13/07 Q1022
                        NOSIG=
201809131920 METAR COR EGLL 131920Z AUTO 28005KT 9999 NCD 14/07 Q1022
                        NOSIG=
201809131850 METAR COR EGLL 131850Z AUTO 30004KT 9999 NCD 16/06 Q1022
                        NOSIG=
201809131820 METAR COR EGLL 131820Z AUTO 30006KT 9999 NCD 17/06 Q1021
                        NOSIG=
201809131750 METAR COR EGLL 131750Z AUTO 28006KT 9999 NCD 16/06 Q1021
                        NOSIG=
201809131720 METAR COR EGLL 131720Z AUTO 28004KT 260V320 9999 NCD 18/05
                        Q1021 NOSIG=
201809131650 METAR COR EGLL 131650Z AUTO 26009KT 9999 NCD 17/06 Q1021
                        NOSIG=
201809131620 METAR COR EGLL 131620Z AUTO 28008KT 240V330 9999 NCD 19/06
                        Q1021 NOSIG=
201809131550 METAR COR EGLL 131550Z AUTO 27010KT 240V300 9999 NCD 18/06
                        Q1022 NOSIG=
201809131520 METAR COR EGLL 131520Z AUTO 26009KT 220V310 9999 NCD 20/05
                        Q1022 NOSIG=
201809131450 METAR COR EGLL 131450Z AUTO 29007KT 240V330 9999 NCD 20/05
                        Q1022 NOSIG=
201809131420 METAR COR EGLL 131420Z AUTO 26009KT 9999 NCD 19/05 Q1022
                        NOSIG=
201809131350 METAR COR EGLL 131350Z AUTO 28007KT 240V310 9999 NCD 20/04
                        Q1022 NOSIG=
201809131320 METAR COR EGLL 131320Z AUTO 26007KT 210V340 9999 NCD 20/03
                        Q1023 NOSIG=
201809131250 METAR COR EGLL 131250Z AUTO 26008KT 220V310 9999 NCD 19/04
                        Q1023 NOSIG=
201809131220 METAR COR EGLL 131220Z AUTO 27009KT 220V300 9999 NCD 19/06
                        Q1023 NOSIG=
201809131150 METAR COR EGLL 131150Z AUTO 26009KT 220V290 9999 NCD 18/04
                        Q1023 NOSIG=
201809131120 METAR COR EGLL 131120Z AUTO 27007KT 240V310 9999 NCD 18/06
                        Q1023 NOSIG=
201809131050 METAR COR EGLL 131050Z AUTO 27009KT 240V310 9999 NCD 17/07
                        Q1024 NOSIG=
201809131020 METAR COR EGLL 131020Z AUTO 27008KT 240V300 9999 NCD 17/07
                        Q1024 NOSIG=
201809130950 METAR COR EGLL 130950Z AUTO 27005KT 240V340 9999 NCD 16/08
                        Q1024 NOSIG=
201809130920 METAR COR EGLL 130920Z AUTO 25005KT 190V320 9999 NCD 15/09
                        Q1024 NOSIG=
201809130850 METAR COR EGLL 130850Z AUTO 27004KT 200V330 9999 NCD 13/09
                        Q1024 NOSIG=
201809130820 METAR COR EGLL 130820Z AUTO 30003KT 9999 NCD 12/09 Q1024
                        NOSIG=
201809130750 METAR COR EGLL 130750Z AUTO 28004KT 9999 NCD 10/09 Q1024
                        NOSIG=
201809130720 METAR COR EGLL 130720Z AUTO 28004KT 9999 NCD 09/09 Q1024
                        NOSIG=
201809130650 METAR COR EGLL 130650Z AUTO VRB02KT 9999 NCD 08/08 Q1024
                        NOSIG=
201809130620 METAR COR EGLL 130620Z AUTO VRB02KT 9999 FEW042 08/07 Q1024
                        NOSIG=
201809130550 METAR COR EGLL 130550Z AUTO 28002KT 9999 BKN040 07/07 Q1024
                        NOSIG=
201809130520 METAR COR EGLL 130520Z AUTO 27002KT 9999 SCT041 07/07 Q1023
                        NOSIG=
201809130450 METAR COR EGLL 130450Z AUTO 31003KT 9999 NCD 07/07 Q1023
                        NOSIG=
201809130420 METAR COR EGLL 130420Z AUTO 31001KT 9999 NCD 08/07 Q1023
                        NOSIG=
201809130350 METAR COR EGLL 130350Z AUTO 00000KT 9999 NCD 08/08 Q1023
                        NOSIG=
201809130320 METAR COR EGLL 130320Z AUTO 33001KT 9000 FEW040 08/08 Q1023
                        NOSIG=
201809130250 METAR COR EGLL 130250Z AUTO 29002KT 7000 SCT038 08/08 Q1023
                        NOSIG=
201809130220 METAR COR EGLL 130220Z AUTO 29003KT 8000 FEW042 08/08 Q1024
                        NOSIG=
201809130150 METAR COR EGLL 130150Z AUTO 27003KT 9999 NCD 09/08 Q1024
                        NOSIG=
201809130120 METAR COR EGLL 130120Z AUTO 25001KT 7000 FEW045 08/08 Q1024
                        NOSIG=
201809130050 METAR COR EGLL 130050Z AUTO 31003KT 6000 NCD 08/08 Q1024
                        NOSIG=
201809130020 METAR COR EGLL 130020Z 29002KT 8000 NSC 08/08 Q1024 TEMPO
                        CAVOK=
201809122350 METAR COR EGLL 122350Z AUTO 31002KT 9999 NCD 09/08 Q1024
                        NOSIG=
201809122320 METAR COR EGLL 122320Z AUTO 33001KT 9999 NCD 09/08 Q1024
                        NOSIG=
201809122250 METAR COR EGLL 122250Z AUTO 32003KT 9999 NCD 10/08 Q1024
                        NOSIG=
201809122220 METAR COR EGLL 122220Z AUTO 29002KT 9999 NCD 10/09 Q1024
                        NOSIG=
201809122150 METAR COR EGLL 122150Z 34001KT CAVOK 10/09 Q1024 NOSIG=
201809122120 METAR COR EGLL 122120Z AUTO VRB02KT 9999 NCD 11/09 Q1024
                        NOSIG=
201809122050 METAR COR EGLL 122050Z AUTO 33002KT 9999 NCD 12/09 Q1024
                        NOSIG=
201809122020 METAR COR EGLL 122020Z AUTO 34002KT 9999 NCD 13/09 Q1024
                        NOSIG=
201809121950 METAR COR EGLL 121950Z AUTO 33001KT 9999 NCD 13/09 Q1024
                        NOSIG=
201809121920 METAR COR EGLL 121920Z AUTO 34002KT 9999 NCD 13/09 Q1024
                        NOSIG=
201809121850 METAR COR EGLL 121850Z AUTO 34001KT 9999 NCD 14/09 Q1024
                        NOSIG=
201809121820 METAR COR EGLL 121820Z AUTO VRB03KT 9999 NCD 15/08 Q1024
                        NOSIG=
201809121750 METAR COR EGLL 121750Z AUTO VRB02KT 9999 NCD 15/09 Q1024
                        NOSIG=
201809121720 METAR COR EGLL 121720Z AUTO VRB03KT 9999 NCD 15/09 Q1024
                        NOSIG=
201809121650 METAR COR EGLL 121650Z AUTO VRB02KT 9999 NCD 15/08 Q1024
                        NOSIG=
201809121620 METAR COR EGLL 121620Z AUTO 01004KT 320V060 9999 NCD 15/08
                        Q1024 NOSIG=
201809121550 METAR COR EGLL 121550Z AUTO 04004KT 340V100 9999 NCD 15/08
                        Q1024 NOSIG=
201809121520 METAR COR EGLL 121520Z AUTO 04004KT 340V080 9999 FEW034 15/08
                        Q1024 NOSIG=
201809121450 METAR COR EGLL 121450Z AUTO 03004KT 340V080 9999 FEW029 SCT033
                        15/09 Q1024 NOSIG=
201809121420 METAR COR EGLL 121420Z AUTO 02004KT 340V060 9999 SCT026 BKN035
                        15/09 Q1024 NOSIG=
201809121350 METAR COR EGLL 121350Z AUTO 06005KT 020V090 9999 FEW027 SCT034
                        15/09 Q1024 NOSIG=
201809121320 METAR COR EGLL 121320Z AUTO 03004KT 340V090 9999 FEW022 BKN028
                        BKN033 15/10 Q1024 NOSIG=
201809121250 METAR COR EGLL 121250Z AUTO 01004KT 340V050 9999 BKN021 15/10
                        Q1024 NOSIG=
201809121220 METAR COR EGLL 121220Z AUTO VRB03KT 9999 SCT022 BKN047 15/10
                        Q1024 NOSIG=
201809121150 METAR COR EGLL 121150Z AUTO 36004KT 320V070 9999 -RA BKN025
                        14/11 Q1024 NOSIG=
201809121120 METAR COR EGLL 121120Z AUTO 01004KT 320V050 9999 -RA BKN020
                        OVC027 14/11 Q1024 NOSIG=
201809121050 METAR COR EGLL 121050Z AUTO 01005KT 330V050 9999 -RA FEW016
                        BKN020 BKN037 14/11 Q1024 TEMPO BKN014=
201809121020 METAR COR EGLL 121020Z AUTO 36005KT 320V030 9999 BKN014 BKN038
                        14/11 Q1024 BECMG SCT014=
201809120950 METAR COR EGLL 120950Z AUTO 05004KT 020V090 9999 BKN013 BKN035
                        BKN044 14/11 Q1023 TEMPO BKN014=
201809120920 METAR COR EGLL 120920Z AUTO 01005KT 330V030 9999 SCT013 BKN032
                        14/11 Q1024 TEMPO BKN014=
201809120850 METAR COR EGLL 120850Z AUTO 01004KT 330V060 9999 BKN012 BKN027
                        OVC033 13/11 Q1023 TEMPO SCT012=
201809120820 METAR COR EGLL 120820Z AUTO 03004KT 330V070 9999 BKN010 BKN025
                        OVC032 13/11 Q1023 TEMPO BKN008=
201809120750 METAR COR EGLL 120750Z AUTO 03006KT 330V070 9999 BKN010 OVC022
                        13/11 Q1022 TEMPO BKN008=
201809120720 METAR COR EGLL 120720Z AUTO 04005KT 340V080 9999 BKN009 BKN013
                        BKN021 12/11 Q1022 TEMPO BKN012=
201809120650 METAR COR EGLL 120650Z AUTO 05005KT 360V080 9999 FEW010 SCT022
                        BKN049 12/11 Q1022 TEMPO BKN014=
201809120620 METAR COR EGLL 120620Z AUTO 04006KT 360V070 9000 -RA SCT009
                        SCT014 BKN019 12/11 Q1022 NOSIG=
201809120550 METAR COR EGLL 120550Z 36004KT 310V030 9999 -RA FEW005 BKN009
                        BKN012 12/11 Q1022 TEMPO SCT012=
201809120520 METAR COR EGLL 120520Z VRB03KT 4000 -DZ FEW004 BKN006 OVC025
                        12/12 Q1022 REDZ TEMPO 6000 BKN010=
201809120450 METAR COR EGLL 120450Z VRB03KT 3200 -DZ SCT004 BKN006 OVC020
                        12/12 Q1021 TEMPO 2800=
201809120420 METAR COR EGLL 120420Z AUTO 36004KT 320V030 4100 -RA FEW021
                        SCT025 BKN031 12/11 Q1021 TEMPO BKN008=
201809120350 METAR COR EGLL 120350Z AUTO VRB03KT 9999 -RA FEW010 OVC028
                        13/12 Q1021 TEMPO 3500 -RADZ BKN008=
201809120320 METAR COR EGLL 120320Z AUTO 36005KT 310V040 4500 -DZ SCT008
                        BKN012 BKN017 13/12 Q1021 TEMPO 6000
                        BKN008=
201809120250 METAR COR EGLL 120250Z AUTO 35005KT 310V040 6000 -RA BKN018
                        OVC025 13/12 Q1020 TEMPO 4000=
201809120220 METAR COR EGLL 120220Z AUTO 34004KT 280V020 8000 -RA OVC012
                        14/12 Q1020 TEMPO FEW012=
201809120150 METAR COR EGLL 120150Z AUTO 35007KT 310V030 6000 BKN006 BKN010
                        OVC019 14/13 Q1020 TEMPO SCT006=
201809120120 METAR COR EGLL 120120Z AUTO 29004KT 240V320 4900 -RADZ SCT005
                        BKN008 BKN019 15/15 Q1019 REDZ TEMPO
                        7000 SCT008=
201809120050 METAR COR EGLL 120050Z AUTO 29005KT 260V330 3300 DZ BKN004
                        BKN007 BKN014 16/15 Q1019 TEMPO 5000
                        -DZ FEW004=
201809120020 METAR COR EGLL 120020Z AUTO 29005KT 2400 -RADZ SCT004 BKN010
                        OVC015 16/15 Q1019 REDZ TEMPO 5000
                        SCT010=
201809112350 METAR COR EGLL 112350Z AUTO 29006KT 4800 BR SCT005 BKN008
                        OVC013 16/15 Q1019 TEMPO 9999 SCT008=
201809112320 METAR COR EGLL 112320Z 29004KT 260V330 4000 -DZ SCT002 BKN006
                        BKN015 16/15 Q1019 TEMPO 6000 SCT006=
201809112250 METAR COR EGLL 112250Z 30006KT 2500 -DZ SCT002 BKN004 OVC010
                        16/16 Q1020 TEMPO 3500 BKN006=
201809112220 METAR COR EGLL 112220Z 29009KT 2800 -RADZ SCT004 BKN008 OVC012
                        16/16 Q1020 TEMPO 5000 SCT008=
201809112150 METAR COR EGLL 112150Z 27005KT 2800 -DZ FEW003 BKN006 OVC012
                        17/16 Q1020 TEMPO 5000 SCT006=
201809112120 METAR COR EGLL 112120Z 29006KT 2800 -DZ FEW004 BKN006 OVC010
                        17/16 Q1020 TEMPO 5000 SCT006=
201809112050 METAR COR EGLL 112050Z 30005KT 3200 -DZ FEW004 BKN006 OVC010
                        17/16 Q1020 REDZ TEMPO 5000=
201809112020 METAR COR EGLL 112020Z 28006KT 3000 DZ BKN006 OVC012 18/17
                        Q1020 TEMPO 5000 -DZ=
201809111950 METAR COR EGLL 111950Z AUTO 24009KT 200V280 4200 -DZ SCT007
                        OVC010 18/17 Q1020 TEMPO 7000 BKN007=
201809111920 METAR COR EGLL 111920Z AUTO 22010KT 9999 BKN011 OVC016 20/17
                        Q1019 TEMPO BKN008=
201809111850 METAR COR EGLL 111850Z AUTO 22010KT 9999 OVC013 20/17 Q1019
                        NOSIG=
201809111820 METAR EGLL 111820Z AUTO 22011KT 9999 SCT016 OVC046 20/17
                        Q1019=
201809111750 METAR COR EGLL 111750Z AUTO 21011KT 9999 BKN044 21/17 Q1019
                        NOSIG=
201809111720 METAR COR EGLL 111720Z AUTO 22011KT 9999 OVC047 21/17 Q1018
                        NOSIG=
201809111650 METAR COR EGLL 111650Z AUTO 21013KT 9999 BKN045TCU 22/17
                        Q1018 NOSIG=
201809111620 METAR COR EGLL 111620Z AUTO 22012KT 9999 BKN031 OVC046 22/17
                        Q1019 NOSIG=
201809111550 METAR COR EGLL 111550Z AUTO 22014KT 9999 FEW031 BKN037 23/16
                        Q1019 NOSIG=
201809111520 METAR COR EGLL 111520Z AUTO 22014KT 9999 SCT026 BKN041 24/16
                        Q1019 NOSIG=
201809111450 METAR COR EGLL 111450Z AUTO 23012KT 9999 SCT023 SCT028 24/17
                        Q1019 NOSIG=
201809111420 METAR COR EGLL 111420Z AUTO 23013KT 9999 SCT023 BKN027 23/17
                        Q1019 NOSIG=
201809111350 METAR COR EGLL 111350Z AUTO 23014KT 9999 SCT022 BKN026 23/16
                        Q1019 NOSIG=
201809111320 METAR COR EGLL 111320Z AUTO 23015KT 9999 BKN021 OVC026 22/17
                        Q1019 NOSIG=
201809111250 METAR COR EGLL 111250Z AUTO 22013KT 9999 BKN022 OVC029 21/16
                        Q1019 NOSIG=
201809111220 METAR COR EGLL 111220Z AUTO 23013KT 9999 BKN018 OVC024 21/16
                        Q1019 NOSIG=
201809111150 METAR COR EGLL 111150Z AUTO 23014KT 9999 OVC017 21/16 Q1019
                        NOSIG=
201809111120 METAR COR EGLL 111120Z AUTO 23013KT 9999 OVC017 21/16 Q1019
                        NOSIG=
201809111050 METAR COR EGLL 111050Z AUTO 23014KT 9999 OVC017 21/16 Q1019
                        NOSIG=
201809111020 METAR COR EGLL 111020Z AUTO 23014KT 9999 BKN019 OVC031 20/16
                        Q1019 NOSIG=
201809110950 METAR COR EGLL 110950Z AUTO 23015KT 9999 BKN019 OVC029 21/15
                        Q1019 NOSIG=
201809110920 METAR COR EGLL 110920Z AUTO 23013KT 9999 BKN019 BKN031 20/15
                        Q1019 NOSIG=
201809110850 METAR COR EGLL 110850Z AUTO 22013KT 180V250 9999 BKN020 OVC032
                        20/15 Q1019 NOSIG=
201809110820 METAR COR EGLL 110820Z AUTO 23014KT 9999 BKN020 OVC033 19/14
                        Q1019 NOSIG=
201809110750 METAR COR EGLL 110750Z AUTO 22014KT 9999 SCT019 BKN023 BKN032
                        19/14 Q1019 NOSIG=
201809110720 METAR COR EGLL 110720Z AUTO 23014KT 9999 BKN018 OVC034 18/14
                        Q1019 NOSIG=
201809110650 METAR COR EGLL 110650Z AUTO 22013KT 9999 BKN018 OVC022 18/14
                        Q1019 NOSIG=
201809110620 METAR COR EGLL 110620Z AUTO 22014KT 9999 BKN018 18/14 Q1019
                        NOSIG=
201809110550 METAR COR EGLL 110550Z AUTO 23013KT 9999 OVC017 17/14 Q1019
                        NOSIG=
201809110520 METAR COR EGLL 110520Z AUTO 23012KT 9999 BKN018 17/14 Q1018
                        NOSIG=
201809110450 METAR COR EGLL 110450Z AUTO 23011KT 9999 FEW019 17/14 Q1018
                        NOSIG=
201809110420 METAR COR EGLL 110420Z AUTO 23013KT 9999 FEW019 17/14 Q1018
                        NOSIG=
201809110350 METAR COR EGLL 110350Z AUTO 23013KT 9999 NCD 17/14 Q1018
                        NOSIG=
201809110320 METAR COR EGLL 110320Z AUTO 22012KT 9999 NCD 17/14 Q1018
                        NOSIG=
201809110250 METAR COR EGLL 110250Z AUTO 23011KT 9999 NCD 17/14 Q1019
                        NOSIG=
201809110220 METAR COR EGLL 110220Z AUTO 23011KT 9999 NCD 17/14 Q1019
                        NOSIG=
201809110150 METAR COR EGLL 110150Z AUTO 24012KT 9999 FEW020 17/14 Q1019
                        NOSIG=
201809110120 METAR COR EGLL 110120Z AUTO 23011KT 9999 FEW020 17/14 Q1019
                        NOSIG=
201809110050 METAR COR EGLL 110050Z AUTO 24011KT 9999 FEW020 17/14 Q1019
                        NOSIG=
201809110020 METAR COR EGLL 110020Z AUTO 23012KT 9999 SCT020 17/14 Q1019
                        NOSIG=
201809102350 METAR COR EGLL 102350Z AUTO 23012KT 9999 NCD 17/14 Q1019
                        NOSIG=
201809102320 METAR EGLL 102320Z AUTO 22011KT 9999 NCD 17/14 Q1020=
201809102250 METAR COR EGLL 102250Z AUTO 22011KT 9999 NCD 16/14 Q1020
                        NOSIG=
201809102220 METAR COR EGLL 102220Z AUTO 22010KT 9999 NCD 16/13 Q1020
                        NOSIG=
201809102150 METAR COR EGLL 102150Z AUTO 22009KT 9999 NCD 17/13 Q1020
                        NOSIG=
201809102120 METAR COR EGLL 102120Z AUTO 22012G23KT 9999 NCD 17/13 Q1020
                        NOSIG=
201809102050 METAR COR EGLL 102050Z AUTO 22011KT 9999 NCD 17/12 Q1020
                        NOSIG=
201809102020 METAR COR EGLL 102020Z AUTO 22010KT 9999 NCD 17/12 Q1021
                        NOSIG=
201809101950 METAR COR EGLL 101950Z AUTO 22010KT 9999 NCD 17/11 Q1021
                        NOSIG=
201809101920 METAR COR EGLL 101920Z AUTO 23012KT 9999 NCD 18/11 Q1021
                        NOSIG=
201809101850 METAR COR EGLL 101850Z AUTO 23011KT 9999 NCD 18/11 Q1021
                        NOSIG=
201809101820 METAR COR EGLL 101820Z AUTO 22011KT 9999 NCD 19/11 Q1020
                        NOSIG=
201809101750 METAR COR EGLL 101750Z AUTO 23012KT 9999 NCD 20/10 Q1020
                        NOSIG=
201809101720 METAR COR EGLL 101720Z AUTO 22013KT 9999 NCD 20/09 Q1020
                        NOSIG=
201809101650 METAR COR EGLL 101650Z AUTO 25013KT 9999 FEW045 21/10 Q1020
                        NOSIG=
201809101620 METAR COR EGLL 101620Z AUTO 23013KT 9999 FEW047 21/09 Q1020
                        NOSIG=
201809101550 METAR COR EGLL 101550Z AUTO 23012KT 9999 SCT048 21/09 Q1021
                        NOSIG=
201809101520 METAR COR EGLL 101520Z AUTO 25014KT 9999 FEW048 22/09 Q1021
                        NOSIG=
201809101450 METAR COR EGLL 101450Z AUTO 24014KT 200V260 9999 FEW048 22/09
                        Q1021 NOSIG=
201809101420 METAR COR EGLL 101420Z AUTO 23012KT 200V270 9999 FEW049 21/09
                        Q1021 NOSIG=
201809101350 METAR COR EGLL 101350Z AUTO 25015KT 9999 FEW048 21/08 Q1021
                        NOSIG=
201809101320 METAR COR EGLL 101320Z AUTO 24013KT 200V270 9999 NCD 22/08
                        Q1021 NOSIG=
201809101250 METAR COR EGLL 101250Z AUTO 24012KT 200V280 9999 NCD 21/09
                        Q1021 NOSIG=
201809101220 METAR COR EGLL 101220Z AUTO 23012KT 9999 FEW042 21/09 Q1021
                        NOSIG=
201809101150 METAR COR EGLL 101150Z AUTO 27011KT 9999 SCT038 19/09 Q1022
                        NOSIG=
201809101120 METAR COR EGLL 101120Z AUTO 25014KT 9999 BKN035 20/09 Q1022
                        NOSIG=
201809101050 METAR COR EGLL 101050Z AUTO 25014KT 9999 BKN035 20/09 Q1022
                        NOSIG=
201809101020 METAR COR EGLL 101020Z AUTO 25012KT 9999 BKN032 19/09 Q1022
                        NOSIG=
201809100950 METAR COR EGLL 100950Z AUTO 26012KT 9999 BKN029 18/10 Q1022
                        NOSIG=
201809100920 METAR COR EGLL 100920Z AUTO 26010KT 9999 SCT027 17/10 Q1022
                        NOSIG=
201809100850 METAR COR EGLL 100850Z AUTO 26012KT 220V300 9999 BKN030 17/11
                        Q1022 NOSIG=
201809100820 METAR COR EGLL 100820Z AUTO 25010KT 9999 NCD 16/11 Q1022
                        NOSIG=
201809100750 METAR COR EGLL 100750Z AUTO 25009KT 9999 NCD 15/12 Q1022
                        NOSIG=
201809100720 METAR COR EGLL 100720Z AUTO 25008KT 9999 NCD 14/12 Q1022
                        NOSIG=
201809100650 METAR COR EGLL 100650Z AUTO 24009KT 9999 NCD 14/12 Q1021
                        NOSIG=
201809100620 METAR COR EGLL 100620Z AUTO 24007KT 9999 NCD 14/12 Q1021
                        NOSIG=
201809100550 METAR COR EGLL 100550Z AUTO 23008KT 9999 NCD 14/12 Q1021
                        NOSIG=
201809100520 METAR COR EGLL 100520Z AUTO 23007KT 9999 NCD 13/12 Q1021
                        NOSIG=
201809100450 METAR COR EGLL 100450Z AUTO 22005KT 9999 NCD 14/12 Q1021
                        NOSIG=
201809100420 METAR COR EGLL 100420Z AUTO 24005KT 9999 NCD 13/11 Q1021
                        NOSIG=
201809100350 METAR COR EGLL 100350Z AUTO 23006KT 210V270 9999 NCD 14/12
                        Q1021 NOSIG=
201809100320 METAR COR EGLL 100320Z AUTO 24006KT 9999 NCD 14/12 Q1021
                        NOSIG=
201809100250 METAR COR EGLL 100250Z AUTO 23004KT 9999 FEW019 SCT023 14/12
                        Q1021 NOSIG=
201809100220 METAR COR EGLL 100220Z AUTO 24005KT 9999 SCT021 14/12 Q1021
                        NOSIG=
201809100150 METAR COR EGLL 100150Z AUTO 24005KT 9999 NCD 14/12 Q1021
                        NOSIG=
201809100120 METAR COR EGLL 100120Z AUTO 25006KT 9999 NCD 14/12 Q1021
                        NOSIG=
201809100050 METAR COR EGLL 100050Z AUTO 23005KT 9999 NCD 15/13 Q1020
                        NOSIG=
201809100020 METAR COR EGLL 100020Z AUTO 25005KT 9999 NCD 15/12 Q1020
                        NOSIG=
201809092350 METAR COR EGLL 092350Z AUTO 27007KT 9999 NCD 15/12 Q1020
                        NOSIG=
201809092320 METAR COR EGLL 092320Z AUTO 26007KT 9999 NCD 15/12 Q1020
                        NOSIG=
201809092250 METAR COR EGLL 092250Z AUTO 25007KT 9999 FEW025 BKN031 BKN045
                        15/12 Q1020 NOSIG=
201809092220 METAR COR EGLL 092220Z AUTO 26007KT 9999 FEW030 15/12 Q1020
                        NOSIG=
201809092150 METAR COR EGLL 092150Z AUTO 27007KT 9999 SCT031 17/12 Q1020
                        NOSIG=
201809092120 METAR COR EGLL 092120Z AUTO 25010KT 9999 NCD 18/12 Q1020
                        NOSIG=
201809092050 METAR COR EGLL 092050Z AUTO 26010KT 9999 NCD 18/12 Q1020
                        NOSIG=
201809092020 METAR COR EGLL 092020Z AUTO 23008KT 9999 NCD 18/12 Q1019
                        NOSIG=
201809091950 METAR COR EGLL 091950Z AUTO 28006KT 9999 NCD 18/11 Q1019
                        NOSIG=
201809091920 METAR COR EGLL 091920Z AUTO 28008KT 9999 NCD 18/11 Q1019
                        NOSIG=
201809091850 METAR COR EGLL 091850Z AUTO 29007KT 9999 NCD 19/11 Q1018
                        NOSIG=
201809091820 METAR COR EGLL 091820Z AUTO 29010KT 9999 NCD 20/11 Q1018
                        NOSIG=
201809091750 METAR COR EGLL 091750Z AUTO 27010KT 9999 NCD 21/10 Q1018
                        NOSIG=
201809091720 METAR COR EGLL 091720Z AUTO 29010KT 9999 NCD 21/10 Q1018
                        NOSIG=
201809091650 METAR COR EGLL 091650Z AUTO 27011KT 9999 NCD 22/09 Q1017
                        NOSIG=
201809091620 METAR COR EGLL 091620Z AUTO 27013KT 9999 SCT049 22/10 Q1017
                        NOSIG=
201809091550 METAR COR EGLL 091550Z AUTO 25015KT 9999 SCT047 23/12 Q1017
                        NOSIG=
201809091520 METAR COR EGLL 091520Z AUTO 25016KT 9999 FEW046 23/11 Q1017
                        NOSIG=
201809091450 METAR COR EGLL 091450Z AUTO 26014KT 9999 SCT047 24/12 Q1017
                        NOSIG=
201809091420 METAR COR EGLL 091420Z AUTO 26014KT 9999 SCT044 23/12 Q1017
                        NOSIG=
201809091350 METAR COR EGLL 091350Z AUTO 25013KT 9999 BKN042 24/12 Q1017
                        NOSIG=
201809091320 METAR COR EGLL 091320Z AUTO 22013KT 9999 BKN041 24/12 Q1017
                        NOSIG=
201809091250 METAR COR EGLL 091250Z AUTO 24011KT 9999 SCT040 23/12 Q1017
                        NOSIG=
201809091220 METAR COR EGLL 091220Z AUTO 23014KT 190V250 9999 SCT035 SCT047
                        23/12 Q1017 NOSIG=
201809091150 METAR COR EGLL 091150Z AUTO 23012KT 9999 FEW030 SCT036 BKN047
                        22/12 Q1017 NOSIG=
201809091120 METAR COR EGLL 091120Z AUTO 22015KT 190V260 9999 FEW029 BKN034
                        20/13 Q1018 NOSIG=
201809091050 METAR COR EGLL 091050Z AUTO 23012KT 9999 FEW024 SCT028 BKN037
                        20/13 Q1018 NOSIGNOSIG=
201809091020 METAR COR EGLL 091020Z AUTO 24013KT 9999 BKN022 OVC030 18/13
                        Q1018 NOSIG=
201809090950 METAR COR EGLL 090950Z AUTO 23013KT 9999 BKN021 OVC028 19/13
                        Q1018 NOSIG=
201809090920 METAR COR EGLL 090920Z AUTO 22012KT 9999 BKN021 18/13 Q1018
                        NOSIG=
201809090850 METAR COR EGLL 090850Z AUTO 22011KT 9999 NCD 18/13 Q1017
                        NOSIG=
201809090820 METAR COR EGLL 090820Z AUTO 22010KT 9999 NCD 17/13 Q1017
                        NOSIG=
201809090750 METAR COR EGLL 090750Z AUTO 21011KT 9999 SCT027 17/13 Q1017
                        NOSIG=
201809090720 METAR COR EGLL 090720Z AUTO 21010KT 170V240 9999 BKN029 17/13
                        Q1017 NOSIG=
201809090650 METAR COR EGLL 090650Z AUTO 21007KT 180V240 9999 NCD 16/12
                        Q1017 NOSIG=
201809090620 METAR COR EGLL 090620Z AUTO 21008KT 170V250 9999 NCD 15/12
                        Q1017 NOSIG=
201809090550 METAR COR EGLL 090550Z AUTO 21007G17KT 180V250 9999 NCD 15/12
                        Q1017 NOSIG=
201809090520 METAR COR EGLL 090520Z AUTO 21006KT 170V260 9999 NCD 15/12
                        Q1017 NOSIG=
201809090450 METAR COR EGLL 090450Z AUTO 21006KT 9999 FEW026 15/13 Q1017
                        NOSIG=
201809090420 METAR COR EGLL 090420Z AUTO 20005KT 9999 FEW025 15/13 Q1017
                        NOSIG=
201809090350 METAR COR EGLL 090350Z AUTO 21005KT 9999 NCD 14/13 Q1017
                        NOSIG=
201809090320 METAR COR EGLL 090320Z AUTO 21007KT 9999 NCD 15/13 Q1017
                        NOSIG=
201809090250 METAR COR EGLL 090250Z AUTO 18004KT 9999 NCD 14/13 Q1017
                        NOSIG=
201809090220 METAR COR EGLL 090220Z AUTO 18005KT 9999 NCD 15/13 Q1017
                        NOSIG=
201809090150 METAR COR EGLL 090150Z AUTO 20006KT 9999 NCD 15/13 Q1018
                        NOSIG=
201809090120 METAR COR EGLL 090120Z AUTO 20007KT 9999 NCD 15/13 Q1018
                        NOSIG=
201809090050 METAR COR EGLL 090050Z AUTO 21006KT 9999 NCD 15/13 Q1018
                        NOSIG=
201809090020 METAR COR EGLL 090020Z AUTO 21007KT 9999 NCD 15/13 Q1018
                        NOSIG=
201809082350 METAR COR EGLL 082350Z AUTO 21006KT 9999 NCD 15/12 Q1018
                        NOSIG=
201809082320 METAR COR EGLL 082320Z AUTO 22007KT 9999 NCD 16/12 Q1018
                        NOSIG=
201809082250 METAR COR EGLL 082250Z AUTO 22006KT 9999 NCD 16/12 Q1018
                        NOSIG=
201809082220 METAR COR EGLL 082220Z AUTO 23007KT 9999 NCD 15/12 Q1018
                        NOSIG=
201809082150 METAR COR EGLL 082150Z AUTO 23007KT 9999 NCD 16/12 Q1017
                        NOSIG=
201809082120 METAR COR EGLL 082120Z AUTO 23007KT 200V260 9999 -RA NCD
                        16/12 Q1018 NOSIG=
201809082050 METAR COR EGLL 082050Z AUTO 22008KT 180V250 9999 NCD 16/12
                        Q1018 NOSIG=
201809082020 METAR COR EGLL 082020Z AUTO 23010KT 9999 FEW039 17/12 Q1018
                        NOSIG=
201809081950 METAR COR EGLL 081950Z AUTO 23010KT 9999 NCD 17/12 Q1018
                        NOSIG=
201809081920 METAR COR EGLL 081920Z 23009KT 9999 -RA FEW033 17/12 Q1017
                        NOSIG=
201809081850 METAR COR EGLL 081850Z AUTO 24009KT 9999 NCD 17/12 Q1017
                        NOSIG=
201809081820 METAR COR EGLL 081820Z AUTO 23010KT 9999 -RA NCD 17/12 Q1017
                        NOSIG=
201809081750 METAR COR EGLL 081750Z AUTO 22010KT 200V260 9999 FEW030 18/12
                        Q1017 NOSIG=
201809081720 METAR COR EGLL 081720Z AUTO 22011KT 9999 FEW036 18/12 Q1017
                        NOSIG=
201809081650 METAR COR EGLL 081650Z AUTO 23014KT 9999 FEW034 19/11 Q1017
                        NOSIG=
201809081620 METAR COR EGLL 081620Z AUTO 23012KT 200V260 9999 FEW039 19/11
                        Q1017 NOSIG=
201809081550 METAR COR EGLL 081550Z AUTO 23013KT 9999 FEW040 19/11 Q1017
                        NOSIG=
201809081520 METAR EGLL 081520Z AUTO 24012KT 9999 FEW038 BKN048 20/11
                        Q1017=
201809081450 METAR EGLL 081450Z AUTO 23013KT 9999 FEW044 20/11 Q1017=
201809081420 METAR EGLL 081420Z AUTO 22013G24KT 9999 BKN048 20/11 Q1017=
201809081350 METAR COR EGLL 081350Z AUTO 22011KT 9999 SCT041 20/10 Q1017
                        NOSIG=
201809081320 METAR COR EGLL 081320Z AUTO 25011KT 9999 BKN036 20/10 Q1017
                        NOSIG=
201809081250 METAR COR EGLL 081250Z AUTO 22012KT 9999 FEW038 20/10 Q1018
                        NOSIG=
201809081220 METAR COR EGLL 081220Z AUTO 23012KT 9999 SCT036 19/10 Q1018
                        NOSIG=
201809081150 METAR COR EGLL 081150Z AUTO 23011KT 9999 FEW035/// 19/10
                        Q1018 NOSIG=
201809081120 METAR COR EGLL 081120Z AUTO 22012KT 9999 FEW032 19/10 Q1018
                        NOSIG=
201809081050 METAR COR EGLL 081050Z AUTO 21011KT 180V260 9999 NCD 18/10
                        Q1018 NOSIG=
201809081020 METAR COR EGLL 081020Z AUTO 22010KT 9999 FEW033 19/10 Q1018
                        NOSIG=
201809080950 METAR COR EGLL 080950Z AUTO 22009KT 9999 NCD 18/11 Q1018
                        NOSIG=
201809080920 METAR COR EGLL 080920Z AUTO 22008KT 190V260 9999 NCD 16/11
                        Q1018 NOSIG=
201809080850 METAR COR EGLL 080850Z AUTO 21007KT 180V250 9999 NCD 16/11
                        Q1018 NOSIG=
201809080820 METAR COR EGLL 080820Z AUTO 23008KT 9999 NCD 14/11 Q1018
                        NOSIG=
201809080750 METAR COR EGLL 080750Z AUTO 23007KT 9999 NCD 13/10 Q1019
                        NOSIG=
201809080720 METAR COR EGLL 080720Z AUTO 22007KT 9999 -RA NCD 13/10 Q1018
                        NOSIG=
201809080650 METAR COR EGLL 080650Z AUTO 21007KT 9999 FEW045 12/09 Q1018
                        NOSIG=
201809080620 METAR COR EGLL 080620Z AUTO 22004KT 180V240 9999 BKN039 12/09
                        Q1018 NOSIG=
201809080550 METAR COR EGLL 080550Z AUTO 20005KT 130V270 9999 BKN038 OVC045
                        11/09 Q1018 NOSIG=
201809080520 METAR COR EGLL 080520Z AUTO 21005KT 170V270 9999 BKN036 11/09
                        Q1018 NOSIG=
201809080450 METAR COR EGLL 080450Z AUTO 20004KT 9999 NCD 10/08 Q1018
                        NOSIG=
201809080420 METAR COR EGLL 080420Z AUTO 21003KT 9999 NCD 10/08 Q1018
                        NOSIG=
201809080350 METAR COR EGLL 080350Z AUTO 21004KT 9999 NCD 10/08 Q1018
                        NOSIG=
201809080320 METAR COR EGLL 080320Z AUTO 19005KT 9999 NCD 09/08 Q1019
                        NOSIG=
201809080250 METAR COR EGLL 080250Z AUTO 26003KT 9999 NCD 09/08 Q1019
                        NOSIG=
201809080220 METAR COR EGLL 080220Z AUTO 27006KT 9999 NCD 09/07 Q1019
                        NOSIG=
201809080150 METAR COR EGLL 080150Z AUTO 28005KT 9999 NCD 09/08 Q1019
                        NOSIG=
201809080120 METAR COR EGLL 080120Z AUTO 27006KT 9999 NCD 09/07 Q1019
                        NOSIG=
201809080050 METAR COR EGLL 080050Z AUTO 27007KT 9999 NCD 10/07 Q1018
                        NOSIG=
201809080020 METAR COR EGLL 080020Z AUTO 26007KT 9999 NCD 10/07 Q1018
                        NOSIG=
201809072350 METAR COR EGLL 072350Z AUTO 27007KT 9999 NCD 10/07 Q1018
                        NOSIG=
201809072320 METAR COR EGLL 072320Z AUTO 28005KT 9999 NCD 11/07 Q1018
                        NOSIG=
201809072250 METAR COR EGLL 072250Z AUTO 29007KT 9999 NCD 11/07 Q1018
                        NOSIG=
201809072220 METAR COR EGLL 072220Z AUTO 28006KT 9999 NCD 10/07 Q1018
                        NOSIG=
201809072150 METAR COR EGLL 072150Z AUTO 28008KT 9999 NCD 11/07 Q1018
                        NOSIG=
201809072120 METAR COR EGLL 072120Z AUTO 28007KT 9999 NCD 12/07 Q1018
                        NOSIG=
201809072050 METAR COR EGLL 072050Z AUTO 29007KT 9999 NCD 13/06 Q1018
                        NOSIG=
201809072020 METAR COR EGLL 072020Z AUTO 28009KT 9999 NCD 12/06 Q1018
                        NOSIG=
201809071950 METAR COR EGLL 071950Z AUTO 27010KT 9999 NCD 14/06 Q1018
                        NOSIG=
201809071920 METAR COR EGLL 071920Z AUTO 27010KT 9999 NCD 15/05 Q1017
                        NOSIG=
201809071850 METAR COR EGLL 071850Z AUTO 28007KT 9999 NCD 15/05 Q1017
                        NOSIG=
201809071820 METAR COR EGLL 071820Z AUTO 27010KT 9999 NCD 16/05 Q1017
                        NOSIG=
201809071750 METAR COR EGLL 071750Z AUTO 27011KT 9999 NCD 17/05 Q1017
                        NOSIG=
201809071720 METAR COR EGLL 071720Z AUTO 27012KT 9999 NCD 17/04 Q1016
                        NOSIG=
201809071650 METAR COR EGLL 071650Z AUTO 27012KT 9999 NCD 18/05 Q1016
                        NOSIG=
201809071620 METAR COR EGLL 071620Z AUTO 27014KT 9999 NCD 18/04 Q1016
                        NOSIG=
201809071550 METAR COR EGLL 071550Z AUTO 27012KT 240V320 9999 NCD 18/04
                        Q1016 NOSIG=
201809071520 METAR COR EGLL 071520Z AUTO 27014KT 9999 NCD 19/04 Q1016
                        NOSIG=
201809071450 METAR COR EGLL 071450Z AUTO 26015KT 9999 NCD 18/04 Q1016
                        NOSIG=
201809071420 METAR COR EGLL 071420Z AUTO 27014KT 9999 NCD 19/04 Q1016
                        NOSIG=
201809071350 METAR COR EGLL 071350Z AUTO 26014KT 9999 NCD 20/04 Q1016
                        NOSIG=
201809071320 METAR COR EGLL 071320Z AUTO 28013KT 240V310 9999 NCD 19/04
                        Q1016 NOSIG=
201809071250 METAR COR EGLL 071250Z AUTO 26015KT 9999 SCT049 18/05 Q1016
                        NOSIG=
201809071220 METAR COR EGLL 071220Z AUTO 25014KT 9999 SCT048 17/05 Q1016
                        NOSIG=
201809071150 METAR COR EGLL 071150Z AUTO 27012KT 230V300 9999 BKN044 18/05
                        Q1016 NOSIG=
201809071120 METAR COR EGLL 071120Z AUTO 27012KT 9999 BKN043 17/06 Q1016
                        NOSIG=
201809071050 METAR COR EGLL 071050Z AUTO 27011KT 240V300 9999 FEW043 17/06
                        Q1016 NOSIG=
201809071020 METAR COR EGLL 071020Z AUTO 25010KT 9999 FEW036 16/06 Q1016
                        NOSIG=
201809070950 METAR COR EGLL 070950Z AUTO 28008KT 240V330 9999 NCD 15/07
                        Q1016 NOSIG=
201809070920 METAR COR EGLL 070920Z AUTO 27010KT 240V300 9999 NCD 14/07
                        Q1016 NOSIG=
201809070850 METAR COR EGLL 070850Z AUTO 28010KT 9999 NCD 13/08 Q1016
                        NOSIG=
201809070820 METAR COR EGLL 070820Z AUTO 27011KT 9999 NCD 12/08 Q1016
                        NOSIG=
201809070750 METAR COR EGLL 070750Z AUTO 29009KT 9999 NCD 11/08 Q1016
                        NOSIG=
201809070720 METAR COR EGLL 070720Z AUTO 27009KT 9999 NCD 11/08 Q1016
                        NOSIG=
201809070650 METAR COR EGLL 070650Z AUTO 28008KT 9999 NCD 10/07 Q1016
                        NOSIG=
201809070620 METAR COR EGLL 070620Z AUTO 27008KT 9999 NCD 08/07 Q1016
                        NOSIG=
201809070550 METAR COR EGLL 070550Z AUTO 27009KT 9999 NCD 08/07 Q1015
                        NOSIG=
201809070520 METAR COR EGLL 070520Z AUTO 28008KT 9999 NCD 08/07 Q1015
                        NOSIG=
201809070450 METAR COR EGLL 070450Z AUTO 27008KT 9999 NCD 08/07 Q1015
                        NOSIG=
201809070420 METAR COR EGLL 070420Z AUTO 27009KT 9999 NCD 08/07 Q1015
                        NOSIG=
201809070350 METAR COR EGLL 070350Z AUTO 28007KT 9999 NCD 08/07 Q1015
                        NOSIG=
201809070320 METAR COR EGLL 070320Z AUTO 28006KT 9999 NCD 09/07 Q1015
                        NOSIG=
201809070250 METAR COR EGLL 070250Z AUTO 29007KT 9999 NCD 09/07 Q1015
                        NOSIG=
201809070220 METAR COR EGLL 070220Z AUTO 29007KT 9999 NCD 10/07 Q1015
                        NOSIG=
201809070150 METAR COR EGLL 070150Z AUTO 29007KT 9999 NCD 11/07 Q1015
                        NOSIG=
201809070120 METAR COR EGLL 070120Z AUTO 29006KT 9999 NCD 11/07 Q1015
                        NOSIG=
201809070050 METAR COR EGLL 070050Z AUTO 29005KT 9999 NCD 11/08 Q1015
                        NOSIG=
201809070020 METAR COR EGLL 070020Z AUTO 30005KT 9999 NCD 12/08 Q1015
                        NOSIG=
201809062350 METAR COR EGLL 062350Z AUTO 30005KT 270V340 9999 BKN048 13/08
                        Q1015 NOSIG=
201809062320 METAR COR EGLL 062320Z AUTO 32007KT 300V020 9999 BKN045 13/08
                        Q1015 NOSIG=
201809062250 METAR COR EGLL 062250Z AUTO 32006KT 290V030 9999 OVC044 13/09
                        Q1015 NOSIG=
201809062220 METAR COR EGLL 062220Z AUTO 32006KT 280V360 9999 BKN040 14/09
                        Q1015 NOSIG=
201809062150 METAR COR EGLL 062150Z AUTO 31006KT 280V350 9999 -RA BKN033
                        13/10 Q1015 NOSIG=
201809062120 METAR COR EGLL 062120Z AUTO 33006KT 300V010 9999 FEW019 OVC030
                        14/10 Q1014 NOSIG=
201809062050 METAR COR EGLL 062050Z AUTO 32009KT 290V360 9999 OVC024 14/10
                        Q1014 NOSIG=
201809062020 METAR COR EGLL 062020Z AUTO 35006KT 310V030 9999 BKN014 BKN019
                        15/13 Q1014 BECMG BKN020=
201809061950 METAR COR EGLL 061950Z AUTO 31004KT 9999 FEW039 OVC046 15/14
                        Q1014 NOSIG=
201809061920 METAR COR EGLL 061920Z AUTO 29006KT 9999 -RA FEW019 SCT032
                        BKN045 15/14 Q1014 NOSIG=
201809061850 METAR COR EGLL 061850Z AUTO 29006KT 9999 FEW019 BKN033 BKN046
                        16/14 Q1014 NOSIG=
201809061820 METAR COR EGLL 061820Z AUTO 27010KT 9999 FEW034 15/14 Q1014
                        TEMPO 4000 RA=
201809061750 METAR COR EGLL 061750Z AUTO 27010KT 9999 FEW027 BKN034 BKN043
                        15/14 Q1014 RERA TEMPO 4000 RA=
201809061720 METAR COR EGLL 061720Z AUTO 29012KT 3900 RA SCT025 BKN030
                        16/14 Q1014 BECMG 6000=
201809061650 METAR COR EGLL 061650Z AUTO 25012KT 9999 BKN035 OVC042 19/12
                        Q1013 TEMPO RA=
201809061620 METAR COR EGLL 061620Z AUTO 25010KT 9999 BKN038 OVC049 19/11
                        Q1013 NOSIG=
201809061550 METAR COR EGLL 061550Z AUTO 26012KT 9999 OVC044 20/10 Q1014
                        NOSIG=
201809061520 METAR COR EGLL 061520Z AUTO 25013KT 9999 FEW047 20/10 Q1014
                        NOSIG=
201809061450 METAR COR EGLL 061450Z AUTO 25010KT 220V280 9999 BKN045 21/10
                        Q1014 NOSIG=
201809061420 METAR COR EGLL 061420Z AUTO 26010KT 230V290 9999 FEW045 21/10
                        Q1015 NOSIG=
201809061350 METAR COR EGLL 061350Z AUTO 27009KT 230V290 9999 SCT045 21/10
                        Q1015 NOSIG=
201809061320 METAR COR EGLL 061320Z AUTO 28008KT 240V310 9999 NCD 21/09
                        Q1015 NOSIG=
201809061250 METAR COR EGLL 061250Z AUTO 29006KT 250V350 9999 BKN048 22/08
                        Q1016 NOSIG=
201809061220 METAR EGLL 061220Z AUTO 25006KT 160V310 9999 SCT047 21/08
                        Q1016=
201809061150 METAR COR EGLL 061150Z AUTO 27005KT 170V330 9999 FEW048 20/08
                        Q1016 NOSIG=
201809061120 METAR COR EGLL 061120Z AUTO 22004KT 150V290 9999 NCD 20/08
                        Q1016 NOSIG=
201809061050 METAR COR EGLL 061050Z AUTO 29004KT 220V360 9999 NCD 20/09
                        Q1017 NOSIG=
201809061020 METAR COR EGLL 061020Z AUTO 34004KT 240V030 9999 NCD 19/08
                        Q1017 NOSIG=
201809060950 METAR COR EGLL 060950Z AUTO 30005KT 270V340 9999 NCD 18/09
                        Q1017 NOSIG=
201809060920 METAR COR EGLL 060920Z AUTO VRB03KT 9999 NCD 17/09 Q1017
                        NOSIG=
201809060850 METAR COR EGLL 060850Z AUTO VRB03KT 9999 NCD 16/10 Q1018
                        NOSIG=
201809060820 METAR COR EGLL 060820Z AUTO 32004KT 280V010 9999 NCD 15/09
                        Q1018 NOSIG=
201809060750 METAR COR EGLL 060750Z AUTO 30005KT 9999 NCD 13/09 Q1018
                        NOSIG=
201809060720 METAR COR EGLL 060720Z AUTO 31004KT 290V350 9999 NCD 12/08
                        Q1018 NOSIG=
201809060650 METAR COR EGLL 060650Z AUTO 31005KT 9999 NCD 11/08 Q1018
                        NOSIG=
201809060620 METAR COR EGLL 060620Z AUTO 31005KT 9999 NCD 11/08 Q1018
                        NOSIG=
201809060550 METAR COR EGLL 060550Z AUTO 29005KT 9999 NCD 11/08 Q1018
                        NOSIG=
201809060520 METAR COR EGLL 060520Z AUTO 30004KT 270V340 9999 NCD 11/08
                        Q1018 NOSIG=
201809060450 METAR EGLL 060450Z AUTO 29005KT 9999 NCD 11/08 Q1018=
201809060420 METAR COR EGLL 060420Z AUTO 30003KT 9999 NCD 11/08 Q1018
                        NOSIG=
201809060350 METAR COR EGLL 060350Z AUTO 30004KT 9999 NCD 12/08 Q1018
                        NOSIG=
201809060320 METAR COR EGLL 060320Z AUTO 30004KT 9999 NCD 12/08 Q1018
                        NOSIG=
201809060250 METAR COR EGLL 060250Z AUTO 30003KT 9999 NCD 12/08 Q1019
                        NOSIG=
201809060220 METAR COR EGLL 060220Z AUTO 32004KT 290V360 9999 BKN048 13/09
                        Q1019 NOSIG=
201809060150 METAR COR EGLL 060150Z AUTO 32005KT 290V360 9999 BKN048 14/09
                        Q1019 NOSIG=
201809060120 METAR COR EGLL 060120Z AUTO 31004KT 9999 OVC045 15/10 Q1019
                        NOSIG=
201809060050 METAR COR EGLL 060050Z AUTO 35004KT 290V030 9999 OVC044 15/12
                        Q1019 NOSIG=
201809060020 METAR COR EGLL 060020Z AUTO VRB03KT 9999 BKN044 15/12 Q1019
                        NOSIG=
201809052350 METAR COR EGLL 052350Z AUTO 31004KT 9999 BKN045 15/12 Q1019
                        NOSIG=
201809052320 METAR COR EGLL 052320Z AUTO 36004KT 9999 SCT046 16/12 Q1019
                        NOSIG=
201809052250 METAR COR EGLL 052250Z AUTO VRB03KT 9999 NCD 16/12 Q1019
                        NOSIG=
201809052220 METAR COR EGLL 052220Z AUTO 35003KT 9999 FEW044 17/12 Q1019
                        NOSIG=
201809052150 METAR COR EGLL 052150Z AUTO 03004KT 350V060 9999 BKN044 18/12
                        Q1020 NOSIG=
201809052120 METAR COR EGLL 052120Z AUTO 04004KT 9999 BKN045 18/12 Q1020
                        NOSIG=
201809052050 METAR COR EGLL 052050Z AUTO 04006KT 010V080 9999 OVC045 18/12
                        Q1020 NOSIG=
201809052020 METAR COR EGLL 052020Z AUTO 04006KT 360V070 9999 OVC045 18/12
                        Q1020 NOSIG=
201809051950 METAR COR EGLL 051950Z AUTO 03004KT 360V060 9999 BKN045 19/11
                        Q1020 NOSIG=
201809051920 METAR COR EGLL 051920Z AUTO VRB02KT 9999 BKN045 19/11 Q1020
                        NOSIG=
201809051850 METAR COR EGLL 051850Z AUTO 36005KT 9999 NCD 19/11 Q1019
                        NOSIG=
201809051820 METAR COR EGLL 051820Z AUTO 36006KT 330V040 9999 NCD 20/11
                        Q1019 NOSIG=
201809051750 METAR COR EGLL 051750Z AUTO 36007KT 320V050 9999 NCD 20/10
                        Q1019 NOSIG=
201809051720 METAR COR EGLL 051720Z AUTO 36007KT 9999 NCD 21/10 Q1019
                        NOSIG=
201809051650 METAR COR EGLL 051650Z AUTO 34008KT 290V010 9999 NCD 21/11
                        Q1019 NOSIG=
201809051620 METAR COR EGLL 051620Z AUTO 32007KT 270V360 9999 NCD 22/11
                        Q1019 NOSIG=
201809051550 METAR COR EGLL 051550Z AUTO 35007KT 310V020 9999 FEW043 21/11
                        Q1020 NOSIG=
201809051520 METAR COR EGLL 051520Z AUTO 35006KT 300V050 9999 SCT043 21/11
                        Q1020 NOSIG=
201809051450 METAR COR EGLL 051450Z AUTO 02007KT 340V080 9999 SCT042 22/11
                        Q1020 NOSIG=
201809051420 METAR COR EGLL 051420Z AUTO 34006KT 290V050 9999 FEW042 22/11
                        Q1020 NOSIG=
201809051350 METAR COR EGLL 051350Z AUTO 35006KT 300V030 9999 FEW044 22/10
                        Q1020 NOSIG=
201809051320 METAR COR EGLL 051320Z AUTO 36006KT 290V050 9999 SCT038 21/11
                        Q1020 NOSIG=
201809051250 METAR COR EGLL 051250Z AUTO 36006KT 320V060 9999 SCT034 22/11
                        Q1020 NOSIG=
201809051220 METAR COR EGLL 051220Z AUTO 04006KT 350V090 9999 SCT032 21/12
                        Q1021 NOSIG=
201809051150 METAR COR EGLL 051150Z AUTO 01006KT 330V090 9999 SCT029 20/12
                        Q1021 NOSIG=
201809051120 METAR COR EGLL 051120Z AUTO 03007KT 340V080 9999 SCT026 20/12
                        Q1021 NOSIG=
201809051050 METAR COR EGLL 051050Z AUTO 03006KT 320V080 9999 FEW026 19/12
                        Q1021 NOSIG=
201809051020 METAR COR EGLL 051020Z AUTO 01006KT 340V050 9999 NCD 18/12
                        Q1021 NOSIG=
201809050950 METAR COR EGLL 050950Z AUTO 02008KT 320V060 9999 FEW022 18/12
                        Q1022 NOSIG=
201809050920 METAR COR EGLL 050920Z AUTO 35006KT 310V040 9999 SCT018 17/12
                        Q1022 NOSIG=
201809050850 METAR COR EGLL 050850Z AUTO 35006KT 320V030 9999 BKN015 16/12
                        Q1022 NOSIG=
201809050820 METAR COR EGLL 050820Z AUTO 36006KT 330V040 9999 FEW015 15/12
                        Q1022 NOSIG=
201809050750 METAR COR EGLL 050750Z AUTO 36006KT 320V050 9999 NCD 14/11
                        Q1022 NOSIG=
201809050720 METAR COR EGLL 050720Z AUTO 36006KT 320V040 9999 NCD 14/11
                        Q1022 NOSIG=
201809050650 METAR COR EGLL 050650Z AUTO 36004KT 320V070 9999 NCD 14/11
                        Q1022 NOSIG=
201809050620 METAR COR EGLL 050620Z AUTO 36006KT 310V040 9999 SCT012 14/11
                        Q1022 NOSIG=
201809050550 METAR COR EGLL 050550Z AUTO 01004KT 340V040 9999 BKN012 14/11
                        Q1022 NOSIG=
201809050520 METAR COR EGLL 050520Z AUTO 35004KT 320V040 9999 BKN012 14/11
                        Q1022 NOSIG=
201809050450 METAR COR EGLL 050450Z AUTO 35005KT 9999 BKN013 14/11 Q1021
                        TEMPO SCT013=
201809050420 METAR COR EGLL 050420Z AUTO VRB03KT 9999 FEW015 14/11 Q1021
                        NOSIG=
201809050350 METAR COR EGLL 050350Z AUTO 36004KT 9999 NCD 14/12 Q1021
                        NOSIG=
201809050320 METAR COR EGLL 050320Z AUTO VRB03KT 9999 NCD 15/12 Q1021
                        NOSIG=
201809050250 METAR COR EGLL 050250Z AUTO VRB03KT 9999 FEW024 15/12 Q1021
                        NOSIG=
201809050220 METAR COR EGLL 050220Z AUTO 01005KT 330V060 9999 SCT023 15/12
                        Q1021 NOSIG=
201809050150 METAR COR EGLL 050150Z AUTO 01004KT 310V050 9999 BKN019 15/12
                        Q1022 NOSIG=
201809050120 METAR EGLL 050120Z AUTO VRB03KT 9999 BKN015 BKN023 16/12
                        Q1022=
201809050050 METAR EGLL 050050Z AUTO VRB03KT 9999 BKN016 BKN022 16/12
                        Q1022=
201809050020 METAR COR EGLL 050020Z AUTO 02004KT 320V070 9999 FEW018 SCT022
                        16/12 Q1022 NOSIG=
201809042350 METAR COR EGLL 042350Z AUTO 03004KT 350V060 9999 BKN018 16/12
                        Q1022 NOSIG=
201809042320 METAR COR EGLL 042320Z AUTO 03005KT 9999 SCT023 16/12 Q1022
                        NOSIG=
201809042250 METAR COR EGLL 042250Z AUTO 03005KT 340V060 9999 NCD 16/12
                        Q1022 NOSIG=
201809042220 METAR COR EGLL 042220Z AUTO 03005KT 9999 NCD 16/12 Q1022
                        NOSIG=
201809042150 METAR COR EGLL 042150Z AUTO 02005KT 340V070 9999 NCD 16/12
                        Q1022 NOSIG=
201809042120 METAR COR EGLL 042120Z AUTO 03006KT 350V060 9999 FEW018 16/12
                        Q1022 NOSIG=
201809042050 METAR COR EGLL 042050Z AUTO 03005KT 340V070 9999 FEW019 16/12
                        Q1022 NOSIG=
201809042020 METAR COR EGLL 042020Z AUTO 02006KT 330V060 9999 NCD 16/12
                        Q1022 NOSIG=
201809041950 METAR COR EGLL 041950Z AUTO 03007KT 330V070 9999 NCD 17/12
                        Q1022 NOSIG=
201809041920 METAR COR EGLL 041920Z AUTO 01005KT 330V060 9999 NCD 17/12
                        Q1021 NOSIG=
201809041850 METAR COR EGLL 041850Z AUTO 36007KT 9999 NCD 18/12 Q1021
                        NOSIG=
201809041820 METAR COR EGLL 041820Z AUTO 02006KT 330V060 9999 NCD 18/12
                        Q1021 NOSIG=
201809041750 METAR EGLL 041750Z AUTO 02007KT 340V060 9999 FEW030 19/12
                        Q1021=
201809041720 METAR EGLL 041720Z AUTO 36007KT 320V050 9999 FEW032 20/12
                        Q1021=
201809041650 METAR EGLL 041650Z AUTO 36007KT 320V040 9999 FEW033 20/12
                        Q1021=
201809041620 METAR EGLL 041620Z AUTO 02006KT 320V080 9999 NCD 20/12 Q1021=
201809041550 METAR EGLL 041550Z AUTO 02007KT 340V050 9999 NCD 20/12 Q1021=
201809041520 METAR EGLL 041520Z AUTO 03007KT 340V080 9999 NCD 20/12 Q1020=
201809041450 METAR EGLL 041450Z AUTO 36008KT 320V040 9999 FEW035 21/12
                        Q1020=
201809041420 METAR COR EGLL 041420Z AUTO 36006KT 320V030 9999 NCD 20/11
                        Q1021 NOSIG=
201809041350 METAR COR EGLL 041350Z AUTO 36006KT 310V050 9999 NCD 20/11
                        Q1021 NOSIG=
201809041320 METAR COR EGLL 041320Z AUTO 01006KT 320V050 9999 NCD 19/11
                        Q1021 NOSIG=
201809041250 METAR COR EGLL 041250Z AUTO 04007KT 340V080 9999 NCD 19/11
                        Q1021 NOSIG=
201809041220 METAR COR EGLL 041220Z AUTO 04006KT 350V090 9999 NCD 18/10
                        Q1021 NOSIG=
201809041150 METAR COR EGLL 041150Z AUTO 03008KT 010V070 9999 NCD 19/10
                        Q1021 NOSIG=
201809041120 METAR COR EGLL 041120Z AUTO 05007KT 010V080 9999 NCD 18/10
                        Q1021 NOSIG=
201809041050 METAR COR EGLL 041050Z AUTO 03006KT 330V060 9999 NCD 18/10
                        Q1021 NOSIG=
201809041020 METAR COR EGLL 041020Z AUTO 36005KT 310V050 9999 NCD 18/10
                        Q1021 NOSIG=
201809040950 METAR COR EGLL 040950Z AUTO 36007KT 320V030 9999 NCD 17/11
                        Q1021 NOSIG=
201809040920 METAR COR EGLL 040920Z AUTO 01006KT 340V040 9999 NCD 17/11
                        Q1021 NOSIG=
201809040850 METAR COR EGLL 040850Z AUTO 04008KT 9999 FEW018 17/12 Q1021
                        NOSIG=
201809040820 METAR COR EGLL 040820Z AUTO 02006KT 340V050 9999 SCT015 16/11
                        Q1021 NOSIG=
201809040750 METAR COR EGLL 040750Z AUTO 01006KT 340V040 9999 FEW013 15/12
                        Q1021 NOSIG=
201809040720 METAR COR EGLL 040720Z AUTO 02004KT 330V070 9999 BKN011 14/12
                        Q1021 BECMG SCT015=
201809040650 METAR COR EGLL 040650Z AUTO 02005KT 350V050 8000 SCT008 14/12
                        Q1021 NOSIG=
201809040620 METAR COR EGLL 040620Z AUTO 04005KT 010V080 7000 BKN006 13/12
                        Q1021 BECMG BKN010=
201809040550 METAR COR EGLL 040550Z AUTO 03006KT 360V070 7000 SCT006 13/12
                        Q1021 TEMPO BKN006=
201809040520 METAR EGLL 040520Z AUTO 36006KT 330V030 9999 NCD 13/11 Q1021=
201809040450 METAR COR EGLL 040450Z AUTO VRB03KT 9999 NCD 13/12 Q1020
                        NOSIG=
201809040420 METAR COR EGLL 040420Z AUTO 36004KT 9999 NCD 13/12 Q1020
                        NOSIG=
201809040350 METAR COR EGLL 040350Z AUTO VRB02KT 9999 NCD 13/11 Q1021
                        NOSIG=
201809040320 METAR COR EGLL 040320Z AUTO VRB02KT 9999 NCD 12/11 Q1021
                        NOSIG=
201809040250 METAR COR EGLL 040250Z AUTO VRB02KT 9999 NCD 12/11 Q1021
                        NOSIG=
201809040220 METAR COR EGLL 040220Z AUTO VRB02KT 9999 NCD 13/12 Q1021
                        NOSIG=
201809040150 METAR COR EGLL 040150Z AUTO 36004KT 320V020 9999 NCD 14/12
                        Q1021 NOSIG=
201809040120 METAR COR EGLL 040120Z AUTO VRB03KT 9999 NCD 14/12 Q1020
                        NOSIG=
201809040050 METAR COR EGLL 040050Z AUTO 35004KT 320V030 9999 NCD 15/12
                        Q1020 NOSIG=
201809040020 METAR COR EGLL 040020Z AUTO 36004KT 9999 NCD 15/13 Q1020
                        NOSIG=
201809032350 METAR COR EGLL 032350Z AUTO 36005KT 9999 NCD 15/13 Q1020
                        NOSIG=
201809032320 METAR COR EGLL 032320Z AUTO 35004KT 9999 NCD 16/13 Q1020
                        NOSIG=
201809032250 METAR COR EGLL 032250Z AUTO 35003KT 9999 NCD 16/12 Q1020
                        NOSIG=
201809032220 METAR COR EGLL 032220Z AUTO 02003KT 9999 NCD 17/11 Q1020
                        NOSIG=
201809032150 METAR COR EGLL 032150Z AUTO VRB02KT 9999 NCD 18/12 Q1020
                        NOSIG=
201809032120 METAR COR EGLL 032120Z AUTO 07005KT 9999 NCD 18/12 Q1020
                        NOSIG=
201809032050 METAR COR EGLL 032050Z AUTO 08005KT 050V110 9999 NCD 19/12
                        Q1020 NOSIG=
201809032020 METAR COR EGLL 032020Z AUTO 07004KT 9999 NCD 20/09 Q1020
                        NOSIG=
201809031950 METAR COR EGLL 031950Z AUTO 06004KT 9999 NCD 21/09 Q1020
                        NOSIG=
201809031920 METAR COR EGLL 031920Z AUTO 05004KT 9999 NCD 22/09 Q1019
                        NOSIG=
201809031850 METAR COR EGLL 031850Z AUTO 04004KT 9999 NCD 22/09 Q1019
                        NOSIG=
201809031820 METAR COR EGLL 031820Z AUTO 04004KT 020V080 9999 NCD 22/09
                        Q1019 NOSIG=
201809031750 METAR COR EGLL 031750Z AUTO 06004KT 010V100 9999 NCD 23/09
                        Q1019 NOSIG=
201809031720 METAR COR EGLL 031720Z AUTO 07005KT 9999 NCD 23/10 Q1019
                        NOSIG=
201809031650 METAR COR EGLL 031650Z AUTO 06005KT 030V110 9999 NCD 23/10
                        Q1019 NOSIG=
201809031620 METAR COR EGLL 031620Z AUTO 07005KT 010V110 9999 NCD 24/10
                        Q1019 NOSIG=
201809031550 METAR COR EGLL 031550Z AUTO 34005KT 290V050 9999 NCD 24/10
                        Q1019 NOSIG=
201809031520 METAR COR EGLL 031520Z AUTO 31004KT 250V060 9999 NCD 24/10
                        Q1019 NOSIG=
201809031450 METAR COR EGLL 031450Z AUTO VRB04KT 9999 NCD 24/10 Q1019
                        NOSIG=
201809031420 METAR COR EGLL 031420Z AUTO VRB05KT 9999 NCD 24/09 Q1020
                        NOSIG=
201809031350 METAR EGLL 031350Z AUTO 31005KT 260V050 9999 NCD 24/08 Q1020=
201809031320 METAR COR EGLL 031320Z AUTO VRB04KT 9999 NCD 23/08 Q1020
                        NOSIG=
201809031250 METAR COR EGLL 031250Z AUTO 34004KT 270V040 9999 NCD 23/08
                        Q1020 NOSIG=
201809031220 METAR COR EGLL 031220Z AUTO 29004KT 240V350 9999 NCD 23/08
                        Q1020 NOSIG=
201809031150 METAR COR EGLL 031150Z AUTO VRB03KT 9999 NCD 21/09 Q1020
                        NOSIG=
201809031120 METAR COR EGLL 031120Z AUTO VRB03KT 9999 NCD 21/09 Q1021
                        NOSIG=
201809031050 METAR COR EGLL 031050Z AUTO VRB04KT 9999 NCD 21/09 Q1021
                        NOSIG=
201809031020 METAR COR EGLL 031020Z AUTO VRB02KT 9999 NCD 20/09 Q1021
                        NOSIG=
201809030950 METAR COR EGLL 030950Z AUTO VRB03KT 9999 NCD 20/10 Q1021
                        NOSIG=
201809030920 METAR COR EGLL 030920Z AUTO VRB02KT 9999 NCD 20/11 Q1021
                        NOSIG=
201809030850 METAR COR EGLL 030850Z AUTO VRB01KT 9999 NCD 19/11 Q1021
                        NOSIG=
201809030820 METAR COR EGLL 030820Z AUTO VRB01KT 9999 NCD 18/12 Q1021
                        NOSIG=
201809030750 METAR COR EGLL 030750Z AUTO VRB01KT 9999 NCD 17/12 Q1022
                        NOSIG=
201809030720 METAR COR EGLL 030720Z AUTO VRB01KT 9999 NCD 16/12 Q1022
                        NOSIG=
201809030650 METAR COR EGLL 030650Z AUTO 11001KT 9999 NCD 15/12 Q1022
                        NOSIG=
201809030620 METAR COR EGLL 030620Z AUTO 10001KT 9999 NCD 13/11 Q1022
                        NOSIG=
201809030550 METAR COR EGLL 030550Z AUTO VRB02KT 9999 NCD 11/10 Q1021
                        NOSIG=
201809030520 METAR COR EGLL 030520Z AUTO VRB02KT 9999 NCD 11/10 Q1021
                        NOSIG=
201809030450 METAR COR EGLL 030450Z AUTO 07001KT 9999 NCD 12/10 Q1021
                        NOSIG=
201809030420 METAR COR EGLL 030420Z AUTO 00000KT 9999 NCD 12/11 Q1021
                        NOSIG=
201809030350 METAR COR EGLL 030350Z AUTO 07001KT 9000 NCD 11/10 Q1021
                        NOSIG=
201809030320 METAR COR EGLL 030320Z AUTO 07001KT 9999 NCD 12/10 Q1021
                        NOSIG=
201809030250 METAR COR EGLL 030250Z AUTO 08002KT 9999 NCD 13/11 Q1021
                        NOSIG=
201809030220 METAR COR EGLL 030220Z AUTO 11001KT 9999 NCD 13/11 Q1022
                        NOSIG=
201809030150 METAR COR EGLL 030150Z AUTO 11001KT 9999 NCD 13/11 Q1022
                        NOSIG=
201809030120 METAR COR EGLL 030120Z AUTO 00000KT 9999 NCD 13/11 Q1022
                        NOSIG=
201809030050 METAR COR EGLL 030050Z AUTO 05001KT 9999 NCD 14/11 Q1022
                        NOSIG=
201809030020 METAR COR EGLL 030020Z AUTO 08002KT 9999 NCD 15/11 Q1022
                        NOSIG=
201809022350 METAR COR EGLL 022350Z AUTO 09002KT 9999 NCD 15/11 Q1022
                        NOSIG=
201809022320 METAR COR EGLL 022320Z AUTO 10004KT 9999 NCD 15/10 Q1022
                        NOSIG=
201809022250 METAR COR EGLL 022250Z AUTO 09003KT 9999 NCD 16/11 Q1023
                        NOSIG=
201809022220 METAR COR EGLL 022220Z AUTO 10005KT 9999 NCD 16/11 Q1023
                        NOSIG=
201809022150 METAR COR EGLL 022150Z AUTO 09006KT 9999 NCD 17/11 Q1023
                        NOSIG=
201809022120 METAR COR EGLL 022120Z AUTO 10006KT 9999 NCD 17/10 Q1023
                        NOSIG=
201809022050 METAR COR EGLL 022050Z AUTO 10007KT 9999 NCD 18/10 Q1023
                        NOSIG=
201809022020 METAR COR EGLL 022020Z AUTO 11008KT 9999 NCD 18/10 Q1022
                        NOSIG=
201809021950 METAR COR EGLL 021950Z AUTO 12008KT 9999 NCD 19/09 Q1022
                        NOSIG=
201809021920 METAR COR EGLL 021920Z AUTO 11008KT 9999 NCD 20/09 Q1022
                        NOSIG=
201809021850 METAR COR EGLL 021850Z AUTO 11009KT 9999 NCD 20/09 Q1022
                        NOSIG=
201809021820 METAR COR EGLL 021820Z AUTO 11007KT 9999 NCD 22/05 Q1022
                        NOSIG=
201809021750 METAR COR EGLL 021750Z AUTO 11004KT 080V140 9999 NCD 23/06
                        Q1022 NOSIG=
201809021720 METAR COR EGLL 021720Z AUTO VRB02KT 9999 NCD 23/05 Q1022
                        NOSIG=
201809021650 METAR COR EGLL 021650Z AUTO 18004KT 140V280 9999 NCD 24/06
                        Q1022 NOSIG=
201809021620 METAR COR EGLL 021620Z AUTO VRB03KT 9999 NCD 24/05 Q1022
                        NOSIG=
201809021550 METAR COR EGLL 021550Z AUTO VRB03KT 9999 NCD 24/05 Q1022
                        NOSIG=
201809021520 METAR COR EGLL 021520Z AUTO VRB04KT 9999 NCD 24/05 Q1022
                        NOSIG=
201809021450 METAR COR EGLL 021450Z AUTO VRB03KT 9999 NCD 24/05 Q1023
                        NOSIG=
201809021420 METAR COR EGLL 021420Z AUTO VRB03KT 9999 NCD 24/05 Q1023
                        NOSIG=
201809021350 METAR COR EGLL 021350Z AUTO 17005KT 120V210 9999 NCD 24/05
                        Q1023 NOSIG=
201809021320 METAR COR EGLL 021320Z AUTO VRB04KT 9999 NCD 24/06 Q1023
                        NOSIG=
201809021250 METAR COR EGLL 021250Z AUTO 16007KT 120V220 9999 NCD 23/06
                        Q1024 NOSIG=
201809021220 METAR COR EGLL 021220Z AUTO 23005KT 160V320 9999 NCD 23/06
                        Q1024 NOSIG=
201809021150 METAR COR EGLL 021150Z AUTO 17005KT 120V230 9999 NCD 23/07
                        Q1024 NOSIG=
201809021120 METAR COR EGLL 021120Z AUTO 21004KT 170V300 9999 NCD 22/08
                        Q1025 NOSIG=
201809021050 METAR COR EGLL 021050Z AUTO 16005KT 110V250 9999 NCD 22/07
                        Q1025 NOSIG=
201809021020 METAR COR EGLL 021020Z AUTO 19005KT 130V250 9999 NCD 21/09
                        Q1025 NOSIG=
201809020950 METAR COR EGLL 020950Z AUTO 12005KT 9999 NCD 20/10 Q1025
                        NOSIG=
201809020920 METAR COR EGLL 020920Z AUTO 15004KT 100V210 9999 NCD 20/11
                        Q1026 NOSIG=
201809020850 METAR COR EGLL 020850Z AUTO VRB03KT 9999 NCD 19/12 Q1026
                        NOSIG=
201809020820 METAR COR EGLL 020820Z AUTO VRB03KT 9999 NCD 18/12 Q1026
                        NOSIG=
201809020750 METAR COR EGLL 020750Z AUTO VRB03KT 9999 NCD 17/12 Q1026
                        NOSIG=
201809020720 METAR COR EGLL 020720Z AUTO 08002KT 9999 NCD 15/11 Q1026
                        NOSIG=
201809020650 METAR COR EGLL 020650Z AUTO VRB02KT 9999 NCD 14/10 Q1026
                        NOSIG=
201809020620 METAR COR EGLL 020620Z AUTO 05002KT 9999 NCD 12/09 Q1025
                        NOSIG=
201809020550 METAR COR EGLL 020550Z AUTO 05002KT 9999 NCD 12/09 Q1025
                        NOSIG=
201809020520 METAR COR EGLL 020520Z AUTO 05003KT 9999 NCD 11/09 Q1025
                        NOSIG=
201809020450 METAR COR EGLL 020450Z AUTO 04003KT 9999 NCD 12/09 Q1025
                        NOSIG=
201809020420 METAR COR EGLL 020420Z AUTO 04002KT 9999 NCD 12/09 Q1025
                        NOSIG=
201809020350 METAR COR EGLL 020350Z AUTO 05001KT 9999 NCD 12/09 Q1025
                        NOSIG=
201809020320 METAR COR EGLL 020320Z AUTO VRB02KT 9999 NCD 13/09 Q1025
                        NOSIG=
201809020250 METAR COR EGLL 020250Z AUTO 05001KT 9999 NCD 13/09 Q1025
                        NOSIG=
201809020220 METAR COR EGLL 020220Z AUTO 03001KT 9999 NCD 13/09 Q1026
                        NOSIG=
201809020150 METAR COR EGLL 020150Z AUTO 07001KT 9999 NCD 13/09 Q1026
                        NOSIG=
201809020120 METAR COR EGLL 020120Z AUTO 07002KT 9999 NCD 14/09 Q1026
                        NOSIG=
201809020050 METAR COR EGLL 020050Z AUTO 12002KT 9999 NCD 14/09 Q1026
                        NOSIG=
201809020020 METAR COR EGLL 020020Z AUTO 14005KT 9999 NCD 14/09 Q1026
                        NOSIG=
201809012350 METAR COR EGLL 012350Z AUTO 13003KT 9999 NCD 15/09 Q1026
                        NOSIG=
201809012320 METAR COR EGLL 012320Z AUTO VRB02KT 9999 NCD 15/09 Q1026
                        NOSIG=
201809012250 METAR COR EGLL 012250Z AUTO 15003KT 9999 NCD 15/09 Q1026
                        NOSIG=
201809012220 METAR COR EGLL 012220Z AUTO VRB03KT 9999 NCD 16/09 Q1026
                        NOSIG=
201809012150 METAR COR EGLL 012150Z AUTO 14004KT 100V170 9999 NCD 16/09
                        Q1026 NOSIG=
201809012120 METAR COR EGLL 012120Z AUTO 17005KT 110V220 9999 NCD 17/09
                        Q1026 NOSIG=
201809012050 METAR COR EGLL 012050Z AUTO 17006KT 140V210 9999 NCD 17/09
                        Q1026 NOSIG=
201809012020 METAR COR EGLL 012020Z AUTO 20007KT 9999 NCD 18/10 Q1026
                        NOSIG=
201809011950 METAR COR EGLL 011950Z AUTO 19008KT 160V230 9999 NCD 18/09
                        Q1026 NOSIG=
201809011920 METAR COR EGLL 011920Z AUTO 19009KT 160V240 9999 NCD 19/10
                        Q1025 NOSIG=
201809011850 METAR COR EGLL 011850Z AUTO 19009KT 160V220 9999 NCD 20/10
                        Q1025 NOSIG=
201809011820 METAR COR EGLL 011820Z AUTO 19009KT 9999 NCD 21/10 Q1025
                        NOSIG=
201809011750 METAR COR EGLL 011750Z AUTO 18008KT 140V210 9999 NCD 22/09
                        Q1025 NOSIG=
201809011720 METAR COR EGLL 011720Z AUTO 18008KT 130V250 9999 NCD 22/09
                        Q1025 NOSIG=
201809011650 METAR COR EGLL 011650Z AUTO 22007KT 180V240 9999 NCD 23/09
                        Q1025 NOSIG=
201809011620 METAR COR EGLL 011620Z AUTO 21007KT 180V240 9999 NCD 23/09
                        Q1025 NOSIG=
201809011550 METAR COR EGLL 011550Z AUTO 19008KT 140V260 9999 NCD 23/09
                        Q1025 NOSIG=
201809011520 METAR COR EGLL 011520Z AUTO 21006KT 150V240 9999 NCD 23/09
                        Q1025 NOSIG=
201809011450 METAR COR EGLL 011450Z AUTO 20009G19KT 120V230 9999 NCD 24/09
                        Q1025 NOSIG=
201809011420 METAR COR EGLL 011420Z AUTO 21008KT 150V260 9999 NCD 24/09
                        Q1025 NOSIG=
201809011350 METAR COR EGLL 011350Z AUTO 22009KT 160V260 9999 NCD 23/09
                        Q1025 NOSIG=
201809011320 METAR COR EGLL 011320Z AUTO 21009KT 170V240 9999 NCD 23/10
                        Q1025 NOSIG=
201809011250 METAR COR EGLL 011250Z AUTO 19008KT 130V250 9999 NCD 24/10
                        Q1025 NOSIG=
201809011220 METAR COR EGLL 011220Z AUTO 20009KT 150V240 9999 NCD 23/10
                        Q1025 NOSIG=
201809011150 METAR COR EGLL 011150Z AUTO 21011KT 180V240 9999 FEW046 23/10
                        Q1026 NOSIG=
201809011120 METAR COR EGLL 011120Z AUTO 20006KT 150V250 9999 FEW044 22/10
                        Q1026 NOSIG=
201809011050 METAR COR EGLL 011050Z AUTO 17008KT 130V240 9999 NCD 22/11
                        Q1026 NOSIG=
201809011020 METAR COR EGLL 011020Z AUTO 16008KT 130V240 9999 NCD 21/11
                        Q1026 NOSIG=
201809010950 METAR COR EGLL 010950Z AUTO 16007KT 110V220 9999 NCD 21/12
                        Q1026 NOSIG=
201809010920 METAR COR EGLL 010920Z AUTO 16008KT 110V250 9999 NCD 20/12
                        Q1026 NOSIG=
201809010850 METAR COR EGLL 010850Z AUTO 16007KT 120V220 9999 NCD 18/13
                        Q1026 NOSIG=
201809010820 METAR COR EGLL 010820Z AUTO 16006KT 100V220 9999 NCD 17/13
                        Q1026 NOSIG=
201809010750 METAR COR EGLL 010750Z AUTO 16004KT 070V220 9999 NCD 16/13
                        Q1026 NOSIG=
201809010720 METAR COR EGLL 010720Z AUTO VRB03KT 9999 NCD 15/12 Q1025
                        NOSIG=
201809010650 METAR COR EGLL 010650Z AUTO 07003KT 9999 NCD 14/12 Q1025
                        NOSIG=
201809010620 METAR COR EGLL 010620Z AUTO 06003KT 9999 NCD 13/11 Q1025
                        NOSIG=
201809010550 METAR COR EGLL 010550Z AUTO VRB02KT 9999 NCD 12/10 Q1025
                        NOSIG=
201809010520 METAR COR EGLL 010520Z AUTO VRB02KT 9999 NCD 11/10 Q1025
                        NOSIG=
201809010450 METAR COR EGLL 010450Z AUTO VRB02KT 9999 NCD 12/10 Q1025
                        NOSIG=
201809010420 METAR COR EGLL 010420Z AUTO VRB02KT 9999 NCD 13/10 Q1025
                        NOSIG=
201809010350 METAR COR EGLL 010350Z AUTO VRB03KT 9999 NCD 12/11 Q1025
                        NOSIG=
201809010320 METAR COR EGLL 010320Z AUTO 07002KT 9999 NCD 12/10 Q1024
                        NOSIG=
201809010250 METAR COR EGLL 010250Z AUTO 07002KT 9999 NCD 13/10 Q1024
                        NOSIG=
201809010220 METAR COR EGLL 010220Z AUTO 05002KT 9999 NCD 13/10 Q1024
                        NOSIG=
201809010150 METAR COR EGLL 010150Z AUTO 09003KT 9999 NCD 13/10 Q1024
                        NOSIG=
201809010120 METAR COR EGLL 010120Z AUTO 12002KT 9999 NCD 13/11 Q1024
                        NOSIG=
201809010050 METAR COR EGLL 010050Z AUTO 14003KT 9999 NCD 14/11 Q1025
                        NOSIG=
201809010020 METAR COR EGLL 010020Z AUTO 16003KT 9999 NCD 14/11 Q1025
                        NOSIG=

</pre>

</body>
</html>
