##########################################################
# Query made at 01/13/2020 13:19:48 UTC
# Time interval: from 09/01/2017 00:00  to 10/01/2017 23:59  UTC
##########################################################

##########################################################
# EGLL, London / Heathrow Airport (United Kingdom)
# WMO index: 03772
# Latitude 51-29N. Longitude 000-27W. Altitude 24 m.
##########################################################

###################################
#  METAR/SPECI from EGLL
###################################
201710012350 METAR COR EGLL 012350Z AUTO 24013KT 9999 SCT022 16/12 Q1010
                        NOSIG=
201710012320 METAR COR EGLL 012320Z AUTO 24016KT 9999 BKN021 BKN027 16/12
                        Q1010 NOSIG=
201710012250 METAR EGLL 012250Z AUTO 25014KT 9999 FEW020 SCT025 17/14
                        Q1010=
201710012220 METAR COR EGLL 012220Z AUTO 24014KT 9999 SCT019 BKN025 17/14
                        Q1009 NOSIG=
201710012150 METAR COR EGLL 012150Z AUTO 23013KT 9999 SCT020 BKN025 17/15
                        Q1009 NOSIG=
201710012120 METAR EGLL 012120Z AUTO 22013KT 9999 SCT016 BKN023 17/15
                        Q1009=
201710012050 METAR COR EGLL 012050Z AUTO 23013KT 9999 SCT018 17/15 Q1009
                        NOSIG=
201710012020 METAR COR EGLL 012020Z AUTO 22012KT 9999 SCT013 BKN018 17/15
                        Q1009 NOSIG=
201710011950 METAR COR EGLL 011950Z AUTO 22012KT 9999 SCT010 BKN015 BKN020
                        17/15 Q1009 TEMPO BKN010=
201710011920 METAR COR EGLL 011920Z AUTO 21012KT 9999 BKN010 17/16 Q1009
                        BECMG 27012KT SCT010 BKN020=
201710011850 METAR COR EGLL 011850Z AUTO 22011KT 9999 BKN009 BKN013 OVC028
                        17/16 Q1009 TEMPO SCT009 BKN015=
201710011820 METAR COR EGLL 011820Z AUTO 22011KT 9999 BKN008 OVC022 17/16
                        Q1010 TEMPO SCT008 BKN012=
201710011750 METAR COR EGLL 011750Z AUTO 21013G23KT 9999 BKN008 OVC012
                        17/16 Q1009 BECMG FEW008 BKN012=
201710011720 METAR COR EGLL 011720Z AUTO 21013KT 3600 -DZ BKN008 OVC015
                        17/16 Q1009 BECMG 9999 NSW SCT008
                        BKN012=
201710011650 METAR COR EGLL 011650Z AUTO 20013KT 9999 BKN007 OVC012 17/16
                        Q1010 BECMG FEW007 OVC012=
201710011620 METAR COR EGLL 011620Z AUTO 20014KT 9999 OVC007 17/16 Q1010
                        NOSIG=
201710011550 METAR EGLL 011550Z AUTO 19014KT 9999 BKN008 OVC011 17/16
                        Q1009=
201710011520 METAR EGLL 011520Z AUTO 19014KT 9999 BKN009 OVC013 17/15
                        Q1009=
201710011450 METAR COR EGLL 011450Z AUTO 20014KT 9999 BKN010 OVC014 17/15
                        Q1010 TEMPO -RADZ BKN008=
201710011420 METAR COR EGLL 011420Z AUTO 20013KT 9999 OVC010 17/15 Q1010
                        TEMPO -RADZ BKN008=
201710011350 METAR COR EGLL 011350Z AUTO 20012KT 180V240 9999 OVC012 17/14
                        Q1011 NOSIG=
201710011320 METAR COR EGLL 011320Z AUTO 21013KT 180V260 9999 BKN015 OVC032
                        17/14 Q1011 BECMG BKN012=
201710011250 METAR COR EGLL 011250Z AUTO 20014KT 180V240 9999 BKN017 18/14
                        Q1011 BECMG BKN012=
201710011220 METAR COR EGLL 011220Z AUTO 21013KT 9999 BKN019 OVC033 18/14
                        Q1011 BECMG BKN012=
201710011150 METAR COR EGLL 011150Z AUTO 21013KT 180V240 9999 SCT017 BKN041
                        18/14 Q1011 NOSIG=
201710011120 METAR COR EGLL 011120Z AUTO 22012KT 9999 FEW017 SCT021 OVC047
                        17/14 Q1012 NOSIG=
201710011050 METAR COR EGLL 011050Z 23014KT 190V250 9999 FEW011 SCT017
                        BKN022 17/14 Q1012 NOSIG=
201710011020 METAR COR EGLL 011020Z 21011KT 180V240 9999 FEW009 SCT012
                        BKN015 17/15 Q1011 TEMPO BKN012=
201710010950 METAR COR EGLL 010950Z AUTO 21010KT 180V240 9999 BKN009 17/15
                        Q1011 BECMG BKN012=
201710010920 METAR COR EGLL 010920Z AUTO 20010KT 170V240 9999 BKN008 16/15
                        Q1011 BECMG FEW008 BKN012=
201710010850 METAR COR EGLL 010850Z AUTO 21010G21KT 170V250 9999 -RA BKN008
                        BKN012 16/15 Q1011 BECMG FEW008 BKN012=
201710010820 METAR COR EGLL 010820Z AUTO 19008KT 160V230 8000 BKN007 BKN012
                        OVC017 16/14 Q1011 TEMPO SCT007 BKN012=
201710010750 METAR COR EGLL 010750Z AUTO 20008KT 160V240 9999 SCT008 BKN014
                        BKN021 16/14 Q1011 TEMPO BKN008=
201710010720 METAR COR EGLL 010720Z 20008KT 170V240 9999 SCT005 SCT008
                        BKN013 15/15 Q1011 TEMPO -RADZ BKN008=
201710010650 METAR COR EGLL 010650Z 19009KT 160V230 9000 4200NE SCT006
                        SCT011 BKN014 15/14 Q1011 TEMPO BKN006=
201710010620 METAR COR EGLL 010620Z 20009KT 160V240 9999 5000SW HZ SCT007
                        BKN010 BKN014 15/14 Q1011 TEMPO BKN007=
201710010550 METAR COR EGLL 010550Z AUTO 20008KT 5000 -DZ BKN007 BKN016
                        OVC028 15/14 Q1011 NOSIG=
201710010520 METAR COR EGLL 010520Z AUTO 18009KT 140V220 9999 BKN007 OVC022
                        15/14 Q1011 NOSIG=
201710010450 METAR COR EGLL 010450Z AUTO 18011KT 150V220 9999 BKN007 OVC022
                        15/14 Q1011 NOSIG=
201710010420 METAR COR EGLL 010420Z AUTO 17009KT 9999 OVC008 15/14 Q1011
                        TEMPO 4000 RADZ=
201710010350 METAR COR EGLL 010350Z AUTO 17009KT 9999 BKN009 OVC017 15/13
                        Q1011 NOSIG=
201710010320 METAR COR EGLL 010320Z AUTO 17008KT 9000 -RA BKN008 BKN013
                        OVC027 14/13 Q1011 NOSIG=
201710010250 METAR COR EGLL 010250Z AUTO 16008KT 9999 -RA SCT006 BKN009
                        BKN013 14/13 Q1012 NOSIG=
201710010220 METAR EGLL 010220Z 17009KT 6000 -RADZ FEW006 BKN010 14/13
                        Q1012=
201710010150 METAR COR EGLL 010150Z AUTO 16010KT 7000 BKN008 OVC012 14/13
                        Q1012 NOSIG=
201710010120 METAR COR EGLL 010120Z AUTO 16011KT 9999 BKN010 OVC044 14/13
                        Q1013 BECMG BKN008=
201710010050 METAR COR EGLL 010050Z AUTO 17012KT 9999 BKN011 BKN016 14/12
                        Q1013 BECMG BKN009=
201710010020 METAR COR EGLL 010020Z AUTO 18012KT 9999 SCT012 BKN038 14/12
                        Q1013 BECMG BKN008=
201709302350 METAR COR EGLL 302350Z AUTO 18012KT 9999 BKN012 14/13 Q1013
                        BECMG BKN006=
201709302320 METAR COR EGLL 302320Z AUTO 19011KT 9999 BKN010 14/13 Q1013
                        BECMG BKN006=
201709302250 METAR COR EGLL 302250Z AUTO 18009KT 9999 -RA BKN009 OVC022
                        14/13 Q1013 NOSIG=
201709302220 METAR COR EGLL 302220Z AUTO 17009KT 9999 -RA BKN011 BKN023
                        OVC032 14/13 Q1014 TEMPO BKN008=
201709302150 METAR EGLL 302150Z AUTO 17009KT 9999 -RA BKN037 14/13 Q1014=
201709302120 METAR COR EGLL 302120Z AUTO 17009KT 9999 -RA FEW013 SCT024
                        BKN037 14/13 Q1015 TEMPO RA BKN013=
201709302050 METAR COR EGLL 302050Z AUTO 17008KT 9999 -RA FEW029 14/13
                        Q1015 NOSIG=
201709302020 METAR EGLL 302020Z AUTO 16009KT 9999 -RA SCT040 14/13 Q1015=
201709301950 METAR COR EGLL 301950Z AUTO 17009KT 9999 -RA //////TCU 14/12
                        Q1015 TEMPO RA=
201709301920 METAR COR EGLL 301920Z AUTO 17008G18KT 150V230 9999 -RA //////TCU
                        14/12 Q1016 TEMPO RA=
201709301850 METAR COR EGLL 301850Z AUTO 19008KT 160V230 9999 -RA //////TCU
                        14/12 Q1016 TEMPO RA=
201709301820 METAR COR EGLL 301820Z AUTO 20008KT 180V250 9999 -RA //////TCU
                        15/11 Q1016 TEMPO RA=
201709301750 METAR COR EGLL 301750Z AUTO 19009KT 9999 -RA NCD 15/11 Q1016
                        TEMPO RA=
201709301720 METAR COR EGLL 301720Z AUTO 19008G19KT 140V220 9999 -RA NCD
                        16/11 Q1016 TEMPO RA=
201709301650 METAR COR EGLL 301650Z AUTO 21009KT 9999 NCD 16/11 Q1016
                        NOSIG=
201709301620 METAR COR EGLL 301620Z AUTO 20009KT 180V240 9999 SCT049 16/11
                        Q1015 NOSIG=
201709301550 METAR COR EGLL 301550Z AUTO 19010KT 160V240 9999 SCT027 SCT033
                        16/12 Q1015 NOSIG=
201709301520 METAR EGLL 301520Z AUTO 21010KT 180V240 9999 FEW032 16/11
                        Q1015=
201709301450 METAR COR EGLL 301450Z AUTO 20010KT 9999 FEW028 SCT038 BKN049
                        16/11 Q1015 NOSIG=
201709301420 METAR COR EGLL 301420Z AUTO 22010KT 9999 OVC048 16/11 Q1016
                        NOSIG=
201709301350 METAR COR EGLL 301350Z AUTO 22011KT 9999 BKN046 16/11 Q1016
                        NOSIG=
201709301320 METAR COR EGLL 301320Z AUTO 21012KT 180V250 9999 -RA FEW024
                        BKN030 BKN045 15/10 Q1016 NOSIG=
201709301250 METAR COR EGLL 301250Z AUTO 22011KT 9999 SCT029 BKN040 16/10
                        Q1016 NOSIG=
201709301220 METAR COR EGLL 301220Z AUTO 23013KT 9999 FEW028 BKN045 16/10
                        Q1016 NOSIG=
201709301150 METAR COR EGLL 301150Z AUTO 23014KT 9999 FEW029 SCT045 16/10
                        Q1016 NOSIG=
201709301120 METAR COR EGLL 301120Z AUTO 22013KT 9999 NCD 16/09 Q1017
                        NOSIG=
201709301050 METAR COR EGLL 301050Z AUTO 23011KT 200V260 9999 NCD 17/09
                        Q1017 NOSIG=
201709301020 METAR COR EGLL 301020Z AUTO 23012KT 190V260 9999 NCD 17/08
                        Q1017 NOSIG=
201709300950 METAR COR EGLL 300950Z AUTO 23008KT 180V260 9999 NCD 16/08
                        Q1017 NOSIG=
201709300920 METAR COR EGLL 300920Z AUTO 22006KT 170V300 9999 NCD 15/09
                        Q1017 NOSIG=
201709300850 METAR COR EGLL 300850Z AUTO 22007KT 150V260 9999 NCD 13/09
                        Q1017 NOSIG=
201709300820 METAR COR EGLL 300820Z AUTO 22006KT 160V260 9999 NCD 13/09
                        Q1017 NOSIG=
201709300750 METAR COR EGLL 300750Z AUTO 22007KT 180V250 9999 -RA FEW043
                        13/10 Q1018 NOSIG=
201709300720 METAR COR EGLL 300720Z AUTO 19005KT 150V240 9999 NCD 12/09
                        Q1018 NOSIG=
201709300650 METAR COR EGLL 300650Z AUTO 21006KT 190V260 9999 NCD 12/09
                        Q1018 NOSIG=
201709300620 METAR COR EGLL 300620Z AUTO 19005KT 170V230 9999 NCD 11/09
                        Q1018 NOSIG=
201709300550 METAR COR EGLL 300550Z AUTO 19006KT 150V270 9999 NCD 11/09
                        Q1017 NOSIG=
201709300520 METAR COR EGLL 300520Z AUTO 18004KT 150V270 9999 NCD 11/09
                        Q1017 NOSIG=
201709300450 METAR COR EGLL 300450Z AUTO VRB04KT 9999 NCD 11/09 Q1017
                        NOSIG=
201709300420 METAR COR EGLL 300420Z AUTO VRB03KT 9999 NCD 11/09 Q1017
                        NOSIG=
201709300350 METAR COR EGLL 300350Z AUTO 23004KT 9999 NCD 11/09 Q1017
                        NOSIG=
201709300320 METAR COR EGLL 300320Z AUTO 25007KT 9999 NCD 12/09 Q1017
                        NOSIG=
201709300250 METAR COR EGLL 300250Z AUTO 26008KT 9999 NCD 11/09 Q1017
                        NOSIG=
201709300220 METAR COR EGLL 300220Z AUTO 27007KT 9999 NCD 12/09 Q1017
                        NOSIG=
201709300150 METAR COR EGLL 300150Z AUTO 25006KT 9999 NCD 12/09 Q1017
                        NOSIG=
201709300120 METAR COR EGLL 300120Z AUTO 24005KT 9999 NCD 12/09 Q1018
                        NOSIG=
201709300050 METAR EGLL 300050Z AUTO 25005KT 9999 NCD 12/10 Q1018=
201709300020 METAR COR EGLL 300020Z AUTO 27005KT 9999 NCD 12/09 Q1017
                        NOSIG=
201709292350 METAR COR EGLL 292350Z AUTO 26006KT 9999 NCD 12/09 Q1017
                        NOSIG=
201709292320 METAR COR EGLL 292320Z AUTO 25007KT 9999 NCD 13/10 Q1017
                        NOSIG=
201709292250 METAR COR EGLL 292250Z AUTO 24006KT 9999 NCD 13/11 Q1017
                        NOSIG=
201709292220 METAR EGLL 292220Z AUTO 25005KT 9999 NCD 13/11 Q1017=
201709292150 METAR COR EGLL 292150Z AUTO 28004KT 9999 SCT029 BKN036 14/11
                        Q1017 NOSIG=
201709292120 METAR COR EGLL 292120Z AUTO 27006KT 9999 FEW031 14/11 Q1017
                        NOSIG=
201709292050 METAR COR EGLL 292050Z AUTO 27007KT 9999 FEW032 15/11 Q1017
                        NOSIG=
201709292020 METAR COR EGLL 292020Z AUTO 25007KT 9999 SCT029 BKN035 15/12
                        Q1017 TEMPO SHRA=
201709291950 METAR EGLL 291950Z AUTO 24008KT 9999 FEW029/// BKN034///
                        //////CB 15/12 Q1017=
201709291920 METAR COR EGLL 291920Z AUTO 22007KT 9999 FEW032/// //////CB
                        14/12 Q1017 NOSIG=
201709291850 METAR COR EGLL 291850Z AUTO 22008KT 9999 NCD 15/12 Q1017
                        NOSIG=
201709291820 METAR COR EGLL 291820Z AUTO 22008KT 9999 NCD 15/12 Q1017
                        NOSIG=
201709291750 METAR COR EGLL 291750Z AUTO 22006KT 9999 NCD 16/12 Q1017
                        NOSIG=
201709291720 METAR COR EGLL 291720Z AUTO 24008KT 9999 NCD 16/11 Q1016
                        NOSIG=
201709291650 METAR COR EGLL 291650Z AUTO 24008KT 9999 NCD 16/11 Q1016
                        NOSIG=
201709291620 METAR COR EGLL 291620Z AUTO 23008KT 9999 NCD 17/12 Q1016
                        NOSIG=
201709291550 METAR COR EGLL 291550Z AUTO 25010KT 9999 NCD 17/12 Q1016
                        NOSIG=
201709291520 METAR COR EGLL 291520Z AUTO 25008KT 220V290 9999 NCD 17/12
                        Q1016 NOSIG=
201709291450 METAR COR EGLL 291450Z AUTO 25009KT 9999 NCD 17/12 Q1016
                        NOSIG=
201709291420 METAR COR EGLL 291420Z AUTO 24009KT 9999 NCD 17/13 Q1016
                        NOSIG=
201709291350 METAR COR EGLL 291350Z 27010KT 9999 FEW044 16/13 Q1016 NOSIG=
201709291320 METAR COR EGLL 291320Z 28008KT 9999 -RA FEW020 SCT036 16/13
                        Q1015 RESHRA NOSIG=
201709291250 METAR COR EGLL 291250Z 23011KT 200V270 9999 5000S SHRA SCT020
                        SCT035 18/15 Q1015 NOSIG=
201709291220 METAR COR EGLL 291220Z 22010KT 180V250 9999 FEW031 18/15
                        Q1015 NOSIG=
201709291150 METAR COR EGLL 291150Z AUTO 23010KT 190V250 9999 -RA FEW022
                        SCT042 18/15 Q1015 NOSIG=
201709291120 METAR COR EGLL 291120Z AUTO 22010KT 180V250 9999 NCD 18/14
                        Q1015 TEMPO -RADZ BKN014=
201709291050 METAR COR EGLL 291050Z AUTO 23012KT 9999 SCT026 18/14 Q1015
                        NOSIG=
201709291020 METAR COR EGLL 291020Z AUTO 22010KT 190V250 9999 NCD 18/15
                        Q1015 NOSIG=
201709290950 METAR COR EGLL 290950Z AUTO 19007KT 130V230 9999 NCD 18/14
                        Q1014 TEMPO BKN014=
201709290920 METAR EGLL 290920Z AUTO 20009KT 150V250 9999 NCD 19/15 Q1015=
201709290850 METAR COR EGLL 290850Z AUTO 23010KT 200V270 9999 FEW024 17/15
                        Q1015 NOSIG=
201709290820 METAR COR EGLL 290820Z AUTO 22009KT 9999 BKN012/// BKN028///
                        BKN042/// //////TCU 17/16 Q1015 BECMG
                        FEW012 BKN028=
201709290750 METAR COR EGLL 290750Z AUTO 21009KT 9999 SCT007/// BKN011///
                        BKN026/// //////TCU 17/16 Q1015 BECMG
                        FEW011 BKN026=
201709290720 METAR COR EGLL 290720Z AUTO 21009KT 180V250 9999 FEW006///
                        SCT015/// OVC030/// //////TCU 17/17
                        Q1015 NOSIG=
201709290650 METAR COR EGLL 290650Z 22007KT 5000 -RADZ SCT006 SCT010 BKN018
                        17/17 Q1015 NOSIG=
201709290620 METAR COR EGLL 290620Z AUTO 21007KT 160V240 5000 -RADZ SCT004
                        BKN011 BKN020 17/17 Q1015 TEMPO 3500
                        RADZ BKN006=
201709290550 METAR EGLL 290550Z 19006KT 150V230 4800 -RADZ SCT004 BKN011
                        OVC020 17/17 Q1015 TEMPO 5000 BKN006=
201709290520 METAR COR EGLL 290520Z 19007KT 140V230 8000 -RA FEW004 SCT013
                        BKN017 17/16 Q1015 TEMPO 4000 -RADZ
                        BKN008=
201709290450 METAR COR EGLL 290450Z 19008KT 170V240 7000 -RA FEW008 SCT014
                        BKN017 17/17 Q1015 TEMPO 4000 -RADZ
                        BKN008=
201709290420 METAR COR EGLL 290420Z 18007KT 150V230 8000 -RADZ FEW002
                        SCT012 BKN031 17/16 Q1015 TEMPO BKN010=
201709290350 METAR COR EGLL 290350Z AUTO 19008KT 9999 SCT007 BKN015 17/16
                        Q1016 RERA REDZ TEMPO BKN007=
201709290320 METAR COR EGLL 290320Z AUTO 18008KT 4900 RADZ SCT007 BKN015
                        BKN025 17/16 Q1016 TEMPO BKN006=
201709290250 METAR COR EGLL 290250Z 16008KT 4000 -RADZ BR FEW008 SCT018
                        BKN025 16/16 Q1016 RERA REDZ TEMPO
                        BKN008=
201709290220 METAR COR EGLL 290220Z 15007KT 3600 RADZ BR SCT014 BKN020
                        BKN027 16/15 Q1016 TEMPO BKN008=
201709290150 METAR EGLL 290150Z AUTO 16007KT 9999 BKN007 OVC047 16/15
                        Q1016=
201709290120 METAR COR EGLL 290120Z AUTO 16008KT 9999 BKN009 OVC021 16/14
                        Q1017 TEMPO 4000 -RADZ=
201709290050 METAR COR EGLL 290050Z AUTO 16009KT 9999 BKN009 BKN015 OVC027
                        15/14 Q1017 TEMPO 4000 -RADZ=
201709290020 METAR COR EGLL 290020Z AUTO 16006KT 9000 -RA SCT014 BKN021
                        15/13 Q1017 TEMPO BKN010=
201709282350 METAR COR EGLL 282350Z AUTO 18005KT 9999 SCT017 BKN023 15/13
                        Q1018 TEMPO -RA BKN014=
201709282320 METAR COR EGLL 282320Z AUTO 15006KT 130V220 9999 FEW016 BKN025
                        15/13 Q1018 TEMPO -RA BKN014=
201709282250 METAR COR EGLL 282250Z AUTO 14005KT 9999 FEW018 SCT025 BKN039
                        14/13 Q1018 TEMPO -RA BKN014=
201709282220 METAR COR EGLL 282220Z AUTO 12005KT 080V160 9999 BKN029 14/12
                        Q1018 TEMPO -RA BKN014=
201709282150 METAR COR EGLL 282150Z AUTO 13005KT 9999 FEW031 13/12 Q1019
                        NOSIG=
201709282120 METAR COR EGLL 282120Z AUTO 14006KT 100V170 9999 NCD 13/12
                        Q1019 NOSIG=
201709282050 METAR COR EGLL 282050Z AUTO 15006KT 9999 NCD 14/12 Q1019
                        NOSIG=
201709282020 METAR COR EGLL 282020Z AUTO 15006KT 130V190 9999 NCD 14/12
                        Q1019 NOSIG=
201709281950 METAR COR EGLL 281950Z AUTO 17007KT 120V210 9999 NCD 14/12
                        Q1020 NOSIG=
201709281920 METAR COR EGLL 281920Z AUTO 18007KT 160V230 9999 NCD 15/12
                        Q1020 NOSIG=
201709281850 METAR COR EGLL 281850Z AUTO 18008KT 9999 FEW024 15/12 Q1020
                        NOSIG=
201709281820 METAR COR EGLL 281820Z AUTO 20009KT 9999 NCD 17/12 Q1019
                        NOSIG=
201709281750 METAR COR EGLL 281750Z AUTO 20008G19KT 170V240 9999 NCD 17/12
                        Q1019 NOSIG=
201709281720 METAR COR EGLL 281720Z AUTO 21010G20KT 170V240 9999 NCD 17/11
                        Q1019 NOSIG=
201709281650 METAR COR EGLL 281650Z AUTO 19009KT 9999 SCT030 18/12 Q1019
                        NOSIG=
201709281620 METAR COR EGLL 281620Z AUTO 20008KT 170V240 9999 NCD 19/11
                        Q1019 NOSIG=
201709281550 METAR COR EGLL 281550Z AUTO 21008KT 160V270 9999 SCT035 19/11
                        Q1019 NOSIG=
201709281520 METAR COR EGLL 281520Z AUTO 23007KT 170V300 9999 FEW036 19/11
                        Q1019 NOSIG=
201709281450 METAR COR EGLL 281450Z AUTO 23007KT 180V270 9999 SCT034 19/11
                        Q1019 NOSIG=
201709281420 METAR COR EGLL 281420Z AUTO 25008KT 220V280 9999 FEW036 20/12
                        Q1019 NOSIG=
201709281350 METAR COR EGLL 281350Z AUTO 26009KT 9999 SCT031 20/12 Q1019
                        NOSIG=
201709281320 METAR COR EGLL 281320Z AUTO 25009KT 9999 SCT032 20/12 Q1019
                        NOSIG=
201709281250 METAR COR EGLL 281250Z AUTO 26008KT 220V290 9999 FEW030 18/12
                        Q1019 NOSIG=
201709281220 METAR COR EGLL 281220Z AUTO 24008G18KT 200V300 9999 FEW032
                        18/12 Q1019 NOSIG=
201709281150 METAR COR EGLL 281150Z AUTO 27006KT 230V310 9999 FEW026 18/12
                        Q1019 NOSIG=
201709281120 METAR COR EGLL 281120Z AUTO 27009KT 9999 FEW029 17/13 Q1019
                        NOSIG=
201709281050 METAR COR EGLL 281050Z AUTO 27007KT 220V310 9999 SCT030 17/14
                        Q1019 NOSIG=
201709281020 METAR COR EGLL 281020Z AUTO 28007KT 9999 SCT012 BKN022 BKN030
                        16/14 Q1019 NOSIG=
201709280950 METAR COR EGLL 280950Z AUTO 29007KT 9999 SCT009 BKN016 16/14
                        Q1019 NOSIG=
201709280920 METAR COR EGLL 280920Z AUTO 27008KT 9999 BKN009 OVC014 16/14
                        Q1019 BECMG SCT030=
201709280850 METAR COR EGLL 280850Z AUTO 27009KT 9999 BKN008 OVC012 16/14
                        Q1018 BECMG SCT030=
201709280820 METAR COR EGLL 280820Z AUTO 28006KT 260V330 9999 OVC008 16/14
                        Q1018 BECMG SCT030=
201709280750 METAR COR EGLL 280750Z AUTO 28007KT 9999 BKN008 BKN031 15/14
                        Q1018 BECMG SCT030=
201709280720 METAR COR EGLL 280720Z AUTO 27011KT 9999 BKN029 BKN049 16/14
                        Q1017 NOSIG=
201709280650 METAR COR EGLL 280650Z 25009KT 9999 SCT011 BKN021 16/16 Q1017
                        TEMPO BKN011=
201709280620 METAR COR EGLL 280620Z AUTO 22007KT 9999 FEW006 BKN010 OVC044
                        16/16 Q1017 NOSIG=
201709280550 METAR COR EGLL 280550Z 22006KT 7000 -RA FEW004 SCT006 BKN017
                        16/16 Q1016 NOSIG=
201709280520 METAR COR EGLL 280520Z 21006KT 180V250 5000 -RA BR FEW003
                        BKN006 BKN011 16/16 Q1016 BECMG BKN010=
201709280450 METAR COR EGLL 280450Z 20006KT 5000 -RA BR FEW002 BKN003
                        BKN010 16/15 Q1016 TEMPO 4000 RADZ
                        BKN005=
201709280420 METAR COR EGLL 280420Z 19007KT 160V220 5000 -RA BR FEW003
                        SCT005 BKN009 16/15 Q1015 TEMPO 3000
                        DZ BKN004=
201709280350 METAR COR EGLL 280350Z AUTO 18005KT 5000 BR BKN005 BKN009
                        OVC014 16/15 Q1015 TEMPO 4000 DZ=
201709280320 METAR COR EGLL 280320Z AUTO 17006KT 7000 -RA SCT005 BKN009
                        OVC013 16/15 Q1015 RERA REDZ TEMPO
                        4000 DZ=
201709280250 METAR COR EGLL 280250Z AUTO 16007KT 5000 -DZ OVC008 16/15
                        Q1015 NOSIG=
201709280220 METAR COR EGLL 280220Z AUTO 16007KT 9999 -RA FEW006 OVC011
                        16/15 Q1016 BECMG 5000 RADZ=
201709280150 METAR COR EGLL 280150Z AUTO 17006KT 8000 -RA SCT005/// BKN012///
                        OVC023/// //////CB 16/15 Q1016 TEMPO
                        4000 DZ BKN006=
201709280120 METAR COR EGLL 280120Z AUTO 17006KT 5000 -RA FEW008/// BKN011///
                        BKN016/// //////TCU 16/15 Q1016 RERA
                        TEMPO 4000 DZ BKN006=
201709280050 METAR COR EGLL 280050Z AUTO 18006KT 9999 BKN010/// OVC016///
                        //////TCU 16/15 Q1016 TEMPO 4000
                        RA=
201709280020 METAR COR EGLL 280020Z AUTO 18008KT 9999 -RA BKN007 BKN013
                        OVC027 16/15 Q1016 RERA REDZ TEMPO
                        4000 RA=
201709272350 METAR COR EGLL 272350Z AUTO 16006KT 6000 -RA BKN010 OVC029
                        16/15 Q1016 TEMPO 4000 RA=
201709272320 METAR COR EGLL 272320Z 13007KT 4200 -RADZ FEW014 BKN023 BKN030
                        15/15 Q1016 RERA TEMPO RA=
201709272250 METAR COR EGLL 272250Z 14007KT 2800 RA FEW002 SCT004 BKN013
                        15/15 Q1017 RERA TEMPO 6000 -RA=
201709272220 METAR COR EGLL 272220Z 15009KT 2500 +RA FEW005 BKN011 BKN016
                        15/15 Q1017 TEMPO 5000 -RA BKN008=
201709272150 METAR COR EGLL 272150Z 13007KT 3200 RA BR FEW003 SCT015 BKN023
                        15/15 Q1017 TEMPO 5000 -RA BKN014=
201709272120 METAR COR EGLL 272120Z 16007KT 5000 -RA BR FEW022 SCT028
                        OVC040 15/14 Q1017 RERA REDZ TEMPO
                        RA BKN014=
201709272050 METAR COR EGLL 272050Z 14006KT 4000 RADZ FEW007 SCT012 BKN024
                        15/15 Q1017 TEMPO 8000 -RA=
201709272020 METAR COR EGLL 272020Z 15006KT 130V190 5000 RA FEW027 SCT040
                        16/15 Q1018 REDZ TEMPO 4000 BKN012=
201709271950 METAR COR EGLL 271950Z 16006KT 4500 RADZ FEW029 SCT042 16/15
                        Q1018 TEMPO 6000 -RADZ=
201709271920 METAR COR EGLL 271920Z 16007KT 4500 RADZ FEW020 16/15 Q1018
                        TEMPO 6000 -RA=
201709271850 METAR COR EGLL 271850Z 18007KT 6000 RA SCT032 16/14 Q1018
                        TEMPO 4000 RADZ=
201709271820 METAR COR EGLL 271820Z 17007KT 7000 -RA FEW017 SCT039 17/14
                        Q1018 TEMPO RA=
201709271750 METAR COR EGLL 271750Z 16008KT 9999 -RA NSC 17/13 Q1017 TEMPO
                        RA=
201709271720 METAR COR EGLL 271720Z 17008KT CAVOK 18/13 Q1017 TEMPO RA=
201709271650 METAR COR EGLL 271650Z 16010KT CAVOK 18/13 Q1017 NOSIG=
201709271620 METAR COR EGLL 271620Z AUTO 17009KT 9999 NCD 19/13 Q1017
                        NOSIG=
201709271550 METAR EGLL 271550Z AUTO 17010KT 9999 NCD 19/13 Q1017=
201709271520 METAR COR EGLL 271520Z AUTO 18010KT 9999 FEW036 19/13 Q1017
                        NOSIG=
201709271450 METAR EGLL 271450Z AUTO 17010KT 9999 SCT031 20/13 Q1017=
201709271420 METAR COR EGLL 271420Z AUTO 17011KT 9999 SCT031 SCT042 20/13
                        Q1018 NOSIG=
201709271350 METAR COR EGLL 271350Z AUTO 15010KT 8000 SCT030 BKN039 BKN047
                        20/14 Q1018 NOSIG=
201709271320 METAR COR EGLL 271320Z AUTO 16009KT 8000 SCT026 BKN036 20/14
                        Q1018 NOSIG=
201709271250 METAR COR EGLL 271250Z AUTO 15009KT 7000 SCT025 SCT031 BKN037
                        20/14 Q1018 NOSIG=
201709271220 METAR COR EGLL 271220Z AUTO 15007KT 120V180 6000 SCT023 20/14
                        Q1019 NOSIG=
201709271150 METAR COR EGLL 271150Z AUTO 14007KT 090V170 6000 FEW022 20/14
                        Q1019 NOSIG=
201709271120 METAR COR EGLL 271120Z AUTO 13007KT 5000 HZ NCD 18/14 Q1019
                        NOSIG=
201709271050 METAR COR EGLL 271050Z AUTO 13007KT 4300 HZ FEW015 18/14
                        Q1020 BECMG 8000=
201709271020 METAR COR EGLL 271020Z AUTO 13007KT 3700 HZ FEW012 BKN045
                        17/14 Q1020 BECMG 5000=
201709270950 METAR COR EGLL 270950Z AUTO 11006KT 3100 HZ SCT010 BKN046
                        17/14 Q1020 BECMG 5000=
201709270920 METAR COR EGLL 270920Z AUTO 11007KT 2600 HZ BKN008 BKN049
                        16/14 Q1020 BECMG 5000 SCT006=
201709270850 METAR COR EGLL 270850Z AUTO 10007KT 2300 HZ BKN006 OVC048
                        16/14 Q1020 BECMG 5000 SCT006=
201709270820 METAR COR EGLL 270820Z AUTO 10007KT 2000 HZ SCT005 BKN044
                        15/14 Q1020 BECMG 5000=
201709270750 METAR COR EGLL 270750Z AUTO 10006KT 1800 HZ SCT045 14/13
                        Q1020 BECMG 5000=
201709270720 METAR COR EGLL 270720Z 09006KT 2400 BR NSC 14/13 Q1021 BECMG
                        5000=
201709270650 METAR COR EGLL 270650Z 09007KT 2400 BR NSC 13/13 Q1021 NOSIG=
201709270620 METAR COR EGLL 270620Z 10005KT 2400 BR NSC 13/12 Q1021 NOSIG=
201709270550 METAR COR EGLL 270550Z 10005KT 2400 BR NSC 13/12 Q1021 NOSIG=
201709270520 METAR COR EGLL 270520Z 09005KT 2400 BR NSC 12/12 Q1021 NOSIG=
201709270450 METAR COR EGLL 270450Z 09005KT 2400 BR NSC 12/12 Q1021 TEMPO
                        1200=
201709270420 METAR COR EGLL 270420Z 09004KT 2200 BR NSC 12/12 Q1021 TEMPO
                        1200=
201709270350 METAR COR EGLL 270350Z 07003KT 2000 BR NSC 12/11 Q1021 TEMPO
                        1200=
201709270320 METAR COR EGLL 270320Z 10003KT 2000 BR NSC 13/12 Q1021 TEMPO
                        1200=
201709270250 METAR COR EGLL 270250Z VRB02KT 2200 HZ NSC 13/12 Q1021 TEMPO
                        1200 BR=
201709270220 METAR COR EGLL 270220Z 09004KT 2200 BR NSC 13/12 Q1021 TEMPO
                        1400 BKN002=
201709270150 METAR COR EGLL 270150Z 08004KT 2300 BR NSC 13/12 Q1022 TEMPO
                        1400 BKN003=
201709270120 METAR COR EGLL 270120Z AUTO 10004KT 1300 BR NCD 13/12 Q1022
                        NOSIG=
201709270050 METAR COR EGLL 270050Z AUTO 10004KT 1400 BR NCD 13/12 Q1022
                        NOSIG=
201709270020 METAR COR EGLL 270020Z AUTO 09006KT 1400 HZ NCD 13/12 Q1022
                        NOSIG=
201709262350 METAR COR EGLL 262350Z AUTO 09007KT 1700 HZ NCD 14/13 Q1022
                        NOSIG=
201709262320 METAR COR EGLL 262320Z 09006KT 3500 HZ NSC 13/12 Q1022 NOSIG=
201709262250 METAR COR EGLL 262250Z 09005KT 4000 HZ NSC 13/12 Q1023 BECMG
                        2500=
201709262220 METAR COR EGLL 262220Z AUTO 09005KT 3000 HZ FEW030 14/12
                        Q1023 NOSIG=
201709262150 METAR COR EGLL 262150Z AUTO 10005KT 3800 HZ BKN026 15/13
                        Q1023 NOSIG=
201709262120 METAR COR EGLL 262120Z AUTO 10006KT 3900 HZ BKN022 15/13
                        Q1022 NOSIG=
201709262050 METAR COR EGLL 262050Z AUTO 09005KT 4100 HZ FEW028 SCT033
                        14/13 Q1022 NOSIG=
201709262020 METAR COR EGLL 262020Z AUTO 09006KT 4700 HZ FEW031 15/12
                        Q1022 NOSIG=
201709261950 METAR COR EGLL 261950Z AUTO 10006KT 5000 HZ NCD 15/12 Q1022
                        BECMG 4000=
201709261920 METAR COR EGLL 261920Z AUTO 10006KT 6000 NCD 15/12 Q1022
                        NOSIG=
201709261850 METAR COR EGLL 261850Z AUTO 10006KT 7000 NCD 16/12 Q1022
                        NOSIG=
201709261820 METAR COR EGLL 261820Z AUTO 10008KT 8000 NCD 17/12 Q1022
                        NOSIG=
201709261750 METAR COR EGLL 261750Z AUTO 10006KT 9999 FEW048 17/12 Q1022
                        NOSIG=
201709261720 METAR COR EGLL 261720Z AUTO 11005KT 9999 NCD 18/12 Q1022
                        NOSIG=
201709261650 METAR COR EGLL 261650Z AUTO 10004KT 9000 NCD 18/13 Q1021
                        NOSIG=
201709261620 METAR COR EGLL 261620Z AUTO 10004KT 9999 NCD 19/12 Q1021
                        NOSIG=
201709261550 METAR COR EGLL 261550Z 08004KT 9999 FEW047 20/12 Q1021 NOSIG=
201709261520 METAR COR EGLL 261520Z 06004KT 9999 FEW035 20/12 Q1021 NOSIG=
201709261450 METAR COR EGLL 261450Z VRB03KT 9999 SCT035 21/12 Q1022 NOSIG=
201709261420 METAR COR EGLL 261420Z AUTO 06005KT 020V090 9999 SCT034 21/12
                        Q1022 NOSIG=
201709261350 METAR COR EGLL 261350Z AUTO VRB03KT 9999 FEW039 20/12 Q1022
                        NOSIG=
201709261320 METAR COR EGLL 261320Z AUTO 05004KT 310V110 9999 SCT031 19/12
                        Q1022 NOSIG=
201709261250 METAR COR EGLL 261250Z AUTO 11005KT 060V140 9000 FEW028 19/13
                        Q1022 NOSIG=
201709261220 METAR COR EGLL 261220Z AUTO 05004KT 350V090 8000 SCT025 BKN036
                        19/13 Q1022 NOSIG=
201709261150 METAR COR EGLL 261150Z AUTO 05004KT 320V100 7000 SCT022 BKN031
                        BKN038 19/13 Q1022 NOSIG=
201709261120 METAR COR EGLL 261120Z AUTO 07005KT 020V140 8000 BKN024 BKN033
                        18/13 Q1022 NOSIG=
201709261050 METAR COR EGLL 261050Z AUTO 06006KT 020V090 8000 SCT021 BKN034
                        18/13 Q1022 NOSIG=
201709261020 METAR EGLL 261020Z AUTO 04006KT 010V070 8000 SCT019 BKN029
                        18/13 Q1022=
201709260950 METAR EGLL 260950Z AUTO 03005KT 340V090 8000 SCT014 18/13
                        Q1023=
201709260920 METAR EGLL 260920Z AUTO VRB03KT 5000 HZ SCT012 BKN019 17/14
                        Q1023=
201709260850 METAR COR EGLL 260850Z AUTO VRB03KT 5000 HZ FEW009 SCT029
                        16/14 Q1023 NOSIG=
201709260820 METAR COR EGLL 260820Z AUTO VRB03KT 4800 HZ FEW011 SCT015
                        15/13 Q1023 TEMPO 6000=
201709260750 METAR COR EGLL 260750Z AUTO 35003KT 4900 HZ FEW009 SCT020
                        15/13 Q1022 TEMPO 6000=
201709260720 METAR EGLL 260720Z AUTO 36003KT 4900 HZ FEW011 15/13 Q1022=
201709260650 METAR COR EGLL 260650Z AUTO VRB03KT 4700 HZ FEW011 15/13
                        Q1022 TEMPO 6000=
201709260620 METAR COR EGLL 260620Z AUTO VRB02KT 5000 HZ NCD 14/13 Q1022
                        NOSIG=
201709260550 METAR COR EGLL 260550Z AUTO 04003KT 5000 HZ FEW015 14/13
                        Q1021 NOSIG=
201709260520 METAR COR EGLL 260520Z AUTO VRB03KT 5000 HZ FEW013 14/13
                        Q1021 NOSIG=
201709260450 METAR COR EGLL 260450Z AUTO 01002KT 5000 HZ NCD 14/13 Q1022
                        NOSIG=
201709260420 METAR COR EGLL 260420Z AUTO VRB02KT 5000 HZ NCD 14/13 Q1022
                        TEMPO BKN012=
201709260350 METAR COR EGLL 260350Z AUTO VRB02KT 5000 HZ NCD 14/13 Q1022
                        TEMPO BKN012=
201709260320 METAR COR EGLL 260320Z AUTO VRB03KT 5000 HZ NCD 14/13 Q1021
                        NOSIG=
201709260250 METAR COR EGLL 260250Z AUTO VRB03KT 5000 HZ NCD 14/13 Q1021
                        TEMPO 4000=
201709260220 METAR COR EGLL 260220Z AUTO VRB02KT 6000 NCD 14/13 Q1021
                        NOSIG=
201709260150 METAR COR EGLL 260150Z AUTO VRB03KT 6000 NCD 15/13 Q1021
                        NOSIG=
201709260120 METAR COR EGLL 260120Z AUTO 04003KT 7000 NCD 15/13 Q1021
                        NOSIG=
201709260050 METAR COR EGLL 260050Z AUTO VRB02KT 6000 NCD 15/13 Q1022
                        NOSIG=
201709260020 METAR COR EGLL 260020Z AUTO VRB03KT 6000 NCD 15/13 Q1022
                        BECMG 4000 BR=
201709252350 METAR COR EGLL 252350Z AUTO 04003KT 7000 NCD 15/13 Q1021
                        TEMPO 4000 BR=
201709252320 METAR COR EGLL 252320Z AUTO 06003KT 7000 NCD 15/13 Q1021
                        TEMPO 4000 BR=
201709252250 METAR COR EGLL 252250Z AUTO 05004KT 7000 NCD 15/13 Q1021
                        NOSIG=
201709252220 METAR COR EGLL 252220Z AUTO 04003KT 6000 NCD 16/13 Q1022
                        NOSIG=
201709252150 METAR COR EGLL 252150Z AUTO VRB03KT 6000 NCD 16/13 Q1022
                        NOSIG=
201709252120 METAR COR EGLL 252120Z AUTO VRB03KT 6000 NCD 16/13 Q1022
                        NOSIG=
201709252050 METAR COR EGLL 252050Z AUTO 06004KT 6000 NCD 16/13 Q1022
                        NOSIG=
201709252020 METAR COR EGLL 252020Z AUTO 05003KT 7000 OVC048 16/13 Q1022
                        NOSIG=
201709251950 METAR COR EGLL 251950Z AUTO 06006KT 7000 NCD 16/13 Q1021
                        NOSIG=
201709251920 METAR COR EGLL 251920Z AUTO 07004KT 7000 OVC049 17/14 Q1021
                        NOSIG=
201709251850 METAR COR EGLL 251850Z AUTO 08008KT 6000 OVC048 17/13 Q1021
                        NOSIG=
201709251820 METAR COR EGLL 251820Z AUTO 06006KT 8000 OVC048 17/13 Q1021
                        NOSIG=
201709251750 METAR COR EGLL 251750Z AUTO 07004KT 9999 FEW025 SCT030 OVC049
                        18/12 Q1021 NOSIG=
201709251720 METAR COR EGLL 251720Z AUTO VRB01KT 9000 SCT024 18/13 Q1020
                        NOSIG=
201709251650 METAR COR EGLL 251650Z AUTO 09003KT 9999 NCD 18/13 Q1020
                        NOSIG=
201709251620 METAR COR EGLL 251620Z AUTO 09004KT 050V110 8000 NCD 18/13
                        Q1020 NOSIG=
201709251550 METAR COR EGLL 251550Z AUTO 07004KT 7000 OVC049 18/14 Q1020
                        NOSIG=
201709251520 METAR COR EGLL 251520Z AUTO 08005KT 6000 NCD 18/14 Q1019
                        NOSIG=
201709251450 METAR COR EGLL 251450Z AUTO 06004KT 020V080 5000 HZ FEW016
                        SCT023 OVC047 18/14 Q1020 NOSIG=
201709251420 METAR COR EGLL 251420Z AUTO VRB02KT 6000 FEW014 OVC044 18/14
                        Q1020 NOSIG=
201709251350 METAR COR EGLL 251350Z 05004KT 010V080 6000 -RA BKN044 17/14
                        Q1020 NOSIG=
201709251320 METAR COR EGLL 251320Z 04004KT 6000 -RA OVC041 17/14 Q1020
                        NOSIG=
201709251250 METAR COR EGLL 251250Z AUTO 07005KT 7000 OVC041 17/14 Q1020
                        NOSIG=
201709251220 METAR COR EGLL 251220Z AUTO 06004KT 010V090 7000 OVC044 17/14
                        Q1020 NOSIG=
201709251150 METAR EGLL 251150Z AUTO 06004KT 040V120 8000 BKN040 OVC046
                        17/13 Q1019=
201709251120 METAR COR EGLL 251120Z AUTO 09005KT 8000 BKN043 17/14 Q1019
                        NOSIG=
201709251050 METAR COR EGLL 251050Z AUTO 09005KT 7000 OVC045 17/14 Q1019
                        NOSIG=
201709251020 METAR COR EGLL 251020Z AUTO 07005KT 6000 OVC045 16/14 Q1019
                        NOSIG=
201709250950 METAR COR EGLL 250950Z AUTO 06006KT 6000 OVC047 16/14 Q1019
                        NOSIG=
201709250920 METAR COR EGLL 250920Z AUTO 07005KT 6000 NCD 16/14 Q1019
                        NOSIG=
201709250850 METAR COR EGLL 250850Z AUTO 09005KT 6000 NCD 16/14 Q1019
                        NOSIG=
201709250820 METAR COR EGLL 250820Z AUTO 06004KT 6000 NCD 16/14 Q1019
                        NOSIG=
201709250750 METAR COR EGLL 250750Z AUTO 06004KT 6000 FEW036 16/14 Q1019
                        NOSIG=
201709250720 METAR COR EGLL 250720Z 04004KT 6000 -RA SCT037 BKN046 15/14
                        Q1019 NOSIG=
201709250650 METAR EGLL 250650Z 04003KT 4700 -RA BR FEW008 SCT039 BKN046
                        15/14 Q1019=
201709250620 METAR COR EGLL 250620Z 06005KT 3700 -RA BR FEW031 SCT039
                        BKN041 15/14 Q1018 RERA TEMPO 5000=
201709250550 METAR COR EGLL 250550Z 04004KT 3600 RA BR FEW025 SCT029 BKN044
                        15/14 Q1018 NOSIG=
201709250520 METAR COR EGLL 250520Z VRB02KT 2400 RA FEW008 SCT024 BKN030
                        15/14 Q1018 TEMPO 4000 -RA=
201709250450 METAR COR EGLL 250450Z 10001KT 2400 -RA FEW008 BKN014 BKN023
                        15/14 Q1018 TEMPO 4000 RA BKN020=
201709250420 METAR COR EGLL 250420Z 13001KT 3000 -RA FEW024 BKN030 15/14
                        Q1018 NOSIG=
201709250350 METAR COR EGLL 250350Z VRB02KT 4000 -RA BKN022 BKN035 15/14
                        Q1018 NOSIG=
201709250320 METAR COR EGLL 250320Z 10003KT 4000 -RA SCT030 BKN036 BKN043
                        15/14 Q1018 TEMPO 6000=
201709250250 METAR COR EGLL 250250Z AUTO 07003KT 4700 -RA BKN045/// //////TCU
                        15/14 Q1018 RERA TEMPO 6000=
201709250220 METAR COR EGLL 250220Z AUTO 06004KT 5000 HZ NCD 15/14 Q1018
                        TEMPO 4000 -RA=
201709250150 METAR COR EGLL 250150Z AUTO 07004KT 4400 -RA NCD 15/14 Q1018
                        TEMPO 6000=
201709250120 METAR COR EGLL 250120Z AUTO 07004KT 5000 -RA SCT028 BKN032
                        15/14 Q1018 TEMPO 4000 RA=
201709250050 METAR COR EGLL 250050Z AUTO 06004KT 7000 -RA BKN030 15/14
                        Q1018 NOSIG=
201709250020 METAR COR EGLL 250020Z AUTO 06004KT 9000 SCT024 BKN033 15/14
                        Q1018 NOSIG=
201709242350 METAR COR EGLL 242350Z AUTO 09005KT 7000 -RA SCT024 SCT029
                        BKN035 15/14 Q1019 NOSIG=
201709242320 METAR COR EGLL 242320Z AUTO 07004KT 8000 -RA BKN024 BKN035
                        15/14 Q1019 NOSIG=
201709242250 METAR COR EGLL 242250Z AUTO 08005KT 6000 -RA SCT034 15/14
                        Q1019 NOSIG=
201709242220 METAR COR EGLL 242220Z AUTO 11004KT 050V160 8000 -RA BKN036
                        15/13 Q1019 NOSIG=
201709242150 METAR COR EGLL 242150Z AUTO 10004KT 9999 -RA BKN032 16/13
                        Q1019 NOSIG=
201709242120 METAR COR EGLL 242120Z AUTO 10004KT 080V140 9999 -RA OVC033
                        16/13 Q1019 NOSIG=
201709242050 METAR COR EGLL 242050Z AUTO 08004KT 9999 -RA BKN034 16/13
                        Q1019 NOSIG=
201709242020 METAR COR EGLL 242020Z AUTO 12006KT 9999 -RA FEW038 16/12
                        Q1019 NOSIG=
201709241950 METAR COR EGLL 241950Z AUTO 12007KT 9999 SCT043 17/12 Q1019
                        NOSIG=
201709241920 METAR COR EGLL 241920Z AUTO 11007KT 9999 FEW044/// //////TCU
                        17/12 Q1019 NOSIG=
201709241850 METAR COR EGLL 241850Z AUTO 12005KT 9999 -RA FEW049 18/11
                        Q1019 NOSIG=
201709241820 METAR COR EGLL 241820Z AUTO 13007KT 9999 FEW048 18/11 Q1019
                        NOSIG=
201709241750 METAR COR EGLL 241750Z AUTO 14008KT 9999 NCD 19/11 Q1018
                        NOSIG=
201709241720 METAR COR EGLL 241720Z AUTO 14008KT 9999 NCD 19/10 Q1018
                        NOSIG=
201709241650 METAR COR EGLL 241650Z AUTO 13008KT 9999 NCD 19/10 Q1018
                        NOSIG=
201709241620 METAR COR EGLL 241620Z AUTO 13008KT 9999 NCD 20/11 Q1018
                        NOSIG=
201709241550 METAR COR EGLL 241550Z AUTO 15007KT 9999 NCD 20/10 Q1018
                        NOSIG=
201709241520 METAR COR EGLL 241520Z AUTO 12011KT 9999 NCD 20/11 Q1018
                        NOSIG=
201709241450 METAR COR EGLL 241450Z AUTO 14009KT 9999 NCD 21/11 Q1018
                        NOSIG=
201709241420 METAR COR EGLL 241420Z AUTO 15010KT 9999 NCD 22/10 Q1018
                        NOSIG=
201709241350 METAR COR EGLL 241350Z AUTO 13009KT 9999 NCD 21/10 Q1018
                        NOSIG=
201709241320 METAR COR EGLL 241320Z AUTO 14011KT 9999 NCD 22/10 Q1018
                        NOSIG=
201709241250 METAR COR EGLL 241250Z AUTO 15011KT 9999 NCD 21/10 Q1019
                        NOSIG=
201709241220 METAR COR EGLL 241220Z AUTO 12010KT 9999 NCD 21/10 Q1019
                        NOSIG=
201709241150 METAR COR EGLL 241150Z AUTO 13011KT 100V170 9999 NCD 21/11
                        Q1019 NOSIG=
201709241120 METAR COR EGLL 241120Z AUTO 14011KT 9999 NCD 20/12 Q1019
                        NOSIG=
201709241050 METAR COR EGLL 241050Z AUTO 13012KT 9999 NCD 21/11 Q1019
                        NOSIG=
201709241020 METAR COR EGLL 241020Z AUTO 13012KT 9999 NCD 20/12 Q1020
                        NOSIG=
201709240950 METAR COR EGLL 240950Z AUTO 13009KT 9999 NCD 19/12 Q1020
                        NOSIG=
201709240920 METAR COR EGLL 240920Z AUTO 14007KT 9999 NCD 18/12 Q1020
                        NOSIG=
201709240850 METAR COR EGLL 240850Z AUTO 12006KT 9999 NCD 18/13 Q1020
                        NOSIG=
201709240820 METAR COR EGLL 240820Z AUTO 12007KT 9999 NCD 16/13 Q1020
                        NOSIG=
201709240750 METAR COR EGLL 240750Z AUTO 12006KT 9999 NCD 15/12 Q1019
                        NOSIG=
201709240720 METAR COR EGLL 240720Z AUTO 11005KT 9999 NCD 13/12 Q1019
                        NOSIG=
201709240650 METAR COR EGLL 240650Z AUTO 09005KT 9999 NCD 11/10 Q1019
                        NOSIG=
201709240620 METAR COR EGLL 240620Z AUTO 07003KT 8000 NCD 11/10 Q1019
                        NOSIG=
201709240550 METAR COR EGLL 240550Z 08003KT 8000 NSC 10/10 Q1019 NOSIG=
201709240520 METAR COR EGLL 240520Z 06003KT 8000 NSC 11/10 Q1019 NOSIG=
201709240450 METAR COR EGLL 240450Z 09004KT 8000 NSC 11/10 Q1019 NOSIG=
201709240420 METAR COR EGLL 240420Z 09005KT 7000 NSC 11/10 Q1019 NOSIG=
201709240350 METAR COR EGLL 240350Z AUTO 09005KT 5000 HZ NCD 11/10 Q1019
                        NOSIG=
201709240320 METAR COR EGLL 240320Z AUTO 08004KT 6000 NCD 12/10 Q1019
                        NOSIG=
201709240250 METAR COR EGLL 240250Z AUTO 09005KT 5000 HZ NCD 11/10 Q1019
                        NOSIG=
201709240220 METAR COR EGLL 240220Z AUTO 08004KT 6000 NCD 11/10 Q1019
                        NOSIG=
201709240150 METAR COR EGLL 240150Z AUTO 07004KT 6000 NCD 11/10 Q1020
                        NOSIG=
201709240120 METAR COR EGLL 240120Z AUTO 06003KT 8000 NCD 12/10 Q1020
                        NOSIG=
201709240050 METAR COR EGLL 240050Z AUTO 07004KT 8000 NCD 11/10 Q1020
                        NOSIG=
201709240020 METAR COR EGLL 240020Z AUTO 06005KT 9999 NCD 11/09 Q1020
                        NOSIG=
201709232350 METAR COR EGLL 232350Z AUTO 05002KT 9999 NCD 11/09 Q1020
                        NOSIG=
201709232320 METAR COR EGLL 232320Z AUTO 06003KT 9999 NCD 12/09 Q1020
                        NOSIG=
201709232250 METAR COR EGLL 232250Z AUTO 09004KT 9999 NCD 11/08 Q1021
                        NOSIG=
201709232220 METAR COR EGLL 232220Z AUTO 10005KT 9999 NCD 12/08 Q1021
                        NOSIG=
201709232150 METAR COR EGLL 232150Z AUTO 13005KT 070V190 9999 NCD 12/08
                        Q1021 NOSIG=
201709232120 METAR COR EGLL 232120Z AUTO 14005KT 080V230 9999 NCD 12/08
                        Q1021 NOSIG=
201709232050 METAR COR EGLL 232050Z AUTO 13007KT 060V200 9999 NCD 13/09
                        Q1021 NOSIG=
201709232020 METAR COR EGLL 232020Z AUTO 14006KT 110V210 9999 NCD 12/09
                        Q1021 NOSIG=
201709231950 METAR COR EGLL 231950Z AUTO 14005KT 080V200 9999 NCD 14/10
                        Q1021 NOSIG=
201709231920 METAR COR EGLL 231920Z AUTO 14006KT 100V210 9999 NCD 14/10
                        Q1021 NOSIG=
201709231850 METAR COR EGLL 231850Z AUTO 14007KT 120V200 9999 NCD 15/10
                        Q1021 NOSIG=
201709231820 METAR COR EGLL 231820Z AUTO 14006KT 110V200 9999 NCD 14/09
                        Q1020 NOSIG=
201709231750 METAR COR EGLL 231750Z AUTO 16006KT 130V230 9999 NCD 16/09
                        Q1020 NOSIG=
201709231720 METAR COR EGLL 231720Z AUTO 16006KT 120V230 9999 NCD 16/09
                        Q1020 NOSIG=
201709231650 METAR COR EGLL 231650Z AUTO 16007KT 130V210 9999 NCD 17/09
                        Q1020 NOSIG=
201709231620 METAR COR EGLL 231620Z AUTO 16008KT 130V220 9999 NCD 18/09
                        Q1021 NOSIG=
201709231550 METAR COR EGLL 231550Z AUTO 17008KT 120V250 9999 NCD 18/09
                        Q1021 NOSIG=
201709231520 METAR COR EGLL 231520Z AUTO 17008KT 130V260 9999 NCD 19/08
                        Q1021 NOSIG=
201709231450 METAR COR EGLL 231450Z AUTO 15008KT 120V220 9999 NCD 19/09
                        Q1021 NOSIG=
201709231420 METAR COR EGLL 231420Z AUTO 19009KT 160V240 9999 NCD 19/09
                        Q1021 NOSIG=
201709231350 METAR COR EGLL 231350Z AUTO 16009KT 130V200 9999 NCD 19/09
                        Q1021 NOSIG=
201709231320 METAR COR EGLL 231320Z AUTO 19010G20KT 170V230 9999 NCD 19/09
                        Q1021 NOSIG=
201709231250 METAR COR EGLL 231250Z AUTO 17010KT 9999 NCD 19/10 Q1022
                        NOSIG=
201709231220 METAR COR EGLL 231220Z AUTO 16012KT 9999 NCD 18/09 Q1022
                        NOSIG=
201709231150 METAR COR EGLL 231150Z AUTO 16010KT 130V190 9999 NCD 18/11
                        Q1022 NOSIG=
201709231120 METAR COR EGLL 231120Z AUTO 15009KT 110V190 9999 NCD 17/12
                        Q1022 NOSIG=
201709231050 METAR COR EGLL 231050Z AUTO 18008KT 140V220 9999 NCD 17/12
                        Q1022 NOSIG=
201709231020 METAR COR EGLL 231020Z AUTO 17010KT 140V220 9999 NCD 17/12
                        Q1022 NOSIG=
201709230950 METAR COR EGLL 230950Z AUTO 18010KT 140V220 9999 NCD 17/12
                        Q1023 NOSIG=
201709230920 METAR COR EGLL 230920Z AUTO 17009KT 120V200 9999 NCD 17/12
                        Q1023 NOSIG=
201709230850 METAR COR EGLL 230850Z AUTO 16007KT 110V190 9999 NCD 16/12
                        Q1023 NOSIG=
201709230820 METAR COR EGLL 230820Z AUTO 16007KT 090V230 9999 NCD 15/12
                        Q1023 NOSIG=
201709230750 METAR COR EGLL 230750Z AUTO 16006KT 120V200 9999 NCD 15/11
                        Q1022 NOSIG=
201709230720 METAR COR EGLL 230720Z AUTO 15006KT 120V190 9999 OVC046 15/11
                        Q1022 NOSIG=
201709230650 METAR COR EGLL 230650Z AUTO 15006KT 110V200 9999 OVC045 14/11
                        Q1022 NOSIG=
201709230620 METAR COR EGLL 230620Z AUTO 15005KT 090V210 9999 OVC042 14/11
                        Q1022 NOSIG=
201709230550 METAR COR EGLL 230550Z AUTO 17006KT 120V260 9999 OVC041 14/11
                        Q1022 NOSIG=
201709230520 METAR COR EGLL 230520Z AUTO VRB04KT 9999 OVC040 14/11 Q1021
                        NOSIG=
201709230450 METAR COR EGLL 230450Z AUTO 16004KT 130V260 9999 OVC039 14/11
                        Q1021 NOSIG=
201709230420 METAR COR EGLL 230420Z AUTO VRB05KT 9999 BKN038 14/11 Q1021
                        NOSIG=
201709230350 METAR COR EGLL 230350Z AUTO 17004KT 150V220 9999 OVC039 13/11
                        Q1021 NOSIG=
201709230320 METAR COR EGLL 230320Z AUTO 16004KT 9999 BKN037 OVC044 13/11
                        Q1021 NOSIG=
201709230250 METAR COR EGLL 230250Z AUTO 16004KT 9999 OVC038 13/11 Q1021
                        NOSIG=
201709230220 METAR COR EGLL 230220Z AUTO 15004KT 9999 OVC036 13/10 Q1022
                        NOSIG=
201709230150 METAR COR EGLL 230150Z AUTO 17004KT 9999 BKN033 OVC043 13/10
                        Q1022 NOSIG=
201709230120 METAR COR EGLL 230120Z AUTO VRB03KT 9999 OVC028 14/10 Q1022
                        NOSIG=
201709230050 METAR COR EGLL 230050Z AUTO VRB02KT 9999 SCT027 BKN031 OVC047
                        13/10 Q1023 NOSIG=
201709230020 METAR COR EGLL 230020Z AUTO 17004KT 9999 SCT029 OVC046 13/10
                        Q1023 NOSIG=
201709222350 METAR COR EGLL 222350Z AUTO 17004KT 9999 SCT032 BKN044 13/10
                        Q1023 NOSIG=
201709222320 METAR COR EGLL 222320Z AUTO VRB03KT 9999 SCT032 BKN043 13/10
                        Q1023 NOSIG=
201709222250 METAR COR EGLL 222250Z AUTO 17005KT 9999 NCD 12/10 Q1022
                        NOSIG=
201709222220 METAR COR EGLL 222220Z AUTO 18004KT 160V240 9999 BKN047 12/10
                        Q1022 NOSIG=
201709222150 METAR COR EGLL 222150Z AUTO 19007KT 150V250 9999 NCD 12/10
                        Q1022 NOSIG=
201709222120 METAR COR EGLL 222120Z AUTO 18008KT 150V240 9999 NCD 13/10
                        Q1022 NOSIG=
201709222050 METAR COR EGLL 222050Z AUTO 18008KT 140V250 9999 NCD 13/10
                        Q1022 NOSIG=
201709222020 METAR COR EGLL 222020Z AUTO 19009KT 150V240 9999 NCD 13/10
                        Q1022 NOSIG=
201709221950 METAR COR EGLL 221950Z AUTO 20007KT 150V250 9999 NCD 14/10
                        Q1022 NOSIG=
201709221920 METAR COR EGLL 221920Z AUTO 20008KT 140V250 9999 NCD 14/10
                        Q1022 NOSIG=
201709221850 METAR COR EGLL 221850Z AUTO 20008KT 170V240 9999 NCD 14/10
                        Q1022 NOSIG=
201709221820 METAR COR EGLL 221820Z AUTO 21009KT 170V240 9999 NCD 15/08
                        Q1022 NOSIG=
201709221750 METAR COR EGLL 221750Z AUTO 21009KT 9999 NCD 15/08 Q1021
                        NOSIG=
201709221720 METAR COR EGLL 221720Z AUTO 22010KT 9999 NCD 16/08 Q1021
                        NOSIG=
201709221650 METAR COR EGLL 221650Z AUTO 18011KT 150V220 9999 NCD 17/10
                        Q1021 NOSIG=
201709221620 METAR COR EGLL 221620Z AUTO 20011KT 180V250 9999 FEW038 17/09
                        Q1021 NOSIG=
201709221550 METAR COR EGLL 221550Z AUTO 21010KT 180V250 9999 SCT035 18/09
                        Q1021 NOSIG=
201709221520 METAR COR EGLL 221520Z AUTO 22011KT 190V250 9999 FEW039 SCT049
                        18/09 Q1021 NOSIG=
201709221450 METAR COR EGLL 221450Z AUTO 21011KT 180V240 9999 FEW042 18/08
                        Q1021 NOSIG=
201709221420 METAR COR EGLL 221420Z AUTO 22010KT 180V250 9999 FEW043 19/08
                        Q1021 NOSIG=
201709221350 METAR COR EGLL 221350Z AUTO 24008KT 9999 SCT043 18/08 Q1021
                        NOSIG=
201709221320 METAR COR EGLL 221320Z AUTO 24007KT 200V270 9999 SCT041 BKN048
                        18/09 Q1021 NOSIG=
201709221250 METAR COR EGLL 221250Z AUTO 25007KT 220V280 9999 SCT039 BKN045
                        19/08 Q1021 NOSIG=
201709221220 METAR COR EGLL 221220Z AUTO 24006KT 200V290 9999 SCT034 BKN041
                        18/08 Q1021 NOSIG=
201709221150 METAR COR EGLL 221150Z AUTO 23006KT 180V280 9999 SCT033 17/08
                        Q1021 NOSIG=
201709221120 METAR COR EGLL 221120Z AUTO 21006KT 160V260 9999 NCD 17/08
                        Q1022 NOSIG=
201709221050 METAR COR EGLL 221050Z AUTO 19005KT 110V270 9999 NCD 16/08
                        Q1022 NOSIG=
201709221020 METAR COR EGLL 221020Z AUTO 23006KT 180V270 9999 NCD 15/09
                        Q1022 NOSIG=
201709220950 METAR COR EGLL 220950Z AUTO 23005KT 190V260 9999 NCD 14/09
                        Q1022 NOSIG=
201709220920 METAR COR EGLL 220920Z AUTO VRB03KT 9999 NCD 13/09 Q1022
                        NOSIG=
201709220850 METAR COR EGLL 220850Z AUTO 27005KT 230V300 9999 NCD 11/09
                        Q1022 NOSIG=
201709220820 METAR COR EGLL 220820Z 25004KT 210V290 9999 VCFG FEW001 10/08
                        Q1022 NOSIG=
201709220750 METAR COR EGLL 220750Z VRB03KT 9999 1600S PRFG FEW001 09/08
                        Q1022 NOSIG=
201709220720 METAR COR EGLL 220720Z VRB02KT 9999 1500W PRFG FEW001 08/08
                        Q1021 NOSIG=
201709220650 METAR COR EGLL 220650Z 28003KT 7000 0200W R27R/P1500 R27L/P1500
                        PRFG SCT001 07/07 Q1021 TEMPO 0700
                        FG=
201709220620 METAR COR EGLL 220620Z VRB03KT 9000 0200W R27R/P1500 R27L/P1500
                        PRFG NSC 07/07 Q1021 TEMPO 0700 FG=
201709220550 METAR COR EGLL 220550Z 30002KT 5000 1500W PRFG NSC 07/06
                        Q1021 TEMPO 0700 FG=
201709220520 METAR COR EGLL 220520Z VRB01KT 7000 MIFG NSC 07/06 Q1021
                        TEMPO 2000 BR=
201709220450 METAR EGLL 220450Z VRB02KT 8000 MIFG NSC 08/07 Q1021=
201709220420 METAR COR EGLL 220420Z 27003KT 8000 MIFG NSC 08/07 Q1020
                        TEMPO 0700 FG=
201709220350 METAR COR EGLL 220350Z 28004KT 7000 MIFG NSC 08/08 Q1020
                        TEMPO 0700 FG=
201709220320 METAR COR EGLL 220320Z AUTO 28003KT 1100 BR NCD 08/08 Q1020
                        TEMPO 0700 FG=
201709220250 METAR COR EGLL 220250Z AUTO 28001KT 0350 FG NCD 09/08 Q1020
                        TEMPO 0800 BCFG=
201709220220 METAR COR EGLL 220220Z AUTO 30002KT 2500 BR NCD 08/08 Q1020
                        TEMPO 0800 BCFG=
201709220150 METAR COR EGLL 220150Z AUTO 29001KT 5000 BR NCD 09/08 Q1020
                        TEMPO 1200 MIFG=
201709220120 METAR COR EGLL 220120Z AUTO 31003KT 3600 BR NCD 09/08 Q1020
                        TEMPO 1200 MIFG=
201709220050 METAR COR EGLL 220050Z AUTO 28002KT 7000 NCD 09/08 Q1020
                        TEMPO 3000 BR=
201709220020 METAR COR EGLL 220020Z AUTO 27006KT 6000 NCD 09/09 Q1020
                        TEMPO 3000 BR=
201709212350 METAR COR EGLL 212350Z AUTO 27005KT 6000 NCD 10/09 Q1019
                        NOSIG=
201709212320 METAR COR EGLL 212320Z AUTO 28005KT 9999 NCD 10/09 Q1019
                        NOSIG=
201709212250 METAR COR EGLL 212250Z AUTO 27004KT 9999 NCD 11/10 Q1019
                        NOSIG=
201709212220 METAR COR EGLL 212220Z AUTO 28006KT 9999 NCD 11/10 Q1019
                        NOSIG=
201709212150 METAR COR EGLL 212150Z AUTO 28008KT 9999 NCD 12/11 Q1018
                        NOSIG=
201709212120 METAR COR EGLL 212120Z AUTO 27011KT 9999 NCD 13/11 Q1018
                        NOSIG=
201709212050 METAR COR EGLL 212050Z AUTO 27009KT 9999 NCD 14/11 Q1018
                        NOSIG=
201709212020 METAR COR EGLL 212020Z AUTO 26009KT 9999 NCD 14/12 Q1018
                        NOSIG=
201709211950 METAR COR EGLL 211950Z AUTO 26011KT 9999 NCD 14/12 Q1018
                        NOSIG=
201709211920 METAR COR EGLL 211920Z AUTO 26009KT 9999 NCD 15/13 Q1017
                        NOSIG=
201709211850 METAR COR EGLL 211850Z AUTO 24008KT 9999 NCD 15/13 Q1017
                        NOSIG=
201709211820 METAR COR EGLL 211820Z AUTO 25007KT 9999 FEW034 15/13 Q1016
                        NOSIG=
201709211750 METAR COR EGLL 211750Z AUTO 27008KT 9999 FEW030 SCT044 15/13
                        Q1016 NOSIG=
201709211720 METAR EGLL 211720Z AUTO 27008KT 240V300 9999 FEW010 SCT022
                        BKN042 15/14 Q1016=
201709211650 METAR COR EGLL 211650Z AUTO 20008KT 170V240 9999 -RA SCT025///
                        SCT036/// BKN045/// //////TCU 15/14
                        Q1015 NOSIG=
201709211620 METAR COR EGLL 211620Z AUTO 20009KT 170V240 9999 -RA BKN006///
                        //////TCU 15/14 Q1015 TEMPO 4000
                        RA=
201709211550 METAR EGLL 211550Z 19009KT 150V240 9999 -RA FEW005 SCT006
                        BKN013 15/14 Q1015 RERA REDZ=
201709211520 METAR COR EGLL 211520Z 19009KT 160V240 3500 RADZ FEW006 SCT007
                        BKN010 15/14 Q1015 TEMPO BKN008=
201709211450 METAR COR EGLL 211450Z 19011KT 170V240 4500 -RADZ BKN013
                        BKN015 16/14 Q1014 TEMPO 6000 BKN009=
201709211420 METAR COR EGLL 211420Z AUTO 19013KT 160V230 9999 OVC017 17/13
                        Q1014 TEMPO RA BKN012=
201709211350 METAR COR EGLL 211350Z AUTO 19011KT 150V240 9999 BKN022 OVC027
                        17/13 Q1014 TEMPO RA BKN012=
201709211320 METAR COR EGLL 211320Z AUTO 19013KT 9999 BKN023 18/12 Q1014
                        TEMPO BKN014=
201709211250 METAR EGLL 211250Z AUTO 18011KT 140V210 9999 SCT024 OVC032
                        18/12 Q1014=
201709211220 METAR COR EGLL 211220Z AUTO 19012KT 9999 BKN023 BKN031 18/12
                        Q1014 TEMPO BKN014=
201709211150 METAR COR EGLL 211150Z AUTO 19015G26KT 9999 SCT022 BKN034
                        18/12 Q1015 TEMPO BKN014=
201709211120 METAR COR EGLL 211120Z AUTO 19014KT 9999 BKN022 OVC030 17/12
                        Q1015 TEMPO BKN014=
201709211050 METAR COR EGLL 211050Z AUTO 20013KT 170V240 9999 BKN022 OVC027
                        17/12 Q1014 NOSIG=
201709211020 METAR COR EGLL 211020Z AUTO 20012KT 170V240 9999 BKN023 OVC029
                        17/11 Q1014 NOSIG=
201709210950 METAR COR EGLL 210950Z AUTO 19013KT 160V220 9999 BKN023 17/11
                        Q1014 NOSIG=
201709210920 METAR COR EGLL 210920Z AUTO 20012KT 9999 BKN023 17/11 Q1015
                        NOSIG=
201709210850 METAR COR EGLL 210850Z AUTO 19012KT 9999 NCD 16/11 Q1015
                        NOSIG=
201709210820 METAR COR EGLL 210820Z AUTO 19011KT 160V220 9999 NCD 15/11
                        Q1015 NOSIG=
201709210750 METAR COR EGLL 210750Z AUTO 20010KT 160V230 9999 FEW028 15/11
                        Q1015 NOSIG=
201709210720 METAR COR EGLL 210720Z AUTO 19009KT 160V240 9999 NCD 15/12
                        Q1015 NOSIG=
201709210650 METAR COR EGLL 210650Z AUTO 17007KT 130V220 9999 NCD 15/12
                        Q1015 NOSIG=
201709210620 METAR COR EGLL 210620Z AUTO 18006KT 130V240 9999 NCD 14/12
                        Q1015 NOSIG=
201709210550 METAR EGLL 210550Z AUTO 18007KT 140V280 9999 NCD 14/12 Q1015=
201709210520 METAR COR EGLL 210520Z AUTO 17006KT 110V200 9999 NCD 14/12
                        Q1015 NOSIG=
201709210450 METAR COR EGLL 210450Z AUTO 16007KT 9999 FEW018 SCT047 14/12
                        Q1015 NOSIG=
201709210420 METAR COR EGLL 210420Z AUTO 17007KT 140V220 9999 FEW018 15/12
                        Q1015 NOSIG=
201709210350 METAR COR EGLL 210350Z AUTO 18007KT 9999 FEW039 15/12 Q1015
                        NOSIG=
201709210320 METAR COR EGLL 210320Z AUTO 18008KT 9999 BKN034 15/13 Q1015
                        NOSIG=
201709210250 METAR EGLL 210250Z AUTO 19008KT 9999 BKN036 15/12 Q1015=
201709210220 METAR COR EGLL 210220Z AUTO 19009KT 9999 SCT047 15/12 Q1015
                        NOSIG=
201709210150 METAR COR EGLL 210150Z AUTO 19006KT 9999 BKN032 15/12 Q1015
                        NOSIG=
201709210120 METAR COR EGLL 210120Z AUTO 19007KT 9999 BKN027 OVC045 15/12
                        Q1016 NOSIG=
201709210050 METAR COR EGLL 210050Z AUTO 19007KT 9999 SCT031 OVC045 15/12
                        Q1016 NOSIG=
201709210020 METAR COR EGLL 210020Z AUTO 17005KT 9999 SCT030 BKN043 15/12
                        Q1016 NOSIG=
201709202350 METAR COR EGLL 202350Z AUTO 19006KT 9999 FEW034 OVC042 15/12
                        Q1016 NOSIG=
201709202320 METAR COR EGLL 202320Z AUTO 18006KT 9999 OVC041 15/12 Q1016
                        NOSIG=
201709202250 METAR COR EGLL 202250Z AUTO 19005KT 9999 OVC030 14/12 Q1016
                        NOSIG=
201709202220 METAR COR EGLL 202220Z AUTO 18006KT 160V240 9999 OVC031 14/12
                        Q1016 NOSIG=
201709202150 METAR COR EGLL 202150Z AUTO 19007KT 120V250 9999 OVC036 14/12
                        Q1016 NOSIG=
201709202120 METAR EGLL 202120Z AUTO 20007KT 140V240 9999 OVC037 14/11
                        Q1017=
201709202050 METAR COR EGLL 202050Z AUTO 19008KT 140V240 9999 OVC036 14/11
                        Q1017 NOSIG=
201709202020 METAR COR EGLL 202020Z AUTO 19008KT 150V230 9999 BKN037 14/11
                        Q1017 NOSIG=
201709201950 METAR EGLL 201950Z AUTO 19008KT 150V240 9999 NCD 14/11 Q1017=
201709201920 METAR COR EGLL 201920Z AUTO 20008KT 150V230 9999 SCT040 15/11
                        Q1017 NOSIG=
201709201850 METAR COR EGLL 201850Z AUTO 21009KT 190V250 9999 BKN040 15/11
                        Q1017 NOSIG=
201709201820 METAR COR EGLL 201820Z AUTO 21008KT 9999 OVC042 16/11 Q1017
                        NOSIG=
201709201750 METAR COR EGLL 201750Z AUTO 21010KT 170V250 9999 BKN042 16/11
                        Q1017 NOSIG=
201709201720 METAR COR EGLL 201720Z AUTO 20009KT 170V240 9999 BKN042 16/11
                        Q1017 NOSIG=
201709201650 METAR COR EGLL 201650Z AUTO 21010KT 9999 BKN041 17/11 Q1017
                        NOSIG=
201709201620 METAR COR EGLL 201620Z AUTO 22013KT 190V250 9999 SCT039 17/10
                        Q1017 NOSIG=
201709201550 METAR COR EGLL 201550Z AUTO 21012KT 9999 BKN038 17/10 Q1017
                        NOSIG=
201709201520 METAR COR EGLL 201520Z AUTO 20012KT 180V240 9999 BKN039 17/11
                        Q1017 NOSIG=
201709201450 METAR COR EGLL 201450Z AUTO 21012G22KT 180V240 9999 FEW029
                        BKN034 OVC042 17/11 Q1018 NOSIG=
201709201420 METAR COR EGLL 201420Z AUTO 22010KT 190V250 9999 SCT024 SCT029
                        OVC038 18/12 Q1018 NOSIG=
201709201350 METAR COR EGLL 201350Z AUTO 21010KT 9999 FEW025 BKN037 17/12
                        Q1018 NOSIG=
201709201320 METAR COR EGLL 201320Z AUTO 19009KT 150V210 9999 SCT022 SCT029
                        OVC035 17/13 Q1018 NOSIG=
201709201250 METAR COR EGLL 201250Z AUTO 18009KT 160V230 9999 SCT024 OVC033
                        17/12 Q1018 NOSIG=
201709201220 METAR COR EGLL 201220Z AUTO 20008KT 170V240 9999 OVC036 17/12
                        Q1018 NOSIG=
201709201150 METAR COR EGLL 201150Z AUTO 20008KT 160V230 9999 BKN042 17/13
                        Q1019 NOSIG=
201709201120 METAR COR EGLL 201120Z AUTO 20009G19KT 9999 BKN043 16/12
                        Q1019 NOSIG=
201709201050 METAR COR EGLL 201050Z AUTO 21009KT 180V240 9999 BKN043 16/12
                        Q1019 NOSIG=
201709201020 METAR COR EGLL 201020Z AUTO 22007KT 180V240 9999 BKN041 16/12
                        Q1019 NOSIG=
201709200950 METAR COR EGLL 200950Z AUTO 22008KT 190V250 9999 BKN041 15/12
                        Q1019 NOSIG=
201709200920 METAR COR EGLL 200920Z AUTO 23008KT 9999 BKN040 15/12 Q1019
                        NOSIG=
201709200850 METAR COR EGLL 200850Z AUTO 21007KT 180V250 9999 BKN040 15/12
                        Q1019 NOSIG=
201709200820 METAR COR EGLL 200820Z AUTO 20006KT 150V240 9999 NCD 14/12
                        Q1019 NOSIG=
201709200750 METAR COR EGLL 200750Z AUTO 20006KT 170V240 9999 FEW045 13/11
                        Q1019 NOSIG=
201709200720 METAR COR EGLL 200720Z AUTO 21004KT 170V290 9999 NCD 12/11
                        Q1019 NOSIG=
201709200650 METAR COR EGLL 200650Z 21005KT 180V240 9000 FEW037 11/10
                        Q1020 NOSIG=
201709200620 METAR COR EGLL 200620Z 22004KT 170V260 8000 FEW036 11/10
                        Q1020 NOSIG=
201709200550 METAR COR EGLL 200550Z 20004KT 150V280 8000 NSC 10/10 Q1020
                        NOSIG=
201709200520 METAR COR EGLL 200520Z VRB03KT 8000 NSC 09/09 Q1020 NOSIG=
201709200450 METAR COR EGLL 200450Z VRB01KT 9000 NSC 10/09 Q1020 NOSIG=
201709200420 METAR COR EGLL 200420Z 20003KT CAVOK 10/09 Q1020 NOSIG=
201709200350 METAR COR EGLL 200350Z 21003KT 9999 FEW040 10/09 Q1020 NOSIG=
201709200320 METAR COR EGLL 200320Z 22002KT 9999 SCT040 11/10 Q1020 NOSIG=
201709200250 METAR COR EGLL 200250Z 23002KT 9999 FEW041 11/10 Q1020 NOSIG=
201709200220 METAR COR EGLL 200220Z AUTO 18002KT 9999 NCD 10/09 Q1021
                        NOSIG=
201709200150 METAR COR EGLL 200150Z AUTO 21001KT 9999 SCT039 10/09 Q1021
                        NOSIG=
201709200120 METAR COR EGLL 200120Z AUTO 19003KT 9999 FEW043 09/08 Q1021
                        NOSIG=
201709200050 METAR COR EGLL 200050Z AUTO 16003KT 9999 NCD 10/09 Q1021
                        NOSIG=
201709200020 METAR COR EGLL 200020Z AUTO 20004KT 9999 NCD 10/09 Q1021
                        NOSIG=
201709192350 METAR COR EGLL 192350Z AUTO 21003KT 9000 FEW042 10/09 Q1021
                        NOSIG=
201709192320 METAR COR EGLL 192320Z AUTO 20003KT 8000 NCD 10/09 Q1021
                        NOSIG=
201709192250 METAR COR EGLL 192250Z AUTO 21003KT 9999 NCD 10/09 Q1021
                        NOSIG=
201709192220 METAR COR EGLL 192220Z AUTO 21004KT 170V260 9999 NCD 10/09
                        Q1022 NOSIG=
201709192150 METAR COR EGLL 192150Z AUTO 21007KT 170V240 9999 NCD 11/09
                        Q1022 NOSIG=
201709192120 METAR COR EGLL 192120Z AUTO 21006KT 180V250 9999 NCD 11/09
                        Q1022 NOSIG=
201709192050 METAR COR EGLL 192050Z AUTO 21006KT 160V250 9999 NCD 11/09
                        Q1022 NOSIG=
201709192020 METAR COR EGLL 192020Z AUTO 20006KT 160V250 9999 FEW049 11/08
                        Q1022 NOSIG=
201709191950 METAR COR EGLL 191950Z AUTO 19007KT 170V230 9999 NCD 12/08
                        Q1022 NOSIG=
201709191920 METAR COR EGLL 191920Z AUTO 20006KT 140V240 9999 NCD 13/07
                        Q1022 NOSIG=
201709191850 METAR COR EGLL 191850Z AUTO 20005KT 170V250 9999 NCD 12/07
                        Q1022 NOSIG=
201709191820 METAR COR EGLL 191820Z AUTO VRB02KT 9999 NCD 13/07 Q1021
                        NOSIG=
201709191750 METAR COR EGLL 191750Z AUTO VRB02KT 9999 NCD 15/07 Q1022
                        NOSIG=
201709191720 METAR COR EGLL 191720Z AUTO VRB03KT 9999 NCD 15/07 Q1022
                        NOSIG=
201709191650 METAR COR EGLL 191650Z AUTO VRB03KT 9999 NCD 15/07 Q1022
                        NOSIG=
201709191620 METAR COR EGLL 191620Z AUTO 29006KT 240V320 9999 FEW040 16/07
                        Q1022 NOSIG=
201709191550 METAR COR EGLL 191550Z AUTO 28006KT 9999 SCT041 16/07 Q1022
                        NOSIG=
201709191520 METAR COR EGLL 191520Z AUTO 28007KT 250V330 9999 FEW046 15/07
                        Q1022 NOSIG=
201709191450 METAR COR EGLL 191450Z AUTO 27007KT 240V320 9999 FEW035 BKN042
                        15/08 Q1022 NOSIG=
201709191420 METAR COR EGLL 191420Z AUTO 27006KT 240V320 9999 BKN046 15/07
                        Q1022 NOSIG=
201709191350 METAR COR EGLL 191350Z AUTO 27007KT 230V300 9999 SCT046 15/07
                        Q1022 NOSIG=
201709191320 METAR COR EGLL 191320Z AUTO 29004KT 230V350 9999 FEW030 BKN040
                        15/07 Q1022 NOSIG=
201709191250 METAR COR EGLL 191250Z AUTO 27006KT 9999 SCT037 BKN045 15/08
                        Q1022 NOSIG=
201709191220 METAR COR EGLL 191220Z AUTO 26004KT 220V010 9999 SCT030 BKN037
                        15/07 Q1022 NOSIG=
201709191150 METAR COR EGLL 191150Z AUTO VRB02KT 9999 FEW026 BKN034 15/08
                        Q1022 NOSIG=
201709191120 METAR COR EGLL 191120Z AUTO 34004KT 270V040 9999 FEW024 SCT034
                        14/08 Q1022 NOSIG=
201709191050 METAR COR EGLL 191050Z AUTO VRB04KT 9999 FEW018 14/08 Q1022
                        NOSIG=
201709191020 METAR COR EGLL 191020Z AUTO 36004KT 300V070 9999 BKN017 13/08
                        Q1022 NOSIG=
201709190950 METAR COR EGLL 190950Z AUTO 35004KT 280V060 9999 SCT014 13/09
                        Q1022 NOSIG=
201709190920 METAR COR EGLL 190920Z AUTO 30004KT 270V340 9999 SCT011 12/08
                        Q1022 TEMPO BKN014=
201709190850 METAR COR EGLL 190850Z AUTO VRB03KT 9999 SCT009 SCT012 11/09
                        Q1022 TEMPO BKN014=
201709190820 METAR COR EGLL 190820Z AUTO 32005KT 9999 NCD 11/09 Q1022
                        NOSIG=
201709190750 METAR COR EGLL 190750Z AUTO 32004KT 280V350 8000 NCD 10/09
                        Q1021 NOSIG=
201709190720 METAR COR EGLL 190720Z AUTO 31004KT 7000 NCD 10/08 Q1021
                        NOSIG=
201709190650 METAR COR EGLL 190650Z AUTO 30004KT 6000 NCD 10/08 Q1021
                        NOSIG=
201709190620 METAR COR EGLL 190620Z AUTO 29004KT 4500 HZ NCD 09/08 Q1021
                        BECMG 6000 NSW=
201709190550 METAR COR EGLL 190550Z AUTO 29004KT 270V330 4400 HZ NCD 09/08
                        Q1021 NOSIG=
201709190520 METAR COR EGLL 190520Z AUTO 31004KT 280V340 5000 HZ FEW007
                        09/08 Q1020 TEMPO 3000 BR=
201709190450 METAR COR EGLL 190450Z AUTO 30003KT 4500 HZ SCT006 09/08
                        Q1020 NOSIG=
201709190420 METAR COR EGLL 190420Z AUTO 32004KT 300V010 7000 FEW012 09/08
                        Q1020 TEMPO 4000 BR BKN012=
201709190350 METAR COR EGLL 190350Z AUTO 31003KT 7000 NCD 09/08 Q1020
                        TEMPO 4000 BR=
201709190320 METAR COR EGLL 190320Z AUTO 29003KT 6000 NCD 10/09 Q1020
                        TEMPO 4000 BR=
201709190250 METAR COR EGLL 190250Z AUTO 31004KT 5000 HZ NCD 10/09 Q1020
                        BECMG 4000 BR=
201709190220 METAR COR EGLL 190220Z AUTO 31004KT 7000 BKN046 11/10 Q1020
                        BECMG 4000 BR=
201709190150 METAR COR EGLL 190150Z AUTO 30003KT 9999 NCD 11/10 Q1020
                        NOSIG=
201709190120 METAR COR EGLL 190120Z AUTO VRB03KT 8000 -RA NCD 11/10 Q1020
                        NOSIG=
201709190050 METAR COR EGLL 190050Z AUTO 31004KT 9999 -RA NCD 11/10 Q1020
                        NOSIG=
201709190020 METAR COR EGLL 190020Z AUTO 31002KT 9999 -RA SCT046 11/09
                        Q1020 NOSIG=
201709182350 METAR COR EGLL 182350Z AUTO VRB02KT 9999 -RA BKN049 11/09
                        Q1020 NOSIG=
201709182320 METAR COR EGLL 182320Z AUTO VRB03KT 9999 -RA NCD 11/10 Q1020
                        NOSIG=
201709182250 METAR COR EGLL 182250Z AUTO 29004KT 9999 -RA BKN048 11/10
                        Q1020 NOSIG=
201709182220 METAR COR EGLL 182220Z AUTO 28004KT 9999 -RA BKN043TCU 11/10
                        Q1020 NOSIG=
201709182150 METAR COR EGLL 182150Z AUTO VRB03KT 9999 -RA BKN047TCU 11/10
                        Q1020 NOSIG=
201709182120 METAR COR EGLL 182120Z AUTO 32004KT 9999 -RA FEW044TCU 12/10
                        Q1020 NOSIG=
201709182050 METAR COR EGLL 182050Z AUTO 33004KT 290V020 9999 -RA FEW044CB
                        12/10 Q1019 NOSIG=
201709182020 METAR COR EGLL 182020Z AUTO 31006KT 280V340 9999 -RA SCT035TCU
                        12/10 Q1019 NOSIG=
201709181950 METAR COR EGLL 181950Z 30006KT 9999 -SHRA FEW039TCU 13/09
                        Q1019 TEMPO 5000 SHRA=
201709181920 METAR COR EGLL 181920Z 31003KT 9999 FEW040CB 14/08 Q1019
                        TEMPO 5000 SHRA=
201709181850 METAR COR EGLL 181850Z 30004KT CAVOK 14/08 Q1018 TEMPO SHRA=
201709181820 METAR COR EGLL 181820Z 32003KT 9999 FEW024TCU 14/08 Q1018
                        TEMPO SHRA=
201709181750 METAR COR EGLL 181750Z AUTO VRB03KT 9999 FEW046 14/08 Q1018
                        TEMPO SHRA=
201709181720 METAR COR EGLL 181720Z AUTO 32004KT 290V030 9999 -RA //////TCU
                        15/08 Q1018 TEMPO SHRA=
201709181650 METAR COR EGLL 181650Z AUTO 36004KT 310V030 9999 //////CB
                        15/07 Q1018 TEMPO 4000 +SHRA=
201709181620 METAR COR EGLL 181620Z AUTO 36006KT 320V020 9999 -RA FEW038
                        BKN049 15/08 Q1018 TEMPO SHRA=
201709181550 METAR COR EGLL 181550Z AUTO 35006KT 310V020 9999 FEW044///
                        //////CB 16/07 Q1018 NOSIG=
201709181520 METAR COR EGLL 181520Z AUTO 35006KT 310V020 9999 FEW042///
                        //////CB 16/07 Q1018 NOSIG=
201709181450 METAR COR EGLL 181450Z AUTO 31008KT 9999 FEW041 17/07 Q1017
                        NOSIG=
201709181420 METAR COR EGLL 181420Z AUTO 31008KT 9999 SCT038/// //////CB
                        17/07 Q1017 TEMPO SHRA=
201709181350 METAR COR EGLL 181350Z AUTO 33007KT 290V020 9999 FEW035///
                        //////CB 17/08 Q1018 TEMPO SHRA=
201709181320 METAR COR EGLL 181320Z AUTO 33007KT 280V020 9999 //////CB
                        17/09 Q1018 TEMPO SHRA=
201709181250 METAR COR EGLL 181250Z 36006KT 320V030 9999 FEW033CB 16/08
                        Q1018 TEMPO SHRA=
201709181220 METAR COR EGLL 181220Z AUTO 33006KT 270V030 9999 FEW034///
                        //////CB 17/09 Q1018 TEMPO 4000 +SHRA=
201709181150 METAR COR EGLL 181150Z AUTO 34006KT 300V020 9999 SCT028 SCT044
                        17/08 Q1018 TEMPO SHRA=
201709181120 METAR COR EGLL 181120Z AUTO 32007KT 270V350 9999 FEW032///
                        //////CB 16/09 Q1018 TEMPO SHRA=
201709181050 METAR COR EGLL 181050Z AUTO 35006KT 320V040 9999 SCT025///
                        SCT033/// //////CB 16/09 Q1018 NOSIG=
201709181020 METAR COR EGLL 181020Z AUTO 36006KT 320V020 9999 FEW023 SCT042
                        15/09 Q1017 NOSIG=
201709180950 METAR COR EGLL 180950Z AUTO 36006KT 300V030 9999 SCT018 15/10
                        Q1017 NOSIG=
201709180920 METAR COR EGLL 180920Z AUTO 35007KT 300V040 9999 BKN015 14/10
                        Q1017 NOSIG=
201709180850 METAR COR EGLL 180850Z AUTO 33006KT 300V010 9999 BKN014 13/10
                        Q1017 BECMG SCT018=
201709180820 METAR COR EGLL 180820Z AUTO 31008KT 9999 BKN013 OVC019 13/10
                        Q1017 BECMG BKN015=
201709180750 METAR COR EGLL 180750Z AUTO 31006KT 270V340 9999 FEW013 SCT021
                        13/10 Q1017 TEMPO BKN012=
201709180720 METAR COR EGLL 180720Z AUTO 31004KT 9999 OVC017 12/10 Q1017
                        NOSIG=
201709180650 METAR COR EGLL 180650Z AUTO 30004KT 8000 BKN014 12/10 Q1017
                        BECMG BKN015=
201709180620 METAR COR EGLL 180620Z AUTO 30005KT 7000 BKN015 OVC023 12/10
                        Q1017 TEMPO BKN014=
201709180550 METAR COR EGLL 180550Z AUTO 30004KT 4600 HZ SCT015 11/10
                        Q1016 BECMG 7000=
201709180520 METAR COR EGLL 180520Z AUTO 30005KT 6000 BKN017 BKN026 11/10
                        Q1016 BECMG BKN014=
201709180450 METAR COR EGLL 180450Z AUTO 28006KT 6000 BKN008 BKN013 OVC021
                        11/10 Q1016 TEMPO 4500 BR=
201709180420 METAR COR EGLL 180420Z AUTO 29005KT 7000 BKN008 OVC020 11/10
                        Q1016 TEMPO 4500 BR=
201709180350 METAR COR EGLL 180350Z AUTO 30004KT 9000 BKN009 11/10 Q1016
                        TEMPO 4500 BR=
201709180320 METAR COR EGLL 180320Z AUTO 28004KT 7000 BKN012 10/09 Q1016
                        TEMPO 4500 BR=
201709180250 METAR COR EGLL 180250Z AUTO 27004KT 4800 BR SCT015 09/09
                        Q1016 BECMG BKN008=
201709180220 METAR COR EGLL 180220Z AUTO VRB03KT 7000 SCT009 10/09 Q1016
                        BECMG BKN010=
201709180150 METAR COR EGLL 180150Z AUTO VRB02KT 8000 SCT011 11/10 Q1016
                        BECMG BKN010=
201709180120 METAR COR EGLL 180120Z AUTO 30003KT 8000 BKN022 11/10 Q1016
                        BECMG BKN010=
201709180050 METAR COR EGLL 180050Z AUTO 28004KT 9999 FEW021 11/10 Q1016
                        BECMG BKN010=
201709180020 METAR COR EGLL 180020Z AUTO VRB03KT 9999 FEW020 11/10 Q1016
                        BECMG BKN010=
201709172350 METAR COR EGLL 172350Z AUTO 31003KT 9999 NCD 12/10 Q1016
                        NOSIG=
201709172320 METAR COR EGLL 172320Z AUTO 30004KT 9999 NCD 12/10 Q1016
                        NOSIG=
201709172250 METAR COR EGLL 172250Z AUTO 31004KT 9999 FEW024 12/10 Q1016
                        NOSIG=
201709172220 METAR COR EGLL 172220Z AUTO 28004KT 9999 NCD 12/10 Q1016
                        NOSIG=
201709172150 METAR COR EGLL 172150Z AUTO 29004KT 9999 NCD 13/10 Q1016
                        NOSIG=
201709172120 METAR COR EGLL 172120Z AUTO VRB03KT 9999 -RA FEW046CB 13/09
                        Q1016 NOSIG=
201709172050 METAR COR EGLL 172050Z AUTO 35004KT 300V040 9999 -RA SCT041CB
                        14/10 Q1016 NOSIG=
201709172020 METAR COR EGLL 172020Z AUTO 31004KT 290V010 9999 SCT038CB
                        14/10 Q1016 TEMPO SHRA=
201709171950 METAR COR EGLL 171950Z AUTO VRB02KT 9999 -RA SCT046CB 14/10
                        Q1015 TEMPO SHRA=
201709171920 METAR COR EGLL 171920Z AUTO 31002KT 9999 NCD 15/09 Q1015
                        TEMPO SHRA=
201709171850 METAR COR EGLL 171850Z AUTO 31004KT 9999 NCD 15/09 Q1015
                        TEMPO SHRA=
201709171820 METAR COR EGLL 171820Z AUTO 32003KT 9999 NCD 15/09 Q1014
                        TEMPO SHRA=
201709171750 METAR COR EGLL 171750Z VRB03KT 9999 FEW048 15/10 Q1014 TEMPO
                        SHRA=
201709171720 METAR COR EGLL 171720Z 01005KT 320V060 9999 -RA FEW036CB
                        SCT045 16/11 Q1014 TEMPO SHRA=
201709171650 METAR COR EGLL 171650Z AUTO 31005KT 290V350 9999 SCT046///
                        //////CB 15/10 Q1014 TEMPO 4000 +SHRA=
201709171620 METAR COR EGLL 171620Z 32007KT 300V360 9999 FEW029CB SCT033
                        17/09 Q1014 TEMPO SHRA=
201709171550 METAR COR EGLL 171550Z 31005KT 270V350 9999 FEW029CB 16/09
                        Q1013 TEMPO SHRA=
201709171520 METAR COR EGLL 171520Z 30007KT 260V340 9999 -SHRA FEW024CB
                        17/10 Q1013 TEMPO SHRA=
201709171450 METAR COR EGLL 171450Z AUTO 30005KT 260V330 9999 NCD 16/10
                        Q1014 TEMPO SHRA=
201709171420 METAR COR EGLL 171420Z 32005KT 290V350 9999 FEW020 15/10
                        Q1014 NOSIG=
201709171350 METAR COR EGLL 171350Z 33006KT 300V020 9999 FEW028 SCT038
                        16/10 Q1014 NOSIG=
201709171320 METAR COR EGLL 171320Z AUTO 35006KT 300V020 9999 FEW027 15/08
                        Q1014 TEMPO SHRA=
201709171250 METAR COR EGLL 171250Z AUTO 36005KT 290V040 9999 //////TCU
                        16/09 Q1014 TEMPO SHRA=
201709171220 METAR COR EGLL 171220Z AUTO 04005KT 320V100 9999 SCT040 15/09
                        Q1014 TEMPO SHRA=
201709171150 METAR COR EGLL 171150Z AUTO 36006KT 320V060 9999 FEW019 SCT030
                        BKN037 15/10 Q1014 NOSIG=
201709171120 METAR COR EGLL 171120Z AUTO 35005KT 310V070 9999 SCT017 BKN026
                        BKN031 14/09 Q1014 NOSIG=
201709171050 METAR COR EGLL 171050Z AUTO 36004KT 330V030 9999 FEW015 BKN019
                        13/09 Q1014 NOSIG=
201709171020 METAR COR EGLL 171020Z AUTO 01004KT 330V050 9999 BKN014 OVC021
                        13/09 Q1014 BECMG SCT015=
201709170950 METAR COR EGLL 170950Z AUTO 35005KT 320V040 9999 BKN014 OVC021
                        12/09 Q1014 BECMG BKN015=
201709170920 METAR COR EGLL 170920Z AUTO 03004KT 340V050 9999 BKN010 OVC019
                        12/09 Q1014 BECMG BKN015=
201709170850 METAR COR EGLL 170850Z AUTO VRB03KT 9999 OVC010 12/09 Q1014
                        BECMG BKN015=
201709170820 METAR COR EGLL 170820Z AUTO VRB03KT 9999 BKN010 OVC016 11/09
                        Q1014 NOSIG=
201709170750 METAR COR EGLL 170750Z AUTO 03004KT 330V090 9999 BKN010 OVC019
                        11/09 Q1013 NOSIG=
201709170720 METAR COR EGLL 170720Z AUTO VRB03KT 9999 FEW009 BKN012 OVC016
                        11/09 Q1013 TEMPO BKN008=
201709170650 METAR COR EGLL 170650Z AUTO VRB03KT 8000 OVC010 10/09 Q1013
                        TEMPO BKN008=
201709170620 METAR COR EGLL 170620Z AUTO 04004KT 9999 OVC007 10/09 Q1013
                        BECMG BKN012=
201709170550 METAR COR EGLL 170550Z AUTO VRB03KT 9000 OVC007 10/09 Q1012
                        NOSIG=
201709170520 METAR COR EGLL 170520Z VRB03KT 9999 BKN007 10/09 Q1012 NOSIG=
201709170450 METAR COR EGLL 170450Z VRB02KT 9000 BKN007 10/09 Q1012 TEMPO
                        BKN004=
201709170420 METAR COR EGLL 170420Z VRB02KT 9000 BKN006 BKN039 10/08 Q1012
                        NOSIG=
201709170350 METAR COR EGLL 170350Z VRB02KT 9000 SCT007 SCT010 BKN034
                        10/08 Q1012 TEMPO 4000 BR BKN007=
201709170320 METAR COR EGLL 170320Z VRB02KT 9999 FEW019 BKN030 09/08 Q1012
                        TEMPO 4000 BR=
201709170250 METAR COR EGLL 170250Z AUTO VRB03KT 9999 BKN030 09/08 Q1012
                        NOSIG=
201709170220 METAR COR EGLL 170220Z AUTO VRB03KT 9999 NCD 08/07 Q1012
                        TEMPO 4000 BR=
201709170150 METAR COR EGLL 170150Z AUTO 36004KT 9999 FEW028 09/08 Q1012
                        NOSIG=
201709170120 METAR COR EGLL 170120Z AUTO 36004KT 9999 FEW024 09/08 Q1012
                        NOSIG=
201709170050 METAR COR EGLL 170050Z AUTO VRB03KT 9999 SCT021 BKN027 10/08
                        Q1012 NOSIG=
201709170020 METAR COR EGLL 170020Z AUTO VRB03KT 9999 BKN019 10/09 Q1012
                        NOSIG=
201709162350 METAR COR EGLL 162350Z AUTO 35004KT 310V020 9999 NCD 10/09
                        Q1012 NOSIG=
201709162320 METAR COR EGLL 162320Z AUTO VRB02KT 9999 NCD 11/09 Q1012
                        NOSIG=
201709162250 METAR COR EGLL 162250Z AUTO VRB02KT 9999 NCD 11/09 Q1012
                        NOSIG=
201709162220 METAR COR EGLL 162220Z AUTO VRB02KT 9999 NCD 11/09 Q1012
                        NOSIG=
201709162150 METAR COR EGLL 162150Z AUTO 32002KT 9999 NCD 12/09 Q1012
                        NOSIG=
201709162120 METAR COR EGLL 162120Z AUTO 36001KT 9999 NCD 12/09 Q1012
                        NOSIG=
201709162050 METAR COR EGLL 162050Z AUTO VRB01KT 9999 NCD 12/09 Q1012
                        NOSIG=
201709162020 METAR COR EGLL 162020Z AUTO 30002KT 9999 NCD 12/09 Q1012
                        NOSIG=
201709161950 METAR COR EGLL 161950Z AUTO 34001KT 9999 NCD 12/09 Q1012
                        NOSIG=
201709161920 METAR COR EGLL 161920Z AUTO VRB02KT 9999 NCD 12/09 Q1012
                        NOSIG=
201709161850 METAR COR EGLL 161850Z 36003KT 9999 FEW060TCU 12/09 Q1012
                        TEMPO SHRA=
201709161820 METAR COR EGLL 161820Z VRB02KT 9999 FEW060TCU 12/09 Q1011
                        TEMPO SHRA=
201709161750 METAR COR EGLL 161750Z 36004KT 330V040 9999 9000SW -SHRA
                        FEW041CB 12/09 Q1011 TEMPO SHRA=
201709161720 METAR COR EGLL 161720Z 36005KT 310V020 9999 8000W -SHRA FEW052CB
                        12/08 Q1011 TEMPO 7000 -SHRA=
201709161650 METAR COR EGLL 161650Z 36007KT 330V040 9999 VCSH FEW036CB
                        13/08 Q1011 TEMPO 7000 -SHRA=
201709161620 METAR COR EGLL 161620Z 01004KT 330V050 9999 FEW040CB 14/08
                        Q1011 TEMPO 7000 -SHRA=
201709161550 METAR COR EGLL 161550Z 04006KT 360V070 9999 -SHRA FEW049CB
                        14/08 Q1011 TEMPO 7000 -SHRA=
201709161520 METAR COR EGLL 161520Z 03007KT 340V070 9999 -RA FEW049CB
                        15/08 Q1010 TEMPO 4000 SHRA=
201709161450 METAR COR EGLL 161450Z 34006KT 290V030 9999 FEW030CB 15/07
                        Q1010 TEMPO 4000 SHRA=
201709161420 METAR COR EGLL 161420Z AUTO 34005KT 280V020 9999 SCT048CB
                        15/08 Q1011 TEMPO 4000 SHRA=
201709161350 METAR COR EGLL 161350Z AUTO 34006KT 300V030 9999 FEW029 BKN043CB
                        15/08 Q1011 TEMPO 4000 SHRA=
201709161320 METAR COR EGLL 161320Z AUTO 30007KT 9999 FEW039CB 15/08 Q1011
                        TEMPO 4000 SHRA=
201709161250 METAR COR EGLL 161250Z AUTO 30006KT 250V350 9999 SCT028 SCT042CB
                        16/08 Q1011 NOSIG=
201709161220 METAR COR EGLL 161220Z AUTO 31007KT 260V340 9999 FEW025 SCT034CB
                        15/08 Q1011 NOSIG=
201709161150 METAR COR EGLL 161150Z AUTO 30005KT 270V360 9999 SCT022 BKN029
                        14/08 Q1011 NOSIG=
201709161120 METAR COR EGLL 161120Z AUTO 30004KT 240V360 9999 SCT021 BKN028
                        BKN048 15/09 Q1012 NOSIG=
201709161050 METAR COR EGLL 161050Z AUTO VRB03KT 9999 BKN015 13/09 Q1012
                        NOSIG=
201709161020 METAR COR EGLL 161020Z AUTO 32005KT 280V010 9999 SCT014 BKN019
                        13/09 Q1012 TEMPO BKN014=
201709160950 METAR COR EGLL 160950Z AUTO 33005KT 290V360 9999 BKN013 12/09
                        Q1012 NOSIG=
201709160920 METAR COR EGLL 160920Z AUTO 33004KT 280V020 9999 SCT013 SCT028
                        12/09 Q1012 NOSIG=
201709160850 METAR COR EGLL 160850Z AUTO 32004KT 270V360 9999 FEW029 12/09
                        Q1012 NOSIG=
201709160820 METAR COR EGLL 160820Z AUTO 32004KT 290V030 9999 NCD 11/08
                        Q1012 NOSIG=
201709160750 METAR COR EGLL 160750Z AUTO 31005KT 270V330 9999 NCD 11/08
                        Q1012 NOSIG=
201709160720 METAR COR EGLL 160720Z AUTO VRB03KT 9999 NCD 10/08 Q1012
                        NOSIG=
201709160650 METAR COR EGLL 160650Z AUTO 30004KT 280V340 9000 NCD 10/08
                        Q1012 NOSIG=
201709160620 METAR COR EGLL 160620Z AUTO 31004KT 8000 NCD 09/08 Q1012
                        NOSIG=
201709160550 METAR COR EGLL 160550Z AUTO 29003KT 7000 NCD 09/07 Q1011
                        NOSIG=
201709160520 METAR COR EGLL 160520Z 30003KT 8000 NSC 09/08 Q1011 NOSIG=
201709160450 METAR COR EGLL 160450Z 28003KT 8000 NSC 09/08 Q1011 NOSIG=
201709160420 METAR COR EGLL 160420Z 29004KT 8000 NSC 09/08 Q1011 NOSIG=
201709160350 METAR COR EGLL 160350Z 29004KT 8000 FEW039 08/07 Q1012 NOSIG=
201709160320 METAR COR EGLL 160320Z 29003KT 9999 SCT039 09/08 Q1012 NOSIG=
201709160250 METAR COR EGLL 160250Z 26004KT CAVOK 10/09 Q1012 NOSIG=
201709160220 METAR COR EGLL 160220Z AUTO 27005KT 9000 NCD 10/09 Q1012
                        NOSIG=
201709160150 METAR COR EGLL 160150Z AUTO 27004KT 9999 NCD 10/09 Q1012
                        NOSIG=
201709160120 METAR COR EGLL 160120Z AUTO 26002KT 9999 NCD 09/08 Q1012
                        NOSIG=
201709160050 METAR COR EGLL 160050Z AUTO 28003KT 9999 NCD 09/08 Q1013
                        NOSIG=
201709160020 METAR COR EGLL 160020Z AUTO VRB01KT 9999 NCD 09/08 Q1013
                        NOSIG=
201709152350 METAR COR EGLL 152350Z AUTO 29004KT 9999 NCD 10/09 Q1013
                        NOSIG=
201709152320 METAR COR EGLL 152320Z AUTO 29004KT 9999 NCD 10/08 Q1013
                        NOSIG=
201709152250 METAR COR EGLL 152250Z AUTO 28003KT 9999 NCD 10/08 Q1013
                        NOSIG=
201709152220 METAR COR EGLL 152220Z AUTO VRB03KT 9999 NCD 11/09 Q1013
                        NOSIG=
201709152150 METAR COR EGLL 152150Z AUTO VRB02KT 9999 BKN049 12/09 Q1013
                        NOSIG=
201709152120 METAR COR EGLL 152120Z AUTO 29003KT 9999 NCD 11/09 Q1013
                        NOSIG=
201709152050 METAR COR EGLL 152050Z AUTO VRB03KT 9999 NCD 11/10 Q1013
                        NOSIG=
201709152020 METAR COR EGLL 152020Z AUTO VRB02KT 9999 FEW044 12/09 Q1013
                        NOSIG=
201709151950 METAR COR EGLL 151950Z AUTO VRB03KT 9999 NCD 12/10 Q1013
                        NOSIG=
201709151920 METAR COR EGLL 151920Z VRB03KT CAVOK 13/10 Q1013 NOSIG=
201709151850 METAR COR EGLL 151850Z 32003KT 9999 -SHRA FEW018 FEW049TCU
                        13/10 Q1013 NOSIG=
201709151820 METAR COR EGLL 151820Z VRB03KT 9999 -SHRA FEW026TCU FEW049
                        13/10 Q1013 NOSIG=
201709151750 METAR COR EGLL 151750Z 35004KT 300V030 9999 -SHRA FEW026TCU
                        13/10 Q1013 TEMPO SHRA=
201709151720 METAR COR EGLL 151720Z 36005KT 310V030 9999 VCSH FEW025TCU
                        13/10 Q1013 TEMPO SHRA=
201709151650 METAR COR EGLL 151650Z AUTO 35005KT 310V020 9999 -RA //////CB
                        13/10 Q1013 TEMPO SHRA=
201709151620 METAR COR EGLL 151620Z 36007KT 310V020 9999 -SHRA FEW030CB
                        14/10 Q1013 TEMPO 4000 +SHRA BKN014CB=
201709151550 METAR COR EGLL 151550Z 36008KT 9999 -SHRA FEW018 FEW029CB
                        SCT044 15/09 Q1012 TEMPO 4000 +SHRA
                        BKN014CB=
201709151520 METAR COR EGLL 151520Z 35006KT 310V030 9999 VCSH FEW049 15/09
                        Q1012 TEMPO 4000 +SHRA BKN014CB=
201709151450 METAR COR EGLL 151450Z 36008KT 320V040 9999 FEW030 SCT043
                        15/08 Q1012 NOSIG=
201709151420 METAR COR EGLL 151420Z 33007KT 280V020 9999 FEW035 SCT049
                        16/07 Q1012 TEMPO 4000 +SHRA BKN014CB=
201709151350 METAR COR EGLL 151350Z 31007KT 270V350 9999 FEW037 15/07
                        Q1012 TEMPO 4000 +SHRA BKN014CB=
201709151320 METAR COR EGLL 151320Z AUTO 31007KT 270V340 9999 FEW041 16/06
                        Q1012 TEMPO SHRA=
201709151250 METAR COR EGLL 151250Z AUTO 33005KT 290V040 9999 SCT038 16/07
                        Q1013 TEMPO SHRA=
201709151220 METAR COR EGLL 151220Z AUTO 35005KT 310V040 9999 FEW033 SCT045
                        15/07 Q1013 TEMPO SHRA=
201709151150 METAR COR EGLL 151150Z AUTO 33005KT 270V030 9999 SCT031 16/07
                        Q1013 NOSIG=
201709151120 METAR COR EGLL 151120Z AUTO 31005KT 270V010 9999 FEW027 BKN042
                        14/07 Q1013 NOSIG=
201709151050 METAR COR EGLL 151050Z AUTO 31006KT 280V350 9999 SCT024 SCT029
                        BKN034 14/08 Q1013 NOSIG=
201709151020 METAR COR EGLL 151020Z AUTO 35005KT 300V030 9999 BKN022 14/08
                        Q1013 NOSIG=
201709150950 METAR COR EGLL 150950Z AUTO 33006KT 290V010 9999 BKN019 14/09
                        Q1013 NOSIG=
201709150920 METAR COR EGLL 150920Z AUTO 29006KT 250V330 9999 NCD 13/08
                        Q1013 NOSIG=
201709150850 METAR COR EGLL 150850Z AUTO 30006KT 270V340 9999 SCT049 12/08
                        Q1013 NOSIG=
201709150820 METAR COR EGLL 150820Z AUTO 29006KT 9999 NCD 11/08 Q1013
                        NOSIG=
201709150750 METAR COR EGLL 150750Z AUTO 28007KT 9999 BKN046 10/07 Q1013
                        NOSIG=
201709150720 METAR COR EGLL 150720Z AUTO 29007KT 9999 NCD 10/08 Q1013
                        NOSIG=
201709150650 METAR COR EGLL 150650Z AUTO 28007KT 9999 NCD 09/07 Q1013
                        NOSIG=
201709150620 METAR COR EGLL 150620Z AUTO 27008KT 9999 NCD 08/07 Q1013
                        NOSIG=
201709150550 METAR COR EGLL 150550Z AUTO 27007KT 9999 NCD 08/07 Q1013
                        NOSIG=
201709150520 METAR COR EGLL 150520Z AUTO 27004KT 9999 NCD 08/07 Q1013
                        NOSIG=
201709150450 METAR COR EGLL 150450Z AUTO 31003KT 9999 NCD 08/06 Q1013
                        NOSIG=
201709150420 METAR COR EGLL 150420Z AUTO 29005KT 9999 NCD 08/06 Q1013
                        NOSIG=
201709150350 METAR COR EGLL 150350Z AUTO 27006KT 9999 NCD 09/07 Q1013
                        NOSIG=
201709150320 METAR COR EGLL 150320Z AUTO 27005KT 9999 NCD 09/07 Q1013
                        NOSIG=
201709150250 METAR COR EGLL 150250Z AUTO 27006KT 9999 NCD 08/07 Q1013
                        NOSIG=
201709150220 METAR COR EGLL 150220Z AUTO 28005KT 9999 NCD 08/06 Q1013
                        NOSIG=
201709150150 METAR COR EGLL 150150Z AUTO 27005KT 9999 NCD 08/06 Q1013
                        NOSIG=
201709150120 METAR COR EGLL 150120Z AUTO 27005KT 9999 NCD 09/07 Q1013
                        NOSIG=
201709150050 METAR COR EGLL 150050Z AUTO 26006KT 9999 NCD 09/07 Q1013
                        NOSIG=
201709150020 METAR COR EGLL 150020Z AUTO 27006KT 9999 NCD 09/07 Q1014
                        NOSIG=
201709142350 METAR COR EGLL 142350Z AUTO 27005KT 9999 NCD 09/07 Q1014
                        NOSIG=
201709142320 METAR COR EGLL 142320Z AUTO 27007KT 9999 NCD 09/06 Q1014
                        NOSIG=
201709142250 METAR COR EGLL 142250Z AUTO 28006KT 9999 NCD 09/07 Q1014
                        NOSIG=
201709142220 METAR COR EGLL 142220Z AUTO 28008KT 9999 NCD 11/07 Q1014
                        NOSIG=
201709142150 METAR COR EGLL 142150Z AUTO 27008KT 9999 NCD 11/07 Q1014
                        NOSIG=
201709142120 METAR COR EGLL 142120Z AUTO 29006KT 9999 NCD 12/07 Q1014
                        NOSIG=
201709142050 METAR COR EGLL 142050Z AUTO 29005KT 260V320 9999 NCD 13/07
                        Q1014 NOSIG=
201709142020 METAR COR EGLL 142020Z AUTO 30005KT 9999 NCD 13/07 Q1013
                        NOSIG=
201709141950 METAR COR EGLL 141950Z AUTO 29007KT 9999 NCD 13/08 Q1013
                        NOSIG=
201709141920 METAR COR EGLL 141920Z AUTO 27008KT 9999 NCD 13/09 Q1013
                        NOSIG=
201709141850 METAR COR EGLL 141850Z AUTO 27009KT 9999 NCD 13/09 Q1013
                        NOSIG=
201709141820 METAR COR EGLL 141820Z AUTO 27009KT 9999 NCD 13/09 Q1012
                        NOSIG=
201709141750 METAR COR EGLL 141750Z AUTO 27011KT 9999 NCD 14/09 Q1012
                        NOSIG=
201709141720 METAR COR EGLL 141720Z 27012KT 9999 FEW037 15/09 Q1012 NOSIG=
201709141650 METAR COR EGLL 141650Z 29008KT 260V320 CAVOK 16/09 Q1011
                        NOSIG=
201709141620 METAR COR EGLL 141620Z AUTO 29008KT 9999 NCD 15/09 Q1011
                        NOSIG=
201709141550 METAR COR EGLL 141550Z AUTO 29010KT 9999 NCD 15/10 Q1011
                        NOSIG=
201709141520 METAR COR EGLL 141520Z AUTO 28009KT 250V310 9999 //////TCU
                        15/09 Q1011 NOSIG=
201709141450 METAR COR EGLL 141450Z AUTO 31009KT 290V350 9999 -RA SCT048///
                        //////CB 14/08 Q1011 NOSIG=
201709141420 METAR COR EGLL 141420Z AUTO 30010KT 9999 SCT043/// //////TCU
                        18/07 Q1010 TEMPO SHRA=
201709141350 METAR COR EGLL 141350Z AUTO 30009KT 250V340 9999 SCT043///
                        //////CB 17/08 Q1010 TEMPO SHRA=
201709141320 METAR COR EGLL 141320Z AUTO 30010KT 270V330 9999 //////TCU
                        18/08 Q1010 NOSIG=
201709141250 METAR COR EGLL 141250Z AUTO 29012KT 9999 SCT038 16/08 Q1010
                        NOSIG=
201709141220 METAR COR EGLL 141220Z AUTO 30010KT 270V330 9999 SCT038 16/07
                        Q1009 NOSIG=
201709141150 METAR COR EGLL 141150Z AUTO 29011KT 9999 FEW036 SCT045 17/08
                        Q1009 NOSIG=
201709141120 METAR COR EGLL 141120Z AUTO 30012KT 9999 SCT032 BKN040 16/08
                        Q1009 NOSIG=
201709141050 METAR COR EGLL 141050Z AUTO 28014KT 9999 BKN027 16/09 Q1008
                        NOSIG=
201709141020 METAR COR EGLL 141020Z AUTO 28012KT 9999 SCT025 BKN031 14/09
                        Q1008 NOSIG=
201709140950 METAR COR EGLL 140950Z AUTO 29013KT 9999 BKN023 14/08 Q1008
                        NOSIG=
201709140920 METAR COR EGLL 140920Z AUTO 29012KT 9999 FEW026 13/08 Q1007
                        NOSIG=
201709140850 METAR COR EGLL 140850Z AUTO 28014KT 9999 NCD 12/08 Q1006
                        NOSIG=
201709140820 METAR COR EGLL 140820Z AUTO 28012KT 9999 NCD 11/08 Q1006
                        NOSIG=
201709140750 METAR COR EGLL 140750Z AUTO 28012KT 9999 NCD 11/08 Q1005
                        NOSIG=
201709140720 METAR COR EGLL 140720Z AUTO 28011KT 9999 FEW031 10/07 Q1005
                        NOSIG=
201709140650 METAR COR EGLL 140650Z AUTO 27011KT 9999 NCD 10/07 Q1005
                        NOSIG=
201709140620 METAR COR EGLL 140620Z AUTO 27012KT 9999 NCD 08/07 Q1004
                        NOSIG=
201709140550 METAR COR EGLL 140550Z AUTO 27009KT 9999 NCD 08/07 Q1004
                        NOSIG=
201709140520 METAR COR EGLL 140520Z AUTO 27008KT 9999 NCD 08/07 Q1003
                        NOSIG=
201709140450 METAR COR EGLL 140450Z AUTO 27009KT 9999 NCD 08/07 Q1003
                        NOSIG=
201709140420 METAR COR EGLL 140420Z AUTO 26011KT 9999 NCD 09/07 Q1003
                        NOSIG=
201709140350 METAR COR EGLL 140350Z AUTO 27008KT 9999 NCD 08/07 Q1002
                        NOSIG=
201709140320 METAR COR EGLL 140320Z AUTO 27008KT 9999 NCD 08/07 Q1002
                        NOSIG=
201709140250 METAR COR EGLL 140250Z AUTO 27009KT 9999 NCD 09/07 Q1002
                        NOSIG=
201709140220 METAR COR EGLL 140220Z AUTO 27008KT 9999 NCD 09/07 Q1002
                        NOSIG=
201709140150 METAR COR EGLL 140150Z AUTO 27009KT 9999 NCD 09/07 Q1001
                        NOSIG=
201709140120 METAR COR EGLL 140120Z AUTO 28006KT 9999 NCD 09/07 Q1001
                        NOSIG=
201709140050 METAR COR EGLL 140050Z AUTO 27008KT 9999 NCD 10/07 Q1001
                        NOSIG=
201709140020 METAR COR EGLL 140020Z AUTO 28006KT 9999 NCD 10/07 Q1002
                        NOSIG=
201709132350 METAR COR EGLL 132350Z AUTO 27007KT 9999 NCD 10/06 Q1001
                        NOSIG=
201709132320 METAR COR EGLL 132320Z AUTO 27009KT 9999 -RA NCD 11/06 Q1001
                        NOSIG=
201709132250 METAR COR EGLL 132250Z AUTO 27009KT 9999 //////TCU 11/06
                        Q1001 TEMPO SHRA=
201709132220 METAR COR EGLL 132220Z AUTO 27010KT 9999 SCT037/// //////TCU
                        11/06 Q1002 TEMPO SHRA=
201709132150 METAR COR EGLL 132150Z AUTO 25012KT 9999 FEW045/// //////TCU
                        13/07 Q1002 TEMPO SHRA=
201709132120 METAR COR EGLL 132120Z AUTO 25013KT 9999 NCD 13/07 Q1002
                        TEMPO SHRA=
201709132050 METAR COR EGLL 132050Z AUTO 25014KT 9999 NCD 13/07 Q1002
                        TEMPO SHRA=
201709132020 METAR COR EGLL 132020Z AUTO 24012KT 9999 NCD 13/07 Q1001
                        TEMPO SHRA=
201709131950 METAR COR EGLL 131950Z AUTO 25011KT 9999 NCD 13/07 Q1001
                        NOSIG=
201709131920 METAR COR EGLL 131920Z AUTO 25015KT 9999 NCD 14/07 Q1001
                        NOSIG=
201709131850 METAR COR EGLL 131850Z AUTO 25014KT 9999 NCD 14/06 Q1001
                        NOSIG=
201709131820 METAR COR EGLL 131820Z AUTO 25015KT 9999 NCD 15/06 Q1000
                        NOSIG=
201709131750 METAR EGLL 131750Z AUTO 26016KT 9999 NCD 16/06 Q1000=
201709131720 METAR COR EGLL 131720Z AUTO 31006KT 280V340 9999 FEW042 16/07
                        Q1000 NOSIG=
201709131650 METAR COR EGLL 131650Z AUTO 30009KT 280V350 9999 SCT042 16/08
                        Q1000 NOSIG=
201709131620 METAR COR EGLL 131620Z AUTO 25016KT 9999 SCT044/// //////CB
                        17/08 Q1000 NOSIG=
201709131550 METAR COR EGLL 131550Z AUTO 24015KT 9999 NCD 16/08 Q1000
                        NOSIG=
201709131520 METAR COR EGLL 131520Z AUTO 24016KT 9999 //////CB 16/09 Q1000
                        NOSIG=
201709131450 METAR COR EGLL 131450Z 23016KT 9999 FEW046 15/09 Q1001 NOSIG=
201709131420 METAR COR EGLL 131420Z 25021KT 9999 VCSH FEW035 16/08 Q1001
                        NOSIG=
201709131350 METAR COR EGLL 131350Z 26024KT 9999 -SHRA FEW023 SCT048TCU
                        17/09 Q1001 TEMPO SHRA=
201709131320 METAR COR EGLL 131320Z 26023KT 9999 VCSH FEW046 18/07 Q1001
                        TEMPO SHRA=
201709131250 METAR COR EGLL 131250Z 24017G27KT 9999 VCSH SCT036TCU SCT047
                        18/08 Q1000 NOSIG=
201709131220 METAR COR EGLL 131220Z 26015KT CAVOK 17/09 Q1001 NOSIG=
201709131150 METAR COR EGLL 131150Z 26022KT 9999 VCSH FEW039TCU SCT048
                        17/08 Q1001 NOSIG=
201709131120 METAR COR EGLL 131120Z 26020KT 9999 VCSH SCT039TCU 16/09
                        Q1001 NOSIG=
201709131050 METAR COR EGLL 131050Z AUTO 25022G32KT 9999 SCT035 17/08
                        Q1001 TEMPO SHRA=
201709131020 METAR COR EGLL 131020Z AUTO 26018KT 9999 FEW034 SCT042 16/08
                        Q1001 TEMPO SHRA=
201709130950 METAR COR EGLL 130950Z AUTO 26022KT 9999 SCT033 16/08 Q1001
                        NOSIG=
201709130920 METAR COR EGLL 130920Z AUTO 25019KT 9999 FEW035 15/08 Q1001
                        NOSIG=
201709130850 METAR COR EGLL 130850Z AUTO 25019KT 9999 NCD 15/07 Q1001
                        NOSIG=
201709130820 METAR COR EGLL 130820Z AUTO 26018KT 9999 NCD 14/07 Q1000
                        NOSIG=
201709130750 METAR COR EGLL 130750Z AUTO 26019KT 9999 NCD 13/07 Q1000
                        NOSIG=
201709130720 METAR COR EGLL 130720Z AUTO 25020KT 9999 NCD 13/07 Q0999
                        NOSIG=
201709130650 METAR COR EGLL 130650Z AUTO 26018KT 9999 NCD 13/07 Q0999
                        NOSIG=
201709130620 METAR COR EGLL 130620Z AUTO 26019KT 9999 NCD 13/07 Q0998
                        NOSIG=
201709130550 METAR COR EGLL 130550Z AUTO 26021KT 9999 NCD 13/07 Q0998
                        NOSIG=
201709130520 METAR COR EGLL 130520Z AUTO 26021KT 9999 NCD 13/08 Q0997
                        NOSIG=
201709130450 METAR COR EGLL 130450Z AUTO 26023KT 9999 NCD 13/08 Q0996
                        NOSIG=
201709130420 METAR COR EGLL 130420Z AUTO 26023G34KT 9999 NCD 14/08 Q0996
                        NOSIG=
201709130350 METAR COR EGLL 130350Z 26025KT 9999 FEW035 14/08 Q0995 NOSIG=
201709130320 METAR COR EGLL 130320Z 26028G41KT 9999 FEW035 15/09 Q0994
                        NOSIG=
201709130250 METAR COR EGLL 130250Z AUTO 25031G48KT 9999 SCT033 15/09
                        Q0993 NOSIG=
201709130220 METAR COR EGLL 130220Z AUTO 24027KT 9999 FEW033 BKN040 15/10
                        Q0993 NOSIG=
201709130150 METAR COR EGLL 130150Z AUTO 23022KT 9999 SCT034 BKN045 15/11
                        Q0993 NOSIG=
201709130120 METAR COR EGLL 130120Z AUTO 23021KT 9999 OVC034 15/11 Q0993
                        NOSIG=
201709130050 METAR COR EGLL 130050Z AUTO 24021G31KT 9999 FEW029 BKN033
                        16/11 Q0993 NOSIG=
201709130020 METAR COR EGLL 130020Z AUTO 24017KT 9999 FEW024 16/13 Q0993
                        TEMPO 27022G36KT=
201709122350 METAR COR EGLL 122350Z AUTO 23018KT 9999 SCT016/// BKN022///
                        BKN027/// //////TCU 16/15 Q0993 TEMPO
                        26022G36KT=
201709122320 METAR COR EGLL 122320Z AUTO 21012KT 9999 -RA SCT009/// BKN018///
                        BKN029/// //////TCU 15/14 Q0994 BECMG
                        26022G36KT=
201709122250 METAR COR EGLL 122250Z AUTO 20015KT 3500 -RADZ SCT006 BKN010
                        OVC026 14/13 Q0995 BECMG 26022G35KT
                        9999 SCT010=
201709122220 METAR COR EGLL 122220Z 19017KT 7000 -RA SCT009 BKN013 BKN017
                        14/12 Q0995 TEMPO BKN009=
201709122150 METAR COR EGLL 122150Z 19019KT 4500 -RA SCT009 BKN013 OVC037
                        14/12 Q0997 TEMPO 5000 BKN009=
201709122120 METAR COR EGLL 122120Z 19019KT 9000 -RA BKN010 BKN018 OVC039
                        14/12 Q0998 TEMPO BKN009=
201709122050 METAR COR EGLL 122050Z AUTO 20015KT 9999 -RA SCT013 BKN018
                        OVC041 13/11 Q0999 TEMPO BKN013=
201709122020 METAR COR EGLL 122020Z AUTO 18012KT 160V220 9000 -RA BKN013
                        BKN019 13/11 Q1000 TEMPO SCT013 BKN019=
201709121950 METAR COR EGLL 121950Z AUTO 19012KT 9999 -RA SCT023/// BKN032///
                        //////TCU 13/11 Q1002 TEMPO RA=
201709121920 METAR COR EGLL 121920Z AUTO 20014KT 9999 -RA FEW036/// SCT046///
                        //////TCU 14/11 Q1003 TEMPO RA=
201709121850 METAR COR EGLL 121850Z AUTO 22012KT 9999 -RA SCT030 BKN044
                        15/10 Q1003 TEMPO RA=
201709121820 METAR COR EGLL 121820Z AUTO 21013KT 9999 NCD 15/09 Q1003
                        NOSIG=
201709121750 METAR COR EGLL 121750Z AUTO 21015G26KT 9999 NCD 16/09 Q1004
                        NOSIG=
201709121720 METAR COR EGLL 121720Z AUTO 21013KT 9999 FEW042 16/09 Q1004
                        NOSIG=
201709121650 METAR EGLL 121650Z AUTO 22016KT 9999 NCD 17/08 Q1005=
201709121620 METAR COR EGLL 121620Z AUTO 22016KT 9999 FEW033 17/10 Q1006
                        NOSIG=
201709121550 METAR COR EGLL 121550Z AUTO 21013G23KT 9999 NCD 17/10 Q1006
                        NOSIG=
201709121520 METAR COR EGLL 121520Z AUTO 22015KT 9999 FEW041 17/09 Q1007
                        NOSIG=
201709121450 METAR COR EGLL 121450Z AUTO 23011KT 9999 FEW045 18/08 Q1007
                        TEMPO SHRA=
201709121420 METAR COR EGLL 121420Z AUTO 23014KT 9999 NCD 18/07 Q1007
                        NOSIG=
201709121350 METAR EGLL 121350Z AUTO 25015KT 9999 FEW043/// //////TCU
                        19/08 Q1007=
201709121320 METAR COR EGLL 121320Z AUTO 26015KT 230V290 9999 NCD 18/06
                        Q1007 NOSIG=
201709121250 METAR COR EGLL 121250Z AUTO 25016KT 9999 FEW044 18/07 Q1007
                        NOSIG=
201709121220 METAR COR EGLL 121220Z AUTO 25015KT 9999 NCD 18/07 Q1007
                        NOSIG=
201709121150 METAR COR EGLL 121150Z AUTO 25014KT 9999 NCD 17/08 Q1007
                        NOSIG=
201709121120 METAR COR EGLL 121120Z AUTO 25011KT 9999 FEW032 16/09 Q1007
                        NOSIG=
201709121050 METAR COR EGLL 121050Z AUTO 25011KT 9999 FEW029 SCT033 16/09
                        Q1007 NOSIG=
201709121020 METAR COR EGLL 121020Z AUTO 24010KT 9999 SCT026 16/10 Q1007
                        NOSIG=
201709120950 METAR EGLL 120950Z AUTO 27011KT 9999 NCD 16/09 Q1007=
201709120920 METAR COR EGLL 120920Z AUTO 27013KT 9999 NCD 15/10 Q1007
                        NOSIG=
201709120850 METAR COR EGLL 120850Z AUTO 27014KT 9999 NCD 15/10 Q1007
                        NOSIG=
201709120820 METAR COR EGLL 120820Z AUTO 27013KT 9999 NCD 13/10 Q1006
                        NOSIG=
201709120750 METAR COR EGLL 120750Z AUTO 27011KT 9999 NCD 13/09 Q1006
                        NOSIG=
201709120720 METAR COR EGLL 120720Z AUTO 26010KT 9999 NCD 12/09 Q1005
                        NOSIG=
201709120650 METAR COR EGLL 120650Z AUTO 26011KT 9999 NCD 12/09 Q1005
                        NOSIG=
201709120620 METAR COR EGLL 120620Z AUTO 27010KT 9999 NCD 11/09 Q1005
                        NOSIG=
201709120550 METAR COR EGLL 120550Z AUTO 26009KT 9999 NCD 11/09 Q1005
                        NOSIG=
201709120520 METAR COR EGLL 120520Z AUTO 26010KT 9999 NCD 11/09 Q1005
                        NOSIG=
201709120450 METAR COR EGLL 120450Z AUTO 27009KT 9999 NCD 11/09 Q1004
                        NOSIG=
201709120420 METAR COR EGLL 120420Z AUTO 26008KT 9999 NCD 11/09 Q1004
                        NOSIG=
201709120350 METAR COR EGLL 120350Z AUTO 25009KT 9999 NCD 12/09 Q1003
                        NOSIG=
201709120320 METAR COR EGLL 120320Z AUTO 26008KT 9999 NCD 12/10 Q1003
                        NOSIG=
201709120250 METAR COR EGLL 120250Z AUTO 25008KT 9999 NCD 12/10 Q1003
                        NOSIG=
201709120220 METAR COR EGLL 120220Z AUTO 27009KT 9999 NCD 12/10 Q1003
                        NOSIG=
201709120150 METAR COR EGLL 120150Z AUTO 26011KT 9999 NCD 11/10 Q1003
                        NOSIG=
201709120120 METAR COR EGLL 120120Z AUTO 27009KT 9999 NCD 11/10 Q1002
                        NOSIG=
201709120050 METAR COR EGLL 120050Z AUTO 26008KT 9999 NCD 12/10 Q1002
                        NOSIG=
201709120020 METAR COR EGLL 120020Z AUTO 26008KT 9999 NCD 12/10 Q1002
                        NOSIG=
201709112350 METAR COR EGLL 112350Z AUTO 26011KT 9999 NCD 12/10 Q1002
                        NOSIG=
201709112320 METAR COR EGLL 112320Z AUTO 27010KT 9999 NCD 12/10 Q1001
                        NOSIG=
201709112250 METAR COR EGLL 112250Z AUTO 27010KT 9999 NCD 12/10 Q1001
                        NOSIG=
201709112220 METAR COR EGLL 112220Z AUTO 27011KT 9999 NCD 13/10 Q1001
                        NOSIG=
201709112150 METAR COR EGLL 112150Z AUTO 27009KT 9999 NCD 13/10 Q1000
                        NOSIG=
201709112120 METAR COR EGLL 112120Z AUTO 26007KT 9999 NCD 13/10 Q1000
                        NOSIG=
201709112050 METAR COR EGLL 112050Z AUTO 25010KT 9999 NCD 13/10 Q1000
                        NOSIG=
201709112020 METAR COR EGLL 112020Z AUTO 26009KT 9999 NCD 13/10 Q1000
                        NOSIG=
201709111950 METAR COR EGLL 111950Z AUTO 26011KT 9999 NCD 14/11 Q0999
                        NOSIG=
201709111920 METAR COR EGLL 111920Z AUTO 27007KT 9999 FEW036/// //////CB
                        14/11 Q0999 NOSIG=
201709111850 METAR COR EGLL 111850Z AUTO 27014KT 9999 -RA SCT043/// //////CB
                        14/11 Q0998 NOSIG=
201709111820 METAR COR EGLL 111820Z AUTO 26012KT 9999 //////CB 15/10 Q0997
                        TEMPO SHRA=
201709111750 METAR COR EGLL 111750Z AUTO 27015KT 9999 FEW037 16/10 Q0997
                        NOSIG=
201709111720 METAR COR EGLL 111720Z AUTO 27014KT 9999 NCD 16/11 Q0996
                        NOSIG=
201709111650 METAR COR EGLL 111650Z AUTO 27014KT 9999 FEW044/// //////CB
                        16/11 Q0996 NOSIG=
201709111620 METAR COR EGLL 111620Z 29016G27KT 9999 VCSH SCT037CB 17/11
                        Q0995 NOSIG=
201709111550 METAR COR EGLL 111550Z AUTO 31015KT 9999 BKN036/// BKN045///
                        //////CB 18/10 Q0995 TEMPO SHRA=
201709111520 METAR COR EGLL 111520Z AUTO 27018KT 9999 FEW041/// //////CB
                        18/09 Q0994 TEMPO SHRA=
201709111450 METAR COR EGLL 111450Z AUTO 26021KT 9999 FEW037/// //////CB
                        19/10 Q0994 TEMPO SHRA=
201709111420 METAR COR EGLL 111420Z AUTO 26020KT 9999 FEW039/// //////CB
                        19/11 Q0993 TEMPO SHRA=
201709111350 METAR COR EGLL 111350Z AUTO 26021G31KT 9999 FEW049/// //////CB
                        19/11 Q0993 TEMPO SHRA=
201709111320 METAR COR EGLL 111320Z AUTO 25015KT 9999 //////CB 18/12 Q0993
                        TEMPO SHRA=
201709111250 METAR COR EGLL 111250Z AUTO 25019KT 9999 FEW033/// SCT043///
                        //////CB 18/11 Q0993 TEMPO SHRA=
201709111220 METAR COR EGLL 111220Z AUTO 25018KT 9999 FEW047/// //////CB
                        19/11 Q0993 NOSIG=
201709111150 METAR COR EGLL 111150Z AUTO 25019KT 9999 FEW030 SCT049 18/11
                        Q0992 NOSIG=
201709111120 METAR COR EGLL 111120Z AUTO 25018KT 9999 FEW036 BKN047 18/10
                        Q0992 NOSIG=
201709111050 METAR COR EGLL 111050Z AUTO 25016KT 9999 FEW030/// BKN046///
                        //////TCU 17/11 Q0992 NOSIG=
201709111020 METAR COR EGLL 111020Z AUTO 24016KT 9999 NCD 17/11 Q0992
                        NOSIG=
201709110950 METAR COR EGLL 110950Z AUTO 25017G27KT 9999 SCT017 16/11
                        Q0992 NOSIG=
201709110920 METAR COR EGLL 110920Z AUTO 23017KT 9999 SCT017 SCT029 BKN046
                        15/12 Q0992 NOSIG=
201709110850 METAR COR EGLL 110850Z AUTO 23014KT 9999 SCT018 SCT029 BKN040
                        14/11 Q0992 NOSIG=
201709110820 METAR COR EGLL 110820Z AUTO 23016KT 9999 -RA FEW017 SCT035
                        BKN049 13/11 Q0991 RESHRA NOSIG=
201709110750 METAR COR EGLL 110750Z AUTO 22016KT 9999 FEW037 BKN044 13/10
                        Q0991 NOSIG=
201709110720 METAR COR EGLL 110720Z AUTO 23013KT 9999 -RA SCT031/// BKN040///
                        //////TCU 12/10 Q0991 NOSIG=
201709110650 METAR COR EGLL 110650Z AUTO 23016KT 9000 -RA BKN025/// BKN041///
                        //////TCU 13/09 Q0991 NOSIG=
201709110620 METAR COR EGLL 110620Z AUTO 23016KT 9999 -RA SCT030/// //////TCU
                        12/09 Q0991 TEMPO SHRA=
201709110550 METAR COR EGLL 110550Z AUTO 23018KT 9999 -RA FEW040 12/08
                        Q0991 TEMPO SHRA=
201709110520 METAR COR EGLL 110520Z AUTO 23016KT 9999 FEW040 12/08 Q0991
                        TEMPO SHRA=
201709110450 METAR COR EGLL 110450Z AUTO 23016KT 9999 NCD 12/08 Q0991
                        NOSIG=
201709110420 METAR COR EGLL 110420Z AUTO 23016KT 9999 NCD 12/08 Q0991
                        NOSIG=
201709110350 METAR COR EGLL 110350Z AUTO 23014KT 9999 FEW037 12/08 Q0991
                        NOSIG=
201709110320 METAR COR EGLL 110320Z AUTO 23013KT 9999 NCD 12/08 Q0992
                        NOSIG=
201709110250 METAR COR EGLL 110250Z AUTO 22013KT 9999 NCD 11/08 Q0992
                        NOSIG=
201709110220 METAR COR EGLL 110220Z AUTO 22013KT 9999 NCD 11/08 Q0992
                        NOSIG=
201709110150 METAR COR EGLL 110150Z AUTO 22014KT 9999 NCD 11/08 Q0992
                        NOSIG=
201709110120 METAR COR EGLL 110120Z AUTO 22012KT 9999 NCD 12/09 Q0992
                        NOSIG=
201709110050 METAR EGLL 110050Z AUTO 23012KT 9999 NCD 12/09 Q0993=
201709110020 METAR COR EGLL 110020Z AUTO 23012KT 9999 NCD 12/09 Q0993
                        NOSIG=
201709102350 METAR COR EGLL 102350Z AUTO 23012KT 9999 SCT036 BKN046 12/09
                        Q0993 NOSIG=
201709102320 METAR COR EGLL 102320Z AUTO 23013KT 9999 NCD 12/09 Q0993
                        NOSIG=
201709102250 METAR COR EGLL 102250Z AUTO 23013KT 9999 FEW028 BKN034 BKN047
                        13/10 Q0993 NOSIG=
201709102220 METAR COR EGLL 102220Z AUTO 23015KT 9999 FEW031/// //////TCU
                        13/10 Q0993 NOSIG=
201709102150 METAR COR EGLL 102150Z AUTO 23014KT 9999 SCT028 BKN033 14/11
                        Q0993 NOSIG=
201709102120 METAR COR EGLL 102120Z AUTO 23015KT 9999 FEW032 SCT039 BKN049
                        14/10 Q0993 NOSIG=
201709102050 METAR COR EGLL 102050Z AUTO 23014KT 9999 FEW032 14/11 Q0993
                        NOSIG=
201709102020 METAR COR EGLL 102020Z AUTO 24016KT 9999 SCT022/// SCT029///
                        BKN037/// //////CB 15/11 Q0992 TEMPO
                        SHRA=
201709101950 METAR COR EGLL 101950Z AUTO 24013KT 9999 FEW026 SCT033 BKN044
                        15/12 Q0992 TEMPO SHRA=
201709101920 METAR COR EGLL 101920Z AUTO 24014KT 9999 FEW028 15/12 Q0992
                        TEMPO SHRA=
201709101850 METAR COR EGLL 101850Z AUTO 25016KT 9999 FEW028/// SCT037///
                        //////CB 16/13 Q0992 TEMPO SHRA=
201709101820 METAR COR EGLL 101820Z AUTO 23014KT 8000 -RA SCT018/// BKN030///
                        //////CB 15/14 Q0992 NOSIG=
201709101750 METAR COR EGLL 101750Z AUTO 22013G23KT 9999 -RA FEW015///
                        SCT021/// BKN030/// //////CB 15/14
                        Q0992 NOSIG=
201709101720 METAR COR EGLL 101720Z AUTO 21016G26KT 9999 -RA BKN007///
                        OVC022/// //////TCU 15/14 Q0992 BECMG
                        SCT007 BKN022=
201709101650 METAR COR EGLL 101650Z AUTO 20014KT 3800 -RADZ BKN008 OVC026
                        15/14 Q0993 BECMG 9999 NSW SCT008
                        BKN026=
201709101620 METAR COR EGLL 101620Z AUTO 21017KT 180V240 6000 BKN011 OVC027
                        15/13 Q0994 TEMPO 4000 RADZ=
201709101550 METAR COR EGLL 101550Z AUTO 21018G28KT 8000 -RA BKN015 OVC037
                        15/12 Q0995 TEMPO BKN014=
201709101520 METAR COR EGLL 101520Z AUTO 22020G30KT 9999 -RA BKN019 OVC029
                        15/12 Q0995 TEMPO BKN014=
201709101450 METAR COR EGLL 101450Z AUTO 21016G26KT 9999 BKN023 OVC034
                        16/11 Q0996 TEMPO BKN014=
201709101420 METAR COR EGLL 101420Z AUTO 23018KT 200V260 9999 FEW027 BKN032
                        OVC040 16/10 Q0997 NOSIG=
201709101350 METAR COR EGLL 101350Z AUTO 22018KT 9999 SCT034 BKN048 17/10
                        Q0997 NOSIG=
201709101320 METAR COR EGLL 101320Z AUTO 22017KT 9999 FEW034 17/11 Q0998
                        NOSIG=
201709101250 METAR COR EGLL 101250Z AUTO 22015KT 9999 FEW031 17/11 Q0998
                        NOSIG=
201709101220 METAR COR EGLL 101220Z AUTO 22012KT 9999 SCT028 SCT034 BKN042
                        17/12 Q0999 NOSIG=
201709101150 METAR COR EGLL 101150Z AUTO 22011KT 9999 SCT026 SCT034 17/12
                        Q0999 NOSIG=
201709101120 METAR COR EGLL 101120Z AUTO 22013KT 190V250 9999 FEW024 17/12
                        Q1000 NOSIG=
201709101050 METAR COR EGLL 101050Z AUTO 22013KT 9999 NCD 16/12 Q1000
                        NOSIG=
201709101020 METAR COR EGLL 101020Z AUTO 23014KT 9999 FEW021 16/12 Q1001
                        NOSIG=
201709100950 METAR COR EGLL 100950Z AUTO 22012KT 9999 NCD 16/11 Q1001
                        NOSIG=
201709100920 METAR COR EGLL 100920Z AUTO 21011KT 9999 NCD 15/11 Q1002
                        NOSIG=
201709100850 METAR COR EGLL 100850Z AUTO 20008G18KT 080V240 9999 NCD 14/11
                        Q1002 NOSIG=
201709100820 METAR COR EGLL 100820Z AUTO 21007KT 190V250 9999 NCD 13/10
                        Q1002 NOSIG=
201709100750 METAR COR EGLL 100750Z AUTO 23008KT 9999 NCD 12/10 Q1003
                        NOSIG=
201709100720 METAR COR EGLL 100720Z AUTO 23006KT 200V260 9999 NCD 11/10
                        Q1003 NOSIG=
201709100650 METAR COR EGLL 100650Z AUTO 21007KT 110V280 9999 NCD 10/09
                        Q1003 NOSIG=
201709100620 METAR COR EGLL 100620Z AUTO 21004KT 180V270 9999 NCD 09/09
                        Q1003 NOSIG=
201709100550 METAR COR EGLL 100550Z AUTO 21004KT 170V230 9999 NCD 09/09
                        Q1003 NOSIG=
201709100520 METAR COR EGLL 100520Z AUTO 21005KT 9999 NCD 09/09 Q1003
                        TEMPO 4000 BR=
201709100450 METAR COR EGLL 100450Z AUTO 21005KT 9999 NCD 10/09 Q1003
                        TEMPO 4000 BR=
201709100420 METAR COR EGLL 100420Z AUTO 20004KT 9999 NCD 10/09 Q1002
                        TEMPO 4000 BR=
201709100350 METAR COR EGLL 100350Z AUTO 26003KT 9999 NCD 10/09 Q1003
                        TEMPO 4000 BR=
201709100320 METAR COR EGLL 100320Z AUTO 27004KT 3000 HZ NCD 10/09 Q1003
                        TEMPO 5000=
201709100250 METAR COR EGLL 100250Z AUTO 26003KT 9999 NCD 10/09 Q1003
                        NOSIG=
201709100220 METAR COR EGLL 100220Z AUTO 29005KT 9999 NCD 09/09 Q1003
                        NOSIG=
201709100150 METAR COR EGLL 100150Z AUTO 28004KT 9999 NCD 09/09 Q1003
                        NOSIG=
201709100120 METAR COR EGLL 100120Z AUTO 29006KT 9999 NCD 10/09 Q1003
                        NOSIG=
201709100050 METAR COR EGLL 100050Z AUTO 29005KT 9999 NCD 10/09 Q1003
                        NOSIG=
201709100020 METAR COR EGLL 100020Z AUTO 28006KT 9999 NCD 10/09 Q1003
                        NOSIG=
201709092350 METAR COR EGLL 092350Z AUTO 28005KT 9999 NCD 10/09 Q1002
                        NOSIG=
201709092320 METAR EGLL 092320Z AUTO 28005KT 9999 NCD 11/09 Q1002=
201709092250 METAR COR EGLL 092250Z AUTO 29006KT 9999 NCD 12/10 Q1002
                        NOSIG=
201709092220 METAR COR EGLL 092220Z AUTO 29005KT 9999 NCD 12/10 Q1002
                        NOSIG=
201709092150 METAR COR EGLL 092150Z AUTO 28005KT 9999 NCD 12/10 Q1001
                        NOSIG=
201709092120 METAR COR EGLL 092120Z AUTO 29005KT 9999 NCD 13/10 Q1001
                        NOSIG=
201709092050 METAR COR EGLL 092050Z AUTO 29006KT 9999 NCD 13/11 Q1001
                        NOSIG=
201709092020 METAR COR EGLL 092020Z AUTO 29006KT 9999 NCD 13/11 Q1001
                        NOSIG=
201709091950 METAR COR EGLL 091950Z AUTO 28008KT 9999 NCD 13/11 Q1000
                        NOSIG=
201709091920 METAR COR EGLL 091920Z AUTO 26008KT 9999 NCD 13/11 Q1000
                        NOSIG=
201709091850 METAR COR EGLL 091850Z AUTO 26008KT 9999 NCD 13/11 Q0999
                        NOSIG=
201709091820 METAR COR EGLL 091820Z AUTO 26007KT 9999 NCD 14/10 Q0999
                        NOSIG=
201709091750 METAR COR EGLL 091750Z AUTO 26008KT 9999 NCD 14/10 Q0999
                        TEMPO SHRA=
201709091720 METAR COR EGLL 091720Z AUTO 27009KT 240V310 9999 NCD 15/10
                        Q0999 TEMPO SHRA=
201709091650 METAR COR EGLL 091650Z AUTO 29008KT 9999 //////CB 15/10 Q0998
                        TEMPO SHRA=
201709091620 METAR COR EGLL 091620Z AUTO 28007KT 9999 //////CB 14/12 Q0998
                        TEMPO SHRA=
201709091550 METAR COR EGLL 091550Z AUTO 27014KT 9999 VCTS FEW049/// //////CB
                        15/11 Q0998 TEMPO 3000 +TSRA=
201709091520 METAR COR EGLL 091520Z AUTO 26010KT 9999 VCTS //////CB 15/11
                        Q0998 RETS TEMPO 3000 +TSRA=
201709091450 METAR COR EGLL 091450Z 27013KT 220V280 9999 -RA SCT020CB
                        BKN036 14/11 Q0998 RETS RESHRA RESHGR
                        TEMPO 3000 +TSRA=
201709091420 METAR COR EGLL 091420Z AUTO 26012KT 9999 -RA //////CB 18/10
                        Q0997 TEMPO 3000 +TSRA=
201709091350 METAR COR EGLL 091350Z AUTO 27014KT 220V290 9999 //////CB
                        17/09 Q0997 TEMPO 4000 +SHRA=
201709091320 METAR COR EGLL 091320Z AUTO 26009KT 230V290 9999 //////TCU
                        18/09 Q0997 TEMPO 4000 +SHRA=
201709091250 METAR COR EGLL 091250Z AUTO 27010KT 9999 -RA NCD 16/09 Q0997
                        TEMPO 4000 +SHRA=
201709091220 METAR COR EGLL 091220Z AUTO 26012KT 9999 FEW037 18/09 Q0997
                        TEMPO 4000 +SHRA=
201709091150 METAR COR EGLL 091150Z AUTO 26012KT 9999 SCT034 BKN042 17/09
                        Q0997 TEMPO 4000 +SHRA=
201709091120 METAR COR EGLL 091120Z AUTO 25012KT 9999 SCT034 BKN042 17/09
                        Q0997 TEMPO SHRA=
201709091050 METAR COR EGLL 091050Z AUTO 27009KT 240V310 9999 SCT031 BKN039
                        17/09 Q0998 TEMPO SHRA=
201709091020 METAR COR EGLL 091020Z AUTO 27012KT 9999 SCT028 16/09 Q0998
                        NOSIG=
201709090950 METAR COR EGLL 090950Z AUTO 27012KT 9999 FEW026 16/10 Q0998
                        NOSIG=
201709090920 METAR COR EGLL 090920Z AUTO 28011KT 9999 FEW021 15/10 Q0997
                        NOSIG=
201709090850 METAR COR EGLL 090850Z AUTO 27012KT 9999 NCD 14/10 Q0997
                        NOSIG=
201709090820 METAR COR EGLL 090820Z AUTO 27010KT 9999 NCD 14/10 Q0997
                        NOSIG=
201709090750 METAR COR EGLL 090750Z AUTO 27009KT 9999 NCD 13/10 Q0997
                        NOSIG=
201709090720 METAR COR EGLL 090720Z AUTO 26009KT 9999 NCD 12/10 Q0997
                        NOSIG=
201709090650 METAR COR EGLL 090650Z AUTO 27007KT 9999 NCD 11/10 Q0997
                        NOSIG=
201709090620 METAR COR EGLL 090620Z AUTO 27007KT 9999 NCD 11/10 Q0997
                        NOSIG=
201709090550 METAR COR EGLL 090550Z AUTO 27006KT 9999 NCD 11/10 Q0996
                        NOSIG=
201709090520 METAR COR EGLL 090520Z AUTO 27007KT 9999 NCD 11/09 Q0996
                        NOSIG=
201709090450 METAR COR EGLL 090450Z AUTO 27007KT 9999 NCD 11/09 Q0996
                        NOSIG=
201709090420 METAR COR EGLL 090420Z AUTO 27006KT 9999 NCD 11/09 Q0996
                        NOSIG=
201709090350 METAR COR EGLL 090350Z AUTO 27007KT 9999 NCD 10/09 Q0996
                        NOSIG=
201709090320 METAR COR EGLL 090320Z AUTO 27005KT 9999 NCD 11/09 Q0996
                        NOSIG=
201709090250 METAR COR EGLL 090250Z AUTO 27004KT 9999 NCD 11/10 Q0996
                        NOSIG=
201709090220 METAR COR EGLL 090220Z AUTO 27005KT 9999 NCD 11/10 Q0996
                        NOSIG=
201709090150 METAR COR EGLL 090150Z AUTO 27006KT 9999 NCD 10/09 Q0996
                        NOSIG=
201709090120 METAR COR EGLL 090120Z AUTO 29004KT 9999 NCD 10/10 Q0996
                        NOSIG=
201709090050 METAR COR EGLL 090050Z AUTO 29006KT 9999 NCD 11/10 Q0996
                        NOSIG=
201709090020 METAR COR EGLL 090020Z AUTO 27006KT 9999 NCD 11/10 Q0996
                        NOSIG=
201709082350 METAR COR EGLL 082350Z AUTO 26007KT 9999 NCD 11/10 Q0996
                        NOSIG=
201709082320 METAR COR EGLL 082320Z AUTO 27006KT 6000 NCD 12/11 Q0996
                        NOSIG=
201709082250 METAR COR EGLL 082250Z AUTO 26005KT 6000 NCD 12/11 Q0996
                        NOSIG=
201709082220 METAR EGLL 082220Z AUTO 28007KT 9999 NCD 12/11 Q0996=
201709082150 METAR COR EGLL 082150Z AUTO 25008KT 9999 NCD 14/12 Q0996
                        NOSIG=
201709082120 METAR COR EGLL 082120Z AUTO 24007KT 200V290 9999 NCD 14/12
                        Q0996 NOSIG=
201709082050 METAR COR EGLL 082050Z AUTO 24008KT 9999 NCD 15/12 Q0996
                        NOSIG=
201709082020 METAR COR EGLL 082020Z AUTO 25006KT 9999 NCD 14/12 Q0996
                        NOSIG=
201709081950 METAR COR EGLL 081950Z AUTO 24006KT 9999 -RA FEW041 14/11
                        Q0997 NOSIG=
201709081920 METAR COR EGLL 081920Z 28006KT 9999 -RA SCT030TCU BKN042
                        15/11 Q0997 TEMPO SHRA=
201709081850 METAR COR EGLL 081850Z AUTO 31004KT 9999 FEW027/// SCT032///
                        BKN041/// //////CB 16/10 Q0996 TEMPO
                        SHRA=
201709081820 METAR COR EGLL 081820Z 31004KT 9999 SCT035CB 16/10 Q0996
                        TEMPO SHRA=
201709081750 METAR COR EGLL 081750Z AUTO 31005KT 280V340 9999 BKN030 BKN044
                        16/11 Q0997 TEMPO SHRA=
201709081720 METAR COR EGLL 081720Z AUTO 25011KT 9999 FEW041/// //////TCU
                        18/12 Q0997 NOSIG=
201709081650 METAR COR EGLL 081650Z AUTO 24012KT 9999 FEW048/// //////CB
                        18/12 Q0997 NOSIG=
201709081620 METAR COR EGLL 081620Z AUTO 24013KT 9999 FEW032/// //////CB
                        19/12 Q0997 NOSIG=
201709081550 METAR COR EGLL 081550Z AUTO 24015KT 9999 FEW029/// //////CB
                        19/13 Q0997 NOSIG=
201709081520 METAR COR EGLL 081520Z AUTO 24014KT 9999 SCT023/// //////TCU
                        19/13 Q0997 NOSIG=
201709081450 METAR COR EGLL 081450Z AUTO 24012KT 9999 SCT017 SCT023 18/14
                        Q0997 NOSIG=
201709081420 METAR COR EGLL 081420Z AUTO 25011KT 9999 FEW019/// //////CB
                        17/14 Q0998 TEMPO SHRA=
201709081350 METAR COR EGLL 081350Z AUTO 24012KT 9999 FEW021 SCT029 17/14
                        Q0998 TEMPO SHRA=
201709081320 METAR COR EGLL 081320Z AUTO 24011KT 9999 -RA BKN017 17/14
                        Q0998 NOSIG=
201709081250 METAR COR EGLL 081250Z AUTO 24011KT 9999 FEW015/// //////TCU
                        17/15 Q0998 TEMPO SHRA=
201709081220 METAR COR EGLL 081220Z AUTO 23011KT 9999 SCT016/// BKN021///
                        BKN028/// //////TCU 16/15 Q0999 TEMPO
                        SHRA BKN012=
201709081150 METAR COR EGLL 081150Z AUTO 22008KT 9999 -RA FEW013/// SCT032///
                        BKN047/// //////TCU 15/14 Q0999 TEMPO
                        4000 +SHRA BKN012=
201709081120 METAR EGLL 081120Z 22009KT 9000 -RA SCT018TCU SCT030 16/14
                        Q0999=
201709081050 METAR COR EGLL 081050Z 23012KT 9000 -RA FEW021TCU SCT030
                        BKN043 16/14 Q0999 TEMPO 4000 RA
                        BKN012=
201709081020 METAR COR EGLL 081020Z AUTO 23013KT 9999 -RA SCT019/// SCT024///
                        BKN032/// //////CB 17/13 Q1000 TEMPO
                        4000 RA BKN012=
201709080950 METAR COR EGLL 080950Z AUTO 23011KT 9999 SCT024 SCT037 BKN044
                        16/14 Q1000 TEMPO 40500 RADZ BKN012=
201709080920 METAR COR EGLL 080920Z AUTO 23010KT 9999 SCT018 BKN045 16/14
                        Q1001 TEMPO 4500 RA BKN012=
201709080850 METAR COR EGLL 080850Z AUTO 23011KT 9999 FEW034 16/14 Q1001
                        NOSIG=
201709080820 METAR COR EGLL 080820Z AUTO 23011KT 9999 FEW023 15/14 Q1001
                        NOSIG=
201709080750 METAR COR EGLL 080750Z 23008KT 9999 6000NE -RA SCT019 BKN032
                        BKN043 15/14 Q1001 NOSIG=
201709080720 METAR COR EGLL 080720Z AUTO 23009KT 9999 -RA FEW015 BKN022
                        BKN033 15/14 Q1002 TEMPO 4000 RADZ
                        BKN012=
201709080650 METAR COR EGLL 080650Z AUTO 22011KT 8000 -RA FEW017 BKN024
                        BKN037 15/13 Q1002 TEMPO 4000 RA
                        BKN012=
201709080620 METAR COR EGLL 080620Z AUTO 23010KT 9999 -RA SCT015/// BKN041///
                        //////TCU 15/13 Q1002 TEMPO RA BKN012=
201709080550 METAR COR EGLL 080550Z AUTO 24011KT 9999 -RA FEW016/// BKN021///
                        //////TCU 15/13 Q1002 TEMPO BKN012=
201709080520 METAR COR EGLL 080520Z AUTO 23012KT 9999 -RA BKN018/// BKN026///
                        //////TCU 15/13 Q1002 TEMPO BKN014=
201709080450 METAR COR EGLL 080450Z AUTO 24010KT 9999 BKN016 OVC025 15/13
                        Q1002 TEMPO -RA BKN014=
201709080420 METAR COR EGLL 080420Z AUTO 24010KT 9999 -RA FEW016 15/13
                        Q1002 TEMPO BKN014=
201709080350 METAR COR EGLL 080350Z AUTO 24013KT 9999 BKN017 BKN038 16/12
                        Q1003 TEMPO -RA BKN014=
201709080320 METAR COR EGLL 080320Z AUTO 24013KT 9999 SCT018 BKN023 BKN049
                        16/12 Q1003 TEMPO -RA BKN014=
201709080250 METAR COR EGLL 080250Z AUTO 24011KT 9999 SCT024 BKN038 16/12
                        Q1004 NOSIG=
201709080220 METAR COR EGLL 080220Z AUTO 24013KT 9999 FEW020 16/12 Q1004
                        NOSIG=
201709080150 METAR COR EGLL 080150Z AUTO 25013KT 9999 SCT018 SCT041 16/13
                        Q1004 NOSIG=
201709080120 METAR COR EGLL 080120Z AUTO 24012KT 9999 BKN034 16/13 Q1005
                        NOSIG=
201709080050 METAR COR EGLL 080050Z AUTO 23011KT 9999 FEW034 16/13 Q1005
                        TEMPO BKN014=
201709080020 METAR COR EGLL 080020Z AUTO 23011KT 9999 SCT020 SCT025 BKN034
                        16/13 Q1006 TEMPO BKN014=
201709072350 METAR COR EGLL 072350Z AUTO 24011KT 9999 BKN020 BKN037 16/13
                        Q1006 TEMPO BKN014=
201709072320 METAR COR EGLL 072320Z AUTO 24014KT 9999 SCT021 SCT027 OVC031
                        17/13 Q1007 TEMPO BKN014=
201709072250 METAR COR EGLL 072250Z AUTO 24014KT 9999 SCT023 BKN027 OVC032
                        17/12 Q1007 TEMPO BKN014=
201709072220 METAR COR EGLL 072220Z AUTO 24012KT 9999 BKN019 BKN032 16/14
                        Q1007 NOSIG=
201709072150 METAR COR EGLL 072150Z AUTO 23012KT 9999 FEW015 SCT023 BKN033
                        16/14 Q1008 NOSIG=
201709072120 METAR COR EGLL 072120Z AUTO 22012KT 190V250 6000 SCT012 BKN019
                        OVC030 16/14 Q1008 TEMPO BKN012=
201709072050 METAR COR EGLL 072050Z AUTO 22012KT 180V250 9999 BKN016 17/13
                        Q1009 TEMPO -RA BKN014=
201709072020 METAR EGLL 072020Z AUTO 21012KT 180V240 9999 BKN023 BKN041
                        17/13 Q1009=
201709071950 METAR COR EGLL 071950Z AUTO 22012KT 9999 SCT027 17/13 Q1010
                        NOSIG=
201709071920 METAR COR EGLL 071920Z AUTO 22011KT 190V250 9999 NCD 17/13
                        Q1010 NOSIG=
201709071850 METAR COR EGLL 071850Z AUTO 22012KT 9999 SCT044 17/13 Q1010
                        NOSIG=
201709071820 METAR COR EGLL 071820Z AUTO 22012KT 9999 SCT047 17/12 Q1010
                        NOSIG=
201709071750 METAR COR EGLL 071750Z AUTO 24012KT 9999 SCT045 18/12 Q1010
                        NOSIG=
201709071720 METAR COR EGLL 071720Z AUTO 24014KT 9999 FEW027 BKN033 18/12
                        Q1011 NOSIG=
201709071650 METAR COR EGLL 071650Z AUTO 24013KT 9999 OVC040 19/12 Q1011
                        NOSIG=
201709071620 METAR COR EGLL 071620Z AUTO 23013G23KT 9999 BKN039 19/11
                        Q1011 NOSIG=
201709071550 METAR COR EGLL 071550Z AUTO 24011KT 180V280 9999 BKN036 19/11
                        Q1011 NOSIG=
201709071520 METAR COR EGLL 071520Z AUTO 25012KT 9999 FEW039 OVC045 19/11
                        Q1012 NOSIG=
201709071450 METAR COR EGLL 071450Z AUTO 24012KT 200V270 9999 NCD 19/11
                        Q1012 NOSIG=
201709071420 METAR COR EGLL 071420Z AUTO 25013KT 9999 NCD 19/11 Q1013
                        NOSIG=
201709071350 METAR COR EGLL 071350Z AUTO 24014KT 9999 FEW035 SCT046 19/11
                        Q1013 NOSIG=
201709071320 METAR COR EGLL 071320Z AUTO 25011KT 9999 NCD 19/11 Q1013
                        NOSIG=
201709071250 METAR COR EGLL 071250Z AUTO 24011KT 9999 FEW044 19/11 Q1013
                        NOSIG=
201709071220 METAR COR EGLL 071220Z AUTO 24010KT 200V270 9999 FEW027 SCT033
                        BKN045 18/12 Q1014 NOSIG=
201709071150 METAR COR EGLL 071150Z AUTO 24011KT 9999 FEW024 SCT046 18/12
                        Q1014 NOSIG=
201709071120 METAR COR EGLL 071120Z AUTO 23010KT 9999 FEW028 18/12 Q1014
                        NOSIG=
201709071050 METAR COR EGLL 071050Z 25011KT 9999 -RA FEW024 SCT031 BKN041
                        17/12 Q1015 NOSIG=
201709071020 METAR COR EGLL 071020Z AUTO 28007KT 250V320 9999 FEW020 SCT025
                        BKN031 17/12 Q1015 NOSIG=
201709070950 METAR COR EGLL 070950Z AUTO 25007KT 220V300 9999 SCT018 BKN027
                        BKN032 17/12 Q1015 NOSIG=
201709070920 METAR COR EGLL 070920Z 24007KT 210V280 9999 SCT017 SCT021
                        17/12 Q1016 NOSIG=
201709070850 METAR COR EGLL 070850Z 23006KT 190V250 9999 FEW012 SCT015
                        16/12 Q1016 NOSIG=
201709070820 METAR COR EGLL 070820Z 23005KT 190V270 9000 FEW020 SCT030
                        15/12 Q1016 NOSIG=
201709070750 METAR COR EGLL 070750Z 24005KT 210V270 9999 FEW020 SCT030
                        14/11 Q1016 NOSIG=
201709070720 METAR COR EGLL 070720Z 21005KT 170V240 CAVOK 13/11 Q1016
                        NOSIG=
201709070650 METAR COR EGLL 070650Z 22004KT 180V250 CAVOK 12/10 Q1016
                        NOSIG=
201709070620 METAR COR EGLL 070620Z AUTO 22006KT 190V260 9000 SCT043 12/10
                        Q1016 NOSIG=
201709070550 METAR COR EGLL 070550Z AUTO 24007KT 9000 BKN040 12/10 Q1017
                        BECMG 9999=
201709070520 METAR COR EGLL 070520Z AUTO 22006KT 9000 FEW044 12/10 Q1017
                        BECMG 9999=
201709070450 METAR COR EGLL 070450Z 23003KT CAVOK 12/10 Q1017 NOSIG=
201709070420 METAR COR EGLL 070420Z VRB02KT CAVOK 12/10 Q1017 NOSIG=
201709070350 METAR COR EGLL 070350Z 27004KT CAVOK 12/10 Q1017 NOSIG=
201709070320 METAR COR EGLL 070320Z 25006KT CAVOK 13/10 Q1018 NOSIG=
201709070250 METAR COR EGLL 070250Z 27005KT CAVOK 13/11 Q1018 NOSIG=
201709070220 METAR COR EGLL 070220Z 21003KT CAVOK 13/10 Q1018 NOSIG=
201709070150 METAR COR EGLL 070150Z AUTO 27006KT 9999 NCD 13/10 Q1018
                        NOSIG=
201709070120 METAR COR EGLL 070120Z AUTO 27006KT 9999 NCD 13/09 Q1018
                        NOSIG=
201709070050 METAR COR EGLL 070050Z AUTO 27007KT 9999 NCD 13/09 Q1018
                        NOSIG=
201709070020 METAR COR EGLL 070020Z AUTO 27007KT 9999 FEW046 13/09 Q1019
                        NOSIG=
201709062350 METAR COR EGLL 062350Z AUTO 29006KT 9999 SCT047 14/09 Q1019
                        NOSIG=
201709062320 METAR COR EGLL 062320Z AUTO 29005KT 9999 NCD 15/09 Q1019
                        NOSIG=
201709062250 METAR COR EGLL 062250Z AUTO 29006KT 9999 SCT046 15/10 Q1019
                        NOSIG=
201709062220 METAR COR EGLL 062220Z AUTO 28008KT 9999 BKN048 15/10 Q1019
                        NOSIG=
201709062150 METAR COR EGLL 062150Z AUTO 27011KT 9999 OVC048 15/10 Q1019
                        NOSIG=
201709062120 METAR COR EGLL 062120Z AUTO 26009KT 9999 BKN048 16/09 Q1019
                        NOSIG=
201709062050 METAR COR EGLL 062050Z AUTO 27007KT 9999 OVC049 16/09 Q1020
                        NOSIG=
201709062020 METAR COR EGLL 062020Z AUTO 28005KT 9999 OVC049 16/09 Q1020
                        NOSIG=
201709061950 METAR COR EGLL 061950Z AUTO 30003KT 9999 NCD 16/09 Q1020
                        NOSIG=
201709061920 METAR COR EGLL 061920Z AUTO 29004KT 9999 NCD 16/08 Q1019
                        NOSIG=
201709061850 METAR COR EGLL 061850Z AUTO 29006KT 9999 NCD 16/08 Q1019
                        NOSIG=
201709061820 METAR COR EGLL 061820Z AUTO 29005KT 9999 NCD 17/08 Q1019
                        NOSIG=
201709061750 METAR COR EGLL 061750Z AUTO 29006KT 9999 NCD 17/08 Q1019
                        NOSIG=
201709061720 METAR COR EGLL 061720Z AUTO 30007KT 270V330 9999 NCD 18/08
                        Q1019 NOSIG=
201709061650 METAR COR EGLL 061650Z AUTO 30009KT 9999 NCD 18/08 Q1019
                        NOSIG=
201709061620 METAR COR EGLL 061620Z AUTO 29008KT 9999 FEW043 18/08 Q1019
                        NOSIG=
201709061550 METAR COR EGLL 061550Z AUTO 31008KT 9999 NCD 19/08 Q1019
                        NOSIG=
201709061520 METAR COR EGLL 061520Z AUTO 30010KT 270V330 9999 NCD 19/06
                        Q1019 NOSIG=
201709061450 METAR COR EGLL 061450Z AUTO 27014KT 9999 SCT049 19/07 Q1019
                        NOSIG=
201709061420 METAR COR EGLL 061420Z AUTO 28013KT 9999 FEW047 19/08 Q1019
                        NOSIG=
201709061350 METAR COR EGLL 061350Z AUTO 30008KT 9999 FEW045 18/08 Q1019
                        NOSIG=
201709061320 METAR COR EGLL 061320Z AUTO 30010KT 9999 BKN046 18/07 Q1019
                        NOSIG=
201709061250 METAR COR EGLL 061250Z AUTO 28011KT 250V310 9999 FEW047 19/08
                        Q1019 NOSIG=
201709061220 METAR COR EGLL 061220Z AUTO 29010KT 9999 FEW045 19/09 Q1019
                        NOSIG=
201709061150 METAR COR EGLL 061150Z AUTO 28010KT 9999 FEW041 18/10 Q1019
                        NOSIG=
201709061120 METAR COR EGLL 061120Z AUTO 30010KT 9999 FEW038 SCT046 17/09
                        Q1019 NOSIG=
201709061050 METAR COR EGLL 061050Z AUTO 28012KT 9999 FEW036 SCT043 18/09
                        Q1019 NOSIG=
201709061020 METAR COR EGLL 061020Z AUTO 28011KT 260V320 9999 FEW032 18/10
                        Q1019 NOSIG=
201709060950 METAR COR EGLL 060950Z AUTO 27011KT 9999 FEW029 18/11 Q1019
                        NOSIG=
201709060920 METAR COR EGLL 060920Z AUTO 28009KT 9999 FEW027 17/11 Q1019
                        NOSIG=
201709060850 METAR COR EGLL 060850Z AUTO 27011KT 9999 SCT022 17/12 Q1019
                        NOSIG=
201709060820 METAR COR EGLL 060820Z AUTO 26011KT 9999 NCD 16/12 Q1019
                        NOSIG=
201709060750 METAR COR EGLL 060750Z AUTO 26010KT 9999 NCD 15/12 Q1019
                        NOSIG=
201709060720 METAR COR EGLL 060720Z AUTO 25010KT 9999 NCD 14/11 Q1019
                        NOSIG=
201709060650 METAR COR EGLL 060650Z AUTO 24010KT 9999 NCD 14/11 Q1019
                        NOSIG=
201709060620 METAR COR EGLL 060620Z AUTO 24009KT 9999 NCD 14/11 Q1018
                        NOSIG=
201709060550 METAR COR EGLL 060550Z AUTO 25011KT 9000 NCD 14/11 Q1018
                        NOSIG=
201709060520 METAR COR EGLL 060520Z AUTO 25009KT 9999 NCD 13/11 Q1018
                        NOSIG=
201709060450 METAR COR EGLL 060450Z AUTO 24008KT 9999 NCD 13/11 Q1018
                        NOSIG=
201709060420 METAR COR EGLL 060420Z AUTO 27006KT 9999 NCD 13/11 Q1018
                        NOSIG=
201709060350 METAR COR EGLL 060350Z AUTO 27006KT 9999 NCD 13/11 Q1018
                        NOSIG=
201709060320 METAR COR EGLL 060320Z AUTO 27008KT 9999 NCD 13/11 Q1018
                        NOSIG=
201709060250 METAR COR EGLL 060250Z AUTO 27007KT 9999 NCD 12/10 Q1018
                        NOSIG=
201709060220 METAR COR EGLL 060220Z AUTO 27008KT 9999 NCD 12/10 Q1018
                        NOSIG=
201709060150 METAR COR EGLL 060150Z AUTO 26008KT 9999 NCD 13/11 Q1018
                        NOSIG=
201709060120 METAR COR EGLL 060120Z AUTO 26008KT 9999 NCD 13/11 Q1018
                        NOSIG=
201709060050 METAR COR EGLL 060050Z AUTO 27007KT 9999 NCD 13/11 Q1018
                        NOSIG=
201709060020 METAR COR EGLL 060020Z AUTO 27009KT 9999 NCD 13/11 Q1017
                        NOSIG=
201709052350 METAR COR EGLL 052350Z AUTO 28009KT 9999 NCD 13/11 Q1017
                        NOSIG=
201709052320 METAR COR EGLL 052320Z AUTO 28009KT 9999 NCD 14/12 Q1017
                        NOSIG=
201709052250 METAR COR EGLL 052250Z AUTO 28009KT 9999 NCD 14/13 Q1016
                        NOSIG=
201709052220 METAR COR EGLL 052220Z AUTO 29006KT 250V310 9999 FEW014 SCT044
                        15/13 Q1016 NOSIG=
201709052150 METAR COR EGLL 052150Z AUTO 31006KT 9999 OVC036 16/13 Q1016
                        NOSIG=
201709052120 METAR COR EGLL 052120Z AUTO 30009KT 9999 SCT028 OVC034 16/13
                        Q1015 NOSIG=
201709052050 METAR COR EGLL 052050Z 31012KT 9999 -RA FEW008 BKN019 17/14
                        Q1015 NOSIG=
201709052020 METAR COR EGLL 052020Z AUTO 28012KT 4900 -DZ BKN013 BKN023
                        18/16 Q1014 TEMPO 4000 -DZ BKN010=
201709051950 METAR COR EGLL 051950Z AUTO 25008KT 9999 FEW020 SCT026 BKN039TCU
                        18/16 Q1013 TEMPO BKN014=
201709051920 METAR COR EGLL 051920Z AUTO 25009KT 9999 BKN025 BKN035 18/16
                        Q1013 NOSIG=
201709051850 METAR COR EGLL 051850Z AUTO 23008KT 9999 OVC028 18/16 Q1013
                        NOSIG=
201709051820 METAR COR EGLL 051820Z AUTO 24009KT 9999 FEW019 BKN025 BKN030
                        18/16 Q1012 NOSIG=
201709051750 METAR COR EGLL 051750Z AUTO 23009KT 200V260 9999 FEW013 SCT019
                        BKN029 18/16 Q1012 NOSIG=
201709051720 METAR COR EGLL 051720Z AUTO 22009KT 9999 SCT012 BKN017 BKN022
                        18/16 Q1012 TEMPO BKN012=
201709051650 METAR COR EGLL 051650Z AUTO 23010KT 9999 SCT013 BKN021 BKN032
                        18/17 Q1012 TEMPO BKN012=
201709051620 METAR COR EGLL 051620Z AUTO 22008KT 9999 -RA FEW007 BKN010
                        BKN018 18/17 Q1012 RERA REDZ TEMPO
                        FEW010 BKN018=
201709051550 METAR COR EGLL 051550Z AUTO 20010KT 160V240 5000 -RA SCT011
                        BKN016 BKN021 18/17 Q1012 RERA REDZ
                        TEMPO BKN014=
201709051520 METAR EGLL 051520Z AUTO 18009KT 150V230 9999 -RA SCT016 SCT024
                        BKN040 19/16 Q1012=
201709051450 METAR EGLL 051450Z AUTO 21010KT 160V240 9999 FEW012 SCT039
                        BKN047 19/17 Q1012 NOSIG=
201709051420 METAR COR EGLL 051420Z AUTO 20011KT 170V240 5000 -RADZ SCT009
                        BKN017 OVC043 18/17 Q1012 TEMPO BKN014=
201709051350 METAR COR EGLL 051350Z AUTO 21014KT 5000 -RADZ FEW014 SCT018
                        BKN023 19/16 Q1012 TEMPO BKN014=
201709051320 METAR COR EGLL 051320Z AUTO 21014KT 9999 SCT018 BKN032 20/16
                        Q1013 NOSIG=
201709051250 METAR COR EGLL 051250Z 21015KT 9999 SCT017 SCT019 BKN032
                        20/16 Q1013 NOSIG=
201709051220 METAR COR EGLL 051220Z 22013KT 9999 SCT015 BKN025 20/16 Q1013
                        NOSIG=
201709051150 METAR COR EGLL 051150Z 22013KT 9999 SCT017 BKN021 19/15 Q1013
                        NOSIG=
201709051120 METAR COR EGLL 051120Z 22013KT 9999 SCT018 BKN023 19/15 Q1013
                        NOSIG=
201709051050 METAR COR EGLL 051050Z 21011KT 9999 FEW015 BKN020 19/15 Q1013
                        NOSIG=
201709051020 METAR COR EGLL 051020Z 20010KT 9999 FEW012 SCT018 BKN026
                        19/16 Q1013 TEMPO BKN014=
201709050950 METAR COR EGLL 050950Z 21011KT 9999 FEW010 SCT018 BKN023
                        18/16 Q1014 TEMPO BKN014=
201709050920 METAR COR EGLL 050920Z 21011KT 9999 -RA SCT013 BKN019 18/15
                        Q1014 TEMPO RA BKN013=
201709050850 METAR COR EGLL 050850Z 20011KT 9999 SCT010 BKN013 19/16 Q1013
                        TEMPO 4000 RADZ BKN008=
201709050820 METAR COR EGLL 050820Z 21010KT 9999 SCT009 BKN013 18/15 Q1014
                        TEMPO -RADZ BKN009=
201709050750 METAR COR EGLL 050750Z 21007KT 9999 FEW006 SCT008 BKN010
                        16/15 Q1014 TEMPO BKN008=
201709050720 METAR COR EGLL 050720Z 21008KT 5000 -RADZ FEW005 SCT006 BKN008
                        16/15 Q1014 TEMPO 3000 RADZ=
201709050650 METAR COR EGLL 050650Z 21007KT 190V270 9000 -RADZ SCT009
                        BKN012 17/15 Q1014 NOSIG=
201709050620 METAR COR EGLL 050620Z 22012KT 9999 -RADZ FEW008 BKN011 16/15
                        Q1014 NOSIG=
201709050550 METAR COR EGLL 050550Z 23008KT 190V250 8000 -RADZ SCT009
                        BKN010 17/15 Q1014 NOSIG=
201709050520 METAR COR EGLL 050520Z AUTO 22006KT 7000 -RA BKN009 OVC015
                        17/15 Q1013 BECMG SCT009 BKN011=
201709050450 METAR COR EGLL 050450Z AUTO 21006KT 9999 BKN011 OVC018 17/15
                        Q1013 NOSIG=
201709050420 METAR COR EGLL 050420Z AUTO 21009KT 9999 BKN014 OVC019 17/14
                        Q1013 TEMPO SCT014 BKN019=
201709050350 METAR COR EGLL 050350Z AUTO 23006KT 9999 BKN012 OVC019 17/14
                        Q1014 NOSIG=
201709050320 METAR COR EGLL 050320Z AUTO 22006KT 9999 BKN012 OVC019 17/15
                        Q1014 NOSIG=
201709050250 METAR COR EGLL 050250Z AUTO 22009KT 9999 BKN011 OVC016 17/15
                        Q1014 NOSIG=
201709050220 METAR COR EGLL 050220Z AUTO 22007KT 9999 BKN010 OVC015 17/15
                        Q1014 NOSIG=
201709050150 METAR COR EGLL 050150Z AUTO 22008KT 9999 BKN010 OVC013 17/15
                        Q1015 TEMPO BKN009=
201709050120 METAR COR EGLL 050120Z AUTO 22008KT 9999 OVC010 17/15 Q1015
                        TEMPO BKN009=
201709050050 METAR COR EGLL 050050Z AUTO 22007KT 9999 OVC010 17/15 Q1015
                        TEMPO BKN009=
201709050020 METAR COR EGLL 050020Z AUTO 22008KT 9999 BKN011 OVC036 17/15
                        Q1015 NOSIG=
201709042350 METAR COR EGLL 042350Z AUTO 22007KT 9999 OVC011 17/15 Q1015
                        NOSIG=
201709042320 METAR COR EGLL 042320Z AUTO 22008KT 9999 BKN012 OVC039 18/15
                        Q1015 NOSIG=
201709042250 METAR COR EGLL 042250Z AUTO 21008KT 9999 BKN012 OVC040 18/16
                        Q1015 NOSIG=
201709042220 METAR COR EGLL 042220Z AUTO 21007KT 9999 OVC012 18/16 Q1015
                        NOSIG=
201709042150 METAR COR EGLL 042150Z AUTO 21009KT 170V250 9999 OVC012 18/16
                        Q1015 NOSIG=
201709042120 METAR COR EGLL 042120Z AUTO 22010KT 180V250 9999 BKN011 OVC046
                        18/15 Q1015 NOSIG=
201709042050 METAR COR EGLL 042050Z AUTO 22010KT 9999 BKN010 18/16 Q1015
                        TEMPO BKN009=
201709042020 METAR COR EGLL 042020Z AUTO 22009G19KT 9999 BKN010 OVC030
                        18/16 Q1015 TEMPO BKN009=
201709041950 METAR COR EGLL 041950Z AUTO 21010KT 180V240 9999 BKN011 OVC034
                        18/16 Q1014 NOSIG=
201709041920 METAR COR EGLL 041920Z AUTO 22009KT 180V250 9999 BKN014 BKN037
                        19/16 Q1014 TEMPO SCT014 BKN016=
201709041850 METAR COR EGLL 041850Z AUTO 21009KT 9999 SCT016 BKN040 19/16
                        Q1014 TEMPO BKN014=
201709041820 METAR COR EGLL 041820Z AUTO 20009KT 180V250 9999 FEW017 BKN044
                        19/16 Q1013 NOSIG=
201709041750 METAR COR EGLL 041750Z AUTO 20011KT 9999 FEW017 BKN044 20/17
                        Q1013 NOSIG=
201709041720 METAR COR EGLL 041720Z AUTO 19012KT 9999 SCT040 20/17 Q1013
                        NOSIG=
201709041650 METAR COR EGLL 041650Z AUTO 20012KT 160V240 9999 FEW015 SCT026
                        BKN043 21/17 Q1013 NOSIG=
201709041620 METAR COR EGLL 041620Z AUTO 21011KT 170V250 9999 SCT016 BKN025
                        BKN034 21/18 Q1013 NOSIG=
201709041550 METAR COR EGLL 041550Z AUTO 21009KT 170V240 9999 BKN017 BKN025
                        BKN034 21/18 Q1012 NOSIG=
201709041520 METAR COR EGLL 041520Z AUTO 22010KT 190V250 9999 SCT016 SCT022
                        BKN034 22/18 Q1012 NOSIG=
201709041450 METAR COR EGLL 041450Z AUTO 20009KT 160V250 9999 FEW022 21/18
                        Q1012 NOSIG=
201709041420 METAR COR EGLL 041420Z 23007KT 9999 -RA SCT015 SCT031 BKN043
                        21/18 Q1012 NOSIG=
201709041350 METAR COR EGLL 041350Z AUTO 22008KT 9999 -RA SCT014 BKN019
                        BKN026TCU 21/18 Q1012 NOSIG=
201709041320 METAR COR EGLL 041320Z AUTO 21006KT 160V260 9999 FEW024 SCT029
                        21/18 Q1012 NOSIG=
201709041250 METAR COR EGLL 041250Z AUTO 22008KT 190V250 9999 FEW011 BKN020
                        OVC027 21/18 Q1012 NOSIG=
201709041220 METAR COR EGLL 041220Z 22007KT 190V250 9999 FEW012 BKN017
                        OVC026 21/18 Q1012 TEMPO -RA BKN014=
201709041150 METAR COR EGLL 041150Z 22007KT 9999 FEW009 SCT013 BKN022
                        20/18 Q1012 NOSIG=
201709041120 METAR COR EGLL 041120Z 21007KT 160V250 9999 SCT009 BKN011
                        20/18 Q1012 BECMG BKN015=
201709041050 METAR COR EGLL 041050Z 18009KT 160V220 9999 SCT007 BKN012
                        20/18 Q1012 NOSIG=
201709041020 METAR COR EGLL 041020Z 19008KT 9999 FEW006 BKN010 19/17 Q1012
                        NOSIG=
201709040950 METAR COR EGLL 040950Z AUTO 20009KT 140V240 9999 BKN007 OVC019
                        19/17 Q1012 TEMPO 7000 -DZ BKN005=
201709040920 METAR COR EGLL 040920Z 18006KT 100V220 9999 FEW005 BKN006
                        18/17 Q1011 TEMPO 5000 DZ BKN005=
201709040850 METAR COR EGLL 040850Z 19006KT 100V260 9999 SCT006 BKN007
                        17/17 Q1011 TEMPO 5000 -DZ BKN005=
201709040820 METAR COR EGLL 040820Z 17005KT 110V210 9999 SCT005 BKN006
                        17/16 Q1011 TEMPO 4000 DZ BKN005=
201709040750 METAR COR EGLL 040750Z 16005KT 9999 SCT004 BKN006 17/16 Q1010
                        TEMPO 4000 DZ BKN005=
201709040720 METAR COR EGLL 040720Z 15005KT 9999 SCT004 BKN008 16/16 Q1010
                        TEMPO 4000 DZ BKN005=
201709040650 METAR COR EGLL 040650Z 16004KT 9000 FEW003 SCT006 BKN008
                        16/15 Q1010 REDZ TEMPO 4000 DZ BKN005=
201709040620 METAR COR EGLL 040620Z 15004KT 2900 DZ FEW002 SCT003 BKN005
                        16/15 Q1010 NOSIG=
201709040550 METAR COR EGLL 040550Z 15005KT 3100 -RADZ BKN003 BKN005 15/15
                        Q1010 TEMPO 5000 -DZ SCT003 BKN005=
201709040520 METAR COR EGLL 040520Z 13004KT 2800 -RADZ SCT004 BKN006 15/15
                        Q1009 TEMPO BKN003=
201709040450 METAR COR EGLL 040450Z 12005KT 5000 -RADZ SCT003 BKN005 15/15
                        Q1009 TEMPO 3000 DZ BKN003=
201709040420 METAR COR EGLL 040420Z 13005KT 6000 -DZ BKN003 OVC006 15/14
                        Q1009 TEMPO 3000 -RADZ SCT003 BKN006=
201709040350 METAR COR EGLL 040350Z AUTO 13006KT 4300 -DZ BKN003 OVC007
                        15/14 Q1009 TEMPO 6000 SCT003 BKN007=
201709040320 METAR COR EGLL 040320Z AUTO 13006KT 6000 -RA OVC003 15/14
                        Q1009 TEMPO 3500 -RADZ BKN005=
201709040250 METAR COR EGLL 040250Z 12007KT 4800 -DZ SCT003 BKN005 14/14
                        Q1009 REDZ TEMPO BKN003=
201709040220 METAR COR EGLL 040220Z 12006KT 3200 DZ FEW003 SCT004 BKN006
                        14/14 Q1010 RERA TEMPO BKN003=
201709040150 METAR COR EGLL 040150Z 13005KT 2300 RADZ SCT003 BKN006 14/14
                        Q1010 TEMPO BKN003=
201709040120 METAR COR EGLL 040120Z 12004KT 3600 RADZ SCT004 BKN009 14/14
                        Q1009 TEMPO BKN004=
201709040050 METAR COR EGLL 040050Z 13005KT 3500 -RADZ BKN006 14/14 Q1009
                        TEMPO BKN006=
201709040020 METAR COR EGLL 040020Z 13006KT 5000 -DZ SCT005 BKN010 14/14
                        Q1009 REDZ TEMPO 3000 DZ BKN004=
201709032350 METAR COR EGLL 032350Z 13007KT 3200 DZ SCT004 BKN009 14/13
                        Q1009 RERA TEMPO BKN004=
201709032320 METAR COR EGLL 032320Z AUTO 13006KT 3100 RADZ SCT004 BKN008
                        OVC021 14/13 Q1010 TEMPO 6000 -RADZ=
201709032250 METAR COR EGLL 032250Z AUTO 13007KT 3300 RADZ SCT007 BKN010
                        OVC016 14/13 Q1010 TEMPO 6000 -RADZ
                        BKN009=
201709032220 METAR COR EGLL 032220Z AUTO 14007KT 7000 -RA BKN009 OVC012
                        14/13 Q1010 TEMPO 3500 RADZ=
201709032150 METAR COR EGLL 032150Z AUTO 15008KT 5000 -RADZ OVC010 14/13
                        Q1010 TEMPO 3500 RADZ BKN009=
201709032120 METAR COR EGLL 032120Z AUTO 15010KT 9999 -RA OVC011 14/13
                        Q1010 NOSIG=
201709032050 METAR COR EGLL 032050Z AUTO 16010KT 9999 BKN011 OVC023 14/13
                        Q1010 NOSIG=
201709032020 METAR COR EGLL 032020Z AUTO 15009KT 9999 -RA BKN012 BKN023
                        14/13 Q1010 NOSIG=
201709031950 METAR COR EGLL 031950Z 15009KT 9999 -RA SCT007 BKN012 BKN020
                        14/13 Q1010 NOSIG=
201709031920 METAR COR EGLL 031920Z 15009KT 9999 -RA SCT008 BKN010 BKN024
                        13/13 Q1010 TEMPO 4000 RADZ=
201709031850 METAR EGLL 031850Z 15009KT 8000 -RA SCT009 BKN010 OVC015
                        13/12 Q1010=
201709031820 METAR COR EGLL 031820Z 15010KT 6000 -RADZ SCT010 BKN012 OVC018
                        13/12 Q1010 TEMPO 4000 RADZ=
201709031750 METAR COR EGLL 031750Z AUTO 15011KT 9999 -RA SCT012 BKN023
                        OVC049 13/12 Q1010 TEMPO 6000 -RA=
201709031720 METAR COR EGLL 031720Z 15011KT 8000 -RADZ SCT010 BKN013 OVC039
                        14/12 Q1010 TEMPO 6000 -RA=
201709031650 METAR COR EGLL 031650Z AUTO 16012KT 9000 -RA BKN011 BKN016
                        OVC043 14/12 Q1010 TEMPO 6000 -RA=
201709031620 METAR COR EGLL 031620Z AUTO 16012KT 9999 -RA BKN012 BKN018
                        BKN025 14/12 Q1011 TEMPO 6000 -RA=
201709031550 METAR COR EGLL 031550Z AUTO 15011KT 9999 -RA BKN016 BKN022
                        14/12 Q1011 TEMPO 6000 -RA BKN012=
201709031520 METAR COR EGLL 031520Z AUTO 16012KT 9999 -RA BKN024 BKN029
                        15/11 Q1011 TEMPO 6000 -RA=
201709031450 METAR COR EGLL 031450Z AUTO 16013KT 9999 -RA BKN027 15/10
                        Q1011 NOSIG=
201709031420 METAR COR EGLL 031420Z AUTO 16011KT 9999 -RA BKN031 OVC040
                        14/10 Q1012 NOSIG=
201709031350 METAR COR EGLL 031350Z AUTO 17012KT 9999 -RA OVC033 14/10
                        Q1012 NOSIG=
201709031320 METAR COR EGLL 031320Z AUTO 17015KT 9999 -RA OVC039 15/09
                        Q1012 NOSIG=
201709031250 METAR COR EGLL 031250Z AUTO 19014KT 9999 -RA BKN044 16/08
                        Q1012 NOSIG=
201709031220 METAR COR EGLL 031220Z AUTO 20011KT 9999 -RA OVC048 17/09
                        Q1012 NOSIG=
201709031150 METAR COR EGLL 031150Z AUTO 21011KT 9999 -RA FEW031 SCT046
                        17/12 Q1012 NOSIG=
201709031120 METAR COR EGLL 031120Z AUTO 20011KT 9999 SCT026 SCT035 BKN047
                        17/11 Q1012 NOSIG=
201709031050 METAR COR EGLL 031050Z AUTO 16011KT 9999 FEW025 SCT039 BKN049
                        18/12 Q1013 NOSIG=
201709031020 METAR COR EGLL 031020Z AUTO 16011KT 9999 FEW021 17/13 Q1013
                        NOSIG=
201709030950 METAR COR EGLL 030950Z AUTO 15009KT 9999 SCT038 17/13 Q1013
                        NOSIG=
201709030920 METAR COR EGLL 030920Z AUTO 15009KT 9999 NCD 16/12 Q1013
                        NOSIG=
201709030850 METAR COR EGLL 030850Z AUTO 16009KT 9999 NCD 16/12 Q1014
                        NOSIG=
201709030820 METAR COR EGLL 030820Z AUTO 16009KT 9999 NCD 16/12 Q1014
                        NOSIG=
201709030750 METAR COR EGLL 030750Z AUTO 14008KT 9999 NCD 15/12 Q1014
                        NOSIG=
201709030720 METAR COR EGLL 030720Z AUTO 13007KT 9999 NCD 14/11 Q1014
                        NOSIG=
201709030650 METAR COR EGLL 030650Z AUTO 13006KT 9999 NCD 13/11 Q1014
                        NOSIG=
201709030620 METAR COR EGLL 030620Z AUTO 13006KT 9000 NCD 11/10 Q1015
                        NOSIG=
201709030550 METAR COR EGLL 030550Z AUTO 12005KT 7000 NCD 10/09 Q1015
                        NOSIG=
201709030520 METAR COR EGLL 030520Z AUTO 13005KT 7000 NCD 11/10 Q1015
                        NOSIG=
201709030450 METAR COR EGLL 030450Z AUTO 13005KT 7000 NCD 11/10 Q1015
                        NOSIG=
201709030420 METAR COR EGLL 030420Z AUTO 13005KT 7000 NCD 10/09 Q1016
                        NOSIG=
201709030350 METAR COR EGLL 030350Z AUTO 13005KT 8000 NCD 10/10 Q1016
                        NOSIG=
201709030320 METAR COR EGLL 030320Z AUTO 13005KT 9999 NCD 10/09 Q1016
                        NOSIG=
201709030250 METAR COR EGLL 030250Z AUTO 14005KT 9999 NCD 11/10 Q1017
                        NOSIG=
201709030220 METAR COR EGLL 030220Z AUTO 14005KT 9999 NCD 11/10 Q1017
                        NOSIG=
201709030150 METAR COR EGLL 030150Z AUTO 15003KT 9999 NCD 11/10 Q1018
                        NOSIG=
201709030120 METAR COR EGLL 030120Z AUTO VRB03KT 9999 NCD 11/10 Q1018
                        NOSIG=
201709030050 METAR COR EGLL 030050Z AUTO 16003KT 9999 NCD 12/10 Q1018
                        NOSIG=
201709030020 METAR COR EGLL 030020Z AUTO 16003KT 9999 NCD 12/10 Q1018
                        NOSIG=
201709022350 METAR COR EGLL 022350Z AUTO 16004KT 9999 NCD 12/10 Q1019
                        NOSIG=
201709022320 METAR COR EGLL 022320Z AUTO 15004KT 9999 NCD 13/10 Q1019
                        NOSIG=
201709022250 METAR COR EGLL 022250Z AUTO 18005KT 9999 NCD 13/10 Q1019
                        NOSIG=
201709022220 METAR COR EGLL 022220Z AUTO 19006KT 9999 NCD 14/11 Q1019
                        NOSIG=
201709022150 METAR COR EGLL 022150Z AUTO 21007KT 9999 NCD 15/11 Q1019
                        NOSIG=
201709022120 METAR COR EGLL 022120Z AUTO 21008KT 190V260 9999 NCD 15/11
                        Q1019 NOSIG=
201709022050 METAR COR EGLL 022050Z AUTO 22007KT 9999 NCD 16/11 Q1019
                        NOSIG=
201709022020 METAR COR EGLL 022020Z AUTO 21009KT 9999 NCD 17/11 Q1019
                        NOSIG=
201709021950 METAR COR EGLL 021950Z AUTO 21009KT 9999 NCD 17/11 Q1019
                        NOSIG=
201709021920 METAR COR EGLL 021920Z AUTO 22008KT 9999 NCD 17/10 Q1019
                        NOSIG=
201709021850 METAR COR EGLL 021850Z AUTO 21007KT 9999 NCD 18/09 Q1019
                        NOSIG=
201709021820 METAR COR EGLL 021820Z AUTO 22008KT 9999 NCD 19/09 Q1019
                        NOSIG=
201709021750 METAR COR EGLL 021750Z AUTO 24006KT 200V260 9999 NCD 20/08
                        Q1020 NOSIG=
201709021720 METAR COR EGLL 021720Z AUTO 22006KT 150V260 9999 NCD 20/08
                        Q1020 NOSIG=
201709021650 METAR COR EGLL 021650Z AUTO 24007KT 200V280 9999 NCD 20/08
                        Q1020 NOSIG=
201709021620 METAR COR EGLL 021620Z AUTO 21006KT 150V240 9999 NCD 21/07
                        Q1020 NOSIG=
201709021550 METAR COR EGLL 021550Z AUTO 23005KT 150V270 9999 NCD 21/07
                        Q1020 NOSIG=
201709021520 METAR COR EGLL 021520Z AUTO 26005KT 200V300 9999 NCD 21/07
                        Q1020 NOSIG=
201709021450 METAR COR EGLL 021450Z AUTO 26005KT 220V360 9999 NCD 21/08
                        Q1021 NOSIG=
201709021420 METAR COR EGLL 021420Z AUTO VRB03KT 9999 NCD 21/08 Q1021
                        NOSIG=
201709021350 METAR COR EGLL 021350Z AUTO VRB03KT 9999 SCT048 20/08 Q1021
                        NOSIG=
201709021320 METAR COR EGLL 021320Z AUTO VRB02KT 9999 NCD 19/08 Q1022
                        NOSIG=
201709021250 METAR COR EGLL 021250Z AUTO VRB01KT 9999 BKN044 20/09 Q1022
                        NOSIG=
201709021220 METAR COR EGLL 021220Z AUTO 22004KT 180V310 9999 BKN040 BKN048
                        19/09 Q1022 NOSIG=
201709021150 METAR COR EGLL 021150Z AUTO VRB03KT 9999 BKN039 18/09 Q1022
                        NOSIG=
201709021120 METAR COR EGLL 021120Z AUTO VRB02KT 9999 BKN036 18/09 Q1023
                        NOSIG=
201709021050 METAR COR EGLL 021050Z AUTO VRB02KT 9999 SCT036 18/08 Q1023
                        NOSIG=
201709021020 METAR COR EGLL 021020Z AUTO VRB03KT 9999 NCD 18/09 Q1023
                        NOSIG=
201709020950 METAR COR EGLL 020950Z AUTO VRB02KT 9999 NCD 18/10 Q1023
                        NOSIG=
201709020920 METAR COR EGLL 020920Z AUTO VRB03KT 9999 NCD 17/09 Q1023
                        NOSIG=
201709020850 METAR COR EGLL 020850Z AUTO VRB03KT 9999 NCD 16/10 Q1023
                        NOSIG=
201709020820 METAR COR EGLL 020820Z AUTO VRB02KT 9999 NCD 15/10 Q1023
                        NOSIG=
201709020750 METAR COR EGLL 020750Z AUTO VRB03KT 9999 NCD 14/10 Q1023
                        NOSIG=
201709020720 METAR COR EGLL 020720Z AUTO VRB02KT 9999 NCD 13/10 Q1023
                        NOSIG=
201709020650 METAR COR EGLL 020650Z AUTO VRB03KT 9999 NCD 12/09 Q1023
                        NOSIG=
201709020620 METAR COR EGLL 020620Z VRB03KT CAVOK 11/09 Q1023 NOSIG=
201709020550 METAR COR EGLL 020550Z AUTO VRB02KT 9999 NCD 11/09 Q1023
                        NOSIG=
201709020520 METAR COR EGLL 020520Z AUTO 01003KT 9999 NCD 11/09 Q1023
                        NOSIG=
201709020450 METAR COR EGLL 020450Z AUTO 35003KT 9999 NCD 10/09 Q1023
                        NOSIG=
201709020420 METAR COR EGLL 020420Z AUTO VRB01KT 9999 NCD 10/09 Q1023
                        NOSIG=
201709020350 METAR COR EGLL 020350Z AUTO VRB02KT 9999 NCD 11/09 Q1023
                        NOSIG=
201709020320 METAR COR EGLL 020320Z AUTO 30002KT 9999 NCD 11/09 Q1023
                        NOSIG=
201709020250 METAR COR EGLL 020250Z AUTO 28001KT 9999 NCD 12/09 Q1023
                        NOSIG=
201709020220 METAR COR EGLL 020220Z AUTO VRB01KT 9999 NCD 12/09 Q1023
                        NOSIG=
201709020150 METAR COR EGLL 020150Z AUTO VRB03KT 9999 NCD 12/09 Q1023
                        NOSIG=
201709020120 METAR COR EGLL 020120Z AUTO 01004KT 9999 NCD 12/09 Q1023
                        NOSIG=
201709020050 METAR COR EGLL 020050Z AUTO VRB02KT 9999 NCD 13/09 Q1023
                        NOSIG=
201709020020 METAR COR EGLL 020020Z AUTO VRB02KT 9999 NCD 14/09 Q1023
                        NOSIG=
201709012350 METAR COR EGLL 012350Z AUTO VRB02KT 9999 NCD 14/09 Q1023
                        NOSIG=
201709012320 METAR COR EGLL 012320Z AUTO VRB03KT 9999 NCD 15/10 Q1023
                        NOSIG=
201709012250 METAR COR EGLL 012250Z AUTO VRB03KT 9999 NCD 15/09 Q1023
                        NOSIG=
201709012220 METAR COR EGLL 012220Z 32003KT CAVOK 15/09 Q1023 NOSIG=
201709012150 METAR COR EGLL 012150Z AUTO VRB03KT 9999 NCD 16/09 Q1023
                        NOSIG=
201709012120 METAR COR EGLL 012120Z AUTO VRB03KT 9999 NCD 17/09 Q1023
                        NOSIG=
201709012050 METAR COR EGLL 012050Z AUTO VRB03KT 9999 NCD 18/09 Q1023
                        NOSIG=
201709012020 METAR COR EGLL 012020Z AUTO 33004KT 300V010 9999 NCD 18/09
                        Q1022 NOSIG=
201709011950 METAR COR EGLL 011950Z AUTO VRB03KT 9999 NCD 19/08 Q1022
                        NOSIG=
201709011920 METAR COR EGLL 011920Z AUTO VRB03KT 9999 NCD 19/08 Q1022
                        NOSIG=
201709011850 METAR COR EGLL 011850Z AUTO VRB03KT 9999 NCD 19/07 Q1022
                        NOSIG=
201709011820 METAR COR EGLL 011820Z AUTO 35004KT 290V030 9999 NCD 19/07
                        Q1022 NOSIG=
201709011750 METAR COR EGLL 011750Z AUTO 03004KT 360V060 9999 NCD 19/08
                        Q1021 NOSIG=
201709011720 METAR COR EGLL 011720Z AUTO 02006KT 330V060 9999 NCD 20/07
                        Q1021 NOSIG=
201709011650 METAR COR EGLL 011650Z AUTO 35005KT 310V030 9999 NCD 20/07
                        Q1021 NOSIG=
201709011620 METAR COR EGLL 011620Z AUTO 31006KT 280V350 9999 NCD 20/08
                        Q1021 NOSIG=
201709011550 METAR COR EGLL 011550Z AUTO 31007KT 280V350 9999 NCD 21/08
                        Q1021 NOSIG=
201709011520 METAR COR EGLL 011520Z AUTO 31008KT 9999 NCD 20/08 Q1021
                        NOSIG=
201709011450 METAR COR EGLL 011450Z AUTO 32006KT 270V360 9999 NCD 20/07
                        Q1021 NOSIG=
201709011420 METAR COR EGLL 011420Z AUTO 33005KT 250V040 9999 NCD 21/07
                        Q1021 NOSIG=
201709011350 METAR COR EGLL 011350Z AUTO VRB04KT 9999 NCD 21/07 Q1021
                        NOSIG=
201709011320 METAR EGLL 011320Z AUTO 35006KT 300V040 9999 NCD 20/08 Q1021=
201709011250 METAR COR EGLL 011250Z AUTO 34006KT 280V040 9999 NCD 20/07
                        Q1022 NOSIG=
201709011220 METAR COR EGLL 011220Z AUTO 35005KT 310V050 9999 FEW049 20/08
                        Q1022 NOSIG=
201709011150 METAR COR EGLL 011150Z AUTO VRB05KT 9999 FEW042 20/08 Q1022
                        NOSIG=
201709011120 METAR COR EGLL 011120Z AUTO 02004KT 300V060 9999 SCT038 19/09
                        Q1022 NOSIG=
201709011050 METAR COR EGLL 011050Z AUTO 01004KT 320V130 9999 NCD 19/10
                        Q1022 NOSIG=
201709011020 METAR COR EGLL 011020Z AUTO 35004KT 290V090 9999 NCD 18/10
                        Q1022 NOSIG=
201709010950 METAR COR EGLL 010950Z AUTO 02005KT 320V070 9999 NCD 17/10
                        Q1022 NOSIG=
201709010920 METAR COR EGLL 010920Z AUTO VRB03KT 9999 NCD 17/10 Q1022
                        NOSIG=
201709010850 METAR COR EGLL 010850Z AUTO 04004KT 360V070 9999 NCD 16/10
                        Q1022 NOSIG=
201709010820 METAR COR EGLL 010820Z AUTO VRB02KT 9999 NCD 15/10 Q1022
                        NOSIG=
201709010750 METAR COR EGLL 010750Z AUTO VRB02KT 9999 NCD 14/10 Q1022
                        NOSIG=
201709010720 METAR COR EGLL 010720Z AUTO VRB03KT 9999 NCD 13/09 Q1021
                        NOSIG=
201709010650 METAR EGLL 010650Z AUTO VRB02KT 9999 NCD 12/09 Q1021=
201709010620 METAR EGLL 010620Z AUTO VRB02KT 9999 NCD 12/09 Q1021=
201709010550 METAR COR EGLL 010550Z AUTO VRB02KT 9999 NCD 11/09 Q1021
                        NOSIG=
201709010520 METAR COR EGLL 010520Z AUTO 36002KT 9999 NCD 11/09 Q1021
                        NOSIG=
201709010450 METAR EGLL 010450Z AUTO 35003KT 9999 NCD 11/09 Q1020=
201709010420 METAR COR EGLL 010420Z AUTO VRB02KT 9999 NCD 11/09 Q1020
                        NOSIG=
201709010350 METAR COR EGLL 010350Z AUTO 36002KT 9999 NCD 11/10 Q1020
                        NOSIG=
201709010320 METAR COR EGLL 010320Z AUTO VRB01KT 9999 NCD 11/10 Q1020
                        NOSIG=
201709010250 METAR COR EGLL 010250Z AUTO VRB02KT 9999 NCD 11/10 Q1020
                        NOSIG=
201709010220 METAR COR EGLL 010220Z AUTO VRB01KT 9999 NCD 12/10 Q1020
                        NOSIG=
201709010150 METAR COR EGLL 010150Z AUTO 35002KT 9999 NCD 12/10 Q1019
                        NOSIG=
201709010120 METAR COR EGLL 010120Z AUTO 31002KT 9999 NCD 12/10 Q1019
                        NOSIG=
201709010050 METAR COR EGLL 010050Z AUTO 20003KT 9999 NCD 12/10 Q1019
                        NOSIG=
201709010020 METAR COR EGLL 010020Z AUTO 19002KT 9999 NCD 12/10 Q1019
                        NOSIG=

</pre>

</body>
</html>
